################################################################################
# Query made at 04/17/2022 11:25:38 UTC
# Country like Zamb*
# Time interval: from 03/01/2008 05:30  to 03/31/2008 05:30  UTC
################################################################################

################################################################################
#  SYNOPS from 67413, Mbala (Zambia) | 08-51S | 031-20E | 1673 m
################################################################################
200803280600 AAXX 28064 67413 12980 70000 10179 20157 48548 60104 8707/
                   333 10255 20163 58011 87459=
200803260600 AAXX 26064 67413 32480 81217 10175 20151 48513 8257/
                   333 10256 20158 59012 82615 88759=
200803130600 AAXX 13064 67413 11980 70000 10175 20151 48531 60064 75022 8707/
                   333 10270 20180 58007 87459=
200803110600 AAXX 11064 67413 32684 30903 10250 20206 48526 81231
                   333 10300 20192 59013 81830 83362 81080=
200803060600 AAXX 06064 67413 12580 61411 10205 20157 48509 69904 81231
                   333 10270 20155 59008 81820 82359=

################################################################################
#  SYNOPS from 67441, Mwinilunga (Zambia) | 11-45S | 024-26E | 1361 m
################################################################################
200803280600 AAXX 28064 67441 32980 70000 10175 20167 48538 8703/
                   333 10275 20158 58006 87360=
200803270900 AAXX 27094 67441 42680 41105 10255 20163 48588 84130
                   333 58006 84840 81362=
200803270600 AAXX 27064 67441 32980 12503 10165 20152 48532 81030
                   333 10280 20125 59019 81360=
200803250600 AAXX 25064 67441 12980 40000 10175 20159 48540 69904 84030
                   333 10260 20130 59020 84360=
200803200900 AAXX 20094 67441 42580 22930 10235 20182 48548 83100
                   333 58003 83825=
200803200600 AAXX 20064 67441 11480 40000 10175 20168 48549 69904 72844 84100
                   333 10250 20142 59010 84815=
200803190600 AAXX 19064 67441 11970 80000 10183 20178 48559 60024 76162 8807/
                   333 10255 20175 58009 88460=
200803181200 AAXX 18124 67441 41650 73304 10228 20186 48521 72162 8327/
                   333 58025 83830 83360=
200803170600 AAXX 17064 67441 12480 70000 10185 20177 48576 60194 81140
                   333 10245 20145 58033 81818 87360=
200803140900 AAXX 14094 67441 42580 70000 10210 20179 48557 8117/
                   333 5//// 81825 87360=
200803110600 AAXX 11064 67441 11/04 90000 10177 20173 48536 69904 74744 89///
                   333 10260 20155 59003=
200803070900 AAXX 07094 67441 42980 81505 10220 20174 48555 8807/
                   333 58022 88460=
200803070600 AAXX 07064 67441 11960 70000 10175 20175 48549 60274 72166 8707/
                   333 10275 20158 58025 87260=
200803060600 AAXX 06064 67441 12980 21503 10195 20172 48525 69904 81034
                   333 10280 20147 59006 81360 81080=
200803050600 AAXX 05064 67441 11980 71504 10175 20175 48531 69904 72844 87030
                   333 10270 20142 89022 87360=
200803040900 AAXX 04094 67441 42580 71010 10230 20168 48562 82130
                   333 58004 82820 87360=

################################################################################
#  SYNOPS from 67461, Mansa (Zambia) | 11-06S | 028-51E | 1382 m
################################################################################
200803280600 AAXX 28064 67461 32480 30903 10189 20169 48521 81231
                   333 10280 20120 59029 81810 82362 81080=
200803271200 AAXX 27124 67461 42680 41606 10262 20151 48492 83201
                   333 58002 83840 83080=
200803270900 AAXX 27094 67461 42680 61206 10244 20155 48511 84208
                   333 59006 84830 85380=
200803270600 AAXX 27064 67461 32980 60903 10192 20159 48503 80008
                   333 10279 20130 59008 86280=
200803250900 AAXX 25094 67461 42580 30902 10245 20163 48523 83500
                   333 59020 83630=
200803250600 AAXX 25064 67461 32580 21002 10197 20181 48515 81531
                   333 10265 20142 59013 81620 81362 82080=
200803190600 AAXX 19064 67461 12580 71601 10178 20172 48537 60184 70222 82538
                   333 10265 20182 58010 82620 84362 87280=
200803140900 AAXX 14094 67461 42580 72702 10244 20184 48513 8217/
                   333 59001 82830 87462=
200803130900 AAXX 13094 67461 42580 72702 10222 20181 48520 8327/
                   333 58010 83820 87461=
200803130600 AAXX 13064 67461 11580 80902 10185 20177 48516 60054 76062 8257/
                   333 10287 20168 58006 88461=
200803110600 AAXX 11064 67461 32580 70000 10185 20177 48511 8257/
                   333 10290 20180 59003 82620 87461=
200803070600 AAXX 07064 67461 12580 60902 10192 20186 48516 60114 83538
                   333 10284 20157 58018 83620 85362 86280=
200803050600 AAXX 05064 67461 32580 41103 10206 20188 48510 83538
                   333 10275 20148 59022 83620 81362 85280=
200803040900 AAXX 04094 67461 42680 60904 10255 20169 48530 85202
                   333 59003 85830 82080=

################################################################################
#  SYNOPS from 67475, Kasama (Zambia) | 10-13S | 031-08E | 1382 m
################################################################################
200803200900 AAXX 20094 67475 42580 71412 10224 20176 48528 86832
                   333 59008 84820 82624 84362 82080=
200803200600 AAXX 20064 67475 11375 71204 10179 20177 48531 60154 72842 8663/
                   333 10184 20153 59004 86707 87361=

################################################################################
#  SYNOPS from 67477, Mpika (Zambia) | 11-54S | 031-26E | 1400 m
################################################################################
200803260600 AAXX 26064 67477 32480 41007 10195 20146 48514 84100
                   333 10251 20144 59005 84818=
200803070600 AAXX 07064 67477 32480 61105 10280 20173 48516 83831
                   333 10260 20163 58002 83814 81361 84080=

################################################################################
#  SYNOPS from 67531, Zambezi (Zambia) | 13-32S | 023-07E | 1077 m
################################################################################
200803270600 AAXX 27064 67531 32980 11002 10205 20165 48/// 81030
                   333 10311 20135 59012 81363=
200803250900 AAXX 25094 67531 42680 21304 10273 20170 48/// 82100
                   333 5//// 82843=
200803250600 AAXX 25064 67531 32980 10903 10210 20171 48/// 80001
                   333 10305 20147 59019 81082=
200803200900 AAXX 20094 67531 42680 60903 10275 20198 48/// 86200
                   333 59021 86820=
200803200600 AAXX 20064 67531 11480 11201 10219 20193 48/// 69924 70240 81170
                   333 10276 20161 59019 81812 81363=
200803190600 AAXX 19064 67531 11380 83104 10190 20186 48/// 60414 72166 8372/
                   333 10276 20172 58020 83706 88460=
200803170600 AAXX 17064 67531 12380 70604 10207 20194 48/// 60024 8563/
                   333 10288 20172 58003 85706 87361=
200803140900 AAXX 14094 67531 41360 83603 10200 20192 48/// 76265 8572/
                   333 58020 85706 88460=
200803130900 AAXX 13094 67531 42580 63104 10249 20176 48/// 83131
                   333 5//// 83829 81363 83083=
200803130600 AAXX 13064 67531 32480 73605 10211 20185 48/// 81132
                   333 10273 20170 58005 81811 86363 82082=
200803110600 AAXX 11064 67531 11980 70000 10200 20193 48/// 69934 72162 8707/
                   333 10290 20197 59001 87363=
200803070900 AAXX 07094 67531 42480 70000 10230 20186 48/// 84578
                   333 58027 84619 83360 85280=
200803070600 AAXX 07064 67531 11380 80000 10192 20186 48/// 60064 70265 8767/
                   333 10307 20175 58029 87707 88460=
200803060600 AAXX 06064 67531 32980 11460 10221 20180 48/// 80001
                   333 10304 20165 59006 81082=
200803050600 AAXX 05064 67531 32980 31702 10189 20181 48/// 83030
                   333 10274 20160 59020 83363=
200803040900 AAXX 04094 67531 42580 71308 10222 20173 48/// 8252/
                   333 58004 82620 87460=

################################################################################
#  SYNOPS from 67551, Solwezi (Zambia) | 12-11S | 026-23E | 1386 m
################################################################################
200803280600 AAXX 28064 67551 32980 20000 10174 20134 48521 81031
                   333 10270 20116 58014 81362 81082=
200803190600 AAXX 19064 67551 11380 70000 10160 20160 48529 60244 76166 8657/
                   333 10268 20155 58010 86708 87362=
200803130600 AAXX 13064 67551 12380 70000 10172 20164 48511 60174 8457/
                   333 10285 20164 58001 84607 87362=
200803110600 AAXX 11064 67551 11357 70000 10185 20177 48505 60024 74042 8677/
                   333 10261 20171 59016 86608 87362=
200803060600 AAXX 06064 67551 32380 71203 10180 20164 48506 81508
                   333 10282 20160 59006 81608 87280=

################################################################################
#  SYNOPS from 67561, Ndola (Zambia) | 13-00S | 028-39E | 1269 m
################################################################################
200803270600 AAXX 27064 67561 32980 10000 10176 20144 48511 81030
                   333 10271 20127 59001 81361=
200803260600 AAXX 26064 67561 41970 70000 10163 20156 48502 70511 87030
                   333 59007 87360=
200803250600 AAXX 25064 67561 31470 10804 10195 20165 48521 70500 81101
                   333 10286 20134 59021 81818 81080=
200803200600 AAXX 20064 67561 11480 30000 10185 20177 48530 60074 72840 83230
                   333 10275 20150 59009 83810 81360=
200803190600 AAXX 19064 67561 11470 70602 10191 20176 48531 60024 70562 8153/
                   333 10280 20168 58011 81611 87360=
200803180600 AAXX 18064 67561 12380 71103 10191 20177 48529 60514 83630
                   333 10189 20170 59001 86361
                   555 00/// 20003 91020=
200803170600 AAXX 17064 67561 11170 82503 10186 20183 48529 60034 76062 8877/
                   333 10300 20180 58012 88702=
200803130600 AAXX 13064 67561 11475 72506 10190 20174 48515 60024 72165 8658/
                   333 10280 58001 86610 87360=
200803110600 AAXX 11064 67561 12480 72002 10200 20177 48507 60034 81138
                   333 10255 20170 59005 81811 83361 86280=
200803070900 AAXX 07094 67561 42580 50806 10265 20184 48528 85200
                   333 58009 85830=
200803070600 AAXX 07064 67561 32480 50904 10200 20177 48520 81108
                   333 10288 20169 58010 81815 85280=
200803060600 AAXX 06064 67561 32480 71008 10205 20168 48511 82208
                   333 10286 20160 59007 82810 87280=
200803051200 AAXX 05124 67561 42680 51206 10272 20173 48487 85260
                   333 59026 85840 81361=
200803050600 AAXX 05064 67561 12380 30905 10210 20180 48518 69904 82101
                   333 10286 20150 59016 82816 81080=

################################################################################
#  SYNOPS from 67563, Kafironda (Zambia) | 12-36S | 028-07E | 1243 m
################################################################################
200803270600 AAXX 27064 67563 32980 00902 10187 20160 48///
                   333 10285 20110 59007=
200803250600 AAXX 25064 67563 12980 10000 10195 20180 48/// 69904 80001
                   333 10296 20118 59020 81080=
200803130600 AAXX 13064 67563 12380 72004 10200 20180 48/// 60014 8467/
                   333 10285 20179 58004 84708 87358=
200803070900 AAXX 07094 67563 42580 61802 10253 20186 48/// 86208
                   333 58010 86840 87280=
200803060600 AAXX 06064 67563 32480 51502 10210 20180 48/// 85530
                   333 10//0 20150 58012 85610 81358=

################################################################################
#  SYNOPS from 67571, Serenje (Zambia) | 13-14S | 030-13E | 1384 m
################################################################################
200803280600 AAXX 28064 67571 32484 61506 10185 20124 48511 81131
                   333 10262 20144 58002 81816 82360 85080=
200803110600 AAXX 11064 67571 12484 70000 10190 20166 48501 60014 82131
                   333 10252 20143 59007 82818 85360 86080=

################################################################################
#  SYNOPS from 67580, Msekera (Zambia) | 13-39S | 032-34E | 1025 m
################################################################################
200803280600 AAXX 28064 67580 32984 11603 10212 20162 48/// 81030
                   333 10287 20152 58005 81361=
200803250600 AAXX 25064 67580 32584 11603 10216 20152 48/// 81131
                   333 10290 20145 59021 81820 81360 81080=
200803200900 AAXX 20094 67580 42684 62005 10254 20184 48/// 85101
                   333 59012 85850 82080=
200803190600 AAXX 19064 67580 12482 21802 10199 20172 48/// 60014 8257/
                   333 10267 20176 58007 82620 87460=
200803130600 AAXX 13064 67580 12982 733// 10222 20196 48/// 60164 8707/
                   333 10261 20182 58000 87460=
200803110600 AAXX 11064 67580 32780 60000 10230 20201 48/// 81038
                   333 10276 20166 59018 81360 83080=
200803070900 AAXX 07094 67580 42684 71003 10268 20186 48/// 86208
                   333 58010 86840 87280=

################################################################################
#  SYNOPS from 67581, Chipata (Zambia) | 13-33S | 032-35E | 1028 m
################################################################################
200803280600 AAXX 28064 67581 32984 11206 11206 20127 48527 58005 81360=
200803271200 AAXX 27124 67581 42684 52103 10260 20128 48503 85103
                   333 58000 85845=
200803270900 AAXX 27094 67581 42684 11901 10257 20137 48521 81100
                   333 59005 81840=
200803270600 AAXX 27064 67581 32984 01204 10221 20140 48521
                   333 10280 20166 59003=
200803250900 AAXX 25094 67581 42680 50903 10218 20112 48529 85100
                   333 59019 85840=
200803250600 AAXX 25064 67581 32984 31601 10221 20160 48531 81032
                   333 10290 20165 59019 81360 82080=
200803200600 AAXX 20064 67581 12582 30902 10230 20162 48542 69904 81150
                   333 10262 20175 59009 81820 82362=
200803190600 AAXX 19064 67581 11482 71206 10215 20175 48548 69914 72162 8157/
                   333 10262 20181 58006 81618 87460=
200803170600 AAXX 17064 67581 12584 71205 10231 20196 48537 60364 85108
                   333 10280 20189 58011 85824 86280=
200803130600 AAXX 13064 67581 12684 73406 10220 20198 48520 8113/
                   333 10288 20179 58001 81830 87361=
200803110600 AAXX 11064 67581 12684 20000 10225 20190 48514 81130
                   333 10268 20175 59020 81830 81360=
200803050600 AAXX 05064 67581 12684 31602 10225 20189 48520 60024 81130
                   333 10290 20185 59016 81830 83362=

################################################################################
#  SYNOPS from 67583, Lundazi (Zambia) | 12-17S | 033-12E | 1143 m
################################################################################
200803270600 AAXX 27064 67583 32980 11205 10220 20157 81031
                   333 10270 20139 59005 81362 81080=
200803250600 AAXX 25064 67583 32980 01704 10210 20167 48///
                   333 10290 20148 5////=
200803200900 AAXX 20094 67583 42680 61603 10250 20187 85232
                   333 59011 85845 81360 81080=
200803190600 AAXX 19064 67583 11980 71803 10189 20175 48/// 60154 72162 81037
                   333 10220 20175 58006 81360 87280=
200803130600 AAXX 13064 67583 32680 73602 10214 20193 48/// 83530
                   333 10280 20175 5//// 83630=
200803110600 AAXX 11064 67583 12980 31801 10224 20186 48/// 69904 81802
                   333 10260 20170 59018 81360 83080=

################################################################################
#  SYNOPS from 67599, Mfuwe (Zambia) | 13-16S | 031-56E | 568 m
################################################################################
200803280600 AAXX 28064 67599 32980 40000 10230 20179 48536 84030
                   333 10//0 20//0 58003 84360=
200803271500 AAXX 27154 67599 42680 32703 10310 20176 48517 82230
                   333 58006 82835 81360=
200803270600 AAXX 27064 67599 32980 00000 10215 20160 48526
                   333 10325 20//0 59003=
200803261200 AAXX 26124 67599 42680 31803 10310 20176 48525 83200
                   333 59003 83835=
200803260600 AAXX 26064 67599 32980 00000 10210 20//0 48529
                   333 10320 20//0 59008 5555 00/// 20000=
200803250600 AAXX 25064 67599 32980 10000 10224 20186 48539 81030
                   333 10326 20/// 59019 81360=
200803200900 AAXX 20094 67599 42580 50000 10285 20198 48563 70222 85200
                   333 59012 85825=
200803190600 AAXX 19064 67599 12980 52104 10220 20205 48548 60164 85030
                   333 10279 20//0 58012 85359=
200803181500 AAXX 18154 67599 41559 70000 10219 20213 48514 79596
                   333 58007 83920 87460=
200803181200 AAXX 18124 67599 41580 72407 10240 20220 48520 8297/
                   333 58002 829// 81820 87460=
200803180900 AAXX 18094 67599 42580 70000 10270 20206 48558 8313/
                   333 58012 83820 87360 91019=
200803180600 AAXX 18064 67599 12480 61906 10230 20209 48551 60094 8113/
                   333 10290 20//0 58015 81810 86360
                   555 00/// 20019 91019=
200803131500 AAXX 13154 67599 42980 72708 10285 20206 48512 83037
                   333 58024 83360 87280=
200803121200 AAXX 12124 67599 42580 50000 10310 20219 48512 60094 81930
                   333 58005 81925 84828 82360=
200803110600 AAXX 11064 67599 32480 21807 10240 20219 48523 81522
                   333 10310 20//0 59021 81610 82080=
200803101200 AAXX 10124 67599 41580 72207 10260 20201 48533 70252 8197/
                   333 58017 81920 83822 87460=
200803060600 AAXX 06064 67599 12980 40000 10235 20206 48530 69904 70122 83032
                   333 10315 20//0 59004 83360 83080=
200803030900 AAXX 03094 67599 42580 60708 10286 20213 48566 83138
                   333 58008 829// 83822 84360 86280=
200803030600 AAXX 03064 67599 12480 71304 10244 20215 48559 60074 82188
                   333 10300 20//0 58012 82811 84360 87280=

################################################################################
#  SYNOPS from 67633, Mongu (Zambia) | 15-15S | 023-09E | 1052 m
################################################################################
200803280600 AAXX 28064 67633 32982 20901 10210 20136 48506 82030
                   333 10303 20172 58001=
200803260600 AAXX 26064 67633 32982 30903 10220 20157 48521 83030
                   333 10320 20180 58000 83380=
200803190600 AAXX 19064 67633 11582 70603 10204 20191 48537 60244 72166 8253/
                   333 10290 20194 58026 82620 84360=
200803181200 AAXX 18124 67633 42682 60307 10275 20178 48521 85232
                   333 58011 81935 83835 83361 86280=
200803110600 AAXX 11064 67633 12982 70902 10220 20198 48502 60064 8707/
                   333 10287 20197 59009 87460=
200803070600 AAXX 07064 67633 32982 50610 10225 20179 48528 83038
                   333 10322 20190 58019 83360 85280=
200803050600 AAXX 05064 67633 32982 70905 10225 20188 48590 84032
                   333 10288 20180 59021 84361 83080=

################################################################################
#  SYNOPS from 67641, Kaoma (Zambia) | 14-48S | 024-48E | 1213 m
################################################################################
200803250600 AAXX 25064 67641 32982 10000 10176 20166 48506 81030
                   333 10304 20150 59011=
200803190600 AAXX 19064 67641 11582 73602 10200 20188 48528 60064 72056 8653/
                   333 10285 20188 58020 86620 84360=
200803130900 AAXX 13094 67641 42683 63702 10234 20178 48506 83138
                   333 5//// 83830 82360 85280=
200803110600 AAXX 11064 67641 12582 60000 10205 20193 48501 60014 82530
                   333 10249 20190 59004 82520 86360=
200803050600 AAXX 05064 67641 32982 50602 10217 20187 48508 84032
                   333 10275 20166 59017 84360 81080=

################################################################################
#  SYNOPS from 67655, Mumbwa (Zambia) | 15-04S | 027-11E | 1216 m
################################################################################
200803270600 AAXX 27064 67655 32780 10503 10196 20149 48524 81030
                   333 10271 20152 59003 81356=
200803110600 AAXX 11064 67655 12380 30102 10211 20184 48523 60074 82531
                   333 10256 20165 59005 82610 82356 83077=

################################################################################
#  SYNOPS from 67659, Kafue Polder (Zambia) | 15-46S | 027-55E | 978 m
################################################################################
200803110600 AAXX 11064 67659 32980 30000 10220 20201 48/// 80001
                   333 10310 20/// 59018 83080=

################################################################################
#  SYNOPS from 67663, Kabwe (Zambia) | 14-27S | 028-28E | 1206 m
################################################################################
200803260600 AAXX 26064 67663 32980 60904 10197 20165 48505 86031
                   333 10242 20157 58007 86360 82080=
200803130600 AAXX 13064 67663 11375 72801 10184 20178 48581 60014 76166 8267/
                   333 10292 20177 58012 82707 87460=
200803040900 AAXX 04094 67663 42682 60913 10262 20189 48544 83138
                   333 58007 83830 82360 86280=

################################################################################
#  SYNOPS from 67665, Lusaka Internationalairport (Zambia) | 15-19S | 028-27E | 1152 m
################################################################################
200803301800 AAXX 30184 67665 42880 11502 10163 20//0 48523 81030
                   333 58005 81358=
200803301500 AAXX 30154 67665 42780 11003 10244 20106 48519 81100
                   333 58002 81850=
200803301200 AAXX 30124 67665 42680 11007 10248 20120 48528 81100
                   333 58007 81840=
200803291200 AAXX 29124 67665 42680 40803 10253 20141 48522 84200
                   333 58005 84835=
200803290600 AAXX 29064 67665 32980 01106 10185 20134 48536
                   333 10264 20114 58004 91021=
200803290400 AAXX 29044 67665 42980 10000 10121 20//0 48514 81030
                   333 58007 81360=
200803290000 AAXX 29004 67665 42980 00000 10130 20/// 48511
                   333 58009=
200803281800 AAXX 28184 67665 42880 21201 10179 20//0 48512 82030
                   333 10264 58004 82359=
200803281200 AAXX 28124 67665 42680 50604 10251 20144 48516 85200
                   333 59001 85845=
200803280600 AAXX 28064 67665 32980 10000 10178 20129 48529 81030
                   333 10260 20112 58006 81359=
200803272100 AAXX 27214 67665 42980 00000 10153 20//0 48512
                   333 58007=
200803271800 AAXX 27184 67665 42980 00000 10165 20//0 48509
                   333 10260 58008=
200803271200 AAXX 27124 67665 42680 51103 10255 20138 48518 85100
                   333 58004 85845=
200803270900 AAXX 27094 67665 42680 50804 10233 20145 48529 85100
                   333 59003 85830=
200803270600 AAXX 27064 67665 32980 00905 10178 20149 48524
                   333 10268 20132 59001=
200803270400 AAXX 27044 67665 42980 10000 10134 20//0 48503 81030
                   333 59004 81359=
200803270300 AAXX 27034 67665 42980 10000 10138 20//0 48502 81030
                   333 59004 81359=
200803261200 AAXX 26124 67665 42680 50805 10255 20134 48514 85230
                   333 59006 85840 83360=
200803260600 AAXX 26064 67665 32480 21105 10197 20171 48527 81130
                   333 10239 20149 59010 81810 82360=
200803251200 AAXX 25124 67665 41680 61210 10271 20165 48522 71522 85230
                   333 59021 81935 85835 83360=
200803250900 AAXX 25094 67665 42580 70705 10227 20170 48542 85831
                   333 59022 85520 84820 83360 82080=
200803250600 AAXX 25064 67665 32380 60000 10188 20173 48537 81530
                   333 10269 20151 59018 81610 86360=
200803241200 AAXX 24124 67665 42680 61203 10253 20172 48540 86200
                   333 58003 81935 85835=
200803240900 AAXX 24094 67665 42580 51002 10235 20172 48563 84230
                   333 58010 84825 82360=
200803240600 AAXX 24064 67665 32980 11103 10178 20157 48553 81030
                   333 10270 20145 58010 81360=
200803231800 AAXX 23184 67665 42980 11302 10192 20188 48525 81030
                   333 58010 81360 555 10270=
200803231500 AAXX 23154 67665 42780 21003 10250 20150 48526 82200
                   333 58017 82850=
200803231200 AAXX 23124 67665 42680 51206 10262 20165 48538 85200
                   333 58018 85835=
200803230600 AAXX 23064 67665 32980 00000 10181 20174 48543
                   333 10269 20146 58021=
200803221200 AAXX 22124 67665 42680 50000 10247 20156 48519 85200
                   333 58003 85832=
200803220600 AAXX 22064 67665 42475 31475 10185 20162 48524 70511 81130
                   333 10268 20146 59005 81818 81360 91019=
200803220400 AAXX 22044 67665 42980 10000 10150 20//0 48507 81030
                   333 59009 81360=
200803220300 AAXX 22034 67665 42980 00000 10151 20//0 48586
                   333 59010=
200803220000 AAXX 22004 67665 42980 10000 10162 20//0 48508 81030
                   333 59004 81360=
200803212100 AAXX 21214 67665 42980 10000 10175 20/// 48519 81030
                   333 59003 81360=
200803211200 AAXX 21124 67665 42680 60904 10255 20153 48516 86200
                   333 59008 86837=
200803202100 AAXX 20214 67665 42980 20000 10172 20//0 48520 82030
                   333 59014 82360=
200803201200 AAXX 20124 67665 42680 60704 10252 20163 48524 86200
                   333 59015 86840 91018=
200803200900 AAXX 20094 67665 42580 60502 10227 20166 48544 86200
                   333 59016 86825=
200803200600 AAXX 20064 67665 32480 10602 10186 20171 48541 81530
                   333 10264 20145 59011 81610 81359=
200803200400 AAXX 20044 67665 42980 10000 10149 20//0 48528 81030
                   333 59011 81359=
200803200300 AAXX 20034 67665 42980 10000 10151 20//0 48521 81030
                   333 59012 81359=
200803191800 AAXX 19184 67665 42980 21204 10184 20//0 48529 82030
                   333 59007 82360=
200803190600 AAXX 19064 67665 32480 80708 10176 20165 48550 70322 885//
                   333 10235 20146 58010 88612=
200803181800 AAXX 18184 67665 42980 00000 10175 20//0 48535
                   333 10235 58014=
200803181500 AAXX 18154 67665 42680 61107 10217 20173 48523 85830
                   333 58011 82840 83642 82360=
200803181200 AAXX 18124 67665 41580 81006 10205 20195 48534 76022 8557/
                   333 58005 85625 88460=
200803180900 AAXX 18094 67665 42480 70808 10200 20189 48548 875//
                   333 59003 87612=
200803180600 AAXX 18064 67665 12380 81012 10185 20179 48542 60284 8573/
                   333 10284 20172 59006 85708 88359 91021=
200803171800 AAXX 17184 67665 41680 60000 10183 20183 48522 71322 81932
                   333 10284 81930 83360 81080=
200803171500 AAXX 17154 67665 41580 70701 10218 20207 48511 70222 85532
                   333 58018 85620 83360
                   555 10284=
200803171200 AAXX 17124 67665 41480 70703 10203 20203 48527 72162 8567/
                   333 58023 85710 87459=
200803170900 AAXX 17094 67665 41357 81207 10184 20184 48548 76366 8677/
                   333 58027 86707 88459=
200803170600 AAXX 17064 67665 11459 81803 10168 48548 61014 76166 8357/
                   333 10280 20168 58023 83610 88459=
200803161200 AAXX 16124 67665 41656 71513 10225 20219 48509 76122 8523/
                   333 58010 82835 85835 87360=
200803160600 AAXX 16064 67665 32470 70000 10205 20180 48529 70522 82572
                   333 10299 20169 58002 82612 85360 86080=
200803151200 AAXX 15124 67665 42680 60000 10274 20195 48504 85202
                   333 59004 85835 84080=
200803150600 AAXX 15064 67665 31365 70203 10201 20180 48527 72844 84632
                   333 10295 20166 58002 84709 83360 85079=
200803150400 AAXX 15044 67665 42980 60000 10170 20//0 48502 83032
                   333 58003 83360 86280=
200803150300 AAXX 15034 67665 42980 00000 10173 20//0 48505
                   333 58000=
200803150000 AAXX 15004 67665 42380 53002 10186 20//0 48510 85501
                   333 58007 85608 82080=
200803142100 AAXX 14214 67665 42980 40000 10203 20//0 48524 81931
                   333 58015 81959 84360 81080=
200803141200 AAXX 14124 67665 42680 70506 10277 20186 48508 84902
                   333 58006 81940 84842 87080=
200803140900 AAXX 14094 67665 42680 70000 10254 20198 48525 86232
                   333 58003 86830 81360 87080=
200803131800 AAXX 13184 67665 41880 10000 10210 20//0 48501 71312 81931
                   333 10285 58006 81958 81360 81080=
200803131500 AAXX 13154 67665 42680 70000 10240 20192 48493 84232
                   333 58012 84849 84360 86080=
200803131200 AAXX 13124 67665 42680 72804 10265 20191 49502 86232
                   333 58006 86845 83360 87080 91016=
200803130900 AAXX 13094 67665 42580 72803 10255 20164 48522 84272
                   333 59001 84830 83360 87080=
200803130600 AAXX 13064 67665 11360 72710 10191 20186 48517 76162 8197/
                   333 10294 20172 58002 85709 81950 87359=
200803130400 AAXX 13044 67665 41480 10183 20//0 48509 76022 8353/
                   333 58009 83610 87360=
200803130300 AAXX 13034 67665 42980 30000 10176 20//0 48504 83030
                   333 58004 83360=
200803121800 AAXX 12184 67665 41780 70000 10209 20//0 48496 71322 81932
                   333 10294 59004 81957 82360 85080=
200803121500 AAXX 12154 67665 42780 71102 10262 20199 48484 81932
                   333 59003 81956 83856 81360 85280=
200803121200 AAXX 12124 67665 42680 70000 10287 20187 48498 81932
                   333 59006 81940 85840 81359 83080=
200803120600 AAXX 12064 67665 32780 70000 10209 20188 48518 8197/
                   333 10300 20172 58000 81957 87360=
200803111800 AAXX 11184 67665 42780 70000 10213 20//0 48499 81932
                   333 10300 59008 81956 83360 86080=
200803111500 AAXX 11154 67665 42680 61005 10275 20194 48488 81932
                   333 59015 81950 83850 82360 84080
                   555 10300=
200803111200 AAXX 11124 67665 42680 60605 10280 20192 48503 86200
                   333 59008 81935 85835=
200803110900 AAXX 11094 67665 42580 60702 10258 20189 48526 86200
                   333 59010 86820=
200803110600 AAXX 11064 67665 32380 60102 10210 20195 48520 82632
                   333 10302 20195 59008 82609 81359 85280=
200803102100 AAXX 10214 67665 42780 51003 10187 20184 48513 81903
                   333 59001 81956 85080=
200803101200 AAXX 10124 67665 42680 60000 10244 20169 48537 85231
                   333 58000 85850 81160 81080=
200803100900 AAXX 10094 67665 42580 60504 10240 20187 48533 85202
                   333 59007 85825 83080=
200803070900 AAXX 07094 67665 41480 70802 10230 20176 48550 70322 875//
                   333 58001 87618=
200803070400 AAXX 07044 67665 42380 70000 10168 20//0 48521 86631
                   333 58009 86606 81360 82080=
200803070300 AAXX 07034 67665 42980 10000 10168 20//0 48517 80001
                   333 58006 81080=
200803070000 AAXX 07004 67665 42980 00000 10168 20/// 48517
                   333 58006=
200803061800 AAXX 06184 67665 42780 71103 10195 20//0 48516 70222 81932
                   333 10281 58018 81956 83360 86080=
200803061200 AAXX 06124 67665 42680 70805 10260 20172 48522 8523/
                   333 58008 85840 82360 91018=
200803060600 AAXX 06064 67665 32480 61001 10192 20178 85612
                   333 10279 20158 59001 85359 82080=
200803051500 AAXX 05154 67665 42770 40903 10254 20173 48499 84231
                   333 5//// 84856 81360 82080=
200803051200 AAXX 05124 67665 41670 60706 10256 20172 48514 86232
                   333 5//// 86840 82359 83080=
200803050900 AAXX 05094 67665 42570 61006 10240 20179 48534 85202
                   333 59020 85825 82080=
200803050600 AAXX 05064 67665 32470 40808 10200 20185 48531 84532
                   333 10300 20155 59016 84615 81360 82080=
200803050300 AAXX 05034 67665 42980 00000 10163 20//0 48510
                   333 59020 91018=
200803050000 AAXX 05004 67665 42680 20000 10173 20//0 48515 82261
                   333 59014 82830 82360 81080=
200803042100 AAXX 04214 67665 42680 20000 10175 20//0 48524 82261
                   333 59018 82830 82360 81080=
200803041800 AAXX 04184 67665 42680 40000 10200 20//0 48523 82231
                   333 59018 82830 83360 82080=
200803041500 AAXX 04154 67665 42460 70000 10221 10196 48514 81302
                   333 59005 81930 85830 83080 NOSIG=
200803040900 AAXX 04094 67665 42680 70808 10235 20158 48555 8783/
                   333 59008 85630 82832 84360=
200803040600 AAXX 04064 67665 32480 70804 10197 20178 48549 8753/
                   333 10268 20162 59002 87618 82359=
200803031800 AAXX 03184 67665 42780 61102 10195 20186 48539 81933
                   333 58014 81950 81360 86080=
200803031200 AAXX 03124 67665 41675 50807 10236 20183 48536 71592 84901
                   333 5//// 81930 84832 84080=
200803030900 AAXX 03094 67665 41480 70910 10224 20180 48560 75052 87800
                   333 5//// 86618 86818=
200803030600 AAXX 03064 67665 12480 61011 10217 20183 48553 60024 85631
                   333 10268 20182 58009 85608 82080=
200803030400 AAXX 03044 67665 42480 70000 10186 20//0 48540 875//
                   333 59009 87606=
200803030300 AAXX 03034 67665 42480 70000 10183 20//0 48543 84530
                   333 58008 84605 86360=
200803022100 AAXX 02214 67665 42780 30903 10184 20//0 48540 70222 81932
                   333 58008 81950 82360 82080=
200803021800 AAXX 02184 67665 42680 50000 10190 20//0 48525 70222 81932
                   333 10268 58013 81949 84360 83080 91019=
200803021500 AAXX 02154 67665 42680 51210 10213 20136 48512 70222 84932
                   333 58009 81945 83845 84360 84080 91018=
200803021200 AAXX 02124 67665 41659 70707 10254 20183 48522 78022 86930
                   333 59004 81930 85830 84360 91018=
200803011800 AAXX 01184 67665 41780 70000 10210 20//0 48515 71322 81902
                   333 10265 58016 81950 86080=
200803011500 AAXX 01154 67665 42680 71106 10225 20180 48506 70222 81902
                   333 58005 81940 83840 86080
                   555 10265=
200803011200 AAXX 01124 67665 42580 70909 10248 20178 48525 70322 81902
                   333 58006 81925 84830 85080 91019=
200803010600 AAXX 01064 67665 12380 61002 10202 20167 48542 60034 81532
                   333 10280 20169 81609 85360 83080=

################################################################################
#  SYNOPS from 67666, Lusaka City Airport (Zambia) | 15-25S | 028-19E | 1280 m
################################################################################
200803280600 AAXX 28064 67666 32980 01206 10195 20114 48520
                   333 10248 20105 58004=
200803270600 AAXX 27064 67666 32980 00914 10184 20130 48515
                   333 10258 20155 59003=
200803260600 AAXX 26064 67666 32480 31510 10205 20157 48520 82530
                   333 10257 20165 59006 82612 83364=
200803250600 AAXX 25064 67666 12480 71205 10185 20161 48524 69904 8257/
                   333 10250 20154 59027 82612 87459=
200803190600 AAXX 19064 67666 32380 80908 10170 20157 48541 8877/
                   333 10224 20155 58012 88708=
200803130600 AAXX 13064 67666 11370 82603 10188 20176 48508 60034 75022 885//
                   333 10285 20170 59013 88613=
200803070900 AAXX 07094 67666 42580 80912 10227 20170 48537 8538/
                   333 58012 83620 84824 87360=
200803060600 AAXX 06064 67666 32480 80912 10190 20165 48518 885//
                   333 10267 20170 59002 88610=

################################################################################
#  SYNOPS from 67667, Mount Makulu (Zambia) | 15-33S | 028-15E | 1213 m
################################################################################
200803270600 AAXX 27064 67667 32980 00903 10191 20138
                   333 10261 20139=
200803260600 AAXX 26064 67667 12580 50903 10175 20151 48513 8257/
                   333 10256 20158 59012 82615 88759=
200803250600 AAXX 25064 67667 31480 80000 10182 20171 48/// 70522 85365
                   333 10260 20140 5//// 85715 83360 88280=
200803200900 AAXX 20094 67667 42680 60901 10234 20166 86202
                   333 86830 81080=
200803190600 AAXX 19064 67667 32680 80903 10190 20163 48/// 70222 885//
                   333 10237 20155 88630=

################################################################################
#  SYNOPS from 67673, Petauke (Zambia) | 14-15S | 031-17E | 1035 m
################################################################################
200803200900 AAXX 20094 67673 42684 71204 10250 20174 48548 87200
                   333 59015 87835=
200803190600 AAXX 19064 67673 12580 71405 10192 20174 48554 60024 875//
                   333 10252 20176 58006 87620=
200803130600 AAXX 13064 67673 12580 73503 10225 20199 48524 69904 8759/
                   333 10300 20195 48005 81620 87362=
200803070900 AAXX 07094 67673 42684 71306 10270 20189 48548 86101
                   333 58012 86830 82080=

################################################################################
#  SYNOPS from 67741, Sesheke (Zambia) | 17-28S | 024-18E | 949 m
################################################################################
200803270600 AAXX 27064 67741 32980 00903 10180 20141 48512
                   333 10303 20104 59008=
200803250600 AAXX 25064 67741 32980 20102 10210 20195 48534 81032
                   333 10312 20149 59017 81362 81080=
200803130600 AAXX 13064 67741 12980 73501 10210 20197 48505 60014 83032
                   333 10321 20186 59004 83362 84080=
200803110600 AAXX 11064 67741 32980 40101 10226 20200 48514 84030
                   333 10308 20187 59006 84362=
200803060600 AAXX 06064 67741 32980 10904 10214 20193 48524 81030
                   333 10306 20165 59002 81363=

################################################################################
#  SYNOPS from 67743, Livingstone (Zambia) | 17-49S | 025-49E | 985 m
################################################################################
200803281200 AAXX 28124 67743 42780 31110 10291 20107 48514 83100
                   333 59004 83850=
200803280600 AAXX 28064 67743 32980 10000 10194 20140 48520 81030
                   333 10286 20140 58003 81360=
200803271200 AAXX 27124 67743 42780 20905 10285 20085 48509 82200
                   333 58001 82850=
200803270600 AAXX 27064 67743 32980 11104 10185 20135 48610 81030
                   333 20145 59007 81360=
200803261200 AAXX 26124 67743 42780 41007 10280 20126 42513 84100
                   333 59005 84850=
200803251200 AAXX 25124 67743 42780 21804 10286 20133 48521 82100
                   333 59016 82856=
200803250600 AAXX 25064 67743 32980 41208 10211 20173 48534 84030
                   333 10307 20180 58020 84360=
200803231200 AAXX 23124 67743 42680 61305 10294 20161 48533 84206
                   333 58014 84850 82360=
200803200600 AAXX 20064 67743 12980 00404 10198 20186 48537 60124
                   333 10261 20165 59015=
200803190600 AAXX 19064 67743 12380 71009 10195 20187 48549 69904 8763/
                   333 10260 20170 58014 87708 84360=
200803181200 AAXX 18124 67743 41675 61104 10240 20196 48530 72162 8317/
                   333 58012 83012 83830 86360 91018=
200803180600 AAXX 18064 67743 12380 81009 10187 20176 48536 69904 886//
                   333 10270 20182 58003 88708
                   555 00/// 91020=
200803171200 AAXX 17124 67743 41559 81310 10233 20192 48517 76052 8557/
                   333 58016 85625 86360 91017=
200803170600 AAXX 17064 67743 11380 80806 10190 20186 48533 60034 72162 8167/
                   333 10290 20184 58026 81707 85615 86460=
200803140900 AAXX 14094 67743 42680 71205 10268 20201 48518 70320 84202
                   333 58001 84845 85080=
200803131500 AAXX 13154 67743 42680 60605 10256 20192 48478 82163
                   333 58008 82850 86360 84080=
200803130900 AAXX 13094 67743 42680 62909 10272 20188 48517 84131
                   333 59001 84830 86080=
200803130600 AAXX 13064 67743 32480 73106 10219 20196 48503 82541
                   333 10320 20184 59003 82615 82360 87080=
200803110900 AAXX 11094 67743 42680 23002 10282 20177 48522 82130
                   333 59010 82835 81361=
200803110600 AAXX 11064 67743 32980 23203 10224 20184 48512 82080
                   333 10320 20184 59006 82360=
200803060600 AAXX 06064 67743 32980 20906 10210 20189 48525 82030
                   333 10311 20179 58000 82360=
200803051200 AAXX 05124 67743 42780 41411 10300 20142 48512 84100
                   333 58027 84856=
200803050900 AAXX 05094 67743 42780 31108 10273 20170 48535 83200
                   333 59026 81956 83856=
200803050600 AAXX 05064 67743 32980 01504 10216 20178 48527
                   333 10299 20191 59023=

################################################################################
#  SYNOPS from 67751, Magoye (Zambia) | 16-00S | 027-36E | 1018 m
################################################################################
200803280600 AAXX 28064 67751 32970 10000 10189 20145 81030
                   333 10279 20119 59006 81360=
200803270600 AAXX 27064 67751 32980 10904 10206 20170 81200
                   333 10281 20184 58003 81813=
200803200900 AAXX 20094 67751 42580 71412 10224 20176 48528 86832
                   333 59008 84820 82624 84362 82080=
200803130600 AAXX 13064 67751 32/80 73305 10210 20197 875//
                   333 10314 20175 59004 87611=
200803060600 AAXX 06064 67751 32480 10810 10219 20178 81101
                   333 10285 20167 58001 81818 81080=

################################################################################
#  SYNOPS from 67753, Choma (Zambia) | 16-50S | 027-04E | 1213 m
################################################################################
200803280600 AAXX 28064 67753 32980 00905 10182 20128
                   333 10260 20104=
200803271200 AAXX 27124 67753 42680 41005 10255 20134 48/// 84100
                   333 5//// 84830=
200803270600 AAXX 27064 67753 31380 10902 10177 20173 70244 81600
                   333 10260 20107 81708=
200803250600 AAXX 25064 67753 32480 30908 10190 20170 48/// 82530
                   333 10261 20138 5//// 82618 83360=
200803200600 AAXX 20064 67753 11480 60000 10180 20173 69904 70242 83530
                   333 10257 20137 83615 86369=
200803190600 AAXX 19064 67753 12480 70806 10181 20166 69904 875//
                   333 10242 20144 87615=
200803181200 AAXX 18124 67753 41580 60610 10218 20174 48/// 70262 83830
                   333 5//// 82618 83830 83360=
200803170600 AAXX 17064 67753 11958 80000 10165 20165 48/// 60724 76366 8807/
                   333 10270 20156 88459=
200803140900 AAXX 14094 67753 41680 50905 10250 20194 71722 85200
                   333 81935 85835=
200803130900 AAXX 13094 67753 42580 42006 10251 20190 845//
                   333 84625 82080=
200803130600 AAXX 13064 67753 32980 32703 10190 20186 83030
                   333 10290 20160 83260=
200803110600 AAXX 11064 67753 32980 33602 10205 20190 48/// 83030
                   333 10265 20153 5//// 83360=
200803040900 AAXX 04094 67753 42680 70608 10232 20176 48/// 87202
                   333 5//// 87830 83080=

################################################################################
#  SYNOPS from 67855, Lupaki (Zambia) | 17-03-00S | 024-46-00E | 1000 m
################################################################################
200803310000 AAXX 31004 67855 NIL=
200803301800 AAXX 30184 67855 NIL=
200803301200 AAXX 30124 67855 NIL=
200803300600 AAXX 30064 67855 NIL=
200803300000 AAXX 30004 67855 NIL=
200803291800 AAXX 29184 67855 NIL=
200803291200 AAXX 29124 67855 NIL=
200803290600 AAXX 29064 67855 NIL=
200803290000 AAXX 29004 67855 NIL=
200803281800 AAXX 28184 67855 NIL=
200803281200 AAXX 28124 67855 NIL=
200803280600 AAXX 28064 67855 NIL=
200803280000 AAXX 28004 67855 NIL=
200803271800 AAXX 27184 67855 NIL=
200803271200 AAXX 27124 67855 NIL=
200803270600 AAXX 27064 67855 NIL=
200803270000 AAXX 27004 67855 NIL=
200803261800 AAXX 26184 67855 NIL=
200803261200 AAXX 26124 67855 NIL=
200803260600 AAXX 26064 67855 NIL=
200803260000 AAXX 26004 67855 NIL=
200803251800 AAXX 25184 67855 NIL=
200803251200 AAXX 25124 67855 NIL=
200803250000 AAXX 25004 67855 NIL=
200803241800 AAXX 24184 67855 NIL=
200803241200 AAXX 24124 67855 NIL=
200803240600 AAXX 24064 67855 NIL=
200803240000 AAXX 24004 67855 NIL=
200803231800 AAXX 23184 67855 NIL=
200803231200 AAXX 23124 67855 NIL=
200803201800 AAXX 20184 67855 NIL=
200803201200 AAXX 20124 67855 NIL=
200803200600 AAXX 20064 67855 NIL=
200803200000 AAXX 20004 67855 NIL=
200803191200 AAXX 19124 67855 NIL=
200803190600 AAXX 19064 67855 NIL=
200803190000 AAXX 19004 67855 NIL=
200803181800 AAXX 18184 67855 NIL=
200803181200 AAXX 18124 67855 NIL=
200803180600 AAXX 18064 67855 NIL=
200803180000 AAXX 18004 67855 NIL=
200803171800 AAXX 17184 67855 NIL=
200803171200 AAXX 17124 67855 NIL=
200803170600 AAXX 17064 67855 NIL=
200803170000 AAXX 17004 67855 NIL=
200803161200 AAXX 16124 67855 NIL=
200803160600 AAXX 16064 67855 NIL=
200803160000 AAXX 16004 67855 NIL=
200803151800 AAXX 15184 67855 NIL=
200803151200 AAXX 15124 67855 NIL=
200803150600 AAXX 15064 67855 NIL=
200803150000 AAXX 15004 67855 NIL=
200803141800 AAXX 14184 67855 NIL=
200803141200 AAXX 14124 67855 NIL=
200803140600 AAXX 14064 67855 NIL=
200803140000 AAXX 14004 67855 NIL=
200803131800 AAXX 13184 67855 NIL=
200803131200 AAXX 13124 67855 NIL=
200803130600 AAXX 13064 67855 NIL=
200803130000 AAXX 13004 67855 NIL=
200803121800 AAXX 12184 67855 NIL=
200803121200 AAXX 12124 67855 NIL=
200803120600 AAXX 12064 67855 NIL=
200803120000 AAXX 12004 67855 NIL=
200803111800 AAXX 11184 67855 NIL=
200803111200 AAXX 11124 67855 NIL=
200803110600 AAXX 11064 67855 32980 00000 10172 20126 3//// 48///
                   333 20120 5////=
200803110000 AAXX 11004 67855 NIL=
200803101800 AAXX 10184 67855 NIL=
200803101200 AAXX 10124 67855 NIL=
200803100600 AAXX 10064 67855 NIL=
200803100000 AAXX 10004 67855 NIL=
200803091800 AAXX 09184 67855 NIL=
200803091200 AAXX 09124 67855 NIL=
200803090600 AAXX 09064 67855 NIL=
200803090000 AAXX 09004 67855 NIL=
200803081800 AAXX 08184 67855 NIL=
200803081200 AAXX 08124 67855 NIL=
200803080600 AAXX 08064 67855 NIL=
200803080000 AAXX 08004 67855 NIL=
200803071800 AAXX 07184 67855 NIL=
200803071200 AAXX 07124 67855 NIL=
200803070600 AAXX 07064 67855 NIL=
200803070000 AAXX 07004 67855 NIL=
200803061800 AAXX 06184 67855 NIL=
200803061200 AAXX 06124 67855 NIL=
200803060600 AAXX 06064 67855 NIL=
200803060000 AAXX 06004 67855 NIL=
200803051800 AAXX 05184 67855 NIL=
200803051200 AAXX 05124 67855 NIL=
200803050600 AAXX 05064 67855 NIL=
200803050000 AAXX 05004 67855 NIL=
200803041800 AAXX 04184 67855 NIL=
200803041200 AAXX 04124 67855 NIL=
200803040600 AAXX 04064 67855 32980 21001 10212 20174 3//// 48/// 80002
                   333 20175 5//// 82080=
200803040000 AAXX 04004 67855 NIL=
200803031800 AAXX 03184 67855 NIL=
200803031200 AAXX 03124 67855 NIL=
200803030600 AAXX 03064 67855 12980 10801 10197 20186 3//// 48/// 60024 80001
                   333 20174 5//// 81080=
200803030000 AAXX 03004 67855 NIL=
200803021800 AAXX 02184 67855 NIL=
200803021200 AAXX 02124 67855 NIL=
200803020600 AAXX 02064 67855 NIL=
200803020000 AAXX 02004 67855 NIL=
200803011800 AAXX 01184 67855 NIL=
200803011200 AAXX 01124 67855 NIL=
200803010600 AAXX 01064 67855 NIL=
