################################################################################
# Query made at 04/17/2022 11:59:16 UTC
# Country like Zamb*
# Time interval: from 11/01/2007 05:30  to 12/01/2007 05:30  UTC
################################################################################

################################################################################
#  SYNOPS from 67403, Kawambwa (Zambia) | 09-48S | 029-05E | 1323 m
################################################################################
200711300600 AAXX 30064 67403 32980 30902 10222 20184 48541 80001
                   333 10307 20144 59003 83080=
200711160600 AAXX 16064 67403 12980 70000 10207 2/184 48541 60044 87070
                   333 10298 20144 58004 87362=
200711050600 AAXX 05064 67403 12980 60901 10212 20174 48538 69904 86030
                   333 10236 20142 59006 86362=
200711020600 AAXX 02064 67403 12980 61202 10239 20156 48545 69904 82031
                   333 10312 20161 58004 82362 84080=

################################################################################
#  SYNOPS from 67413, Mbala (Zambia) | 08-51S | 031-20E | 1673 m
################################################################################
200711160600 AAXX 16064 67413 32980 51012 10225 20136 48529 85030
                   333 10285 20150 58006 85363=
200711090600 AAXX 09064 67413 12980 10908 10214 20161 48522 60064 81031
                   333 10285 20150 59014 81360 81080=
200711050600 AAXX 05064 67413 12580 60907 10190 20167 48528 60054 81500
                   333 10230 20141 58013 86620=

################################################################################
#  SYNOPS from 67441, Mwinilunga (Zambia) | 11-45S | 024-26E | 1361 m
################################################################################
200711300900 AAXX 30094 67441 42682 30310 10265 20183 48538 83100
                   333 59003 83835=
200711300600 AAXX 30064 67441 11975 40000 10210 20179 48544 60024 72844 84030
                   333 10280 20162 58004 84360=
200711290900 AAXX 29094 67441 42682 31010 10250 20174 48542 82130
                   333 59002 82830 81360=
200711290600 AAXX 29064 67441 12980 60000 10200 20177 48540 60064 86030
                   333 10290 20155 5//// 86360=
200711230900 AAXX 23094 67441 42481 70000 10225 20179 48557 8217/
                   333 58005 82820 87360=
200711230600 AAXX 23064 67441 12980 80000 10190 20175 48550 60094 8807/
                   333 10290 20165 58006 88360=
200711200600 AAXX 20064 67441 31960 70000 10190 20162 48545 72844 8703/
                   333 10260 20132 58000 87360=
200711130900 AAXX 13094 67441 42680 20609 10265 20174 48539 82130
                   333 58006 82835 81360=
200711130600 AAXX 13064 67441 12980 30000 10209 20182 48538 60084 82030
                   333 10270 20155 58003 83360=
200711050600 AAXX 05064 67441 11965 73205 10190 20166 48525 69904 70521 8707/
                   333 10280 20145 58003 87360=
200711020900 AAXX 02094 67441 41675 10000 10275 20160 48523 70500 81101
                   333 59014 81845 81080=

################################################################################
#  SYNOPS from 67461, Mansa (Zambia) | 11-06S | 028-51E | 1382 m
################################################################################
200711300900 AAXX 30094 67461 42680 60910 10265 20176 48515 83208
                   333 59007 83836 86280=
200711300600 AAXX 30064 67461 32580 71208 10218 20178 48522 82508
                   333 10280 20158 58000 82625 87280=
200711290900 AAXX 29094 67461 42680 80915 10228 20179 48525 885//
                   333 58015 88620=
200711290600 AAXX 29064 67461 12480 71106 10210 20180 48512 60024 875//
                   333 10314 20160 58007 87610=
200711280900 AAXX 28094 67461 42680 62204 10262 20174 48512 70522 84238
                   333 59007 84840 81363 83280=
200711280600 AAXX 28064 67461 42680 71902 10236 20168 48517 60054 81938
                   333 10315 20178 81940 84363 86280=
200711160600 AAXX 16064 67461 12980 61302 10233 20187 60024 81028
                   333 10360 58003 82363 86280=
200711140600 AAXX 14064 67461 12580 60902 10231 20173 48509 60014 81108
                   333 10311 20174 59005 81825 87080=
200711130600 AAXX 13064 67461 32980 61205 10229 20168 48512 82032
                   333 10295 20160 58003 82364 84080=
200711050600 AAXX 05064 67461 31565 73103 10210 20178 48506 70522 82538
                   333 10282 20172 58012 87620 85362 82080=
200711020600 AAXX 02064 67461 31958 70907 10222 20164 48500 70522 81038
                   333 10320 20165 59023 81364 87280=
200711010600 AAXX 01064 67461 31965 31005 10224 20161 48521 70500 80002
                   333 10305 20160 58006 83080=

################################################################################
#  SYNOPS from 67475, Kasama (Zambia) | 10-13S | 031-08E | 1382 m
################################################################################
200711290600 AAXX 29064 67475 11470 71410 10206 20173 48525 60014 70522 875//
                   333 10316 20165 58011 87610=
200711280900 AAXX 28094 67475 41675 60004 10299 20146 48503 70522 85202
                   333 59008 85848 82080=
200711280600 AAXX 28064 67475 31975 61004 10256 20165 48516 70522 81032
                   333 10318 20169 59004 81361 85080=
200711230600 AAXX 23064 67475 31478 73605 10228 20187 48522 70522 81102
                   333 10215 20165 58005 81818 87280=
200711200600 AAXX 20064 67475 11578 71805 10215 20167 48528 60374 70522 8117/
                   333 10318 20158 58007 81820 87461=
200711160600 AAXX 16064 67475 11978 20308 10240 20149 48534 60024 70510 81032
                   333 10302 20160 58003 83360 82080=
200711130900 AAXX 13094 67475 41678 40318 10277 20147 48512 70511 84200
                   333 58001 84842=
200711130600 AAXX 13064 67475 11678 10911 10232 20149 48517 69904 70510 81102
                   333 10309 20172 58000 81830 81080=
200711090900 AAXX 09094 67475 41778 61202 10284 20154 48505 70522 86200
                   333 59009 86850=
200711071200 AAXX 07124 67475 41778 7//// 10278 20147 48483 71792 86202
                   333 59011 81956 86856 84080=
200711070600 AAXX 07064 67475 11975 73605 10292 20167 48522 69904 70522 8707/
                   333 10232 20150 58000 87461=
200711050600 AAXX 05064 67475 11575 41310 10230 20166 48510 69904 70521 81132
                   333 10300 20156 58011 81820 81360 84080=
200711010600 AAXX 01064 67475 31975 11009 10235 20160 48530 70500 81080
                   333 10305 20171 58003 81360=

################################################################################
#  SYNOPS from 67476, Misamfu (Zambia) | 10-06S | 031-15E | 1536 m
################################################################################
200711230900 AAXX 23094 67476 41775 70810 10280 20137 48/// 70522 85202
                   333 58000 85850 87080=
200711230600 AAXX 23064 67476 31575 71104 10242 20179 70520 81102
                   333 10312 20164 59001 81825 87280=
200711200600 AAXX 20064 67476 12980 70000 10215 20185 60164 8707/
                   333 10314 20161 58009 87360=

################################################################################
#  SYNOPS from 67477, Mpika (Zambia) | 11-54S | 031-26E | 1400 m
################################################################################
200711300600 AAXX 30064 67477 32580 41010 10220 20167 48527 84101
                   333 10268 20171 59006 84820 81361=
200711290600 AAXX 29064 67477 12480 71005 10190 20157 48431 60014 875//
                   333 10330 20170 58023 87612=
200711280900 AAXX 28094 67477 42680 3//06 10300 20131 48498 82201
                   333 59015 82840 81080=
200711280600 AAXX 28064 67477 32980 41004 10265 20145 48511 80001
                   333 10329 20176 59007 84080=
200711160600 AAXX 16064 67477 12980 61208 10235 20128 48521 69904 80008
                   333 10315 20146 58007 86280=
200711130900 AAXX 13094 67477 42680 71007 10250 20155 48519 87100
                   333 58003 87845=
200711061200 AAXX 06124 67477 42680 72903 10239 20154 48491 8227/
                   333 58029 82840 87360=
200711020600 AAXX 02064 67477 32480 21013 10230 20142 48506 81101
                   333 10305 20175 59011 81819 82080=
200711010900 AAXX 01094 67477 42780 11210 10274 20135 48513 81100
                   333 58003 81850=

################################################################################
#  SYNOPS from 67481, Isoka (Zambia) | 10-07S | 032-38E | 1360 m
################################################################################
200711300600 AAXX 30064 67481 12580 30906 10225 20163 48/// 60014 83200
                   333 10304 20161 59002 83825=
200711200600 AAXX 20064 67481 32980 70904 10263 20165 82207
                   333 10322 20168 58001 82825 86280=

################################################################################
#  SYNOPS from 67531, Zambezi (Zambia) | 13-32S | 023-07E | 1077 m
################################################################################
200711300900 AAXX 30094 67531 42680 21505 10277 20192 48/// 82130
                   333 58003 82835 81362=
200711300600 AAXX 30064 67531 11980 11303 10229 20192 48/// 60014 70240 81032
                   333 10305 20186 58005 81362 81081=
200711290900 AAXX 29094 67531 42680 71304 10261 20188 48/// 8113/
                   333 58000 81830 87362=
200711280900 AAXX 28094 67531 41580 73303 10253 20187 48/// 70262 8157/
                   333 59001 81627 87360=
200711280600 AAXX 28064 67531 11380 70903 10200 20185 48/// 60044 76066 8172/
                   333 10314 20176 58004 81708 87460=
200711260900 AAXX 26094 67531 42680 20000 10286 20197 48500 82132
                   333 5//// 82837 81362 81080=
200711230900 AAXX 23094 67531 42680 73605 10246 20170 48/// 83177
                   333 58024 83830 81360 87280=
200711230600 AAXX 23064 67531 12480 73607 10210 20180 48/// 60044 8117/
                   333 10325 20157 58006 81812 87360=
200711200600 AAXX 20064 67531 12980 70000 10209 20180 48/// 69904 8703/
                   333 10299 20159 59001 87360=
200711140600 AAXX 14064 67531 32980 33604 10230 20170 48/// 81032
                   333 10335 20174 58003 81362 83082=
200711130900 AAXX 13094 67531 42780 11403 10304 20154 48/// 81132
                   333 5//// 81856 81362 81080=
200711130600 AAXX 13064 67531 32980 11301 10247 20177 48/// 81032
                   333 10322 20184 59002 81362 81080=
200711070600 AAXX 07064 67531 11380 73404 10194 20186 48/// 60184 7572/
                   333 10316 20180 58016 85707 87460=
200711050600 AAXX 05064 67531 12980 70000 10216 20152 48/// 69914 81038
                   333 10339 20180 58021 81361 87281=
200711020900 AAXX 02094 67531 42980 21404 10294 20160 48///
                   333 59012 82084=
200711020600 AAXX 02064 67531 12980 71305 10246 20175 48/// 60094 80008
                   333 10327 20190 59012 87281=
200711010900 AAXX 01094 67531 42680 12203 10300 20182 48/// 81136
                   333 58005 81848 81361=
200711010600 AAXX 01064 67531 32980 71701 10232 20185 48/// 8707/
                   333 10326 20180 58002 87361=

################################################################################
#  SYNOPS from 67551, Solwezi (Zambia) | 12-11S | 026-23E | 1386 m
################################################################################
200711300600 AAXX 30064 67551 12380 30905 10201 20174 48521 69904 82601
                   333 10256 20152 58015 82709 82080=
200711230900 AAXX 23094 67551 42680 62804 10240 20188 48513
                   333 58000 82830 85080=
200711200600 AAXX 20064 67551 12980 10904 10210 20171 48510 69954 81030
                   333 10271 20166 59004 81360=
200711050600 AAXX 05064 67551 12580 33408 10206 20174 48/// 60064 81131
                   333 10292 20161 58002 81820 81360 81080=
200711020600 AAXX 02064 67551 32980 31705 10215 20143 48504 80001
                   333 10303 59013 83080=

################################################################################
#  SYNOPS from 67561, Ndola (Zambia) | 13-00S | 028-39E | 1269 m
################################################################################
200711300600 AAXX 30064 67561 11575 31007 10226 20181 48530 60034 70500 81101
                   333 10289 20166 58002 81820 82080=
200711280600 AAXX 28064 67561 11775 72204 10195 20179 48519 60084 70522 82232
                   333 10322 20180 58001 82820 86360 83080=
200711260900 AAXX 26094 67561 41575 10000 10240 20173 48533 70522 85208
                   333 58016 85820 87280=
200711260600 AAXX 26064 67561 11375 71907 10192 20166 48541 60014 70522 81638
                   333 10298 20176 58008 81707 85360 87280=
200711240600 AAXX 24064 67561 12980 70000 10201 20176 48529 60224 84038
                   333 10300 20300 58017 84361 87280=
200711160600 AAXX 16064 67561 31965 50706 10251 20164 48528 70511 81038
                   333 10321 20175 59004 81361 85280=
200711140600 AAXX 14064 67561 11975 50809 10244 20171 48516 60024 70522 81032
                   333 10305 20170 59011 81360 84080=
200711130900 AAXX 13094 67561 42680 51211 10288 20152 48519 85200
                   333 59003 85835=
200711130600 AAXX 13064 67561 32980 51008 10234 20166 48523 85030
                   333 10295 20166 59001 85361=
200711090600 AAXX 09064 67561 11958 20000 10225 20179 48502 69904 70400 82030
                   333 10282 20166 59006 82361=
200711080600 AAXX 08064 67561 11960 80000 10189 20516 60074 76062 8807/
                   333 10270 20170 59002 88460=
200711061200 AAXX 06124 67561 42580 70000 10238 20147 48482 70262 8117/
                   333 58009 81820 87461=
200711050600 AAXX 05064 67561 11970 70205 10216 20167 48501 69904 70522 87002
                   333 10324 20170 58011 87280=
200711021200 AAXX 02124 67561 41775 70505 10309 20118 48472 70522 86232
                   333 59016 81956 86856 82362 83080=
200711020600 AAXX 02064 67561 31970 70907 10246 20151 48505 70522 81038
                   333 10332 20186 59021 81361 87280=
200711010600 AAXX 01064 67561 32682 10908 10268 20177 48545 81100
                   333 10335 20205 58005 81830=

################################################################################
#  SYNOPS from 67563, Kafironda (Zambia) | 12-36S | 028-07E | 1243 m
################################################################################
200711300900 AAXX 30094 67563 41678 40907 10271 20180 48/// 70510 83101
                   333 59001 83830 82080=
200711300600 AAXX 30064 67563 11478 30902 10220 20190 48/// 60034 70510 81601
                   333 10294 20153 58001 81710 83080=
200711230900 AAXX 23094 67563 41678 72603 10288 20170 48/// 70522 84302
                   333 81940 84840 85080=
200711200600 AAXX 20064 67563 32980 61203 10211 20170 48/// 86030
                   333 10290 20156 58001 86359=
200711160600 AAXX 16064 67563 31975 43302 10242 20190 48/// 70520 82032
                   333 10301 20171 59003 82359 84080=
200711050600 AAXX 05064 67563 11478 60102 10212 20170 48/// 69904 70520 83608
                   333 10323 20179 58019 83710 85280=
200711010600 AAXX 01064 67563 31970 00906 10250 20170 48/// 70500
                   333 10329 20154 58014=

################################################################################
#  SYNOPS from 67571, Serenje (Zambia) | 13-14S | 030-13E | 1384 m
################################################################################
200711300900 AAXX 30094 67571 42684 70908 10265 20166 48525 85530
                   333 59003 85630 83360=

################################################################################
#  SYNOPS from 67580, Msekera (Zambia) | 13-39S | 032-34E | 1025 m
################################################################################
200711300900 AAXX 30094 67580 42684 60000 10281 20176 48/// 86201
                   333 59007 86840 81080=
200711300600 AAXX 30064 67580 32584 61404 10244 20184 48/// 83131
                   333 10297 20187 58005 83825 83360 81080=
200711230900 AAXX 23094 67580 42784 20906 10328 20156 48/// 81102
                   333 59001 81856 81080=
200711200600 AAXX 20064 67580 32980 10000 10266 20171 48/// 80001
                   333 10299 20197 58001 81080=
200711160600 AAXX 16064 67580 32982 60906 10282 20149 58/// 80008
                   333 10350 20206 59001 86280=
200711130900 AAXX 13094 67580 42782 40907 10300 20163 48/// 84200
                   333 58000 84850=
200711050600 AAXX 05064 67580 32980 70305 10272 20152 48/// 80008
                   333 10349 20209 58009 87280=

################################################################################
#  SYNOPS from 67581, Chipata (Zambia) | 13-33S | 032-35E | 1028 m
################################################################################
200711300900 AAXX 30094 67581 42684 50704 10282 20176 48541 85100
                   333 59006 85845=
200711300600 AAXX 30064 67581 32684 11407 10232 20182 48545
                   333 10290 20195 58002 81830 81361=
200711290600 AAXX 29064 67581 12684 41206 10234 20169 48542 60394 82132
                   333 10318 20188 58025 82835 81360 81080=
200711280900 AAXX 28094 67581 42684 71005 10299 20185 48523 81138
                   333 59002 81840 81362 87280=
200711280600 AAXX 28064 67581 32984 51408 10284 20170 48527 85030
                   333 10365 20225 59004 85365=
200711230600 AAXX 23064 67581 32984 10904 10278 20140 48526 80002
                   333 10352 20244 59009 81080=
200711200600 AAXX 20064 67581 32980 10805 10264 20158 48546 80002
                   333 10295 20200 58001 81080=
200711160600 AAXX 16064 67581 32984 50909 10292 20150 48539 80008
                   333 10350 20223 59003 85280=
200711150600 AAXX 15064 67581 12984 70806 10280 20156 48541 69904 80008
                   333 10330 20197 58007 87280=
200711140600 AAXX 14064 67581 32684 10906 10265 20160 48530 81100
                   333 10332 20200 59008 81834=
200711130600 AAXX 13064 67581 32682 10906 10242 20160 48563 81100
                   333 10320 20199 59005 81840=
200711090600 AAXX 09064 67581 12984 10405 10275 20167 48525 60074 81030
                   333 10341 20204 59003 81362=
200711080600 AAXX 08064 67581 12984 62702 10237 20188 48523 60044 86030
                   333 10320 20200 59006 86360=
200711050600 AAXX 05064 67581 32982 70105 10272 20142 48515 80008
                   333 10351 20216 58012 87280=
200711020600 AAXX 02064 67581 12682 11004 10263 20164 48523 69904 81100
                   333 10334 20200 59020 81830=
200711010900 AAXX 01094 67581 42682 40905 10297 20136 48507 84100
                   333 58005 84840=
200711010600 AAXX 01064 67581 32682 10809 10268 20177 48545 81100
                   333 10335 20205 58005 81830=

################################################################################
#  SYNOPS from 67583, Lundazi (Zambia) | 12-17S | 033-12E | 1143 m
################################################################################
200711300900 AAXX 30094 67583 41675 71107 10250 20182 48/// 71522 86830
                   333 58002 83845 83647 85360=
200711300600 AAXX 30064 67583 32680 61505 10245 20177 48/// 86800
                   333 10290 20184 58002 81840 85641=
200711230900 AAXX 23094 67583 42680 22804 10330 20122 82102
                   333 59001 82845 81080=
200711160600 AAXX 16064 67583 32980 42807 10280 20002
                   333 10300 20163 58001 84030=
200711130900 AAXX 13094 67583 42680 52709 10296 20165 48/// 85200
                   333 5//// 85345=

################################################################################
#  SYNOPS from 67599, Mfuwe (Zambia) | 13-16S | 031-56E | 568 m
################################################################################
200711300900 AAXX 30094 67599 42580 31204 10305 20213 48557 83200
                   333 59006 83830=
200711300600 AAXX 30064 67599 12480 51504 10260 20209 48558 69904 70322 82132
                   333 10334 20178 59004 82815 85360 81080=
200711290600 AAXX 29064 67599 12480 70000 10250 48558 60804 8453/
                   333 10260 20160 58037 84615 86360=
200711230600 AAXX 23064 67599 32980 00000 10310 20184 48543
                   333 10402 20175 59008=
200711200600 AAXX 20064 67599 12980 10000 10255 20196 48550 60034 81030
                   333 10385 20160 58002 81360=
200711171200 AAXX 17124 67599 42780 40704 10382 20184 48532 70222 84200
                   333 59006 84857=
200711160900 AAXX 16094 67599 42780 31209 10357 20169 48556 82102
                   333 58001 82850 82080=
200711160600 AAXX 16064 67599 32980 31004 10308 20187 48554 80002
                   333 10375 20171 59003 83080=
200711150600 AAXX 15064 67599 12980 50000 10265 20207 48541 69904 80002
                   333 10355 20170 58004 85080=
200711131200 AAXX 13124 67599 42780 51406 10364 20192 48527 84232
                   333 59012 81956 84856 81080 91012=
200711130900 AAXX 13094 67599 42780 50806 10335 20215 48556 84280
                   333 59008 84850 82360=
200711130600 AAXX 13064 67599 12980 10000 10270 20212 48553 69904 81030
                   333 10360 20159 59004 81360=
200711091500 AAXX 09154 67599 42780 40000 10370 20207 48484 70122 81930
                   333 59008 81958 82858 83360=
200711090900 AAXX 09094 67599 42680 30000 10340 20213 48565 82130
                   333 58026 82845 82360=
200711060400 AAXX 06044 67599 42980 70000 10188 20161 48501 83032
                   333 58016 83360 85080=
200711060300 AAXX 06034 67599 42980 70000 10188 20//0 48496 8703/
                   333 58017 87360=
200711052100 AAXX 05214 67599 42680 71304 10196 20//0 48499 8193/
                   333 58020 81940 87359=
200711051200 AAXX 05124 67599 42880 62704 10370 20190 48504 82207
                   333 58017 82857 85280 91009=
200711050900 AAXX 05094 67599 42980 71504 10350 20192 48527 80007
                   333 58018 87280 91013=
200711050600 AAXX 05064 67599 12980 70000 10300 20190 48527 69904 70321 80007
                   333 10390 20200 58007 87280=
200711011500 AAXX 01154 67599 42880 31508 10365 20142 48510 81930
                   333 59010 81957 82360=
200711010600 AAXX 01064 67599 32980 11207 10280 20180 48555 81030
                   333 10385 20171 58004 81360=

################################################################################
#  SYNOPS from 67633, Mongu (Zambia) | 15-15S | 023-09E | 1052 m
################################################################################
200711300900 AAXX 30094 67633 42680 60902 10280 20196 48528 81138
                   333 58003 81830 81361 85280=
200711300600 AAXX 30064 67633 32982 70602 10245 20185 48530 85038
                   333 10308 20222 59004 85360 87280=
200711280600 AAXX 28064 67633 12582 70706 10206 20188 48523 60214 70162 85532
                   333 10343 20194 58020 85620 83361 83080=
200711260900 AAXX 26094 67633 42682 60802 10285 20188 48/// 84130
                   333 58001 84840 82360=
200711160600 AAXX 16064 67633 32982 50904 10234 20189 48530 85030
                   333 10323 20201 58003 85360=
200711050600 AAXX 05064 67633 32982 60407 10224 20162 48492 80007
                   333 10364 20181 58028 86280=
200711020600 AAXX 02064 67633 31980 31206 10252 20151 48501 70511 80002
                   333 10313 20190 59012 83030=

################################################################################
#  SYNOPS from 67641, Kaoma (Zambia) | 14-48S | 024-48E | 1213 m
################################################################################
200711230600 AAXX 23064 67641 12982 70902 10214 20186 48510 60034 8703/
                   333 10310 20159 58005 87360=
200711200600 AAXX 20064 67641 11470 60906 10217 20189 48522 60084 70522 82538
                   333 10270 20165 58000 82615 86360 85280=
200711160600 AAXX 16064 67641 32982 30401 10230 20185 48509 83030
                   333 10314 20186 59012 83362=
200711070600 AAXX 07064 67641 11582 41402 10205 20188 48498 60174 72166 83532
                   333 10311 20178 58016 83620 83361 84080=

################################################################################
#  SYNOPS from 67655, Mumbwa (Zambia) | 15-04S | 027-11E | 1216 m
################################################################################
200711090600 AAXX 09064 67655 11775 60902 10220 20177 48526 60124 70522 86072
                   333 10275 20110 59002 86357 81077=

################################################################################
#  SYNOPS from 67659, Kafue Polder (Zambia) | 15-46S | 027-55E | 978 m
################################################################################
200711300600 AAXX 30064 67659 32480 50907 10224 20179 48/// 84501
                   333 10274 20/// 58000 84612 82080=
200711200600 AAXX 20064 67659 32980 20000 10245 20180 48/// 80001
                   333 10302 20//0 58000 82080=

################################################################################
#  SYNOPS from 67663, Kabwe (Zambia) | 14-27S | 028-28E | 1206 m
################################################################################
200711200600 AAXX 20064 67663 32980 10906 10228 20170 48524 81030
                   333 10280 20184 58004 81360=
200711160600 AAXX 16064 67663 32980 20604 10252 20166 48513 81032
                   333 10334 20196 59007 81360 81080=
200711070600 AAXX 07064 67663 11380 70902 10185 20173 48505 60084 72162 8377/
                   333 10287 20170 58011 83707 87460=
200711020600 AAXX 02064 67663 32980 00906 10245 20112 48586
                   333 10302 59017=

################################################################################
#  SYNOPS from 67665, Lusaka Internationalairport (Zambia) | 15-19S | 028-27E | 1152 m
################################################################################
200711301800 AAXX 30184 67665 42980 20000 10217 20//0 48524 81031
                   333 10288 59003 81360 81080=
200711301500 AAXX 30154 67665 42780 21206 10275 20177 48518 82200
                   333 59004 81950 81850=
200711301200 AAXX 30124 67665 42680 50804 10267 20180 48527 85200
                   333 59005 85840=
200711300900 AAXX 30094 67665 42580 70712 10243 20178 48545 875//
                   333 59011 87625=
200711300600 AAXX 30064 67665 32380 81107 10198 20192 48542 8563/
                   333 10248 20200 59007 85707 88360=
200711291200 AAXX 29124 67665 42680 70702 10242 20166 48529 872//
                   333 58015 87830=
200711290600 AAXX 29064 67665 32480 60817 10210 20173 48545 86532
                   333 10273 20191 59015 86610 81360 82080=
200711281200 AAXX 28124 67665 42680 60911 10261 20190 48516 84232
                   333 58020 84848 84360 86080=
200711280900 AAXX 28094 67665 42675 70704 10258 20178 48537 84132
                   333 58013 84845 82360 86080=
200711280600 AAXX 28064 67665 32575 70903 10234 20173 48533 70322 81132
                   333 10312 20190 58001 81820 83360 85080=
200711271800 AAXX 27184 67665 41780 71903 10227 48503 71322 81932
                   333 59014 81956 83360 85080=
200711271500 AAXX 27154 67665 42770 71705 10251 20177 48492 81932
                   333 59013 81950 85360 86080=
200711271200 AAXX 27124 67665 41670 70104 10303 20171 48501 70292 81932
                   333 59021 81945 85848 83360 85080=
200711270600 AAXX 27064 67665 12980 20803 10228 20193 48532 69994 80002
                   333 10284 20186 59028 82080=
200711270400 AAXX 27044 67665 42980 30000 10194 20//0 48517 81032
                   333 59027 81360 83080=
200711270300 AAXX 27034 67665 42980 10000 10186 20//0 48512 82030
                   333 59030 82360=
200711262100 AAXX 26214 67665 42980 10000 10215 20//0 48524 81030
                   333 58000 81360=
200711261200 AAXX 26124 67665 42680 61003 10265 20169 48526 82130
                   333 58025 82840 85360=
200711260900 AAXX 26094 67665 42580 71005 10240 20173 48542 8113/
                   333 58012 81825 86360=
200711260600 AAXX 26064 67665 11460 80000 10194 20170 48554 60764 71666 8363/
                   333 10330 20180 58023 83710 85360=
200711260400 AAXX 26044 67665 41958 70000 10182 20182 48541 76166 8707/
                   333 58027 87758=
200711260300 AAXX 26034 67665 41757 70000 10178 20178 48539 76066 8197/
                   333 58031 81957 87460=
200711260000 AAXX 26004 67665 41757 70000 10185 20185 48533 79699 82972
                   333 58020 82956 85460 83080=
200711251800 AAXX 25184 67665 41657 72608 10182 20182 48524 79696 83972
                   333 58011 83945 83845 86459 82080 91019=
200711251200 AAXX 25124 67665 42680 60303 10310 20179 48506 85202
                   333 59015 85845 82080=
200711250900 AAXX 25094 67665 42580 52304 10279 20185 48534 84232
                   333 59002 84825 81360 84080=
200711241800 AAXX 24184 67665 42880 21803 10255 20//0 48523 81130
                   333 10320 58011 82857 81360=
200711241500 AAXX 24154 67665 42780 23102 10304 20163 48496 81932
                   333 58003 81956 81360 82080=
200711241200 AAXX 24124 67665 42680 72605 10284 20159 48518 82232
                   333 58012 82848 86360 84080=
200711240600 AAXX 24064 67665 12980 71203 10226 20194 48545 60034 85032
                   333 10326 20190 58021 85360 84080=
200711231200 AAXX 23124 67665 41670 61513 10247 20194 48503 79592 81932
                   333 58012 81935 86840 82360 82080=
200711230900 AAXX 23094 67665 42680 60000 10300 20181 48525 70522 84202
                   333 58003 84835 82360 85080=
200711230600 AAXX 23064 67665 31970 42904 10247 20175 48508 70521 84032
                   333 10347 20210 58002 84360 84080=
200711211800 AAXX 21184 67665 42780 80000 10272 20//0 48498 84032
                   333 10334 59014 81960 84360 85080=
200711210900 AAXX 21094 67665 42680 40000 10287 20163 48529 84101
                   333 59013 84835 82080 91018=
200711210600 AAXX 21064 67665 32980 23404 10233 20170 48530 80002
                   333 10325 20175 59014 82080=
200711200600 AAXX 20064 67665 32980 20602 10236 20183 48544 81031
                   333 10289 20174 58002 81360 82080 91021=
200711190400 AAXX 19044 67665 42470 70000 10182 20182 48524 8198/
                   333 59003 83610 81940 87460=
200711190300 AAXX 19034 67665 42680 70000 10184 20184 48515 8197/
                   333 58000 81940 87460=
200711181800 AAXX 18184 67665 41770 80000 10201 20201 48523 79566 8193/
                   333 59005 81950 87360=
200711181200 AAXX 18124 67665 41670 /1404 10252 20179 48502 71722 82932
                   333 59019 82945 83360 83080=
200711180300 AAXX 18034 67665 42980 71104 10184 20184 87030
                   333 59003 87359=
200711172100 AAXX 17214 67665 42660 60000 10196 20196 48519 81970
                   333 59001 81940 83460=
200711171800 AAXX 17184 67665 41660 70000 10191 20191 48528 76122 8197/
                   333 10315 58019 81940 87460=
200711171200 AAXX 17124 67665 41656 71205 10233 20233 48517 79522 8197/
                   333 58014 81930 84835 84460=
200711170900 AAXX 17094 67665 42580 70702 10274 20188 48541 8327/
                   333 58006 83825 87461=
200711161500 AAXX 16154 67665 41760 70000 10265 20191 48500 72999 81930
                   333 59010 81950 87360=
200711161200 AAXX 16124 67665 42780 50603 10320 20168 48515 71522 85230
                   333 58008 81950 85850 82360=
200711160900 AAXX 16094 67665 42680 30704 10305 20164 48537 81131
                   333 58003 81840 83360=
200711160600 AAXX 16064 67665 32980 31003 10263 20174 48542 83031
                   333 10335 20194 58001 83360 81080=
200711151800 AAXX 15184 67665 42980 70000 10234 20//0 48508 8703/
                   333 5//// 87360=
200711151200 AAXX 15124 67665 42680 63602 10321 20160 48507 81903
                   333 58001 81945 85850 82080=
200711150900 AAXX 15094 67665 42680 40403 10293 20160 48535 84202
                   333 58007 84840 81080=
200711150600 AAXX 15064 67665 32980 60602 10245 20170 48537 83037
                   333 10275 20192 59014 83360 85080=
200711150400 AAXX 15044 67665 42980 60000 10191 20144 48518 83032
                   333 58001 83360 83080=
200711150300 AAXX 15034 67665 42980 60000 10196 20//0 48516 83031
                   333 58004 83360 82080=
200711141200 AAXX 14124 67665 42680 60604 10311 20166 48505 86230
                   333 59017 81948 85848 82360 91015=
200711140900 AAXX 14094 67665 42680 30606 10281 20182 48527 83101
                   333 59014 83830=
200711140600 AAXX 14064 67665 12580 20704 10230 20193 48530 60034 81501
                   333 10314 20180 59015 81615 81080=
200711131500 AAXX 13154 67665 41775 10270 20270 48504 76099 81932
                   333 59009 81950 82850 83360 83080
                   555 10301=
200711131200 AAXX 13124 67665 41780 61011 10279 20164 48519 79522 86230
                   333 59005 81945 85845 81360=
200711130900 AAXX 13094 67665 42680 50810 10289 20180 48541 85100
                   333 59008 85830=
200711130600 AAXX 13064 67665 32480 41006 10232 20172 48545 83132
                   333 10290 20174 58001 83810 83360 81080=
200711130400 AAXX 13044 67665 42980 51103 10178 20//0 48525 85032
                   333 59005 85359 82080=
200711121800 AAXX 12184 67665 42980 30000 10229 20//0 48520 83032
                   333 58003 83360 81080=
200711121500 AAXX 12154 67665 42780 40000 10271 20173 48512 84230
                   333 58013 84850 81360=
200711121200 AAXX 12124 67665 42680 50403 10285 20177 48525 85230
                   333 58011 85840 81360=
200711111800 AAXX 11184 67665 42780 60000 10220 20//0 48517 71322 81932
                   333 10306 58022 81956 84360 85080=
200711111500 AAXX 11154 67665 42780 61011 10285 20159 48500 81932
                   333 58021 81956 84360 85080=
200711111200 AAXX 11124 67665 42680 70708 10287 20181 48514 85232
                   333 58028 85845 82360 86080=
200711110900 AAXX 11094 67665 42680 71013 10265 20157 48538 84232
                   333 58024 84830 82360 86080=
200711110600 AAXX 11064 67665 32480 71201 10220 20177 48534 8227/
                   333 10334 20183 58019 82820 87360=
200711100900 AAXX 10094 67665 42680 60802 10305 20172 48519 84202
                   333 59005 84825 83080=
200711100600 AAXX 10064 67665 32980 60000 10240 20145 48518 86082
                   333 59007 86360 81080=
200711100400 AAXX 10044 67665 42980 40000 10187 20//0 48495 83032
                   333 59014 83360 81080=
200711100300 AAXX 10034 67665 42980 30000 10194 20//0 48492 83032
                   333 59011 83360 81080=
200711092100 AAXX 09214 67665 42980 30000 10218 20//0 48511 83030
                   333 59011 83360=
200711091800 AAXX 09184 67665 42980 30000 10259 20//0 48501 83031
                   333 10320 59015 83360 82080=
200711091500 AAXX 09154 67665 42780 60000 10302 20152 48483 84232
                   333 59014 84856 83360 83080=
200711091200 AAXX 09124 67665 42680 70000 10302 20152 48585 85232
                   333 59009 86842 82560 82080=
200711090900 AAXX 09094 67665 42580 70000 10286 20174 48519 85132
                   333 59007 85830 82360 87080=
200711090600 AAXX 09064 67665 12980 50000 10237 20208 48525 60014 84030
                   333 10286 20180 59002 84360 82080=
200711090400 AAXX 09044 67665 42980 40000 20//0 48508 84030
                   333 58001 84360 91017=
200711090300 AAXX 09034 67665 42980 40000 20//0 48502 84030
                   333 59004 84360 91017=
200711081200 AAXX 08124 67665 41680 73304 10249 20188 48498 72992 82903
                   333 59004 82927 85832 84078=
200711080600 AAXX 08064 67665 12980 70000 10203 20182 48522 60044 8707/
                   333 10276 20179 58003 87459=
200711071200 AAXX 07124 67665 42680 72902 10251 20163 48503 8387/
                   333 58023 82830 81632 87360=
200711070600 AAXX 07064 67665 11470 70000 10176 20160 48516 60024 72162 8557/
                   333 10305 20175 85615 87459=
200711061800 AAXX 06184 67665 41980 30000 10228 20//0 48487 71321 81931
                   333 10305 59015 81959 83360 83080=
200711061500 AAXX 06154 67665 41780 60302 10280 20174 48471 71322 81932
                   333 59009 81956 83856 83360 84080=
200711061200 AAXX 06124 67665 42675 43304 10301 20157 48486 84202
                   333 58010 84849 84080=
200711060900 AAXX 06094 67665 41680 70204 10279 20157 48511 83232
                   333 58007 83360 81360 86080=
200711060600 AAXX 06064 67665 11980 70000 10201 20171 48512 69934 70222 84032
                   333 10342 20180 58012 84360 86080=
200711051200 AAXX 05124 67665 42680 53003 10327 20158 48434 84202
                   333 58007 84845 82080 91012=
200711050900 AAXX 05094 67665 42680 43202 10305 20163 48508 82102
                   333 58010 82830 83080 91016=
200711050600 AAXX 05064 67665 32980 53201 10242 20168 48503 85032
                   333 10361 20214 58005 83360 85280=
200711041800 AAXX 04184 67665 42980 40000 10270 20//0 48474 83032
                   333 10355 83360 81080 91012=
200711041500 AAXX 04154 67665 42770 50000 10332 20119 48454 70522 82203
                   333 59089 82856 84080=
200711041200 AAXX 04124 67665 42770 60202 10335 20132 48471 70522 85230
                   333 58002 85850 82080=
200711040600 AAXX 04064 67665 12980 33503 10249 20135 48501 69904 82082
                   333 10338 20180 59005 82360 81080=
200711040400 AAXX 04044 67665 42980 31703 10185 20//0 48478 82032
                   333 59008 82360 81080=
200711040300 AAXX 04034 67665 42980 11105 10175 20//0 48471 81030
                   333 59011 81360=
200711032100 AAXX 03214 67665 42980 10000 10217 20//0 48480 81030
                   333 59009 81360=
200711031800 AAXX 03184 67665 42780 20000 10246 20//0 48468 81230
                   333 10//0 59023 81856 82360=
200711030900 AAXX 03094 67665 41675 30705 10285 20143 48499 70500 81130
                   333 59014 81840 82361=
200711030600 AAXX 03064 67665 32975 20810 10247 20136 48505 70500 82030
                   333 10325 20177 59021 82361=
200711021800 AAXX 02184 67665 42980 20000 20139 48490 81030
                   333 10325 59021 81360=
200711021500 AAXX 02154 67665 42780 10294 20134 48486 81930
                   333 59021 81850 82360
                   555 10325=
200711021200 AAXX 02124 67665 42880 50403 10304 20130 48491 85200
                   333 59023 81957 85857=
200711020900 AAXX 02094 67665 42780 10287 20122 48524 81130
                   333 59016 82360=
200711020600 AAXX 02064 67665 32980 31013 10245 20131 48526 83032
                   333 10326 20192 59015 83360 81080=
200711011800 AAXX 01184 67665 42980 10000 10254 20//0 48513 81030
                   333 10326 58010 81362=
200711011500 AAXX 01154 67665 42780 41404 10298 20132 48506 81930
                   333 58008 81957 84857 84362=
200711011200 AAXX 01124 67665 42780 50809 10310 20145 48515 85230
                   333 58006 85856 83360=
200711010900 AAXX 01094 67665 41775 61114 10294 20151 48509 70522 82130
                   333 5//// 82850 85361=
200711010600 AAXX 01064 67665 32980 00912 10230 20152 48539
                   333 10329 20169 58010=

################################################################################
#  SYNOPS from 67666, Lusaka City Airport (Zambia) | 15-25S | 028-19E | 1280 m
################################################################################
200711300900 AAXX 30094 67666 42580 60514 10236 20169 48538 86800
                   333 58006 86618 83820=
200711300600 AAXX 30064 67666 32380 80812 10194 20165 48532 885//
                   333 10241 20155 59014 88608=
200711230900 AAXX 23094 67666 42680 42406 10278 20161 48512
                   333 58003 58003 83845 81360 84080=
200711230600 AAXX 23064 67666 32980 42803 10238 20168 48515 83032
                   333 10330 20177 58002 83360 84080=
200711200600 AAXX 20064 67666 12980 10307 10235 20162 48532 60014 80001
                   333 10283 20164 81080=
200711171200 AAXX 17124 67666 41780 70206 10230 20172 48504 71792 8133/
                   333 59006 81950 84850 83360=
200711160600 AAXX 16064 67666 12980 30908 10256 20157 48527 69944 83030
                   333 10320 20194 5//// 83360=
200711130900 AAXX 13094 67666 42480 50912 10275 20120 48527 85200
                   333 59003 85820=
200711090600 AAXX 09064 67666 12980 61202 10250 20137 48514 60054 82037
                   333 10276 20177 59002 82359 86279=
200711050600 AAXX 05064 67666 32980 13002 10230 20165 48493 82038
                   333 10339 20198 5//// 82358 86280=
200711020600 AAXX 02064 67666 32980 10710 10210 20141 48524 81030
                   333 10314 20190 59001 81360=
200711010600 AAXX 01064 67666 32980 10606 10230 20151 48525 81030
                   333 10311 20198 58008 81360=

################################################################################
#  SYNOPS from 67667, Mount Makulu (Zambia) | 15-33S | 028-15E | 1213 m
################################################################################
200711300600 AAXX 30064 67667 32680 60907 10206 20159 48/// 86501
                   333 10245 20085 5//// 86630 82080=
200711230900 AAXX 23094 67667 42680 42707 10276 20174 48/// 81102
                   333 81835 84080=
200711230600 AAXX 23064 67667 12980 42704 10241 20176 69904 82032
                   333 10340 20197 82360 84082=
200711160600 AAXX 16064 67667 11970 10910 10276 20171 60114 70500 81031
                   333 10306 20172 81359 81080=

################################################################################
#  SYNOPS from 67673, Petauke (Zambia) | 14-15S | 031-17E | 1035 m
################################################################################
200711290900 AAXX 29094 67673 42684 71407 10226 20174 48547 8653/
                   333 58017 86630 87362=
200711230900 AAXX 23094 67673 42682 13606 10316 20148 48525
                   333 59003 81840=
200711230600 AAXX 23064 67673 12982 10609 10277 20156 48528 69904 80001
                   333 10340 20230 59006 81080=
200711200600 AAXX 20064 67673 32980 10405 10259 20162 48550 81030
                   333 10298 20201 58003 81362=
200711160600 AAXX 16064 67673 32980 20907 10294 20140 48546 80002
                   333 10344 20216 58000 82080=
200711130900 AAXX 13094 67673 42682 51206 10299 20156 48546 85200
                   333 5//// 85840=
200711020600 AAXX 02064 67673 31970 10908 10260 20159 48523 70500 80001
                   333 10336 20192 59003 81080=
200711010600 AAXX 01064 67673 32980 01506 10250 20152 48548
                   333 10339 20196 58009=

################################################################################
#  SYNOPS from 67741, Sesheke (Zambia) | 17-28S | 024-18E | 949 m
################################################################################
200711050600 AAXX 05064 67741 11680 63505 10237 20151 48489 60114 72196 81970
                   333 10376 20176 5//// 81936 81836 86361=

################################################################################
#  SYNOPS from 67743, Livingstone (Zambia) | 17-49S | 025-49E | 985 m
################################################################################
200711300900 AAXX 30094 67743 42980 20703 10276 20174 48437 81130
                   333 59008 81850 81080=
200711300600 AAXX 30064 67743 13980 20806 10227 20174 48534 69954 81031
                   333 10280 20187 58003 81360 81080=
200711291200 AAXX 29124 67743 41680 60905 10267 20184 48524 72162 8583/
                   333 58001 83630 83830 83360=
200711290600 AAXX 29064 67743 12480 50808 10210 20194 48527 60034 83731
                   333 10285 20183 58007 83712 84360 81080=
200711280600 AAXX 28064 67743 12580 83204 10228 20198 48524 60144 8707/
                   333 10326 20205 58009 84620 84360 86461=
200711260900 AAXX 26094 67743 42680 73509 10281 20183 48539 81130
                   333 59001 81830 87360=
200711260600 AAXX 26064 67743 32680 70808 10226 20188 48529 8707/
                   333 10307 20208 58007 87460=
200711241500 AAXX 24154 67743 41458 80907 10204 20194 48496 79599 8277/
                   333 59022 82710 82930 84835 88461=
200711240600 AAXX 24064 67743 12480 80611 10236 20190 48527 60014 8157/
                   333 10264 20203 58018 81615 88360=
200711230900 AAXX 23094 67743 41657 80510 10245 20182 48526 79592 8237/
                   333 84620 82945 88460=
200711230600 AAXX 23064 67743 11980 73410 10250 20174 48511 60014 71522 81081
                   333 10360 20213 58004 87459 81080=
200711200600 AAXX 20064 67743 32980 00107 10256 20155 48537 81030
                   333 10310 20196 59001 81360=
200711181200 AAXX 18124 67743 42680 63505 10314 20154 48509 85201
                   333 59012 85835 81080=
200711161200 AAXX 16124 67743 41656 70313 10232 20190 48508 79592 83900
                   333 58013 82945 86850=
200711160900 AAXX 16094 67743 42780 20609 10325 20154 48538 82200
                   333 58004 82856=
200711150900 AAXX 15094 67743 42680 63510 10305 20153 48531 84201
                   333 58007 84845 84080=
200711150600 AAXX 15064 67743 32780 60000 10265 20157 48537 83561
                   333 10356 20215 58011 83656 86360 84080=
200711140600 AAXX 14064 67743 32980 31103 10265 20153 48526 80001
                   333 10347 20215 59012 83080=
200711131200 AAXX 13124 67743 42780 50813 10335 48515 82401
                   333 59003 84856 83080 91015=
200711130900 AAXX 13094 67743 42780 40910 10312 20148 48539 82201
                   333 58000 82856 83080=
200711130600 AAXX 13064 67743 32980 30808 10256 20158 48536 80001
                   333 10234 20210 59002 83080=
200711091500 AAXX 09154 67743 42780 21404 10320 20086 48482 81102
                   333 59015 81856 81080=
200711090900 AAXX 09094 67743 42780 30804 10288 20122 48524 82202
                   333 59002 81850 83080=
200711090600 AAXX 09064 67743 32980 11004 10230 20150 48517 69904 80001
                   333 10290 20172 58000 81080=
200711081200 AAXX 08124 67743 42780 52904 10265 20143 48500 85200
                   333 58002 85850=
200711080600 AAXX 08064 67743 11380 81003 10166 20150 48504 72166 8577/
                   333 10252 20150 58010 85707 88460=
200711070600 AAXX 07064 67743 12575 73208 10202 20163 48502 60314 70220 8257/
                   333 10340 20181 58027 82625 86760=
200711061200 AAXX 06124 67743 41775 73212 10325 20145 48458 71722 82232
                   333 59028 82950 82850 83360 85080=
200711051200 AAXX 05124 67743 42980 70306 10300 20135 48481 8707/
                   333 58035 87460 91012=
200711050900 AAXX 05094 67743 42780 82710 10259 20152 8216/
                   333 58022 82856 88360 91014=
200711050600 AAXX 05064 67743 12680 82705 10256 20142 48496 69904 8457/
                   333 10376 20184 58012 84645 87360=
200711021200 AAXX 02124 67743 42775 31805 10345 20099 48493 70500 83130=
200711020900 AAXX 02094 67743 42775 11208 10307 20141 70500 81100
                   333 59024 81849=
200711020600 AAXX 02064 67743 32970 00706 10248 20144 48526 70500
                   333 10310 20184 59005=
200711011500 AAXX 01154 67743 42780 52004 10304 20141 48505 81141
                   333 58014 81850 84362 83080=

################################################################################
#  SYNOPS from 67751, Magoye (Zambia) | 16-00S | 027-36E | 1018 m
################################################################################
200711300900 AAXX 30094 67751 42680 20304 10265 20183 48/// 82100
                   333 58000 82830=
200711300600 AAXX 30064 67751 32580 10403 10230 20177 48/// 81101
                   333 10261 20161 58004 81824 81080=
200711200600 AAXX 20064 67751 12980 10802 10245 20187 69904 81030
                   333 10290 20170 59001 81360=
200711160600 AAXX 16064 67751 12980 30703 10248 20186 69904 83303
                   333 10311 20190 58008 83360=
200711130900 AAXX 13094 67751 41775 30807 10290 20171 48/// 70500 83100
                   333 5//// 83850=
200711010600 AAXX 01064 67751 31975 00409 10264 20135 48/// 70500
                   333 10332 20212 59010=

################################################################################
#  SYNOPS from 67753, Choma (Zambia) | 16-50S | 027-04E | 1213 m
################################################################################
200711300900 AAXX 30094 67753 42680 40905 10255 20184 48/// 84100
                   333 5//// 84830=
200711300600 AAXX 30064 67753 32980 00605 10214 20169 48///
                   333 10257 20145 5////=
200711290900 AAXX 29094 67753 42580 70615 10225 20172 48/// 875//
                   333 5//// 87625=
200711290600 AAXX 29064 67753 12480 80612 10190 20170 60044 885//
                   333 10230 20170 88615=
200711280900 AAXX 28094 67753 41580 73610 10255 20186 71722 8133/
                   333 81928 84625 87360=
200711280600 AAXX 28064 67753 32980 73605 10217 20183 8707/
                   333 10300 20175 87360=
200711260900 AAXX 26094 67753 42980 63610 10250 20172 48/// 86030
                   333 5//// 86360=
200711230900 AAXX 23094 67753 42980 72705 10256 20179 48/// 8703/
                   333 5//// 87360=
200711200600 AAXX 20064 67753 32980 13610 10232 20162 48532 60014 80001
                   333 10289 20157 81008=
200711171200 AAXX 17124 67753 41680 71007 10279 20184 71522 84208
                   333 81940 84840 87280=
200711160600 AAXX 16064 67753 12980 20000 10246 20176 69964 82030
                   333 10298 20175 82360=
200711130900 AAXX 13094 67753 42680 20908 10280 20157 48/// 82100
                   333 5//// 82840=
200711130600 AAXX 13064 67753 32980 00607 10230 20172 48///
                   333 10296 20169 5////=
200711071200 AAXX 07124 67753 42480 72706 10240 20162 48/// 83530
                   333 5//// 83618 87360=
200711050600 AAXX 05064 67753 31960 72714 10245 20136 48/// 70522 82037
                   333 10340 20198 5//// 82360 87280=
200711020900 AAXX 02094 67753 41660 21008 10290 20140 70500 82100
                   333 82845=
200711020600 AAXX 02064 67753 31960 00912 10238 20132 70500
                   333 10290 20165=
200711010900 AAXX 01094 67753 41960 63612 10282 20136 70521 86030
                   333 5//// 86360=
200711010600 AAXX 01064 67753 31960 10908 10248 20134 48/// 70500 82080
                   333 10313 20182 82364=

################################################################################
#  SYNOPS from 67855, Lupaki (Zambia) | 17-03-00S | 024-46-00E | 1000 m
################################################################################
200712010000 AAXX 01004 67855 NIL=
200711301800 AAXX 30184 67855 NIL=
200711301200 AAXX 30124 67855 NIL=
200711300600 AAXX 30064 67855 NIL=
200711300000 AAXX 30004 67855 NIL=
200711291800 AAXX 29184 67855 NIL=
200711291200 AAXX 29124 67855 NIL=
200711290600 AAXX 29064 67855 12580 70502 10212 20162 38/// 48/// 60174 875//
                   333 20165 5//// 87625=
200711290000 AAXX 29004 67855 NIL=
200711281800 AAXX 28184 67855 NIL=
200711281200 AAXX 28124 67855 NIL=
200711280600 AAXX 28064 67855 NIL=
200711280000 AAXX 28004 67855 NIL=
200711271800 AAXX 27184 67855 NIL=
200711271200 AAXX 27124 67855 NIL=
200711270600 AAXX 27064 67855 11580 70401 10244 20184 3//// 48/// 69904 72166 8127/
                   333 20204 5//// 81820 87460=
200711270000 AAXX 27004 67855 NIL=
200711261800 AAXX 26184 67855 NIL=
200711261200 AAXX 26124 67855 NIL=
200711260600 AAXX 26064 67855 NIL=
200711260000 AAXX 26004 67855 NIL=
200711251800 AAXX 25184 67855 NIL=
200711251200 AAXX 25124 67855 NIL=
200711250600 AAXX 25064 67855 NIL=
200711250000 AAXX 25004 67855 NIL=
200711241800 AAXX 24184 67855 NIL=
200711241200 AAXX 24124 67855 NIL=
200711240600 AAXX 24064 67855 NIL=
200711240000 AAXX 24004 67855 NIL=
200711231800 AAXX 23184 67855 NIL=
200711231200 AAXX 23124 67855 NIL=
200711230600 AAXX 23064 67855 NIL=
200711230000 AAXX 23004 67855 NIL=
200711221800 AAXX 22184 67855 NIL=
200711221200 AAXX 22124 67855 NIL=
200711220600 AAXX 22064 67855 12980 80000 10240 20164 38/// 48/// 69904 83032
                   333 20194 5//// 83360 88080=
200711220000 AAXX 22004 67855 NIL=
200711211800 AAXX 21184 67855 NIL=
200711211200 AAXX 21124 67855 NIL=
200711210600 AAXX 21064 67855 11580 70000 10218 20167 3//// 48/// 69904 71511 8127/
                   333 20174 5//// 81820 87360=
200711210000 AAXX 21004 67855 NIL=
200711201800 AAXX 20184 67855 NIL=
200711201200 AAXX 20124 67855 NIL=
200711200600 AAXX 20064 67855 12980 70000 10246 20174 3//// 48/// 69904 87032
                   333 20158 5//// 87360=
200711200000 AAXX 20004 67855 NIL=
200711191800 AAXX 19184 67855 NIL=
200711190600 AAXX 19064 67855 12980 10601 10246 20157 38/// 48/// 69964 80001
                   333 20170 5//// 81080=
200711190000 AAXX 19004 67855 NIL=
200711181800 AAXX 18184 67855 NIL=
200711181200 AAXX 18124 67855 NIL=
200711180600 AAXX 18064 67855 12980 70501 10248 20177 3//// 48/// 69994 80002
                   333 20175 5//// 87080=
200711180000 AAXX 18004 67855 NIL=
200711171800 AAXX 17184 67855 NIL=
200711170600 AAXX 17064 67855 32980 71601 10246 20161 3//// 48/// 81032
                   333 20154 5//// 81360 87080=
200711170000 AAXX 17004 67855 NIL=
200711160600 AAXX 16064 67855 NIL=
200711160000 AAXX 16004 67855 NIL=
200711151800 AAXX 15184 67855 NIL=
200711151200 AAXX 15124 67855 NIL=
200711150600 AAXX 15064 67855 32980 50401 10263 20151 3//// 48/// 81032
                   333 20200 5//// 81360 85080=
200711150000 AAXX 15004 67855 NIL=
200711141800 AAXX 14184 67855 NIL=
200711141200 AAXX 14124 67855 NIL=
200711140600 AAXX 14064 67855 32980 00000 10244 20086 3//// 48///
                   333 20142 5////=
200711140000 AAXX 14004 67855 NIL=
200711131800 AAXX 13184 67855 NIL=
200711131200 AAXX 13124 67855 NIL=
200711130600 AAXX 13064 67855 32980 01001 10248 20116 3//// 48///
                   333 20149 5////=
200711130000 AAXX 13004 67855 NIL=
200711121800 AAXX 12184 67855 NIL=
200711120600 AAXX 12064 67855 32980 00901 10222 20149 3//// 48///
                   333 20153 5////=
200711091200 AAXX 09124 67855 NIL=
200711090600 AAXX 09064 67855 12980 22601 10194 20158 3//// 48/// 60034 80002
                   333 20125 5//// 82080=
200711090000 AAXX 09004 67855 NIL=
200711081800 AAXX 08184 67855 NIL=
200711081200 AAXX 08124 67855 NIL=
200711051200 AAXX 05124 67855 NIL=
200711041200 AAXX 04124 67855 NIL=
200711040600 AAXX 04064 67855 32980 10301 10266 20127 3//// 48/// 80001
                   333 20185 5//// 81080=
200711040000 AAXX 04004 67855 NIL=
200711031800 AAXX 03184 67855 NIL=
200711031200 AAXX 03124 67855 NIL=
200711030600 AAXX 03064 67855 NIL=
200711021800 AAXX 02184 67855 NIL=
200711021200 AAXX 02124 67855 NIL=
200711020600 AAXX 02064 67855 NIL=
200711020000 AAXX 02004 67855 NIL=
200711011800 AAXX 01184 67855 NIL=
200711011200 AAXX 01124 67855 NIL=
