################################################################################
# Query made at 04/10/2022 06:44:47 UTC
# Country like Zamb*
# Time interval: from 10/01/2020 05:30  to 10/31/2020 06:30  UTC
################################################################################

################################################################################
#  SYNOPS from 67403, Kawambwa (Zambia) | 09-48S | 029-05E | 1323 m
################################################################################
202010300600 AAXX 30064 67403 31975 60905 10232 20133 48523 70500 81031
                   333 10326 20184 58008 81360 86080=
202010290600 AAXX 29064 67403 31975 40905 10239 20137 48515 70500 84031
                   333 10314 20184 58010 84360 81080=
202010270600 AAXX 27064 67403 31975 70901 10230 20197 48510 70522 8703/
                   333 10310 20189 58006 87360=
202010260600 AAXX 26064 67403 31970 63001 10232 20197 48504 70522 80001
                   333 10270 20186 5//// 86080=
202010230600 AAXX 23064 67403 31975 60901 10242 20152 48536 70522 86031
                   333 10309 20188 58004 86360 81080=
202010220600 AAXX 22064 67403 NIL=
202010200600 AAXX 20064 67403 31970 60903 10235 20137 48495 70522 86031
                   333 10324 20183 5//// 86360 81080=
202010160600 AAXX 16064 67403 12980 20908 10222 20132 48528 80001
                   333 10312 20176 59011 82080=
202010150600 AAXX 15064 67403 12980 20908 10227 20164 48538 69924 82031
                   333 10296 20181 59002 82360 81080=
202010141500 AAXX 14154 67403 NIL=
202010140600 AAXX 14064 67403 12980 40905 10224 20180 48536 60124 84030
                   333 10229 20172 58002 84369=

################################################################################
#  SYNOPS from 67413, Mbala (Zambia) | 08-51S | 031-20E | 1673 m
################################################################################
202010220600 AAXX 22064 67413 NIL=
202010141500 AAXX 14154 67413 NIL=

################################################################################
#  SYNOPS from 67441, Mwinilunga (Zambia) | 11-45S | 024-26E | 1361 m
################################################################################
202010300900 AAXX 30094 67441 42680 40503 10295 20133 48555 84100
                   333 58003 84850=
202010300600 AAXX 30064 67441 32980 30000 10210 20176 48559 83030
                   333 10310 20//0 58007 83360=
202010290600 AAXX 29064 67441 32580 50000 10195 20170 48546 85500
                   333 10325 20//0 58009 85630=
202010270900 AAXX 27094 67441 42680 60000 10270 20168 48538 86100
                   333 58004 86840=
202010270600 AAXX 27064 67441 31480 70000 10200 20163 48541 70522 876//
                   333 10324 20//0 58015 87710=
202010260600 AAXX 26064 67441 31980 30000 10200 20149 48526 70500 83031
                   333 10320 20//0 5//// 83360=
202010230600 AAXX 23064 67441 31980 50000 10210 20159 48573
                   333 10330 20//0 5//// 85360=
202010220600 AAXX 22064 67441 11980 60000 10192 20171 48/// 60034 70522 86030
                   333 10310 20/// 5//// 86360=
202010210600 AAXX 21064 67441 32580 70000 10190 20156 46548 875//
                   333 10348 20//0 58015 87625=
202010200600 AAXX 20064 67441 31980 00000 10180 20112 48534 70500
                   333 10320 2//// 59013=
202010160600 AAXX 16064 67441 32980 30000 10205 20162 48559 80001
                   333 10304 20//0 59018 83075=
202010150600 AAXX 15064 67441 12980 40000 10205 20171 48577 60044 84030
                   333 10310 20//0 58005 84360=
202010141500 AAXX 14154 67441 NIL=

################################################################################
#  SYNOPS from 67461, Mansa (Zambia) | 11-06S | 028-51E | 1382 m
################################################################################
202010300900 AAXX 30094 67461 42780 11216 10306 20109 48514 81101
                   333 59012 81858 81080=
202010300600 AAXX 30064 67461 32980 31212 10255 20153 48513 80001
                   333 10324 20180 59009 83080=
202010290600 AAXX 29064 67461 32980 51110 10246 20099 48527 80008
                   333 10322 20187 59024 85280=
202010281200 AAXX 28124 67461 42780 51411 10300 20133 48469 83231
                   333 58001 83835 82360 81080 91012=
202010270900 AAXX 27094 67461 41675 71211 10288 20189 48478 70522 84231
                   333 58000 84838 81360 81080 91014=
202010270600 AAXX 27064 67461 31575 61209 10247 20175 48495 70522 81530
                   333 10328 20210 59014 81628 85360=
202010260600 AAXX 26064 67461 31975 71204 10240 20163 48481
                   333 10332 20188 59016 87280=
202010220600 AAXX 22064 67461 32989 11310 10245 20169 48533 80001
                   333 10311 20161 58006 81080=
202010200600 AAXX 20064 67461 31975 51502 10241 20149 48502 70522 80008
                   333 10326 20168 59012 85280 91016=
202010160600 AAXX 16064 67461 32980 01311 10210 20155 48517
                   333 10294 20168 59019=
202010150600 AAXX 15064 67461 32580 40821 10232 20174 48548 84230
                   333 10298 20184 58017 84620 81360 91021=
202010141500 AAXX 14154 67461 NIL=
202010140600 AAXX 14064 67461 12480 71608 10205 20182 48529 60054 70222 8553/
                   333 10283 20168 59007 85610 84360=

################################################################################
#  SYNOPS from 67469, Samfya (Zambia) | 11-22S | 029-54E | 1171 m
################################################################################
202010290600 AAXX 29064 67469 32980 11107 10240 20180 48/// 81032
                   333 10306 20221 5//// 81360 81080=
202010270900 AAXX 27094 67469 42680 80905 10279 20190 82232
                   333 5//// 81835 82360 83280=
202010270600 AAXX 27064 67469 32580 51106 10234 20180 48/// 82838
                   333 10302 20224 5//// 82624 82824 83360=
202010260600 AAXX 26064 67469 32980 01206 10250 20180 48///
                   333 10315 20197 5////=
202010230600 AAXX 23064 67469 32980 10805 10249 20160 48/// 80002
                   333 10314 20206 5//// 81080=
202010220600 AAXX 22064 67469 32980 01107 10248 20180 48///
                   333 10296 20200 5////=
202010201200 AAXX 20124 67469 42780 30604 10303 20180 48/// 81930
                   333 5//// 81950 83850 81360=
202010200600 AAXX 20064 67469 32980 11104 10242 20180 48/// 81030
                   333 10280 20214 5//// 81360=
202010160600 AAXX 16064 67469 32980 01208 10223 20190 48///
                   333 10270 20185 5////=
202010141500 AAXX 14154 67469 NIL=
202010140600 AAXX 14064 67469 12480 31209 10225 20190 48/// 60564 81830
                   333 10275 20205 5//// 81613 83813 81360=

################################################################################
#  SYNOPS from 67475, Kasama (Zambia) | 10-13S | 031-08E | 1382 m
################################################################################
202010300900 AAXX 30094 67475 41660 61003 10284 20110 48535 70522 83208
                   333 58010 83830 86280=
202010300600 AAXX 30064 67475 31960 80811 10239 20122 48539 70522 80007
                   333 10336 20170 58010 88280=
202010290600 AAXX 29064 67475 31960 40912 10234 20129 48528 70522 82038
                   333 10336 20152 58007 82360 84280=
202010281200 AAXX 28124 67475 41760 40914 10316 20095 48487 70522 84200
                   333 58000 81956 84856 91016=
202010270900 AAXX 27094 67475 41660 80308 10289 20127 48520 70522 84207
                   333 58011 84830 88280 91019=
202010270600 AAXX 27064 67475 11960 60811 10238 20139 48519 69904 70522 82038
                   333 10338 20191 58006 82360 85280=
202010260600 AAXX 26064 67475 31960 80611 10246 20142 48513 70522 83037
                   333 10334 20181 59002 83360=
202010230600 AAXX 23064 67475 31960 01314 10239 20128 48540 70500
                   333 10338 20184 58001=
202010220600 AAXX 22064 67475 31960 51011 10234 20139 48538 70522 80008
                   333 10324 20162 58015 85280=
202010201200 AAXX 20124 67475 41660 80904 10301 20101 48480 70522 84207
                   333 59005 84845 88280 91015=
202010200600 AAXX 20064 67475 31960 00517 10236 20135 48510 70500
                   333 10331 20178 59013 91018=
202010160600 AAXX 16064 67475 11970 01005 10216 20128 48539 70500
                   333 10288 20155 59018=
202010150600 AAXX 15064 67475 11460 41017 10211 20159 48557 60024 70510 84530
                   333 10318 20171 58003 84610 82360 91024=
202010141500 AAXX 14154 67475 NIL=
202010140600 AAXX 14064 67475 11360 51011 10199 20159 48553 69904 70522 83650
                   333 10302 20168 58014 83709 85360=

################################################################################
#  SYNOPS from 67476, Misamfu (Zambia) | 10-06S | 031-15E | 1536 m
################################################################################
202010220600 AAXX 22064 67476 11978 10503 10245 20146 48/// 69904 70500 80001
                   333 10319 20110 59013 81080=
202010210600 AAXX 21064 67476 31977 30604 10249 20145 48/// 70510 83030
                   333 10325 20122 58013 83360=
202010200600 AAXX 20064 67476 31977 11204 10240 20142 48/// 70800 80001
                   333 10320 20120 5//// 81080=
202010151200 AAXX 15124 67476 42680 61404 10254 20161 48/// 83271
                   333 5//// 83848 84360 81080=
202010150600 AAXX 15064 67476 11478 51407 10212 20164 48/// 69994 70520 82430
                   333 10312 20115 5//// 82618 83820 81360=
202010141500 AAXX 14154 67476 NIL=

################################################################################
#  SYNOPS from 67477, Mpika (Zambia) | 11-54S | 031-26E | 1400 m
################################################################################
202010300900 AAXX 30094 67477 41578 10904 10274 20110 48/// 70500 81100
                   333 5//// 81825=
202010300600 AAXX 30064 67477 31987 01205 10241 20130 48/// 70500
                   333 10415 20155 5////=
202010290600 AAXX 29064 67477 31960 40912 10234 20129 48528 70522 82038
                   333 10336 20152 58007 82360 84280=
202010281200 AAXX 28124 67477 42680 30905 10290 20110 48/// 83201
                   333 5//// 83840 82080=
202010280600 AAXX 28064 67477 42680 51206 10294 20100 48/// 82231
                   333 10//0 20//0 5//// 82836 82359 84080=
202010270900 AAXX 27094 67477 42580 30609 10277 20110 48/// 81101
                   333 5//// 81825 83080=
202010270600 AAXX 27064 67477 31978 21210 10243 20130 48/// 70500 80001
                   333 10319 20176 5//// 82080=
202010260600 AAXX 26064 67477 31978 00610 10236 20130 48/// 70500
                   333 10305 20176 5////=
202010230600 AAXX 23064 67477 31975 01218 10229 20102 48/// 70500
                   333 10315 20188 5////=
202010220600 AAXX 22064 67477 31975 00919 10250 20100 48/// 70500
                   333 10320 20199 5////=
202010201200 AAXX 20124 67477 41775 40909 10315 20100 48/// 70522 84200
                   333 5//// 84858=
202010200600 AAXX 20064 67477 31975 01215 10241 20105 48/// 70500
                   333 10315 20180 5////=
202010160600 AAXX 16064 67477 31478 20901 10203 20140 48/// 82501
                   333 10273 20126 5//// 82610 81080=
202010150600 AAXX 15064 67477 11478 81210 10181 20140 48/// 69904 70522 885//
                   333 10293 20176 5//// 88611=
202010141500 AAXX 14154 67477 NIL=
202010140600 AAXX 14064 67477 31475 61208 10212 20170 48/// 70522 86501
                   333 10287 20181 5//// 86610 82080=
202010130600 AAXX 13064 67477 31470 71209 10199 20160 48/// 70522 87500
                   333 10306 20176 5//// 87612=

################################################################################
#  SYNOPS from 67481, Isoka (Zambia) | 10-07S | 032-38E | 1360 m
################################################################################
202010300600 AAXX 30064 67481 31477 00902 10255 20112 48/// 70500
                   333 10320 20160 5////=
202010290600 AAXX 29064 67481 31975 10902 10250 20120 48/// 70500 80001
                   333 10320 20165 5//// 81080=
202010281200 AAXX 28124 67481 41775 53002 10290 20125 48/// 70521 85200
                   333 58003 85850=
202010270900 AAXX 27094 67481 41675 30902 10302 20128 48/// 70500 83100
                   333 5//// 83840=
202010270600 AAXX 27064 67481 11975 10902 10252 20135 48/// 69904 70500 80001
                   333 10320 20190 5//// 81080=
202010220600 AAXX 22064 67481 31970 02402 10248 20132 48/// 70500
                   333 10338 20170 5////=
202010200600 AAXX 20064 67481 31970 00301 10242 20146 48/// 70500
                   333 10322 20170 5////=
202010160600 AAXX 16064 67481 12580 12702 10215 20135 48/// 60014 81100
                   333 10260 20150 5//// 81820=
202010150600 AAXX 15064 67481 11478 72702 10191 20274 48/// 70522 875//
                   333 10300 20180 5//// 87610=
202010141500 AAXX 14154 67481 NIL=

################################################################################
#  SYNOPS from 67531, Zambezi (Zambia) | 13-32S | 023-07E | 1077 m
################################################################################
202010300900 AAXX 30094 67531 42680 13602 10281 20190 48/// 70500 81101
                   333 58003 81838 81081=
202010300600 AAXX 30064 67531 12980 70303 10215 20186 48/// 60074 8707/
                   333 10355 20186 58005 87460=
202010290600 AAXX 29064 67531 12980 10000 10215 20170 48/// 69944 80002
                   333 10332 20171 58012 81081=
202010280600 AAXX 28064 67531 12980 53003 10216 20179 48/// 60114 80008
                   333 10345 20176 58006 85280=
202010260600 AAXX 26064 67531 32980 20904 10254 20111 48/// 81031
                   333 10381 20163 59016 81362 82081=
202010230600 AAXX 23064 67531 32980 13102 10225 20178 48/// 80001
                   333 10356 20166 58006 81081=
202010220600 AAXX 22064 67531 32980 30000 10246 20172 48/// 80002
                   333 10344 20170 58025 83081=
202010200600 AAXX 20064 67531 32980 00803 10250 20080 48///
                   333 10379 20116 59020=
202010160600 AAXX 16064 67531 12980 10000 10215 20186 48/// 69904 80001
                   333 10332 20160 59013 81081=
202010150600 AAXX 15064 67531 11980 70000 10205 20190 48/// 60024 72162 8707/
                   333 10336 20191 58007 87460=
202010141500 AAXX 14154 67531 NIL=
202010140600 AAXX 14064 67531 32980 70908 10219 20176 48/// 8707/
                   333 10341 20186 58006 87362=
202010130600 AAXX 13064 67531 12980 33603 10229 20179 48/// 69904 83030
                   333 10344 20166 58022 83362=

################################################################################
#  SYNOPS from 67541, Kasempa (Zambia) | 13-32S | 025-51E | 1234 m
################################################################################
202010300600 AAXX 30064 67541 32980 20504 10240 20144 48/// 70222 80002
                   333 10342 20144 5//// 82080=
202010290600 AAXX 29064 67541 32980 40000 10235 20165 48/// 70222 80004
                   333 10340 20132 5//// 84080=
202010280600 AAXX 28064 67541 32980 30000 10230 20162 48/// 70222 80003
                   333 10340 20136 5//// 83080=
202010270600 AAXX 27064 67541 32980 70506 10250 20123 48/// 70222 80007
                   333 10350 20164 5//// 87080=
202010230600 AAXX 23064 67541 32980 10000 10245 20131 48/// 70222 80001
                   333 10340 20174 5//// 81080=
202010220600 AAXX 22064 67541 32980 20000 10245 20140 48/// 70222 80002
                   333 10344 20150 5//// 82080=
202010210600 AAXX 21064 67541 32980 10000 10220 20139 48/// 70500
                   333 10350 20098 5//// 81080=
202010200600 AAXX 20064 67541 32980 10000 10200 20105 48/// 80001
                   333 10348 20128 5//// 81080=
202010160600 AAXX 16064 67541 32980 20000 10223 20146 48/// 70222 80002
                   333 10318 20148 5//// 82080=
202010141500 AAXX 14154 67541 NIL=
202010140600 AAXX 14064 67541 12980 30000 10210 20180 48/// 60264 70222
                   333 10304 20148 5////=

################################################################################
#  SYNOPS from 67543, Kabompo (Zambia) | 13-36S | 024-12E | 1075 m
################################################################################
202010300600 AAXX 30064 67543 11975 30000 10242 20167 48/// 69964 70522 80005
                   333 10364 20184 5//// 83280=
202010290600 AAXX 29064 67543 11970 40000 10230 20154 48/// 69904 70522 80005
                   333 10366 20174 5//// 84280=
202010280900 AAXX 28094 67543 41675 50803 10336 20140 48/// 70521 83205
                   333 5//// 83080=
202010280600 AAXX 28064 67543 31970 40000 10234 20166 48/// 70522 80005
                   333 10374 20170 5//// 84280=
202010270600 AAXX 27064 67543 31965 70000 10244 20169 48/// 70522 80007
                   333 10388 20196 5//// 86280=
202010260600 AAXX 26064 67543 31970 40301 10252 20087 48/// 70522 80007
                   333 10384 20162 5//// 84280=
202010230600 AAXX 23064 67543 31975 40000 10254 20126 48/// 70522 80005
                   333 10372 20200 5//// 84280=
202010220600 AAXX 22064 67543 NIL=
202010210600 AAXX 21064 67543 31960 00000 10228 20122 48/// 70500
                   333 10386 20138 5////=
202010200600 AAXX 20064 67543 31965 00000 10200 20106 48/// 70500
                   333 10380 20132 5////=
202010160600 AAXX 16064 67543 12980 50000 10230 20154 48/// 69904 80005
                   333 10340 20170 5//// 85280=
202010150600 AAXX 15064 67543 12980 70000 10226 20179 48/// 60064 8705/
                   333 10354 20186 5//// 87360=
202010141500 AAXX 14154 67543 NIL=
202010140600 AAXX 14064 67543 12980 41002 10234 20185 48/// 69944 84030
                   333 10338 20200 5//// 84360=

################################################################################
#  SYNOPS from 67551, Solwezi (Zambia) | 12-11S | 026-23E | 1386 m
################################################################################
202010300600 AAXX 30064 67551 12970 30905 10233 20116 48527 69904 83030
                   333 10301 20183 59003 83362=
202010290600 AAXX 29064 67551 32975 72004 10219 20150 48528 87030
                   333 10306 20161 58018 87362=
202010281200 AAXX 28124 67551 42680 60506 10298=
202010280900 AAXX 28094 67551 42580 60807 10288 20142 48518 84130
                   333 58002 84825 82362 82080 91018=
202010280600 AAXX 28064 67551 12970 41703 10204 20154 48509 69904 80001
                   333 10291 20155 59006 83080=
202010270900 AAXX 27094 67551 41670 11005 10278 20158 48516 70500 82100
                   333 58011 81830=
202010270600 AAXX 27064 67551 11470 33204 10214 20177 48516 69904 72582 81201
                   333 10325 20162 58006 81815 82080=
202010260600 AAXX 26064 67551 31970 60805 10229 20114 48511 70522 80004
                   333 10324 20156 59005 86080=
202010230600 AAXX 23064 67551 31970 51506 10217 20124 48540 70522 85030
                   333 10300 20175 58005 85362=
202010220600 AAXX 22064 67551 12970 01705 10214 20162 48535 60034 70500
                   333 10305 20168 58016=
202010210600 AAXX 21064 67551 32970 03605 10218 20155 48519
                   333 10309 20148 58015=
202010200900 AAXX 20094 67551 42970 01505 10290 20087 48509
                   333 59013 91017=
202010200600 AAXX 20064 67551 32970 30603 10204 20123 48503 83030
                   333 10341 20135 59016 83362 91017=
202010160600 AAXX 16064 67551 31960 30904 10208 20136 48534 70500 80001
                   333 10291 20156 59011 83080=
202010151200 AAXX 15124 67551 42570 60605 10289 20158 48527 86200
                   333 58004 86830=
202010150600 AAXX 15064 67551 12970 50505 10199 20183 69914 85030
                   333 10319 20171 58001 85362=
202010141500 AAXX 14154 67551 41770 61609 10261 20163 48507 71799 81930
                   333 59001 84850 83362=

################################################################################
#  SYNOPS from 67561, Ndola (Zambia) | 13-00S | 028-39E | 1269 m
################################################################################
202010300900 AAXX 30094 67561 41560 31313 10294 20115 48536 70500 83100
                   333 58003 83840=
202010300600 AAXX 30064 67561 41950 00912 10248 20124 48542 70400
                   333 10331 20182 58004=
202010290600 AAXX 29064 67561 31959 61010 10248 20127 48534 70422 80008
                   333 10328 20167 58014=
202010281200 AAXX 28124 67561 41675 61208 10320 20099 48495 70522 85201
                   333 58008 85840 83080 91015=
202010280600 AAXX 28064 67561 31959 50706 10238 20136 48519 70422 80008
                   333 10323 20165 59007 85280=
202010270600 AAXX 27064 67561 31959 20811 10250 20137 48528 70411 82030
                   333 10336 20188 58012 82360=
202010260600 AAXX 26064 67561 31959 30808 10245 20110 48515 70400 80002
                   333 10344 20168 59003 83080=
202010230600 AAXX 23064 67561 32980 21461 10247 20144 48538 80001
                   333 10326 20187 58004 82080=
202010220600 AAXX 22064 67561 NIL=
202010210600 AAXX 21064 67561 31957 00705 10234 20104 48523 70400
                   333 10326 20177 58014=
202010200600 AAXX 20064 67561 31959 09010 10245 20078 48507 70400
                   333 10326 20162 59017 91018=
202010141500 AAXX 14154 67561 41670 71207 10233 20166 48510 79599 85438
                   333 58000 81940 85645 84360 85280=

################################################################################
#  SYNOPS from 67563, Kafironda (Zambia) | 12-36S | 028-07E | 1243 m
################################################################################
202010220600 AAXX 22064 67563 NIL=
202010210600 AAXX 21064 67563 31970 00000 10195 20147 48/// 70500
                   333 10335 20130 5////=
202010141500 AAXX 14154 67563 NIL=

################################################################################
#  SYNOPS from 67571, Serenje (Zambia) | 13-14S | 030-13E | 1384 m
################################################################################
202010280600 AAXX 28064 67571 32580 10603 10242 20126 48473 70500 81100
                   333 10320 20186 59008 81823=
202010270900 AAXX 27094 67571 41670 50603 10287 20134 48474 85200
                   333 58007 81937 85837=
202010260600 AAXX 26064 67571 32970 01206 10246 20120 48463
                   333 10331 20196 59010=
202010230600 AAXX 23064 67571 12978 01206 10219 20111 48503 69904 70500
                   333 10296 20161 58015=
202010220600 AAXX 22064 67571 NIL=
202010201200 AAXX 20124 67571 42679 50000 10298 20107 48433 85200
                   333 59010 85847=
202010200600 AAXX 20064 67571 32978 00903 10245 20110 48463
                   333 10321 20164 59017=
202010151200 AAXX 15124 67571 42680 20902 10259 20111 48494 81101
                   333 58011 81835 81080=
202010150600 AAXX 15064 67571 32480 30905 10200 20119 48522 83500
                   333 10296 20175 58004 83618=
202010141500 AAXX 14154 67571 NIL=

################################################################################
#  SYNOPS from 67575, Mkushi (Zambia) | 13-38-00S | 029-26-00E | 1237 m
################################################################################
202010220600 AAXX 22064 67575 NIL=
202010141500 AAXX 14154 67575 NIL=

################################################################################
#  SYNOPS from 67580, Msekera (Zambia) | 13-39S | 032-34E | 1025 m
################################################################################
202010280600 AAXX 28064 67580 31676 40904 10270 20161 48/// 70511 81101
                   333 10352 20196 59010 81832 84080=
202010270600 AAXX 27064 67580 12680 41003 10270 20186 48/// 69904 83130
                   333 10336 20186 5//// 83830 81360=
202010220600 AAXX 22064 67580 32980 01211 10256 20156 48///
                   333 10357 20200 58028=
202010210600 AAXX 21064 67580 32980 01005 10276 20143 48///
                   333 10357 20226 5////=
202010150600 AAXX 15064 67580 11978 41504 10222 20125 48/// 69904 70511 80001
                   333 10316 20183 58009 84080=
202010141500 AAXX 14154 67580 NIL=

################################################################################
#  SYNOPS from 67581, Chipata (Zambia) | 13-33S | 032-35E | 1028 m
################################################################################
202010300600 AAXX 30064 67581 32980 00708 10270 20136 48563
                   333 10//0 20217 5////=
202010290600 AAXX 29064 67581 32680 31206 10270 20140 48/// 83100
                   333 10//0 20222 5//// 83840=
202010281200 AAXX 28124 67581 42680 60812 10312 20140 48523 86200
                   333 58012 81945 86845 91016=
202010280900 AAXX 28094 67581 42680 60912 10300 20156 48542 70222 862//
                   333 58000 86840 91018=
202010280600 AAXX 28064 67581 32680 40915 10260 20147 48541 70200 81102
                   333 10/// 20212 59010 81830 84080=
202010270600 AAXX 27064 67581 32680 21605 10270 20146 48552 82100
                   333 10//0 20218 5//// 82840=
202010220600 AAXX 22064 67581 NIL=
202010141500 AAXX 14154 67581 NIL=

################################################################################
#  SYNOPS from 67583, Lundazi (Zambia) | 12-17S | 033-12E | 1143 m
################################################################################
202010290600 AAXX 29064 67583 32980 10905 10248 20129 48/// 70200 80001
                   333 10320 20//0 81080=
202010281200 AAXX 28124 67583 42780 41502 10310 20126 48/// 83231
                   333 5//// 83830 81361 81080=
202010270600 AAXX 27064 67583 32980 60902 10242 20172 48/// 70222 81230
                   333 10332 20//0 5//// 81825 85359=
202010220600 AAXX 22064 67583 NIL=
202010200600 AAXX 20064 67583 32980 01203 10264 20137 48///
                   333 10336 2////=
202010141500 AAXX 14154 67583 NIL=

################################################################################
#  SYNOPS from 67599, Mfuwe (Zambia) | 13-16S | 031-56E | 568 m
################################################################################
202010290600 AAXX 29064 67599 31950 30712 10303 20138 48539 70500 80002
                   333 10380 20198 58013 83080=
202010280600 AAXX 28064 67599 32956 50514 10295 20147 48520 70500 80002
                   333 10391 20195 59005 85080=
202010270600 AAXX 27064 67599 31950 40705 10302 20146 70522 84030
                   333 10395 20209 58011 84360=
202010220600 AAXX 22064 67599 NIL=
202010141500 AAXX 14154 67599 NIL=

################################################################################
#  SYNOPS from 67625, Kalabo (Zambia) | 14-51S | 022-42E | 1033 m
################################################################################
202010300600 AAXX 30064 67625 32982 72905 10237 20164 48/// 87033
                   333 10355 20195 59003 87360 87075=
202010290600 AAXX 29064 67625 32982 73405 10240 20171 48/// 81084
                   333 10355 20194 58011 81360 87075=
202010280600 AAXX 28064 67625 32982 73509 10235 20174 48/// 80004
                   333 10376 20185 58011 87075=
202010270600 AAXX 27064 67625 32982 70314 10265 20174 48/// 83034
                   333 10380 20230 58001 83360 87075=
202010230600 AAXX 23064 67625 32982 70608 10240 20116 48/// 82084
                   333 10360 20200 58002 82360 87075=
202010220600 AAXX 22064 67625 NIL=
202010160600 AAXX 16064 67625 12980 70910 10240 20162 48/// 60054 80003
                   333 10340 20170 58016 87075=
202010141500 AAXX 14154 67625 NIL=
202010140600 AAXX 14064 67625 32980 50913 10225 20164 48/// 85030
                   333 10350 20179 59011 85360=

################################################################################
#  SYNOPS from 67633, Mongu (Zambia) | 15-15S | 023-09E | 1052 m
################################################################################
202010300900 AAXX 30094 67633 42680 13606 10335 20141 48523 81100
                   333 59009 81850=
202010300600 AAXX 30064 67633 32980 00902 10256 20175 48513
                   333 10//0 20//0 59010=
202010290600 AAXX 29064 67633 32980 03603 10255 20166 48522
                   333 10356 20190 58013=
202010280600 AAXX 28064 67633 32980 43602 10260 20176 48519 70200 80001
                   333 10382 20200 58009 84080=
202010230600 AAXX 23064 67633 32980 30907 10263 20104 48542 82031
                   333 10372 20195 58004 82360 81080=
202010220600 AAXX 22064 67633 32980 00603 10255 20139 48538
                   333 10374 20205 59027=
202010160600 AAXX 16064 67633 32980 00902 10258 20143 48543 70200
                   333 10354 20186 59010=
202010150600 AAXX 15064 67633 32980 60406 10250 20170 48550 83038
                   333 10341 20205 58005 83360 83280
                   555 00196 91021=
202010141500 AAXX 14154 67633 NIL=
202010140600 AAXX 14064 67633 12980 30903 10205 20175 48538 60024 83031
                   333 10349 20176 58003 83360 81080=

################################################################################
#  SYNOPS from 67641, Kaoma (Zambia) | 14-48S | 024-48E | 1213 m
################################################################################
202010300600 AAXX 30064 67641 31975 00802 10252 20132 48510 70500
                   333 10364 20188 58003=
202010290600 AAXX 29064 67641 31970 40702 10252 20122 48510 70521 81031
                   333 10369 20186 59015 81360=
202010280600 AAXX 28064 67641 31970 20802 10260 20136 48498 70500 80001
                   333 10362 20193 59012 82080=
202010230600 AAXX 23064 67641 31970 11006 10267 20112 48546 70500
                   333 10367 20182 58004 81080=
202010220600 AAXX 22064 67641 31960 60801 10251 20115 48539 70522 80001
                   333 10377 20182 58035 86080=
202010210600 AAXX 21064 67641 31960 01204 10266 20083 48507 70500
                   333 10380 20167 58007=
202010200600 AAXX 20064 67641 31960 00000 10244 20085 48497 70500
                   333 10370 20123 59019 91015=
202010160600 AAXX 16064 67641 32980 11203 10254 20149 48539 80001
                   333 10349 20178 59012 81080=
202010150600 AAXX 15064 67641 32980 10806 10252 20161 48551 81030
                   333 10340 20189 58003 81362=
202010141500 AAXX 14154 67641 NIL=
202010140600 AAXX 14064 67641 31575 41103 10227 20178 48545 70521 82530
                   333 10330 20188 58016 82628 83362=
202010130600 AAXX 13064 67641 31975 70803 10222 20167 86031
                   333 10291 20183 58009 86362 82080=

################################################################################
#  SYNOPS from 67655, Mumbwa (Zambia) | 15-04S | 027-11E | 1216 m
################################################################################
202010220600 AAXX 22064 67655 NIL=
202010141500 AAXX 14154 67655 NIL=

################################################################################
#  SYNOPS from 67659, Kafue Polder (Zambia) | 15-46S | 027-55E | 978 m
################################################################################
202010220600 AAXX 22064 67659 NIL=
202010141500 AAXX 14154 67659 NIL=

################################################################################
#  SYNOPS from 67662, Kabwe Agric (Zambia) | 14-24S | 028-30E | 1165 m
################################################################################
202010281200 AAXX 28124 67662 41675 50906 10330 20110 48/// 70522 85200
                   333 5//// 85847=
202010280600 AAXX 28064 67662 31975 00906 10265 20105 48/// 70500
                   333 10345 20160 5////=
202010270900 AAXX 27094 67662 41675 10902 10302 20132 48/// 70500 81200
                   333 81825 5////=
202010220600 AAXX 22064 67662 NIL=
202010210600 AAXX 21064 67662 31975 00901 10262 20118 48/// 80008
                   333 10382 20143 58018 84281=
202010201200 AAXX 20124 67662 41675 10000 10336 20039 48/// 70500 81200
                   333 5//// 81848=
202010200900 AAXX 20094 67662 41975 00000 10315 20056 48/// 70500
                   333 5////=
202010151200 AAXX 15124 67662 41680 20902 10300 20122 48/// 70200 82200
                   333 5//// 82848=
202010150600 AAXX 15064 67662 31980 01205 10221 20147 48/// 70200
                   333 10302 20121 5////=
202010141500 AAXX 14154 67662 NIL=
202010130600 AAXX 13064 67662 11480 80902 10202 20170 48/// 60114 70222 885//
                   333 10275 20130 5//// 87612=

################################################################################
#  SYNOPS from 67663, Kabwe (Zambia) | 14-27S | 028-28E | 1206 m
################################################################################
202010300900 AAXX 30094 67663 41675 10907 10306 20148 48534 70500 81100
                   333 59006 81849=
202010300600 AAXX 30064 67663 32980 00902 10256 20175 48513 70500
                   333 10368 20214 59010=
202010290600 AAXX 29064 67663 31975 00915 10256 20146 48526 70500
                   333 10333 20204 58015=
202010260600 AAXX 26064 67663 32980 00912 10270 20096 48504
                   555 10394 20200=
202010230600 AAXX 23064 67663 31975 00811 10241 20106 48538 70500
                   333 10315 20176 58002=
202010220600 AAXX 22064 67663 32980 00914 10251 20156 48532 70500
                   333 10344 20216 58016=
202010210600 AAXX 21064 67663 31975 00808 10260 20120 48517 70500
                   333 10350 20190 58022=
202010200600 AAXX 20064 67663 31975 00905 10258 20065 48505 70500
                   333 10333 20188 59020=
202010160600 AAXX 16064 67663 31975 00609 10209 20131 48500
                   333 10298 20161 58000=
202010151200 AAXX 15124 67663 41575 11107 10287 20142 48534 70500 81130
                   333 58000 81828 81360=
202010150600 AAXX 15064 67663 31975 00619 10221 20146 48570 70500 81100
                   333 10320 20190 58011 81820=
202010141500 AAXX 14154 67663 NIL=
202010140600 AAXX 14064 67663 31475 20607 10269 48552 70500 81530
                   333 10250 20163 58021 81519 82360=

################################################################################
#  SYNOPS from 67665, Lusaka Internationalairport (Zambia) | 15-19S | 028-27E | 1152 m
################################################################################
202010310600 AAXX 31064 67665 31975 00817 10266 20105 48556 70500
                   333 10355 20//0 59006
                   555 00/// 91022=
202010301800 AAXX 30184 67665 42980 01207 10274 20059 48533 70200
                   333 58011 91019=
202010301500 AAXX 30154 67665 41675 10911 10328 20041 48522 70500 81100
                   333 58010 81848 91017=
202010300900 AAXX 30094 67665 41675 10716 10305 20082 48550 70500 81100
                   333 59002 81825=
202010300600 AAXX 30064 67665 31975 00712 10268 20122 48552 70500
                   333 10329 20//0 58004=
202010300300 AAXX 30034 67665 41975 11107 10204 20110 48525 81030
                   333 58011 81360=
202010300000 AAXX 30004 67665 41975 10303 10206 20102 48522 81030
                   333 58012 81360=
202010292100 AAXX 29214 67665 41975 21205 10233 20105 48531 70500 82030
                   333 58010 82360=
202010291500 AAXX 29154 67665 41775 51110 10318 20079 48512 70522 85200
                   333 58005 555 10329 91016=
202010291200 AAXX 29124 67665 41675 51009 10314 20085 48524 70500 85200
                   333 58011 85848 91017=
202010290900 AAXX 29094 67665 42680 10613 10302 20110 48551 70200 81100
                   333 58016 81835 91021=
202010290600 AAXX 29064 67665 32980 00917 10252 20120 48545 70200
                   333 10330 20//0 58011
                   555 00/// 91021=
202010281800 AAXX 28184 67665 42980 01205 10257 20040 48514 70200
                   333 10330 58004=
202010281500 AAXX 28154 67665 42980 10711 10318 20030 48505 81030
                   333 58010 81360 555 10330=
202010281200 AAXX 28124 67665 41770 50911 10312 20057 48511 70522 85200
                   333 58008 85850=
202010280900 AAXX 28094 67665 41770 10813 10302 20091 48536 70500 81100
                   333 58002 81850 91019=
202010280600 AAXX 28064 67665 31970 01011 10248 20078 48535 70500
                   333 10339 20/// 59002 555=
202010280300 AAXX 28034 67665 42980 01206 10194 20085 48507 70200
                   333 58000=
202010280000 AAXX 28004 67665 42980 01403 10193 20084 48498 70200
                   333 58002=
202010272100 AAXX 27214 67665 42980 01403 10213 20076 48512 70200
                   333 58006=
202010271800 AAXX 27184 67665 41960 01105 10258 20070 48510 70500
                   333 58008 91017=
202010271200 AAXX 27124 67665 41659 51108 10334 20080 48506 70522 85200
                   333 58005 85850 91015=
202010270900 AAXX 27094 67665 41770 10714 10300 20112 48534 70500 81100
                   333 58007 81850=
202010270600 AAXX 27064 67665 31965 01015 10253 20122 48537 70500
                   333 10336 20//0 58006=
202010270300 AAXX 27034 67665 41960 01208 10197 20100 48507 70500
                   333 58005=
202010261500 AAXX 26154 67665 41959 10909 10324 20044 48492 70500 81030
                   333 58001 81360 555 10336=
202010261200 AAXX 26124 67665 41659 41210 10330 20040 48500 70500 84200
                   333 58002 84840=
202010251800 AAXX 25184 67665 42980 01205 10260 20044 48500
                   333 10335 20//0 59018=
202010251500 AAXX 25154 67665 42680 10907 10325 20028 48491 81100
                   333 59024 81845=
202010251200 AAXX 25124 67665 42680 10704 10325 20028 48498 81100
                   333 59020 81840=
202010250600 AAXX 25064 67665 31970 00912 10251 20096 48537 70500
                   333 10337 20//0 59019
                   555 00/// 91020=
202010241800 AAXX 24184 67665 42980 01504 10245 20026 48517 70200
                   333 59015 91018=
202010240900 AAXX 24094 67665 42980 01309 10305 20038 48549
                   333 59021=
202010240600 AAXX 24064 67665 32980 00813 10250 20070 48554
                   333 10342 20//0 59015=
202010240300 AAXX 24034 67665 41959 01504 10188 20065 48525 70500
                   333 58014=
202010232100 AAXX 23214 67665 41959 01403 10203 20048 48531 70500
                   333 59008=
202010231500 AAXX 23154 67665 41970 11409 10313 20036 48527 70521 81060
                   333 59010 81360 555 10342 91018=
202010231200 AAXX 23124 67665 41659 40405 10321 20052 48537 70500 84100
                   333 59005 84840 91019=
202010230900 AAXX 23094 67665 41959 01212 10291 20085 48568 70500
                   333 58000 91023=
202010230600 AAXX 23064 67665 31959 00915 10233 20104 48566 70500
                   333 10315 20/// 58002
                   555 00/// 91023=
202010230000 AAXX 23004 67665 41959 01304 10189 20066 48529 70500
                   333 59004=
202010221800 AAXX 22184 67665 41959 11007 10245 20050 48536 70500 80001
                   333 10315 58010 81080=
202010221500 AAXX 22154 67665 41959 10812 10302 20046 48534 70500 81030
                   333 58027 81360 555 10315=
202010221200 AAXX 22124 67665 41759 51013 10311 20076 48539 70522 85200
                   333 58037 85856 91019=
202010220900 AAXX 22094 67665 41659 41017 10293 20102 48560 70501 84130
                   333 58031 84145 81360 91023=
202010220600 AAXX 22064 67665 41959 11018 10252 20110 48567 70500 81030
                   333 10350 20/// 58033 81360
                   555 00/// 10237=
202010211800 AAXX 21184 67665 41959 21106 10264 20034 48527 70500 82030
                   333 58023 82360 91019=
202010211200 AAXX 21124 67665 41659 40612 10338 20011 48515 70500 84200
                   333 58016 84845 91016=
202010210900 AAXX 21094 67665 41959 00910 10324 20023 48541 70500
                   333 58018=
202010210600 AAXX 21064 67665 31960 01107 10262 20031 48536 70500
                   333 10345 20//0 58011
                   555 00///=
202010210300 AAXX 21034 67665 41960 01504 10191 20030 48507 70500
                   333 58006=
202010210000 AAXX 21004 67665 41960 01802 10193 20033 48501 70500
                   333 58007=
202010202100 AAXX 20214 67665 41960 01403 10219 20017 48510 70500
                   333 58001=
202010201200 AAXX 20124 67665 41980 00907 10339 21090 48499 70500
                   333 59012 91014=
202010200900 AAXX 20094 67665 41959 00508 10312 20016 48521 70500
                   333 59017 91017=
202010200600 AAXX 20064 67665 31959 01109 10259 20014 48525 70500
                   333 10//0 20//0 59010 91018=
202010192100 AAXX 19214 67665 42980 01402 10198 21010 48507 70200
                   333 59013 91017=
202010191800 AAXX 19184 67665 42980 01505 10245 21070 48505
                   333 59017=
202010190900 AAXX 19094 67665 42980 00712 10306 21061 48538
                   333 59018=
202010190600 AAXX 19064 67665 32980 01008 10253 21022 48543 70200
                   333 10332 20//0 59018
                   555 00/// 91020=
202010190300 AAXX 19034 67665 42980 09902 10163 21021 48523 70200
                   333 59005 91019=
202010190000 AAXX 19004 67665 42980 09901 10162 21022 48510 70200
                   333 59011 91018=
202010182100 AAXX 18214 67665 42980 00000 10205 21031 48522 70200
                   333 59018 91019=
202010181800 AAXX 18184 67665 42980 01403 10235 21022 48520 70200
                   333 59014 91018=
202010181500 AAXX 18154 67665 42980 00915 10314 21039 48518 70200
                   333 59008 91017=
202010180900 AAXX 18094 67665 42980 00914 10302 20012 48556
                   333 59012=
202010180600 AAXX 18064 67665 32980 01011 10229 20063 48551
                   333 10330 20//0 59012=
202010180300 AAXX 18034 67665 42980 01604 10145 20067 48520 70200
                   333 59017=
202010172100 AAXX 17214 67665 42980 01402 10196 20051 48537 70200
                   333 59010=
202010171800 AAXX 17184 67665 42980 01206 10239 20038 48533 70200
                   333 59008 91020=
202010171500 AAXX 17154 67665 42980 01009 10311 20014 48528 70200
                   333 59003 555 10330 91018=
202010171200 AAXX 17124 67665 42780 11008 10317 21032 48537 70300 81100
                   333 59003 81856 91019=
202010170600 AAXX 17064 67665 32980 00916 10229 20089 48562 70200
                   333 10309 20//0 59004 91023=
202010170300 AAXX 17034 67665 42980 01102 10164 20069 48536 70200
                   333 59001 91021=
202010170000 AAXX 17004 67665 42980 01205 10174 20081 48534 70200
                   333 59002 91021=
202010162100 AAXX 16214 67665 42980 01105 10197 20090 48547 70200
                   333 59003 91022=
202010161800 AAXX 16184 67665 42980 01107 10243 20083 48541 70200
                   333 10309 59008=
202010161500 AAXX 16154 67665 42980 00911 10295 20077 48528 70100
                   333 59022 555 10309=
202010161200 AAXX 16124 67665 42780 30606 10292 20085 48536 83200
                   333 59023 83856=
202010160900 AAXX 16094 67665 42680 40911 10264 20104 48563 70300 84500
                   333 59023 84642 91022=
202010160600 AAXX 16064 67665 32980 00914 10214 20112 48568 70200
                   333 59018=
202010151800 AAXX 15184 67665 42980 11007 10239 20101 48549 70200 81030
                   333 58000 81360 91021=
202010151200 AAXX 15124 67665 42680 21010 10283 20090 48557 70200 82500
                   333 58011 82635 91022=
202010150900 AAXX 15094 67665 42580 20917 10270 20112 48586 82500
                   333 58016 82625=
202010150600 AAXX 15064 67665 32480 20819 10220 20119 48582 82500
                   333 10295 20//0 58009 82610=
202010150300 AAXX 15034 67665 42980 00910 10189 20131 48552
                   333 58000=
202010141500 AAXX 14154 67665 NIL=
202010140900 AAXX 14094 67665 42580 40908 10277 20144 48571 70300 84500
                   333 59005 84625 91023=
202010140600 AAXX 14064 67665 32980 01013 10211 20156 48572 70200
                   333 10//0 20//0 58014 91024=
202010140000 AAXX 14004 67665 42980 01304 10163 20148 48547 70200
                   333 58016 91022=
202010131800 AAXX 13184 67665 42980 01207 10193 20163 48500
                   333 58011=
202010131500 AAXX 13154 67665 42680 3109/ 10231 20152 48540 82530
                   333 58011 82632 83358=
202010131200 AAXX 13124 67665 41570 80908 10215 20152 48548 70522 885//
                   333 58017 88620=
202010121800 AAXX 12184 67665 42980 71107 10207 20156 48542 70122 8707/
                   333 58038 87359 91021=
202010121200 AAXX 12124 67665 42680 61512 10250 20160 48535 70222 8523/
                   333 58033 85830 86359 91020=
202010120900 AAXX 12094 67665 41570 71307 10232 20162 48550 70522 8113/
                   333 58025 81820 87359=
202010120600 AAXX 12064 67665 32480 72104 10208 20153 48548 8453/
                   333 10320 20//0 58020 84615 87358=
202010120300 AAXX 12034 67665 42980 21107 10195 20154 48509 82030
                   333 59002 82360=
202010112100 AAXX 11214 67665 42980 31103 10233 20135 48517 83030
                   333 58005 83360=
202010111800 AAXX 11184 67665 42980 20605 10269 20120 48513 70100 82031
                   333 59003 82360 82030 91017=
202010110900 AAXX 11094 67665 42680 60809 10290 20118 48536 70122 81138
                   333 58007 81845 83360 86280 91019=
202010110600 AAXX 11064 67665 60000 10220 20158 48530 60014 70122 84032
                   333 10348 20//0 58000 84360 84080 91019=
202010101800 AAXX 10184 67665 41759 72705 10212 20174 48508 71792 8197/
                   333 10348 59002 81956 87459=
202010101500 AAXX 10154 67665 41775 71010 10262 20132 48500 71799 8197/
                   333 59002 81950 87459
                   555 10348=
202010101200 AAXX 10124 67665 41775 60305 10342 20076 48505 70522 86200
                   333 59021 819// 86848=
202010100600 AAXX 10064 67665 31970 03405 10241 20154 48532 70500
                   333 10315 20//0 59021=
202010100300 AAXX 10034 67665 42980 10000 10171 20138 48511 81030
                   333 59018 81360=
202010092100 AAXX 09214 67665 42980 02302 10204 20138 48519
                   333 59009=
202010091500 AAXX 09154 67665 41675 52004 10311 20105 48508 71790 81902
                   333 58003 81942 84845 83080=
202010090900 AAXX 09094 67665 42560 61204 10239 20152 48548 81532
                   333 58019 81620 82360 83080=
202010090600 AAXX 09064 67665 11958 72005 10194 20145 48546 60014 75050
                   333 59002 91019=
202010080600 AAXX 08064 67665 41959 00710 10216 20127 48530 70500
                   333 59002 91019=
202010071800 AAXX 07184 67665 42980 01109 10226 20136 48521
                   333 58020=
202010071500 AAXX 07154 67665 41970 11215 10268 20132 48511 70500 80001
                   333 58018 81080=
202010071200 AAXX 07124 67665 41670 41310 10295 20137 48519 70500 84100
                   333 58016 84830=
202010070600 AAXX 07064 67665 31970 51213 10221 20138 48533 70501 85030
                   333 10347 20//0 59004 85360
                   555 00/// 91020=
202010062100 AAXX 06214 67665 41960 01108 10222 20140 48509 70500
                   333 59017 91017=
202010061800 AAXX 06184 67665 42960 01208 10264 20132 48505 70500
                   333 59014 91016=
202010061500 AAXX 06154 67665 41959 00407 10332 20075 48497 70500
                   333 59013 91014=
202010060900 AAXX 06094 67665 41959 00710 10298 20131 48534 70500
                   333 59015=
202010060600 AAXX 06064 67665 31959 00908 10227 20146 48537 70500
                   333 10355 59002 555 00///=
202010060300 AAXX 06034 67665 41959 01106 10192 20134 48513 70500
                   333 59009=
202010060000 AAXX 06004 67665 41959 01007 10218 20126 48514 70500
                   333 59006=
202010052100 AAXX 05214 67665 41959 01405 10233 20092 48525 70500
                   333 58007=
202010051500 AAXX 05154 67665 41959 50608 10336 20052 48514 70522 85060
                   333 59006 555 10346 91016=
202010051200 AAXX 05124 67665 41759 50511 10340 20061 48522 70500 85200
                   333 59007 85856 91017=
202010050900 AAXX 05094 67665 41959 10810 10320 20094 48552 70500 81030
                   333 58001 81360 91020=
202010050600 AAXX 05064 67665 31959 01305 10262 20100 48544 70500
                   333 10355 20//0 59003 91020=
202010050300 AAXX 05034 67665 41959 02302 10209 20070 48524 70500
                   333 58002 91019=
202010050000 AAXX 05004 67665 41959 01504 10218 20070 48520 70500
                   333 59001 91018=
202010042100 AAXX 04214 67665 41959 01403 10231 20080 48532 70500
                   333 58000 91020=
202010041800 AAXX 04184 67665 41959 01403 10262 20056 48526 70500
                   333 10355 58004=
202010041500 AAXX 04154 67665 41959 00810 10337 20022 48519 70500
                   333 58003 555 10355=
202010041200 AAXX 04124 67665 41959 00713 10352 20016 48529 70500
                   333 58005=
202010031800 AAXX 03184 67665 41959 01204 10267 20026 48524 70500
                   333 58012 91018=
202010031500 AAXX 03154 67665 41959 10811 10330 20045 48515 70500 81030
                   333 58013 81360 91016=
202010031200 AAXX 03124 67665 41959 00812 10338 20020 48523 70500
                   333 58009 91017=
202010030900 AAXX 03094 67665 41959 00615 10311 20091 48546 70500
                   333 58009=
202010030600 AAXX 03064 67665 31959 01109 10255 20103 48540 70500
                   333 10355 20//0 58002=
202010022100 AAXX 02214 67665 41960 01406 10235 20060 48519 70500
                   333 59002=
202010020900 AAXX 02094 67665 41959 00605 10314 20059 48370 70500
                   333 58002 91019=
202010020600 AAXX 02064 67665 31959 01105 10248 20118 48537 70500
                   333 10//0 20//0 58007 91020=
202010020300 AAXX 02034 67665 42980 01504 10185 20116 48510 70200
                   333 58002 91018=
202010011800 AAXX 01184 67665 41960 01306 10254 20091 48506 70500
                   333 59006=
202010011500 AAXX 01154 67665 41959 00908 10323 20042 48495 70500
                   333 59009=
202010011200 AAXX 01124 67665 41959 00709 10328 20083 48505 70500
                   333 59009=
202010010600 AAXX 01064 67665 31959 20910 10225 20146 48527 70500 80002
                   333 10335 20/// 59010 82080=

################################################################################
#  SYNOPS from 67666, Lusaka City Airport (Zambia) | 15-25-00S | 028-28-00E | 1280 m
################################################################################
202010300600 AAXX 30064 67666 32980 00916 10250 20138 48539
                   333 10330 20220 58001=
202010290600 AAXX 29064 67666 31978 00916 10245 20131 48540 70500
                   333 10335 20215 58013=
202010280600 AAXX 28064 67666 31978 00915 10245 20110 48528 70500
                   333 10330 20210 58001=
202010220600 AAXX 22064 67666 NIL=
202010210600 AAXX 21064 67666 31975 00910 10263 20073 48529 70500
                   333 10336 20168 58013=
202010200600 AAXX 20064 67666 32980 01210 10260 20009 48517
                   333 10330 20174 59020 91018=
202010160600 AAXX 16064 67666 32980 00920 10200 20138 48555
                   333 10310 20170 59018=
202010150600 AAXX 15064 67666 31570 11015 10200 20134 48570 70500 81100
                   333 10320 20190 58011 81820 91025=
202010141500 AAXX 14154 67666 NIL=
202010140600 AAXX 14064 67666 32980 00820 10212 20144 48561
                   333 10229 20176 58011=

################################################################################
#  SYNOPS from 67667, Mount Makulu (Zambia) | 15-33S | 028-15E | 1213 m
################################################################################
202010290600 AAXX 29064 67667 31960 00908 10258 20145 48594 70500
                   333 10353 20208 58011=
202010281200 AAXX 28124 67667 41660 51507 10315 20139 48556 70500 85200
                   333 48005 85845=
202010280900 AAXX 28094 67667 41960 00912 10302 20129 48581 70500
                   333 58001=
202010280600 AAXX 28064 67667 31960 00915 10250 20121 48582 70500
                   333 10356 20210 58001=
202010271200 AAXX 27124 67667 41660 51806 10314 20141 48552 70500 85200
                   333 58008 85846=
202010270900 AAXX 27094 67667 41660 00912 10302 20149 48580 70500 81100
                   333 58009 81840=
202010270600 AAXX 27064 67667 31960 00818 10255 20155 48581 70500
                   333 10352 20210 58004=
202010260600 AAXX 26064 67667 31960 00915 10260 20//0 48581 70500
                   333 10356 20205 59004=
202010220600 AAXX 22064 67667 31960 21408 10250 20140 48614 70500 80002
                   333 10366 20215 58030 82083=
202010160600 AAXX 16064 67667 31960 01004 10220 20123 48/// 70500
                   333 10324 20160 5////=
202010141500 AAXX 14154 67667 NIL=

################################################################################
#  SYNOPS from 67673, Petauke (Zambia) | 14-15S | 031-17E | 1035 m
################################################################################
202010290600 AAXX 29064 67673 31960 11970 10270 20210 48/// 70522 83031
                   333 10340 20//0 5//// 83360 82080=
202010281200 AAXX 28124 67673 41660 50000 10330 20235 48/// 70522 84230
                   333 5//// 84835 82360=
202010220600 AAXX 22064 67673 31975 03602 10254 20204 48/// 70500
                   333 10350 20/// 5////=
202010160600 AAXX 16064 67673 31970 00802 10230 20170 48/// 70500
                   333 10300 20//0 5////=
202010151200 AAXX 15124 67673 41675 40602 10290 20205 48/// 70500 84101
                   333 5//// 84836 82080=
202010150600 AAXX 15064 67673 31975 40906 10220 20160 48/// 70500 84030
                   333 10310 20//0 5//// 84360=
202010141500 AAXX 14154 67673 NIL=

################################################################################
#  SYNOPS from 67731, Senanga (Zambia) | 16-06S | 023-16E | 1027 m
################################################################################
202010300900 AAXX 30094 67731 42580 302// 10294 20118 48/// 70300 83100
                   333 5//// 83827=
202010300600 AAXX 30064 67731 12980 033// 10230 20129 48/// 69904 70200
                   333 10372 20199 5////=
202010290600 AAXX 29064 67731 32980 018// 10239 20145 48/// 70200
                   333 10396 20205 5////=
202010281200 AAXX 28124 67731 41680 604// 10378 20144 48/// 84202
                   333 5//// 81930 84840 83080=
202010280600 AAXX 28064 67731 32980 430// 10242 20141 48/// 70222 80002
                   333 10403 20199 5//// 84080=
202010270600 AAXX 27064 67731 32980 024// 10251 20117 48/// 70200
                   333 10404 20217 58012=
202010260600 AAXX 26064 67731 32980 001// 10255 20106 48/// 70200
                   333 10399 20206 58010=
202010230600 AAXX 23064 67731 32980 012// 10241 20103 48/// 70200
                   333 10394 20199 58009=
202010220600 AAXX 22064 67731 NIL=
202010210600 AAXX 21064 67731 31975 032// 10264 20120 48/// 70500
                   333 10404 20167 58008=
202010201200 AAXX 20124 67731 42980 009// 10379 20142 48///
                   333 58001=
202010200600 AAXX 20064 67731 32975 002// 10249 20122 48/// 70500
                   333 10396 20217 555 00134=
202010160600 AAXX 16064 67731 32980 008// 10269 20141 48/// 70200
                   333 10365 20217 58005=
202010151200 AAXX 15124 67731 42680 510// 10335 20140 48/// 70322 84202
                   333 58007 81930 84835=
202010150600 AAXX 15064 67731 32980 405// 10268 20157 48/// 70222 84030
                   333 10340 20209 58004 84361
                   555 00113=
202010141500 AAXX 14154 67731 NIL=
202010140600 AAXX 14064 67731 32980 009// 10241 20117 48/// 70200
                   333 10348 20156 58053=

################################################################################
#  SYNOPS from 67741, Sesheke (Zambia) | 17-28S | 024-18E | 949 m
################################################################################
202010300900 AAXX 30094 67741 42680 11201 10358 20142 48546 81101
                   333 58007 81850 81080=
202010290600 AAXX 29064 67741 32980 00701 10304 20140 48535
                   333 10376 20213 58006=
202010280900 AAXX 28094 67741 42980 00101 10346 20139 48525
                   333 58006=
202010280600 AAXX 28064 67741 32980 00602 10282 20105 48531
                   333 10384 20183 58012=
202010270600 AAXX 27064 67741 32980 00901 10254 20123 48506
                   333 10378 20158 59003=
202010260900 AAXX 26094 67741 42980 00901 10350 20//0 48///
                   333 5////=
202010260600 AAXX 26064 67741 32980 00901 10252 20122 48516
                   333 10374 20146 59010=
202010230600 AAXX 23064 67741 32980 00801 10266 20134 48563
                   333 10373 20171 58011=
202010220600 AAXX 22064 67741 32980 00902 10269 20155 48548
                   333 10388 30188 58039=
202010160600 AAXX 16064 67741 32980 01301 10248 20168 48554
                   333 10338 20156 59014=
202010150600 AAXX 15064 67741 32980 10901 10250 20172 48573 81030
                   333 10338 20168 58011 81362=
202010141500 AAXX 14154 67741 NIL=
202010140600 AAXX 14064 67741 32980 00901 10222 20171 48557
                   333 10341 20161 59001=

################################################################################
#  SYNOPS from 67743, Livingstone (Zambia) | 17-49S | 025-49E | 985 m
################################################################################
202010220600 AAXX 22064 67743 NIL=
202010141500 AAXX 14154 67743 NIL=

################################################################################
#  SYNOPS from 67751, Magoye (Zambia) | 16-00S | 027-36E | 1018 m
################################################################################
202010300600 AAXX 30064 67751 32980 00709 10290 20134 48///
                   333 10//0 20172 58001=
202010260600 AAXX 26064 67751 32980 00909 10281 20130 48///
                   333 10//0 20171 58006 5////=
202010230600 AAXX 23064 67751 32980 00711 10263
                   333 10//0 20177 5////=
202010220600 AAXX 22064 67751 NIL=
202010200600 AAXX 20064 67751 32980 00906 10270 20119
                   333 10//0 20168 58021=
202010160600 AAXX 16064 67751 32980 00903 10236 20128 48///
                   333 10//0 20173 58014=
202010150600 AAXX 15064 67751 32980 10809 10235 20146 81040
                   333 10//0 20197 59008 81360=
202010141500 AAXX 14154 67751 NIL=

################################################################################
#  SYNOPS from 67753, Choma (Zambia) | 16-50S | 027-04E | 1213 m
################################################################################
202010300900 AAXX 30094 67753 41580 10505 10306 20141 48539 70500 81100
                   333 5//// 81820=
202010290600 AAXX 29064 67753 31980 00000 10250 20139 48505 70500
                   333 10301 20180 5////=
202010260600 AAXX 26064 67753 31980 02703 10245 20131 48514 70500
                   333 10325 20142 59008=
202010230600 AAXX 23064 67753 31980 00809 10240 20099 48/// 70500 80001
                   333 10325 20115 58001 81080=
202010220600 AAXX 22064 67753 31580 10912 10240 20163 48/// 70300 81100
                   333 10337 20190 5//// 81820=
202010210600 AAXX 21064 67753 32980 00708 10264 20106 48///
                   333 10345 20166 5////=
202010200600 AAXX 20064 67753 32980 00000 10264 20082 48///
                   333 10328 20130 5////=
202010160600 AAXX 16064 67753 32980 02703 10210 20153 48///
                   333 10283 20156 5////=
202010150600 AAXX 15064 67753 31580 70909 10206 20151 48578 70322 8115/
                   333 10278 20160 58014 81820 87360=
202010141500 AAXX 14154 67753 NIL=
