################################################################################
# Query made at 04/14/2022 16:33:23 UTC
# Country like Zamb*
# Time interval: from 04/01/2012 05:30  to 05/01/2012 05:30  UTC
################################################################################

################################################################################
#  SYNOPS from 67403, Kawambwa (Zambia) | 09-48S | 029-05E | 1323 m
################################################################################
201204270600 AAXX 27064 67403 12980 30000 10178 20135 48548 69904 80001
                   333 10256 20/// 58001 83080=
201204260600 AAXX 26064 67403 32480 71403 10187 20145 48548 82130
                   333 10269 20//0 58000 82818 85362=
201204200600 AAXX 20064 67403 32980 21803 10178 20139 48530 80001
                   333 10290 20/// 58009 82080=
201204020600 AAXX 02064 67403 12980 51001 10194 20188 48549 60034 83032
                   333 10243 20//0 59004 83362 83080=

################################################################################
#  SYNOPS from 67413, Mbala (Zambia) | 08-51S | 031-20E | 1673 m
################################################################################
201204270600 AAXX 27064 67413 32380 72509 10175 20115 48548 83501
                   333 10240 20120 58005 83608 87072=
201204260600 AAXX 26064 67413 32380 50510 10161 20132 48545 48545 85600
                   333 10250 20145 49010 85707=
201204250600 AAXX 25064 67413 32480 30413 10170 20117 48554 83530
                   333 10250 20115 59003 83610 81360=
201204200600 AAXX 20064 67413 32580 63126 10165 20114 48539 81504
                   333 10260 20120 58011 87620 87079=
201204050600 AAXX 05064 67413 32980 60410 10180 20150 48533 82670
                   333 10249 20150 59005 82709 84360=
201204040600 AAXX 04064 67413 12380 80402 10164 20156 48540 60014 866//
                   333 10236 20145 58001 88709 91024=
201204030700 AAXX 0307/ 67413 32380 70409 10175 20167 48538 8773/
                   333 10250 20140 59011 87708 82358=
201204020600 AAXX 02064 67413 32980 50104 10192 20256 48548 55030
                   333 10245 20145 59002 85359=

################################################################################
#  SYNOPS from 67441, Mwinilunga (Zambia) | 11-45S | 024-26E | 1361 m
################################################################################
201204270900 AAXX 27094 67441 42982 00000 10240 20149 48574
                   333 58003=
201204270600 AAXX 27064 67441 32980 00000 10156 20137 48569
                   333 10285 20/// 5////=
201204260600 AAXX 26064 67441 32980 00000 10150 20133 48///
                   333 10265 20//0 5////=
201204250600 AAXX 25064 67441 32980 00000 10135 20108 48579
                   333 10280 20//0 58011=
201204241200 AAXX 24124 67441 42982 00907 10272 20120 48552
                   333 58010=
201204230600 AAXX 23064 67441 32980 00000 10131 20121 48557
                   333 10283 20/// 59011=
201204160600 AAXX 16064 67441 32980 70000 10160 20144 48555 81038
                   333 10280 20/// 58008 81360 86280=
201204130900 AAXX 13094 67441 42682 70000 10220 20167 48560 8213/
                   333 59010 82825 87360=
201204130600 AAXX 13064 67441 32980 70000 10180 20172 48545 8707/
                   333 10265 20/// 59013 87360=
201204110600 AAXX 11064 67441 11580 70000 10190 20179 48536 60014 71792 81933
                   333 10295 20//0 58011 91920 82825 86360=
201204100600 AAXX 10064 67441 12980 10000 10170 20166 48525 60034 81030
                   333 10295 20//0 59016 81360=
201204050600 AAXX 05064 67441 32980 60000 10177 20154 48557 86030
                   333 10270 20//0 59001 86360=
201204040600 AAXX 04064 67441 32980 10000 10173 20140 48558 81030
                   333 10268 20//0 59009 81360=
201204030700 AAXX 03074 67441 32480 70000 10183 20179 48567 875//
                   333 10285 20//0 58004 87618=
201204020600 AAXX 02064 67441 11980 30000 10173 20168 48563 69904 72840 81030
                   333 10287 20/// 5//// 81360 83080=

################################################################################
#  SYNOPS from 67461, Mansa (Zambia) | 11-06S | 028-51E | 1382 m
################################################################################
201204270600 AAXX 27064 67461 32980 60802 10167 20147 48539 80008
                   333 10263 20125 59003 86280=
201204250600 AAXX 25064 67461 32580 31509 10185 20148 48547 83501
                   333 10266 20115 58001 83620 82080=
201204200600 AAXX 20064 67461 32580 30805 10178 20145 48535 70300 81501
                   333 10280 20125 58016 81620 83080=
201204190600 AAXX 19064 67461 32580 30903 10195 20171 48521 70500 81531
                   333 10290 20145 59008 81623 82361 82680=
201204160600 AAXX 16064 67461 32580 30804 10185 20166 48520 70300 81501
                   333 10274 20140 58001 81623 83080=
201204130600 AAXX 13064 67461 32580 71203 10185 20172 48524 8253/
                   333 10285 20170 58000 82625 87362=
201204110600 AAXX 11064 67461 32980 50910 10210 20195 48506 85031
                   333 10305 20165 59003 85358 82080=
201204100600 AAXX 10064 67461 32980 50000 10223 20186 48510 82031
                   333 10298 20170 59002 82362=
201204020600 AAXX 02064 67461 12580 40000 10205 20182 48525 69904 83531
                   333 10270 20160 59019 83621 83361 83080=

################################################################################
#  SYNOPS from 67469, Samfya (Zambia) | 11-22S | 029-54E | 1171 m
################################################################################
201204260600 AAXX 26064 67469 31470 41218 10200 20//0 48/// 70500 84100
                   333 10245 20164 5//// 84818=

################################################################################
#  SYNOPS from 67475, Kasama (Zambia) | 10-13S | 031-08E | 1382 m
################################################################################
201204270600 AAXX 27064 67475 32980 50905 10172 20126 48545 80001
                   333 10247 20113 59002 85080=
201204260600 AAXX 26064 67475 32480 61006 10184 20145 48548 86500
                   333 10242 20140 59009 86612=
201204220600 AAXX 22064 67475 32980 11208 10164 20//0 48/// 80001
                   333 10262 20103 5//// 81078=
201204200600 AAXX 20064 67475 32980 40906 10176 20123 48536 80001
                   333 10262 20125 58009 84080=
201204160600 AAXX 16064 67475 32480 20902 10197 20157 48535 82101
                   333 10256 20120 5//// 82818 82080=
201204130600 AAXX 13064 67475 12480 71210 10177 20149 48533 69904 875//
                   333 10263 20153 5//// 87610=
201204100600 AAXX 10064 67475 32480 20404 10210 20182 48/// 82500
                   333 10286 20154 5//// 82610=
201204020600 AAXX 02064 67475 32980 63504 10187 20172 48529 84032
                   333 10272 20155 5//// 84360 86080=

################################################################################
#  SYNOPS from 67476, Misamfu (Zambia) | 10-06S | 031-15E | 1536 m
################################################################################
201204200600 AAXX 20064 67476 32580 40903 10213 20181 48/// 82530
                   333 10300 20175 5//// 82620 81360=
201204130600 AAXX 13064 67476 32580 70903 10170 20168 48/// 86530
                   333 10272 20186 5//// 86620 83360=

################################################################################
#  SYNOPS from 67477, Mpika (Zambia) | 11-54S | 031-26E | 1400 m
################################################################################
201204270600 AAXX 27064 67477 32480 31108 10164 20137 48550 81101
                   333 10204 20107 59002 81810 83080=
201204260600 AAXX 26064 67477 32480 51508 10165 20122 48551 85130
                   333 10217 20122 59008 85814 81360=
201204200600 AAXX 20064 67477 32480 51509 10170 20123 48540 85100
                   333 10254 20117 58009 85812=
201204190600 AAXX 19064 67477 32480 21208 10185 20137 48532 82100
                   333 10250 20124 59007 82819=
201204130600 AAXX 13064 67477 12480 71012 10165 20136 48537 60034 875//
                   333 10240 20135 58000 87612=
201204100600 AAXX 10064 67477 32480 30705 10220 20182 48508 83130
                   333 10275 20134 59010 83812 81360=
201204020600 AAXX 02064 67477 12480 60000 10185 20169 48532 60124 81137
                   333 10232 20140 59006 81810 82360 87280=

################################################################################
#  SYNOPS from 67481, Isoka (Zambia) | 10-07S | 032-38E | 1360 m
################################################################################
201204270600 AAXX 27064 67481 32480 20904 10179 20133 48/// 82500
                   333 10250 20115 5//// 82616=
201204190600 AAXX 19064 67481 32480 60801 10193 20174 48/// 85600
                   333 10255 20153 5//// 85710=

################################################################################
#  SYNOPS from 67531, Zambezi (Zambia) | 13-32S | 023-07E | 1077 m
################################################################################
201204270900 AAXX 27094 67531 42680 11507 10255 20139 48/// 81101
                   333 58003 81845 81081=
201204270600 AAXX 27064 67531 32980 01005 10185 20137 48///
                   333 10296 20123 58007=
201204260600 AAXX 26064 67531 32980 01104 10176 20143 48///
                   333 10293 20125 59015=
201204250900 AAXX 25094 67531 42980 00909 10242 20138 48///
                   333 58009=
201204250600 AAXX 25064 67531 32980 00904 10161 20109 48///
                   333 10296 20085 58020=
201204241200 AAXX 24124 67531 42980 01106 10286 20092 48///
                   333 58016=
201204230600 AAXX 23064 67531 32980 01004 10190 20129 48///
                   333 10288 20081 59009=
201204210600 AAXX 21064 67531 32980 01005 10165 20121 48///
                   333 10286 20116 58004=
201204200600 AAXX 20064 67531 32980 01207 10195 20133 48///
                   333 10301 20110 58013=
201204190600 AAXX 19064 67531 32980 11104 10195 20148 48/// 80001
                   333 10310 20126 59010 81081=
201204160600 AAXX 16064 67531 32980 11207 10176 20134 48/// 81030
                   333 10290 20126 58009 81362=
201204130900 AAXX 13094 67531 42680 40906 10250 20178 48/// 84100
                   333 59008 84830=
201204130600 AAXX 13064 67531 12480 11007 10212 20176 48/// 69904 81101
                   333 10299 20167 59009 81813 81081=
201204111200 AAXX 11124 67531 41680 61605 10312 20182 48/// 71792 82232
                   333 58011 81949 82849 82362 82081=
201204110600 AAXX 11064 67531 32980 30000 10204 20182 48/// 83030
                   333 10320 20157 58008 83360=
201204100600 AAXX 10064 67531 32980 11403 10215 20180 48/// 81030
                   333 10316 20143 59005 81362=
201204040600 AAXX 04064 67531 32980 10908 10181 20156 48/// 81030
                   333 10286 20140 5//// 81362=
201204021200 AAXX 02124 67531 42780 61307 10298 20170 48/// 86100
                   333 5//// 86850=
201204020600 AAXX 02064 67531 32980 11505 10212 20164 48/// 80001
                   333 10307 20155 59003 81082=

################################################################################
#  SYNOPS from 67541, Kasempa (Zambia) | 13-32S | 025-51E | 1234 m
################################################################################
201204270600 AAXX 27064 67541 31970 00000 10165 20140 48544 70500
                   333 10/// 20094 58002=
201204250600 AAXX 25064 67541 31975 00904 10187 20132 48549 70500
                   333 10//0 20120 58007=
201204230600 AAXX 23064 67541 31980 00000 10149 20132 48524 70500
                   333 10/// 20069 59015=
201204130600 AAXX 13064 67541 32980 70000 10188 20161 48526 8703/
                   333 10/// 20153 59010 87360=

################################################################################
#  SYNOPS from 67551, Solwezi (Zambia) | 12-11S | 026-23E | 1386 m
################################################################################
201204270600 AAXX 27064 67551 32980 01206 10156 20132 48537
                   333 10/// 20172 59006=
201204260600 AAXX 26064 67551 32980 20908 10161 20134 48543 80001
                   333 10//0 20132 59005 82080=
201204200600 AAXX 20064 67551 32980 01006 10116 20126 48541
                   333 10/// 20130 58013=
201204190600 AAXX 19064 67551 32980 00905 10170 20154 48525
                   333 10//0 20120 59007=
201204020600 AAXX 02064 67551 11360 30000 10165 20165 48532 60044 74444 82600
                   333 10//0 20140 59001 83706=

################################################################################
#  SYNOPS from 67561, Ndola (Zambia) | 13-00S | 028-39E | 1269 m
################################################################################
201204280600 AAXX 28064 67561 31960 00000 10147 20124 48536 70500
                   333 10275 20087 59010=
201204270900 AAXX 27094 67561 42980 20000 10225 20111 48556 80001
                   333 59003 82080=
201204270600 AAXX 27064 67561 31975 20000 10148 20122 48545 70511 80001
                   333 10265 20099 59003 82080=
201204250600 AAXX 25064 67561 31360 31010 10180 20129 48502 70500 83600
                   333 10262 20120 58014 83708=
201204241200 AAXX 24124 67561 42980 01309 10252 20067 48540
                   333 58022=
201204230600 AAXX 23064 67561 31960 10000 10144 20125 48534 70500 80002
                   333 10274 20083 59003 81080=
201204210900 AAXX 21094 67561 41580 31210 10233 20093 48550 83100
                   333 58000 83825=
201204210600 AAXX 21064 67561 31960 00809 10171 20122 48547 70500
                   333 10260 20160 58007=
201204200600 AAXX 20064 67561 31960 11010 10177 20114 48542 70500 80001
                   333 10270 20120 58013 81080=
201204190600 AAXX 19064 67561 32980 00906 10190 20152 48530
                   333 10294 20120 59007=
201204161200 AAXX 16124 67561 42680 60000 10265 20148 48511 86200
                   333 58009 86835=
201204130900 AAXX 13094 67561 41475 81010 10192 20137 48551 70522 885//
                   333 59005 88618=
201204130600 AAXX 13064 67561 31475 71005 10180 20148 48544 70511 875//
                   333 10275 20160 58012 87616=
201204100600 AAXX 10064 67561 31960 20805 10213 20183 48505 70500 81030
                   333 10292 20166 59009 81360=
201204091200 AAXX 09124 67561 42680 50603 10266 20181 48501 70222 85200
                   333 58003 85845 91017=
201204070600 AAXX 07064 67561 32980 70804 10170 20152 48527 87030
                   333 10278 20139 59015 87360=
201204050600 AAXX 05064 67561 31960 30806 10168 20146 48536 70500 83030
                   333 10247 20165 58000 83360=
201204030700 AAXX 0307/ 67561 32980 41215 10186 20112 48551 84031
                   333 10274 20133 58006 84360 81080=
201204020600 AAXX 02064 67561 11370 41603 10181 20168 48536 60204 70542 82630
                   333 10270 20146 59005 82707 83360=

################################################################################
#  SYNOPS from 67563, Kafironda (Zambia) | 12-36S | 028-07E | 1243 m
################################################################################
201204260600 AAXX 26064 67563 31970 11204 10183 20140 48/// 70500 80001
                   333 10254 20//0 59015 81010=
201204250600 AAXX 25064 67563 31965 01801 10160 20130 48/// 70500
                   333 10271 20078 58011=
201204230600 AAXX 23064 67563 31965 01601 10140 20130 48/// 70500
                   333 10280 20080=
201204200600 AAXX 20064 67563 31970 00901 10180 20140 48/// 70500
                   333 10284 20089 58005=
201204190600 AAXX 19064 67563 31970 00000 10163 20160 48/// 70500
                   333 10300 20108 59007=
201204161200 AAXX 16124 67563 41678 62702 10267 20140 48/// 70521 86100
                   333 58003 86850=
201204130600 AAXX 13064 67563 31475 60904 10194 20160 48/// 70522 86600
                   333 10254 20141 59005 86705=
201204040600 AAXX 04064 67563 31320 73010 10158 48/// 71044 876//
                   333 10250 20//0 58001 87705=
201204020600 AAXX 02064 67563 11370 82403 10168 20160 48/// 60014 75042 887//
                   333 10280 20149 58013 88706=

################################################################################
#  SYNOPS from 67571, Serenje (Zambia) | 13-14S | 030-13E | 1384 m
################################################################################
201204020600 AAXX 02064 67571 11479 70906 10181 20167 48511 60284 71022 84531
                   333 10270 20156 58002 84616 83360 83080=

################################################################################
#  SYNOPS from 67575, Mkushi (Zambia) | 13-38S | 029-53E | 1237 m
################################################################################
201204270600 AAXX 27064 67575 32980 11302 10172 20124 48/// 80001
                   333 10250 20110 5//// 81080=
201204260600 AAXX 26064 67575 32480 60905 10180 20136 48/// 86500
                   333 10235 20116 5//// 86615=
201204200600 AAXX 20064 67575 32480 11204 10185 20130 48/// 81505
                   333 10265 20096 5//// 81615=
201204020600 AAXX 02064 67575 11460 71302 10195 20179 48/// 60104 75152 87500
                   333 10260 20155 5//// 87612=

################################################################################
#  SYNOPS from 67580, Msekera (Zambia) | 13-39S | 032-34E | 1025 m
################################################################################
201204270600 AAXX 27064 67580 32980 11203 10190 20129 48/// 80001
                   333 10250 20/// 59011 81080=
201204260600 AAXX 26064 67580 32480 31307 10193 20136 48/// 82501
                   333 10261 20//0 59005 82617 81080=
201204250900 AAXX 25094 67580 42680 51512 10239 20139 48/// 58100
                   333 58018 85835=
201204250600 AAXX 25064 67580 32580 61612 10197 20144 48/// 86500
                   333 10267 20//0 58014 86620=
201204230600 AAXX 23064 67580 32980 00000 10199 20131 48///
                   333 10275 20/// 59010=
201204201200 AAXX 20124 67580 42782 51608 10252 20130 48/// 85100
                   333 58002 85856=
201204200600 AAXX 20064 67580 32982 11605 10196 20135 48/// 80001
                   333 10258 20/// 58013 81080=
201204190600 AAXX 19064 67580 32482 71609 10200 20129 48/// 81108
                   333 10283 20//0 58002 81818 86282=
201204161200 AAXX 16124 67580 42682 70000 10264 20170 48/// 878//
                   333 5//// 83845 85650=
201204130900 AAXX 13094 67580 42580 71212 10221 20150 48/// 86830
                   333 5//// 82824 84626 82360=
201204110600 AAXX 11064 67580 12582 61204 10238 20194 48/// 60014 81138
                   333 10314 20//0 5//// 81825 82360 85280=
201204020600 AAXX 02064 67580 11960 83306 10182 20176 48/// 60504 76362 8802/
                   333 10275 20//0 5//// 88458=

################################################################################
#  SYNOPS from 67581, Chipata (Zambia) | 13-33S | 032-35E | 1028 m
################################################################################
201204270600 AAXX 27064 67581 32980 01204 10199 20109 48562
                   333 10257 20135 59008=
201204231200 AAXX 23124 67581 42780 12006 10277 20108 48534 81100
                   333 59004 81850=
201204220900 AAXX 22094 67581 42980 01804 10254 20114 48555
                   333 59006=
201204220600 AAXX 22064 67581 32980 12006 10226 20//0 48///
                   333 10252 20166 5////=
201204210900 AAXX 21094 67581 42680 31606 10246 20112 48559 83100
                   333 59003 83835=
201204210600 AAXX 21064 67581 32980 21205 10207 20125 48562 80002
                   333 10271 20136 58004 82080=
201204200600 AAXX 20064 67581 32980 71810 10196 220125 48557
                   333 10268 20205 58017=
201204190600 AAXX 19064 67581 32980 01612 10200 20118 48543
                   333 10287 20166 59005=
201204160600 AAXX 16064 67581 32980 11505 10209 20162 48546 80001
                   333 10238 20144 58006 81080=
201204130600 AAXX 13064 67581 32480 71212 10191 20151 48552 87530
                   333 10280 20171 58005 87615 85360=
201204100600 AAXX 10064 67581 32980 60706 10253 20188 48520 86030
                   333 10309 20183 59016 86360=
201204020600 AAXX 02064 67581 11660 80000 10186 20178 48535 60914 76662 8577/
                   333 10280 20179 58014 85706 88359=

################################################################################
#  SYNOPS from 67583, Lundazi (Zambia) | 12-17S | 033-12E | 1143 m
################################################################################
201204270600 AAXX 27064 67583 32980 11704 10180 20139 48/// 80001
                   333 10250 20110 5//// 81080=
201204260600 AAXX 26064 67583 32580 20907 10195 20146 48/// 82530
                   333 10260 20156 5//// 82620 81360=
201204200600 AAXX 20064 67583 32680 11803 10200 20153 48/// 81100
                   333 10280 20118 5//// 81830=
201204190600 AAXX 19064 67583 32980 11804 10200 20140 48/// 81031
                   333 10290 20186 5//// 81360 81080=
201204020600 AAXX 02064 67583 11978 71801 10232 20163 48/// 60094 76060 8707/
                   333 10285 20175 5//// 87460=

################################################################################
#  SYNOPS from 67599, Mfuwe (Zambia) | 13-16S | 031-56E | 568 m
################################################################################
201204281500 AAXX 28154 67599 42980 10000 10310 20186 48558 81030
                   333 59010 81360=
201204281200 AAXX 28124 67599 42680 30000 10296 20172 48554 83100
                   333 59009 83849=
201204270900 AAXX 27094 67599 42480 12502 10247 20161 48/// 81100
                   333 59003 81818=
201204260600 AAXX 26064 67599 32580 102005 10202 20126 48575 81231
                   333 10301 20141 59011 81820 81360 81080=
201204250600 AAXX 25064 67599 32980 70000 10208 20171 48588 87030
                   333 10303 20154 58012 87359=
201204211200 AAXX 21124 67599 42680 41803 10290 20150 48556 84100
                   333 58002 84848 91018=
201204201200 AAXX 20124 67599 42680 41805 10292 20146 48551 84100
                   333 58004 84845 91018=
201204200900 AAXX 20094 67599 42580 21708 10271 20151 48580 82100
                   333 58014 82825 91021=
201204200600 AAXX 20064 67599 32980 10000 10200 20161 48567 81030
                   333 10314 20134 58016 81360=
201204190600 AAXX 19064 67599 32980 12104 10206 20170 48551 80001
                   333 10328 20162 58001 81080=
201204130600 AAXX 13064 67599 12480 31704 10226 20181 48565 60044 82230
                   333 10311 20/// 58007 82818 83359=
201204110600 AAXX 11064 67599 12980 30000 10246 20206 48539 69904 83080
                   333 10358 20195 58011 83360=
201204081200 AAXX 08124 67599 42680 52705 10305 20212 48534 85230
                   333 59021 85835 82360 91015=
201204080600 AAXX 08064 67599 32980 31804 10216 20171 48535 83030
                   333 10310 20174 59012 83360=
201204050600 AAXX 05064 67599 67531 32980 10187 20158 48///
                   333 10286 20142 59002=

################################################################################
#  SYNOPS from 67625, Kalabo (Zambia) | 14-51S | 022-42E | 1033 m
################################################################################
201204270600 AAXX 27064 67625 32980 00910 10203 20162 48///
                   333 10301 20160 58002=
201204020600 AAXX 02064 67625 32982 00810 10232 20163 48///
                   333 10308 20192 58002=

################################################################################
#  SYNOPS from 67633, Mongu (Zambia) | 15-15S | 023-09E | 1052 m
################################################################################
201204270600 AAXX 27064 67633 32980 10903 10184 20138 48541 80001
                   333 10313 20145 59006 81080=
201204260600 AAXX 26064 67633 32480 30912 10158 20136 48550 70100 83500
                   333 10233 20122 59006 83616=
201204210600 AAXX 21064 67633 32960 00903 10185 20122 48536
                   333 10310 20130 58000=
201204200600 AAXX 20064 67633 32980 00905 10185 20096 48536 70200
                   333 10320 20135 58016=
201204130600 AAXX 13064 67633 32980 10908 10205 20166 48527 81030
                   333 10310 20170 59009 81361=
201204100600 AAXX 10064 67633 32982 00905 10237 20178 48506
                   333 10316 20184 59002=
201204030900 AAXX 03094 67633 42680 30909 10260 20159 48551 82300
                   333 58005 83830=
201204020600 AAXX 02064 67633 32980 10902 10224 20136 48544 81030
                   333 10304 20164 58009 81360=

################################################################################
#  SYNOPS from 67641, Kaoma (Zambia) | 14-48S | 024-48E | 1213 m
################################################################################
201204270600 AAXX 27064 67641 NIL=
201204130600 AAXX 13064 67641 32482 71204 10192 20159 48528 875//
                   333 10295 20166 59002 87630=
201204100600 AAXX 10064 67641 32980 00302 10210 20186 48504
                   333 10331 20161 59001=
201204020600 AAXX 02064 67641 32982 11004 10199 20172 48536 80002
                   333 10305 20147 58009 81080=

################################################################################
#  SYNOPS from 67655, Mumbwa (Zambia) | 15-04S | 027-11E | 1216 m
################################################################################
201204260600 AAXX 26064 67655 32980 00000 10167 20131 48566
                   333 10244 20//0 59009=
201204230600 AAXX 23064 67655 32980 00000 10195 20131 48544
                   333 10260 20/// 59005=
201204110600 AAXX 11064 67655 32480 30905 10229 20189 48527 81131
                   333 10300 20//0 58008 81820 82358 81079=
201204040600 AAXX 04064 67655 12480 60904 10156 20155 48548 69994 84530
                   333 10250 20//0 59003 84615 82358 91023=
201204020600 AAXX 02064 67655 32880 30000 10186 20172 48545 82031
                   333 10275 20//0 58009 82358 82080=

################################################################################
#  SYNOPS from 67663, Kabwe (Zambia) | 14-27S | 028-28E | 1206 m
################################################################################
201204270600 AAXX 27064 67663 32980 20903 10158 20134 48545 80002
                   333 10264 20114 59005 82080=
201204260600 AAXX 26064 67663 32980 00803 10173 20143 48546
                   333 10310 20144 59022=
201204200600 AAXX 20064 67663 32980 00912 10166 20129 48548
                   333 10261 20121 58014=
201204190600 AAXX 19064 67663 32980 10907 10190 20155 48537 81530
                   333 10276 20150 59008 81618 81360=
201204160600 AAXX 16064 67663 32980 40906 10188 20126 48528 70122 84008
                   333 10195 20151 58010 84280=
201204130600 AAXX 13064 67663 32480 50918 10177 20142 48539 85500
                   333 10257 20155 59008 85617=
201204100600 AAXX 10064 67663 32980 10000 10226 20192 48509 81030
                   333 10303 20173 59009 81360=
201204020600 AAXX 02064 67663 11480 80810 10181 20174 48535 60054 72162 885//
                   333 10255 20149 58012 88615=

################################################################################
#  SYNOPS from 67665, Lusaka Internationalairport (Zambia) | 15-19S | 028-27E | 1152 m
################################################################################
201205010000 AAXX 01004 67665 42980 01604 10120 20116 48536 70200
                   333 59002=
201204302100 AAXX 30214 67665 42980 01903 10148 20121 48540 70200
                   333 58002=
201204301800 AAXX 30184 67665 42980 01404 10171 20130 48535
                   333 10294 59003=
201204301500 AAXX 30154 67665 42980 00907 10268 20085 48533
                   333 59008=
201204301200 AAXX 30124 67665 42980 00605 10281 20097 48539
                   333 59011=
201204300900 AAXX 30094 67665 42980 00607 10249 20126 48558
                   333 59006=
201204300600 AAXX 30064 67665 32980 01405 10179 20147 48550
                   333 10275 20120 58001=
201204300300 AAXX 30034 67665 42980 01603 10099 20099 48526
                   333 58000=
201204300000 AAXX 3000/ 67665 42980 01003 10109 20104 48526
                   333 58008=
201204292100 AAXX 29214 67665 42980 01703 10121 20104 48535
                   333 58005=
201204291500 AAXX 29154 67665 42980 01206 10255 20113 48541
                   333 58007=
201204290600 AAXX 29064 67665 32980 01207 10164 20139 48546
                   333 10274 20105 59003=
201204281800 AAXX 28184 67665 42980 01702 10155 20119 48529
                   333 10274 59015=
201204281500 AAXX 28154 67665 42980 01205 10243 20096 48532
                   333 59007=
201204280900 AAXX 2809/ 67665 40980 01111 10231 20134 48560
                   333 59018=
201204280600 AAXX 28064 67665 32960 01504 10154 20154 48548
                   333 10255 20125 58017=
201204272100 AAXX 27214 67665 42980 01703 10124 20121 48541
                   333 59019=
201204271800 AAXX 27184 67665 42980 01503 10153 20145 48543
                   333 10255 59026=
201204271200 AAXX 27124 67665 42680 30908 10237 20131 48552 83100
                   333 59017 83835 91022=
201204270900 AAXX 27094 67665 42580 30806 10217 20154 48577 83100
                   333 59008 83820=
201204270600 AAXX 27064 67665 32980 21205 10159 20151 48565 82030
                   333 10240 20118 59008 82360=
201204270400 AAXX 27044 67665 42980 31603 10110 20110 48548 83030
                   333 59004 83360=
201204270000 AAXX 27004 67665 42080 01704 10115 20115 48550
                   333 59004=
201204262100 AAXX 26214 67665 42080 01503 10130 20130 48560
                   333 59006=
201204261800 AAXX 26184 67665 42980 11503 10151 20151 48568 81030
                   333 10240 58000 81360 91025=
201204261500 AAXX 26154 67665 42780 31007 10220 20148 48562 81130
                   333 59009 81850 82360
                   555 10240 91023=
201204261200 AAXX 26124 67665 42680 50909 10225 20163 48567 70122 85200
                   333 59009 85835 91024=
201204260900 AAXX 2609/ 67665 42480 61214 10214 20167 48583 70322 86600
                   333 59009 86725=
201204260600 AAXX 26064 67665 31380 71007 10161 20161 48573 70522 8663/
                   333 10248 20125 59003 86709 83360=
201204251800 AAXX 25184 67665 42980 09005 10155 20147 48569
                   333 58002=
201204251500 AAXX 25154 67665 42780 40808 10213 20149 48569 83130
                   333 58015 84850 81360=
201204251200 AAXX 25124 67665 42680 60813 10234 20146 48576 86100
                   333 58018 86838=
201204250900 AAXX 25094 67665 42580 61124 10225 20154 48595 70322 85600
                   333 58026 86725=
201204250600 AAXX 25064 67665 32480 51007 10171 20171 48577 85600
                   333 10//0 20130 58010 85710=
201204250300 AAXX 2503/ 67665 42980 01205 10133 20133 48555 70200
                   333 58013=
201204241200 AAXX 24124 67665 42980 00911 10255 20101 48564
                   333 58015=
201204240600 AAXX 24064 67665 32980 01405 10152 20144 48565
                   333 10274 20120 58026=
201204240000 AAXX 24004 67665 42980 01802 10238 20119 48534
                   333 58012=
201204231800 AAXX 23184 67665 42980 01604 10168 20163 48537
                   333 10274 58007=
201204231200 AAXX 23124 67665 42780 10907 10267 20108 48538 81100
                   333 59001 81850=
201204230900 AAXX 23094 67665 42980 01203 10245 20121 48555
                   333 58001=
201204230600 AAXX 23064 67665 32980 01503 10170 20154 48543
                   333 10263 20132 59008=
201204230400 AAXX 2304/ 67665 42980 00000 10107 20107 48525 70200
                   333 59010 555 Q1020.9=
201204230300 AAXX 23034 67665 42980 01603 10105 48520 70200
                   333 59011 91020=
201204230000 AAXX 2300/ 67665 42980 01901 10128 20128 48522 70200
                   333 59009=
201204222100 AAXX 2221/ 67665 42980 01702 10136 20136 48529 70200
                   333 59008 91021=
201204221800 AAXX 22184 67665 42980 01202 10178 20146 48532
                   333 10263 59009=
201204221500 AAXX 22154 67665 42980 10903 10246 20111 48527 81030
                   333 59008 81360=
201204221200 AAXX 22124 67665 42780 11503 10248 20126 48538 81100
                   333 59009 81856=
201204220900 AAXX 22094 67665 32680 10803 10225 20135 48561 81100
                   333 59007 81835=
201204220600 AAXX 22064 67665 32980 01302 10166 20161 48549
                   333 10255 20107 59009=
201204212100 AAXX 21214 67665 42980 01601 10139 20130 48536
                   333 59009=
201204211800 AAXX 21184 67665 42980 21403 10161 20145 48538 82030
                   333 10255 59003 82360=
201204211500 AAXX 21154 67665 42980 21005 10236 20129 48533 82030
                   333 59002 82360 555 10255 91020=
201204211200 AAXX 21124 67665 42680 51206 10236 20127 48546 70122 85100
                   333 59001 85835 91021=
201204211021 AAXX 21104 67665 42680 51206 10236 20127 48546 70122 85100 85835 91021=
201204210900 AAXX 21094 67665 42580 60907 10224 20186 48568 86100
                   333 58002 86820=
201204210600 AAXX 21064 67665 32680 11205 10167 20151 48559 81100
                   333 10250 20135 58001 81840=
201204210400 AAXX 2104/ 67665 42480 31503 10124 20124 48539 82100
                   333 59005 82815=
201204210300 AAXX 21034 67665 42980 21703 10129 20129 48533 82030
                   333 59007 82360=
201204210000 AAXX 21004 67665 42980 01803 10128 20128 48529
                   333 59011=
201204202100 AAXX 20214 67665 42980 01603 10139 20139 48547
                   333 58000=
201204201800 AAXX 20184 67665 42980 11503 10157 20149 48541 81030
                   333 10250 58001 81360 91022=
201204201500 AAXX 20154 67665 42680 21207 10232 20143 48534 81130
                   333 59001 81845 81360
                   555 10250 91020=
201204201200 AAXX 20124 67665 42680 21507 10241 20146 48546 82100
                   333 58002 82830 91021=
201204200600 AAXX 20064 67665 32980 01105 10155 48557 70200
                   333 10255 20132 58012=
201204191500 AAXX 19154 67665 42780 21010 10238 20132 48536 82130
                   333 58012 82850 81360=
201204191200 AAXX 19124 67665 42580 51308 10243 20148 48544 84100
                   333 58015 84838=
201204190900 AAXX 19094 67665 42580 51113 10227 20156 48561 70322 85500
                   333 58002 85620=
201204190600 AAXX 19064 67665 32980 11206 10174 20174 48547 70222 81530
                   333 10280 20148 58002 81608 81360=
201204190000 AAXX 19004 67665 42980 11002 10142 20142 48522 81030
                   333 59013 81360=
201204182100 AAXX 18214 67665 42980 11703 10174 20160 48533 81030
                   333 59012 81360=
201204181200 AAXX 18124 67665 42680 50605 10268 20151 48533 85200
                   333 59013 85848=
201204180900 AAXX 18094 67665 42580 31007 10235 20191 48561 83130
                   333 59012 83820 81360=
201204180600 AAXX 18064 67665 32980 11405 10178 20178 48610 70222 81030
                   333 10274 20138 59010 81360=
201204180400 AAXX 18044 67665 42980 11501 10131 20131 4852 81031
                   333 58007 81360 81080=
201204180300 AAXX 1803/ 67665 42980 01601 10127 20127 48527
                   333 59004=
201204180000 AAXX 18004 67665 42980 01502 10143 20143 48538
                   333 58014=
201204172100 AAXX 17214 67665 42980 01501 10154 20154 48541
                   333 58001=
201204171500 AAXX 17154 67665 42680 10704 10247 20181 48532 70112 81130
                   333 58001 81849 81360=
201204171200 AAXX 17124 67665 42680 50907 10245 20176 48542 85200
                   333 58009 85835=
201204170900 AAXX 17094 67665 42580 51007 10223 20185 48570 85100
                   333 58015 85820=
201204170600 AAXX 17064 67665 32980 11007 10176 20162 48560 80001
                   333 10262 20136 58013 81080=
201204170400 AAXX 17044 67665 42980 11304 10129 20129 48537 70300 81030
                   333 58011 81360 91022=
201204161800 AAXX 16184 67665 42980 01302 10175 20167 48535
                   333 10262 58011=
201204161500 AAXX 16154 67665 42780 30902 10239 20152 48531 83100
                   333 58012 83850=
201204161200 AAXX 16124 67665 42680 51203 10242 20146 48533 85100
                   333 58009 85835=
201204160900 AAXX 1609/ 67665 42580 11207 10233 20170 48557 81100
                   333 58011 81822=
201204160600 AAXX 16064 67665 32980 01004 10171 20125 48546 70200
                   333 10260 20128 58004=
201204160400 AAXX 16044 67665 4298001503 10128 20128 48527
                   333 58003=
201204152100 AAXX 15214 67665 42980 01003 10146 20142 48531
                   333 58001=
201204151800 AAXX 15184 67665 42980 31504 10176 20155 48525 83030
                   333 10260 59007 83360=
201204151500 AAXX 15154 67665 42780 21608 10233 20154 48518 81130
                   333 59007 81850 81360
                   555 10260=
201204150600 AAXX 15064 67665 32980 01105 10159 20159 48541 70222
                   333 10245 20134 58011=
201204150000 AAXX 15004 67665 42980 01504 10124 20124 48517
                   333 59024=
201204142100 AAXX 1421/ 67665 42980 10603 10136 20136 48529 81030
                   333 59020 81360=
201204141800 AAXX 14184 67665 42980 20704 10163 20163 48530 82030
                   333 10245 59011 82360 91020=
201204131800 AAXX 13184 67665 42980 20803 10162 20162 48550 81030
                   333 58010 81360=
201204131500 AAXX 1315/ 67665 42680 70705 10196 20164 48547 86130
                   333 58013 86835 82360=
201204131200 AAXX 13124 67665 42580 70609 10205 20183 48547 87200
                   333 58002 87825=
201204130900 AAXX 13094 67665 42480 70810 10211 20173 48562 87500
                   333 59003 87512=
201204130600 AAXX 13064 67665 32380 70910 10170 20139 48556 87730
                   333 10280 20146 59001 87707 81360=
201204130000 AAXX 13004 67665 42980 11006 10166 20166 48547 70200 81030
                   333 58007 81360=
201204122100 AAXX 12214 67665 42980 10703 10176 20176 48552 70200 81030
                   333 58005 81360=
201204121500 AAXX 12154 67665 42680 40611 10248 20196 48541 83230
                   333 58029 83848 81360=
201204121200 AAXX 12124 67665 42680 61110 10251 20200 48551 86200
                   333 58026 86840=
201204120900 AAXX 12094 67665 42580 60615 10235 20206 48569 84531
                   333 58028 84622 82360 81080=
201204111200 AAXX 11124 67665 42680 50808 10277 20227 48527 70222 85200
                   333 58011 85842=
201204110900 AAXX 11094 67665 42680 60710 10254 20225 48543 86200
                   333 58018 86830=
201204110600 AAXX 11064 67665 12980 11108 10210 20195 48533 69904 81030
                   333 10293 20161 58017 81360=
201204110400 AAXX 11044 67665 42380 51203 10183 20183 48518 81630
                   333 58016 81707 84360 Q1019.1=
201204110300 AAXX 11034 67665 42380 51203 10183 20183 48518 81630
                   333 58016 81707 84360 Q1019.1=
201204101500 AAXX 10154 67665 42680 60603 10239 20194 48504 81931
                   333 59002 81945 85360 82080=
201204100600 AAXX 10064 67665 32980 01101 10222 20189 48517
                   333 10290 20155 59010=
201204100400 AAXX 1004/ 67665 42980 11302 10161 20161 48501 81030
                   333 59012 81360=
201204091800 AAXX 09184 67665 42980 11102 10193 20193 48506 81030
                   333 58001 81360=
201204091500 AAXX 09154 67665 41680 61805 10224 20210 48504 71622 81931
                   333 81945 83845 83360 81080
                   555 10300 91016=
201204091200 AAXX 09124 67665 41680 60402 10268 20210 48510 71622 86200
                   333 58002 86835 91016=
201204090900 AAXX 09094 67665 42580 40302 10261 20191 48532 84230
                   333 59002 84825 81360=
201204090600 AAXX 0906/ 67665 12980 10000 10218 20193 48526 60024 81030
                   333 10290 20161 59001 81360=
201204090400 AAXX 0904/ 67665 42980 51501 10197 20197 48517 85030
                   333 58001 85360=
201204090300 AAXX 09034 67665 42980 61600 10197 20197 48513 86030
                   333 58000 86360=
201204090000 AAXX 09004 67665 42980 31701 10188 20188 48513 83030
                   333 59002 83360=
201204082100 AAXX 08214 67665 42980 72603 10186 20186 48516 87060
                   333 59001 87360=
201204081800 AAXX 08184 67665 41780 71201 10188 20188 48507 71799 8197/
                   333 10290 59008 81957 87360 91017=
201204081500 AAXX 08154 67665 41780 61503 10236 20183 48498 71622 83230
                   333 59014 81950 83850 83360
                   555 10290 91016=
201204081200 AAXX 08124 67665 42680 50105 10272 20198 48508 84230
                   333 59021 84835 81360 91016=
201204080900 AAXX 08094 67665 42580 60604 10250 20199 48533 86830
                   333 59018 82820 84622 81360=
201204080600 AAXX 08064 67665 32980 50803 10189 20176 48524 85030
                   333 10255 20130 59015 85360=
201204071800 AAXX 07184 67665 42980 60701 10190 20190 48511 86030
                   333 59024 86360=
201204071500 AAXX 07154 67665 42680 40604 10229 20200 48511 82530
                   333 59018 82645 82360=
201204071200 AAXX 07124 67665 42680 60304 10242 20189 48525 86530
                   333 59011 86635 82360=
201204070900 AAXX 07094 67665 42580 70804 10211 20174 48545 87500
                   333 59009 87625=
201204070600 AAXX 07064 67665 32480 50905 10168 20155 48536 85530
                   333 10244 20115 59006 85610 81360=
201204070000 AAXX 07004 67665 42980 00000 10132 20132 48518 70200
                   333 59005=
201204062100 AAXX 06214 67665 42980 21402 10153 20153 48535 82030
                   333 58000 82360=
201204061200 AAXX 06124 67665 42680 60406 10224 20178 48533 84530
                   333 59005 84630 85360=
201204060900 AAXX 06094 67665 42580 71007 10211 20173 48554 86800
                   333 59004 86620 83822=
201204060600 AAXX 06064 67665 32480 31105 10174 20169 48545 70322 82530
                   333 10245 20124 59006 82610 81360=
201204050900 AAXX 05094 67665 42580 71204 10211 20192 48556 87800
                   333 58002 81820 86622=
201204050600 AAXX 05064 67665 32480 11103 10182 20158 48551 81500
                   333 10240 20126 59002 81610=
201204050400 AAXX 05044 67665 42980 21201 10147 20147 48535 70200 82030
                   333 59001 82360 91021=
201204050000 AAXX 05004 67665 42980 21402 10142 20142 48526 82030
                   333 59013 82360=
201204041200 AAXX 04124 67665 42680 60605 10229 20175 48536 86530
                   333 59013 86630 83360=
201204040600 AAXX 04064 67665 32480 61203 10176 20160 48552 82530
                   333 10245 20136 59009 82616 86359=
201204040400 AAXX 04044 67665 42980 71402 10151 20151 48536 8703/
                   333 58006 87359=
201204032100 AAXX 03214 67665 42980 31201 10157 20157 48555 83030
                   333 58002 83360=
201204031800 AAXX 03184 67665 42980 20401 10172 20172 48550 82030
                   333 10245 58009 82360=
201204031500 AAXX 03154 67665 42680 60603 10215 20185 48544 84230
                   333 58013 84848 83360
                   555 10245 91021=
201204031200 AAXX 03124 67665 42680 60705 10221 20183 48547 85230
                   333 58033 85835 81360 91022=
201204030900 AAXX 03094 67665 42580 60904 10204 20180 48542 86230
                   333 58005 86820 81360=
201204030700 AAXX 0307/ 67665 12380 71205 10176 20165 48562 60194 8663/
                   333 10270 20152 58011 86708 83360=
201204030600 AAXX 03064 67665 12380 71205 10176 20164 48562 60194 8663/
                   333 10270 20152 58011 86708 83360=
201204030400 AAXX 0304/ 67665 42680 61202 10168 20168 48544 83430
                   333 58009 83640 85360=
201204030300 AAXX 0303/ 67665 42680 41004 10170 20170 48540 82430
                   333 58008 82635 84360=
201204022100 AAXX 02214 67665 42680 70903 10196 20196 48558 76022 83730
                   333 58010 83720 84645 85360=
201204021800 AAXX 02184 67665 41680 61202 10187 20187 48544 70162 85530
                   333 10270 58010 85635 83360 91021=
201204021500 AAXX 02154 67665 42480 50605 10214 20214 48530 75022 81930
                   333 58004 82620 81945 83360
                   555 10270=
201204021200 AAXX 02124 67665 41680 61203 10257 20214 48539 71622 86200
                   333 58009 81935 86838 91020=
201204020900 AAXX 02094 67665 42580 61005 10225 20202 48561 86800
                   333 58023 83825 85627=
201204020600 AAXX 02064 67665 12480 61305 10185 20177 48552 60044 85530
                   333 10270 20140 58007 85615 82360=
201204012100 AAXX 0121/ 67665 42680 70903 10196 20196 48558 76022 83730
                   333 58010 83720 84645 85360=
201204011500 AAXX 01154 67665 42580 71402 10196 20196 48525 72566 8363/
                   333 58040 83620 85838 83360=
201204011200 AAXX 01124 67665 41359 71103 10197 20197 48525 79592 867//
                   333 58031 86708 86830=
201204010900 AAXX 01094 67665 41580 72808 10244 20215 48540 71622 86830
                   333 58008 84825 82630 83360=
201204010600 AAXX 01064 67665 12380 73302 10202 20194 48532 69934 83630
                   333 10290 20185 58011 83709 86360=

################################################################################
#  SYNOPS from 67666, Lusaka City Airport (Zambia) | 15-25S | 028-19E | 1280 m
################################################################################
201204271200 AAXX 27124 67666 42680 30905 10230 20102 48541 83100
                   333 59019 83830 91021=
201204270900 AAXX 27094 67666 42580 40905 10210 20119 48565 83130
                   333 59009 83825 81360=
201204270600 AAXX 27064 67666 32980 40505 10160 20106 48559 84030
                   333 10/// 20115 59006 84360=
201204260600 AAXX 26064 67666 32480 60908 10160 20135 48565 875//
                   333 10//0 20145 59005 87610=
201204250600 AAXX 25064 67666 32480 70910 10157 20145 58011 87617=
201204230600 AAXX 23064 67666 31980 00000 10193 20129 48541 70500
                   333 10/// 20102 59008=
201204201200 AAXX 20124 67666 42680 30900 10235 20235 48533 83100
                   333 59001 83835 91020=
201204200600 AAXX 20064 67666 32980 00907 10173 20122 48553
                   333 10111 20125 58009=
201204190600 AAXX 19064 67666 32980 01010 10180 20130 48543
                   333 10//0 20140 58002=
201204161200 AAXX 16124 67666 42580 41005 10241 20126 48525 84200
                   333 58007 84835=
201204130900 AAXX 13094 67666 42580 70918 10200 20144 48524 878//
                   333 59005 86615 85820=
201204130600 AAXX 13064 67666 32480 70916 10163 20135 48545 875//
                   333 10/// 20145 59006 87610=
201204110600 AAXX 11064 67666 12980 22708 10215 20168 48511 69904 82030
                   333 10//0 20154 58020 82360=
201204040600 AAXX 04064 67666 32480 71007 10174 20153 48548 875//
                   333 10//0 20146 58007 87615 91022=
201204021200 AAXX 02124 67666 42680 41108 10251 20174 48524 84200
                   333 58003 81935 84835 91019=
201204020600 AAXX 02064 67666 12480 40909 10190 20112 48549 60044 84500
                   333 10//0 20145 58021 84615=

################################################################################
#  SYNOPS from 67673, Petauke (Zambia) | 14-15S | 031-17E | 1035 m
################################################################################
201204270600 AAXX 27064 67673 32484 11406 10180 20139 48575 81500
                   333 10250 20123 59005 81616=
201204200600 AAXX 20064 67673 32784 11208 10201 20140 48566 81100
                   333 10269 20135 58026 81820=
201204190600 AAXX 19064 67673 32984 01409 10206 20131 48542
                   333 10284 20137 59010=
201204130900 AAXX 13094 67673 42580 61009 10204 20134 48565 86500
                   333 59005 86625=
201204020600 AAXX 02064 67673 11470 81504 10193 20187 48547 60144 75166 885//
                   333 10260 20184 58006 88610=

################################################################################
#  SYNOPS from 67731, Senanga (Zambia) | 16-06S | 023-16E | 1027 m
################################################################################
201204270600 AAXX 27064 67731 32980 00902 10216 20184 48///
                   333 10305 20152 5////=
201204200600 AAXX 20064 67731 32980 00902 10187 20166 48///
                   333 10306 20139 5////=
201204190600 AAXX 19064 67731 32980 00902 10219 20139 48///
                   333 10299 20141 5////=
201204020600 AAXX 02064 67731 32980 00901 10236 20181 48///
                   333 10277 20165 5////=

################################################################################
#  SYNOPS from 67741, Sesheke (Zambia) | 17-28S | 024-18E | 949 m
################################################################################
201204200600 AAXX 20064 67741 32980 00902 10173 20115 48548
                   333 10306 20127 58017=
201204190600 AAXX 19064 67741 32980 00902 10175 20134 48538
                   333 10312 20106 59009=

################################################################################
#  SYNOPS from 67743, Livingstone (Zambia) | 17-49S | 025-49E | 985 m
################################################################################
201204281500 AAXX 28154 67743 42980 01009 10303 20033 48535
                   333 59009=
201204281200 AAXX 28124 67743 42980 00904 10263 20135 48538
                   333 59017=
201204280600 AAXX 28064 67743 32980 00000 10158 20126 48542
                   333 10297 20104 59007=
201204271200 AAXX 27124 67743 42780 10807 10284 20089 48554 81100
                   333 59015 81856 91020=
201204270600 AAXX 27064 67743 32980 00000 10169 20117 48553
                   333 10290 20118 59015=
201204261200 AAXX 26124 67743 41780 61007 10281 20136 48568 70422 86200
                   333 59008 86856 555 91022=
201204260600 AAXX 26064 67743 32680 10903 10183 20130 48568 70300 81100 10277 20136 59013
                   81845=
201204250600 AAXX 25064 67743 41980 01008 10178 20122 48581 70200
                   333 10318 20133 58005
                   555 20000 91026=
201204231200 AAXX 23124 67743 42880 11606 10313 20066 48539 81100
                   333 59000 81857=
201204221500 AAXX 22154 67743 42980 00904 10291 20065 48522
                   333 59010=
201204221200 AAXX 22124 67743 42980 01204 10297 20060 48537
                   333 58010=
201204220600 AAXX 22064 67743 32980 00000 10174 20113 48536
                   333 10306 20115 59013=
201204210900 AAXX 21094 67743 42780 10403 10261 20100 48564 81100
                   333 59006 81856=
201204210600 AAXX 21064 67743 32980 00903 10183 20103 48551
                   333 10296 20118 59006=
201204201200 AAXX 20124 67743 42980 21005 10288 20049 48551 82100
                   333 58002 82850 91020=
201204200600 AAXX 20064 67743 32980 20905 10185 20116 48558 82030
                   333 10301 20145 58008 82360=
201204190900 AAXX 19094 67743 42980 01109 10250 20095 48567
                   333 58007 Q1022.9=
201204190600 AAXX 19064 67743 32980 00904 10176 20128 48547
                   333 10311 20126 58002=
201204170600 AAXX 17064 67743 32980 10902 10187 20115 48559 80001
                   333 10300 20132 58018 81080=
201204161500 AAXX 16154 67743 42880 10907 10291 20096 48533 81101
                   333 58010 81857 81080=
201204161200 AAXX 16124 67743 42880 21004 10285 20091 48540 82100
                   333 58009 82857=
201204160600 AAXX 16064 67743 32980 00000 10160 20109 48537 70200
                   333 10285 20094 58008=
201204151500 AAXX 15154 67743 42980 20504 10279 20079 48522 82060
                   333 59003 82358 555 10285=
201204130900 AAXX 13094 67743 42680 20913 10249 20105 48471 82101
                   333 59003 82840 81080=
201204130600 AAXX 13064 67743 32980 11205 10191 20147 48558 81030
                   333 10302 20157 58001 81360=
201204111200 AAXX 11124 67743 42680 42707 10319 20139 48526 70300 82130
                   333 58006 83845 81360=
201204100600 AAXX 10064 67743 32980 20000 10206 20175 48511 70200 82100 20161 59009 82835=
201204091200 AAXX 09124 67743 42780 31403 10320 20145 48514 83100
                   333 58004 83850 91015=
201204090900 AAXX 09094 67743 42980 32102 10282 20159 48532
                   333 59001 83845=
201204090600 AAXX 0906/ 67743 32980 02702 10204 20170 48518
                   333 10302 20154 58001=
201204080900 AAXX 08094 67743 42680 61903 10249 20176 48528 81130
                   333 59019 81835 86360=
201204080600 AAXX 08064 67743 32980 70904 10186 20164 48515 8703/
                   333 10272 20170 59016 87360=
201204070600 AAXX 07064 67743 32680 81002 10186 20141 48530 8113/
                   333 10288 20166 59024 81845 87360=
201204031200 AAXX 03124 67743 42680 21004 10258 20126 48555 70200 82130
                   333 59001 81845 81360 91021=
201204030900 AAXX 03094 67743 42980 01009 10225 20119 48574
                   333 58007=
201204021500 AAXX 02154 67743 42780 31008 10271 20153 48538 82131
                   333 58021 82850 81360 81080
                   555 10278 91019=
201204020900 AAXX 02094 67743 42580 60908 10241 20172 48569 86800
                   333 58022 81825 85630=
201204020600 AAXX 02064 67743 32680 51010 10204 20176 48554 83831
                   333 10319 20163 58023 81630 82835 82360 81080=

################################################################################
#  SYNOPS from 67751, Magoye (Zambia) | 16-00S | 027-36E | 1018 m
################################################################################
201204200600 AAXX 20064 67751 32980 00903 10194 20130 48///
                   333 10280 20094 59003=

################################################################################
#  SYNOPS from 67753, Choma (Zambia) | 16-50S | 027-04E | 1213 m
################################################################################
201204270600 AAXX 27064 67753 32560 11104 10169 20137 48/// 81100
                   333 10227 20089 5////=
201204260600 AAXX 26064 67753 32560 30910 10178 20142 48/// 83500
                   333 10231 20120 83620=
201204220900 AAXX 22094 67753 42660 11004 10235 20136 48/// 81100
                   333 5//// 81830=
201204220600 AAXX 22064 67753 32960 00408 10155 20123 48/// 70400
                   333 10231 20088=
201204200600 AAXX 20064 67753 32960 10908 10173 20136 48/// 81030
                   333 10239 20107 5//// 81360=
201204130600 AAXX 13064 67753 12460 71108 10157 20156 48/// 60044 8557/
                   333 10249 20155 5//// 85615 83360=
201204100600 AAXX 10064 67753 32960 00104 0205 20184 48///
                   333 10271 20144 5////=
201204020600 AAXX 02064 67753 11450 81208 10173 20165 48/// 69904 76022 885//
                   333 10274 20149 5//// 88618=

################################################################################
#  SYNOPS from 67855, Lupaki (Zambia) | 17-03-00S | 024-46-00E | 1000 m
################################################################################
201204301200 AAXX 30124 67855 42980 00902 10336 20048 3//// 48///
                   333 5////=
201204300600 AAXX 30064 67855 31970 01701 10104 20064 3//// 48/// 70500
                   333 20053 5////=
201204291800 AAXX 29184 67855 NIL=
201204291200 AAXX 29124 67855 41970 01702 10322 20079 3//// 48/// 70500
                   333 5////=
201204290600 AAXX 29064 67855 31970 01601 10126 20070 38/// 48/// 70500
                   333 20068 5////=
201204281800 AAXX 28184 67855 NIL=
201204280600 AAXX 28064 67855 31970 01801 10148 20050 3//// 48///
                   333 20095 5////=
201204271800 AAXX 27184 67855 NIL=
201204271200 AAXX 27124 67855 41670 12302 10288 20108 3//// 48/// 70500 81100
                   333 5//// 81840=
201204270600 AAXX 27064 67855 31970 01801 10152 20106 38/// 48/// 70500
                   333 20089 5////=
201204261200 AAXX 26124 67855 41670 61803 10282 20123 38/// 48/// 70511 86100
                   333 5//// 86840=
201204260600 AAXX 26064 67855 31970 00902 10164 20135 3//// 48/// 70500
                   333 20113 5////=
201204251200 AAXX 25124 67855 41670 50904 10270 20136 3//// 48/// 70522 85100
                   333 5//// 85830=
201204250600 AAXX 25064 67855 31370 11306 10176 20134 38/// 48/// 70500 81630
                   333 20095 5//// 81707=
201204241200 AAXX 24124 67855 NIL=
201204240600 AAXX 24064 67855 NIL=
201204231800 AAXX 23184 67855 NIL=
201204231200 AAXX 23124 67855 42980 11102 10318 20080 3//// 48/// 81400
                   333 5//// 81660=
201204230600 AAXX 23064 67855 31970 01101=
201204221800 AAXX 22184 67855 NIL=
201204221200 AAXX 22124 67855 41970 01202 10303 20083 3//// 48/// 70500
                   333 5////=
201204220600 AAXX 22064 67855 31970 00000 10150 20100 3//// 48/// 70500
                   333 20087 5////=
201204211200 AAXX 21124 67855 41770 10602 10290 20105 3//// 48/// 70500 81400
                   333 5//// 81650=
201204210600 AAXX 21064 67855 31970 00000 10128 20088 38/// 48/// 70500
                   333 20070 5////=
201204201800 AAXX 20184 67855 NIL=
201204201200 AAXX 20124 67855 42880 20302 10286 20104 38/// 48/// 82100
                   333 5//// 82857=
201204200600 AAXX 20064 67855 31970 01801 10134 20109 38/// 48///
                   333 20085 5////=
201204191800 AAXX 19184 67855 NIL=
201204191200 AAXX 19124 67855 42880 31802 10290 20123 38/// 48/// 83100
                   333 5//// 83857=
201204190600 AAXX 19064 67855 32980 01401 10160 20100 3//// 48///
                   333 20090 5////=
201204181800 AAXX 18184 67855 NIL=
201204181200 AAXX 18124 67855 NIL=
201204180600 AAXX 18064 67855 32980 00000 10128 20104 3//// 48///
                   333 20085 5////=
201204171800 AAXX 17184 67855 NIL=
201204171200 AAXX 17124 67855 42780 32002 10292 20125 3//// 48/// 83100
                   333 5//// 83850=
201204170600 AAXX 17064 67855 32980 01301 10148 20098 3//// 48///
                   333 20099 5////=
201204161800 AAXX 16184 67855 NIL=
201204161500 AAXX 16154 67855 42980 00301 10282 20111 3//// 48///
                   333 5////=
201204161200 AAXX 16124 67855 42780 10902 10294 20113 3//// 48/// 81400
                   333 5//// 81650=
201204160600 AAXX 16064 67855 32980 00601 10142 20096 3//// 48///
                   333 20078 5////=
201204151800 AAXX 15184 67855 NIL=
201204151200 AAXX 15124 67855 NIL=
201204150600 AAXX 15064 67855 32980 11801 10128 20095 3//// 48/// 81030
                   333 20078 5//// 81360=
201204141800 AAXX 14184 67855 NIL=
201204141200 AAXX 14124 67855 42880 10702 10260 20103 38/// 48/// 81400
                   333 5//// 81660=
201204140600 AAXX 14064 67855 32980 00602 10126 20080 3//// 48///
                   333 20080 5////=
201204131800 AAXX 13184 67855 NIL=
201204131200 AAXX 13124 67855 42780 41604 10254 20121 3//// 48/// 84201
                   333 5//// 84850=
201204130600 AAXX 13064 67855 12380 11004 10166 20125 3//// 48/// 69904 81600
                   333 20128 5//// 81707=
201204120600 AAXX 12064 67855 NIL=
201204111200 AAXX 11124 67855 42780 43404 10322 20161 3//// 48/// 84230
                   333 5//// 84850=
201204110600 AAXX 11064 67855 12980 21801 10198 20158 3//// 48/// 69904 82030
                   333 20151 5//// 82360=
201204101800 AAXX 10184 67855 NIL=
201204101200 AAXX 10124 67855 42780 43002 10328 20143 3//// 48/// 84260
                   333 5//// 84850=
201204100600 AAXX 10064 67855 32980 21401 10188 20149 3//// 48/// 82030
                   333 20134 5//// 82360=
201204091800 AAXX 09184 67855 NIL=
201204090600 AAXX 09064 67855 32980 30602 10180 20148 38/// 48/// 83030
                   333 20130 5//// 83360=
201204081800 AAXX 08184 67855 NIL=
201204081200 AAXX 08124 67855 42780 53302 10298 20168 38/// 48/// 83230
                   333 5//// 83850 85360=
201204080600 AAXX 08064 67855 32980 71801 10180 20149 3//// 48/// 8704/
                   333 20136 5//// 87460=
201204071800 AAXX 07184 67855 NIL=
201204071200 AAXX 07124 67855 NIL=
201204070600 AAXX 07064 67855 32980 00603 10188 20129 3//// 48///
                   333 20096 5////=
201204061800 AAXX 06184 67855 NIL=
201204061200 AAXX 06124 67855 42780 13602 10282 20123 3//// 48/// 81400
                   333 5//// 81650=
201204060600 AAXX 06064 67855 32980 01302 10160 20103 3//// 48///
                   333 20115 5////=
201204051800 AAXX 05184 67855 NIL=
201204051200 AAXX 05124 67855 NIL=
201204050600 AAXX 05064 67855 31970 01702 10158 20099 3//// 48/// 70500
                   333 20093 5////=
201204041800 AAXX 04184 67855 NIL=
201204041200 AAXX 04124 67855 42780 21801 10270 20100 3//// 48/// 82400
                   333 5//// 82650=
201204040600 AAXX 04064 67855 31970 00901 10132 20119 38/// 48/// 70500
                   333 20084 5////=
201204031800 AAXX 03184 67855 NIL=
201204031200 AAXX 03124 67855 42780 31702 10266 20108 38/// 48/// 83100
                   333 5//// 83850=
201204030600 AAXX 03064 67855 31970 01603 10136 20115 3//// 48/// 70500
                   333 20088 5////=
201204021800 AAXX 02184 67855 NIL=
201204021200 AAXX 02124 67855 42980 71805 10232 20141 3//// 48/// 8707/
                   333 5//// 87460=
201204020600 AAXX 02064 67855 NIL=
201204011800 AAXX 01184 67855 NIL=
201204011200 AAXX 01124 67855 NIL=
201204010600 AAXX 01064 67855 11370 02202 10176 20174 3//// 48/// 60054 74040
                   333 20155 5////=
