################################################################################
# Query made at 04/10/2022 06:48:20 UTC
# Country like Zamb*
# Time interval: from 02/01/2019 05:30  to 03/03/2019 06:30  UTC
################################################################################

################################################################################
#  SYNOPS from 67403, Kawambwa (Zambia) | 09-48S | 029-05E | 1323 m
################################################################################
201903010600 AAXX 01064 67403 32980 33001 10221 20188 48523 82081
                   333 10314 20180 58017 82360 83080
                   555 00193=
201902280600 AAXX 28064 67403 12980 43001 10201 20186 48504 60024 84030
                   333 10328 20170 59008 84360
                   555 00178=
201902270600 AAXX 27064 67403 12980 70000 10198 20172 48512 60014 8703/
                   333 10314 20180 59002 87360
                   555 00188=
201902260600 AAXX 26064 67403 11475 50701 10201 20194 48514 60674 81531
                   333 10324 20177 58008 81610 84360 82080
                   555 00178=
201902250600 AAXX 25064 67403 31975 40301 10231 20178 48508 70522 84031
                   333 10300 20178 59010 84360 81080
                   555 00180=
201902220600 AAXX 22064 67403 12980 70901 10207 20188 48520 60034 87031
                   333 10284 20191 59004 87360 81080
                   555 00196=
201902210600 AAXX 21064 67403 11975 71001 10198 20183 48524 60184 70522 84031
                   333 10302 20175 58013 84360 85080
                   555 00188=
201902200600 AAXX 20064 67403 11480 61201 10196 20180 48511 60054 70322 81530
                   333 10267 20174 58001 81612 86360
                   555 00182=
201902181200 AAXX 18124 67403 NIL=
201902180900 AAXX 18094 67403 NIL=
201902180600 AAXX 18064 67403 31975 60000 10210 20188 48515 70522 86030
                   333 10299 20190 5//// 86360
                   555 00199=
201902150600 AAXX 15064 67403 11975 40601 10203 20186 48539 60034 70520 82031
                   333 10278 20160 58005 82360 84080=
201902140600 AAXX 14064 67403 11975 80901 10193 20184 48533 60164 72166 8803/
                   333 10272 20182 58016 88360
                   555 00192=
201902130600 AAXX 13064 67403 11975 83601 10212 20193 48519 69924 70522 8803/
                   333 10330 20199 58018 88360
                   555 00190=
201902120600 AAXX 12064 67403 31475 63601 10195 20183 48500 70322 82531
                   333 10253 20177 59024 82612 86360=
201902110600 AAXX 11064 67403 11970 80601 10186 20183 48523 60024 76162 8803/
                   333 10//0 20//0 5//// 88360=
201902080600 AAXX 08064 67403 11956 82002 10174 20171 48524 60144 76196 8193/
                   333 10318 20174 58012 81960 88360=
201902070600 AAXX 07064 67403 31975 70901 10214 20194 48515 70522 87031
                   333 10284 20190 59007 87360 81080=
201902060600 AAXX 06064 67403 11975 80000 10194 20191 48521 60094 76062 8803/
                   333 10314 20176 58018 88360=
201902050600 AAXX 05064 67403 11980 20901 10218 20196 48504 60034 70122 82030
                   333 10323 20178 59005 82360=
201902040600 AAXX 04064 67403 11480 62701 10207 20198 48508 60154 70342 81530
                   333 10299 20181 59009 81610 86360=
201902010600 AAXX 01064 67403 31975 40902 10217 20174 48530 81031
                   333 10290 20171 58005 81360 84080=

################################################################################
#  SYNOPS from 67413, Mbala (Zambia) | 08-51S | 031-20E | 1673 m
################################################################################
201902280600 AAXX 28064 67413 NIL=
201902220600 AAXX 22064 67413 32480 80905 10195 20164 48538 83570
                   333 10263 20120 59003 83612 87360
                   555 00088 91024=
201902200600 AAXX 20064 67413 32480 83006 10200 20168 48533 70322 82570
                   333 10253 20102 58006 82610 88359
                   555 00094=
201902181200 AAXX 18124 67413 NIL=
201902180900 AAXX 18094 67413 NIL=
201902180600 AAXX 18064 67413 12480 70000 10200 20175 48540 60024 82108
                   333 10//0 20090 5//// 82815 86280 91024=
201902040600 AAXX 04064 67413 12980 61306 10182 20149 48523 60024 86030
                   333 10//0 25006=
201902010600 AAXX 01064 67413 12480 80806 10195 20163 48549 60164 82572
                   333 10256 20100 58006 82610 82360 88280 91025=

################################################################################
#  SYNOPS from 67441, Mwinilunga (Zambia) | 11-45S | 024-26E | 1361 m
################################################################################
201903010600 AAXX 01064 67441 11580 60000 10200 20183 48558 60114 70522 84530
                   333 10310 20//0 58007 84630 84360=
201902281200 AAXX 28124 67441 41680 60000 10290 20165 48518 70522 86201
                   333 59008 84840 82070=
201902280600 AAXX 28064 67441 31980 20000 10175 20165 48546 70500 80001
                   333 10260 20//0 59005 82070=
201902270600 AAXX 27064 67441 31680 70000 10190 20181 48550 70500 8703/
                   333 10260 20//0 5//// 87359=
201902220600 AAXX 22064 67441 12380 80000 10190 20182 48561 69954 887//
                   333 10280 20//0 58006 88708=
201902211200 AAXX 21124 67441 42680 60101 10280 20169 48528 84230
                   333 58001 84850 86360=
201902210600 AAXX 21064 67441 11370 70000 10190 20182 48555 60094 70522 8379/
                   333 10270 20//0 58013 83707 87359=
201902200600 AAXX 20064 67441 11370 70000 10185 20185 48543 60234 70544 877//
                   333 10260 20//0 58007 87708=
201902181200 AAXX 18124 67441 NIL=
201902180900 AAXX 18094 67441 NIL=
201902180600 AAXX 18064 67441 12980 70000 10185 20177 48543 60044 8703/
                   333 10310 20//0 5//// 87360=
201902110600 AAXX 11064 67441 11670 70000 10190 20186 48547 60034 74044 8422/
                   333 10250 20//0 58018 84730=
201902081200 AAXX 08124 67441 42680 70000 10280 20195 48514 85207
                   333 59008 85850 85270=
201902080900 AAXX 08094 67441 42680 80000 10245 20186 48546 82207
                   333 59006 82845 88270=
201902080600 AAXX 08064 67441 11980 80000 10185 20177 48539 60014 70522 8807/
                   333 10310 20//0 59008 88360=
201902071200 AAXX 07124 67441 42680 60000 10300 20163 48527 84208
                   333 59017 84850 83270=
201902070900 AAXX 07094 67441 42680 50000 10260 20192 48552 85200
                   333 59005 85845=
201902070600 AAXX 07064 67441 31340 40000 10180 20180 48546 74044 82730
                   333 10280 20//0 58003 82700 84360=
201902060900 AAXX 06094 67441 42580 70000 10230 20179 48557 875//
                   333 58017 87630=
201902060600 AAXX 06064 67441 31370 80000 10190 20182 48544 70522 887//
                   333 10320 20//0 58013 88708=
201902050600 AAXX 05064 67441 31370 30000 10200 20183 48535 70544 83730
                   333 10300 20//0 59003 83709 82360=
201902041200 AAXX 04124 67441 42680 60000 10265 20150 48517 85226
                   333 5//// 84850 82460 84270=
201902040900 AAXX 04094 67441 42680 60000 10265 20180 48543 84206
                   333 5//// 84845 86270=
201902040600 AAXX 04064 67441 31310 80000 10175 20175 48538 74244 887//
                   333 10300 20//0 5//// 88706=
201902010900 AAXX 01094 67441 41680 70000 10225 20165 48577 70522 8213/
                   333 58016 82840 87360=
201902010600 AAXX 01064 67441 11980 70000 10185 20177 48564 60034 70522 8707/
                   333 10260 20//0 58012 87360=

################################################################################
#  SYNOPS from 67461, Mansa (Zambia) | 11-06S | 028-51E | 1382 m
################################################################################
201902280600 AAXX 28064 67461 32980 20000 10220 20186 48496 81031
                   333 10302 20152 59018 81360 81080 91016=
201902270600 AAXX 27064 67461 32580 33605 10206 20176 48512 81131
                   333 10299 20149 58011 81823 82360 81080 91017=
201902260600 AAXX 26064 67461 12580 72005 10205 20190 48501 60014 81535
                   333 10302 20170 59001 81620 85360 83080 91016=
201902220600 AAXX 22064 67461 11480 71603 10190 20190 48512 61034 72166 8117/
                   333 10280 20169 59006 81818 87460 91017=
201902210600 AAXX 21064 67461 12480 71306 10210 20180 48519 60204 81538
                   333 10290 20162 58017 81618 83360 85280 91019=
201902200600 AAXX 20064 67461 12480 71204 10196 20187 48500 60024 82531
                   333 10265 20168 58000 82616 85360 84080 91016=
201902190900 AAXX 19094 67461 42680 73106 10244 20186 48503 8417/
                   333 58001 84830 87360 91016=
201902181200 AAXX 18124 67461 NIL=
201902180900 AAXX 18094 67461 42680 73108 10250 20184 48503 81138
                   333 59023 81830 81360 85280 91016=
201902180600 AAXX 18064 67461 32380 72410 10196 20186 48512 8467/
                   333 10310 20175 59011 84709 87360 91017=
201902151200 AAXX 15124 67461 42780 70000 10299 20185 48526 83208
                   333 59011 83850 87280 91019=
201902150900 AAXX 15094 67461 42980 72903 10274 20188 48574 81038
                   333 59006 81360 87280 91021=
201902150600 AAXX 15064 67461 31900 71202 10187 20187 48539 74444 8707/
                   333 10254 20151 59005 87360 91021=
201902141200 AAXX 14124 67461 42580 83002 10246 20186 48533 8327/
                   333 58027 83830 88460 91020=
201902140600 AAXX 14064 67461 12580 72802 10213 20199 48546 60014 8257/
                   333 10255 20178 58013 82620 87460 91021=
201902130900 AAXX 13094 67461 41480 70402 10203 20180 48539 71769 8197/
                   333 58055 81915 84613 87460 91021=
201902130600 AAXX 13064 67461 11470 80802 10184 20184 48540 60314 79596 8197/
                   333 10278 20174 58039 81915 85610 87460 91020=
201902120900 AAXX 12094 67461 42780 70203 10262 20195 48490 83138
                   333 59029 83850 82360 86280 91015=
201902120600 AAXX 12064 67461 12580 70000 10201 20192 48494 60064 82535
                   333 10238 20178 59017 82620 85360 84080=
201902110600 AAXX 11064 67461 11378 83602 10195 20187 48513 60014 76166 8467/
                   333 10268 20182 58029 84708 88460=
201902080900 AAXX 08094 67461 42980 72203 10220 20167 48514 8770/
                   333 59007 87360 91017=
201902080600 AAXX 08064 67461 11358 82410 10179 20169 48510 60314 76169 8662/
                   333 10287 20165 59005 86708 88460=
201902071200 AAXX 07124 67461 42680 72202 10279 20190 48499 85230
                   333 59004 85842 84360 91016=
201902070900 AAXX 07094 67461 42580 72002 10260 20200 48524 84230
                   333 59008 84836 85360 91019=
201902070600 AAXX 07064 67461 12580 71702 10209 20199 48517 69904 8153/
                   333 10263 20174 59006 81620 87360 91018=
201902061200 AAXX 06124 67461 42580 73603 10248 20195 48500 8583/
                   333 58014 82625 83830 86360 91016=
201902060900 AAXX 06094 67461 42580 73503 10228 20196 48530 875//
                   333 58024 87620 91019=
201902060600 AAXX 06064 67461 11465 82002 10196 20194 48522 60154 76366 8557/
                   333 10288 20180 58019 85610 87460=
201902050600 AAXX 05064 67461 12580 41502 10217 20195 48505 60224 81530
                   333 10304 20179 59003 81620 84360=
201902040600 AAXX 04064 67461 12980 71202 10218 20194 48508 69904 8703/
                   333 10282 20165 59019 87360=
201902010600 AAXX 01064 67461 12580 71204 10205 20182 48519 60014 81531
                   333 10279 20168 58006 81620 86360 84080 91019=

################################################################################
#  SYNOPS from 67469, Samfya (Zambia) | 11-22S | 029-54E | 1171 m
################################################################################
201902280600 AAXX 28064 67469 NIL=
201902181200 AAXX 18124 67469 NIL=
201902180900 AAXX 18094 67469 NIL=
201902010600 AAXX 01064 67469 12380 60000 10220 20140 48/// 60014 82531
                   333 10271 20190 5//// 82606 82820 86360 81080=

################################################################################
#  SYNOPS from 67475, Kasama (Zambia) | 10-13S | 031-08E | 1382 m
################################################################################
201903010600 AAXX 01064 67475 32560 61003 10208 20283 48527 82208
                   333 10296 20156 58011 82820 85280 91021=
201902280900 AAXX 28094 67475 42660 51808 10268 20184 48518 83231
                   333 59005 83835 81360 82080 91019=
201902280600 AAXX 28064 67475 32950 60803 10185 20180 48515 81078
                   333 10249 20150 59001 81360 85280=
201902270600 AAXX 27064 67475 12960 63403 10194 20188 48522 60214 81078
                   333 10301 20167 59004 81460 85280=
201902260600 AAXX 26064 67475 32960 70803 10198 20180 48527 83058
                   333 10294 20154 58012 83360 87280 91021=
201902250600 AAXX 25064 67475 12960 30103 10209 20185 48513 69924 80001
                   333 10272 20166 59012 83080 91019=
201902211200 AAXX 21124 67475 42660 80505 10286 20194 48507 85201
                   333 5//// 81930 84837 83080 91018=
201902210600 AAXX 21064 67475 11459 81203 10194 20185 48536 60054 74044 8367/
                   333 10304 20174 58012 83720 87459 91022=
201902200600 AAXX 20064 67475 12480 80205 10184 20181 48523 60194 70342 83671
                   333 10274 20158 58008 83720 85460 82080 91020=
201902191200 AAXX 19124 67475 42660 83603 10250 20183 84371
                   333 5//// 84835 83360 82080=
201902190900 AAXX 19094 67475 42560 81905 10198 20170 48524 70322 8267/
                   333 58010 82725 87460 91020=
201902181200 AAXX 18124 67475 NIL=
201902180900 AAXX 18094 67475 NIL=
201902180600 AAXX 18064 67475 32960 62502 10209 20186 48522 83038
                   333 10324 20179 59008 83360 86280 91017=
201902151200 AAXX 15124 67475 42660 81206 10269 20183 48522 84207
                   333 59003 81935 83835 88280 91020=
201902150900 AAXX 15094 67475 42560 81203 10252 20189 48550 85207
                   333 58002 85820 88280 91023=
201902150600 AAXX 15064 67475 32360 81808 10207 20191 48552 70344 85607
                   333 10300 20175 58004 85708 88280 91023=
201902141200 AAXX 14124 67475 42660 80107 10285 20184 48526 70322 84271
                   333 58012 84840 82360 85080 91020=
201902140900 AAXX 14094 67475 42660 80302 10245 20188 48548 83271
                   333 58019 83830 85360 82080 91023=
201902140600 AAXX 14064 67475 11558 81803 10189 20186 48547 60124 74022 83271
                   333 10288 20166 58021 82720 84458 82080 91022=
201902130900 AAXX 13094 67475 42660 83605 10252 20206 48529 70322 8327/
                   333 58020 83835 87360 91021=
201902130600 AAXX 13064 67475 42960 83605 10205 20181 48527 8807/
                   333 10291 20171 59019 88360 91021=
201902121200 AAXX 12124 67475 42660 60804 10279 20186 48489 8623/
                   333 59028 81940 85840 91016=
201902120900 AAXX 12094 67475 42560 60000 10264 20186 48509 83238
                   333 59030 81925 82825 84360 85280 91018=
201902120600 AAXX 12064 67475 12960 71004 10187 20179 48507 60094 8707/
                   333 10248 20166 59028 87360 91018=
201902111200 AAXX 11124 67475 41560 83506 10240 20189 48516 75066 84207
                   333 58037 81930 83830 88280 91019=
201902110600 AAXX 11064 67475 11360 83308 10186 20180 48535 60234 75066 8377/
                   333 10269 20171 58025 83707 88460=
201902081200 AAXX 08124 67475 42660 80903 10252 20191 48497 70322 86201
                   333 59005 81930 85835 83080 91017=
201902080900 AAXX 08094 67475 42660 81205 10225 20189 48525 70322 8327/
                   333 59002 83835 86460 91020=
201902080600 AAXX 08064 67475 11960 83602 10184 20178 48521 8807/
                   333 10288 20166 5//// 88360=
201902071200 AAXX 07124 67475 42660 80502 10275 20186 48503 70322 83271
                   333 59005 83840 84460 84080 91018=
201902070900 AAXX 07094 67475 42660 80211 10204 20190 48527 70322 8327/
                   333 59001 83835 86460 91020=
201902070600 AAXX 07064 67475 11960 80705 10191 20187 60174 80322 8807/
                   333 10256 20173 5//// 88460=
201902061200 AAXX 06124 67475 41660 82011 10232 20197 48507 71796 8427/
                   333 58016 81935 83835 88460 91018=
201902060600 AAXX 06064 67475 12460 60802 10199 20196 48527 60014 70344 8457/
                   333 10301 20178 58012 84610 86360=
201902051200 AAXX 05124 67475 42660 50108 10284 20198 48492 85233
                   333 58003 81935 84835 82360 82080 91016=
201902050900 AAXX 05094 67475 42460 40215 10254 20198 48514 84832
                   333 59001 83618 82820 84360 83080 91019=
201902050600 AAXX 05064 67475 12460 60407 10191 20183 48514 60254 85538
                   333 10294 20169 58003 85612 84360 86280=
201902041200 AAXX 04124 67475 42660 81805 10276 20184 48489 70322 84271
                   333 59010 84840 82360 84080 91016=
201902040600 AAXX 04064 67475 11240 80508 10191 20191 48511 60134 74144 886//
                   333 10278 20171 59015 88704 91019=
201902010600 AAXX 01064 67475 12658 80505 10202 20188 48539 69904 82271
                   333 10292 20169 58005 82835 83360 85080 91022=

################################################################################
#  SYNOPS from 67476, Misamfu (Zambia) | 10-06S | 031-15E | 1536 m
################################################################################
201902280600 AAXX 28064 67476 12980 20000 10203 20183 48/// 69924 82030
                   333 10297 20180 59005 82360=
201902271200 AAXX 27124 67476 41680 32506 10291 20177 48/// 71710 81903
                   333 5//// 81943 82845 81080=
201902270600 AAXX 27064 67476 12980 60000 10201 20182 48/// 60014 82078
                   333 10292 20160 5//// 82360 86280=
201902220600 AAXX 22064 67476 12380 70000 10206 20194 48/// 60024 8267/
                   333 10285 20170 59007 82707 81615 87360=
201902211200 AAXX 21124 67476 42680 60506 10267 20175 48/// 71522 81372
                   333 58002 81943 83845 81460 83080=
201902210600 AAXX 21064 67476 11380 80000 10195 20185 48/// 60124 72844 886//
                   333 10276 20161 58014 88709=
201902201200 AAXX 20124 67476 41680 60405 10266 20180 48/// 71522 81332
                   333 58008 81938 83840 85360 81080=
201902200600 AAXX 20064 67476 12380 70506 10191 20177 48/// 60144 8467/
                   333 10250 20146 58008 84708 87360=
201902191200 AAXX 19124 67476 42680 72601 10237 20179 48/// 8227/
                   333 58006 82838 87360=
201902190900 AAXX 19094 67476 42580 82404 10201 20168 48/// 70322 888//
                   333 58010 81823 87625=
201902181200 AAXX 18124 67476 NIL=
201902180900 AAXX 18094 67476 42680 63501 10285 20186 48/// 70322 82278
                   333 5//// 82835 85360 85280=
201902180600 AAXX 18064 67476 11580 70000 10206 20185 48/// 69904 71422 81178
                   333 10315 20175 5//// 81820 83360 86280=
201902121200 AAXX 12124 67476 41680 70000 10270 20183 48/// 71522 84232
                   333 59028 85835 82360 81080=
201902120600 AAXX 12064 67476 11980 70906 10201 20188 48/// 60044 71422 8707/
                   333 10236 20157 59031 87360=
201902110600 AAXX 11064 67476 11378 80000 10189 20181 48/// 60224 75062 8177/
                   333 10258 20163 5//// 81708 81848 88459=
201902081200 AAXX 08124 67476 41677 71205 10257 20190 48/// 71522 81378
                   333 59006 81935 84837 82360 85280=
201902080900 AAXX 08094 67476 42580 71504 10226 20162 70322 8123/
                   333 59003 81825 85625 87360=
201902080600 AAXX 08064 67476 12980 80000 10189 20185 48/// 60314 8807/
                   333 10282 20155 59009 88360=
201902071200 AAXX 07124 67476 42680 71801 10271 20186 48/// 70322 84238
                   333 59003 84838 81360 86280=
201902070900 AAXX 07094 67476 42580 80504 10223 20184 48/// 81137
                   333 59006 81825 81360 88280=
201902070600 AAXX 07064 67476 12380 70906 10190 20180 48/// 60214 8663/
                   333 10240 20165 58002 86608 87360=
201902060600 AAXX 06064 67476 12480 80000 10210 20195 48/// 60044 83478
                   333 10292 20171 58011 83613 84360 88280=
201902051200 AAXX 05124 67476 41680 61703 10280 20182 48/// 71522 81308
                   333 58001 81940 82843 84280=
201902050900 AAXX 05094 67476 42580 50307 10249 20191 48/// 70322 84232
                   333 58004 84828 81360 80880=
201902050600 AAXX 05064 67476 12380 70607 10193 20182 48/// 60434 876//
                   333 10295 20160 58004 87708=
201902041200 AAXX 04124 67476 41680 50000 10286 20182 48/// 71522 81372
                   333 5//// 81938 82840 82360 81080=
201902040600 AAXX 04064 67476 12480 60206 10200 20188 48/// 60054 85430
                   333 10279 20161 5//// 85613 82360=

################################################################################
#  SYNOPS from 67477, Mpika (Zambia) | 11-54S | 031-26E | 1400 m
################################################################################
201903011200 AAXX 01124 67477 41680 41502 10285 20180 48507 71799 83202
                   333 58002 81943 83843 82080=
201903010600 AAXX 01064 67477 32480 21209 10219 20190 48529 81101
                   333 10292 20167 58008 81815 82080
                   555 00170=
201902280900 AAXX 28094 67477 42680 21502 10268 20168 48523 82100
                   333 59005 82842=
201902280600 AAXX 28064 67477 32980 22401 10199 20185 48520 80001
                   333 10299 20145 59014 82080
                   555 00158=
201902270600 AAXX 27064 67477 32980 50000 10203 20175 48535 80001
                   333 10296 20133 58003 85080
                   555 00146=
201902260600 AAXX 26064 67477 32980 40000 10215 20180 48532 80001
                   333 10298 20143 58009 84080
                   555 00150=
201902220600 AAXX 22064 67477 12360 71206 10198 20175 48540 60144 84670
                   333 10270 20180 59003 84708 87360
                   555 00181=
201902210600 AAXX 21064 67477 12980 40903 10205 20187 48544 60014 83031
                   333 10252 20164 58016 83360 82080
                   555 00170=
201902200600 AAXX 20064 67477 11380 61204 10190 20175 48527 60274 72844 84670
                   333 10266 20168 58011 84706 86359
                   555 00178=
201902181200 AAXX 18124 67477 NIL=
201902180900 AAXX 18094 67477 NIL=
201902180600 AAXX 18064 67477 12480 63306 10200 20180 48526 60274 81530
                   333 10316 20170 59006 81610 86360
                   555 00180=
201902150900 AAXX 15094 67477 42580 40000 10280 20180 48547 81101
                   333 59008 81820 84080=
201902150600 AAXX 15064 67477 12480 50000 10216 20160 48551 69904 81101
                   333 10283 20149 58001 81812 85080=
201902141200 AAXX 14124 67477 41680 61202 10281 20190 48528 71799 81931
                   333 58017 81930 83830 83364 82080=
201902140900 AAXX 14094 67477 42680 50902 10251 20170 48553 82170
                   333 58013 82825 85461=
201902140600 AAXX 14064 67477 11460 80000 10191 20180 48548 69904 74042 8357/
                   333 10263 20169 58014 83611 86459
                   555 00173=
201902130900 AAXX 13094 67477 41580 60000 10257 20190 48530 71722 81970
                   333 58020 81920 82820 86460=
201902130600 AAXX 13064 67477 12480 80000 10213 20180 48535 69904 8257/
                   333 10266 20169 58019 82612 87459=
201902121200 AAXX 12124 67477 41680 70000 10251 20190 48498 71799 81970
                   333 59015 81930 84830 85463=
201902120900 AAXX 12094 67477 42580 60000 10241 20190 48509 83170
                   333 59021 83820 85460=
201902120600 AAXX 12064 67477 12980 80000 10188 20180 48515 60414 8807/
                   333 10240 20156 59020 88458=
201902111200 AAXX 11124 67477 41680 82702 10219 20170 48512 76066 8217/
                   333 58023 82830 88463=
201902110600 AAXX 11064 67477 11480 82702 10191 20180 48535 60474 72122 8357/
                   333 10281 20176 58015 83610 86459=
201902080600 AAXX 08064 67477 11975 71502 10197 20188 48527 60134 76122 87070
                   333 10293 20180 58001 87459=
201902071200 AAXX 07124 67477 41680 80303 10247 20210 48504 71799 8197/
                   333 59007 81930 86830 83462=
201902070600 AAXX 07064 67477 12480 80000 10299 20190 48527 60174 8457/
                   333 10263 20173 59002 84611 87459=
201902061200 AAXX 06124 67477 41678 80000 10192 20190 48509 79596 8197/
                   333 5//// 81930 88459=
201902060900 AAXX 06094 67477 42580 60000 10237 20180 48532 84170
                   333 58015 84820 83460=
201902060600 AAXX 06064 67477 12480 80000 10183 20180 48528 60774 8257/
                   333 10273 20162 58001 82610 87459=
201902051200 AAXX 05124 67477 41680 50000 10262 20130 48/// 76022 81970
                   333 5//// 81930 84830 83412=
201902050900 AAXX 05094 67477 42580 20000 10243 20180 48518 82131
                   333 59004 82820 81361 81080=
201902041200 AAXX 04124 67477 41680 61202 10246 20190 48501 72922 81970
                   333 58004 81930 82830 85462=
201902040600 AAXX 04064 67477 12480 50000 10197 20170 48518 60134 83531
                   333 10272 20173 59014 83610 83359 81080=
201902010600 AAXX 01064 67477 12980 30601 10205 20180 48542 60204 81031
                   333 10276 20162 59001 81360 82080=

################################################################################
#  SYNOPS from 67481, Isoka (Zambia) | 10-07S | 032-38E | 1360 m
################################################################################
201903010600 AAXX 01064 67481 32980 52002 10202 20176 48/// 83031
                   333 10300 20172 5//// 83360=
201902280600 AAXX 28064 67481 32480 51502 10190 20181 48/// 81131
                   333 10282 20160 5//// 81810 85360 82080=
201902270600 AAXX 27064 67481 12480 72302 10208 20185 48/// 60034 8157/
                   333 10245 20182 5//// 81610 87460=
201902260600 AAXX 26064 67481 12480 51204 10210 20186 48/// 60194 82131
                   333 1//// 2//// 5//// 82810 83360 85080=
201902250600 AAXX 25064 67481 12480 32103 10200 20184 48/// 60034 81131
                   333 10258 20190 5//// 81810 83360 82080=
201902220600 AAXX 22064 67481 11478 83002 10198 20188 48/// 60054 72842 885//
                   333 10//0 20//0 5//// 88610=
201902210600 AAXX 21064 67481 11360 82402 10196 20194 48/// 69904 74244 886//
                   333 10286 20190 5//// 88708=
201902200600 AAXX 20064 67481 11310 83303 10184 20182 48/// 60374 74244 886//
                   333 10230 20176 5//// 88707=
201902181200 AAXX 18124 67481 NIL=
201902180900 AAXX 18094 67481 NIL=
201902180600 AAXX 18064 67481 11480 81202 10198 20186 48/// 60234 72996 8257/
                   333 10310 20184 5//// 82610 81930 88460=
201902140600 AAXX 14064 67481 12980 71502 10192 20177 48/// 60604 82032
                   333 10280 20160 5//// 82360 87080=
201902130600 AAXX 13064 67481 32980 72202 10228 20198 48/// 86030
                   333 10298 20200 5//// 87360=
201902120600 AAXX 12064 67481 12480 62102 10200 20185 48/// 60134 81570
                   333 10230 20170 5//// 81610 86360=
201902080600 AAXX 08064 67481 12480 83002 10200 20185 48/// 60084 885//
                   333 10290 20187 5//// 88610=
201902070600 AAXX 07064 67481 12480 82202 10297 20186 48/// 60114 8157/
                   333 10260 20175 5//// 81610 88460=
201902060600 AAXX 06064 67481 11360 83001 10187 20183 48/// 60174 76366 8277/
                   333 10298 20180 5//// 82706 88460=
201902050900 AAXX 05094 67481 42580 32102 10260 20180 48/// 82101
                   333 5//// 81920 82820 83080=
201902050600 AAXX 05064 67481 12480 62802 10206 20184 48/// 60234 81532
                   333 10282 20172 5//// 81610 83360 86080=
201902040600 AAXX 04064 67481 12480 53002 10202 20195 48/// 60044 81530
                   333 10285 20170 5//// 82610 85360=
201902010600 AAXX 01064 67481 11480 73002 10190 20181 48/// 60344 72842 875//
                   333 10288 20172 5//// 87610=

################################################################################
#  SYNOPS from 67531, Zambezi (Zambia) | 13-32S | 023-07E | 1077 m
################################################################################
201903010600 AAXX 01064 67531 32980 60803 10200 20181 48/// 8607/
                   333 10340 20166 58016 86362
                   555 001832=
201902281200 AAXX 28124 67531 42780 33107 10312 20190 48/// 83100
                   333 58003 83856=
201902280900 AAXX 28094 67531 42680 31906 10284 20185 48/// 81130
                   333 58000 81848 83362=
201902280600 AAXX 28064 67531 32980 73002 10206 20185 48/// 8707/
                   333 10336 20150 58003 87362
                   555 00170=
201902271200 AAXX 27124 67531 42780 20805 10328 20174 48/// 82100
                   333 58006 82850=
201902270600 AAXX 27064 67531 32980 10902 10215 20195 48/// 81030
                   333 10319 20142 59001 81362
                   555 00164=
201902260600 AAXX 26064 67531 12980 42702 10209 20197 48/// 60034 84030
                   333 10310 20173 58010 84362
                   555 00200=
201902251200 AAXX 25124 67531 41780 42006 10300 20205 48/// 71792 84230
                   333 5//// 81950 84850 81362=
201902250600 AAXX 25064 67531 32980 20000 10220 20200 48/// 82030
                   333 10309 20160 59003 82362=
201902220600 AAXX 22064 67531 32980 73003 10210 20188 48/// 8703/
                   333 10316 20144 58007 87361
                   555 00161=
201902200600 AAXX 20064 67531 12980 31804 10201 20192 48/// 69944 83030
                   333 10311 20149 59001 83362
                   555 00170=
201902190900 AAXX 19094 67531 42480 60903 10245 20203 48/// 8587/
                   333 5//// 82610 83815 86362=
201902181200 AAXX 18124 67531 42680 43608 10317 20195 48/// 84200
                   333 59008 84848=
201902180900 AAXX 18094 67531 42980 33008 10285 20196 48/// 81031
                   333 58000 81362 83081=
201902180600 AAXX 18064 67531 32980 40904 10218 20195 48/// 82031
                   333 10285 20169 59005 82362 82080
                   555 00192=
201902150900 AAXX 15094 67531 42680 82708 10283 20210 48/// 82130
                   333 59003 82838 84362=
201902150600 AAXX 15064 67531 32980 63604 10216 20197 48/// 8603/
                   333 10286 20175 58001 86361=
201902140900 AAXX 14094 67531 42580 70708 10255 20190 48/// 8427/
                   333 58025 84820 86362=
201902140600 AAXX 14064 67531 32380 73507 10220 20191 48/// 8367/
                   333 10291 20182 58021 83708 86361
                   555 00199=
201902130900 AAXX 13094 67531 42680 63106 10263 20199 48/// 8423/
                   333 58020 84835 83362=
201902130600 AAXX 13064 67531 12980 70806 10203 20193 48/// 60034 8707/
                   333 10304 20172 58018 87360=
201902121200 AAXX 12124 67531 42680 62908 10303 20216 48/// 85202
                   333 59022 85840 83080=
201902120900 AAXX 12094 67531 42680 62707 10287 20211 48/// 86200
                   333 59022 86835=
201902120600 AAXX 12064 67531 32980 40804 10220 20201 48/// 82031
                   333 10316 20167 59016 82362 83080=
201902111200 AAXX 11124 67531 42680 62706 10290 20200 48/// 86200
                   333 58011 86835=
201902110600 AAXX 11064 67531 12980 50904 10205 20201 48/// 60254 70222 85030
                   333 10240 20156 58006 85362=
201902080900 AAXX 08094 67531 42680 70000 10280 20210 48/// 8212/
                   333 5//// 82830 87460=
201902080600 AAXX 08064 67531 12980 70000 10216 20203 48/// 60074 8702/
                   333 10290 20175 5//// 87460=
201902070900 AAXX 07094 67531 42680 43604 10275 20206 48/// 81131
                   333 5//// 81838 84361 81081=
201902070600 AAXX 07064 67531 11980 70000 10215 20188 48/// 60044 70262 8703/
                   333 10305 20165 5//// 87358=
201902060900 AAXX 06094 67531 41480 70000 10240 20203 48/// 72162 85571
                   333 5//// 85618 87460=
201902060600 AAXX 06064 67531 12380 70000 10206 20197 48/// 60124 8267/
                   333 10332 20176 58010 82707 87460=
201902050600 AAXX 05064 67531 12980 10000 10230 20197 48/// 69904 81031
                   333 10316 20170 59010 81361 81081=
201902040600 AAXX 04064 67531 32980 70000 10228 20198 48/// 80000
                   333 10326 20178 59003 87281=
201902010900 AAXX 01094 67531 42580 70000 10260 20199 48/// 8217/
                   333 5//// 82825 87361=
201902010600 AAXX 01064 67531 12480 73602 10220 20200 48/// 69914 8357/
                   333 10296 20176 58021 83610 87360=

################################################################################
#  SYNOPS from 67541, Kasempa (Zambia) | 13-32S | 025-51E | 1234 m
################################################################################
201903010600 AAXX 01064 67541 32980 60000 10190 20182 48/// 80006
                   333 10330 20170 5//// 86080=
201902281200 AAXX 28124 67541 42680 30103 10305 20196 48/// 83200
                   333 5//// 83845=
201902280600 AAXX 28064 67541 32980 20000 10190 20178 48/// 80002
                   333 10320 20156 5//// 82080=
201902270600 AAXX 27064 67541 32980 10000 10195 20180 48/// 80001
                   333 10304 20150 5//// 81080=
201902260600 AAXX 26064 67541 12980 10000 10186 20176 48/// 60164 80001
                   333 10300 20142 5//// 81080=
201902251200 AAXX 25124 67541 42680 70000 10240 20208 48/// 8423/
                   333 5//// 81920 83830 87360=
201902211200 AAXX 21124 67541 42680 63304 10280 20179 48/// 86200
                   333 5//// 86840=
201902210600 AAXX 21064 67541 32980 73304 10193 20183 48/// 80007
                   333 10290 20150 5//// 87080=
201902190900 AAXX 19094 67541 42580 63302 10255 20204 48/// 85230
                   333 5//// 85820 81080=
201902181200 AAXX 18124 67541 NIL=
201902180900 AAXX 18094 67541 42980 70000 10268 20198 48/// 70222 87030
                   333 5//// 87360=
201902180600 AAXX 18064 67541 12980 60000 10190 20183 48/// 60204 70222 86030
                   333 10320 20164 5//// 86360=
201902150600 AAXX 15064 67541 12980 70000 10200 20193 48/// 60234 8703/
                   333 10296 20178 5//// 87360=
201902141200 AAXX 14124 67541 42980 43304 10285 20194 48/// 70222 81130
                   333 5//// 81835 83360=
201902140900 AAXX 14094 67541 42980 73306 10230 20208 48/// 8703/
                   333 5//// 87360=
201902140600 AAXX 14064 67541 12980 70000 10205 20183 48/// 60014 8703/
                   333 10314 20178 5//// 87360=
201902130900 AAXX 13094 67541 41365 80000 10200 20193 48/// 76066 8253/
                   333 5//// 82709 87360=
201902130600 AAXX 13064 67541 11360 83304 10175 20175 48/// 60254 76066 8253/
                   333 10320 20166 5//// 82706 87360=
201902121200 AAXX 12124 67541 42680 50000 10307 20206 48/// 70222 85200
                   333 5//// 85840=
201902120900 AAXX 12094 67541 42980 73204 10280 20216 48/// 70222 87030
                   333 5//// 87360=
201902120600 AAXX 12064 67541 32980 70000 10200 20193 48/// 70222 8703/
                   333 10296 20180 5//// 87360=
201902111200 AAXX 11124 67541 42580 73303 10268 20198 48/// 82230
                   333 5//// 82828 87360=
201902110600 AAXX 11064 67541 12380 70000 10200 48/// 60204 70222 8153/
                   333 10290 20182 5//// 81607 87360=
201902081200 AAXX 08124 67541 42680 73305 10275 20194 48/// 70222 84203
                   333 5//// 84832 83080=
201902080900 AAXX 08094 67541 42980 73204 10263 20204 48/// 70222 8703/
                   333 5//// 87360=
201902080600 AAXX 08064 67541 12980 70000 10195 20192 48/// 60074 70222 8703/
                   333 10308 20172 5//// 87360=
201902061200 AAXX 06124 67541 42580 70000 10265 20207 48540 70222 85231
                   333 58005 85825 81360 81080=
201902060600 AAXX 06064 67541 12380 70000 10190 20190 48536 61234 70222 8253/
                   333 10318 20170 58020 82606 87360=
201902051200 AAXX 05124 67541 42680 50502 10300 20206 48535 70222 85200
                   333 58017 85840=
201902050900 AAXX 05094 67541 42580 50503 10260 20201 48537 70222 85200
                   333 58015 85825=
201902050600 AAXX 05064 67541 32980 20000 10200 20193 48516 70222 80002
                   333 10320 20170 58002 82080=
201902041200 AAXX 04124 67541 42680 50503 10295 20193 48518 70222 85200
                   333 5//// 85840=
201902040900 AAXX 04094 67541 42680 40000 10280 20192 84522
                   333 5//// 84835=
201902040600 AAXX 04064 67541 32980 40603 10205 20182 48514 70222 83031
                   333 10300 20162 58005 83360 81080=

################################################################################
#  SYNOPS from 67543, Kabompo (Zambia) | 13-36S | 024-12E | 1075 m
################################################################################
201903010600 AAXX 01064 67543 12980 70000 10208 20190 48/// 60044 84037
                   333 10338 20192 5//// 84360 86280=
201902281200 AAXX 28124 67543 42683 60000 10322 20184 48/// 86301
                   333 5//// 81935 86835 82085=
201902280900 AAXX 28094 67543 42983 20000 10288 20188 48/// 80001
                   333 59005 82085=
201902280600 AAXX 28064 67543 32980 40000 10208 20182 48/// 82031
                   333 10332 20174 59008 82362 84080=
201902270600 AAXX 27064 67543 32980 30000 10202 20184 48/// 80001
                   333 10324 20168 58002 83085=
201902260600 AAXX 26064 67543 12983 60000 10206 20191 48/// 60034 85031
                   333 10320 20176 58010 85361 84080=
201902251200 AAXX 25124 67543 41683 71504 10202 2//// 48/// 71799 85822
                   333 5//// 81932 85832 86462 81085=
201902250600 AAXX 25064 67543 32975 30000 10206 20192 48/// 81041
                   333 10308 20178 59007 81361=
201902221200 AAXX 22124 67543 41683 70000 10284 20191 48/// 71722 86330
                   333 5//// 81930 86830 83362=
201902220600 AAXX 22064 67543 32980 70000 10210 20183 48/// 8703/
                   333 10310 20178 59001 87360=
201902210600 AAXX 21064 67543 32980 40000 10196 20178 48/// 80001
                   333 10308 20164 58017 84080=
201902201200 AAXX 20124 67543 42683 60000 10294 20178 48/// 86300
                   333 58008 81930 86830=
201902200600 AAXX 20064 67543 12983 40000 10200 20177 48/// 60014 84030
                   333 10306 20162 59001 84361=
201902191200 AAXX 19124 67543 41378 70000 10270 20200 76022 86370
                   333 58015 81930 86830 83461=
201902190900 AAXX 19094 67543 42583 70000 10246 20193 48/// 8553/
                   333 58000 85618 87360=
201902181200 AAXX 18124 67543 42683 70000 10308 20189 48/// 96331
                   333 5//// 81935 86835 82362 84085=
201902180900 AAXX 18094 67543 42583 70000 10276 20187 48/// 82131
                   333 5//// 82825 85362 82085=
201902180600 AAXX 18064 67543 12980 60000 10208 20181 48/// 60064 83041
                   333 10338 20178 58000 83361 84080=
201902151200 AAXX 15124 67543 41680 70000 10260 20//0 48/// 71792 8592/
                   333 59003 81930 85830 87461=
201902150900 AAXX 15094 67543 42583 70000 10276 20203 48/// 84130
                   333 58006 84825 86361=
201902150600 AAXX 15064 67543 32980 70000 10218 20199 48/// 8703/
                   333 10290 20188 58007 87360=
201902141200 AAXX 14124 67543 42683 73004 10276 20193 48/// 8533/
                   333 58029 81930 85830 87360=
201902140900 AAXX 14094 67543 42583 73403 10268 20191 48/// 8413/
                   333 58021 84820 87361=
201902140600 AAXX 14064 67543 12983 70000 10208 20186 48/// 60024 84037
                   333 10322 20190 58006 84360 86280=
201902130900 AAXX 13094 67543 42482 80000 10234 20198 48/// 8551/
                   333 58015 85615 87461=
201902130600 AAXX 13064 67543 11378 80000 10196 20190 48/// 60044 72122 8562/
                   333 10318 20192 58022 85707 87460=
201902121200 AAXX 12124 67543 41683 70000 10310 20204 48/// 71792 86910
                   333 59026 81935 86835 84462=
201902120900 AAXX 12094 67543 42583 50000 10286 20210 48/// 82131
                   333 59016 82820 82361 84085=
201902120600 AAXX 12064 67543 12980 70000 10228 20202 48/// 60024 82047
                   333 10314 20194 59013 82361 86280=
201902111200 AAXX 11124 67543 42683 70000 10294 20193 48/// 86201
                   333 5//// 86830 83085=
201902110600 AAXX 11064 67543 11380 70000 10218 20213 48/// 60044 72844 84630
                   333 10310 20192 58003 84707 86360=
201902081200 AAXX 08124 67543 41683 70000 10294 20203 48/// 71792 8592/
                   333 58000 81930 85830 86462=
201902080900 AAXX 08094 67543 42583 70000 10280 20211 48/// 82107
                   333 59008 82825 87280=
201902080600 AAXX 08064 67543 12980 80000 10202 20194 48/// 60164 8801/
                   333 10316 20192 59009 88460=
201902071200 AAXX 07124 67543 42683 70000 10304 20197 48/// 86201
                   333 5//// 86830 83085=
201902070900 AAXX 07094 67543 42583 53301 10282 20191 48/// 85202
                   333 59008 85820 81085=
201902070600 AAXX 07064 67543 11930 40000 10204 20198 48/// 69904 74244 82031
                   333 10314 20182 58001 82361 84080=
201902060900 AAXX 06094 67543 42480 70000 10226 20197 48/// 875//
                   333 58019 87615=
201902060600 AAXX 06064 67543 12380 70000 10206 20193 48/// 60044 8267/
                   333 10344 20190 58001 82707 87360=
201902051200 AAXX 05124 67543 42683 70000 10308 20202 48/// 86230
                   333 59005 81932 86832 83362=
201902050900 AAXX 05094 67543 42583 60000 10298 20193 48/// 84231
                   333 59008 84825 82361 83085=
201902050600 AAXX 05064 67543 32982 60000 10236 20196 48/// 81037
                   333 10342 20190 59012 81361 86280=
201902041200 AAXX 04124 67543 42683 60000 10316 20165 48/// 85330
                   333 5//// 81935 85835 82360=
201902040600 AAXX 04064 67543 32982 50000 10214 20188 48/// 83031
                   333 10340 20186 59004 83360 84082=
201902010900 AAXX 01094 67543 42583 70000 10260 20188 48/// 8213/
                   333 58013 82820 87361=
201902010600 AAXX 01064 67543 32982 70000 10206 20190 48/// 8707/
                   333 10310 20190 58014 87360=

################################################################################
#  SYNOPS from 67551, Solwezi (Zambia) | 12-11S | 026-23E | 1386 m
################################################################################
201903011200 AAXX 01124 67551 41680 71805 10273 20178 48503 79592
                   333 58006 81935 85835 82080 91018=
201902280600 AAXX 28064 67551 32980 3//// 10206 20175 48516 83030
                   333 10302 20153 59007 83362 91019=
201902250600 AAXX 25064 67551 32975 10203 10199 20184 48522 81030
                   333 10281 20161 59024 81362 91019=
201902200600 AAXX 20064 67551 12275 70803 10189 20177 48517 69914 8267/
                   333 10277 20172 59002 82704 87362 91019=
201902181200 AAXX 18124 67551 42580 70000 10238 20194 48494 82230
                   333 58004 82825 87362 91016=
201902180900 AAXX 18094 67551 42980 71806 10219 20181 48515 8707/
                   333 59006 87362 91019=
201902180600 AAXX 18064 67551 11980 72705 10169 20154 48517 60254 76166 8707/
                   333 10310 20153 59004 87262 91019=
201902150600 AAXX 15064 67551 12980 83403 10186 20168 48540 60034 8807/
                   333 10236 20166 58007 88360 91022=
201902140600 AAXX 14064 67551 12975 73403 10179 20167 48523 60024 8407/
                   333 10274 20162 58001 87362 91021=
201902130600 AAXX 13064 67551 11270 72003 10177 20174 48537 8177/
                   333 10300 20166 58037 81735 87362 91020=
201902120600 AAXX 12064 67551 32980 70000 10190 20184 48497 8707/
                   333 10271 20174 59021 87362 91016=
201902110600 AAXX 11064 67551 12270 70000 10182 20182 48517 60254 8267/
                   333 10250 20175 58002 82704 87362=
201902081200 AAXX 08124 67551 42580 71805 10276 20187 48495 84208
                   333 59006 84830 87280 91016=
201902080900 AAXX 08094 67551 42980 73603 10220 20180 48517 84037
                   333 59002 84362 87280 91019=
201902080600 AAXX 08064 67551 11380 70905 10174 20168 48503 60224 76166 8277/
                   333 10298 20158 58018 82702 87262=
201902070900 AAXX 07094 67551 42680 72703 10268 20177 48524 84207
                   333 59005 84830 87280 91019=
201902070600 AAXX 07064 67551 12980 60000 10194 20181 48512 86031
                   333 10275 20165 59002 86362 82080 91019=
201902061200 AAXX 06124 67551 41480 73505 10244 20192 48505 79599
                   333 58016 81920 82820 86362 82080 91017=
201902060600 AAXX 06064 67551 12380 72703 10186 20174 48523 60134 8367/
                   333 10304 20173 58014 83706 87362=
201902051018 AAXX 05104 67551 42580 60905 10268 20178 48513 84208 84830 86280 89002 91018=
201902051015 AAXX 05104 67551 42580 61503 10294 20176 48484 81935 84835 91015=
201902050600 AAXX 05064 67551 32980 60503 10203 20183 48502 86030
                   333 10301 20176 59012 86362=

################################################################################
#  SYNOPS from 67561, Ndola (Zambia) | 13-00S | 028-39E | 1269 m
################################################################################
201903010600 AAXX 01064 67561 11959 70000 10223 20188 48527 69904 70422 81038
                   333 10308 20182 58013 81360 87280 91020=
201902280600 AAXX 28064 67561 31957 60000 10217 20184 48505 70422 81038
                   333 10311 20165 59013 81360 86280 91010=
201902270600 AAXX 27064 67561 31956 20000 10201 20161 48525 70400 80001
                   333 10300 20154 58001 82080 91020=
201902181200 AAXX 18124 67561 NIL=
201902180900 AAXX 18094 67561 NIL=
201902180600 AAXX 18064 67561 11959 72806 10180 20173 48516 60084 76196 8707/
                   333 10316 20173 59003 819// 87459 91019=
201902140600 AAXX 14064 67561 31959 70000 10204 20192 48535 70422 85038
                   333 10255 20190 58000 87280 91021=
201902130600 AAXX 13064 67561 11270 70000 10186 20183 48534 60334 76166 8277/
                   333 10229 20173 58036 87704 87459 91021=
201902120600 AAXX 12064 67561 11257 80000 10190 20183 48499 60034 74746 8567/
                   333 10237 20180 59029 85704 87459 91017=
201902040600 AAXX 04064 67561 31259 70000 10219 20191 48517 70422 82631
                   333 10290 20176 59013 83705 87360 82080=
201902010600 AAXX 01064 67561 11970 70000 10214 20192 48537 60054 70522 86038
                   333 10264 20182 59005 86360 87280 91021=

################################################################################
#  SYNOPS from 67563, Kafironda (Zambia) | 12-36S | 028-07E | 1243 m
################################################################################
201903010600 AAXX 01064 67563 11978 70000 10210 20195 48/// 60014 70522 80008
                   333 10320 20185 58014 87270
                   555 00185=
201902280600 AAXX 28064 67563 31978 70000 10205 20190 48/// 70522 80008
                   333 10310 20155 59016 87280
                   555 00155=
201902270600 AAXX 27064 67563 31978 03602 10200 20169 48/// 70500
                   333 10305 20140 58008
                   555 00139=
201902250600 AAXX 25064 67563 31378 13002 10226 20190 48/// 70500 81600
                   333 10285 20154 59004 81709
                   555 00157=
201902181200 AAXX 18124 67563 NIL=
201902180900 AAXX 18094 67563 NIL=
201902180600 AAXX 18064 67563 11378 72002 10200 20190 48/// 60044 72162 81770
                   333 10327 20178 59002 81708 87359
                   555 00176=
201902130600 AAXX 13064 67563 11370 80202 10180 20176 48/// 60454 76266 887//
                   333 10290 20170 58043 88708
                   555 00180=
201902120600 AAXX 12064 67563 11378 70702 10186 20184 48/// 60024 70542 87700
                   333 10266 20170 59030 87708=
201902110600 AAXX 11064 67563 11970 80402 10200 20190 48/// 60074 76166 8807/
                   333 10276 20188 58014 88358=
201902070600 AAXX 07064 67563 31378 70802 10205 20182 48/// 70522 81638
                   333 10270 20180 58001 81608 82360 84270=
201902060600 AAXX 06064 67563 11378 80000 10200 20192 48/// 60414 70522 8773/
                   333 10315 20185 58013 87708 81360=
201902050600 AAXX 05064 67563 31978 70502 10215 20192 48/// 70522 87030
                   333 10306 20170 59011 87364=
201902010600 AAXX 01064 67563 11978 71502 10215 20185 48/// 69944 70522 87030
                   333 10255 20175 59002 87360=

################################################################################
#  SYNOPS from 67571, Serenje (Zambia) | 13-14S | 030-13E | 1384 m
################################################################################
201903010600 AAXX 01064 67571 32982 71502 10234 20187 48553 81908
                   333 10301 20178 5//// 87280 8/9//=
201902281200 AAXX 28124 67571 42682 21203 10290 20161 48/// 82900
                   333 5//// 81945 82845=
201902280900 AAXX 28094 67571 42682 31203 10279 20166 48/// 83200
                   333 5//// 83840=
201902280600 AAXX 28064 67571 32982 21503 10240 20184 48/// 80001
                   333 10301 20151 5//// 82080=
201902270600 AAXX 27064 67571 32982 62702 10196 20173 48/// 80008
                   333 10306 20141 5//// 86280=
201902260600 AAXX 26064 67571 32982 72702 10196 20171 48/// 80008
                   333 10295 20151 5//// 87280=
201902250600 AAXX 25064 67571 32982 00000 10222 20169 48///
                   333 10280 20121 5////=
201902220600 AAXX 22064 67571 12482 80903 10202 20184 48/// 60124 885//
                   333 10280 20181 5//// 88615=
201902211200 AAXX 21124 67571 42682 73303 10272 20179 48/// 8423/
                   333 5//// 81935 84835 97360=
201902210600 AAXX 21064 67571 12482 70000 10195 20174 48/// 60014 8153/
                   333 10245 20183 5//// 81615 87360=
201902201200 AAXX 20124 67571 42582 70905 10238 20181 48/// 70222 8557/
                   333 5//// 85627 87360=
201902200600 AAXX 20064 67571 12482 71205 10187 20166 48/// 60014 8553/
                   333 10225 20171 5//// 85617 87360=
201902191200 AAXX 19124 67571 41478 71504 10191 20177 48/// 75355 875//
                   333 5//// 87619=
201902190900 AAXX 19094 67571 42482 71210 10211 20179 48/// 875//
                   333 5//// 87619=
201902181200 AAXX 18124 67571 NIL=
201902180900 AAXX 18094 67571 42582 73604 10//0 20188 48/// 81138
                   333 5//// 81820 84360 87280=
201902180600 AAXX 18064 67571 12378 82702 10186 20178 48/// 60274 70222 8467/
                   333 10298 20167 5//// 84707 88460=
201902150900 AAXX 15094 67571 42682 72702 10255 20171 48/// 81138
                   333 5//// 81830 84360 87280=
201902150600 AAXX 15064 67571 12980 70000 10200 20181 48/// 60024 81038
                   333 10268 20167 5//// 81360 87280=
201902140900 AAXX 14094 67571 42582 72705 10227 20194 48/// 8657/
                   333 5//// 86620 87360=
201902140600 AAXX 14064 67571 32482 72702 10205 20191 48/// 81638
                   333 10266 20182 5//// 81710 81360 87280=
201902130900 AAXX 13094 67571 42982 72703 10239 20163 48/// 8707/
                   333 5//// 87360=
201902130600 AAXX 13064 67571 12982 72702 10190 20171 48/// 69954 70262 83038
                   333 10264 20178 5//// 83360 87280=
201902121200 AAXX 12124 67571 42582 73603 10260 20193 48/// 70222 83238
                   333 5//// 81926 83826 81360 85280=
201902120900 AAXX 12094 67571 42482 72702 10227 20193 48/// 70222 8683/
                   333 5//// 81918 84618 83823 87360=
201902110600 AAXX 11064 67571 11377 80000 10191 20180 48/// 60314 76366 887//
                   333 10278 20181 5//// 88705 8/9//=
201902081200 AAXX 08124 67571 42682 71204 10263 20195 48/// 70222 84238
                   333 5//// 81930 84830 82360 87280=
201902080900 AAXX 08094 67571 42482 70204 10242 20192 48/// 70222 85868
                   333 5//// 81916 83616 82821 87280=
201902080600 AAXX 08064 67571 11270 81502 10296 20187 48/// 60014 75355 887//
                   333 10271 20184 5//// 88703=
201902070600 AAXX 07064 67571 12378 83304 10198 20187 48/// 69924 70222 886//
                   333 10252 20182 5//// 88709=
201902061200 AAXX 06124 67571 41582 72705 10241 20181 48/// 71799 85838
                   333 5//// 81920 85620 82360 87280=
201902060900 AAXX 06094 67571 42482 83305 10216 20176 48/// 70222 83547
                   333 5//// 83615 85360 88280 8/9//=
201902060600 AAXX 06064 67571 11377 82703 10193 20187 48/// 60234 75055 887//
                   333 10281 20181 5//// 88708=
201902051200 AAXX 05124 67571 41580 71802 10206 20192 48/// 72996 872//
                   333 5//// 81921 87821=
201902050900 AAXX 05094 67571 42582 70904 10271 20179 48/// 70222 85138
                   333 5//// 85820 81360 86280=

################################################################################
#  SYNOPS from 67575, Mkushi (Zambia) | 13-38-00S | 029-26-00E | 1237 m
################################################################################
201903010600 AAXX 01064 67575 32980 50902 10233 20193 48487 80008
                   333 10310 20164 58015 85280
                   555 00165=
201902281200 AAXX 28124 67575 42680 31604 10303 20158 48459 83201
                   333 59004 83840 81080=
201902280900 AAXX 28094 67575 42680 20903 10296 20164 48474 82201
                   333 59012 82830 81080=
201902280600 AAXX 28064 67575 32980 10901 10214 20186 48470 80001
                   333 10320 20150 59015 81080
                   555 00151=
201902260600 AAXX 26064 67575 32980 60000 10188 20174 48483 80008
                   333 10310 20135 58010 86278
                   555 00149=
201902220600 AAXX 22064 67575 12480 71202 10213 20193 48495 60024 84570
                   333 10292 20185 59003 84612 84360
                   555 00179=
201902211200 AAXX 21124 67575 41680 61402 10286 20180 48472 72992 85273
                   333 58001 81936 85836 81363 81080=
201902210600 AAXX 21064 67575 32380 70000 10205 20189 48498 81671
                   333 10275 20180 58017 81708 87360 81080
                   555 00169=
201902201200 AAXX 20124 67575 42680 51203 10260 20170 48470 83273
                   333 58027 81935 83835 82362 81080=
201902200600 AAXX 20064 67575 12380 71203 10192 20158 48480 60074 81670
                   333 10250 20175 58008 81708 87360
                   555 00164=
201902191200 AAXX 19124 67575 42560 71102 10232 20175 48/// 70162 85870
                   333 5//// 85620 83361=
201902190900 AAXX 19094 67575 41365 81102 10206 20185 48479 76062 8577/
                   333 58008 85708 84459=
201902181200 AAXX 18124 67575 42180 32703 10287 20190 48444 72992 83273
                   333 5//// 81936 83836 81363 81080=
201902180900 AAXX 18094 67575 42680 41201 10252 20193 48475 81171
                   333 5//// 81830 84362 81080=
201902180600 AAXX 18064 67575 12380 80301 10190 20184 48476 60034 81671
                   333 10310 20165 59002 81706 87460 81078
                   555 00162=
201902151200 AAXX 15124 67575 42680 72901 10280 20175 48484 82208
                   333 58002 82836 86280=
201902150900 AAXX 15094 67575 42580 62702 10254 20188 48505 81278
                   333 58004 81825 81361 86280=
201902150600 AAXX 15064 67575 32960 83601 10195 20187 48494 84078
                   333 10281 20162 58000 84360 85278=
201902141200 AAXX 14124 67575 41656 83603 10256 20198 48480 71792 8527/
                   333 58006 81935 85835 83460=
201902140900 AAXX 14094 67575 42580 70805 10262 20194 48502 82578
                   333 58000 82620 81361 86280=
201902140600 AAXX 14064 67575 32980 83602 10210 20195 48495 83078
                   333 10246 20173 58006 83460 85278
                   555 00164=
201902130900 AAXX 13094 67575 42480 72803 10226 20171 48499 81578
                   333 58037 81617 84360 83280=
201902130600 AAXX 13064 67575 32980 80000 10197 20174 48489 82077
                   333 10305 20168 58030 82360 87278=
201902121200 AAXX 12124 67575 42680 42701 10290 20178 48443 82273
                   333 59023 81937 83837 81362 82080=
201902120900 AAXX 12094 67575 42680 33601 10246 20185 48464 83201
                   333 59020 83830 81080=
201902120600 AAXX 12064 67575 11280 33602 10200 20192 48458 60024 72841 83631
                   333 10245 20166 59022 83704 81360 81080=
201902111200 AAXX 11124 67575 41480 83402 10231 20200 48461 70262 8757/
                   333 5//// 87618 82460=
201902110600 AAXX 11064 67575 11350 83401 10188 20188 48480 60334 76162 8177/
                   333 10290 20167 58008 81706 88459=
201902081200 AAXX 08124 67575 41680 63404 10231 20192 48456 70352 86273
                   333 58001 81930 81080=
201902080900 AAXX 08094 67575 41580 71202 10240 20188 48483 72052 87570
                   333 59001 87620 81360=
201902071200 AAXX 07124 67575 41670 37601 10197 20185 48453 71796 83278
                   333 59005 81936 83836 81460 84278=
201902070900 AAXX 07094 67575 42680 42802 10260 20202 48486 83273
                   333 58000 81930 83830 81360 81080=
201902070600 AAXX 07064 67575 12300 73602 10202 20191 48480 60504 82678
                   333 10272 20172 58002 82708 81360 86278=
201902061200 AAXX 06124 67575 42680 73401 10249 20191 48462 83278
                   333 58015 83830 81360 84278=
201902060900 AAXX 06094 67575 41370 80802 10205 20196 48482 76162 8677/
                   333 58014 86709 82460=
201902060600 AAXX 06064 67575 11360 83601 10184 20181 48476 60034 76162 8277/
                   333 10287 20174 58015 82706 87460=
201902051200 AAXX 05124 67575 41665 71202 10225 20204 48446 79596 86273
                   333 59008 81930 86830 82359 81080=
201902050900 AAXX 05094 67575 42680 61002 10267 20203 48473 83203
                   333 59005 83830 84280=
201902050600 AAXX 05064 67575 12380 70000 10218 20196 48465 60014 81678
                   333 10278 20185 59010 81709 81360 87278=
201902041200 AAXX 04124 67575 41650 70802 10260 20195 48457 79598 83273
                   333 5//// 81937 83837 84360 81080=
201902040600 AAXX 04064 67575 32480 61002 10216 20179 48475 81170
                   333 10290 20166 59014 81815 86360=
201902010600 AAXX 01064 67575 12380 53601 10197 20187 48498 60034 81671
                   333 10275 20162 59003 81708 85360 81080=

################################################################################
#  SYNOPS from 67580, Msekera (Zambia) | 13-39S | 032-34E | 1025 m
################################################################################
201903010600 AAXX 01064 67580 32980 71503 10245 20204 48/// 80001
                   333 10350 20207 58011 87080=
201902281200 AAXX 28124 67580 42880 72702 10316 20207 48/// 87230
                   333 59002 87587 81361=
201902280600 AAXX 28064 67580 32980 10000 10254 20210 48/// 80001
                   333 10339 20193 59014 81080=
201902270600 AAXX 27064 67580 32980 50000 10239 20198 48/// 80001
                   333 10331 20182 58004 85080=
201902260600 AAXX 26064 67580 32980 41202 10246 20190 48/// 80001
                   333 10329 20173 5//// 84080=
201902220600 AAXX 22064 67580 12680 71203 10230 20204 48/// 60064 84831
                   333 10310 20195 58001 82830 82632 83360 83080=
201902210600 AAXX 21064 67580 12680 62702 10232 20200 48/// 69904 82130
                   333 10284 20199 58014 82834 84361=
201902201200 AAXX 20124 67580 41680 73302 10240 20189 48/// 72522 84138
                   333 58023 84840 85360 84280=
201902200600 AAXX 20064 67580 12580 71203 10204 20194 48/// 60244 83878
                   333 10264 20185 58014 81824 82626 85360 84280=
201902191200 AAXX 19124 67580 42780 71203 10259 20194 48/// 87231
                   333 5//// 87850 82361 82080=
201902190900 AAXX 19094 67580 41680 81202 10229 20184 48/// 70552 8487/
                   333 5//// 82834 81636 88360=
201902181200 AAXX 18124 67580 NIL=
201902180900 AAXX 18094 67580 NIL=
201902180600 AAXX 18064 67580 12580 73002 10209 20198 48/// 60054 82131
                   333 10328 20199 59006 82826 86360 84080=
201902150900 AAXX 15094 67580 42680 70000 10282 20202 48/// 82138
                   333 59002 82840 83362 87280=
201902150600 AAXX 15064 67580 12980 70000 10236 20206 48/// 60044 81038
                   333 10330 20193 58001 81362 87280=
201902140900 AAXX 14094 67580 42680 70306 10270 20213 48/// 81178
                   333 58017 81840 86362 87280=
201902140600 AAXX 14064 67580 12980 70000 10231 20201 48/// 60394 8707/
                   333 10292 20202 58016 87460=
201902130600 AAXX 13064 67580 12980 70000 10255 20212 48/// 69904 8707/
                   333 10308 20215 59017 87460=
201902120900 AAXX 12094 67580 42680 73606 10249 20197 48/// 878//
                   333 59013 85840 87645=
201902120600 AAXX 12064 67580 12580 70306 10218 20197 48/// 60054 875//
                   333 10270 20184 59018 87625=
201902110600 AAXX 11064 67580 11580 80000 10218 20205 48/// 60184 70362 8227/
                   333 10310 20195 58012 82818 88460=
201902080900 AAXX 08094 67580 42680 71303 10259 20203 48/// 85830
                   333 59003 84846 81648 86360=
201902080600 AAXX 08064 67580 12680 71203 10240 20194 48/// 60014 85831
                   333 10300 20209 58000 83832 81634 82360 84080=
201902070600 AAXX 07064 67580 12580 70302 10228 20209 48/// 60014 83877
                   333 10300 20206 59010 82826 81628 85360 86280=
201902060900 AAXX 06094 67580 42680 73602 10258 20205 48/// 85138
                   333 5//// 85848 81361 87280=
201902060600 AAXX 06064 67580 11580 70000 10209 20201 48/// 60034 76062 8417/
                   333 10318 20192 58013 84824 87460=
201902050600 AAXX 05064 67580 12680 70000 10236 20213 48/// 60014 83131
                   333 10308 20200 59002 83832 85360 83080=
201902040600 AAXX 04064 67580 12680 41202 10236 20205 48/// 60034 82830
                   333 10274 20185 59014 81032 81634 82360=
201902010900 AAXX 01094 67580 42680 70000 10258 20198 48/// 86238
                   333 58007 86840 82362 86280=
201902010600 AAXX 01064 67580 12480 70000 10238 20199 48/// 60174 81138
                   333 10299 20188 58011 81818 84360 86280=

################################################################################
#  SYNOPS from 67581, Chipata (Zambia) | 13-33S | 032-35E | 1028 m
################################################################################
201903010600 AAXX 01064 67581 32980 40000 10258 20200 48538 80002
                   333 10310 20162 58010 84080 91018=
201902281200 AAXX 28124 67581 42680 42503 10314 20166 48512 84200
                   333 59007 81946 83846 91015=
201902280900 AAXX 28094 67581 42680 41804 10295 20198 48531 84100
                   333 59010 84840 91017=
201902280600 AAXX 28064 67581 32980 21804 10266 20196 48528 80002
                   333 10294 20//0 59013 82080 91017=
201902271200 AAXX 27124 67581 41680 52405 10315 20189 48519 71722 84202
                   333 58008 81945 83845 82080 91015=
201902270600 AAXX 27064 67581 32980 40000 10235 20185 48536 80002
                   333 10316 20128 58004 84080 91018=
201902260600 AAXX 26064 67581 32980 31604 10258 20166 48535 82032
                   333 10312 20124 58002 82360 82080 91018=
201902210600 AAXX 21064 67581 32980 40000 10225 20197 48552 69904 84030
                   333 10254 20194 58013 84360 91021=
201902200600 AAXX 20064 67581 11280 70000 10200 20190 48536 60564 75066 8357/
                   333 10275 20188 58015 83604 87459 91020=
201902181200 AAXX 18124 67581 NIL=
201902180900 AAXX 18094 67581 NIL=
201902150600 AAXX 15064 67581 32980 71604 10252 20191 48557 70222 8607/
                   333 10306 20148 58000 86460 91021=
201902140600 AAXX 14064 67581 12560 80000 10228 20198 48552 60214 8357/
                   333 10280 20198 58016 83620 88460 91021=
201902130900 AAXX 13094 67581 42580 82704 10288 20204 48543 70222 8527/
                   333 58014 85825 88460 91018=
201902130600 AAXX 13064 67581 32580 72703 10242 20207 48541 70222 8357/
                   333 10285 20172 58014 83620 87460 91019=
201902120600 AAXX 12064 67581 12580 80000 10219 20193 48523 60164 70222 8557/
                   333 10260 20141 59016 85620 88460 91017=
201902110600 AAXX 11064 67581 31580 80000 10219 20200 48539 72162 8217/
                   333 10299 20152 58016 82820 88460=
201902080900 AAXX 08094 67581 42680 70704 10256 20201 48525 70222 85238
                   333 58008 85830 83360 85260 91018=
201902080600 AAXX 08064 67581 12580 81604 10246 20198 48535 60014 70222 84538
                   333 10270 20162 58003 54620 83360 87280=
201902071200 AAXX 07124 67581 42680 63403 10270 20197 48521 70222 84232
                   333 58006 84835 82360 83080 91016=
201902070900 AAXX 07094 67581 42680 81905 10258 20198 48545 70222 84108
                   333 58002 84830 88280 91019=
201902070600 AAXX 07064 67581 11460 80000 10221 20198 48528 60034 72162 83538
                   333 10276 20161 59012 83620 82360 87280 91018=
201902060600 AAXX 06064 67581 11560 80000 10202 20197 48536 60084 76166 8557/
                   333 10285 20150 58013 85620 87460=
201902050600 AAXX 05064 67581 12580 61203 10229 20192 48529 60024 70222 82132
                   333 10290 20156 59002 82825 83360 83080=
201902040600 AAXX 04064 67581 12580 41203 10231 20188 48531 60034 70222 82130
                   333 10282 20136 59011 82825 82360=
201902010600 AAXX 01064 67581 12580 41206 10219 20197 48550 60144 82130
                   333 10290 20144 58012 82825 83360 91021=

################################################################################
#  SYNOPS from 67583, Lundazi (Zambia) | 12-17S | 033-12E | 1143 m
################################################################################
201902280900 AAXX 28094 67583 42680 40000 10294 20206 48/// 83201
                   333 5//// 83835 81080=
201902280600 AAXX 28064 67583 32980 20000 10216 20193 48/// 81031
                   333 10326 20//0 5//// 81359 81080=
201902270600 AAXX 27064 67583 32980 50000 10218 20177 48/// 81038
                   333 10326 2//// 5//// 81360 85280=
201902260600 AAXX 26064 67583 32980 40000 10214 20177 48/// 81032
                   333 10316 2//// 5//// 81360 84080=
201902220600 AAXX 22064 67583 11980 70000 10210 20193 48/// 60024 72162 8707/
                   333 10290 20//0 5//// 87460=
201902200600 AAXX 20064 67583 11559 80000 10182 20182 48/// 60324 76166 8172/
                   333 10282 20//0 5//// 81701 88459=
201902181200 AAXX 18124 67583 42780 42705 10300 20192 48/// 82201
                   333 5//// 82850 82080=
201902180900 AAXX 18094 67583 42980 32701 10270 20198 48/// 82031
                   333 5//// 82360 81080=
201902180600 AAXX 18064 67583 12980 73602 10204 20191 48/// 60014 84038
                   333 10326 20//0 5//// 84359 87280=
201902150600 AAXX 15064 67583 12980 71701 10226 20200 48/// 69904 80007
                   333 10316 2//// 5//// 87280=
201902140900 AAXX 14094 67583 42980 23502 10280 20200 48/// 82031
                   333 5//// 82360 81080=
201902140600 AAXX 14064 67583 12980 70901 10216 20203 48/// 60264 87030
                   333 10300 20//0 5//// 87360=
201902130900 AAXX 13094 67583 42680 73603 10274 20197 48/// 81131
                   333 5//// 81835 86360 81080=
201902130600 AAXX 13064 67583 11980 73601 10236 20208 48/// 69904 76062 87030
                   333 10290 2//// 5//// 87360=
201902121200 AAXX 12124 67583 42680 73502 10280 20184 48/// 82237
                   333 5//// 82832 82360 87280=
201902120600 AAXX 12064 67583 12980 70000 10228 20195 48/// 60094 82037
                   333 10244 2//// 5//// 82360 87280=
201902111200 AAXX 11124 67583 41660 83605 10200 20193 48/// 76262 8587/
                   333 5//// 82832 83632 87459=
201902110600 AAXX 11064 67583 12980 80000 10210 20195 48/// 60034 8807/
                   333 10300 2//// 5//// 88459=
201902010900 AAXX 01094 67583 42680 60000 10290 20188 48/// 81231
                   333 5//// 81840 85360 81080=
201902010600 AAXX 01064 67583 11980 70000 10240 20196 48/// 60234 72162 87030
                   333 10302 2//// 5//// 87360=

################################################################################
#  SYNOPS from 67599, Mfuwe (Zambia) | 13-16S | 031-56E | 568 m
################################################################################
201902280600 AAXX 28064 67599 32980 10000 10263 20208 48517 81030
                   333 10360 20210 59015 81360 91014=
201902250600 AAXX 25064 67599 32980 01302 10242 20206 48520
                   333 10335 20172 59012
                   555 00190 91015=
201902210600 AAXX 21064 67599 12580 60000 10250 20222 48549 69924 82230
                   333 10285 20211 58014 81925 86360
                   555 00222 91018=
201902200600 AAXX 20064 67599 11360 80000 10215 20206 48556 60124 76066 8477/
                   333 10274 20200 58013 84708 88459
                   555 00210 91017=
201902181200 AAXX 18124 67599 NIL=
201902180900 AAXX 18094 67599 NIL=
201902180600 AAXX 18064 67599 12480 71903 10233 20226 48513 60034 8257/
                   333 10360 20212 59002 82616 87359 91015=
201902140600 AAXX 14064 67599 32480 71004 10234 20220 48537 8367/
                   333 10258 20210 58013 83718 87359
                   555 00219 91018=
201902130600 AAXX 13064 67599 32680 72102 10246 20226 48528 8313/
                   333 10307 20215 83849 87359
                   555 00215 91016=
201902120600 AAXX 12064 67599 12580 73602 10234 20213 48512 60014 875//
                   333 10301 20202 59017 87620
                   555 00209 91015=
201902060600 AAXX 06064 67599 12480 70905 10229 20214 48528 60034 8357/
                   333 10326 20208 58014 83618 87359 91017=
201902010600 AAXX 01064 67599 12380 60000 10237 20220 48543 60184 72842 85730
                   333 10332 20205 58009 85705 85360 91018=

################################################################################
#  SYNOPS from 67625, Kalabo (Zambia) | 14-51S | 022-42E | 1033 m
################################################################################
201903010600 AAXX 01064 67625 32282 73412 10205 20198 48/// 83634
                   333 10340 20185 58019 83705 83360 87075=
201902280600 AAXX 28064 67625 NIL=
201902270600 AAXX 27064 67625 32982 03302 10210 20179 48///
                   333 10333 20180 5////=
201902260600 AAXX 26064 67625 32982 82102 10200 20194 48/// 81047
                   333 10340 20177 5//// 81360 88275=
201902251200 AAXX 25124 67625 42782 31505 10320 20170 48/// 82104
                   333 5//// 82756 83075=
201902210600 AAXX 21064 67625 32982 30914 10219 20161 48/// 81085
                   333 10316 20165 5//// 81360 83275=
201902190900 AAXX 19094 67625 42982 60712 10279 20166 48/// 83233
                   333 5//// 83844 83361 86075=
201902181200 AAXX 18124 67625 41682 70613 10285 20182 48/// 72992 83203
                   333 5//// 81935 83837 87075=
201902180900 AAXX 18094 67625 42682 83308 10287 20196 48/// 81134
                   333 81835 81361 88075=
201902180600 AAXX 18064 67625 32982 73605 10225 20190 48/// 85084
                   333 10360 20193 59008 85360 87075=
201902151200 AAXX 15124 67625 42682 83006 10300 20207 48/// 83104
                   333 58002 83838 88075=
201902150900 AAXX 15094 67625 42582 72907 10275 20210 48/// 81134
                   333 58015 81827 81361 87075=
201902150600 AAXX 15064 67625 32982 70904 10220 20205 48/// 85084
                   333 10305 20205 59001 85360 87075=
201902141200 AAXX 14124 67625 42682 73214 10295 20196 48/// 81134
                   333 58002 81840 84361 87075=
201902140900 AAXX 14094 67625 42582 83319 10275 20203 48/// 82104
                   333 58013 82828 88075=
201902140600 AAXX 14064 67625 12982 82407 10205 20198 48/// 60104 80004
                   333 10240 20195 58020 88075=
201902130900 AAXX 13094 67625 41482 72411 10210 20203 48/// 75085 83123
                   333 58017 83813 86460 87075=
201902130600 AAXX 13064 67625 12982 72702 10219 20206 48/// 60084 87073
                   333 10310 20205 58008 87460 87075=
201902121200 AAXX 12124 67625 42682 72713 10285 20205 48/// 82133
                   333 59015 82833 86361 87075=
201902120900 AAXX 12094 67625 42982 73005 10235 20205 48/// 86083
                   333 59021 86360 87075=
201902120600 AAXX 12064 67625 11482 82201 10205 20200 48/// 60044 72996 81323
                   333 10320 20200 59009 81910 87460 87075=
201902111200 AAXX 11124 67625 42682 53608 10300 20188 48/// 82334
                   333 82944 83844 83361 85075=
201902110600 AAXX 11064 67625 12982 73004 10220 20205 48/// 69924 83034
                   333 10266 20199 58009 83361 87075=
201902080900 AAXX 08094 67625 41582 70902 10271 20204 48/// 76062 82134
                   333 58004 82826 83360 87075=
201902071200 AAXX 07124 67625 42682 73509 10295 20185 48/// 82303
                   333 82944 81844 87075=
201902070900 AAXX 07094 67625 42582 73306 10260 20190 48/// 81133
                   333 81828 83361 87075=
201902070600 AAXX 07064 67625 32982 71208 10230 20208 48/// 86083
                   333 10289 20185 58000 86360 87075=
201902051200 AAXX 05124 67625 41682 60304 10300 20200 48/// 71522 82163
                   333 82840 82360 86075=
201902050900 AAXX 05094 67625 42682 71906 10284 20206 48/// 81133
                   333 81832 83361 87075=
201902050600 AAXX 05064 67625 12982 70906 10226 20195 48/// 60084 84033
                   333 10335 20199 84361 87075=

################################################################################
#  SYNOPS from 67633, Mongu (Zambia) | 15-15S | 023-09E | 1052 m
################################################################################
201903010600 AAXX 01064 67633 12980 52701 10218 20196 48529 69904 80002
                   333 10355 20184 58020 85080 91019=
201902280600 AAXX 28064 67633 12980 63602 10233 20197 48511 60014 85032
                   333 10361 20210 59009 85360 82080 91017=
201902270600 AAXX 27064 67633 32980 00302 10255 20182 48522
                   333 10338 20196 5//// 91018=
201902260600 AAXX 26064 67633 32980 73602 10218 20198 48522 80002
                   333 10345 20185 58013 87080 91018=
201902250600 AAXX 25064 67633 32980 30905 10248 20204 48514 82031
                   333 10323 20200 58006 82361 81080 91017=
201902220600 AAXX 22064 67633 32980 10904 10235 20179 48536 81030
                   333 10325 20188 58003 81361 91019=
201902210600 AAXX 21064 67633 32980 30904 10225 20173 48530 83030
                   333 10322 20185 58011 83360 91019=
201902200600 AAXX 20064 67633 32980 00904 10217 20135 48516
                   333 10317 20160 58005 91018=
201902181200 AAXX 18124 67633 NIL=
201902180900 AAXX 18094 67633 NIL=
201902150600 AAXX 15064 67633 32980 7//// 10207 20189 48524 69904 87070
                   333 10300 20200 58023 87460 91019=
201902140900 AAXX 14094 67633 42580 73613 10275 20209 48525 84208
                   333 58009 84825 87280 91018=
201902140600 AAXX 14064 67633 12980 70315 10220 20198 48509 60064 83038
                   333 10249 20194 58006 83360 87280 91017=
201902130600 AAXX 13064 67633 12980 83602 10218 20209 48503 60174 70222 8807/
                   333 10311 20191 58011 88460 91016=
201902120600 AAXX 12064 67633 31665 73605 10235 20208 48490 79596 81970
                   333 10317 20218 59008 81940 83840 87460=
201902111200 AAXX 11124 67633 41680 53604 10295 20204 48485 72582 84202
                   333 59022 84840 83080 91012=
201902110600 AAXX 11064 67633 12980 43604 10230 20201 48503 60114 83032
                   333 10276 20198 83360 82080=
201902081200 AAXX 08124 67633 42680 53604 10313 20201 48500 85208
                   333 59002 85240 84280 91015=
201902080600 AAXX 08064 67633 32980 70904 10224 20211 48506 87030
                   333 10296 20205 59001 87360=
201902070900 AAXX 07094 67633 42680 73601 10264 20203 48521 70322 86201
                   333 59010 81935 85835 81080 91017=
201902060600 AAXX 06064 67633 12380 73002 10210 20201 48520 60144 70322 8467/
                   333 10335 20195 58023 84709 87460=
201902050600 AAXX 05064 67633 32980 50102 10220 20191 48497 85030
                   333 10327 20210 59020 85360=
201902040600 AAXX 04064 67633 32980 63603 10240 20205 48519 82038
                   333 10335 20205 58008 82360 86280=
201902010600 AAXX 01064 67633 12980 70305 10222 20193 48526 69904 87030
                   333 10316 20205 87360=

################################################################################
#  SYNOPS from 67641, Kaoma (Zambia) | 14-48S | 024-48E | 1213 m
################################################################################
201903010900 AAXX 01094 67641 42680 61404 10290 20197 48530 81101
                   333 58022 81840 86080 91018=
201902280600 AAXX 28064 67641 32980 20602 10230 20182 48499 81031
                   333 10350 20181 59011 81360 82080 91015=
201902270600 AAXX 27064 67641 32980 20000 10223 20200 48509 80001
                   333 10340 20183 58001 82080 91017=
201902260600 AAXX 26064 67641 32480 60601 10189 20182 48503 84630
                   333 10334 20165 58003 84710 82360 82080 91016=
201902251200 AAXX 25124 67641 42680 31202 10317 20169 48493 83100
                   333 58004 83842 91014=
201902220600 AAXX 22064 67641 32980 23502 10221 20192 48519 82031
                   333 10310 20180 59001 82360 81080 91018=
201902210600 AAXX 21064 67641 32980 20802 10210 20188 48518 81031
                   333 10306 20171 58014 81360 81080 91018=
201902200600 AAXX 20064 67641 32980 02601 10207 29187 48503
                   333 10295 20151 58000 91016=
201902190900 AAXX 19094 67641 42580 71307 10252 20185 48516 85201
                   333 58002 85834 82080 91017=
201902181200 AAXX 18124 67641 NIL=
201902180900 AAXX 18094 67641 41975 73203 10250 20202 48514 76062 8707/
                   333 58005 87460 91017=
201902180600 AAXX 18064 67641 32980 73502 10217 20194 48506 8707/
                   333 10348 20199 59001 87360 91016=
201902141200 AAXX 14124 67641 41680 62910 10290 20208 48504 71792 84230
                   333 58022 81940 83845 82360 91015=
201902140600 AAXX 14064 67641 12980 62804 10206 20198 48503 60114 86030
                   333 10290 20186 58000 86360 91016=
201902130900 AAXX 13094 67641 42580 80606 10220 20203 48517 885//
                   333 58021 88625 91066=
201902130600 AAXX 13064 67641 12480 81203 10195 20192 48506 60184 70222 8657/
                   333 10330 20188 58021 86614 88450=
201902120900 AAXX 12094 67641 42980 73204 10280 20216 48/// 87030
                   333 5//// 87360=
201902120600 AAXX 12064 67641 32980 60000 10232 20215 48488 81038
                   333 10322 20196 59019 81362 86280=
201902111200 AAXX 11124 67641 41680 70000 10295 20209 48488 8423/
                   333 59006 81940 84840 83362 91013=
201902110600 AAXX 11064 67641 32980 70000 10224 20204 48506 8703/
                   333 10298 20195 58017 87361=
201902070900 AAXX 07094 67641 42680 70000 10275 20212 48515 872//
                   333 58001 81940 87840 91016=
201902070600 AAXX 07064 67641 12580 70602 10225 20207 48509 69934 81231
                   333 10316 20194 59001 81834 86360 81080 91066=
201902060600 AAXX 06064 67641 12580 70000 10204 20198 48506 60344 70222 8453/
                   333 10337 20198 58010 84630 87360=
201902051200 AAXX 05124 67641 41680 60704 10320 20209 48487 72992 84900
                   333 59010 82940 84840 91013=
201902050600 AAXX 05064 67641 32980 60000 10246 20205 48502 86031
                   333 10341 20192 58001 86362 81080=
201902010600 AAXX 01064 67641 12980 30000 10220 20189 48531 60054 83030
                   333 10280 20192 58016 83360 91020=

################################################################################
#  SYNOPS from 67655, Mumbwa (Zambia) | 15-04S | 027-11E | 1216 m
################################################################################
201902280600 AAXX 28064 67655 NIL=
201902260600 AAXX 26064 67655 32480 60000 10215 20177 48525 81108
                   333 10300 20158 58005 81820 86280 91019=
201902250600 AAXX 25064 67655 32980 23504 10230 20151 48516 82030
                   333 1//// 2//// 5//// 82361 91018=
201902220600 AAXX 22064 67655 32480 60804 10213 20197 48545 83530
                   333 10289 20169 59001 83612 84360 91021=
201902210600 AAXX 21064 67655 32980 40708 10213 20184 48546 84030
                   333 10290 20176 58019 84360 91021=
201902200600 AAXX 20064 67655 32980 30905 10190 20183 48525 83030
                   333 10275 20173 58003 83360 91019=
201902181200 AAXX 18124 67655 NIL=
201902180900 AAXX 18094 67655 NIL=
201902180600 AAXX 18064 67655 12480 73609 10214 20196 48519 60014 8377/
                   333 10300 20179 58005 83710 86459 91018=
201902150600 AAXX 15064 67655 12480 72007 10220 20187 48549 60224 8117/
                   333 10270 20190 58024 81818 86459 91021=
201902040600 AAXX 04064 67655 32980 50414 10230 20185 48524 80001
                   333 10309 20173 59005 85080=

################################################################################
#  SYNOPS from 67659, Kafue Polder (Zambia) | 15-46S | 027-55E | 978 m
################################################################################
201903010600 AAXX 01064 67659 12980 41406 10256 20190 48/// 69904 83031
                   333 10347 20180 58017 83360 81080=
201902280600 AAXX 28064 67659 32975 01703 10218 20178 48/// 70522
                   333 10350 20178 59008=
201902270600 AAXX 27064 67659 32980 11004 10210 20197 48/// 81030
                   333 10342 20198 59002 81360=
201902260600 AAXX 26064 67659 32980 11205 10244 20198 48/// 81030
                   333 10345 20165 58016 81360=
201902250600 AAXX 25064 67659 32980 1//// 10230 20/// 48/// 81030
                   333 10332 20165 59017 81360=
201902220600 AAXX 22064 67659 32480 30905 10246 20//0 48/// 81530
                   333 10314 20190 59005=
201902210600 AAXX 21064 67659 32980 10903 10227 20//0 48/// 81030
                   333 10298 20200 58016 81360=
201902200600 AAXX 20064 67659 32980 40603 10214 20//0 48/// 84030
                   333 10297 20160 58012 83360=
201902181200 AAXX 18124 67659 NIL=
201902180900 AAXX 18094 67659 NIL=
201902180600 AAXX 18064 67659 12480 71204 10240 20213 48/// 60024 70322 81130
                   333 10315 20206 58006 81820 86360=
201902150600 AAXX 15064 67659 12480 60503 10211 20203 48/// 60254 70222 81530
                   333 10306 20210 48021 81610 85360=
201902140600 AAXX 14064 67659 12480 70404 10240 20212 48/// 69904 70322 81530
                   333 10301 20190 59009 81610 86360=
201902110600 AAXX 11064 67659 11980 70302 10235 20//0 48/// 60034 70222 87030
                   333 10298 20181 58004 87360=
201902060600 AAXX 06064 67659 32980 60902 10220 20//0 48/// 70222 86030
                   333 10302 20208 5//// 86360=
201902050600 AAXX 05064 67659 11980 50904 10215 20202 48/// 60274 70222 85030
                   333 10230 20200 59002 85360=
201902010600 AAXX 01064 67659 32480 30504 10246 20208 48/// 81130
                   333 10296 20199 5//// 81820 82360=

################################################################################
#  SYNOPS from 67662, Kabwe Agric (Zambia) | 14-24S | 028-30E | 1165 m
################################################################################
201902280600 AAXX 28064 67662 NIL=
201902270900 AAXX 27094 67662 42680 31801 10290 20193 48/// 82101
                   333 5//// 82835 81080=
201902270600 AAXX 27064 67662 32980 20000 10222 20186 48/// 80001
                   333 10307 20111 5//// 82080=
201902250600 AAXX 25064 67662 32980 00000 10215 20162 48///
                   333 10290 20096 5////=
201902200600 AAXX 20064 67662 32480 71804 10205 20186 875//
                   333 10265 20114 5//// 87614=
201902181200 AAXX 18124 67662 NIL=
201902180900 AAXX 18094 67662 NIL=
201902180600 AAXX 18064 67662 12980 83604 10208 20189 48/// 69954 8807/
                   333 10315 20132 5//// 88460=

################################################################################
#  SYNOPS from 67663, Kabwe (Zambia) | 14-27S | 028-28E | 1206 m
################################################################################
201903010600 AAXX 01064 67663 32980 60705 10232 20187 48604 83038
                   333 10322 20180 58016 83360 85280=
201902280600 AAXX 28064 67663 32980 13603 10/// 20180 48590 81032
                   333 10330 20180 59014 81360 81080=
201902270600 AAXX 27064 67663 32980 10405 10242 20181 48603 81032
                   333 10315 20168 58000 81360 81080=
201902260600 AAXX 26064 67663 32980 50305 10235 20174 48602 83032
                   333 10310 20177 58010 83360 83080=
201902250600 AAXX 25064 67663 32980 03606 10222 20152 48592
                   333 10299 20155 59024=
201902220600 AAXX 22064 67663 32480 80910 10//0 20197 48495 885//
                   333 10286 20194 58005 88618=
201902210600 AAXX 21064 67663 31480 50809 10197 20192 48599 72842 85530
                   333 10268 20159 58014 85619 82360=
201902200600 AAXX 20064 67663 32480 70809 10184 20176 48574 875//
                   333 10272 20154 58010 87619=
201902181200 AAXX 18124 67663 NIL=
201902180900 AAXX 18094 67663 NIL=
201902180600 AAXX 18064 67663 12980 72909 10//0 20185 48564 60014 72162 8707/
                   333 10319 20184 59004 87460=
201902140600 AAXX 14064 67663 32980 73603 10216 20195 48589 87070
                   333 10290 20192 58008 87460=
201902130600 AAXX 13064 67663 12980 73505 10198 20076 48578 60114 8708/
                   333 10307 20172 58028 87460=
201902120600 AAXX 12064 67663 12980 23207 10212 20191 48552 69914 81032
                   333 10276 20179 59031 81360 82080=
201902110600 AAXX 11064 67663 11980 72703 10211 20188 48581 60714 72162 8707/
                   333 10282 20176 59007 87460=
201902080600 AAXX 08064 67663 32480 80908 10209 20194 48580 885//
                   333 10300 20191 59002 88619=
201902050600 AAXX 05064 67663 12480 60905 10224 20197 48572 69914 83538
                   333 10306 20194 59006 83619 83360 85280=
201902040600 AAXX 04064 67663 32980 50902 10206 20193 48577 85030
                   333 10298 20178 59004 85360=
201902010600 AAXX 01064 67663 12980 42704 10221 20194 48600 83032
                   333 10262 20180 58012 83360 82080=

################################################################################
#  SYNOPS from 67665, Lusaka Internationalairport (Zambia) | 15-19S | 028-27E | 1152 m
################################################################################
201903030600 AAXX 03064 67665 31302 10224 20174 48535 70200 80001
                   333 10312 20//0 59014 83080 91020=
201903021500 AAXX 02154 67665 42780 51706 10272 20165 48517 70222 82102
                   333 58007 82848 84080=
201903020900 AAXX 02094 67665 42980 40808 10272 20136 48552 70200 80002
                   333 58008 84080=
201903011800 AAXX 01184 67665 42980 40803 10237 20141 48521 70222 80002
                   333 58012 84080 91018=
201903010300 AAXX 01034 67665 42980 01704 10185 20154 48520
                   333 58011=
201903010000 AAXX 01004 67665 42980 00000 10198 20157 48517
                   333 58007=
201902280600 AAXX 28064 67665 NIL=
201902280300 AAXX 28034 67665 42980 00000 10156 20132 48506
                   333 59002=
201902271800 AAXX 27184 67665 42980 11202 10242 20156 48503 81030
                   333 10329 59001 81360=
201902271500 AAXX 27154 67665 42780 31205 10320 20108 48504 83130
                   333 58000 83856 81360
                   555 10329=
201902271200 AAXX 27124 67665 42680 30807 10317 20102 48521 83100
                   333 59023 83845=
201902270600 AAXX 27064 67665 32980 11302 10244 20184 48536 70200 80001
                   333 10320 20//0 59003 81080=
201902270300 AAXX 27034 67665 42980 00000 10182 20165 48511 70200
                   333 58000=
201902270000 AAXX 27004 67665 42980 02202 10195 20164 48513 70200
                   333 59001=
201902262100 AAXX 26214 67665 42980 01504 10201 20169 48511 70200
                   333 59007=
201902261800 AAXX 26184 67665 42980 21505 10235 20165 48504 82030
                   333 59001 82860=
201902261500 AAXX 26154 67665 42680 41205 10307 20132 48503 83232
                   333 58008 83850 81360 82080=
201902261200 AAXX 26124 67665 42680 30000 10307 20121 48517 81132
                   333 59001 81845 81360 82080=
201902260900 AAXX 26094 67665 42980 30906 10288 20136 48540 81032
                   333 58001 81360 83080=
201902251800 AAXX 25184 67665 42980 11302 10246 20150 48506 70100 81030
                   333 59006 81360=
201902251500 AAXX 25154 67665 42780 30808 10312 20117 48495 70300 83200
                   333 59013 83850=
201902251200 AAXX 25124 67665 42680 10302 10313 20133 48518 70200 81100
                   333 59003 81838=
201902250900 AAXX 25094 67665 41580 10505 10287 20126 48539 70300 81100
                   333 59001 81830=
201902250600 AAXX 25064 67665 32980 01502 10229 20179 48527 70200
                   333 10308 20//0 59006 91019=
201902240900 AAXX 24094 67665 42580 40604 10271 20136 48537 82130
                   333 59022 82820 83360=
201902231500 AAXX 23154 67665 42680 23310 10255 20177 48520 70122 82231
                   333 59002 82840 81360 82080 91018=
201902230900 AAXX 23094 67665 42480 50503 10251 20174 48556 85232
                   333 58003 85815 82360 81080=
201902230600 AAXX 23064 67665 31380 50000 10209 20178 48549 72842 81632
                   333 10279 81706 85360 81080
                   555 00///=
201902230300 AAXX 23034 67665 42380 52602 10183 20168 48532 81632
                   333 59001 81706 85360 81080=
201902230000 AAXX 23004 67665 42980 23303 10195 20172 48525 82030
                   333 58003 82360=
201902222100 AAXX 22214 67665 42980 20000 10196 20182 48539 82031
                   333 58000 82360 81080=
201902220900 AAXX 22094 67665 42580 61212 10237 20189 48558 70222 86531
                   333 58001 86620 85359 91022=
201902220600 AAXX 22064 67665 42480 70909 10218 20188 48549 70322 84631
                   333 10278 20//0 59004 84712 87360=
201902220000 AAXX 22004 67665 42980 23303 10195 20172 48525 82030
                   333 58003 82360=
201902211800 AAXX 21184 67665 42980 31203 10230 20177 48527 82032
                   333 10291 59001 82360 81080=
201902211500 AAXX 21154 67665 42680 41308 10287 20156 48518 83230
                   333 59004 83848 81360
                   555 10291=
201902211200 AAXX 21124 67665 42680 51109 10277 20172 48538 85200
                   333 58004 85835=
201902210600 AAXX 21064 67665 32580 21006 10200 20168 48551 70300 81130
                   333 10279 20//0 58017 81820 82360=
201902202100 AAXX 20214 67665 42980 31404 10185 20169 48544 70200 83030
                   333 58017 83360=
201902201500 AAXX 20154 67665 42780 61208 10260 20169 48518 70322 85230
                   333 58013 85850 83360=
201902201200 AAXX 20124 67665 42680 50707 10263 20154 48530 70222 85200
                   333 58018 85840=
201902200900 AAXX 20094 67665 42580 61108 10236 20150 48546 86500
                   333 58012 86625=
201902200600 AAXX 20064 67665 32280 21007 10202 20169 48534 70200 81130
                   333 10206 20//0 58008 81360=
201902192100 AAXX 19214 67665 42980 60908 10183 20167 48528 70200 83030
                   333 58014 83360=
201902191800 AAXX 19184 67665 42780 41302 10203 20174 48511 70122 81930
                   333 58026 81957 84360=
201902191500 AAXX 19154 67665 42780 61212 10213 20166 48499 70222 81931
                   333 58022 81950 85850 83360 82080=
201902190900 AAXX 19094 67665 42680 60908 10230 20150 48533 70222 86500
                   333 58031 86630=
201902181200 AAXX 18124 67665 NIL=
201902180900 AAXX 18094 67665 NIL=
201902180600 AAXX 18064 67665 12480 72603 10212 20181 48525 69914 70222 84530
                   333 10312 20//0 58003 84610 86360=
201902171800 AAXX 17184 67665 42760 50502 10224 20203 48504 70222 81332
                   333 59011 81955 82359 84080 91016=
201902170600 AAXX 17064 67665 32480 60000 10236 20194 48526 81632
                   333 10322 20//0 59012 81710 84360 83080
                   555 00///=
201902170300 AAXX 17034 67665 42980 42003 10197 20190 48507 83032
                   333 59012 83360 81080=
201902170000 AAXX 17004 67665 42980 40000 10202 20187 48514 83032
                   333 59012 83360 81080=
201902162100 AAXX 16214 67665 42980 32403 10222 20197 48527 82032
                   333 59012 82360 83080=
201902160300 AAXX 16034 67665 42980 61902 10195 20184 48519 8603/
                   333 58001 86360=
201902152100 AAXX 15214 67665 42980 53504 10209 20187 48538 70122 84032
                   333 59017 84360 84080=
201902151800 AAXX 15184 67665 42780 62903 10227 20184 48525 82332
                   333 10291 59021 82950 85360 82080=
201902151200 AAXX 15124 67665 42680 63111 10276 20188 48535 85232
                   333 58010 85830 83360 83080=
201902150600 AAXX 15064 67665 11359 73402 10196 20180 48546 60144 75152 82672
                   333 10262 20//0 58012 82709 86459 84080=
201902150300 AAXX 15034 67665 42259 72001 10186 20177 48516 8367/
                   333 59002 83704 87459=
201902142100 AAXX 14214 67665 41/59 72710 10198 20185 48553 75199 8197/
                   333 58022 819// 87459=
201902141800 AAXX 14184 67665 41759 73310 10201 20178 48542 79599 8197/
                   333 58035 81956 86358=
201902141500 AAXX 14154 67665 42680 70412 10253 20187 48509 70322 84932
                   333 58022 819// 84845 84360 84280=
201902141200 AAXX 14124 67665 42680 73506 10289 20178 48526 70222 85232
                   333 58005 85835 82360 84280=
201902140900 AAXX 14094 67665 42580 63404 10269 20188 48545 83232
                   333 58000 83825 82360 85280=
201902132100 AAXX 13213 67665 42980 40103 10224 20195 48534 82032
                   333 58001 82360 83080=
201902131800 AAXX 13184 67665 42980 43504 10240 20191 48513 82032
                   333 58014 82360 83080=
201902131500 AAXX 13154 67665 42680 40404 10287 20146 48492 81102
                   333 58014 81840 84080=
201902131200 AAXX 13124 67665 42580 53110 10263 20165 48517 82132
                   333 58028 82825 83360 82080=
201902120900 AAXX 12094 67665 42580 53203 10264 20188 48512 70122 84530
                   333 59016 84620 81360=
201902111800 AAXX 11184 67665 42780 40000 10218 20188 48500 70222 81932
                   333 59008 81950 83360 83080 91016=
201902111200 AAXX 11124 67665 42660 60804 10299 20189 48505 70222 85231
                   333 59010 85840 82360 83080 91016=
201902110600 AAXX 11064 67665 12360 70402 10215 20201 48529 60024 83632
                   333 10277 20//0 58003 83706 8430/ 85280
                   555 00///=
201902110300 AAXX 11034 67665 42360 61502 10200 20194 48509
                   333 59002 81707 86360=
201902110000 AAXX 11004 67665 42360 72504 10202 20188 48510 8377/
                   333 59003 83705 87459=
201902102100 AAXX 10214 67665 41758 70203 10219 20205 48523 75822 8197/
                   333 58008 81950 87459=
201902100900 AAXX 10094 67665 42580 60710 10249 20190 48533 70222 86531
                   333 58002 86625 82360 81080 91019=
201902100600 AAXX 10064 67665 32380 70810 10214 20184 48525 70322 876//
                   333 10271 20//0 59003 87712=
201902100300 AAXX 10034 67665 42980 10904 10182 20174 48510 70200 81030
                   333 59001 81360=
201902091800 AAXX 09184 67665 41780 31303 10224 20196 48497 72582 82030
                   333 10271 58000 81950 82360=
201902091500 AAXX 09154 67665 42680 40909 10267 20178 48493 83230
                   333 59021 83840 82360
                   555 10271=
201902091200 AAXX 09124 67665 42560 70708 10240 20180 48511 875//
                   333 59005 87625=
201902090600 AAXX 09064 67665 32360 70907 10199 20184 48521 86630
                   333 10262 20//0 59010 86709 83360=
201902090300 AAXX 09034 67665 42980 01103 10175 20168 48510 70200
                   333 59002=
201902090000 AAXX 09004 67665 42980 11202 10182 20173 48507 70200 80001
                   333 59017 81080=
201902082100 AAXX 08214 67665 42960 11003 10191 20175 48522 70200 80001
                   333 59009 81080=
201902081800 AAXX 08184 67665 42960 21006 10210 20178 30100 48513 82031
                   333 58000 82360 81080=
201902081500 AAXX 08154 67665 42660 61012 10244 20194 30122 48499 84231
                   333 59004 84840 83360 81080=
201902081200 AAXX 08124 67665 42560 70910 10249 20189 70222 875//
                   333 58005 87630=
201902080900 AAXX 08094 67665 42560 70611 10243 20182 48536 875//
                   333 59001 87620=
201902071800 AAXX 07184 67665 42780 61403 10207 20184 48513 70222 81931
                   333 59001 81956 83360 84080=
201902071500 AAXX 07154 67665 41580 73305 10233 20188 48502 71722 81931
                   333 58009 81945 85845 82360 84080=
201902071200 AAXX 07124 67665 42580 70904 10274 20184 48515 85201
                   333 59001 85830 84080=
201902070900 AAXX 07094 67665 42480 60108 10244 20192 48537 70222 86100
                   333 58010 86820=
201902070600 AAXX 07064 67665 12380 71004 10204 20193 48529 69904 70222 876//
                   333 10251 58005 87709 91020=
201902060900 AAXX 06094 67665 42460 70806 10231 20194 48526 70222 8653/
                   333 58002 86610 86359=
201902050600 AAXX 05064 67665 12380 61207 10234 20191 48523 81632
                   333 10274 5//// 81705 83360 85280
                   555 00///=
201902050300 AAXX 05034 67665 42980 31702 10198 20184 48510 83030
                   333 59004 83360=
201902042100 AAXX 04214 67665 42980 51004 10222 20197 48523 85030
                   333 59006 85360=
201902040900 AAXX 04094 67665 42580 40710 10270 20180 48533 70210 84531
                   333 59010 84625 81360 82080 91019=
201902040600 AAXX 04064 67665 42380 21204 10221 20184 48527 70300 81131
                   333 59011 81810 82360 82080=
201902040300 AAXX 04034 67665 42980 00000 10176 20161 48512
                   333 59008=
201902032100 AAXX 03214 67665 42980 21402 10211 20181 48519 82032
                   333 59009 82360 81080=
201902031800 AAXX 03184 67665 42980 20703 10235 20176 48506 82032
                   333 10296 59015 82360 81080=
201902031500 AAXX 03154 67665 42680 41006 10282 20168 48501 84201
                   333 59007 81945 83850=
201902031200 AAXX 03124 67665 42680 50406 10274 20164 48522 85200
                   333 59005 85835=
201902030600 AAXX 03064 67665 32980 10803 10215 20185 48538 81030
                   333 10300 20//0 59013 81360=
201902030300 AAXX 03034 67665 42980 10000 10183 20169 48519 70200 81030
                   333 59012 81360=
201902030000 AAXX 03004 67665 42980 10000 10193 20174 48515 70100 81030
                   333 59009 81360=
201902022100 AAXX 02214 67665 42980 21901 10216 20176 48529 70200 82030
                   333 59009 82360=
201902021800 AAXX 02184 67665 42960 41103 10239 20174 48520 84030
                   333 59006 84360=
201902020900 AAXX 02094 67665 42580 50410 10267 20177 48552 85500
                   333 59004 85625=
201902011800 AAXX 01184 67665 42980 32601 10222 20174 48523 70100 83031
                   333 58001 83360 82080=
201902011500 AAXX 01154 67665 42580 62103 10250 20189 48509 70222 85201
                   333 58004 85845 83080=
201902011200 AAXX 01124 67665 42580 51305 10290 20160 48531 70222
                   333 59004 85830 82080=
201902010900 AAXX 01094 67665 42460 61005 10259 20185 48555 70322 85131
                   333 58000 85820 82360 84080=
201902010600 AAXX 01064 67665 12360 41802 10206 20197 48550 60024 70244 83672
                   333 58008 83706 84359 82080 91022=

################################################################################
#  SYNOPS from 67666, Lusaka City Airport (Zambia) | 15-25-00S | 028-28-00E | 1280 m
################################################################################
201903011200 AAXX 01124 67666 42680 61303 10290 20150 48517 82105
                   333 58007 82845 85080 91017=
201903010600 AAXX 01064 67666 32980 71204 10225 20171 48536 80008
                   333 10310 20194 58017 87280 91020=
201902280600 AAXX 28064 67666 NIL=
201902270600 AAXX 27064 67666 32980 10905 10249 20173 48524 80001
                   333 10310 20169 59001 81080 91019=
201902260600 AAXX 26064 67666 32980 31007 10230 20156 48528 81031
                   333 10305 20183 58009 81358 82078 91019=
201902251200 AAXX 25124 67666 42680 10908 10295 20136 48509 81100
                   333 59003 81840 91016=
201902250600 AAXX 25064 67666 32980 10000 10234 20166 48513 80001
                   333 10296 20160 58006 81080 91018=
201902210600 AAXX 21064 67666 32980 20908 10210 20163 48540 80001
                   333 10261 20162 58016 82080 91021=
201902200600 AAXX 20064 67666 32480 20910 10200 20152 48529 70300 81131
                   333 10264 20180 58008 81810 81360 81080 91020=
201902190900 AAXX 19094 67666 42480 51010 10238 20156 48526 85800
                   333 58003 82518 84820 91019=
201902181200 AAXX 18124 67666 NIL=
201902180900 AAXX 18094 67666 NIL=
201902180600 AAXX 18064 67666 32980 70000 10210 20179 48521 8707/
                   333 10298 20193 58003 87458 91019=
201902151200 AAXX 15124 67666 42580 62807 10265 20174 48526 84230
                   333 58012 84835 86360 91019=
201902150600 AAXX 15064 67666 11979 80807 10190 20175 48540 60194 75022 8807/
                   333 10286 20170 58012 88458 91021=
201902140600 AAXX 14064 67666 32980 50000 10233 20164 48484 82031
                   333 10284 20200 58000 82358 83080 91020=
201902130600 AAXX 13064 67666 12480 80908 10188 20176 48528 60494 885//
                   333 10300 20174 5//// 88612 91021=
201902120600 AAXX 12064 67666 32980 30905 10210 20197 48491 72844 83030
                   333 10289 20190 59016 83359=
201902110600 AAXX 11064 67666 12980 60000 10215 20206 48521 69914 86030
                   333 10255 20181 58003 86359=
201902080900 AAXX 08094 67666 42480 71008 10229 20182 48529 85836
                   333 59001 83616 84820 84359 85280 91019=
201902080600 AAXX 08064 67666 31380 70810 10210 20195 48520 60034 876//
                   333 10280 20200 59005 87706=
201902070600 AAXX 07064 67666 12480 80907 10195 20173 60394 68519 886//
                   333 10//0 20179 58005 88708 91019=
201902050900 AAXX 05094 67666 42580 70912 10252 20187 48521 84238
                   333 59004 84825 83360 86820 91018=
201902050600 AAXX 05064 67666 32980 51608 10223 20189 48518 82086
                   333 10284 20194 59004 82360 85280=
201902041200 AAXX 04124 67666 42680 61007 10274 20171 81306
                   333 59009 81840 84840 85280 91016=
201902040600 AAXX 04064 67666 32980 51205 10226 20181 48523 81036
                   333 10288 20169 59008 81360 86280=
201902010600 AAXX 01064 67666 32980 23605 10227 20184 48541 81031
                   333 10274 20173 58006 81358 81080 91021=

################################################################################
#  SYNOPS from 67667, Mount Makulu (Zambia) | 15-33S | 028-15E | 1213 m
################################################################################
201903010600 AAXX 01064 67667 32980 70902 10235 20184 48576 80008
                   333 10338 20189 58023 87280=
201902281200 AAXX 28124 67667 42680 41801 10313 20150 48536 84200
                   333 58000 84836=
201902280600 AAXX 28064 67667 32980 01801 10250 20192 48554
                   333 10354 20172 59008=
201902270600 AAXX 27064 67667 32980 10701 10258 20191 48586 80001
                   333 10336 20//0 58003=
201902260600 AAXX 26064 67667 32980 10704 10242 20182 48583 80001
                   333 10334 20198 58006 81080=
201902220600 AAXX 22064 67667 32580 60905 10214 20198 48597 84502
                   333 10300 20152 59001=
201902211200 AAXX 21124 67667 42680 50902 10282 20191 48556 85202
                   333 58003 85830 82080=
201902210600 AAXX 21064 67667 32680 30902 10220 20178 48580 81102
                   333 10296 20153 58022 81830 83080=
201902200600 AAXX 20064 67667 32980 20901 10206 20182 48580 82030
                   333 10294 20162 58002 82360=
201902181200 AAXX 18124 67667 NIL=
201902180900 AAXX 18094 67667 NIL=
201902180600 AAXX 18064 67667 12580 71901 10202 20202 48577 60044 87500
                   333 10312 20198 58017 87625=
201902151200 AAXX 15124 67667 42680 62704 10276 20192 48544 86202
                   333 58002 86830 84080=
201902141200 AAXX 14124 67667 41680 72803 10281 20200 48542 71522 86208
                   333 59004 86835 87280=
201902140600 AAXX 14064 67667 32980 63601 10230 20188 48562 80002
                   333 10301 20190 59002 86080=
201902130600 AAXX 13064 67667 12580 82601 10192 20191 48579 60474 885//
                   333 10320 20174 59026 88625=
201902120600 AAXX 12064 67667 32980 10801 10234 20202 48553 80001
                   333 10324 20188 59026 81080=
201902110600 AAXX 11064 67667 32580 70802 10224 20208 48579 87500
                   333 10292 20190 59024 87625=
201902081200 AAXX 08124 67667 41680 60902 10249 20191 48539 71522 86202
                   333 5//// 86830 83080=
201902080900 AAXX 08094 67667 42580 81202 10238 20190 48558 885//
                   333 59002 88628=
201902080600 AAXX 08064 67667 32580 70903 10204 20187 48557 83508
                   333 10302 20197 59002 83625 87280=
201902070900 AAXX 07094 67667 42680 63604 10258 20199 48560 86202
                   333 58001 86830 83080=
201902070600 AAXX 07064 67667 12580 80901 10202 20192 48559 60054 885//
                   333 10264 20173 59006 88625=
201902060600 AAXX 06064 67667 31580 81801 10206 20199 48575 85608
                   333 10306 20196 58001 85625 87280=
201902050600 AAXX 05064 67667 32580 71801 10222 20207 48574 87500
                   333 10312 20184 58002 87625=
201902010600 AAXX 01064 67667 32980 33401 10250 20182 48578 80001
                   333 10299 20179 58008 83080=

################################################################################
#  SYNOPS from 67673, Petauke (Zambia) | 14-15S | 031-17E | 1035 m
################################################################################
201903010600 AAXX 01064 67673 32980 51202 10235 20200 48549 80008
                   333 10324 20190 59003 85280=
201902280600 AAXX 28064 67673 31959 50000 10256 20193 48553 70522 83031
                   333 10322 20200 58020 83360 83080=
201902270600 AAXX 27064 67673 32984 43601 10260 20187 48543 82031
                   333 10325 20186 58017 82360 84080=
201902200600 AAXX 20064 67673 32570 83203 10206 20195 48/// 8587/
                   333 10250 20192 58012 82827 83628 87459=
201902181200 AAXX 18124 67673 NIL=
201902180900 AAXX 18094 67673 42684 61803 10268 20193 48533 86231
                   333 59028 86832 84360 83080=
201902180600 AAXX 18064 67673 12584 70000 10230 20185 48529 69904 8313/
                   333 10345 20184 59015 83828 87360=
201902150900 AAXX 15094 67673 32684 50102 10280 20210 48554 84232
                   333 59008 84832 83360 85080=
201902130600 AAXX 13064 67673 32680 70000 10234 20208 48522 83137
                   333 10286 20200 58002 83830 82360 87280=
201902121200 AAXX 12124 67673 42684 10202 10256 20200 48496 84201
                   333 59074 84832 82080=
201902120600 AAXX 12064 67673 12580 83601 10200 20196 48515 69914 885//
                   333 10274 20188 59002 88625=
201902110600 AAXX 11064 67673 12580 80000 10200 20193 48517 60354 8357/
                   333 10290 20182 59009 83620 88460=
201902080600 AAXX 08064 67673 12580 71202 10210 20198 48519 60084 8557/
                   333 10294 20190 59002 85625 83460=
201902070600 AAXX 07064 67673 12970 10206 10202 48521 60284 8807/
                   333 10294 20194 59002 88459=
201902061200 AAXX 06124 67673 42684 52701 10266 20198 48514 85131
                   333 58021 85832 83360 82080=
201902010600 AAXX 01064 67673 12980 73501 10226 20201 60154 83035
                   333 10288 20183 59014 83360 85280=

################################################################################
#  SYNOPS from 67731, Senanga (Zambia) | 16-06S | 023-16E | 1027 m
################################################################################
201903010600 AAXX 01064 67731 12980 407// 10231 20184 48/// 60024 80008
                   333 10365 20184 58013 84280
                   555 00084=
201902280600 AAXX 28064 67731 12980 718// 10240 20197 48/// 60034 87030
                   333 10366 20196 59007 87360
                   555 00162=
201902270600 AAXX 27064 67731 32980 018// 10274 20190 48///
                   333 10343 20194 58009
                   555 00154=
201902250600 AAXX 25064 67731 32980 421// 10240 20177 48/// 80008
                   333 10341 20206 59014 84280
                   555 00109=
201902220600 AAXX 22064 67731 12980 027// 10239 20169 48/// 60014
                   333 10332 20201 59001
                   555 00121=
201902210600 AAXX 21064 67731 32480 429// 10231 20134 48/// 83530
                   333 10319 20181 58013 83617 83360
                   555 00097=
201902200600 AAXX 20064 67731 32980 010// 10238 20148 48///
                   333 10312 20176 58008
                   555 00134=
201902181200 AAXX 18124 67731 NIL=
201902180900 AAXX 18094 67731 42480 617// 10281 20173 48/// 70322 84132
                   333 58012 84824 84362 82080=
201902180600 AAXX 18064 67731 32980 514// 10233 20164 48/// 84032
                   333 10327 20199 59028 84360 85080
                   555 00121=
201902150600 AAXX 15064 67731 11570 819// 10282 20177 48/// 60424 76169 86589
                   333 10316 20176 58030 86621 87360 88180=
201902140600 AAXX 14064 67731 12480 809// 10223 20180 48/// 60044 83578
                   333 10304 20166 58012 83614 86360 88280
                   555 00079=
201902120600 AAXX 12064 67731 12580 825// 10249 20213 48/// 69954 70322 83280
                   333 10340 20211 59021 83825 88360=
201902110600 AAXX 11064 67731 12980 718// 10234 20210 48/// 60024 70122 86037
                   333 10329 20200 58003 86360 84280=
201902080900 AAXX 08094 67731 42580 531// 10287 20182 48/// 84202
                   333 58001 84825 85080=
201902080600 AAXX 08064 67731 12980 613// 10231 20172 48/// 69904 70222 85038
                   333 10310 20191 59007 85360 86280=
201902060600 AAXX 06064 67731 12980 103// 10239 20193 48/// 60114 70122 81050
                   333 10307 20192 58013 81362=
201902051200 AAXX 05124 67731 42480 533// 10254 20206 48/// 70266 83102
                   333 58019 83820 84080=
201902050600 AAXX 05064 67731 12480 704// 10229 20185 48/// 60024 70222 83578
                   333 10326 20179 59002 83614 85360 87280=
201902010600 AAXX 01064 67731 12980 833// 10225 20189 48/// 60044 85038
                   333 10329 20211 59001 85360=

################################################################################
#  SYNOPS from 67741, Sesheke (Zambia) | 17-28S | 024-18E | 949 m
################################################################################
201903010600 AAXX 01064 67741 32980 10000 10241 20184 48533 81030
                   333 10353 20175 58016 81362=
201902281200 AAXX 28124 67741 42680 40901 10306 20195 48517 81130
                   333 58012 81850 84362=
201902280900 AAXX 28094 67741 42980 10901 10303 20184 48535 81030
                   333 59004 81362=
201902280600 AAXX 28064 67741 32980 60000 10238 20192 48523 86030
                   333 10366 20199 59004 86362=
201902270600 AAXX 27064 67741 32980 10000 10251 20191 48525 81030
                   333 10348 20182 58011 81362=
201902260600 AAXX 26064 67741 32980 13101 10262 20187 48517 80001
                   333 10356 20203 59005 81080=
201902251200 AAXX 25124 67741 42680 10000 10344 20173 48513 81130
                   333 5//// 81850=
201902201200 AAXX 20124 67741 42680 40901 10293 20156 48533 84100
                   333 58011 84850=
201902200600 AAXX 20064 67741 32980 00000 10198 20157 48527
                   333 10300 20121 58004=
201902191200 AAXX 19124 67741 42580 61305 10270 20175 48494 86201
                   333 58011 86836 81080 91014=
201902181200 AAXX 18124 67741 42680 31202 10292 20210 48513 83130
                   333 5//// 83850 81362=
201902180900 AAXX 18094 67741 42680 50000 10240 20172 48554 85130
                   333 5//// 85840 83360=
201902180600 AAXX 18064 67741 32980 60000 10225 20208 48519 86030
                   333 10326 20186 58000 86362=
201902151200 AAXX 15124 67741 41675 83002 10215 20206 48518 76066 8357/
                   333 58016 83640 88460=
201902150900 AAXX 15094 67741 41670 82804 10205 20193 48528 76366 8357/
                   333 58010 83640 88460=
201902150600 AAXX 15064 67741 11980 82707 10199 20195 48516 60364 72166 8807/
                   333 10244 20195 58001 88460=
201902141200 AAXX 14124 67741 41675 70000 10219 20212 48500 76026 875//
                   333 58015 87625=
201902140900 AAXX 14094 67741 41670 70000 10197 20194 48516 76362 875//
                   333 58015 87625=
201902140600 AAXX 14064 67741 12680 70601 10211 20198 48517 60094 875//
                   333 10260 20193 58017 87630=
201902130900 AAXX 13094 67741 42680 73603 10238 20207 48505 875//
                   333 58080 87650=
201902130600 AAXX 13064 67741 12980 70402 10211 20197 48498 60434 8707/
                   333 10274 20188 58011 87460=
201902121200 AAXX 12124 67741 41680 70000 10199 20197 48469 72196 8197/
                   333 59005 81950 87460=
201902120600 AAXX 12064 67741 11980 70000 10222 20216 48491 60034 72162 8707/
                   333 10264 20214 59022 87362=
201902110600 AAXX 11064 67741 32680 70000 10228 20213 48512 81130
                   333 10//0 20//0 5//// 81840 87362=
201902051200 AAXX 05124 67741 42680 61202 10320 20186 48509 82230
                   333 58003 82850 84360=
201902050900 AAXX 05094 67741 42980 60901 10262 20193 48527 86030
                   333 58009 86362=
201902050600 AAXX 05064 67741 32980 50000 10219 20194 48519 85070
                   333 10362 20193 58002 85362=
201902041200 AAXX 04124 67741 42680 51202 10350 20168 85200
                   333 5//// 85850=
201902040600 AAXX 04064 67741 32980 10000 10254 20197 48516 81031
                   333 10349 20188 59001 81362 81080=
201902010900 AAXX 01094 67741 42680 13602 10318 20186 48549 81100
                   333 58009 81850=
201902010600 AAXX 01064 67741 12980 33601 10256 20196 48546 69904 83030
                   333 10338 20187 58015 83362=

################################################################################
#  SYNOPS from 67743, Livingstone (Zambia) | 17-49S | 025-49E | 985 m
################################################################################
201902280600 AAXX 28064 67743 32980 71303 10219 20144 48518 70222 87070
                   333 10376 20110 59000 87359 91017=
201902270600 AAXX 27064 67743 12780 20504 10247 20173 48519 69914 70200 82030
                   333 10355 20097 58006 82357 91017=
201902250600 AAXX 25064 67743 32980 03002 10237 20139 48516
                   333 10350 20//0 59006 91017=
201902220600 AAXX 22064 67743 32980 01108 10223 20152 48543 70200
                   333 10328 20161 59002 91020=
201902210600 AAXX 21064 67743 32980 01704 10217 20160 48534
                   333 10305 20148 59011 91021=
201902181200 AAXX 18124 67743 NIL=
201902180900 AAXX 18094 67743 NIL=
201902180600 AAXX 18064 67743 32480 81211 10198 20180 48512 887//
                   333 10305 20188 58016 88620 91018=
201902130600 AAXX 13064 67743 12480 70705 10207 20187 48501 60174 70222 81630
                   333 10314 20190 58015 81710 87360 91016=

################################################################################
#  SYNOPS from 67751, Magoye (Zambia) | 16-00S | 027-36E | 1018 m
################################################################################
201902280600 AAXX 28064 67751 32980 00000 10265 20173 48///
                   333 10346 20114 58005=
201902270600 AAXX 27064 67751 32980 00000 10263 20183 48///
                   333 10334 20120 59005=
201902250600 AAXX 25064 67751 32980 00000 10238 20180 48///
                   333 10324 20110 58008=
201902220600 AAXX 22064 67751 32480 30803 10241 20194 48/// 83100
                   333 10306 20128 59006 83818=
201902200600 AAXX 20064 67751 32980 20402 10230 20168 82070
                   333 10288 20100 59010 82360=
201902181200 AAXX 18124 67751 NIL=
201902180900 AAXX 18094 67751 NIL=
201902180600 AAXX 18064 67751 32980 70222 10230 20202 48/// 8701/
                   333 10316 20110 59009 87460=
201902151200 AAXX 15124 67751 42682 73005 10275 20163 48/// 83208
                   333 5//// 81940 83840 87280=
201902150600 AAXX 15064 67751 12480 60102 10200 20188 60214 82530
                   333 10297 20177 59015 82609 86360=
201902140600 AAXX 14064 67751 32980 60000 10266 20202 86038
                   333 10315 20200 59003 86360=
201902130600 AAXX 13064 67751 12980 82803 10205 20190 60114 8807/
                   333 10320 20187 59031 88360=
201902120600 AAXX 12064 67751 12980 13602 10237 20213 60014
                   333 10328 20198 58027 81360 81080=
201902110600 AAXX 11064 67751 32980 72803 10224 20205 87070
                   333 10308 20197 58001 8736/=
201902070600 AAXX 07064 67751 32980 70404 10218 20202 70222 8701/
                   333 10298 20110 59007 88460=
201902060600 AAXX 06064 67751 11980 80402 10217 20198 60014 75655 8801/
                   333 10300 20112 59001 88460=
201902010600 AAXX 01064 67751 32980 10402 10249 20200 80001
                   333 10312 20185 59007 81080=

################################################################################
#  SYNOPS from 67753, Choma (Zambia) | 16-50S | 027-04E | 1213 m
################################################################################
201903010600 AAXX 01064 67753 31980 32603 10250 20168 48533 70500 80001
                   333 10332 20164 58017 83080=
201902280600 AAXX 28064 67753 31980 10101 10244 20169 48523 70500 81030
                   333 10336 20165 59008 81360=
201902270600 AAXX 27064 67753 31980 00000 10215 20179 48531 70500
                   333 10320 20160 58005=
201902260600 AAXX 26064 67753 31980 13509 10239 20166 48523 70500 81030
                   333 10324 20180 58005 81360=
201902250600 AAXX 25064 67753 32980 00000 10239 20163 48523
                   333 10310 20164 59003=
201902200600 AAXX 20064 67753 32380 70000 10169 20163 48/// 87600
                   333 10262 20128 5//// 87705=
201902181200 AAXX 18124 67753 NIL=
201902180900 AAXX 18094 67753 NIL=
201902180600 AAXX 18064 67753 32580 83203 10199 20186 48/// 82507
                   333 10310 20180 5//// 82620 88280=
201902150600 AAXX 15064 67753 12380 70908 10195 20181 48/// 60044 81630
                   333 10275 20172 5//// 81706 87360=
201902140600 AAXX 14064 67753 11280 81001 10195 20190 48/// 60124 75052 886//
                   333 10274 20182 5//// 88704=
201902130600 AAXX 13064 67753 12980 71701 10195 20187 48/// 60074 87030
                   333 10292 20180 5//// 87360=
201902110600 AAXX 11064 67753 31380 81703 10215 20200 48/// 886//
                   333 5//// 88704=
201902080600 AAXX 08064 67753 32580 80306 10205 20186 48521 83507
                   333 10277 20192 58001 83620 88280=
201902070600 AAXX 07064 67753 12580 80803 10205 20192 48521 60034 82507
                   333 10274 20189 5//// 82618 88280=
201902060600 AAXX 06064 67753 11270 82802 10201 20190 48/// 60014 75052 88///
                   333 10274 20174 5//// 88703=
201902050600 AAXX 05064 67753 12480 62904 10195 20188 48510 60074 86600
                   333 10296 20170 59001 86710=
201902040600 AAXX 04064 67753 11980 21806 10221 20191 48512 60034 70300 82030
                   333 10296 20170 59014 82360=

################################################################################
#  SYNOPS from 67855, Lupaki (Zambia) | 17-03-00S | 024-46-00E | 1000 m
################################################################################
201902281200 AAXX 28124 67855 41870 50901 10366 20145 3//// 48/// 70511 85100
                   333 5//// 85858=
201902270600 AAXX 27064 67855 31970 50301 10204 20184 3//// 48/// 70522 85070
                   333 20156 5//// 85459=
201902240600 AAXX 24064 67855 31970 00000 10212 20170 3//// 48/// 70500
                   333 20145 5////=
201902230600 AAXX 23064 67855 31970 10608 10202 20153 3//// 48/// 70500 81030
                   333 20138 5//// 81360=
201902221200 AAXX 22124 67855 42875 10303 10320 20133 3//// 48/// 81100
                   333 5//// 81857=
201902220600 AAXX 22064 67855 31970 01601 10196 20155 3//// 48/// 70500
                   333 20140 5////=
201902200600 AAXX 20064 67855 31970 00604 10196 20145 3//// 48/// 70500
                   333 20140=
201902181200 AAXX 18124 67855 42675 51405 10280 20153 3//// 48/// 85208
                   333 5//// 85845=
201902180600 AAXX 18064 67855 12975 51401 10186 20179 3//// 48/// 60054 80008
                   333 20163 5//// 85280=
201902171200 AAXX 17124 67855 41670 20128 3//// 48/// 79598 85233
                   333 5//// 81940 84845=
