################################################################################
# Query made at 04/15/2022 01:55:04 UTC
# Country like Zamb*
# Time interval: from 09/01/2010 05:30  to 10/01/2010 06:30  UTC
################################################################################

################################################################################
#  SYNOPS from 67441, Mwinilunga (Zambia) | 11-45S | 024-26E | 1361 m
################################################################################
201010010600 AAXX 01064 67441 31965 000// 10190 20091 48547 70500
                   333 20//0 59012=
201009300600 AAXX 30064 67441 31960 001// 10205 20100 48559 70500
                   333 10310 20//0 58007=
201009270600 AAXX 27064 67441 31960 00000 10176 20095 48555 70500
                   333 10330 20//0 59005=
201009250600 AAXX 25064 67441 11965 500// 10205 20183 48540 60084 70522
                   333 10315 20/// 59008 85360=
201009230600 AAXX 23064 67441 11960 200// 10195 20081 48540 69904 70500
                   333 10320 20/// 58002=
201009200600 AAXX 20064 67441 31960 000// 10135 20089 48531 70500
                   333 10315 20//0 58016=
201009170600 AAXX 17064 67441 31960 10/// 10177 20132 48562 70500 81030
                   333 10330 20/// 58009 81360=
201009161200 AAXX 16124 67441 31960 100// 10170 20109 48553 70500 81030
                   333 10330 20/// 58004 81360=
201009150600 AAXX 15064 67441 31965 000// 10179 20079 48549 70500
                   333 10315 20//0 59003=
201009140600 AAXX 14064 67441 31975 006// 10210 20085 48552 70500
                   333 10320 20104 59020=
201009100600 AAXX 10064 67441 31965 100// 10155 20101 48546 70500 81030
                   333 10300 20/// 59015 81360=
201009090600 AAXX 09064 67441 31960 100// 10155 20080 48561 70512 81030
                   333 10325 20//0 59001 81360=
201009040600 AAXX 04064 67441 NIL=
201009030600 AAXX 03064 67441 31965 600// 10185 20096 48555 70522 86030
                   333 10315 20//0 59006 86360=
201009020600 AAXX 02064 67441 31970 600// 10150 20105 48561 70522 86030
                   333 10305 20/// 58003 86360=
201009010600 AAXX 01064 67441 31965 10150 20085 48559 70500
                   333 10302 20/// 58005=

################################################################################
#  SYNOPS from 67461, Mansa (Zambia) | 11-06S | 028-51E | 1382 m
################################################################################
201010010600 AAXX 01064 67461 31965 00906 10216 20102 48582 70500=
201009300600 AAXX 30064 67461 31965 00906 10200 20094 48506 70500
                   333 10338 20135 58002
                   555 00///=
201009270900 AAXX 27094 67461 41970 00905 10298 20083 48541 70500
                   333 58004=
201009250600 AAXX 25064 67461 31965 11202=
201009230600 AAXX 23064 67461 31975 01205 10215 20102 48510 70500
                   333 10350 20146 59008=
201009220600 AAXX 22064 67461 31965 00000 10220 20120 48519 70500
                   333 10337 20142 58014=
201009170600 AAXX 17064 67461 31970 01201 10210 20106 48526 70500
                   333 10332 20143 58003=
201009161200 AAXX 16124 67461 31975 01105 10210 20111 48526 70500
                   333 10315 20138 58002=
201009141200 AAXX 14124 67461 41975 00902 10275 20085 48508 70500
                   333 59018=
201009140600 AAXX 14064 67461 31975 01209 10178 20090 48525 70500
                   333 10286 20115 59025=
201009100900 AAXX 10094 67461 41965 00804 10277 20064 48518 70500
                   333 59020=
201009100600 AAXX 10064 67461 31965 21204 10176 20095 48518 70500 80001
                   333 10316 20120 58016 82080=
201009090900 AAXX 09094 67461 41965 11207 10269 20066 48538 70500 80001
                   333 59006 81080=
201009090600 AAXX 09064 67461 31965 20908 10195 20070 48535 70500 80001
                   333 10308 20127 59008 82080=
201009080900 AAXX 08094 67461 41970 31312 10266 20070 48545 70500 80002
                   333 59010 83088 91021=
201009080600 AAXX 08064 67461 31975 31107 10185 20075 48538 70500 80002
                   333 10315 20125 58002 83080 91021=
201009070600 AAXX 07064 67461 31906 01210 10211 20090 48546 70500
                   333 10312 20125 58008=
201009060600 AAXX 06064 67461 31965 00905 10200 20104 48538 70500
                   333 10319 20152 58010=
201009040600 AAXX 04064 67461 NIL=
201009020600 AAXX 02064 67461 31965 20906 10176 20119 48536 70500 82030
                   333 10294 20115 59001 82364=
201009010600 AAXX 01064 67461 31965 31306 10186 20097 48548 70500 83030
                   333 10285 20143 58004 83363=

################################################################################
#  SYNOPS from 67475, Kasama (Zambia) | 10-13S | 031-08E | 1382 m
################################################################################
201009300900 AAXX 30094 67475 41770 41110 10258 20188 48535 70500 84100
                   333 58004 84857=
201009250600 AAXX 25064 67475 31970 00606 10238 20091 48/// 70500
                   333 10340 20166 5////=
201009240900 AAXX 24094 67475 41868 10914 10254 20064 48546 70500 81100
                   333 58023 81857 91022=
201009231200 AAXX 23124 67475 41970 01108 10300 20062 48497 70500
                   333 58013=
201009230600 AAXX 23064 67475 31970 00406 10215 20102 48528 70500
                   333 10332 20152 58005=
201009220600 AAXX 22064 67475 31965 00205 10207 20098 48521 70500
                   333 10320 20152 58007=
201009200900 AAXX 20094 67475 41970 00809 10270 20081 48511 70500
                   333 59010=
201009200600 AAXX 20064 67475 31970 00307 10200 20093 48517 70500
                   333 10310 20140 59004=
201009161200 AAXX 16124 67475 31970 00103 10204 20122 48535 70500
                   333 10308 20132 59005=
201009141200 AAXX 14124 67475 41870 21603 10251 20075 48503 70500 82100
                   333 59017 82857=
201009140900 AAXX 14094 67475 41770 10906 10248 20072 48543 70500 81100
                   333 59015=
201009140600 AAXX 14064 67475 31970 00902 10196 20095 48541 70500
                   333 10285 20128 59012=
201009040600 AAXX 04064 67475 NIL=
201009020600 AAXX 02064 67475 NIL=
201009010600 AAXX 01064 67475 31970 71008 10182 20098 48545 70522 8707/
                   333 10270 20146 58007 87360=

################################################################################
#  SYNOPS from 67476, Misamfu (Zambia) | 10-06S | 031-15E | 1536 m
################################################################################
201009240900 AAXX 24094 67476 41660 10928 10290 20070 48584 70500 81100
                   333 58023 81835=
201009200600 AAXX 20064 67476 31970 01306 10200 20104 48/// 70500
                   333 10314 20118 59009=

################################################################################
#  SYNOPS from 67477, Mpika (Zambia) | 11-54S | 031-26E | 1400 m
################################################################################
201009270900 AAXX 27094 67477 41965 00908 10280 20051 48540 70500
                   333 5////=
201009231200 AAXX 23124 67477 41960 01208 10290 20000 48505 70500
                   333 58019=
201009230600 AAXX 23064 67477 31965 01007 10215 20076 48527 70500
                   333 10305 20147 58009=
201009220600 AAXX 22064 67477 31970 00908 10224 20083 48516 70500
                   333 10300 20164 58004=
201009170600 AAXX 17064 67477 31975 01005 10220 20100 48553 70500
                   333 10300 20143 58016=
201009161200 AAXX 16124 67477 31970 01207 10220 20098 48537 70500
                   333 10294 20149 59003=
201009140900 AAXX 14094 67477 41765 10709 10221 20075 48538 70500 81100
                   333 50011=
201009080900 AAXX 08094 67477 41956 10607 10233 20082 48551 70500 80001
                   333 58005 81080=
201009080600 AAXX 08064 67477 31956 01206 10178 20080 48554 70500
                   333 10283 20105 58002
                   555 00061=
201009070600 AAXX 07064 67477 31960 01106 10205 20076 48553 70500
                   333 10284 20126 58006=
201009040600 AAXX 04064 67477 31976 00906 10215 20128 48534 70500
                   333 10281 20134 59004=
201009020600 AAXX 02064 67477 32980 01012 10205 20103 48545
                   333 10264 20151 59010=
201009010600 AAXX 01064 67477 31575 11107 10189 20102 48554 70500 81500
                   333 10254 20104 58004 81625=

################################################################################
#  SYNOPS from 67481, Isoka (Zambia) | 10-07S | 032-38E | 1360 m
################################################################################
201009070600 AAXX 07064 67481 31975 01212 10226 20125 48/// 70500
                   333 10300 20125 58006=

################################################################################
#  SYNOPS from 67531, Zambezi (Zambia) | 13-32S | 023-07E | 1077 m
################################################################################
201009300900 AAXX 30094 67531 41975 01507 10282 20113 48/// 70500
                   333 5////=
201009300600 AAXX 30064 67531 31975 01210 10206 20106 48/// 58006=
201009281200 AAXX 28124 67531 41975 01307 10250 20022 48/// 70500
                   333 59010=
201009270900 AAXX 27094 67531 41960 00906 10323 20078 48/// 70500
                   333 5////=
201009270600 AAXX 27064 67531 31970 00000 10233 20173 48/// 70500
                   333 10353 20134 59009=
201009250600 AAXX 25064 67531 31978 03405 10230 20164 48/// 70500
                   333 10340 20180 59011=
201009240900 AAXX 24094 67531 41960 00912 10300 20053 48/// 70500
                   333 5////=
201009230600 AAXX 23064 67531 31960 20904 10240 20092 48/// 70500 82030
                   333 10355 20166 59001 82362=
201009220600 AAXX 22064 67531 31975 20801 10220 20164 48/// 70500 80002
                   333 10306 20175 58020 82082=
201009210900 AAXX 21094 67531 41960 03604 10305 20144 48/// 70500
                   333 59004=
201009200900 AAXX 20094 67531 41960 00906 10310 20063 48/// 70500
                   333 5////=
201009170600 AAXX 17064 67531 31950 01105 10241 20135 48/// 70500
                   333 10347 20192 58024=
201009161200 AAXX 16124 67531 31950 10000 10219 20100 48/// 70500 81030
                   333 10340 20145 59011 81361=
201009160600 AAXX 16064 67531 31950 10000 10219 20100 48/// 70500 81030
                   333 10340 20145 59011 81361=
201009150900 AAXX 15094 67531 41960 01007 10290 20064 48/// 70500
                   333 5////=
201009150600 AAXX 15064 67531 31960 01206 10195 20074 48/// 70500
                   333 10322 20097 59012=
201009140600 AAXX 14064 67531 31975 01206 10191 20066 48/// 70500
                   333 10320 20104 59022=
201009100900 AAXX 10094 67531 41960 02805 10271 20129 48/// 70500
                   333 59020=
201009100600 AAXX 10064 67531 31930 01205 10165 20070 48/// 70500
                   333 10340 20090 59017=
201009090900 AAXX 09094 67531 41965 00910 10290 20063 48/// 70500
                   333 59005=
201009080900 AAXX 08094 67531 41970 01010 10291 20041 48/// 70500
                   333 59001=
201009071200 AAXX 07124 67531 41975 00000 10330 20056 48/// 70500
                   333 59006=
201009040600 AAXX 04064 67531 NIL=
201009020600 AAXX 02064 67531 31970 01201 10186 20106 48/// 70500
                   333 10312 20112 58008=
201009011200 AAXX 01124 67531 41875 11202 10304 20069 48/// 70500 81100
                   333 5//// 81858=
201009010600 AAXX 01064 67531 31975 01212 10195 20065 48/// 70500
                   333 10312 20134 58001=

################################################################################
#  SYNOPS from 67541, Kasempa (Zambia) | 13-32S | 025-51E | 1234 m
################################################################################
201009230600 AAXX 23064 67541 NIL=
201009220600 AAXX 22064 67541 NIL=
201009161200 AAXX 16124 67541 NIL=
201009040600 AAXX 04064 67541 NIL=
201009020600 AAXX 02064 67541 NIL=
201009010600 AAXX 01064 67541 NIL=

################################################################################
#  SYNOPS from 67561, Ndola (Zambia) | 13-00S | 028-39E | 1269 m
################################################################################
201009270600 AAXX 27064 67561 31958 00605 10215 20093 48541 70400
                   333 10324 20134 59002=
201009250600 AAXX 25064 67561 31960 01005 10216 20093 48548 70500
                   333 10308 20137 58000
                   555 00///=
201009231200 AAXX 23124 67561 41960 00000 10324 20005 48499 70500
                   333 58004=
201009230600 AAXX 23064 67561 31059 00405 10204 20076 48522 70400
                   333 10331 20142 58002=
201009220600 AAXX 22064 67561 31960 00402 10196 20064 48519 70500
                   333 10335 20131 58007=
201009200900 AAXX 20094 67561 41960 00506 10275 20058 48/// 70500
                   333 59019=
201009200600 AAXX 20064 67561 31958 00705 10189 20072 48511 70400
                   333 10312 20115 59013=
201009180600 AAXX 18064 67561 31958 09010 10203 20072 48553 70400
                   333 10//0 20//0 58008=
201009170600 AAXX 17064 67561 31960 00503 10206 20091 48546 70500
                   333 10340 20149 58011=
201009161200 AAXX 16124 67561 31960 00000 10210 20087 48535 70500
                   333 10313 20137 59008=
201009140900 AAXX 14094 67561 41960 01008 10256 20064 48544 70500
                   333 59018=
201009140600 AAXX 14064 67561 31960 01010 10195 20074 48545 70500
                   333 10290 20114 59015=
201009100600 AAXX 10064 67561 31956 10000 10175 20074 48518 70400 81030
                   333 10315 20123 59023 81360=
201009051200 AAXX 05124 67561 41860 41309 10305 20082 48518 70500 84200
                   333 58008 84856=
201009040600 AAXX 04064 67561 31960 51008 10218 20113 48536 70511 85030
                   333 10316 20135 59006 85360=
201009030600 AAXX 03064 67561 31970 00805 10204 20112 48540 70500
                   333 10303 20146 59012 91021=
201009020600 AAXX 02064 67561 31960 00902 10189 20115 48550 70500
                   333 10300 20129 58000=
201009011200 AAXX 01124 67561 42780 21208 10286 20065 48518 82200
                   333 59003 82856=
201009010600 AAXX 01064 67561 31960 51015 10205 20092 48552 70511 85030
                   333 10277 20150 58007 85360=

################################################################################
#  SYNOPS from 67571, Serenje (Zambia) | 13-14S | 030-13E | 1384 m
################################################################################
201009240900 AAXX 24094 67571 41570 10912 10257 20075 48553 70500 81100
                   333 58022 81825=

################################################################################
#  SYNOPS from 67580, Msekera (Zambia) | 13-39S | 032-34E | 1025 m
################################################################################
201010010600 AAXX 01064 67580 31975 10908 10247 20125 48/// 70500 81030
                   333 10301 20157 59015 81360=
201009300900 AAXX 30094 67580 41675 60907 10250 20146 48/// 70510 86200
                   333 58000 86845=
201009300600 AAXX 30064 67580 41475 31508 20135 48/// 70500 81132
                   333 10304 20162 59008 81818 82360=
201009281200 AAXX 28124 67580 41870 21210 10318 20081 48/// 70500 82100
                   333 58015 82857=
201009270900 AAXX 27094 67580 41970 03603 10304 20091 48/// 70500
                   333 5////=
201009250600 AAXX 25064 67580 31975 00907 10292 20100 48/// 70500
                   333 10364 20196 59005=
201009240900 AAXX 24094 67580 41775 51206 10282 20107 48/// 70511 85200
                   333 58015 85850=
201009221200 AAXX 22124 67580 41965 02405 10327 20056 48/// 70500
                   333 58003=
201009200900 AAXX 20094 67580 41970 00606 10304 20094 48/// 70500
                   333 5////=
201009200600 AAXX 20064 67580 31970 11205 10252 20095 48/// 70500 80001
                   333 10317 20163 59009 81080=
201009161200 AAXX 16124 67580 41975 01506 10327 20086 48/// 70500
                   333 59011=
201009150900 AAXX 15094 67580 41760 10906 10292 20098 48/// 70500 81100
                   333 59009 81850=
201009150600 AAXX 15064 67580 31975 00306 10262 20112 48/// 70500
                   333 10302 20162 59011=
201009141200 AAXX 14124 67580 41875 11208 10300 20104 48/// 70500 81100
                   333 59020 81857=
201009140600 AAXX 14064 67580 31975 01207 10204 20071 48/// 70500
                   333 10292 20125 59013=
201009090900 AAXX 09094 67580 41970 10000 10283 20017 48/// 70500 80001
                   333 59009 81080=
201009090600 AAXX 09064 67580 31970 01505 10222 20073 48/// 70500
                   333 10297 20153 59010=
201009080900 AAXX 08094 67580 41975 01507 10262 20088 48/// 70500
                   333 58004=
201009071200 AAXX 07124 67580 41975 00903 10295 20090 48/// 70500
                   333 59003=
201009060600 AAXX 06064 67580 31975 01207 10242 20090 48/// 70500
                   333 10312 20187 58015=

################################################################################
#  SYNOPS from 67581, Chipata (Zambia) | 13-33S | 032-35E | 1028 m
################################################################################
201009231200 AAXX 23124 67581 41970 00905 10314 20053 48537 70500
                   333 58026=
201009230600 AAXX 23064 67581 31970 00512 10236 20106 48551 70500
                   333 10340 20194 58024=
201009220600 AAXX 22064 67581 31970 00612 10234 20093 48529 70500
                   333 10330 20210 59006=
201009170600 AAXX 17064 67581 32975 00902 10260 20110 48569 70500
                   333 10330 20217 58014=
201009161200 AAXX 16124 67581 NIL=
201009100600 AAXX 10064 67581 31980 00402 10233 20088 48540 70500
                   333 10320 20129 59022=
201009040600 AAXX 04064 67581 NIL=
201009020600 AAXX 02064 67581 32980 21501 10232 20119 48566 80002
                   333 10310 20180 59011 82080=
201009011200 AAXX 01124 67581 41675 51005 10275 20128 48555 70522 85200
                   333 58013 85840=
201009010600 AAXX 01064 67581 11680 60906 10225 20163 48576 69904 72522 81530
                   333 10295 20185 58006 81630 86360=

################################################################################
#  SYNOPS from 67599, Mfuwe (Zambia) | 13-16S | 031-56E | 568 m
################################################################################
201010010600 AAXX 01064 67599 31958 00000 10245 20131 48502 70500
                   333 59021=
201009300900 AAXX 30094 67599 41757 30909 10313 20159 48587 70510 83130
                   333 59009 83850=
201009290600 AAXX 29064 67599 31657 21214 10242 20158 48587 70500 82200
                   333 10371 20210 58023 82830=
201009281500 AAXX 28154 67599 41956 31815 10329 20161 48552 70522 83030
                   333 58023 83360=
201009281200 AAXX 28124 67599 41857 30818 10365 20142 48562 70522 83200
                   333 58015 83857=
201009270600 AAXX 27064 67599 31956 00000 10253 20135 48566 70500
                   333 10371 20151 58000=
201009231500 AAXX 23154 67599 41957 01215 10342 20121 48548 70500
                   333 58035=
201009200900 AAXX 20094 67599 41970 00906 10331 20130 48553 70500
                   333 59017=
201009171200 AAXX 17124 67599 41957 91015 10370 20139 48566 70500
                   333 58018=
201009090900 AAXX 09094 67599 41958 00000 10296 20127 48579 70500
                   333 59014=
201009071200 AAXX 07124 67599 41956 01307 10348 20118 48563 70500
                   333 59001=
201009070600 AAXX 07064 67599 31956 00000 10222 20131 48571 70500
                   333 10376 20143 58008=
201009060600 AAXX 06064 67599 31857 01905 10228 20128 48561 70500
                   333 10360 20154 58009=
201009051500 AAXX 05154 67599 41956 00000 10340 20114 48546 70522
                   333 58001=
201009040600 AAXX 04064 67599 31956 40000 10229 20159 48558 70522 84031
                   333 10369 20170 59002 84360 82080=
201009021200 AAXX 02124 67599 41875 71108 10350 20162 48571 70522 872//
                   333 59011 87857=
201009020600 AAXX 02064 67599 31970 41905 10212 20128 48570 70500 83032
                   333 10339 20149 59007 83360 84080=
201009011200 AAXX 01124 67599 41660 60904 10317 20177 48570 70522 8323/
                   333 58011 83845 86360=

################################################################################
#  SYNOPS from 67633, Mongu (Zambia) | 15-15S | 023-09E | 1052 m
################################################################################
201009300900 AAXX 30094 67633 41960 00308 10288 20087 48549 70500
                   333 58002=
201009281200 AAXX 28124 67633 41956 00812 10354 20030 48511 70500
                   333 58011=
201009250600 AAXX 25064 67633 31960 03602 10238 20172 48499 70500
                   333 10368 20215 59009=
201009240900 AAXX 24094 67633 41956 00816 10312 20042 48542 70500
                   333 58013 91019=
201009231200 AAXX 23124 67633 41960 01808 10356 20037 48509 70500
                   333 58010=
201009230600 AAXX 23064 67633 31960 60903 10222 20047 48521 70522 86030
                   333 10305 20170 58009 86360=
201009220600 AAXX 22064 67633 31960 32703 10212 20071 48509 70500 81032
                   333 10358 20198 58035 81360 83080=
201009200900 AAXX 20094 67633 41960 00906 10305 20054 48530 70500
                   333 59020=
201009200600 AAXX 20064 67633 41960 40909 10224 20058 48492 70500 84030
                   333 10344 20198 59017 84360=
201009171200 AAXX 17124 67633 41760 50904 10355 20062 48513 70500 85200
                   333 58010 85850=
201009170600 AAXX 17064 67633 31960 40909 10235 20073 48529 70500 84030
                   333 10355 20184 58009 84360=
201009161200 AAXX 16124 67633 31960 40106 10205 20082 48519 70500 84080
                   333 10340 20192 59005 84360=
201009160600 AAXX 16064 67633 31960 40106 10205 20082 48519 70500 10340 20192 59005 84360=
201009150900 AAXX 15094 67633 41960 00915 10297 20073 48531 70500
                   333 59018=
201009150600 AAXX 15064 67633 31960 00909 10200 20071 48516 70500
                   333 10323 20170 59016=
201009141200 AAXX 14124 67633 41960 00911 10321 20000 48517 70500
                   333 59026=
201009140900 AAXX 14094 67633 41960 00809 10261 20101 48545 70500
                   333 59021=
201009100900 AAXX 10094 67633 41956 00406 10288 20051 48528 70500
                   333 59019=
201009100600 AAXX 10064 67633 31958 00904 10175 20027 48508 70500
                   333 10345 20154 59020=
201009090600 AAXX 09064 67633 31960 00906 10195 20050 48531 70500
                   333 10300 20166 58003=
201009071200 AAXX 07124 67633 41960 01109 10338 20006 48532 70500
                   333 59002=
201009060600 AAXX 06064 67633 31960=
201009040600 AAXX 04064 67633 NIL=
201009020600 AAXX 02064 67633 31980 00908 10200 20104 48541 70500
                   333 10318 20180 58005=
201009011200 AAXX 01124 67633 41960 11203 10306 20051 48534 70500 81100
                   333 58004 81850=
201009010600 AAXX 01064 67633 31960 00906 10190 20055 48534 70500
                   333 10320 20150 58000=

################################################################################
#  SYNOPS from 67641, Kaoma (Zambia) | 14-48S | 024-48E | 1213 m
################################################################################
201009230600 AAXX 23064 67641 NIL=
201009220600 AAXX 22064 67641 NIL=
201009161200 AAXX 16124 67641 NIL=
201009040600 AAXX 04064 67641 NIL=
201009020600 AAXX 02064 67641 NIL=
201009010600 AAXX 01064 67641 31975 00704 10181 20068 48536 70500
                   333 10305 20126 58005=

################################################################################
#  SYNOPS from 67655, Mumbwa (Zambia) | 15-04S | 027-11E | 1216 m
################################################################################
201009270600 AAXX 27064 67655 31975 00910 10241 20067 48539 70500
                   333 10327 20193 59011=
201009250600 AAXX 25064 67655 31975 00310 10274 20043 48523 70500
                   333 10355 20220 59002=
201009240900 AAXX 24094 67655 41970 00810 10276 20085 48562 70500
                   333 58002 91023=
201009150900 AAXX 15094 67655 41975 00610 10276 20075 48536 70500
                   333 59016=

################################################################################
#  SYNOPS from 67663, Kabwe (Zambia) | 14-27S | 028-28E | 1206 m
################################################################################
201009230600 AAXX 23064 67663 31975 00805 10224 20086 48520 70500
                   333 10338 20172 58006=
201009220600 AAXX 22064 67663 NIL=
201009170600 AAXX 17064 67663 31975 00904 10230 20088 48553 70500
                   333 10329 20171 58017=
201009161200 AAXX 16124 67663 31975 00804 10223 20104 48535 70500
                   333 10311 20152 58018=
201009100600 AAXX 10064 67663 31975 30902 10188 20101 48524 70500 83030
                   333 10297 20131 59022 83360=
201009040600 AAXX 04064 67663 NIL=
201009020600 AAXX 02064 67663 31975 01005 10205 20112 48553 70500
                   333 10275 20148 59001=
201009010600 AAXX 01064 67663 31975 30902 10198 20100 48553 70511 83030
                   333 10267 20162 58001 83360=

################################################################################
#  SYNOPS from 67665, Lusaka Internationalairport (Zambia) | 15-19S | 028-27E | 1152 m
################################################################################
201010010600 AAXX 01064 67665 31959 00707 10210 20183 48553 70500
                   333 10291 20140 59016
                   555 00150=
201010010300 AAXX 01034 67665 41959 00903 10143 20134 48529
                   333 59012=
201010010000 AAXX 01004 67665 41959 01303 10164 20156 48526 70500
                   333 59010=
201009302100 AAXX 30214 67665 41970 01205 10172 20138 48547 70500
                   333 59010=
201009301800 AAXX 30184 67665 41960 10906 10209 20153 48546 70500 81030
                   333 18360=
201009301200 AAXX 30124 67665 41659 30311 10282 20107 48542 70500 83200
                   333 59017 83848=
201009300900 AAXX 30094 67665 41959 30411 10241 20129 48569 70500 83100
                   333 59010 83835=
201009300600 AAXX 30064 67665 31959 00807 10185 20116 70500
                   333 10260 20115 59013
                   555 00125=
201009291200 AAXX 29124 67665 41759 30611 10247 20135 48554 70500 83100
                   333 58017 83848=
201009290900 AAXX 29094 67665 41659 30613 10230 20123 48577 70500 83100
                   333 58019 83832 91025=
201009290600 AAXX 29064 67665 31559 30715 10186 20125 48578 70512 83500
                   333 10310 20130 58029 83630=
201009281800 AAXX 28184 67665 41959 00813 10212 20128 48555 70500
                   333 10310 58028=
201009281500 AAXX 28154 67665 41957 00714 10260 20126 48543 70500
                   333 58028=
201009281200 AAXX 28124 67665 41956 00614 10290 20127 48543 70500
                   333 58016=
201009280600 AAXX 28064 67665 31957 00712 10238 20102 48556 70500
                   333 10337 20154 58005=
201009271200 AAXX 27124 67665 41958 00707 10322 20084 48531 70500
                   333 59010=
201009270900 AAXX 27094 67665 41958 00208 10298 20096 48553 70500
                   333 59017 91021=
201009270600 AAXX 27064 67665 31957 00805 10225 20084 48549 70500
                   333 10320 20140 59014
                   555 00120 91022=
201009270400 AAXX 27044 67665 41959 01205 10153 20076 48497 70500
                   333 59008=
201009270300 AAXX 27034 67665 41959 01304 10157 20071 48520 70500
                   333 59009=
201009270000 AAXX 27004 67665 41960 01204 10170 20086 48524 70500
                   333 59006=
201009262100 AAXX 26214 67665 41960 01203 10179 20076 48536 70500
                   333 59010=
201009260900 AAXX 26094 67665 41958 00411 10275 20096 48567 70500
                   333 59002 91023=
201009260600 AAXX 26064 67665 31958 00807 10208 20104 48562 70500
                   333 10310 20136 58001
                   555 00135 91023=
201009251500 AAXX 25154 67665 41958M=
201009250600 AAXX 25064 67665 31959 00707 10210 20118 48552 70500
                   333 10318 20150 58000
                   555 00135=
201009250400 AAXX 25044 67665 41959 01005 10152 20135 48542 70500
                   333 59001=
201009250300 AAXX 25034 67665 41959 00906 10156 20130 48538 70500
                   333 59002=
201009250000 AAXX 25004 67665 41959 10161 20135 48539 70500
                   333 58007=
201009242100 AAXX 24214 67665 41959 00701 10182 20101 48550 70500
                   333 58014=
201009241800 AAXX 24184 67665 41959 00906 10218 20095 48545 70500
                   333 10318 59011=
201009241200 AAXX 24124 67665 41959 00312 10311 20079 48546 70500
                   333 58016=
201009240900 AAXX 24094 67665 41958 00713 10284 20110 48571 70500
                   333 58022 91023=
201009231800 AAXX 23184 67665 41956 01105 10215 20055 48534
                   333 10321 58020=
201009231500 AAXX 23154 67665 41956 00710 10295 20046 48525 70500
                   333 58020=
201009231200 AAXX 23124 67665 41958 00713 10314 20056 48530 70500
                   333 58021=
201009230900 AAXX 23094 67665 41958 00613 10292 20059 48551 70500
                   333 58015=
201009230600 AAXX 23064 67665 31957 01106 10226 20057 48541 70500
                   333 10341 20154 58012=
201009221500 AAXX 22154 67665 41956 01012 10313 20064 48507 70500
                   333 58012=
201009221200 AAXX 22124 67665 41958 01008 10329 20045 48512 70500
                   333 58010=
201009220900 AAXX 22094 67665 41958 00708 10298 20074 48536 70500
                   333 58008=
201009220600 AAXX 22064 67665 31958 01104 10212 20068 48528 70500
                   333 10328 20149 58007=
201009210900 AAXX 21094 67665 41959 00412 10284 20098 48527 70500
                   333 58001 91018=
201009210600 AAXX 21064 67665 31959 00907 10213 20100 48521 70500=
201009210300 AAXX 21034 67665 41960 01303 10160 20086 48497 70500
                   333 59008=
201009201500 AAXX 20154 67665 41959 00407 10303 20065 48490 70500
                   333 59017 91014=
201009201200 AAXX 20124 67665 41959 00605 10309 48498 70500
                   333 59021 90263=
201009200900 AAXX 20094 67665 41959 00312 10277 20076 48526 70500
                   333 59013 91018=
201009200600 AAXX 20064 67665 31958 00906 10211 20110 48527 70500
                   333 10299 20143 59016=
201009191200 AAXX 19124 67665 41958 01007 10282 20069 48516 70500
                   333 59026 91017=
201009190900 AAXX 19094 67665 00307 10254 20091 48545 70500
                   333 59036=
201009190600 AAXX 19064 67665 31959 00805 10182 20104 48538 70500
                   333 10290 20125 59035
                   555 00///=
201009190300 AAXX 19034 67665 41959 01104 10127 20119 48514 70500
                   333 59034=
201009190000 AAXX 19004 67665 41958 00905 10141 20125 48511 70500
                   333 59029=
201009182100 AAXX 18214 67665 41958 00905 10154 20137 48525 70500
                   333 59023=
201009181200 AAXX 18124 67665 41958 00408 10274 20105 48540 70500
                   333 59001=
201009180900 AAXX 18094 67665 41957 00510 10245 20101 48569 70500
                   333 58003=
201009180600 AAXX 18064 67665 31957 00909 10180 20099 48572 70500
                   333 10321 20134 58017
                   555 00120=
201009171500 AAXX 17154 67665 41956 00512 10295 20050 48542 70500
                   333 58026=
201009171200 AAXX 17124 67665 41958 00610 10311 20073 48546 70500
                   333 58026=
201009170900 AAXX 17094 67665 41959 00413 10296 20105 48574 70500
                   333 58028=
201009170600 AAXX 17064 67665 31958 00806 10221 20100 48561 70500
                   333 10331 20183 58018=
201009161800 AAXX 16184 67665 41958 01103 10225 20082 48526 70500
                   333 10331 58000=
201009161500 AAXX 16154 67665 41958 00906 10316 20085 48518 70500
                   333 59003=
201009161200 AAXX 16124 67665 31959 01104 10214 20120 48542 70500
                   333 10307 20148 59012=
201009160600 AAXX 16064 67665 31959 01104 10214 20120 48542 70500
                   333 10307 20148 59012=
201009151200 AAXX 15124 67665 41958 00105 10294 20089 48526 70500
                   333 59014=
201009150900 AAXX 15094 67665 41958 00107 10275 20096 48552 70500
                   333 59017=
201009150600 AAXX 15064 67665 31958 01105 10195 20076 48553 70500
                   333 10280 20128 59008
                   555 00125=
201009150400 AAXX 15044 67665 41960 01203 10136 20069 48532 70500
                   333 59011=
201009150300 AAXX 15034 67665 42980 01106 10141 20074 48529 70200
                   333 59001=
201009150000 AAXX 15004 67665 42980 01103 10135 20066 48527 70200
                   333 59012=
201009142100 AAXX 14214 67665 42960 01004 10146 20069 48537 70500
                   333 59014=
201009141200 AAXX 14124 67665 41959 00308 10270 20073 48537 70500
                   333 59022 91020=
201009140900 AAXX 14094 67665 41960 00510 10244 20073 48563 70500
                   333 59023=
201009140600 AAXX 14064 67665 31970 00707 10170 20055 48556 70500
                   333 10260 20090 59025
                   555 00094=
201009131800 AAXX 13184 67665 42980 00905 10170 20075 48551
                   333 59024=
201009131500 AAXX 13154 67665 42980 00911 10265 20065 48547 70500
                   333 59024=
201009131200 AAXX 13124 67665 42680 10911 10260 20098 48558 70500 81100
                   333 59019 81845=
201009130600 AAXX 13064 67665 32480 10610 10165 20106 48580 70500 81100
                   333 10240 20100 59004 81815
                   555 00080=
201009130400 AAXX 13044 67665 42980 01105 10107 20107 48562
                   333 59005=
201009130300 AAXX 13034 67665 42980 01203 10108 20108 48555
                   333 59010=
201009130000 AAXX 13004 67665 01204 10119 20110 48554
                   333 59009=
201009122100 AAXX 12214 67665 42980 01303 10138 20111 48569
                   333 59003=
201009121800 AAXX 12184 67665 42980 10905 10162 20120 48572 81030
                   333 10240 58019 81360=
201009121200 AAXX 12124 67665 42680 30813 10233 20094 48572 83130
                   333 58026 83848 81360=
201009120600 AAXX 12064 67665 31960 60615 10164 20123 48542 70522 86500
                   333 10264 20155 58037 86615
                   555 00146=
201009120000 AAXX 12004 67665 41959 01304 10186 20070 48498 70500
                   333 59011=
201009111800 AAXX 11184 67665 41970 40608 10193 20144 48554 70511 84030
                   333 10269 58040 84360=
201009111200 AAXX 11124 67665 41970 10614 10256 20084 48541 70500 80001
                   333 58036 81080=
201009110600 AAXX 11064 67665 31960 50908 10179 20128 48550 70522 85030
                   333 10309 20128 58013 85360=
201009101200 AAXX 10124 67665 41965 01310 10296 20079 48519 70500
                   333 59015 91017=
201009100900 AAXX 10094 67665 41980 11109 10270 20091 48543 70500 80001
                   333 59021 81080=
201009100600 AAXX 10064 67665 31960 20902 10156 20094 48535 70500
                   333 10306 20105 59022 82360 81080=
201009091200 AAXX 09124 67665 41965 60806 10288 48533 70521 86001
                   333 59014 86080=
201009090900 AAXX 09094 67665 41960 20310 10252 20086 48561 70500 80001
                   333 59013 82080 91023=
201009090600 AAXX 09064 67665 31960 40908 10172 20088 48557 70500 84030 333=
201009090400 AAXX 09044 67665 41960 11105 10108 20088 48536 70500 81031
                   333 5//// 81360 81080=
201009090300 AAXX 09034 67665 41960 01006 10112 20084 48530 70500
                   333 5////=
201009090000 AAXX 09004 67665 41960 01004 10113 20072 48539 70500
                   333 5////=
201009081200 AAXX 08124 67665 41965 01108 10283 20072 48547 70500
                   333 59002=
201009080900 AAXX 08094 67665 41980 00610 10245 20099 48574 70500
                   333 58000 91024=
201009080600 AAXX 08064 67665 31980 00709 10177 20135 48569 70500
                   333 10310 20114 58004
                   555 99114 91025=
201009071200 AAXX 07124 67665 41959 00914 10303 20030 48550 70500
                   333 59003=
201009070900 AAXX 07094 67665 41958 00610 10256 20076 48575 70500
                   333 58003=
201009070600 AAXX 07064 67665 31960 00806 10184 20098 48565 70500
                   333 10315 20183 59005
                   555 00105=
201009070400 AAXX 07044 67665 41960 00802 10114 20095 48543 70500
                   333 59001=
201009070300 AAXX 07034 67665 42980 01003 10123 20074 48538
                   333 58001=
201009070000 AAXX 07004 67665 42980 01503 10131 20064 48542 70500
                   333 58009=
201009062100 AAXX 06214 67665 41960 03302 10172 20069 48554 70500
                   333 58009=
201009061200 AAXX 06124 67665 41959 00913 10302 20062 48553 70500
                   333 58006 91021=
201009060900 AAXX 06094 67665 41959 00507 10273 20126 48574 70500
                   333 58013=
201009060600 AAXX 06064 67665 31958 00905 10198 20063 48570 70500
                   333 10312 20136 58016
                   555 00135=
201009051800 AAXX 05184 67665 41980 01303 10206 20040 48536 70500
                   333 10312 58003=
201009051500 AAXX 05154 67665 41980 01108 10293 20032 48533 70500
                   333 58003=
201009051200 AAXX 05124 67665 41760 10607 10304 20080 48537 70500 81100
                   333 59002 81856=
201009050600 AAXX 05064 67665 31960 00807 10190 20126 48553 70500
                   333 10335 20135 58004
                   555 00116 91023=
201009042100 AAXX 04214 67665 41960 01304 10177 20145 70500
                   333 58006=
201009041800 AAXX 04184 67665 41960 11104 10204 20149 48531 70500 81030
                   333 10335 59001 81360=
201009041500 AAXX 04154 67665 41958 10608 10290 20116 48530 70500 81030
                   333 58001 81360=
201009041200 AAXX 04124 67665 41758 10408 10294 20136 48537 70510 81100
                   333 58008 81850=
201009040900 AAXX 04094 67665 41958 00510 10253 20151 48556 70500
                   333 58014=
201009040600 AAXX 04064 67665 31958 00809 10203 20132 48551 70500
                   333 10325 20139 58000=
201009030900 AAXX 03094 67665 41960 00409 10283 20130 48557 70500
                   333 59020 91022=
201009030600 AAXX 03064 67665 31959 11104 10208 20134 48552 70500 81030
                   333 10280 20155 59017 81360
                   555 00134 91022=
201009030400 AAXX 03044 67665 42980 01304 10140 20113 48528 70200
                   333 59022=
201009030300 AAXX 03034 67665 42980 01404 10143 20116 48527 70200
                   333 59017=
201009030000 AAXX 03004 67665 42980 11603 10151 20116 48527 70200 80001
                   333 59012 81080=
201009022100 AAXX 02214 67665 41959 11002 10183 20102 48543 70500 80001
                   333 59007 81080=
201009021800 AAXX 02184 67665 42959 01006 10208 20113 48543
                   333 10300 59010=
201009021500 AAXX 02154 67665 42975 10807 10280 20106 48541 70500 81030
                   333 59007 81360=
201009021200 AAXX 02124 67665 41775 40408 10289 20117 48550 70511 84100
                   333 59005 84856=
201009020600 AAXX 02064 67665 31975 00808 10205 20115 48568 70500
                   333 10282 20135 59004=
201009011800 AAXX 01184 67665 42980 01004 10189 20131 48550
                   333 10282 58002=
201009011500 AAXX 01154 67665 41959 30611 10263 20117 48545 70500 83100
                   333 58004 83858=
201009011200 AAXX 01124 67665 42759 50311 10269 20124 48552 70500 85200
                   333 58005 85850=
201009010900 AAXX 0109/ 67665 42670 20812 10247 20134 48575 82100
                   333 58003 82835=
201009010600 AAXX 01064 67665 32970 21109 10190 20124 48570 70500 82030
                   333 10271 20130 58004 81360=

################################################################################
#  SYNOPS from 67666, Lusaka City Airport (Zambia) | 15-25S | 028-19E | 1280 m
################################################################################
201009300900 AAXX 30094 67666 41678 10908 10243 20089 48559 70500 81100
                   333 59009 81835=
201009300600 AAXX 30064 67666 31978 00907 10180 20210 48558 70500
                   333 10280 20130 58009=
201009270900 AAXX 27094 67666 42980 00903 10290 20070 48546 70500
                   333 59001=
201009270600 AAXX 27064 67666 31970 00903 10225 20070 48544 70500
                   333 10308 20150 59013=
201009250600 AAXX 25064 67666 31970 00910 10290 20055 48521 70500
                   333 10355 20200 59005=
201009240900 AAXX 24094 67666 41970 01006 10270 20083 48559 70500
                   333 58021 91022=
201009221200 AAXX 22124 67666 41975 00907 10320 20051 48503 70500
                   333 58010=
201009200900 AAXX 20094 67666 42980 00908 10270 20195 48519
                   333 59019=
201009200600 AAXX 20064 67666 31970 00906 10210 20145 48520 70500
                   333 10190 20170 5////=
201009171200 AAXX 17124 67666 42980 00912 10295 20193 48537
                   333 58025=
201009161200 AAXX 16124 67666 42980 00906 10311 20193 48514
                   333 59007=
201009150900 AAXX 15094 67666 41970 00910 10259 20171 48539 70500
                   333 59017=
201009150600 AAXX 15064 67666 31970 00907 10200 20134 48543 70500
                   333 10260 20145 59011=
201009141200 AAXX 14124 67666 42980 00803 10260 20141 48528
                   333 59020=
201009140900 AAXX 14094 67666 42980 00910 10232 20150 48553
                   333 59021=
201009140600 AAXX 14064 67666 31979 00911 10178 20120 48552 70500
                   333 10260 20110 59023=
201009090900 AAXX 09094 67666 42980 20908 10240 20144 48551 81030
                   333 59015 81361 82080=
201009090600 AAXX 09064 67666 31975 30911 10179 20125 48549 70500 83030
                   333 10284 20125 59012 83361=
201009080900 AAXX 08094 67666 41980 01010 10240 20152 48565 70500
                   333 58006 91023=
201009071200 AAXX 07124 67666 42980 00903 10295 20147 48537
                   333 59008=
201009060600 AAXX 06064 67666 31980 00000 10210 20116 48558 70500
                   333 10300 20135 59014=
201009030600 AAXX 03064 67666 32980 00000 10225 20135 48547
                   333 10285 20140 58003 91021=
201009011200 AAXX 01124 67666 42680 50915 10250 20135 48542 85200
                   333 58006 85842=

################################################################################
#  SYNOPS from 67673, Petauke (Zambia) | 14-15S | 031-17E | 1035 m
################################################################################
201009300900 AAXX 30094 67673 41660 50808 10265 20126 48582 70522 85200
                   333 59003 85840=
201009270900 AAXX 27094 67673 41960 03605 10303 20096 48561 70500
                   333 5////=
201009270600 AAXX 27064 67673 31960 00504 10250 20070 48568 70500
                   333 10330 20198 59002=
201009250600 AAXX 25064 67673 31970 00902 10278 20084 48548 70500
                   333 10378 20198 59006=
201009200900 AAXX 20094 67673 41960 00804 10294 20078 48541 70500
                   333 5////=
201009200600 AAXX 20064 67673 31970 00507 10244 20084 48548 70500
                   333 10323 20188 59007=
201009150900 AAXX 15094 67673 41660 10707 10285 20076 48568 70500 81100
                   333 59008 81835=
201009140900 AAXX 14094 67673 41960 00908 10265 20034 48573 70500
                   333 59023=
201009090900 AAXX 09094 67673 41965 00903 10270 20076 48570 70500
                   333 59021=
201009080900 AAXX 08094 67673 41925 01204 10250 20070 48586 70500
                   333 58011=
201009080600 AAXX 08064 67673 31975 10192 10192 20085 48581 70500 81030
                   333 10310 20154 58007 81360=

################################################################################
#  SYNOPS from 67743, Livingstone (Zambia) | 17-49S | 025-49E | 985 m
################################################################################
201010010600 AAXX 01064 67743 31960 01502 10220 20086 48550 70500
                   333 10341=
201009300900 AAXX 30094 67743 41959 01012 10282 20090 48573 70500
                   333 58004=
201009300600 AAXX 30064 67743 31959 00808 10206 20093 48568 70500
                   333 10322 20//0 58018=
201009290600 AAXX 29064 67743 31959 00913 10201 20118 48570 70500
                   333 10340 20//0 58023=
201009281500 AAXX 28154 67743 41958 01114 10309 20104 48535 70500
                   333 58018=
201009281200 AAXX 28124 67743 41958 01210 10330 20099 48540 70500
                   333 58020=
201009270900 AAXX 27094 67743 41958 01007 10314 20069 48548 70500
                   333 59010=
201009270600 AAXX 27064 67743 31959 01004 10218 20063 48534 70500
                   333 10362 20//0 59014=
201009231500 AAXX 23154 67743 41957 00913 10336 20010 48525 70500
                   333 58018=
201009231200 AAXX 23124 67743 41957 01211 10352 20034 48533 70500
                   333 58015=
201009230600 AAXX 23064 67743 31959 41404 10238 20045 48538 70511 84030
                   333 10348 20/// 58010 84360=
201009221500 AAXX 22154 67743 41960 01803 10336 20070 48507 70500
                   333 58025=
201009220600 AAXX 22064 67743 31960 02102 10204 20029 48523 70500
                   333 10368 20/// 59032=
201009210600 AAXX 21064 67743 31958 00907 10213 20060 48550 70500
                   333 10348 20/// 59019 91021=
201009200900 AAXX 20094 67743 41959 01008 10315 20051 48514 70500
                   333 59023=
201009200600 AAXX 20064 67743 31959 11006 10200 20055 48503 70500 80001
                   333 10341 20//0 5////=
201009190900 AAXX 19094 67743 41959 00704 10295 20065 48533 70500
                   333 59022=
201009180600 AAXX 18064 67743 31957 00906 10204 20066 48547 70500
                   333 10359 20//0 58007=
201009170600 AAXX 17064 67743 31960 00804 10221 20076 48544 70500
                   333 10355 20/// 58015=
201009161200 AAXX 16124 67743 31960 01502 10200 20175 48526 70500
                   333 10334 20/// 59008=
201009100600 AAXX 10064 67743 31965 00804 10195 20036 48528 70500
                   333 10340 20/// 59025=
201009090600 AAXX 09064 67743 31960 01006 10183 20041 48550 70500 80002
                   333 10345 20//0 58002=
201009070600 AAXX 07064 67743 31965 01106 10211 20068 48555 70500
                   333 10346 2//// 5////=
201009061200 AAXX 06124 67743 41965 00912 10344 21011 48554 70500
                   333 58014 91019=
201009060600 AAXX 06064 67743 31965 00000 10188 20073 48551 70500
                   333 10338 20/// 5////=
201009051500 AAXX 05154 67743 41960 01205 10325 20034 48530 70500
                   333 58004=
201009051200 AAXX 05124 67743 41960 01006 10334 20039 48538 70500
                   333 58002=
201009041200 AAXX 04124 67743 41965 01706 10332 20086 70500
                   333 5////=
201009040900 AAXX 04094 67743 41965 01505 10290 20107 48556 70500
                   333 59006=
201009040600 AAXX 04064 67743 NIL=
201009030600 AAXX 03064 67743 31965 00000 10194 20071 48538 70500
                   333 10332 20//0 59020 91020=
201009021500 AAXX 02154 67743 41965 00908 10311 20061 48538 70500
                   333 59005=
201009021200 AAXX 02124 67743 41865 11108 10320 20070 48549 70500 81100
                   333 59003 81857=
201009020600 AAXX 02064 67743 31965 03404 10194 20085 48557 70500
                   333 10315 20/// 59006=
201009010600 AAXX 01064 67743 31965 00805 10175 20033 48558 70500
                   333 10320 20/// 58002=

################################################################################
#  SYNOPS from 67753, Choma (Zambia) | 16-50S | 027-04E | 1213 m
################################################################################
201009300600 AAXX 30064 67753 31960 10199 20107 70500
                   333 10271 20108=
201009281200 AAXX 28124 67753 41960 00912 20118 48/// 70500
                   333 5////=
201009270600 AAXX 27064 67753 31960 00308 10229 20079 48/// 70500
                   333 10316 20142 5////=
201009250600 AAXX 25064 67753 31960 03612 10269 20082 70500
                   333 10371 20193=
201009230600 AAXX 23064 67753 31960 00610 10218 20051 48/// 70500
                   333 10331 20124 5////=
201009220600 AAXX 22064 67753 NIL=
201009170600 AAXX 17064 67753 31960 00906 10198 20089 48/// 70500
                   333 10318 20121 5////=
201009161200 AAXX 16124 67753 31960 00304 10201 20095 48/// 70500
                   333 10305 20165 50/// 5////=
201009160600 AAXX 16064 67753 31960 03045 10201 20095 48/// 70500
                   333 10305 201665 ////=
201009100600 AAXX 10064 67753 31960 00908 10188 20055 48/// 70500
                   333 10297 20101 5////=
201009090600 AAXX 09064 67753 31960 53605 10169 20066 48/// 70522 80002
                   333 10301 20074 5//// 85080=
201009080600 AAXX 08064 67753 31960 00603 10186 20095 70500
                   333 10304 20097=
201009040600 AAXX 04064 67753 NIL=
201009030600 AAXX 03064 67753 31960 00907 10203 20076 70500
                   333 10290 20106=
201009020600 AAXX 02064 67753 31960 00607 10203 20106 48/// 70500
                   333 10289 20095 5////=
201009010600 AAXX 01064 67753 31960 00615 10196 20091 48/// 70500
                   333 10265 20101 5////=

################################################################################
#  SYNOPS from 67855, Lupaki (Zambia) | 17-03-00S | 024-46-00E | 1000 m
################################################################################
201010010600 AAXX 01064 67855 31970 01201 10192 20081 38/// 48/// 70500
                   333 20110 5////=
201009301200 AAXX 30124 67855 42980 00304 10318 20063 38/// 48///
                   333 5////=
201009300600 AAXX 30064 67855 31960 00601 10184 20093 38/// 48/// 70500
                   333 20110 5////=
201009291200 AAXX 29124 67855 41970 10302 10304 20081 3//// 48/// 70500
                   333 5////=
201009290600 AAXX 29064 67855 31960 01209 10178 20103 3//// 48/// 70500
                   333 20124 5////=
201009281200 AAXX 28124 67855 41970 01405 10310 20120 3//// 48/// 70500
                   333 5////=
201009271200 AAXX 27124 67855 41970 01201 10350 20046 3//// 48/// 70500
                   333 5////=
201009270600 AAXX 27064 67855 31960 01801 10188 20053 3//// 48/// 70500
                   333 20120 5////=
201009261200 AAXX 26124 67855 NIL=
201009260600 AAXX 26064 67855 31960 00702 10198 20081 3//// 48/// 70500
                   333 20120 5////=
201009251200 AAXX 25124 67855 NIL=
201009250600 AAXX 25064 67855 31960 00401 10228 20090 38/// 48/// 70500
                   333 20150 5////=
201009241200 AAXX 24124 67855 NIL=
201009240600 AAXX 24064 67855 31950 01005 10210 20103 3//// 48/// 70500
                   333 20165 5////=
201009231200 AAXX 23124 67855 41970 01405 10354 20010 3//// 48/// 70500
                   333 5////=
201009230600 AAXX 23064 67855 31960 01402 10210 20064 3//// 48/// 70500
                   333 20150 5////=
201009221200 AAXX 22124 67855 41970 02304 10348 20061 3//// 48/// 70500
                   333 5////=
201009220600 AAXX 22064 67855 31960 00000 10190 20084 3//// 48/// 70500
                   333 20125 5////=
201009211200 AAXX 21124 67855 41970 00502 10346 20069 3//// 48/// 70500
                   333 5////=
201009210600 AAXX 21064 67855 31960 01208 10232 20059 3//// 48/// 70500
                   333 20168 5////=
201009201200 AAXX 20124 67855 41970 03504 10332 20060 3//// 48/// 70500
                   333 5////=
201009200600 AAXX 20064 67855 31960 00904 10204 20044 3//// 48/// 70500
                   333 20105 5////=
201009190600 AAXX 19064 67855 NIL=
201009181200 AAXX 18124 67855 41970 00604 10316 20065 3//// 48/// 70500
                   333 5////=
201009180600 AAXX 18064 67855 31950 01804 10180 20093 3//// 48/// 70500
                   333 20104 5////=
201009171200 AAXX 17124 67855 41970 00608 10326 20086 3//// 48/// 70500
                   333 5////=
201009170600 AAXX 17064 67855 31970 01204 10216 20062 3//// 48/// 70500
                   333 20143 5////=
201009161200 AAXX 16124 67855 42980 00901 10334 20045 3//// 48///
                   333 5////=
201009160600 AAXX 16064 67855 31965 00901 10158 20025 3//// 48/// 70500
                   333 20079 5////=
201009151200 AAXX 15124 67855 42980 01604 10316 20020 3//// 48///
                   333 5////=
201009150600 AAXX 15064 67855 31970 00000 10174 20035 3//// 48/// 70500
                   333 20070 5////=
201009141200 AAXX 14124 67855 42980 03608 10314 21015 3//// 48///
                   333 5////=
201009140600 AAXX 14064 67855 31970 00202 10178 20046 3//// 48/// 70500
                   333 20104 5////=
201009131200 AAXX 13124 67855 42980 01904 10320 20005 3//// 49///
                   333 5////=
201009130600 AAXX 13064 67855 31970 01603 10160 20095 3//// 48/// 70500
                   333 20085 5////=
201009121200 AAXX 12124 67855 NIL=
201009120600 AAXX 12064 67855 31970 20602 10152 20118 38/// 48/// 70500 82030
                   333 20100 5//// 82360=
201009111200 AAXX 11124 67855 42980 01606 10298 20110 38/// 48///
                   333 5////=
201009110600 AAXX 11064 67855 31970 31007 10204 20145 3//// 48/// 70500 83030
                   333 20156 5//// 83360=
201009101200 AAXX 10124 67855 42980 11604 10344 20040 3//// 48/// 81100
                   333 5//// 818//=
201009100600 AAXX 10064 67855 31970 01801 10168 20129 3//// 48/// 70500
                   333 20100 5////=
201009091200 AAXX 09124 67855 42980 00604 10320 20060 38/// 48///
                   333 5////=
201009090600 AAXX 09064 67855 31970 00000 10144 20080 38/// 48/// 70500
                   333 20090 5////=
201009081200 AAXX 08124 67855 42980 00705 10322 20091 3//// 48///
                   333 5////=
201009080900 AAXX 08094 67855 42975 00204 10276 20015 3//// 48///
                   333 5////=
201009041200 AAXX 04124 67855 NIL=
201009031200 AAXX 03124 67855 42980 00506 10342 20056 3//// 48///
                   333 5////=
201009030600 AAXX 03064 67855 32980 00000 10142 20053 3//// 48///
                   333 20090 5////=
201009021200 AAXX 02124 67855 42980 01303 10322 20070 3//// 48///
                   333 5////=
201009020600 AAXX 02064 67855 32980 00901 10130 20059 3//// 48///
                   333 20083 5////=
201009011200 AAXX 01124 67855 42980 00607 10298 20083 3//// 48///
                   333 5////=
201009010600 AAXX 01064 67855 32980 00701 10136 20024 3//// 48///
                   333 20072 5////=
