################################################################################
# Query made at 04/14/2022 03:51:10 UTC
# Country like Zamb*
# Time interval: from 04/01/2015 05:30  to 05/01/2015 06:30  UTC
################################################################################

################################################################################
#  SYNOPS from 67403, Kawambwa (Zambia) | 09-48S | 029-05E | 1323 m
################################################################################
201504301500 AAXX 30154 67403 NIL=
201504300900 AAXX 30094 67403 NIL=
201504300600 AAXX 30064 67403 32980 10904 10180 20125 48524 81031
                   333 10/// 20131 59005 81360 81080=
201504290900 AAXX 29094 67403 NIL=
201504290600 AAXX 29064 67403 32980 20902 10190 20152 48528 82031
                   333 10/// 20149 59003 82360 81080=
201504280600 AAXX 28064 67403 12980 20902 10197 20169 48530 69974 81081
                   333 10/// 20167 59013 81360 81080=
201504210600 AAXX 21064 67403 12980 20905 10199 20177 48525 69954 81031
                   333 10/// 20167 58008 81360 82080=
201504200600 AAXX 20064 67403 32980 21802 10195 20181 48519 82081
                   333 10/// 20166 59013 82360 81080=
201504191500 AAXX 19154 67403 NIL=
201504170600 AAXX 17064 67403 12980 80905 10191 20184 48536 69944 8707/
                   333 10//0 20188 58012 87360=
201504160600 AAXX 16064 67403 12360 70903 10191 20159 48522 69904 81630
                   333 10/// 20171 58005 81709 87360=
201504151500 AAXX 15154 67403 NIL=
201504150600 AAXX 15064 67403 11980 80901 10183 20179 48517 60634 76066 8803/
                   333 10/// 20171 59002 88360=
201504140600 AAXX 14064 67403 12980 30901 10201 20191 48521 60414 83031
                   333 10/// 20173 59009 83360 81080=
201504131500 AAXX 13154 67403 NIL=
201504131200 AAXX 13124 67403 NIL=
201504130600 AAXX 13064 67403 12980 80901 10193 20186 48528 60274 8803/
                   333 10/// 20172 59002 88360=
201504100300 AAXX 10034 67403 NIL=
201504090600 AAXX 09064 67403 12375 70406 10202 20179 48518 60334 70326 81130
                   333 10/// 20173 59005 81818 87360=
201504080600 AAXX 08064 67403 11980 70802 10178 20174 48519 60924 70266 8703/
                   333 10/// 20170 58008 87360=
201504070600 AAXX 07064 67403 11380 60901 10194 20180 48515 69954 70322 81730
                   333 10/// 20174 58004 81708 86360=
201504041500 AAXX 04154 67403 NIL=
201504020600 AAXX 02064 67403 12970 50910 10200 20193 48519 60424 70322 84081
                   333 10/// 20180 59002 84360 82080=
201504020300 AAXX 02034 67403 NIL=
201504010900 AAXX 01094 67403 NIL=
201504010600 AAXX 01064 67403 11380 62702 10201 20191 48529 60084 70362 83730
                   333 10/// 20173 58008 83706 86360=

################################################################################
#  SYNOPS from 67413, Mbala (Zambia) | 08-51S | 031-20E | 1673 m
################################################################################
201504301500 AAXX 30154 67413 NIL=
201504300900 AAXX 30094 67413 NIL=
201504290900 AAXX 29094 67413 NIL=
201504210600 AAXX 21064 67413 NIL=
201504191500 AAXX 19154 67413 NIL=
201504160600 AAXX 16064 67413 NIL=
201504151500 AAXX 15154 67413 NIL=
201504131500 AAXX 13154 67413 NIL=
201504131200 AAXX 13124 67413 NIL=
201504100300 AAXX 10034 67413 NIL=
201504041500 AAXX 04154 67413 NIL=
201504020600 AAXX 02064 67413 NIL=
201504020300 AAXX 02034 67413 NIL=
201504010900 AAXX 01094 67413 NIL=

################################################################################
#  SYNOPS from 67441, Mwinilunga (Zambia) | 11-45S | 024-26E | 1361 m
################################################################################
201504301500 AAXX 30154 67441 NIL=
201504300900 AAXX 30094 67441 NIL=
201504290900 AAXX 29094 67441 NIL=
201504280600 AAXX 28064 67441 31/70 027// 10156 20143 48557 70500
                   333 10276 20/// 59006=
201504210600 AAXX 21064 67441 31/02 900// 10160 20160 48565 74344 89///
                   333 10270 20/// 59006=
201504191500 AAXX 19154 67441 NIL=
201504160600 AAXX 16064 67441 NIL=
201504151500 AAXX 15154 67441 NIL=
201504140600 AAXX 14064 67441 11980 700// 10175 20167 48554 60034 72162 8707/
                   333 10270 20/// 59011 87362=
201504131500 AAXX 13154 67441 NIL=
201504131200 AAXX 13124 67441 NIL=
201504130600 AAXX 13064 67441 32480 700// 10180 20172 48565 8113/
                   333 10285 20/// 59001 81810 87360=
201504100600 AAXX 10064 67441 31480 414// 10178 20162 48557 70511 82105
                   333 10266 20/// 58006 82820 84280=
201504100300 AAXX 10034 67441 NIL=
201504080600 AAXX 08064 67441 22365 702// 10185 20177 48547 60294 70522 8373/
                   333 10262 20/// 59014 83710 86360=
201504070600 AAXX 07064 67441 11570 832// 10188 20184 48547 60024 70522 8612/
                   333 10286 20/// 58005 86820 87460=
201504041500 AAXX 04154 67441 NIL=
201504020600 AAXX 02064 67441 11465 827// 10192 20183 48538 60054 70522 886//
                   333 10233 20/// 59005 88612=
201504020300 AAXX 02034 67441 NIL=
201504010900 AAXX 01094 67441 NIL=

################################################################################
#  SYNOPS from 67461, Mansa (Zambia) | 11-06S | 028-51E | 1382 m
################################################################################
201504301500 AAXX 30154 67461 NIL=
201504300900 AAXX 30094 67461 NIL=
201504300600 AAXX 30064 67461 32980 5//// 10170 20126 48526 80008
                   333 10280 20090 59006 85280 91020=
201504290900 AAXX 29094 67461 NIL=
201504280600 AAXX 28064 67461 32980 10906 10186 20161 48540 81030
                   333 10283 20166 59001 81360 91021=
201504210600 AAXX 21064 67461 32480 61210 10205 20190 48539 84532
                   333 10280 20160 58003 85612 81360 86280 91021=
201504191500 AAXX 19154 67461 NIL=
201504160600 AAXX 16064 67461 11480 70802 10195 20193 48525 60034 72844 8557/
                   333 10261 20172 58000 85618 86458 91019=
201504151500 AAXX 15154 67461 NIL=
201504131500 AAXX 13154 67461 NIL=
201504131200 AAXX 13124 67461 NIL=
201504130600 AAXX 13064 67461 12480 71604 10195 20184 48541 60024 8553/
                   333 10276 20168 58003 85615 87360 91021=
201504100600 AAXX 10064 67461 32480 70905 10185 20162 48541 82530
                   333 10368 20160 58016 82612 87360 91021=
201504100300 AAXX 10034 67461 NIL=
201504090600 AAXX 09064 67461 32380 71107 10192 20185 48535 8663/
                   333 10259 20170 58002 86708 84360 91019=
201504080600 AAXX 08064 67461 11380 70802 10188 20184 48523 72166 8467/
                   333 10289 20175 58007 84705 87460 91019=
201504070600 AAXX 07064 67461 12980 70000 10205 20190 48518 60014 8707/
                   333 10298 20180 58002 87462 91019=
201504041500 AAXX 04154 67461 NIL=
201504020600 AAXX 02064 67461 NIL=
201504020300 AAXX 02034 67461 NIL=
201504010900 AAXX 01094 67461 NIL=

################################################################################
#  SYNOPS from 67475, Kasama (Zambia) | 10-13S | 031-08E | 1382 m
################################################################################
201504301500 AAXX 30154 67475 NIL=
201504300900 AAXX 30094 67475 42980 31512 10245 20104 48535 80001
                   333 59002 83080 91021=
201504300600 AAXX 30064 67475 32980 71002 10196 20096 48536 80008
                   333 10271 20110 59006 87280 91022=
201504290900 AAXX 29094 67475 42980 10707 10245 20127 48537 80001
                   333 59008 81080 91021=
201504280600 AAXX 28064 67475 32580 50809 10194 20144 48544 70322 81132
                   333 10272 20143 58000 81820 85359 82080 91023=
201504210600 AAXX 21064 67475 NIL=
201504200600 AAXX 20064 67475 32480 51311 10196 20179 48540 70322 85500
                   333 10274 20157 59002 85615
                   555 00///=
201504191500 AAXX 19154 67475 NIL=
201504170600 AAXX 17064 67475 12280 81411 10191 20189 48554 60044 887//
                   333 10274 20173 58020 88705 91024=
201504160600 AAXX 16064 67475 12380 60305 10186 20181 48534 60054 8367/
                   333 10227 20168 58002 83706 86360 91021=
201504151500 AAXX 15154 67475 NIL=
201504150600 AAXX 15064 67475 11270 83502 10179 20179 48532 60254 76066 8777/
                   333 10270 20162 59000 87704 81956 88459 91021=
201504140600 AAXX 14064 67475 12380 81003 10187 20184 48532 60084 886//
                   333 10277 20161 59009 88708 91021=
201504131500 AAXX 13154 67475 NIL=
201504131200 AAXX 13124 67475 NIL=
201504130600 AAXX 13064 67475 11350 70802 10185 20185 48541 60964 74140 876//
                   333 10323 20165 59005 87708 91022=
201504100600 AAXX 10064 67475 32480 71315 10189 20163 48541 70322 875//
                   333 10258 20157 58008 87615 91022=
201504100300 AAXX 10034 67475 NIL=
201504080900 AAXX 08094 67475 41359 81804 10177 20177 48541 76066 8577/
                   333 58019 85705 88460 91022=
201504080600 AAXX 08064 67475 11259 82105 10176 20174 48541 60054 76022 8677/
                   333 10284 20166 58013 86705 88459 91022=
201504071200 AAXX 07124 67475 41780 50102 10273 20178 48492 71522 81272
                   333 59006 81950 83850 81462 82080=
201504070600 AAXX 07064 67475 12480 63501 10188 20175 48528 60454 81578
                   333 10291 20155 58005 81616 81957 81359 86280
                   91021=
201504041500 AAXX 04154 67475 NIL=
201504021200 AAXX 02124 67475 42780 61703 10264 20174 48497 70222 86200
                   333 59025 81950 85850 91017=
201504020600 AAXX 02064 67475 12380 71304 10187 20187 48531 60034 70342 876//
                   333 10246 20159 59011 87708 91021=
201504020300 AAXX 02034 67475 NIL=
201504010900 AAXX 01094 67475 42580 71602 10229 20192 48530 72052 8627/
                   333 58006 81925 85825 87460 91022=
201504010600 AAXX 01064 67475 11805 81703 10184 20184 48542 60204 74122 8807/
                   333 10277 20170 58006 88458 91022=

################################################################################
#  SYNOPS from 67476, Misamfu (Zambia) | 10-06S | 031-15E | 1536 m
################################################################################
201504301500 AAXX 30154 67476 NIL=
201504300900 AAXX 30094 67476 NIL=
201504300600 AAXX 30064 67476 32980 20000 10165 20114 48/// 80001
                   333 10273 20101 5//// 82080=
201504290900 AAXX 29094 67476 NIL=
201504210600 AAXX 21064 67476 32580 40904 10193 20174 48/// 84500
                   333 10277 20156 5//// 84627=
201504200600 AAXX 20064 67476 32580 30505 10219 20178 48/// 83500
                   333 10280 20153 5//// 83628=
201504191500 AAXX 19154 67476 NIL=
201504160600 AAXX 16064 67476 NIL=
201504151500 AAXX 15154 67476 NIL=
201504150600 AAXX 15064 67476 11270 80000 10182 20182 48533 60384 76062 8777/
                   333 10265 20173 87704 88459 91021=
201504140600 AAXX 14064 67476 32580 60905 10182 20176 48/// 86530
                   333 10258 20170 58015 86628 84360=
201504131500 AAXX 13154 67476 NIL=
201504131200 AAXX 13124 67476 NIL=
201504130600 AAXX 13064 67476 12580 60502 10200 20188 48/// 60424 85530
                   333 10255 20174 5//// 85629 84360=
201504100600 AAXX 10064 67476 32580 50904 10195 20163 48/// 84530
                   333 10263 20154 58009 85628 84360=
201504100300 AAXX 10034 67476 NIL=
201504090600 AAXX 09064 67476 12580 70903 10189 20176 48/// 60324 85530
                   333 10225 20165 59006 85625 87360=
201504080600 AAXX 08064 67476 11478 80000 10184 20176 48/// 60014 75152 885//
                   333 10295 20174 58012 88618=
201504070600 AAXX 07064 67476 12980 30000 10188 20168 48/// 69904 83030
                   333 10290 20170 5//// 83360=
201504041500 AAXX 04154 67476 NIL=
201504020600 AAXX 02064 67476 12480 70000 10190 20187 48/// 60104 86630
                   333 10267 20160 59010 86715 85359=
201504020300 AAXX 02034 67476 NIL=
201504010900 AAXX 01094 67476 NIL=
201504010600 AAXX 01064 67476 12480 70000 10195 20188 48/// 60014 83670
                   333 10275 20180 58003 83715 87460=

################################################################################
#  SYNOPS from 67477, Mpika (Zambia) | 11-54S | 031-26E | 1400 m
################################################################################
201504301500 AAXX 30154 67477 NIL=
201504300900 AAXX 30094 67477 NIL=
201504290900 AAXX 29094 67477 NIL=
201504210600 AAXX 21064 67477 NIL=
201504191500 AAXX 19154 67477 NIL=
201504160600 AAXX 16064 67477 NIL=
201504151500 AAXX 15154 67477 NIL=
201504131500 AAXX 13154 67477 NIL=
201504131200 AAXX 13124 67477 NIL=
201504130600 AAXX 13064 67477 32480 40603 10204 20176 48546 84570
                   333 10263 20164 58004 84614 82459=
201504100600 AAXX 10064 67477 12480 60000 10184 20168 48545 69904 86500
                   333 10225 20150 58006 86610=
201504100300 AAXX 10034 67477 NIL=
201504090600 AAXX 09064 67477 11470 80602 10172 20162 48539 60124 75052 885//
                   333 10245 20162 59010 88612=
201504080600 AAXX 08064 67477 11475 80000 10169 20168 48549 60054 76066 8457/
                   333 10268 20166 58017 84612 86459=
201504070600 AAXX 07064 67477 11480 70000 10198 20192 48532 60034 72162 85570
                   333 10274 20160 58008 85611 84459=
201504041500 AAXX 04154 67477 NIL=
201504020600 AAXX 02064 67477 32980 51210 10191 20167 48536 84230
                   333 10255 20178 59012 84815 81359=
201504020300 AAXX 02034 67477 NIL=
201504010900 AAXX 01094 67477 NIL=

################################################################################
#  SYNOPS from 67481, Isoka (Zambia) | 10-07S | 032-38E | 1360 m
################################################################################
201504301500 AAXX 30154 67481 NIL=
201504300900 AAXX 30094 67481 42780 21503 10231 20103 48/// 81505
                   333 5//// 81650 82080=
201504300600 AAXX 30064 67481 32980 41203 10200 20125 48/// 80004
                   333 10265 20128 5//// 84080=
201504290900 AAXX 29094 67481 42680 21501 10242 20146 48/// 81201
                   333 5//// 81830 81080=
201504290600 AAXX 29064 67481 32980 22701 10198 20135 48/// 82050
                   333 10270 20145 59005 82361=
201504280600 AAXX 28064 67481 32480 11801 10200 20155 48/// 81501
                   333 10259 20151 58001 81610 81080=
201504210600 AAXX 21064 67481 NIL=
201504191500 AAXX 19154 67481 NIL=
201504170900 AAXX 17094 67481 42580 50301 10244 20181 83208
                   333 58012 83827 85280=
201504170600 AAXX 17064 67481 12480 70802 10205 20187 60024 83590
                   333 10280 20184 58016 83610 87360=
201504160600 AAXX 16064 67481 12480 62401 10193 20180 60014 81590
                   333 10231 20166 58012 81610 86361=
201504151500 AAXX 15154 67481 NIL=
201504150600 AAXX 15064 67481 12380 82701 10194 20185 60254 886//
                   333 10276 20183 59008 85707 88610=
201504140600 AAXX 14064 67481 32380 72401 10188 20176 48670
                   333 10276 20180 59010 84706 87360=
201504131500 AAXX 13154 67481 NIL=
201504131200 AAXX 13124 67481 NIL=
201504130600 AAXX 13064 67481 31375 62001 10190 20183 48/// 72844 83630
                   333 10280 20166 59002 83706 84360=
201504100900 AAXX 10094 67481 42480 71301 10199 20175 48/// 87500
                   333 5//// 87610=
201504100300 AAXX 10034 67481 NIL=
201504090600 AAXX 09064 67481 32380 81201 10191 20178 48/// 886//
                   333 10261 20175 59005 88706=
201504080600 AAXX 08064 67481 32380 83602 10199 20187 48/// 85670
                   333 10283 20176 58011 85706 88360=
201504070600 AAXX 07064 67481 32480 63302 10217 20184 48/// 82530
                   333 10284 20179 58005 82615 85360=
201504041500 AAXX 04154 67481 NIL=
201504021200 AAXX 02124 67481 42580 51003 10259 20186 48/// 85210
                   333 5//// 84829 82630 81361=
201504020600 AAXX 02064 67481 11380 51101 10195 20188 48/// 60054 72844 84610
                   333 10278 20175 59011 84709=
201504020300 AAXX 02034 67481 NIL=
201504011200 AAXX 01124 67481 42680 51003 10272 20182 48/// 85980
                   333 58003 81947 85847 81361=
201504010900 AAXX 01094 67481 NIL=
201504010600 AAXX 01064 67481 12480 73601 10205 20172 48/// 60144 87580
                   333 10275 20183 58003 87611 82361=

################################################################################
#  SYNOPS from 67531, Zambezi (Zambia) | 13-32S | 023-07E | 1077 m
################################################################################
201504301500 AAXX 30154 67531 NIL=
201504300900 AAXX 30094 67531 42980 11208 10262 20126 48/// 70200 80001
                   333 5//// 81082=
201504290900 AAXX 29094 67531 NIL=
201504280600 AAXX 28064 67531 32980 10903 10182 20146 48/// 70200 81030
                   333 10295 20118 5//// 81362=
201504210600 AAXX 21064 67531 32980 61104 10201 20184 48/// 70222 86071
                   333 10290 20184 5//// 86361 81080=
201504191500 AAXX 19154 67531 NIL=
201504170600 AAXX 17064 67531 32980 70502 10195 20188 48/// 70222 8707/
                   333 10305 20172 5//// 87360=
201504160600 AAXX 16064 67531 NIL=
201504151500 AAXX 15154 67531 NIL=
201504150600 AAXX 15064 67531 32980 51102 10178 20174 48/// 70222 85032
                   333 10280 20162 5//// 85362 82080=
201504140600 AAXX 14064 67531 32380 71802 10182 20176 48/// 70222 8367/
                   333 10255 20163 5//// 83706 87362=
201504131500 AAXX 13154 67531 NIL=
201504131200 AAXX 13124 67531 NIL=
201504100900 AAXX 10094 67531 42680 11207 10260 20176 48/// 81102
                   333 5//// 81833 81080=
201504100300 AAXX 10034 67531 NIL=
201504080600 AAXX 08064 67531 32980 63502 10211 20193 48/// 70222 84078
                   333 10323 20183 5//// 84362 84281=
201504070600 AAXX 07064 67531 32375 4//00 10205 20192 48/// 81641
                   333 10315 20184 5//// 81708 82360 83080=
201504041500 AAXX 04154 67531 NIL=
201504020600 AAXX 02064 67531 11380 70302 10200 20193 48/// 60374 76066 8377/
                   333 10282 20190 5//// 83707 87360=
201504020300 AAXX 02034 67531 NIL=
201504010900 AAXX 01094 67531 NIL=

################################################################################
#  SYNOPS from 67541, Kasempa (Zambia) | 13-32S | 025-51E | 1234 m
################################################################################
201504301500 AAXX 30154 67541 NIL=
201504300900 AAXX 30094 67541 NIL=
201504290900 AAXX 29094 67541 NIL=
201504210600 AAXX 21064 67541 NIL=
201504191500 AAXX 19154 67541 NIL=
201504170600 AAXX 17064 67541 12380 70000 10193 20187 48532 60024 70222 8153/
                   333 10//0 20//0 58010 81606 87360=
201504160600 AAXX 16064 67541 NIL=
201504151500 AAXX 15154 67541 NIL=
201504150600 AAXX 15064 67541 12980 70000 10168 20160 48522 69904 70222 8703/
                   333 10//0 20//0 59002 87360=
201504140600 AAXX 14064 67541 12380 70803 10184 20178 48524 60094 70222 8353/
                   333 10/// 20/// 59014 83606 87360=
201504131500 AAXX 13154 67541 NIL=
201504131200 AAXX 13124 67541 NIL=
201504130600 AAXX 13064 67541 32980 70602 10193 20181 48538 70222 8703/
                   333 10/// 20/// 58001 87360=
201504100600 AAXX 10064 67541 12980 11007 10206 20165 48532 60014 70222 80001
                   333 10/// 20/// 58002 81080=
201504100300 AAXX 10034 67541 NIL=
201504090600 AAXX 09064 67541 31350 80503 10186 20183 48530 76062 8353/
                   333 10/// 20/// 5//// 83706 87360=
201504041500 AAXX 04154 67541 NIL=
201504020600 AAXX 02064 67541 NIL=
201504020300 AAXX 02034 67541 NIL=
201504010900 AAXX 01094 67541 NIL=

################################################################################
#  SYNOPS from 67543, Kabompo (Zambia) | 13-36S | 024-12E | 1075 m
################################################################################
201504301500 AAXX 30154 67543 NIL=
201504300900 AAXX 30094 67543 NIL=
201504290900 AAXX 29094 67543 NIL=
201504280600 AAXX 28064 67543 31970 3//00 10154 20134 48/// 70500 80005
                   333 10298 20121 5//// 83280=
201504210600 AAXX 21064 67543 32980 4//00 10192 20182 48/// 83031
                   333 10302 20166 5//// 83360=
201504191500 AAXX 19154 67543 NIL=
201504160600 AAXX 16064 67543 NIL=
201504151500 AAXX 15154 67543 NIL=
201504131500 AAXX 13154 67543 NIL=
201504131200 AAXX 13124 67543 NIL=
201504100300 AAXX 10034 67543 NIL=
201504080600 AAXX 08064 67543 12380 6//00 10204 20192 48/// 60154 82648
                   333 10318 20185 5//// 82708 81360 86280=
201504041500 AAXX 04154 67543 NIL=
201504020600 AAXX 02064 67543 12380 8//00 10200 20192 48/// 60184 886//
                   333 10278 20188 5//// 88708=
201504020300 AAXX 02034 67543 NIL=
201504010900 AAXX 01094 67543 NIL=

################################################################################
#  SYNOPS from 67551, Solwezi (Zambia) | 12-11S | 026-23E | 1386 m
################################################################################
201504301500 AAXX 30154 67551 NIL=
201504300900 AAXX 30094 67551 NIL=
201504290900 AAXX 29094 67551 NIL=
201504210600 AAXX 21064 67551 12475 81105 10173 20168 48541 60074 8757/
                   333 10284 20165 58004 85810 87362 91012=
201504200600 AAXX 20064 67551 12475 70903 10205 20182 48536 60014 8353/
                   333 10245 20161 58007 83610 87362 91021=
201504191500 AAXX 19154 67551 NIL=
201504170600 AAXX 17064 67551 11957 81204 10170 20170 48538 60454 76366 8802/
                   333 10250 20158 59003 88262 91021=
201504160600 AAXX 16064 67551 12375 70903 10186 20176 48543 60034 8267/
                   333 10237 20174 59003 82707 87362=
201504151500 AAXX 15154 67551 NIL=
201504150600 AAXX 15064 67551 31303 80903 10167 20165 60204 74042 886//
                   333 10216 20165 58010 88704 91022=
201504140600 AAXX 14064 67551 11340 80000 10176 20176 48536 60044 76162 887//
                   333 10252 20171 59002 88706 91021=
201504131500 AAXX 13154 67551 NIL=
201504131200 AAXX 13124 67551 NIL=
201504130600 AAXX 13064 67551 31358 81206 10175 20170 48538 60044 76366 8367/
                   333 10282 20145 58003 83607 87662 91021=
201504100600 AAXX 10064 67551 12380 71606 10178 20155 48530 60024 8667/
                   333 10256 20160 58011 87608 87362 91020=
201504100300 AAXX 10034 67551 NIL=
201504090600 AAXX 09064 67551 12375 81005 10188 20176 48530 69904 885//
                   333 10271 20162 58002 88610 91019=
201504080600 AAXX 08064 67551 11358 81205 10182 20182 48520 60064 74022 887//
                   333 10284 20160 58013 88706 91020=
201504070600 AAXX 07064 67551 32980 53002 10190 20174 48258 85031
                   333 10/// 20170 58019 85362 82080 91019=
201504041500 AAXX 04154 67551 NIL=
201504020600 AAXX 02064 67551 12380 60905 10175 20172 48517 60094 866//
                   333 10240 20170 59006 86707 91019=
201504020300 AAXX 02034 67551 NIL=
201504010900 AAXX 01094 67551 NIL=

################################################################################
#  SYNOPS from 67561, Ndola (Zambia) | 13-00S | 028-39E | 1269 m
################################################################################
201505010600 AAXX 01064 67561 31958 30000 10162 20115 48538 70400 80001
                   333 10277 20090 58005 83080
                   555 00/// 91022=
201504301500 AAXX 30154 67561 41970 30000 10258 20091 48550 70500 80002
                   333 59001 83080=
201504300900 AAXX 30094 67561 NIL=
201504300600 AAXX 30064 67561 31958 50000 10149 20126 48531 70442 80008
                   333 10282 20094 59005 85280
                   555 91021=
201504290900 AAXX 29094 67561 41975 31706 10253 20076 48545 70500 80001
                   333 59006 83080 91022=
201504290600 AAXX 29064 67561 31959 20000 10157 20124 48546 70500 80001
                   333 10281 20109 59002 82080
                   555 00/// 91022=
201504280600 AAXX 28064 67561 31958 10000 10168 20138 48540 70400 80001
                   333 10276 20112 59004 81080 91022=
201504210600 AAXX 21064 67561 31360 30000 10193 20177 48548 60014 70500 83630
                   333 10284 20152 58003 83706 81360
                   555 00/// 91023=
201504201200 AAXX 20124 67561 41675 60000 10276 20171 48526 70522 86202
                   333 58004 81930 86835 81080
                   555 66/// 77109 8881/ 98018=
201504191500 AAXX 19154 67561 NIL=
201504190600 AAXX 19064 67561 11365 40000 10203 20185 48542 60124 70541 81630
                   333 10260 20161 59006 81706 84360
                   555 00/// 20044 91022=
201504180600 AAXX 18064 67561 11360 70000 10190 20176 48534 60444 70522 82638
                   333 10259 20166 59003 82708 86360 87280
                   555 00/// 20003 91022=
201504171200 AAXX 17124 67561 41670 70105 10236 20206 48525 72162 86238
                   333 58007 81930 86835 85360 87280
                   555 66/// 77032 8887/ 98007=
201504170600 AAXX 17064 67561 31370 80000 10190 20184 48545 60034 70562 8377/
                   333 10258 20177 58013 83705 88459
                   555 00/// 20004 91022=
201504160600 AAXX 16064 67561 NIL=
201504151500 AAXX 15154 67561 NIL=
201504131500 AAXX 13154 67561 NIL=
201504131200 AAXX 13124 67561 NIL=
201504101200 AAXX 10124 67561 41570 70905 10242 20160 48532 70522 86230
                   333 58001 81930 86835 85360
                   555 66/// 77/// 8881/ 98034 91020=
201504100600 AAXX 10064 67561 41360 30903 10180 20156 48541 70500 81632
                   333 58006 81706 81360 83080
                   555 91022=
201504100300 AAXX 10034 67561 41960 10000 10151 20143 48531 70500 81030
                   333 58012 81360 91021=
201504080900 AAXX 08094 67561 41460 80704 10204 20184 48543 72052 86538
                   333 58020 819// 86610 87360 88280 91022=
201504080600 AAXX 08064 67561 11260 80805 10198 20186 48538 60224 70562 8677/
                   333 10292 20166 58016 86704 88459
                   555 00/// 200003 91021=
201504070600 AAXX 07064 67561 31260 71005 10202 20192 48524 60034 70522 83632
                   333 10265 20181 58010 83705 86360 83080
                   555 00/// 20016 91020=
201504041500 AAXX 04154 67561 41770 70000 10214 20186 48483 72992 82438
                   333 58007 81950 82656 84360 87280=
201504040600 AAXX 04064 67561 31260 70505 10194 20187 48497 70522 85638
                   333 10274 20260 59015 85703 86360 87280
                   555 00/// 20004 91018=
201504030600 AAXX 03064 67561 11360 70000 10196 20178 48520 60044 70522 8667/
                   333 10250 20171 59012 86706 87459
                   555 00/// 20019 91019=
201504020600 AAXX 02064 67561 31260 70000 1//// 20190 48532 60194 70522 8563/
                   333 10261 20167 59008 85705 86360
                   555 00/// 20143 91021=
201504020300 AAXX 02034 67561 41260 60000 10186 20183 48512 70522 81632
                   333 59008 81704 86360 81080 91018=
201504011200 AAXX 01124 67561 41470 60000 10243 20194 48510 70522 85238
                   333 58008 81915 85820 82360 86280
                   555 67/// 78055 8987/ 99014 91018=
201504010900 AAXX 01094 67561 41260 70000 10187 20179 48540 76166 8477/
                   333 58009 84704 82806 87459=
201504010600 AAXX 01064 67561 31258 80000 10190 20187 48538 60144 75166 885//
                   333 10276 20176 58010 88704
                   555 00/// 91022=

################################################################################
#  SYNOPS from 67563, Kafironda (Zambia) | 12-36S | 028-07E | 1243 m
################################################################################
201504301500 AAXX 30154 67563 NIL=
201504300900 AAXX 30094 67563 NIL=
201504290900 AAXX 29094 67563 NIL=
201504210600 AAXX 21064 67563 NIL=
201504191500 AAXX 19154 67563 NIL=
201504160600 AAXX 16064 67563 NIL=
201504151500 AAXX 15154 67563 NIL=
201504150600 AAXX 15064 67563 11860 80000 10190 20171 48/// 60074 72162 8807/
                   333 10230 20/// 59010 81510 88458=
201504131500 AAXX 13154 67563 NIL=
201504131200 AAXX 13124 67563 NIL=
201504100300 AAXX 10034 67563 NIL=
201504090600 AAXX 09064 67563 32560 80000 10188 20176 48/// 70222 885//
                   333 10270 20/// 5//// 88615=
201504041500 AAXX 04154 67563 NIL=
201504020600 AAXX 02064 67563 NIL=
201504020300 AAXX 02034 67563 NIL=
201504010900 AAXX 01094 67563 NIL=

################################################################################
#  SYNOPS from 67571, Serenje (Zambia) | 13-14S | 030-13E | 1384 m
################################################################################
201504301500 AAXX 30154 67571 NIL=
201504300900 AAXX 30094 67571 42982 50906 10250 20039 48524 70311 80008
                   333 59009 85281=
201504300600 AAXX 30064 67571 32982 11204 10212 20089 48522 70200 80001
                   333 10268 20105 59008 81081=
201504290900 AAXX 29094 67571 NIL=
201504280600 AAXX 28064 67571 32982 31203 10203 20121 48541 70200 80001
                   333 10266 20149 58000 83080=
201504210600 AAXX 21064 67571 12482 70905 10195 20179 48542 60034 70222 85508
                   333 10276 20171 58007 85618 87280=
201504200600 AAXX 20064 67571 32482 70905 10194 20172 48531 70222 86508
                   333 10269 20176 59003 86618 87280=
201504191500 AAXX 19154 67571 NIL=
201504160600 AAXX 16064 67571 12982 50000 10188 20172 48531 69924 70311 85030
                   333 10257 20151 58007 85360=
201504151500 AAXX 15154 67571 NIL=
201504150600 AAXX 15064 67571 12380 81502 10184 20163 48521 69904 70222 8167/
                   333 10241 20171 59009 81708 88460=
201504140600 AAXX 14064 67571 12380 80905 10176 20160 48531 69904 70222 886//
                   333 10291 20167 59013 88709=
201504131500 AAXX 13154 67571 NIL=
201504131200 AAXX 13124 67571 41481 70906 10191 20172 48524 76166 8277/
                   333 58014 82710 87460=
201504130600 AAXX 13064 67571 12382 80904 10185 20169 48541 60064 70222 886//
                   333 10279 20173 58009 88708=
201504100900 AAXX 10094 67571 41478 81206 10190 20164 48541 75555 887//
                   333 58004 88710=
201504100300 AAXX 10034 67571 NIL=
201504090600 AAXX 09064 67571 12381 81506 10170 20156 48530 69924 70222 886//
                   333 10236 20162 59002 88709=
201504080900 AAXX 08094 67571 42480 80906 10200 20173 48542 76166 86507
                   333 59005 86617 88280=
201504080600 AAXX 08064 67571 11380 81204 10175 20167 48531 60014 76166 81707
                   333 10269 20171 58014 81709 88280=
201504071200 AAXX 07124 67571 41682 71502 10219 20200 48492 79196 83248
                   333 58004 81940 83840 81360 87280=
201504070600 AAXX 07064 67571 12482 70902 10200 20189 48522 8453/
                   333 10290 20166 58009 84618 87360=
201504041500 AAXX 04154 67571 NIL=
201504021200 AAXX 02124 67571 41682 71206 10232 20181 48501 70222 85208
                   333 59009 81930 85830 87280=
201504020600 AAXX 02064 67571 12482 70906 10183 20166 48521 60054 70222 8554/
                   333 10239 20178 59008 85617 87360=
201504020300 AAXX 02034 67571 NIL=
201504010900 AAXX 01094 67571 42582 72402 10231 20161 48533 70222 8444/
                   333 58008 81925 83625 87360=
201504010600 AAXX 01064 67571 11981 81503 10173 20165 48530 60134 76166 81047
                   333 10264 20170 58006 81360 88280=

################################################################################
#  SYNOPS from 67575, Mkushi (Zambia) | 13-38-00S | 029-26-00E | 1237 m
################################################################################
201504301500 AAXX 30154 67575 NIL=
201504300900 AAXX 30094 67575 NIL=
201504300600 AAXX 30064 67575 32980 10000 10151 20132 48/// 80001
                   333 10281 20078 5//// 81080=
201504290900 AAXX 29094 67575 NIL=
201504280600 AAXX 28064 67575 32980 10000 10182 20147 48/// 80001
                   333 10277 20090 5//// 81080=
201504210600 AAXX 21064 67575 NIL=
201504200600 AAXX 20064 67575 32480 50902 10205 20176 48/// 83502
                   333 10289 20172 5//// 83615 83080=
201504191500 AAXX 19154 67575 NIL=
201504170600 AAXX 17064 67575 12380 80000 10200 20187 48/// 69914 8467/
                   333 10270 20184 5//// 84706 85360=
201504160600 AAXX 16064 67575 NIL=
201504151500 AAXX 15154 67575 NIL=
201504150600 AAXX 15064 67575 11965 81201 10178 20165 48/// 60034 76062 8807/
                   333 10230 20157 5//// 88360=
201504140600 AAXX 14064 67575 11340 80000 10177 20172 48/// 60034 76062 8777/
                   333 10225 20167 5//// 87706 82360=
201504131500 AAXX 13154 67575 NIL=
201504131200 AAXX 13124 67575 NIL=
201504130600 AAXX 13064 67575 11350 80000 10185 20179 48/// 60034 76162 8377/
                   333 10292 20175 5//// 83706 86360=
201504100300 AAXX 10034 67575 NIL=
201504041500 AAXX 04154 67575 NIL=
201504020600 AAXX 02064 67575 11480 70904 10200 20176 48/// 69914 70322 85572
                   333 10280 20180 5//// 85612 82360 81080=
201504020300 AAXX 02034 67575 NIL=
201504010900 AAXX 01094 67575 NIL=
201504010600 AAXX 01064 67575 11375 80000 10193 20181 48/// 60134 76162 887//
                   333 10280 20175 5//// 88706=

################################################################################
#  SYNOPS from 67580, Msekera (Zambia) | 13-39S | 032-34E | 1025 m
################################################################################
201504301500 AAXX 30154 67580 NIL=
201504300900 AAXX 30094 67580 NIL=
201504300600 AAXX 30064 67580 32980 00000 10211 20136 48///
                   333 10296 20/// 59002=
201504290900 AAXX 29094 67580 NIL=
201504280600 AAXX 28064 67580 32980 31504 10216 20141 48/// 81031
                   333 10299 20/// 58001 81361 82080=
201504210600 AAXX 21064 67580 32780 60000 10287 20183 48/// 86201
                   333 10/// 20/// 86856 81080=
201504200600 AAXX 20064 67580 32980 61231 10220 20185 48/// 81038
                   333 10305 20/// 5//// 81362 86280=
201504191500 AAXX 19154 67580 NIL=
201504170600 AAXX 17064 67580 12480 73602 10221 20195 48/// 60104 84538
                   333 10266 20//0 5//// 84618 85360 87280=
201504160600 AAXX 16064 67580 12980 70000 10211 20199 48/// 60174
                   333 10286 20/// 58016 87360=
201504151500 AAXX 15154 67580 NIL=
201504150600 AAXX 15064 67580 12980 61202 10230 20179 48/// 69904 86030
                   333 10300 20/// 59015 86360=
201504140600 AAXX 14064 67580 41680 71203 10266 20185 48/// 71622 87232
                   333 5//// 87842 82361 83080=
201504131500 AAXX 13154 67580 NIL=
201504131200 AAXX 13124 67580 41680 71203 10266 20185 48/// 71622 87232
                   333 5//// 87842 82361 83080=
201504130600 AAXX 13064 67580 32980 51204 10230 20174 48/// 85030
                   333 10298 20/// 58000 85360=
201504100900 AAXX 10094 67580 42680 71503 10230 20166 48/// 87830
                   333 58002 85834 82636 81361=
201504100600 AAXX 10064 67580 32480 71205 10196 20154 48/// 86830
                   333 10249 20/// 58009 81818 85622 81360=
201504100300 AAXX 10034 67580 NIL=
201504081200 AAXX 08124 67580 42780 71604 10239 20192 48/// 8523/
                   333 58025 85850 86360=
201504080900 AAXX 08094 67580 42680 72003 10237 20189 48/// 875//
                   333 58033 87635=
201504080600 AAXX 08064 67580 12580 71803 10221 20187 48/// 69904 8553/
                   333 10292 20/// 58014 85620 87360=
201504070600 AAXX 07064 67580 12480 71502 10222 20199 48/// 69904 8153/
                   333 10323 20/// 58011 81614 87360=
201504041500 AAXX 04154 67580 NIL=
201504020600 AAXX 02064 67580 12580 20902 10207 20187 48/// 60714 81132
                   333 10278 20/// 59011 81820 81362 81080=
201504020300 AAXX 02034 67580 NIL=
201504010900 AAXX 01094 67580 NIL=
201504010600 AAXX 01064 67580 12580 70000 10216 20203 48/// 60134 875//
                   333 10305 20/// 58006 87625=

################################################################################
#  SYNOPS from 67581, Chipata (Zambia) | 13-33S | 032-35E | 1028 m
################################################################################
201504301500 AAXX 30154 67581 NIL=
201504300900 AAXX 30094 67581 NIL=
201504290900 AAXX 29094 67581 NIL=
201504210600 AAXX 21064 67581 32560 30904 10240 20181 48564 81101
                   333 10300 20160 58008 81825 83080 91022=
201504191500 AAXX 19154 67581 NIL=
201504160600 AAXX 16064 67581 NIL=
201504151500 AAXX 15154 67581 NIL=
201504150600 AAXX 15064 67581 12560 50000 10230 20178 48536 69904 81132
                   333 10285 20160 59013 81825 83360 83080 91019=
201504131500 AAXX 13154 67581 NIL=
201504131200 AAXX 13124 67581 NIL=
201504130600 AAXX 13064 67581 32680 40000 10235 20173 48562 81130
                   333 10300 20175 58000 81830 83360 91022=
201504100300 AAXX 10034 67581 NIL=
201504090600 AAXX 09064 67581 32680 61505 10205 20166 48549 8317/
                   333 10265 20160 58001 83830 86360 91021=
201504080600 AAXX 08064 67581 12560 71402 10218 20182 48553 69904 8257/
                   333 10300 20174 58017 82620 87362 91021=
201504041500 AAXX 04154 67581 NIL=
201504020600 AAXX 02064 67581 NIL=
201504020300 AAXX 02034 67581 NIL=
201504010900 AAXX 01094 67581 NIL=

################################################################################
#  SYNOPS from 67583, Lundazi (Zambia) | 12-17S | 033-12E | 1143 m
################################################################################
201504301500 AAXX 30154 67583 NIL=
201504300900 AAXX 30094 67583 NIL=
201504290900 AAXX 29094 67583 NIL=
201504280600 AAXX 28064 67583 32980 10901 10195 20154 48/// 81030
                   333 10/// 20/// 59003 81360=
201504210600 AAXX 21064 67583 NIL=
201504191500 AAXX 19154 67583 NIL=
201504170600 AAXX 17064 67583 12980 71201 10205 20190 48/// 60174 83037
                   333 10/// 20/// 59001 83360 87280=
201504160600 AAXX 16064 67583 32980 71501 10213 20203 60734 87030
                   333 10/// 20/// 59006 87360=
201504151500 AAXX 15154 67583 NIL=
201504131500 AAXX 13154 67583 NIL=
201504131200 AAXX 13124 67583 NIL=
201504130600 AAXX 13064 67583 12580 40000 10215 20193 48/// 69904 82531
                   333 10/// 20/// 59001 82625 81360 81080=
201504100300 AAXX 10034 67583 NIL=
201504041500 AAXX 04154 67583 NIL=
201504020600 AAXX 02064 67583 32580 71804 10220 20182 48/// 87500
                   333 10/// 20/// 58016 87625=
201504020300 AAXX 02034 67583 NIL=
201504010900 AAXX 01094 67583 NIL=
201504010600 AAXX 01064 67583 32980 71801 10208 20203 48/// 82037
                   333 10/// 20/// 58000 82360 87280=

################################################################################
#  SYNOPS from 67599, Mfuwe (Zambia) | 13-16S | 031-56E | 568 m
################################################################################
201504301500 AAXX 30154 67599 NIL=
201504300900 AAXX 30094 67599 NIL=
201504290900 AAXX 29094 67599 NIL=
201504280600 AAXX 28064 67599 32980 10000 10195 20155 48547 70200 80004
                   333 10325 20130 58003 81070 91020=
201504210600 AAXX 21064 67599 NIL=
201504191500 AAXX 19154 67599 NIL=
201504170600 AAXX 17064 67599 12380 70000 10225 20218 48537 60124 70222 8177/
                   333 10315 20220 58013 81706 87358 91020=
201504160600 AAXX 16064 67599 NIL=
201504151500 AAXX 15154 67599 NIL=
201504150600 AAXX 15064 67599 31975 70000 10225 20204 48526 70500 87030
                   333 10315 20196 59017 87359 91017=
201504140600 AAXX 14064 67599 11975 70000 10225 20203 48542 60044 70500 8707/
                   333 10324 20195 59008 87360 91019=
201504131500 AAXX 13154 67599 NIL=
201504131200 AAXX 13124 67599 NIL=
201504130600 AAXX 13064 67599 32980 30000 10245 20208 48556 83030
                   333 10344 20200 59001 83360 91020=
201504100300 AAXX 10034 67599 NIL=
201504080600 AAXX 08064 67599 12370 70000 10225 20211 48548 69994 72152 8177/
                   333 10335 20220 58019 81706 87358 91019=
201504071200 AAXX 07124 67599 41575 70000 10281 20186 48497 70522 86238
                   333 59008 81925 86830 82360 87280
                   555 66/// 77040 8890/ 98004 91016=
201504070600 AAXX 07064 67599 12980 70000 10240 20218 48534 60024 87030
                   333 10346 20210 58011 87359 91017=
201504041500 AAXX 04154 67599 NIL=
201504020600 AAXX 02064 67599 NIL=
201504020300 AAXX 02034 67599 NIL=
201504010900 AAXX 01094 67599 NIL=
201504010600 AAXX 01064 67599 12380 70000 10230 20224 48546 60084 72582 82732
                   333 10324 20215 58001 82704 85816 83359 85080
                   91019=

################################################################################
#  SYNOPS from 67625, Kalabo (Zambia) | 14-51S | 022-42E | 1033 m
################################################################################
201504301500 AAXX 30154 67625 NIL=
201504300900 AAXX 30094 67625 NIL=
201504290900 AAXX 29094 67625 42982 00609 10283 20132 48///
                   333 59009=
201504210600 AAXX 21064 67625 42682 30905 10304 20186 48/// 82164
                   333 82848 81360 83075=
201504200600 AAXX 20064 67625 32982 60901 10199 20193 48/// 81033
                   333 10329 20160 59009 81360 86075=
201504191500 AAXX 19154 67625 NIL=
201504170600 AAXX 17064 67625 32982 50604 10216 20198 48/// 85030
                   333 10300 20183 59007 85360=
201504160600 AAXX 16064 67625 32982 30304 10224 20189 48/// 83030
                   333 10304 20182 58007 83360=
201504151500 AAXX 15154 67625 NIL=
201504150600 AAXX 15064 67625 12982 10907 10205 20187 48/// 60014 81030
                   333 10285 20160 59086 81360=
201504140600 AAXX 14064 67625 32982 11101 10205 20193 48/// 81030
                   333 10313 20160 58007 81360=
201504131500 AAXX 13154 67625 NIL=
201504131200 AAXX 13124 67625 NIL=
201504130600 AAXX 13064 67625 12982 40906 10213 20/// 48/// 60064 84030
                   333 10330 20185 59006 84360=
201504101200 AAXX 10124 67625 42682 30304 10290 20159 48/// 83100
                   333 59003 83845=
201504100900 AAXX 10094 67625 42682 20604 10269 20172 48/// 82101
                   333 58003 82839 81075=
201504100600 AAXX 10064 67625 32982 10906 10208 20174 48/// 81030
                   333 10292 20178 58003 81360=
201504100300 AAXX 10034 67625 NIL=
201504090600 AAXX 09064 67625 32482 70908 10212 20195 48/// 876//
                   333 10285 20195 59004 87725=
201504080900 AAXX 08094 67625 42982 60907 10267 20205 48/// 83133
                   333 58019 83825 85360 86075=
201504080600 AAXX 08064 67625 32982 71010 10224 20200 48/// 82033
                   333 10340 20185 58016 82360 87075=
201504070600 AAXX 07064 67625 32982 30604 10235 20212 48/// 83030
                   333 10320 20190 59006 83360=
201504041500 AAXX 04154 67625 NIL=
201504020600 AAXX 02064 67625 11382 80904 10200 20198 48/// 60334 72166 85623
                   333 10285 20189 59009 85706 86460 87075=
201504020300 AAXX 02034 67625 NIL=
201504010900 AAXX 01094 67625 NIL=

################################################################################
#  SYNOPS from 67633, Mongu (Zambia) | 15-15S | 023-09E | 1052 m
################################################################################
201504301500 AAXX 30154 67633 NIL=
201504300900 AAXX 30094 67633 NIL=
201504290900 AAXX 29094 67633 42980 00903 10285 20138 48548
                   333 59010 91020=
201504210600 AAXX 21064 67633 NIL=
201504200600 AAXX 20064 67633 12980 41803 10210 20181 48534 60014 70111 81082
                   333 10310 20168 58006 81360 84080 91020=
201504191500 AAXX 19154 67633 NIL=
201504160600 AAXX 16064 67633 NIL=
201504151500 AAXX 15154 67633 NIL=
201504150600 AAXX 15064 67633 32980 10306 10207 20177 48514 70200 81030
                   333 10290 20165 59004 81361 91018=
201504131500 AAXX 13154 67633 NIL=
201504131200 AAXX 13124 67633 NIL=
201504130600 AAXX 13064 67633 12980 71502 10192 20174 48537 60074 70222 8707/
                   333 10321 20173 58001 87460=
201504100600 AAXX 10064 67633 32980 11108 10211 20175 48534 70200 81030
                   333 10290 20172 58014 81361 91020=
201504100300 AAXX 10034 67633 NIL=
201504090600 AAXX 09064 67633 12480 70906 10215 20186 48527 60014 70222 877//
                   333 10310 20194 59011 87710 91019=
201504080600 AAXX 08064 67633 32980 71704 10224 20198 48535 70322 84530
                   333 10332 20192 58031 84620 87360 91020=
201504041500 AAXX 04154 67633 NIL=
201504020600 AAXX 02064 67633 NIL=
201504020300 AAXX 02034 67633 NIL=
201504010900 AAXX 01094 67633 NIL=

################################################################################
#  SYNOPS from 67641, Kaoma (Zambia) | 14-48S | 024-48E | 1213 m
################################################################################
201504301500 AAXX 30154 67641 NIL=
201504300900 AAXX 30094 67641 NIL=
201504290900 AAXX 29094 67641 NIL=
201504210600 AAXX 21064 67641 32980 72101 10215 20186 48500 87030
                   333 10295 20187 59012 87360 91016=
201504191500 AAXX 19154 67641 NIL=
201504170600 AAXX 17064 67641 12982 73202 10209 20191 48533 69914 87030
                   333 10290 20196 58016 87360 91020=
201504160600 AAXX 16064 67641 NIL=
201504151500 AAXX 15154 67641 NIL=
201504150600 AAXX 15064 67641 32580 33301 10190 20176 48478 81530
                   333 10240 20167 59019 81630 82360 91014=
201504140600 AAXX 14064 67641 12780 70701 10190 20184 48498 60044 875//
                   333 10290 20185 59019 87635 91016=
201504131500 AAXX 13154 67641 NIL=
201504131200 AAXX 13124 67641 NIL=
201504130600 AAXX 13064 67641 32980 41001 10201 20186 48518 84030
                   333 10300 20172 59011 84360 91018=
201504100300 AAXX 10034 67641 NIL=
201504080600 AAXX 08064 67641 32980 60901 10216 20203 48480 84031
                   333 10316 20200 58000 84360 82080 91014=
201504070600 AAXX 07064 67641 32980 41401 10210 20197 48480 81031
                   333 10304 20186 59008 81360 83080 91014=
201504041500 AAXX 04154 67641 NIL=
201504020600 AAXX 02064 67641 12680 71101 10196 20/// 48498 61004 875//
                   333 10262 20192 59006 87630 91016=
201504020300 AAXX 02034 67641 NIL=
201504010900 AAXX 01094 67641 NIL=

################################################################################
#  SYNOPS from 67655, Mumbwa (Zambia) | 15-04S | 027-11E | 1216 m
################################################################################
201504301500 AAXX 30154 67655 NIL=
201504300900 AAXX 30094 67655 NIL=
201504290900 AAXX 29094 67655 NIL=
201504210600 AAXX 21064 67655 NIL=
201504191500 AAXX 19154 67655 NIL=
201504160600 AAXX 16064 67655 12680 10000 10180 20175 48546 69904 8807/
                   333 10248 20/// 58010 88458 91021=
201504151500 AAXX 15154 67655 NIL=
201504131500 AAXX 13154 67655 NIL=
201504131200 AAXX 13124 67655 NIL=
201504100300 AAXX 10034 67655 NIL=
201504041500 AAXX 04154 67655 NIL=
201504020600 AAXX 02064 67655 NIL=
201504020300 AAXX 02034 67655 NIL=
201504010900 AAXX 01094 67655 NIL=

################################################################################
#  SYNOPS from 67659, Kafue Polder (Zambia) | 15-46S | 027-55E | 978 m
################################################################################
201504301500 AAXX 30154 67659 NIL=
201504300900 AAXX 30094 67659 NIL=
201504290900 AAXX 29094 67659 NIL=
201504210600 AAXX 21064 67659 NIL=
201504191500 AAXX 19154 67659 NIL=
201504160600 AAXX 16064 67659 NIL=
201504151500 AAXX 15154 67659 NIL=
201504131500 AAXX 13154 67659 NIL=
201504131200 AAXX 13124 67659 NIL=
201504100600 AAXX 10064 67659 32380 31403 10215 20//0 48/// 70322 81530
                   333 10250 20//0 5//// 81810 83360=
201504100300 AAXX 10034 67659 NIL=
201504070600 AAXX 07064 67659 32380 72504 10266 20/// 48/// 70322 8553/
                   333 10245 20/// 5//// 85610 82360=
201504041500 AAXX 04154 67659 NIL=
201504020600 AAXX 02064 67659 NIL=
201504020300 AAXX 02034 67659 NIL=
201504010900 AAXX 01094 67659 NIL=
201504010600 AAXX 01064 67659 12380 70904 10220 20/// 48/// 69904 75022 85570
                   333 10282 20/// 5//// 82707 85610 84360=

################################################################################
#  SYNOPS from 67662, Kabwe Agric (Zambia) | 14-24S | 028-30E | 1165 m
################################################################################
201504301500 AAXX 30154 67662 NIL=
201504300900 AAXX 30094 67662 NIL=
201504300600 AAXX 30064 67662 32980 10902 10/// 20136 48/// 80001
                   333 10275 20/// 5//// 81080=
201504290900 AAXX 29094 67662 NIL=
201504290600 AAXX 29064 67662 32980 11202 10153 20140 48/// 80001
                   333 10265 20/// 5//// 81080=
201504280600 AAXX 28064 67662 32980 00902 10169 20148 48///
                   333 10265 20///=
201504210600 AAXX 21064 67662 NIL=
201504191500 AAXX 19154 67662 NIL=
201504160600 AAXX 16064 67662 NIL=
201504151500 AAXX 15154 67662 NIL=
201504150600 AAXX 15064 67662 11360 80902 10174 20162 69984 76266 8477/
                   333 10195 20/// 84708 88460=
201504131500 AAXX 13154 67662 NIL=
201504131200 AAXX 13124 67662 NIL=
201504130600 AAXX 13064 67662 32980 71202 10185 20171 87030
                   333 10280 20/// 5//// 87360=
201504100300 AAXX 10034 67662 NIL=
201504080600 AAXX 08064 67662 11360 80503 10196 20190 48/// 60024 76155 8677/
                   333 10263 20/// 5//// 86709 88460=
201504070600 AAXX 07064 67662 32380 80202 10207 20196 48/// 8647/
                   333 10275 20/// 5//// 84709 88360=
201504041500 AAXX 04154 67662 NIL=
201504020600 AAXX 02064 67662 NIL=
201504020300 AAXX 02034 67662 NIL=
201504010900 AAXX 01094 67662 NIL=

################################################################################
#  SYNOPS from 67663, Kabwe (Zambia) | 14-27S | 028-28E | 1206 m
################################################################################
201504301500 AAXX 30154 67663 NIL=
201504300900 AAXX 30094 67663 NIL=
201504290900 AAXX 29094 67663 NIL=
201504210600 AAXX 21064 67663 NIL=
201504191500 AAXX 19154 67663 NIL=
201504170600 AAXX 17064 67663 11480 81203 10193 20189 48571 60034 76066 8457/
                   333 10235 20184 58027 84618 88460=
201504160600 AAXX 16064 67663 11470 81004 10191 20182 48536 60014 76066 8157/
                   333 10220 20176 58005 81618 88460=
201504151500 AAXX 15154 67663 NIL=
201504140600 AAXX 14064 67663 11980 81810 10175 20165 48547 60024 76062 8807/
                   333 10235 20168 59010 88460=
201504131500 AAXX 13154 67663 NIL=
201504131200 AAXX 13124 67663 NIL=
201504130600 AAXX 13064 67663 32980 80808 10182 20171 48550 8807/
                   333 10274 20171 58018 88460=
201504100600 AAXX 10064 67663 32480 61005 10180 20165 48538 70322 86530
                   333 10240 20154 59004 86618 83360=
201504100300 AAXX 10034 67663 NIL=
201504090600 AAXX 09064 67663 12480 60807 10185 20166 48542 69944 85532
                   333 10242 20160 58004 85618 83360 83080=
201504080600 AAXX 08064 67663 11980 81306 10190 20187 48539 60054 76166 8807/
                   333 10257 20185 58018 88460=
201504070600 AAXX 07064 67663 12480 70803 10204 20198 48523 60074 83680
                   333 10276 20192 58011 83708 87460=
201504041500 AAXX 04154 67663 NIL=
201504020600 AAXX 02064 67663 12480 80907 10191 20172 48527 69904 70222 885//
                   333 10253 20181 59012 88619=
201504020300 AAXX 02034 67663 NIL=
201504010900 AAXX 01094 67663 NIL=
201504010600 AAXX 01064 67663 11980 80903 10188 20185 48538 60204 76166 8807/
                   333 10252 20178 58026 88460=

################################################################################
#  SYNOPS from 67665, Lusaka Internationalairport (Zambia) | 15-19S | 028-27E | 1152 m
################################################################################
201505010600 AAXX 01064 67665 32580 41603 10168 20105 48547 70200 84500
                   333 10292 20/// 58005 84625=
201505010300 AAXX 01034 67665 42980 10000 10142 20096 48521 70300 81030
                   333 58000 81360=
201505010000 AAXX 01004 67665 42980 00000 10139 20100 49522 70100
                   333 59003=
201504302100 AAXX 30214 67665 42960 10000 10149 20094 48529 70200 81030
                   333 59006 81360=
201504301800 AAXX 30184 67665 41959 10000 10168 20096 48521 70500 81030
                   333 59008 81360=
201504301500 AAXX 30154 67665 NIL=
201504301200 AAXX 30124 67665 42680 31005 10268 20104 48528 70300 83200
                   333 59006 83845=
201504300900 AAXX 30094 67665 42680 10706 10254 20131 48552 81101
                   333 59007 81830 81080=
201504300600 AAXX 30064 67665 42980 01202 10180 20156 48543
                   333 10246 20//0 59006=
201504300300 AAXX 30034 67665 42980 12402 10126 20107 48518 81030
                   333 59007 81360=
201504300000 AAXX 30004 67665 42980 02102 10133 20102 48523
                   333 59003=
201504292100 AAXX 29214 67665 42980 01702 10158 20124 48536
                   333 59006=
201504291800 AAXX 29184 67665 42980 21303 10192 20160 48531 70200 82030
                   333 10280 59009 82360=
201504291500 AAXX 29154 67665 42780 30603 10252 20184 48525 83100
                   333 59010 83850=
201504291200 AAXX 29124 67665 42680 41007 10262 20169 48533 70300 84200
                   333 59013 84835=
201504290900 AAXX 29094 67665 42680 10908 10246 20171 48558 81201
                   333 59008 81830 81080=
201504290600 AAXX 29064 67665 32980 11103 10190 20166 48549 80001
                   333 10250 20/// 59009 81080=
201504281500 AAXX 28154 67665 42680 11307 10247 20151 48535 81100
                   333 10270 20//0 59001 81845=
201504281200 AAXX 28124 67665 42680 30908 10260 20140 48546 83100
                   333 58001 83838=
201504280900 AAXX 28094 67665 42680 11004 10246 20153 48566 70300 81100
                   333 59004 81830=
201504280300 AAXX 28034 67665 42980 00702 10123 20090 48529 70200
                   333 59006=
201504270900 AAXX 27094 67665 42680 41010 10231 20144 48567 84500
                   333 59002 84635=
201504270600 AAXX 27064 67665 32980 00703 10172 20111 48553
                   333 59010=
201504261500 AAXX 26154 67665 42580 31306 10226 20136 48536 70210 83200
                   333 59022 83835=
201504252100 AAXX 25214 67665 42980 01802 10149 20104 48560 70200
                   333 59006=
201504250900 AAXX 25094 67665 42580 20913 10219 20158 48587 82500
                   333 59003 82620=
201504250600 AAXX 25064 67665 32380 31110 10166 20139 48579 83630
                   333 10248 20/// 59004 83708 81360=
201504242100 AAXX 24214 67665 42980 01203 10134 20116 48563 70200
                   333 58003=
201504241800 AAXX 24184 67665 42980 01305 10165 20131 48571
                   333 58012=
201504241500 AAXX 24154 67665 42680 20911 10230 20176 48526 82800
                   333 58003 82845=
201504240900 AAXX 24094 67665 42580 50914 10225 20163 48582 85500
                   333 58007 85620=
201504240000 AAXX 24004 67665 42975 01203 10139 20113 48557 72842
                   333 58010=
201504232100 AAXX 23214 67665 42980 01304 10150 20124 48563
                   333 58007=
201504231800 AAXX 23184 67665 42980 01204 10169 20147 48559
                   333 58000=
201504231200 AAXX 23124 67665 42580 50912 10228 20147 48568 85500
                   333 58003 85625=
201504221800 AAXX 22184 67665 42980 21303 10179 20142 48561 82030
                   333 58021 82360=
201504221500 AAXX 22154 67665 42680 51010 10237 20184 48560 83202
                   333 10257 20//0 58018 84838 82080=
201504221200 AAXX 22124 67665 42680 60810 10245 20194 48568 86800
                   333 58012 83632 83835=
201504220900 AAXX 22094 67665 42580 70914 10213 20182 48581 8455/
                   333 58010 84624 87359=
201504220600 AAXX 22064 67665 42480 70811 10187 20171 48573 875//
                   333 10267 20//0 58012 87612=
201504220300 AAXX 22034 67665 42380 21104 10158 20135 48558 70300 82600
                   333 58018 82709=
201504220000 AAXX 22004 67665 42980 01305 10162 20136 48552 70200
                   333 58017=
201504212100 AAXX 21214 67665 42980 01203 10173 20136 48560 70200
                   333 58015=
201504210900 AAXX 21094 67665 42680 60810 10236 20192 48574 85800
                   333 58016 83825 83630=
201504210600 AAXX 21064 67665 NIL=
201504201200 AAXX 20124 67665 42680 70908 10246 20193 48540 70322 85231
                   333 58003 85830 81360 82080=
201504200900 AAXX 20094 67665 42580 61208 10225 20183 48557 86532
                   333 59001 86620 83360 81080=
201504191500 AAXX 19154 67665 NIL=
201504190900 AAXX 19094 67665 42480 70710 10234 20207 48560 70222 8683/
                   333 59008 82814 85615 87360=
201504190600 AAXX 19064 67665 12480 70910 10196 20187 48554 69924 875//
                   333 10255 20//0 59003 87612=
201504190300 AAXX 19034 67665 42970 61203 10182 20174 48533 70222 86030
                   333 59009 86360=
201504190000 AAXX 19004 67665 42980 50905 10188 20172 48542 70222 85030
                   333 59002 85360=
201504182100 AAXX 18214 67665 42980 51004 10194 20179 48555 70222 85030
                   333 59010 85360=
201504181800 AAXX 18184 67665 42980 71005 10199 20176 48550 8703/
                   333 59004 87360=
201504181500 AAXX 18154 67665 42580 70709 10230 20201 48534 8723/
                   333 58000 84835 86360=
201504181200 AAXX 18124 67665 42580 70608 10242 20213 48543 8723/
                   333 59003 86825 86360=
201504180600 AAXX 18064 67665 42360 60344 10180 20180 48554 8267/
                   333 10//0 20//0 59002 82708 86459=
201504180300 AAXX 18034 67665 42960 61203 10168 20151 48540 86030
                   333 58003 86360=
201504180000 AAXX 18004 67665 42960 71802 10170 20163 48538 8707/
                   333 58002 87459=
201504172100 AAXX 17214 67665 41959 82003 10172 20164 48562 79599 8197/
                   333 58016 819// 87459=
201504171800 AAXX 17184 67665 41759 70903 10191 20175 48552 71392 8197/
                   333 58014 81956 87459=
201504171200 AAXX 17124 67665 42560 71204 10210 20179 48542 72522 84670
                   333 58005 84625 87459=
201504161800 AAXX 16184 67665 42980 51603 10183 20151 48537 85030
                   333 58021 85360=
201504161500 AAXX 16154 67665 42680 41204 10212 20182 48538 83232
                   333 10240 20//0 58020 83835 82360 81080=
201504161200 AAXX 16124 67665 42560 71106 10201 20186 48536 8457/
                   333 58019 84620 86459=
201504160900 AAXX 16094 67665 41458 81304 10183 20170 48556 76166 8677/
                   333 58016 86709 88459=
201504160600 AAXX 16064 67665 11858 81803 10178 20170 48954 60134 76166 8807/
                   333 10240 20/// 58013 88458=
201504160300 AAXX 16034 67665 41458 73502 10175 20156 48526 76062 8257/
                   333 58010 82620 87459=
201504151500 AAXX 15154 67665 NIL=
201504150600 AAXX 15064 67665 31980 70603 10174 20165 48530 60054 70222 87030
                   333 10//0 20//0 59021 87360=
201504150000 AAXX 15004 67665 42980 71603 10165 20149 48518 8703/
                   333 59030 87360=
201504141800 AAXX 14184 67665 42980 71203 10176 20164 48527 70262 8702/
                   333 59018 87459=
201504140900 AAXX 14094 67665 41458 80907 10190 20166 48551 76162 8557/
                   333 59013 85612 88459=
201504140600 AAXX 14064 67665 11958 81206 10175 20159 48551 71042 8807/
                   333 10243 20//0 59012 88459=
201504131800 AAXX 13184 67665 42980 70907 10186 20163 48546 8603/
                   333 58005 86360=
201504131500 AAXX 13154 67665 NIL=
201504131200 AAXX 13124 67665 NIL=
201504130900 AAXX 13094 67665 42480 70710 10209 20161 48565 70222 8553/
                   333 58019 85618 87360 91024=
201504130600 AAXX 13064 67665 32980 71108 10177 20153 48563 87030
                   333 10//0 20//0 58007 87360=
201504130300 AAXX 13034 67665 42960 31004 10162 20154 48540 70200 83030
                   333 58007 83360=
201504130000 AAXX 13004 67665 42960 31403 10159 20142 48535 70200 83360=
201504122100 AAXX 12214 67665 42960 31003 10170 20154 48550 70200 83030
                   333 58002 83360=
201504121800 AAXX 12184 67665 42960 31104 10190 20158 48542 70200 83030
                   333 58005 83360=
201504121200 AAXX 12124 67665 42580 60607 10265 20199 48543 86200
                   333 59003 86830=
201504120600 AAXX 12064 67665 32980 20905 10188 20164 48557 82030
                   333 10235 20//0 59003 82360=
201504111200 AAXX 11124 67665 42680 51007 10251 20146 48544 70222 85200
                   333 59011 85835=
201504101800 AAXX 10184 67665 42980 21005 10174 20132 48538 82030
                   333 59003 82360=
201504101500 AAXX 10154 67665 42675 60810 10219 20156 48543 82230
                   333 10265 20//0 58002 82842 83360=
201504101200 AAXX 10124 67665 42660 70910 10221 20167 48551 86530
                   333 58002 86632 83360=
201504100900 AAXX 10094 67665 42560 70814 10203 20154 48562 70222 87530
                   333 58001 87628 83360=
201504100600 AAXX 10064 67665 32580 70807 10178 20159 48561 70322 875//
                   333 10//0 20//0 58004 87620=
201504100300 AAXX 10034 67665 NIL=
201504100000 AAXX 10004 67665 42980 11002 10149 20135 48530 70200 81030
                   333 58002 81360=
201504092100 AAXX 09214 67665 42980 21404 10161 20145 48546 70200 82030
                   333 58005 82360=
201504091200 AAXX 09124 67665 42680 70809 10225 20179 48550 87500
                   333 58008 87638=
201504090900 AAXX 09094 67665 42680 60713 10219 20189 48564 86500
                   333 58009 86635=
201504090600 AAXX 09064 67665 42480 50813 20159 48554 83501
                   333 58002 83620 83080=
201504082100 AAXX 08214 67665 42980 40804 10179 20163 48544 84030
                   333 58010 84359=
201504081800 AAXX 08184 67665 24580 70806 10192 20176 48537 70286 8357/
                   333 10245 20//0 58009 83620 97459=
201504081200 AAXX 08124 67665 41559 71204 10206 20184 48539 72582 8687/
                   333 58019 82820 85622 86459=
201504080600 AAXX 08064 67665 11360 80908 10194 20181 48547 60994 75022 8577/
                   333 10245 20//0 58003 85708 88450
                   555 00///=
201504080300 AAXX 08034 67665 42980 60906 10187 20171 48531 70222 86030
                   333 58014 86360 91020=
201504080000 AAXX 08004 67665 42780 61003 10186 20171 48530 70222 81930
                   333 58008 81950 86360=
201504072100 AAXX 07214 67665 42980 61105 10191 20167 48536 70222 86030
                   333 58012 86360 91021=
201504071800 AAXX 07184 67665 42980 70807 10204 20178 48529 86070
                   333 58009 86459=
201504071200 AAXX 07124 67665 42580 70707 10225 20203 48523 8587/
                   333 58019 83827 84630 87459=
201504070900 AAXX 07094 67665 42580 70610 10213 20197 48542 70222 875//
                   333 58018 87625=
201504070600 AAXX 07064 67665 32460 71204 10209 20194 48538 70222 8653/
                   333 10//0 20//0 58015 86615 84360=
201504070300 AAXX 07034 67665 42960 50000 10198 20190 48519 70222 82032
                   333 58014 83360 85080=
201504062100 AAXX 06214 67665 42760 51403 10197 20189 48526 70122 81930
                   333 58008 81956 85360=
201504061800 AAXX 06184 67665 41658 82104 10199 20185 48521 79596 8197/
                   333 58020 81945 87458=
201504061200 AAXX 06124 67665 41660 62906 10280 20201 48511 71522 86200
                   333 58014 81930 86835=
201504060000 AAXX 06004 67665 41659 73304 10202 20202 48510 79592 8297/
                   333 58013 829// 84635 87459=
201504052100 AAXX 05214 67665 41659 81302 10204 20204 48518 76166 8457/
                   333 58009 84630 87459=
201504051800 AAXX 05184 67665 41760 72003 10207 20181 48502 72562 81972
                   333 10282 59003 81956 86459 83080=
201504051500 AAXX 05154 67665 41660 71206 10221 20165 48492 72999 81932
                   333 58012 81935 84360 82080=
201504051200 AAXX 05124 67665 42660 60504 10248 20181 48493 70222 81932
                   333 58005 81930 85835 82360 82080=
201504050600 AAXX 05064 67665 11359 00503 10190 20184 48511 74242 8563/
                   333 10281 20//0 58003 85708 88359=
201504041500 AAXX 04154 67665 NIL=
201504040900 AAXX 04094 67665 42660 61005 10237 20173 48519 70222 86530
                   333 59014 86635 83360=
201504040600 AAXX 04064 67665 32580 71004 10191 20174 48514 70222 85530
                   333 10270 20//0 59016 85620 85360=
201504040300 AAXX 04034 67665 42980 50804 10175 20159 48496 85030
                   333 59018 85360=
201504040000 AAXX 04004 67665 42980 31103 10170 20154 48492 83030
                   333 59021 83360=
201504031800 AAXX 03184 67665 41680 10906 10200 20152 48503 71300 81360
                   333 59018 81945 81360=
201504031200 AAXX 03124 67665 42680 60706 10252 20149 48508 86800
                   333 59022 83840 83642=
201504030600 AAXX 03064 67665 32580 50504 10193 20145 48529 81132
                   333 59012 81820 83360 83080=
201504021800 AAXX 02184 67665 41580 10187 20146 48520 71312 81930
                   333 59009 81930 81359=
201504021500 AAXX 02154 67665 42580 10225 20163 48513 70222 8483/
                   333 5//// 82830 84632 87359=
201504020600 AAXX 02064 67665 NIL=
201504020300 AAXX 02034 67665 NIL=
201504011200 AAXX 01124 67665 42580 70308 10237 20208 48525 8683/
                   333 58006 84825 82628 86359=
201504010900 AAXX 01094 67665 NIL=
201504010600 AAXX 01064 67665 11358 90704 10185 20185 48546 76166 8577/
                   333 10270 20/// 58007 85705 87458=

################################################################################
#  SYNOPS from 67666, Lusaka City Airport (Zambia) | 15-25-00S | 028-28-00E | 1280 m
################################################################################
201504301500 AAXX 30154 67666 NIL=
201504300900 AAXX 30094 67666 NIL=
201504300600 AAXX 30064 67666 31958 00904 10194 20155 48538 70500
                   333 10264 20/// 59004 91021=
201504290900 AAXX 29094 67666 NIL=
201504280900 AAXX 28094 67666 42680 10905 10239 20135 48554 81100
                   333 58003 81830 91022=
201504280600 AAXX 28064 67666 32980 01006 10204 20138 48///
                   333 10255 20/// 58002 91022=
201504210600 AAXX 21064 67666 12980 30907 10185 20177 48552 69904 83770
                   333 10255 20/// 59012 83604 82360 91022=
201504200600 AAXX 20064 67666 12980 70805 10184 20170 48537 60014 70222 87070
                   333 10240 20/// 59007 87358 91021=
201504191500 AAXX 19154 67666 NIL=
201504170600 AAXX 17064 67666 11359 80807 10190 20182 48551 60114 72052 887//
                   333 10220 20//0 58010 88707 91022=
201504160600 AAXX 16064 67666 11357 80906 10175 20175 48540 60144 76162 887//
                   333 10245 20/// 58014 88704 91021=
201504151500 AAXX 15154 67666 NIL=
201504150600 AAXX 15064 67666 12980 80904 10180 20156 48525 60014 8807/
                   333 10211 2//// 59017 88659 91020=
201504140600 AAXX 14064 67666 32480 80707 10175 20153 48536 83536
                   333 10224 20/// 59012 83707 85358 91201=
201504131500 AAXX 13154 67666 NIL=
201504131200 AAXX 13124 67666 NIL=
201504130600 AAXX 13064 67666 32480 80708 10181 20164 48555 70222 8153/
                   333 10263 20/// 58005 81610 87359 91023=
201504100600 AAXX 10064 67666 32380 70911 10180 20165 48552 875//
                   333 10255 20/// 58004 87708 91022=
201504100300 AAXX 10034 67666 NIL=
201504090600 AAXX 09064 67666 12380 70909 10175 20159 48546 876//
                   333 10231 20/// 58006 87706 91022=
201504080900 AAXX 08094 67666 41480 70710 10215 20184 48540 70122 878//
                   333 58010 83815 85615 91022=
201504080600 AAXX 08064 67666 12380 80809 10191 20178 48538 60234 886//
                   333 10230 20/// 58017 88708 91021=
201504070600 AAXX 07064 67666 12380 80909 10209 20201 48529 60084 70300 886//
                   333 10281 20/// 58012 88708 91019=
201504041500 AAXX 04154 67666 NIL=
201504020600 AAXX 02064 67666 11380 80812 10183 20177 48518 60034 70322 877//
                   333 10245 20//0 59002 87706 91020=
201504020300 AAXX 02034 67666 NIL=
201504010900 AAXX 01094 67666 NIL=
201504010600 AAXX 01064 67666 11358 80406 10180 20180 48537 60184 76122 885//
                   333 10251 20/// 58004 88606 91021=

################################################################################
#  SYNOPS from 67667, Mount Makulu (Zambia) | 15-33S | 028-15E | 1213 m
################################################################################
201504301500 AAXX 30154 67667 NIL=
201504300900 AAXX 30094 67667 NIL=
201504290900 AAXX 29094 67667 NIL=
201504210600 AAXX 21064 67667 NIL=
201504191500 AAXX 19154 67667 NIL=
201504160600 AAXX 16064 67667 NIL=
201504151500 AAXX 15154 67667 NIL=
201504131500 AAXX 13154 67667 NIL=
201504131200 AAXX 13124 67667 NIL=
201504100300 AAXX 10034 67667 NIL=
201504041500 AAXX 04154 67667 NIL=
201504020600 AAXX 02064 67667 NIL=
201504020300 AAXX 02034 67667 NIL=
201504010900 AAXX 01094 67667 NIL=

################################################################################
#  SYNOPS from 67673, Petauke (Zambia) | 14-15S | 031-17E | 1035 m
################################################################################
201504301500 AAXX 30154 67673 NIL=
201504300900 AAXX 30094 67673 NIL=
201504290900 AAXX 29094 67673 NIL=
201504210600 AAXX 21064 67673 NIL=
201504191500 AAXX 19154 67673 NIL=
201504160600 AAXX 16064 67673 NIL=
201504151500 AAXX 15154 67673 NIL=
201504150600 AAXX 15064 67673 32570 82201 10196 20187 48548 886//
                   333 10272 20203 59010 88722=
201504131500 AAXX 13154 67673 NIL=
201504131200 AAXX 13124 67673 NIL=
201504130600 AAXX 13064 67673 12980 81102 10194 20169 48571 60024 8807/
                   333 10298 20179 58006 88360=
201504100600 AAXX 10064 67673 32580 70705 10188 20158 48569 875//
                   333 10284 20173 58005 87622=
201504100300 AAXX 10034 67673 NIL=
201504080600 AAXX 08064 67673 11584 80902 10214 20184 48567 69904 75022 885//
                   333 10284 20190 58016 88628=
201504070600 AAXX 07064 67673 12584 50404 10240 20195 48557 69904 85531
                   333 10302 20190 58018 85628 83360 82080=
201504041500 AAXX 04154 67673 NIL=
201504020600 AAXX 02064 67673 NIL=
201504020300 AAXX 02034 67673 NIL=
201504010900 AAXX 01094 67673 NIL=

################################################################################
#  SYNOPS from 67731, Senanga (Zambia) | 16-06S | 023-16E | 1027 m
################################################################################
201504301500 AAXX 30154 67731 NIL=
201504300900 AAXX 30094 67731 NIL=
201504300600 AAXX 30064 67731 32980 002// 10208 20132 48///
                   333 10288 20129 59009=
201504290900 AAXX 29094 67731 NIL=
201504290600 AAXX 29064 67731 32980 025// 10204 20131 48///
                   333 10295 20125 59005=
201504280600 AAXX 28064 67731 32980 116// 10201 20134 48/// 70200 81010
                   333 10292 20136 59007 81463=
201504210600 AAXX 21064 67731 32980 309// 10209 20184 48/// 70200 80001
                   333 10294 20161 58010 83080=
201504200600 AAXX 20064 67731 12980 609// 10225 20176 48/// 60014 70322 82018
                   333 10304 20171 59005 82460 86280=
201504191500 AAXX 19154 67731 NIL=
201504170600 AAXX 17064 67731 32980 028// 10225 20189 48/// 70000
                   333 10278 20167 58009=
201504160600 AAXX 16064 67731 NIL=
201504151500 AAXX 15154 67731 NIL=
201504140600 AAXX 14064 67731 12980 335// 10201 20173 48/// 60024 70122 83010
                   333 10272 20171 59012 83460=
201504131500 AAXX 13154 67731 NIL=
201504131200 AAXX 13124 67731 NIL=
201504130600 AAXX 13064 67731 12680 310// 10195 20131 48/// 60064 70200 81320
                   333 10287 20143 58005 81930 83460=
201504100600 AAXX 10064 67731 32980 012// 10211 20172 48///
                   333 10253 20179 58002=
201504100300 AAXX 10034 67731 NIL=
201504090600 AAXX 09064 67731 32480 312// 10211 20189 48/// 70122 81520
                   333 10269 20181 58012 81618 82460=
201504080600 AAXX 08064 67731 12470 710// 10214 20201 48/// 60014 70122 83520
                   333 10305 20183 58016 83616 87460=
201504070600 AAXX 07064 67731 32980 518// 10222 20199 48/// 70222 81011
                   333 10307 20194 59002 81462 85080=
201504041500 AAXX 04154 67731 NIL=
201504020600 AAXX 02064 67731 NIL=
201504020300 AAXX 02034 67731 NIL=
201504010900 AAXX 01094 67731 NIL=
201504010600 AAXX 01064 67731 12480 835// 10224 20207 48/// 60024 70222 8357/
                   333 10276 20180 58001 83613 88360=

################################################################################
#  SYNOPS from 67741, Sesheke (Zambia) | 17-28S | 024-18E | 949 m
################################################################################
201504301500 AAXX 30154 67741 NIL=
201504300900 AAXX 30094 67741 NIL=
201504290900 AAXX 29094 67741 NIL=
201504210600 AAXX 21064 67741 NIL=
201504191500 AAXX 19154 67741 NIL=
201504170600 AAXX 17064 67741 32980 00901 10191 20//0 48///
                   333 10308 20150 58014=
201504160600 AAXX 16064 67741 32980 00000 10204 20/// 48///
                   333 10295 20154 58007=
201504151500 AAXX 15154 67741 NIL=
201504150600 AAXX 15064 67741 12980 00000 10200 20/// 48/// 69904
                   333 10268 20162 59019=
201504140600 AAXX 14064 67741 32980 20000 10199 20/// 48/// 82030
                   333 10293 20169 59017 82362=
201504131500 AAXX 13154 67741 NIL=
201504131200 AAXX 13124 67741 NIL=
201504130600 AAXX 13064 67741 12980 50901 10191 20/// 48/// 60124 85070
                   333 10296 20170 58010 85362=
201504100600 AAXX 10064 67741 32680 30901 10209 20/// 48/// 83500
                   333 10266 20169 58001 83640=
201504100300 AAXX 10034 67741 NIL=
201504090600 AAXX 09064 67741 12680 70901 10215 20/// 48/// 60284 875//
                   333 10294 20198 58010 87635=
201504080600 AAXX 08064 67741 32680 70901 10222 20/// 48/// 875//
                   333 10310 20210 58018 87635=
201504070600 AAXX 07064 67741 32680 10901 1//// 20/// 48/// 81501
                   333 10317 20186 58015 81640 81080=
201504041500 AAXX 04154 67741 NIL=
201504020600 AAXX 02064 67741 12680 60901 10228 20/// 48/// 60024 85540
                   333 10283 20200 59011 85640 86362=
201504020300 AAXX 02034 67741 NIL=
201504010900 AAXX 01094 67741 NIL=
201504010600 AAXX 01064 67741 12980 70801 10216 20/// 48/// 60144 8707/
                   333 10270 20204 58005 87460=

################################################################################
#  SYNOPS from 67743, Livingstone (Zambia) | 17-49S | 025-49E | 985 m
################################################################################
201504301500 AAXX 30154 67743 NIL=
201504300900 AAXX 30094 67743 NIL=
201504291200 AAXX 29124 67743 42780 41108 10297 20096 48534 84100
                   333 59010 84850 91018=
201504290900 AAXX 29094 67743 NIL=
201504280600 AAXX 28064 67743 32980 00000 10192 20125 48546
                   333 10305 20115 59006
                   555 00/// 20000 91022=
201504210600 AAXX 21064 67743 NIL=
201504191500 AAXX 19154 67743 42580 60915 10256 20182 48515 81331
                   333 59014 81935 83630 82360 83080=
201504160600 AAXX 16064 67743 31959 11402 10193 20143 48539 74240 81030
                   333 10305 20140 59008 81359
                   555 00/// 20000 91020=
201504151500 AAXX 15154 67743 42880 21005 10282 20108 48506 82230
                   333 59013 82858 81360=
201504131500 AAXX 13154 67743 41559 70414 10200 20161 48540 79596 8197/
                   333 58025 81930 83625 86359=
201504131200 AAXX 13124 67743 NIL=
201504100600 AAXX 10064 67743 42980 21111 10175 20134 48557 60994 70100 82030
                   333 10261=
201504100300 AAXX 10034 67743 NIL=
201504090600 AAXX 09064 67743 32480 71108 10182 20159 48552 70252 8587/
                   333 10244 20180 58014 84615 82820 87459 91022=
201504080600 AAXX 08064 67743 32480 81010 10199 20174 48544 70322 85530
                   333 10298 20194=
201504070600 AAXX 07064 67743 32480 71008 10201 20179 48526 70222 8757/
                   333 10318 20//0 58020 87615 86759 91017=
201504041500 AAXX 04154 67743 NIL=
201504020900 AAXX 02094 67743 42480 60812 10256 20175 48537 85531
                   333 59016 85635 86360 82080=
201504020600 AAXX 02064 67743 NIL=
201504020300 AAXX 02034 67743 NIL=
201504010900 AAXX 01094 67743 NIL=

################################################################################
#  SYNOPS from 67751, Magoye (Zambia) | 16-00S | 027-36E | 1018 m
################################################################################
201504301500 AAXX 30154 67751 NIL=
201504300900 AAXX 30094 67751 NIL=
201504290900 AAXX 29094 67751 NIL=
201504210600 AAXX 21064 67751 12980 10301 10210 20187 69904 70200 81360
                   333 10/// 20130 59009 81360=
201504200600 AAXX 20064 67751 12980 71802 10204 20190 60024 70222 8701/
                   333 10/// 20110 5//// 86460=
201504191500 AAXX 19154 67751 NIL=
201504160600 AAXX 16064 67751 NIL=
201504151500 AAXX 15154 67751 NIL=
201504131500 AAXX 13154 67751 NIL=
201504131200 AAXX 13124 67751 NIL=
201504100300 AAXX 10034 67751 NIL=
201504080600 AAXX 08064 67751 11980 80803 10204 20183 48/// 60034 76062 8807/
                   333 10260 20177 59013 88360=
201504041500 AAXX 04154 67751 NIL=
201504020600 AAXX 02064 67751 NIL=
201504020300 AAXX 02034 67751 NIL=
201504010900 AAXX 01094 67751 NIL=

################################################################################
#  SYNOPS from 67753, Choma (Zambia) | 16-50S | 027-04E | 1213 m
################################################################################
201504301500 AAXX 30154 67753 NIL=
201504300900 AAXX 30094 67753 NIL=
201504300600 AAXX 30064 67753 31960 10000 10173 20149 48526 70500 81030
                   333 10275 20101 59010 81360=
201504290900 AAXX 29094 67753 NIL=
201504280600 AAXX 28064 67753 31960 00000 10176 20141 48542 70500
                   333 10265 20093 59005=
201504210600 AAXX 21064 67753 NIL=
201504191500 AAXX 19154 67753 NIL=
201504170600 AAXX 17064 67753 32960 60000 10265 20165 58015 86360
                   333 10265 20165 58015 86360=
201504160600 AAXX 16064 67753 NIL=
201504151500 AAXX 15154 67753 NIL=
201504150600 AAXX 15064 67753 11950 10000 10185 20175 48528 69904 70500 81031
                   333 10240 20150 58020 81360 81080=
201504131500 AAXX 13154 67753 NIL=
201504131200 AAXX 13124 67753 NIL=
201504130600 AAXX 13064 67753 31560 70000 10175 20173 48556 70500 8355/
                   333 10258 20150 58009 83620 84360=
201504100600 AAXX 10064 67753 32560 60000 10168 20144 48546 8453/
                   333 10228 58009 84620 82360
                   555 00///=
201504100300 AAXX 10034 67753 NIL=
201504080600 AAXX 08064 67753 31560 80000 10194 20185 48538 75052 84607
                   333 10264 20186 58014 84709 84280=
201504070600 AAXX 07064 67753 12560 70902 10205 20202 48530 60094 84831
                   333 10278 20174 58019 83620 82822 81360 81080
                   555 00///=
201504041500 AAXX 04154 67753 NIL=
201504020600 AAXX 02064 67753 12560 60621 10194 48/// 60064 84801
                   333 10236 20170 5//// 83620 81822 82080
                   555 00///=
201504020300 AAXX 02034 67753 NIL=
201504010900 AAXX 01094 67753 NIL=
201504010600 AAXX 01064 67753 11550 80719 10175 20175 48521 60154 76162 84707
                   333 10255 20175 58011 84720 84280=

################################################################################
#  SYNOPS from 67855, Lupaki (Zambia) | 17-03-00S | 024-46-00E | 1000 m
################################################################################
201505010600 AAXX 01064 67855 31970 21801 10156 20114 3//// 48/// 70500 82030
                   333 20109 5//// 82360=
201504301800 AAXX 30184 67855 NIL=
201504301200 AAXX 30124 67855 NIL=
201504300600 AAXX 30064 67855 32975 60000 10182 20140 3//// 48/// 86030
                   333 20130 5//// 86360=
201504291200 AAXX 29124 67855 42775 50000 10306 20103 3//// 48/// 82130
                   333 5//// 82850 85360=
201504290600 AAXX 29064 67855 31970 01601 10162 20118 3//// 48/// 70500
                   333 20109 5////=
201504281800 AAXX 28184 67855 NIL=
201504281200 AAXX 28124 67855 NIL=
201504280600 AAXX 28064 67855 NIL=
201504271800 AAXX 27184 67855 NIL=
201504271200 AAXX 27124 67855 42775 32102 10306 20090 3//// 48/// 83100
                   333 5//// 83850=
201504270600 AAXX 27064 67855 31970 00000 10148 20113 3//// 48/// 70500
                   333 20100 5////=
201504261800 AAXX 26184 67855 NIL=
201504261200 AAXX 26124 67855 42775 13602 10290 20083 38/// 48/// 81100
                   333 5//// 81850=
201504260600 AAXX 26064 67855 32975 00000 10142 20125 3//// 48///
                   333 20102 5////=
201504251800 AAXX 25184 67855 NIL=
201504251200 AAXX 25124 67855 42775 30000 10288 20128 3//// 48/// 83100
                   333 5//// 83850=
201504250600 AAXX 25064 67855 31970 10000 10160 20138 3//// 48/// 70500 81030
                   333 20138 5//// 81360=
201504241800 AAXX 24184 67855 NIL=
201504241200 AAXX 24124 67855 NIL=
201504240600 AAXX 24064 67855 31970 20000 10164 20145 3//// 48/// 70500 82030
                   333 20129 5//// 82360=
201504231800 AAXX 23184 67855 NIL=
201504231200 AAXX 23124 67855 42775 53601 10294 20154 3//// 48/// 85200
                   333 5//// 85850=
201504230600 AAXX 23064 67855 12975 10000 10178 20165 3//// 48/// 60094 81030
                   333 20149 5//// 81360=
201504221800 AAXX 22184 67855 NIL=
201504221200 AAXX 22124 67855 40675 60703 10260 20187 3//// 48/// 70196 84232
                   333 5//// 84840 83360=
201504220600 AAXX 22064 67855 11970 60302 10188 20170 3//// 48/// 69904 71561 86080
                   333 20165 5//// 86459=
201504211800 AAXX 21184 67855 NIL=
201504211200 AAXX 21124 67855 42775 30701 10296 20156 3//// 48/// 83232
                   333 5//// 83850=
201504210600 AAXX 21064 67855 32575 10000 10180 20173 3//// 48/// 81532
                   333 20145 5//// 81620=
201504201800 AAXX 20184 67855 NIL=
201504201200 AAXX 20124 67855 42775 51901 10290 20167 3//// 48/// 83232
                   333 5//// 83850 85080=
201504200600 AAXX 20064 67855 12975 70000 10169 20163 3//// 48/// 60014 81032
                   333 20147 5//// 81360 87080=
201504191800 AAXX 19184 67855 NIL=
201504191200 AAXX 19124 67855 42775 53604 10280 20179 3//// 48/// 85232
                   333 5//// 85850 83360=
201504190600 AAXX 19064 67855 32975 60702 10198 20170 3//// 48/// 82031
                   333 20179 5//// 82360 86080=
201504181200 AAXX 18124 67855 42775 70602 10264 20183 3//// 48/// 8327/
                   333 5//// 83850 87459=
201504180600 AAXX 18064 67855 12975 61402 10204 20178 3//// 48/// 60024 86070
                   333 20164 5//// 86459=
201504171800 AAXX 17184 67855 NIL=
201504171200 AAXX 17124 67855 41675 42002 10280 20173 3//// 48/// 70511 84231
                   333 5//// 84840=
201504170600 AAXX 17064 67855 31970 20000 10176 20160 3//// 48/// 70500 82030
                   333 20149 5//// 83360=
201504161800 AAXX 16184 67855 NIL=
201504161200 AAXX 16124 67855 41770 40401 10292 20111 3//// 48/// 70500 81131
                   333 5//// 81850 84360=
201504160600 AAXX 16064 67855 31970 00000 10184 20156 3//// 48/// 70500
                   333 20139 5////=
201504151800 AAXX 15184 67855 NIL=
201504151200 AAXX 15124 67855 42775 42002 10294 20127 3//// 48/// 84200
                   333 5//// 84850=
201504150600 AAXX 15064 67855 32975 70000 10190 20168 3//// 48/// 8703/
                   333 20144 5//// 87360=
201504141800 AAXX 14184 67855 NIL=
201504141200 AAXX 14124 67855 42675 70000 10262 20148 3//// 48/// 8323/
                   333 5//// 83845 87360=
201504140600 AAXX 14064 67855 31970 70000 10182 20160 3//// 48/// 70522 8703/
                   333 20173 5//// 87360=
201504131800 AAXX 13184 67855 NIL=
201504131200 AAXX 13124 67855 42775 30202 10296 20124 3//// 48/// 83131
                   333 5//// 83850=
201504130600 AAXX 13064 67855 32975 50000 10174 20139 3//// 48/// 85030
                   333 20136 5//// 85360=
201504121800 AAXX 12184 67855 NIL=
201504121200 AAXX 12124 67855 NIL=
201504101800 AAXX 10184 67855 NIL=
201504101200 AAXX 10124 67855 42775 40602 10278 20141 3//// 48/// 84200
                   333 5//// 84850=
201504100600 AAXX 10064 67855 32575 10502 10166 20150 3//// 48/// 81500
                   333 20116 5//// 81620=
201504091800 AAXX 09184 67855 NIL=
201504091200 AAXX 09124 67855 NIL=
201504090600 AAXX 09064 67855 12975 10906 10186 20138 3//// 48/// 69904 81030
                   333 20158 5//// 81360=
201504081800 AAXX 08184 67855 NIL=
201504081200 AAXX 08124 67855 41670 71201 10232 20176 3//// 48/// 75052 8557/
                   333 5//// 85635 87458=
201504071200 AAXX 07124 67855 42675 50901 10288 20186 3//// 48/// 85231
                   333 5//// 85840 83360=
201504070600 AAXX 07064 67855 12975 61001 10194 20183 3//// 48/// 60024 86070
                   333 20180 5//// 86459=
201504061800 AAXX 06184 67855 NIL=
201504061200 AAXX 06124 67855 NIL=
201504060600 AAXX 06064 67855 12575 53601 10206 20198 3//// 48/// 69904 83570
                   333 20185 5//// 83620 85459=
201504051800 AAXX 05184 67855 NIL=
201504051200 AAXX 05124 67855 42675 70305 10260 20194 3//// 48/// 8327/
                   333 5//// 83835 87459=
201504050600 AAXX 05064 67855 12575 70000 10202 20196 3//// 48/// 60054 8553/
                   333 20194 5//// 85620 87360=
201504041800 AAXX 04184 67855 NIL=
201504041200 AAXX 04124 67855 NIL=
201504040600 AAXX 04064 67855 32975 70302 10218 20173 3//// 48/// 81032
                   333 20194 5//// 81360 87080=
201504031200 AAXX 03124 67855 42675 50701 10270 20173 3//// 48/// 83230
                   333 5//// 83840 85360=
201504030600 AAXX 03064 67855 32575 70000 10194 20173 3//// 48/// 8353/
                   333 20174 5//// 83620 87460=
201504021200 AAXX 02124 67855 42675 70000 10274 20181 3//// 48/// 8557/
                   333 5//// 85635 87459=
201504020600 AAXX 02064 67855 12575 60303 10190 20149 3//// 48/// 69904 86531
                   333 20155 5//// 86620 83360=
201504011800 AAXX 01184 67855 NIL=
201504011200 AAXX 01124 67855 NIL=
201504010600 AAXX 01064 67855 12575 70602 10200 20173 3//// 48/// 60124 8557/
                   333 20189 5//// 85620 87360=
