################################################################################
# Query made at 04/17/2022 11:29:57 UTC
# Country like Zamb*
# Time interval: from 09/01/2008 05:30  to 10/01/2008 05:30  UTC
################################################################################

################################################################################
#  SYNOPS from 67441, Mwinilunga (Zambia) | 11-45S | 024-26E | 1361 m
################################################################################
200809290600 AAXX 29064 67441 31960 00000 10183 20075 48557 70500
                   333 10363 20096 58027=
200809190600 AAXX 19064 67441 31960 00000 10140 20075 48550 70500
                   333 10332 20064 59008=
200809161200 AAXX 16124 67441 41980 01507 10310 20030 48526 70500
                   333 59026=
200809160600 AAXX 16064 67441 31970 00000 10148 20051 48586 70500
                   333 10310 20/// 59018=
200809120600 AAXX 12064 67441 31960 00000 10145 20055 48552 70500
                   333 10335 20/// 58004=
200809110600 AAXX 11064 67441 31960 03304 10126 20049 48548 70500
                   333 10325 20/// 59015=
200809040600 AAXX 04064 67441 31965 00000 10175 20094 48551 70500
                   333 10317 20/// 59001=
200809010600 AAXX 01064 67441 31960 00000 10150 20133 48542 70500
                   333 10325 20/// 58004=

################################################################################
#  SYNOPS from 67461, Mansa (Zambia) | 11-06S | 028-51E | 1382 m
################################################################################
200809190600 AAXX 19064 67461 31960 00902 10204 20094 48518 70500
                   333 10337 20132 59021=
200809160600 AAXX 16064 67461 31965 00903 10178 20025 48535 70500
                   333 10295 20094 59021=
200809040600 AAXX 04064 67461 31965 01004 10195 20117 48528 70500
                   333 10303 20132 59002=
200809010600 AAXX 01064 67461 31965 01102 10181 20083 48510 70500
                   333 10335 20105 58003=

################################################################################
#  SYNOPS from 67475, Kasama (Zambia) | 10-13S | 031-08E | 1382 m
################################################################################
200809160600 AAXX 16064 67475 31970 01011 10161 20050 48535 70500
                   333 10291 20110 59023=
200809120600 AAXX 12064 67475 31968 01220 10225 20085 48540 70500
                   333 10322 20152 58015=
200809110600 AAXX 11064 67475 31970 01806 10209 20072 48523 70500
                   333 10313 20112 59013=
200809010600 AAXX 01064 67475 31970 00902 10228 20117 48520 70500
                   333 10316 20140 58005=

################################################################################
#  SYNOPS from 67477, Mpika (Zambia) | 11-54S | 031-26E | 1400 m
################################################################################
200809181200 AAXX 18124 67477 41960 01106 10280 20064 48505 70500
                   333 58011=
200809120600 AAXX 12064 67477 31965 01205 10196 20065 48545 70500
                   333 10305 20120 58018=
200809110600 AAXX 11064 67477 31930 00904 10225 20024 48526 70500
                   333 10300 20129 59016=
200809081200 AAXX 08124 67477 41978 00804 10285 20038 48507 70500
                   333 5////=
200809011200 AAXX 01124 67477 41958 01210 10314 21008 48493 70500
                   333 5////=
200809010600 AAXX 01064 67477 31960 01103 10214 20080 48518 70500
                   333 10320 20128 58009=

################################################################################
#  SYNOPS from 67531, Zambezi (Zambia) | 13-32S | 023-07E | 1077 m
################################################################################
200809290600 AAXX 29064 67531 31975 00603 10255 20035 48/// 70500
                   333 10401 20176 58026=
200809190600 AAXX 19064 67531 31975 01205 10216 20035 48/// 70500
                   333 10355 20110 5////=
200809181200 AAXX 18124 67531 41770 02604 10340 20010 48/// 70500
                   333 5////=
200809160600 AAXX 16064 67531 31975 01112 10197 20009 48/// 70500
                   333 10326 20094 59022=
200809120600 AAXX 12064 67531 31950 01208 10221 20029 48/// 70500
                   333 10365 20161 58011=
200809040600 AAXX 04064 67531 31960 01104 10198 20066 48/// 70500
                   333 10338 20135 58009=
200809010600 AAXX 01064 67531 31950 00000 10155 20101 48/// 70500
                   333 10356 20103 58007=

################################################################################
#  SYNOPS from 67551, Solwezi (Zambia) | 12-11S | 026-23E | 1386 m
################################################################################
200809120600 AAXX 12064 67551 31960 00000 10166 20044 48525 70500
                   333 10322 20124 58008=
200809040600 AAXX 04064 67551 31980 01103 10178 20096 48524 70500
                   333 10306 20114 59005=

################################################################################
#  SYNOPS from 67561, Ndola (Zambia) | 13-00S | 028-39E | 1269 m
################################################################################
200809300600 AAXX 30064 67561 31958 00705 10223 20120 48547 70400
                   333 10340 20158 58007
                   555 91022=
200809240600 AAXX 24064 67561 31956 50000 10211 20103 48513 70411 80008
                   333 10324 20147 85280=
200809240400 AAXX 24044 67561 41958 30000 10155 20084 48500 70400 80001
                   333 58000 83080=
200809221200 AAXX 22124 67561 41957 00000 10331 20076 48496 70400
                   333 59003=
200809190600 AAXX 19064 67561 31956 00000 10206 20087 48525 70400
                   333 10344 20142 59006=
200809181200 AAXX 18124 67561 41960 01209 10330 20076 48507 70500
                   333 58007 91017=
200809161500 AAXX 16154 67561 41975 00000 10312 21004 48494 70500
                   333 59028=
200809161200 AAXX 16124 67561 41975 02705 10300 21067 48507 70500
                   333 59027=
200809160600 AAXX 16064 67561 31965 00000 10168 20052 48535 70500
                   333 10301 20093 59023=
200809150600 AAXX 15064 67561 31965 10808 10174 20049 58569 70500 80001
                   333 10286 20090 59008 81080
                   555 91024=
200809140600 AAXX 14064 67561 31959 01012 10160 20075 48564 70500
                   333 10290 20110 58000
                   555 91025=
200809130900 AAXX 13094 67561 41760 11012 10264 20066 48578 81100
                   333 58034 81856=
200809130600 AAXX 13064 67561 31960 01210 10196 20077 48568 70500
                   333 10284 20156 58028=
200809130400 AAXX 13044 67561 41958 01210 10153 20089 48555 70500
                   333 58029=
200809120900 AAXX 12094 67561 41930 01010 10284 20064 48546 70400
                   333 58014=
200809120600 AAXX 12064 67561 31930 00910 10220 20081 48545 70400
                   333 10332 20155 58017=
200809110600 AAXX 11064 67561 31916 00000 10188 20034 48523 70400
                   333 10337 20105 59011=
200809081200 AAXX 08124 67561 41970 00508 10326 20060 48500 70500
                   333 59007 91017=
200809080400 AAXX 08044 67561 41930 00000 10131 20078 48521 70400
                   333 59007=
200809040600 AAXX 04064 67561 31956 01110 10218 20112 48535 70400
                   333 10248 20155 59001=
200809030300 AAXX 03034 67561 41930 00000 10130 20111 48522 70400
                   333 59002=
200809021800 AAXX 02184 67561 41925 01206 10216 20095 48523 70408
                   333 10306 58019=
200809020600 AAXX 02064 67561 31925 00910 10202 20045 48542 70400
                   333 58030=
200809011500 AAXX 01154 67561 41957 01310 10320 21068 48491 70400
                   333 58012=
200809011200 AAXX 01124 67561 41959 01213 10343 21067 48493 70400
                   333 58006=
200809010600 AAXX 01064 67561 31930 00000 10188 20063 48512 70400
                   333 10336 20111 58003=

################################################################################
#  SYNOPS from 67563, Kafironda (Zambia) | 12-36S | 028-07E | 1243 m
################################################################################
200809120600 AAXX 12064 67563 31970 01202 10180 20090 48/// 70500
                   333 10346 20064 58014=
200809040600 AAXX 04064 67563 31970 01302 10206 20120 48/// 70500
                   333 10319 20134 59004=

################################################################################
#  SYNOPS from 67580, Msekera (Zambia) | 13-39S | 032-34E | 1025 m
################################################################################
200809300600 AAXX 30064 67580 31975 01200 10253 20127 48/// 70500
                   333 10325 20177 59010=
200809181200 AAXX 18124 67580 41770 41204 10310 20115 48/// 70500 84100
                   333 58012 84856=
200809120600 AAXX 12064 67580 31965 01611 10210 20135 48/// 70500
                   333 10335 20165 58035=
200809081200 AAXX 08124 67580 41970 01511 10330 20085 48/// 70500
                   333 5////=
200809040600 AAXX 04064 67580 31970 01509 10242 20119 48/// 70500
                   333 10292 20154 58006=

################################################################################
#  SYNOPS from 67581, Chipata (Zambia) | 13-33S | 032-35E | 1028 m
################################################################################
200809160600 AAXX 16064 67581 32980 00905 10226 20082 48552
                   333 10290 20112 59025=
200809150600 AAXX 15064 67581 32980 01208 10192 20080 48570
                   333 10260 20165 59015
                   555 91023=
200809120600 AAXX 12064 67581 31970 01006 10224 20103 48564 70500
                   333 10330 20195 58032=
200809110600 AAXX 11064 67581 32980 00808 10255 20112 48539
                   333 10345 20205 59006=
200809011200 AAXX 01124 67581 41960 01610 10343 20054 48511 70500
                   333 58013=
200809010600 AAXX 01064 67581 31980 00608 10252 20113 48527 70500
                   333 10337 20175 58004=

################################################################################
#  SYNOPS from 67583, Lundazi (Zambia) | 12-17S | 033-12E | 1143 m
################################################################################
200809300600 AAXX 30064 67583 31970 01203 10262 20134 70500
                   333 10305 20126 59004=
200809040600 AAXX 04064 67583 31975 01502 10248 20144 48/// 70500
                   333 10294 20118 59003=

################################################################################
#  SYNOPS from 67599, Mfuwe (Zambia) | 13-16S | 031-56E | 568 m
################################################################################
200809250600 AAXX 25064 67599 31957 01275 10280 20130 48554 70500
                   333 10400 20//0 58016
                   555 91018=
200809241200 AAXX 24124 67599 41859 20108 10386 20151 70822 82100
                   333 59006 82857 91011=
200809221200 AAXX 22124 67599 41958 01205 10365 20164 48534 70500
                   333 58008=
200809190600 AAXX 19064 67599 31958 01904 10246 20123 48540 70500
                   333 10375 20//0 59018=
200809181200 AAXX 18124 67599 41956 02205 10352 20129 48547 70500
                   333 58008 91014=
200809160900 AAXX 16094 67599 42980 03503 10295 20126 48583 70500
                   333 59033=
200809150600 AAXX 15064 67599 32980 01006 10216 20098 48584
                   333 10314 20//0 59019
                   555 91024=
200809140600 AAXX 14064 67599 32980 01210 10210 20098 48601
                   333 10321 20//0 58014 91026=
200809130900 AAXX 13094 67599 41758 61313 10290 20138 70500 85130
                   333 58856 81360=
200809130600 AAXX 13064 67599 31958 01609 10234 20173 48595 70500
                   333 10346 20/// 58033=
200809120900 AAXX 12094 67599 41920 01214 10306 20120 48586 70500
                   333 58033=
200809120600 AAXX 12064 67599 31920 01310 10254 20151 48573 70500
                   333 10380 20/// 58028=
200809111500 AAXX 11154 67599 41956 01506 10355 20089 70500
                   333 59003=
200809111200 AAXX 11124 67599 41956 02105 10360 20112 48539 70500
                   333 58001=
200809040600 AAXX 04064 67599 31958 00000 10240 20144 48555 70500
                   333 10345 20/// 59009=
200809020600 AAXX 02064 67599 41956 01510 10245 20159 48565 70500
                   333 58047 91020=
200809011500 AAXX 01154 67599 41959 01905 10310 20169 48505 70500
                   333 58008=

################################################################################
#  SYNOPS from 67625, Kalabo (Zambia) | 14-51S | 022-42E | 1033 m
################################################################################
200809120600 AAXX 12064 67625 31970 01513 10212 20040 48/// 70500
                   333 10360 20129 58009=

################################################################################
#  SYNOPS from 67633, Mongu (Zambia) | 15-15S | 023-09E | 1052 m
################################################################################
200809290600 AAXX 29064 67633 31960 00912 10240 20062 48518 70500
                   333 10400 20215 58021=
200809190600 AAXX 19064 67633 31960 00612 10214 20030 48506 70500
                   333 10365 20160 59008=
200809160600 AAXX 16064 67633 31970 00906 10200 20018 48528 70500
                   333 10328 20144 59022=
200809110600 AAXX 11064 67633 31950 00000 10205 20050 48510 70500
                   333 10371 20160 59012=
200809010600 AAXX 01064 67633 31965 00908 10195 21032 48513 70500
                   333 10355 20145 58036=

################################################################################
#  SYNOPS from 67641, Kaoma (Zambia) | 14-48S | 024-48E | 1213 m
################################################################################
200809300600 AAXX 30064 67641 31975 00401 10202 20132 48524 70500
                   333 10374 20164 58011
                   555 91018=
200809290600 AAXX 29064 67641 31975 00801 10215 20091 48514 70500
                   333 10389 20164 58018=
200809190600 AAXX 19064 67641 31975 00000 10183 20041 48/// 70500
                   333 10354 20124 59005=
200809120600 AAXX 12064 67641 31975 00901 10181 20050 48523 70500
                   333 10362 20129 59012=
200809010600 AAXX 01064 67641 31970 01202 10200 21018 48505 70500
                   333 10367 20131 59009=

################################################################################
#  SYNOPS from 67655, Mumbwa (Zambia) | 15-04S | 027-11E | 1216 m
################################################################################
200809120600 AAXX 12064 67655 31970 00905 10206 20137 48567 70500
                   333 10339 20143 58027=

################################################################################
#  SYNOPS from 67663, Kabwe (Zambia) | 14-27S | 028-28E | 1206 m
################################################################################
200809160600 AAXX 16064 67663 31960 00504 10187 20071 48535 70500
                   333 10273 20008 59026=
200809010600 AAXX 01064 67663 31960 01004 10208 20037 48520 70500
                   333 10328 20159 59008=

################################################################################
#  SYNOPS from 67665, Lusaka Internationalairport (Zambia) | 15-19S | 028-27E | 1152 m
################################################################################
200809301200 AAXX 30124 67665 41959 00304 10332 20110 48532 70500
                   333 58010 555 91019=
200809300900 AAXX 30094 67665 41958 00304 10294 20115 48559 70500
                   333 59005=
200809300600 AAXX 30064 67665 31958 00000 10228 20131 48555 70500
                   333 10309 20154 59005
                   555 91022=
200809291500 AAXX 29154 67665 41959 00603 10291 20120 48530 70500
                   333 58024=
200809291200 AAXX 29124 67665 41959 00605 10298 20130 48537 70500
                   333 58026=
200809290600 AAXX 29064 67665 31959 00905 10201 20153 48556 70500
                   333 10355 20175 58036=
200809290400 AAXX 29044 67665 41958 01102 10163 20//0 48539 70500
                   333 58040=
200809290300 AAXX 29034 67665 41959 01102 10175 20//0 48534 70500
                   333 58043=
200809290000 AAXX 29004 67665 41959 01002 10197 20//0 48534 70500
                   333 58042=
200809282100 AAXX 28214 67665 41958 01002 10202 20//0 48533 70500
                   333 58026=
200809281800 AAXX 28184 67665 41958 01003 10242 20//0 48521 70500
                   333 10355 58017=
200809281200 AAXX 28124 67665 41958 00906 10340 20045 48516 70500
                   333 58010=
200809280900 AAXX 28094 67665 41958 00705 10316 20073 48535 70500
                   333 58007=
200809280600 AAXX 28064 67665 31958 00000 10248 20040 48528 70500
                   333 10368 20171 58003=
200809271500 AAXX 27154 67665 41959 00902 10350 20061 48494 70500
                   333 59016 555 91014=
200809271200 AAXX 27124 67665 41959 00802 10356 20068 48507 70500
                   333 59014 555 91015=
200809270900 AAXX 27094 67665 41959 02003 10327 20079 48531 70500
                   333 59020=
200809270600 AAXX 27064 67665 31958 00000 10243 20101 48525 70500
                   333 10350 20181 59016=
200809270400 AAXX 27044 67665 41959 00000 10165 20//0 48507 70500
                   333 59015=
200809270300 AAXX 27034 67665 41959 00000 10155 48528 70500
                   333 58005=
200809270000 AAXX 27004 67665 41959 00000 10187 48510 70500
                   333 59001=
200809262100 AAXX 26214 67665 41959 00000 10219 48524 70500
                   333 59004=
200809261500 AAXX 26154 67665 41960 00804 10336 20050 48511 70500
                   333 58002=
200809261200 AAXX 26124 67665 41960 00704 10345 20036 48521 70500
                   333 58001=
200809260900 AAXX 26094 67665 41959 00503 10322 20033 70500
                   333 58005 555 91020=
200809260600 AAXX 26064 67665 31959 01300 10241 20084 48540 70500
                   333 10356 20175 58003
                   555 91020=
200809260400 AAXX 26044 67665 41959 00000 10182 20114 48523 70500
                   333 58003=
200809260300 AAXX 26034 67665 41959 00000 10184 20//0 48515 70500
                   333 59001=
200809260000 AAXX 26004 67665 41959 00000 10174 20//0 48509 70200
                   333 58001=
200809252100 AAXX 25214 67665 41959 00000 10218 20//0 48528 70200
                   333 58005=
200809251200 AAXX 25124 67665 41959 00302 10340 20074 48519 70500
                   333 58012 91017=
200809250900 AAXX 25094 67665 41958 00304 10324 20092 48545 70500
                   333 58004 91020=
200809250600 AAXX 25064 67665 31958 00000 10245 20112 48539 70500
                   333 10336 20//0 58009
                   555 00/// 91020=
200809241800 AAXX 24184 67665 41959 11302 10249 20//0 48518 70500 80001
                   333 10350 58006 81080=
200809241500 AAXX 24154 67665 41960 11204 10339 20078 48500 70500 81030
                   333 59001 81360 555 10350=
200809241200 AAXX 24124 67665 41960 02503 10330 20063 48507 70500
                   333 59001=
200809240600 AAXX 24064 67665 32960 00000 10236 20069 48529
                   333 10326 20//0 58000=
200809240400 AAXX 24044 67665 42960 10000 10152 20/// 48502 80001
                   333 59009 81080=
200809240300 AAXX 24034 67665 42960 00000 10157 20//0 48500
                   333 59008=
200809240000 AAXX 24004 67665 42980 00000 10153 20//0 48495
                   333 59007=
200809232100 AAXX 23214 67665 41960 00000 10183 20//0 48509 70500
                   333 59004=
200809231800 AAXX 23184 67665 41960 00000 10225 20//0 48511 70500
                   333 10329 59007=
200809231200 AAXX 23124 67665 41759 21803 10316 20121 48505 70500 82100
                   333 59015 82856=
200809221500 AAXX 22154 67665 41957 00000 10306 20129 48511 70500
                   333 5////=
200809211200 AAXX 21124 67665 41958 00601 10333 20058 48520 70500
                   333 58002 555 91017=
200809210900 AAXX 21094 67665 41958 00503 10305 20051 48543 70500
                   333 58004=
200809210600 AAXX 21064 67665 31958 00000 10223 20062 48533 70500
                   333 10336 20135 58008=
200809210400 AAXX 21044 67665 41959 00000 10138 20082 48511 70500
                   333 58003=
200809210300 AAXX 21034 67665 41959 00000 10144 20//0 48508 70500
                   333 58002=
200809210000 AAXX 21004 67665 41959 00000 10166 20//0 48508 70500
                   333 58002=
200809202100 AAXX 20214 67665 41959 10000 10193 20//0 48524 70500 80001
                   333 58005 81080=
200809201800 AAXX 20184 67665 41960 10000 10237 20//0 48523 70500 80001
                   333 10336 58004 81080=
200809201500 AAXX 20154 67665 41960 10323 20045 58505 70500
                   333 58004=
200809201200 AAXX 20124 67665 41960 00402 10322 20071 48516 70500
                   333 59004=
200809200600 AAXX 20064 67665 31959 00000 10230 20082 48526 70500
                   333 10328 20142 59017 91019=
200809191500 AAXX 19154 67665 41959 01112 10310 20083 48500 70500
                   333 59022 555 10326 91015=
200809191200 AAXX 19124 67665 41959 00605 10310 20057 48511 70500
                   333 59025 91016=
200809190900 AAXX 19094 67665 41958 00503 10275 20101 48543 70500
                   333 59017 91020=
200809190600 AAXX 19064 67665 31957 00000 10212 20072 48540 70500
                   333 10314 20129 59012=
200809190400 AAXX 19044 67665 41960 00000 10122 20/// 48511 70500
                   333 59004=
200809181200 AAXX 18124 67665 41858 10000 10299 20073 48534 70400 81100
                   333 58014 81856 91019=
200809180600 AAXX 18064 67665 31959 01105 10195 20066 48549 70500
                   333 10317 20124 58018=
200809180400 AAXX 18044 67665 42980 00000 10137 20//0 48529
                   333 58013=
200809180300 AAXX 18034 67665 42980 00000 10129 20//0 48518
                   333 58007=
200809180000 AAXX 18004 67665 42980 00000 10162 20//0 48520
                   333 59007=
200809172100 AAXX 17214 67665 42980 00000 10173 20//0 48526
                   333 59004=
200809171800 AAXX 17184 67665 42965 01501 10212 20/// 48500
                   333 10303 59005=
200809171200 AAXX 17124 67665 41980 00603 10308 20040 48520 70500
                   333 59010=
200809161800 AAXX 16184 67665 42980 00000 10197 20//0 48531
                   333 10304 59028=
200809161500 AAXX 16154 67665 42980 00000 10292 20036 48513
                   333 59035=
200809161200 AAXX 16124 67665 42980 01103 10292 20041 48529
                   333 59032=
200809160600 AAXX 16064 67665 32980 01003 10176 20098 48550 70500
                   333 10285 20098 59025=
200809160400 AAXX 16044 67665 42980 00000 10100 20//0 48514
                   333 59025=
200809160300 AAXX 16034 67665 42980 00000 10098 20//0 48544
                   333 59021=
200809160000 AAXX 16004 67665 42980 00000 10108 20//0 48531
                   333 59016=
200809152100 AAXX 15214 67665 42980 00000 10134 20//0 48548
                   333 59016=
200809151800 AAXX 15184 67665 42980 01002 10180 20//0 48548
                   333 59010=
200809151500 AAXX 15154 67665 42980 00904 10268 20061 48555
                   333 59016=
200809151200 AAXX 15124 67665 42980 00604 10264 20039 48557
                   333 59012=
200809150600 AAXX 15064 67665 32980 01104 10164 20054 48572
                   333 10265 20097 59017
                   555 91025=
200809141800 AAXX 14184 67665 42980 21005 10142 20//0 48560 80001
                   333 10260 59016 82080=
200809141500 AAXX 14154 67665 42980 10806 10244 20035 48557 80001
                   333 59016 81080 555 10260=
200809141200 AAXX 14124 67665 42980 00037 10245 20030 48571 80001
                   333 59010 81360 91024=
200809140900 AAXX 14094 67665 41069 01007 10197 20066 70500
                   333 59004 555 91027=
200809140600 AAXX 14064 67665 31469 21009 10148 20090 48587 70500 83500
                   333 10240 20094 59002 83625
                   555 91027=
200809131200 AAXX 13124 67665 42680 50810 10245 20117 48581 85100
                   333 58043 85840 91025=
200809130900 AAXX 13094 67665 41658 71113 10222 20122 48604 70522 87500
                   333 58042 87630=
200809130600 AAXX 13064 67665 31958 51005 10172 20117 48591 70500 85500
                   333 10298 20124 58035 85618=
200809130400 AAXX 13044 67665 41960 00000 10137 20/// 48572 70500
                   333 58040=
200809121500 AAXX 12154 67665 41958 01106 10266 20066 48544 70500
                   333 58026=
200809121200 AAXX 12124 67665 41958 01105 10289 20075 48543 70500
                   333 58026=
200809120900 AAXX 12094 67665 41958 00708 10260 20109 48569 70500
                   333 58025=
200809120600 AAXX 12064 67665 31957 01105 10194 20130 48561 70500
                   333 10336 20142 58026=
200809111800 AAXX 11184 67665 41957 10227 20//0 48530 70500
                   333 10336 58006=
200809111500 AAXX 11154 67665 41956 01105 10300 21006 48523 70500
                   333 58003=
200809111200 AAXX 11124 67665 41957 01005 10322 20032 48521 70500
                   333 58008=
200809110900 AAXX 11094 67665 31956 00000 10304 20057 48549 70500
                   333 59015=
200809110600 AAXX 11064 67665 31956 00000 10207 20065 48529 70500
                   333 10342 20146 59011=
200809110400 AAXX 11044 67665 41956 00000 10159 20//0 48520 70500
                   333 59006=
200809110300 AAXX 11034 67665 41958 00000 10161 20//0 48517 70500
                   333 58002=
200809110000 AAXX 11004 67665 41958 00000 10158 20//0 48558 70500
                   333 59010=
200809102100 AAXX 10214 67665 41959 00000 10168 20//0 48520 70500
                   333 59020=
200809101500 AAXX 10154 67665 41958 01404 10312 20045 48521 70500
                   333 59005=
200809101200 AAXX 10124 67665 41958 01203 10328 20035 48531 70500
                   333 59004=
200809091800 AAXX 09184 67665 41959 00000 10224 20//0 48531 70500
                   333 10335 59003=
200809091500 AAXX 09154 67665 41959 01205 10315 20055 48525 70500
                   333 59002 555 10335=
200809091200 AAXX 09124 67665 41959 03604 10321 20060 48534 70500
                   333 58000 91018=
200809090900 AAXX 09094 67665 41960 00103 10296 20085 48563 70500
                   333 58004=
200809090600 AAXX 09064 67665 31959 01202 10206 20101 48550 70500
                   333 10325 20146 58001=
200809081200 AAXX 08124 67665 41959 01104 10312 20062 48532 70500
                   333 59008 91018=
200809080900 AAXX 08094 67665 41957 00604 10220 20126 48549 70500
                   333 59010 555 91022=
200809080400 AAXX 08044 67665 41959 00000 10099 20/// 48524 70500
                   333 59009=
200809080300 AAXX 08034 67665 41959 00000 10110 20//0 48528 70500
                   333 59014=
200809080000 AAXX 08004 67665 41980 00000 10145 20//0 48527 70500
                   333 59010=
200809072100 AAXX 07214 67665 41959 00000 10156 20//0 48538 70500
                   333 59003=
200809071800 AAXX 07184 67665 41958 01002 10199 20//0 48533 70500
                   333 10305 59008=
200809071500 AAXX 07154 67665 41958 01002 10287 20070 48525 70500
                   333 59009 555 10305=
200809071200 AAXX 07124 67665 41958 00804 10288 20088 48526 70500
                   333 58000 91019=
200809070600 AAXX 07064 67665 31959 01104 10178 20073 48556 70500
                   333 10322 20109 58003=
200809061800 AAXX 06184 67665 42960 01502 10209 20//0 48541
                   333 59008=
200809061200 AAXX 06124 67665 41958 01106 10314 20054 48540 70500
                   333 59009=
200809051800 AAXX 05184 67665 42960 01402 10189 20//0 48543
                   333 59002=
200809051200 AAXX 05124 67665 41958 00000 10292 20089 48547 70500
                   333 58004=
200809041800 AAXX 04184 67665 41960 01203 10207 20//0 48549 70500
                   333 58010 91022=
200809041500 AAXX 04154 67665 41960 00904 10280 20104 48541 70500
                   333 58010=
200809041200 AAXX 04124 67665 41960 00910 10299 20076 48544 70500
                   333 58003=
200809040600 AAXX 04064 67665 31959 01003 10186 20110 48548 70500
                   333 10298 20130 59007=
200809040400 AAXX 04044 67665 41959 00000 10131 20//0 48532 70500
                   333 59001=
200809040300 AAXX 04034 67665 41980 00000 10127 20//0 48528 70500
                   333 58001=
200809040000 AAXX 04004 67665 41980 00000 10131 20//0 48525 70500
                   333 59005=
200809032100 AAXX 03214 67665 41980 00000 10153 20//0 48539 70500
                   333 59004=
200809031200 AAXX 03124 67665 41960 00607 10292 20086 48540 70500
                   333 59015 91020=
200809030600 AAXX 03064 67665 31956 01005 10160 20138 48540 70500
                   333 10280 20117 59011=
200809030300 AAXX 03034 67665 41959 00000 10123 20//0 48533 70500
                   333 59010=
200809030000 AAXX 03004 67665 41958 00000 10142 20//0 48529 70500
                   333 59003=
200809022100 AAXX 02214 67665 41958 00000 10160 20//0 48544 70500
                   333 58018=
200809021800 AAXX 02184 67665 41959 01004 10187 20/// 48542 70500
                   333 10279 58026=
200809021500 AAXX 02154 67665 41960 00805 10265 20130 48539 70500
                   333 59026 555 10279 91020=
200809021200 AAXX 02124 67665 41960 00809 10262 20129 48552 70500
                   333 58037 91021=
200809020900 AAXX 02094 67665 41960 00505 10218 20128 48576 70500
                   333 58045=
200809020600 AAXX 02064 67665 31940 01008 10176 20103 48564 70500
                   333 58042=
200809011500 AAXX 01154 67665 41957 01305 10304 20040 48518 70500
                   333 58029=
200809011200 AAXX 01124 67665 41958 01404 10327 20052 48523 70500
                   333 58028=
200809010600 AAXX 01064 67665 31960 01202 10213 20060 48524 70500
                   333 10344 20150 58012=

################################################################################
#  SYNOPS from 67666, Lusaka City Airport (Zambia) | 15-25S | 028-19E | 1280 m
################################################################################
200809300600 AAXX 30064 67666 31958 00812 10224 20149 48542 70500
                   333 10299 20175 59006
                   555 91021=
200809190600 AAXX 19064 67666 31975 00904 10220 20086 48531 70500
                   333 10300 20145 59008=
200809181200 AAXX 18124 67666 41678 10402 10290 20104 48533 70500 81100
                   333 58029 81840 91019=
200809120600 AAXX 12064 67666 31960 00915 10190 20131 48552 70500
                   333 10322 20150 58031=

################################################################################
#  SYNOPS from 67673, Petauke (Zambia) | 14-15S | 031-17E | 1035 m
################################################################################
200809120600 AAXX 12064 67673 31960 01208 10205 20140 48564 70500
                   333 10340 20184 58027=
200809040600 AAXX 04064 67673 31960 00906 10246 20131 48561 70500
                   333 10300 20181 58000=

################################################################################
#  SYNOPS from 67743, Livingstone (Zambia) | 17-49S | 025-49E | 985 m
################################################################################
200809300600 AAXX 30064 67743 31958 00404 10238 20155 48541 70500
                   333 10340 20184 59011 91020=
200809290600 AAXX 29064 67743 31959 00909 10200 20126 48546 70500
                   333 10370 20180 58O26=
200809221200 AAXX 22124 67743 41959 01205 10328 20114 48518 70500
                   333 59003=
200809190600 AAXX 19064 67743 31958 01503 10205 20038 48514 70500
                   333 10354 20160 59024=
200809181200 AAXX 18124 67743 41959 00708 10334 20050 48530 70500
                   333 58014 91017=
200809161500 AAXX 16154 67743 41958 01606 10320 21025 48507 70500
                   333 59038=
200809161200 AAXX 16124 67743 41958 01304 10320 21025 48523 70500
                   333 59035=
200809160600 AAXX 16064 67743 31959 00909 10165 20010 48534 70500
                   333 10310 20107 59035=
200809150600 AAXX 15064 67743 31959 00000 10182 20051 48568 70500
                   333 10373 20115 58054
                   555 91024=
200809120600 AAXX 12064 67743 31956 00905 10210 20104 48547 70500
                   333 10373 20175 58027=
200809111500 AAXX 11154 67743 41957 01112 10344 20072 48518 70500
                   333 58003=
200809110600 AAXX 11064 67743 31958 00000 10200 20066 48521 70500
                   333 10366 20165 59014=
200809081200 AAXX 08124 67743 41958 01209 10340 20061 48519 70500
                   333 59012 91016=
200809040600 AAXX 04064 67743 31965 00000 10180 20099 48540 70500
                   333 59001=
200809020600 AAXX 02064 67743 31956 01006 10175 20019 48544 70500
                   333 58008=
200809011500 AAXX 01154 67743 41959 01504 10303 20012 48521 70500
                   333 58042=
200809011200 AAXX 01124 67743 41959 01206 10290 20005 48535 70500
                   333 58053=
200809010600 AAXX 01064 67743 31970 01307 10177 21050 48538 70500
                   333 10362 20160 58053=

################################################################################
#  SYNOPS from 67753, Choma (Zambia) | 16-50S | 027-04E | 1213 m
################################################################################
200809290600 AAXX 29064 67753 31960 00906 10195 20146 70500
                   333 10346 20125 5////=
200809190600 AAXX 19064 67753 31960 00904 10192 20072 48/// 70500
                   333 10310 20105 5////=
200809160600 AAXX 16064 67753 31960 03605 10205 20034 48/// 70500
                   333 10272 20065 5////=
200809120600 AAXX 12064 67753 31958 00905 10185 20102 48/// 70500
                   333 10335 20130 5////=
200809011200 AAXX 01124 67753 41960 00908 10310 21009 48/// 70500
                   333 5////=
200809010600 AAXX 01064 67753 31960 00905 10190 20010 48/// 70500
                   333 10335 20157 5////=

################################################################################
#  SYNOPS from 67855, Lupaki (Zambia) | 17-03-00S | 024-46-00E | 1000 m
################################################################################
200809301800 AAXX 30184 67855 NIL=
200809301200 AAXX 30124 67855 41965 00401 10350 20112 3//// 48/// 70500
                   333 5////=
200809300600 AAXX 30064 67855 NIL=
200809300000 AAXX 30004 67855 NIL=
200809291800 AAXX 29184 67855 NIL=
200809291200 AAXX 29124 67855 NIL=
200809280600 AAXX 28064 67855 NIL=
200809271800 AAXX 27184 67855 NIL=
