################################################################################
# Query made at 04/14/2022 03:01:29 UTC
# Country like Zamb*
# Time interval: from 05/01/2017 05:30  to 05/31/2017 06:30  UTC
################################################################################

################################################################################
#  SYNOPS from 67403, Kawambwa (Zambia) | 09-48S | 029-05E | 1323 m
################################################################################
201705310600 AAXX 31064 67403 31375 80907 10155 20137 48557 70522 8253/
                   333 10264 20130 58002 82608 87360
                   555 00102=
201705300600 AAXX 30064 67403 32480 31208 10175 20146 48557 83500
                   333 10290 20148 58015 83610
                   555 00118=
201705290600 AAXX 29064 67403 31975 01203 10182 20122 48544 70500
                   333 10298 20152 59001
                   555 00114=
201705260600 AAXX 26064 67403 32980 10901 10146 20131 48527 80001
                   333 10294 20134 59005 81080
                   555 00106=
201705240600 AAXX 24064 67403 32980 11205 10179 48541 81031
                   333 10268 20152 59001 81360 81080
                   555 00118=
201705231200 AAXX 23124 67403 NIL=
201705230600 AAXX 23064 67403 32980 31202 10182 20147 48543 83030
                   333 10292 20150 58005 83360
                   555 00119=
201705190600 AAXX 19064 67403 32980 10903 10187 20148 48549 80001
                   333 10290 20156 58011 81080
                   555 00130=
201705180600 AAXX 18064 67403 32980 21203 10189 20149 48538 80001
                   333 10282 20158 58006 82080
                   555 00132=
201705120600 AAXX 12064 67403 32980 50902 10189 20171 48534 82037
                   333 10302 20162 58004 82360 85280
                   555 00141=
201705100600 AAXX 10064 67403 32980 11205 10178 20136 48527 80001
                   333 10286 20148 59006 81080
                   555 00124=
201705091500 AAXX 09154 67403 NIL=
201705090600 AAXX 09064 67403 12980 20906 10187 20156 48534 60194 82030
                   333 10290 20164 59001 82360
                   555 00148=
201705080600 AAXX 08064 67403 31380 20605 10192 20168 48535 70300 82531
                   333 10298 20170 58006 82608 81360 81080
                   555 00149=
201705050600 AAXX 05064 67403 32980 11205 10187 20154 48531 80001
                   333 10290 20160 58002 81080
                   555 00139=
201705030600 AAXX 03064 67403 32980 51210 10182 20138 48528 85030
                   333 10286 20154 59005 85360
                   555 00144=
201705011500 AAXX 01154 67403 NIL=

################################################################################
#  SYNOPS from 67413, Mbala (Zambia) | 08-51S | 031-20E | 1673 m
################################################################################
201705310600 AAXX 31064 67413 32375 71009 10150 20124 48575 875//
                   333 10260 20142 59001 87609
                   555 00/// 91028=
201705290600 AAXX 29064 67413 32980 01004 10200 20115 48564
                   333 10270 20140 59003
                   555 00/// 91027=
201705231200 AAXX 23124 67413 NIL=
201705180600 AAXX 18064 67413 32480 50906 10190 20132 48553 80008
                   333 10270 20140 58003 85280
                   555 00140 91026=
201705120600 AAXX 12064 67413 32980 11004 10190 20158 48554 81030
                   333 10265 20148 58009 81358
                   555 00/// 91026=
201705110600 AAXX 11064 67413 32480 10906 10185 20135 48545 81500
                   333 10250 20136 58004 81615
                   555 00136 91024=
201705100600 AAXX 10064 67413 32480 20914 10165 20131 48542 81540
                   333 10250 20140 59008 81615 81359
                   555 00140 91024=
201705091500 AAXX 09154 67413 NIL=
201705090600 AAXX 09064 67413 12480 21012 10170 20136 48550 60034 81140
                   333 10245 20140 59007 81815 81359
                   555 00140 91025=
201705080600 AAXX 08064 67413 NIL=
201705050600 AAXX 05064 67413 32480 31215 10185 20153 48546 83500
                   333 10255 20160 59002 83612
                   555 00/// 91025=
201705040600 AAXX 04064 67413 32480 41007 10165 20140 48549 84500
                   333 10270 20140 58004 84612
                   555 00/// 91025=
201705030600 AAXX 03064 67413 32480 31012 10165 20131 48545 83500
                   333 10260 20140 59006 83612
                   555 00/// 91025=
201705011500 AAXX 01154 67413 NIL=

################################################################################
#  SYNOPS from 67441, Mwinilunga (Zambia) | 11-45S | 024-26E | 1361 m
################################################################################
201705231200 AAXX 23124 67441 NIL=
201705100600 AAXX 10064 67441 NIL=
201705091500 AAXX 09154 67441 NIL=
201705080600 AAXX 08064 67441 NIL=
201705050600 AAXX 05064 67441 NIL=
201705011500 AAXX 01154 67441 NIL=

################################################################################
#  SYNOPS from 67461, Mansa (Zambia) | 11-06S | 028-51E | 1382 m
################################################################################
201705310600 AAXX 31064 67461 32480 70807 10156 20135 48566 875//
                   333 10222 20119 58004 87914
                   555 001259 91025=
201705300600 AAXX 30064 67461 31475 70910 10168 20141 48564 74044 876//
                   333 10268 20142 58027 87706
                   555 00144 91024=
201705290600 AAXX 29064 67461 32980 01504 10189 20145 48540
                   333 10288 20131 58010
                   555 00135 91022=
201705260600 AAXX 26064 67461 32980 11502 10165 20137 48518 80001
                   333 10275 20092 59011 81080
                   555 00111=
201705231200 AAXX 23124 67461 NIL=
201705230600 AAXX 23064 67461 32480 30807 10168 20150 48550 83530
                   333 10266 20130 58007 83613 81360
                   555 00142 91023=
201705220600 AAXX 22064 67461 32480 30903 10169 20146 48544 83500
                   333 10269 20138 59010 83613
                   555 00148 91023=
201705190600 AAXX 19064 67461 32480 11506 10175 20160 48540 81501
                   333 10280 20145 58012 81615 81080
                   555 00138 91021=
201705180600 AAXX 18064 67461 32980 61503 10175 20160 48528 80008
                   333 10275 20195 59001 86280
                   555 00135 91021=
201705120600 AAXX 12064 67461 32480 50804 10191 20165 48542 81508
                   333 10272 20146 58002 81617 85280
                   555 00139 91021=
201705100600 AAXX 10064 67461 32980 01107 10190 20155 48546
                   333 10265 20144 58006
                   555 00130 91022=
201705091500 AAXX 09154 67461 NIL=
201705090600 AAXX 09064 67461 32980 10903 10195 20163 48540 81030
                   333 10271 20160 59001 81360
                   555 00150 91022=
201705080600 AAXX 08064 67461 32580 71210 10202 20184 48542 875//
                   333 10265 20165 58010 87620
                   555 00150 91022=
201705050600 AAXX 05064 67461 32480 11006 10180 20163 48530 81500
                   333 10258 20148 59011 81612
                   555 00138 91020=
201705030600 AAXX 03064 67461 32480 10806 10180 20159 48539 81530
                   333 10257 20140 59004 81614 81360
                   555 00/// 91028=
201705020600 AAXX 02064 67461 32480 10904 10192 20160 48544 81500
                   333 10266 20//0 59003 81611
                   555 00144 91021=
201705011500 AAXX 01154 67461 NIL=

################################################################################
#  SYNOPS from 67475, Kasama (Zambia) | 10-13S | 031-08E | 1382 m
################################################################################
201705310600 AAXX 31064 67475 31360 71012 10170 20137 48571 70522 875//
                   333 10230 20135 59006 87615
                   555 00/// 91026=
201705300600 AAXX 30064 67475 32360 81511 10160 20137 48576 886//
                   333 10276 20140 58021 88709
                   555 00/// 91027=
201705290600 AAXX 29064 67475 32980 01107 10195 20118 48558
                   333 10284 20127 58003
                   555 00/// 91024=
201705270600 AAXX 27064 67475 32980 10209 10182 20122 48549 80001
                   333 10276 20109 58008 81080
                   555 00/// 91023=
201705260600 AAXX 26064 67475 32960 20107 10176 20123 48541 70200
                   333 10276 20104 59008
                   555 00/// 91022=
201705240600 AAXX 24064 67475 32960 30905 10185 20114 48563 70100 81030
                   333 10268 20145 59002 81360
                   555 00/// 91024=
201705231200 AAXX 23124 67475 NIL=
201705230900 AAXX 23094 67475 42660 61014 10230 20134 48561 8117/
                   333 58006 81835 86361 91024=
201705221200 AAXX 22124 67475 42760 71309 10245 20138 48531 8213/
                   333 59004 82850 86361 91021=
201705220900 AAXX 22094 67475 42660 31210 10238 20136 48556 83130
                   333 59005 83840 81360 91024=
201705220600 AAXX 22064 67475 32460 10708 10180 20142 48552 81600
                   333 10264 20124 59012 81712
                   555 00/// 91024=
201705180600 AAXX 18064 67475 32960 30905 10195 20149 48548 70210 80001
                   333 10270 20129 58004 83080
                   555 00/// 91023=
201705120600 AAXX 12064 67475 32480 70610 10200 20162 48548 82538
                   333 10269 20149 58006 82615 81360 87280
                   555 00128 91023=
201705110600 AAXX 11064 67475 32960 10906 10194 20147 48541 80001
                   333 10270 20127 59002 81080
                   555 00/// 91022=
201705100600 AAXX 10064 67475 32960 00905 10180 20133 48542 70200
                   333 10263 20180 59006
                   555 00168 91022=
201705091500 AAXX 09154 67475 NIL=
201705080600 AAXX 08064 67475 12360 51111 10196 20171 48553 69914 82670
                   333 10260 20166 58004 82709 84360
                   555 00154 91024=
201705050600 AAXX 05064 67475 32360 21410 10190 20160 48576 70300 82630
                   333 10271 20155 59000 82708 81360
                   555 00136 91023=
201705030900 AAXX 03094 67475 42660 30804 10230 20142 48542 70300 83102
                   333 59004 83835 81080 91022=
201705020900 AAXX 02094 67475 42660 11314 10234 20131 48548 81101
                   333 59003 81840 81080 91023=
201705011500 AAXX 01154 67475 NIL=

################################################################################
#  SYNOPS from 67476, Misamfu (Zambia) | 10-06S | 031-15E | 1536 m
################################################################################
201705260600 AAXX 26064 67476 32980 01301 10167 20123 48///
                   333 10266 20098 5////
                   555 00096=
201705240600 AAXX 24064 67476 32980 11301 10165 20144 48/// 81030
                   333 10256 20126 59003 81359
                   555 00123=
201705231200 AAXX 23124 67476 NIL=
201705100600 AAXX 10064 67476 32980 01203 10172 20134 48///
                   333 10259 20122 59009
                   555 00093=
201705091500 AAXX 09154 67476 NIL=
201705080600 AAXX 08064 67476 12580 40903 10194 20171 48/// 60044 81530
                   333 10252 20148 5//// 81625 84360
                   555 00145=
201705050600 AAXX 05064 67476 NIL=
201705011500 AAXX 01154 67476 NIL=

################################################################################
#  SYNOPS from 67477, Mpika (Zambia) | 11-54S | 031-26E | 1400 m
################################################################################
201705300600 AAXX 30064 67477 32480 50910 10163 20140 48585
                   333 10236 20139 58018 85610
                   555 00130=
201705290600 AAXX 29064 67477 32480 20910 10191 20170 48570 82530
                   333 10276 20142 58002 82610 81359
                   555 00128=
201705260600 AAXX 26064 67477 32980 0//// 10195 20150 48545
                   333 10263 20106 58000
                   555 00137=
201705240600 AAXX 24064 67477 32980 00902 10193 20150 48560
                   333 10264 20118 59003
                   555 00146=
201705231200 AAXX 23124 67477 NIL=
201705230600 AAXX 23064 67477 32480 71206 10178 20160 48565 82570
                   333 10240 20143 58006 82610 86459
                   555 00153=
201705220600 AAXX 22064 67477 32480 11210 10188 20150 48560 81100
                   333 10238 20139 59014 81812
                   555 00142=
201705190600 AAXX 19064 67477 32480 21204 10208 20150 48575 82101
                   333 10264 20146 58013 82812 81080
                   555 00162=
201705180600 AAXX 18064 67477 32980 20903 10200 20150 48555 80001
                   333 10256 20140 58006 82080
                   555 00165=
201705120600 AAXX 12064 67477 32480 20902 10200 20140 48550 81101
                   333 10258 20152 58002 81812 82080
                   555 00157=
201705100600 AAXX 10064 67477 32480 61203 10188 20160 48548 86500
                   333 10246 20138 59008 86612
                   555 00148=
201705091500 AAXX 09154 67477 NIL=
201705090600 AAXX 09064 67477 32480 21203 10197 20140 48555 82100
                   333 10257 20139 59006 82812
                   555 00142=
201705080600 AAXX 08064 67477 32480 61204 10213 20180 48560 86501
                   333 10249 20158 58012 86610 81080
                   555 00172=
201705050600 AAXX 05064 67477 32480 71206 10179 20160 48560 87500
                   333 10242 20137 59003 87610
                   555 00142=
201705020600 AAXX 02064 67477 32480 31210 10190 20170 48550 83100
                   333 10251 20133 5//// 83810
                   555 00152=
201705011500 AAXX 01154 67477 NIL=

################################################################################
#  SYNOPS from 67481, Isoka (Zambia) | 10-07S | 032-38E | 1360 m
################################################################################
201705300600 AAXX 30064 67481 31365 83603 10160 20147 48/// 70422 885//
                   333 10290 20160 58002 88608
                   555 00150=
201705290600 AAXX 29064 67481 32980 00906 10200 20135 48///
                   333 10280 20140 58003
                   555 00///=
201705260600 AAXX 26064 67481 32980 01801 10190 20145 48///
                   333 10278 20124 59004
                   555 00///=
201705240600 AAXX 24064 67481 32980 12702 10192 20152 48/// 81130
                   333 10260 20138 58001 81815 81360
                   555 00114=
201705231200 AAXX 23124 67481 NIL=
201705230600 AAXX 23064 67481 32980 72602 10188 20142 48/// 8705/
                   333 10260 20160 58014 87360
                   555 00160=
201705220600 AAXX 22064 67481 32480 12702 10187 20142 48/// 81100
                   333 10268 20125 59026 81816
                   555 00///=
201705190600 AAXX 19064 67481 32980 03002 10186 20143 48///
                   333 10270 20138 58020
                   555 00104=
201705180600 AAXX 18064 67481 32980 12702 10190 20147 48/// 80001
                   333 10280 20134 58003 81080
                   555 00104=
201705120600 AAXX 12064 67481 32980 50302 10198 20165 48/// 85030
                   333 10270 20180 58005 85360
                   555 00///=
201705110600 AAXX 11064 67481 32980 03004 10200 20143 48///
                   333 10260 20136 58000
                   555 00114=
201705100600 AAXX 10064 67481 32580 12204 10194 20128 48/// 81100
                   333 10262 20128 59009 81820
                   555 00102=
201705091500 AAXX 09154 67481 NIL=
201705090600 AAXX 09064 67481 32980 10000 10196 20140 48/// 81030
                   333 10268 20146 59001 81360
                   555 00105=
201705080600 AAXX 08064 67481 12980 62002 10200 20172 48/// 60034 86030
                   333 10254 20168 58003 86360
                   555 00///=
201705050600 AAXX 05064 67481 32480 12802 10188 20167 48/// 81130
                   333 10246 20152 59001 81810 81360
                   555 00145=
201705011500 AAXX 01154 67481 NIL=

################################################################################
#  SYNOPS from 67531, Zambezi (Zambia) | 13-32S | 023-07E | 1077 m
################################################################################
201705310600 AAXX 31064 67531 32980 00000 10136 20121 48///
                   333 10273 20089 5////
                   555 00075=
201705300600 AAXX 30064 67531 32980 01207 10175 20138 48///
                   333 10297 20118 5////
                   555 00120=
201705260600 AAXX 26064 67531 32980 01001 10176 20136 48///
                   333 10297 20091 5////
                   555 00091=
201705240600 AAXX 24064 67531 32980 01204 10183 20139 48///
                   333 10294 20140 5////
                   555 00130=
201705231200 AAXX 23124 67531 NIL=
201705230600 AAXX 23064 67531 32980 10907 10180 20140 48/// 81030
                   333 10282 20142 5//// 81362
                   555 00130=
201705220600 AAXX 22064 67531 32980 11205 10166 20134 48/// 81030
                   333 10238 20126 5//// 81362
                   555 00///=
201705190600 AAXX 19064 67531 32980 11202 10162 20131 48/// 80001
                   333 10292 20096 5//// 81081
                   555 00091=
201705180600 AAXX 18064 67531 32980 00902 10167 20123 48///
                   333 10289 20085 5////
                   555 00082=
201705120600 AAXX 12064 67531 32980 01502 10177 20137 48///
                   333 10287 20100 58005
                   555 00099=
201705100600 AAXX 10064 67531 32980 11107 10191 20159 48/// 80001
                   333 10306 20136 58005 81081
                   555 00127=
201705091500 AAXX 09154 67531 NIL=
201705090600 AAXX 09064 67531 32980 11007 10204 20168 48/// 81030
                   333 10300 20156 59005 81362
                   555 00153=
201705080600 AAXX 08064 67531 32980 11208 10206 20160 48/// 81030
                   333 10300 20147 58001 81362
                   555 00144=
201705050600 AAXX 05064 67531 32980 01207 10194 20149 48///
                   333 10286 20128 58005
                   555 00115=
201705040600 AAXX 04064 67531 32980 01105 10186 20147 48///
                   333 10283 20127 58001
                   555 00119=
201705020600 AAXX 02064 67531 32980 21107 10190 20150 48/// 82030
                   333 10285 20123 59002 82362
                   555 00121=
201705011500 AAXX 01154 67531 NIL=

################################################################################
#  SYNOPS from 67541, Kasempa (Zambia) | 13-32S | 025-51E | 1234 m
################################################################################
201705310600 AAXX 31064 67541 32980 10000 10153 20131 48551 70222 81030
                   333 10240 20072 59005 81360
                   555 00///=
201705240600 AAXX 24064 67541 32980 10000 10200 20161 48540 70222 80001
                   333 10296 20140 58002 81080
                   555 00///=
201705231200 AAXX 23124 67541 NIL=
201705230600 AAXX 23064 67541 32980 10000 10180 20153 48538 70222 80001
                   333 10276 20136 58000 81080
                   555 00///=
201705190600 AAXX 19064 67541 32980 10000 10180 20149 48539 70222 80001
                   333 10250 20112 58010 81080
                   555 00///=
201705180600 AAXX 18064 67541 32980 10000 10170 20151 48529 70222 80001
                   333 10280 20094 59002 81080
                   555 00///=
201705120600 AAXX 12064 67541 32980 10000 10185 20169 48539 70222 81030
                   333 10270 20126 58004 81360
                   555 00///=
201705100600 AAXX 10064 67541 NIL=
201705091500 AAXX 09154 67541 NIL=
201705080600 AAXX 08064 67541 NIL=
201705050600 AAXX 05064 67541 32980 10000 10192 20157 48539 70222 80001
                   333 10254 20122 58006 81080
                   555 00///=
201705020600 AAXX 02064 67541 32980 20703 10196 20159 48536 70222 82030
                   333 10250 20152 59001 82360
                   555 00///=
201705011500 AAXX 01154 67541 NIL=

################################################################################
#  SYNOPS from 67543, Kabompo (Zambia) | 13-36S | 024-12E | 1075 m
################################################################################
201705310600 AAXX 31064 67543 31920 00000 10110 20105 48/// 74244
                   333 10294 20094 58002
                   555 00068=
201705300600 AAXX 30064 67543 31375 30802 10158 20137 48/// 70500 83600
                   333 10324 20130 58023 83708
                   555 00090=
201705290600 AAXX 29064 67543 31970 00000 10128 20118 48/// 70544
                   333 10320 20106 58005
                   555 00070=
201705260600 AAXX 26064 67543 31980 00000 10150 20127 48/// 70500
                   333 10306 20114 59003
                   555 00080=
201705240600 AAXX 24064 67543 31978 00801 10176 20139 48/// 70500
                   333 10302 20146 59005
                   555 00105=
201705231200 AAXX 23124 67543 NIL=
201705190600 AAXX 19064 67543 31980 00701 10168 20133 48/// 70500
                   333 10296 20130 58016
                   555 00105=
201705180600 AAXX 18064 67543 31980 10000 10148 20109 48/// 70500 80001
                   333 10298 20118 58003 81085
                   555 00095=
201705120600 AAXX 12064 67543 31980 20000 10164 20132 48/// 70500 82030
                   333 10298 20128 58002 82362
                   555 00092=
201705100600 AAXX 10064 67543 NIL=
201705091500 AAXX 09154 67543 NIL=
201705080600 AAXX 08064 67543 32980 40802 10194 20162 48/// 84030
                   333 10310 20158 58000 84362
                   555 00112=
201705050600 AAXX 05064 67543 32980 00000 10168 20143 48///
                   333 10298 20140 58009
                   555 00108=
201705030600 AAXX 03064 67543 32980 10000 10170 20138 48/// 81030
                   333 10294 20138 59004 81361
                   555 00120=
201705021200 AAXX 02124 67543 42683 70802 10276 20167 48/// 87100
                   333 5//// 87830=
201705011500 AAXX 01154 67543 NIL=

################################################################################
#  SYNOPS from 67551, Solwezi (Zambia) | 12-11S | 026-23E | 1386 m
################################################################################
201705310600 AAXX 31064 67551 31357 71205 10130 20119 48558 71022 8553/
                   333 10190 20052 59003 85705 83362
                   555 00160 91025=
201705300600 AAXX 30064 67551 31357 81208 10145 20129 48572 885//
                   333 10280 20072 58026 88607
                   555 00178 91025=
201705260600 AAXX 26064 67551 31958 00804 10134 20131 48536 71000
                   333 10282 20039 59003
                   555 00150 91021=
201705240600 AAXX 24064 67551 32975 01405 10159 20135 48554
                   333 10274 20036 58001
                   555 00160 91023=
201705231200 AAXX 23124 67551 NIL=
201705230600 AAXX 23064 67551 32975 00906 10165 20136 48554
                   333 10270 20068 58002
                   555 00160 91023=
201705190600 AAXX 19064 67551 32958 01305 10173 20154 48567
                   333 10274 20072 58015
                   555 00160 91024=
201705120600 AAXX 12064 67551 32975 21204 10169 20140 48574 80001
                   333 10279 20060 58002 82080
                   555 00163 91022=
201705100600 AAXX 10064 67551 32970 01104 10172 20149 48548
                   333 10280 20081 58003
                   555 00180 91022=
201705091500 AAXX 09154 67551 NIL=
201705080600 AAXX 08064 67551 NIL=
201705050600 AAXX 05064 67551 NIL=
201705040600 AAXX 04064 67551 32375 21304 10158 20145 48543 82500
                   333 10268 20079 58003 82608
                   555 00173 91022=
201705030600 AAXX 03064 67551 32475 21204 10156 20128 48540 82500
                   333 10261 20079 59006 82610
                   555 00164 91022=
201705020600 AAXX 02064 67551 32380 71705 10171 20150 48547 87630
                   333 10262 20086 59005 87704 82360
                   555 00184 91012=
201705011500 AAXX 01154 67551 NIL=

################################################################################
#  SYNOPS from 67561, Ndola (Zambia) | 13-00S | 028-39E | 1269 m
################################################################################
201705310600 AAXX 31064 67561 31375 71209 10157 20126 48572 70522 81630
                   333 10197 20120 59005 81706 87360
                   555 00/// 91026=
201705291200 AAXX 29124 67561 41670 61110 10261 20137 48557 70522 86200
                   333 58016 86845 91023=
201705250600 AAXX 25064 67561 31958 00000 10176 20147 48547 74240
                   333 10279 20115 59009
                   555 00/// 91023=
201705240600 AAXX 24064 67561 31958 00000 10189 20142 48557 70400
                   333 10274 20112 58000 91024=
201705231200 AAXX 23124 67561 NIL=
201705230600 AAXX 23064 67561 31960 10805 10161 20139 48555 70500 81030
                   333 10270 20123 58004 81360
                   555 00/// 91024=
201705190600 AAXX 19064 67561 31360 20804 10177 20153 48567 70522 81601
                   333 10276 20128 58065 81707 82080
                   555 00/// 91025=
201705170600 AAXX 17064 67561 31760 21109 10196 20163 48551 70500 80001
                   333 10275 20132 58001 82080
                   555 00/// 91023=
201705160600 AAXX 16064 67561 31360 11204 10194 20166 48541 70511 81600
                   333 10276 20145 58006 81709
                   555 00///=
201705131200 AAXX 13124 67561 41670 5//// 10262 20154 48524 70522 85840
                   333 5//// 81361 86280 91019=
201705100600 AAXX 10064 67561 NIL=
201705091500 AAXX 09154 67561 41765 51204 10233 20165 48532 70522 83260
                   333 58000 81950 83856 85360=
201705080600 AAXX 08064 67561 11970 41111 10198 20172 48556 69904 70511 84030
                   333 10280 20147 58008 84360
                   555 00/// 91023=
201705051500 AAXX 05154 67561 41770 51607 10253 20146 48526 71522 85201
                   333 58005 81950=
201705050600 AAXX 05064 67561 31360 1//// 10182 20155 48552 72840 81101
                   333 10267 20129 58000 81807 81080
                   555 00/// 91023=
201705040600 AAXX 04064 67561 31960 01305 10174 20148 48551 70500
                   333 10265 20124 58004
                   555 00/// 91023=
201705011500 AAXX 01154 67561 42780 40000 10222 20170 48532 70111 82260
                   333 59006 81950 82856 83360=

################################################################################
#  SYNOPS from 67563, Kafironda (Zambia) | 12-36S | 028-07E | 1243 m
################################################################################
201705260600 AAXX 26064 67563 32980 00000 10195 20150 48/// 70200
                   333 10290 20080 5////
                   555 00075=
201705240600 AAXX 24064 67563 32980 01002 10170 20140 48/// 70200
                   333 10280 20090 58018
                   555 00080=
201705231200 AAXX 23124 67563 NIL=
201705230600 AAXX 23064 67563 32980 01202 10175 20142 48/// 70200
                   333 10280 20100 59013
                   555 00090=
201705190600 AAXX 19064 67563 32980 1//// 10180 20145 48/// 70200 81032
                   333 10285 20105 58017 81360 82080=
201705100600 AAXX 10064 67563 NIL=
201705091500 AAXX 09154 67563 NIL=
201705080600 AAXX 08064 67563 NIL=
201705050600 AAXX 05064 67563 NIL=
201705011500 AAXX 01154 67563 NIL=

################################################################################
#  SYNOPS from 67571, Serenje (Zambia) | 13-14S | 030-13E | 1384 m
################################################################################
201705301200 AAXX 30124 67571 42580 81206 10165 48/// 70522 885//
                   333 5//// 88623=
201705290600 AAXX 29064 67571 32478 11210 10175 20135 48/// 70500 81500
                   333 10274 20155 5//// 81618
                   555 00190=
201705240900 AAXX 24094 67571 42682 11506 10240 20134 48/// 70200 81100
                   333 5//// 81837=
201705240600 AAXX 24064 67571 32982 00904 10180 20143 48///
                   333 10268 20116 5////
                   555 00195=
201705231200 AAXX 23124 67571 42682 11206 10255 20138 48/// 70100 81200
                   333 5//// 81845=
201705230900 AAXX 23094 67571 42982 10906 10236 20127 48/// 70200 81030
                   333 5//// 81360=
201705221200 AAXX 22124 67571 42682 11206 10246 20140 48/// 70100 81100
                   333 5//// 81843=
201705220900 AAXX 22094 67571 42682 11206 10217 20131 48/// 81100
                   333 5//// 81830=
201705220600 AAXX 22064 67571 32982 11207 10176 20132 48/// 81500
                   333 10243 20139 5//// 81620
                   555 00220=
201705190600 AAXX 19064 67571 32582 61207 10187 20151 48/// 70222 81508
                   333 10256 20159 5//// 81620 86281
                   555 00220=
201705181200 AAXX 18124 67571 42682 21508 10247 20129 48/// 70211 82201
                   333 5//// 82840 81080=
201705180900 AAXX 18094 67571 42682 3//// 10232 20143 48/// 70200 83501
                   333 5//// 83630 82081=
201705180600 AAXX 18064 67571 32582 11207 10188 20151 48/// 70111 81501
                   333 10265 20162 5//// 81620 81081
                   555 00225=
201705120600 AAXX 12064 67571 32982 20906 10187 20150 48/// 70200 80001
                   333 10271 20159 5//// 82081
                   555 00200=
201705100600 AAXX 10064 67571 32482 71508 10172 20146 48/// 875//
                   333 10263 20156 5//// 87618
                   555 00198=
201705091500 AAXX 09154 67571 NIL=
201705090600 AAXX 09064 67571 32582 51208 10190 20154 48/// 70311 85500
                   333 10267 20155 5//// 85620
                   555 00221=
201705080600 AAXX 08064 67571 32482 41210 10202 20166 48452
                   333 10267 20169 58032 84615 81360
                   555 00226=
201705050600 AAXX 05064 67571 32482 51508 10175 20147 48491 70311 85500
                   333 10250 20151 58025 85618
                   555 00190=
201705031200 AAXX 03124 67571 42682 30906 10235 20138 48544 83500
                   333 5//// 83640=
201705030900 AAXX 03094 67571 42582 71206 10197 20136 48611 875//
                   333 58026 87625=
201705020900 AAXX 02094 67571 42582 61209 10197 20135 48591 70222 86500
                   333 5//// 86626=
201705020600 AAXX 02064 67571 32482 71506 10178 20142 48/// 70311 875//
                   333 1//// 20154 5//// 87615
                   555 00206=
201705011500 AAXX 01154 67571 NIL=

################################################################################
#  SYNOPS from 67575, Mkushi (Zambia) | 13-38-00S | 029-26-00E | 1237 m
################################################################################
201705300600 AAXX 30064 67575 31480 71005 10170 20118 48537 87500
                   333 10230 20145 59023 87618
                   555 00120=
201705240600 AAXX 24064 67575 31980 00903 10204 20149 48513 70200
                   333 10285 20127 59001
                   555 00092=
201705231200 AAXX 23124 67575 NIL=
201705220600 AAXX 22064 67575 31480 10901 10180 20139 48510 81500
                   333 10260 20100 58006 81612
                   555 00064=
201705190600 AAXX 19064 67575 31375 51402 10194 20156 48522 70521 84502
                   333 10280 20135 59016 84610 81080
                   555 00084=
201705180600 AAXX 18064 67575 31375 40902 10180 20164 48510 70521 84500
                   333 10288 20136 58000 84608
                   555 00096=
201705100600 AAXX 10064 67575 NIL=
201705091500 AAXX 09154 67575 NIL=
201705080600 AAXX 08064 67575 NIL=
201705050600 AAXX 05064 67575 NIL=
201705011500 AAXX 01154 67575 NIL=

################################################################################
#  SYNOPS from 67580, Msekera (Zambia) | 13-39S | 032-34E | 1025 m
################################################################################
201705310600 AAXX 31064 67580 32480 71505 10168 20140 48/// 8453/
                   333 10215 20157 59005 84612 87360
                   555 00///=
201705300600 AAXX 30064 67580 32480 71506 10170 20135 48/// 8253/
                   333 10250 20157 58019 82612 87360
                   555 00///=
201705290600 AAXX 29064 67580 32480 71205 10200 20179 48/// 8253/
                   333 10313 20155 58007 82616 87360
                   555 00///=
201705260600 AAXX 26064 67580 32980 00000 10202 20156 48///
                   333 10304 20127 59006
                   555 00///=
201705240600 AAXX 24064 67580 32980 01504 10187 20146 48///
                   333 10297 20150 59009
                   555 00///=
201705231200 AAXX 23124 67580 NIL=
201705230600 AAXX 23064 67580 32980 11204 10202 20150 48/// 81030
                   333 10300 20145 58008 81361
                   555 00///=
201705220600 AAXX 22064 67580 32980 01204 10179 20145 48///
                   333 10284 20140 59018
                   555 00///=
201705190600 AAXX 19064 67580 32580 41204 10200 20174 48/// 81130
                   333 10285 20159 58019 81824 83360
                   555 00///=
201705180600 AAXX 18064 67580 32580 61502 10210 20177 48/// 82131
                   333 10300 20161 58004 82824 82360 83080
                   555 00///=
201705120600 AAXX 12064 67580 32980 31203 10217 20174 48/// 82031
                   333 10283 20163 59001 82361 81080
                   555 00///=
201705100600 AAXX 10064 67580 32980 01803 10191 20158 48///
                   333 10298 20146 59003
                   555 00///=
201705091500 AAXX 09154 67580 NIL=
201705080600 AAXX 08064 67580 NIL=
201705050600 AAXX 05064 67580 NIL=
201705020600 AAXX 02064 67580 12580 31803 10197 20171 48/// 69904 82130
                   333 10280 20135 59003 82820 81360
                   555 00///=
201705011500 AAXX 01154 67580 NIL=

################################################################################
#  SYNOPS from 67581, Chipata (Zambia) | 13-33S | 032-35E | 1028 m
################################################################################
201705310600 AAXX 31064 67581 32580 71403 10181 20139 48591 8553/
                   333 10222 20073 59003 85625 87360
                   555 00/// 91027=
201705300600 AAXX 30064 67581 31560 70912 10176 20128 48594 70500 8357/
                   333 10286 20148 58019 83625 87460
                   555 00/// 91027=
201705260600 AAXX 26064 67581 32980 11204 10228 20139 48553 81030
                   333 10296 20112 59009 81360
                   555 00/// 91021=
201705240600 AAXX 24064 67581 32980 01604 10214 20150 48572 70200
                   333 10293 20125 59007
                   555 00/// 91023=
201705231200 AAXX 23124 67581 NIL=
201705230600 AAXX 23064 67581 32980 20903 10228 20133 48580 82838
                   333 10280 20079 58007 82360
                   555 00/// 91024=
201705190600 AAXX 19064 67581 32680 61604 10219 20158 48588 82132
                   333 10280 20149 58020 82830 84360 82080
                   555 00/// 91025=
201705120600 AAXX 12064 67581 32980 31203 10234 20163 48562 70200 82032
                   333 10273 20154 58001 82360 82080
                   555 00/// 91022=
201705100600 AAXX 10064 67581 32680 11403 10198 20153 48562 81100
                   333 10273 20150 59004 81830
                   555 00/// 91023=
201705091500 AAXX 09154 67581 NIL=
201705080600 AAXX 08064 67581 NIL=
201705050600 AAXX 05064 67581 NIL=
201705020600 AAXX 02064 67581 12660 21605 10199 20154 48573 69904 81130
                   333 10283 20156 58003 81830 81360
                   555 00/// 91024=
201705011500 AAXX 01154 67581 NIL=

################################################################################
#  SYNOPS from 67583, Lundazi (Zambia) | 12-17S | 033-12E | 1143 m
################################################################################
201705310600 AAXX 31064 67583 32480 81504 10182 20152 48/// 885//
                   333 10240 20160 5//// 88615
                   555 00///=
201705300600 AAXX 30064 67583 32580 70904 10180 20142 83530
                   333 10268 20148 5//// 83622 83360
                   555 00///=
201705290600 AAXX 29064 67583 32580 21605 10200 20156 81503
                   333 10308 20074 5//// 81620 81360
                   555 00///=
201705240600 AAXX 24064 67583 32980 10000 10172 20144 48/// 81030
                   333 10300 20050 5//// 81360
                   555 00///=
201705231200 AAXX 23124 67583 NIL=
201705180600 AAXX 18064 67583 32980 10000 10180 20160 48/// 80001
                   333 10292 20118 5//// 81080
                   555 00///=
201705120600 AAXX 12064 67583 32980 11202 10212 20172 48/// 81032
                   333 10284 20086 5//// 81360 81080
                   555 00///=
201705100600 AAXX 10064 67583 NIL=
201705091500 AAXX 09154 67583 NIL=
201705090600 AAXX 09064 67583 32980 11502 10198 20170 48/// 81030
                   333 10294 20120 5//// 81360
                   555 00///=
201705080600 AAXX 08064 67583 32580 30000 10214 20177 48/// 83530
                   333 10300 20100 5//// 83615 81360
                   555 00///=
201705050600 AAXX 05064 67583 32980 11701 10216 20166 48/// 81030
                   333 10310 20103 5//// 81360
                   555 00///=
201705020600 AAXX 02064 67583 32980 11203 10194 20165 48/// 81030
                   333 10304 20140 5//// 81360
                   555 00///=
201705011500 AAXX 01154 67583 NIL=

################################################################################
#  SYNOPS from 67599, Mfuwe (Zambia) | 13-16S | 031-56E | 568 m
################################################################################
201705310600 AAXX 31064 67599 32980 72005 10198 20150 48589 8707/
                   333 10260 20174 59008 87459
                   555 00162 91025=
201705240600 AAXX 24064 67599 32980 01602 10214 20159 48564
                   333 10334 20140 59006
                   555 00129 91022=
201705231200 AAXX 23124 67599 NIL=
201705230600 AAXX 23064 67599 32980 21602 10216 20153 48597 82030
                   333 10320 20150 58003 82360
                   555 00135 91022=
201705190600 AAXX 19064 67599 32980 60000 10222 20189 48579 86030
                   333 10336 20180 58023 86360
                   555 00185 91023=
201705120600 AAXX 12064 67599 32980 61403 10220 20177 48551 86030
                   333 10327 20190 59004 86359
                   555 00183 91020=
201705100600 AAXX 10064 67599 NIL=
201705091500 AAXX 09154 67599 NIL=
201705090600 AAXX 09064 67599 32980 10000 10215 20197 48559 81030
                   333 10325 20175 58002 81360
                   555 00165 91022=
201705080600 AAXX 08064 67599 NIL=
201705050600 AAXX 05064 67599 32980 50000 10210 20179 48559 85030
                   333 10320 20170 58000 85360
                   555 00170 91021=
201705020600 AAXX 02064 67599 12960 21804 10226 20181 48570 60084 82030
                   333 10325 20158 58006 83360
                   555 00158 91022=
201705011500 AAXX 01154 67599 NIL=

################################################################################
#  SYNOPS from 67625, Kalabo (Zambia) | 14-51S | 022-42E | 1033 m
################################################################################
201705300600 AAXX 30064 67625 32982 30806 10171 20142 48/// 83030
                   333 10291 20165 58006 83360
                   555 00142=
201705290600 AAXX 29064 67625 32982 51405 10177 20095 48/// 85030
                   333 10302 20146 58011 85360
                   555 00138=
201705261200 AAXX 26124 67625 42782 10506 10295 20142 48/// 81100
                   333 81856=
201705240600 AAXX 24064 67625 32982 00904 10181 20148 48///
                   333 10289 20152 59003
                   555 00134=
201705231200 AAXX 23124 67625 42782 20707 10285 20142 48/// 81100
                   333 59001 81856=
201705230900 AAXX 23094 67625 42982 00710 10246 20148 48///
                   333 59006=
201705220900 AAXX 22094 67625 42982 01010 10235 20149 48///
                   333 5////=
201705220600 AAXX 22064 67625 32982 11005 10169 20135 48/// 81030
                   333 10269 20130 59011
                   555 00116=
201705180600 AAXX 18064 67625 32982 01804 10155 20115 48///
                   333 10281 20125 58000
                   555 00108=
201705100600 AAXX 10064 67625 NIL=
201705091500 AAXX 09154 67625 NIL=
201705080600 AAXX 08064 67625 NIL=
201705050600 AAXX 05064 67625 32982 20906 10181 20147 48/// 82030
                   333 10276 20147 58003 82360
                   555 00128=
201705011500 AAXX 01154 67625 NIL=

################################################################################
#  SYNOPS from 67633, Mongu (Zambia) | 15-15S | 023-09E | 1052 m
################################################################################
201705260600 AAXX 26064 67633 32980 00906 10205 20137 48543
                   333 10314 20146 58010
                   555 00156 91022=
201705240600 AAXX 24064 67633 32980 00908 10185 20142 48549 70200
                   333 10294 20150 59002
                   555 00150 91022=
201705231200 AAXX 23124 67633 NIL=
201705230600 AAXX 23064 67633 32980 00910 10180 20140 48548 70200
                   333 10293 20148 58000
                   555 00153 91022=
201705190600 AAXX 19064 67633 32980 00906 10160 20104 48563 70200
                   333 10295 20113 58018
                   555 00134 91024=
201705120600 AAXX 12064 67633 32980 00903 10174 20125 48551 70200
                   333 10302 20131 58005
                   555 00130 91022=
201705100600 AAXX 10064 67633 32980 00907 10208 20158 48550
                   333 10314 20162 58002
                   555 00167 91022=
201705091500 AAXX 09154 67633 NIL=
201705090600 AAXX 09064 67633 32980 10906 10215 20169 48550 81030
                   333 10321 20170 59003 81362
                   555 00178 91022=
201705080600 AAXX 08064 67633 NIL=
201705050600 AAXX 05064 67633 32980 30906 10186 20142 48540 70200 83030
                   333 10296 20153 59002 83361
                   555 00168 91021=
201705020600 AAXX 02064 67633 32980 40904 10184 20145 48550 70222 84030
                   333 10282 20146 59013 84360
                   555 00142 91022=
201705011500 AAXX 01154 67633 NIL=

################################################################################
#  SYNOPS from 67641, Kaoma (Zambia) | 14-48S | 024-48E | 1213 m
################################################################################
201705310600 AAXX 31064 67641 32980 00000 10117 20112 48563
                   333 10253 20099 59004
                   555 00066 91024=
201705240600 AAXX 24064 67641 32980 00401 10150 20134 48540
                   333 10290 20121 58002
                   555 00092 91022=
201705231200 AAXX 23124 67641 NIL=
201705190600 AAXX 19064 67641 32980 00000 10156 20133 48558 70200
                   333 10287 20112 58016
                   555 00/// 91023=
201705120600 AAXX 12064 67641 32980 00000 10145 20130 48536 70200
                   333 10282 20121 59001
                   555 00089 91021=
201705100600 AAXX 10064 67641 NIL=
201705091500 AAXX 09154 67641 NIL=
201705080600 AAXX 08064 67641 NIL=
201705050600 AAXX 05064 67641 32980 09003 10179 20153 48548 70200
                   333 10281 20127 58008
                   555 00/// 91022=
201705011500 AAXX 01154 67641 NIL=

################################################################################
#  SYNOPS from 67655, Mumbwa (Zambia) | 15-04S | 027-11E | 1216 m
################################################################################
201705231200 AAXX 23124 67655 NIL=
201705100600 AAXX 10064 67655 NIL=
201705091500 AAXX 09154 67655 NIL=
201705080600 AAXX 08064 67655 NIL=
201705050600 AAXX 05064 67655 NIL=
201705011500 AAXX 01154 67655 NIL=

################################################################################
#  SYNOPS from 67659, Kafue Polder (Zambia) | 15-46S | 027-55E | 978 m
################################################################################
201705310600 AAXX 31064 67659 32480 41706 10160 20056 48/// 70222 84200
                   333 10235 20180 59007 84820
                   555 00///=
201705300600 AAXX 30064 67659 32980 11905 10177 20120 48/// 81030
                   333 10252 20182 58029 81360
                   555 00///=
201705290600 AAXX 29064 67659 32980 02206 10211 20148 48/// 70500
                   333 10300 20105 59002
                   555 00///=
201705231200 AAXX 23124 67659 NIL=
201705230600 AAXX 23064 67659 32980 01904 10190 20155 48/// 70500
                   333 10273 20115 58002
                   555 00///=
201705220600 AAXX 22064 67659 31980 01704 10188 20144 48/// 70500
                   333 10250 20120 59001
                   555 00///=
201705190600 AAXX 19064 67659 32980 32004 10195 20163 48/// 70222 83030
                   333 10277 20200 58026 83360
                   555 00///=
201705180600 AAXX 18064 67659 32380 11703 10199 20170 48/// 81200
                   333 10292 20120 58002 81815
                   555 00///=
201705120600 AAXX 12064 67659 32480 11404 10197 20159 48/// 70322 81200
                   333 10278 20208 59005 81820
                   555 00///=
201705100600 AAXX 10064 67659 32480 22005 10190 20175 48/// 82200
                   333 10290 20210 58000 82820
                   555 00///=
201705091500 AAXX 09154 67659 NIL=
201705080600 AAXX 08064 67659 32980 32005 10219 20180 48/// 83030
                   333 10270 20140 5//// 83360
                   555 00///=
201705050600 AAXX 05064 67659 NIL=
201705040600 AAXX 04064 67659 32480 21906 10191 20156 48/// 70322 82200
                   333 10250 20180 59003
                   555 00///=
201705030600 AAXX 03064 67659 32480 71703 10178 20158 48/// 84530
                   333 10270 20160 58001 84620 83360
                   555 00///=
201705020600 AAXX 02064 67659 32480 42406 10204 20168 48/// 70322 84200
                   333 10268 20110 58014 84820
                   555 00///=
201705011500 AAXX 01154 67659 NIL=

################################################################################
#  SYNOPS from 67662, Kabwe Agric (Zambia) | 14-24S | 028-30E | 1165 m
################################################################################
201705300600 AAXX 30064 67662 32480 70906 10155 20130 48/// 875//
                   333 10250 20135 87615
                   555 00112=
201705260600 AAXX 26064 67662 32980 00000 10172 20145 48///
                   333 10288 20091 5////
                   555 00082=
201705231200 AAXX 23124 67662 NIL=
201705230600 AAXX 23064 67662 32980 00802 10166 20150 48///
                   333 10265 20111 5////
                   555 00101=
201705220600 AAXX 22064 67662 32980 10902 10163 20140 48/// 81030
                   333 10255 20104 81360
                   555 00091=
201705180600 AAXX 18064 67662 32980 31002 10170 20156 48/// 81032
                   333 10276 20129 81360 83080
                   555 00096=
201705100600 AAXX 10064 67662 32980 11002 10198 20193 48/// 81030
                   333 10270 20126 5//// 81360
                   555 00102=
201705091500 AAXX 09154 67662 NIL=
201705080600 AAXX 08064 67662 32980 10902 10190 20163 48/// 81030
                   333 10273 20134 5//// 81360
                   555 00126=
201705050600 AAXX 05064 67662 NIL=
201705011500 AAXX 01154 67662 NIL=

################################################################################
#  SYNOPS from 67663, Kabwe (Zambia) | 14-27S | 028-28E | 1206 m
################################################################################
201705310600 AAXX 31064 67663 32480 10905 10150 20146 48594 70300 81530
                   333 10194 20118 59014 81614 81360
                   555 00178=
201705240600 AAXX 24064 67663 32980 00805 10176 20142 48587
                   333 10288 20132 58010
                   555 00202=
201705231200 AAXX 23124 67663 NIL=
201705230600 AAXX 23064 67663 32980 00505 10160 20147 48576
                   333 10262 20124 58005
                   555 00188=
201705190600 AAXX 19064 67663 32980 01509 10179 20156 48582
                   333 10262 20136 58019
                   555 00///=
201705120600 AAXX 12064 67663 32980 10905 10186 20154 48559 70200 81030
                   333 10270 20142 59004 81360
                   555 00195=
201705100600 AAXX 10064 67663 NIL=
201705091500 AAXX 09154 67663 NIL=
201705080600 AAXX 08064 67663 NIL=
201705050600 AAXX 05064 67663 32580 10912 10171 20151 48555 81502
                   333 10252 20130 58003 81620 81080
                   555 00///=
201705020600 AAXX 02064 67663 32480 71611 10168 20158 48511 8653/
                   333 10262 20136 59027 86615 84360
                   555 00182=
201705011500 AAXX 01154 67663 NIL=

################################################################################
#  SYNOPS from 67665, Lusaka Internationalairport (Zambia) | 15-19S | 028-27E | 1152 m
################################################################################
201705310600 AAXX 31064 67665 32480 61105 10132 20115 48586 70320 86500
                   333 10305 20//0 59009 86615=
201705310300 AAXX 31034 67665 42980 01003 10108 20089 48577 70200
                   333 58010=
201705310000 AAXX 31004 67665 42980 01002 10118 20100 48575 70200
                   333 59006=
201705302100 AAXX 30214 67665 42980 41302 10137 20114 48589 70222 84030
                   333 58033 84360=
201705301200 AAXX 30124 67665 42580 60812 10205 20150 48587 70322 86500
                   333 58008 86625=
201705300900 AAXX 30094 67665 42580 30817 10200 20152 48602 83100
                   333 58014 83820=
201705300600 AAXX 30064 67665 42980 10913 10149 20115 48604 70100 81030
                   333 58023 81360 91028=
201705300300 AAXX 30034 67665 42980 31110 10138 20111 48592 70100 83030
                   333 58023 83360 91027=
201705291800 AAXX 29184 67665 42980 50907 10178 20126 48568 70222 85030
                   333 58031 85360=
201705291500 AAXX 29154 67665 42680 71010 10204 20153 48580 70222 86200
                   333 58031 86840=
201705291200 AAXX 29124 67665 42680 60914 10217 20154 48585 70320 86100
                   333 58032 96830=
201705290900 AAXX 29094 67665 41556 10719 10220 20165 48591 70700 81100
                   333 58024 81825=
201705290600 AAXX 29064 67665 32980 01108 10165 20121 48581 70200
                   333 10296 20//0 58027
                   555 00///=
201705290300 AAXX 29034 67665 42980 01205 10130 20102 48553 70200
                   333 58028 91024=
201705290000 AAXX 29004 67665 42980 00000 10136 20090 48554 70200
                   333 58020=
201705280600 AAXX 28064 67665 32980 00000 10210 20154 48561 70200
                   333 10306 20//0 58011=
201705271800 AAXX 27184 67665 42980 01501 10193 20126 48545 70100
                   333 10306 58005 555=
201705271500 AAXX 27154 67665 42980 11707 10270 20141 48535 81030
                   333 59001 81360=
201705271200 AAXX 27124 67665 42680 42008 10293 20094 48537 84100
                   333 59004 84835=
201705270600 AAXX 27064 67665 42980 00000 10202 20161 48549 70200
                   333 58003=
201705261800 AAXX 26184 67665 42980 11203 10191 20133 48540 70200 81030
                   333 59001 81360=
201705261500 AAXX 26154 67665 42680 11306 10258 20175 48527 70100 81100
                   333 59004 81850=
201705261200 AAXX 26124 67665 42680 30604 10281 20194 48540 70300 83100
                   333 59006 83838=
201705260900 AAXX 26094 67665 42980 01405 10255 20188 48562
                   333 59011=
201705260600 AAXX 26064 67665 32980 01502 10192 20143 48545 70200
                   333 10294 20//0 59001=
201705260300 AAXX 26034 67665 42980 01801 10119 20100 48519 70200
                   333 59016=
201705260000 AAXX 26004 67665 42980 02001 10136 20110 48525 70200
                   333 59018=
201705251500 AAXX 25154 67665 42980 11706 10253 20154 48538 70100 81030
                   333 59009 81060=
201705251200 AAXX 25124 67665 42680 21204 10274 20192 48544 70200 82100
                   333 59002 82830=
201705250600 AAXX 25064 67665 42980 01401 10185 20142 48555 70100
                   333 58015 555 91023=
201705242100 AAXX 24214 67665 42980 01501 10138 20111 48549 70100
                   333 59012=
201705241800 AAXX 24184 67665 42980 01504 10177 20126 48552 70100
                   333 59014=
201705241500 AAXX 24154 67665 42680 11305 10249 20121 48547 70100 81100
                   333 59010 81845=
201705241200 AAXX 24124 67665 42680 20905 10265 20105 48555 70300 82100
                   333 59010 82830=
201705240600 AAXX 24064 67665 42980 01003 10158 20124 48565 70200
                   333 10268 20//0 59008
                   555 00///=
201705240300 AAXX 24034 67665 42980 01201 10127 20091 48548
                   333 59002=
201705240000 AAXX 24004 67665 42980 01502 10129 20081 48554
                   333 58000=
201705232100 AAXX 23214 67665 42980 01202 10149 20114 48562
                   333 59002=
201705231800 AAXX 23184 67665 42980 01303 10177 20111 48560 70100
                   333 58002=
201705231200 AAXX 23124 67665 NIL=
201705230600 AAXX 23064 67665 32980 00907 10161 20127 48573
                   333 10275 20//0 58008=
201705221800 AAXX 22184 67665 42980 21004 10172 20148 48562 82030
                   333 10266 59021 82360=
201705221200 AAXX 22124 67665 42680 41107 10248 20115 48557 84200
                   333 58027 84835=
201705220900 AAXX 22094 67665 42680 20709 10223 20151 48578 82100
                   333 59010 82830=
201705220600 AAXX 22064 67665 32980 01007 10169 20125 48567 70200
                   333 59014=
201705212100 AAXX 21214 67665 42980 01205 10135 20116 48558 70200
                   333 59020=
201705211800 AAXX 21184 67665 42980 01105 10152 20127 48561 70200
                   333 59019=
201705211500 AAXX 21154 67665 42680 20909 10211 20128 48554 70100 82100
                   333 59025 82845=
201705210900 AAXX 21094 67665 42580 60811 10199 20151 48585 86500
                   333 59015 86620=
201705210600 AAXX 21064 67665 32980 00905 10148 20120 48577 70200
                   333 10//0 59018=
201705210300 AAXX 21034 67665 42980 01203 10117 20099 48560 70200
                   333 59016=
201705210000 AAXX 21004 67665 42980 01202 10125 20108 48566 70200
                   333 59010=
201705202100 AAXX 20214 67665 42980 01203 10138 20111 48582 70200
                   333 59001=
201705201800 AAXX 20184 67665 42980 11106 10151 20124 48579 70100 81030
                   333 59003 81360=
201705201500 AAXX 20154 67665 42680 21008 10210 20117 48578 70200 81100
                   333 59001 81845 82360=
201705201200 AAXX 20124 67665 42680 31213 10225 20116 48583 70200 83500
                   333 58003 83630=
201705200900 AAXX 20094 67665 42480 11114 10219 20120 48601 81500
                   333 58004 81618=
201705200600 AAXX 20064 67665 32980 00910 10155 20121 48596
                   333 10278 20//0 58013=
201705200300 AAXX 20034 67665 42980 00000 10115 20095 48577 70100
                   333 58015=
201705192100 AAXX 19214 67665 42980 01304 10142 20105 48578 70100
                   333 58019=
201705191800 AAXX 19184 67665 42980 11402 10152 20108 48583 81030
                   333 10259 58022 81360=
201705191200 AAXX 19124 67665 42680 51012 10238 20112 48580 85200
                   333 58025 85830=
201705190600 AAXX 19064 67665 42980 21105 10166 20142 48585 70200 83030
                   333 10176 58022 83360
                   555 91027=
201705190000 AAXX 19004 67665 42980 21403 10138 20121 48557 70200 82030
                   333 58015 82360 555 91024=
201705182100 AAXX 18214 67665 42980 21202 10150 20131 48567 70200 82030
                   333 58017 82360=
201705181800 AAXX 18184 67665 42980 31403 10174 20144 48566 70200 83030
                   333 58019 83360 555 91024=
201705181500 AAXX 18154 67665 42680 41007 10227 20153 48558 82260
                   333 58016 82845 83359=
201705181200 AAXX 18124 67665 42680 40905 10262 20176 48558 84230
                   333 58009 84835 82359=
201705180900 AAXX 18094 67665 42580 31109 10218 20163 48576 83500
                   333 58007 83625=
201705180600 AAXX 18064 67665 31959 31959 10164 20129 48562 74344 81030
                   333 10280 20//0 58004 81360=
201705180300 AAXX 18034 67665 42980 01102 10137 20120 48544 58000=
201705172100 AAXX 17214 67665 42980 01402 10153 20129 48549
                   333 59004=
201705171800 AAXX 17184 67665 42980 21205 10181 20140 48548 82030
                   333 10280 59006 82360=
201705171500 AAXX 17154 67665 42680 21307 10241 20145 48543 82200
                   333 59008 82845=
201705171200 AAXX 17124 67665 42680 51406 10260 20171 48548 85201
                   333 59009 85830 81080=
201705170900 AAXX 17094 67665 42580 51007 10224 20178 48569 85500
                   333 59003 85620=
201705170600 AAXX 17064 67665 32580 21002 10192 20160 48563 70200 82500
                   333 10272 20//0 58000 82620=
201705170300 AAXX 17034 67665 42980 01302 10138 20130 48542 70200
                   333 59002=
201705170000 AAXX 17004 67665 42980 01501 10145 20129 48547 70200
                   333 59003=
201705162100 AAXX 16214 67665 42980 01002 10151 20135 48553 70200
                   333 58003=
201705161800 AAXX 16184 67665 42980 11103 10188 20151 48555 81030
                   333 59001 81359=
201705161500 AAXX 16154 67665 42680 11406 10246 20144 48553 81200
                   333 59004 81842=
201705161200 AAXX 16124 67665 42680 40910 10262 20148 48558 84200
                   333 59006 84830=
201705160900 AAXX 16094 67665 42480 50910 10230 20151 48573 85800
                   333 59004 85818 81618=
201705160600 AAXX 16064 67665 31358 10904 10167 20138 48560 71000 81600
                   333 10256 20//0 58002 81706=
201705151800 AAXX 15184 67665 42980 11402 10177 20152 48555 70100 81030
                   333 58005 81360=
201705151500 AAXX 15154 67665 42680 50704 10234 20160 48554 70222 83230
                   333 58014 83835 82360=
201705151200 AAXX 15124 67665 42580 71304 10220 20165 48558 70222 86530
                   333 58013 85620 84360=
201705150600 AAXX 15064 67665 42380 60808 10168 20165 48551 69944 70522 86500
                   333 10260 20//0 58006 86704 91023=
201705141200 AAXX 14124 67665 42680 60509 10235 20173 48548 70122 86530
                   333 58007 86630 82360=
201705140900 AAXX 14094 67665 42580 60807 10206 20150 48564 8653/
                   333 58002 86625 82360=
201705140600 AAXX 14064 67665 32480 51005 10166 20131 48552 85531
                   333 10262 20//0 58003 85610 82360 81080
                   555 00///=
201705140000 AAXX 14004 67665 42980 21304 10156 20121 48537 82030
                   333 58007 82360=
201705131800 AAXX 13184 67665 42980 10184 20155 48537 80001
                   333 59006 82080 91021=
201705131200 AAXX 13124 67665 42580 60907 10254 20175 48538 84201
                   333 59009 83835 85080=
201705130900 AAXX 13094 67665 42580 50810 10233 20173 48564 81101
                   333 59001 81825 85080=
201705130600 AAXX 13064 67665 32980 51103 10189 20148 48552 70222 84030
                   333 59008 84360 83080=
201705130300 AAXX 13034 67665 42980 01402 10143 20125 48534
                   333 59007=
201705122100 AAXX 12214 67665 42980 01302 10153 20118 48549
                   333 59008=
201705121500 AAXX 12154 67665 42680 31206 10242 20146 48543 83230
                   333 59006 83845 81360=
201705121200 AAXX 12124 67665 42680 61904 10263 20124 48553 86200
                   333 58000 86830=
201705120600 AAXX 12064 67665 32980 11203 10179 20149 48559 70200 81030
                   333 10266 20//0 59003 81360=
201705120300 AAXX 12034 67665 42980 21302 10133 20115 48539 70200 82030
                   333 59015 82360=
201705120000 AAXX 12004 67665 42980 31402 10148 20131 48549 70200 83030
                   333 58005 83360=
201705112100 AAXX 11214 67665 42980 01203 10165 20140 48559 70200
                   333 58000=
201705111800 AAXX 11184 67665 42980 11104 10177 20149 48555 81030
                   333 59003 81359=
201705111500 AAXX 11154 67665 42680 31206 10237 20157 48549 83500
                   333 59003 83646=
201705111200 AAXX 11124 67665 42680 41006 10237 20157 48550 84100
                   333 59004 84838=
201705110600 AAXX 11064 67665 32980 01204 10170 20137 48560 70200
                   333 10257 20//0 59010=
201705101500 AAXX 10154 67665 42680 51206 10225 20135 48545 70222 84200
                   333 59006 84845=
201705101200 AAXX 10124 67665 42580 60908 10240 20154 48554 70322 85200
                   333 5//// 85825=
201705100900 AAXX 10094 67665 42580 20612 10220 20174 48576 82100
                   333 59002 82818=
201705100600 AAXX 10064 67665 32980 00807 10168 20142 48568 70200
                   333 10280 20//0 58004=
201705100300 AAXX 10034 67665 42980 00000 10127 20117 48543 70200
                   333 59002=
201705100000 AAXX 10004 67665 42980 00000 10138 20125 48555 70200
                   333 58000=
201705091500 AAXX 09154 67665 NIL=
201705090900 AAXX 09094 67665 42580 40708 10220 20166 48578 84100
                   333 58000 84822=
201705090600 AAXX 09064 67665 32980 11006 10173 20138 48566 81030
                   333 10274 59002 81360
                   555 00///=
201705090300 AAXX 09034 67665 42980 01104 10152 20144 48546
                   333 58005=
201705090000 AAXX 09004 67665 42980 01304 10158 20132 48548 70100
                   333 59004=
201705080600 AAXX 08064 67665 NIL=
201705080300 AAXX 08034 67665 42980 01204 10149 20132 48541
                   333 59006=
201705071800 AAXX 07184 67665 42980 11304 10189 20154 48555 81030
                   333 10281 59001 81360=
201705071500 AAXX 07154 67665 42780 20907 10251 20139 48550 81130
                   333 59003 81850 81360=
201705071200 AAXX 07124 67665 42680 40809 10265 20116 48554 84200
                   333 59001 84830=
201705070900 AAXX 07094 67665 42480 10911 10241 20144 48574 81100
                   333 59006 81818=
201705070600 AAXX 07064 67665 32980 01005 10178 20145 48563 70200
                   333 10264 20//0 59010=
201705070300 AAXX 07034 67665 42980 01302 10129 20116 48544 70200
                   333 59010=
201705070000 AAXX 07004 67665 42980 01002 10146 20130 48548 70200
                   333 59007=
201705062100 AAXX 06214 67665 42980 01804 10154 20137 48555 70200
                   333 59004=
201705061800 AAXX 06184 67665 42980 01404 10182 20152 48555 70200
                   333 59005=
201705061500 AAXX 06154 67665 42680 20809 10253 20121 48553 70200 82800
                   333 59003 82840=
201705060900 AAXX 06094 67665 42480 10910 10225 20154 48578 81500
                   333 58000 81615=
201705060600 AAXX 06064 67665 42980 01007 10178 20147 48573 70200
                   333 58002=
201705051800 AAXX 05184 67665 42980 00904 10172 20139 48558 70100
                   333 58005=
201705051500 AAXX 05154 67665 42680 30807 10235 20139 48554 70100 83100
                   333 58007 83845=
201705051200 AAXX 05124 67665 42680 41010 10235 20139 48557 70300 84100
                   333 58005 84830=
201705050900 AAXX 05094 67665 42480 31210 10217 20150 48577 83500
                   333 58003 83618=
201705050600 AAXX 05064 67665 NIL=
201705050000 AAXX 05004 67665 42980 00000 10132 20125 48539 70100
                   333 59002=
201705042100 AAXX 04214 67665 42980 01404 10150 20135 48549 70100
                   333 58002=
201705041800 AAXX 04184 67665 42980 01604 10173 20143 48553 70100
                   333 59005=
201705040600 AAXX 04064 67665 42380 11007 10161 20126 48567 81600
                   333 20//0 58002 81708
                   555 00///=
201705040000 AAXX 04004 67665 42980 01703 10129 20110 48546
                   333 59011=
201705030300 AAXX 03034 67665 42980 41009 10139 20119 48549 70222 84030
                   333 59007 84360=
201705021800 AAXX 02184 67665 42980 11304 10167 20134 48563 81030
                   333 10255 58002 81360=
201705021500 AAXX 02154 67665 42680 31008 10220 20138 48557 82230
                   333 58000 82845 81360=
201705021200 AAXX 02124 67665 42680 50709 10230 20123 48563 85200
                   333 58005 85830=
201705020600 AAXX 02064 67665 32480 60907 10162 20146 48572 70222 86500
                   333 10//0 20//0 58003 86612=
201705020300 AAXX 02034 67665 42980 01005 10144 20134 48556 70200
                   333 58004=
201705020000 AAXX 02004 67665 42980 01404 10136 20126 48553 70200
                   333 59002=
201705012100 AAXX 01214 67665 42980 01203 10147 20135 48562 70200
                   333 59004=
201705011500 AAXX 01154 67665 NIL=

################################################################################
#  SYNOPS from 67666, Lusaka City Airport (Zambia) | 15-25-00S | 028-28-00E | 1280 m
################################################################################
201705310600 AAXX 31064 67666 32380 80908 10129 20101 48579 70222 875//
                   333 10239 20111 59008 87608
                   555 00101 91027=
201705300600 AAXX 30064 67666 32980 00908 10139 20092 48580
                   333 10243 20121 58021
                   555 00103 91028=
201705290600 AAXX 29064 67666 32980 00908 10165 20122 48564
                   333 10273 20151 58018
                   555 00113 91026=
201705240600 AAXX 24064 67666 32980 00904 10178 20134 48556
                   333 10255 20148 59003
                   555 00114 91024=
201705231200 AAXX 23124 67666 NIL=
201705221200 AAXX 22124 67666 42580 41006 10232 20118 48548 70200 84200
                   333 59004 84830 91021=
201705220900 AAXX 22094 67666 42480 30908 10198 20135 48567 82200
                   333 59007 82820 91024=
201705220600 AAXX 22064 67666 32980 21011 10160 20127 48557 82040
                   333 10233 20140 59013 82360
                   555 00120 91023=
201705190600 AAXX 19064 67666 32980 30908 10169 20137 48574 70200 83030
                   333 10250 20153 58020 83360 91026=
201705180600 AAXX 18064 67666 32980 00905 10170 20154 48539
                   333 10251 20150 58004
                   555 00124 91024=
201705120600 AAXX 12064 67666 32980 10907 10189 20141 48555 70222 81030
                   333 10251 20135 59002 81360
                   555 00113 91023=
201705110600 AAXX 11064 67666 31980 00906 10176 20132 48547 70300
                   333 10216 20146 59006
                   555 00/// 91023=
201705100600 AAXX 10064 67666 32980 00910 10165 20135 48525
                   333 10257 20151 59003
                   555 00131 91024=
201705091500 AAXX 09154 67666 NIL=
201705090600 AAXX 09064 67666 32480 11010 10193 20144 48565 81100
                   333 10252 20160 58002 81816
                   555 00144 91024=
201705080600 AAXX 08064 67666 32980 51009 10180 20147 48561 85030
                   333 10564 20160 58006 85358
                   555 00130 91024=
201705050600 AAXX 05064 67666 32380 20908 10169 20136 48554 82100
                   333 10240 20149 58001 82810
                   555 00121 91024=
201705040600 AAXX 04064 67666 32480 20910 10160 20130 48560 70500 82100
                   333 10241 20140 58002 82810
                   555 00/// 91024=
201705020900 AAXX 02094 67666 42480 70909 10194 20142 48569 70222 8683/
                   333 58002 83615 84818 87359 91024=
201705020600 AAXX 02064 67666 32380 80910 10169 20146 48567 70322 886//
                   333 10245 20150 58001 88709
                   555 00132 91024=
201705011500 AAXX 01154 67666 NIL=

################################################################################
#  SYNOPS from 67667, Mount Makulu (Zambia) | 15-33S | 028-15E | 1213 m
################################################################################
201705310600 AAXX 31064 67667 32580 20908 10154 20118 48/// 82100
                   333 10217 20095 59011 82825
                   555 00///=
201705300600 AAXX 30064 67667 32980 00905 10150 20117 48///
                   333 10245 20117 58022
                   555 00///=
201705290600 AAXX 29064 67667 32980 01012 10230 20126 48///
                   333 10282 20097 58024
                   555 00///=
201705260600 AAXX 26064 67667 32580 00904 10183 20114 48///
                   333 10273 20090 59009
                   555 00///=
201705240600 AAXX 24064 67667 32580 00906 10188 20141 48///
                   333 10260 20132 59003
                   555 00///=
201705231200 AAXX 23124 67667 NIL=
201705230600 AAXX 23064 67667 32580 00906 10175 20141 48///
                   333 10250 20134 59004
                   555 00///=
201705220600 AAXX 22064 67667 32580 10909 10178 20132 48/// 80002
                   333 10240 20140 59011 81080
                   555 00///=
201705190600 AAXX 19064 67667 32580 50903 10180 20142 48/// 80002
                   333 10255 20151 58019 85080
                   555 00///=
201705180600 AAXX 18064 67667 32580 10904 10184 20158 48/// 80001
                   333 10260 20118 58006 81080
                   555 00///=
201705100600 AAXX 10064 67667 32580 10907 10180 20140 48/// 81100
                   333 10260 20140 58002 81825
                   555 00///=
201705091500 AAXX 09154 67667 NIL=
201705090600 AAXX 09064 67667 32580 10904 10182 20151 48/// 80002
                   333 10272 20152 59003 81080
                   555 00///=
201705080600 AAXX 08064 67667 32580 60905 10194 20161 48/// 80002
                   333 10273 20142 58010 86280
                   555 00///=
201705050600 AAXX 05064 67667 32580 20909 10180 20150 48/// 82100
                   333 10254 20140 59005 82625
                   555 00///=
201705030600 AAXX 03064 67667 32580 80907 10160 20129 48/// 885//
                   333 10248 20130 59005 88625
                   555 000///=
201705020600 AAXX 02064 67667 32580 60908 10176 20150 48/// 86500
                   333 10254 20133 58006 86625
                   555 00///=
201705011500 AAXX 01154 67667 NIL=

################################################################################
#  SYNOPS from 67673, Petauke (Zambia) | 14-15S | 031-17E | 1035 m
################################################################################
201705310600 AAXX 31064 67673 32584 60906 10168 20128 48600 86530
                   333 10260 20150 59010 86625 84360
                   555 00///=
201705301200 AAXX 30124 67673 42584 60904 10190 20134 48592 85130
                   333 58019 85830 86360=
201705300900 AAXX 30094 67673 42584 70809 10182 20124 48608 875//
                   333 58030 87630=
201705300600 AAXX 30064 67673 12984 60907 10170 20124 48609 69904 85530
                   333 10305 20150 58031 85625 86360
                   555 00///=
201705261200 AAXX 26124 67673 42684 43501 10280 20126 48546 85100
                   333 5//// 85835=
201705260600 AAXX 26064 67673 32984 13501 10238 20138 48559 81030
                   333 10304 20148 59025 81360
                   555 00///=
201705231200 AAXX 23124 67673 42684 50902 10280 20133 48575 85100
                   333 59001 85840=
201705230600 AAXX 23064 67673 32984 00502 10234 20136 48592
                   333 10282 20155 58003
                   555 00///=
201705221200 AAXX 22124 67673 42684 60902 10260 20135 48572 86100
                   333 59010 86840=
201705220900 AAXX 22094 67673 42684 33002 10252 20128 48591 83130
                   333 59010 83832 81360=
201705220600 AAXX 22064 67673 32984 10902 10204 20132 48584 81030
                   333 10250 20134 59012 81360
                   555 00///=
201705190600 AAXX 19064 67673 32584 30902 10210 20160 48599 82130
                   333 10272 20168 58017 82828 83360
                   555 00///=
201705181200 AAXX 18124 67673 42684 60502 10260 20156 48587 86230
                   333 58017 86835 84360=
201705180900 AAXX 18094 67673 42684 50502 10248 20168 48587 85232
                   333 58002 85830 83360 82080=
201705180600 AAXX 18064 67673 32584 50901 10230 20170 48586 84100
                   333 10280 20160 58002 84828 85360
                   555 00///=
201705120600 AAXX 12064 67673 32984 20801 10254 20154 48574 80001
                   333 10300 20164 59005 82080
                   555 00///=
201705100600 AAXX 10064 67673 NIL=
201705091500 AAXX 09154 67673 NIL=
201705080600 AAXX 08064 67673 32584 20902 10232 20174 48581 82100
                   333 10260 20164 59009 82828
                   555 00///=
201705050600 AAXX 05064 67673 32680 21205 10210 20156 48573 81130
                   333 10268 20150 59009 81830 81360
                   555 00///=
201705031200 AAXX 03124 67673 42684 60902 10250 20144 48553 86200
                   333 59006 86840=
201705030600 AAXX 03064 67673 32584 40902 10200 20132 48577 84100
                   333 10275 20150 58001 84828
                   555 00///=
201705011500 AAXX 01154 67673 NIL=

################################################################################
#  SYNOPS from 67731, Senanga (Zambia) | 16-06S | 023-16E | 1027 m
################################################################################
201705310600 AAXX 31064 67731 32980 012// 10152 20122 48/// 70200
                   333 10260 20126 58006
                   555 00100=
201705300600 AAXX 30064 67731 32980 218// 10176 20121 48/// 82020
                   333 10304 20138 58014 82462
                   555 00///=
201705240600 AAXX 24064 67731 32980 018// 10190 20125 48/// 70200
                   333 10298 20152 59004
                   555 00108=
201705231200 AAXX 23124 67731 NIL=
201705230600 AAXX 23064 67731 32980 018// 10172 20130 48/// 70200
                   333 10286 20148 59005
                   555 00124=
201705190600 AAXX 19064 67731 32980 012// 10164 20099 48/// 70200
                   333 10255 20104 58013
                   555 000068=
201705120600 AAXX 12064 67731 32980 018// 10180 20106 48///
                   333 10225 20180 5////
                   555 00///=
201705100600 AAXX 10064 67731 NIL=
201705091500 AAXX 09154 67731 NIL=
201705080600 AAXX 08064 67731 NIL=
201705050600 AAXX 05064 67731 32980 018// 10172 20130 48///
                   333 10295 20132 58007
                   555 00106=
201705030600 AAXX 03064 67731 32980 312// 10182 20124 48/// 83010
                   333 10252 20154 59002 83460
                   555 00///=
201705020600 AAXX 02064 67731 32980 318// 10188 20147 48/// 70211 83030
                   333 10294 20144 5//// 83360
                   555 00///=
201705011500 AAXX 01154 67731 NIL=

################################################################################
#  SYNOPS from 67741, Sesheke (Zambia) | 17-28S | 024-18E | 949 m
################################################################################
201705310600 AAXX 31064 67741 32980 00901 10132 20115 48584
                   333 10251 20063 58000
                   555 00025=
201705300600 AAXX 30064 67741 32980 00901 10157 20115 48591
                   333 10281 20110 58020
                   555 00056=
201705260600 AAXX 26064 67741 32980 00000 10176 20131 48540
                   333 10292 20099 5////
                   555 00060=
201705240600 AAXX 24064 67741 32980 00000 10161 20142 48554
                   333 10284 20093 59007
                   555 00///=
201705231200 AAXX 23124 67741 NIL=
201705220600 AAXX 22064 67741 32980 70000 10159 20126 48564 8704/
                   333 10265 20121 59012 87362
                   555 00///=
201705190600 AAXX 19064 67741 32980 10801 10156 20125 48573 81030
                   333 10274 20088 58020 81362=
201705180600 AAXX 18064 67741 32980 00000 10142 20113 48550
                   333 10281 20072 58000
                   555 00030=
201705120600 AAXX 12064 67741 32980 00000 10136 20121 48550
                   333 10276 20073 58000
                   555 00048=
201705100600 AAXX 10064 67741 32980 00901 10178 20150 48558
                   333 10300 20099 58005
                   555 00070=
201705091500 AAXX 09154 67741 NIL=
201705090600 AAXX 09064 67741 32980 10901 10188 20157 48561 81030
                   333 10305 20135 58001 81362
                   555 00117=
201705080600 AAXX 08064 67741 32980 30801 10191 20154 48561 83040
                   333 10297 20148 58002 83362
                   555 00///=
201705050600 AAXX 05064 67741 32980 10901 10171 20142 48565 81030
                   333 10271 20092 58008 81362
                   555 00063=
201705011500 AAXX 01154 67741 NIL=

################################################################################
#  SYNOPS from 67743, Livingstone (Zambia) | 17-49S | 025-49E | 985 m
################################################################################
201705231200 AAXX 23124 67743 NIL=
201705100600 AAXX 10064 67743 NIL=
201705091500 AAXX 09154 67743 NIL=
201705080600 AAXX 08064 67743 NIL=
201705050600 AAXX 05064 67743 NIL=
201705011500 AAXX 01154 67743 NIL=

################################################################################
#  SYNOPS from 67751, Magoye (Zambia) | 16-00S | 027-36E | 1018 m
################################################################################
201705310600 AAXX 31064 67751 32980 00902 10152 20123 48///
                   333 10250 20100 58010
                   555 00076=
201705300600 AAXX 30064 67751 11475 81210 10135 20120 48/// 69904 72052 88710
                   555 00146=
201705260600 AAXX 26064 67751 32980 00000 10166 20103 48///
                   333 10245 20100 58010
                   555 00095=
201705240600 AAXX 24064 67751 32980 01503 10179 20142 48///
                   333 10258 20118 58006
                   555 00095=
201705231200 AAXX 23124 67751 NIL=
201705190600 AAXX 19064 67751 32980 20905 10201 20096 48/// 70200 82030
                   333 10290 20112 59018 82360
                   555 00110=
201705100600 AAXX 10064 67751 NIL=
201705091500 AAXX 09154 67751 NIL=
201705080600 AAXX 08064 67751 NIL=
201705050600 AAXX 05064 67751 32980 01703 10185 20121 48///
                   333 10267 20121 59003
                   555 00102=
201705040600 AAXX 04064 67751 32980 00808 10180 20152 48///
                   333 10252 20112 58002
                   555 00090=
201705020600 AAXX 02064 67751 32980 00905 10180 20162 48///
                   333 10277 20122 5////
                   555 00///=
201705011500 AAXX 01154 67751 NIL=

################################################################################
#  SYNOPS from 67753, Choma (Zambia) | 16-50S | 027-04E | 1213 m
################################################################################
201705300600 AAXX 30064 67753 32360 82015 10120 20116 48589 886//
                   333 10240 20070 58024 88706
                   555 00///=
201705290600 AAXX 29064 67753 31560 11013 10148 20116 48573 70500 81500
                   333 10280 20122 81620
                   555 00///=
201705270600 AAXX 27064 67753 31960 00000 10175 20114 48537 70500
                   333 10293 20293 58001
                   555 00///=
201705260600 AAXX 26064 67753 31960 00000 10175 20114 48537
                   333 10274 20096 59010
                   555 00///=
201705240600 AAXX 24064 67753 31960 00000 10166 20144 48565 70500
                   333 10240 20096 59001
                   555 00///=
201705231200 AAXX 23124 67753 NIL=
201705220600 AAXX 22064 67753 31960 30000 10129 20125 48552 70500 83030
                   333 10242 20080 59011 83360
                   555 00///=
201705190600 AAXX 19064 67753 31960 70000 10135 20128 48572 87070
                   333 10261 20098 58020 87360
                   555 00///=
201705180600 AAXX 18064 67753 32980 10000 10149 20075 48553 81030
                   333 10260 20072 58003 81360
                   555 00///=
201705120600 AAXX 12064 67753 32960 33203 10172 20126 48555 83030
                   333 10268 20096 59004 83360
                   555 00///=
201705110600 AAXX 11064 67753 32960 02903 10162 20144 48554
                   333 10256 20126 59006
                   555 00///=
201705100600 AAXX 10064 67753 32960 02903 10160 20142 48554
                   333 10265 20124 59005
                   555 00///=
201705091500 AAXX 09154 67753 NIL=
201705090600 AAXX 09064 67753 32460 32905 10174 20154 48565 83500
                   333 10274 20120 58002 83615
                   555 00///=
201705080600 AAXX 08064 67753 32960 10000 10184 20154 48566 81030
                   333 10265 20102 58009 81360
                   555 00///=
201705050600 AAXX 05064 67753 32960 33004 10154 20142 48563 83030
                   333 10254 20100 58003 83360
                   555 00///=
201705011500 AAXX 01154 67753 NIL=

################################################################################
#  SYNOPS from 67855, Lupaki (Zambia) | 17-03-00S | 024-46-00E | 1000 m
################################################################################
201705310600 AAXX 31064 67855 31970 00000 10084 20070 3//// 48/// 70500
                   333 20053 5////=
201705301200 AAXX 30124 67855 41670 11802 10240 20100 3//// 48/// 70500 81100
                   333 5//// 81840=
201705300600 AAXX 30064 67855 31970 00907 10114 20091 3//// 48/// 70500
                   333 20085 5////=
201705291800 AAXX 29184 67855 NIL=
201705291200 AAXX 29124 67855 41970 70309 10230 20098 3//// 48/// 70522 8707/
                   333 5//// 87360=
201705290600 AAXX 29064 67855 31970 70805 10156 20119 3//// 48/// 70522 8707/
                   333 20104 5//// 87360=
201705281200 AAXX 28124 67855 41970 31802 10296 20083 3//// 48/// 70500 83030
                   333 5//// 83360=
201705280600 AAXX 28064 67855 31970 02001 10110 20085 3//// 48/// 70500
                   333 20065 5////=
201705271200 AAXX 27124 67855 41770 52105 10280 20043 3//// 48/// 70511 81101
                   333 5//// 81856=
201705270600 AAXX 27064 67855 31970 30000 10100 20072 3//// 48/// 70500 80002
                   333 20062 5//// 83080=
201705261800 AAXX 26184 67855 NIL=
201705261200 AAXX 26124 67855 41970 02204 10280 20058 3//// 48/// 70500
                   333 5////=
201705260600 AAXX 26064 67855 31970 00000 10096 20074 3//// 48/// 70500
                   333 20060 5////=
201705251800 AAXX 25184 67855 NIL=
201705251200 AAXX 25124 67855 41970 01702 10276 20076 3//// 48/// 70500
                   333 5////=
201705250600 AAXX 25064 67855 31970 00000 10110 20093 3//// 48/// 70500
                   333 20060 5////=
201705240600 AAXX 24064 67855 31970 01801 10108 20095 3//// 48/// 70500
                   333 20074 5////=
201705231200 AAXX 23124 67855 41770 40000 10264 20092 3//// 48/// 84100
                   333 5//// 84850=
201705230600 AAXX 23064 67855 31970 00000 10106 20093 3//// 48/// 70500
                   333 20072 5////=
201705221800 AAXX 22184 67855 NIL=
201705220600 AAXX 22064 67855 31970 21701 10100 20080 3//// 48/// 70500 82030
                   333 20065 5//// 82360=
201705211200 AAXX 21124 67855 41670 52002 10258 20096 3//// 48/// 70511 85100
                   333 5//// 85845=
201705210600 AAXX 21064 67855 31970 01701 10092 20070 3//// 48/// 70500
                   333 20050 5////=
201705201800 AAXX 20184 67855 NIL=
201705201200 AAXX 20124 67855 41670 10301 10262 20090 3//// 48/// 70500 81100
                   333 5//// 81845=
201705200600 AAXX 20064 67855 31970 01301 10110 20074 3//// 48/// 70500
                   333 20063 5////=
201705191800 AAXX 19184 67855 NIL=
201705191200 AAXX 19124 67855 41770 40302 10280 20111 3//// 48/// 70511 84100
                   333 5//// 84850=
201705190600 AAXX 19064 67855 31970 61801 10120 20082 3//// 48/// 70522 86030
                   333 20079 5//// 86360=
201705181800 AAXX 18184 67855 NIL=
201705181200 AAXX 18124 67855 41770 42001 10272 20080 3//// 48/// 70500 84100
                   333 5//// 84850=
201705180600 AAXX 18064 67855 31970 12001 10116 20086 38/// 48/// 70500 81030
                   333 20065 5//// 81360=
201705171800 AAXX 17184 67855 NIL=
201705171200 AAXX 17124 67855 41670 50000 10256 20116 3//// 48/// 70511 85100
                   333 5//// 85845=
201705170600 AAXX 17064 67855 31970 01901 10116 20088 3//// 48/// 70500
                   333 20070 5////=
201705161200 AAXX 16124 67855 41670 13401 10266 20063 3//// 48/// 70500 81100
                   333 5//// 81845=
201705160600 AAXX 16064 67855 31970 01901 10094 20075 3//// 48/// 70500
                   333 20066 5////=
201705151200 AAXX 15124 67855 41670 23101 10274 20097 3//// 48/// 70500 82100
                   333 5//// 82845=
201705150600 AAXX 15064 67855 31970 00000 10128 20114 3//// 48/// 70500
                   333 20095 5////=
201705141200 AAXX 14124 67855 41770 42802 10270 20128 3//// 48/// 70500 84100
                   333 5//// 84850=
201705140600 AAXX 14064 67855 31970 00000 10136 20126 3//// 48/// 70540
                   333 20095 5////=
201705131800 AAXX 13184 67855 NIL=
201705131200 AAXX 13124 67855 NIL=
201705130600 AAXX 13064 67855 31970 00801 10128 20118 3//// 48/// 70500
                   333 20084 5////=
201705121200 AAXX 12124 67855 41670 51601 10270 20100 3//// 48/// 70511 85102
                   333 5//// 85840=
201705120600 AAXX 12064 67855 31970 40000 10138 20128 3//// 48/// 70500 80001
                   333 20084 5//// 84080=
201705111200 AAXX 11124 67855 41670 22003 10262 20090 3//// 48/// 70500 82100
                   333 5//// 82835=
201705110600 AAXX 11064 67855 31970 01801 10112 20078 38/// 48/// 70500
                   333 20075 5////=
201705101800 AAXX 10184 67855 NIL=
201705101200 AAXX 10124 67855 NIL=
201705100600 AAXX 10064 67855 NIL=
201705091200 AAXX 09124 67855 41670 13401 10282 20108 3//// 48/// 70511 81100
                   333 5//// 81840=
201705090600 AAXX 09064 67855 31970 70401 10150 20119 3//// 48/// 70522 8707/
                   333 20110 5//// 87459=
201705081800 AAXX 08184 67855 NIL=
201705081200 AAXX 08124 67855 NIL=
201705080600 AAXX 08064 67855 31970 00907 10162 20086 3//// 48/// 70500
                   333 20095 5////=
201705071200 AAXX 07124 67855 41670 11602 10278 20090 3//// 48/// 70500 81100
                   333 5//// 81845=
201705070600 AAXX 07064 67855 31970 00000 10130 20103 3//// 48/// 70500
                   333 20085 5////=
201705061800 AAXX 06184 67855 NIL=
201705061200 AAXX 06124 67855 41670 40503 10284 20111 3//// 48/// 70500 84100
                   333 5//// 84840=
201705060600 AAXX 06064 67855 31970 20000 10120 20105 3//// 48/// 70500 82030
                   333 20089 5//// 82360=
201705051800 AAXX 05184 67855 NIL=
201705051200 AAXX 05124 67855 41670 30302 10268 20103 3//// 48/// 70500 83130
                   333 5//// 83840=
201705050600 AAXX 05064 67855 31970 01701 10124 20098 3//// 48/// 70500
                   333 20080 5////=
201705041800 AAXX 04184 67855 NIL=
201705041200 AAXX 04124 67855 41670 51801 10264 20110 3//// 48/// 70511 85100
                   333 5//// 85835=
201705040600 AAXX 04064 67855 31970 01901 10130 20112 3//// 48/// 70500
                   333 20086 5////=
201705031800 AAXX 03184 67855 NIL=
201705031200 AAXX 03124 67855 41670 53601 10258 20130 3//// 48/// 70511 85200
                   333 5//// 85835=
201705030600 AAXX 03064 67855 31970 01101 10130 20120 3//// 48/// 70500
                   333 20099 5////=
201705021800 AAXX 02184 67855 NIL=
201705021200 AAXX 02124 67855 42675 60305 10256 20144 3//// 48/// 83130
                   333 5//// 83835 86360=
201705020600 AAXX 02064 67855 31970 70904 10152 20143 3//// 48/// 70522 8707/
                   333 20118 5//// 87360=
201705011800 AAXX 01184 67855 NIL=
201705011200 AAXX 01124 67855 41670 71802 10248 20150 3//// 48/// 70511 8127/
                   333 5//// 81835 87360=
201705010600 AAXX 01064 67855 31570 11102 10160 20140 3//// 48/// 70500 81500
                   333 20108 5//// 81620=
