################################################################################
# Query made at 04/15/2022 01:43:44 UTC
# Country like Zamb*
# Time interval: from 07/01/2011 05:30  to 07/31/2011 06:30  UTC
################################################################################

################################################################################
#  SYNOPS from 67403, Kawambwa (Zambia) | 09-48S | 029-05E | 1323 m
################################################################################
201107270600 AAXX 27064 67403 31975 10000 10165 20115 48548 70510 80001
                   333 10//0 20101 58017 81080=
201107130600 AAXX 13064 67403 31978 00902 10145 20103 48546 70500
                   333 10286 29983 59006=
201107010600 AAXX 01064 67403 32980 10901 10142 20085 48555 80001
                   333 10290 20079 58000=

################################################################################
#  SYNOPS from 67413, Mbala (Zambia) | 08-51S | 031-20E | 1673 m
################################################################################
201107190600 AAXX 19064 67413 31975 01513 10160 20116 48555 70500
                   333 10246 20104 58004=
201107070600 AAXX 07064 67413 31975 00801 10140 20085 48555 70500
                   333 10290 20075 59004=

################################################################################
#  SYNOPS from 67441, Mwinilunga (Zambia) | 11-45S | 024-26E | 1361 m
################################################################################
201107290600 AAXX 29064 67441 31960 60000 10083 20066 48541 70522 80005
                   333 10285 20//0 59010=
201107280600 AAXX 28064 67441 31960 00000 10107 20085 48552 70500
                   333 10290 20//0 59009=
201107270600 AAXX 27064 67441 31960 10000 10105 20086 48559 70500 81030
                   333 10300 20/// 58021 81360=
201107260600 AAXX 26064 67441 31960 00000 10105 10060 48539 70500
                   333 10290 20//0 58001=
201107250600 AAXX 25064 67441 31960 00000 10090 20060 48538 70500
                   333 10282 20/// 59038=
201107220600 AAXX 22064 67441 31960 00000 10102 20043 48577 70500
                   333 10283 20//0 58007=
201107210600 AAXX 21064 67441 31960 00000 10105 20086 48570 70500
                   333 10272 20/// 59001=
201107200900 AAXX 20094 67441 41965 00000 10224 20080 48584 70500
                   333 58006=
201107200600 AAXX 20064 67441 31960 10000 10105 20090 48571 70500 81030
                   333 10275 20//0 58000 81360=
201107190600 AAXX 19064 67441 31960 10000 10130 20083 48571 70500
                   333 81030 333 10265 20//0 58001 81360=
201107130600 AAXX 13064 67441 31965 00000 10110 20081 48580 70500
                   333 10245 20//0 59002=
201107120600 AAXX 12064 67441 31965 00000 10194 20084 48582 70500
                   333 10230 20/// 58002=
201107110600 AAXX 11064 67441 31970 10903 10113 20084 48508 70500 81100
                   333 10250 20111 59005 81818=
201107080600 AAXX 08064 67441 31965 00907 10116 20072 48575 70500
                   333 10260 20//0 58007=
201107070600 AAXX 07064 67441 31960 00000 10065 20043 48561 70500
                   333 10270 20//0 59019=
201107061200 AAXX 06124 67441 41970 01208 10260 20018 48564 70500
                   333 5////=
201107060900 AAXX 06094 67441 41960 01203 10240 20065 48592 70500
                   333 5////=
201107060600 AAXX 06064 67441 31960 00000 10100 20080 48586 70500
                   333 10296 20//0 58015=
201107040600 AAXX 04064 67441 NIL=
201107010600 AAXX 01064 67441 31960 00000 10075 20061 48563 70500
                   333 10280 20//0 59002=

################################################################################
#  SYNOPS from 67461, Mansa (Zambia) | 11-06S | 028-51E | 1382 m
################################################################################
201107281200 AAXX 28124 67461 41965 10905 10280 20091 48491 70500 80001
                   333 58000 81080=
201107280600 AAXX 28064 67461 31975 01204 10156 20132 70500
                   333 10290 20106 59011=
201107270600 AAXX 27064 67461 31970 00000 10156 20110 48524 70500
                   333 10293 20090 58014=
201107260600 AAXX 26064 67461 31970 10902 10148 20100 48510 70500 80001
                   333 10292 20075 59005 81080=
201107250600 AAXX 25064 67461 31975 00905 10154 20106 48515 70500
                   333 10253 20067 59036=
201107220600 AAXX 22064 67461 31970 00807 10133 20058 48539 70500
                   333 10270 20072 58002=
201107210900 AAXX 21094 67461 41965 00905 10248 20129 48527 70500
                   333 58007=
201107210600 AAXX 21064 67461 31970 00902 10150 20104 48539 70500
                   333 10289 20079 59003=
201107190600 AAXX 19064 67461 31975 00805 10140 20095 48544 70500
                   333 10270 20094 58018=
201107140600 AAXX 14064 67461 31975 00702 10135 20117 48537 70500
                   333 10252 20095 59001=
201107120600 AAXX 12064 67461 31975 11005 10130 20080 48553 80001
                   333 10225 20074 59007 81080=
201107110600 AAXX 11064 67461 32980 71006 10123 20090 48544 87030
                   333 10226 20088 58008 87360=
201107070600 AAXX 07064 67461 31960 00810 10134 20094 48540 70500
                   333 10264 20075 59009=
201107040600 AAXX 04064 67461 NIL=
201107010600 AAXX 01064 67461 31970 00802 10145 20079 48543 70500
                   333 10281 20045 58005=

################################################################################
#  SYNOPS from 67475, Kasama (Zambia) | 10-13S | 031-08E | 1382 m
################################################################################
201107270600 AAXX 27064 67475 31968 00000 10182 20092 48531 70500
                   333 10286 20110 58012=
201107260600 AAXX 26064 67475 31970 03608 10191 20092 48519 70500
                   333 10275 20100 59001=
201107250600 AAXX 25064 67475 31970 20304 10181 20084 48520 70500 80001
                   333 10262 20078 59030 82080=
201107220600 AAXX 22064 67475 31970 01210 10172 20058 48565 70500
                   333 10266 20088 58013=
201107210600 AAXX 21064 67475 31970 01208 10182 20087 48553 70500
                   333 10265 20088 59001=
201107190600 AAXX 19064 67475 31970 01206 10168 20090 48553 70500
                   333 10262 20100 58001=
201107140600 AAXX 14064 67475 31970 31202 10157 20124 48550 70500 83030
                   333 10224 20102 59001 83360=
201107130600 AAXX 13064 67475 31970 01208 10153 20092 48551 70500
                   333 10237 20082 59009=
201107040600 AAXX 04064 67475 31970 00604 10167 20114 48544 70500
                   333 10280 20100 58019=
201107010600 AAXX 01064 67475 31970 00302 10182 20075 48549 70500
                   333 10269 20070 59003=

################################################################################
#  SYNOPS from 67476, Misamfu (Zambia) | 10-06S | 031-15E | 1536 m
################################################################################
201107220600 AAXX 22064 67476 32980 00902 10182 20109 48///
                   333 10271 20110 58004=
201107110900 AAXX 11094 67476 42580 20904 10200 20088 48/// 82100
                   333 5//// 82826=
201107010600 AAXX 01064 67476 32980 00903 10178 20176 48///
                   333 10267 20069 59006=

################################################################################
#  SYNOPS from 67477, Mpika (Zambia) | 11-54S | 031-26E | 1400 m
################################################################################
201107280600 AAXX 28064 67477 31956 01007 10168 20109 48521 70500
                   333 10272 20104 59011=
201107270600 AAXX 27064 67477 31958 01005 10180 20086 48533 70500
                   333 10287 20124 58020=
201107260600 AAXX 26064 67477 31975 00905 10178 20081 48513 70500
                   333 10285 20081 59005=
201107250600 AAXX 25064 67477 31970 01005 10169 20046 48518 70500
                   333 10228 20071 59037=
201107220600 AAXX 22064 67477 31580 11108 10148 20062 58565 70500
                   333 10266 20088 58013=
201107210600 AAXX 21064 67477 31975 01205 10162 20048 48556 70500
                   333 10246 20074 59004=
201107190600 AAXX 19064 67477 31975 01404 10136 20082 48554 70500
                   333 10226 20089 58003=
201107180600 AAXX 18064 67477 32980 71606 10148 20090 48551 8707/
                   333 10235 20107 58004 87360=
201107140900 AAXX 14094 67477 42680 10912 10195 20112 48554 81100
                   333 59003 81830=
201107140600 AAXX 14064 67477 31150 71208 10124 20117 48553 72842 876//
                   333 10211 20094 59001 87702=
201107130900 AAXX 13094 67477 42680 11208 10190 20104 48552 81100
                   333 59004=
201107121200 AAXX 12124 67477 42680 21008 10204 20080 48538 82100
                   333 59002 82848=
201107110600 AAXX 11064 67477 32480 71115 10126 20104 48566 875//
                   333 10195 20096 59009 87610=
201107070600 AAXX 07064 67477 31580 11209 10144 20077 48553 70500 81100
                   333 10220 20061 59006 81822=
201107060900 AAXX 06094 67477 41675 11107 10194 20061 48566 70500 81100
                   333 5//// 81849=
201107040600 AAXX 04064 67477 NIL=
201107010600 AAXX 01064 67477 31975 01103 10164 20068 48549 70500
                   333 10247 20051 59005=

################################################################################
#  SYNOPS from 67481, Isoka (Zambia) | 10-07S | 032-38E | 1360 m
################################################################################
201107290600 AAXX 29064 67481 31975 03401 10174 20146 48/// 70500
                   333 10280 20108 5////=
201107270600 AAXX 27064 67481 31975 01601 10196 20116 48/// 70500
                   333 10300 20114 5////=
201107010600 AAXX 01064 67481 31975 01201 10192 20084 70500
                   333 10266 20060 5////=

################################################################################
#  SYNOPS from 67531, Zambezi (Zambia) | 13-32S | 023-07E | 1077 m
################################################################################
201107290600 AAXX 29064 67531 31970 10000 10116 20075 48/// 70500 80001
                   333 10305 20057 59004 81082=
201107281200 AAXX 28124 67531 41975 01402 10295 20025 48/// 70500
                   333 59019=
201107280600 AAXX 28064 67531 31960 11205 10128 20050 48/// 70500 80001
                   333 10288 20074 59017 81082 67561 31940 00000
                   10134 20089 48517 70400
                   333 10292 20079 59011=
201107270900 AAXX 27094 67531 41970 01204 10225 20056 48/// 70500
                   333 58014=
201107270600 AAXX 27064 67531 31960 01801 10120 20050 48/// 70500
                   333 10276 20056 58021=
201107261200 AAXX 26124 67531 41975 01603 10265 20038 48/// 70500
                   333 58012=
201107260600 AAXX 26064 67531 31975 01301 10106 20066 48/// 70500
                   333 10310 20062 58008=
201107250600 AAXX 25064 67531 31975 00901 10125 20069 48/// 70500
                   333 10284 20041 5////=
201107220900 AAXX 22094 67531 41975 01010 10235 20036 48/// 70500
                   333 58011=
201107220600 AAXX 22064 67531 31975 01008 10133 20041 48/// 70500
                   333 10285 20058 5////=
201107210900 AAXX 21094 67531 41970 01206 10255 20027 48/// 70500
                   333 59016=
201107210600 AAXX 21064 67531 31975 00908 10126 20060 48/// 70500
                   333 10285 20052 59008=
201107201200 AAXX 20124 67531 41975 01207 10272 20086 48/// 70500
                   333 5////=
201107200900 AAXX 20094 67531 41975 00809 10229 20070 48/// 70500
                   333 58007=
201107190900 AAXX 19094 67531 41975 01010 10224 20072 48/// 70500
                   333 5////=
201107190600 AAXX 19064 67531 31975 01205 10121 20070 48/// 70500
                   333 10265 20056 5////=
201107180600 AAXX 18064 67531 31975 10000 10107 20060 48/// 70500 80001
                   333 10267 20044 5//// 81082=
201107140600 AAXX 14064 67531 31975 01601 10108 20072 48/// 70500
                   333 10254 20040 5////=
201107130600 AAXX 13064 67531 31975 01204 10106 20065 48/// 70500
                   333 10251 20064 5////=
201107110600 AAXX 11064 67531 31975 10407 10111 20083 48/// 70500 81030
                   333 10245 20064 58001 81361=
201107080600 AAXX 08064 67531 31970 01106 10120 20085 48/// 70500
                   333 10269 20095 5////=
201107070600 AAXX 07064 67531 31960 01502 10109 20065 48/// 70500
                   333 10273 20080 5////=
201107061200 AAXX 06124 67531 41970 01606 10268 20075 48/// 70500
                   333 5////=
201107060600 AAXX 06064 67531 31965 01202 10097 20084 48/// 70500
                   333 10296 20065 58016=
201107040600 AAXX 04064 67531 31965 01001 10110 20074 48/// 70500
                   333 10290 20049 58017=
201107010600 AAXX 01064 67531 31950 01202 10100 20067 48/// 70500
                   333 10290 20036 59001=

################################################################################
#  SYNOPS from 67541, Kasempa (Zambia) | 13-32S | 025-51E | 1234 m
################################################################################
201107040600 AAXX 04064 67541 NIL=

################################################################################
#  SYNOPS from 67551, Solwezi (Zambia) | 12-11S | 026-23E | 1386 m
################################################################################
201107270600 AAXX 27064 67551 31958 00000 10111 20082 48523 70500
                   333 10//0 20094 58024=
201107220600 AAXX 22064 67551 31960 00906 10121 20044 48544 70500
                   333 10/// 20056 58003=
201107010600 AAXX 01064 67551 31957 00000 10075 20073 48542 70500
                   333 10270 20045 59003=

################################################################################
#  SYNOPS from 67561, Ndola (Zambia) | 13-00S | 028-39E | 1269 m
################################################################################
201107270600 AAXX 27064 67561 31930 00000 10136 20074 48527 70400
                   333 10299 20095 58020=
201107260600 AAXX 26064 67561 31930 00000 10121 20085 48508 70400
                   333 10284 20076 59001=
201107250600 AAXX 25064 67561 31940 00000 10102 20062 48507 70400
                   333 10260 20056 59043=
201107220900 AAXX 22094 67561 41960 00710 10221 20046 48571 70500
                   333 58003=
201107220600 AAXX 22064 67561 31960 00000 10145 20044 48561 70500
                   333 10276 20070 58014=
201107210600 AAXX 21064 67561 31956 09902 10121 20064 48546 70400
                   333 10274 20052 59005=
201107190900 AAXX 19094 67561 41970 01205 10232 20061 48560 70500
                   333 58000=
201107190600 AAXX 19064 67561 31960 00000 10144 20073 48551 70500
                   333 10268 20094 58008=
201107171500 AAXX 17154 67561 41760 50000 10242 20096 48526 70522 85200
                   333 58002 85856=
201107171200 AAXX 17124 67561 41760 50000 10250 20094 48552 70522 85201
                   333 59004 85850 81080=
201107140900 AAXX 14094 67561 41960 31202 10214 20096 48557 70511 83030
                   333 59008 83360=
201107140600 AAXX 14064 67561 31958 60000 10131 20105 48546 70422 86030
                   333 10256 20092 59010 86360=
201107130600 AAXX 13064 67561 31958 10000 10116 20086 48554 70400 81030
                   333 10238 20075 59002 81360 91024=
201107121200 AAXX 12124 67561 41770 51305 10225 20078 48539 70522 85200
                   333 59004 85850=
201107110600 AAXX 11064 67561 31560 50000 10104 20094 48562 70511 85530
                   333 10222 20066 59003 85620 82360=
201107070600 AAXX 07064 67561 31959 00712 10151 20049 48553 79499
                   333 10258 20070 59001=
201107040600 AAXX 04064 67561 31950 00000 10134 20074 48539 70400
                   333 10287 20066 58021=
201107010600 AAXX 01064 67561 31958 00000 10123 20077 48542 70500
                   333 10282 20055 59007=

################################################################################
#  SYNOPS from 67563, Kafironda (Zambia) | 12-36S | 028-07E | 1243 m
################################################################################
201107290600 AAXX 29064 67563 31965 00000 10082 20050 48/// 70500
                   333 10302 20041 58003=
201107220600 AAXX 22064 67563 31975 03303 10140 20060 48/// 70500
                   333 10272 20006 58013=
201107120600 AAXX 12064 67563 31975 50302 10133 20090 48/// 70522 85030
                   333 10226 20064 59005 85360=
201107010600 AAXX 01064 67563 31970 00000 10066 20046 48/// 70500
                   333 10284 20011 59005=

################################################################################
#  SYNOPS from 67571, Serenje (Zambia) | 13-14S | 030-13E | 1384 m
################################################################################
201107270600 AAXX 27064 67571 31965 01202 10185 20064 48531 70500
                   333 10295 20144 58018=
201107260600 AAXX 26064 67571 31960 00000 10141 20085 48509 70500
                   333 10278 20074 58000=
201107220600 AAXX 22064 67571 31975 00902 10145 20071 48558 70500
                   333 10252 20032 58005=
201107061200 AAXX 06124 67571 41970 00908 10226 20046 48543 70500
                   333 59005=

################################################################################
#  SYNOPS from 67575, Mkushi (Zambia) | 13-38S | 029-53E | 1237 m
################################################################################
201107010600 AAXX 01064 67575 31975 00000 10092 20062 48495 70500
                   333 10275 20033 59005=

################################################################################
#  SYNOPS from 67580, Msekera (Zambia) | 13-39S | 032-34E | 1025 m
################################################################################
201107290600 AAXX 29064 67580 31970 01202 10208 20128 48/// 70500
                   333 10295 20//0 59002=
201107270900 AAXX 27094 67580 41675 11503 10272 20122 48/// 70500 81100
                   333 58024 81845=
201107261200 AAXX 26124 67580 41965 00304 10297 20089 48/// 70500
                   333 58001=
201107200600 AAXX 20064 67580 32980 01210 10184 20060 48/// 70500
                   333 10264 20/// 58001=
201107190600 AAXX 19064 67580 32980 01204 10184 20067 48///
                   333 10268 20//0 58004=
201107130900 AAXX 13094 67580 42680 61207 10195 20124 48/// 86800
                   333 58004 82830 84635=
201107130600 AAXX 13064 67580 32480 70905 10147 20117 48/// 875//
                   333 10245 20//0 58002 87618=
201107121200 AAXX 12124 67580 41678 70903 10238 20118 48/// 70521 86360
                   333 59001 83840 81360=
201107120600 AAXX 12064 67580 31978 11205 10144 20114 48/// 70500 81030
                   333 10239 20111 59008 81360=
201107110600 AAXX 11064 67580 32480 31211 10168 20113 48/// 81530
                   333 10220 20//0 59013=
201107080600 AAXX 08064 67580 31978 01612 10149 20080 48/// 70500
                   333 10227 20//0 58006=
201107060900 AAXX 06094 67580 41575 11204 10244 20088 48/// 70500 81100
                   333 59012 81829=
201107060600 AAXX 06064 67580 32977 00903 10174 20113 48///
                   333 10271 20//0 59004=
201107010600 AAXX 01064 67580 32977 01103 10194 20087 48///
                   333 10285 20//0 59010=

################################################################################
#  SYNOPS from 67581, Chipata (Zambia) | 13-33S | 032-35E | 1028 m
################################################################################
201107281200 AAXX 28124 67581 41670 11208 10280 20113 48544 70500 81100
                   333 58003 81830=
201107280600 AAXX 28064 67581 31970 01206 10201 20138 48538 70500
                   333 10308 20154 58000=
201107270600 AAXX 27064 67581 31970 00806 10215 20131 48540 70500
                   333 10300 20126 58018=
201107260600 AAXX 26064 67581 31970 01605 10176 20103 48516 70500
                   333 10285 20092 59010=
201107250600 AAXX 25064 67581 32980 00402 10190 20072 48527
                   333 10278 20060 59044=
201107220600 AAXX 22064 67581 32980 01403 10182 20065 48574
                   333 10290 20102 58010=
201107210600 AAXX 21064 67581 31970 00805 10189 20046 48565 70500
                   333 10281 20084 59002=
201107190900 AAXX 19094 67581 42980 01415 10240 20088 48573
                   333 59001=
201107190600 AAXX 19064 67581 32980 01608 10189 20092 48571
                   333 10269 20142 58004=
201107140600 AAXX 14064 67581 32580 21415 10155 20117 48566 82100
                   333 10248 20126 59004 82825=
201107130600 AAXX 13064 67581 32580 61412 10144 20107 48568 82132
                   333 10244 20//0 58000 82825 85360=
201107110900 AAXX 11094 67581 42680 31406 10214 20073 48584 83100
                   333 59015 83832=
201107110600 AAXX 11064 67581 32680 11406 10162 20109 48581 81130
                   333 10236 20128 59012 81830 81360=
201107070600 AAXX 07064 67581 32680 11207 10160 20096 48576 70200 81100
                   333 10270 20013 58010 81830=
201107040600 AAXX 04064 67581 NIL=
201107010600 AAXX 01064 67581 32980 01205 10191 20099 48559 70200
                   333 10280 20115 59011=

################################################################################
#  SYNOPS from 67583, Lundazi (Zambia) | 12-17S | 033-12E | 1143 m
################################################################################
201107220600 AAXX 22064 67583 31978 10903 10165 20103 48/// 70500 80001
                   333 10290 20060 5//// 81080=
201107010600 AAXX 01064 67583 32980 00000 10142 20102
                   333 10300 20060 5////=

################################################################################
#  SYNOPS from 67599, Mfuwe (Zambia) | 13-16S | 031-56E | 568 m
################################################################################
201107290600 AAXX 29064 67599 31970 00000 10184 20155 48515 70500
                   333 10331 20141 58008=
201107270900 AAXX 27094 67599 41957 00000 10271 20154 48550 70500
                   333 58005=
201107270600 AAXX 27064 67599 31956 00000 10161 20106 48519 70500
                   333 10318 20111 58021=
201107261200 AAXX 26124 67599 41958 00000 10295 20126 48523 70500
                   333 58002=
201107260600 AAXX 26064 67599 31957 00000 10137 20080 48499 70500
                   333 10321 20094 59021=
201107210600 AAXX 21064 67599 31960 00000 10132 20072 48556 70500
                   333 10316 20059 59004=
201107201200 AAXX 20124 67599 41970 00000 10300 20111 48578 70500
                   333 59003=
201107200900 AAXX 20094 67599 41970 00000 10256 20094 48612 70500
                   333 58003=
201107200600 AAXX 20064 67599 31970 00000 10136 20081 48560 70500
                   333 10306 20064 58002=
201107191200 AAXX 19124 67599 41975 01805 10285 20122 48575 70500
                   333 58005=
201107190900 AAXX 19094 67599 41975 00000 10254 20104 48609 70500
                   333 58001=
201107190600 AAXX 19064 67599 31970 00000 10151 20101 48565 70500
                   333 10302 20086 58006=
201107110600 AAXX 11064 67599 32580 30204 10169 20130 48595 70500 81230
                   333 10265 20114 59005 81820 83360=
201107061200 AAXX 06124 67599 41958 00000 10294 20112 48578 70500
                   333 59011=
201107060900 AAXX 06094 67599 41958 00000 10263 20129 48514 70500
                   333 58007=
201107060600 AAXX 06064 67599 31957 00000 10130 20099 48560 70500
                   333 10246 20060 59013=
201107051500 AAXX 05154 67599 41958 00403 10284 20123 48579 70500
                   333 58012=
201107051200 AAXX 05124 67599 41958 00000 10297 20117 48591 70500
                   333 58011=
201107050600 AAXX 05064 67599 31959 02504 10160 20075 48580 70500
                   333 10327 20180 58022=

################################################################################
#  SYNOPS from 67625, Kalabo (Zambia) | 14-51S | 022-42E | 1033 m
################################################################################
201107130600 AAXX 13064 67625 31975 00910 10108 20066 48/// 70500
                   333 10265 20098 58002=

################################################################################
#  SYNOPS from 67633, Mongu (Zambia) | 15-15S | 023-09E | 1052 m
################################################################################
201107290600 AAXX 29064 67633 31950 11902 10147 20020 48511 70500 80001
                   333 10320 20119 58004 81080=
201107270600 AAXX 27064 67633 31960 00901 10130 21009 48520 70500
                   333 10268 20084 58015=
201107261200 AAXX 26124 67633 41960 02305 10257 21032 48517 70500
                   333 58026=
201107260600 AAXX 26064 67633 31956 01403 10132 20002 48512 70500
                   333 10300 20098 58012=
201107250600 AAXX 25064 67633 31958 00000 10112 20068 48491 70500
                   333 10297 20062 59049=
201107220600 AAXX 22064 67633 32980 01403 10182 20065 48574
                   333 10290 20102 58010=
201107210600 AAXX 21064 67633 31958 01208 10137 20040 48536 70500
                   333 10228 20089 59005=
201107201200 AAXX 20124 67633 41960 02703 10276 20029 48546 70500
                   333 58001=
201107200900 AAXX 20094 67633 41960 00704 10233 20069 48567 70500
                   333 58009=
201107200600 AAXX 20064 67633 31958 00906 10146 20040 48542 70500
                   333 10278 20097 58002=
201107190900 AAXX 19094 67633 41960 00903 10240 20059 48/// 70500
                   333 5////=
201107190600 AAXX 19064 67633 31960 01008 10126 20041 48537 70500
                   333 10272 20100 59001=
201107140900 AAXX 14094 67633 41960 01702 10214 20085 48566 70500
                   333 59008=
201107140600 AAXX 14064 67633 31960 01601 10121 20065 48545 70500
                   333 10255 20087 59009=
201107131200 AAXX 13124 67633 41660 41805 10226 20052 48547 70522 84200
                   333 59008 84840=
201107130600 AAXX 13064 67633 31960 01007 10125 20066 48554 705//
                   333 10248 20085 59006=
201107120600 AAXX 12064 67633 31960 01206 10130 20080 48561 70500
                   333 10243 20086 59002=
201107110600 AAXX 11064 67633 31980 60908 10125 20088 48565 70522 86030
                   333 10251 20100 58004 86360=
201107070600 AAXX 07064 67633 31960 01602 10104 21018 48539 70500
                   333 10255 20082 59015=
201107060600 AAXX 06064 67633 31958 01804 10125 20055 48558 70500
                   333 10285 20120 58017=
201107040600 AAXX 04064 67633 31956 00902 10128 20069 48521 70500
                   333 10290 20089 58018=
201107010600 AAXX 01064 67633 31970 20904 10118 20024 48538 70500 80001
                   333 10295 20099 58004 82080=

################################################################################
#  SYNOPS from 67641, Kaoma (Zambia) | 14-48S | 024-48E | 1213 m
################################################################################
201107260600 AAXX 26064 67641 32980 01202 10095 20010 48495
                   333 10294 20076 58001=
201107110600 AAXX 11064 67641 32980 71006 10123 20090 48544 87030
                   333 10226 20088 58008 87360=
201107070600 AAXX 07064 67641 32980 00902 10150 20085 48538
                   333 10291 20059 59009=
201107040600 AAXX 04064 67641 32980 00000 10088 20060 48517
                   333 10296 20058 58015=
201107010600 AAXX 01064 67641 32980 00901 10110 20062 48529
                   333 10289 20049 59007=

################################################################################
#  SYNOPS from 67655, Mumbwa (Zambia) | 15-04S | 027-11E | 1216 m
################################################################################
201107230600 AAXX 23064 67655 31970 01108 10127 20078 48593 70500
                   333 10267 20045 58023=
201107210600 AAXX 21064 67655 32980 00906 10149 20022 48453
                   333 10275 20089 59007=
201107120600 AAXX 12064 67655 32380 21006 10111 20092 48572 81780
                   333 10200 20080 59008 81707 81360=
201107080600 AAXX 08064 67655 31975 00908 10097 20070 48566 70500
                   333 10243 20//0 58015=
201107060600 AAXX 06064 67655 31975 00902 10127 20103 48565 70500
                   333 10260 20//0 59004=
201107010600 AAXX 01064 67655 31975 00703 10160 20042 48550 70500
                   333 10268 20060 59006=

################################################################################
#  SYNOPS from 67663, Kabwe (Zambia) | 14-27S | 028-28E | 1206 m
################################################################################
201107280600 AAXX 28064 67663 31975 03604 10163 20084 48505 70500
                   333 10287 20095 59010=
201107270600 AAXX 27064 67663 31975 00803 10140 20087 48511 70500
                   333 10293 20108 58011=
201107260600 AAXX 26064 67663 31975 00905 10143 20078 48501 70500
                   333 10280 20106 59004=
201107250600 AAXX 25064 67663 31975 00903 10145 20070 48506 70500
                   333 10250 20076 59044=
201107220600 AAXX 22064 67663 31975 00903 10138 20039 48549 70500
                   333 10260 20092 58002=
201107210600 AAXX 21064 67663 31975 01804 10137 20043 48548 70500
                   333 10256 20093 58007=
201107190900 AAXX 19094 67663 41975 01005 10215 20066 48557 70500
                   333 59007=
201107190600 AAXX 19064 67663 31975 00903 10135 20065 48543 70500
                   333 10240 20100 59005=
201107180600 AAXX 18064 67663 31975 00903 10144 20077 48550 70500
                   333 10235 20094 58001=
201107140600 AAXX 14064 67663 31975 70910 10126 20094 48546 70522 87030
                   333 10217 20103 59006 87360=
201107130600 AAXX 13064 67663 31975 30904 10112 20089 48549 70500 83030
                   333 10206 20086 59006=
201107070600 AAXX 07064 67663 32980 00905 10135 20082 48541 70500
                   333 10252 20103 58004=
201107040600 AAXX 04064 67663 NIL=
201107010600 AAXX 01064 67663 32980 00903 10136 20037 48527
                   333 10265 20070 59021=

################################################################################
#  SYNOPS from 67665, Lusaka Internationalairport (Zambia) | 15-19S | 028-27E | 1152 m
################################################################################
201107310600 AAXX 31064 67665 32980 01013 10146 20111 48582 70500
                   333 10265 20115 58036=
201107310400 AAXX 31044 67665 42980 11005 10101 20092 48559 70500 80001
                   333 59028 81080=
201107310300 AAXX 31034 67665 41980 01206 10108 20089 48555 70500
                   333 58053=
201107310000 AAXX 31004 67665 41980 00803 10112 20039 48552 70500
                   333 58025=
201107301800 AAXX 30184 67665 41960 01405 10159 20035 48552 70500
                   333 58023=
201107301200 AAXX 30124 67665 41970 01107 10258 20070 48550 70500
                   333 58028=
201107300900 AAXX 30094 67665 41970 01408 10234 20043 48569 70500
                   333 58026 91024=
201107300600 AAXX 30064 67665 32980 10160 20021 48549
                   333 10290 20105 58022=
201107300400 AAXX 30044 67665 41960 01409 10133 20060 48537 70500
                   333 58024=
201107300000 AAXX 30004 67665 41960 01507 10148 20122 48533 70500
                   333 58019=
201107291200 AAXX 29124 67665 41960 01008 10271 20087 48524 70500
                   333 58005=
201107290600 AAXX 29064 67665 31959 01504 10129 20129 48524 70500
                   333 10235 20084 59003=
201107281800 AAXX 28184 67665 41960 01203 10161 20135 48512 70500
                   333 10286 59012=
201107281200 AAXX 28124 67665 41980 11404 10267 20042 48519 70500 80001
                   333 59004 81080=
201107280600 AAXX 28064 67665 31959 01504 10133 20106 48527 70500
                   333 10292 20080 59008=
201107280400 AAXX 28044 67665 42980 01505 10090 20070 48513 70200
                   333 59005=
201107280300 AAXX 28034 67665 42980 01404 10086 20066 48508 70200
                   333 59010=
201107280000 AAXX 28004 67665 42980 01704 10107 20067 48518 70200
                   333 59001=
201107272100 AAXX 27214 67665 42980 01703 10136 20097 48549 70200
                   333 59001 91021=
201107271800 AAXX 27184 67665 42980 01604 10157 20066 48523 70200
                   333 10292 59007=
201107270900 AAXX 27094 67665 41970 00606 10256 20066 48552 70500
                   333 58017=
201107270600 AAXX 27064 67665 31960 01603 10137 20102 48536 70500
                   333 10230 20094 58029=
201107261800 AAXX 26184 67665 41960 01406 10169 20091 48518 70500
                   333 58019=
201107261500 AAXX 26154 67665 41958 01207 10253 20100 48510 70500
                   333 58017=
201107261200 AAXX 26124 67665 41959 02504 10265 20068 48516 70500
                   333 58012=
201107260600 AAXX 26064 67665 31956 03601 10129 20111 48505 70500
                   333 10280 20070 59011=
201107251200 AAXX 25124 67665 41970 02906 10259 20055 48502 70500
                   333 59051=
201107250600 AAXX 25064 67665 31970 01703 10118 20113 48517 70500
                   333 10215 20060 59046=
201107250400 AAXX 25044 67665 42980 00000 10069 20069 48501
                   333 59049=
201107250300 AAXX 25034 67665 42980 01603 10074 20074 48499
                   333 59051=
201107250000 AAXX 25004 67665 42980 01404 10078 20078 48504
                   333 59054=
201107242100 AAXX 24214 67665 42980 01504 10104 20095 48520
                   333 59054=
201107241800 AAXX 24184 67665 42980 01203 10142 20092 48527
                   333 10245 59048=
201107231800 AAXX 23184 67665 42980 01204 10131 20024 48570
                   333 10250 59001=
201107231500 AAXX 23154 67665 42980 01110 10227 20014 48574
                   333 58003=
201107231200 AAXX 23124 67665 42980 01012 10236 20046 48584
                   333 58011=
201107230900 AAXX 23094 67665 42580 10912 10198 20101 48606 81100
                   333 58019 81820=
201107230400 AAXX 23044 67665 42980 01405 10070 20059 48579
                   333 58030=
201107230300 AAXX 23034 67665 42980 01302 10081 20062 48574
                   333 58028=
201107221800 AAXX 22184 67665 41960 01404 10144 20019 48552 70500
                   333 10260 58002=
201107221200 AAXX 22124 67665 42970 01110 10256 20033 48576 70500
                   333 59016=
201107220900 AAXX 22094 67665 41980 00712 10217 20043 48591 70500
                   333 58014=
201107220600 AAXX 22064 67665 31980 01305 10126 20068 48571 70500
                   333 10260 20058 58013=
201107220300 AAXX 22034 67665 42980 01605 10087 20040 48549 70200
                   333 58006=
201107212100 AAXX 21214 67665 42980 01504 10089 20045 48547 70200
                   333 59001=
201107211800 AAXX 21184 67665 41960 01404 10144 20019 48552 70500
                   333 10260 58002=
201107211200 AAXX 21124 67665 41960 01109 10251 20030 48560 70500
                   333 58001=
201107210900 AAXX 21094 67665 41960 00709 10218 20134 48544 70500
                   333 59003=
201107210600 AAXX 21064 67665 31970 01404 10125 20067 48559 70500
                   333 10267 20073 59003=
201107210400 AAXX 21044 67665 42980 01504 10088 20045 48540 70200
                   333 59004=
201107210300 AAXX 21034 67665 42980 01504 10073 20040 48540 70200
                   333 58002=
201107210000 AAXX 21004 67665 42980 01604 10095 20042 48542
                   333 58005=
201107202100 AAXX 20214 67665 42980 01405 10101 20060 48550
                   333 59003=
201107201800 AAXX 20184 67665 42980 01304 10138 20070 48550
                   333 10258 59001=
201107201500 AAXX 20154 67665 41970 00907 10236 20048 48550 70500
                   333 59001=
201107201200 AAXX 20124 67665 42980 07007 10256 20052 48561
                   333 59003=
201107200900 AAXX 20094 67665 41970 00709 10216 20042 48578 70500
                   333 59002=
201107200600 AAXX 20064 67665 31960 01603 10128 20104 48562 70500
                   333 10250 20055 58006=
201107191800 AAXX 19184 67665 42980 11504 10135 20055 48549 70200 80001
                   333 10250 59001 81080=
201107191500 AAXX 19154 67665 41970 01207 10225 20042 48550 70500
                   333 58003 555 10250 91022=
201107191200 AAXX 19124 67665 41980 01307 10237 20074 48561 70500
                   333 58003 91023=
201107190900 AAXX 19094 67665 41980 01009 10210 20095 48579 70500
                   333 58003=
201107190600 AAXX 19064 67665 31980 01404 10140 20100 48563 70500
                   333 10192 20070 58003=
201107190400 AAXX 19044 67665 42980 01403 10070 20070 48546
                   333 58006=
201107190300 AAXX 19034 67665 42980 01504 10077 20077 48541
                   333 58003=
201107190000 AAXX 19004 67665 42980 01303 10087 20078 48556
                   333 58008=
201107180600 AAXX 18064 67665 31980 01404 10118 20113 48558 70500
                   333 10225 20090 59001=
201107171800 AAXX 17184 67665 42980 01304 10137 20101 48548
                   333 10240 59007=
201107171500 AAXX 17154 67665 42980 21309 10211 20107 48547 82030
                   333 59005 82359=
201107171200 AAXX 17124 67665 42680 41504 10223 20089 48553 84200
                   333 59003 84840=
201107170600 AAXX 17064 67665 31970 01304 10126 20096 48560 70500
                   333 10235 20076 59005=
201107170400 AAXX 17044 67665 42980 11503 10085 20083 48545 81030
                   333 59001 81360=
201107162100 AAXX 16214 67665 42980 61603 10118 20110 48560 86030
                   333 58003 86360=
201107161800 AAXX 16184 67665 42980 11403 10146 20111 48555 81300
                   333 10236 59001 81360=
201107161500 AAXX 16154 67665 41780 21510 10200 20114 48551 70512 82100
                   333 58001 82850=
201107161200 AAXX 16124 67665 41680 50806 10223 20123 48552 70500 85200
                   333 58000 85835=
201107160600 AAXX 16064 67665 32980 51405 10126 20126 48564 85030
                   333 10225 20067 58002 85360=
201107151800 AAXX 15184 67665 42980 01304 10137 20120 48555
                   333 10225 59005=
201107151500 AAXX 15154 67665 41660 51206 10207 20123 48551 70522 82230
                   333 59002 82845 83360=
201107151200 AAXX 15124 67665 41660 61007 10206 20121 48555 70522 86200
                   333 59001 86830=
201107150600 AAXX 15064 67665 32980 22305 10122 20120 48565 81030
                   333 10225 20060 59001 81360=
201107141500 AAXX 14154 67665 42980 31206 10187 20119 48550 83030
                   333 59001 83360=
201107141200 AAXX 14124 67665 42680 41110 10194 20126 48553 84200
                   333 59003 84835=
201107140900 AAXX 14094 67665 42580 60910 10171 20129 48576 84530
                   333 59007 84620 84360=
201107140600 AAXX 14064 67665 32380 71105 10117 20114 48566 82530
                   333 10200 20120 59004 82708 85360=
201107140400 AAXX 14044 67665 42980 51004 10094 20094 48549 85030
                   333 59006 85360=
201107140300 AAXX 14034 67665 42980 51005 10095 20092 48547 85030
                   333 59007 85359=
201107132100 AAXX 13214 67665 42980 61403 10126 20118 48564 70222 86030
                   333 59005 86359=
201107131800 AAXX 13184 67665 42980 11504 10132 20114 48559 81030
                   333 10218 59003 81360=
201107131500 AAXX 13154 67665 42680 41206 10195 20109 48551 83101
                   333 59007 83848 83080
                   555 10218=
201107131200 AAXX 13124 67665 42680 50906 10200 20111 48557 85200
                   333 59007 85835=
201107130900 AAXX 13094 67665 42480 50809 10169 20135 48583 70322 85500
                   333 59006 85620 91026=
201107130600 AAXX 13064 67665 32380 61007 10116 20116 48570 70220 86530
                   333 10210 20049 59009 85609 82360=
201107130400 AAXX 13044 67665 42380 21204 10067 20067 48552 81530
                   333 59009 81606 81360=
201107130000 AAXX 13004 67665 42980 00502 10075 20075 48554
                   333 59010=
201107122100 AAXX 12214 67665 42980 01503 10095 20095 48564
                   333 59009=
201107121200 AAXX 12124 67665 42580 51108 10201 20102 48564 85200
                   333 59009 85828 91024=
201107120600 AAXX 12064 67665 11380 31107 10115 20096 48578 69904 70322 83530
                   333 10190 20064 59004 83709 81360
                   555 00/// 91027=
201107111800 AAXX 11184 67665 42980 61203 10138 20121 48571 86300
                   333 10190 59007 86359=
201107111500 AAXX 11154 67665 42680 51007 10169 20117 48564 85100
                   333 85830=
201107111200 AAXX 11124 67665 42580 60910 10178 20109 48570 86230
                   333 59015 85820 83359=
201107110900 AAXX 11094 67665 42480 61011 10149 20134 48591 86500
                   333 59003 86611=
201107110600 AAXX 11064 67665 11358 70906 10124 20108 48582 69904 75252 877//
                   333 10177 20070 59006 87607=
201107101200 AAXX 10124 67665 42580 70912 10166 20117 48581 87800
                   333 58001 82820 87622=
201107100900 AAXX 10094 67665 42480 80814 10156 20122 48598 87500
                   333 58002 87512=
201107100600 AAXX 10064 67665 32380 41009 10126 20085 48589 83530
                   333 10206 20068 59003 83508 81360=
201107091500 AAXX 09154 67665 41660 50912 10172 20080 48582 70522 81530
                   333 58011 81645 85360=
201107091200 AAXX 09124 67665 41670 51012 10188 20089 48585 70522 85500
                   333 58016 85360=
201107090600 AAXX 09064 67665 32980 01106 10101 20099 48588 70200
                   333 10205 20039 58014=
201107090400 AAXX 09044 67665 42980 01204 10058 20056 48566 70200
                   333 58005=
201107090300 AAXX 09034 67665 42980 01404 10057 20055 48564 70200
                   333 58010=
201107090000 AAXX 09004 67665 42980 01103 10060 20058 48546 70200
                   333 58005=
201107082100 AAXX 08214 67665 42980 01004 10065 20062 48574 70200
                   333 58007=
201107081800 AAXX 08184 67665 42980 01104 10107 20079 48575
                   333 10205 58005=
201107081500 AAXX 08154 67665 42980 31110 10179 20075 48573 70500 83530
                   333 58002 81655 83360=
201107081200 AAXX 08124 67665 42680 30911 10197 20078 48571 70500 83500
                   333 58000 83640=
201107080900 AAXX 08094 67665 42580 10913 10172 20080 48590 81500
                   333 58011 81825=
201107080600 AAXX 08064 67665 31960 01105 10088 20066 48573 70500
                   333 10193 20045 58012=
201107071800 AAXX 07184 67665 41960 61204 10140 20123 48575 70500 86030
                   333 10//0 58021 86360=
201107071500 AAXX 07154 67665 41660 60909 10178 20127 48571 70500 83530
                   333 58019 83645 85360
                   555 10215=
201107071200 AAXX 07124 67665 41559 60910 10183 20132 48568 70500 86800
                   333 58015 82828 84630 91024=
201107070600 AAXX 07064 67665 31959 11108 10139 20139 48569 70500 81500
                   333 10265 20025 58004 81609=
201107070400 AAXX 07044 67665 41960 01205 10105 20095 48550 70500
                   333 59003=
201107070300 AAXX 07034 67665 41960 01405 10102 20092 48548 70500
                   333 59002=
201107070000 AAXX 07004 67665 41960 01403 10105 20096 48552 70500
                   333 59014=
201107062100 AAXX 06214 67665 41960 01703 10121 20103 48556 70500
                   333 59008=
201107061200 AAXX 06124 67665 41960 01107 10253 20097 48563 70500
                   333 59008 91023=
201107060900 AAXX 06094 67665 41960 00906 10215 20124 48586 70500
                   333 59006 91026=
201107060600 AAXX 06064 67665 31960 01603 10125 20097 48564 70500
                   333 10246 20060 59013 91026=
201107051500 AAXX 05154 67665 41959 00905 10228 20087 48564 70500
                   333 59008=
201107051200 AAXX 05124 67665 41959 00707 10246 20088 48571
                   333 59010=
201107050900 AAXX 05094 67665 41959 00710 10202 20096 48589 70500
                   333 58019 91027=
201107050600 AAXX 05064 67665 31959 01205 10095 20066 48544 70500
                   333 10264 20065 58012=
201107050400 AAXX 05044 67665 41959 01304 10073 20060 58560 70500
                   333 58025=
201107042100 AAXX 04214 67665 41959 01304 10101 20060 48560 70500
                   333 58029=
201107040600 AAXX 04064 67665 31959 01504 10146 20068 48556 70500
                   333 10279 20084 58027=
201107031800 AAXX 03184 67665 41959 01504 10158 20083 48525 70500
                   333 10279 59007=
201107031500 AAXX 03154 67665 41959 00201 10257 20030 48525 70500
                   333 59003=
201107031200 AAXX 03124 67665 41959 02803 10266 20044 48527 70500
                   333 59005=
201107030600 AAXX 03064 67665 31959 00000 10136 20087 48528 70500
                   333 10258 20078 59005=
201107030400 AAXX 03044 67665 42980 01803 10075 20054 48509 70200
                   333 59011=
201107030300 AAXX 03034 67665 42980 01803 10098 20056 48509 70200
                   333 59011=
201107030000 AAXX 03004 67665 42980 01604 10086 20056 48508 70200
                   333 59013=
201107022100 AAXX 02214 67665 42980 01503 10112 20073 48517 70200
                   333 59024=
201107021800 AAXX 02184 67665 41960 01306 10142 20076 48516 70500
                   333 59023=
201107021200 AAXX 02124 67665 41960 00105 10251 20044 48530 70500
                   333 58018=
201107020900 AAXX 02094 67665 41960 00607 10220 20049 48554 70500
                   333 59013=
201107020600 AAXX 02064 67665 31965 01602 10147 20080 48535 70500
                   333 10268 20059 59009=
201107011800 AAXX 01184 67665 41960 01603 10154 20041 48540 70500
                   333 59005=
201107011500 AAXX 01154 67665 41960 01409 10239 20035 48537 70500
                   333 59009=
201107011200 AAXX 01124 67665 41960 01005 10255 20050 48548 70500
                   333 59007=
201107010900 AAXX 01094 67665 41960 01310 10232 20040 48568 70500
                   333 59007 91024=
201107010600 AAXX 01064 67665 31960 01592 10128 20081 48551 70500
                   333 10265 20068=

################################################################################
#  SYNOPS from 67666, Lusaka City Airport (Zambia) | 15-25S | 028-19E | 1280 m
################################################################################
201107290600 AAXX 29064 67666 31959 00902 10160 20106 48522 70500
                   333 10260 20100 58004=
201107280900 AAXX 28094 67666 41959 00910 10220 20103 48533 70500
                   333 58006=
201107270900 AAXX 27094 67666 41975 02901 10250 20043 48541 70500
                   333 58018=
201107261200 AAXX 26124 67666 42980 01003 10250 20070 48506
                   333 58015=
201107220600 AAXX 22064 67666 31959 00903 10145 20058 48568 70500
                   333 10250 20105 58024=
201107210600 AAXX 21064 67666 31959 01009 10190 20025 48555 70500
                   333 10250 20105 59014=
201107201200 AAXX 20124 67666 42980 00904 10236 20058 48548
                   333 59003=
201107200900 AAXX 20094 67666 42980 00904 10200 20044 48568
                   333 59010=
201107200600 AAXX 20064 67666 32980 00905 10160 20045 48561
                   333 10240 20/// 58003=
201107190900 AAXX 19094 67666 42980 00903 10200 20070 48569
                   333 58002=
201107190600 AAXX 19064 67666 31975 00903 10151 20061 48556 70500
                   333 10200 20105 58015=
201107131200 AAXX 13124 67666 42580 30907 10193 20063 48549 83100
                   333 59007 83830=
201107130900 AAXX 13094 67666 42580 30912 10170 20118 48574 83200
                   333 59050 83825=
201107130600 AAXX 13064 67666 32480 70908 10120 20090 48562 875//
                   333 10180 20080 59010 87612=
201107121200 AAXX 12124 67666 42580 50907 10190 20080 48556 85800
                   333 59010 82630 84840=
201107120600 AAXX 12064 67666 12360 70908 10125 20098 48571 69904 875//
                   333 10170 20080 59005 87610=
201107110900 AAXX 11094 67666 42580 70910 10133 20118 48584 875//
                   333 59003 86620 83825=
201107110600 AAXX 11064 67666 11480 30204 10169 20130 48595 70500 81230
                   333 10265 20114 59005 81820 83360=
201107080600 AAXX 08064 67666 32980 00910 10//0 20071 48569
                   333 10200 20070 58012=
201107061200 AAXX 06124 67666 42980 00903 10244 20056 48552
                   333 59006=
201107060900 AAXX 06094 67666 42980 00905 10215 20102 48577
                   333 59003=
201107060600 AAXX 06064 67666 32980 00902 10146 20099 48563
                   333 10240 20095 58009=
201107010600 AAXX 01064 67666 31980 00903 10170 20025 48549 70500
                   333 10240 20070 59008=

################################################################################
#  SYNOPS from 67667, Mount Makulu (Zambia) | 15-33S | 028-15E | 1213 m
################################################################################
201107010600 AAXX 01064 67667 31970 00000 10130 20036 70500
                   333 10270 20025=

################################################################################
#  SYNOPS from 67673, Petauke (Zambia) | 14-15S | 031-17E | 1035 m
################################################################################
201107280900 AAXX 28094 67673 41660 40903 10240 20147 48549 70500 84100
                   333 59004 84830=
201107270900 AAXX 27094 67673 41960 00902 10267 20094 48557 70500
                   333 58027=
201107260600 AAXX 26064 67673 31970 00402 10204 20078 48518 70500
                   333 10286 20144 59010=
201107220600 AAXX 22064 67673 31965 01605 10173 20100 48573 70500
                   333 10280 20121 58003=
201107010600 AAXX 01064 67673 31970 00902 10195 20050 48565 70500
                   333 10280 20124 59003=

################################################################################
#  SYNOPS from 67731, Senanga (Zambia) | 16-06S | 023-16E | 1027 m
################################################################################
201107260600 AAXX 26064 67731 32980 00902 10126 21004 48///
                   333 10298 20066 5////=
201107010600 AAXX 01064 67731 31975 01301 10141 20076 48/// 70500
                   333 10288 20071 5////=

################################################################################
#  SYNOPS from 67743, Livingstone (Zambia) | 17-49S | 025-49E | 985 m
################################################################################
201107310600 AAXX 31064 67743 32980 01015 10126 20005 48577 70200
                   333 10247 20//0 58008
                   555 00/// 20000 91026=
201107280600 AAXX 28064 67743 31957 02602 10065 20005 48509 70500
                   333 10269 20//0 59020=
201107270600 AAXX 27064 67743 32980 02901 10075 20064 48527
                   333 10260 20/// 58024=
201107261200 AAXX 26124 67743 42980 02903 10240 20049 48522
                   333 58040=
201107260600 AAXX 26064 67743 31958 02006 10113 20005 48514 70500
                   333 10302 2//// 58018=
201107250600 AAXX 25064 67743 32980 00000 10097 20050 48495
                   333 10265 20/// 59059=
201107220900 AAXX 22094 67743 42980 01309 10235 20046 48596
                   333 5////=
201107220600 AAXX 22064 67743 32980 00902 10122 20046 48565
                   333 10285 20//0 58022=
201107210900 AAXX 21094 67743 41958 00909 10220 21038 48539 70500
                   333 59021=
201107210600 AAXX 21064 67743 32980 00903 10135 20055 48546
                   333 10275 2//// 59004=
201107201500 AAXX 20154 67743 42980 00906 10265 20054 48536
                   333 59007=
201107201200 AAXX 20124 67743 42980 02006 10256 20043 48528
                   333 59007=
201107200600 AAXX 20064 67743 32980 00000 10101 20032 48544
                   333 10266 2//// 59006=
201107190900 AAXX 19094 67743 42980 11306 10220 20113 48581 80002
                   333 59009 81080=
201107190600 AAXX 19064 67743 32980 01002 10106 20052 48551
                   333 10247 20//0 59002=
201107180600 AAXX 18064 67743 32980 00902 10105 20040 48555
                   333 10246 2//// 59005=
201107171500 AAXX 17154 67743 42980 00907 10232 20021 48553
                   333 59005=
201107171200 AAXX 17124 67743 42980 00805 10235 20018 48562
                   333 59006=
201107161200 AAXX 16124 67743 42980 20806 10226 20030 48568 82060
                   333 58010 82360=
201107140900 AAXX 14094 67743 42980 31310 10180 20078 48578 83030
                   333 59012 83360=
201107140600 AAXX 14064 67743 32980 51311 10134 20067 48564 85030
                   333 10231 2//// 59013 85360=
201107131200 AAXX 13124 67743 42780 21206 10220 20067 48566 82100
                   333 59009 82850=
201107130600 AAXX 13064 67743 32980 21306 10115 20086 48572 82030
                   333 10225 2//// 59005 82360=
201107110900 AAXX 11094 67743 42980 60906 10180 20066 48597 70122 86030
                   333 59006 86360=
201107110600 AAXX 11064 67743 32980 71503 10131 20075 48587 87030
                   333 10242 20/// 59010 87360=
201107100600 AAXX 10064 67743 32480 41708 10120 20051 48589 84500
                   333 10215 20//0 58005 84616=
201107080600 AAXX 08064 67743 32980 01008 10112 20062 48570
                   333 10265 20//0 48016=
201107071200 AAXX 07124 67743 41775 11010 10225 20099 48568 70500 81100
                   333 58001 81856=
201107070900 AAXX 07094 67743 42975 00911 10180 20090 48575
                   333 59003 91025=
201107070600 AAXX 07064 67743 32980 01209 10110 20084 48557
                   333 10273 2//// 59004=
201107060900 AAXX 06094 67743 41959 01305 10190 20080 48580 70500
                   333 58008=
201107060600 AAXX 06064 67743 31959 02403 10113 20062 48559 70500
                   333 10280 20//0 58007=
201107051500 AAXX 05154 67743 42980 03103 10254 20085 48559
                   333 58018=
201107040600 AAXX 04064 67743 32980 02102 10124 20036 48534
                   333 10289 20//0 59025=
201107020900 AAXX 02094 67743 42980 01802 10231 20031 48548
                   333 59021 91021=

################################################################################
#  SYNOPS from 67753, Choma (Zambia) | 16-50S | 027-04E | 1213 m
################################################################################
201107270600 AAXX 27064 67753 31960 01807 10119 20001 48/// 70500
                   333 10254 20038 5////=
201107260600 AAXX 26064 67753 31960 01806 10135 20011 48/// 70500
                   333 10270 20083 5////=
201107250600 AAXX 25064 67753 31960 02005 10115 20049 48/// 70500
                   333 10242 20026 5////=
201107220600 AAXX 22064 67753 31960 00908 10131 20041 48/// 70500
                   333 10251 20069 5////=
201107210600 AAXX 21064 67753 31960 00607 10159 20046 48/// 70500
                   333 10256 20088 5////=
201107200900 AAXX 20094 67753 41960 00906 10226 20056 48/// 70500
                   333 5////=
201107190600 AAXX 19064 67753 31960 01505 10112 20046 10224 20031 48/// 5//// 70500=
201107140600 AAXX 14064 67753 31970 01007 10107 20076 48/// 70500
                   333 10203 20041 5////=
201107130600 AAXX 13064 67753 31470 70908 10097 20070 70521 87500
                   333 10199 20073 87612=
201107120600 AAXX 12064 67753 31460 70908 10114 20099 48/// 70522 85530
                   333 10186 20071 85612 87360=
201107110600 AAXX 11064 67753 31960 70908 10112 20086 48/// 70522 87030
                   333 10161 20047 87360=
201107080600 AAXX 08064 67753 31960 70908 10116 20080 48/// 70522 87030
                   333 10224 20071 5//// 87360=
201107070600 AAXX 07064 67753 31460 10904 10114 20100 70500 81500
                   333 10264 20075 81614=
201107060600 AAXX 06064 67753 31960 00000 10103 2//// 48/// 70500
                   333 10251 20045=
201107040600 AAXX 04064 67753 31960 00000 10129 20055 48/// 70500
                   333 10264 20056 5////=
201107010600 AAXX 01064 67753 31960 01004 10143 20074 70500
                   333 10256 20038=

################################################################################
#  SYNOPS from 67855, Lupaki (Zambia) | 17-03-00S | 024-46-00E | 1000 m
################################################################################
201107291200 AAXX 29124 67855 NIL=
201107290600 AAXX 29064 67855 31970 03001 10080 20009 38/// 48/// 70500
                   333 20033 5////=
201107280600 AAXX 28064 67855 31960 01302 10075 20060 38/// 48/// 70500
                   333 20014 5////=
201107271200 AAXX 27124 67855 41970 00402 10262 20015 3//// 48/// 70500
                   333 5////=
201107270600 AAXX 27064 67855 31970 01601 10032 21035 3//// 48/// 70500
                   333 21025 5////=
201107261200 AAXX 26124 67855 NIL=
201107260600 AAXX 26064 67855 31960 00000 10050 20000 3//// 48/// 70500
                   333 20029 5////=
201107250600 AAXX 25064 67855 31970 00000 10038 20019 3//// 48/// 70500
                   333 20015 5////=
201107230600 AAXX 23064 67855 NIL=
201107220600 AAXX 22064 67855 31970 01801 10100 20003 3//// 48/// 70500
                   333 20023 5////=
201107211200 AAXX 21124 67855 41970 02003 10276 20030 3//// 48/// 70500
                   333 5////=
201107210600 AAXX 21064 67855 31970 00000 10058 20015 3//// 48/// 70500
                   333 20015 5////=
201107201200 AAXX 20124 67855 41970 00502 10270 20055 3//// 48/// 70500
                   333 5////=
201107200600 AAXX 20064 67855 31970 00000 10060 20010 3//// 48/// 70500
                   333 20018 5////=
201107191200 AAXX 19124 67855 41970 01901 10250 20040 3//// 48/// 70500
                   333 5////=
201107190600 AAXX 19064 67855 NIL=
201107151200 AAXX 15124 67855 41670 53602 10230 20063 3//// 48/// 70522 83130
                   333 5//// 83840 85360=
201107150600 AAXX 15064 67855 31970 70000 10088 20065 38/// 48/// 70522 8703/
                   333 20065 5//// 87360=
201107141200 AAXX 14124 67855 41670 53601 10210 20083 38/// 48/// 70511 85230
                   333 5//// 85840=
201107140600 AAXX 14064 67855 31960 71802 10098 20078 38/// 48/// 70522 8703/
                   333 20032 5//// 87360=
201107121200 AAXX 12124 67855 41670 61401 10210 20097 38/// 48/// 72582 84202
                   333 5//// 84850 86080=
201107120600 AAXX 12064 67855 11970 11601 10056 20041 3//// 48/// 69904 70500 81030
                   333 20030 5//// 81360=
201107111200 AAXX 11124 67855 41670 60904 10218 20068 3//// 48/// 72162 84170
                   333 5//// 84840 86460=
201107110600 AAXX 11064 67855 31960 60000 10098 20086 3//// 48/// 70522 86070
                   333 20085 5//// 86460=
201107081200 AAXX 08124 67855 41670 21405 10218 20055 38/// 48/// 70500 82100
                   333 5//// 82840=
201107080600 AAXX 08064 67855 31960 00000 10054 20029 38/// 4//// 70500
                   333 20035 5////=
201107070600 AAXX 07064 67855 NIL=
201107060600 AAXX 06064 67855 31950 01901 10060 20040 3//// 48/// 70500
                   333 20030 5////=
201107051200 AAXX 05124 67855 NIL=
201107050600 AAXX 05064 67855 NIL=
201107030600 AAXX 03064 67855 31960 00801 10050 20005 3//// 48/// 70500
                   333 20005 5////=
201107021200 AAXX 02124 67855 42980 03003 10276 20003 3//// 48///
                   333 5////=
201107020600 AAXX 02064 67855 NIL=
201107011200 AAXX 01124 67855 NIL=
201107010600 AAXX 01064 67855 NIL=
