################################################################################
# Query made at 04/18/2022 00:47:10 UTC
# Country like Zamb*
# Time interval: from 11/01/2006 05:30  to 12/01/2006 05:30  UTC
################################################################################

################################################################################
#  SYNOPS from 67403, Kawambwa (Zambia) | 09-48S | 029-05E | 1323 m
################################################################################
200611100600 AAXX 10064 67403 32980 52903 10256 20173 48552 85031
                   333 10314 20175 58001 85362 81080=
200611060600 AAXX 06064 67403 11980 80000 10213 20207 48543 60334 76162 8807/
                   333 10285 20133 59005 88462=

################################################################################
#  SYNOPS from 67413, Mbala (Zambia) | 08-51S | 031-20E | 1673 m
################################################################################
200611100600 AAXX 10064 67413 32580 30810 10226 20151 48527 81101
                   333 10315 20167 59016 81820 83080=
200611090600 AAXX 09064 67413 12980 60000 10220 20157 48544 69914 83032
                   333 10288 20146 59006 83359 83080=
200611060600 AAXX 06064 67413 12480 70000 10189 20159 48527 69954 8157/
                   333 10240 20150 5//// 81618 87460=

################################################################################
#  SYNOPS from 67461, Mansa (Zambia) | 11-06S | 028-51E | 1382 m
################################################################################
200611120600 AAXX 12064 67461 11575 62702 10215 20189 48511 60174 70522 8707/
                   333 10324 20174 59002 87462=
200611060600 AAXX 06064 67461 32582 60000 10226 20157 48508 81230
                   333 10316 20162 58002 81845 86363=

################################################################################
#  SYNOPS from 67475, Kasama (Zambia) | 10-13S | 031-08E | 1382 m
################################################################################
200611100600 AAXX 10064 67475 31970 60608 10244 20154 48522 70522 80002
                   333 10332 20180 59018 86080=
200611090600 AAXX 09064 67475 31670 41204 10238 20158 48541 70522 84101
                   333 10325 20169 58002 84830 82080=
200611070600 AAXX 07064 67475 31970 70908 10227 20137 48519 70522 8703/
                   333 10302 20172 59002 87361=
200611060600 AAXX 06064 67475 11970 71804 10200 20167 48520 60064 70522 8707/
                   333 10330 20160 58004 87460=

################################################################################
#  SYNOPS from 67476, Misamfu (Zambia) | 10-06S | 031-15E | 1536 m
################################################################################
200611060600 AAXX 06064 67476 11970 70304 10211 20163 48/// 60154 8707/
                   333 10325 20151 58006 87360=

################################################################################
#  SYNOPS from 67477, Mpika (Zambia) | 11-54S | 031-26E | 1400 m
################################################################################
200611120600 AAXX 12064 67477 12980 20904 10255 20162 48516 69904 81031
                   333 10340 20175 59008 81361 81080=
200611101200 AAXX 10124 67477 42980 21203 10330 20110 48482 82200
                   333 58023 82858=
200611100600 AAXX 10064 67477 31980 10908 10250 20135 48521 81030
                   333 10307 20190 59005 81362=
200611070600 AAXX 07064 67477 31475 51214 10216 20145 48523 70521 85180
                   333 10320 20188 58010 85617 81362=
200611061200 AAXX 06124 67477 42880 41210 10310 20083 48478 84201
                   333 5//// 84857 81080=
200611060600 AAXX 06064 67477 32580 30303 10257 20133 48514 81101
                   333 10326 20165 59003 81823 83080=

################################################################################
#  SYNOPS from 67481, Isoka (Zambia) | 10-07S | 032-38E | 1360 m
################################################################################
200611100600 AAXX 10064 67481 11675 13602 10251 20158 48/// 69904 70500 81102
                   333 10339 20180 59017 81835 81080=
200611060600 AAXX 06064 67481 31675 23503 10244 20150 48/// 70520 81231
                   333 10326 20174 58005 81848 82362 81080=

################################################################################
#  SYNOPS from 67531, Zambezi (Zambia) | 13-32S | 023-07E | 1077 m
################################################################################
200611120600 AAXX 12064 67531 32980 20903 10220 20185 48/// 82032
                   333 10321 20173 59015 82362 81082=
200611070600 AAXX 07064 67531 12980 70902 10195 20171 48/// 69954 8707/
                   333 10266 20184 59009 87361=
200611061200 AAXX 06124 67531 41980 70000 10245 20184 48/// 70262 8707/
                   333 5//// 87260=
200611060600 AAXX 06064 67531 11980 71809 10175 20167 48/// 60064 79196 8707/
                   333 10309 20171 58013 87360=

################################################################################
#  SYNOPS from 67551, Solwezi (Zambia) | 12-11S | 026-23E | 1386 m
################################################################################
200611101200 AAXX 10124 67551 42680 41603 10298 20141 48503 84200
                   333 59020 84845=
200611100600 AAXX 10064 67551 11965 10203 10198 20173 48525 69934 70500 81032
                   333 10277 20160 59003 81362 81080=
200611090600 AAXX 09064 67551 11365 71303 10177 20170 48530 60044 70522 83637
                   333 10280 20170 59001 83708 85362 87280=
200611060600 AAXX 06064 67551 11965 70000 10181 20160 48518 60014 70522 87030
                   333 10287 20163 59004 87361=

################################################################################
#  SYNOPS from 67561, Ndola (Zambia) | 13-00S | 028-39E | 1269 m
################################################################################
200611100600 AAXX 10064 67561 31970 70611 10264 20119 48529 70522 80008
                   333 10336 20184 59024 87280=
200611060600 AAXX 06064 67561 31983 60000 10222 20163 48519 70422 86042
                   333 10332 20174 58000 86361 82080=

################################################################################
#  SYNOPS from 67563, Kafironda (Zambia) | 12-36S | 028-07E | 1243 m
################################################################################
200611100600 AAXX 10064 67563 31970 41503 10232 20150 48/// 70500 80001
                   333 10293 20154 59024 84080=

################################################################################
#  SYNOPS from 67571, Serenje (Zambia) | 13-14S | 030-13E | 1384 m
################################################################################
200611100600 AAXX 10064 67571 31975 40603 10251 20129 48524 70522 80001
                   333 10312 20182 59015 84080=
200611060600 AAXX 06064 67571 11975 73102 10241 20158 48513 69904 70522 82031
                   333 10327 20177 58003 82362 87080=

################################################################################
#  SYNOPS from 67581, Chipata (Zambia) | 13-33S | 032-35E | 1028 m
################################################################################
200611120600 AAXX 12064 67581 12980 10805 10292 20192 48531 69904 80001
                   333 10365 20210 59007 81080=
200611101200 AAXX 10124 67581 42880 10805 10357 20166 48054 81100
                   333 59030 81857=
200611100600 AAXX 10064 67581 31980 00818 10286 20164 48538
                   333 10320 20216 59020=

################################################################################
#  SYNOPS from 67599, Mfuwe (Zambia) | 13-16S | 031-56E | 568 m
################################################################################
200611090600 AAXX 09064 67599 32980 10000 10280 20157 48574 80001
                   333 10349 20/// 59009 81080=

################################################################################
#  SYNOPS from 67633, Mongu (Zambia) | 15-15S | 023-09E | 1052 m
################################################################################
200611100600 AAXX 10064 67633 11975 72001 10215 20182 48534 69904 70522 87030
                   333 10310 20203 59013 87360=
200611060600 AAXX 06064 67633 11673 80412 10211 20164 48525 60024 79599 8197/
                   333 10329 20195 58013 81930 88460=

################################################################################
#  SYNOPS from 67655, Mumbwa (Zambia) | 15-04S | 027-11E | 1216 m
################################################################################
200611060600 AAXX 06064 67655 31870 30000 10232 20166 48534 81031
                   333 10328 20195 58009 81358 83078=

################################################################################
#  SYNOPS from 67659, Kafue Polder (Zambia) | 15-46S | 027-55E | 978 m
################################################################################
200611100600 AAXX 10064 67659 31975 30904 10253 20133 48/// 70500 83082
                   333 10319 20166 83360 81080=

################################################################################
#  SYNOPS from 67662, Kabwe Agric (Zambia) | 14-24S | 028-30E | 1165 m
################################################################################
200611100600 AAXX 10064 67662 32980 41307 10253 20125 48/// 80002
                   333 10/// 20/// 84080=
200611090600 AAXX 09064 67662 31970 71206 10231 20135 48/// 70522 80008
                   333 10/// 20/// 5//// 87280=
200611061200 AAXX 06124 67662 41670 70907 10323 20141 48/// 71422 85260
                   333 81930 85836 86362=
200611060600 AAXX 06064 67662 11970 70906 10248 20148 48/// 60024 70522 87032
                   333 10/// 20/// 87363 84080=

################################################################################
#  SYNOPS from 67665, Lusaka Internationalairport (Zambia) | 15-19S | 028-27E | 1152 m
################################################################################
200611300900 AAXX 30094 67665 42580 30806 10256 20154 48537 81100
                   333 59004 81820=
200611291800 AAXX 29184 67665 42980 31601 10231 20170 48510 83030
                   333 59002 83360=
200611291200 AAXX 29124 67665 42680 41109 10286 20145 48520 84200
                   333 58006 84845=
200611290900 AAXX 29094 67665 42680 51110 10269 20170 48543 84202
                   333 59013 84835 81080=
200611290600 AAXX 29064 67665 32980 20810 10230 20159 48541 80002
                   333 10294 20170 58005 82080 Q1021.0=
200611282100 AAXX 28214 67665 42980 14003 10205 20182 48525 81030
                   333 58000 81360=
200611281200 AAXX 28124 67665 42680 41111 10284 20179 48514 84201
                   333 59011 84840 81080=
200611280900 AAXX 28094 67665 42580 41112 10262 20188 48529 84101
                   333 59016 84825 82080=
200611272100 AAXX 27214 67665 42980 11503 10187 20187 48521 81030
                   333 59008 81360=
200611270900 AAXX 27094 67665 42580 70612 10238 20194 48541 70222 8353/
                   333 58011 83625 86360 91021=
200611270600 AAXX 27064 67665 32480 71007 10199 20191 81130
                   333 10277 20176 58014 81815 87360=
200611250600 AAXX 25064 67665 11470 73005 10195 20195 48540 60164 71799 8193/
                   333 10293 20184 58000 81918 84612 87360=
200611250400 AAXX 25044 67665 41680 71703 10188 20188 48519 79592 8293/
                   333 58000 82930 87360=
200611242100 AAXX 24214 67665 42780 41203 10215 20215 48526 71322 81932
                   333 58015 81950 83360 82080=
200611241200 AAXX 24124 67665 42680 60506 10272 20204 48509 70222 82202
                   333 58012 82830 86080=
200611240600 AAXX 24064 67665 11358 80104 10187 20187 48540 69974 79596 8373/
                   333 10321 20172 58029 83708 819// 87359=
200611240400 AAXX 24044 67665 42980 83502 10201 20201 48522 8803/
                   333 58016 88360=
200611240300 AAXX 24034 67665 42380 41801 10196 20196 48517 81730
                   333 58017 81708 84360=
200611240000 AAXX 24004 67665 42780 62705 10198 20198 48510 81930
                   333 58019 81950 86360=
200611232100 AAXX 23214 67665 42780 70806 10198 20198 48510 81930
                   333 58008 81950 87360=
200611231800 AAXX 23184 67665 41680 71009 10210 20210 48507 76222 81930
                   333 58018 81948 87360=
200611231500 AAXX 23154 67665 42680 71512 10231 20231 48489 81932
                   333 58012 81940 86360 82080=
200611221200 AAXX 22124 67665 42680 61007 10317 20185 48504 85202
                   333 59017 81935 85835 81080 91015=
200611220900 AAXX 22094 67665 42580 30304 10291 20196 48523 82130
                   333 59013 82820 83360=
200611220400 AAXX 22044 67665 42680 71602 10218 20204 48517 8228/
                   333 59011 82825 87360=
200611211500 AAXX 21154 67665 42780 31610 10294 20200 48503 81230
                   333 59019 81950 81850 83360=
200611211200 AAXX 21124 67665 42680 30707 10293 20192 48516 83200
                   333 59025 83835=
200611210900 AAXX 21094 67665 42580 30709 10281 20193 48535 83100
                   333 59020 83820=
200611210600 AAXX 21064 67665 31959 10910 10233 20202 48540 70500 80001
                   333 10304 20176 59020 81080=
200611210400 AAXX 21044 67665 42980 21102 10177 20169 48524 81031
                   333 59013 81360 82080=
200611210300 AAXX 21034 67665 42980 21104 10181 20174 48521 81031
                   333 10304 59010 81360 82080=
200611202000 AAXX 20204 67665 42980 20301 10209 20187 48526 81031
                   333 10304 59010 81360 82080=
200611201200 AAXX 20124 67665 42680 30810 10291 20196 48541 83200
                   333 59002 83840=
200611200900 AAXX 20094 67665 42680 50713 10267 20201 48563 84502
                   333 58001 84630 81080=
200611200600 AAXX 20064 67665 32580 41014 10227 20211 48556 81502
                   333 10249 20177 58009 81620 84080=
200611191800 AAXX 19184 67665 41670 71901 10205 20205 48524 81232
                   333 10249 58031 81840 85360 87080=
200611190600 AAXX 19064 67665 11480 82103 10212 20212 48550 60054 76122 8157/
                   333 10314 20184 58029 81615 87459=
200611181500 AAXX 18154 67665 42780 61206 10279 20253 48483 81932
                   333 59005 81956 82856 83360 85080
                   555 10314=
200611171200 AAXX 17124 67665 42680 60106 10295 20208 48496 86201
                   333 59014 81940 85840 81080=
200611170900 AAXX 17094 67665 42680 50306 10272 20223 48526 85201
                   333 59010 85835 82080=
200611170600 AAXX 17064 67665 32480 40607 10221 20221 48527 83532
                   333 10288 20184 59012 83610 81360 83080=
200611161200 AAXX 16124 67665 42680 50207 10276 20214 48513 70222 85230
                   333 58021 85237 83360=
200611160900 AAXX 16094 67665 42580 50209 10243 20215 48532 85230
                   333 58018 85828 83360=
200611160600 AAXX 16064 67665 12380 70507 10196 20196 48535 60174 83770
                   333 10331 20181 58017 83706 86459=
200611160400 AAXX 16044 67665 41370 80309 10213 20213 48517 72166 8477/
                   333 58001 84705 88459=
200611160300 AAXX 16034 67665 41370 63506 10210 20210 48509 76066 83770
                   333 58015 83705 86459=
200611152100 AAXX 15214 67665 41657 71203 10209 20209 48531 79796 8197/
                   333 58011 81940 87460=
200611151800 AAXX 15184 67665 41675 70614 10201 20201 48502 71799 8197/
                   333 10331 59002 81940 87459=
200611151500 AAXX 15154 67665 42780 62709 10302 20193 48474 84902
                   333 59021 81950 84850 83080=
200611151200 AAXX 15124 67665 41680 52903 10308 20193 48490 85200
                   333 59013 85848 555 10142=
200611150900 AAXX 15094 67665 42580 63004 10265 20207 48516 83230
                   333 59009 83820 86360=
200611150600 AAXX 15064 67665 11370 62501 10204 20204 48520 70522 81782
                   333 10302 20165 59005 81707 85360 83080 91019=
200611150300 AAXX 15034 67665 42980 53005 10187 20187 48502 85082
                   333 59011 85360 84080 91017=
200611140600 AAXX 14064 67665 31659 73306 10208 20199 48525 70522 8117/
                   333 10299 20195 59001 81820 86460 91019=
200611140400 AAXX 14044 67665 41975 70306 10195 20186 48515 70522 8607/
                   333 59003 86460=
200611140300 AAXX 14034 67665 41770 63609 10205 20104 48513 71322 8193/
                   333 58005 819// 86360 91018=
200611131800 AAXX 13184 67665 41680 70802 10245 20186 48505 70522 8507/
                   333 58009 86360 81460 91016=
200611130900 AAXX 13094 67665 41970 73405 10261 20169 48525 70500 8707/
                   333 58003 87460=
200611121800 AAXX 12184 67665 41975 42903 10246 20186 48496 70522 84032
                   333 59011 84360 81080=
200611121500 AAXX 12154 67665 41775 71604 10308 20156 48480 70522 81932
                   333 59019 81950 87360 81080 555=
200611121200 AAXX 12124 67665 41575 71108 10320 20170 48502 81932
                   333 59014 81935 85840 83080=
200611120900 AAXX 12094 67665 41575 40607 10310 20176 48528 70500 84202
                   333 59007 84825 81080=
200611120600 AAXX 12064 67665 31960 43506 10261 20178 48534 70500 82032
                   333 10353 20141 59010 82360 83080=
200611110900 AAXX 11094 67665 41775 40707 10312 20138 48535 70522 81102
                   333 59002 81850 83080=
200611101200 AAXX 10124 67665 41875 20504 10332 20125 48512 70500 82130
                   333 59026 82857 81360=
200611100900 AAXX 10094 67665 41975 30809 10307 20124 48534 70522 83031
                   333 59027 83360 81080=
200611100600 AAXX 10064 67665 31975 41108 10235 20140 48546 70511 84301
                   333 10371 20167 59018 84360 81080=
200611091200 AAXX 09124 67665 42680 51104 10311 20149 48535 83101
                   333 59003 83845 85080=
200611090600 AAXX 09064 67665 32975 51011 10222 20158 48564 80008
                   333 10371 20171 58001 85080=
200611080600 AAXX 08064 67665 31460 40813 10206 20175 70500 84532
                   333 10285 20154 58016 84618 81360 81080=
200611080400 AAXX 08044 67665 41960 31103 10153 20153 48541 70500 82032
                   333 58015 82360 81080=
200611071800 AAXX 07184 67665 41970 31111 10214 20203 48533 80002
                   333 58022 83080=
200611070600 AAXX 07064 67665 31480 30819 10219 20180 48548 70520 84501
                   333 10336 20191 58021 83620 82080=
200611070300 AAXX 07034 67665 42980 21018 10198 20184 48527 80002
                   333 58020 82080=
200611070000 AAXX 07004 67665 42980 31107 10204 20103 48575 80001
                   333 5//// 83080=
200611061800 AAXX 06184 67665 41959 11107 10253 20110 48516 70500 80001
                   333 10336 58023 81080=
200611060900 AAXX 06094 67665 41459 10816 10308 20100 48528 70500 80020
                   333 58008 81080 91018=
200611051200 AAXX 05124 67665 41670 50511 10343 20152 48490 70522 85201
                   333 58000 85850 81080 91015=
200611041800 AAXX 04184 67665 42780 63305 10233 20181 48491 70500 81932
                   333 5//// 81950 84856 84360 83080 91015=
200611041200 AAXX 04124 67665 41659 40602 10339 20147 48487 70500 84230
                   333 58001 84850 81360 91013=
200611040600 AAXX 04064 67665 12970 62301 10247 20208 48510 69904 86030
                   333 10362 20207 59007 86360=
200611031200 AAXX 03124 67665 41760 40608 10348 20148 48486 70522 84200
                   333 59006 84850=
200611030600 AAXX 03064 67665 31975 13205 10255 20196 48517 70500 80002
                   333 10363 20219 59006 81080=
200611030400 AAXX 03044 67665 41975 22606 10210 20171 48494 70500 81032
                   333 5//// 81360 82080=
200611030300 AAXX 03034 67665 41975 12001 10207 20176 48487 70500 81032
                   333 5//// 81360 81080=
200611022100 AAXX 02214 67665 41975 11401 10241 20136 48497 70500 80002
                   333 5//// 81080=
200611020900 AAXX 02094 67665 41670 40412 10318 20157 48519 84200
                   333 58001 84830=
200611020600 AAXX 02064 67665 31958 10508 10277 20153 48526 70500 81030
                   333 10352 20199 58003 81360=
200611011800 AAXX 01184 67665 41980 11103 10263 20112 48495 70500 81030
                   333 58007 81360 91015=
200611011500 AAXX 01154 67665 41980 10507 10338 20112 48486 70500 81030
                   333 58008 81360 91013=
200611011200 AAXX 01124 67665 41780 11404 10342 20118 48496 70500 81100
                   333 58003 81857=

################################################################################
#  SYNOPS from 67666, Lusaka City Airport (Zambia) | 15-25S | 028-19E | 1280 m
################################################################################
200611101200 AAXX 10124 67666 42780 20906 10325 20157 48511 82100
                   333 59012 82850=
200611100600 AAXX 10064 67666 32980 30912 10245 20141 48535 83031
                   333 10310 20/// 59017 83360 81078=
200611090600 AAXX 09064 67666 31980 70811 10210 20146 48539 70500 81038
                   333 10290 20/// 58002 81362 86280=
200611061200 AAXX 06124 67666 42780 10710 10320 20140 48499 81100
                   333 58014 81856=
200611060600 AAXX 06064 67666 32980 20909 10250 20159 48520 82031
                   333 10345 20/// 58011 82362 81080=

################################################################################
#  SYNOPS from 67673, Petauke (Zambia) | 14-15S | 031-17E | 1035 m
################################################################################
200611100600 AAXX 10064 67673 31975 10708 10288 20115 48547 70500 80001
                   333 10330 20196 59026 81080=
200611090600 AAXX 09064 67673 31975 21508 10242 20131 48563 70500 82031
                   333 10312 20185 59005 82362 81080=
200611061200 AAXX 06124 67673 41880 51610 10338 20074 48516 70521 85200
                   333 58016 85857=
200611060600 AAXX 06064 67673 31980 10306 10279 20142 48538 70500 81030
                   333 10367 20222 58015 81362=

################################################################################
#  SYNOPS from 67731, Senanga (Zambia) | 16-06S | 023-16E | 1027 m
################################################################################
200611100600 AAXX 10064 67731 11975 80901 10215 20184 48/// 60024 70522 87078
                   333 10/// 20/// 59004 87460 87280=

################################################################################
#  SYNOPS from 67741, Sesheke (Zambia) | 17-28S | 024-18E | 949 m
################################################################################
200611100600 AAXX 10064 67741 11980 72603 10210 20184 48540 69904 72162 87070
                   333 10374 20194 59008 87362=

################################################################################
#  SYNOPS from 67743, Livingstone (Zambia) | 17-49S | 025-49E | 985 m
################################################################################
200611100600 AAXX 10064 67743 41980 82003 10228 20116 48540 69904 8807/
                   333 10336 20222 59017 88360=
200611070600 AAXX 07064 67743 12980 71110 10199 20148 48548 70200 82530
                   333 10220 20175 58023 82610 85362=
200611061200 AAXX 06124 67743 41958 81409 10215 20185 48530 72562 8807/
                   333 58047 88460=
200611060600 AAXX 06064 67743 12975 81203 10215 20198 48528 60234 70200 8807/
                   333 10347 20196 58018 88460=

################################################################################
#  SYNOPS from 67753, Choma (Zambia) | 16-50S | 027-04E | 1213 m
################################################################################
200611200900 AAXX 20094 67753 42580 30611 10275 20196 48555 83101
                   333 59009 83825 81080=
200611100600 AAXX 10064 67753 31970 53603 10262 20127 48/// 70522 80002
                   333 10319 20179 5//// 85280=
200611070600 AAXX 07064 67753 32480 70910 10178 20138 48/// 8553/
                   333 10332 20155 5//// 85612 87362=
200611061200 AAXX 06124 67753 42780 70910 10270 20129 48/// 82138
                   333 5//// 82850 83360 87280=
200611060600 AAXX 06064 67753 12980 71014 10222 20150 48/// 69904 86038
                   333 10332 20187 86360 87280=

################################################################################
#  SYNOPS from 67855, Lupaki (Zambia) | 17-03-00S | 024-46-00E | 1000 m
################################################################################
200612010000 AAXX 01004 67855 NIL=
200611301800 AAXX 30184 67855 NIL=
200611301200 AAXX 30124 67855 NIL=
200611300600 AAXX 30064 67855 31970 01301 10226 20152 3//// 48/// 70500
                   333 20135 5////=
200611300000 AAXX 30004 67855 NIL=
200611291200 AAXX 29124 67855 NIL=
200611290600 AAXX 29064 67855 31970 11001 10240 20138 3//// 48/// 70500 80001
                   333 20146 5//// 81080=
200611290000 AAXX 29004 67855 NIL=
200611281800 AAXX 28184 67855 NIL=
200611281200 AAXX 28124 67855 NIL=
200611280600 AAXX 28064 67855 31970 20801 10236 20169 3//// 48/// 70500 81031
                   333 20155 5//// 81360=
200611280000 AAXX 28004 67855 NIL=
200611271800 AAXX 27184 67855 NIL=
200611271200 AAXX 27124 67855 NIL=
200611270600 AAXX 27064 67855 31570 41001 10224 20164 3//// 48/// 70511 81131
                   333 20164 5//// 81827 83080=
200611270000 AAXX 27004 67855 NIL=
200611261800 AAXX 26184 67855 NIL=
200611261200 AAXX 26124 67855 NIL=
200611260600 AAXX 26064 67855 NIL=
200611260000 AAXX 26004 67855 NIL=
200611251800 AAXX 25184 67855 NIL=
200611251200 AAXX 25124 67855 NIL=
200611250600 AAXX 25064 67855 NIL=
200611250000 AAXX 25004 67855 NIL=
200611241800 AAXX 24184 67855 NIL=
200611241200 AAXX 24124 67855 NIL=
200611240600 AAXX 24064 67855 11370 70000 10216 20193 3//// 48/// 60174 70522 81671
                   333 20169 5//// 81708 87460=
200611240000 AAXX 24004 67855 NIL=
200611231800 AAXX 23184 67855 NIL=
200611231200 AAXX 23124 67855 NIL=
200611230600 AAXX 23064 67855 11465 81801 10180 20180 3//// 48/// 60144 79596 81973
                   333 20170 5//// 81915 88460=
200611230000 AAXX 23004 67855 NIL=
200611221800 AAXX 22184 67855 NIL=
200611221200 AAXX 22124 67855 NIL=
200611220600 AAXX 22064 67855 31970 10501 10268 20191 3//// 48/// 70500 81030
                   333 20190 5//// 81360=
200611220000 AAXX 22004 67855 NIL=
200611211800 AAXX 21184 67855 NIL=
200611211200 AAXX 21124 67855 NIL=
200611210600 AAXX 21064 67855 31970 00901 10236 20182 3//// 48/// 70500
                   333 20160 5////=
200611210000 AAXX 21004 67855 NIL=
200611201800 AAXX 20184 67855 NIL=
200611201200 AAXX 20124 67855 NIL=
200611200600 AAXX 20064 67855 11470 10902 10230 20173 3//// 48/// 60024 70500 81630
                   333 20180 5//// 81710=
200611200000 AAXX 20004 67855 NIL=
200611191800 AAXX 19184 67855 NIL=
200611191200 AAXX 19124 67855 NIL=
200611190600 AAXX 19064 67855 NIL=
200611190000 AAXX 19004 67855 NIL=
200611181800 AAXX 18184 67855 NIL=
200611181200 AAXX 18124 67855 NIL=
200611150600 AAXX 15064 67855 NIL=
200611150000 AAXX 15004 67855 NIL=
200611141800 AAXX 14184 67855 NIL=
200611120600 AAXX 12064 67855 NIL=
200611120000 AAXX 12004 67855 NIL=
200611111800 AAXX 11184 67855 NIL=
200611111200 AAXX 11124 67855 NIL=
200611110600 AAXX 11064 67855 NIL=
200611110000 AAXX 11004 67855 NIL=
200611101800 AAXX 10184 67855 NIL=
200611101200 AAXX 10124 67855 NIL=
200611100600 AAXX 10064 67855 NIL=
200611100000 AAXX 10004 67855 NIL=
200611091800 AAXX 09184 67855 NIL=
200611091200 AAXX 09124 67855 NIL=
200611090600 AAXX 09064 67855 NIL=
200611090000 AAXX 09004 67855 NIL=
200611081800 AAXX 08184 67855 NIL=
200611081200 AAXX 08124 67855 NIL=
200611080600 AAXX 08064 67855 NIL=
200611080000 AAXX 08004 67855 NIL=
200611071800 AAXX 07184 67855 NIL=
200611071200 AAXX 07124 67855 NIL=
200611070600 AAXX 07064 67855 11470 81501 10178 20128 3//// 48/// 69994 70522 8767/
                   333 20165 5//// 87710 88460=
200611070000 AAXX 07004 67855 NIL=
200611061800 AAXX 06184 67855 NIL=
200611061200 AAXX 06124 67855 NIL=
200611060600 AAXX 06064 67855 NIL=
200611060000 AAXX 06004 67855 NIL=
200611051800 AAXX 05184 67855 NIL=
200611051200 AAXX 05124 67855 NIL=
200611050600 AAXX 05064 67855 NIL=
200611050000 AAXX 05004 67855 NIL=
200611041800 AAXX 04184 67855 NIL=
200611041200 AAXX 04124 67855 NIL=
200611040600 AAXX 04064 67855 NIL=
200611040000 AAXX 04004 67855 NIL=
200611031800 AAXX 03184 67855 NIL=
200611031200 AAXX 03124 67855 NIL=
200611030600 AAXX 03064 67855 31970 40000 10258 20153 3//// 48/// 70511 81031
                   333 20170 5//// 81360 84080=
200611030000 AAXX 03004 67855 NIL=
200611021800 AAXX 02184 67855 NIL=
200611021200 AAXX 02124 67855 NIL=
200611020600 AAXX 02064 67855 NIL=
200611020000 AAXX 02004 67855 NIL=
200611011800 AAXX 01184 67855 NIL=
200611011200 AAXX 01124 67855 NIL=
200611010600 AAXX 01064 67855 NIL=
