################################################################################
# Query made at 04/14/2022 02:56:03 UTC
# Country like Zamb*
# Time interval: from 11/01/2018 05:30  to 12/01/2018 06:30  UTC
################################################################################

################################################################################
#  SYNOPS from 67403, Kawambwa (Zambia) | 09-48S | 029-05E | 1323 m
################################################################################
201811300600 AAXX 30064 67403 12980 50901 10205 20181 48505 60024 85030
                   333 10322 20184 59003 85360
                   555 00183=
201811291200 AAXX 29124 67403 NIL=
201811290600 AAXX 29064 67403 11975 50903 10233 20172 48510 69984 70522 8////
                   333 10304 20190 59010 85360 81080
                   555 00186=
201811280600 AAXX 28064 67403 11975 70901 10190 20176 48518 60074 76166 8703/
                   333 10312 20178 58003 87360
                   555 00188=
201811270600 AAXX 27064 67403 11975 71401 10200 20173 48515 69984 72166 86031
                   333 10318 20176 58002 86360 83080
                   555 00182=
201811260600 AAXX 26064 67403 11380 50901 10216 20184 48514 60044 70322 81531
                   333 10278 20186 59014 81608 85360 81080
                   555 00184=
201811230900 AAXX 23094 67403 NIL=
201811210600 AAXX 21064 67403 11973 60801 10230 20185 48520 60024 70522 85031
                   333 10320 20176 59002 85360 84080=
201811200600 AAXX 20064 67403 32980 20802 10230 20177 48522 80001
                   333 10262 20170 59013 82080
                   555 00172=
201811190600 AAXX 19064 67403 31475 60905 10210 20168 48534 70322 82531
                   333 10310 20//0 5//// 82615 83360 82080
                   555 00175=
201811161200 AAXX 16124 67403 NIL=
201811160900 AAXX 16094 67403 NIL=
201811160600 AAXX 16064 67403 11975 83201 10206 20184 48522 60064 70522 8703/
                   333 10302 20190 58017 87360
                   555 00188=
201811150600 AAXX 15064 67403 31975 30802 10236 20157 48507 70520 82031
                   333 10324 20193 58013 82360 82080
                   555 00182=
201811140600 AAXX 14064 67403 31975 51005 10227 20143 48494 70522 82031
                   333 10316 20186 59015 82360 85080
                   555 00166=
201811090600 AAXX 09064 67403 11375 82001 10182 20177 48530 60254 72166 8173/
                   333 10304 20176 58013 81706 87360
                   555 00185=
201811080600 AAXX 08064 67403 11975 40903 10236 20173 48510 60044 70562 84031
                   333 10362 20191 58011 84360 81080
                   555 00191=
201811070600 AAXX 07064 67403 11975 20901 10244 20184 48510 69904 70500 82081
                   333 10310 20184 58001 82360 81080
                   555 00172=
201811060900 AAXX 06094 67403 NIL=
201811021200 AAXX 02124 67403 NIL=
201811020600 AAXX 02064 67403 11975 30902 10239 20184 48509 60064 70500 80001
                   333 10313 20176 59002 83080
                   555 00174=

################################################################################
#  SYNOPS from 67413, Mbala (Zambia) | 08-51S | 031-20E | 1673 m
################################################################################
201811291200 AAXX 29124 67413 NIL=
201811290600 AAXX 29064 67413 32580 50000 10215 20151 48530 81132
                   333 10300 20176 59005 81825 83358 84070 91023=
201811280600 AAXX 28064 67413 32680 80000 10215 20134 48535 82138
                   333 10275 20180 59002 83830 85270 91024=
201811230900 AAXX 23094 67413 NIL=
201811190600 AAXX 19064 67413 NIL=
201811161200 AAXX 16124 67413 NIL=
201811160900 AAXX 16094 67413 NIL=
201811130600 AAXX 13064 67413 32980 31006 10187 20160 48524 80002
                   333 10272 20090 59015 83080 91022=
201811120600 AAXX 12064 67413 12980 41008 10205 20158 48538 60834 84030
                   333 10//0 20090 59002 84359 91024=
201811090900 AAXX 09094 67413 42480 70503 10240 20144 48536 82108
                   333 58004 82825 85280 91024=
201811090600 AAXX 09064 67413 12980 61004 10200 20161 48538 80004
                   333 10289 20104 58002 86280
                   555 00104 91024=
201811080600 AAXX 08064 67413 32978 30909 10205 20140 48540 83030
                   333 1//// 20100 58007 83360 91024=
201811070600 AAXX 07064 67413 32980 30000 10228 20143 48532 83030
                   333 10/// 20100 58003 83360 91023=
201811060900 AAXX 06094 67413 NIL=
201811021200 AAXX 02124 67413 NIL=
201811020900 AAXX 02094 67413 42480 60000 10260 20140 48/// 82108
                   333 5//// 82835 85280=
201811020600 AAXX 02064 67413 12980 50000 10205 20166 48529 60014 80008
                   333 10265 20098 59004 85280
                   555 00098 91023=
201811011200 AAXX 01124 67413 41580 53005 10240 20163 48499 71791 81302
                   333 5//// 81930 83830 81080 91020=
201811010900 AAXX 01094 67413 42580 10000 10233 20154 48523 81100
                   333 58005 81830 91022=
201811010600 AAXX 01064 67413 12980 70000 10180 20156 48534 60404 8707/
                   333 10//0 20070 58008 87359
                   555 00070 91023=

################################################################################
#  SYNOPS from 67441, Mwinilunga (Zambia) | 11-45S | 024-26E | 1361 m
################################################################################
201811300600 AAXX 30064 67441 31980 71801 10230 20162 48545 70522 8703/
                   333 10310 20//0 58000 87360=
201811291200 AAXX 29124 67441 41680 70000 10300 20147 48/// 71722 8732/
                   333 5//// 85940 82460=
201811290600 AAXX 29064 67441 11980 70000 10200 20184 48545 60114 70522 8703/
                   333 10250 20//0 59013 87360=
201811280600 AAXX 28064 67441 11980 70000 10190 20173 48552 60134 70522 8702/
                   333 10290 20//0 58005 87460=
201811271200 AAXX 27124 67441 41680 50000 10290 20154 48521 70522 85230
                   333 58004 84845 81360=
201811270600 AAXX 27064 67441 11980 70000 10190 20173 48547 60034 70522 8703/
                   333 10270 20//0 58001 87360=
201811260900 AAXX 26094 67441 41680 70501 10260 20158 48547 70522 8723/
                   333 5//// 84840 83360=
201811260600 AAXX 26064 67441 11980 70000 10210 20176 48552 60034 70522 8703/
                   333 10270 20//0 59011 87360=
201811231200 AAXX 23124 67441 41680 50000 10260 20158 48532 70522 85220
                   333 58002 83840 82460=
201811230900 AAXX 23094 67441 41680 71801 10230 20179 48562 70522 8713/
                   333 58008 83840 84360=
201811210600 AAXX 21064 67441 31980 83203 10200 20166 48560 70522 8807/
                   333 10310 20//0 58002 88360=
201811201200 AAXX 20124 67441 41680 61801 10310 20116 48523 70511 86100
                   333 59021 86850=
201811200600 AAXX 20064 67441 31975 40000 10200 20165 48558 70500 84030
                   333 10270 20//0 59003 84360=
201811190600 AAXX 19064 67441 11980 70000 10180 20163 48555 60024 70522 8702/
                   333 10300 20//0 58008 87460=
201811161200 AAXX 16124 67441 41680 61801 10290 20137 48557 70511 86270
                   333 5//// 84850 82360=
201811160900 AAXX 16094 67441 41680 61801 10290 20137 48557 70511 86270
                   333 5//// 84850 82360=
201811160600 AAXX 16064 67441 31980 13201 10220 20152 48557 70500 81030
                   333 10310 2//// 5//// 81360=
201811141200 AAXX 14124 67441 41980 70000 10290 20086 48513 70522 8701/
                   333 59008 87460=
201811140900 AAXX 14094 67441 41980 62301 10290 20075 48534 70522 86010
                   333 59021 86460=
201811140600 AAXX 14064 67441 31980 50000 10190 20105 48536 70522 85010
                   333 10310 20/// 59014 85460=
201811090900 AAXX 09094 67441 41680 80000 10190 20173 48568 72522 8853/
                   333 58017 86630 82360=
201811090600 AAXX 09064 67441 11980 80000 10180 20163 48565 60214 70522 8807/
                   333 10280 20//0 58013 88360=
201811081200 AAXX 08124 67441 41670 80000 10220 20203 48536 76099 8832/
                   333 58020 85935 83460=
201811080900 AAXX 08094 67441 41680 71601 10270 20150 48557 70522 8723/
                   333 58011 84840 83360=
201811080600 AAXX 08064 67441 31980 70000 10210 20176 48558 70522 8701/
                   333 10310 20/// 58012 87460=
201811071200 AAXX 07124 67441 41680 71601 10300 20147 48520 70522 8721/
                   333 58005 84850 83460=
201811070900 AAXX 07094 67441 41980 71601 10280 20160 48546 70522 8705/
                   333 58015 87360=
201811070600 AAXX 07064 67441 31980 70000 10200 20166 48546 70522 8703/
                   333 10310 20//0 59002 87360=
201811060900 AAXX 06094 67441 NIL=
201811021200 AAXX 02124 67441 NIL=
201811020600 AAXX 02064 67441 31975 40000 10220 20152 48539 70500 84010
                   333 10310 20//0 58003 84460=
201811010600 AAXX 01064 67441 33980 12701 10190 20105 48532 60354 70500
                   333 10300 20/// 59006 81360=

################################################################################
#  SYNOPS from 67461, Mansa (Zambia) | 11-06S | 028-51E | 1382 m
################################################################################
201811300600 AAXX 30064 67461 32580 71209 10218 20175 48500 875//
                   333 10305 20170 59001 87623=
201811291200 AAXX 29124 67461 NIL=
201811290600 AAXX 29064 67461 12980 51208 10230 20175 48502 60014 84035
                   333 10299 20175 59017 84360 82080 91016=
201811280600 AAXX 28064 67461 11965 80604 10189 20183 48515 60134 76166 8802/
                   333 10304 20172 58006 88460 91018=
201811270600 AAXX 27064 67461 11480 81804 10180 20168 48510 60194 72166 8112/
                   333 10312 20168 59006 81818 88460 91017=
201811260900 AAXX 26094 67461 42680 70609 10274 20156 48504 8113/
                   333 59018 81842 87360 91016=
201811260600 AAXX 26064 67461 12580 71006 10215 20191 48518 60034 8153/
                   333 10284 20172 59010 81623 87360 91018=
201811231200 AAXX 23124 67461 42580 70405 10240 20175 48496 8133/
                   333 58022 84837 85360 91016=
201811230900 AAXX 23094 67461 42580 70202 10254 20170 48531 8423/
                   333 58011 84830 86360 91019=
201811201200 AAXX 20124 67461 42780 51902 10311 20144 48488 85200
                   333 59035 85856 91014=
201811200900 AAXX 20094 67461 42680 41202 10279 20164 48522 81230
                   333 59022 82840 82360 91018=
201811200600 AAXX 20064 67461 32580 61103 10212 20182 48528 84530
                   333 10270 20164 59006 84620 83360 91019=
201811190900 AAXX 19094 67461 42580 71904 10218 20171 48539 8653/
                   333 58021 86620 87360 91021=
201811190600 AAXX 19064 67461 12480 70802 10200 20181 48526 60094 8357/
                   333 10313 20170 58014 83614 87460 91020=
201811161200 AAXX 16124 67461 NIL=
201811160900 AAXX 16094 67461 41775 70802 10273 20165 48533 70522 81238
                   333 58020 81850 83360 85280 91019=
201811160600 AAXX 16064 67461 31975 70000 10232 20164 48529 70522 84038
                   333 10318 20170 58013 84360 85280 91019=
201811150600 AAXX 15064 67461 31975 60807 10232 20106 48516 70522 80008
                   333 10310 20163 58009 86280 91018=
201811141200 AAXX 14124 67461 41975 71204 10299 20109 48481 70522 80008
                   333 59002 87280 91013=
201811140600 AAXX 14064 67461 31975 71105 10214 20090 48505 70522 80008
                   333 10325 20163 59007 87280 91017=
201811090600 AAXX 09064 67461 11375 81803 10200 20185 48515 60034 70522 8667/
                   333 10328 20178 58009 86709 88360 91018=
201811080900 AAXX 08094 67461 42680 21211 10298 20153 48511 81105
                   333 58012 81848 82080 91017=
201811080600 AAXX 08064 67461 32980 71207 10238 20160 48509 8707/
                   333 10358 20202 58011 87360 91017=
201811070900 AAXX 07094 67461 42780 12406 10318 20155 48501 81101
                   333 58000 81852 81080 91015=
201811070600 AAXX 07064 67461 32980 62905 10259 20175 48499 80001
                   333 10349 20170 59002 86280 91016=
201811060900 AAXX 06094 67461 42780 10306 10309 20134 48500 81100
                   333 59003 81850 91015=
201811021200 AAXX 02124 67461 NIL=
201811020900 AAXX 02094 67461 42680 23408 10290 20150 48487 82101
                   333 58000 82848 81080 91014=
201811020600 AAXX 02064 67461 32980 03206 10249 20175 48486
                   333 10318 20162 59005 91014=

################################################################################
#  SYNOPS from 67469, Samfya (Zambia) | 11-22S | 029-54E | 1171 m
################################################################################
201811291200 AAXX 29124 67469 NIL=
201811230900 AAXX 23094 67469 NIL=
201811190600 AAXX 19064 67469 NIL=
201811161200 AAXX 16124 67469 NIL=
201811160900 AAXX 16094 67469 NIL=
201811060900 AAXX 06094 67469 NIL=
201811021200 AAXX 02124 67469 NIL=

################################################################################
#  SYNOPS from 67475, Kasama (Zambia) | 10-13S | 031-08E | 1382 m
################################################################################
201811300600 AAXX 30064 67475 11360 71112 10205 20174 48518 69904 70522 8367/
                   333 10304 20175 59005 83705 87360 91020=
201811291200 AAXX 29124 67475 41660 40507 10282 20164 48484 70522 84205
                   333 59003 81940 83840 84080 91015=
201811290600 AAXX 29064 67475 11960 61510 10225 20179 48524 60104 70522 85071
                   333 10320 20168 59002 85460 82080 91020=
201811280600 AAXX 28064 67475 11960 50905 10235 20171 48527 69904 70522 84071
                   333 10304 20175 58000 84360 82080=
201811270600 AAXX 27064 67475 31960 33606 10226 20174 48526 70521 80001
                   333 10301 20177 59003 83080=
201811260600 AAXX 26064 67475 11960 81103 10218 20177 48529 69914 70522 8707/
                   333 10272 20167 59013 87460 91021=
201811231200 AAXX 23124 67475 41660 73307 10214 20193 48497 72999 8427/
                   333 58009 81930 83830 87460 91017=
201811230900 AAXX 23094 67475 41660 81814 10226 20189 48529 79522 8527/
                   333 58006 81925 84830 88460 91021=
201811210600 AAXX 21064 67475 31960 43405 10225 20177 48527 70522 83031
                   333 10290 20195 59005 83360 82080=
201811200600 AAXX 20064 67475 11460 41205 10210 20172 48530 60024 70500 82501
                   333 10253 20155 59012 82612 83080 91021=
201811190600 AAXX 19064 67475 11340 81601 10174 20174 48542 60224 76066 877//
                   333 10328 20187 58014 87709 91022=
201811161200 AAXX 16124 67475 41660 81405 10277 20123 48506 71722 878//
                   333 58021 81950 86460 85280 91018=
201811160900 AAXX 16094 67475 41660 80905 10289 20146 48526 70522 82278
                   333 58013 82835 84460 86280 91020=
201811160600 AAXX 16064 67475 11960 80405 10222 20145 48524 60054 70522 82078
                   333 10312 20174 5//// 82460 88280 91021=
201811151200 AAXX 15124 67475 41760 61309 10299 20114 48485 70522 85851
                   333 84360 86280 91015=
201811150600 AAXX 15064 67475 31960 61206 10234 20152 48521 70522 80008
                   333 10322 20171 58010 86280 91020=
201811141200 AAXX 14124 67475 41760 80908 10305 20104 48475 70522 84207
                   333 59012 84850 88280 91014=
201811140600 AAXX 14064 67475 31960 81210 10229 20132 48511 70522 80007
                   333 10320 20174 59015 88280 91019=
201811130600 AAXX 13064 67475 31960 01214 10228 20167 48526 70500
                   333 10314 20182 59012 91020=
201811120600 AAXX 12064 67475 11460 51108 10222 20156 48540 69904 70522 84571
                   333 10323 20151 59003 84615 83460 82080 91022=
201811090900 AAXX 09094 67475 41760 80903 10284 20152 48531 70522 8807/
                   333 58008 88460 91021=
201811090600 AAXX 09064 67475 31660 81407 10214 20159 48534 70522 84278
                   333 10330 20180 58004 84835 83460 86280 91021=
201811081200 AAXX 08124 67475 41660 80910 10323 20104 48495 70522 86201
                   333 58015 86850 85080 91016=
201811080900 AAXX 08094 67475 41660 70907 10290 20137 48525 70522 82201
                   333 58009 82835 86080 91020=
201811080600 AAXX 08064 67475 11960 60705 10244 20130 48532 69904 70522 80001
                   333 10346 20178 58015 85080 91020=
201811071200 AAXX 07124 67475 41760 51208 10334 20100 48478 70522 85200
                   333 58001 85850 91015=
201811070900 AAXX 07094 67475 41660 61207 10318 20131 48517 70510 83238
                   333 58005 83835 81360 85280 91019=
201811070600 AAXX 07064 67475 11960 23607 10252 20136 48517 69904 70521 81031
                   333 10351 20169 58003 81360 82080 91019=
201811061200 AAXX 06124 67475 41760 52503 10339 20068 48479 70522 85208
                   333 59004 85856 84280 91015=
201811060900 AAXX 06094 67475 NIL=
201811021200 AAXX 02124 67475 41660 80905 10325 20103 48476 70522 86101
                   333 59008 86840 87080 91014=
201811020900 AAXX 02094 67475 41660 73605 10297 20125 48510 70522 81178
                   333 58001 81830 86460 84280 91018=
201811020600 AAXX 02064 67475 31960 73602 10228 20151 48518 70522 86078
                   333 10260 20151 59001 86460 83280 91019=

################################################################################
#  SYNOPS from 67476, Misamfu (Zambia) | 10-06S | 031-15E | 1536 m
################################################################################
201811300600 AAXX 30064 67476 11475 71307 10205 20174 48/// 69904 76062 8247/
                   333 10300 20170 5//// 82615 87460=
201811291200 AAXX 29124 67476 42680 40802 10275 20152 48/// 70221 81973
                   333 58002 81943 82843 81360 81080=
201811290600 AAXX 29064 67476 12980 71206 10214 20177 48/// 60174 70222 84078
                   333 10310 20162 59004 84360 86280=
201811280600 AAXX 28064 67476 32980 61005 10239 20177 48/// 70222 82078
                   333 10309 20159 58000 82360 86280=
201811271200 AAXX 27124 67476 41680 70907 10291 20141 48/// 71522 81308
                   333 59007 81945 81845 87280=
201811270600 AAXX 27064 67476 12980 50205 10221 20180 48/// 60054 70222 80008
                   333 10300 20168 59004 85280=
201811261200 AAXX 26124 67476 42680 30908 10291 20140 48/// 70210 83231
                   333 5//// 83845 81360 81080=
201811260900 AAXX 26094 67476 42680 61307 10250 20165 48/// 70222 8123/
                   333 5//// 81830 86360=
201811260600 AAXX 26064 67476 12980 70905 10207 20173 48/// 69904 70222 8707/
                   333 10270 20160 5//// 87360=
201811230900 AAXX 23094 67476 NIL=
201811200900 AAXX 20094 67476 42680 50903 10260 20166 48/// 85230
                   333 59020 81930 85830 82360=
201811200600 AAXX 20064 67476 12580 31003 10220 20168 48/// 60014 70322 82130
                   333 10248 20143 59015 82820 83360=
201811190600 AAXX 19064 67476 11475 80000 10180 20177 48/// 60364 76698 8267/
                   333 10320 20163 5//// 82714 88458=
201811161200 AAXX 16124 67476 41660 70204 10275 20132 48/// 79522 8197/
                   333 5//// 81945 82847 87460=
201811160900 AAXX 16094 67476 41675 60312 10288 20118 48/// 70522 82231
                   333 58012 82835 85360 81080=
201811160600 AAXX 16064 67476 11973 60405 10221 20156 48/// 69914 70522 8603/
                   333 10314 20160 58011 86360=
201811151200 AAXX 15124 67476 41677 61207 10294 20123 48/// 70522 83232
                   333 58010 83847 83360 81080=
201811150600 AAXX 15064 67476 31973 60506 10291 20154 48/// 70522 81038
                   333 10310 20152 58009 81360 86280=
201811141200 AAXX 14124 67476 41777 70906 10307 20117 48/// 70522 83238
                   333 59012 83850 81360 87280=
201811140600 AAXX 14064 67476 31973 81309 10225 20137 48/// 70522 80008
                   333 10316 20147 59014 88280=
201811120600 AAXX 12064 67476 11474 21408 10211 20162 48/// 60014 70500 81430
                   333 10290 20142 5//// 81618 82360=
201811091200 AAXX 09124 67476 41677 61306 10291 20125 48/// 70522 85208
                   333 58008 85845 84280=
201811090900 AAXX 09094 67476 41675 71207 10248 20150 48/// 70522 878//
                   333 58009 81830 86632=
201811090600 AAXX 09064 67476 31473 71108 10217 20159 48/// 70522 83438
                   333 10322 20175 58005 83617 81360 87280=
201811081200 AAXX 08124 67476 41676 61808 10311 20123 48/// 70522 85208
                   333 58016 85848 84280=
201811080900 AAXX 08094 67476 41775 21308 10290 20130 48/// 70500 82200
                   333 58009 82835=
201811080600 AAXX 08064 67476 11973 10906 10239 20152 48/// 60034 70500 80001
                   333 10340 20162 58014 81080=
201811071200 AAXX 07124 67476 41770 32508 10335 20105 48/// 70511 83202
                   333 58000 83850 82080=
201811070900 AAXX 07094 67476 41675 43507 10302 20125 48/// 70500 82230
                   333 58006 82835 83360=
201811070600 AAXX 07064 67476 31973 10804 10255 20141 48/// 70500 81030
                   333 10330 20160 58002 81360=
201811061200 AAXX 06124 67476 41677 40203 10318 20093 48/// 70510 84230
                   333 59006 84848 81360=
201811060900 AAXX 06094 67476 41676 21306 10312 20113 48/// 70500 82200
                   333 59004 82835=
201811021200 AAXX 02124 67476 NIL=
201811020600 AAXX 02064 67476 11975 40406 10230 20144 48/// 69904 70522 81038
                   333 10312 20135 59000 81360 84280=
201811011200 AAXX 01124 67476 41672 71904 10306 20118 48/// 71722 81973
                   333 5//// 81942 84845 85360 82080=
201811010600 AAXX 01064 67476 31975 70106 10206 20146 48/// 70522 8707/
                   333 10320 20145 58010 87360=

################################################################################
#  SYNOPS from 67477, Mpika (Zambia) | 11-54S | 031-26E | 1400 m
################################################################################
201811300600 AAXX 30064 67477 31375 71203 10190 20175 48528 75152 84770
                   333 10294 20176 58004 84706 87359
                   555 00174=
201811291200 AAXX 29124 67477 NIL=
201811290600 AAXX 29064 67477 12680 60905 10234 20140 48526 69904 82530
                   333 10298 20178 59001 82630 85361
                   555 00168=
201811280600 AAXX 28064 67477 12980 40903 10232 20196 48527 69904 82031
                   333 10280 20180 58000 82361 83080
                   555 00168=
201811270600 AAXX 27064 67477 32680 30903 10245 20179 48528 81531
                   333 10270 20186 59007 81630 81361 83080
                   555 00158=
201811260900 AAXX 26094 67477 42580 61203 10240 20174 48529 82530
                   333 5//// 82629 86360=
201811260600 AAXX 26064 67477 12480 71204 10210 20182 48533 69904 82570
                   333 10244 20173 59016 82614 87359
                   555 00160=
201811231200 AAXX 23124 67477 41580 72702 10226 20191 48508 72999 83570
                   333 58027 83624 87360=
201811230900 AAXX 23094 67477 41575 72101 10205 20182 48533 71796 85570
                   333 58012 87194 85624 87459=
201811210600 AAXX 21064 67477 32980 71201 10219 20189 48533 87070
                   333 10268 20183 59006 87360=
201811201200 AAXX 20124 67477 41680 31202 10260 20170 48510 71721 83200
                   333 59003 81942 83842=
201811200900 AAXX 20094 67477 42580 30909 10230 20180 48533 83500
                   333 59011 83620=
201811200600 AAXX 20064 67477 32380 71210 10190 20161 48538 60304 72842 82670
                   333 10280 20155 59007 82708 87359
                   555 00154=
201811191200 AAXX 19124 67477 42580 70904 10234 20174 48545 84570
                   333 5//// 84627 87360=
201811190600 AAXX 19064 67477 11375 71202 10196 20180 48546 60094 75055 82770
                   333 10322 20176 58019 82706 87359
                   555 00174=
201811161200 AAXX 16124 67477 NIL=
201811160900 AAXX 16094 67477 41675 50905 10274 20152 48542 70522 82532
                   333 58018 82645 83361 82080=
201811160600 AAXX 16064 67477 31975 61205 10245 20143 48540 70522 80006
                   333 10314 20175 58012 86280
                   555 00170=
201811151200 AAXX 15124 67477 41775 40903 10303 20110 48498 70520 84200
                   333 58009 84856=
201811150600 AAXX 15064 67477 31975 41506 10232 20110 48527 70522 80001
                   333 10298 20182 58012 84080
                   555 00172=
201811141200 AAXX 14124 67477 42980 70902 10288 20093 48488 80006
                   333 59015 87280=
201811140600 AAXX 14064 67477 32980 41205 10227 20099 48515 80001
                   333 10302 20166 59019 84080
                   555 00164=
201811120600 AAXX 12064 67477 32980 01207 10226 20080 48546
                   333 10306 20178 58000
                   555 00164=
201811090900 AAXX 09094 67477 42480 71503 10199 20155 48548 83570
                   333 58012 83617 87360=
201811090600 AAXX 09064 67477 32380 71205 10178 20151 48550 85670
                   333 10298 20171 58001 85708 87359
                   555 00169=
201811081200 AAXX 08124 67477 41776 50905 10288 20155 48515 70522 84201
                   333 58026 84856 82080=
201811080900 AAXX 08094 67477 41675 41212 10265 20150 48539 70521 84500
                   333 58022 84645=
201811080600 AAXX 08064 67477 31675 51205 10235 20170 48543 70522 83530
                   333 10350 20211 58019 83630 82360
                   555 00202=
201811071200 AAXX 07124 67477 42780 21203 10334 20100 48490 82100
                   333 58008 82856=
201811070900 AAXX 07094 67477 42780 11202 10320 20130 48518 81100
                   333 58001 81856=
201811070600 AAXX 07064 67477 32980 00902 10270 20152 48525
                   333 10342 20177 58002
                   555 00168=
201811061200 AAXX 06124 67477 41775 32402 10331 20132 48484 70500 83200
                   333 59002 83856=
201811060900 AAXX 06094 67477 41675 11202 10307 20128 48517 70500 81100
                   333 59007 81845=
201811021200 AAXX 02124 67477 NIL=
201811011200 AAXX 01124 67477 41680 60000 10318 20110 48490 71722 84270
                   333 58012 81950 84850 83466=

################################################################################
#  SYNOPS from 67481, Isoka (Zambia) | 10-07S | 032-38E | 1360 m
################################################################################
201811300600 AAXX 30064 67481 32480 73004 10206 20182 48/// 875//
                   333 10325 20182 5//// 87610=
201811291200 AAXX 29124 67481 NIL=
201811290600 AAXX 29064 67481 32980 30302 10230 20171 48/// 81031
                   333 10324 20187 5//// 81360 83080=
201811280900 AAXX 28094 67481 42680 52202 10286 20142 48/// 81101
                   333 5//// 81830 85080=
201811280600 AAXX 28064 67481 32980 50000 10242 20170 48/// 80001
                   333 10320 20190 5//// 85080=
201811271200 AAXX 27124 67481 42680 52703 10292 20148 48/// 85201
                   333 5//// 85840 82080=
201811270600 AAXX 27064 67481 12980 52102 10233 20175 48/// 60024 80001
                   333 10300 20168 5//// 85080=
201811230900 AAXX 23094 67481 NIL=
201811201200 AAXX 20124 67481 41678 63002 10290 20168 48/// 70522 85232
                   333 5//// 81930 85830 83361 82080=
201811200900 AAXX 20094 67481 41578 53002 10250 20175 48/// 70522 85130
                   333 5//// 85820 84361=
201811200600 AAXX 20064 67481 11373 80302 10182 20179 48/// 60024 72844 886//
                   333 10280 20162 5//// 88707=
201811190600 AAXX 19064 67481 12975 30000 10230 20170 48/// 69904 70510 83031
                   333 10330 20176 5//// 83360 82080=
201811161200 AAXX 16124 67481 NIL=
201811160900 AAXX 16094 67481 NIL=
201811160600 AAXX 16064 67481 31975 32702 10260 20148 48/// 70500 80001
                   333 10315 20180 5//// 83080=
201811150600 AAXX 15064 67481 31975 02703 10248 20137 48/// 70500
                   333 10308 20172 5////=
201811141200 AAXX 14124 67481 41675 72803 10304 20110 48/// 70522 85202
                   333 5//// 85840 86080=
201811140600 AAXX 14064 67481 31975 60602 10232 20146 48/// 70522 80002
                   333 10320 20156 5//// 86080=
201811130600 AAXX 13064 67481 31975 00904 10231 20156 48/// 70500
                   333 10300 20174 5////=
201811120600 AAXX 12064 67481 31575 52703 10238 20154 48/// 70522 81130
                   333 10300 20172 5//// 81825 84080=
201811090600 AAXX 09064 67481 31475 60902 10212 20166 48/// 70522 86500
                   333 10330 20192 5//// 86615=
201811080600 AAXX 08064 67481 31975 03002 10270 20136 48/// 70500
                   333 10360 20182 5////=
201811070900 AAXX 07094 67481 41675 33002 10320 20140 48/// 70500 83100
                   333 5//// 83837=
201811070600 AAXX 07064 67481 31975 02602 10258 20136 48/// 70500
                   333 10350 20193 5////=
201811060900 AAXX 06094 67481 NIL=
201811021200 AAXX 02124 67481 NIL=
201811010900 AAXX 01094 67481 41675 22703 10242 20132 48/// 70510 82130
                   333 5//// 82835 81361=
201811010600 AAXX 01064 67481 31975 62003 10220 20137 48/// 70522 86030
                   333 10330 20188 5//// 86360=

################################################################################
#  SYNOPS from 67531, Zambezi (Zambia) | 13-32S | 023-07E | 1077 m
################################################################################
201811300600 AAXX 30064 67531 32980 30907 10245 20190 48/// 81032
                   333 10334 20176 58000 81361 83081
                   555 00192=
201811291200 AAXX 29124 67531 42780 62805 10302 20188 48/// 70222 85230
                   333 59023 85856 83362=
201811290600 AAXX 29064 67531 12980 30402 10240 20188 48/// 60014 70200 83030
                   333 10326 20163 59023 83362
                   555 00180=
201811280600 AAXX 28064 67531 11370 70904 10197 20190 48/// 69904 75055 8377/
                   333 10313 20180 58018 83706 87360
                   555 00199=
201811271200 AAXX 27124 67531 41680 72709 10240 20183 48/// 71792 8527/
                   333 59012 81938 85838 86362=
201811270600 AAXX 27064 67531 12380 43602 10205 20192 48/// 60074 70200 81630
                   333 10277 20167 59005 81709 83362
                   555 00182=
201811260900 AAXX 26094 67531 41680 73606 10252 20201 48/// 71792 8427/
                   333 59008 81938 84835 86362=
201811260600 AAXX 26064 67531 12380 73602 10212 20187 48/// 69914 70222 8267/
                   333 10296 20182 59011 82708 87360
                   555 00193=
201811231200 AAXX 23124 67531 42780 51006 10305 20169 48/// 70222 83130
                   333 58008 83856 84362=
201811230900 AAXX 23094 67531 42780 50808 10278 20173 48/// 70222 82130
                   333 58006 82856 84362=
201811210600 AAXX 21064 67531 12980 33007 10233 20180 48/// 60034 83031
                   333 10362 20181 58003 83362 81080=
201811201200 AAXX 20124 67531 42780 40402 10346 20155 48/// 70200 84200
                   333 59018 84857=
201811200900 AAXX 20094 67531 42780 13603 10301 20171 48/// 70300 81100
                   333 59010 81857=
201811200600 AAXX 20064 67531 32980 20903 10234 20183 48/// 70200 82030
                   333 10332 20156 58005 82362
                   555 00170=
201811191200 AAXX 19124 67531 42780 53405 10312 20164 48/// 70222 83230
                   333 5//// 83857 83362=
201811190900 AAXX 19094 67531 42980 52705 10276 20169 48/// 70222 85030
                   333 5//// 85362=
201811190600 AAXX 19064 67531 12980 73304 10201 20171 48/// 60014 70222 8707/
                   333 10344 20172 58007 87362=
201811161200 AAXX 16124 67531 42780 43604 10345 20127 48/// 70200 84200
                   333 58024 84857=
201811160900 AAXX 16094 67531 NIL=
201811160600 AAXX 16064 67531 32980 13604 10232 20127 48/// 70200 80001
                   333 10358 20144 58011 81080
                   555 00143=
201811151200 AAXX 15124 67531 42980 42704 10350 20057 48/// 70200 80008
                   333 58000 84280=
201811150600 AAXX 15064 67531 32980 21106 10240 20082 48/// 70200 82030
                   333 10361 20115 58009 82362
                   555 00174=
201811141200 AAXX 14124 67531 42980 20804 10345 20059 48/// 70200 80001
                   333 59013 82080=
201811140600 AAXX 14064 67531 32980 11004 10210 20069 48/// 70200 80001
                   333 10356 20102 59023 81080
                   555 00112=
201811090900 AAXX 09094 67531 42680 53305 10266 20164 48/// 70222 82130
                   333 58007 82840 84360=
201811090600 AAXX 09064 67531 12980 60000 10203 20175 48/// 69984 70222 83038
                   333 10328 20166 58007 83362 84280
                   555 00182=
201811081200 AAXX 08124 67531 41680 73004 10324 20167 48/// 71792 8527/
                   333 58019 81946 85846 84362=
201811080900 AAXX 08094 67531 42980 72703 10255 20187 48/// 70222 8707/
                   333 58020 87360=
201811080600 AAXX 08064 67531 32980 73604 10227 20185 48/// 70222 8707/
                   333 10351 20196 58020 87362
                   555 00210=
201811071200 AAXX 07124 67531 41680 61506 10333 20151 48/// 71792 85230
                   333 59005 81938 85838 82362=
201811070900 AAXX 07094 67531 42980 61803 10304 20170 48/// 70222 8603/
                   333 59002 86362=
201811070600 AAXX 07064 67531 32980 32203 10234 20164 48/// 70200 82031
                   333 10326 20155 59007 82362 81080
                   555 00174=
201811061200 AAXX 06124 67531 42780 61405 10316 20154 48/// 84231
                   333 58007 84856 82362 81080=
201811060900 AAXX 06094 67531 42980 61806 10267 20161 48/// 8607/
                   333 58000 86362=
201811021200 AAXX 02124 67531 NIL=
201811020600 AAXX 02064 67531 32980 43305 10233 20156 48/// 70200 84030
                   333 10361 20175 59002 84362
                   555 00177=
201811011200 AAXX 01124 67531 42780 22709 10344 20134 48/// 70200 82100
                   333 58014 82856=

################################################################################
#  SYNOPS from 67541, Kasempa (Zambia) | 13-32S | 025-51E | 1234 m
################################################################################
201811291200 AAXX 29124 67541 NIL=
201811230900 AAXX 23094 67541 NIL=
201811190600 AAXX 19064 67541 NIL=
201811161200 AAXX 16124 67541 NIL=
201811160900 AAXX 16094 67541 NIL=
201811060900 AAXX 06094 67541 NIL=
201811021200 AAXX 02124 67541 NIL=

################################################################################
#  SYNOPS from 67543, Kabompo (Zambia) | 13-36S | 024-12E | 1075 m
################################################################################
201811300600 AAXX 30064 67543 12480 71004 10238 20178 48/// 69924 83501
                   333 10318 20186 58003 83610 87080=
201811291200 AAXX 29124 67543 NIL=
201811290600 AAXX 29064 67543 32980 70000 10242 20196 48/// 84031
                   333 10304 20184 59022 84360 84080=
201811281200 AAXX 28124 67543 42980 70000 10242 20186 48/// 87010
                   333 58031 87460=
201811280600 AAXX 28064 67543 11980 80000 10198 20186 48/// 60044 72166 8561/
                   333 10320 20192 58018 85708 88460=
201811270600 AAXX 27064 67543 12980 70000 10224 20165 48/// 69904 8707/
                   333 10304 20188 59004 87360=
201811261200 AAXX 26124 67543 42680 70000 10242 20172 48/// 70299 8231/
                   333 5//// 81935 82835 87462=
201811260900 AAXX 26094 67543 41580 70000 10264 20188 48/// 71722 85330
                   333 5//// 81920 85080=
201811260600 AAXX 26064 67543 32980 80000 10216 20198 48/// 8807/
                   333 10308 20204 59013 88360=
201811230900 AAXX 23094 67543 NIL=
201811201200 AAXX 20124 67543 42680 60000 10348 20134 48/// 86200
                   333 5//// 86840=
201811200900 AAXX 20094 67543 41678 20000 10318 20158 48/// 81130
                   333 59021 81835 82361=
201811200600 AAXX 20064 67543 32978 30000 10224 20177 48/// 83031
                   333 10358 20178 59004 83360 81080=
201811190900 AAXX 19094 67543 42980 63402 10264 20168 48/// 86031
                   333 5//// 86360 82080=
201811190600 AAXX 19064 67543 32980 70000 10218 20172 48/// 8703/
                   333 10354 20190 58006 87360=
201811161200 AAXX 16124 67543 41675 63402 10352 20084 48/// 70522 85200
                   333 58013 85840=
201811160900 AAXX 16094 67543 41974 00000 10318 20131 48/// 70500
                   333 58019=
201811160600 AAXX 16064 67543 31970 20000 10246 20133 48/// 70500 80001
                   333 10370 20156 58012 82080=
201811151200 AAXX 15124 67543 41975 60000 10350 20050 48/// 70522 80001
                   333 58002 86085=
201811150600 AAXX 15064 67543 31970 60000 10224 20088 48/// 70522 80001
                   333 10360 20147 5//// 86080=
201811140900 AAXX 14094 67543 41975 21203 10322 20044 48/// 70500 80001
                   333 58012 82080=
201811140600 AAXX 14064 67543 31975 50000 10222 20085 48/// 70522 80001
                   333 10354 20150 59022 85080=
201811130900 AAXX 13094 67543 41975 41202 10318 20031 48/// 70522 80001
                   333 59005 84080=
201811130600 AAXX 13064 67543 31975 60000 10224 20075 48/// 70522 80005
                   333 10358 20142 59003 86280=
201811090600 AAXX 09064 67543 12980 70000 10208 20173 48/// 60034 8707/
                   333 10342 20180 5//// 87360=
201811080900 AAXX 08094 67543 42980 71501 10284 20169 48/// 8703/
                   333 5//// 87360=
201811080600 AAXX 08064 67543 12975 80000 10210 20191 48/// 60014 70226 8803/
                   333 10354 20198 5//// 88360=
201811071200 AAXX 07124 67543 42680 70000 10346 20134 48/// 83230
                   333 5//// 83840 86361=
201811070900 AAXX 07094 67543 42680 70000 10324 20158 48/// 8113/
                   333 5//// 81830 87360=
201811070600 AAXX 07064 67543 32975 70000 10256 20185 48/// 70222 8703/
                   333 10334 20184 5//// 87360=
201811060900 AAXX 06094 67543 NIL=
201811021200 AAXX 02124 67543 41680 72704 10348 20145 48/// 71792 85310
                   333 5//// 81940 85840 84462=
201811020600 AAXX 02064 67543 12975 10000 10228 20164 48/// 60074 81030
                   333 10370 20174 5//// 81361=
201811011200 AAXX 01124 67543 41675 63303 10360 20121 48/// 70521 86200
                   333 5//// 86840=
201811010900 AAXX 01094 67543 41675 11805 10330 20136 48/// 70500 81100
                   333 5//// 81830=

################################################################################
#  SYNOPS from 67551, Solwezi (Zambia) | 12-11S | 026-23E | 1386 m
################################################################################
201811300600 AAXX 30064 67551 32380 71506 10196 20175 48515 8567/
                   333 10316 20174 58007 85706 87362 91019=
201811291200 AAXX 29124 67551 NIL=
201811290600 AAXX 29064 67551 12980 61604 10226 20173 48511 60054 86030
                   333 10270 20157 59009 86362=
201811280600 AAXX 28064 67551 12980 72705 10182 20167 48520 60094 87030
                   333 10299 20152 59013 87362 91019=
201811270600 AAXX 27064 67551 12380 71205 10185 20169 48539 60054 8567/
                   333 10272 20160 58011 85707 87360 91021=
201811260600 AAXX 26064 67551 32980 70904 10204 20176 48520 8707/
                   333 10261 20176 59014 87362 91019=
201811230900 AAXX 23094 67551 42780 72005 10230 20167 8327/
                   333 58013 83835 87360 91020=
201811200600 AAXX 20064 67551 32980 73005 10232 20140 48530 70522 87030
                   333 10301 20160 59008 87362 91020=
201811190600 AAXX 19064 67551 12980 83403 10233 20180 48537 69904 70522 8807/
                   333 10328 20175 58014 88362 91021=
201811161200 AAXX 16124 67551 NIL=
201811160900 AAXX 16094 67551 NIL=
201811160600 AAXX 16064 67551 32980 63606 10232 20093 48527 86030
                   333 10325 20145 58007 86360 91020=
201811120600 AAXX 12064 67551 32980 30906 10216 20069 48538 80001
                   333 10307 20128 58001 83080 91021=
201811090600 AAXX 09064 67551 11680 80000 10185 20169 48546 60064 8357/
                   333 10324 20166 58021 83652
                   555 00218 91022=
201811080600 AAXX 08064 67551 32980 73605 10224 20169 48528 87030
                   333 10345 20194 58013 87362 91020=
201811071200 AAXX 07124 67551 42680 61405 10319 20127 48482 86201
                   333 59005 86835 82080 91015=
201811070900 AAXX 07094 67551 42980 71508 10308 20135 48512 80007
                   333 59002 87280 91018=
201811070600 AAXX 07064 67551 32980 63005 10200 20153 48509 80005
                   333 10320 20155 59005 86280 91018=
201811060900 AAXX 06094 67551 NIL=
201811021200 AAXX 02124 67551 NIL=
201811010600 AAXX 01064 67551 32980 43504 10218 20135 48494 80005
                   333 10334 20169 59010 84280 91016=

################################################################################
#  SYNOPS from 67561, Ndola (Zambia) | 13-00S | 028-39E | 1269 m
################################################################################
201811300600 AAXX 30064 67561 11460 51313 10225 20182 48522 60064 70522 84532
                   333 10301 20175 58004 84610 82360 83080 91019=
201811291200 AAXX 29124 67561 NIL=
201811290600 AAXX 29064 67561 31956 70000 10217 20191 48517 70422 85038
                   333 10290 20176 59007 85360 87280 91019=
201811281200 AAXX 28124 67561 41660 72713 10240 20172 48494 71722 86208
                   333 59001 81935 86840 87280
                   555 66030 77/// 8877/ 98035 91016=
201811280600 AAXX 28064 67561 11960 61403 10225 20179 48524 60054 70522 85038
                   333 10291 20190 59021 85060 86280 91020=
201811270600 AAXX 27064 67561 11220 83506 10170 20163 48539 60104 79592 8677/
                   333 10288 20167 58017 86703 819// 88459 91022=
201811260600 AAXX 26064 67561 31370 71104 10203 20173 48525 70522 8577/
                   333 10274 20181 59016 85706 86459 91020=
201811230900 AAXX 23094 67561 NIL=
201811201200 AAXX 20124 67561 41670 60906 10304 20144 48500 70522 85200
                   333 59006 85840 555 66153 77/// 8879/ 98031
                   91016=
201811200900 AAXX 20094 67561 41560 31105 10275 20158 48526 70500 83230
                   333 59007 83825 81360 91019=
201811200600 AAXX 20064 67561 11460 10907 10226 20180 48534 60184 70500 81530
                   333 20174 59003 81610 81360 91020=
201811190600 AAXX 19064 67561 31958 70806 10233 20172 48537 70522 87038
                   333 10321 20188 58014 87360 87280 91021=
201811161200 AAXX 16124 67561 NIL=
201811160900 AAXX 16094 67561 NIL=
201811160600 AAXX 16064 67561 31959 60813 10242 20108 70522 82038
                   333 10332 20156 58011 82360 85282 91021=
201811150600 AAXX 15064 67561 31959 30910 10242 20094 48528 70400 80001
                   333 10334 20160 58011 83080 91019=
201811140600 AAXX 14064 67561 31960 41211 10239 20079 48513 70511 80002
                   333 10330 20152 59022 84080 91018=
201811130600 AAXX 13064 67561 31960 41413 10230 20036 48534 70500 80008
                   333 10331 20150 59020 84080 91020=
201811120600 AAXX 12064 67561 31959 21910 10238 20152 48545 70400 80001
                   333 10328 20139 59002 82080 91022=
201811090600 AAXX 09064 67561 31459 70906 10209 20162 48541 70422 83532
                   333 10310 20176 58009 83610 86360 82080 91022=
201811080600 AAXX 08064 67561 31959 71013 10250 20166 48536 70422 85038
                   333 10360 20205 58026 85360 87280 91021=
201811070600 AAXX 07064 67561 31957 59903 10266 20110 48511 70422 80008
                   333 10355 20178 59007 85280 91018=
201811060900 AAXX 06094 67561 NIL=
201811021200 AAXX 02124 67561 NIL=
201811020600 AAXX 02064 67561 31950 10303 10205 20144 48515 70400 80001
                   333 10322 20171 58001 81080 91019=
201811010600 AAXX 01064 67561 31958 60405 10232 20174 48515 70422 80008
                   333 10345 20172 58008 86280 91018=

################################################################################
#  SYNOPS from 67563, Kafironda (Zambia) | 12-36S | 028-07E | 1243 m
################################################################################
201811300600 AAXX 30064 67563 11470 71802 10220 20170 48/// 60074 70522 87700
                   333 10295 20175 58005 87710
                   555 00180=
201811291200 AAXX 29124 67563 NIL=
201811290600 AAXX 29064 67563 11870 70000 10225 20188 48/// 60094 70522 82038
                   333 10295 20175 5//// 82360 85270
                   555 00170=
201811260600 AAXX 26064 67563 11378 83603 10205 20180 48/// 69904 70522 8277/
                   333 10284 20182 59020 82708 88359
                   555 00182=
201811230900 AAXX 23094 67563 NIL=
201811210600 AAXX 21064 67563 11260 80000 10200 20185 48/// 60064 79162 82739
                   333 10320 20190 59003 82708 85357 819//=
201811200600 AAXX 20064 67563 11360 70000 10220 20190 48/// 60134 70522 81530
                   333 10250 20166 59005 81610 86360
                   555 00165=
201811190600 AAXX 19064 67563 11978 70702 10194 20160 48/// 60044 70522 8707/
                   333 10325 20165 58013 87359
                   555 00164=
201811161200 AAXX 16124 67563 NIL=
201811160900 AAXX 16094 67563 NIL=
201811150600 AAXX 15064 67563 31970 71502 10215 20080 48/// 70522 80008
                   333 10325 20115 58010 87270
                   555 00110=
201811140600 AAXX 14064 67563 31970 61502 10215 20091 48/// 70522 80008
                   333 10325 20095 59022 86270
                   555 00092=
201811120600 AAXX 12064 67563 31978 01404 10227 20110 48/// 70500
                   333 10316 20103 58004
                   555 00101=
201811090600 AAXX 09064 67563 11860 70000 10210 20163 48/// 60294 70522 87070
                   333 10315 20175 58020 87458
                   555 00162=
201811080600 AAXX 08064 67563 31870 71202 10250 20156 48/// 70522 87070
                   333 10365 20194 58021 87458
                   555 00184=
201811070600 AAXX 07064 67563 31970 70302 10240 20144 48/// 70522 80008
                   333 10350 20145 59002 87270
                   555 00142=
201811060900 AAXX 06094 67563 NIL=
201811021200 AAXX 02124 67563 NIL=

################################################################################
#  SYNOPS from 67571, Serenje (Zambia) | 13-14S | 030-13E | 1384 m
################################################################################
201811300600 AAXX 30064 67571 11482 81206 10186 20172 48/// 69914 72052 885//
                   333 10286 20181 5//// 88617
                   555 00188=
201811291200 AAXX 29124 67571 42682 51205 10276 20159 48/// 70122 82331
                   333 5//// 81935 82835 81360 84080=
201811290600 AAXX 29064 67571 12982 70000 10214 20177 48/// 60114 70222 8703/
                   333 10295 20178 5//// 87360=
201811280600 AAXX 28064 67571 32982 70302 10267 20166 5//// 81360=
201811271200 AAXX 27124 67571 41682 71803 10254 20193 48/// 71799 81938
                   333 5//// 81930 81830 81360 87280=
201811270600 AAXX 27064 67571 12279 71803 10233 20174 48/// 60024 70222 83688
                   333 10286 20184 5//// 83704 81915 85360 87280=
201811261200 AAXX 26124 67571 41678 73602 10235 20164 48/// 79596 87///
                   333 5//// 81935 87835=
201811260900 AAXX 26094 67571 42582 73602 10255 20153 48/// 76166 8127/
                   333 5//// 81927 81827 87360=
201811260600 AAXX 26064 67571 12982 70000 10206 20174 48/// 60014 70222 8707/
                   333 10239 20176 5//// 87359=
201811230900 AAXX 23094 67571 NIL=
201811210600 AAXX 21064 67571 12982 70000 10229 20178 48/// 60054 83088
                   333 10293 20166 5//// 83360 87280=
201811201200 AAXX 20124 67571 42682 72403 10280 20149 48/// 70222 872//
                   333 5//// 81945 87845=
201811200900 AAXX 20094 67571 42682 71203 10257 20154 48/// 70322 872//
                   333 5//// 81937 87837=
201811200600 AAXX 20064 67571 12582 11205 10222 20163 48/// 60104 70200 81230
                   333 10310 20165 5//// 81826 81360=
201811191200 AAXX 19124 67571 41682 72702 10236 20180 48/// 71799 85238
                   333 5//// 81937 85838 81360 87280=
201811190900 AAXX 19094 67571 42682 71502 10260 20144 48/// 70222 872//
                   333 5//// 81935 87835=
201811190600 AAXX 19064 67571 32682 70000 10223 20164 48/// 70222 81238
                   333 10324 20175 5//// 81830 83360 85280=
201811161200 AAXX 16124 67571 NIL=
201811160900 AAXX 16094 67571 NIL=
201811151200 AAXX 15124 67571 42780 70903 10300 20090 48/// 70522 83108
                   333 5//// 83850 87280=
201811150600 AAXX 15064 67571 32980 31208 10234 20095 48/// 70500 80001
                   333 10306 20186 5//// 83080=
201811141200 AAXX 14124 67571 42982 41503 10292 20073 48/// 70111 80001
                   333 5//// 84080=
201811121200 AAXX 12124 67571 42982 41206 10294 20056 48/// 70111 80001
                   333 5//// 84080=
201811120600 AAXX 12064 67571 32982 11208 10223 20061 48/// 70200 80001
                   333 10299 20181 5//// 81080=
201811090900 AAXX 09094 67571 42580 71207 10211 20146 48/// 70522 875//
                   333 5//// 87625=
201811090600 AAXX 09064 67571 32378 71504 10181 20141 48/// 70522 8663/
                   333 10321 20164 5//// 86707 86360=
201811081200 AAXX 08124 67571 42680 41208 10250 20151 48/// 70511 84200
                   333 5//// 84840=
201811080900 AAXX 08094 67571 42580 41506 10236 20152 48/// 70511 84500
                   333 5//// 84628=
201811080600 AAXX 08064 67571 32480 70905 10207 20164 48/// 70522 8257/
                   333 10346 20201 5//// 82620 87360
                   555 00227=
201811071200 AAXX 07124 67571 42680 61205 10340 20107 48/// 70522 86200
                   333 5//// 81948 86848=
201811070900 AAXX 07094 67571 42680 31203 10318 20117 48/// 70500 83200
                   333 5//// 83836=
201811070600 AAXX 07064 67571 32980 30603 10257 20120 48/// 70511 80001
                   333 10341 20195 5//// 83081=
201811061200 AAXX 06124 67571 42780 63602 10315 20101 48/// 70522 86200
                   333 5//// 86850=
201811060900 AAXX 06094 67571 42680 13002 10307 20092 48/// 70500 81201
                   333 5//// 81840 81081=
201811021200 AAXX 02124 67571 42678 60906 10331 20110 48/// 70511 86201
                   333 5//// 86847 81080=
201811011200 AAXX 01124 67571 42678 73004 10291 20122 48/// 70522 81208
                   333 5//// 81845 87280=
201811010600 AAXX 01064 67571 32978 13005 10226 20156 48/// 70500 80001
                   333 10339 20155 5//// 81081=

################################################################################
#  SYNOPS from 67575, Mkushi (Zambia) | 13-38-00S | 029-26-00E | 1237 m
################################################################################
201811291200 AAXX 29124 67575 NIL=
201811271200 AAXX 27124 67575 42680 53402 10282 20172 48455 82232
                   333 5//// 82836 82363 82080=
201811270600 AAXX 27064 67575 11380 82703 10192 20181 48490 60034 72162 8567/
                   333 10300 20185 58007 85706 84360
                   555 00182=
201811261200 AAXX 26124 67575 41660 73402 10278 20148 48/// 71522 83273
                   333 5//// 81937 83835 84362=
201811260900 AAXX 26094 67575 42680 73401 10264 20105 48482 81170
                   333 5//// 81830 87360=
201811260600 AAXX 26064 67575 12980 73601 10220 20168 48487 69904 87070
                   333 10260 20185 59018 87360
                   555 00176=
201811231200 AAXX 23124 67575 41480 71601 10221 20173 48470 72162 81570
                   333 5//// 81617 87360=
201811230900 AAXX 23094 67575 41650 81901 10189 20181 48496 76162 8177/
                   333 58035 81708 88359=
201811210600 AAXX 21064 67575 32980 23502 10243 20161 48486 81051
                   333 10325 20182 59009 81360 82080=
201811201200 AAXX 20124 67575 42680 50000 10308 20109 48455 85230
                   333 59009 85840 81362=
201811200900 AAXX 20094 67575 42680 20903 10296 20125 48486 82200
                   333 59011 82830=
201811200600 AAXX 20064 67575 32980 11203 10242 20152 48495 81031
                   333 10320 20155 59011 81360 81080
                   555 00138=
201811191200 AAXX 19124 67575 41675 51202 10302 20132 48464 70521 84273
                   333 5//// 81938 84836 81363 81080=
201811190900 AAXX 19094 67575 41675 53601 10282 20135 48495 70521 83230
                   333 5//// 83830 83362=
201811190600 AAXX 19064 67575 31475 33502 10235 20148 48504 70500 81171
                   333 10340 20172 58022 81815 82360 82080
                   555 00154=
201811161200 AAXX 16124 67575 41675 31203 10313 20080 48470 70500 82201
                   333 58017 82840 83080=
201811160900 AAXX 16094 67575 41675 31203 10296 20107 48493 70500 82231
                   333 58016 82835 81361 82080=
201811160600 AAXX 16064 67575 31975 30903 10250 20107 48498 70521 81031
                   333 10334 20185 58016 81360 83080
                   555 00165=
201811150600 AAXX 15064 67575 31975 11008 10241 20084 48482 70500 80001
                   333 10323 20163 58006 81080
                   555 00138=
201811141200 AAXX 14124 67575 41975 21202 10308 20033 48422 70500 80002
                   333 5//// 82080=
201811140600 AAXX 14064 67575 31975 11203 10236 20068 48476 70500 80001
                   333 10315 20144 59020 81080
                   555 00110=
201811090900 AAXX 09094 67575 41275 61205 10234 20145 48503 70522 82508
                   333 58006 82620 85280=
201811090600 AAXX 09064 67575 31475 71207 10196 20144 48507 70522 85578
                   333 10282 20170 58006 85615 81360 83080
                   555 00170=
201811081200 AAXX 08124 67575 41670 81206 10266 20140 48481 70522 81207
                   333 58041 81836 88280=
201811080900 AAXX 08094 67575 41570 80905 10255 20155 48499 70522 81507
                   333 58036 81620 88280=
201811080600 AAXX 08064 67575 31470 81403 10218 20172 48503 70522 83571
                   333 10365 20205 58031 83615 82360 83080
                   555 00205=
201811070600 AAXX 07064 67575 31970 30901 10267 20103 48477 70521 80001
                   333 10359 20180 58002 83080
                   555 00165=
201811061200 AAXX 06124 67575 41775 62703 10334 20038 48441 70522 83201
                   333 59005 83850 84080=
201811060900 AAXX 06094 67575 41675 53602 10316 20084 48468 70522 81208
                   333 59011 81830 85280=
201811021200 AAXX 02124 67575 NIL=
201811020900 AAXX 02094 67575 41665 70303 10311 20132 48/// 70522 81108
                   333 5//// 81835 87280=
201811020600 AAXX 02064 67575 31965 73603 10234 20135 48475 70522 80008
                   333 10339 20160 58003 87280
                   555 00148=
201811011200 AAXX 01124 67575 41670 70303 10324 20103 48444 70522 81208
                   333 58018 81838 81280=

################################################################################
#  SYNOPS from 67580, Msekera (Zambia) | 13-39S | 032-34E | 1025 m
################################################################################
201811300600 AAXX 30064 67580 12580 71508 10208 20181 48/// 60084 8453/
                   333 10300 20195 58017 84626 87360=
201811291200 AAXX 29124 67580 NIL=
201811290600 AAXX 29064 67580 12980 72402 10224 20194 48/// 60104 8703/
                   333 10334 20197 58003 87360=
201811280600 AAXX 28064 67580 12680 70902 10252 20204 48/// 60354 81138
                   333 10337 20192 59002 81830 81361 87280=
201811270600 AAXX 27064 67580 12980 71202 10244 20194 48/// 60024 87030
                   333 10314 20205 59034 87360=
201811240900 AAXX 24094 67580 42580 80000 10250 20208 3//// 48/// 889//
                   333 5////=
201811230900 AAXX 23094 67580 NIL=
201811190600 AAXX 19064 67580 NIL=
201811161200 AAXX 16124 67580 NIL=
201811160900 AAXX 16094 67580 NIL=
201811150600 AAXX 15064 67580 31980 31203 10278 20135 48/// 80001
                   333 10350 20190 58007 83080=
201811140600 AAXX 14064 67580 31978 01503 10257 20101 48/// 70500
                   333 10330 20175 59022=
201811130600 AAXX 13064 67580 31978 01505 10230 20114 48/// 70500
                   333 10340 20175 59011=
201811120600 AAXX 12064 67580 32980 01505 10243 20116 48///
                   333 10342 20179 5////=
201811090900 AAXX 09094 67580 42680 71504 10246 20161 48/// 878//
                   333 58008 85842 83644=
201811090600 AAXX 09064 67580 32580 70903 10216 20158 48/// 878//
                   333 10304 20184 58005 82820 86622=
201811081200 AAXX 08124 67580 41775 71206 10280 20174 48/// 70522 84101
                   333 58030 85080=
201811080900 AAXX 08094 67580 41678 70905 10282 20172 48/// 70522 87100
                   333 58035 87846=
201811080600 AAXX 08064 67580 31578 71407 10239 20161 48/// 70522 84831
                   333 10376 20204 58042 82824 82626 83360 84080=
201811070900 AAXX 07094 67580 41878 30603 10330 20145 48/// 70500 83100
                   333 58006 83857=
201811070600 AAXX 07064 67580 31978 20605 10296 20159 48/// 70500 80001
                   333 10386 20224 58009 82080=
201811060900 AAXX 06094 67580 41878 20902 10348 20147 48/// 70500 82100
                   333 59012 82857=
201811021200 AAXX 02124 67580 NIL=
201811010600 AAXX 01064 67580 31975 70605 10286 20143 48/// 70522 82038
                   333 10376 20232 58011 82361 87280=

################################################################################
#  SYNOPS from 67581, Chipata (Zambia) | 13-33S | 032-35E | 1028 m
################################################################################
201811300600 AAXX 30064 67581 12580 71206 10212 20178 48541 60174 8657/
                   333 10300 20201 58014 86625 87460 91019=
201811291200 AAXX 29124 67581 NIL=
201811290600 AAXX 29064 67581 12680 81603 10232 20186 48531 60144 70222 8257/
                   333 10328 20198 58003 82630 88459 91018=
201811280600 AAXX 28064 67581 12960 50804 10271 20189 48533 60094 83032
                   333 10324 20156 59001 83360 84080 91018=
201811271200 AAXX 27124 67581 42680 51406 10326 20158 48503 70222 84232
                   333 58011 81946 83846 81360 81080 91013=
201811270900 AAXX 27094 67581 42680 41203 10301 20178 48531 70222 83132
                   333 59014 82840 82360 82080 91017=
201811270600 AAXX 27064 67581 12680 51206 10204 20184 48524 60324 70222 82132
                   333 10316 20184 59013 82830 84360 82080 91018=
201811260600 AAXX 26064 67581 12960 61603 10247 20095 48538 60104 83032
                   333 10247 20146 59022 83360 85080 91019=
201811230900 AAXX 23094 67581 NIL=
201811210600 AAXX 21064 67581 32980 41604 10272 20186 48544 84030
                   333 10292 20186 58014 84360 91019=
201811200600 AAXX 20064 67581 12680 60902 10241 20164 48550 60084 83130
                   333 10254 20142 59004 83838 83360 91020=
201811191200 AAXX 19124 67581 41660 81206 10244 20192 48527 70522 8427/
                   333 58018 84836 88460 91017=
201811190900 AAXX 19094 67581 41660 81005 10228 20187 48550 76166 8457/
                   333 58019 84635 88460 91021=
201811190600 AAXX 19064 67581 11660 81206 10221 20184 48552 60244 70522 8317/
                   333 10361 20198 58017 83635 88460 91021=
201811161200 AAXX 16124 67581 NIL=
201811160900 AAXX 16094 67581 NIL=
201811160600 AAXX 16064 67581 31960 60812 10274 20127 48553 70522 80002
                   333 10334 20188 58009 86280 91020=
201811150600 AAXX 15064 67581 32980 21206 10276 20085 48545 70200 80002
                   333 10334 20168 58008 82080 91019=
201811140600 AAXX 14064 67581 31960 01806 10260 20069 48533 70500
                   333 10322 20198 59023 91018=
201811120600 AAXX 12064 67581 31960 01606 10258 20098 48566
                   333 10334 20198 58004 91022=
201811090600 AAXX 09064 67581 32480 81007 10215 20146 48565 70222 875//
                   333 10320 20185 58006 87615 91022=
201811080600 AAXX 08064 67581 31660 70909 10240 20151 48563 70522 81132
                   333 10361 20184 58039 81835 85360 82080 91022=
201811071200 AAXX 07124 67581 41660 41005 10346 20123 48509 70522 84100
                   333 58011 84850 91013=
201811070900 AAXX 07094 67581 41660 21208 10346 20112 48546 70500 82100
                   333 58004 82845 91017=
201811070600 AAXX 07064 67581 31960 01608 10288 20133 48538 70500
                   333 10364 20188 58008 91017=
201811060900 AAXX 06094 67581 NIL=
201811021200 AAXX 02124 67581 NIL=
201811020600 AAXX 02064 67581 31960 60505 10289 20126 48542 70522 80008
                   333 10352 20204 59001 86280 91017=
201811011200 AAXX 01124 67581 41660 60903 10348 20108 48502 70522 84102
                   333 58012 84848 82080 91013=
201811010600 AAXX 01064 67581 31960 51605 10292 20101 48534 70522 83032
                   333 10356 20184 58016 83360 84080 91017=

################################################################################
#  SYNOPS from 67583, Lundazi (Zambia) | 12-17S | 033-12E | 1143 m
################################################################################
201811300600 AAXX 30064 67583 12580 71203 10222 20189 48/// 61144 83830
                   333 10298 20//0 5//// 81825 82626 87360=
201811291016 AAXX 29104 67583 42680 71308 10222 20188 48510 58022 81940 91016=
201811290600 AAXX 29064 67583 11560 80000 10206 20203 48/// 60144 76162 8197/
                   333 10324 2//// 5//// 81930 88459=
201811280600 AAXX 28064 67583 32980 70302 10242 20198 48/// 70222 8703/
                   333 10324 20//0 5//// 87359=
201811270600 AAXX 27064 67583 12980 20000 10270 20198 48/// 60444 70200 80001
                   333 10318 2//// 5//// 82080=
201811260600 AAXX 26064 67583 12980 70000 10220 20206 48/// 60174 72842 875//
                   333 10262 20168 5//// 87610=
201811230900 AAXX 23094 67583 42680 73602 10296 20183 48/// 73238
                   333 5//// 83840 81360 87280=
201811200600 AAXX 20064 67583 12980 40000 10232 20185 48/// 60194 70222 84030
                   333 10306 20/// 5//// 84359=
201811190900 AAXX 19094 67583 41659 71602 10284 20179 48/// 70522 83132
                   333 5//// 83835 84360 81080=
201811190600 AAXX 19064 67583 31959 71602 10252 20183 48/// 70522 8707/
                   333 10340 20//0 5//// 87360=
201811161200 AAXX 16124 67583 NIL=
201811160900 AAXX 16094 67583 41659 70902 10318 20158 48/// 70522 83107
                   333 5//// 83835 87280=
201811160600 AAXX 16064 67583 31959 71204 10250 20157 48/// 70522 81037
                   333 10342 20//0 5//// 81360 87280=
201811150600 AAXX 15064 67583 31959 50903 10270 20150 48/// 70522 80005
                   333 10334 2//// 5//// 85280=
201811120600 AAXX 12064 67583 31959 11502 10258 20125 48/// 70500 80001
                   333 10340 20/// 5//// 81080=
201811090900 AAXX 09094 67583 41659 61702 10258 20170 48/// 70522 85802
                   333 5//// 84835 82636 81080=
201811090600 AAXX 09064 67583 31559 61504 10224 20163 48/// 70522 85502
                   333 10320 20/// 5//// 85625 82080=
201811080600 AAXX 08064 67583 31558 71502 10252 20178 48/// 70500
                   333 10360 20182 5////=
201811070600 AAXX 07064 67583 31958 20000 10286 20163 48/// 70500 80001
                   333 10370 20//0 5//// 82080=
201811060900 AAXX 06094 67583 NIL=
201811021200 AAXX 02124 67583 NIL=

################################################################################
#  SYNOPS from 67599, Mfuwe (Zambia) | 13-16S | 031-56E | 568 m
################################################################################
201811300600 AAXX 30064 67599 12580 71507 1//// 20186 48539 60044 8613/
                   333 10330 20217 58021 86830 86358 91018=
201811291200 AAXX 29124 67599 NIL=
201811290600 AAXX 29064 67599 12480 70000 10242 20217 48520 60164 8113/
                   333 10370 20210 58003 81815 87359=
201811280600 AAXX 28064 67599 32980 70000 10258 20216 48524 84031
                   333 10370 20218 58001 84360 83080
                   555 00218 91015=
201811270600 AAXX 27064 67599 32980 61503 10262 20204 48523 85031
                   333 10330 20208 59003 85360 81080
                   555 00210 91015=
201811260600 AAXX 26064 67599 32980 70000 10243 20214 48535 87030
                   333 10277 20205 59001 87360
                   555 00209 91017=
201811230900 AAXX 23094 67599 NIL=
201811210600 AAXX 21064 67599 32980 30000 10285 20203 48539 83030
                   333 10359 20210 59020 83360 91016=
201811200600 AAXX 20064 67599 12580 30903 10252 20196 48547 69904 81130
                   333 10283 20206 59001 81620 82360
                   555 00210 91018=
201811190600 AAXX 19064 67599 12480 81403 10231 20216 48541 60204 8157/
                   333 10391 20210 58003 81610 88459
                   555 00220 91018=
201811161200 AAXX 16124 67599 NIL=
201811160900 AAXX 16094 67599 NIL=
201811160600 AAXX 16064 67599 31970 61005 10303 20142 48554 70500 80002
                   333 10385 20200 58008 86080
                   555 00195 91017=
201811150600 AAXX 15064 67599 32980 20000 10290 20129 48544 80001
                   333 10376 20190 58003 82080
                   555 00185 91016=
201811140600 AAXX 14064 67599 32980 01105 10274 20098 48536
                   333 10365 20160 59025
                   555 00155 91016=
201811090600 AAXX 09064 67599 31580 71605 10243 20157 48562 81530
                   333 10356 20196 58002 81620 87459
                   555 00193 91020=
201811080600 AAXX 08064 67599 31959 31012 10281 20155 48562 70500 80001
                   333 10415 20250 58047 83080
                   555 00250 91019=
201811070600 AAXX 07064 67599 31960 00611 10320 20150 48531 70500
                   333 10413 20240 59001
                   555 00230 91014=
201811060900 AAXX 06094 67599 NIL=
201811021200 AAXX 02124 67599 NIL=
201811020600 AAXX 02064 67599 31959 31005 10305 20160 48526 70522 80002
                   333 10400 59001 83080
                   555 00215 91014=

################################################################################
#  SYNOPS from 67625, Kalabo (Zambia) | 14-51S | 022-42E | 1033 m
################################################################################
201811300600 AAXX 30064 67625 12982 50914 10235 20192 48/// 69924 81034
                   333 10330 20200 58009 81360 85075=
201811291200 AAXX 29124 67625 42782 31505 10325 20190 48/// 82133
                   333 59019 82850 81361 83075=
201811290600 AAXX 29064 67625 12982 40305 10230 20194 48/// 60164 83033
                   333 10297 20194 58006 83360 84075=
201811280600 AAXX 28064 67625 12482 73311 10225 20198 48/// 69934 8163/
                   333 10320 20210 59001 81710 87360=
201811270600 AAXX 27064 67625 11482 73612 10205 20198 48/// 60104 75052 8562/
                   333 10336 20192 5//// 82710 87460=
201811231200 AAXX 23124 67625 42982 70811 10320 20155 48/// 83034
                   333 58009 83361 87075=
201811230900 AAXX 23094 67625 42982 80408 10300 20159 48/// 86034
                   333 59004 86360 88075=
201811210600 AAXX 21064 67625 32982 73006 10245 20145 48/// 81233
                   333 10365 20205 59009 81838 81360 87075=
201811201200 AAXX 20124 67625 42982 41304 10350 20148 48/// 84100
                   333 59010 84858=
201811200900 AAXX 20094 67625 42982 03508 10306 20164 48///
                   333 58009=
201811200600 AAXX 20064 67625 12982 10805 10244 20175 48/// 69984 81030
                   333 10359 20193 58002 81361=
201811191200 AAXX 19124 67625 42982 30308 10345 20139 48/// 83100
                   333 5//// 83858=
201811190900 AAXX 19094 67625 41274 13010 10303 20174 48/// 70544 80001
                   333 5//// 81075=
201811190600 AAXX 19064 67625 12982 22710 10239 20168 48/// 69904 80001
                   333 10361 20190 58004 81075=
201811161200 AAXX 16124 67625 42982 30106 10350 20105 48/// 82104
                   333 58032 82858 83070=
201811160900 AAXX 16094 67625 NIL=
201811160600 AAXX 16064 67625 32982 00606 10235 20079 48///
                   333 10375 20169 58008=
201811151200 AAXX 15124 67625 42982 11214 10365 21010 48/// 80005
                   333 59017 81275=
201811150600 AAXX 15064 67625 32982 30305 10226 20078 48/// 80001
                   333 10364 20169 59005 83075=
201811141200 AAXX 14124 67625 42982 00908 10354 20020 48///
                   333 5////=
201811140600 AAXX 14064 67625 32982 10909 10235 20079 48/// 80001
                   333 10351 20160 59014 82075=
201811090900 AAXX 09094 67625 42682 80807 10270 20185 48/// 81133
                   333 58005 81834 81361 88075=
201811090600 AAXX 09064 67625 12480 70806 10210 20188 48/// 60104 81133
                   333 10355 20185 58028 81810 81361 81075=
201811081200 AAXX 08124 67625 42982 80507 10346 20140 48/// 82303
                   333 58011 82957 82857 88075=
201811080900 AAXX 08094 67625 42982 60313 10310 20130 48/// 80003
                   333 58015 86075=
201811080600 AAXX 08064 67625 12982 81802 10240 20183 48/// 69954 86033
                   333 10356 20193 58000 86360 88075=
201811071200 AAXX 07124 67625 42882 71410 10340 20155 48/// 81334
                   333 59004 81957 81857 83361 87075=
201811070900 AAXX 07094 67625 42782 71110 10325 20163 48/// 81134
                   333 59004 81856 81361 87075=
201811070600 AAXX 07064 67625 12982 73304 10245 20169 48/// 69904 85033
                   333 10340 20190 59014 85361 87075=
201811061200 AAXX 06124 67625 42782 71802 10314 20154 48/// 81333
                   333 59004 81956 81856 81361 87075=
201811060900 AAXX 06094 67625 42682 72306 10270 20153 48/// 81133
                   333 58000 81848 83361 87075=
201811021200 AAXX 02124 67625 42882 73611 10342 20154 48/// 81333
                   333 58005 81957 82857 85360 87075=
201811020900 AAXX 02094 67625 42982 33006 10310 20156 48/// 83030
                   333 58004 83360=
201811020600 AAXX 02064 67625 32982 72609 10255 20145 48/// 8703/
                   333 10370 20205 58001 87360=
201811011200 AAXX 01124 67625 42982 13008 10359 20126 48/// 81100
                   333 58012 81858=

################################################################################
#  SYNOPS from 67633, Mongu (Zambia) | 15-15S | 023-09E | 1052 m
################################################################################
201811300600 AAXX 30064 67633 12980 60805 10229 20192 48521 60074 70200 80001
                   333 10330 20195 58006 86080 91018=
201811291200 AAXX 29124 67633 NIL=
201811290600 AAXX 29064 67633 32980 50102 10248 20194 48518 70222 85030
                   333 10296 20197 59013 85360 91017=
201811280600 AAXX 28064 67633 12980 73610 10220 20191 48526 60014 70222 87070
                   333 10323 20210 58001 87460 91019=
201811270600 AAXX 27064 67633 12980 73602 10206 20191 48514 60144 70222 87070
                   333 10323 20188 58002 87460 91018=
201811260600 AAXX 26064 67633 12980 83601 10229 20193 48523 60024 70222 84038
                   333 10348 20195 59008 84360 87280 91018=
201811230900 AAXX 23094 67633 NIL=
201811210600 AAXX 21064 67633 32980 33603 10252 20176 48517 81031
                   333 10379 20207 59014 81360 83080 91017=
201811200600 AAXX 20064 67633 32980 20104 10260 20180 48532 70200 82030
                   333 10368 20202 59001 82360 91019=
201811190600 AAXX 19064 67633 32980 13610 10263 20172 48532 70100 81031
                   333 10384 20206 58006 81362 81080 91019=
201811161200 AAXX 16124 67633 NIL=
201811160900 AAXX 16094 67633 NIL=
201811160600 AAXX 16064 67633 32980 00910 10255 20086 48532 70200
                   333 10375 20185 91019=
201811150600 AAXX 15064 67633 32980 30904 10265 20091 48514 70200 83031
                   333 10369 20180 59007 83360 82080 91017=
201811141200 AAXX 14124 67633 42980 00903 10355 20078 48501 70200
                   333 59016 91013=
201811140600 AAXX 14064 67633 32980 30904 10255 20081 48525 70200 80001
                   333 10364 20174 59010 83080 91018=
201811120600 AAXX 12064 67633 31980 60910 10280 20091 48545 70122 80008
                   333 10364 20194 58009 91020=
201811091200 AAXX 09124 67633 42680 70205 10326 20171 48535 70222 84208
                   333 58019 84835 85280 91018=
201811090600 AAXX 09064 67633 12980 43302 10225 20186 48547 60024 70200 81031
                   333 10362 20190 58007 84080 91021=
201811080600 AAXX 08064 67633 12980 60903 10240 20165 48539 60024 70222 86031
                   333 10364 20195 58020 86360 82080 91020=
201811070900 AAXX 07094 67633 42680 41806 10320 20169 48532 70322 82130
                   333 58003 82840 84360 91018=
201811070600 AAXX 07064 67633 32980 73402 10240 20182 48519 70222 87030
                   333 10340 20206 59008 87360 91018=
201811060900 AAXX 06094 67633 NIL=
201811021200 AAXX 02124 67633 NIL=
201811020600 AAXX 02064 67633 32980 53603 10270 20158 48503 70222 85030
                   333 10379 20206 59002 85360 91015=
201811010600 AAXX 01064 67633 32980 63620 10248 20159 48502 70222 80008
                   333 10393 20204 58008 86280 91015=

################################################################################
#  SYNOPS from 67641, Kaoma (Zambia) | 14-48S | 024-48E | 1213 m
################################################################################
201811300600 AAXX 30064 67641 12680 70602 10210 20182 48508 69914 875//
                   333 10301 20189 58002 87630 91017=
201811291200 AAXX 29124 67641 NIL=
201811290600 AAXX 29064 67641 12980 40000 10240 20202 48509 60154 82031
                   333 10266 20187 59011 82360 82080 91016=
201811270600 AAXX 27064 67641 11580 70403 10205 20192 48508 60064 72162 8457/
                   333 10286 20189 58007 84628 87460 91017=
201811260600 AAXX 26064 67641 12980 7//// 10223 20200 48502 60204 70222 8703/
                   333 10315 20176 59024 87360 91016=
201811230900 AAXX 23094 67641 NIL=
201811201200 AAXX 20124 67641 42680 51003 10350 20136 48495 70312 85200
                   333 59008 85845 91014=
201811200900 AAXX 20094 67641 42680 11202 10316 20164 48518 70100 81101
                   333 59012 81844 81080 91016=
201811200600 AAXX 20064 67641 12980 30603 10231 20188 48518 69924 70200 80001
                   333 10354 20192 59008 83080 91017=
201811190900 AAXX 19094 67641 42680 51302 10//0 20165 48531 70310 84231
                   333 58015 84840 81360 81080 91018=
201811190600 AAXX 19064 67641 32980 22404 10245 20172 48528 70110 80001
                   333 10366 20205 58022 82080 91018=
201811161200 AAXX 16124 67641 NIL=
201811160900 AAXX 16094 67641 42780 10604 10334 20112 48516 81100
                   333 58006 81856 91016=
201811160600 AAXX 16064 67641 31975 00802 10281 20122 48514 70500
                   333 10357 20146 58000 91016=
201811151200 AAXX 15124 67641 42980 51406 10345 20050 48/// 70222 80001
                   333 58001 85080 91013=
201811140900 AAXX 14094 67641 42980 11204 10316 20068 48512 70100 80001
                   333 59019 81080 91016=
201811140600 AAXX 14064 67641 31975 51004 10243 20093 48510 70510 80001
                   333 10346 20133 59018 85080 91016=
201811130600 AAXX 13064 67641 32980 61006 10240 20062 48528 70222 80001
                   333 10350 20143 59002 86080 91018=
201811120600 AAXX 12064 67641 32980 41004 10239 20082 48529 70500 80002
                   333 10346 20161 58007 84080 91018=
201811090600 AAXX 09064 67641 12980 60000 10217 20189 48540 60094 70222 80001
                   333 10350 20158 58013 86080 91021=
201811081200 AAXX 08124 67641 41675 70904 10334 20164 48509 70522 87200
                   333 58003 87845 91015=
201811080900 AAXX 08094 67641 41675 61103 10307 20173 48528 70522 81101
                   333 58028 81845 86080 91017=
201811080600 AAXX 08064 67641 12980 71002 10231 20162 48528 60034 70222 8703/
                   333 10350 20187 58025 87360 91018=
201811060900 AAXX 06094 67641 NIL=
201811021200 AAXX 02124 67641 41675 70407 10343 20139 48483 70510 8323/
                   333 58007 83845 85360 91013=
201811020600 AAXX 02064 67641 31975 10000 10266 20144 48493 70500 81080
                   333 10375 20191 58004 81360 91025=

################################################################################
#  SYNOPS from 67655, Mumbwa (Zambia) | 15-04S | 027-11E | 1216 m
################################################################################
201811300900 AAXX 30094 67655 42580 71014 10226 20164 48539 84530
                   333 5//// 84620 85360 91020=
201811300600 AAXX 30064 67655 32480 61116 10210 20167 48538 84530
                   333 10310 20139 58014 84616 85360 91020=
201811291200 AAXX 29124 67655 NIL=
201811270600 AAXX 27064 67655 12960 73512 10202 20162 48524 60284 8707/
                   333 10288 20179 59001 87360 91019=
201811230900 AAXX 23094 67655 NIL=
201811210600 AAXX 21064 67655 31959 23616 10276 20159 48533 70500 80001
                   333 10333 20193 59017 82080 91017=
201811190600 AAXX 19064 67655 NIL=
201811161200 AAXX 16124 67655 NIL=
201811160900 AAXX 16094 67655 NIL=
201811160600 AAXX 16064 67655 31959 30820 10252 20121 48539 70500 83030
                   333 10328 20150 58007 83360 91020=
201811150600 AAXX 15064 67655 32980 41007 10229 20069 48529 80001
                   333 10313 20160 58006 84080 91019=
201811120600 AAXX 12064 67655 32980 40905 10258 20076 48558 80001
                   333 10320 20162 58007 84080 91022=
201811090600 AAXX 09064 67655 32980 60907 10214 20163 48551 82031
                   333 10310 20156 58012 82359 91021=
201811080600 AAXX 08064 67655 31960 70906 10236 20161 48543 70522 83037
                   333 10340 20160 58024 83360 87280 91020=
201811070600 AAXX 07064 67655 32980 60000 10256 20161 48521 86030
                   333 10340 20132 58000 86360 91017=
201811060900 AAXX 06094 67655 42680 70704 10300 20134 48515 81108
                   333 59011 82835 85280 91016=
201811021200 AAXX 02124 67655 NIL=
201811020600 AAXX 02064 67655 31959 03004 10276 20132 48509 70500
                   333 10357 20155 58007 91016=
201811010600 AAXX 01064 67655 31959 40000 10250 20156 48499 70500 80001
                   333 10260 20170 59027 84080 91015=

################################################################################
#  SYNOPS from 67659, Kafue Polder (Zambia) | 15-46S | 027-55E | 978 m
################################################################################
201811300600 AAXX 30064 67659 32580 50908 10220 20182 48/// 60294 70222 84230
                   333 10306 20188 58016 84830 81360=
201811291200 AAXX 29124 67659 NIL=
201811290600 AAXX 29064 67659 32680 60905 10254 20199 48/// 70222 81130
                   333 10302 20190 58003 81840 85360=
201811280600 AAXX 28064 67659 32980 70704 10240 20185 48/// 70222 87030
                   333 10290 20210 59005 87360=
201811270600 AAXX 27064 67659 12580 50504 10235 20193 48/// 69984 70222 81130
                   333 10325 20198 58000 81825 84360=
201811260600 AAXX 26064 67659 32980 51206 10245 20195 48/// 70322 85030
                   333 10325 20190 59016 85360=
201811230900 AAXX 23094 67659 NIL=
201811210600 AAXX 21064 67659 32980 03605 10267 20177 48///
                   333 10354 20178 59008=
201811200600 AAXX 20064 67659 32980 00708 10262 20181 48/// 70222
                   333 10360 20192 59002=
201811190600 AAXX 19064 67659 32980 41406 10240 20130 48/// 70222 84030
                   333 10360 20202 58006 84360=
201811161200 AAXX 16124 67659 NIL=
201811160900 AAXX 16094 67659 NIL=
201811160600 AAXX 16064 67659 32980 01007 10220 20176 48/// 70222
                   333 10341 20165 58002=
201811150600 AAXX 15064 67659 32980 11208 10246 20106 48/// 70222 81030
                   333 10325 20181 58003 81360=
201811140600 AAXX 14064 67659 32980 01006 10253 20121 48/// 70222
                   333 10338 20160 59023=
201811130600 AAXX 13064 67659 32980 00906 10240 20120 48/// 70222
                   333 10328 20160 59002=
201811120600 AAXX 12064 67659 32980 01006 10250 20120 48/// 70200 81030
                   333 10337 20172 58002 81360=
201811090600 AAXX 09064 67659 32980 11207 10215 20160 48/// 70222 81030
                   333 10320 20180 5//// 81360=
201811080600 AAXX 08064 67659 32980 11210 10244 20166 48/// 70222 81030
                   333 10354 20188 5//// 81360=
201811070600 AAXX 07064 67659 32980 70907 10260 2//// 48/// 70222 87030
                   333 10360 20169 5//// 87360=
201811060900 AAXX 06094 67659 NIL=
201811021200 AAXX 02124 67659 NIL=
201811020600 AAXX 02064 67659 32980 01004 10275 20142 48/// 70222
                   333 10381 20145 58005=
201811010600 AAXX 01064 67659 32980 10905 10261 20118 48/// 70222 80002
                   333 10366 20150 58002 81080=

################################################################################
#  SYNOPS from 67662, Kabwe Agric (Zambia) | 14-24S | 028-30E | 1165 m
################################################################################
201811291200 AAXX 29124 67662 NIL=
201811230900 AAXX 23094 67662 NIL=
201811190600 AAXX 19064 67662 NIL=
201811161200 AAXX 16124 67662 NIL=
201811160900 AAXX 16094 67662 NIL=
201811060900 AAXX 06094 67662 NIL=
201811021200 AAXX 02124 67662 NIL=

################################################################################
#  SYNOPS from 67663, Kabwe (Zambia) | 14-27S | 028-28E | 1206 m
################################################################################
201811300600 AAXX 30064 67663 11470 80316 10194 20174 48549 69904 72162 885//
                   333 10296 20184 58018 88618=
201811291200 AAXX 29124 67663 NIL=
201811290600 AAXX 29064 67663 31970 50905 10241 20184 48528 83032
                   333 10312 20189 59006 83360 84080=
201811280600 AAXX 28064 67663 31970 5//// 10226 20174 48533 70522 85030
                   333 10312 20198 59007 85360=
201811270600 AAXX 27064 67663 11470 73010 10199 20179 48536 60064 72162 8357/
                   333 10288 20//0 58001 83618 87460=
201811260600 AAXX 26064 67663 11465 70609 10206 20185 48536 70522 865//
                   333 10285 20//0 59009 86618 85360=
201811230900 AAXX 23094 67663 NIL=
201811210600 AAXX 21064 67663 31960 13603 10267 20161 48534 70500 81032
                   333 10338 20//0 59015 81360 81080=
201811200600 AAXX 20064 67663 31960 01113 10246 20159 48545 70500
                   333 10332 20//0 59012=
201811190600 AAXX 19064 67663 31960 60908 10236 20162 48556 70522 83032
                   333 10341 20//0 58020 83360=
201811161200 AAXX 16124 67663 NIL=
201811160900 AAXX 16094 67663 NIL=
201811160600 AAXX 16064 67663 31960 20913 10259 20106 48546 70500 81032
                   333 10333 20//0 58002 81360 82080=
201811150600 AAXX 15064 67663 31960 21008 10241 20059 48541 70500 80002
                   333 10320 20//0 58006 82080=
201811140600 AAXX 14064 67663 31960 10814 10234 20068 48535 70500 80002
                   333 10315 20/// 59021 81080=
201811130600 AAXX 13064 67663 31960 00909 10226 20073 48555 70500
                   333 10316 20/// 59005=
201811120600 AAXX 12064 67663 31960 10908 10241 20070 48562 70500 80002
                   333 10317 20//0 59003 81080=
201811090600 AAXX 09064 67663 31560 51013 10201 20146 48556 70522 85530
                   333 10302 20//0 58001 85652 82360=
201811080600 AAXX 08064 67663 31565 50810 10239 20159 48560 70522 82530
                   333 10356 20//0 58034 82625 85360=
201811070600 AAXX 07064 67663 31965 10804 10277 20146 48530 70500 80001
                   333 10359 20//0 58005 81080=
201811060900 AAXX 06094 67663 NIL=
201811021200 AAXX 02124 67663 NIL=
201811020600 AAXX 02064 67663 31965 00504 10252 20132 48527 70500
                   333 10362 2//// 58005=
201811010600 AAXX 01064 67663 31975 10605 10251 20121 48532 70500 80002
                   333 10362 20//0 58003 81080=

################################################################################
#  SYNOPS from 67665, Lusaka Internationalairport (Zambia) | 15-19S | 028-27E | 1152 m
################################################################################
201811300900 AAXX 30094 67665 42460 70820 10214 20158 48548 70222 875//
                   333 58027 87622=
201811300600 AAXX 30064 67665 32460 81017 10201 20154 48545 885//
                   333 10295 88610 555 00///=
201811300300 AAXX 30034 67665 42980 71007 10190 20158 48529 86730
                   333 58011 86707 81360=
201811300000 AAXX 30004 67665 42360 70910 10194 20168 48524 876//
                   333 58010 87706=
201811292100 AAXX 29214 67665 42980 11007 10199 20171 48544 81030
                   333 58009 81360=
201811291200 AAXX 29124 67665 NIL=
201811290900 AAXX 29094 67665 41480 51712 10282 20164 48531 71622 84231
                   333 59006 84825 83360 82080 91019=
201811282100 AAXX 28214 67665 42980 40802 10218 20189 48527 82032
                   333 82360 84080=
201811281800 AAXX 28184 67665 42780 61106 10232 20181 48519 82032
                   333 10305 81950 82360 86080=
201811281500 AAXX 28154 67665 42680 52612 10290 20121 48503 82232
                   333 58005 82940 85360 82080
                   555 10305=
201811281200 AAXX 28124 67665 42680 62510 10293 20147 48512 84231
                   333 59003 84835 82360 81080=
201811280900 AAXX 28094 67665 42580 63107 10267 20149 48535 8117/
                   333 59003 81825 86360=
201811280600 AAXX 28064 67665 32980 73204 10225 20194 48532 87030
                   333 10298 20//0 59002 87359=
201811272100 AAXX 27214 67665 42980 31302 10207 20176 48518 83030
                   333 59002 83360=
201811271800 AAXX 27184 67665 42980 40000 10212 20174 48508 70200 82031
                   333 59005 82360 82080
                   555 10298=
201811271500 AAXX 27154 67665 42660 41306 10273 20165 48494 82231
                   333 58008 82848 82360 83080=
201811271200 AAXX 27124 67665 42660 72406 10283 20149 48514 86230
                   333 58015 86835 84360=
201811270900 AAXX 27094 67665 42460 72908 10252 20176 48536 83532
                   333 58005 83620 86360 81080=
201811270300 AAXX 27034 67665 42960 72908 10194 20183 48515 70222 87030
                   333 59006 87360=
201811262100 AAXX 26214 67665 41/59 63004 10212 20190 48520 71322 81930
                   333 59017 819// 85359=
201811260900 AAXX 26094 67665 42980 7//// 10/// 20/// 48/// 70322 83130
                   333 59021 83820 86360=
201811252100 AAXX 25214 67665 42980 4//// 10//0 20//0 48/// 80002
                   333 59011 84080=
201811251800 AAXX 25184 67665 42980 50706 10220 20174 48526 80002
                   333 59008 85080=
201811251500 AAXX 25154 67665 42680 40813 10264 20164 48513 81302
                   333 59005 819// 82845 84080=
201811251200 AAXX 25124 67665 42680 50410 10275 20159 48532 83230
                   333 59003 83838 84360=
201811250900 AAXX 25094 67665 42480 60713 10253 20165 48552 86502
                   333 59007 86625=
201811241800 AAXX 24184 67665 42980 31009 10231 20169 48535 83030
                   333 10276 58013 83360=
201811241500 AAXX 24154 67665 42680 41208 10266 20159 48520 84830
                   333 58012 82845 83645 82360=
201811240900 AAXX 24094 67665 42580 71010 10218 20173 48554 8557/
                   333 58007 85620 87359=
201811230900 AAXX 23094 67665 NIL=
201811230300 AAXX 23034 67665 41360 80903 10193 20186 48523 72162 8577/
                   333 58028 85706 88459=
201811230000 AAXX 23004 67665 41356 81410 10213 20213 48524 76022 8577/
                   333 58031 85706 88459=
201811222100 AAXX 22214 67665 41760 60105 10234 20166 48512 71322 81930
                   333 58011 81950 86310=
201811220900 AAXX 22094 67665 42680 43403 10318 20142 48519 70312 83131
                   333 59009 83830 81360 83080 91017=
201811220600 AAXX 22064 67665 32780 53007 10256 20145 48519 70322 81131
                   333 59012 81860 83360 84080=
201811220300 AAXX 22034 67665 42680 33303 10216 20145 48500 70300 81130
                   333 59014 81850 83360 81080=
201811220000 AAXX 22004 67665 42980 12604 10217 20094 48495 81030
                   333 59010 81360=
201811211800 AAXX 21184 67665 42980 31403 10286 20102 48493 81030
                   333 10353 81360 83080=
201811211500 AAXX 21154 67665 42680 60504 10336 20053 48483 82202
                   333 59017 82838 85080
                   555 10353=
201811211200 AAXX 21124 67665 42680 40605 10343 20035 48503 83202
                   333 59016 83835 82080=
201811202100 AAXX 20214 67665 42980 01502 10209 20082 48515
                   333 59023=
201811201800 AAXX 20184 67665 42980 01103 10253 20076 48509
                   333 59015=
201811201500 AAXX 20154 67665 42680 11010 10325 20030 48499 81130
                   333 59012 81845 81360=
201811201200 AAXX 20124 67665 42680 30805 10318 20076 48514 83100
                   333 59009 83833=
201811200900 AAXX 20094 67665 42680 20611 10284 20122 48541 82100
                   333 59012 82825=
201811200600 AAXX 20064 67665 32980 00811 10237 20141 48546 70200
                   333 10325 20//0 59006=
201811200300 AAXX 20034 67665 42980 01003 10186 20154 48526 70200
                   333 59010=
201811200000 AAXX 20004 67665 42980 00904 10194 20146 48524 70200
                   333 58010=
201811192100 AAXX 19214 67665 42980 01102 10222 20123 48538 70200
                   333 58018=
201811191800 AAXX 19184 67665 42980 01105 10249 20115 48524
                   333 58006 555 10325=
201811191200 AAXX 19124 67665 42680 60507 10305 20106 48522 86101
                   333 58011 86845 82080=
201811190900 AAXX 19094 67665 42680 51110 10292 20146 48554 83101
                   333 58019 83835 83080=
201811190600 AAXX 19064 67665 NIL=
201811190000 AAXX 19004 67665 42980 21203 10212 20095 48520 70100 82030
                   333 58004 82360=
201811182100 AAXX 18214 67665 42980 41504 10238 20105 48523 70200 84031
                   333 59002 84360 81080=
201811181800 AAXX 18184 67665 42980 50000 10238 20109 48509 70222 83021
                   333 59009 83360 83080=
201811181500 AAXX 18154 67665 42780 53004 10264 20104 48497 72999 81931
                   333 59007 81950 84360 83080=
201811181200 AAXX 18124 67665 42680 51010 10325 20089 48514 70322 85201
                   333 59021 85845 83080=
201811180900 AAXX 18094 67665 42680 40710 10315 20099 48539 81201
                   333 59001 81840 84080=
201811170900 AAXX 17094 67665 41960 50911 10315 20099 48551 70522 81102
                   333 58000 81825 85080=
201811170600 AAXX 17064 67665 32980 30710 10275 20084 48556 80001
                   333 10336 20//0 58003 83080=
201811162100 AAXX 16214 67665 42980 11402 10226 20040 48541 81030
                   333 58013 81360=
201811161200 AAXX 16124 67665 NIL=
201811160900 AAXX 16094 67665 NIL=
201811160600 AAXX 16064 67665 32980 20907 10261 20100 48550 80002
                   333 10326 20172 58004 82080
                   555 00///=
201811160300 AAXX 16034 67665 42980 31404 10179 20089 48520 80002
                   333 58003 83080=
201811160000 AAXX 16004 67665 42980 11702 10192 20076 48513 80001
                   333 58006 81080=
201811152100 AAXX 15214 67665 42980 21802 10200 20061 48525 80001
                   333 58005 82080=
201811150900 AAXX 15094 67665 42980 11110 10276 20047 48537 70200 80001
                   333 58006 81080 91019=
201811150600 AAXX 15064 67665 32980 10910 10238 20061 48543 81030
                   333 10312 20//0 58008 81360=
201811150000 AAXX 15004 67665 42980 01702 10174 20041 48504
                   333 59003=
201811142100 AAXX 14214 67665 42980 01203 10189 20040 48518
                   333 59001=
201811141800 AAXX 14184 67665 42980 21208 10245 20020 48512 80002
                   333 10312 58008=
201811141500 AAXX 14154 67665 42980 11006 10302 20013 48499 80001
                   333 59015 81080 555 10312=
201811141200 AAXX 14124 67665 42980 11308 10297 20015 48510 80001
                   333 59015 81080=
201811140900 AAXX 14094 67665 42980 10915 10273 20053 48529 80001
                   333 59022 81080=
201811140600 AAXX 14064 67665 32980 11010 10228 20062 48533 70200 81030
                   333 10317 20//0 59023 81360=
201811140300 AAXX 14034 67665 42980 01405 10151 20054 48512
                   333 59019=
201811131500 AAXX 13154 67665 42980 11111 10301 21005 48514 80001
                   333 59019 81080=
201811131200 AAXX 13124 67665 42980 11212 10310 20024 48526 80001
                   333 59016 81080=
201811130900 AAXX 13094 67665 42980 11113 10273 20056 48551 80001
                   333 59002 81080=
201811130600 AAXX 13064 67665 32980 10917 10224 20080 48555 70500 80001
                   333 10319 20/// 59005 81080=
201811130300 AAXX 13034 67665 42980 11404 10158 20028 48532 70200 80001
                   333 59012 81080=
201811130000 AAXX 13004 67665 42980 11304 10163 20030 48528 70200 80001
                   333 59001 81080=
201811122100 AAXX 12214 67665 42980 11704 10190 20014 48535 70200 80001
                   333 59004 81080=
201811121800 AAXX 12184 67665 42980 11004 10230 20005 48534 80001
                   333 58003 81080 555 10319=
201811121500 AAXX 12154 67665 42980 21012 10297 20067 48535 80001
                   333 58008 82080=
201811121200 AAXX 12124 67665 42980 41114 10308 21006 48542 80001
                   333 58007 84080=
201811120900 AAXX 12094 67665 42980 11208 10275 20070 48563 80001
                   333 58003 81080=
201811120600 AAXX 12064 67665 32980 10814 10228 20056 48566 70200 80001
                   333 10231 20//0 58006 81080=
201811120300 AAXX 12034 67665 42980 13502 10154 20032 48551 70200 80001
                   333 58006 81080=
201811120000 AAXX 12004 67665 42980 03502 10168 20030 48529 70200
                   333 58004=
201811112100 AAXX 11214 67665 42980 01403 10185 21072 48539 70200
                   333 58004=
201811111800 AAXX 11184 67665 42980 11203 10228 21020 48531 70200 80001
                   333 58002 81080=
201811111500 AAXX 11154 67665 42980 11509 10305 21043 48525 70200 80001
                   333 58001 81080=
201811111200 AAXX 11124 67665 42980 10611 10309 21053 48535 70200 80001
                   333 59002 81080=
201811110900 AAXX 11094 67665 42980 11110 10274 20040 48559 70200 80001
                   333 58000 81080=
201811100900 AAXX 10094 67665 42680 20911 10270 20112 48559 70300 82100
                   333 59006 82825=
201811091800 AAXX 09184 67665 42960 40604 10235 20137 48542 84030
                   333 10287 20//0 59007 83360=
201811091200 AAXX 09124 67665 42660 50909 10276 20152 48540 85102
                   333 58001 82840 83080=
201811090600 AAXX 09064 67665 32460 70813 10192 20144 48561 875//
                   333 10294 20//0 58009 87618
                   555 00///=
201811090300 AAXX 09034 67665 42980 31106 10162 20138 48541 82031
                   333 58015 82360 81080=
201811082100 AAXX 08214 67665 42980 11005 10186 20138 48553 80001
                   333 58009 81080=
201811080600 AAXX 08064 67665 32980 60918 10230 20136 48558 80002
                   333 10341 58037 86080=
201811072100 AAXX 07214 67665 42980 31605 10258 20106 48526 83030
                   333 58012 83360=
201811071800 AAXX 07184 67665 42980 31403 10258 20136 48516 83030
                   333 10341 58017 83360=
201811071500 AAXX 07154 67665 42980 51509 10310 20092 48509 85030
                   333 58020 85360 555 10341=
201811071200 AAXX 07124 67665 42660 71509 10322 20086 48514 8423/
                   333 58016 84835 86360=
201811070600 AAXX 07064 67665 42980 41003 10259 20129 48525 70300 84031
                   333 10348 20//0 58003 84360 81080=
201811061800 AAXX 06184 67665 42980 21603 10270 20090 48501 82030
                   333 10348 58001 82360=
201811061500 AAXX 06154 67665 42980 31805 10324 20076 48490 83031
                   333 58002 83360 82080=
201811061200 AAXX 06124 67665 42680 52104 10338 20064 48501 85202
                   333 59010 85845 82080=
201811060900 AAXX 06094 67665 NIL=
201811060600 AAXX 06064 67665 32680 51104 10251 20085 48521 70300 81102
                   333 10337 20//0 59018 81820 85080=
201811060300 AAXX 06034 67665 42980 02401 10186 20086 70200
                   333 59028=
201811060000 AAXX 06004 67665 42980 01403 10188 20084 48485 70200
                   333 59030=
201811051800 AAXX 05184 67665 42980 11204 10269 20090 48500 81030
                   333 59031 81360 555 10337=
201811051500 AAXX 05154 67665 42680 21206 10323 20059 48488 70100 82130
                   333 59031 82850 81360=
201811051200 AAXX 05124 67665 42680 31204 10327 20086 48508 83130
                   333 59022 83345 81360=
201811050600 AAXX 05064 67665 32980 10406 10225 20145 48436 81031
                   333 10317 20//0 59020 81359 81080=
201811050300 AAXX 05034 67665 42980 51304 10164 20137 48516 85030
                   333 59016 85360=
201811050000 AAXX 05004 67665 42980 01105 10174 20136 48511
                   333 59005=
201811042100 AAXX 04214 67665 42980 01304 10207 20140 48531
                   333 58001=
201811041800 AAXX 04184 67665 42980 31109 10242 20139 48527 70100 80001
                   333 58008 83080=
201811041500 AAXX 04154 67665 42780 51011 10293 20128 48516 70222 84201
                   333 58007 84850 84080=
201811041200 AAXX 04124 67665 42680 51007 10295 20115 48528 70222 85101
                   333 58006 85840 82080=
201811040900 AAXX 04094 67665 42680 20610 10270 20142 48551 70300 81101
                   333 58005 81830 81080=
201811031800 AAXX 03184 67665 42980 01008 10246 20110 48520
                   333 58031=
201811031500 AAXX 03154 67665 42980 00910 10298 20120 48510 81031
                   333 58032 81359 81080=
201811031200 AAXX 03124 67665 41680 30910 10298 20120 48522 70522 83100
                   333 58031 83840=
201811030900 AAXX 03094 67665 42660 61014 10258 20127 48545 70122 85502
                   333 58041 85630 83080=
201811030600 AAXX 03064 67665 32560 61019 10234 20183 48540 85502
                   333 10356 20//0 58023 85620 83080
                   555 00///=
201811030300 AAXX 03034 67665 42980 11109 10219 20138 48516 81030
                   333 58021 81360=
201811030000 AAXX 03004 67665 42960 11306 10218 20099 48499 81030
                   333 58009 81360=
201811022100 AAXX 02214 67665 42980 11503 10222 20091 48504 81030
                   333 58012 81360=
201811021200 AAXX 02124 67665 NIL=
201811020900 AAXX 02094 67665 42980 03506 10317 20092 48521
                   333 58009=
201811020600 AAXX 02064 67665 31959 00206 10266 20107 48523 70500
                   333 10359 20//0 58006=
201811020300 AAXX 02034 67665 42980 01702 10172 20085 48490
                   333 58001=
201811011800 AAXX 01184 67665 42960 21603 10258 20026 48494 82031
                   333 10359 58056 82360 81080=
201811011500 AAXX 01154 67665 42980 21105 10350 20015 48482 80002
                   333 58009 82080 555 10359=
201811011200 AAXX 01124 67665 42780 30603 10356 20030 48490 81102
                   333 58006 81856 83080=
201811010900 AAXX 01094 67665 42980 30306 10319 20009 48512 70100 80002
                   333 58001 83080 91016=
201811010600 AAXX 01064 67665 32980 40704 10260 20013 48515 70200 80001
                   333 10238 20//0 58002 84080=

################################################################################
#  SYNOPS from 67666, Lusaka City Airport (Zambia) | 15-25-00S | 028-28-00E | 1280 m
################################################################################
201811300600 AAXX 30064 67666 32480 70914 10200 20152 48538 8453/
                   333 10290 20180 58016 84612 87360 91021=
201811291200 AAXX 29124 67666 NIL=
201811290600 AAXX 29064 67666 32980 20801 10240 20179 48526 81031
                   333 10338 20200 59003 81360 81080 91019=
201811280600 AAXX 28064 67666 31980 70000 10220 20179 48522 70222 8707/
                   333 10280 20200 59001 87459 91019=
201811270600 AAXX 27064 67666 12360 63005 10211 20167 48528 69934 83830
                   333 10285 20168 59002 83620 81823 86360 91019=
201811260600 AAXX 26064 67666 31475 70807 10205 20178 48521 70500 82630
                   333 10270 20183 59016 82610 87358 91020=
201811230900 AAXX 23094 67666 NIL=
201811210600 AAXX 21064 67666 31975 10406 10250 20180 48521 70500 80001
                   333 10350 20190 59016 81080 91019=
201811200600 AAXX 20064 67666 32980 00908 10230 20151 48539
                   333 10318 20190 58000 91020=
201811190600 AAXX 19064 67666 11980 70905 10210 20163 48530 69904 72052 8707/
                   333 10331 20190 58008 87358 91020=
201811161200 AAXX 16124 67666 NIL=
201811160900 AAXX 16094 67666 42680 20911 10293 20101 48537 70300 82101
                   333 58012 82845 81080 91020=
201811160600 AAXX 16064 67666 32980 20916 10256 20112 48534 70200 80001
                   333 10319 20210 58004 82080 91020=
201811150600 AAXX 15064 67666 32980 10908 10235 20085 48532 81030
                   333 10302 20171 58008 81360 91020=
201811141200 AAXX 14124 67666 42980 10906 10288 20057 48499 80001
                   333 59013 81080 91015=
201811140600 AAXX 14064 67666 32980 00908 10225 20086 48522
                   333 10331 20181 59023=
201811130600 AAXX 13064 67666 31970 00912 10207 20080 48548 70500
                   333 10308 20161 59008 91022=
201811120600 AAXX 12064 67666 32980 10909 10220 20086 48556 80001
                   333 10320 20180 58005 81080 91023=
201811090900 AAXX 09094 67666 42980 10906 10230 20151 48551 81031
                   333 58002 81360 81080 91022=
201811090600 AAXX 09064 67666 32480 61010 10180 20139 48553 86500
                   333 10289 20160 58009 86615 91023=
201811080900 AAXX 08094 67666 41775 70908 10261 20148 48544 70500 83206
                   333 58033 83840 85280 91022=
201811080600 AAXX 08064 67666 31975 50910 10221 20143 48541 70500 80006
                   333 10346 20203 58033 85280 91020=
201811070600 AAXX 07064 67666 31970 60907 10269 20113 48516 70500 82038
                   333 10350 20225 58004 82360 85280 91018=
201811060900 AAXX 06094 67666 NIL=
201811021200 AAXX 02124 67666 NIL=
201811020900 AAXX 02094 67666 41970 04507 10310 20114 48510 70500
                   333 58010 91017=
201811020600 AAXX 02064 67666 31970 00905 10254 20114 48514 70500
                   333 10354 20180 58011 91018=
201811010900 AAXX 01094 67666 41970 60909 10303 20025 48499 70500 80006
                   333 59001 86280 91016=
201811010600 AAXX 01064 67666 31970 40908 10259 20052 48505 70500 80006
                   333 10350 20179 58000 84280 91016=

################################################################################
#  SYNOPS from 67667, Mount Makulu (Zambia) | 15-33S | 028-15E | 1213 m
################################################################################
201811300600 AAXX 30064 67667 11580 71502 10/// 20170 48593 60394 70222 86508
                   333 10316 20182 58012 86625 87280=
201811291200 AAXX 29124 67667 NIL=
201811290600 AAXX 29064 67667 31980 50501 10244 20199 48581 70222 80008
                   333 10310 20196 5//// 85280=
201811280600 AAXX 28064 67667 32580 73501 10228 20189 48/// 70222 87508
                   333 10301 20204 5//// 86625 85280=
201811270600 AAXX 27064 67667 12980 60801 10216 20216 48580 60054 70222 84031
                   333 10320 20188 58018 84360 82080=
201811261200 AAXX 26124 67667 41680 73601 10284 20197 48521 71722 84208
                   333 5//// 81950 84845 87280=
201811260600 AAXX 26064 67667 32980 60905 10242 20198 48562 80002
                   333 10310 20193 59017 86080=
201811230900 AAXX 23094 67667 NIL=
201811210600 AAXX 21064 67667 31980 00602 10272 20182 48579 70500
                   333 10360 20220 58018=
201811200600 AAXX 20064 67667 31970 00602 10250 20179 48594 70500
                   333 10344 20188 58002=
201811190600 AAXX 19064 67667 31970 60701 10234 20190 48592 70500 80002
                   333 10362 20178 58005 86080=
201811161200 AAXX 16124 67667 41670 60905 10326 20150 48545 70522 86200
                   333 58017 86845=
201811160900 AAXX 16094 67667 NIL=
201811160600 AAXX 16064 67667 31970 10911 10268 20166 48570 70500 80001
                   333 10344 20170 58006 81082=
201811151200 AAXX 15124 67667 41970 40804 10310 20122 48529 70500 80001
                   333 58000 84082=
201811150900 AAXX 15094 67667 41970 40904 10298 20129 48555 70500 80001
                   333 58000 84082=
201811150600 AAXX 15064 67667 31970 20907 10246 20120 48564 70500 80001
                   333 10328 20188 58003 82082=
201811140600 AAXX 14064 67667 31970 90602 10238 20130 48585 70500
                   333 10322 20176 58021=
201811130600 AAXX 13064 67667 31970 01301 10228 20120 48606 70500
                   333 10336 20168 58006=
201811120600 AAXX 12064 67667 31970 10611 10244 20130 48612 70500 80001
                   333 10338 20178 58028 81080=
201811090900 AAXX 09094 67667 41670 20904 10250 20175 48582 70500 81101
                   333 58003 81830 82082=
201811090600 AAXX 09064 67667 31670 20907 10200 20150 48589 70500 81101
                   333 10334 20168 58006 81830 82082=
201811080600 AAXX 08064 67667 31970 70901 10232 20171 48608 70500 80008
                   333 10356 20208 59032 59032 87280=
201811070600 AAXX 07064 67667 31670 71001 10262 20172 48576 70500 86501
                   333 10370 20176 59028 86630 84080=
201811061200 AAXX 06124 67667 41670 72501 10318 20155 48519 70522 86402
                   333 59007 86648 86082=
201811060900 AAXX 06094 67667 41970 50907 10300 20111 48509 70500 80006
                   333 59016 85280 91017=
201811021200 AAXX 02124 67667 41670 50604 10350 20168 48514 70500 85100
                   333 58007 85845=
201811020900 AAXX 02094 67667 41670 13602 10324 20172 48535 70500 81100
                   333 58009 81840=
201811020600 AAXX 02064 67667 31970 03605 10276 20161 48555 70500
                   333 10384 20182 58021=
201811011200 AAXX 01124 67667 41670 20904 10352 20136 48507 70500 82101
                   333 59017 82845 81082=
201811010900 AAXX 01094 67667 41970 43607 10328 20108 48526 70522 80002
                   333 59007 84082=
201811010600 AAXX 01064 67667 31970 70910 10278 20089 48536 70522 80008
                   333 10354 20212 58001 87282=

################################################################################
#  SYNOPS from 67673, Petauke (Zambia) | 14-15S | 031-17E | 1035 m
################################################################################
201811300600 AAXX 30064 67673 32480 70904 10195 20180 48541 8457/
                   333 10270 20182 59009 84620 87460=
201811291200 AAXX 29124 67673 NIL=
201811290600 AAXX 29064 67673 12980 80000 10210 20202 48645 60074 8807/
                   333 10330 20195 58030 88360=
201811280600 AAXX 28064 67673 12584 40000 10248 20191 48531 60084 83131
                   333 10308 20188 59014 83828 84360 83080=
201811270600 AAXX 27064 67673 32980 70000 10252 20190 48562 8707/
                   333 10295 20202 58009 87360=
201811260600 AAXX 26064 67673 12980 70000 10225 20215 48530 60024 8117/
                   333 10250 20195 59038 71830 87360=
201811230900 AAXX 23094 67673 NIL=
201811200600 AAXX 20064 67673 12980 00000 10225 20176 48535 60254
                   333 10336 20170 59027=
201811191200 AAXX 19124 67673 41580 73001 10208 20180 48524 72992 8523/
                   333 58044 81930 85830 87359=
201811190900 AAXX 19094 67673 41560 73601 10218 20205 48549 76362 8527/
                   333 5//// 85830 87459=
201811190600 AAXX 19064 67673 12580 61002 10258 20183 48568 60054 84132
                   333 10308 20198 58008 84830 83360 86080=
201811161200 AAXX 16124 67673 NIL=
201811160900 AAXX 16094 67673 41675 50505 10320 20130 48559 70522 84102
                   333 58018 84840 85080=
201811160600 AAXX 16064 67673 31975 30903 10282 20138 48555 70500 83031
                   333 10344 20216 59043 83360 82080=
201811130600 AAXX 13064 67673 31975 10903 10226 20112 48566 70500 81030
                   333 10324 20184 59024 81360=
201811120600 AAXX 12064 67673 31959 00905 10234 20090 48522 70500
                   333 10340 20//0 58002=
201811090600 AAXX 09064 67673 32970 83602 10188 20142 48501 8807/
                   333 10285 20200 59012 88360=
201811071200 AAXX 07124 67673 41670 50901 10350 20135 48516 70500 82100
                   333 59083 85840=
201811070900 AAXX 07094 67673 41670 30302 10334 20146 48539 70500 83101
                   333 59034 83835 81080=
201811070600 AAXX 07064 67673 31970 10202 10296 20125 48562 70500 80001
                   333 10382 20234 59001 81080=
201811060900 AAXX 06094 67673 41959 01201 10320 20090 48593 70500
                   333 59015=
201811021200 AAXX 02124 67673 NIL=

################################################################################
#  SYNOPS from 67731, Senanga (Zambia) | 16-06S | 023-16E | 1027 m
################################################################################
201811300600 AAXX 30064 67731 12480 420// 10236 20182 48/// 60134 70222 83102
                   333 10348 20201 58004 83820 83080
                   555 00124=
201811291200 AAXX 29124 67731 NIL=
201811290600 AAXX 29064 67731 32480 709// 10237 20173 48/// 70222 84532
                   333 10305 20200 59001 84615 84360 85080
                   555 00114=
201811280600 AAXX 28064 67731 32480 718// 10248 20198 48/// 70322 85520
                   333 10333 20212 59005 85612 86460
                   555 00148=
201811270600 AAXX 27064 67731 12480 818// 10212 20190 48/// 60044 70322 87520
                   333 10324 20186 58003 87615 87460
                   555 00123=
201811260600 AAXX 26064 67731 32980 709// 10231 20163 48/// 70222 85032
                   333 10347 20197 58000 85360 86080
                   555 00119=
201811230900 AAXX 23094 67731 42980 709// 10280 20187 48/// 70222 86088
                   333 59007 86365 86280=
201811210600 AAXX 21064 67731 32980 001// 10273 20158 48///
                   333 10365 20210 59022=
201811201200 AAXX 20124 67731 42680 812// 10347 20164 48/// 70300 85200
                   333 59008 85832=
201811200900 AAXX 20094 67731 42980 027// 10323 20183 48/// 70200
                   333 59013=
201811200600 AAXX 20064 67731 12980 020// 10261 20178 48/// 60084 70200
                   333 10389 20204 555 00123=
201811191200 AAXX 19124 67731 42680 503// 10345 20161 48/// 70322 84202
                   333 59017 84840 84080=
201811190900 AAXX 19094 67731 42980 027// 10299 20167 48/// 70200
                   333 58007=
201811190600 AAXX 19064 67731 32980 031// 10239 20145 48/// 70200
                   333 10381 20195 59001
                   555 00139=
201811161200 AAXX 16124 67731 42980 126// 10366 20065 48/// 70300 81100
                   333 58017 81830=
201811160900 AAXX 16094 67731 42980 018// 10352 20094 48/// 70200
                   333 58011=
201811160600 AAXX 16064 67731 32980 016// 10292 20078 48/// 70200
                   333 10369 20182 58012
                   555 00102=
201811150600 AAXX 15064 67731 32980 027// 10240 20084 48/// 70200
                   333 10375 20199 59008
                   555 00121=
201811141200 AAXX 14124 67731 42980 009// 10358 20091 48/// 70200
                   333 59015=
201811140600 AAXX 14064 67731 32980 009// 10260 20051 48/// 70200
                   333 10357 20149 59020
                   555 00084=
201811120600 AAXX 12064 67731 32980 008// 10268 20045 48/// 70200
                   333 10343 20197 59010
                   555 00114=
201811090600 AAXX 09064 67731 32980 604// 10249 20134 48/// 70222 84032
                   333 10358 20179 58009 84361 86080
                   555 00117=
201811081200 AAXX 08124 67731 42680 510// 10344 20127 48/// 70322 83209
                   333 58012 83832 82180=
201811080600 AAXX 08064 67731 12980 112// 10252 20126 48/// 69954 70200 80008
                   333 10360 20183 58013 81080
                   555 00128=
201811071200 AAXX 07124 67731 42680 304// 10358 20150 48/// 70300 83200
                   333 58002 83830=
201811070900 AAXX 07094 67731 42980 001// 10328 20148 48/// 70200
                   333 59001=
201811070600 AAXX 07064 67731 32980 105// 10263 20160 48/// 70200 81030
                   333 10340 20201 59002 81360
                   555 00154=
201811061200 AAXX 06124 67731 42580 618// 10320 20162 48/// 82232
                   333 58007 82827 83362 84080=
201811060900 AAXX 06094 67731 42980 527// 10274 20171 48/// 82077
                   333 58008 82363 83280=
201811021200 AAXX 02124 67731 NIL=
201811020900 AAXX 02094 67731 42580 510// 10307 20154 48/// 70300 82570
                   333 58012 82627 84362=
201811020600 AAXX 02064 67731 32980 427// 10267 20134 48/// 70122 84080
                   333 10388 20176 58012 84360
                   555 00093=

################################################################################
#  SYNOPS from 67741, Sesheke (Zambia) | 17-28S | 024-18E | 949 m
################################################################################
201811291200 AAXX 29124 67741 NIL=
201811260900 AAXX 26094 67741 41680 83603 10192 20177 48/// 79596 8197/
                   333 5//// 81940 87461=
201811260600 AAXX 26064 67741 11675 70904 10213 20202 48/// 60024 79596 8197/
                   333 10356 20210 5//// 81940 87461=
201811231200 AAXX 23124 67741 41670 70912 10334 20183 48/// 79796 86232
                   333 5//// 81950 86850 81362 81080=
201811230900 AAXX 23094 67741 42680 32708 10318 20192 48/// 81132
                   333 5//// 81850 83362 81080=
201811210600 AAXX 21064 67741 32980 40000 10268 20157 48/// 83070
                   333 10385 20196 5//// 84362=
201811201200 AAXX 20124 67741 42680 31803 10//0 20168 48/// 83200
                   333 5//// 83850=
201811200900 AAXX 20094 67741 42680 10403 10338 20188 48/// 81100
                   333 5//// 81850=
201811200600 AAXX 20064 67741 12980 03604 10290 20180 48/// 60014
                   333 10376 20187 5////=
201811190900 AAXX 19094 67741 42980 03608 10337 20171 48///
                   333 5////=
201811190600 AAXX 19064 67741 32980 13505 10278 20162 48/// 81032
                   333 10388 20176 5//// 81362 81080=
201811161200 AAXX 16124 67741 42680 11004 10368 20098 48/// 81100
                   333 5//// 81850=
201811160900 AAXX 16094 67741 42980 00903 10343 20105 48///
                   333 5////=
201811160600 AAXX 16064 67741 32980 01003 10248 20098 48///
                   333 10367 20154 5////=
201811141200 AAXX 14124 67741 42980 00901 10366 20110 48///
                   333 5////=
201811140600 AAXX 14064 67741 32980 00701 10261 20090 48///
                   333 10355 20105 5////=
201811120600 AAXX 12064 67741 32980 01201 10247 20085 48///
                   333 10356 20118 5////=
201811090600 AAXX 09064 67741 32980 30901 10246 20166 48/// 80008
                   333 10350 20174 5//// 83280=
201811080900 AAXX 08094 67741 42980 31201 10290 20179 48/// 83031
                   333 5//// 83362 81080=
201811080600 AAXX 08064 67741 32980 21302 10239 20164 48/// 81031
                   333 10371 20148 5//// 81362 82080=
201811071200 AAXX 07124 67741 42680 50000 10355 20144 48/// 85201
                   333 5//// 85850 81080=
201811070900 AAXX 07094 67741 42980 10801 10324 20163 48/// 81030
                   333 5//// 81362=
201811070600 AAXX 07064 67741 12980 10000 10256 20167 48/// 69904 81030
                   333 10321 20179 5//// 81362=
201811060900 AAXX 06094 67741 42980 60000 10276 20170 48/// 86070
                   333 5//// 86462=
201811021200 AAXX 02124 67741 NIL=

################################################################################
#  SYNOPS from 67743, Livingstone (Zambia) | 17-49S | 025-49E | 985 m
################################################################################
201811300600 AAXX 30064 67743 32980 60911 10212 20135 48545 86070
                   333 10323 20195 59018 86358 91021=
201811291200 AAXX 29124 67743 NIL=
201811290900 AAXX 29094 67743 42680 61314 10261 20166 48534 70200 85231
                   333 58020 85838 82358 83080 91019=
201811290600 AAXX 29064 67743 12580 71207 10221 20190 48527 60284 70200 82531
                   333 10350 20195 58017 82630 84357 84080 91019=
201811280600 AAXX 28064 67743 32980 30207 10261 20174 48517 83031
                   333 10330 20205 59013 83360 81080 91017=
201811271200 AAXX 27124 67743 42680 50711 10298 20144 48499 70222 85201
                   333 59008 85845 81080 91014=
201811270600 AAXX 27064 67743 12980 40706 10234 20152 48526 60464 84031
                   333 10306 20172 58005 84359 81080 91018=
201811260600 AAXX 26064 67743 12980 3//// 10237 20175 48523 60024 83031
                   333 10330 20190 59018 83360 81080 91018=
201811230900 AAXX 23094 67743 NIL=
201811191200 AAXX 19124 67743 42780 50306 10345 20106 48512 85200
                   333 58013 85856 91014=
201811190600 AAXX 19064 67743 32980 00714 10272 20105 48543 70200
                   333 10395 20201 58012 91019=
201811161200 AAXX 16124 67743 NIL=
201811160900 AAXX 16094 67743 42980 01104 10324 20020 48539
                   333 58007 91018=
201811160600 AAXX 16064 67743 32980 10907 10259 20016 48536 80001
                   333 10365 20160 58009 81080 91019=
201811140600 AAXX 14064 67743 31960 41211 10239 20079 48513 70511 80002
                   333 10330 20152 59022 84080 91018=
201811120900 AAXX 12094 67743 42980 01312 10305 20020 48562
                   333 58008 91021=
201811120600 AAXX 12064 67743 32980 00911 10258 20007 48560
                   333 10370 20164 58010 91021=
201811080600 AAXX 08064 67743 32980 11015 10205 20118 48553 70200 80001
                   333 10375 2//// 58037 81079 91022=
201811071200 AAXX 07124 67743 42780 51606 10335 20070 48512 85231
                   333 58000 82850 84360 81080 91015=
201811070600 AAXX 07064 67743 11980 21007 10257 20120 48525 69904 70200 80002
                   333 10320 20205 58012 82075 91018=
201811060900 AAXX 06094 67743 NIL=
201811021200 AAXX 02124 67743 NIL=
201811020900 AAXX 02094 67743 42980 03307 10340 20029 48502
                   333 58005 91013=
201811020600 AAXX 02064 67743 12680 61102 10257 20090 48487 69904 70300 86530
                   333 10385 20216 58004 81635 86357 91013=
201811010900 AAXX 01094 67743 41975 03011 10318 20083 48495 70500
                   333 58004 91013=
201811010600 AAXX 01064 67743 31975 03111 10271 20028 48487 70500
                   333 10394 20201 59006 91013=

################################################################################
#  SYNOPS from 67751, Magoye (Zambia) | 16-00S | 027-36E | 1018 m
################################################################################
201811300600 AAXX 30064 67751 32680 60913 10244 20161 48/// 82130
                   333 10302 20201 5//// 82831 85360=
201811291200 AAXX 29124 67751 NIL=
201811230900 AAXX 23094 67751 NIL=
201811200600 AAXX 20064 67751 31978 00404 10230 20080 48/// 70522
                   333 10346 20212 5////=
201811190600 AAXX 19064 67751 31977 20404 10262 20142 48/// 70500 82040
                   333 10344 20148 59010 82650=
201811161200 AAXX 16124 67751 NIL=
201811160900 AAXX 16094 67751 NIL=
201811160600 AAXX 16064 67751 31975 00704 10277 20140 48/// 70500
                   333 10254 20154 58006=
201811120600 AAXX 12064 67751 31980 00908 10264 20083 48/// 70500
                   333 10347 20165 5////=
201811090600 AAXX 09064 67751 31978 31203 10232 20082 48/// 70522 85030
                   333 10353 20119 5//// 85360=
201811080600 AAXX 08064 67751 31977 31321 10257 20163 48/// 70500 80001
                   333 10350 20174 5//// 83080=
201811070600 AAXX 07064 67751 31977 71305 10270 20122 70522 8701/
                   333 10360 20209 5//// 87460=
201811060900 AAXX 06094 67751 NIL=
201811021200 AAXX 02124 67751 NIL=
201811020600 AAXX 02064 67751 31976 23604 10286 20090 70500 80001
                   333 10370 20120 5//// 82080=
201811010600 AAXX 01064 67751 31965 40104 10267 20040 48/// 70522 80001
                   333 10369 20108 5//// 84080=

################################################################################
#  SYNOPS from 67753, Choma (Zambia) | 16-50S | 027-04E | 1213 m
################################################################################
201811291200 AAXX 29124 67753 NIL=
201811270600 AAXX 27064 67753 12960 72802 10205 20190 48530 60094 87030
                   333 10289 20170 59003 87360=
201811260600 AAXX 26064 67753 12960 61805 10214 20185 48521 60334 86030
                   333 10295 20180 59016 86360=
201811230900 AAXX 23094 67753 NIL=
201811210600 AAXX 21064 67753 31760 01810 10260 20150 48515 70500
                   333 10344 20186 59020=
201811200600 AAXX 20064 67753 31960 01808 10235 20165 48533 70500
                   333 10334 20190 59008=
201811190600 AAXX 19064 67753 31960 11910 10250 20165 48543 70500 81030
                   333 10346 20180 58012 81360=
201811161200 AAXX 16124 67753 NIL=
201811160900 AAXX 16094 67753 NIL=
201811160600 AAXX 16064 67753 32960 03004 10249 20120 48533
                   333 10323 20154 58008=
201811120600 AAXX 12064 67753 32960 02804 10229 20110 48551
                   333 10312 20152 58008=
201811090600 AAXX 09064 67753 31960 20913 10218 20159 48550 70500 80001
                   333 10261 20132 59001 82080=
201811080600 AAXX 08064 67753 31560 41008 10215 20164 48550 70500 83501
                   333 10320 20184 58037 83620 81080=
201811070600 AAXX 07064 67753 31960 71108 10255 20151 48524 70500 87050
                   333 10325 20194 59011 87360=
201811060900 AAXX 06094 67753 NIL=
201811021200 AAXX 02124 67753 NIL=

################################################################################
#  SYNOPS from 67855, Lupaki (Zambia) | 17-03-00S | 024-46-00E | 1000 m
################################################################################
201811300600 AAXX 30064 67855 32575 31010 10220 20140 3//// 48/// 83531
                   333 20180 5//// 83625=
201811291200 AAXX 29124 67855 41975 70301 10276 20188 3//// 48/// 70262 85072
                   333 5//// 85459 87080=
201811290600 AAXX 29064 67855 11960 81805 10188 20179 3//// 48/// 60044 76198 8807/
                   333 20188 5//// 88458=
201811280600 AAXX 28064 67855 32975 43601 10236 20186 3//// 48/// 84031
                   333 20183 5//// 84360=
201811270600 AAXX 27064 67855 11975 70301 10198 20186 3//// 48/// 60204 70262 8707/
                   333 20179 5//// 87459=
201811261200 AAXX 26124 67855 42775 52102 10332 20159 3//// 48/// 85202
                   333 5//// 85856 83080=
201811260600 AAXX 26064 67855 32975 50702 10246 20173 3//// 48/// 85072
                   333 20198 5//// 85360 83080=
201811251200 AAXX 25124 67855 42770 52001 10312 20138 3//// 48/// 85200
                   333 5//// 85856=
201811220600 AAXX 22064 67855 31970 30701 10298 20136 3//// 48/// 70511 81031
                   333 20196 5//// 81360 83080=
201811210600 AAXX 21064 67855 31970 23601 10292 20110 38/// 48/// 70500 82030
                   333 20180 5//// 82360=
201811201200 AAXX 20124 67855 41770 31907 10346 20085 3//// 48/// 70500 83100
                   333 83856=
201811200600 AAXX 20064 67855 31970 03607 10272 20115 3//// 48/// 70500
                   333 20205 5////=
201811190900 AAXX 19094 67855 41770 30507 10332 20129 3//// 48/// 70500 83100
                   333 5//// 83850=
201811180600 AAXX 18064 67855 31970 10205 10290 20101 3//// 48/// 70500 81031
                   333 20170 5//// 81360=
201811171200 AAXX 17124 67855 41870 70301 10368 20075 3//// 48/// 70522 85202
                   333 5//// 85857 87080=
201811170900 AAXX 17094 67855 41770 73602 10358 20093 3//// 48/// 70522 81102
                   333 5//// 81856 87080=
201811170600 AAXX 17064 67855 31970 70303 10278 20068 3//// 48/// 70522 80002
                   333 20122 5//// 87080=
201811161200 AAXX 16124 67855 41870 21802 10354 20034 3//// 48/// 70500 82100
                   333 5//// 82857=
201811160600 AAXX 16064 67855 31970 01103 10266 20100 3//// 48/// 70500
                   333 20154 5////=
201811151200 AAXX 15124 67855 41870 01805 10368 20030 3//// 48/// 70500
                   333 5////=
201811140600 AAXX 14064 67855 31970 00607 10236 20050 3//// 48/// 70500
                   333 20105 5////=
201811131200 AAXX 13124 67855 41970 00712 10366 20003 3//// 48/// 70500
                   333 5////=
201811130600 AAXX 13064 67855 31970 01307 10228 20085 3//// 48/// 70500
                   333 20180 5////=
201811121500 AAXX 12154 67855 41970 00710 10348 21013 3//// 48/// 70500
                   333 5////=
201811121200 AAXX 12124 67855 41970 01806 10352 21013 3//// 48/// 70500
                   333 5////=
201811120900 AAXX 12094 67855 41970 00405 10326 20020 3//// 48/// 70500
                   333 5////=
201811120600 AAXX 12064 67855 31970 00707 10248 20050 3//// 70500
                   333 20130 5////=
201811100600 AAXX 10064 67855 31970 61308 10228 20064 3//// 48/// 70522 83202
                   333 20155 5//// 83360 86080=
201811091200 AAXX 09124 67855 41770 51901 10310 20113 3//// 48/// 70522 85202
                   333 5//// 85856 83080=
201811090900 AAXX 09094 67855 41770 52102 10288 20134 3//// 48/// 70522 81102
                   333 5//// 81850 85080=
201811081200 AAXX 08124 67855 42775 31905 10314 20104 3//// 48/// 81101
                   333 5//// 81850 83080=
201811080600 AAXX 08064 67855 12975 50608 10196 20114 3//// 48/// 69904 81031
                   333 20145 5//// 81360 85080=
201811061200 AAXX 06124 67855 41775 71801 10286 20186 3//// 48/// 70398 8527/
                   333 5//// 85850 87459=
201811060600 AAXX 06064 67855 12975 70000 10226 20148 3//// 48/// 69904 8707/
                   333 20195 5//// 87360=
201811050600 AAXX 05064 67855 31970 13605 10252 20150 3//// 48/// 70500 81030
                   333 20180 5//// 81360=
201811041200 AAXX 04124 67855 41870 53101 10346 20119 3//// 48/// 70522 85202
                   333 5//// 85857 83080=
201811021200 AAXX 02124 67855 41870 50401 10380 20088 38/// 48/// 70511 85231
                   333 5//// 85857=
201811020900 AAXX 02094 67855 41970 03308 10372 20068 3//// 48/// 70500
                   333 5////=
201811020600 AAXX 02064 67855 31970 00000 10272 20120 3//// 48/// 70500
                   333 20125 5////=
201811010600 AAXX 01064 67855 31970 03602 10292 20031 38/// 48/// 70500
                   333 20195 5////=
