################################################################################
# Query made at 04/17/2022 11:26:19 UTC
# Country like Zamb*
# Time interval: from 04/01/2008 05:30  to 05/01/2008 05:30  UTC
################################################################################

################################################################################
#  SYNOPS from 67413, Mbala (Zambia) | 08-51S | 031-20E | 1673 m
################################################################################
200804230600 AAXX 23064 67413 32970 71515 10175 20151 48530 875//
                   333 10265 20152 59007 87606=
200804160600 AAXX 16064 67413 31480 61516 10176 20156 48533 70522 85530
                   333 10260 20155 58007 85613 82360=
200804020600 AAXX 02064 67413 32480 50910 10180 20164 48527 85300
                   333 10263 20155 58008 85618=

################################################################################
#  SYNOPS from 67441, Mwinilunga (Zambia) | 11-45S | 024-26E | 1361 m
################################################################################
200804250900 AAXX 25094 67441 42682 30913 10245 20159 48557 81101
                   333 59005 82835 81080=
200804250600 AAXX 25064 67441 32980 61303 10168 20155 48552 80001
                   333 10275 20130 58005 86080=
200804240600 AAXX 24064 67441 32980 11211 10187 20151 48547 81030
                   333 10290 20143 59006 81360=
200804231000 AAXX 2310/ 67441 42680 11807 10250 20157 48562 81100
                   333 5//// 81840=
200804230900 AAXX 23094 67441 42680 11807 10250 20157 48562 81100
                   333 5//// 81840=
200804230600 AAXX 23064 67441 32980 01503 10160 20125 48553
                   333 10285 20112 58000=
200804180600 AAXX 18064 67441 32980 31803 10175 20159 48562 82041
                   333 10282 20135 58000 82360 81080=
200804081200 AAXX 08124 67441 41680 61505 10268 20160 48526 71799 81933
                   333 59014 81930 84835 82362 81080=
200804070600 AAXX 07064 67441 12980 70000 10175 20175 48564 60064 8707/
                   333 10300 20180 58013 87360=
200804040600 AAXX 04064 67441 32980 11605 10170 20137 48540 81041
                   333 10280 20123 5//// 81360 81080=

################################################################################
#  SYNOPS from 67461, Mansa (Zambia) | 11-06S | 028-51E | 1382 m
################################################################################
200804181200 AAXX 18124 67461 42780 51203 10275 20148 48571 83208
                   333 59002 83850 85280=
200804101200 AAXX 10124 67461 42680 51205 10270 20166 48506 84230
                   333 58003 84850 82360=
200804081200 AAXX 08124 67461 42780 60903 10280 20154 48503 84208
                   333 59006 81950 84850 86280=
200804070600 AAXX 07064 67461 12580 71203 10188 20174 48535 60054 8257/
                   333 10330 20165 58013 82625 87460=
200804041200 AAXX 04124 67461 42680 50905 10256 20146 48500 84231
                   333 5//// 84840 81362 82080=
200804040600 AAXX 04064 67461 32580 31206 10178 20142 48514 81501
                   333 10275 20122 58006 81620 83080=
200804020900 AAXX 02094 67461 42680 50905 10264 20166 48566 82231
                   333 5//// 82835 83362=
200804020600 AAXX 02064 67461 32/// 61006 10200 20159 48578 82538
                   333 10280 20150 5//// 82620 82362 86280=

################################################################################
#  SYNOPS from 67475, Kasama (Zambia) | 10-13S | 031-08E | 1382 m
################################################################################
200804250600 AAXX 25064 67475 32480 61014 10173 20163 48533 85631
                   333 10258 20135 59006 85615 83361 86080=
200804240600 AAXX 24064 67475 12480 61014 10198 20157 48541 69944 85531
                   333 10252 20199 58009 85612 82361 81080=
200804231000 AAXX 2310/ 67475 42580 71012 10232 20157 48532 875//
                   333 5//// 87625=
200804230900 AAXX 23094 67475 42580 71012 10232 20157 48532 875//
                   333 5//// 87625=
200804230600 AAXX 23064 67475 32480 71015 10192 20168 48532 875//
                   333 10290 20145 58000 87615=
200804070600 AAXX 07064 67475 11305 73603 10180 20180 48533 60024 74044 8463/
                   333 10273 20150 58006 84607 87360=
200804050600 AAXX 05064 67475 32480 40815 10200 20163 48513 81531
                   333 10253 20154 58001 81610 81360 84080=
200804020600 AAXX 02064 67475 12480 50908 10198 20165 48524 69904 83532
                   333 10273 20153 58007 83615 82361 85280=

################################################################################
#  SYNOPS from 67476, Misamfu (Zambia) | 10-06S | 031-15E | 1536 m
################################################################################
200804160600 AAXX 16064 67476 32480 71308 10200 20176 48///
                   333 10252 20155 58005 85618 86361=
200804020600 AAXX 02064 67476 32480 51708 10201 20162 83130
                   333 10270 20152 58007 83818 82361=

################################################################################
#  SYNOPS from 67477, Mpika (Zambia) | 11-54S | 031-26E | 1400 m
################################################################################
200804250600 AAXX 25064 67477 32380 81106 10165 20140 48541 885//
                   333 10244 20155 59004 88608=

################################################################################
#  SYNOPS from 67481, Isoka (Zambia) | 10-07S | 032-38E | 1360 m
################################################################################
200804180600 AAXX 18064 67481 12980 11202 10192 20160 48/// 69954 8002/
                   333 10281 20139 5//// 81080=

################################################################################
#  SYNOPS from 67531, Zambezi (Zambia) | 13-32S | 023-07E | 1077 m
################################################################################
200804250900 AAXX 25094 67531 42980 61006 10246 20159 48/// 80008
                   333 59001 86282=
200804250600 AAXX 25064 67531 32980 51205 10181 20148 48/// 80008
                   333 10032 20124 58005 85282=
200804240900 AAXX 24094 67531 42680 11207 10256 20152 48/// 81100
                   333 59008 81838=
200804240600 AAXX 24064 67531 32980 01207 10191 20149 48///
                   333 10305 20119 59010=
200804231000 AAXX 2310/ 67531 42980 01207 10260 20121 48///
                   333 59003=
200804230900 AAXX 23094 67531 42980 01207 10260 20121 48///
                   333 59003=
200804230600 AAXX 23064 67531 32980 01803 10152 20095 48///
                   333 10295 20095 58001=
200804020900 AAXX 02094 67531 42580 70902 10225 20162 48/// 8117/
                   333 58024 81824 87460=
200804020600 AAXX 02064 67531 32980 70903 10200 20161 48/// 8707/
                   333 10300 20174 58017 87359=

################################################################################
#  SYNOPS from 67551, Solwezi (Zambia) | 12-11S | 026-23E | 1386 m
################################################################################
200804160600 AAXX 16064 67551 12980 50905 10190 20159 48523 60064 81038
                   333 10283 20150 58008 81362 84282=

################################################################################
#  SYNOPS from 67561, Ndola (Zambia) | 13-00S | 028-39E | 1269 m
################################################################################
200804240900 AAXX 24094 67561 42680 60909 10241 20146 48547 86200
                   333 58005 86830=
200804240600 AAXX 24064 67561 32980 10807 10190 20141 48539 81303
                   333 10285 20130 58008 81361=
200804210600 AAXX 21064 67561 31965 60000 10180 20158 48520 72842 80008
                   333 10305 20140 59006 86280=
200804190400 AAXX 19044 67561 41960 10000 10127 20102 48513 70500 81030
                   333 59010=
200804181200 AAXX 18124 67561 41670 61604 10267 20142 48521 70511 86200
                   333 58001 86830=
200804170600 AAXX 17064 67561 31975 10804 10205 20164 48540 70500 81030
                   333 10299 20144 58010 81361=

################################################################################
#  SYNOPS from 67563, Kafironda (Zambia) | 12-36S | 028-07E | 1243 m
################################################################################
200804300900 AAXX 30094 67563 41678 10905 10260 20150 48/// 70500 81100
                   333 58004 81840=
200804180900 AAXX 18094 67563 42580 20603 10275 20150 48/// 82100
                   333 58006 82820=
200804160600 AAXX 16064 67563 31970 10901 10186 20170 48/// 70540 80001
                   333 10297 20127 58004 81080=
200804081200 AAXX 08124 67563 41580 61206 10275 20150 48/// 71792 81932
                   333 59011 81930 86835 81359 81080=
200804050600 AAXX 05064 67563 31975 11402 10181 20140 48/// 70540 80001
                   333 10280 20124 58001 81080=
200804020600 AAXX 02064 67563 32980 33604 10212 20150 83030
                   333 10296 20130 58010 83357=

################################################################################
#  SYNOPS from 67571, Serenje (Zambia) | 13-14S | 030-13E | 1384 m
################################################################################
200804300900 AAXX 30094 67571 42584 50605 10262 20154 48525 85100
                   333 58006 85825=
200804160600 AAXX 16064 67571 32484 60913 10205 20175 48522 82101
                   333 10282 20162 58000 81080=

################################################################################
#  SYNOPS from 67580, Msekera (Zambia) | 13-39S | 032-34E | 1025 m
################################################################################
200804230900 AAXX 23094 67580 42684 71608 10252 20164 48/// 878//
                   333 58015 83835 86640=
200804230600 AAXX 23064 67580 12484 11608 10201 20145=
200804180900 AAXX 18094 67580 42984 01804 10261 20082 48///
                   333 58003=
200804180600 AAXX 18064 67580 32984 00000 10215 20135 48///
                   333 10277 20148 58001=
200804170900 AAXX 17094 67580 42684 72403 10262 20162 48/// 86231
                   333 58013 86840 81360 82080=
200804170600 AAXX 17064 67580 32984 20000 10226 20169 48/// 82031
                   333 10309 20169 58008 82360 81080=
200804160600 AAXX 16064 67580 12984 11503 10228 20175 48/// 69904 81030
                   333 10280 20162 58004 81360=
200804101200 AAXX 10124 67580 42782 70000 10262 20162 48/// 872//
                   333 58007 81950 86850=
200804081200 AAXX 08124 67580 42784 71205 10306 20152 48/// 84208
                   333 59009 81950 83856 86280=
200804050600 AAXX 05064 67580 32980 11602 10196 20129 48/// 80001
                   333 10264 20128 59005 81080=
200804020600 AAXX 02064 67580 32584 11604 10196 20154 48/// 81100
                   333 10286 20146 48011 81820=

################################################################################
#  SYNOPS from 67581, Chipata (Zambia) | 13-33S | 032-35E | 1028 m
################################################################################
200804240600 AAXX 24064 67581 32484 71206 10198 20155 48556 81530
                   333 10258 20176 58010 81612 87360=
200804230600 AAXX 23064 67581 12984 01705 10200 20134 48548 60044
                   333 10296 20210 58010=
200804070600 AAXX 07064 67581 32684 10808 10240 20177 48550 81100
                   333 10305 20175 58013 81830=
200804020900 AAXX 02094 67581 42684 51403 10252 20158 48544 85100
                   333 58014 85840=
200804020600 AAXX 02064 67581 32684 11108 10208 20150 48542 81100
                   333 10288 20166 58009 81820=

################################################################################
#  SYNOPS from 67583, Lundazi (Zambia) | 12-17S | 033-12E | 1143 m
################################################################################
200804170900 AAXX 17094 67583 42680 71803 10255 20180 48/// 875//
                   333 58010 87635=

################################################################################
#  SYNOPS from 67599, Mfuwe (Zambia) | 13-16S | 031-56E | 568 m
################################################################################
200804291500 AAXX 29154 67599 42780 30000 10315 20199 48531 82230
                   333 59003 82856 83360=
200804291200 AAXX 29124 67599 42780 40000 10320 20197 48534 84200
                   333 59007 84850=
200804280900 AAXX 28094 67599 42680 42105 10290 20186 48568 84200
                   333 59007 84835=
200804280600 AAXX 28064 67599 32980 00000 10220 20174 48549
                   333 10335 20//0 59007=
200804231500 AAXX 23154 67599 41680 71805 10275 20194 48550 72122 9197/
                   333 58032 81945 82850 87460=
200804231200 AAXX 23124 67599 42780 50000 10295 20184 48562 85200
                   333 58034 85850=
200804230900 AAXX 23094 67599 42980 62705 10255 20162 48575 70322 8607/
                   333 58026 86460=
200804220900 AAXX 22094 67599 42680 41004 10305 20204 48567 70322 83230
                   333 58009 83840 82360=
200804220600 AAXX 22064 67599 32980 21504 10240 20196 48550 82030
                   333 10350 20//0 58009 82360=
200804210600 AAXX 21064 67599 32980 31505 10240 20188 48542 80002
                   333 10349 20//0 59012 83080=
200804180600 AAXX 18064 67599 32980 71303 10202 20157 48552 87030
                   333 10305 20146 59003 87360=
200804171200 AAXX 17124 67599 42680 70000 10294 20202 48552 8323/
                   333 58015 81840 87360=
200804170900 AAXX 17094 67599 42580 51204 10282 20198 48572 81130
                   333 58013 81827 85360=
200804170600 AAXX 17064 67599 32980 71806 10231 20202 48559 8707/
                   333 10335 20//0 58007 87460=
200804151200 AAXX 15124 67599 42680 52105 10310 20194 48541 81900
                   333 58014 81945 85850=
200804150900 AAXX 15094 67599 42680 50904 10285 20189 48599 70322 82130
                   333 58009 82835=
200804131200 AAXX 13124 67599 42780 30000 10305 20196 48520 83130
                   333 59006 83850 82360=
200804101200 AAXX 10124 67599 42680 50000 10305 20196 48541 85200
                   333 58010 85840=
200804091500 AAXX 09154 67599 42680 60000 10254 20219 48509 71792 82932
                   333 58010 82930 84360 85080=
200804091200 AAXX 09124 67599 41680 60000 10254 20204 48516 71799 82932
                   333 59001 82930 82830 83360 85080=
200804090600 AAXX 09064 67599 12980 40000 10224 20210 48542 60164 84030
                   333 10350 20//0 59001 84360=
200804081200 AAXX 08124 67599 42680 52407 10325 20194 48539 81900
                   333 59011 81935 85840=
200804060900 AAXX 06094 67599 42580 10405 10290 20190 48564 81130
                   333 59001 81828 81360=
200804050600 AAXX 05064 67599 32980 00000 10194 20139 48535
                   333 10315 20//0 59002=
200804040900 AAXX 04094 67599 42980 00906 10275 20130 48558
                   333 59017=
200804031200 AAXX 03124 67599 42780 41705 10310 20156 48558 84200
                   333 58014=
200804011500 AAXX 01154 67599 42980 50000 10300 20190 48520 85030
                   333 58003 85360=
200804011200 AAXX 01124 67599 32980 10000 10225 20171 48541 81030
                   333 10334 20//0 59002 81360=

################################################################################
#  SYNOPS from 67633, Mongu (Zambia) | 15-15S | 023-09E | 1052 m
################################################################################
200804250600 AAXX 25064 67633 32982 30910 10185 20135 48530 83030
                   333 10316 20150 59004 83361=
200804240600 AAXX 24064 67633 32982 00910 10182 20134 48533
                   333 10288 20147 59007=
200804070600 AAXX 07064 67633 32980 10904 10215 20160 48533 81030
                   333 10310 20170 58011 81360=
200804041200 AAXX 04124 67633 42682 31004 10278 20136 48509 83201
                   333 59014 83845 81080=
200804020600 AAXX 02064 67633 32982 60909 10196 20144 49519 85058
                   333 10318 20175 58013 85361 86280=

################################################################################
#  SYNOPS from 67641, Kaoma (Zambia) | 14-48S | 024-48E | 1213 m
################################################################################
200804070600 AAXX 07064 67641 32980 10501 10206 20175 48531 81030
                   333 10325 20159 58018 81360=
200804041200 AAXX 04124 67641 42682 41006 10265 20136 48510 83202
                   333 59011 83845 82080=
200804040600 AAXX 04064 67641 32982 21002 10166 20230 48509 81032
                   333 10280 20120 59009 81360 81080=
200804020900 AAXX 02094 67641 42980 31208 10265 20148 48524 83030
                   333 58005 83360=

################################################################################
#  SYNOPS from 67655, Mumbwa (Zambia) | 15-04S | 027-11E | 1216 m
################################################################################
200804230600 AAXX 23064 67655 32980 21206 10157 20131 48549 80001
                   333 10288 20108 58021 82076=
200804170600 AAXX 17064 67655 32980 00903 10193 20161 48551
                   333 10275 20138 58012=
200804081200 AAXX 08124 67655 42580 71201 10263 20181 48521 87200
                   333 59010 87830=

################################################################################
#  SYNOPS from 67663, Kabwe (Zambia) | 14-27S | 028-28E | 1206 m
################################################################################
200804230600 AAXX 23064 67663 32982 00000 10148 20046 48532
                   333 10270 20093 59010=

################################################################################
#  SYNOPS from 67665, Lusaka Internationalairport (Zambia) | 15-19S | 028-27E | 1152 m
################################################################################
200805010400 AAXX 01044 67665 42980 21403 10128 20//0 48521 82030
                   333 58003 82360=
200805010300 AAXX 01034 67665 42980 20000 10129 20//0 48517 82040
                   333 58004 82360=
200804302100 AAXX 30214 67665 42980 10000 10130 20//0 48515 81030
                   333 58004 81360=
200804301200 AAXX 30124 67665 42980 40509 10260 20122 48525 82032
                   333 58000 82360 82080=
200804300600 AAXX 30064 67665 32980 61104 10170 20122 48536 85031
                   333 10272 20128 58004 85360 86080=
200804291800 AAXX 29184 67665 42980 00000 10171 20000 48525
                   333 10272 58003=
200804291500 AAXX 29154 67665 42780 51105 10253 20125 48524 81232
                   333 58002 81850 82360 84080=
200804291200 AAXX 29124 67665 42680 51005 10269 20130 48526 81102
                   333 59004 81840 84080=
200804281200 AAXX 28124 67665 42680 50904 10254 20135 48528 85200
                   333 59010 85840=
200804280900 AAXX 28094 67665 42980 10805 10236 20135 48555 80001
                   333 59005 81080=
200804280600 AAXX 28064 67665 32980 21206 10168 20129 48545 80001
                   333 10271 20116 59005 82080=
200804271200 AAXX 27124 67665 42680 31005 10264 20120 48539 83200
                   333 58004 81840=
200804270600 AAXX 27064 67665 32980 01005 10163 20141 48548
                   333 10263 20120 58002=
200804260600 AAXX 26064 67665 32980 51004 10159 20105 48545 85001
                   333 10238 20100 59009 85078=
200804260400 AAXX 26044 67665 42980 30000 10114 20096 48528 81031
                   333 58003 81360 83080=
200804260300 AAXX 26034 67665 42980 10000 10110 20//0 48524 80001
                   333 59005 81080=
200804260000 AAXX 26004 67665 42980 10000 10116 20/// 48524 80001
                   333 59005 81080=
200804252100 AAXX 25214 67665 42980 10000 10140 20//0 48535 80001
                   333 59007 81080=
200804251200 AAXX 25124 67665 42680 30807 10228 20159 48539 83100
                   333 59013 83840=
200804250900 AAXX 25094 67665 42580 70908 10195 20146 48560 875//
                   333 59004 87625=
200804250600 AAXX 25064 67665 32480 21106 10151 20134 48551 70300 81530
                   333 10220 20112 59003 81610 82360=
200804241200 AAXX 24124 67665 42680 70608 10210 20146 48550 87500
                   333 58003 87635=
200804240900 AAXX 24094 67665 42580 70810 10203 20145 48567 87500
                   333 58002 87620=
200804240600 AAXX 24064 67665 32980 71008 10154 20135 48556 87500
                   333 10271 20109 58001 87609=
200804240400 AAXX 24044 67665 42980 11303 10116 20//0 48542
                   333 58004 81359=
200804240300 AAXX 24034 67665 42980 01105 10114 20//0 48537
                   333 58008=
200804232100 AAXX 23214 67665 42980 00000 10136 20//0 48554
                   333 58008=
200804231800 AAXX 23184 67665 42980 00703 10176 48552
                   333 10271 58014=
200804231200 AAXX 23124 67665 42980 10709 10245 20138 48553 81031
                   333 58011 81360 81080=
200804231000 AAXX 23104 67665 42970 30905 10220 20120 48566 70500 80002
                   333 58014 83080=
200804230900 AAXX 23094 67665 42970 30905 10220 20120 48566 70500 80002
                   333 58014 83080=
200804230600 AAXX 23064 67665 32970 21012 10154 20126 48553 70500 80001
                   333 10269 20114 58017 81080=
200804221200 AAXX 22124 67665 42980 61208 10246 20089 48543 80002
                   333 58020 86280=
200804220900 AAXX 22094 67665 42980 51111 10240 20082 48557 80002
                   333 58017 85280=
200804220600 AAXX 22064 67665 32980 40000 10179 20095 48522 80001
                   333 10296 20114 58014 84080=
200804211200 AAXX 21124 67665 42680 10273 20142 48525 84200
                   333 58004 84848=
200804210900 AAXX 21094 67665 42680 12503 10269 20170 48544 81200
                   333 59001 81835=
200804210600 AAXX 21064 67665 32980 10000 10185 20145 48530 80001
                   333 10296 20136 59006 81080=
200804201500 AAXX 20154 67665 42780 20000 10281 20140 48515 81230
                   333 59003 81850 81350=
200804201200 AAXX 20124 67665 42680 40000 10268 20145 48521 84200
                   333 59003 84840=
200804200600 AAXX 20064 67665 32980 00000 10172 20155 48533
                   333 10270 20112 59009=
200804191200 AAXX 19124 67665 42680 11407 10255 20093 48521 81100
                   333 59021 81842=
200804190400 AAXX 19044 67665 42980 10000 10112 20090 48521 80001
                   333 59012 81080=
200804190300 AAXX 19034 67665 42980 10000 10117 48520 80001
                   333 59008 81080=
200804190000 AAXX 19004 67665 42980 10000 10134 48521 80001
                   333 59010 81080=
200804182100 AAXX 18214 67665 42980 10000 10149 20//0 48533 81031
                   333 59012 81360 81080=
200804181200 AAXX 18124 67665 42680 41109 10262 20133 48543 84200
                   333 58000 84842=
200804180900 AAXX 18094 67665 42980 20805 10239 20150 48568 70500 80001
                   333 58002 82080=
200804180600 AAXX 18064 67665 32980 21103 10163 20133 48554 70500 80001
                   333 10280 20129 58004 82080=
200804171200 AAXX 17124 67665 42670 51008 10268 20152 48544 70500 85100
                   333 58005 85845=
200804170900 AAXX 17094 67665 42670 20907 10248 20156 48565 70500 82100
                   333 58011 82830=
200804170600 AAXX 17064 67665 32980 10904 10179 20134 48543 81030
                   333 10276 20139 58009 81360=
200804170400 AAXX 17044 67665 42980 11403 10148 20//0 48539 81032
                   333 58014 81360 81080=
200804170300 AAXX 17034 67665 42980 10000 10145 20//0 48531 80002
                   333 58010=
200804162100 AAXX 16214 67665 42980 10000 10163 20//0 48538 80002
                   333 58000 81080=
200804160900 AAXX 16094 67665 42580 10606 10244 20160 48553 81101
                   333 58008 81825 81080=
200804151500 AAXX 15154 67665 42780 31203 10260 20143 48524 81202
                   333 58014 81850 82080=
200804151200 AAXX 15124 67665 42680 31207 10261 20138 48528 82102
                   333 58011 82835 81080=
200804150900 AAXX 15094 67665 42580 20807 10239 20143 48547 81101
                   333 58005 81820 81080=
200804150800 AAXX 15084 67665 42580 20807 10239 20143 48547 81101
                   333 58005 81820 81080=
200804141200 AAXX 14124 67665 42680 40908 10263 20144 48517 84101
                   333 58007 84838 81080=
200804140900 AAXX 14094 67665 42980 10708 10236 20140 48542 80002
                   333 58008 81080=
200804140600 AAXX 14064 67665 32980 11004 10165 20134 48533 80001
                   333 10274 20125 58007 81080=
200804131500 AAXX 13154 67665 42780 21003 10259 20133 48504 82200
                   333 59006 82850=
200804121200 AAXX 12124 67665 42680 50907 10257 20148 48517 85200
                   333 59009 85838=
200804120600 AAXX 12064 67665 32970 01009 10172 20142 48529 70500
                   333 10264 20125 59006=
200804120400 AAXX 12044 67665 42980 00000 10135 20//0 48511
                   333 59007=
200804120300 AAXX 12034 67665 42980 00000 10134 20//0 48508
                   333 59012=
200804111200 AAXX 11124 67665 42670 31109 10256 20149 48525 83100
                   333 59005 83839=
200804102100 AAXX 10214 67665 42980 11203 10153 20//0 48524 81030
                   333 59003 81360=
200804101200 AAXX 10124 67665 42680 50808 10257 20149 48531 85131
                   333 58005 85840 83360 81080=
200804100400 AAXX 10044 67665 42980 30000 10151 20//0 48524 83030
                   333 59010 83360=
200804100300 AAXX 10034 67665 42980 10000 10143 20//0 48518 81030
                   333 59008 81360=
200804092100 AAXX 09214 67665 42980 10000 10159 20//0 48527 81030
                   333 59004 81360=
200804091800 AAXX 09184 67665 42980 10000 10188 48518 81030
                   333 10270 59005 81360=
200804091500 AAXX 09154 67665 42780 51008 10240 20148 48517 82232
                   333 58004 82856 84360 84080=
200804091200 AAXX 09124 67665 42680 70806 10255 20140 48526 85232
                   333 58004 85840 85360 83080=
200804090600 AAXX 09064 67665 11480 71003 10182 20176 48544 69964 76062 81532
                   333 10295 20173 58009 81610 83360 87080=
200804081800 AAXX 08184 67665 41780 60000 10201 20//0 48525 71322 81932
                   333 10295 59006 81957 83857 85360 84080=
200804081500 AAXX 08154 67665 41680 70000 10239 20197 48513 71722 81932
                   333 59004 81946 84846 85360 82080=
200804081200 AAXX 08124 67665 42680 50711 10280 20185 48525 85200
                   333 59011 81935 85835=
200804071800 AAXX 07184 67665 41780 21103 10211 20190 48532 81933
                   333 58002 81956 81362 82080=
200804071500 AAXX 07154 67665 42780 31205 10285 20172 48523 83202
                   333 59001 81950 83850 81080=
200804071200 AAXX 07124 67665 42680 40503 10282 20176 48536 84200
                   333 58005 84840=
200804070600 AAXX 07064 67665 32980 21204 10196 20171 48547 81031
                   333 10296 20121 58009 81360 81080=
200804061200 AAXX 06124 67665 42680 30105 10273 20141 48529 83100
                   333 58013 83842=
200804060900 AAXX 06094 67665 42980 10503 10240 20127 48548 81030
                   333 59001 81360=
200804051500 AAXX 05154 67665 42980 12002 10246 20116 48511 80002
                   333 59013 81080=
200804051200 AAXX 05124 67665 42980 50704 10249 20119 48519 85002
                   333 59013 85080=
200804050600 AAXX 05064 67665 32980 11107 10153 20117 48531 80001
                   333 10250 20104 59005 81080 91021=
200804050400 AAXX 05044 67665 42980 10000 10111 20//0 48516 81030
                   333 59003 81360=
200804050000 AAXX 05004 67665 42980 00000 10123 20/// 48513
                   333 59003=
200804042100 AAXX 04214 67665 42980 00000 10129 20//0 48528
                   333 59003=
200804041800 AAXX 04184 67665 42980 21404 10154 20//0 48527 81032
                   333 59009 81360 82080=
200804041200 AAXX 04124 67665 42680 40905 10232 20123 48530 84100
                   333 59013 84840=
200804040900 AAXX 04094 67665 42680 60812 10210 20125 48549 86500
                   333 59015 86625=
200804040600 AAXX 04064 67665 32480 11010 10163 20136 48536 81530
                   333 10254 20117 59019 81610 81360=
200804032100 AAXX 03214 67665 42980 11503 10142 20//0 48534 81030
                   333 58018 81360=
200804031200 AAXX 03124 67665 42680 51110 10252 20129 48546 85101
                   333 59008 85840 81080=
200804030400 AAXX 03044 67665 42980 10000 10133 20//0 48533 81030
                   333 58019 81360=
200804022100 AAXX 02214 67665 42980 10000 10147 20//0 48538 81030
                   333 58021 81360=
200804021800 AAXX 02184 67665 42980 31204 10171 81032
                   333 58025 81360 83080=
200804020900 AAXX 02094 67665 42580 60810 10216 20147 48552 86131
                   333 59012 86830 81360 83080 91022=
200804020600 AAXX 02064 67665 32480 60910 10164 20144 48540 86500
                   333 10260 20130 58004 86612=
200804011800 AAXX 01184 67665 42980 00000 10176 20//0 48513
                   333 10260 59002=
200804011500 AAXX 01154 67665 42780 31103 10248 20132 48512 83100
                   333 59002 83850=
200804011200 AAXX 01124 67665 4//// 40905 10245 20135 48519 84200
                   333 58003 84835=

################################################################################
#  SYNOPS from 67666, Lusaka City Airport (Zambia) | 15-25S | 028-19E | 1280 m
################################################################################
200804300900 AAXX 30094 67666 42980 10913 10228 20114 48536 81031
                   333 58006 81360 81080=
200804230900 AAXX 23094 67666 42980 30916 10208 20138 48553 80002
                   333 58011 83080=
200804230600 AAXX 23064 67666 31975 61212 10169 20101 48544 80008
                   333 10250 20127 58012 86280=
200804180900 AAXX 18094 67666 42980 10914 10230 20134 48552 80001
                   333 58001 81080=
200804180600 AAXX 18064 67666 32980 10909 10185 20126 48550 80001
                   333 10265 20155 58005 81080=
200804170900 AAXX 17094 67666 42680 30813 10240 20137 48551 83100
                   333 58003 83830=
200804170600 AAXX 17064 67666 31974 10907 10202 20140 48546 70500 81030
                   333 10264 20160 58011 81360=
200804160600 AAXX 16064 67666 32980 01010 10190 20134 48534
                   333 10265 20150 58006=
200804081200 AAXX 08124 67666 42780 50810 10270 20162 48508 85200
                   333 59003 85840=
200804050600 AAXX 05064 67666 32980 20910 10170 20071 48526 81031
                   333 10235 20125 59005 81359 81080=
200804020600 AAXX 02064 67666 32480 30910 10165 20134 48529 885//
                   333 10245 20134 58007 88610=

################################################################################
#  SYNOPS from 67667, Mount Makulu (Zambia) | 15-33S | 028-15E | 1213 m
################################################################################
200804180600 AAXX 18064 67667 32980 11305 10194 20129 80001
                   333 10275 20139 81083=
200804101200 AAXX 10124 67667 42680 60906 10255 20144 48/// 85202
                   333 5//// 85835 83082=
200804060600 AAXX 06064 67667 32980 10000 10101 20119 48534 81032
                   333 10270 20119 58000 81360 81080=
200804020600 AAXX 02064 67667 32680 30904 10182 20133 83100
                   333 10256 20140 83830=

################################################################################
#  SYNOPS from 67741, Sesheke (Zambia) | 17-28S | 024-18E | 949 m
################################################################################
200804170600 AAXX 17064 67741 32980 00902 10165 20114 48546
                   333 10300 20103 58008=
200804160600 AAXX 16064 67741 32980 60902 10195 20172 48545 86030
                   333 10314 20140 58015 86362=
200804020600 AAXX 02064 67741 32980 30803 10195 20150 48533 81032
                   333 10298 20132 85011 81362 82080=

################################################################################
#  SYNOPS from 67743, Livingstone (Zambia) | 17-49S | 025-49E | 985 m
################################################################################
200804300600 AAXX 30064 67743 32980 20606 10167 20104 48524 82031
                   333 10310 20130 58002 82360 81080=
200804291500 AAXX 29154 67743 42980 50805 10290 20095 48515 82102
                   333 59009 82858 84080=
200804291200 AAXX 29124 67743 42880 40000 10284 20091 48518 81132
                   333 59013 81857 81360 84080=
200804280600 AAXX 28064 67743 32980 31402 10180 20130 48538 80001
                   333 10295 20120 59002 83080=
200804260600 AAXX 26064 67743 32980 21406 10162 20134 48535 80001
                   333 10270 20110 59011 82080=
200804250600 AAXX 25064 67743 32980 00907 10165 20122 48544
                   333 10276 20120 59002=
200804240900 AAXX 24094 67743 42780 30712 10225 20126 48566 83100
                   333 59004 83850=
200804240600 AAXX 24064 67743 32980 01009 10160 20117 48649
                   333 10282 20130 59001=
200804231200 AAXX 23124 67743 42780 10906 10266 20067 48551 81100
                   333 58002 81857=
200804231000 AAXX 23104 67743 42980 00810 10215 20082 48570
                   333 58003=
200804230900 AAXX 23094 67743 42980 00810 10215 20082 48570
                   333 58003=
200804220900 AAXX 22094 67743 42980 01110 10215 20011 48563
                   333 58008=
200804220600 AAXX 22064 67743 32980 01305 10136 20029 48547
                   333 10276 20080 58007=
200804210600 AAXX 21064 67743 32980 41408 10162 20008 48544 80001
                   333 10325 20135 58053 84080=
200804180600 AAXX 18064 67743 32980 71303 10202 20157 48552 87030
                   333 10305 20146 59003 87360=
200804171200 AAXX 17124 67743 42780 60704 10291 20085 48549 82108
                   333 58008 82856 86280=
200804170600 AAXX 17064 67743 32980 00909 10190 20076 48553
                   333 10300 20110 5////=
200804151200 AAXX 15124 67743 42780 60504 10290 20150 48527 85139
                   333 58018 85856 82360 82080=
200804101200 AAXX 10124 67743 42780 50809 10290 20150 48527 85200
                   333 58005 85856=
200804091500 AAXX 09154 67743 42780 40805 10270 20162 48512 84260
                   333 59006 84856 83360=
200804091200 AAXX 09124 67743 42680 40805 10278 20155 48523 84200
                   333 58007 84840=
200804071200 AAXX 07124 67743 42880 52603 10315 20130 48533 85100
                   333 58000 85857=
200804060900 AAXX 06094 67743 42980 41707 10265 20103 48548 82030
                   333 5//// 82360=
200804050600 AAXX 05064 67743 32980 30705 10190 20102 48528 80001
                   333 10280 20110 59014 83080=
200804041200 AAXX 04124 67743 42780 63102 10257 20093 48532 82202
                   333 59014 82850 85080=
200804040900 AAXX 04094 67743 42780 20408 10245 20100 48550 81202
                   333 59015 81850 81080=
200804040600 AAXX 04064 67743 32980 20909 10170 20090 48536 70300 81002
                   333 59011 82080=

################################################################################
#  SYNOPS from 67753, Choma (Zambia) | 16-50S | 027-04E | 1213 m
################################################################################
200804250900 AAXX 25094 67753 42680 60912 10222 20136 86200
                   333 5//// 86830=
200804250600 AAXX 25064 67753 32480 20908 10168 20148 82500
                   333 10245 20112 82612=
200804240900 AAXX 24094 67753 42580 50908 10214 20138 48/// 85100
                   333 5//// 85825=
200804240600 AAXX 24064 67753 32480 20912 10167 20126 48/// 82500
                   333 10245 20106 5//// 82612=
200804230600 AAXX 23064 67753 32980 10907 10149 20090 80002
                   333 10266 20034 59005=
200804170900 AAXX 17094 67753 41660 33606 10245 20212 48/// 70500 83100
                   333 5//// 83830=
200804101200 AAXX 10124 67753 41670 70912 10244 20146 48/// 70522 87200
                   333 5//// 87830=
200804081200 AAXX 08124 67753 41680 70610 10287 20176 48/// 71792 83207
                   333 5//// 81940 83840 87280=
200804070600 AAXX 07064 67753 32980 70906 10211 20158 48/// 80007
                   333 10289 20109 5//// 87280=
200804041200 AAXX 04124 67753 42680 30906 10227 20108 48/// 83102
                   333 5//// 83835 82080=
200804040600 AAXX 04064 67753 32580 70903 10155 20130 48/// 875//
                   333 10250 20118 87620=
200804020600 AAXX 02064 67753 32580 20812 10185 20148 82500
                   333 10254 20119 82620=

################################################################################
#  SYNOPS from 67855, Lupaki (Zambia) | 17-03-00S | 024-46-00E | 1000 m
################################################################################
200804301800 AAXX 30184 67855 NIL=
200804301200 AAXX 30124 67855 NIL=
200804300600 AAXX 30064 67855 NIL=
200804300000 AAXX 30004 67855 NIL=
200804291800 AAXX 29184 67855 NIL=
200804291200 AAXX 29124 67855 NIL=
200804290600 AAXX 29064 67855 NIL=
200804290000 AAXX 29004 67855 NIL=
200804281800 AAXX 28184 67855 NIL=
200804281200 AAXX 28124 67855 NIL=
200804280600 AAXX 28064 67855 NIL=
200804280000 AAXX 28004 67855 NIL=
200804271800 AAXX 27184 67855 NIL=
200804271200 AAXX 27124 67855 NIL=
200804270600 AAXX 27064 67855 NIL=
200804270000 AAXX 27004 67855 NIL=
200804261800 AAXX 26184 67855 NIL=
200804261200 AAXX 26124 67855 NIL=
200804260600 AAXX 26064 67855 NIL=
200804260000 AAXX 26004 67855 NIL=
200804251800 AAXX 25184 67855 NIL=
200804251200 AAXX 25124 67855 NIL=
200804250600 AAXX 25064 67855 NIL=
200804250000 AAXX 25004 67855 NIL=
200804241800 AAXX 24184 67855 NIL=
200804241200 AAXX 24124 67855 NIL=
200804240000 AAXX 24004 67855 NIL=
200804140600 AAXX 14064 67855 32980 01101 10150 20072 38/// 48///
                   333 20072 5////=
200804140000 AAXX 14004 67855 NIL=
200804131800 AAXX 13184 67855 NIL=
200804131200 AAXX 13124 67855 NIL=
200804130600 AAXX 13064 67855 NIL=
200804130000 AAXX 13004 67855 NIL=
200804121800 AAXX 12184 67855 NIL=
200804121200 AAXX 12124 67855 NIL=
200804120600 AAXX 12064 67855 NIL=
200804120000 AAXX 12004 67855 NIL=
200804111800 AAXX 11184 67855 NIL=
200804111200 AAXX 11124 67855 NIL=
200804110600 AAXX 11064 67855 NIL=
200804110000 AAXX 11004 67855 NIL=
200804101800 AAXX 10184 67855 NIL=
200804101200 AAXX 10124 67855 NIL=
200804100600 AAXX 10064 67855 NIL=
200804100000 AAXX 10004 67855 NIL=
200804091800 AAXX 09184 67855 NIL=
200804091200 AAXX 09124 67855 NIL=
200804090600 AAXX 09064 67855 NIL=
200804090000 AAXX 09004 67855 NIL=
200804081800 AAXX 08184 67855 NIL=
200804081200 AAXX 08124 67855 NIL=
200804080600 AAXX 08064 67855 NIL=
200804041800 AAXX 04184 67855 NIL=
200804041200 AAXX 04124 67855 NIL=
200804040600 AAXX 04064 67855 NIL=
200804040000 AAXX 04004 67855 NIL=
200804031800 AAXX 03184 67855 NIL=
200804031200 AAXX 03124 67855 NIL=
200804030600 AAXX 03064 67855 NIL=
200804030000 AAXX 03004 67855 NIL=
200804021800 AAXX 02184 67855 NIL=
200804021200 AAXX 02124 67855 NIL=
200804020600 AAXX 02064 67855 NIL=
200804020000 AAXX 02004 67855 NIL=
200804011800 AAXX 01184 67855 NIL=
200804011200 AAXX 01124 67855 NIL=
200804010600 AAXX 01064 67855 NIL=
