################################################################################
# Query made at 04/10/2022 06:27:22 UTC
# Country like Zamb*
# Time interval: from 01/31/2020 23:30  to 03/02/2020 23:30  UTC
################################################################################

################################################################################
#  SYNOPS from 67403, Kawambwa (Zambia) | 09-48S | 029-05E | 1323 m
################################################################################
202003020600 AAXX 02064 67403 11956 80901 10185 20182 48521 60904 76166 8807/
                   333 10282 20187 58001 88460=
202002281200 AAXX 28124 67403 NIL=
202002271200 AAXX 27124 67403 NIL=
202002270600 AAXX 27064 67403 31480 30901 10220 20197 48510 81530
                   333 10300 20192 58002 81615 83360
                   555 00184=
202002260900 AAXX 26094 67403 NIL=
202002260600 AAXX 26064 67403 11480 71201 10195 20187 48506 60144 70322 82530
                   333 10283 20176 59011 82610 87360=
202002250900 AAXX 25094 67403 NIL=
202002250600 AAXX 25064 67403 11475 80901 10193 20194 48517 60054 70322 8753/
                   333 10267 20184 58003
                   555 00195=
202002241200 AAXX 24124 67403 NIL=
202002240600 AAXX 24064 67403 31975 82401 10207 20198 48514 70522 8803/
                   333 10300 20194 59009 88360
                   555 00202=
202002210600 AAXX 21064 67403 11480 60902 10208 20200 48523 60054 70322 86530
                   333 10290 20180 58004 86615 83360
                   555 00176=
202002200600 AAXX 20064 67403 12980 71801 10206 20179 48519 60194 87030
                   333 10279 20172 58002 87360
                   555 00180=
202002190600 AAXX 19064 67403 12980 50902 10219 20198 48518 60024 85031
                   333 10300 20178 59002 85360 81080
                   555 00178=
202002180600 AAXX 18064 67403 11475 71202 10207 20197 48519 60054 70322 8353/
                   333 10300 20185 59002 83610 87360
                   555 00198=
202002170600 AAXX 17064 67403 31975 60901 10205 20193 48521 70522 86030
                   333 10298 20190 58008 86360
                   555 00198=
202002140600 AAXX 14064 67403 11356 83402 10192 20199 48503 60064 76166 8277/
                   333 10284 20190 58007 82708 88460
                   555 00200=
202002120600 AAXX 12064 67403 31975 70901 10211 20187 48413 70522 87030
                   333 10298 20180 59012 87360
                   555 00184=
202002110900 AAXX 11094 67403 NIL=
202002110600 AAXX 11064 67403 11975 70901 10195 20181 48524 60044 70522 87030
                   333 10281 20172 58001 87360
                   555 00167=
202002100600 AAXX 10064 67403 11975 70902 10203 20197 48523 60084 72262 85037
                   333 10268 20184 59004 85360 87280
                   555 00184=
202002030600 AAXX 03064 67403 11360 70901 10192 20189 48537 60194 72162 8353/
                   333 10244 20174 58002 86310 87360=

################################################################################
#  SYNOPS from 67413, Mbala (Zambia) | 08-51S | 031-20E | 1673 m
################################################################################
202003020600 AAXX 02064 67413 11475 70202 10176 20173 48540 60764 78066 877//
                   333 10266 20164 5//// 87710 91024=
202002281200 AAXX 28124 67413 NIL=
202002271200 AAXX 27124 67413 NIL=
202002270600 AAXX 27064 67413 12780 71802 10198 20177 48529 60474 8707/
                   333 10266 20164 59003 87456 91023=
202002260900 AAXX 26094 67413 NIL=
202002260600 AAXX 26064 67413 12480 72702 10185 20174 48533 60064 8267/
                   333 10248 20168 59009 82712 87456 91023=
202002250900 AAXX 25094 67413 NIL=
202002241200 AAXX 24124 67413 NIL=
202002240600 AAXX 24064 67413 12580 72602 10196 20189 48527 60044 8707/
                   333 10276 20158 5//// 87456 91023=
202002190600 AAXX 19064 67413 12580 63602 10210 20176 48541 60014 82101
                   333 10266 20166 58002 82820 85076 91024=
202002180600 AAXX 18064 67413 NIL=
202002140600 AAXX 14064 67413 11475 83002 10180 20171 48536 60334 72166 887//
                   333 10258 20162 58009 88710 91023=
202002110900 AAXX 11094 67413 NIL=

################################################################################
#  SYNOPS from 67441, Mwinilunga (Zambia) | 11-45S | 024-26E | 1361 m
################################################################################
202003020600 AAXX 02064 67441 12380 70000 10200 20192 48546 69984 8473/
                   333 10270 2//// 59005 84707 87360=
202002281200 AAXX 28124 67441 NIL=
202002280600 AAXX 28064 67441 12980 70000 10186 20184 48/// 60174 8703/
                   333 10274 2//// 5//// 87360=
202002271200 AAXX 27124 67441 NIL=
202002270600 AAXX 27064 67441 12580 60000 10205 20196 48540 60114 86500
                   333 10272 20//0 5//// 86620=
202002260900 AAXX 26094 67441 NIL=
202002260600 AAXX 26064 67441 12380 80000 10195 20186 48/// 60094 887//
                   333 10270 2//// 5//// 88709=
202002250900 AAXX 25094 67441 NIL=
202002241200 AAXX 24124 67441 NIL=
202002240600 AAXX 24064 67441 12380 70000 10195 20186 48/// 60074 877//
                   333 10298 2//// 5//// 87708=
202002210600 AAXX 21064 67441 11309 70000 10185 20185 48548 60044 74244 8473/
                   333 10290 2//// 59006 84707 87360=
202002200600 AAXX 20064 67441 12380 60000 10195 20190 48554 60064 84730
                   333 10280 2//// 58007 84709 86360=
202002190600 AAXX 19064 67441 12380 70000 10185 20185 48547 60164 8373/
                   333 10300 2//// 59006 83708 87360=
202002180600 AAXX 18064 67441 NIL=
202002170600 AAXX 17064 67441 11970 80000 10180 20180 48562 60034 76066 8802/
                   333 10290 2//// 5//// 88460=
202002140600 AAXX 14064 67441 32380 80000 10197 20185 48525 887//
                   333 10296 2//// 59004 88709=
202002130600 AAXX 13064 67441 12680 60000 10195 20186 48529 60024 84401
                   333 10300 2//// 59014 84835 83070=
202002120600 AAXX 12064 67441 32380 50000 10195 20186 48543 82630
                   333 10272 2//// 59018 82709 85360=
202002110900 AAXX 11094 67441 42980 70000 10220 20169 48569 8703/
                   333 58011 87360=
202002110600 AAXX 11064 67441 11380 73203 10182 20179 48560 60194 72166 8472/
                   333 10307 2//// 58014 84708 87460=
202002100600 AAXX 10064 67441 32980 60000 10190 20181 48546 86030
                   333 10280 2//// 59016 86360=
202002030600 AAXX 03064 67441 12380 70000 10192 20181 48565 60024 8363/
                   333 10262 20//0 58014 83707 87360=

################################################################################
#  SYNOPS from 67461, Mansa (Zambia) | 11-06S | 028-51E | 1382 m
################################################################################
202003020600 AAXX 02064 67461 NIL=
202002281200 AAXX 28124 67461 NIL=
202002280900 AAXX 28094 67461 42480 71003 10225 20195 48520 8357/
                   333 58018 83612 87360 91019=
202002271200 AAXX 27124 67461 NIL=
202002270900 AAXX 27094 67461 42580 71211 10250 20199 48504 84830
                   333 58016 84622 81825 83360 91016=
202002270600 AAXX 27064 67461 12380 71106 10200 20185 48486 60284 8157/
                   333 10280 20160 59015 81606 87360 91015=
202002260900 AAXX 26094 67461 42580 71009 10250 20199 48489 84231
                   333 59017 84820 83360 82080 91015=
202002260600 AAXX 26064 67461 12280 71003 10205 20198 48501 60044 8667/
                   333 10264 20178 59001 86705 87360 91016=
202002250900 AAXX 25094 67461 42580 70613 10250 20190 48505 8457/
                   333 59010 84625 87360 91016=
202002250600 AAXX 25064 67461 12280 71009 10195 20187 48501 60084 8367/
                   333 10228 20168 58002 83705 87360 91016=
202002241200 AAXX 24124 67461 41480 72713 10225 20203 48487 72166 8557/
                   333 58028 85610 87360 91015=
202002240600 AAXX 24064 67461 32280 70000 10210 20203 48501 876//
                   333 10304 20178 5//// 87704 91016=
202002210900 AAXX 21094 67461 42580 61610 10265 20199 48515 85801
                   333 58011 84628 81830 82080 91017=
202002210600 AAXX 21064 67461 12380 71703 10200 20193 48513 60034 8667/
                   333 10274 20193 58012 86706 87360 91018=
202002200900 AAXX 20094 67461 41480 71508 10255 20210 48503 72162 81331
                   333 59010 81918 84820 86360 81080 91016=
202002200600 AAXX 20064 67461 32380 71608 10216 20200 48502 81131
                   333 10294 20175 58000 81809 85360 83080 91016=
202002190600 AAXX 19064 67461 12380 71208 10222 20204 48503 60044 85831
                   333 10285 20165 59012 83609 81810 84360 84080
                   91016=
202002180600 AAXX 18064 67461 32280 72902 10196 20186 48513 8367/
                   333 10272 20170 58001 83705 87360 91018=
202002171200 AAXX 17124 67461 41580 71210 10260 20194 48487 71799 81938
                   333 58001 81928 83830 83360 86280 91014=
202002170600 AAXX 17064 67461 31270 73403 10210 20203 48513 74644 8357/
                   333 10285 20179 59006 83640 86360 91017=
202002140600 AAXX 14064 67461 11380 73513 10200 20193 48484 60264 72166 8676/
                   333 10289 20172 58000 86704 87360 91015=
202002120600 AAXX 12064 67461 12980 72702 10202 20190 48485 60014 8707/
                   333 10299 20172 59027 87360 91015=
202002110900 AAXX 11094 67461 42680 72512 10270 20195 48515 83130
                   333 59002 83830 82360 91017=
202002110600 AAXX 11064 67461 32380 72706 10205 20190 48512 8457/
                   333 10290 20154 58000 84606 87360 91017=
202002100600 AAXX 10064 67461 12380 71209 10195 20188 48512 60074 8467/
                   333 10282 20170 58000 84706 87360 91017=

################################################################################
#  SYNOPS from 67469, Samfya (Zambia) | 11-22S | 029-54E | 1171 m
################################################################################
202003020600 AAXX 02064 67469 NIL=
202002281200 AAXX 28124 67469 NIL=
202002271200 AAXX 27124 67469 NIL=
202002260900 AAXX 26094 67469 NIL=
202002260600 AAXX 26064 67469 NIL=
202002250900 AAXX 25094 67469 NIL=
202002241200 AAXX 24124 67469 NIL=
202002190600 AAXX 19064 67469 32480 40807 10252 20220 48/// 83138
                   333 10272 20202 5//// 83815 83360 83080=
202002180600 AAXX 18064 67469 12980 72504 10203 20190 48/// 60034 86038
                   333 10269 20190 5//// 86360 86280=
202002171200 AAXX 17124 67469 42580 30605 10264 20210 48/// 83232
                   333 5//// 81922 82822 82360=
202002170600 AAXX 17064 67469 12260 73001 10221 20200 48/// 60034 86098
                   333 10266 20209 5//// 86360 86280=
202002140600 AAXX 14064 67469 11260 83604 10196 20190 48/// 60644 8777/
                   333 10294 20193 5//// 87704 87460=
202002120600 AAXX 12064 67469 12980 72504 10226 20190 48/// 60034 8703/
                   333 10280 20200 5//// 87360=
202002110900 AAXX 11094 67469 42580 32703 10273 20190 48/// 82102
                   333 5//// 82825 81082=
202002110600 AAXX 11064 67469 12980 52502 10211 20190 48/// 69904 85030
                   333 10264 20174 5//// 85360=
202002100600 AAXX 10064 67469 12980 71302 10208 20190 48/// 60144 8703/
                   333 10282 20198 5//// 87360=
202002030600 AAXX 03064 67469 11980 80000 10193 20180 48/// 60334 76166 8707/
                   333 10261 20186 5//// 87460=

################################################################################
#  SYNOPS from 67475, Kasama (Zambia) | 10-13S | 031-08E | 1382 m
################################################################################
202003020600 AAXX 02064 67475 11450 80704 10209 20195 48530 60034 72666 8657/
                   333 10322 20171 5//// 86510 87460 91021=
202002281200 AAXX 28124 67475 NIL=
202002271200 AAXX 27124 67475 42680 72004 10276 20194 45494 70322 85812
                   333 58004 85835 83460 82080 91017=
202002270600 AAXX 27064 67475 11580 60000 10200 20191 48520 60054 84830
                   333 10293 20173 58000 84825 83360 91020=
202002260900 AAXX 26094 67475 NIL=
202002260600 AAXX 26064 67475 11450 80706 10184 20184 48534 60174 72666 8357/
                   333 10291 20174 58012 83615 87460 91020=
202002250900 AAXX 25094 67475 NIL=
202002250600 AAXX 25064 67475 11350 80508 10184 20184 48534 60154 76066 847//
                   333 10247 20164 58013 87706 91021=
202002241200 AAXX 24124 67475 NIL=
202002210600 AAXX 21064 67475 12960 61705 10202 20190 48533 60054 85072
                   333 10300 20161 58004 85460 83080 91021=
202002200600 AAXX 20064 67475 32480 81603 10209 20185 48/// 885//
                   333 10331 20156 59001 88618 91021=
202002190600 AAXX 19064 67475 12460 40704 10226 20201 48531 69974 76066 82572
                   333 10279 20169 59006 82620 82460 83280 91021=
202002180600 AAXX 18064 67475 11358 81909 10191 20191 48535 60044 76066 877//
                   333 10320 20179 58005 87709 91022=
202002170600 AAXX 17064 67475 12960 83504 10205 20197 48531 69914 8707/
                   333 10280 20171 59013 87460 91021=
202002140600 AAXX 14064 67475 11460 83607 10186 20186 48516 60044 72666 8367/
                   333 10279 20171 58012 83612 87460 91019=
202002130600 AAXX 13064 67475 12960 83511 10211 20195 48505 60044 8707/
                   333 10318 20176 59015 87460 91018=
202002121200 AAXX 12124 67475 42680 72705 10293 20185 48486 70322 84201
                   333 59021 84840 83080 91016=
202002120600 AAXX 12064 67475 32980 93504 10201 20188 48519 8707/
                   333 10310 20178 59013 87459 91020=
202002110900 AAXX 11094 67475 42680 71803 10258 20177 48533 70322 82271
                   333 59006 82827 85460 82080 91021=
202002110600 AAXX 11064 67475 32980 63102 10190 20177 48532 85070
                   333 10292 20146 59005 85459 91021=
202002101200 AAXX 10124 67475 42680 71605 10260 20194 48507 70322 85201
                   333 58010 85840 84080 91018=
202002100600 AAXX 10064 67475 12670 50502 10206 20192 48536 82270
                   333 10311 20172 58001 82830 84460 91022=
202002030600 AAXX 03064 67475 11340 81704 10181 20181 48545 60214 78088 877//
                   333 10280 20171 58006 87709 91023=

################################################################################
#  SYNOPS from 67476, Misamfu (Zambia) | 10-06S | 031-15E | 1536 m
################################################################################
202003021200 AAXX 02124 67476 41460 70103 10220 20187 48/// 79522 8167/
                   333 5//// 81712 81940 81842 87460=
202003020600 AAXX 02064 67476 12480 70503 10204 20196 48/// 60174 70282 8547/
                   333 10255 20145 5//// 81613 81845 87360=
202002281200 AAXX 28124 67476 NIL=
202002271200 AAXX 27124 67476 NIL=
202002260900 AAXX 26094 67476 NIL=
202002260600 AAXX 26064 67476 12480 70902 10199 20188 48/// 60334 8368/
                   333 10270 20133 58002 83715 81850 87360=
202002250900 AAXX 25094 67476 NIL=
202002250600 AAXX 25064 67476 11478 81003 10180 20177 48/// 60594 76166 8247/
                   333 10286 20135 58003 82714 88459=
202002241200 AAXX 24124 67476 NIL=
202002240600 AAXX 24064 67476 11573 80903 10190 20187 48/// 60124 76166 8427/
                   333 10305 20135 5//// 81920 84820 88460=
202002190600 AAXX 19064 67476 12580 40904 10219 20184 48/// 60034 84230
                   333 10278 20138 59007 84820 83360=
202002180900 AAXX 18094 67476 41565 80902 10191 20189 48/// 76566 8587/
                   333 58003 81920 81620 84821 88459=
202002180600 AAXX 18064 67476 11477 80000 10200 20185 48/// 60074 76166 8367/
                   333 10290 20149 5//// 83710 88459=
202002170600 AAXX 17064 67476 11480 51201 10204 20194 48/// 69904 72842 8147/
                   333 10270 20137 5//// 81615 85360=
202002140600 AAXX 14064 67476 11375 80702 10185 20180 48/// 60154 75086 8167/
                   333 10265 20135 5//// 81709 88460=
202002121200 AAXX 12124 67476 41680 62703 10285 20184 48/// 72998 81978
                   333 59016 81945 82847 81360 84280=
202002120600 AAXX 12064 67476 11970 70000 10199 20182 48/// 69904 71522 8707/
                   333 10295 20150 59012 87460=
202002111200 AAXX 11124 67476 41675 32703 10288 20181 48/// 71522 81330
                   333 59005 81945 82848 81360=
202002110900 AAXX 11094 67476 42680 72702 10261 20178 48/// 70322 8123/
                   333 59004 81837 87360=
202002110600 AAXX 11064 67476 12980 50000 10190 20179 48/// 60014 85071
                   333 10280 20105 59005 85360 81080=
202002101200 AAXX 10124 67476 41670 71802 10265 20193 48/// 71522 81338
                   333 5//// 81943 83845 81360 86280=
202002100600 AAXX 10064 67476 12680 40402 10206 20194 48/// 60064 81282
                   333 10300 20137 58002 81847 83358 81080=
202002030600 AAXX 03064 67476 11370 82502 10186 20184 48/// 60124 75066 8667/
                   333 10269 20137 5//// 86706 88460=

################################################################################
#  SYNOPS from 67477, Mpika (Zambia) | 11-54S | 031-26E | 1400 m
################################################################################
202003020600 AAXX 02064 67477 32980 71208 10190 20170 48/// 87070
                   333 10268 20170 5//// 87459
                   555 00164=
202002281200 AAXX 28124 67477 NIL=
202002280900 AAXX 28094 67477 41475 83305 10213 20196 48/// 72166 8557/
                   333 5//// 85613 88450=
202002271200 AAXX 27124 67477 42680 41202 10268 20180 48/// 84231
                   333 5//// 84836 81364 82080=
202002270600 AAXX 27064 67477 11370 71204 10203 20189 48/// 69904 71022 87700
                   333 10254 20178 5//// 87706
                   555 00168=
202002260900 AAXX 26094 67477 42580 50807 10233 20187 48/// 85500
                   333 5//// 85621=
202002260600 AAXX 26064 67477 12280 71206 10188 20178 48/// 69904 86630
                   333 10246 20174 5//// 86705 84359
                   555 00166=
202002250900 AAXX 25094 67477 42580 70902 10224 20190 48/// 83507
                   333 5//// 83622 87280=
202002241200 AAXX 24124 67477 41680 72403 10269 20199 48/// 71799 86303
                   333 5//// 81935 86635 85080=
202002210900 AAXX 21094 67477 42580 50902 10256 20170 48/// 84101
                   333 5//// 84825 83080=
202002210600 AAXX 21064 67477 12480 50000 10206 20190 48/// 60044 82531
                   333 10274 20156 5//// 82612 82359 83080
                   555 00148=
202002200600 AAXX 20064 67477 12480 30902 10223 20160 48/// 69904 81501
                   333 10282 20163 5//// 81613 83080
                   555 00163=
202002190600 AAXX 19064 67477 12480 31202 10223 20170 48/// 69904 82101
                   333 10272 20176 5//// 82812 83080
                   555 00152=
202002180600 AAXX 18064 67477 12480 83001 10202 20190 48/// 69904 8457/
                   333 10271 20166 5//// 84613 87459
                   555 00152=
202002171200 AAXX 17124 67477 41680 61802 10236 20190 48/// 71799 85231
                   333 5//// 81936 85836 83364 82080=
202002170600 AAXX 17064 67477 12480 83001 10199 20180 48/// 60014 8357/
                   333 10264 20169 5//// 83612 87459
                   555 00156=
202002140600 AAXX 14064 67477 11275 83606 10188 20184 48/// 60254 76166 8577/
                   333 10240 20173 5//// 85703 88459
                   555 00162=
202002121200 AAXX 12124 67477 41680 50607 10275 20202 48/// 71799 84203
                   333 5//// 81937 84837 83080=
202002120600 AAXX 12064 67477 11970 83303 10187 20175 48/// 60214 76166 8807/
                   333 10294 20171 5//// 88459
                   555 00170=
202002110900 AAXX 11094 67477 42580 32402 10255 20209 48/// 83200
                   333 5//// 83825=
202002110600 AAXX 11064 67477 12980 70000 10180 20175 48/// 69904 87070
                   333 10276 20152 5//// 87359
                   555 00144=
202002101200 AAXX 10124 67477 42680 50902 10265 20200 48/// 84232
                   333 5//// 84832 82361 82080=
202002100600 AAXX 10064 67477 12480 51205 10206 20180 48/// 60154 81530
                   333 10278 20172 5//// 81610 85360
                   555 00162=
202002030600 AAXX 03064 67477 12480 81801 10192 20180 48/// 69904 8657/
                   333 10268 20177 5//// 86612 86459
                   555 00166=

################################################################################
#  SYNOPS from 67481, Isoka (Zambia) | 10-07S | 032-38E | 1360 m
################################################################################
202003020600 AAXX 02064 67481 12480 72002 10198 20189 48/// 60024 8657/
                   333 10262 20178 5//// 86610 87460=
202002281200 AAXX 28124 67481 NIL=
202002280600 AAXX 28064 67481 11360 80000 10191 20190 48/// 60104 76162 887//
                   333 10287 20185 5//// 88706=
202002271200 AAXX 27124 67481 NIL=
202002260900 AAXX 26094 67481 NIL=
202002260600 AAXX 26064 67481 11375 83002 10182 20182 48/// 60014 76166 887//
                   333 10260 20186 5//// 88706=
202002250900 AAXX 25094 67481 NIL=
202002250600 AAXX 25064 67481 11377 83002 10188 20183 48/// 60014 76166 8477/
                   333 10300 20198 5//// 84706 88460=
202002241200 AAXX 24124 67481 NIL=
202002240600 AAXX 24064 67481 11370 83602 10201 20199 48/// 60374 76166 8277/
                   333 10308 20182 5//// 82706 88460=
202002210600 AAXX 21064 67481 12480 70902 10212 20200 48/// 60034 875//
                   333 10281 20195 5//// 87610=
202002200600 AAXX 20064 67481 12480 53002 10212 20194 48/// 69924 85530
                   333 10270 20178 5//// 85610 82360=
202002180900 AAXX 18094 67481 42680 63002 10260 20198 48/// 86200
                   333 5//// 86830=
202002180600 AAXX 18064 67481 32480 62602 10213 20194 48/// 83570
                   333 10256 20178 5//// 83610 86360=
202002170600 AAXX 17064 67481 12480 53002 10217 20196 48/// 60014 83530
                   333 10265 20183 5//// 83610 85360=
202002140600 AAXX 14064 67481 11480 73302 10212 20194 48/// 60084 72162 875//
                   333 10278 20186 5//// 87610=
202002130600 AAXX 13064 67481 32480 73202 10224 20196 48/// 875//
                   333 10274 20196 5//// 87610=
202002120600 AAXX 12064 67481 12480 73002 10196 20188 48/// 69974 875//
                   333 10294 20192 5//// 87610=
202002110900 AAXX 11094 67481 NIL=
202002110600 AAXX 11064 67481 12480 73302 10196 20188 48/// 60014 875//
                   333 10264 20173 5//// 87610=
202002100600 AAXX 10064 67481 12380 83002 10194 20188 48/// 60034 886//
                   333 10300 20188 5//// 88707=

################################################################################
#  SYNOPS from 67531, Zambezi (Zambia) | 13-32S | 023-07E | 1077 m
################################################################################
202003020600 AAXX 02064 67531 32980 50000 10203 20200 48/// 85030
                   333 10275 20175 59013 85362=
202002281200 AAXX 28124 67531 NIL=
202002280600 AAXX 28064 67531 12480 73602 10224 20204 48/// 69904 8157/
                   333 10306 20195 58022 81612 87460=
202002271200 AAXX 27124 67531 NIL=
202002270600 AAXX 27064 67531 12980 30000 10244 20203 48/// 60014 83031
                   333 10296 20193 59003 83361 81081=
202002260900 AAXX 26094 67531 41480 73002 10221 20200 48/// 72166 8357/
                   333 58006 83610 87361=
202002260600 AAXX 26064 67531 11380 70801 10200 20194 48/// 60524 70266 8267/
                   333 10297 20185 59004 82706 87360=
202002250900 AAXX 25094 67531 NIL=
202002250600 AAXX 25064 67531 11380 73602 10201 20194 48/// 60704 70266 8367/
                   333 10297 20181 59008 83706 86361=
202002241200 AAXX 24124 67531 NIL=
202002240600 AAXX 24064 67531 12380 63602 10219 20202 48/// 60014 8267/
                   333 10223 20198 58008 82707 86362=
202002210600 AAXX 21064 67531 12980 70000 10211 20197 48/// 69904 8707/
                   333 10299 20194 59007 87360=
202002200600 AAXX 20064 67531 12980 73601 10209 20197 48/// 60104 8707/
                   333 10282 20190 58007 87361=
202002190600 AAXX 19064 67531 12980 60901 10221 20208 48/// 60384 8603/
                   333 10271 20187 59005 86362=
202002180900 AAXX 18094 67531 41580 62706 10250 20212 48/// 71792 8527/
                   333 58003 81925 85825 85362=
202002180600 AAXX 18064 67531 12980 70000 10222 20211 48/// 69904 8707/
                   333 10304 20182 59005 87361=
202002170600 AAXX 17064 67531 11375 73602 10190 20184 48/// 60044 76166 8477/
                   333 10295 20182 58014 84706 87460=
202002140600 AAXX 14064 67531 32480 30000 10230 20210 48/// 81132
                   333 10315 20197 59003 81810 81361 83081=
202002120600 AAXX 12064 67531 32980 13601 10221 20198 48/// 81030
                   333 10306 20169 59019 81362=
202002110900 AAXX 11094 67531 42580 51507 10249 20182 48/// 83131
                   333 58016 83828 82362 81080=
202002110600 AAXX 11064 67531 12380 63010 10209 20183 48/// 60034 8367/
                   333 10309 20187 58017 83707 86361=
202002101200 AAXX 10124 67531 42680 62706 10270 20207 48/// 8423/
                   333 59006 84830 85362=
202002100600 AAXX 10064 67531 12980 73301 10221 20204 48/// 60044 8707/
                   333 10266 20195 59012 87361=

################################################################################
#  SYNOPS from 67541, Kasempa (Zambia) | 13-32S | 025-51E | 1234 m
################################################################################
202003020600 AAXX 02064 67541 12980 70000 10190 20190 48/// 69904 70222 8703/
                   333 10272 20162 5//// 87360=
202002281200 AAXX 28124 67541 NIL=
202002280900 AAXX 28094 67541 42980 70000 10235 20198 48/// 70222 8703/
                   333 5//// 87360=
202002271200 AAXX 27124 67541 NIL=
202002270900 AAXX 27094 67541 42580 50403 10270 20205 48/// 85200
                   333 5//// 85827=
202002270600 AAXX 27064 67541 12380 30503 10220 20162 48/// 60074 83500
                   333 10290 20162 5//// 83607=
202002260900 AAXX 26094 67541 42580 60504 10250 20198 48/// 70222 86200
                   333 5//// 86820=
202002260600 AAXX 26064 67541 12980 70000 10201 20204 48/// 60014 70222 8703/
                   333 10288 20168 5//// 87360=
202002250900 AAXX 25094 67541 42480 70000 10240 20196 48/// 70222 8323/
                   333 5//// 83819 87360=
202002250600 AAXX 25064 67541 12380 70000 10200 20188 48/// 60064 70222 8253/
                   333 10252 20160 5//// 82608 87360=
202002241200 AAXX 24124 67541 NIL=
202002240600 AAXX 24064 67541 11370 80000 10200 20200 48/// 60174 76066 8353/
                   333 10306 20168 5//// 83707 87360=
202002210600 AAXX 21064 67541 12980 70000 10195 20195 48/// 60234 70222 8703/
                   333 10270 20160 5//// 87360=
202002200600 AAXX 20064 67541 12980 70000 10196 20196 48/// 60104 70222 8703/
                   333 10300 20160 5//// 87360=
202002190600 AAXX 19064 67541 12980 70000 10207 20207 48/// 60054 70222 87030
                   333 10298 20170 5//// 87360=
202002180600 AAXX 18064 67541 NIL=
202002170600 AAXX 17064 67541 12980 70000 10190 20190 48/// 60364 70222 8703/
                   333 10300 20160 5//// 87360=
202002140600 AAXX 14064 67541 12380 80000 10205 20198 48/// 69904 70222 8353/
                   333 10294 20160 5//// 83608 87360=
202002120600 AAXX 12064 67541 12980 40000 10200 20195 48/// 60034 70222 80004
                   333 10294 20150 5//// 84080=
202002110900 AAXX 11094 67541 42480 70000 10240 20195 48/// 70222 8113/
                   333 5//// 81819 87360=
202002110600 AAXX 11064 67541 12980 70000 10205 20198 48/// 60014 70222 8703/
                   333 10304 20160 5//// 87360=

################################################################################
#  SYNOPS from 67543, Kabompo (Zambia) | 13-36S | 024-12E | 1075 m
################################################################################
202003020600 AAXX 02064 67543 12378 70000 10210 20200 48/// 60044 8263/
                   333 10284 20192 5//// 82707 87360=
202002281200 AAXX 28124 67543 NIL=
202002280600 AAXX 28064 67543 12380 80000 10214 20208 48/// 69954 8567/
                   333 10304 20208 5//// 85707 87460=
202002271200 AAXX 27124 67543 NIL=
202002260900 AAXX 26094 67543 NIL=
202002260600 AAXX 26064 67543 NIL=
202002250900 AAXX 25094 67543 NIL=
202002241200 AAXX 24124 67543 NIL=
202002240600 AAXX 24064 67543 12380 70000 10206 20197 48/// 69904 8265/
                   333 10300 20196 5//// 82707 87360=
202002210600 AAXX 21064 67543 12380 70000 10206 20189 48/// 69904 8265/
                   333 10282 20194 5//// 82708 87360=
202002200600 AAXX 20064 67543 12378 80000 10206 20200 48/// 60094 886//
                   333 10304 20200 5//// 88707=
202002180600 AAXX 18064 67543 12975 70000 10212 20200 48/// 69904 8703/
                   333 10298 20192 5//// 87360=
202002140600 AAXX 14064 67543 11906 /0000 10208 20205 48/// 60034 74744
                   333 10338 20198 5////=
202002120600 AAXX 12064 67543 32978 40000 10224 20187 48/// 81035
                   333 10310 20180 5//// 81361 84280=
202002110900 AAXX 11094 67543 42580 73305 10254 20182 48/// 84135
                   333 5//// 84628 85360 84280=
202002110600 AAXX 11064 67543 12980 70000 10206 20188 48/// 60014 8705/
                   333 10318 20196 5//// 87360=

################################################################################
#  SYNOPS from 67551, Solwezi (Zambia) | 12-11S | 026-23E | 1386 m
################################################################################
202003020600 AAXX 02064 67551 12370 70000 10198 20186 48513 60014 8367/
                   333 10264 20175 59002 83707 87362 91019=
202002281200 AAXX 28124 67551 NIL=
202002280600 AAXX 28064 67551 12975 80205 10188 20184 48530 60634 8807/
                   333 10268 20174 58022 88362 91020=
202002271200 AAXX 27124 67551 NIL=
202002270900 AAXX 27094 67551 42570 61206 10256 20202 48513 85230
                   333 59004 85820 83362 91018=
202002270600 AAXX 27064 67551 11970 60805 10213 20187 48506 60064 85030
                   333 10270 20174 59004 85362 91018=
202002260900 AAXX 26094 67551 NIL=
202002260600 AAXX 26064 67551 12370 71305 10192 20179 48513 60044 8667/
                   333 10234 20175 59006 86706 87362 91018=
202002250900 AAXX 25094 67551 NIL=
202002250600 AAXX 25064 67551 12370 70403 10188 20181 48519 60054 81632
                   333 10219 20174 59008 81706 87362 82080 91019=
202002241200 AAXX 24124 67551 42670 72705 10242 20196 48508 70222 8627/
                   333 58034 86835 86362 91017=
202002240600 AAXX 24064 67551 11270 72704 10186 20184 48526 60934 76062 8177/
                   333 10305 20172 58013 81704 87362 91020=
202002210600 AAXX 21064 67551 11970 70000 10191 20174 48528 60134 87030
                   333 10236 20171 59007 87362 91020=
202002200600 AAXX 20064 67551 31305 81505 10193 20193 48521 74744 8667/
                   333 10226 20176 58037 86705 88362 91020=
202002180600 AAXX 18064 67551 12270 70000 10197 20191 48530 60064 70322 8167/
                   333 10270 20178 58001 81705 87362 91021=
202002171200 AAXX 17124 67551 42570 72504 10234 20199 48509 8427/
                   333 58019 84825 87362 91018=
202002170600 AAXX 17064 67551 11257 70000 10190 20190 48531 60024 71010 8167/
                   333 10300 20190 59006 81704 87362 91020=
202002140600 AAXX 14064 67551 11265 83006 10184 20184 48496 60864 76166 8377/
                   333 10274 20179 59011 83704 88460 91016=
202002130600 AAXX 13064 67551 12670 63605 10196 20189 48498 69924 81230
                   333 10312 20189 59008 87362 91017=
202002120600 AAXX 12064 67551 32970 63403 10217 20185 48512 70222 86030
                   333 10281 20178 59022 86362 91018=
202002110900 AAXX 11094 67551 42470 72507 10246 20191 48533 70222 83130
                   333 58009 83820 87362 91020=
202002110600 AAXX 11064 67551 12270 72804 10197 20186 48532 60044 70322 8567/
                   333 10304 20179 58014 85705 87362 91021=
202002100600 AAXX 10064 67551 32975 60000 10206 20191 48519 86030
                   333 10253 20176 59004 86362 91019=

################################################################################
#  SYNOPS from 67561, Ndola (Zambia) | 13-00S | 028-39E | 1269 m
################################################################################
202003020600 AAXX 02064 67561 11360 71006 10192 20177 48524 60024 70522 85630
                   333 10275 20172 59003 85707 86360 91020=
202002281200 AAXX 28124 67561 NIL=
202002280600 AAXX 28064 67561 11270 82703 10201 20193 48532 60214 70522 8477/
                   333 10288 20154 58014 85705 88459 91021=
202002271200 AAXX 27124 67561 NIL=
202002260900 AAXX 26094 67561 41560 79903 10230 20176 48514 70522 87200
                   333 59012 81918 87820 91018=
202002260600 AAXX 26064 67561 11260 41305 10200 20170 48519 60074 70522 84632
                   333 10269 20175 59004 84706 81360 84080 91019=
202002250900 AAXX 25094 67561 41460 80606 10223 20185 48526 70522 8657/
                   333 59002 86615 88460 91020=
202002250600 AAXX 25064 67561 11259 81005 10194 20191 48523 60414 70462 8767/
                   333 10249 20182 58006 87704 88459 91020=
202002241200 AAXX 24124 67561 NIL=
202002240600 AAXX 24064 67561 41210 82503 10192 20189 48516 60044 74494 8667/
                   333 10298 20184 58007 86703 88459 91019=
202002210600 AAXX 21064 67561 11960 50000 10211 20178 48528 60124 70522 83038
                   333 10290 20182 59006 83360 85280 91020=
202002200600 AAXX 20064 67561 11260 71907 10210 20195 48533 60364 70522 84638
                   333 10289 20185 58005 84704 86360 87280 91021=
202002190600 AAXX 19064 67561 31958 70000 10207 20193 48528 70422 86038
                   333 10270 20182 59006 86360 87280 91020=
202002180600 AAXX 18064 67561 41259 60000 10200 20184 48534 60234 70522 82638
                   333 10294 20182 58007 82706 86360 86280 91021=
202002170600 AAXX 17064 67561 31357 72603 10213 20194 48528 70422 81638
                   333 10276 20200 59003 81706 86360 87280 91020=
202002140600 AAXX 14064 67561 11250 81007 10185 20185 48486 60364 76166 8677/
                   333 10284 20180 59012 86703 88459 91015=
202002120600 AAXX 12064 67561 11458 70000 10206 20191 48509 60024 70422 82538
                   333 1//// 2//// 59016 82610 86360 87280 91018=
202002111200 AAXX 11124 67561 41659 72607 10266 20199 48508 78052 84238
                   333 58005 81930 84835 85360 85280 91017=
202002110900 AAXX 11094 67561 41560 72809 10236 20191 48530 70452 86230
                   333 58004 86820 87360 91020=
202002110600 AAXX 11064 67561 11259 70000 10199 20193 48324 60044 75022 8177/
                   333 10294 2//// 58003 81705 87460 91020=
202002100600 AAXX 10064 67561 11259 70603 10193 20186 48535 60304 72166 83738
                   333 10285 20//0 58012 83705 86359 87280 91019=

################################################################################
#  SYNOPS from 67563, Kafironda (Zambia) | 12-36S | 028-07E | 1243 m
################################################################################
202003020600 AAXX 02064 67563 11380 70603 10202 20190 48/// 60014 72162 83770
                   333 10280 20180 59004 83708 87358
                   555 00174=
202002281200 AAXX 28124 67563 NIL=
202002280600 AAXX 28064 67563 11978 70000 10204 20190 48/// 60054 76162 8707/
                   333 10298 20188 5//// 87358
                   555 00180=
202002271200 AAXX 27124 67563 NIL=
202002270600 AAXX 27064 67563 32380 60506 10228 20190 48/// 86600
                   333 10292 20170 5//// 86709
                   555 00161=
202002260900 AAXX 26094 67563 NIL=
202002260600 AAXX 26064 67563 12380 70406 10222 20190 48/// 69904 86630
                   333 10276 20176 5//// 86708 84360
                   555 00166=
202002250900 AAXX 25094 67563 NIL=
202002250600 AAXX 25064 67563 11380 80000 10200 20190 48/// 60124 72162 8472/
                   333 10272 20176 5//// 84708 88459
                   555 00170=
202002241200 AAXX 24124 67563 NIL=
202002240600 AAXX 24064 67563 11379 73203 10210 20190 48/// 60014 72842 86770
                   333 10306 20179 5//// 86708 87359
                   555 00171=
202002210600 AAXX 21064 67563 12980 20902 10217 20190 48/// 60164 80001
                   333 10290 20176 59003 82080
                   555 00170=
202002200600 AAXX 20064 67563 12980 31903 10220 20200 48/// 60034 83070
                   333 10312 20187 58000 83359
                   555 00179=
202002190600 AAXX 19064 67563 11380 71002 10217 20200 48/// 60034 72842 84770
                   333 10304 20180 59004 84707 86359
                   555 00170=
202002180600 AAXX 18064 67563 11380 72002 10213 20190 48/// 60154 72162 84770
                   333 10252 20179 58003 84708 86358
                   555 00170=
202002170600 AAXX 17064 67563 11380 81502 10212 20190 48/// 60454 72992 8377/
                   333 10300 20180 5//// 83708 88358
                   555 00174=
202002140600 AAXX 14064 67563 NIL=
202002130600 AAXX 13064 67563 11380 72104 10224 20200 48/// 69904 72192 85770
                   333 10308 20192 5//// 85708 87359
                   555 00185=
202002120600 AAXX 12064 67563 12980 33406 10230 20190 48/// 60044 83030
                   333 10302 20180 5//// 83359=
202002110900 AAXX 11094 67563 NIL=
202002110600 AAXX 11064 67563 11580 72806 10220 20200 48/// 60024 72162 82370
                   333 10309 20184 5//// 82925 87359
                   555 00180=
202002100600 AAXX 10064 67563 11980 73604 10209 20190 48/// 60154 72166 87070
                   333 10314 20182 5//// 87359
                   555 00176=
202002030600 AAXX 03064 67563 12980 33303 10228 20190 48/// 60104 83030
                   333 10268 20168 5//// 83360
                   555 00170=

################################################################################
#  SYNOPS from 67571, Serenje (Zambia) | 13-14S | 030-13E | 1384 m
################################################################################
202003020900 AAXX 02094 67571 42582 73603 10235 20167 48473 70222 86501
                   333 59009 86621 83080=
202003020600 AAXX 02064 67571 11378 81203 10182 20155 48481 69904 75055 887//
                   333 10254 20159 58000 88708=
202002281200 AAXX 28124 67571 NIL=
202002280900 AAXX 28094 67571 42482 72706 10225 20175 48/// 875//
                   333 5//// 87615=
202002280600 AAXX 28064 67571 11278 72702 10193 20183 48/// 69904 75155 877//
                   333 10275 20180 5//// 87705=
202002271200 AAXX 27124 67571 NIL=
202002260900 AAXX 26094 67571 42582 31207 10214 20169 48/// 70100 83501
                   333 5//// 83623 82080=
202002260600 AAXX 26064 67571 12378 70902 10182 20163 48/// 60044 70222 876//
                   333 10242 20161 5//// 87710=
202002250900 AAXX 25094 67571 42482 70602 10213 20178 48/// 70122 875//
                   333 5//// 87615=
202002250600 AAXX 25064 67571 11376 80000 10185 20177 48/// 60294 76166 887//
                   333 10282 20167 5//// 88708=
202002241200 AAXX 24124 67571 41682 71203 10254 20204 48/// 71799 872//
                   333 5//// 81931 87831=
202002240600 AAXX 24064 67571 32278 70000 10203 20177 48/// 70222 81638
                   333 10312 20173 5//// 81703 81360 87280=
202002210600 AAXX 21064 67571 32582 12103 10224 20186 48/// 81530
                   333 10265 20172 5//// 81630 81360=
202002201200 AAXX 20124 67571 42682 71205 10250 20174 48/// 84208
                   333 5//// 81934 84834 87280=
202002200600 AAXX 20064 67571 12582 73005 10206 20184 48/// 60214 875//
                   333 10291 20174 5//// 87620=
202002180600 AAXX 18064 67571 12282 73005 10192 20167 48/// 60024 876//
                   333 10276 20180 5//// 81928 84828 87360=
202002170600 AAXX 17064 67571 12982 31205 10206 20170 48/// 69904 83030
                   333 10261 20165 5//// 83360=
202002140600 AAXX 14064 67571 12280 83308 10184 20177 48441 60284 886//
                   333 10236 20164 5//// 88704=
202002110900 AAXX 11094 67571 NIL=
202002100600 AAXX 10064 67571 12980 80000 10203 20171 48/// 60074 70222 82047
                   333 10253 20167 5//// 82360 88280=

################################################################################
#  SYNOPS from 67575, Mkushi (Zambia) | 13-38-00S | 029-26-00E | 1237 m
################################################################################
202003020600 AAXX 02064 67575 32480 60907 10190 20165 48482 86501
                   333 10277 20171 59006 86612 81078
                   555 00175=
202002281200 AAXX 28124 67575 NIL=
202002271200 AAXX 27124 67575 NIL=
202002260900 AAXX 26094 67575 NIL=
202002260600 AAXX 26064 67575 12480 70903 10192 20168 48479 60424 87500
                   333 10251 20170 58003 87615
                   555 00177=
202002250900 AAXX 25094 67575 NIL=
202002241200 AAXX 24124 67575 NIL=
202002180600 AAXX 18064 67575 NIL=
202002140600 AAXX 14064 67575 NIL=
202002130600 AAXX 13064 67575 11560 82702 10205 20205 48/// 69934 76022 8777/
                   333 10297 20188 5//// 87706 82460
                   555 00196=
202002110900 AAXX 11094 67575 NIL=
202002030600 AAXX 03064 67575 12480 31205 10218 20193 48502 60024 82531
                   333 10289 20161 58006 82613 82360 81080
                   555 00172=

################################################################################
#  SYNOPS from 67580, Msekera (Zambia) | 13-39S | 032-34E | 1025 m
################################################################################
202003020600 AAXX 02064 67580 32580 71503 10216 20179 48/// 85131
                   333 10278 20182 59001 83820 82622 82360 87080=
202002281200 AAXX 28124 67580 42680 73607 10268 20203 48/// 85208
                   333 58010 85840 87280=
202002280900 AAXX 28094 67580 42480 601// 10262 20213 48/// 84158
                   333 58013 84824 84461 86280=
202002280600 AAXX 28064 67580 32580 73603 10225 20200 48/// 86538
                   333 10310 20202 58002 86820 81360 87280=
202002271200 AAXX 27124 67580 NIL=
202002260900 AAXX 26094 67580 NIL=
202002260600 AAXX 26064 67580 12580 71203 10206 20180 48/// 69924 87830
                   333 10230 20188 59005 82820 87622 82360=
202002250900 AAXX 25094 67580 42580 81503 10228 20194 48/// 86808
                   333 58012 82820 84622 88280=
202002250600 AAXX 25064 67580 12480 81503 10196 20184 48/// 60054 70262 8457/
                   333 10294 20194 58020 84610 88459=
202002241200 AAXX 24124 67580 41675 73004 10265 20212 48/// 71796 81978
                   333 58018 81935 84840 85460 85460 87280=
202002210600 AAXX 21064 67580 12980 50000 10236 20215 48/// 60054 81031
                   333 10294 20185 5//// 81361 84080=
202002200600 AAXX 20064 67580 32580 71205 10242 20213 48/// 82238
                   333 10312 20205 59007 82826 83360 87280=
202002190600 AAXX 19064 67580 12580 51203 10234 20206 48/// 60134 81138
                   333 10288 20184 58001 81820 81362 85280=
202002181200 AAXX 18124 67580 41680 73004 10253 20217 48/// 71792 82938
                   333 5//// 82930 84835 81360 87280=
202002180600 AAXX 18064 67580 12480 70000 10242 20217 48/// 60084 81138
                   333 10310 20205 58001 81818 82360 87280=
202002171200 AAXX 17124 67580 41680 80603 10257 20208 48/// 79522 82978
                   333 5//// 82930 86830 83360 88280=
202002170600 AAXX 17064 67580 12580 70302 10228 20191 48/// 69934 87801
                   333 10280 20205 59018 83826 84628 82080=
202002140600 AAXX 14064 67580 11480 70305 10220 20196 48/// 76022 8127/
                   333 10246 20200 58021 81818 87460=
202002131200 AAXX 13124 67580 41470 80308 10203 20196 48/// 76166 8777/
                   333 5//// 87712 88460=
202002130600 AAXX 13064 67580 11460 81806 10196 20192 48/// 60554 76066 8677/
                   333 10292 20195 59015 86710 88460=
202002120600 AAXX 12064 67580 11480 80302 10208 20196 48/// 60054 75162 82578
                   333 10312 20194 59024 82612 85360 88280=
202002110900 AAXX 11094 67580 NIL=
202002101200 AAXX 10124 67580 42680 70000 10280 20192 48/// 81137
                   333 5//// 81842 81360 87280=
202002100600 AAXX 10064 67580 12980 70000 10225 20191 48/// 60024 8707/
                   333 10303 20193 5//// 87460=

################################################################################
#  SYNOPS from 67581, Chipata (Zambia) | 13-33S | 032-35E | 1028 m
################################################################################
202003020600 AAXX 02064 67581 32580 51604 10221 20169 48539 82102
                   333 1//// 20186 59002 82825 82080 91019=
202002281200 AAXX 28124 67581 NIL=
202002280600 AAXX 28064 67581 32480 80604 10220 20199 48541 70222 875//
                   333 1//// 20208 58003 87610 91016=
202002271200 AAXX 27124 67581 NIL=
202002270600 AAXX 27064 67581 12980 41205 10231 20182 48541 69904 83032
                   333 10//0 20181 58002 83360 82080 91019=
202002260900 AAXX 26094 67581 NIL=
202002260600 AAXX 26064 67581 NIL=
202002250900 AAXX 25094 67581 41680 81005 10212 20181 48538 75022 8457/
                   333 58015 84630 85460 91019=
202002250600 AAXX 25064 67581 12580 81603 10200 20178 48538 60074 8457/
                   333 1//// 20199 58022 84625 88460 91019=
202002241200 AAXX 24124 67581 NIL=
202002240600 AAXX 24064 67581 12980 71804 10248 20188 48525 60014 83032
                   333 1//// 20193 59004 83360 87280 91017=
202002210600 AAXX 21064 67581 12680 31203 10238 20203 48/// 60344 81102
                   333 1//// 20180 5//// 81830 82080=
202002200600 AAXX 20064 67581 12980 71607 10250 20200 48540 60084 84032
                   333 1//// 20206 59007 84360 87280 91019=
202002180600 AAXX 18064 67581 NIL=
202002170600 AAXX 17064 67581 12580 61305 10226 20201 48543 60034 83130
                   333 1//// 20206 59014 83825 83360 91019=
202002140600 AAXX 14064 67581 11380 80000 10220 20190 48/// 60424 70222 8157/
                   333 1//// 20206 5//// 81606 87460 91017=
202002130600 AAXX 13064 67581 11260 80000 10191 20188 48501 60674 76166 887//
                   333 1//// 20196 5//// 88705 91015=
202002120600 AAXX 12064 67581 11270 83406 10205 20195 48/// 60074 76062 875//
                   333 1//// 20193 5//// 87603=
202002110900 AAXX 11094 67581 42680 70904 10271 20203 48537 84232
                   333 59014 84836 82360 84280 91018=
202002110600 AAXX 11064 67581 12680 81604 10234 20212 48543 69904 8317/
                   333 1//// 20206 59012 83830 87460 91019=
202002100600 AAXX 10064 67581 12980 81807 10217 20184 48552 60014 8707/
                   333 1//// 20193 5//// 87459 91021=

################################################################################
#  SYNOPS from 67583, Lundazi (Zambia) | 12-17S | 033-12E | 1143 m
################################################################################
202003020600 AAXX 02064 67583 32480 70000 10208 20182 48/// 872//
                   333 10292 2//// 5//// 87812=
202002281200 AAXX 28124 67583 NIL=
202002280600 AAXX 28064 67583 11050 83603 10192 20192 48/// 60074 75152 887//
                   333 10300 2//// 5//// 88701=
202002271200 AAXX 27124 67583 NIL=
202002260900 AAXX 26094 67583 NIL=
202002260600 AAXX 26064 67583 12480 71803 10206 20182 48/// 60444 70222 877//
                   333 10226 2//// 5//// 87712=
202002250900 AAXX 25094 67583 NIL=
202002250600 AAXX 25064 67583 11040 80000 10196 20196 48/// 60314 76362 8472/
                   333 10324 2//// 5//// 84701 88458=
202002241200 AAXX 24124 67583 42780 72702 10312 20193 48/// 70222 86201
                   333 5//// 86850 81080=
202002240600 AAXX 24064 67583 32980 70000 10228 20202 48/// 70222 81088
                   333 10338 2//// 5//// 81359 87280=
202002210600 AAXX 21064 67583 32980 40000 10220 20206 48/// 81032
                   333 10294 2//// 5//// 81359 83080=
202002200600 AAXX 20064 67583 12980 70000 10206 20192 48/// 60024 70222 82038
                   333 10300 2//// 5//// 82359 87280=
202002180600 AAXX 18064 67583 32380 60000 10218 20206 48/// 70222 81731
                   333 10294 2//// 5//// 81706 83360 82080=
202002170600 AAXX 17064 67583 12380 60000 10226 20212 48/// 60044 70222 86200
                   333 10274 2//// 5//// 86806=
202002140600 AAXX 14064 67583 12280 80000 10204 20201 48/// 60354 8372/
                   333 10236 2//// 5//// 83703 88458=
202002131200 AAXX 13124 67583 41970 83602 10212 20196 48/// 72162 8802/
                   333 5//// 88459=
202002120600 AAXX 12064 67583 12980 70000 10202 20194 48/// 60034 8703/
                   333 10304 2//// 5//// 87358=
202002110900 AAXX 11094 67583 NIL=
202002110600 AAXX 11064 67583 32980 70000 10220 20206 48/// 8703/
                   333 10302 2//// 5//// 87359=
202002100600 AAXX 10064 67583 12880 70000 10210 20196 48/// 69964 84038
                   333 10298 2//// 5//// 87280=

################################################################################
#  SYNOPS from 67599, Mfuwe (Zambia) | 13-16S | 031-56E | 568 m
################################################################################
202003020600 AAXX 02064 67599 32480 40000 10236 20194 48535 81130
                   333 10310 20180 58002 81818 83360
                   555 00180 91018=
202002281200 AAXX 28124 67599 NIL=
202002271200 AAXX 27124 67599 NIL=
202002260900 AAXX 26094 67599 NIL=
202002260600 AAXX 26064 67599 12680 71803 10230 20207 48529 60044 875//
                   333 10275 20200 59006 87645
                   555 00200 91017=
202002250900 AAXX 25094 67599 NIL=
202002250600 AAXX 25064 67599 11257 82402 10220 20220 48529 60234 75155 887//
                   333 10345 20205 58029 88703
                   555 00210 91017=
202002241200 AAXX 24124 67599 NIL=
202002240600 AAXX 24064 67599 32580 71604 10254 20242 48514 85202
                   333 10365 20225 58000 85825 87080
                   555 00225 91014=
202002210600 AAXX 21064 67599 31380 51704 10251 20237 48531 72842 82508
                   333 10325 20213 58000 82610 85280
                   555 00209 91016=
202002180600 AAXX 18064 67599 12380 70000 10255 20234 48536 60014 8177/
                   333 10309 20210 59002 81706 87459
                   555 00210 91017=
202002170600 AAXX 17064 67599 11258 71702 10230 20230 48532 60064 74242 8377/
                   333 10280 20212 59020 83705 87459
                   555 00214 91017=
202002140600 AAXX 14064 67599 12480 70403 10342 20225 48508 60404 81630
                   333 10266 20210 58014 81610 86359
                   555 00219 91014=
202002130600 AAXX 13064 67599 11258 80303 10220 20220 48489 60294 76066 8677/
                   333 10327 20210 59014 86705 88459
                   555 00220 91013=
202002120600 AAXX 12064 67599 11380 80302 10217 20217 48501 60174 72162 8277/
                   333 10344 20207 59026 82708 88459
                   555 00220 91014=
202002110900 AAXX 11094 67599 NIL=
202002110600 AAXX 11064 67599 11380 73202 10254 20233 48535 60034 72842 81737
                   333 10319 20215 59015 81708 83360 87280
                   555 00215 91017=
202002100600 AAXX 10064 67599 12280 81902 10228 20221 48542 60104 8177/
                   333 10340 20200 58017 81705 88459
                   555 00217 91018=
202002030600 AAXX 03064 67599 11380 71903 10242 20227 48547 60194 72162 8177/
                   333 10322 20210 58003 81708 87459
                   555 00206 91019=

################################################################################
#  SYNOPS from 67625, Kalabo (Zambia) | 14-51S | 022-42E | 1033 m
################################################################################
202003020600 AAXX 02064 67625 NIL=
202002281200 AAXX 28124 67625 NIL=
202002280600 AAXX 28064 67625 11382 71605 10202 20202 48/// 60304 72055 8372/
                   333 10295 20200 58007 83709 87460=
202002271200 AAXX 27124 67625 NIL=
202002260900 AAXX 26094 67625 NIL=
202002260600 AAXX 26064 67625 NIL=
202002250900 AAXX 25094 67625 NIL=
202002241200 AAXX 24124 67625 NIL=
202002180600 AAXX 18064 67625 32982 70302 10225 20212 48/// 86073
                   333 10300 20215 59001 86360 87075=
202002170600 AAXX 17064 67625 12482 73502 10205 20202 48/// 60074 876//
                   333 10280 20190 58013 87710=
202002140600 AAXX 14064 67625 NIL=
202002110900 AAXX 11094 67625 NIL=
202002110600 AAXX 11064 67625 12982 73104 10214 20202 48/// 60064 86083
                   333 10320 20195 86360 87075=
202002030600 AAXX 03064 67625 11402 73606 10215 20211 48/// 60094 72162 81973
                   333 10300 20207 58013 81710 87460 87075=

################################################################################
#  SYNOPS from 67633, Mongu (Zambia) | 15-15S | 023-09E | 1052 m
################################################################################
202003020600 AAXX 02064 67633 32980 30806 10232 20201 48519 83032
                   333 10309 20193 59007 83360 83080
                   555 00202 91018=
202002281200 AAXX 28124 67633 NIL=
202002271200 AAXX 27124 67633 NIL=
202002260900 AAXX 26094 67633 NIL=
202002260600 AAXX 26064 67633 12580 70902 10220 20209 48506 60024 876//
                   333 10300 20204 87730
                   555 00198 91016=
202002250900 AAXX 25094 67633 NIL=
202002250600 AAXX 25064 67633 12480 70903 10218 20198 48502 69904 8457/
                   333 10290 20205 59003 84618 87460
                   555 00217 91016=
202002241200 AAXX 24124 67633 NIL=
202002210600 AAXX 21064 67633 12980 70703 10225 20207 48520 60144 70222 86031
                   333 10264 20208 58006 86360 81080
                   555 00212 91018=
202002180600 AAXX 18064 67633 NIL=
202002170600 AAXX 17064 67633 12980 70608 10222 20205 48512 60024 86038
                   333 10302 20202 59002 86360 87280
                   555 00216 91017=
202002140600 AAXX 14064 67633 NIL=
202002130600 AAXX 13064 67633 32980 30910 10246 20203 48500 83032
                   333 10324 20225 59011 82360 83280
                   555 00210 91016=
202002120600 AAXX 12064 67633 12580 50902 10215 20203 48506 60094 70322 82531
                   333 10300 20185 59005 82620 81360 82080
                   555 00185 91017=
202002110900 AAXX 11094 67633 NIL=
202002110600 AAXX 11064 67633 32980 53604 10225 20214 48518 70222 82032
                   333 10314 20201 59002 82360 85080
                   555 00201 91017=
202002101200 AAXX 10124 67633 42680 53607 10295 20216 48500 83232
                   333 59011 81940 83840 82360 83080 91014=

################################################################################
#  SYNOPS from 67641, Kaoma (Zambia) | 14-48S | 024-48E | 1213 m
################################################################################
202003020600 AAXX 02064 67641 12580 63602 10210 20195 48501 60024 81130
                   333 10292 20200 59006 81825 86360 91016=
202002281200 AAXX 28124 67641 NIL=
202002280900 AAXX 28094 67641 41460 80402 10207 20203 48511 76166 8277/
                   333 58010 82710 88460 91018=
202002280600 AAXX 28064 67641 11315 80000 10203 20198 48514 60404 76366 8677/
                   333 10320 20196 58015 86707 88458 91017=
202002271200 AAXX 27124 67641 NIL=
202002260900 AAXX 26094 67641 NIL=
202002260600 AAXX 26064 67641 NIL=
202002250900 AAXX 25094 67641 NIL=
202002241200 AAXX 24124 67641 NIL=
202002240600 AAXX 24064 67641 12680 83601 10207 20198 48505 60034 8453/
                   333 10311 20194 58014 84640 87360 91016=
202002210900 AAXX 21094 67641 42580 41905 10272 20204 48515 81230
                   333 59006 81832 84360 91017=
202002210600 AAXX 21064 67641 12980 60802 10215 20203 48510 60164 86030
                   333 10272 20193 59002 86360 91017=
202002180600 AAXX 18064 67641 NIL=
202002171200 AAXX 17124 67641 42580 70402 10286 20214 48507 8327/
                   333 58006 83834 87360 91016=
202002170600 AAXX 17064 67641 12980 73604 10212 20202 48516 60014 70262 8707/
                   333 10321 20209 58008 87360 91017=
202002140600 AAXX 14064 67641 12980 61104 10235 20199 48483 60034 84031
                   333 10292 20200 59006 84360 82080 91014=
202002110900 AAXX 11094 67641 NIL=

################################################################################
#  SYNOPS from 67655, Mumbwa (Zambia) | 15-04S | 027-11E | 1216 m
################################################################################
202003020600 AAXX 02064 67655 NIL=
202002281200 AAXX 28124 67655 NIL=
202002271200 AAXX 27124 67655 NIL=
202002260900 AAXX 26094 67655 NIL=
202002260600 AAXX 26064 67655 NIL=
202002250900 AAXX 25094 67655 NIL=
202002250600 AAXX 25064 67655 11459 80707 10202 20197 48537 60014 75022 8527/
                   333 10229 20139 58009 82610 88458 91019=
202002241200 AAXX 24124 67655 NIL=
202002240600 AAXX 24064 67655 12480 83006 10189 20182 48527 60024 8447/
                   333 10317 20169 58009 84615 87458 91018=
202002210600 AAXX 21064 67655 12980 72707 10222 20192 48538 69924 8707/
                   333 10279 20157 59006 87458 91019=
202002200600 AAXX 20064 67655 12380 80605 10188 20184 48541 60154 8467/
                   333 10301 20121 58001 84710 87458 91019=
202002190600 AAXX 19064 67655 12480 70000 10201 20201 48536 60994 876//
                   333 10286 20182 58008 87710 91020=
202002180600 AAXX 18064 67655 12980 70805 10220 20203 48530 60354 84038
                   333 10286 20172 59004 84360 86280 91019=
202002140600 AAXX 14064 67655 12480 71805 10208 20197 48495 60194 85508
                   333 10276 20192 59011 85610 87280 91015=
202002120600 AAXX 12064 67655 12280 70000 10205 20194 48505 60074 81638
                   333 10230 20183 59009 81710 83359 87280 91016=
202002110900 AAXX 11094 67655 NIL=
202002100600 AAXX 10064 67655 12480 70000 10205 20196 48520 60154 8457/
                   333 10281 20186 59001 84615 87458 91018=

################################################################################
#  SYNOPS from 67659, Kafue Polder (Zambia) | 15-46S | 027-55E | 978 m
################################################################################
202003020600 AAXX 02064 67659 NIL=
202002281200 AAXX 28124 67659 NIL=
202002271200 AAXX 27124 67659 NIL=
202002260900 AAXX 26094 67659 NIL=
202002260600 AAXX 26064 67659 NIL=
202002250900 AAXX 25094 67659 NIL=
202002241200 AAXX 24124 67659 NIL=
202002180600 AAXX 18064 67659 NIL=
202002140600 AAXX 14064 67659 NIL=
202002120600 AAXX 12064 67659 12480 62003 10216 20207 48/// 60014 70222 81230
                   333 10301 20198 5//// 81820 86360=
202002110900 AAXX 11094 67659 NIL=
202002100600 AAXX 10064 67659 12475 73604 10215 20191 48/// 60204 70222 8257/
                   333 10274 20190 5//// 82615 85460=

################################################################################
#  SYNOPS from 67662, Kabwe Agric (Zambia) | 14-24S | 028-30E | 1165 m
################################################################################
202003020600 AAXX 02064 67662 NIL=
202002281200 AAXX 28124 67662 NIL=
202002280900 AAXX 28094 67662 41480 73003 10245 20203 48/// 70222 86270
                   333 5//// 86818 81360 81080=
202002271200 AAXX 27124 67662 NIL=
202002260900 AAXX 26094 67662 42480 81602 10211 20169 48/// 70222 885//
                   333 5//// 88618=
202002260600 AAXX 26064 67662 11380 80905 10187 20166 48/// 60184 70326 887//
                   333 10265 20130 5//// 88708=
202002250900 AAXX 25094 67662 NIL=
202002250600 AAXX 25064 67662 11480 80902 10205 20192 48/// 60054 70326 84772
                   333 10246 20154 5//// 84710 83360 81080=
202002241200 AAXX 24124 67662 NIL=
202002240600 AAXX 24064 67662 31380 70000 10208 20196 48/// 70322 82772
                   333 10315 20150 5//// 82708 84360 81080=
202002210900 AAXX 21094 67662 41680 30000 10275 20194 48/// 70322 81272
                   333 5//// 81832 81360 81080=
202002210600 AAXX 21064 67662 11980 40000 10220 20190 48/// 69964 70122 81072
                   333 10290 20142 5//// 81360 83080=
202002200600 AAXX 20064 67662 11480 70603 10206 20194 48/// 60314 70326 81570
                   333 10295 20140 5//// 81611 86360=
202002190600 AAXX 19064 67662 11480 60902 10207 20198 48/// 69904 70222 81670
                   333 10295 20154 5//// 81610 85360=
202002180600 AAXX 18064 67662 11280 50000 10215 20208 48/// 60134 72842 83770
                   333 10295 20148 5//// 83703 82358=
202002171200 AAXX 17124 67662 41680 60902 10281 20191 48/// 86200
                   333 5//// 86835=
202002170600 AAXX 17064 67662 11480 70000 10220 20205 48/// 69924 70326 82572
                   333 10260 20164 5//// 82612 84360 81080=
202002140600 AAXX 14064 67662 NIL=
202002130600 AAXX 13064 67662 31380 80000 10215 20200 48/// 70222 887//
                   333 10294 20156 5//// 88707=
202002110900 AAXX 11094 67662 NIL=

################################################################################
#  SYNOPS from 67663, Kabwe (Zambia) | 14-27S | 028-28E | 1206 m
################################################################################
202003020600 AAXX 02064 67663 32480 80906 10185 20161 48502 885//
                   333 10267 20169 59024 88618
                   555 00218=
202002281200 AAXX 28124 67663 NIL=
202002280600 AAXX 28064 67663 11680 73606 10204 20192 48517 60024 76066 83530
                   333 10287 20189 58003 83619 86360
                   555 00238=
202002271200 AAXX 27124 67663 NIL=
202002260900 AAXX 26094 67663 NIL=
202002260600 AAXX 26064 67663 12480 80607 10183 20166 48516 60234 885//
                   333 10276 20177 58015 88619
                   555 00221=
202002250900 AAXX 25094 67663 NIL=
202002250600 AAXX 25064 67663 12480 81006 10206 20191 48515 69904 885//
                   333 10256 20189 59003 88619
                   555 00241=
202002241200 AAXX 24124 67663 NIL=
202002240600 AAXX 24064 67663 32980 82606 10207 20192 48518 8807/
                   333 10328 20189 58013 88460
                   555 00239=
202002210600 AAXX 21064 67663 12980 53503 10211 20192 48505 60024 84032
                   333 10292 20180 59032 84360 83080
                   555 00240=
202002200600 AAXX 20064 67663 12480 60906 10203 20189 48536 60434 83530
                   333 10289 20172 58010 82618 86360
                   555 00234=
202002190600 AAXX 19064 67663 32980 60508 10206 20194 48528 86030
                   333 10283 20188 58010 86360
                   555 00238=
202002180600 AAXX 18064 67663 NIL=
202002170600 AAXX 17064 67663 11478 70000 10237 20202 48513 60024 72166 82570
                   333 10263 20196 58014 82615 87360=
202002140600 AAXX 14064 67663 11480 81306 10202 20198 48473 60104 885//
                   333 10249 20189 59013 88618
                   555 00231=
202002120600 AAXX 12064 67663 12980 72704 10209 20189 48496 81038
                   333 10291 20189 59002 81360 87280
                   555 00232=
202002110900 AAXX 11094 67663 42580 73514 10241 20194 48496 84570
                   333 59000 84625 87460=
202002110600 AAXX 11064 67663 11978 73509 10190 20181 48497 60104 72166 8707/
                   333 10290 20176 59003 87460
                   555 00208=
202002101200 AAXX 10124 67663 42680 73510 10272 20204 48487 86870
                   333 59002 83830 83633 87360=
202002100600 AAXX 10064 67663 12980 73604 10198 20182 48500 60354 8707/
                   333 10292 20171 59002 87460
                   555 00222=
202002030600 AAXX 03064 67663 32480 60907 10219 20192 48534 83531
                   333 10280 20176 58007 83616 82360 81080
                   555 00259=

################################################################################
#  SYNOPS from 67665, Lusaka Internationalairport (Zambia) | 15-19S | 028-27E | 1152 m
################################################################################
202003022100 AAXX 02214 67665 42980 21104 10179 20165 48533 82030
                   333 59001 82360=
202003021800 AAXX 02184 67665 42980 21204 10201 20174 48523 70100 82030
                   333 10251 58006 82360=
202003021500 AAXX 02154 67665 42680 50909 10247 20161 48513 70122 83230
                   333 59001 83845 83360=
202003021200 AAXX 02124 67665 42680 70306 10231 20152 48529 70222 8567/
                   333 58001 86630 87459=
202003020900 AAXX 02094 67665 41480 80811 10219 20164 48542 72855 8657/
                   333 59004 86615 88459 91021=
202003020600 AAXX 02064 67665 NIL=
202003011800 AAXX 01184 67665 42/80 21104 10209 20184 48518 81030
                   333 59007 819// 81360=
202003011500 AAXX 01154 67665 42680 10250 20156 48514 82230
                   333 58001 81940 82845 83360=
202003011200 AAXX 01124 67665 42680 60709 10264 20164 48532 86500
                   333 58009 86630=
202003010900 AAXX 01094 67665 42480 60812 10242 20156 48547 70222 86500
                   333 58000 86618=
202003010600 AAXX 01064 67665 32480 21011 10210 20179 48546 70300 82500
                   333 58009 82610=
202002292100 AAXX 29214 67665 42980 21302 10190 20170 48536 70200 82030
                   333 58011 82360 91021=
202002290900 AAXX 29094 67665 42580 60714 10246 20186 48549 84530
                   333 58000 84625 82360=
202002290600 AAXX 29064 67665 12380 70908 10219 20205 48539 60114 70322 81630
                   333 10//0 20200 59001 81708 85612 87360
                   555 00/// 91020=
202002281200 AAXX 28124 67665 NIL=
202002280600 AAXX 28064 67665 32480 40404 10209 20182 48538 70300 82530
                   333 10281 20//0 58006 82610 84360=
202002280300 AAXX 28034 67665 42980 31302 10170 20163 48516 70300 83030
                   333 58001 83360=
202002280000 AAXX 28004 67665 42980 01302 10181 20171 48513 70200
                   333 59004=
202002271500 AAXX 27154 67665 42780 31105 10276 20170 48506 70122 83200
                   333 59009 83250=
202002271200 AAXX 27124 67665 42680 60606 10274 20186 48519 70301 86200
                   333 59009 86835 91017=
202002270900 AAXX 27094 67665 42580 30911 10245 20172 48538 70300 82100
                   333 59008 83828 91019=
202002270600 AAXX 27064 67665 32980 00905 10201 20170 48531 70200
                   333 10//0 20//0 59002
                   555 00///=
202002270300 AAXX 27034 67665 42980 11204 10169 20160 48515 81030
                   333 59002 81360=
202002270000 AAXX 27004 67665 42980 11003 10171 20163 48515 70200 81030
                   333 59002 81360=
202002262100 AAXX 26214 67665 42980 01203 10192 20176 48525 70200
                   333 59001=
202002261800 AAXX 26184 67665 42780 71006 10216 20178 48518 70222 84530
                   333 59006 81950 85650 86360=
202002261500 AAXX 26154 67665 42680 70705 10238 20168 48508 70222 84530
                   333 58002 84645 86360=
202002261200 AAXX 26124 67665 42580 70507 10246 20159 48525 70222 85570
                   333 58003 85630 86460=
202002260900 AAXX 26094 67665 NIL=
202002260600 AAXX 26064 67665 NIL=
202002251500 AAXX 25154 67665 42680 51013 10244 20192 48506 81930
                   333 59017 81935 83840 81360
                   555 10261=
202002251200 AAXX 25124 67665 42580 60711 10251 20184 48522 85232
                   333 59006 85825 83360 82080=
202002250900 AAXX 25094 67665 NIL=
202002241200 AAXX 24124 67665 NIL=
202002240900 AAXX 24094 67665 42575 81904 10221 20184 48545 8457/
                   333 58025 84620 88459=
202002230600 AAXX 23064 67665 32480 39901 10251 20218 48523 70200 81102
                   333 10//0 20//0 59014 81818 83080=
202002230300 AAXX 23034 67665 42980 00000 10203 20194 48501 70200
                   333 59008=
202002230000 AAXX 23004 67665 42980 01601 10209 20194 48503 70200
                   333 59008=
202002222100 AAXX 22214 67665 42980 21702 10209 20191 48509 70200 80001
                   333 59011 82080=
202002221800 AAXX 22184 67665 42780 51603 10223 20193 48497 70122 81908
                   333 59011 81956 85280 91016=
202002221500 AAXX 22154 67665 42780 71310 10269 20187 48495 70122 83208
                   333 59003 81950 83850 87280
                   555 10311 91015=
202002221200 AAXX 22124 67665 42680 50507 10284 20196 48508 70321 85200
                   333 59018 85840 91016=
202002220600 AAXX 22064 67665 32980 20903 10231 20209 48534 81031
                   333 10298 20190 59016 81360 81080
                   555 00///=
202002220300 AAXX 22034 67665 42980 20000 10197 20189 48509 82030
                   333 59025 82360=
202002220000 AAXX 22004 67665 42980 20000 10203 20187 48510 82030
                   333 59021 82360=
202002212100 AAXX 21214 67665 42/80 20000 10209 20194 48510 82030
                   333 59012 819// 82360=
202002211800 AAXX 21184 67665 42780 41102 10229 20199 48512 81932
                   333 10298 59013 81950 82360 82080=
202002211500 AAXX 21154 67665 42680 51209 10291 20196 48509 81932
                   333 58000 81945 82360 84080
                   555 10298=
202002211200 AAXX 21124 67665 42680 61709 10271 20183 48525 85200
                   333 59006 81935 85838=
202002210900 AAXX 21094 67665 42680 50705 10275 20185 48542 85200
                   333 59009 85835=
202002201500 AAXX 20154 67665 42680 51106 10269 20180 48506 84231
                   333 59004 84840 83360 81080=
202002201200 AAXX 20124 67665 42680 50000 10273 20167 48528 84232
                   333 59003 84838 84360 82080=
202002200900 AAXX 20094 67665 41560 60000 10215 20185 72162 83572
                   333 58000 83625 86360 82080=
202002200600 AAXX 20064 67665 12380 71003 10185 20185 48541 60684 70296 82638
                   333 10287 20190 59036 82706 86360 87280
                   555 00///=
202002191800 AAXX 19184 67665 41780 51103 10223 20202 48526 71322 81938
                   333 10287 58000 81956 83360 85280 91019=
202002191500 AAXX 19154 67665 42680 71309 10272 20196 48512 70322 86438
                   333 58004 81945 86650 84360 85280
                   555 10287 91017=
202002191200 AAXX 19124 67665 42680 70808 10270 20180 48532 70322 86230
                   333 58006 81930 86835 84360 91019=
202002190900 AAXX 19094 67665 42580 60711 10253 20176 48550 85230
                   333 59002 85825 83360=
202002190600 AAXX 19064 67665 32480 61210 10218 20190 48544 85530
                   333 10//0 20//0 58004 85615 83360=
202002190300 AAXX 19034 67665 42380 21404 1/194 20184 48532 81630
                   333 58006 81706 81360=
202002181500 AAXX 18154 67665 42780 40609 10290 20187 48500 82032
                   333 59005 81950 82360 82080
                   555 10298=
202002181200 AAXX 18124 67665 42680 60707 10285 20166 48526 85230
                   333 58000 85840 82360=
202002180900 AAXX 18094 67665 42660 60909 10259 20192 48553 85230
                   333 58004 85830 83360=
202002180600 AAXX 18064 67665 NIL=
202002170900 AAXX 17094 67665 42560 60604 10254 20187 48548 85230
                   333 58004 85825 83360=
202002170600 AAXX 17064 67665 11360 70303 10214 20199 48538 69904 72864 8677/
                   333 10//0 20//0 58000 86707 87759
                   555 00/// 20994 91021=
202002161500 AAXX 16154 67665 42680 70604 10236 20192 48513 70222 85230
                   333 58012 85845 85360=
202002161200 AAXX 16124 67665 42680 70406 10247 20194 48527 70222 86230
                   333 58019 86830 84360=
202002160600 AAXX 16064 67665 12480 61004 10224 20208 48540 72842 84532
                   333 10//0 20//0 58017 84610 83360 82080
                   555 00///=
202002160300 AAXX 16034 67665 42380 71403 10205 20193 48525 8163/
                   333 58021 81706 87360=
202002160000 AAXX 16004 67665 42/80 61702 10204 20196 48521 86031
                   333 58024 555 8193// 86360 81080=
202002152100 AAXX 15214 67665 42780 50903 10208 20194 48531 70322 85031
                   333 59004 81956 85360 81080=
202002151800 AAXX 15184 67665 41780 71204 10212 20196 48515 71396 81938
                   333 10//0 58023 81950 84360 86280 91018=
202002151500 AAXX 15154 67665 42680 71309 10272 20196 48512 70322 86432
                   333 58004 81945 86650 84360 85280
                   555 10287 91017=
202002151200 AAXX 15124 67665 42580 70206 10272 20182 48512 70222 85530
                   333 58027 81925 85630 84360=
202002150900 AAXX 15094 67665 42580 63608 10244 20192 48529 70122 84530
                   333 58030 84620 85360=
202002150600 AAXX 15064 67665 11480 50307 10223 20193 48523 70322 87771
                   333 58025 85618 83360 81080=
202002141800 AAXX 14184 67665 41659 71305 10214 20206 48493 79552 8197/
                   333 10267 59007 81948 84650 87459=
202002141500 AAXX 14154 67665 41660 71206 10226 20204 48472 72052 8577/
                   333 59006 85640 87459
                   555 10267=
202002141200 AAXX 14124 67665 41560 71112 10257 20189 48484 75022 8657/
                   333 59011 81928 86630 87459=
202002140900 AAXX 14094 67665 42580 81112 10237 20194 48499 70222 8657/
                   333 59016 86620 88459 91016=
202002140600 AAXX 14064 67665 11360 81407 10209 20187 48498 70252 8567/
                   333 10//0 20//0 58011 85709 87459=
202002130900 AAXX 13094 67665 42580 71307 10235 20182 48515 875//
                   333 58006 87625=
202002130600 AAXX 13064 67665 12480 71405 10214 20193 48508 69934 70222 84531
                   333 10//0 20//0 58004 84615 82360 84080=
202002130300 AAXX 13034 67665 42980 51505 10203 20188 48492 70222 83301
                   333 59007 83360 85080=
202002130000 AAXX 13004 67665 42980 51406 10207 20185 48497 70222 83301
                   333 59005 83360 85080=
202002122100 AAXX 12214 67665 42980 41802 10210 20195 48504 70300 80001
                   333 59005 84080=
202002111200 AAXX 11124 67665 42580 62715 10294 20198 48510 70222 85230
                   333 58005 85830 83360=
202002110900 AAXX 11094 67665 NIL=
202002101800 AAXX 10184 67665 42660 69902 10199 20191 48499 72122 8197/
                   333 59023 81956 87360=
202002100900 AAXX 10094 67665 42580 63106 10254 20188 48528 70222 83530
                   333 59012 83620 85360=
202002100600 AAXX 10064 67665 12360 73503 10195 20179 48532 60254 72052 8377/
                   333 59015 83706 87459
                   555 00///=
202002100300 AAXX 10034 67665 41359 83208 10189 20181 48522 76162 8577/
                   333 58000 85706 88459=
202002100000 AAXX 10004 67665 41259 80107 10192 20184 48524 76162 8577/
                   333 58008 85705 88459=
202002092100 AAXX 09214 67665 41658 80102 10187 20176 48540 79599 8557/
                   333 58018 81940 85645 88459=
202002091800 AAXX 09184 67665 41658 82905 10186 20177 48520 79599 8557/
                   333 10//0 58014 81930 85635 88459 91019=
202002091500 AAXX 09154 67665 42680 79902 10260 20194 48503 70322 85538
                   333 58011 81930 85635 86360 87080
                   555 10/// 91016=
202002081800 AAXX 08184 67665 41760 73502 10217 20202 48510 71799 8197/
                   333 59008 81956 87459=
202002081500 AAXX 08154 67665 42680 50208 10269 20186 48494 82032
                   333 59007 81940 82360 83080=
202002081200 AAXX 08124 67665 42580 60408 10262 20186 48518 85232
                   333 58004 81920 85825 83360 81080=
202002080900 AAXX 08094 67665 42480 70206 10242 20191 48536 70322 86532
                   333 58001 86612 85360 83080 91020=
202002070900 AAXX 07094 67665 42560 73606 10238 20177 48535 8353/
                   333 58003 83620 87360=
202002070600 AAXX 07064 67665 12460 80107 10205 20190 48538 69984 70222 8663/
                   333 10//0 20//0 58009 86610 87359=
202002070300 AAXX 07034 67665 42980 50601 10202 20196 48514 70200 84032
                   333 59003 84360 83080=
202002062100 AAXX 06214 67665 42980 41004 10208 20199 48526 70100 83032
                   333 59006 83360 84080=
202002061800 AAXX 06184 67665 42780 51002 10211 20191 48516 70122 81932
                   333 58003 81956 83360 83080=
202002061500 AAXX 06154 67665 42680 50406 10261 20181 48497 82932
                   333 59013 82940 83360 84080=
202002061200 AAXX 06124 67665 41458 71208 10242 20198 48511 78022 8653/
                   333 59007 85612 84830 84360=
202002051800 AAXX 05184 67665 42780 61104 10214 20194 48519 70222 81932
                   333 59004 81956 83360 85080=
202002051500 AAXX 05154 67665 42680 61205 10237 20184 48508 70222 83232
                   333 58002 81945 83845 84360 85080=
202002051200 AAXX 05124 67665 42580 73308 10263 20171 48520 70322 85330
                   333 58005 81932 85832 83360=
202002050600 AAXX 05064 67665 32380 71005 10215 20201 48540 70322 83630
                   333 10//0 20//0 59008 83707 86360
                   555 00/// 91021=
202002050000 AAXX 05004 67665 42980 09902 10186 20176 48512 70200
                   333 59016 91018=
202002042100 AAXX 04214 67665 42980 19901 10202 20186 48527 70200 81030
                   333 59012 81360 91019=
202002041800 AAXX 04184 67665 42970 20704 10221 20191 48515 70100 82030
                   333 59013 83360=
202002041500 AAXX 04154 67665 42670 40906 10258 20175 48508 70100 82230
                   333 59011 82845 83360=
202002041200 AAXX 04124 67665 42570 61403 10259 20184 48525 70222 85530
                   333 59010 85830 82360=
202002040900 AAXX 04094 67665 42470 70808 10239 20179 48553 70222 86530
                   333 59006 86610 83360=
202002040600 AAXX 04064 67665 11360 60808 10201 20194 48545 60014 72842 86600
                   333 10//0 20//0 59013 86707
                   555 00///=
202002040300 AAXX 04034 67665 42280 31405 10189 20174 48529 83630
                   333 59014 83705 81360=
202002040000 AAXX 04004 67665 42980 11004 10191 20175 48527 81030
                   333 59015 81360=
202002032100 AAXX 03214 67665 42980 11301 10205 20190 48539 81030
                   333 59009 81360=
202002031800 AAXX 03184 67665 42/80 19903 10226 20187 48529 70101 81930
                   333 10//0 59007 819// 81360 91019=
202002030900 AAXX 03094 67665 42980 50810 10252 20168 48570 70300 85200
                   333 58002 85830=
202002030000 AAXX 03004 67665 42980 11004 10191 20175 48527 81030
                   333 59015 81360=
202002021800 AAXX 02184 67665 42980 21502 10222 20166 48535 70300 82030
                   333 58003 82360=
202002021500 AAXX 02154 67665 42680 31407 10275 20154 48530 82202
                   333 58006 82848 81080=
202002021200 AAXX 02124 67665 42680 51009 10267 20138 48545 85200
                   333 58010 85835=
202002010900 AAXX 01094 67665 42580 60814 10236 20166 48548 85502
                   333 59007 85625 82080=
202002010300 AAXX 01034 67665 42980 21104 10174 20162 48523 70200 82030
                   333 59017 82360=
202002010000 AAXX 01004 67665 42980 21103 10178 20170 48530 70200 82030
                   333 59013 82360=

################################################################################
#  SYNOPS from 67666, Lusaka City Airport (Zambia) | 15-25-00S | 028-28-00E | 1280 m
################################################################################
202003020600 AAXX 02064 67666 11380 80811 10180 20167 48518 69904 75022 886//
                   333 1//// 2//// 59014 88707 91019=
202002281200 AAXX 28124 67666 42680 61003 10270 20184 48506 86200
                   333 58002 86830 91017=
202002280600 AAXX 28064 67666 32480 60708 10208 20180 48530 8688/
                   333 10270 2//// 58010 86605 84356 91020=
202002271200 AAXX 27124 67666 NIL=
202002270600 AAXX 27064 67666 32980 10804 10200 20164 48520 80001
                   333 10240 20//0 59003 81078 91019=
202002260900 AAXX 26094 67666 42480 70912 10220 20148 48528 878//
                   333 59002 84615 85820 91019=
202002260600 AAXX 26064 67666 12360 70912 10178 20165 48508 69904 877//
                   333 10240 2//// 58004 87706 91019=
202002251200 AAXX 25124 67666 42680 70911 10249 20182 48512 8587/
                   333 59014 82635 85840 86360 91017=
202002250900 AAXX 25094 67666 NIL=
202002250600 AAXX 25064 67666 12380 80909 10195 20178 48529 69904 70300 886//
                   333 10220 2//// 58002 88707 91020=
202002241200 AAXX 24124 67666 42480 82010 10215 20185 48523 8367/
                   333 58045 85612 88460 91019=
202002240600 AAXX 24064 67666 11380 81909 10192 20187 48526 60394 76222 877//
                   333 10292 2//// 58017 88707 81360 91019=
202002210600 AAXX 21064 67666 12980 72001 10227 20187 48533 60244 82037
                   333 10285 2//// 59003 82360 87280 91020=
202002200600 AAXX 20064 67666 11380 81210 10188 20175 48531 60704 75022 8373/
                   333 10280 2//// 58001 83707 86458 91020=
202002190600 AAXX 19064 67666 32480 60912 10219 20187 48533 70300 84530
                   333 10289 2//// 58000 84610 82360 91020=
202002180600 AAXX 18064 67666 12478 52711 10218 20192 48532 60054 70300 85500
                   333 10270 2//// 58005 85610 91020=
202002170600 AAXX 17064 67666 32478 70802 10204 20184 48528 70300 86530
                   333 10250 2//// 59041 82710 84615 86356 91019=
202002140600 AAXX 14064 67666 11378 81810 10200 20185 48490 60024 75022 8577/
                   333 10270 2//// 58012 85707 88457 91015=
202002131200 AAXX 13124 67666 42680 71301 10245 20178 48485 8526/
                   333 58002 81935 84840 87360 91014=
202002120600 AAXX 12064 67666 12480 82603 10202 20187 48499 60144 70222 886//
                   333 10270 2//// 59011 87710 81456 91016=
202002110900 AAXX 11094 67666 42480 73215 10235 20174 48520 70300 82877
                   333 58002 81612 81815 81360 87280 91018=
202002110600 AAXX 11064 67666 12380 83510 10192 20180 48509 60264 70300 8567/
                   333 10283 2//// 59006 85708 88459 91017=
202002100600 AAXX 10064 67666 12480 70407 10185 20176 48509 60204 83570
                   333 10260 2//// 59014 83609 87860 91018=

################################################################################
#  SYNOPS from 67667, Mount Makulu (Zambia) | 15-33S | 028-15E | 1213 m
################################################################################
202003020600 AAXX 02064 67667 32580 71802 10194 20180 48/// 84508
                   333 10286 20146 5//// 84625 87280=
202002281200 AAXX 28124 67667 NIL=
202002271200 AAXX 27124 67667 42680 60906 10266 20184 48548 86201
                   333 59008 86835 81080=
202002270900 AAXX 27094 67667 42680 40910 10250 20177 48/// 84101
                   333 5//// 84830 81080=
202002270600 AAXX 27064 67667 32980 20905 10214 20177 48/// 80001
                   333 10290 20141 5//// 83080=
202002261200 AAXX 26124 67667 42680 61008 10246 20179 48553 86501
                   333 58005 86635 82080=
202002260900 AAXX 26094 67667 42683 60903 10228 20171 48/// 86100
                   333 5//// 86830=
202002260600 AAXX 26064 67667 32580 41808 10198 20172 48/// 84100
                   333 10284 20150 5//// 84825=
202002250900 AAXX 25094 67667 NIL=
202002250600 AAXX 25064 67667 32580 81604 10200 20189 48582 85508
                   333 10240 20150 5//// 85625 87280=
202002241200 AAXX 24124 67667 NIL=
202002240600 AAXX 24064 67667 11580 82701 10188 20188 48/// 60754 72162 85508
                   333 10316 20148 5//// 85625 88280=
202002210600 AAXX 21064 67667 12680 62701 10225 20198 48/// 60014 81102
                   333 10296 20157 5//// 81830 86080=
202002200600 AAXX 20064 67667 12980 83601 10192 20190 48/// 60174 80008
                   333 10318 20107 5//// 88280=
202002190600 AAXX 19064 67667 32980 11207 10232 20202 48/// 80001
                   333 10312 20116 5//// 81080=
202002180600 AAXX 18064 67667 12580 11802 10236 20200 48591 60034 81100
                   333 10308 20114 58001 81825=
202002170600 AAXX 17064 67667 32680 60901 10238 20199 48590 86101
                   333 10292 20130 59024 86830 82080=
202002140600 AAXX 14064 67667 11480 81002 10204 20200 48538 60064 75022 886//
                   333 10288 20173 5//// 88715=
202002130600 AAXX 13064 67667 12580 82601 10200 20201 48/// 60074 85508
                   333 10280 20120 5//// 85625 87280=
202002120600 AAXX 12064 67667 12580 83301 10198 20200 48/// 60144 85508
                   333 10286 20120 5//// 85625 87280=
202002110900 AAXX 11094 67667 NIL=
202002110600 AAXX 11064 67667 12580 71804 10206 20183 48565 60274 87500
                   333 10230 20184 59015 87625=
202002100600 AAXX 10064 67667 12980 63606 10209 20182 48550 60124 80002
                   333 10278 20182 59018 86080=

################################################################################
#  SYNOPS from 67673, Petauke (Zambia) | 14-15S | 031-17E | 1035 m
################################################################################
202003020600 AAXX 02064 67673 NIL=
202002281200 AAXX 28124 67673 NIL=
202002280600 AAXX 28064 67673 32580 60902 10240 20195 48/// 84131
                   333 10300 20164 5//// 84828 86360 83080=
202002271200 AAXX 27124 67673 NIL=
202002270600 AAXX 27064 67673 32980 70901 10218 20175 48/// 8707/
                   333 10272 20160 5//// 87360=
202002260900 AAXX 26094 67673 NIL=
202002260600 AAXX 26064 67673 32980 60903 10200 20174 48/// 86030
                   333 10290 20152 5//// 86360=
202002250900 AAXX 25094 67673 42580 70905 10224 20179 48/// 876//
                   333 5//// 87628=
202002250600 AAXX 25064 67673 12580 70904 10208 20184 48/// 60024 8653/
                   333 10280 20170 5//// 86625 87360=
202002241200 AAXX 24124 67673 41575 80000 10246 20235 48538 71799 81937
                   333 5//// 81928 84829 82360 87280=
202002240600 AAXX 24064 67673 32584 61001 10262 20128 48553 86531
                   333 10330 20195 59002 86628 84360 84080=
202002210900 AAXX 21094 67673 42684 40000 10300 20200 48558 84101
                   333 59005 84835 82080=
202002210600 AAXX 21064 67673 32984 30901 10270 20195 48557 82031
                   333 10300 20170 5//// 82360 83080=
202002200600 AAXX 20064 67673 12580 61802 10240 20203 48556 60664 86131
                   333 10310 20170 59002 86828 84360 82080=
202002190600 AAXX 19064 67673 12580 30902 10254 20205 48560 60084 81130
                   333 10300 20170 58006 81828 83360=
202002180600 AAXX 18064 67673 11575 70000 10215 20215 48548 60034 76166 8417/
                   333 10306 20185 59003 84826 87459=
202002171200 AAXX 17124 67673 41675 60000 10278 20216 48555 76022 86230
                   333 5//// 86830 85360=
202002170600 AAXX 17064 67673 32580 73601 10234 20212 48553 875//
                   333 10270 20166 59013 87626=
202002140600 AAXX 14064 67673 12978 80903 10205 20205 48497 60364 8807/
                   333 10246 20176 59008 88360=
202002130600 AAXX 13064 67673 11570 80000 10210 20210 48505 60324 76166 8557/
                   333 10298 20184 59018 85625 88459=
202002110900 AAXX 11094 67673 42684 42701 10274 20210 48539 83131
                   333 5//// 83830 84360 83080=
202002110600 AAXX 11064 67673 12584 53602 10226 20200 48544 60194 82131
                   333 10300 20160 5//// 82828 85360 84080=
202002100600 AAXX 10064 67673 12680 80000 10202 20202 48/// 60304 82137
                   333 10260 20165 5//// 82827 82360 88280=

################################################################################
#  SYNOPS from 67731, Senanga (Zambia) | 16-06S | 023-16E | 1027 m
################################################################################
202003020600 AAXX 02064 67731 32680 121// 10241 20206 48/// 70300 81200
                   333 10302 20195 58011 81832
                   555 00072=
202002281200 AAXX 28124 67731 NIL=
202002280600 AAXX 28064 67731 12480 709// 10227 20188 48/// 60024 84518
                   333 10315 20166 58019 84615 84460 87280
                   555 00049=
202002271200 AAXX 27124 67731 NIL=
202002270900 AAXX 27094 67731 42480 529// 10271 20193 48/// 84130
                   333 59009 84824 83362=
202002270600 AAXX 27064 67731 12480 415// 10231 20168 48/// 60084 82530
                   333 10291 20161 58001 82614 83360=
202002260900 AAXX 26094 67731 NIL=
202002260600 AAXX 26064 67731 12480 814// 10230 20200 48/// 60044 83578
                   333 10302 20169 59013 83615 85460 88280
                   555 00059=
202002250900 AAXX 25094 67731 42580 710// 10270 20207 48/// 70122 84250
                   333 59007 84823 87363=
202002250600 AAXX 25064 67731 12480 810// 10216 20200 48/// 60024 70222 83530
                   333 10270 20202 59007 83615 88360
                   555 00073=
202002241200 AAXX 24124 67731 42580 824// 10262 20210 48/// 70222 82930
                   333 58004 82921 83823 87365=
202002240600 AAXX 24064 67731 12470 818// 10221 20208 48/// 60034 78082 82932
                   333 10337 20209 58016 82915 87362 87080
                   555 00097=
202002210900 AAXX 21094 67731 42580 417// 10293 20216 48/// 70122 81900
                   333 59005 81925 83828=
202002210600 AAXX 21064 67731 12680 710// 10224 20203 48/// 60054 70222 83530
                   333 10293 20199 59005 83632 87360
                   555 00073=
202002200600 AAXX 20064 67731 12580 618// 10232 20207 48/// 60054 70322 81530
                   333 10320 20207 58008 81623 86362
                   555 00082=
202002190600 AAXX 19064 67731 12980 322// 10244 20201 48/// 69904 70200 80008
                   333 10322 20200 59004 83080
                   555 00084=
202002180600 AAXX 18064 67731 12980 815// 10227 20207 48/// 69904 70252 87037
                   333 10315 20204 5//// 87362 88280
                   555 00072=
202002171200 AAXX 17124 67731 42680 503// 10300 20196 48/// 84202
                   333 5//// 84837 84080=
202002170600 AAXX 17064 67731 12980 427// 10239 20177 48/// 69904 70222 80008
                   333 10308 20178 5//// 84280
                   555 00061=
202002140600 AAXX 14064 67731 32480 609// 10247 20173 48/// 82132
                   333 10330 20194 58005 82816 84360 85080
                   555 00069=
202002130600 AAXX 13064 67731 32480 409// 10235 20182 48/// 81102
                   333 10321 20179 59009 81871 84080
                   555 00090=
202002120600 AAXX 12064 67731 32980 019// 10237 20210 48/// 70204
                   333 10305 20188 59006
                   555 00095=
202002110900 AAXX 11094 67731 NIL=
202002110600 AAXX 11064 67731 12680 412// 10229 20205 48/// 60024 70222 81251
                   333 10302 20207 58006 81832 81362 84080
                   555 00087=
202002100600 AAXX 10064 67731 12980 718// 10225 20212 48/// 60144 70222 87030
                   333 10306 20197 58040 87362
                   555 00076=
202002030600 AAXX 03064 67731 12980 227// 10235 20205 48/// 60014 80008
                   333 10303 20200 59003 82080
                   555 00083=

################################################################################
#  SYNOPS from 67741, Sesheke (Zambia) | 17-28S | 024-18E | 949 m
################################################################################
202003021200 AAXX 02124 67741 42680 70901 10282 20213 48492 875//
                   333 5//// 87648=
202003020600 AAXX 02064 67741 12980 50901 10236 20199 48523 69944 85030
                   333 10258 20197 59021 85362=
202002281200 AAXX 28124 67741 NIL=
202002280600 AAXX 28064 67741 32980 50602 10246 20199 48525 80008
                   333 10318 20189 58010 85280=
202002271200 AAXX 27124 67741 NIL=
202002270600 AAXX 27064 67741 12980 10801 10220 20196 48510 60014 81030
                   333 10276 20179 58000 81362=
202002260900 AAXX 26094 67741 42680 70901 10244 20194 48523 875//
                   333 59001 87640=
202002260600 AAXX 26064 67741 12680 51201 10226 20193 48512 60014 85500
                   333 10285 20195 59009 85640=
202002250900 AAXX 25094 67741 NIL=
202002250600 AAXX 25064 67741 12680 70901 10217 20194 48519 60564 8457/
                   333 10231 20197 59001 84630 87461=
202002241200 AAXX 24124 67741 41680 80901 10212 20206 48517 76366 885//
                   333 5//// 88620=
202002240600 AAXX 24064 67741 11670 81201 10208 20202 48517 60524 76022 885//
                   333 10350 20193 58018 88620=
202002210900 AAXX 21094 67741 42680 33601 10286 20202 48533 83130
                   333 5//// 82850 81362=
202002210600 AAXX 21064 67741 32980 10000 10236 20203 48533 81030
                   333 10319 20193 59001 81361=
202002201200 AAXX 20124 67741 42680 60000 10306 2//// 48/// 86800
                   333 59002 86850 81645=
202002200600 AAXX 20064 67741 12980 13601 10240 20209 48533 60034 81030
                   333 10319 20196 59008 81362=
202002190600 AAXX 19064 67741 11675 70000 10213 20203 48529 60084 76062 8257/
                   333 10268 20199 58010 83625 87458=
202002180600 AAXX 18064 67741 12680 70000 10220 20214 48519 60244 8157/
                   333 10309 20201 58007 81630 87460=
202002170600 AAXX 17064 67741 12680 70000 10232 20204 48521 60224 8157/
                   333 10321 20198 59002 81645 87362=
202002140600 AAXX 14064 67741 32980 51001 10238 20189 48504 85030
                   333 10306 20193 59015 85362=
202002121200 AAXX 12124 67741 42680 51802 10310 20198 48507 85501
                   333 59002 85645 81080=
202002120600 AAXX 12064 67741 12680 10000 10225 20204 48510 60034 81530
                   333 10320 20186 59005 81640 81362=
202002110900 AAXX 11094 67741 42680 63601 10276 20217 48531 82130
                   333 58015 82850 86362=
202002110600 AAXX 11064 67741 12980 50000 10216 20202 48519 60014 85030
                   333 10296 20186 58010 85362=
202002101200 AAXX 10124 67741 42680 53203 10274 20222 48490 81230
                   333 5//// 81850 85362=
202002100600 AAXX 10064 67741 12680 72801 10220 20200 48510 60174 8357/
                   333 10342 20203 59005 83630 86362=
202002030600 AAXX 03064 67741 32980 30801 10240 20183 48552 83030
                   333 10320 20169 58007 83362=

################################################################################
#  SYNOPS from 67743, Livingstone (Zambia) | 17-49S | 025-49E | 985 m
################################################################################
202003020600 AAXX 02064 67743 NIL=
202002281200 AAXX 28124 67743 NIL=
202002280600 AAXX 28064 67743 32980 20203 10225 20185 48524 81031
                   333 10310 20160 58007 81360 82080 91018=
202002271200 AAXX 27124 67743 NIL=
202002260900 AAXX 26094 67743 NIL=
202002260600 AAXX 26064 67743 NIL=
202002250900 AAXX 25094 67743 NIL=
202002250600 AAXX 25064 67743 11459 81010 10194 20180 48525 60574 72052 885//
                   333 10230 20167 58003 88615 91019=
202002241200 AAXX 24124 67743 NIL=
202002240600 AAXX 24064 67743 11458 82602 10204 20198 48526 60404 76062 8267/
                   333 10350 20176 58024 84712 87458 91019=
202002210900 AAXX 21094 67743 42680 30402 10277 20199 48873 82101
                   333 59005 82833 83080 91018=
202002210600 AAXX 21064 67743 32980 30305 10226 20199 48514 80001
                   333 10818 20176 89005 83080 91018=
202002200600 AAXX 20064 67743 12580 20604 10227 20191 48530 60294 70200 81630
                   333 10312 20174 59002 81715 81359 91019=
202002190900 AAXX 19094 67743 42580 50907 10286 20214 48545 70300 83231
                   333 58004 83830 82359 82080 91019=
202002190600 AAXX 19064 67743 32480 30805 10225 20204 48532 81631
                   333 10304 20180 58003 81710 82359 83079 91019=
202002180600 AAXX 18064 67743 12980 30606 10220 20207 48529 60044 83030
                   333 10290 20177 58006 83358 91018=
202002170600 AAXX 17064 67743 11950 71205 10227 20217 48523 69904 74542 8////
                   333 10311 20196 59005 91018=
202002140600 AAXX 14064 67743 32980 31210 10235 20194 48507 82031
                   333 10317 20188 59010 82358 82080 91016=
202002131200 AAXX 13124 67743 42680 61309 10290 20212 48507 84231
                   333 59003 84835 85358 82080 91015=
202002120600 AAXX 12064 67743 12380 31505 10215 20200 48506 60074 81601
                   333 10310 20179 59003 81709 83079 91016=
202002110900 AAXX 11094 67743 42580 52705 10267 20214 48525 84507
                   333 58013 84625 84180 91017=
202002110600 AAXX 11064 67743 12480 42704 10225 20203 48512 60294 81631
                   333 10286 20169 59007 81710 82359 83079 91017=
202002100600 AAXX 10064 67743 11358 83307 10204 20199 48502 60234 76062 8467/
                   333 20181 555 10243 59002 83708 66458 91016=

################################################################################
#  SYNOPS from 67751, Magoye (Zambia) | 16-00S | 027-36E | 1018 m
################################################################################
202003020600 AAXX 02064 67751 NIL=
202002281200 AAXX 28124 67751 NIL=
202002271200 AAXX 27124 67751 NIL=
202002260900 AAXX 26094 67751 NIL=
202002260600 AAXX 26064 67751 32480 70804 10205 20185 48/// 875//
                   333 10277 20177 58006 87612=
202002250900 AAXX 25094 67751 NIL=
202002250600 AAXX 25064 67751 12980 81704 10211 2//// 48/// 60094 8807/
                   333 10243 20199 5//// 88360=
202002241200 AAXX 24124 67751 NIL=
202002240600 AAXX 24064 67751 11980 82401 10195 20189 48/// 60174 76066 8807/
                   333 10311 20193 5//// 88360=
202002190600 AAXX 19064 67751 32480 21801 10220 20200 48/// 81131
                   333 10305 20192 58001 81810 81360 81080=
202002180600 AAXX 18064 67751 12980 20102 10240 20211 48/// 60034 82030
                   333 10275 20192 59003 82360=
202002170600 AAXX 17064 67751 11480 68403 10229 20213 48/// 60034 71792 82230
                   333 10295 20196 5//// 81913 82813 84360=
202002140600 AAXX 14064 67751 NIL=
202002120600 AAXX 12064 67751 12980 72102 10211 20206 48/// 60024 87070
                   333 10300 20195 5//// 87360=
202002110900 AAXX 11094 67751 NIL=
202002110600 AAXX 11064 67751 12480 73402 10215 20192 48/// 60034 81170
                   333 10280 20193 58002 81810 87360=
202002101200 AAXX 10124 67751 41580 73306 10260 20210 48/// 76066 85260
                   333 5//// 85820 83360=
202002100600 AAXX 10064 67751 12360 70202 10210 20196 48/// 60054 84530
                   333 10291 20193 5//// 84608 83360=
202002030600 AAXX 03064 67751 32980 10000 10233 20145 81040
                   333 10300 20161 81360=

################################################################################
#  SYNOPS from 67753, Choma (Zambia) | 16-50S | 027-04E | 1213 m
################################################################################
202003020600 AAXX 02064 67753 12380 81903 10181 20178 48/// 69974 886//
                   333 10250 20156 5//// 88706=
202002281200 AAXX 28124 67753 NIL=
202002271200 AAXX 27124 67753 NIL=
202002270600 AAXX 27064 67753 12980 02003 10201 20170 48520 69904
                   333 10234 20160 5////=
202002260900 AAXX 26094 67753 NIL=
202002260600 AAXX 26064 67753 12580 62706 10185 20179 48/// 69904 86200
                   333 10235 20176 5//// 86820=
202002250900 AAXX 25094 67753 NIL=
202002250600 AAXX 25064 67753 11356 82703 10179 20179 48/// 60044 75755 887//
                   333 10234 20176 5//// 88707=
202002241200 AAXX 24124 67753 NIL=
202002210600 AAXX 21064 67753 32980 40000 10236 20204 48523 70222 84030
                   333 10299 20180 59006 84360=
202002200600 AAXX 20064 67753 32580 60000 10200 20184 48529 72822 82532
                   333 10279 20162 58001 82620 82360 82080=
202002190600 AAXX 19064 67753 12980 40000 10189 20177 48528 60094 82032
                   333 10274 20178 58000 82360 82080=
202002180600 AAXX 18064 67753 12580 30000 10221 20206 48531 60014 81130
                   333 10275 20176 5//// 81820 82360=
202002170600 AAXX 17064 67753 11375 80000 10211 20209 48/// 60024 71022 8463/
                   333 10270 20196 5//// 84709 84360=
202002140600 AAXX 14064 67753 31380 70910 10209 20192 48/// 70222 876//
                   333 10268 20190 5//// 87709=
202002120600 AAXX 12064 67753 11580 70000 10206 20189 48/// 69924 70222 8453/
                   333 10289 20188 5//// 84620 84360=
202002110900 AAXX 11094 67753 NIL=
202002110600 AAXX 11064 67753 11580 80000 10200 20193 48/// 60104 70222 8255/
                   333 10255 20186 5//// 82620 88360=
202002030600 AAXX 03064 67753 31980 70000 10202 20177 48529 8705/
                   333 10209 20172 58012 87360=

################################################################################
#  SYNOPS from 67855, Lupaki (Zambia) | 17-03-00S | 024-46-00E | 1000 m
################################################################################
202003021200 AAXX 02124 67855 42675 73503 10254 20164 3//// 48/// 8327/
                   333 5//// 83835 87459=
202003020600 AAXX 02064 67855 32975 70602 10190 20133 3//// 48/// 8707/
                   333 20153 5//// 87459=
202003010600 AAXX 01064 67855 32575 30302 10210 20140 3//// 48/// 83530
                   333 20180 5//// 83620=
202002291200 AAXX 29124 67855 42775 51401 10310 20168 3//// 48/// 85201
                   333 5//// 85850 83080=
202002290600 AAXX 29064 67855 12575 20607 10222 20168 3//// 48/// 69904 82530
                   333 20182 5//// 82620=
202002271200 AAXX 27124 67855 42775 50101 10304 20175 3//// 48/// 85200
                   333 5//// 85845=
202002270600 AAXX 27064 67855 32575 10201 10210 20158 3//// 48/// 81530
                   333 20173 5//// 81625=
202002261200 AAXX 26124 67855 42675 40301 10304 20164 3//// 48/// 84230
                   333 5//// 84845=
202002260600 AAXX 26064 67855 32975 10401 10192 20130 3//// 48/// 81030
                   333 20152 5//// 81360=
202002241200 AAXX 24124 67855 41975 80000 10224 20203 3//// 48/// 72162 8807/
                   333 5//// 88459=
202002231200 AAXX 23124 67855 41670 71803 10304 20189 3//// 48/// 71592 83232
                   333 5//// 83845 87080=
202002230600 AAXX 23064 67855 32975 70000 10250 20208 3//// 48/// 85072
                   333 20200 5//// 85360 87080=
202002221200 AAXX 22124 67855 42775 53601 10336 20187 3//// 48/// 85230
                   333 5//// 85850=
202002220600 AAXX 22064 67855 32975 30502 10240 20193 3//// 48/// 81031
                   333 20200 5//// 81360 83080=
202002210600 AAXX 21064 67855 32575 10101 10242 20198 3//// 48/// 81531
                   333 20201 5//// 81625=
202002201200 AAXX 20124 67855 42775 50103 10320 20173 3//// 48/// 85230
                   333 5//// 85850=
202002180600 AAXX 18064 67855 31675 50701 10236 20207 3//// 48/// 70192 81231
                   333 20205 5//// 81925 85360=
202002171200 AAXX 17124 67855 42675 50401 10300 20204 3//// 48/// 85230
                   333 5//// 85845=
202002170600 AAXX 17064 67855 12975 70101 10216 20210 3//// 48/// 60064 8707/
                   333 20200 5//// 87459=
202002160600 AAXX 16064 67855 11975 70000 10232 20215 3//// 48/// 69904 70262 8707/
                   333 20220 5//// 87459=
202002150600 AAXX 15064 67855 12675 60601 10236 20198 3//// 48/// 69904 81570
                   333 20208 5//// 81630 86360=
202002140600 AAXX 14064 67855 12975 10702 10206 20183 3//// 48/// 60014 80001
                   333 20170 5//// 81080=
202002131200 AAXX 13124 67855 42675 50601 10304 20183 3//// 48/// 85231
                   333 5//// 85840 83360=
202002130600 AAXX 13064 67855 12575 72301 10208 20181 3//// 48/// 69904 8257/
                   333 20175 5//// 82625 87360=
202002110600 AAXX 11064 67855 12575 71701 10214 20203 3//// 48/// 60234 875//
                   333 20202 5//// 87620=
202002101200 AAXX 10124 67855 41675 73403 10256 20205 3//// 48/// 70165 83272
                   333 5//// 83840 85459 87080=
202002100600 AAXX 10064 67855 11570 70000 10210 20203 3//// 48/// 60094 76062 8557/
                   333 20204 5//// 85620 88458=
202002070600 AAXX 07064 67855 12975 70402 10216 20193 3//// 48/// 60044 8707/
                   333 20204 5//// 87459=
202002061200 AAXX 06124 67855 42675 73501 10288 20198 3//// 48/// 8327/
                   333 5//// 83845 87360=
202002060600 AAXX 06064 67855 12575 71401 10210 20195 3//// 48/// 60194 8157/
                   333 20190 5//// 81620 87459=
202002050600 AAXX 05064 67855 12975 70601 10228 20188 3//// 48/// 69904 8707/
                   333 20196 5//// 87459=
202002041200 AAXX 04124 67855 41670 53603 10330 20168 3//// 48/// 71792 84233
                   333 5//// 81940 83845 85080=
202002040600 AAXX 04064 67855 12975 50303 10238 20182 3//// 48/// 69904 85070
                   333 20195 5//// 85459=
202002020600 AAXX 02064 67855 12975 10304 10236 20140 3//// 48/// 69904 81030
                   333 20195 5//// 81360=
