################################################################################
# Query made at 04/14/2022 12:14:57 UTC
# Country like Zamb*
# Time interval: from 06/01/2013 05:30  to 07/01/2013 06:30  UTC
################################################################################

################################################################################
#  SYNOPS from 67403, Kawambwa (Zambia) | 09-48S | 029-05E | 1323 m
################################################################################
201306302100 AAXX 30214 67403 NIL=
201306301800 AAXX 30184 67403 NIL=
201306301200 AAXX 30120 67403 NIL=
201306300600 AAXX 30061 67403 NIL=
201306292100 AAXX 29214 67403 NIL=
201306291800 AAXX 29184 67403 NIL=
201306291500 AAXX 29154 67403 NIL=
201306291200 AAXX 29120 67403 NIL=
201306290900 AAXX 29094 67403 NIL=
201306290600 AAXX 29060 67403 NIL=
201306281500 AAXX 28154 67403 NIL=
201306280900 AAXX 28094 67403 NIL=
201306280600 AAXX 28060 67403 NIL=
201306271500 AAXX 27154 67403 NIL=
201306271200 AAXX 27121 67403 NIL=
201306270600 AAXX 27064 67403 32980 00000 10163 20110 48546
                   333 10285 20/// 59009=
201306261500 AAXX 26154 67403 NIL=
201306260600 AAXX 26064 67403 32980 01001 10140 20112 48556
                   333 10280 20/// 58001=
201306251800 AAXX 25184 67403 NIL=
201306251200 AAXX 25121 67403 NIL=
201306250600 AAXX 25064 67403 32980 11001 10130 20093 48554 80001
                   333 10265 20/// 59009 81080=
201306231500 AAXX 23154 67403 NIL=
201306231200 AAXX 23121 67403 NIL=
201306221800 AAXX 22184 67403 NIL=
201306221500 AAXX 22154 67403 NIL=
201306221200 AAXX 22121 67403 NIL=
201306212100 AAXX 21214 67403 NIL=
201306210600 AAXX 21064 67403 32980 00901 10135 20092 48564
                   333 10272 20/// 58007=
201306210300 AAXX 21034 67403 NIL=
201306210000 AAXX 21004 67403 NIL=
201306201800 AAXX 20184 67403 NIL=
201306201500 AAXX 20154 67403 NIL=
201306200600 AAXX 20064 67403 NIL=
201306200300 AAXX 20034 67403 NIL=
201306200000 AAXX 20004 67403 NIL=
201306190600 AAXX 19064 67403 32980 00902 10124 20092 48553
                   333 10242 20/// 59005=
201306190000 AAXX 19004 67403 NIL=
201306181500 AAXX 18154 67403 NIL=
201306160600 AAXX 16061 67403 NIL=
201306160000 AAXX 16004 67403 NIL=
201306151200 AAXX 15120 67403 NIL=
201306150900 AAXX 15094 67403 NIL=
201306150300 AAXX 15034 67403 NIL=
201306141800 AAXX 14184 67403 NIL=
201306140000 AAXX 14004 67403 NIL=
201306131500 AAXX 13154 67403 NIL=
201306131200 AAXX 13121 67403 NIL=
201306130900 AAXX 13094 67403 NIL=
201306130000 AAXX 13004 67403 NIL=
201306121800 AAXX 12184 67403 NIL=
201306121500 AAXX 12154 67403 NIL=
201306121200 AAXX 12121 67403 NIL=
201306120600 AAXX 12064 67403 32980 01003 10133 20102 48554
                   333 10256 20//0 59005=
201306120300 AAXX 12034 67403 NIL=
201306111500 AAXX 11154 67403 NIL=
201306111200 AAXX 11124 67403 NIL=
201306110300 AAXX 11034 67403 NIL=
201306101800 AAXX 10184 67403 NIL=
201306101500 AAXX 10154 67403 NIL=
201306100600 AAXX 10064 67403 32980 01001 10150 20095 48556
                   333 10275 20/// 59002=
201306091200 AAXX 09121 67403 NIL=
201306090900 AAXX 09094 67403 NIL=
201306090600 AAXX 09064 67403 NIL=
201306082100 AAXX 08214 67403 NIL=
201306081800 AAXX 08184 67403 NIL=
201306081500 AAXX 08154 67403 NIL=
201306081200 AAXX 08121 67403 NIL=
201306071500 AAXX 07154 67403 NIL=
201306070600 AAXX 07064 67403 32980 00903 10146 20075 48556
                   333 58006=
201306061200 AAXX 06121 67403 NIL=
201306060000 AAXX 06004 67403 NIL=
201306051800 AAXX 05184 67403 NIL=
201306051500 AAXX 05154 67403 NIL=
201306051200 AAXX 05124 67403 NIL=
201306050600 AAXX 05064 67403 32980 00000 10145 20095 48556
                   333 10295 20//0 58010=
201306050300 AAXX 05034 67403 NIL=
201306042100 AAXX 04214 67403 NIL=
201306041200 AAXX 04124 67403 NIL=
201306040300 AAXX 04034 67403 NIL=
201306040000 AAXX 04004 67403 NIL=
201306031500 AAXX 03154 67403 NIL=
201306031200 AAXX 03121 67403 NIL=
201306030300 AAXX 03034 67403 NIL=
201306021800 AAXX 02184 67403 NIL=
201306021500 AAXX 02154 67403 NIL=
201306021200 AAXX 02121 67403 NIL=
201306020000 AAXX 02004 67403 NIL=

################################################################################
#  SYNOPS from 67413, Mbala (Zambia) | 08-51S | 031-20E | 1673 m
################################################################################
201306302100 AAXX 30214 67413 NIL=
201306301800 AAXX 30184 67413 NIL=
201306301200 AAXX 30120 67413 NIL=
201306300600 AAXX 30061 67413 NIL=
201306292100 AAXX 29214 67413 NIL=
201306291800 AAXX 29184 67413 NIL=
201306291500 AAXX 29154 67413 NIL=
201306291200 AAXX 29120 67413 NIL=
201306290900 AAXX 29094 67413 NIL=
201306290600 AAXX 29060 67413 NIL=
201306281500 AAXX 28154 67413 NIL=
201306280900 AAXX 28094 67413 NIL=
201306280600 AAXX 28060 67413 NIL=
201306271500 AAXX 27154 67413 NIL=
201306271200 AAXX 27121 67413 NIL=
201306261500 AAXX 26154 67413 NIL=
201306260600 AAXX 26060 67413 NIL=
201306251800 AAXX 25184 67413 NIL=
201306251200 AAXX 25121 67413 NIL=
201306231500 AAXX 23154 67413 NIL=
201306231200 AAXX 23121 67413 NIL=
201306221800 AAXX 22184 67413 NIL=
201306221500 AAXX 22154 67413 NIL=
201306221200 AAXX 22121 67413 NIL=
201306212100 AAXX 21214 67413 NIL=
201306210600 AAXX 21064 67413 32980 01201 10150 20114 48568
                   333 10250 20/// 58///
                   555 00/// 91027=
201306210300 AAXX 21034 67413 NIL=
201306210000 AAXX 21004 67413 NIL=
201306201800 AAXX 20184 67413 NIL=
201306201500 AAXX 20154 67413 NIL=
201306200600 AAXX 20064 67413 NIL=
201306200300 AAXX 20034 67413 NIL=
201306200000 AAXX 20004 67413 NIL=
201306190600 AAXX 19061 67413 NIL=
201306190000 AAXX 19004 67413 NIL=
201306181500 AAXX 18154 67413 NIL=
201306160600 AAXX 16061 67413 NIL=
201306160000 AAXX 16004 67413 NIL=
201306151200 AAXX 15120 67413 NIL=
201306150900 AAXX 15094 67413 NIL=
201306150300 AAXX 15034 67413 NIL=
201306141800 AAXX 14184 67413 NIL=
201306140000 AAXX 14004 67413 NIL=
201306131500 AAXX 13154 67413 NIL=
201306131200 AAXX 13121 67413 NIL=
201306130900 AAXX 13094 67413 NIL=
201306130000 AAXX 13004 67413 NIL=
201306121800 AAXX 12184 67413 NIL=
201306121500 AAXX 12154 67413 NIL=
201306121200 AAXX 12121 67413 NIL=
201306120600 AAXX 12064 67413 NIL=
201306120300 AAXX 12034 67413 NIL=
201306111500 AAXX 11154 67413 NIL=
201306111200 AAXX 11124 67413 NIL=
201306110300 AAXX 11034 67413 NIL=
201306101800 AAXX 10184 67413 NIL=
201306101500 AAXX 10154 67413 NIL=
201306091200 AAXX 09121 67413 NIL=
201306090900 AAXX 09094 67413 NIL=
201306090600 AAXX 09064 67413 NIL=
201306082100 AAXX 08214 67413 NIL=
201306081800 AAXX 08184 67413 NIL=
201306081500 AAXX 08154 67413 NIL=
201306081200 AAXX 08121 67413 NIL=
201306071500 AAXX 07154 67413 NIL=
201306070600 AAXX 07064 67413 NIL=
201306061200 AAXX 06121 67413 NIL=
201306060600 AAXX 06064 67413 32480 10914 10155 20120 48572 81100
                   333 10270 20/// 58015 81815
                   555 00/// 91028=
201306060000 AAXX 06004 67413 NIL=
201306051800 AAXX 05184 67413 NIL=
201306051500 AAXX 05154 67413 NIL=
201306051200 AAXX 05124 67413 NIL=
201306050600 AAXX 05064 67413 32980 01112 10170 20109 48556
                   333 10270 20/// 58009 91026=
201306050300 AAXX 05034 67413 NIL=
201306042100 AAXX 04214 67413 NIL=
201306041200 AAXX 04124 67413 NIL=
201306040600 AAXX 04064 67413 31980 00910 10160 20098 48548 70500
                   333 10255 20/// 59012 91025=
201306040300 AAXX 04034 67413 NIL=
201306040000 AAXX 04004 67413 NIL=
201306031500 AAXX 03154 67413 NIL=
201306031200 AAXX 03121 67413 NIL=
201306030600 AAXX 03064 67413 32980 10000 10155 20102 48530 80001
                   333 10260 20/// 58006 81078
                   555 00///=
201306030300 AAXX 03034 67413 NIL=
201306021800 AAXX 02184 67413 NIL=
201306021500 AAXX 02154 67413 NIL=
201306021200 AAXX 02121 67413 NIL=
201306020000 AAXX 02004 67413 NIL=

################################################################################
#  SYNOPS from 67441, Mwinilunga (Zambia) | 11-45S | 024-26E | 1361 m
################################################################################
201306302100 AAXX 30214 67441 NIL=
201306301800 AAXX 30184 67441 NIL=
201306301200 AAXX 30120 67441 NIL=
201306300600 AAXX 30061 67441 NIL=
201306292100 AAXX 29214 67441 NIL=
201306291800 AAXX 29184 67441 NIL=
201306291500 AAXX 29154 67441 NIL=
201306291200 AAXX 29120 67441 NIL=
201306290900 AAXX 29094 67441 NIL=
201306290600 AAXX 29060 67441 NIL=
201306281500 AAXX 28154 67441 NIL=
201306280900 AAXX 28094 67441 NIL=
201306280600 AAXX 28060 67441 NIL=
201306271500 AAXX 27154 67441 NIL=
201306271200 AAXX 27121 67441 NIL=
201306270600 AAXX 27064 67441 31960 00000 10095 20090 48565 70500
                   333 10290 20/// 58000
                   555 00///=
201306261500 AAXX 26154 67441 NIL=
201306260600 AAXX 26060 67441 NIL=
201306251800 AAXX 25184 67441 NIL=
201306251200 AAXX 25121 67441 NIL=
201306250600 AAXX 25064 67441 31960 10000 10086 20063 48563 70500 80001
                   333 10265 20/// 59006 81080=
201306240600 AAXX 24064 67441 31970 110// 10155 20080 48575 70500 80001
                   333 10285 20/// 59005 81080
                   555 00///=
201306231500 AAXX 23154 67441 NIL=
201306231200 AAXX 23121 67441 NIL=
201306221800 AAXX 22184 67441 NIL=
201306221500 AAXX 22154 67441 NIL=
201306221200 AAXX 22121 67441 NIL=
201306212100 AAXX 21214 67441 NIL=
201306210600 AAXX 21060 67441 NIL=
201306210300 AAXX 21034 67441 NIL=
201306210000 AAXX 21004 67441 NIL=
201306201800 AAXX 20184 67441 NIL=
201306201500 AAXX 20154 67441 NIL=
201306200600 AAXX 20064 67441 NIL=
201306200300 AAXX 20034 67441 NIL=
201306200000 AAXX 20004 67441 NIL=
201306190600 AAXX 19064 67441 31970 006// 10110 20083 48577 70500
                   333 10245 20/// 59002
                   555 00///=
201306190000 AAXX 19004 67441 NIL=
201306181500 AAXX 18154 67441 NIL=
201306180600 AAXX 18064 67441 31965 011// 10094 20079 48573 70500
                   333 10245 20/// 555 00///=
201306170600 AAXX 17064 67441 31960 009// 10097 20056 48585 70500
                   333 10265 20/// 58012
                   555 00///=
201306160600 AAXX 16061 67441 NIL=
201306160000 AAXX 16004 67441 NIL=
201306151200 AAXX 15120 67441 NIL=
201306150900 AAXX 15094 67441 NIL=
201306150300 AAXX 15034 67441 NIL=
201306141800 AAXX 14184 67441 NIL=
201306140000 AAXX 14004 67441 NIL=
201306131500 AAXX 13154 67441 NIL=
201306131200 AAXX 13121 67441 NIL=
201306130900 AAXX 13094 67441 41970 009// 10206 20094 48574 70500
                   333 59006=
201306130600 AAXX 13064 67441 31965 00000 10115 20087 48573 70500
                   333 10265 20/// 59008
                   555 00///=
201306130000 AAXX 13004 67441 NIL=
201306121800 AAXX 12184 67441 NIL=
201306121500 AAXX 12154 67441 NIL=
201306121200 AAXX 12121 67441 NIL=
201306120600 AAXX 12064 67441 31965 000// 10124 20089 48581 70500
                   333 10270 20/// 59008=
201306120300 AAXX 12034 67441 NIL=
201306111500 AAXX 11154 67441 NIL=
201306111200 AAXX 11124 67441 NIL=
201306110600 AAXX 11064 67441 31965 015// 10125 20067 48586 70500
                   333 10280 20/// 58012=
201306110300 AAXX 11034 67441 NIL=
201306101800 AAXX 10184 67441 NIL=
201306101500 AAXX 10154 67441 NIL=
201306100600 AAXX 10064 67441 31965 000// 10100 20070 48577 70500
                   333 10275 20/// 58007=
201306091200 AAXX 09121 67441 NIL=
201306090900 AAXX 09094 67441 NIL=
201306090600 AAXX 09064 67441 NIL=
201306082100 AAXX 08214 67441 NIL=
201306081800 AAXX 08184 67441 NIL=
201306081500 AAXX 08154 67441 NIL=
201306081200 AAXX 08121 67441 NIL=
201306071500 AAXX 07154 67441 NIL=
201306070600 AAXX 07064 67441 NIL=
201306061200 AAXX 06121 67441 NIL=
201306060600 AAXX 06064 67441 31965 40000 10135 20079 48561 70521 80005
                   333 10285 20/// 59006 84280
                   555 00///=
201306060000 AAXX 06004 67441 NIL=
201306051800 AAXX 05184 67441 NIL=
201306051500 AAXX 05154 67441 NIL=
201306051200 AAXX 05124 67441 NIL=
201306050600 AAXX 05064 67441 31965 30000 10090 20065 48561 70500 80001
                   333 10280 20/// 5//// 83080=
201306050300 AAXX 05034 67441 NIL=
201306042100 AAXX 04214 67441 NIL=
201306041200 AAXX 04124 67441 NIL=
201306040600 AAXX 04064 67441 31960 00000 10098 20057 48559 70500
                   333 10285 20/// 59011=
201306040300 AAXX 04034 67441 NIL=
201306040000 AAXX 04004 67441 NIL=
201306031500 AAXX 03154 67441 NIL=
201306031200 AAXX 03121 67441 NIL=
201306030600 AAXX 03064 67441 31970 000// 10130 20088 48570 70500
                   333 10290 20/// 58004
                   555 00///=
201306030300 AAXX 03034 67441 NIL=
201306021800 AAXX 02184 67441 NIL=
201306021500 AAXX 02154 67441 NIL=
201306021200 AAXX 02121 67441 NIL=
201306020000 AAXX 02004 67441 NIL=

################################################################################
#  SYNOPS from 67461, Mansa (Zambia) | 11-06S | 028-51E | 1382 m
################################################################################
201306302100 AAXX 30214 67461 NIL=
201306301800 AAXX 30184 67461 NIL=
201306301200 AAXX 30120 67461 NIL=
201306300600 AAXX 30061 67461 NIL=
201306292100 AAXX 29214 67461 NIL=
201306291800 AAXX 29184 67461 NIL=
201306291500 AAXX 29154 67461 NIL=
201306291200 AAXX 29120 67461 NIL=
201306290900 AAXX 29094 67461 NIL=
201306290600 AAXX 29060 67461 NIL=
201306281500 AAXX 28154 67461 NIL=
201306280900 AAXX 28094 67461 41975 00806 10238 20105 48541 70500
                   333 58001 91021=
201306280600 AAXX 28060 67461 NIL=
201306271500 AAXX 27154 67461 NIL=
201306271200 AAXX 27121 67461 NIL=
201306270600 AAXX 27064 67461 32980 21203 10140 20121 48528 80001
                   333 10277 20100 59019 82080 91020=
201306261500 AAXX 26154 67461 NIL=
201306260600 AAXX 26064 67461 31975 01502 10146 20108 48529 70500
                   333 10265 20090 58008
                   555 00/// 91023=
201306251800 AAXX 25184 67461 NIL=
201306251200 AAXX 25121 67461 NIL=
201306250600 AAXX 25064 67461 32980 01305 10135 20104 48537
                   333 10242 20090 59021 91021=
201306240600 AAXX 24064 67461 32980 21304 10134 20110 48556 70200 80001
                   333 10260 20085 59001 82080 91024=
201306231500 AAXX 23154 67461 NIL=
201306231200 AAXX 23121 67461 NIL=
201306221800 AAXX 22184 67461 NIL=
201306221500 AAXX 22154 67461 NIL=
201306221200 AAXX 22121 67461 NIL=
201306212100 AAXX 21214 67461 NIL=
201306210600 AAXX 21064 67461 32980 00710 10135 20100 48556
                   333 10250 20090 58010 91024=
201306210300 AAXX 21034 67461 NIL=
201306210000 AAXX 21004 67461 NIL=
201306201800 AAXX 20184 67461 NIL=
201306201500 AAXX 20154 67461 NIL=
201306200600 AAXX 20064 67461 32975 00906 10145 20110 48548 70400
                   333 10240 20090 58004
                   555 00/// 91023=
201306200300 AAXX 20034 67461 NIL=
201306200000 AAXX 20004 67461 NIL=
201306190600 AAXX 19061 67461 NIL=
201306190000 AAXX 19004 67461 NIL=
201306181500 AAXX 18154 67461 NIL=
201306170600 AAXX 17064 67461 32980 00808 10122 20090 48574
                   333 10260 20074 58030
                   555 00/// 91026=
201306160600 AAXX 16061 67461 NIL=
201306160000 AAXX 16004 67461 NIL=
201306151200 AAXX 15120 67461 NIL=
201306150900 AAXX 15094 67461 NIL=
201306150300 AAXX 15034 67461 NIL=
201306141800 AAXX 14184 67461 NIL=
201306140000 AAXX 14004 67461 NIL=
201306131500 AAXX 13154 67461 NIL=
201306131200 AAXX 13121 67461 NIL=
201306130900 AAXX 13094 67461 NIL=
201306130600 AAXX 13064 67461 32980 11102 10143 20120 48537 70200 80001
                   333 10236 20094 59027 81080
                   555 00/// 91021=
201306130000 AAXX 13004 67461 NIL=
201306121800 AAXX 12184 67461 NIL=
201306121500 AAXX 12154 67461 NIL=
201306121200 AAXX 12121 67461 NIL=
201306120600 AAXX 12064 67461 32480 31105 10136 20125 48561 70200 83500
                   333 10245 20094 59005 83613 91024=
201306120300 AAXX 12034 67461 NIL=
201306111500 AAXX 11154 67461 NIL=
201306111200 AAXX 11124 67461 NIL=
201306110600 AAXX 11064 67461 31975 00908 10150 20095 48557 70500
                   333 10265 20/// 58019
                   555 00/// 91023=
201306110300 AAXX 11034 67461 NIL=
201306101800 AAXX 10184 67461 NIL=
201306101500 AAXX 10154 67461 NIL=
201306091200 AAXX 09121 67461 NIL=
201306090900 AAXX 09094 67461 NIL=
201306090600 AAXX 09064 67461 NIL=
201306082100 AAXX 08214 67461 NIL=
201306081800 AAXX 08184 67461 NIL=
201306081500 AAXX 08154 67461 NIL=
201306081200 AAXX 08121 67461 NIL=
201306071500 AAXX 07154 67461 NIL=
201306070600 AAXX 07064 67461 32980 01505 10142 20104 48565
                   333 10278 20/// 58016
                   555 91026=
201306061200 AAXX 06121 67461 NIL=
201306060900 AAXX 06094 67461 42980 00915 10234 20101 48556
                   333 58017 91023=
201306060600 AAXX 06064 67461 32980 01213 10149 20120 48547
                   333 10284 20/// 58033
                   555 91024=
201306060000 AAXX 06004 67461 NIL=
201306051800 AAXX 05184 67461 NIL=
201306051500 AAXX 05154 67461 NIL=
201306051200 AAXX 05124 67461 NIL=
201306050600 AAXX 05064 67461 32980 21102 10145 20110 48546 70200 80001
                   333 10280 20/// 58003 82080 91022=
201306050300 AAXX 05034 67461 NIL=
201306042100 AAXX 04214 67461 NIL=
201306041200 AAXX 04124 67461 NIL=
201306040300 AAXX 04034 67461 NIL=
201306040000 AAXX 04004 67461 NIL=
201306031500 AAXX 03154 67461 NIL=
201306031200 AAXX 03121 67461 NIL=
201306030300 AAXX 03034 67461 NIL=
201306021800 AAXX 02184 67461 NIL=
201306021500 AAXX 02154 67461 NIL=
201306021200 AAXX 02121 67461 NIL=
201306020000 AAXX 02004 67461 NIL=

################################################################################
#  SYNOPS from 67475, Kasama (Zambia) | 10-13S | 031-08E | 1382 m
################################################################################
201306302100 AAXX 30214 67475 NIL=
201306301800 AAXX 30184 67475 NIL=
201306301200 AAXX 30120 67475 NIL=
201306300600 AAXX 30061 67475 NIL=
201306292100 AAXX 29214 67475 NIL=
201306291800 AAXX 29184 67475 NIL=
201306291500 AAXX 29154 67475 NIL=
201306291200 AAXX 29120 67475 NIL=
201306290900 AAXX 29094 67475 NIL=
201306290600 AAXX 29060 67475 NIL=
201306281500 AAXX 28154 67475 NIL=
201306280900 AAXX 28094 67475 NIL=
201306280600 AAXX 28064 67475 31970 01203 10163 20085 48537 70500
                   333 10272 20088 59011
                   555 00///=
201306271500 AAXX 27154 67475 NIL=
201306271200 AAXX 27121 67475 NIL=
201306270600 AAXX 27064 67475 31970 01204 10188 20102 48549 70500
                   333 10268 20095 59004
                   555 00///=
201306261500 AAXX 26154 67475 NIL=
201306260600 AAXX 26064 67475 31970 01210 10173 20115 48552 70500
                   333 10260 20082 59003
                   555 00///=
201306251800 AAXX 25184 67475 NIL=
201306251200 AAXX 25121 67475 NIL=
201306250600 AAXX 25064 67475 31970 00906 10160 20090 48554 70500
                   333 10250 20108 59009
                   555 00/// 91024=
201306240600 AAXX 24064 67475 31970 41212 10160 20068 48563 70522 80001
                   333 10260 20109 59005 84080
                   555 00/// 91025=
201306231500 AAXX 23154 67475 NIL=
201306231200 AAXX 23121 67475 NIL=
201306221800 AAXX 22184 67475 NIL=
201306221500 AAXX 22154 67475 NIL=
201306221200 AAXX 22121 67475 NIL=
201306212100 AAXX 21214 67475 NIL=
201306211200 AAXX 21124 67475 41970 01110 10235 20095 48543 70500
                   333 58007 91023=
201306210900 AAXX 21094 67475 41970 01113 10205 20088 48562 70500
                   333 58012 91026=
201306210600 AAXX 21064 67475 31970 01112 10147 20092 48549 70500
                   555 10250 20088 58014 91024=
201306210300 AAXX 21034 67475 NIL=
201306210000 AAXX 21004 67475 NIL=
201306201800 AAXX 20184 67475 NIL=
201306201500 AAXX 20154 67475 NIL=
201306200600 AAXX 20064 67475 31970 00912 10156 20095 48553 70500
                   333 10240 20095 58004
                   555 00/// 91024=
201306200300 AAXX 20034 67475 NIL=
201306200000 AAXX 20004 67475 NIL=
201306190900 AAXX 19094 67475 41670 41212 10210 20070 48552 70500
                   333 59015 84830 91024=
201306190600 AAXX 19064 67475 31970 01210 10146 20095 48549 70500
                   333 10225 20098 59015
                   555 00/// 91024=
201306190000 AAXX 19004 67475 NIL=
201306181500 AAXX 18154 67475 NIL=
201306170600 AAXX 17064 67475 31970 51210 10120 20063 48568 85030
                   333 10252 20087 58020 85360
                   555 00/// 91026=
201306160600 AAXX 16061 67475 NIL=
201306160000 AAXX 16004 67475 NIL=
201306151200 AAXX 15120 67475 NIL=
201306150900 AAXX 15094 67475 NIL=
201306150300 AAXX 15034 67475 NIL=
201306141800 AAXX 14184 67475 NIL=
201306140000 AAXX 14004 67475 NIL=
201306131500 AAXX 13154 67475 NIL=
201306131200 AAXX 13121 67475 NIL=
201306130900 AAXX 13094 67475 NIL=
201306130600 AAXX 13064 67475 31970 30804 10162 20110 48546 70500 80001
                   333 10240 20084 59021 83080
                   555 00/// 91023=
201306130000 AAXX 13004 67475 NIL=
201306121800 AAXX 12184 67475 NIL=
201306121500 AAXX 12154 67475 NIL=
201306121200 AAXX 12121 67475 NIL=
201306120600 AAXX 12064 67475 31470 41210 10140 20112 48564 70522 83530
                   333 10238 20102 5//// 84610 82360
                   555 00///=
201306120300 AAXX 12034 67475 NIL=
201306111500 AAXX 11154 67475 NIL=
201306111200 AAXX 11124 67475 NIL=
201306110300 AAXX 11034 67475 NIL=
201306101800 AAXX 10184 67475 NIL=
201306101500 AAXX 10154 67475 NIL=
201306091200 AAXX 09121 67475 NIL=
201306090900 AAXX 09094 67475 NIL=
201306090600 AAXX 09064 67475 31970 00607 10170 20106 48/// 70500
                   333 10240 20075 5////=
201306082100 AAXX 08214 67475 NIL=
201306081800 AAXX 08184 67475 NIL=
201306081500 AAXX 08154 67475 NIL=
201306081200 AAXX 08121 67475 NIL=
201306071500 AAXX 07154 67475 41970 01311 10217 20084 48553 70500
                   333 58001 555 10240 91024=
201306061200 AAXX 06121 67475 NIL=
201306060000 AAXX 06004 67475 NIL=
201306051800 AAXX 05184 67475 NIL=
201306051500 AAXX 05154 67475 NIL=
201306051200 AAXX 05124 67475 41970 00906 10260 20099 48537 70500
                   333 58016 91022=
201306050600 AAXX 05064 67475 32970 00104 10156 20109 48552 70500
                   333 10268 20099 58007=
201306050300 AAXX 05034 67475 NIL=
201306042100 AAXX 04214 67475 NIL=
201306041200 AAXX 04124 67475 41970 00904 10250 20087 48527 70500
                   333 59004=
201306040600 AAXX 04064 67475 31970 00603 10160 20103 48545 70500
                   333 10260 20075 59009 91023=
201306040300 AAXX 04034 67475 NIL=
201306040000 AAXX 04004 67475 NIL=
201306031500 AAXX 03154 67475 41970 01603 10235 20059 48531 70500
                   333 5////=
201306031200 AAXX 03121 67475 NIL=
201306030300 AAXX 03034 67475 NIL=
201306021800 AAXX 02184 67475 NIL=
201306021500 AAXX 02154 67475 NIL=
201306021200 AAXX 02121 67475 NIL=
201306020000 AAXX 02004 67475 NIL=

################################################################################
#  SYNOPS from 67476, Misamfu (Zambia) | 10-06S | 031-15E | 1536 m
################################################################################
201306302100 AAXX 30214 67476 NIL=
201306301800 AAXX 30184 67476 NIL=
201306301200 AAXX 30120 67476 NIL=
201306300600 AAXX 30061 67476 NIL=
201306292100 AAXX 29214 67476 NIL=
201306291800 AAXX 29184 67476 NIL=
201306291500 AAXX 29154 67476 NIL=
201306291200 AAXX 29120 67476 NIL=
201306290900 AAXX 29094 67476 NIL=
201306290600 AAXX 29060 67476 NIL=
201306281500 AAXX 28154 67476 NIL=
201306280900 AAXX 28094 67476 NIL=
201306280600 AAXX 28064 67476 31976 00903 10206 20110 48/// 70500
                   333 10279 20120 5////
                   555 00///=
201306271500 AAXX 27154 67476 NIL=
201306271200 AAXX 27121 67476 NIL=
201306261500 AAXX 26154 67476 NIL=
201306260600 AAXX 26060 67476 NIL=
201306251800 AAXX 25184 67476 NIL=
201306251200 AAXX 25121 67476 NIL=
201306231500 AAXX 23154 67476 NIL=
201306231200 AAXX 23121 67476 NIL=
201306221800 AAXX 22184 67476 NIL=
201306221500 AAXX 22154 67476 NIL=
201306221200 AAXX 22121 67476 NIL=
201306212100 AAXX 21214 67476 NIL=
201306210600 AAXX 21060 67476 NIL=
201306210300 AAXX 21034 67476 NIL=
201306210000 AAXX 21004 67476 NIL=
201306201800 AAXX 20184 67476 NIL=
201306201500 AAXX 20154 67476 NIL=
201306200600 AAXX 20064 67476 NIL=
201306200300 AAXX 20034 67476 NIL=
201306200000 AAXX 20004 67476 NIL=
201306190600 AAXX 19061 67476 NIL=
201306190000 AAXX 19004 67476 NIL=
201306181500 AAXX 18154 67476 NIL=
201306170600 AAXX 17064 67476 31978 00903 10145 20096 48/// 70500
                   333 10264 20073 5////
                   555 00///=
201306160600 AAXX 16061 67476 NIL=
201306160000 AAXX 16004 67476 NIL=
201306151200 AAXX 15120 67476 NIL=
201306150900 AAXX 15094 67476 NIL=
201306150300 AAXX 15034 67476 NIL=
201306141800 AAXX 14184 67476 NIL=
201306140600 AAXX 14064 67476 31973 00804 10213 20094 48/// 70500
                   333 10260 20088 5////
                   555 00///=
201306140000 AAXX 14004 67476 NIL=
201306131500 AAXX 13154 67476 NIL=
201306131200 AAXX 13121 67476 NIL=
201306130900 AAXX 13094 67476 NIL=
201306130000 AAXX 13004 67476 NIL=
201306121800 AAXX 12184 67476 NIL=
201306121500 AAXX 12154 67476 NIL=
201306121200 AAXX 12121 67476 NIL=
201306120600 AAXX 12064 67476 NIL=
201306120300 AAXX 12034 67476 NIL=
201306111500 AAXX 11154 67476 NIL=
201306111200 AAXX 11124 67476 NIL=
201306110300 AAXX 11034 67476 NIL=
201306101800 AAXX 10184 67476 NIL=
201306101500 AAXX 10154 67476 NIL=
201306091200 AAXX 09121 67476 NIL=
201306090900 AAXX 09094 67476 NIL=
201306090600 AAXX 09064 67476 NIL=
201306082100 AAXX 08214 67476 NIL=
201306081800 AAXX 08184 67476 NIL=
201306081500 AAXX 08154 67476 NIL=
201306081200 AAXX 08121 67476 NIL=
201306071500 AAXX 07154 67476 NIL=
201306061200 AAXX 06121 67476 NIL=
201306060600 AAXX 06064 67476 31971 00804 10187 20136 48/// 70500
                   333 10258 20094 5////
                   555 00///=
201306060000 AAXX 06004 67476 NIL=
201306051800 AAXX 05184 67476 NIL=
201306051500 AAXX 05154 67476 NIL=
201306051200 AAXX 05124 67476 NIL=
201306050600 AAXX 05064 67476 31970 00903 10173 20135 48/// 70500
                   333 10258 20078 5////=
201306050300 AAXX 05034 67476 NIL=
201306042100 AAXX 04214 67476 NIL=
201306041200 AAXX 04124 67476 NIL=
201306040600 AAXX 04064 67476 31973 00905 10186 20095 48/// 70500
                   333 10238 20076 5////=
201306040300 AAXX 04034 67476 NIL=
201306040000 AAXX 04004 67476 NIL=
201306031500 AAXX 03154 67476 NIL=
201306031200 AAXX 03121 67476 NIL=
201306030600 AAXX 03064 67476 31976 00903 10187 20134 48/// 70500
                   333 10280 20094 5////
                   555 00///=
201306030300 AAXX 03034 67476 NIL=
201306021800 AAXX 02184 67476 NIL=
201306021500 AAXX 02154 67476 NIL=
201306021200 AAXX 02121 67476 NIL=
201306020000 AAXX 02004 67476 NIL=

################################################################################
#  SYNOPS from 67477, Mpika (Zambia) | 11-54S | 031-26E | 1400 m
################################################################################
201306302100 AAXX 30214 67477 NIL=
201306301800 AAXX 30184 67477 NIL=
201306301200 AAXX 30120 67477 NIL=
201306300600 AAXX 30061 67477 NIL=
201306292100 AAXX 29214 67477 NIL=
201306291800 AAXX 29184 67477 NIL=
201306291500 AAXX 29154 67477 NIL=
201306291200 AAXX 29120 67477 NIL=
201306290900 AAXX 29094 67477 NIL=
201306290600 AAXX 29060 67477 NIL=
201306281500 AAXX 28154 67477 NIL=
201306280900 AAXX 28094 67477 NIL=
201306280600 AAXX 28064 67477 32980 00602 10175 20094 48549
                   333 10250 20093 58000
                   555 00///=
201306271500 AAXX 27154 67477 NIL=
201306271200 AAXX 27121 67477 NIL=
201306270600 AAXX 27064 67477 32980 00602 10175 20094 48549
                   333 10250 20093 58000
                   555 00///=
201306261500 AAXX 26154 67477 NIL=
201306260600 AAXX 26060 67477 NIL=
201306251800 AAXX 25184 67477 NIL=
201306251200 AAXX 25121 67477 NIL=
201306250600 AAXX 25064 67477 32980 01002 10159 20086 48552
                   333 10220 20090 59012
                   555 00///=
201306240600 AAXX 24064 67477 32480 21103 10166 20072 48564 82501
                   333 10216 20093 59006 82612 81080
                   555 00///=
201306231500 AAXX 23154 67477 NIL=
201306231200 AAXX 23121 67477 NIL=
201306221800 AAXX 22184 67477 NIL=
201306221500 AAXX 22154 67477 NIL=
201306221200 AAXX 22121 67477 NIL=
201306212100 AAXX 21214 67477 NIL=
201306210600 AAXX 21060 67477 NIL=
201306210300 AAXX 21034 67477 NIL=
201306210000 AAXX 21004 67477 NIL=
201306201800 AAXX 20184 67477 NIL=
201306201500 AAXX 20154 67477 NIL=
201306200600 AAXX 20064 67477 32980 70000 10135 20099 48567 8703/
                   333 10195 20084 58006 87360
                   555 00///=
201306200300 AAXX 20034 67477 NIL=
201306200000 AAXX 20004 67477 NIL=
201306190600 AAXX 19064 67477 32480 71508 10131 20091 48562 875//
                   333 10213 20041 59010 87615
                   555 00///=
201306190000 AAXX 19004 67477 NIL=
201306181500 AAXX 18154 67477 NIL=
201306180600 AAXX 18064 67477 32480 70910 10125 20089 48571 875//
                   333 10210 20109 59008 87612
                   555 00///=
201306170600 AAXX 17064 67477 32480 10913 10146 20055 48579 81101
                   333 10230 20096 58021 81814 81080
                   555 00///=
201306160600 AAXX 16061 67477 NIL=
201306160000 AAXX 16004 67477 NIL=
201306151200 AAXX 15120 67477 NIL=
201306150900 AAXX 15094 67477 NIL=
201306150300 AAXX 15034 67477 NIL=
201306141800 AAXX 14184 67477 NIL=
201306140600 AAXX 14064 67477 32980 01210 10170 20097 48547
                   333 10239 20113 59004
                   555 00///=
201306140000 AAXX 14004 67477 NIL=
201306131500 AAXX 13154 67477 NIL=
201306131200 AAXX 13121 67477 NIL=
201306130900 AAXX 13094 67477 NIL=
201306130000 AAXX 13004 67477 NIL=
201306121800 AAXX 12184 67477 NIL=
201306121500 AAXX 12154 67477 NIL=
201306121200 AAXX 12121 67477 NIL=
201306120600 AAXX 12064 67477 NIL=
201306120300 AAXX 12034 67477 NIL=
201306111500 AAXX 11154 67477 NIL=
201306111200 AAXX 11124 67477 NIL=
201306110600 AAXX 11064 67477 32480 11508 10154 20080 48579 81500
                   333 10235 20115 58013 81613=
201306110300 AAXX 11034 67477 NIL=
201306101800 AAXX 10184 67477 NIL=
201306101500 AAXX 10154 67477 NIL=
201306100600 AAXX 10064 67477 31975 00905 10145 20091 48557 70500
                   333 10240 20060 58010=
201306091200 AAXX 09121 67477 NIL=
201306090900 AAXX 09094 67477 NIL=
201306090600 AAXX 09064 67477 NIL=
201306082100 AAXX 08214 67477 NIL=
201306081800 AAXX 08184 67477 NIL=
201306081500 AAXX 08154 67477 NIL=
201306081200 AAXX 08121 67477 NIL=
201306071500 AAXX 07154 67477 NIL=
201306061200 AAXX 06121 67477 NIL=
201306060600 AAXX 06064 67477 32480 11210 10170 20099 48572 81500
                   333 10247 20119 58016 81610
                   555 00///=
201306060000 AAXX 06004 67477 NIL=
201306051800 AAXX 05184 67477 NIL=
201306051500 AAXX 05154 67477 NIL=
201306051200 AAXX 05124 67477 NIL=
201306050600 AAXX 05064 67477 31975 00908 10185 20102 48557 70500
                   333 10240 20110 58008=
201306050300 AAXX 05034 67477 NIL=
201306042100 AAXX 04214 67477 NIL=
201306041200 AAXX 04124 67477 NIL=
201306040600 AAXX 04064 67477 32980 00907 10175 20087 48549
                   333 10240 20060 59007=
201306040300 AAXX 04034 67477 NIL=
201306040000 AAXX 04004 67477 NIL=
201306031500 AAXX 03154 67477 NIL=
201306031200 AAXX 03121 67477 NIL=
201306030600 AAXX 03064 67477 32980 01108 10183 20064 48556
                   333 10241 20106 58005
                   555 00///=
201306030300 AAXX 03034 67477 NIL=
201306021800 AAXX 02184 67477 NIL=
201306021500 AAXX 02154 67477 NIL=
201306021200 AAXX 02121 67477 NIL=
201306020000 AAXX 02004 67477 NIL=

################################################################################
#  SYNOPS from 67481, Isoka (Zambia) | 10-07S | 032-38E | 1360 m
################################################################################
201306302100 AAXX 30214 67481 NIL=
201306301800 AAXX 30184 67481 NIL=
201306301200 AAXX 30120 67481 NIL=
201306300600 AAXX 30061 67481 NIL=
201306292100 AAXX 29214 67481 NIL=
201306291800 AAXX 29184 67481 NIL=
201306291500 AAXX 29154 67481 NIL=
201306291200 AAXX 29120 67481 NIL=
201306290900 AAXX 29094 67481 NIL=
201306290600 AAXX 29060 67481 NIL=
201306281500 AAXX 28154 67481 NIL=
201306280900 AAXX 28094 67481 NIL=
201306280600 AAXX 28064 67481 31975 00602 10194 20144 70500
                   333 10260 20072 5////
                   555 00067=
201306271500 AAXX 27154 67481 NIL=
201306271200 AAXX 27121 67481 NIL=
201306270600 AAXX 27064 67481 31975 00602 10196 20122 70500
                   333 10257 20064 5////
                   555 00081=
201306261500 AAXX 26154 67481 NIL=
201306260600 AAXX 26064 67481 31980 00402 10178 20121 48/// 70500
                   333 10250 20065 5////
                   555 00070=
201306251800 AAXX 25184 67481 NIL=
201306251200 AAXX 25121 67481 NIL=
201306250600 AAXX 25064 67481 32980 000// 10175 20090 48///
                   333 10240 20069 555 00074=
201306240600 AAXX 24064 67481 32980 11203 10177 20070 81030
                   333 10240 20050 5//// 81361
                   555 00064=
201306231500 AAXX 23154 67481 NIL=
201306231200 AAXX 23121 67481 NIL=
201306221800 AAXX 22184 67481 NIL=
201306221500 AAXX 22154 67481 NIL=
201306221200 AAXX 22121 67481 NIL=
201306212100 AAXX 21214 67481 NIL=
201306210600 AAXX 21060 67481 NIL=
201306210300 AAXX 21034 67481 NIL=
201306210000 AAXX 21004 67481 NIL=
201306201800 AAXX 20184 67481 NIL=
201306201500 AAXX 20154 67481 NIL=
201306200600 AAXX 20064 67481 NIL=
201306200300 AAXX 20034 67481 NIL=
201306200000 AAXX 20004 67481 NIL=
201306190600 AAXX 19061 67481 NIL=
201306190000 AAXX 19004 67481 NIL=
201306181500 AAXX 18154 67481 NIL=
201306160600 AAXX 16061 67481 NIL=
201306160000 AAXX 16004 67481 NIL=
201306151200 AAXX 15120 67481 NIL=
201306150900 AAXX 15094 67481 NIL=
201306150300 AAXX 15034 67481 NIL=
201306141800 AAXX 14184 67481 NIL=
201306140600 AAXX 14064 67481 31975 01303 10180 20111 48/// 70500
                   333 10267 20074 5////
                   555 00080=
201306140000 AAXX 14004 67481 NIL=
201306131500 AAXX 13154 67481 NIL=
201306131200 AAXX 13121 67481 NIL=
201306130900 AAXX 13094 67481 NIL=
201306130600 AAXX 13064 67481 32980 00601 10172 20102 48///
                   333 10240 20064 5////
                   555 00067=
201306130000 AAXX 13004 67481 NIL=
201306121800 AAXX 12184 67481 NIL=
201306121500 AAXX 12154 67481 NIL=
201306121200 AAXX 12121 67481 NIL=
201306120600 AAXX 12064 67481 31475 32712 10156 20124 70521 83500
                   333 10245 20065 5//// 83615
                   555 00083=
201306120300 AAXX 12034 67481 NIL=
201306111500 AAXX 11154 67481 NIL=
201306111200 AAXX 11124 67481 41775 51710 10225 20094 70521 85800
                   333 5//// 83850 83650=
201306110600 AAXX 11064 67481 31475 12708 10164 20110 70500 81100
                   333 10257 20070 5//// 81817
                   555 00079=
201306110300 AAXX 11034 67481 NIL=
201306101800 AAXX 10184 67481 NIL=
201306101500 AAXX 10154 67481 NIL=
201306100600 AAXX 10064 67481 32980 00302 10192 20109
                   333 10236 20061 5////
                   555 00076=
201306091200 AAXX 09121 67481 NIL=
201306090900 AAXX 09094 67481 NIL=
201306090600 AAXX 09064 67481 NIL=
201306082100 AAXX 08214 67481 NIL=
201306081800 AAXX 08184 67481 NIL=
201306081500 AAXX 08154 67481 NIL=
201306081200 AAXX 08121 67481 NIL=
201306071500 AAXX 07154 67481 NIL=
201306070600 AAXX 07064 67481 32480 21503 10170 20090 82100
                   333 10285 20065 5//// 82818
                   555 00067=
201306061200 AAXX 06121 67481 NIL=
201306060000 AAXX 06004 67481 NIL=
201306051800 AAXX 05184 67481 NIL=
201306051500 AAXX 05154 67481 NIL=
201306051200 AAXX 05124 67481 41975 00406 10247 20081 70500
                   333 5////=
201306050600 AAXX 05064 67481 31975 01404 10186 20122 70500
                   333 10270 20065 5////
                   555 00072=
201306050300 AAXX 05034 67481 NIL=
201306042100 AAXX 04214 67481 NIL=
201306041200 AAXX 04124 67481 NIL=
201306040600 AAXX 04064 67481 31980 01802 10180 20116 48/// 70500
                   333 10269 20075 5////
                   555 00072=
201306040300 AAXX 04034 67481 NIL=
201306040000 AAXX 04004 67481 NIL=
201306031500 AAXX 03154 67481 NIL=
201306031200 AAXX 03121 67481 NIL=
201306030600 AAXX 03064 67481 32980 10310 10192 20076 80001
                   333 10266 20060 5//// 81080
                   555 00062=
201306030300 AAXX 03034 67481 NIL=
201306021800 AAXX 02184 67481 NIL=
201306021500 AAXX 02154 67481 NIL=
201306021200 AAXX 02121 67481 NIL=
201306020000 AAXX 02004 67481 NIL=

################################################################################
#  SYNOPS from 67531, Zambezi (Zambia) | 13-32S | 023-07E | 1077 m
################################################################################
201306302100 AAXX 30214 67531 NIL=
201306301800 AAXX 30184 67531 NIL=
201306301200 AAXX 30120 67531 NIL=
201306300600 AAXX 30061 67531 NIL=
201306292100 AAXX 29214 67531 NIL=
201306291800 AAXX 29184 67531 NIL=
201306291500 AAXX 29154 67531 NIL=
201306291200 AAXX 29120 67531 NIL=
201306290900 AAXX 29094 67531 NIL=
201306290600 AAXX 29060 67531 NIL=
201306281500 AAXX 28154 67531 NIL=
201306280900 AAXX 28094 67531 NIL=
201306280600 AAXX 28064 67531 31965 00000 10126 20089 48/// 70500
                   333 10286 20076 5////
                   555 00052=
201306271500 AAXX 27154 67531 NIL=
201306271200 AAXX 27121 67531 NIL=
201306270600 AAXX 27064 67531 31970 10000 10127 20090 48/// 70500 80001
                   333 10285 20061 58001 81082
                   555 00051=
201306261500 AAXX 26154 67531 NIL=
201306260600 AAXX 26060 67531 NIL=
201306251800 AAXX 25184 67531 NIL=
201306251200 AAXX 25121 67531 NIL=
201306250600 AAXX 25064 67531 31970 21204 10110 20083 48/// 70500 80001
                   333 10274 20067 59012 82082
                   555 00047=
201306240900 AAXX 24094 67531 41970 11010 10225 20081 48/// 70500 80001
                   333 5//// 81082=
201306240600 AAXX 24064 67531 31970 31105 10145 20095 48/// 70500 80001
                   333 10284 20085 5//// 83082
                   555 00087=
201306231500 AAXX 23154 67531 NIL=
201306231200 AAXX 23121 67531 NIL=
201306221800 AAXX 22184 67531 NIL=
201306221500 AAXX 22154 67531 NIL=
201306221200 AAXX 22121 67531 NIL=
201306212100 AAXX 21214 67531 NIL=
201306210600 AAXX 21064 67531 32980 01104 10124 20080 48/// 70500
                   333 10251 20075 5////
                   555 00070=
201306210300 AAXX 21034 67531 NIL=
201306210000 AAXX 21004 67531 NIL=
201306201800 AAXX 20184 67531 NIL=
201306201500 AAXX 20154 67531 NIL=
201306200600 AAXX 20064 67531 31970 01305 10114 20078 48/// 70500
                   333 10250 20065 5////
                   555 00059=
201306200300 AAXX 20034 67531 NIL=
201306200000 AAXX 20004 67531 NIL=
201306190600 AAXX 19064 67531 31965 00000 10100 20067 48/// 70500
                   333 10250 20040 5////
                   555 00035=
201306190000 AAXX 19004 67531 NIL=
201306181500 AAXX 18154 67531 NIL=
201306180600 AAXX 18064 67531 31970 01304 10124 20096 48/// 70500
                   333 10254 20070 59009
                   555 00066=
201306170900 AAXX 17094 67531 41970 01308 10207 20076 48/// 70500
                   333 5////=
201306170600 AAXX 17064 67531 31970 01305 10131 20070 48/// 70500
                   333 10278 20075 58019
                   555 00062=
201306160600 AAXX 16061 67531 NIL=
201306160000 AAXX 16004 67531 NIL=
201306151200 AAXX 15120 67531 NIL=
201306150900 AAXX 15094 67531 NIL=
201306150300 AAXX 15034 67531 NIL=
201306141800 AAXX 14184 67531 NIL=
201306140600 AAXX 14064 67531 31970 00902 10130 20087 48/// 70500
                   333 10262 20054 58000
                   555 00044=
201306140000 AAXX 14004 67531 NIL=
201306131500 AAXX 13154 67531 NIL=
201306131200 AAXX 13121 67531 NIL=
201306130900 AAXX 13094 67531 41965 01407 10217 20102 48/// 70500
                   333 5////=
201306130600 AAXX 13064 67531 31965 01303 10113 20088 48/// 70500
                   333 10250 20055 5////
                   555 00///=
201306130000 AAXX 13004 67531 NIL=
201306121800 AAXX 12184 67531 NIL=
201306121500 AAXX 12154 67531 NIL=
201306121200 AAXX 12121 67531 NIL=
201306120600 AAXX 12064 67531 NIL=
201306120300 AAXX 12034 67531 NIL=
201306111500 AAXX 11154 67531 NIL=
201306111200 AAXX 11124 67531 NIL=
201306110300 AAXX 11034 67531 NIL=
201306101800 AAXX 10184 67531 NIL=
201306101500 AAXX 10154 67531 NIL=
201306091200 AAXX 09121 67531 NIL=
201306090900 AAXX 09094 67531 NIL=
201306090600 AAXX 09064 67531 NIL=
201306082100 AAXX 08214 67531 NIL=
201306081800 AAXX 08184 67531 NIL=
201306081500 AAXX 08154 67531 NIL=
201306081200 AAXX 08120 67531 NIL=
201306071500 AAXX 07154 67531 NIL=
201306061200 AAXX 06121 67531 NIL=
201306060600 AAXX 06064 67531 31970 11201 10152 20095 48/// 70500 80001
                   333 10290 20076 58024 81082
                   555 00050=
201306060000 AAXX 06004 67531 NIL=
201306051800 AAXX 05184 67531 NIL=
201306051500 AAXX 05154 67531 NIL=
201306051200 AAXX 05124 67531 NIL=
201306050600 AAXX 05064 67531 31965 11301 10120 20084 48/// 70500 80001
                   333 10290 20067 58003 81082=
201306050300 AAXX 05034 67531 NIL=
201306042100 AAXX 04214 67531 NIL=
201306041200 AAXX 04124 67531 NIL=
201306040600 AAXX 04064 67531 31970 01201 10130 20093 48/// 70500
                   333 10286 20050 59010=
201306040300 AAXX 04034 67531 NIL=
201306040000 AAXX 04004 67531 NIL=
201306031500 AAXX 03154 67531 NIL=
201306031200 AAXX 03121 67531 NIL=
201306030600 AAXX 03064 67531 31965 00903 10144 20095 48/// 70500
                   333 10306 20073 58010
                   555 00059=
201306030300 AAXX 03034 67531 NIL=
201306021800 AAXX 02184 67531 NIL=
201306021500 AAXX 02154 67531 NIL=
201306021200 AAXX 02121 67531 NIL=
201306020000 AAXX 02004 67531 NIL=

################################################################################
#  SYNOPS from 67541, Kasempa (Zambia) | 13-32S | 025-51E | 1234 m
################################################################################
201306302100 AAXX 30214 67541 NIL=
201306301800 AAXX 30184 67541 NIL=
201306301200 AAXX 30120 67541 NIL=
201306300600 AAXX 30061 67541 NIL=
201306292100 AAXX 29214 67541 NIL=
201306291800 AAXX 29184 67541 NIL=
201306291500 AAXX 29154 67541 NIL=
201306291200 AAXX 29120 67541 NIL=
201306290900 AAXX 29094 67541 NIL=
201306290600 AAXX 29060 67541 NIL=
201306281500 AAXX 28154 67541 NIL=
201306280900 AAXX 28094 67541 NIL=
201306280600 AAXX 28064 67541 31958 00000 10105 20078 48522 70500
                   333 10/// 20/// 59002
                   555 00///=
201306271500 AAXX 27154 67541 NIL=
201306271200 AAXX 27121 67541 NIL=
201306270600 AAXX 27064 67541 31580 00000 10104 20080 48524 70500
                   333 10/// 20/// 59006
                   555 00///=
201306261500 AAXX 26154 67541 NIL=
201306260600 AAXX 26060 67541 NIL=
201306251800 AAXX 25184 67541 NIL=
201306251200 AAXX 25121 67541 NIL=
201306250600 AAXX 25064 67541 32980 10000 10121 20089 48538 70222 80001
                   333 10/// 20/// 59007 81080
                   555 00///=
201306231500 AAXX 23154 67541 NIL=
201306231200 AAXX 23121 67541 NIL=
201306221800 AAXX 22184 67541 NIL=
201306221500 AAXX 22154 67541 NIL=
201306221200 AAXX 22121 67541 NIL=
201306212100 AAXX 21214 67541 NIL=
201306210600 AAXX 21060 67541 NIL=
201306210300 AAXX 21034 67541 NIL=
201306210000 AAXX 21004 67541 NIL=
201306201800 AAXX 20184 67541 NIL=
201306201500 AAXX 20154 67541 NIL=
201306200600 AAXX 20064 67541 31965 00000 10130 20098 48549 70200
                   333 10/// 20/// 58006
                   555 00///=
201306200300 AAXX 20034 67541 NIL=
201306200000 AAXX 20004 67541 NIL=
201306190600 AAXX 19064 67541 31960 00000 10109 20082 48543 70500
                   333 10/// 20/// 59016
                   555 00///=
201306190000 AAXX 19004 67541 NIL=
201306181500 AAXX 18154 67541 NIL=
201306180600 AAXX 18064 67541 31960 00000 10137 20096 48589 70500
                   333 10/// 20/// 59009
                   555 00///=
201306170600 AAXX 17064 67541 31960 00000 10130 20099 48568 70500
                   333 10/// 20/// 58028
                   555 00///=
201306160600 AAXX 16061 67541 NIL=
201306160000 AAXX 16004 67541 NIL=
201306151200 AAXX 15120 67541 NIL=
201306150900 AAXX 15094 67541 NIL=
201306150300 AAXX 15034 67541 NIL=
201306141800 AAXX 14184 67541 NIL=
201306140600 AAXX 14064 67541 31965 00000 10131 20096 48539 70500
                   333 10/// 20/// 59006
                   555 00///=
201306140000 AAXX 14004 67541 NIL=
201306131500 AAXX 13154 67541 NIL=
201306131200 AAXX 13121 67541 NIL=
201306130900 AAXX 13094 67541 NIL=
201306130600 AAXX 13064 67541 31980 00000 10130 20098 48545 70500
                   333 10/// 20/// 59007
                   555 00///=
201306130000 AAXX 13004 67541 NIL=
201306121800 AAXX 12184 67541 NIL=
201306121500 AAXX 12154 67541 NIL=
201306121200 AAXX 12121 67541 NIL=
201306120600 AAXX 12064 67541 31960 00000 10141 20116 48552 70500
                   333 10/// 20040 59013=
201306120300 AAXX 12034 67541 NIL=
201306111500 AAXX 11154 67541 NIL=
201306111200 AAXX 11124 67541 NIL=
201306110600 AAXX 11064 67541 31960 00000 10145 20088 48565 70500
                   333 10/// 20093 58028=
201306110300 AAXX 11034 67541 NIL=
201306101800 AAXX 10184 67541 NIL=
201306101500 AAXX 10154 67541 NIL=
201306100600 AAXX 10064 67541 31960 00000 10129 20088 48537 70500
                   333 10/// 20064 59002=
201306091200 AAXX 09121 67541 NIL=
201306090900 AAXX 09094 67541 NIL=
201306090600 AAXX 09064 67541 NIL=
201306082100 AAXX 08214 67541 NIL=
201306081800 AAXX 08184 67541 NIL=
201306081500 AAXX 08154 67541 NIL=
201306081200 AAXX 08120 67541 NIL=
201306071500 AAXX 07154 67541 NIL=
201306061200 AAXX 06121 67541 NIL=
201306060600 AAXX 06064 67541 31960 00000 10163 20102 48557 70500
                   333 10/// 20084 58020
                   555 00///=
201306060000 AAXX 06004 67541 NIL=
201306051800 AAXX 05184 67541 NIL=
201306051500 AAXX 05154 67541 NIL=
201306051200 AAXX 05124 67541 NIL=
201306050300 AAXX 05034 67541 NIL=
201306042100 AAXX 04214 67541 NIL=
201306041200 AAXX 04124 67541 NIL=
201306040600 AAXX 04064 67541 31960 00000 10106 20078 48529 70500
                   333 10/// 20031 59003=
201306040300 AAXX 04034 67541 NIL=
201306040000 AAXX 04004 67541 NIL=
201306031500 AAXX 03154 67541 NIL=
201306031200 AAXX 03121 67541 NIL=
201306030600 AAXX 03064 67541 31960 00000 10141 20097 48532 70500
                   333 10/// 20049 59007
                   555 00///=
201306030300 AAXX 03034 67541 NIL=
201306021800 AAXX 02184 67541 NIL=
201306021500 AAXX 02154 67541 NIL=
201306021200 AAXX 02121 67541 NIL=
201306020000 AAXX 02004 67541 NIL=

################################################################################
#  SYNOPS from 67543, Kabompo (Zambia) | 13-36S | 024-12E | 1075 m
################################################################################
201306302100 AAXX 30214 67543 NIL=
201306301800 AAXX 30184 67543 NIL=
201306301200 AAXX 30120 67543 NIL=
201306300600 AAXX 30061 67543 NIL=
201306292100 AAXX 29214 67543 NIL=
201306291800 AAXX 29184 67543 NIL=
201306291500 AAXX 29154 67543 NIL=
201306291200 AAXX 29120 67543 NIL=
201306290900 AAXX 29094 67543 NIL=
201306290600 AAXX 29060 67543 NIL=
201306281500 AAXX 28154 67543 NIL=
201306280900 AAXX 28094 67543 NIL=
201306280600 AAXX 28060 67543 NIL=
201306271500 AAXX 27154 67543 NIL=
201306271200 AAXX 27121 67543 NIL=
201306261500 AAXX 26154 67543 NIL=
201306260600 AAXX 26060 67543 NIL=
201306251800 AAXX 25184 67543 NIL=
201306251200 AAXX 25121 67543 NIL=
201306231500 AAXX 23154 67543 NIL=
201306231200 AAXX 23121 67543 NIL=
201306221800 AAXX 22184 67543 NIL=
201306221500 AAXX 22154 67543 NIL=
201306221200 AAXX 22121 67543 NIL=
201306212100 AAXX 21214 67543 NIL=
201306210600 AAXX 21060 67543 NIL=
201306210300 AAXX 21034 67543 NIL=
201306210000 AAXX 21004 67543 NIL=
201306201800 AAXX 20184 67543 NIL=
201306201500 AAXX 20154 67543 NIL=
201306200600 AAXX 20064 67543 NIL=
201306200300 AAXX 20034 67543 NIL=
201306200000 AAXX 20004 67543 NIL=
201306190600 AAXX 19061 67543 NIL=
201306190000 AAXX 19004 67543 NIL=
201306181500 AAXX 18154 67543 NIL=
201306160600 AAXX 16061 67543 NIL=
201306160000 AAXX 16004 67543 NIL=
201306151200 AAXX 15120 67543 NIL=
201306150900 AAXX 15094 67543 NIL=
201306150300 AAXX 15034 67543 NIL=
201306141800 AAXX 14184 67543 NIL=
201306140000 AAXX 14004 67543 NIL=
201306131500 AAXX 13154 67543 NIL=
201306131200 AAXX 13121 67543 NIL=
201306130900 AAXX 13094 67543 NIL=
201306130000 AAXX 13004 67543 NIL=
201306121800 AAXX 12184 67543 NIL=
201306121500 AAXX 12154 67543 NIL=
201306121200 AAXX 12121 67543 NIL=
201306120600 AAXX 12064 67543 NIL=
201306120300 AAXX 12034 67543 NIL=
201306111500 AAXX 11154 67543 NIL=
201306111200 AAXX 11124 67543 NIL=
201306110300 AAXX 11034 67543 NIL=
201306101800 AAXX 10184 67543 NIL=
201306101500 AAXX 10154 67543 NIL=
201306091200 AAXX 09121 67543 NIL=
201306090900 AAXX 09094 67543 NIL=
201306090600 AAXX 09064 67543 NIL=
201306082100 AAXX 08214 67543 NIL=
201306081800 AAXX 08184 67543 NIL=
201306081500 AAXX 08154 67543 NIL=
201306081200 AAXX 08120 67543 NIL=
201306071500 AAXX 07154 67543 NIL=
201306061200 AAXX 06121 67543 NIL=
201306060000 AAXX 06004 67543 NIL=
201306051800 AAXX 05184 67543 NIL=
201306051500 AAXX 05154 67543 NIL=
201306051200 AAXX 05124 67543 NIL=
201306050300 AAXX 05034 67543 NIL=
201306042100 AAXX 04214 67543 NIL=
201306041200 AAXX 04124 67543 NIL=
201306040300 AAXX 04034 67543 NIL=
201306040000 AAXX 04004 67543 NIL=
201306031500 AAXX 03154 67543 NIL=
201306031200 AAXX 03121 67543 NIL=
201306030300 AAXX 03034 67543 NIL=
201306021800 AAXX 02184 67543 NIL=
201306021500 AAXX 02154 67543 NIL=
201306021200 AAXX 02121 67543 NIL=
201306020000 AAXX 02004 67543 NIL=

################################################################################
#  SYNOPS from 67551, Solwezi (Zambia) | 12-11S | 026-23E | 1386 m
################################################################################
201306302100 AAXX 30214 67551 NIL=
201306301800 AAXX 30184 67551 NIL=
201306301200 AAXX 30120 67551 NIL=
201306300600 AAXX 30061 67551 NIL=
201306292100 AAXX 29214 67551 NIL=
201306291800 AAXX 29184 67551 NIL=
201306291500 AAXX 29154 67551 NIL=
201306291200 AAXX 29120 67551 NIL=
201306290900 AAXX 29094 67551 NIL=
201306290600 AAXX 29060 67551 NIL=
201306281500 AAXX 28154 67551 NIL=
201306280900 AAXX 28094 67551 NIL=
201306280600 AAXX 28064 67551 31956 00104 10099 20072 48525 70500
                   333 10276 20067 59009
                   555 00/// 91021=
201306271500 AAXX 27154 67551 NIL=
201306271200 AAXX 27121 67551 NIL=
201306261500 AAXX 26154 67551 NIL=
201306260600 AAXX 26060 67551 NIL=
201306251800 AAXX 25184 67551 NIL=
201306251200 AAXX 25121 67551 NIL=
201306231500 AAXX 23154 67551 NIL=
201306231200 AAXX 23121 67551 NIL=
201306221800 AAXX 22184 67551 NIL=
201306221500 AAXX 22154 67551 NIL=
201306221200 AAXX 22121 67551 NIL=
201306212100 AAXX 21214 67551 NIL=
201306210600 AAXX 21060 67551 NIL=
201306210300 AAXX 21034 67551 NIL=
201306210000 AAXX 21004 67551 NIL=
201306201800 AAXX 20184 67551 NIL=
201306201500 AAXX 20154 67551 NIL=
201306200600 AAXX 20064 67551 31985 60903 10085 20072 48555 70522 86030
                   333 10227 20071 58000 86360
                   555 00/// 91023=
201306200300 AAXX 20034 67551 NIL=
201306200000 AAXX 20004 67551 NIL=
201306190600 AAXX 19064 67551 31957 01207 10095 20074 48546 70500
                   333 10230 20075 59009
                   555 00/// 91024=
201306190000 AAXX 19004 67551 NIL=
201306181500 AAXX 18154 67551 NIL=
201306170600 AAXX 17064 67551 61970 01207 10114 20075 48572 70500
                   333 10256 20091 58015
                   555 00/// 91023=
201306160600 AAXX 16061 67551 NIL=
201306160000 AAXX 16004 67551 NIL=
201306151200 AAXX 15120 67551 NIL=
201306150900 AAXX 15094 67551 NIL=
201306150300 AAXX 15034 67551 NIL=
201306141800 AAXX 14184 67551 NIL=
201306140600 AAXX 14064 67551 31956 01703 10196 20092 48546 70500
                   333 10254 20054 58003
                   555 00/// 91023=
201306140000 AAXX 14004 67551 NIL=
201306131500 AAXX 13154 67551 NIL=
201306131200 AAXX 13121 67551 NIL=
201306130900 AAXX 13094 67551 NIL=
201306130000 AAXX 13004 67551 NIL=
201306121800 AAXX 12184 67551 NIL=
201306121500 AAXX 12154 67551 NIL=
201306121200 AAXX 12121 67551 NIL=
201306120600 AAXX 12064 67551 31356 40807 10109 20101 48561 70500 84600
                   333 10240 20083 59005 84708 91024=
201306120300 AAXX 12034 67551 NIL=
201306111500 AAXX 11154 67551 NIL=
201306111200 AAXX 11124 67551 NIL=
201306110300 AAXX 11034 67551 NIL=
201306101800 AAXX 10184 67551 NIL=
201306101500 AAXX 10154 67551 NIL=
201306100600 AAXX 10064 67551 31965 01203 10121 20065 48/// 70500
                   333 10285 20041 58000=
201306091200 AAXX 09121 67551 NIL=
201306090900 AAXX 09094 67551 NIL=
201306090600 AAXX 09064 67551 NIL=
201306082100 AAXX 08214 67551 NIL=
201306081800 AAXX 08184 67551 NIL=
201306081500 AAXX 08154 67551 NIL=
201306081200 AAXX 08120 67551 NIL=
201306071500 AAXX 07154 67551 NIL=
201306061200 AAXX 06121 67551 NIL=
201306060600 AAXX 06064 67551 31970 00907 10140 20089 48564 70500
                   333 10265 20159 58021
                   555 00/// 91024=
201306060000 AAXX 06004 67551 NIL=
201306051800 AAXX 05184 67551 NIL=
201306051500 AAXX 05154 67551 NIL=
201306051200 AAXX 05124 67551 NIL=
201306050600 AAXX 05064 67551 31960 01006 10120 20078 48542 70500
                   333 10265 20035 59008
                   555 00/// 91022=
201306050300 AAXX 05034 67551 NIL=
201306042100 AAXX 04214 67551 NIL=
201306041200 AAXX 04124 67551 NIL=
201306040600 AAXX 04064 67551 31957 01902 10134 20078 48551 70500
                   333 10250 20054 58005 91023=
201306040300 AAXX 04034 67551 NIL=
201306040000 AAXX 04004 67551 NIL=
201306031500 AAXX 03154 67551 NIL=
201306031200 AAXX 03121 67551 NIL=
201306030600 AAXX 03064 67551 31970 01803 10147 20116 48548 70500
                   333 10260 20087 58000
                   555 00/// 91023=
201306030300 AAXX 03034 67551 NIL=
201306021800 AAXX 02184 67551 NIL=
201306021500 AAXX 02154 67551 NIL=
201306021200 AAXX 02121 67551 NIL=
201306020000 AAXX 02004 67551 NIL=

################################################################################
#  SYNOPS from 67561, Ndola (Zambia) | 13-00S | 028-39E | 1269 m
################################################################################
201306302100 AAXX 30214 67561 NIL=
201306301800 AAXX 30184 67561 NIL=
201306301200 AAXX 30120 67561 NIL=
201306300600 AAXX 30061 67561 NIL=
201306292100 AAXX 29214 67561 NIL=
201306291800 AAXX 29184 67561 NIL=
201306291500 AAXX 29154 67561 NIL=
201306291200 AAXX 29120 67561 NIL=
201306290900 AAXX 29094 67561 NIL=
201306290600 AAXX 29060 67561 NIL=
201306281500 AAXX 28154 67561 NIL=
201306280900 AAXX 28094 67561 41960 09005 10235 20072 48544 70500
                   333 59002=
201306280600 AAXX 28064 67561 31910 00000 10125 20076 48532 70400
                   333 10278 20085 59003=
201306271500 AAXX 27154 67561 NIL=
201306271200 AAXX 27121 67561 NIL=
201306270600 AAXX 27064 67561 31959 00000 10140 20086 48537 70500
                   333 10275 20071 59010
                   555 00/// 91022=
201306261500 AAXX 26154 67561 NIL=
201306260600 AAXX 26060 67561 31957 00000 10121 20091 48515 70400
                   333 10254 20076 58000=
201306251800 AAXX 25184 67561 NIL=
201306251200 AAXX 25124 67561 41970 20000 10239 20080 48534 70500 80002
                   333 59016 82080 91021=
201306250900 AAXX 25094 67561 41960 00705 10215 20079 48559 70500
                   333 59017 555 91025 67580 42980 00305 10233
                   20086 48///=
201306250600 AAXX 25064 67561 31958 00000 10105 20086 48543 74100
                   333 10244 20060 59019
                   555 00///=
201306241200 AAXX 24124 67561 41970 00809 10235 20071 48550 70500
                   333 59000 555 91022=
201306240600 AAXX 24064 67561 31958 00000 10120 20082 48562 70400
                   333 10258 20060 59003
                   555 00/// 91025=
201306231500 AAXX 23154 67561 NIL=
201306231200 AAXX 23121 67561 NIL=
201306221800 AAXX 22184 67561 NIL=
201306221500 AAXX 22154 67561 NIL=
201306221200 AAXX 22121 67561 NIL=
201306212100 AAXX 21214 67561 NIL=
201306211200 AAXX 21124 67561 41975 00503 10243 20079 48550 70500
                   333 58001 91022=
201306210600 AAXX 21064 67561 31970 01006 10131 20084 48561 70500
                   333 10245 20080 58022=
201306210300 AAXX 21034 67561 NIL=
201306210000 AAXX 21004 67561 NIL=
201306201800 AAXX 20184 67561 NIL=
201306201500 AAXX 20154 67561 NIL=
201306200600 AAXX 20064 67561 31960 51011 10165 20081 48543 70522 85030
                   333 10235 20120 59010 85360
                   555 00///=
201306200300 AAXX 20034 67561 NIL=
201306200000 AAXX 20004 67561 NIL=
201306190900 AAXX 19094 67561 42680 31205 10195 20065 48565 83200
                   333 59017 83845 91025=
201306190600 AAXX 19064 67561 32980 01210 10138 20090 48554
                   333 10221 20071 59011
                   555 00///=
201306190000 AAXX 19004 67561 NIL=
201306181500 AAXX 18154 67561 NIL=
201306181200 AAXX 18124 67561 42580 61312 10220 20067 48551 86200
                   333 59015 86845 91023=
201306170600 AAXX 17064 67561 31970 01004 10133 20088 48579 70500
                   333 10256 20088 58024
                   555 00/// 91027=
201306160600 AAXX 16061 67561 NIL=
201306160000 AAXX 16004 67561 NIL=
201306151200 AAXX 15120 67561 NIL=
201306150900 AAXX 15094 67561 NIL=
201306150300 AAXX 15034 67561 NIL=
201306141800 AAXX 14184 67561 NIL=
201306140000 AAXX 14004 67561 NIL=
201306131500 AAXX 13154 67561 NIL=
201306131200 AAXX 13121 67561 NIL=
201306130900 AAXX 13094 67561 NIL=
201306130600 AAXX 13064 67561 31958 00000 10120 20098 48542 70400
                   333 10250 20070 59026
                   555 00/// 91023=
201306130000 AAXX 13004 67561 NIL=
201306121800 AAXX 12184 67561 NIL=
201306121500 AAXX 12154 67561 NIL=
201306121200 AAXX 12121 67561 NIL=
201306120600 AAXX 12064 67561 31975 21106 10145 20113 48567 70500 82030
                   333 10244 20090 59009 82361 91025=
201306120300 AAXX 12034 67561 NIL=
201306111500 AAXX 11154 67561 NIL=
201306111200 AAXX 11124 67561 NIL=
201306110600 AAXX 11064 67561 31970 01307 10146 20086 48575 70500
                   333 10270 20110 58024 91026=
201306110300 AAXX 11034 67561 NIL=
201306101800 AAXX 10184 67561 NIL=
201306101500 AAXX 10154 67561 NIL=
201306100600 AAXX 10064 67561 31959 00000 10125 20073 48550 70500
                   333 10264 20063 58007 91024=
201306091200 AAXX 09121 67561 NIL=
201306090900 AAXX 09094 67561 NIL=
201306090600 AAXX 09064 67561 NIL=
201306082100 AAXX 08214 67561 NIL=
201306081800 AAXX 08184 67561 NIL=
201306081500 AAXX 08154 67561 NIL=
201306081200 AAXX 08120 67561 NIL=
201306071500 AAXX 07154 67561 NIL=
201306061200 AAXX 06121 67561 NIL=
201306060900 AAXX 06094 67561 41970 00815 10234 20074 48584 70500
                   333 58022 91026=
201306060600 AAXX 06064 67561 31959 00805 10150 20092 48571 70400
                   333 10296 20084 58023
                   555 00/// 91026=
201306060000 AAXX 06004 67561 NIL=
201306051800 AAXX 05184 67561 NIL=
201306051500 AAXX 05154 67561 41970 01309 10275 20041 48538 70500
                   333 58007 555 10296 91020=
201306051200 AAXX 05124 67561 41970 00000 10287 20044 48542 70500
                   333 58009 91021=
201306050300 AAXX 05034 67561 NIL=
201306042100 AAXX 04214 67561 NIL=
201306041200 AAXX 04124 67561 NIL=
201306040300 AAXX 04034 67561 NIL=
201306040000 AAXX 04004 67561 NIL=
201306031500 AAXX 03154 67561 41975 00904 10247 20068 48529 70500
                   333 59006 555 10271 91020=
201306031200 AAXX 03121 67561 NIL=
201306030600 AAXX 03064 67561 31959 00000 10146 20076 48551 70400
                   333 10269 20072 58001
                   555 00///=
201306030300 AAXX 03034 67561 NIL=
201306021800 AAXX 02184 67561 NIL=
201306021500 AAXX 02154 67561 NIL=
201306021200 AAXX 02121 67561 NIL=
201306020000 AAXX 02004 67561 NIL=

################################################################################
#  SYNOPS from 67563, Kafironda (Zambia) | 12-36S | 028-07E | 1243 m
################################################################################
201306302100 AAXX 30214 67563 NIL=
201306301800 AAXX 30184 67563 NIL=
201306301200 AAXX 30120 67563 NIL=
201306300600 AAXX 30061 67563 NIL=
201306292100 AAXX 29214 67563 NIL=
201306291800 AAXX 29184 67563 NIL=
201306291500 AAXX 29154 67563 NIL=
201306291200 AAXX 29120 67563 NIL=
201306290900 AAXX 29094 67563 NIL=
201306290600 AAXX 29060 67563 NIL=
201306281500 AAXX 28154 67563 NIL=
201306280900 AAXX 28094 67563 NIL=
201306280600 AAXX 28064 67563 31940 00000 10115 20090 48/// 70540
                   333 10286 20032 59001
                   555 00030=
201306271500 AAXX 27154 67563 NIL=
201306271200 AAXX 27121 67563 NIL=
201306270600 AAXX 27064 67563 31960 00502 10113 20090 48/// 70500
                   333 10289 20041 59013
                   555 00024=
201306261500 AAXX 26154 67563 NIL=
201306260600 AAXX 26060 67563 NIL=
201306251800 AAXX 25184 67563 NIL=
201306251200 AAXX 25121 67563 NIL=
201306250600 AAXX 25064 67563 31975 01601 10114 20090 48/// 70500
                   333 10252 20022 59011
                   555 00021=
201306240600 AAXX 24064 67563 31975 00906 10132 20100 48/// 70500
                   333 10271 20061 59011
                   555 00050=
201306231500 AAXX 23154 67563 NIL=
201306231200 AAXX 23121 67563 NIL=
201306221800 AAXX 22184 67563 NIL=
201306221500 AAXX 22154 67563 NIL=
201306221200 AAXX 22121 67563 NIL=
201306212100 AAXX 21214 67563 NIL=
201306210600 AAXX 21060 67563 NIL=
201306210300 AAXX 21034 67563 NIL=
201306210000 AAXX 21004 67563 NIL=
201306201800 AAXX 20184 67563 NIL=
201306201500 AAXX 20154 67563 NIL=
201306200600 AAXX 20064 67563 31670 31506 10158 20100 48/// 70511 83500
                   333 10246 20101 59001 83630
                   555 00091=
201306200300 AAXX 20034 67563 NIL=
201306200000 AAXX 20004 67563 NIL=
201306190600 AAXX 19064 67563 31970 01102 10131 20090 48/// 70500
                   333 10236 20024 59010
                   555 00020=
201306190000 AAXX 19004 67563 NIL=
201306181500 AAXX 18154 67563 NIL=
201306180600 AAXX 18064 67563 31675 11204 10134 20100 48/// 70500 81500
                   333 10248 20082 59015 81630
                   555 00062=
201306170600 AAXX 17064 67563 31960 01502 10124 20094 48/// 70500
                   333 10265 20022 58020
                   555 00022=
201306160600 AAXX 16061 67563 NIL=
201306160000 AAXX 16004 67563 NIL=
201306151200 AAXX 15120 67563 NIL=
201306150900 AAXX 15094 67563 NIL=
201306150300 AAXX 15034 67563 NIL=
201306141800 AAXX 14184 67563 NIL=
201306140600 AAXX 14064 67563 31960 00602 10112 20090 48/// 70500
                   333 10267 20025 59002
                   555 00025=
201306140000 AAXX 14004 67563 NIL=
201306131500 AAXX 13154 67563 NIL=
201306131200 AAXX 13121 67563 NIL=
201306130900 AAXX 13094 67563 NIL=
201306130600 AAXX 13064 67563 31960 01202 10110 20090 48/// 70280
                   333 10251 20023 59019
                   555 00028=
201306130000 AAXX 13004 67563 NIL=
201306121800 AAXX 12184 67563 NIL=
201306121500 AAXX 12154 67563 NIL=
201306121200 AAXX 12121 67563 NIL=
201306120600 AAXX 12064 67563 31520 31202 10087 20080 48/// 71044 83500
                   333 10252 20031 59011 83625=
201306120300 AAXX 12034 67563 NIL=
201306111500 AAXX 11154 67563 NIL=
201306111200 AAXX 11124 67563 NIL=
201306110300 AAXX 11034 67563 NIL=
201306101800 AAXX 10184 67563 NIL=
201306101500 AAXX 10154 67563 NIL=
201306100600 AAXX 10064 67563 31965 00401 10108 20050 48/// 70500
                   333 10270 20015 58007=
201306091200 AAXX 09121 67563 NIL=
201306090900 AAXX 09094 67563 NIL=
201306090600 AAXX 09064 67563 NIL=
201306082100 AAXX 08214 67563 NIL=
201306081800 AAXX 08184 67563 NIL=
201306081500 AAXX 08154 67563 NIL=
201306081200 AAXX 08120 67563 NIL=
201306071500 AAXX 07154 67563 NIL=
201306061200 AAXX 06121 67563 NIL=
201306060600 AAXX 06064 67563 31970 01202 10136 20090 48/// 70500
                   333 10297 20028 58023
                   555 00028=
201306060000 AAXX 06004 67563 NIL=
201306051800 AAXX 05184 67563 NIL=
201306051500 AAXX 05154 67563 NIL=
201306051200 AAXX 05124 67563 NIL=
201306050600 AAXX 05064 67563 31970 11502 10074 20060 48/// 70500 80001
                   333 10283 20017 58009 81080=
201306050300 AAXX 05034 67563 NIL=
201306042100 AAXX 04214 67563 NIL=
201306041200 AAXX 04124 67563 NIL=
201306040300 AAXX 04034 67563 NIL=
201306040000 AAXX 04004 67563 NIL=
201306031500 AAXX 03154 67563 NIL=
201306031200 AAXX 03121 67563 NIL=
201306030600 AAXX 03064 67563 31970 00201 10104 20090 48/// 70500
                   333 10282 20029 58005
                   555 00030=
201306030300 AAXX 03034 67563 NIL=
201306021800 AAXX 02184 67563 NIL=
201306021500 AAXX 02154 67563 NIL=
201306021200 AAXX 02121 67563 NIL=
201306020000 AAXX 02004 67563 NIL=

################################################################################
#  SYNOPS from 67571, Serenje (Zambia) | 13-14S | 030-13E | 1384 m
################################################################################
201306302100 AAXX 30214 67571 NIL=
201306301800 AAXX 30184 67571 NIL=
201306301200 AAXX 30120 67571 NIL=
201306300600 AAXX 30061 67571 NIL=
201306292100 AAXX 29214 67571 NIL=
201306291800 AAXX 29184 67571 NIL=
201306291500 AAXX 29154 67571 NIL=
201306291200 AAXX 29120 67571 NIL=
201306290900 AAXX 29094 67571 NIL=
201306290600 AAXX 29060 67571 NIL=
201306281500 AAXX 28154 67571 NIL=
201306281200 AAXX 28124 67571 42980 00902 10239 20076 48524 70500
                   333 59007=
201306280900 AAXX 28094 67571 42980 00906 10217 20055 48543 70500
                   333 59003=
201306280600 AAXX 28064 67571 32978 00902 10170 20064 48540 70500
                   333 10250 20086 59003
                   555 00/// 67461 31980 00806 10145 20100 48527
                   70500 10275 20085 59001 91020=
201306271500 AAXX 27154 67571 NIL=
201306271200 AAXX 27124 67571 42978 00302 10245 20074 48534 70500
                   333 58005=
201306270600 AAXX 27064 67571 32978 01203 10174 20084 48540 70500
                   333 10276 20112 59009
                   555 00///=
201306261500 AAXX 26154 67571 NIL=
201306260600 AAXX 26060 67571 NIL=
201306251800 AAXX 25184 67571 NIL=
201306251200 AAXX 25124 67571 42980 00603 10243 20070 48524 70500
                   333 59019=
201306250600 AAXX 25064 67571 32980 00603 10146 20077 48549 70500
                   333 10239 20093 59013
                   555 00///=
201306240600 AAXX 24064 67571 32480 10902 10134 20105 48567 70500 81500
                   333 10233 20082 58000 81616
                   555 00///=
201306231500 AAXX 23154 67571 NIL=
201306231200 AAXX 23121 67571 NIL=
201306221800 AAXX 22184 67571 NIL=
201306221500 AAXX 22154 67571 NIL=
201306221200 AAXX 22121 67571 NIL=
201306212100 AAXX 21214 67571 NIL=
201306210900 AAXX 21094 67571 42982 00904 10200 20091 48571
                   333 58005=
201306210600 AAXX 21064 67571 32982 00904 10140 20084 48568
                   333 10228 20103 58004
                   555 00///=
201306210300 AAXX 21034 67571 NIL=
201306210000 AAXX 21004 67571 NIL=
201306201800 AAXX 20184 67571 NIL=
201306201500 AAXX 20154 67571 NIL=
201306200900 AAXX 20094 67571 42682 70603 10176 20082 48570 70222 875//
                   333 59001 87639=
201306200600 AAXX 20064 67571 32682 71202 10138 20101 48568 70222 875//
                   333 10195 20108 58000 87630
                   555 00///=
201306200300 AAXX 20034 67571 NIL=
201306200000 AAXX 20004 67571 NIL=
201306190600 AAXX 19061 67571 NIL=
201306190000 AAXX 19004 67571 NIL=
201306181500 AAXX 18154 67571 NIL=
201306170600 AAXX 17064 67571 32980 00908 10124 20094 48577 70500 82530
                   333 10233 20094 58016 82628 81360
                   555 00///=
201306160600 AAXX 16061 67571 NIL=
201306160000 AAXX 16004 67571 NIL=
201306151200 AAXX 15120 67571 NIL=
201306150900 AAXX 15094 67571 NIL=
201306150300 AAXX 15034 67571 NIL=
201306141800 AAXX 14184 67571 NIL=
201306140600 AAXX 14064 67571 32980 01203 10180 20110 48541 70500
                   333 10242 20086 58000
                   555 00///=
201306140000 AAXX 14004 67571 NIL=
201306131500 AAXX 13154 67571 NIL=
201306131200 AAXX 13121 67571 NIL=
201306130900 AAXX 13094 67571 NIL=
201306130600 AAXX 13064 67571 32980 01204 10176 20096 48541 70500
                   333 10237 20076 59023
                   555 00///=
201306130000 AAXX 13004 67571 NIL=
201306121800 AAXX 12184 67571 NIL=
201306121500 AAXX 12154 67571 NIL=
201306121200 AAXX 12121 67571 NIL=
201306120600 AAXX 12064 67571 NIL=
201306120300 AAXX 12034 67571 NIL=
201306111500 AAXX 11154 67571 NIL=
201306111200 AAXX 11124 67571 42680 31208 10206 20082 48562 70500 83500
                   333 58019 83645=
201306110300 AAXX 11034 67571 NIL=
201306101800 AAXX 10184 67571 NIL=
201306101500 AAXX 10154 67571 NIL=
201306100600 AAXX 10064 67571 32980 00902 10182 20074 48560 70500
                   333 10250 20094 58008 555=
201306091200 AAXX 09121 67571 NIL=
201306090900 AAXX 09094 67571 NIL=
201306090600 AAXX 09064 67571 NIL=
201306082100 AAXX 08214 67571 NIL=
201306081800 AAXX 08184 67571 NIL=
201306081500 AAXX 08154 67571 NIL=
201306081200 AAXX 08120 67571 NIL=
201306071500 AAXX 07154 67571 NIL=
201306070600 AAXX 07064 67571 32480 80907 10122 20082 48585 70522 885//
                   333 10248 20078 58014 88619 555=
201306061200 AAXX 06121 67571 NIL=
201306060600 AAXX 06064 67571 32980 00905 10175 20081 48580 70500
                   333 10260 20076 58022
                   555 00///=
201306060000 AAXX 06004 67571 NIL=
201306051800 AAXX 05184 67571 NIL=
201306051500 AAXX 05154 67571 NIL=
201306051200 AAXX 05124 67571 NIL=
201306050900 AAXX 05094 67571 42980 00903 10233 20106 48568 70500
                   333 58010=
201306050600 AAXX 05064 67571 32980 00905 10193 20103 48551 70500
                   333 10259 20065 58007
                   555 00///=
201306050300 AAXX 05034 67571 NIL=
201306042100 AAXX 04214 67571 NIL=
201306041200 AAXX 04124 67571 NIL=
201306040600 AAXX 04064 67571 32980 00902 10174 20090 48550 70500
                   333 10263 20056 59008=
201306040300 AAXX 04034 67571 NIL=
201306040000 AAXX 04004 67571 NIL=
201306031500 AAXX 03154 67571 NIL=
201306031200 AAXX 03121 67571 NIL=
201306030300 AAXX 03034 67571 NIL=
201306021800 AAXX 02184 67571 NIL=
201306021500 AAXX 02154 67571 NIL=
201306021200 AAXX 02121 67571 NIL=
201306020000 AAXX 02004 67571 NIL=

################################################################################
#  SYNOPS from 67575, Mkushi (Zambia) | 13-38S | 029-53E | 1237 m
################################################################################
201306302100 AAXX 30214 67575 NIL=
201306301800 AAXX 30184 67575 NIL=
201306301200 AAXX 30120 67575 NIL=
201306300600 AAXX 30061 67575 NIL=
201306292100 AAXX 29214 67575 NIL=
201306291800 AAXX 29184 67575 NIL=
201306291500 AAXX 29154 67575 NIL=
201306291200 AAXX 29120 67575 NIL=
201306290900 AAXX 29094 67575 NIL=
201306290600 AAXX 29060 67575 NIL=
201306281500 AAXX 28154 67575 NIL=
201306280900 AAXX 28094 67575 NIL=
201306280600 AAXX 28064 67575 31975 01303 10145 20064 48/// 70500
                   333 10275 20065 5////
                   555 00///=
201306271500 AAXX 27154 67575 NIL=
201306271200 AAXX 27121 67575 NIL=
201306270600 AAXX 27064 67575 31975 00901 10140 20084 48/// 70500
                   333 10282 20057 5////
                   555 00///=
201306261500 AAXX 26154 67575 NIL=
201306260600 AAXX 26060 67575 NIL=
201306251800 AAXX 25184 67575 NIL=
201306251200 AAXX 25121 67575 NIL=
201306250600 AAXX 25064 67575 31975 01302 10131 20075 48/// 70500
                   333 10245 20070 5////
                   555 00///=
201306240600 AAXX 24064 67575 31475 11303 10125 20084 48/// 70500 81500
                   333 10256 20075 5//// 81615
                   555 00///=
201306231500 AAXX 23154 67575 NIL=
201306231200 AAXX 23121 67575 NIL=
201306221800 AAXX 22184 67575 NIL=
201306221500 AAXX 22154 67575 NIL=
201306221200 AAXX 22121 67575 NIL=
201306212100 AAXX 21214 67575 NIL=
201306210600 AAXX 21060 67575 NIL=
201306210300 AAXX 21034 67575 NIL=
201306210000 AAXX 21004 67575 NIL=
201306201800 AAXX 20184 67575 NIL=
201306201500 AAXX 20154 67575 NIL=
201306200600 AAXX 20064 67575 32480 71301 10140 20104 48/// 87570
                   333 10193 20127 5//// 81615 87360
                   555 00///=
201306200300 AAXX 20034 67575 NIL=
201306200000 AAXX 20004 67575 NIL=
201306190600 AAXX 19064 67575 31475 21303 10134 20087 48/// 70500 82500
                   333 10220 20075 5//// 82615
                   555 00///=
201306190000 AAXX 19004 67575 NIL=
201306181500 AAXX 18154 67575 NIL=
201306180600 AAXX 18064 67575 31470 61305 10120 20082 48/// 70521 86500
                   333 10221 20080 5//// 86615
                   555 00///=
201306170600 AAXX 17064 67575 31475 11301 10124 20143 48/// 70500 81500
                   333 10250 20061 5//// 81615
                   555 00///=
201306160600 AAXX 16061 67575 NIL=
201306160000 AAXX 16004 67575 NIL=
201306151200 AAXX 15120 67575 NIL=
201306150900 AAXX 15094 67575 NIL=
201306150300 AAXX 15034 67575 NIL=
201306141800 AAXX 14184 67575 NIL=
201306140600 AAXX 14064 67575 31975 01302 10160 20087 48/// 70500
                   333 10262 20065 5////
                   555 00///=
201306140000 AAXX 14004 67575 NIL=
201306131500 AAXX 13154 67575 NIL=
201306131200 AAXX 13121 67575 NIL=
201306130900 AAXX 13094 67575 NIL=
201306130600 AAXX 13064 67575 31975 01301 10125 20088 48/// 70500
                   333 10247 20045 5////
                   555 00///=
201306130000 AAXX 13004 67575 NIL=
201306121800 AAXX 12184 67575 NIL=
201306121500 AAXX 12154 67575 NIL=
201306121200 AAXX 12121 67575 NIL=
201306120600 AAXX 12064 67575 31475 21203 10155 20111 48/// 70510 82500
                   333 10239 20100 5//// 82615=
201306120300 AAXX 12034 67575 NIL=
201306111500 AAXX 11154 67575 NIL=
201306111200 AAXX 11124 67575 NIL=
201306110600 AAXX 11064 67575 31475 51303 10140 20094 48/// 70521 85500
                   333 10275 20072 5//// 85615=
201306110300 AAXX 11034 67575 NIL=
201306101800 AAXX 10184 67575 NIL=
201306101500 AAXX 10154 67575 NIL=
201306100600 AAXX 10064 67575 31975 00000 10108 20062 48/// 70500
                   333 10268 20031 5////=
201306091200 AAXX 09121 67575 NIL=
201306090900 AAXX 09094 67575 NIL=
201306090600 AAXX 09064 67575 NIL=
201306082100 AAXX 08214 67575 NIL=
201306081800 AAXX 08184 67575 NIL=
201306081500 AAXX 08154 67575 NIL=
201306081200 AAXX 08120 67575 NIL=
201306071500 AAXX 07154 67575 NIL=
201306061200 AAXX 06121 67575 NIL=
201306060600 AAXX 06064 67575 31975 01303 10165 20092 48/// 70500
                   333 10285 20070 5////
                   555 00///=
201306060000 AAXX 06004 67575 NIL=
201306051800 AAXX 05184 67575 NIL=
201306051500 AAXX 05154 67575 NIL=
201306051200 AAXX 05124 67575 NIL=
201306050600 AAXX 05064 67575 31975 01303 10157 20072 48/// 70500
                   333 10280 20071 5////=
201306050300 AAXX 05034 67575 NIL=
201306042100 AAXX 04214 67575 NIL=
201306041200 AAXX 04124 67575 NIL=
201306040600 AAXX 04064 67575 31975 01301 10138 20071 48/// 70500
                   333 10287 20050 5////=
201306040300 AAXX 04034 67575 NIL=
201306040000 AAXX 04004 67575 NIL=
201306031500 AAXX 03154 67575 NIL=
201306031200 AAXX 03121 67575 NIL=
201306030600 AAXX 03064 67575 31975 01301 10128 20063 48/// 70500
                   333 10279 20045 5////
                   555 00///=
201306030300 AAXX 03034 67575 NIL=
201306021800 AAXX 02184 67575 NIL=
201306021500 AAXX 02154 67575 NIL=
201306021200 AAXX 02121 67575 NIL=
201306020000 AAXX 02004 67575 NIL=

################################################################################
#  SYNOPS from 67580, Msekera (Zambia) | 13-39S | 032-34E | 1025 m
################################################################################
201306302100 AAXX 30214 67580 NIL=
201306301800 AAXX 30184 67580 NIL=
201306301200 AAXX 30120 67580 NIL=
201306300600 AAXX 30061 67580 NIL=
201306292100 AAXX 29214 67580 NIL=
201306291800 AAXX 29184 67580 NIL=
201306291500 AAXX 29154 67580 NIL=
201306291200 AAXX 29120 67580 NIL=
201306290900 AAXX 29094 67580 NIL=
201306290600 AAXX 29060 67580 NIL=
201306281500 AAXX 28154 67580 NIL=
201306281200 AAXX 28124 67580 41980 00903 10274 20092 48/// 70500
                   333 58001=
201306280900 AAXX 28094 67580 41980 01504 10247 20093 48/// 70500
                   333 58000=
201306280600 AAXX 28064 67580 31980 00000 10192 20105 48/// 70500
                   333 10292 20/// 58003
                   555 00///=
201306271500 AAXX 27154 67580 NIL=
201306271200 AAXX 27124 67580 41980 00903 10280 20077 48/// 70500
                   333 58003=
201306270600 AAXX 27064 67580 31980 00000 10189 20112 48/// 70500
                   333 10290 20/// 59016
                   555 00///=
201306261500 AAXX 26154 67580 NIL=
201306260900 AAXX 26094 67580 42980 00303 10239 20084 48///
                   333 59009=
201306260600 AAXX 26064 67580 32980 01204 10200 20106 48///
                   333 10275 20/// 59005
                   555 00///=
201306251800 AAXX 25184 67580 NIL=
201306251200 AAXX 25121 67580 NIL=
201306250900 AAXX 25094 67580 42980 00305 10233 20086 48///=
201306241200 AAXX 24124 67580 42680 50604 10/// 20069 48/// 85100
                   333 59008 84845=
201306240600 AAXX 24064 67580 32980 10000 10163 20108 48/// 81030
                   333 10259 20/// 59009 81362
                   555 00///=
201306231500 AAXX 23154 67580 NIL=
201306231200 AAXX 23121 67580 NIL=
201306221800 AAXX 22184 67580 NIL=
201306221500 AAXX 22154 67580 NIL=
201306221200 AAXX 22121 67580 NIL=
201306212100 AAXX 21214 67580 NIL=
201306210900 AAXX 21094 67580 42680 10606 10234 20085 48/// 81100
                   333 58006 81830=
201306210600 AAXX 21064 67580 32980 01206 10177 20089 48///
                   333 10250 20/// 58009
                   555 00///=
201306210300 AAXX 21034 67580 NIL=
201306210000 AAXX 21004 67580 NIL=
201306201800 AAXX 20184 67580 NIL=
201306201500 AAXX 20154 67580 NIL=
201306201200 AAXX 20124 67580 42680 10803 10249 20078 48/// 81100
                   333 58009 81840=
201306200900 AAXX 20094 67580 42680 60904 10205 20086 48/// 85130
                   333 58010 85830 81360=
201306200600 AAXX 20064 67580 32980 71006 10176 20111 48/// 87030
                   333 10237 20/// 58010 87360
                   555 00///=
201306200300 AAXX 20034 67580 NIL=
201306200000 AAXX 20004 67580 NIL=
201306190900 AAXX 19094 67580 42680 70905 10213 20088 48/// 875//
                   333 59015 87635=
201306190600 AAXX 19064 67580 12480 11604 10170 20123 48/// 69904 81130
                   333 10249 20/// 59020 81818 81360
                   555 00///=
201306190000 AAXX 19004 67580 NIL=
201306181500 AAXX 18154 67580 NIL=
201306180600 AAXX 18064 67580 11480 71204 10162 20113 48/// 69904 75021 875//
                   333 10205 20/// 58001 87618
                   555 00///=
201306160600 AAXX 16061 67580 NIL=
201306160000 AAXX 16004 67580 NIL=
201306151200 AAXX 15120 67580 NIL=
201306150900 AAXX 15094 67580 NIL=
201306150300 AAXX 15034 67580 NIL=
201306141800 AAXX 14184 67580 NIL=
201306140600 AAXX 14064 67580 31980 01503 10192 20119 48/// 70500
                   333 10277 20/// 59003
                   555 00///=
201306140000 AAXX 14004 67580 NIL=
201306131500 AAXX 13154 67580 NIL=
201306131200 AAXX 13121 67580 NIL=
201306130900 AAXX 13094 67580 NIL=
201306130000 AAXX 13004 67580 NIL=
201306121800 AAXX 12184 67580 NIL=
201306121500 AAXX 12154 67580 NIL=
201306121200 AAXX 12121 67580 NIL=
201306120600 AAXX 12064 67580 32480 71207 10160 20129 48/// 87530
                   333 10234 20//0 59017 87614 82360
                   555 00///=
201306120300 AAXX 12034 67580 NIL=
201306111500 AAXX 11154 67580 NIL=
201306111200 AAXX 11124 67580 NIL=
201306110300 AAXX 11034 67580 NIL=
201306101800 AAXX 10184 67580 NIL=
201306101500 AAXX 10154 67580 NIL=
201306091200 AAXX 09121 67580 41880 11604 10274 20097 48/// 70500 81100
                   333 59007 81857=
201306090900 AAXX 09094 67580 NIL=
201306090600 AAXX 09064 67580 31980 00000 10185 20120 48/// 70500
                   333 10282 20/// 59017
                   555 00///=
201306082100 AAXX 08214 67580 NIL=
201306081800 AAXX 08184 67580 NIL=
201306081500 AAXX 08154 67580 NIL=
201306081200 AAXX 08124 67580 41780 20000 10267 20097 48/// 70500 82101
                   333 59032 82856 81080=
201306080600 AAXX 08064 67580 31980 00603 10192 20123 48/// 70500
                   333 10269 20/// 59034
                   555 00///=
201306071500 AAXX 07154 67580 NIL=
201306070600 AAXX 07064 67580 32980 01302 10165 20116 48/// 70500
                   333 10295 20/// 58015
                   555 00///=
201306061200 AAXX 06121 67580 42980 00906 10286 20068 48/// 70500
                   333 58021=
201306060600 AAXX 06064 67580 32980 11103 10199 20105 48/// 80001
                   333 10292 20/// 58020 81080
                   555 00///=
201306060000 AAXX 06004 67580 NIL=
201306051800 AAXX 05184 67580 NIL=
201306051500 AAXX 05154 67580 NIL=
201306051200 AAXX 05124 67580 41980 00000 10293 20110 48/// 70500
                   333 58011=
201306050600 AAXX 05064 67580 31980 00000 10210 20126 48/// 70500
                   333 10294 20//0 58012
                   555 00///=
201306050300 AAXX 05034 67580 NIL=
201306042100 AAXX 04214 67580 NIL=
201306041200 AAXX 04124 67580 41980 00604 10283 20097 48/// 70500
                   333 59003=
201306040300 AAXX 04034 67580 NIL=
201306040000 AAXX 04004 67580 NIL=
201306031500 AAXX 03154 67580 NIL=
201306031200 AAXX 03121 67580 42980 01304 10284 20075 48///
                   333 59005=
201306030300 AAXX 03034 67580 NIL=
201306021800 AAXX 02184 67580 NIL=
201306021500 AAXX 02154 67580 NIL=
201306021200 AAXX 02121 67580 NIL=
201306020000 AAXX 02004 67580 NIL=

################################################################################
#  SYNOPS from 67581, Chipata (Zambia) | 13-33S | 032-35E | 1028 m
################################################################################
201306302100 AAXX 30214 67581 NIL=
201306301800 AAXX 30184 67581 NIL=
201306301200 AAXX 30120 67581 NIL=
201306300600 AAXX 30061 67581 NIL=
201306292100 AAXX 29214 67581 NIL=
201306291800 AAXX 29184 67581 NIL=
201306291500 AAXX 29154 67581 NIL=
201306291200 AAXX 29120 67581 NIL=
201306290900 AAXX 29094 67581 NIL=
201306290600 AAXX 29060 67581 NIL=
201306281500 AAXX 28154 67581 NIL=
201306281200 AAXX 28124 67581 41960 00803 10267 20074 48548 70500
                   333 58001 91019=
201306280900 AAXX 28094 67581 41960 01005 10246 20088 48564 70500
                   333 59002 91022=
201306280600 AAXX 28064 67581 31960 00603 10204 20110 48556 70500
                   333 10268 20116 58002
                   555 00/// 91022=
201306271500 AAXX 27154 67581 NIL=
201306271200 AAXX 27121 67581 NIL=
201306270600 AAXX 27064 67581 31970 00000 10186 20105 48552 70500
                   333 10277 20082 59011
                   555 00///=
201306261500 AAXX 26154 67581 NIL=
201306260900 AAXX 26094 67581 42980 00604 10236 20089 48571
                   333 59007=
201306260600 AAXX 26064 67581 32980 00906 10199 20085 10263 20148 48570 59008=
201306251800 AAXX 25184 67581 NIL=
201306251200 AAXX 25124 67581 42980 00906 10256 20081 48553
                   333 59024 91020=
201306241200 AAXX 24124 67581 42680 20904 10246 20089 48574 82100
                   333 59011 82842 91023=
201306240600 AAXX 24064 67581 32980 00902 10187 20080 48///
                   333 10242 20110 59006
                   555 00///=
201306231500 AAXX 23154 67581 NIL=
201306231200 AAXX 23121 67581 NIL=
201306221800 AAXX 22184 67581 NIL=
201306221500 AAXX 22154 67581 NIL=
201306221200 AAXX 22121 67581 NIL=
201306212100 AAXX 21214 67581 NIL=
201306210600 AAXX 21064 67581 32980 01604 10194 20080 48593 70200
                   333 10246 20124 58008
                   555 00/// 91026=
201306210300 AAXX 21034 67581 NIL=
201306210000 AAXX 21004 67581 NIL=
201306201800 AAXX 20184 67581 NIL=
201306201500 AAXX 20154 67581 NIL=
201306200600 AAXX 20064 67581 32980 71603 10176 20103 48582 87030
                   333 10238 20146 58013 87360
                   555 00/// 91026=
201306200300 AAXX 20034 67581 NIL=
201306200000 AAXX 20004 67581 NIL=
201306190600 AAXX 19064 67581 32680 21206 10161 20106 48568 70200 82100
                   333 10245 20128 59019 82825
                   555 00/// 91024=
201306190000 AAXX 19004 67581 NIL=
201306181500 AAXX 18154 67581 NIL=
201306170600 AAXX 17064 67581 31970 51603 10172 20102 48592 70521 81130
                   333 10256 20110 58018 81830 84360
                   555 00106 91027=
201306160600 AAXX 16061 67581 NIL=
201306160000 AAXX 16004 67581 NIL=
201306151200 AAXX 15120 67581 NIL=
201306150900 AAXX 15094 67581 NIL=
201306150300 AAXX 15034 67581 NIL=
201306141800 AAXX 14184 67581 NIL=
201306140000 AAXX 14004 67581 NIL=
201306131500 AAXX 13154 67581 NIL=
201306131200 AAXX 13121 67581 NIL=
201306130900 AAXX 13094 67581 NIL=
201306130600 AAXX 13064 67581 32980 00904 10196 20112 48562 70200
                   333 10234 20107 59020
                   555 00089 91023=
201306130000 AAXX 13004 67581 NIL=
201306121800 AAXX 12184 67581 NIL=
201306121500 AAXX 12154 67581 NIL=
201306121200 AAXX 12121 67581 42680 70804 10230 20109 48568 83130
                   333 59017 83835 87360 91022=
201306120600 AAXX 12064 67581 32580 31607 10166 20124 48571 81530
                   333 10232 20136 59022 81623 82360
                   555 00086=
201306120300 AAXX 12034 67581 NIL=
201306111500 AAXX 11154 67581 NIL=
201306111200 AAXX 11124 67581 42680 70908 10222 20122 48582 70222 8317/
                   333 58021 82840 87460 91024=
201306110600 AAXX 11064 67581 32980 21207 10164 20102 48591 70200 82030
                   333 10279 20132 58027 82360
                   555 00087 91027=
201306110300 AAXX 11034 67581 NIL=
201306101800 AAXX 10184 67581 NIL=
201306101500 AAXX 10154 67581 NIL=
201306100600 AAXX 10064 67581 32980 00000 10195 20114 48472
                   333 10277 20121 58015
                   555 00086 91024=
201306091200 AAXX 09121 67581 NIL=
201306090900 AAXX 09094 67581 NIL=
201306090600 AAXX 09064 67581 41970 01202 10182 20113 48555 70500
                   333 10269 20094 59016
                   555 00086 91022=
201306082100 AAXX 08214 67581 NIL=
201306081800 AAXX 08184 67581 NIL=
201306081500 AAXX 08154 67581 NIL=
201306081200 AAXX 08124 67581 42680 11204 10260 20094 48555 81100
                   333 59033 81835 91020=
201306071500 AAXX 07154 67581 NIL=
201306070600 AAXX 07064 67581 32980 01206 10155 20110 48599 70200
                   333 10285 20120 58014
                   555 00115 91028=
201306061200 AAXX 06121 67581 42980 00907 10281 20081 48594
                   333 58022 91024=
201306060000 AAXX 06004 67581 NIL=
201306051800 AAXX 05184 67581 NIL=
201306051500 AAXX 05154 67581 NIL=
201306051200 AAXX 05124 67581 42980 00904 10280 20104 48567
                   333 58013 91021=
201306050600 AAXX 05064 67581 32980 00906 10201 20119 48574 70200
                   333 10281 20140 58011 91024=
201306050300 AAXX 05034 67581 NIL=
201306042100 AAXX 04214 67581 NIL=
201306041200 AAXX 04124 67581 41965 00605 10275 20109 48548 70500
                   333 59006=
201306040300 AAXX 04034 67581 NIL=
201306040000 AAXX 04004 67581 NIL=
201306031500 AAXX 03154 67581 NIL=
201306031200 AAXX 03121 67581 42980 00000 10275 20085 48554
                   333 5////=
201306030600 AAXX 03064 67581 31970 01201 10201 20082 48571 70500
                   333 10281 20125 58007
                   555 00000 91023=
201306030300 AAXX 03034 67581 NIL=
201306021800 AAXX 02184 67581 NIL=
201306021500 AAXX 02154 67581 NIL=
201306021200 AAXX 02121 67581 NIL=
201306020000 AAXX 02004 67581 NIL=

################################################################################
#  SYNOPS from 67583, Lundazi (Zambia) | 12-17S | 033-12E | 1143 m
################################################################################
201306302100 AAXX 30214 67583 NIL=
201306301800 AAXX 30184 67583 NIL=
201306301200 AAXX 30120 67583 NIL=
201306300600 AAXX 30061 67583 NIL=
201306292100 AAXX 29214 67583 NIL=
201306291800 AAXX 29184 67583 NIL=
201306291500 AAXX 29154 67583 NIL=
201306291200 AAXX 29120 67583 NIL=
201306290900 AAXX 29094 67583 NIL=
201306290600 AAXX 29060 67583 NIL=
201306281500 AAXX 28154 67583 NIL=
201306280900 AAXX 28094 67583 NIL=
201306280600 AAXX 28060 67583 NIL=
201306271500 AAXX 27154 67583 NIL=
201306271200 AAXX 27124 67583 42680 12701 10270 20070 48/// 81100
                   333 5//// 81838=
201306270600 AAXX 27064 67583 32980 01201 10145 20110
                   333 10285 20085 5////
                   555 00/// 20000=
201306261500 AAXX 26154 67583 NIL=
201306260600 AAXX 26064 67583 32980 01501 10155 20120
                   333 10260 20100 5////
                   555 00/// 20000 67581 32980 00906 10199 20085
                   48570 10263 20148 59008=
201306251800 AAXX 25184 67583 NIL=
201306251200 AAXX 25121 67583 NIL=
201306250600 AAXX 25064 67583 32980 11201 10150 20114 81030
                   333 10220 20085 5//// 81360
                   555 00/// 20000 67580 32980 00906 10201 20086
                   48///=
201306240600 AAXX 24064 67583 32980 31201 10160 20106 48/// 83030
                   333 10270 20070 5//// 83360
                   555 00///=
201306231500 AAXX 23154 67583 NIL=
201306231200 AAXX 23121 67583 NIL=
201306221800 AAXX 22184 67583 NIL=
201306221500 AAXX 22154 67583 NIL=
201306221200 AAXX 22121 67583 NIL=
201306212100 AAXX 21214 67583 NIL=
201306210600 AAXX 21064 67583 32980 11202 10160 20126 81030
                   333 10250 20085 5//// 81360
                   555 00/// 20000=
201306210300 AAXX 21034 67583 NIL=
201306210000 AAXX 21004 67583 NIL=
201306201800 AAXX 20184 67583 NIL=
201306201500 AAXX 20154 67583 NIL=
201306200600 AAXX 20064 67583 32980 71203 10165 20122 8703/
                   333 10210 20125 5//// 87360
                   555 00///=
201306200300 AAXX 20034 67583 NIL=
201306200000 AAXX 20004 67583 NIL=
201306190600 AAXX 19064 67583 32980 71503 10150 20115 48/// 8703/
                   333 10220 20130 5////
                   555 00///=
201306190000 AAXX 19004 67583 NIL=
201306181500 AAXX 18154 67583 NIL=
201306160600 AAXX 16061 67583 NIL=
201306160000 AAXX 16004 67583 NIL=
201306151200 AAXX 15120 67583 NIL=
201306150900 AAXX 15094 67583 NIL=
201306150300 AAXX 15034 67583 NIL=
201306141800 AAXX 14184 67583 NIL=
201306140600 AAXX 14064 67583 32980 01501 10155 20120 48///
                   333 10285 20095 5////
                   555 00///=
201306140000 AAXX 14004 67583 NIL=
201306131500 AAXX 13154 67583 NIL=
201306131200 AAXX 13121 67583 NIL=
201306130900 AAXX 13094 67583 NIL=
201306130000 AAXX 13004 67583 NIL=
201306121800 AAXX 12184 67583 NIL=
201306121500 AAXX 12154 67583 NIL=
201306121200 AAXX 12121 67583 NIL=
201306120600 AAXX 12064 67583 32580 11205 10175 20134 81530
                   333 10260 20129 5//// 81625 81360
                   555 00/// 20000=
201306120300 AAXX 12034 67583 NIL=
201306111500 AAXX 11154 67583 NIL=
201306111200 AAXX 11124 67583 NIL=
201306110300 AAXX 11034 67583 NIL=
201306101800 AAXX 10184 67583 NIL=
201306101500 AAXX 10154 67583 NIL=
201306091200 AAXX 09121 67583 NIL=
201306090900 AAXX 09094 67583 NIL=
201306090600 AAXX 09064 67583 NIL=
201306082100 AAXX 08214 67583 NIL=
201306081800 AAXX 08184 67583 NIL=
201306081500 AAXX 08154 67583 NIL=
201306081200 AAXX 08124 67583 NIL=
201306071500 AAXX 07154 67583 NIL=
201306061200 AAXX 06121 67583 NIL=
201306060000 AAXX 06004 67583 NIL=
201306051800 AAXX 05184 67583 NIL=
201306051500 AAXX 05154 67583 NIL=
201306051200 AAXX 05124 67583 NIL=
201306050600 AAXX 05064 67583 32980 01501 10159 20124
                   333 10277 20090 5////
                   555 00/// 20000=
201306050300 AAXX 05034 67583 NIL=
201306042100 AAXX 04214 67583 NIL=
201306041200 AAXX 04124 67583 NIL=
201306040300 AAXX 04034 67583 NIL=
201306040000 AAXX 04004 67583 NIL=
201306031500 AAXX 03154 67583 NIL=
201306031200 AAXX 03121 67583 NIL=
201306030300 AAXX 03034 67583 NIL=
201306021800 AAXX 02184 67583 NIL=
201306021500 AAXX 02154 67583 NIL=
201306021200 AAXX 02121 67583 NIL=
201306020000 AAXX 02004 67583 NIL=

################################################################################
#  SYNOPS from 67599, Mfuwe (Zambia) | 13-16S | 031-56E | 568 m
################################################################################
201306302100 AAXX 30214 67599 NIL=
201306301800 AAXX 30184 67599 NIL=
201306301200 AAXX 30120 67599 NIL=
201306300600 AAXX 30061 67599 NIL=
201306292100 AAXX 29214 67599 NIL=
201306291800 AAXX 29184 67599 NIL=
201306291500 AAXX 29154 67599 NIL=
201306291200 AAXX 29120 67599 NIL=
201306290900 AAXX 29094 67599 NIL=
201306290600 AAXX 29060 67599 NIL=
201306281500 AAXX 28154 67599 NIL=
201306280900 AAXX 28094 67599 NIL=
201306280600 AAXX 28064 67599 31975 00000 10151 20099 48570 70500
                   333 10322 20100 59004
                   555 00094 91022=
201306271500 AAXX 27154 67599 NIL=
201306271200 AAXX 27121 67599 NIL=
201306270600 AAXX 27064 67599 31959 01805 10169 20094 48557 70500
                   333 10318 20111 59007
                   555 00099=
201306261500 AAXX 26154 67599 NIL=
201306260600 AAXX 26064 67599 31975 01804 10165 20094 48560 70500
                   333 10316 20105 59003
                   555 00094=
201306251800 AAXX 25184 67599 NIL=
201306251200 AAXX 25121 67599 NIL=
201306250600 AAXX 25064 67599 32980 01806 10160 20096 48562
                   333 10304 20100 59021
                   555 00085 91024=
201306231500 AAXX 23154 67599 NIL=
201306231200 AAXX 23121 67599 NIL=
201306221800 AAXX 22184 67599 NIL=
201306221500 AAXX 22154 67599 NIL=
201306221200 AAXX 22121 67599 NIL=
201306212100 AAXX 21214 67599 NIL=
201306210600 AAXX 21060 67599 NIL=
201306210300 AAXX 21034 67599 NIL=
201306210000 AAXX 21004 67599 NIL=
201306201800 AAXX 20184 67599 NIL=
201306201500 AAXX 20154 67599 NIL=
201306200600 AAXX 20064 67599 32980 71808 10200 20124 48587 8707/
                   333 10285 20160 58005 87460=
201306200300 AAXX 20034 67599 NIL=
201306200000 AAXX 20004 67599 NIL=
201306190900 AAXX 19094 67599 42680 50908 10255 20102 48515 85200
                   333 59014 85840 91024=
201306190600 AAXX 19064 67599 32980 20000 10176 20134 48573 82030
                   333 10288 20105 59022 82360
                   555 00090 91024=
201306190000 AAXX 19004 67599 NIL=
201306181500 AAXX 18154 67599 NIL=
201306180600 AAXX 18064 67599 32480 31809 10180 20120 48595 82530
                   333 10246 20140 59008 82618 81360
                   555 00125 91027=
201306170600 AAXX 17064 67599 31975 21803 10174 20099 48599 70511 82030
                   333 10301 20114 58022 82360
                   555 00097 91028=
201306160600 AAXX 16061 67599 NIL=
201306160000 AAXX 16004 67599 NIL=
201306151200 AAXX 15120 67599 NIL=
201306150900 AAXX 15094 67599 NIL=
201306150300 AAXX 15034 67599 NIL=
201306141800 AAXX 14184 67599 NIL=
201306141200 AAXX 14124 67599 42780 31805 10300 20133 48564 70122 83200
                   333 59005 83856 91018=
201306140600 AAXX 14064 67599 32980 00000 10180 20110 48559
                   333 10307 20106 59006
                   555 00105 91023=
201306140000 AAXX 14004 67599 NIL=
201306131500 AAXX 13154 67599 NIL=
201306131200 AAXX 13121 67599 NIL=
201306130900 AAXX 13094 67599 NIL=
201306130000 AAXX 13004 67599 NIL=
201306121800 AAXX 12184 67599 NIL=
201306121500 AAXX 12154 67599 NIL=
201306121200 AAXX 12121 67599 NIL=
201306120600 AAXX 12064 67599 32480 51803 10180 20137 48595 81130
                   333 10297 20115 59009 81818 84360
                   555 00104 91026=
201306120300 AAXX 12034 67599 NIL=
201306111500 AAXX 11154 67599 42780 41810 10245 20141 48603 70122 81230
                   333 58020 81850 84360 91024=
201306111200 AAXX 11124 67599 NIL=
201306111027 AAXX 11104 67599 42680 30907 10262 20119 48589 70322 81230 88033 81840 83360
                   91027=
201306110600 AAXX 11064 67599 32980 00000 10185 20136 48602
                   333 10330 20135 58031 91027=
201306110300 AAXX 11034 67599 NIL=
201306101800 AAXX 10184 67599 NIL=
201306101500 AAXX 10154 67599 42980 01108 10304 20055
                   333 58028 555 10330 91021=
201306100900 AAXX 10094 67599 41975 00805 10280 20136 48603 70500
                   333 58011 91024=
201306100600 AAXX 10064 67599 31975 01803 10170 20098 48571 70500
                   333 10316 20102 58014
                   555 00087 91024=
201306091200 AAXX 09121 67599 NIL=
201306090900 AAXX 09094 67599 42980 00000 10272 20136 48579
                   333 59012=
201306090600 AAXX 09064 67599 32980 00000 10170 20109 48558
                   333 10312 20115 59015
                   555 00105 91023=
201306082100 AAXX 08214 67599 NIL=
201306081800 AAXX 08184 67599 NIL=
201306081500 AAXX 08154 67599 NIL=
201306081200 AAXX 08124 67599 NIL=
201306071500 AAXX 07154 67599 NIL=
201306070600 AAXX 07064 67599 32980 00000 10186 20134 48614
                   333 10310 20120 58022
                   555 00104 91029=
201306061200 AAXX 06121 67599 NIL=
201306060900 AAXX 06094 67599 42980 00908 10280 20119 48630
                   333 58031 91026=
201306060000 AAXX 06004 67599 NIL=
201306051800 AAXX 05184 67599 NIL=
201306051500 AAXX 05154 67599 NIL=
201306051200 AAXX 05124 67599 NIL=
201306050900 AAXX 05094 67599 41975 01605 10286 20136 48601 70500
                   333 58008=
201306050600 AAXX 05064 67599 31970 00000 10175 20114 48569 70500
                   333 10316 20120 58013
                   555 00100 91024=
201306050300 AAXX 05034 67599 NIL=
201306042100 AAXX 04214 67599 NIL=
201306041200 AAXX 04124 67599 NIL=
201306040300 AAXX 04034 67599 NIL=
201306040000 AAXX 04004 67599 NIL=
201306031500 AAXX 03154 67599 NIL=
201306031200 AAXX 03121 67599 NIL=
201306030600 AAXX 03064 67599 31960 01003 10161 20073 48571 70500
                   333 10338 20094 58010
                   555 00090 91025=
201306030300 AAXX 03034 67599 NIL=
201306021800 AAXX 02184 67599 NIL=
201306021500 AAXX 02154 67599 NIL=
201306021200 AAXX 02121 67599 NIL=
201306020000 AAXX 02004 67599 NIL=

################################################################################
#  SYNOPS from 67625, Kalabo (Zambia) | 14-51S | 022-42E | 1033 m
################################################################################
201306302100 AAXX 30214 67625 NIL=
201306301800 AAXX 30184 67625 NIL=
201306301200 AAXX 30120 67625 NIL=
201306300600 AAXX 30061 67625 NIL=
201306292100 AAXX 29214 67625 NIL=
201306291800 AAXX 29184 67625 NIL=
201306291500 AAXX 29154 67625 NIL=
201306291200 AAXX 29120 67625 NIL=
201306290900 AAXX 29094 67625 NIL=
201306290600 AAXX 29060 67625 NIL=
201306281500 AAXX 28154 67625 NIL=
201306280900 AAXX 28094 67625 NIL=
201306280600 AAXX 28060 67625 NIL=
201306271500 AAXX 27154 67625 NIL=
201306271200 AAXX 27121 67625 NIL=
201306261500 AAXX 26154 67625 NIL=
201306260600 AAXX 26060 67625 NIL=
201306251800 AAXX 25184 67625 NIL=
201306251200 AAXX 25121 67625 NIL=
201306231500 AAXX 23154 67625 NIL=
201306231200 AAXX 23121 67625 NIL=
201306221800 AAXX 22184 67625 NIL=
201306221500 AAXX 22154 67625 NIL=
201306221200 AAXX 22121 67625 NIL=
201306212100 AAXX 21214 67625 NIL=
201306210600 AAXX 21060 67625 NIL=
201306210300 AAXX 21034 67625 NIL=
201306210000 AAXX 21004 67625 NIL=
201306201800 AAXX 20184 67625 NIL=
201306201500 AAXX 20154 67625 NIL=
201306200600 AAXX 20064 67625 NIL=
201306200300 AAXX 20034 67625 NIL=
201306200000 AAXX 20004 67625 NIL=
201306190600 AAXX 19061 67625 NIL=
201306190000 AAXX 19004 67625 NIL=
201306181500 AAXX 18154 67625 NIL=
201306160600 AAXX 16061 67625 NIL=
201306160000 AAXX 16004 67625 NIL=
201306151200 AAXX 15120 67625 NIL=
201306150900 AAXX 15094 67625 NIL=
201306150300 AAXX 15034 67625 NIL=
201306141800 AAXX 14184 67625 NIL=
201306140000 AAXX 14004 67625 NIL=
201306131500 AAXX 13154 67625 NIL=
201306131200 AAXX 13121 67625 NIL=
201306130900 AAXX 13094 67625 NIL=
201306130000 AAXX 13004 67625 NIL=
201306121800 AAXX 12184 67625 NIL=
201306121500 AAXX 12154 67625 NIL=
201306121200 AAXX 12121 67625 NIL=
201306120600 AAXX 12064 67625 31980 01814 10137 2//// 48/// 70500
                   333 10306 20086 5////=
201306120300 AAXX 12034 67625 NIL=
201306111500 AAXX 11154 67625 NIL=
201306111200 AAXX 11124 67625 NIL=
201306110300 AAXX 11034 67625 NIL=
201306101800 AAXX 10184 67625 NIL=
201306101500 AAXX 10154 67625 NIL=
201306091200 AAXX 09121 67625 NIL=
201306090900 AAXX 09094 67625 NIL=
201306090600 AAXX 09064 67625 NIL=
201306082100 AAXX 08214 67625 NIL=
201306081800 AAXX 08184 67625 NIL=
201306081500 AAXX 08154 67625 NIL=
201306081200 AAXX 08121 67625 NIL=
201306071500 AAXX 07154 67625 NIL=
201306070600 AAXX 07064 67625 NIL=
201306061200 AAXX 06121 67625 NIL=
201306060000 AAXX 06004 67625 NIL=
201306051800 AAXX 05184 67625 NIL=
201306051500 AAXX 05154 67625 NIL=
201306051200 AAXX 05124 67625 NIL=
201306050600 AAXX 05064 67625 NIL=
201306050300 AAXX 05034 67625 NIL=
201306042100 AAXX 04214 67625 NIL=
201306041200 AAXX 04124 67625 NIL=
201306040300 AAXX 04034 67625 NIL=
201306040000 AAXX 04004 67625 NIL=
201306031500 AAXX 03154 67625 NIL=
201306031200 AAXX 03121 67625 NIL=
201306030300 AAXX 03034 67625 NIL=
201306021800 AAXX 02184 67625 NIL=
201306021500 AAXX 02154 67625 NIL=
201306021200 AAXX 02121 67625 NIL=
201306020000 AAXX 02004 67625 NIL=

################################################################################
#  SYNOPS from 67633, Mongu (Zambia) | 15-15S | 023-09E | 1052 m
################################################################################
201306302100 AAXX 30214 67633 NIL=
201306301800 AAXX 30184 67633 NIL=
201306301200 AAXX 30120 67633 NIL=
201306300600 AAXX 30061 67633 NIL=
201306292100 AAXX 29214 67633 NIL=
201306291800 AAXX 29184 67633 NIL=
201306291500 AAXX 29154 67633 NIL=
201306291200 AAXX 29120 67633 NIL=
201306290900 AAXX 29094 67633 NIL=
201306290600 AAXX 29060 67633 NIL=
201306281500 AAXX 28154 67633 NIL=
201306280900 AAXX 28094 67633 NIL=
201306280600 AAXX 28064 67633 32980 00902 10153 20082 48525
                   333 10295 20118 58006
                   555 00///=
201306271500 AAXX 27154 67633 NIL=
201306271200 AAXX 27121 67633 NIL=
201306270600 AAXX 27064 67633 32980 00903 10162 20085 48528 70200
                   333 10280 20100 59002
                   555 00/// 91020=
201306261500 AAXX 26154 67633 NIL=
201306260600 AAXX 26060 67633 NIL=
201306251800 AAXX 25184 67633 NIL=
201306251200 AAXX 25121 67633 NIL=
201306250600 AAXX 25064 67633 32980 11206 10139 20093 48533 80001
                   333 10289 20108 59007 81080
                   555 00/// 91021=
201306240600 AAXX 24064 67633 32980 30906 10142 20101 48541 70200 80008
                   333 10278 20118 59009 83280
                   555 00/// 91022=
201306231500 AAXX 23154 67633 NIL=
201306231200 AAXX 23121 67633 NIL=
201306221800 AAXX 22184 67633 NIL=
201306221500 AAXX 22154 67633 NIL=
201306221200 AAXX 22121 67633 NIL=
201306212100 AAXX 21214 67633 NIL=
201306210600 AAXX 21060 67633 NIL=
201306210300 AAXX 21034 67633 NIL=
201306210000 AAXX 21004 67633 NIL=
201306201800 AAXX 20184 67633 NIL=
201306201500 AAXX 20154 67633 NIL=
201306200600 AAXX 20064 67633 32980 00903 10130 20087 48556 70200
                   333 10259 20075 58005
                   555 00/// 91024=
201306200300 AAXX 20034 67633 NIL=
201306200000 AAXX 20004 67633 NIL=
201306190600 AAXX 19061 67633 NIL=
201306190000 AAXX 19004 67633 NIL=
201306181500 AAXX 18154 67633 NIL=
201306180600 AAXX 18064 67633 32980 00000 10120 20093 48563 70520
                   333 10260 20075 59005
                   555 00/// 91025=
201306171200 AAXX 17124 67633 42980 00902 10250 20071 48571 70200
                   333 58018 91024=
201306170600 AAXX 17064 67633 32980 00906 10138 20070 48571
                   333 10296 20102 58023
                   555 00/// 91025=
201306160600 AAXX 16061 67633 NIL=
201306160000 AAXX 16004 67633 NIL=
201306151200 AAXX 15120 67633 NIL=
201306150900 AAXX 15094 67633 NIL=
201306150300 AAXX 15034 67633 NIL=
201306141800 AAXX 14184 67633 NIL=
201306140600 AAXX 14064 67633 32980 00903 10135 20086 48538 70200
                   333 10267 20101 58003
                   555 00/// 91022=
201306140000 AAXX 14004 67633 NIL=
201306131500 AAXX 13154 67633 NIL=
201306131200 AAXX 13121 67633 NIL=
201306130900 AAXX 13094 67633 NIL=
201306130600 AAXX 13064 67633 32980 20904 10128 20095 48535 80001
                   333 10260 20099 59023 82080
                   555 00/// 91022=
201306130000 AAXX 13004 67633 NIL=
201306121800 AAXX 12184 67633 NIL=
201306121500 AAXX 12154 67633 NIL=
201306121200 AAXX 12121 67633 42980 02703 10245 20096 48551 70200
                   333 59012 555 91021=
201306120600 AAXX 12064 67633 NIL=
201306120300 AAXX 12034 67633 NIL=
201306111500 AAXX 11154 67633 NIL=
201306111200 AAXX 11124 67633 NIL=
201306110300 AAXX 11034 67633 NIL=
201306101800 AAXX 10184 67633 NIL=
201306101500 AAXX 10154 67633 NIL=
201306100900 AAXX 10094 67633 42980 01506 10235 20044 48575
                   333 58015 91024=
201306091200 AAXX 09121 67633 42980 02703 10280 20063 48546 70200
                   333 59010 91020=
201306090900 AAXX 09094 67633 42980 00902 10265 20054 48566 70200
                   333 59005 555 91022=
201306090600 AAXX 09064 67633 32980 00802 10164 20074 48540 70200
                   333 10270 20108 59008 91021=
201306082100 AAXX 08214 67633 NIL=
201306081800 AAXX 08184 67633 NIL=
201306081500 AAXX 08154 67633 NIL=
201306081200 AAXX 08124 67633 42980 02704 10264 20083 48553 70200
                   333 59015 91021=
201306080600 AAXX 08064 67633 32980 00904 10142 20085 48544
                   333 10297 20105 58021
                   555 00///=
201306071500 AAXX 07154 67633 NIL=
201306070900 AAXX 07094 67633 42980 01308 10244 20094 48592
                   333 58015 91026=
201306070600 AAXX 07064 67633 32980 00908 10146 20073 48563
                   333 10302 20106 58010
                   555 00/// 91024=
201306061200 AAXX 06121 67633 NIL=
201306060600 AAXX 06064 67633 32980 10906 10/// 20074 48556 81030
                   333 10299 20104 58022 81360
                   555 00/// 91024=
201306060000 AAXX 06004 67633 NIL=
201306051800 AAXX 05184 67633 NIL=
201306051500 AAXX 05154 67633 NIL=
201306051200 AAXX 05124 67633 NIL=
201306050600 AAXX 05064 67633 32980 00903 10150 20078 48535 70200
                   333 10306 20124 58004
                   555 00/// 91021=
201306050300 AAXX 05034 67633 NIL=
201306042100 AAXX 04214 67633 NIL=
201306041200 AAXX 04124 67633 42980 00906 10292 20078 48540
                   333 59001 91019=
201306040300 AAXX 04034 67633 NIL=
201306040000 AAXX 04004 67633 NIL=
201306031500 AAXX 03154 67633 NIL=
201306031200 AAXX 03121 67633 42980 00903 10294 20084 48539 70200
                   333 58003 91019=
201306030300 AAXX 03034 67633 NIL=
201306021800 AAXX 02184 67633 NIL=
201306021500 AAXX 02154 67633 NIL=
201306021200 AAXX 02121 67633 42980 00903 10310 20104 48539 70200
                   333 58007 91019=
201306020000 AAXX 02004 67633 NIL=

################################################################################
#  SYNOPS from 67641, Kaoma (Zambia) | 14-48S | 024-48E | 1213 m
################################################################################
201306302100 AAXX 30214 67641 NIL=
201306301800 AAXX 30184 67641 NIL=
201306301200 AAXX 30120 67641 NIL=
201306300600 AAXX 30061 67641 NIL=
201306292100 AAXX 29214 67641 NIL=
201306291800 AAXX 29184 67641 NIL=
201306291500 AAXX 29154 67641 NIL=
201306291200 AAXX 29120 67641 NIL=
201306290900 AAXX 29094 67641 NIL=
201306290600 AAXX 29060 67641 NIL=
201306281500 AAXX 28154 67641 NIL=
201306280900 AAXX 28094 67641 NIL=
201306280600 AAXX 28064 67641 31980 01904 10092 20066 48532 70500
                   333 10291 20070 59003
                   555 00///=
201306271500 AAXX 27154 67641 NIL=
201306271200 AAXX 27121 67641 NIL=
201306270600 AAXX 27064 67641 31980 01802 10082 20061 48522 70500
                   333 10284 20070 59003
                   555 00/// 91021=
201306261500 AAXX 26154 67641 NIL=
201306260600 AAXX 26060 67641 NIL=
201306251800 AAXX 25184 67641 NIL=
201306251200 AAXX 25121 67641 NIL=
201306250600 AAXX 25064 67641 31980 10000 10086 20062 48534 70500 80001
                   333 10270 20053 59006 81080
                   555 00/// 91022=
201306240600 AAXX 24064 67641 32980 10904 10125 20088 48546 70500 80001
                   333 10280 20068 59006 81080
                   555 00///=
201306231500 AAXX 23154 67641 NIL=
201306231200 AAXX 23121 67641 NIL=
201306221800 AAXX 22184 67641 NIL=
201306221500 AAXX 22154 67641 NIL=
201306221200 AAXX 22121 67641 NIL=
201306212100 AAXX 21214 67641 NIL=
201306210600 AAXX 21064 67641 31980 00903 10129 20081 48553 70500
                   333 10255 20067 58005
                   555 00/// 91024=
201306210300 AAXX 21034 67641 NIL=
201306210000 AAXX 21004 67641 NIL=
201306201800 AAXX 20184 67641 NIL=
201306201500 AAXX 20154 67641 NIL=
201306200600 AAXX 20064 67641 32892 00904 10092 20071 48544 70500
                   333 10247 20055 59002
                   555 00/// 91023=
201306200300 AAXX 20034 67641 NIL=
201306200000 AAXX 20004 67641 NIL=
201306190600 AAXX 19064 67641 31980 00802 10062 20046 48540 70500
                   333 10240 20043 59002
                   555 00/// 91023=
201306190000 AAXX 19004 67641 NIL=
201306181500 AAXX 18154 67641 NIL=
201306180600 AAXX 18064 67641 31980 00904 10117 20095 48550 70500
                   333 10250 20085 59014
                   555 00/// 91023=
201306170600 AAXX 17064 67641 31980 01005 10100 20051 48560 70500
                   333 10279 20071 58025
                   555 00/// 91025=
201306160600 AAXX 16061 67641 NIL=
201306160000 AAXX 16004 67641 NIL=
201306151200 AAXX 15120 67641 NIL=
201306150900 AAXX 15094 67641 NIL=
201306150300 AAXX 15034 67641 NIL=
201306141800 AAXX 14184 67641 NIL=
201306140000 AAXX 14004 67641 NIL=
201306131500 AAXX 13154 67641 NIL=
201306131200 AAXX 13121 67641 NIL=
201306130900 AAXX 13094 67641 NIL=
201306130000 AAXX 13004 67641 NIL=
201306121800 AAXX 12184 67641 NIL=
201306121500 AAXX 12154 67641 NIL=
201306121200 AAXX 12121 67641 NIL=
201306120600 AAXX 12064 67641 31980 00901 10092 20078 48551 70500
                   333 10263 20076 59003
                   555 00/// 91023=
201306120300 AAXX 12034 67641 NIL=
201306111500 AAXX 11154 67641 NIL=
201306111200 AAXX 11124 67641 NIL=
201306110600 AAXX 11064 67641 32980 00903 10135 20090 48559 70500
                   333 10290 20040 58023
                   555 00/// 91013=
201306110300 AAXX 11034 67641 NIL=
201306101800 AAXX 10184 67641 NIL=
201306101500 AAXX 10154 67641 NIL=
201306100600 AAXX 10064 67641 31982 00000 10086 20050 48530 70500
                   333 10292 20042 58000
                   555 91022=
201306091200 AAXX 09121 67641 NIL=
201306090900 AAXX 09094 67641 NIL=
201306090600 AAXX 09064 67641 NIL=
201306082100 AAXX 08214 67641 NIL=
201306081800 AAXX 08184 67641 NIL=
201306081500 AAXX 08154 67641 NIL=
201306081200 AAXX 08124 67641 NIL=
201306071500 AAXX 07154 67641 NIL=
201306070600 AAXX 07064 67641 31980 00801 10085 20056 48559 70500
                   333 10294 20060 58017
                   555 00/// 91005=
201306061200 AAXX 06121 67641 NIL=
201306060000 AAXX 06004 67641 NIL=
201306051800 AAXX 05184 67641 NIL=
201306051500 AAXX 05154 67641 NIL=
201306051200 AAXX 05124 67641 NIL=
201306050600 AAXX 05064 67641 32982 11902 10070 20049 48527 80001
                   333 10291 20056 58008 81080
                   555 00/// 91021=
201306050300 AAXX 05034 67641 NIL=
201306042100 AAXX 04214 67641 NIL=
201306041200 AAXX 04124 67641 NIL=
201306040600 AAXX 04064 67641 32982 00201 10096 20066 48523
                   333 10293 20058 59005
                   555 91020=
201306040300 AAXX 04034 67641 NIL=
201306040000 AAXX 04004 67641 NIL=
201306031500 AAXX 03154 67641 NIL=
201306031200 AAXX 03121 67641 NIL=
201306030300 AAXX 03034 67641 NIL=
201306021800 AAXX 02184 67641 NIL=
201306021500 AAXX 02154 67641 NIL=
201306021200 AAXX 02121 67641 NIL=
201306020000 AAXX 02004 67641 NIL=

################################################################################
#  SYNOPS from 67655, Mumbwa (Zambia) | 15-04S | 027-11E | 1216 m
################################################################################
201306302100 AAXX 30214 67655 NIL=
201306301800 AAXX 30184 67655 NIL=
201306301200 AAXX 30120 67655 NIL=
201306300600 AAXX 30061 67655 NIL=
201306292100 AAXX 29214 67655 NIL=
201306291800 AAXX 29184 67655 NIL=
201306291500 AAXX 29154 67655 NIL=
201306291200 AAXX 29120 67655 NIL=
201306290900 AAXX 29094 67655 NIL=
201306290600 AAXX 29060 67655 NIL=
201306281500 AAXX 28154 67655 NIL=
201306280900 AAXX 28094 67655 NIL=
201306280600 AAXX 28060 67655 NIL=
201306271500 AAXX 27154 67655 NIL=
201306271200 AAXX 27121 67655 NIL=
201306261500 AAXX 26154 67655 NIL=
201306260600 AAXX 26060 67655 NIL=
201306251800 AAXX 25184 67655 NIL=
201306251200 AAXX 25121 67655 NIL=
201306250600 AAXX 25064 67655 32980 11003 10134 20089 48554 80001
                   333 10270 20/// 59017 81080
                   555 00/// 91024=
201306231500 AAXX 23154 67655 NIL=
201306231200 AAXX 23121 67655 NIL=
201306221800 AAXX 22184 67655 NIL=
201306221500 AAXX 22154 67655 NIL=
201306221200 AAXX 22121 67655 NIL=
201306212100 AAXX 21214 67655 NIL=
201306210600 AAXX 21060 67655 NIL=
201306210300 AAXX 21034 67655 NIL=
201306210000 AAXX 21004 67655 NIL=
201306201800 AAXX 20184 67655 NIL=
201306201500 AAXX 20154 67655 NIL=
201306200600 AAXX 20064 67655 NIL=
201306200300 AAXX 20034 67655 NIL=
201306200000 AAXX 20004 67655 NIL=
201306190600 AAXX 19061 67655 NIL=
201306190000 AAXX 19004 67655 NIL=
201306181500 AAXX 18154 67655 NIL=
201306180600 AAXX 18064 67655 32980 00805 10118 20100 48573
                   333 10215 20/// 59013
                   555 00/// 91027=
201306160600 AAXX 16061 67655 NIL=
201306160000 AAXX 16004 67655 NIL=
201306151200 AAXX 15120 67655 NIL=
201306150900 AAXX 15094 67655 NIL=
201306150300 AAXX 15034 67655 NIL=
201306141800 AAXX 14184 67655 NIL=
201306140600 AAXX 14064 67655 32980 00000 10155 20101 48552
                   333 10240 20/// 59004
                   555 00/// 91024=
201306140000 AAXX 14004 67655 NIL=
201306131500 AAXX 13154 67655 NIL=
201306131200 AAXX 13121 67655 NIL=
201306130900 AAXX 13094 67655 42680 20606 10210 20103 48576 82100
                   333 59021 82830 91024=
201306130000 AAXX 13004 67655 NIL=
201306121800 AAXX 12184 67655 NIL=
201306121500 AAXX 12154 67655 NIL=
201306121200 AAXX 12121 67655 NIL=
201306120600 AAXX 12064 67655 NIL=
201306120300 AAXX 12034 67655 NIL=
201306111500 AAXX 11154 67655 NIL=
201306111200 AAXX 11124 67655 NIL=
201306110300 AAXX 11034 67655 NIL=
201306101800 AAXX 10184 67655 NIL=
201306101500 AAXX 10154 67655 NIL=
201306100600 AAXX 10064 67655 32980 10902 10152 20080 48557 80001
                   333 10262 20/// 58009 81080 91024=
201306091200 AAXX 09121 67655 NIL=
201306090900 AAXX 09094 67655 NIL=
201306090600 AAXX 09064 67655 NIL=
201306082100 AAXX 08214 67655 NIL=
201306081800 AAXX 08184 67655 NIL=
201306081500 AAXX 08154 67655 NIL=
201306081200 AAXX 08124 67655 NIL=
201306071500 AAXX 07154 67655 NIL=
201306070600 AAXX 07064 67655 NIL=
201306061200 AAXX 06121 67655 NIL=
201306060000 AAXX 06004 67655 NIL=
201306051800 AAXX 05184 67655 NIL=
201306051500 AAXX 05154 67655 NIL=
201306051200 AAXX 05124 67655 NIL=
201306050600 AAXX 05064 67655 32980 00906 10168 20080 48551
                   333 10285 20/// 58001 91024=
201306050300 AAXX 05034 67655 NIL=
201306042100 AAXX 04214 67655 NIL=
201306041200 AAXX 04124 67655 NIL=
201306040600 AAXX 04064 67655 32980 00000 10146 20084 48555
                   333 10280 20/// 58001 91024=
201306040300 AAXX 04034 67655 NIL=
201306040000 AAXX 04004 67655 NIL=
201306031500 AAXX 03154 67655 NIL=
201306031200 AAXX 03121 67655 NIL=
201306030600 AAXX 03064 67655 32980 00705 10170 20076 48558
                   333 10281 20/// 58004
                   555 00/// 91024=
201306030300 AAXX 03034 67655 NIL=
201306021800 AAXX 02184 67655 NIL=
201306021500 AAXX 02154 67655 NIL=
201306021200 AAXX 02121 67655 NIL=
201306020000 AAXX 02004 67655 NIL=

################################################################################
#  SYNOPS from 67659, Kafue Polder (Zambia) | 15-46S | 027-55E | 978 m
################################################################################
201306302100 AAXX 30214 67659 NIL=
201306301800 AAXX 30184 67659 NIL=
201306301200 AAXX 30120 67659 NIL=
201306300600 AAXX 30061 67659 NIL=
201306292100 AAXX 29214 67659 NIL=
201306291800 AAXX 29184 67659 NIL=
201306291500 AAXX 29154 67659 NIL=
201306291200 AAXX 29120 67659 NIL=
201306290900 AAXX 29094 67659 NIL=
201306290600 AAXX 29060 67659 NIL=
201306281500 AAXX 28154 67659 NIL=
201306280900 AAXX 28094 67659 NIL=
201306280600 AAXX 28060 67659 NIL=
201306271500 AAXX 27154 67659 NIL=
201306271200 AAXX 27121 67659 NIL=
201306261500 AAXX 26154 67659 NIL=
201306260600 AAXX 26060 67659 NIL=
201306251800 AAXX 25184 67659 NIL=
201306251200 AAXX 25121 67659 NIL=
201306231500 AAXX 23154 67659 NIL=
201306231200 AAXX 23121 67659 NIL=
201306221800 AAXX 22184 67659 NIL=
201306221500 AAXX 22154 67659 NIL=
201306221200 AAXX 22121 67659 NIL=
201306212100 AAXX 21214 67659 NIL=
201306210600 AAXX 21060 67659 NIL=
201306210300 AAXX 21034 67659 NIL=
201306210000 AAXX 21004 67659 NIL=
201306201800 AAXX 20184 67659 NIL=
201306201500 AAXX 20154 67659 NIL=
201306200600 AAXX 20064 67659 NIL=
201306200300 AAXX 20034 67659 NIL=
201306200000 AAXX 20004 67659 NIL=
201306190600 AAXX 19061 67659 NIL=
201306190000 AAXX 19004 67659 NIL=
201306181500 AAXX 18154 67659 NIL=
201306160600 AAXX 16061 67659 NIL=
201306160000 AAXX 16004 67659 NIL=
201306151200 AAXX 15120 67659 NIL=
201306150900 AAXX 15094 67659 NIL=
201306150300 AAXX 15034 67659 NIL=
201306141800 AAXX 14184 67659 NIL=
201306140000 AAXX 14004 67659 NIL=
201306131500 AAXX 13154 67659 NIL=
201306131200 AAXX 13121 67659 NIL=
201306130900 AAXX 13094 67659 NIL=
201306130000 AAXX 13004 67659 NIL=
201306121800 AAXX 12184 67659 NIL=
201306121500 AAXX 12154 67659 NIL=
201306121200 AAXX 12121 67659 NIL=
201306120600 AAXX 12064 67659 NIL=
201306120300 AAXX 12034 67659 NIL=
201306111500 AAXX 11154 67659 NIL=
201306111200 AAXX 11124 67659 NIL=
201306110300 AAXX 11034 67659 NIL=
201306101800 AAXX 10184 67659 NIL=
201306101500 AAXX 10154 67659 NIL=
201306091200 AAXX 09121 67659 NIL=
201306090900 AAXX 09094 67659 NIL=
201306090600 AAXX 09064 67659 NIL=
201306082100 AAXX 08214 67659 NIL=
201306081800 AAXX 08184 67659 NIL=
201306081500 AAXX 08154 67659 NIL=
201306081200 AAXX 08124 67659 NIL=
201306071500 AAXX 07154 67659 NIL=
201306070600 AAXX 07064 67659 NIL=
201306061200 AAXX 06121 67659 NIL=
201306060000 AAXX 06004 67659 NIL=
201306051800 AAXX 05184 67659 NIL=
201306051500 AAXX 05154 67659 NIL=
201306051200 AAXX 05124 67659 NIL=
201306050600 AAXX 05064 67659 NIL=
201306050300 AAXX 05034 67659 NIL=
201306042100 AAXX 04214 67659 NIL=
201306041200 AAXX 04124 67659 NIL=
201306040300 AAXX 04034 67659 NIL=
201306040000 AAXX 04004 67659 NIL=
201306031500 AAXX 03154 67659 NIL=
201306031200 AAXX 03121 67659 NIL=
201306030300 AAXX 03034 67659 NIL=
201306021800 AAXX 02184 67659 NIL=
201306021500 AAXX 02154 67659 NIL=
201306021200 AAXX 02121 67659 NIL=
201306020000 AAXX 02004 67659 NIL=

################################################################################
#  SYNOPS from 67662, Kabwe Agric (Zambia) | 14-24S | 028-30E | 1165 m
################################################################################
201306302100 AAXX 30214 67662 NIL=
201306301800 AAXX 30184 67662 NIL=
201306301200 AAXX 30120 67662 NIL=
201306300600 AAXX 30061 67662 NIL=
201306292100 AAXX 29214 67662 NIL=
201306291800 AAXX 29184 67662 NIL=
201306291500 AAXX 29154 67662 NIL=
201306291200 AAXX 29120 67662 NIL=
201306290900 AAXX 29094 67662 NIL=
201306290600 AAXX 29060 67662 NIL=
201306281500 AAXX 28154 67662 NIL=
201306280900 AAXX 28094 67662 NIL=
201306280600 AAXX 28060 67662 NIL=
201306271500 AAXX 27154 67662 NIL=
201306271200 AAXX 27121 67662 NIL=
201306261500 AAXX 26154 67662 NIL=
201306260600 AAXX 26060 67662 NIL=
201306251800 AAXX 25184 67662 NIL=
201306251200 AAXX 25121 67662 NIL=
201306231500 AAXX 23154 67662 NIL=
201306231200 AAXX 23121 67662 NIL=
201306221800 AAXX 22184 67662 NIL=
201306221500 AAXX 22154 67662 NIL=
201306221200 AAXX 22121 67662 NIL=
201306212100 AAXX 21214 67662 NIL=
201306210600 AAXX 21060 67662 NIL=
201306210300 AAXX 21034 67662 NIL=
201306210000 AAXX 21004 67662 NIL=
201306201800 AAXX 20184 67662 NIL=
201306201500 AAXX 20154 67662 NIL=
201306200600 AAXX 20064 67662 NIL=
201306200300 AAXX 20034 67662 NIL=
201306200000 AAXX 20004 67662 NIL=
201306190600 AAXX 19061 67662 NIL=
201306190000 AAXX 19004 67662 NIL=
201306181500 AAXX 18154 67662 NIL=
201306160600 AAXX 16061 67662 NIL=
201306160000 AAXX 16004 67662 NIL=
201306151200 AAXX 15120 67662 NIL=
201306150900 AAXX 15094 67662 NIL=
201306150300 AAXX 15034 67662 NIL=
201306141800 AAXX 14184 67662 NIL=
201306140000 AAXX 14004 67662 NIL=
201306131500 AAXX 13154 67662 NIL=
201306131200 AAXX 13121 67662 NIL=
201306130900 AAXX 13094 67662 NIL=
201306130000 AAXX 13004 67662 NIL=
201306121800 AAXX 12184 67662 NIL=
201306121500 AAXX 12154 67662 NIL=
201306121200 AAXX 12121 67662 NIL=
201306120600 AAXX 12064 67662 NIL=
201306120300 AAXX 12034 67662 NIL=
201306111500 AAXX 11154 67662 NIL=
201306111200 AAXX 11124 67662 NIL=
201306110300 AAXX 11034 67662 NIL=
201306101800 AAXX 10184 67662 NIL=
201306101500 AAXX 10154 67662 NIL=
201306091200 AAXX 09121 67662 NIL=
201306090900 AAXX 09094 67662 NIL=
201306090600 AAXX 09064 67662 NIL=
201306082100 AAXX 08214 67662 NIL=
201306081800 AAXX 08184 67662 NIL=
201306081500 AAXX 08154 67662 NIL=
201306081200 AAXX 08124 67662 NIL=
201306071500 AAXX 07154 67662 NIL=
201306070600 AAXX 07064 67662 NIL=
201306061200 AAXX 06121 67662 NIL=
201306060000 AAXX 06004 67662 NIL=
201306051800 AAXX 05184 67662 NIL=
201306051500 AAXX 05154 67662 NIL=
201306051200 AAXX 05124 67662 NIL=
201306050600 AAXX 05064 67662 NIL=
201306050300 AAXX 05034 67662 NIL=
201306042100 AAXX 04214 67662 NIL=
201306041200 AAXX 04124 67662 NIL=
201306040300 AAXX 04034 67662 NIL=
201306040000 AAXX 04004 67662 NIL=
201306031500 AAXX 03154 67662 NIL=
201306031200 AAXX 03121 67662 NIL=
201306030300 AAXX 03034 67662 NIL=
201306021800 AAXX 02184 67662 NIL=
201306021500 AAXX 02154 67662 NIL=
201306021200 AAXX 02121 67662 NIL=
201306020000 AAXX 02004 67662 NIL=

################################################################################
#  SYNOPS from 67663, Kabwe (Zambia) | 14-27S | 028-28E | 1206 m
################################################################################
201306302100 AAXX 30214 67663 NIL=
201306301800 AAXX 30184 67663 NIL=
201306301200 AAXX 30120 67663 NIL=
201306300600 AAXX 30061 67663 NIL=
201306292100 AAXX 29214 67663 NIL=
201306291800 AAXX 29184 67663 NIL=
201306291500 AAXX 29154 67663 NIL=
201306291200 AAXX 29120 67663 NIL=
201306290900 AAXX 29094 67663 NIL=
201306290600 AAXX 29060 67663 NIL=
201306281500 AAXX 28154 67663 NIL=
201306280900 AAXX 28094 67663 NIL=
201306280600 AAXX 28064 67663 32980 01004 10162 20076 48536
                   333 10268 20104 58004
                   555 00///=
201306271500 AAXX 27154 67663 NIL=
201306271200 AAXX 27121 67663 NIL=
201306261500 AAXX 26154 67663 NIL=
201306260600 AAXX 26064 67663 32980 00608 10151 20097 48536
                   333 10257 20102 59025
                   555 00///=
201306251800 AAXX 25184 67663 NIL=
201306251200 AAXX 25121 67663 NIL=
201306250600 AAXX 25064 67663 32980 00703 10136 20103 48551
                   333 10245 20093 59021=
201306240600 AAXX 24064 67663 32980 10702 10125 20098 48570 81032
                   333 10250 20090 59001 81360 81080
                   555 00///=
201306231500 AAXX 23154 67663 NIL=
201306231200 AAXX 23121 67663 NIL=
201306221800 AAXX 22184 67663 NIL=
201306221500 AAXX 22154 67663 NIL=
201306221200 AAXX 22121 67663 NIL=
201306212100 AAXX 21214 67663 NIL=
201306210600 AAXX 21060 67663 NIL=
201306210300 AAXX 21034 67663 NIL=
201306210000 AAXX 21004 67663 NIL=
201306201800 AAXX 20184 67663 NIL=
201306201500 AAXX 20154 67663 NIL=
201306200600 AAXX 20064 67663 32980 70704 10136 20102 48563 87030
                   333 10192 20122 59005 87360
                   555 00///=
201306200300 AAXX 20034 67663 NIL=
201306200000 AAXX 20004 67663 NIL=
201306190600 AAXX 19064 67663 32480 60703 10106 20098 48555 86500
                   333 10205 20079 58017 86612
                   555 00///=
201306190000 AAXX 19004 67663 NIL=
201306181500 AAXX 18154 67663 NIL=
201306180600 AAXX 18064 67663 32980 01006 10111 20084 48549
                   333 10212 20074 59017
                   555 00///=
201306170600 AAXX 17064 67663 32980 20903 10129 20091 48568 82030
                   333 10250 20077 58028 82360
                   555 00///=
201306160600 AAXX 16061 67663 NIL=
201306160000 AAXX 16004 67663 NIL=
201306151200 AAXX 15120 67663 NIL=
201306150900 AAXX 15094 67663 NIL=
201306150300 AAXX 15034 67663 NIL=
201306141800 AAXX 14184 67663 NIL=
201306140600 AAXX 14064 67663 32980 00902 10156 20096 48534
                   333 10252 20092 59029
                   555 00///=
201306140000 AAXX 14004 67663 NIL=
201306131500 AAXX 13154 67663 NIL=
201306131200 AAXX 13121 67663 NIL=
201306130900 AAXX 13094 67663 NIL=
201306130600 AAXX 13064 67663 32980 31003 10149 20099 48559 83030
                   333 10226 20077 59010 83360
                   555 00///=
201306130000 AAXX 13004 67663 NIL=
201306121800 AAXX 12184 67663 NIL=
201306121500 AAXX 12154 67663 NIL=
201306121200 AAXX 12121 67663 NIL=
201306120600 AAXX 12064 67663 32480 30605 10139 20120 48568 83500
                   333 10227 20096 59012 83617
                   555 00///=
201306120300 AAXX 12034 67663 NIL=
201306111500 AAXX 11154 67663 NIL=
201306111200 AAXX 11124 67663 NIL=
201306110600 AAXX 11064 67663 32480 30915 10146 20121 48582 83500
                   333 10263 20114 58029 83617=
201306110300 AAXX 11034 67663 NIL=
201306101800 AAXX 10184 67663 NIL=
201306101500 AAXX 10154 67663 NIL=
201306100600 AAXX 10064 67663 32980 00804 10173 20085 48556
                   333 10272 20103 58009=
201306091200 AAXX 09121 67663 NIL=
201306090900 AAXX 09094 67663 NIL=
201306090600 AAXX 09064 67663 NIL=
201306082100 AAXX 08214 67663 NIL=
201306081800 AAXX 08184 67663 NIL=
201306081500 AAXX 08154 67663 NIL=
201306081200 AAXX 08124 67663 NIL=
201306071500 AAXX 07154 67663 NIL=
201306070600 AAXX 07064 67663 32980 00607 10143 20099 48591
                   333 10277 20100 58017
                   555 00///=
201306061200 AAXX 06121 67663 NIL=
201306060600 AAXX 06064 67663 32980 00905 10175 20098 48579
                   333 10285 20118 58020
                   555 00///=
201306060000 AAXX 06004 67663 NIL=
201306051800 AAXX 05184 67663 NIL=
201306051500 AAXX 05154 67663 NIL=
201306051200 AAXX 05124 67663 42980 00903 10268 20100 48557
                   333 58013=
201306050900 AAXX 05094 67663 42980 00816 10240 20102 48577
                   333 58015=
201306050600 AAXX 05064 67663 32980 00808 10161 20091 48558
                   333 10273 20078 58009=
201306050300 AAXX 05034 67663 NIL=
201306042100 AAXX 04214 67663 NIL=
201306041200 AAXX 04124 67663 NIL=
201306040300 AAXX 04034 67663 NIL=
201306040000 AAXX 04004 67663 NIL=
201306031500 AAXX 03154 67663 NIL=
201306031200 AAXX 03121 67663 NIL=
201306030600 AAXX 03064 67663 32980 00906 10172 20072 48550
                   333 10277 20113 59004
                   555 00///=
201306030300 AAXX 03034 67663 NIL=
201306021800 AAXX 02184 67663 NIL=
201306021500 AAXX 02154 67663 NIL=
201306021200 AAXX 02121 67663 NIL=
201306020000 AAXX 02004 67663 NIL=

################################################################################
#  SYNOPS from 67665, Lusaka Internationalairport (Zambia) | 15-19S | 028-27E | 1152 m
################################################################################
201307010600 AAXX 01064 67665 32980 01203 10120 20091 48564
                   333 10254 20065 59003=
201307010300 AAXX 01034 67665 42980 01703 10118 20089 48544 70200
                   333 59005 91023=
201306302100 AAXX 30214 67665 42980 01703 10116 20068 48554 70200
                   333 59003 91024=
201306301800 AAXX 30184 67665 NIL=
201306301200 AAXX 30120 67665 NIL=
201306300900 AAXX 30094 67665 42980 00809 10213 20085 48585
                   333 58014=
201306300600 AAXX 30061 67665 32980 01505 10112 20075 48565
                   333 10269 20064 58007=
201306292100 AAXX 29214 67665 42980 01203 10106 20066 48555
                   333 58006=
201306291800 AAXX 29184 67665 42980 01404 10148 20046 48557 70200
                   333 10269 58008=
201306291500 AAXX 29154 67665 42980 01508 10235 20056 48542 70200
                   333 59006=
201306291200 AAXX 29120 67665 42980 00509 10253 20083 48556 70200
                   333 58008=
201306290900 AAXX 29094 67665 NIL=
201306290600 AAXX 29064 67665 32980 01105 10137 20062 48562 70200
                   333 58019=
201306290300 AAXX 29034 67665 42980 01004 10096 20076 48541
                   333 58011=
201306282100 AAXX 28214 67665 42980 00905 10123 20073 48551
                   333 58011=
201306281800 AAXX 28184 67665 42980 01004 10160 20086 48551
                   333 10262 58011=
201306281500 AAXX 28154 67665 NIL=
201306280900 AAXX 28094 67665 42980 00907 10232 20063 48565
                   333 58004=
201306280600 AAXX 28060 67665 32980 01603 10148 20075 48546
                   333 10277 20075 59002=
201306272100 AAXX 27214 67665 42980 01604 10144 20076 48544 70200
                   333 58005=
201306271800 AAXX 27184 67665 42980 01402 10172 20056 48542
                   333 10277 58001=
201306271500 AAXX 27154 67665 42980 01205 10251 20061 48535
                   333 58004=
201306271200 AAXX 27121 67665 NIL=
201306270900 AAXX 27094 67665 42980 01008 10233 20150 48561
                   333 59007=
201306270600 AAXX 27064 67665 32980 01202 10128 20095 48545
                   333 10260 20//0 59004=
201306261800 AAXX 26184 67665 42980 31203 10193 20125 48544 70200 80002
                   333 10260 59008 83080=
201306261500 AAXX 26154 67665 42980 31204 10237 20099 48539 70100 80002
                   333 59005 83080=
201306261200 AAXX 26124 67665 42980 30305 10248 20098 48546 70200 80002
                   333 59002 83080=
201306260600 AAXX 26060 67665 32980 11203 10135 20101 48550 80001
                   333 10264 20099 59011 81080=
201306251800 AAXX 25184 67665 42980 01404 10160 20096 48547 70200
                   333 59017=
201306251200 AAXX 25121 67665 NIL=
201306250900 AAXX 25094 67665 42580 33407 10201 20103 48573 70222 83100
                   333 59022 83820=
201306250600 AAXX 25064 67665 32980 11405 10124 20099 48558 70200 81030
                   333 10232 20105 59017 81360=
201306241500 AAXX 24154 67665 42780 20910 10210 20085 48559 70200 82100
                   333 59005 82856=
201306241200 AAXX 24124 67665 42680 30909 10222 20091 48569 70200 83100
                   333 59003 83845=
201306240900 AAXX 24094 67665 42680 60912 10189 20102 48592 86101
                   333 58000 86830=
201306240600 AAXX 24064 67665 31380 20903 10115 20102 48572 72840 82731
                   333 10240 20095 82707 81359 81079=
201306240300 AAXX 24034 67665 42980 00904 10090 20075 48554
                   333 59001=
201306232100 AAXX 23214 67665 42980 01305 10123 20084 48573
                   333 58010=
201306231800 AAXX 23184 67665 42980 01005 10153 20089 48572
                   333 10240 58010=
201306231500 AAXX 23154 67665 42980 11009 10210 20116 48564 81030
                   333 58005 81360=
201306231200 AAXX 23124 67665 41680 10810 10216 20115 48572 70500 81100
                   333 58002 81840=
201306230600 AAXX 23064 67665 32980 01005 10129 20094 48579 70200
                   333 10421 20095 59009
                   555 00///=
201306230300 AAXX 23034 67665 42980 01305 10080 20070 48554 70200
                   333 59006=
201306222100 AAXX 22214 67665 42980 01203 10110 20070 48563 70200
                   333 59008=
201306221800 AAXX 22184 67665 41970 01205 10139 20102 48561 70500
                   333 10241 59008=
201306221500 AAXX 22154 67665 42980 00906 10216 20135 48560
                   333 59008=
201306221200 AAXX 22121 67665 42980 01209 10214 20121 48568
                   333 58000=
201306220900 AAXX 22094 67665 42980 00812 10200 20104 48595
                   333 58012=
201306220600 AAXX 22064 67665 32980 01103 10116 20090 48586
                   333 10235 20089 58009=
201306212100 AAXX 21214 67665 NIL=
201306211800 AAXX 21184 67665 42980 01204 10140 20061 48569 70200
                   333 10235 59003=
201306211500 AAXX 21154 67665 42980 01008 10216 20055 48568 70200
                   333 58001=
201306211200 AAXX 21124 67665 42780 10909 10230 20077 48571 70100 81100
                   333 58002 81850=
201306210900 AAXX 21094 67665 42680 40910 10195 20087 48594 84100
                   333 58006 84840=
201306210600 AAXX 21064 67665 32480 11005 10109 20090 48582 81100
                   333 10244 20089 58006 81810=
201306210300 AAXX 21034 67665 42980 01703 10114 20104 48563 70200
                   333 58008 91025=
201306210000 AAXX 21004 67665 42980 01603 10115 20096 48567 70200
                   333 58005=
201306202100 AAXX 20214 67665 42980 01303 10133 20114 48579 70200
                   333 58009 91027=
201306201800 AAXX 20184 67665 NIL=
201306201500 AAXX 20154 67665 NIL=
201306200900 AAXX 20094 67665 42680 20608 10195 20074 48588 82500
                   333 59003 82630=
201306200600 AAXX 20064 67665 32980 21203 10091 20084 48568 82030
                   333 10200 20086 59004 82360=
201306200300 AAXX 20034 67665 NIL=
201306200000 AAXX 20004 67665 NIL=
201306191800 AAXX 19184 67665 42980 71103 10151 20079 48572 87300
                   333 10300 59001 87360=
201306191500 AAXX 19154 67665 42680 71106 10160 20095 48563 87500
                   333 59007 87545=
201306191200 AAXX 19124 67665 42680 71006 10168 20098 48566 87500
                   333 59014 87630=
201306190600 AAXX 19061 67665 32380 71104 10124 20096 48575 86630
                   333 10//0 20085 59007 86708 82360=
201306190300 AAXX 19034 67665 42980 11604 10101 20093 48558 81030
                   333 59008 81360=
201306190000 AAXX 19004 67665 NIL=
201306182100 AAXX 18214 67665 42980 11204 10133 20115 48567 81030
                   333 59021 81360=
201306181800 AAXX 18184 67665 42980 51304 10142 20116 48571 85030
                   333 59019 85360=
201306181500 AAXX 18154 67665 42680 60910 10164 20120 48570 83530
                   333 59017 83630 84360=
201306181200 AAXX 18124 67665 42680 5//// 10177 20095 48581 85100
                   333 59004 85838=
201306180900 AAXX 18094 67665 42580 60910 10170 20070 48599 86800
                   333 59009 86625=
201306180600 AAXX 18064 67665 42980 31104 10110 20084 48581 83030
                   333 10195 20091 59010 83360=
201306180300 AAXX 18034 67665 42980 01206 10110 20096 48567 70200
                   333 59014=
201306180000 AAXX 18004 67665 42980 21005 10127 20110 48573 70200 82030
                   333 59009 82360=
201306172100 AAXX 17214 67665 42980 21004 10144 20117 48589 70111 82030=
201306171800 AAXX 17184 67665 42780 60704 10152 20111 48591 86400
                   333 10195 58010 86456=
201306171500 AAXX 17154 67665 42680 71005 10176 20117 48589 87500
                   333 58018 87540=
201306171200 AAXX 17124 67665 42580 70706 10187 20147 48589 87500
                   333 58021 87630=
201306170900 AAXX 17094 67665 41570 71113 10173 20112 48608 72052 875//
                   333 58025 87622=
201306170600 AAXX 17064 67665 32480 61206 10115 20075 48590 85530
                   333 10250 20095 58023 85610 82360=
201306161500 AAXX 16154 67665 42980 01009 10217 20126 48578 70200
                   333 59032=
201306161200 AAXX 16124 67665 42980 01312 10242 20146 68578 70200
                   333 59027=
201306160900 AAXX 16094 67665 42980 00815 10232 20179 48593
                   333 58021=
201306160600 AAXX 16064 67665 32980 01503 10125 20087 48572
                   333 10262 20089 58022=
201306160000 AAXX 16004 67665 42980 01403 10087 20042 48542 70200
                   333 58003=
201306152100 AAXX 15214 67665 42980 01904 10114 20089 48549 70200
                   333 58003 91023=
201306151800 AAXX 15184 67665 42980 01203 10150 20095 48553 70200
                   333 10262 58009=
201306151200 AAXX 15120 67665 42980 01405 10249 20068 48553 70200
                   333 59003=
201306150900 AAXX 15094 67665 NIL=
201306150600 AAXX 15064 67665 32980 21002 10140 20090 48555 70300
                   333 10263 20//0 59003 82080=
201306150300 AAXX 15034 67665 NIL=
201306141800 AAXX 14184 67665 42980 01203 10148 20071 48545 70200
                   333 10263 59004=
201306141500 AAXX 14154 67665 42980 01104 10237 20089 48545 70200
                   333 59013=
201306140900 AAXX 14094 67665 42980 01206 10215 20096 48573
                   333 59003=
201306140600 AAXX 14064 67665 31970 01502 10135 20088 4855/ 70500
                   333 10250 20/// 59003=
201306140300 AAXX 14034 67665 42980 01104 10116 20099 48542
                   333 59004=
201306140000 AAXX 14004 67665 NIL=
201306132100 AAXX 13214 67665 42980 01403 10141 20105 48552
                   333 59011=
201306131800 AAXX 13184 67665 41970 01202 10149 20082 48549 70500
                   333 10242 59017=
201306131500 AAXX 13154 67665 42980 01205 10227 20096 48547
                   333 59020=
201306131200 AAXX 13121 67665 NIL=
201306130900 AAXX 13094 67665 NIL=
201306130600 AAXX 13064 67665 32980 41503 10136 20090 48560 84030
                   333 10227 20//0 59017 84360=
201306130300 AAXX 13034 67665 42980 21703 10116 20099 48545 70222
                   333 59021=
201306130000 AAXX 13004 67665 NIL=
201306122100 AAXX 12214 67665 42980 31802 10161 20145 48565 70222 83030
                   333 59023 83360=
201306121800 AAXX 12184 67665 42980 71105 10181 20165 48569 87030
                   333 59025 87360=
201306121500 AAXX 12154 67665 42680 50806 10191 20154 48561 81130
                   333 59021 81830 84360=
201306121200 AAXX 12121 67665 42980 60608 10193 20145 48570 86800
                   333 59021 83620 84825=
201306120900 AAXX 12094 67665 41460 80707 10155 20125 48589 75122 887//
                   333 59013 88715=
201306120600 AAXX 12064 67665 32380 61006 10136 48541 86700
                   333 10207 20/// 59018 86709=
201306120300 AAXX 12034 67665 NIL=
201306111800 AAXX 11184 67665 42980 31007 10174 20123 48591 70100 83030
                   333 10207 58018 83360=
201306111500 AAXX 11154 67665 42680 71109 10188 20127 48587 70222 87160
                   333 58018 83835 85360=
201306111200 AAXX 11124 67665 42580 71013 10197 20123 48591 70222 87800
                   333 58031 85625 84828=
201306110900 AAXX 11094 67665 42460 70912 10182 20121 48606 70200 87500
                   333 58033 87615=
201306110600 AAXX 11064 67665 32380 70908 10152 20123 48593 70500 87500
                   333 10289 20/// 58035 87508=
201306110300 AAXX 11034 67665 NIL=
201306101800 AAXX 10184 67665 NIL=
201306101500 AAXX 10154 67665 NIL=
201306101200 AAXX 10124 67665 42680 71006 10168 20098 48566 87500
                   333 59014 87630=
201306100900 AAXX 10094 67665 42980 00913 10250 20129 48585
                   333 58016=
201306100600 AAXX 10064 67665 32980 01202 10135 20084 48558
                   333 10301 20102 58005=
201306091800 AAXX 09184 67665 42980 01603 10169 20096 48555 70200
                   333 10291 58004=
201306091200 AAXX 09121 67665 NIL=
201306090900 AAXX 09094 67665 NIL=
201306090600 AAXX 09064 67665 32980 01502 10136 20110 48554
                   333 10267 20/// 59012=
201306090000 AAXX 09004 67665 42980 01604 10129 20102 48540
                   333 59026=
201306082100 AAXX 08214 67665 42980 01302 10136 20099 48549
                   333 59031=
201306081800 AAXX 08184 67665 42980 01404 10165 20102 48552
                   333 10267 59028=
201306081500 AAXX 08154 67665 42980 01205 10245 20120 48544
                   333 59036=
201306081200 AAXX 08124 67665 42980 01008 10260 20078 48555
                   333 59005=
201306080900 AAXX 08094 67665 42980 00000 10223 20102 48549 70200
                   333 59037 91025=
201306080600 AAXX 08064 67665 32980 01503 10120 20085 48561 70200
                   333 10265 20181 59042=
201306080300 AAXX 08034 67665 42980 01903 10118 20099 48558 70200
                   333 59021=
201306072100 AAXX 07214 67665 42980 01703 10138 20101 48578 70200
                   333 59004=
201306071800 AAXX 07184 67665 42980 00000 10152 20079 48575
                   333 10265 59004=
201306071500 AAXX 07154 67665 42980 01007 10235 20074 48589
                   333 58002=
201306071200 AAXX 07124 67665 42980 01005 10232 20083 48587
                   333 58008=
201306070900 AAXX 07094 67665 41580 10813 10200 20115 48612 81500
                   333 58017 81612=
201306070600 AAXX 07064 67665 32480 10911 10150 20114 48604 81500
                   333 10290 20/// 58028 81610=
201306061800 AAXX 06184 67665 42980 01304 10145 20081 48579 70200
                   333 10290 58017=
201306061500 AAXX 06154 67665 42980 01210 10241 20091 48578 70200
                   333 58023=
201306061200 AAXX 06124 67665 41975 09013 10259 20097 48581 70400
                   333 58022=
201306060900 AAXX 06094 67665 42975 00915 10230 20177 48600
                   333 58025=
201306060600 AAXX 06064 67665 32980 01005 10163 20101 48583
                   333 10270 20/// 58021=
201306060000 AAXX 06004 67665 41970 01404 10139 20119 48566 70500
                   333 58018=
201306052100 AAXX 05214 67665 41970 01501 10155 20130 48570 70200
                   333 58019 91025=
201306051800 AAXX 05184 67665 NIL=
201306051500 AAXX 05154 67665 NIL=
201306051200 AAXX 05124 67665 NIL=
201306050900 AAXX 05094 67665 41970 00905 10240 20135 48578 70500
                   333 58008=
201306050600 AAXX 05064 67665 31970 01202 10149 20092 48562 70500
                   333 10290 20/// 58007=
201306050300 AAXX 05034 67665 NIL=
201306042100 AAXX 04214 67665 NIL=
201306041800 AAXX 04184 67665 42980 01603 10166 20094 48552 70200
                   333 10290 58004=
201306041500 AAXX 04154 67665 42980 00903 10225 20109 48545 70200
                   333 58004=
201306041200 AAXX 04124 67665 42980 0//// 10261 20107 48549 70200
                   333 58001=
201306040900 AAXX 04094 67665 41980 00906 10236 20098 48570 70500
                   333 59006=
201306040600 AAXX 04064 67665 32980 01203 10143 20075 48554
                   333 10276 20//0 59003=
201306040300 AAXX 04034 67665 NIL=
201306040000 AAXX 04004 67665 NIL=
201306032100 AAXX 03214 67665 41970 01003 10135 20104 48542 70500
                   333 59008=
201306031800 AAXX 03184 67665 41970 01103 10160 20116 48545 70500
                   333 10276 59009=
201306031500 AAXX 03154 67665 41975 01206 10255 20186 48548 70500
                   333 59006=
201306031200 AAXX 03121 67665 NIL=
201306030900 AAXX 03094 67665 42960 00907 10228 20100 48567
                   333 58002=
201306030600 AAXX 03064 67665 32980 01403 10130 20070 48556
                   333 10275 20//0 59004=
201306030300 AAXX 03034 67665 42980 01602 10100 20091 48536 70200
                   333 59005=
201306022100 AAXX 02214 67665 42980 01602 10125 20102 48551 70200
                   333 58000=
201306021800 AAXX 02184 67665 41970 01503 10161 20120 48554 70500
                   333 10275 58003=
201306021500 AAXX 02154 67665 41970 00806 10253 20102 48553 70500
                   333 58002=
201306021200 AAXX 02121 67665 42980 01208 10268 20120 48556
                   333 58002=
201306020900 AAXX 02094 67665 42980 00711 10240 20099 48578
                   333 58004=
201306020600 AAXX 02064 67665 32980 01302 10142 20076 48560
                   333 58004=
201306020000 AAXX 02004 67665 NIL=
201306011800 AAXX 01184 67665 42980 01201 10164 20121 48552 70200
                   333 58002=
201306011500 AAXX 01154 67665 42980 01007 10259 20168 48552 70200
                   333 58004=
201306011200 AAXX 01124 67665 42980 01005 10280 20162 48556 70200
                   333 58001=
201306010900 AAXX 01094 67665 42980 00907 10246 20136 48589
                   333 58011=
201306010600 AAXX 01064 67665 32980 01402 10156 20081 48560
                   333 10301 20106 58008=

################################################################################
#  SYNOPS from 67666, Lusaka City Airport (Zambia) | 15-25S | 028-19E | 1280 m
################################################################################
201306302100 AAXX 30214 67666 NIL=
201306301800 AAXX 30184 67666 NIL=
201306301200 AAXX 30120 67666 NIL=
201306300600 AAXX 30061 67666 NIL=
201306292100 AAXX 29214 67666 NIL=
201306291800 AAXX 29184 67666 NIL=
201306291500 AAXX 29154 67666 NIL=
201306291200 AAXX 29120 67666 NIL=
201306290900 AAXX 29094 67666 NIL=
201306290600 AAXX 29060 67666 NIL=
201306281500 AAXX 28154 67666 NIL=
201306280900 AAXX 28094 67666 NIL=
201306280600 AAXX 28064 67666 32980 01205 10176 20070 48545
                   333 10265 20124 59001 555=
201306271500 AAXX 27154 67666 NIL=
201306271200 AAXX 27121 67666 NIL=
201306270600 AAXX 27064 67666 32980 00904 10185 20076 48546
                   333 10250 20120 59004
                   555 00/// 91022=
201306261500 AAXX 26154 67666 NIL=
201306260600 AAXX 26064 67666 32980 20906 10150 20088 48547 82030
                   333 10234 20110 59010 82360
                   555 00/// 91023=
201306251800 AAXX 25184 67666 NIL=
201306251200 AAXX 25121 67666 NIL=
201306250600 AAXX 25064 67666 32980 01207 10144 20094 48555
                   333 10220 20106 59016
                   555 00/// 91024=
201306240600 AAXX 24064 67666 32480 71214 10130 20112 48570 875//
                   333 10248 20097 59004 87615
                   555 00/// 91025=
201306231500 AAXX 23154 67666 NIL=
201306231200 AAXX 23121 67666 NIL=
201306221800 AAXX 22184 67666 NIL=
201306221500 AAXX 22154 67666 NIL=
201306221200 AAXX 22121 67666 NIL=
201306212100 AAXX 21214 67666 NIL=
201306211200 AAXX 21124 67666 42980 01012 10210 20085 48562
                   333 58004 91024=
201306210900 AAXX 21094 67666 42580 20912 10185 20085 48585 82100
                   333 58001 82828 91027=
201306210600 AAXX 21064 67666 32980 00908 10130 20083 48574
                   333 10225 20095 58003
                   555 00/// 91026=
201306210300 AAXX 21034 67666 NIL=
201306210000 AAXX 21004 67666 NIL=
201306201800 AAXX 20184 67666 NIL=
201306201500 AAXX 20154 67666 NIL=
201306201200 AAXX 20124 67666 42980 00910 10215 20055 48559
                   333 59005 91023=
201306200900 AAXX 20094 67666 42580 10912 10180 20066 48583 81100
                   333 58002 81825 91026=
201306200600 AAXX 20064 67666 32980 10904 10/// 20075 48571 81030
                   333 10170 20097 58000 81360
                   555 00/// 91026=
201306200300 AAXX 20034 67666 NIL=
201306200000 AAXX 20004 67666 NIL=
201306190600 AAXX 19064 67666 32480 71204 10121 20099 48570 87500
                   333 10199 20068 59005 87615
                   555 00/// 91025=
201306190000 AAXX 19004 67666 NIL=
201306181500 AAXX 18154 67666 NIL=
201306180600 AAXX 18064 67666 32980 00806 10115 20065 48574
                   333 10205 20090 58011
                   555 00/// 91026=
201306160600 AAXX 16061 67666 NIL=
201306160000 AAXX 16004 67666 NIL=
201306151200 AAXX 15120 67666 NIL=
201306150900 AAXX 15094 67666 NIL=
201306150300 AAXX 15034 67666 NIL=
201306141800 AAXX 14184 67666 NIL=
201306140600 AAXX 14064 67666 32980 00000 10164 20082 48553
                   333 10230 20144 59004
                   555 00/// 91023=
201306140000 AAXX 14004 67666 NIL=
201306131500 AAXX 13154 67666 NIL=
201306131200 AAXX 13121 67666 NIL=
201306130900 AAXX 13094 67666 NIL=
201306130600 AAXX 13064 67666 32980 40605 10135 20097 48554 84030
                   333 10216 20130 59017 84360 91024=
201306130000 AAXX 13004 67666 NIL=
201306121800 AAXX 12184 67666 NIL=
201306121500 AAXX 12154 67666 NIL=
201306121200 AAXX 12121 67666 42580 50908 10195 20099 48563 85200
                   333 59020 85825 91024=
201306120600 AAXX 12064 67666 32480 70908 10132 20110 48570 875//
                   333 10195 20141 59016 87610 91025=
201306120300 AAXX 12034 67666 NIL=
201306111500 AAXX 11154 67666 NIL=
201306111200 AAXX 11124 67666 42580 80912 10180 20090 48582 888//
                   333 58029 83622 85825 91026=
201306110600 AAXX 11064 67666 32480 80910 10140 20114 48586 885//
                   333 10260 20114 58032 88612 91027=
201306110300 AAXX 11034 67666 NIL=
201306101800 AAXX 10184 67666 NIL=
201306101500 AAXX 10154 67666 NIL=
201306100600 AAXX 10064 67666 32980 00705 10155 20096 48553
                   333 10275 20095 58001 91023=
201306091200 AAXX 09121 67666 NIL=
201306090900 AAXX 09094 67666 NIL=
201306090600 AAXX 09064 67666 NIL=
201306082100 AAXX 08214 67666 NIL=
201306081800 AAXX 08184 67666 NIL=
201306081500 AAXX 08154 67666 NIL=
201306081200 AAXX 08124 67666 NIL=
201306071500 AAXX 07154 67666 NIL=
201306070600 AAXX 07064 67666 32480 10912 10143 20111 48587 81500
                   333 10256 20110 58022 81615
                   555 00/// 91029=
201306061200 AAXX 06121 67666 NIL=
201306060900 AAXX 06094 67666 42980 01218 10225 20090 48590
                   333 58022 91027=
201306060600 AAXX 06064 67666 32980 01213 10180 20091 48580
                   333 10266 20150 58020
                   555 00/// 91026=
201306060000 AAXX 06004 67666 NIL=
201306051800 AAXX 05184 67666 NIL=
201306051500 AAXX 05154 67666 NIL=
201306051200 AAXX 05124 67666 NIL=
201306050600 AAXX 05064 67666 32980 00806 10175 20080 48560
                   333 10262 20124 58011 91023=
201306050300 AAXX 05034 67666 NIL=
201306042100 AAXX 04214 67666 NIL=
201306041200 AAXX 04124 67666 42980 00906 10248 20085 48538
                   333 59003 91020=
201306040300 AAXX 04034 67666 NIL=
201306040000 AAXX 04004 67666 NIL=
201306031500 AAXX 03154 67666 NIL=
201306031200 AAXX 03124 67666 42980 01006 10250 20083 48541
                   333 59004 91021=
201306030900 AAXX 03094 67666 42980 01008 10225 20070 48564
                   333 5//// 91024=
201306030600 AAXX 03064 67666 31975 00902 10170 20065 48555 70500
                   333 10260 20090 59005
                   555 00/// 91023=
201306030300 AAXX 03034 67666 NIL=
201306021800 AAXX 02184 67666 NIL=
201306021500 AAXX 02154 67666 NIL=
201306021200 AAXX 02121 67666 NIL=
201306020000 AAXX 02004 67666 NIL=

################################################################################
#  SYNOPS from 67667, Mount Makulu (Zambia) | 15-33S | 028-15E | 1213 m
################################################################################
201306302100 AAXX 30214 67667 NIL=
201306301800 AAXX 30184 67667 NIL=
201306301200 AAXX 30120 67667 NIL=
201306300600 AAXX 30061 67667 NIL=
201306292100 AAXX 29214 67667 NIL=
201306291800 AAXX 29184 67667 NIL=
201306291500 AAXX 29154 67667 NIL=
201306291200 AAXX 29120 67667 NIL=
201306290900 AAXX 29094 67667 NIL=
201306290600 AAXX 29060 67667 NIL=
201306281500 AAXX 28154 67667 NIL=
201306280900 AAXX 28094 67667 NIL=
201306280600 AAXX 28064 67667 32980 03605 10190 20069 48/// 70200
                   333 10275 20110 5////
                   555 00///=
201306271500 AAXX 27154 67667 NIL=
201306271200 AAXX 27121 67667 NIL=
201306270600 AAXX 27064 67667 32980 01807 10205 20089 48/// 70200
                   333 10275 20085 5////
                   555 00///=
201306261500 AAXX 26154 67667 NIL=
201306260600 AAXX 26060 67667 NIL=
201306251800 AAXX 25184 67667 NIL=
201306251200 AAXX 25121 67667 NIL=
201306250600 AAXX 25064 67667 32980 01805 10170 20099 48/// 70200
                   333 10250 20095 5////
                   555 00///=
201306231500 AAXX 23154 67667 NIL=
201306231200 AAXX 23121 67667 NIL=
201306221800 AAXX 22184 67667 NIL=
201306221500 AAXX 22154 67667 NIL=
201306221200 AAXX 22121 67667 NIL=
201306212100 AAXX 21214 67667 NIL=
201306210600 AAXX 21060 67667 NIL=
201306210300 AAXX 21034 67667 NIL=
201306210000 AAXX 21004 67667 NIL=
201306201800 AAXX 20184 67667 NIL=
201306201500 AAXX 20154 67667 NIL=
201306200600 AAXX 20064 67667 32980 01814 10150 20085 48/// 70222
                   333 10205 20085 5////
                   555 00///=
201306200300 AAXX 20034 67667 NIL=
201306200000 AAXX 20004 67667 NIL=
201306190600 AAXX 19064 67667 32680 30000 10140 20110 48/// 83100
                   333 10220 20046 5//// 83830
                   555 00///=
201306190000 AAXX 19004 67667 NIL=
201306181500 AAXX 18154 67667 NIL=
201306180600 AAXX 18064 67667 32680 13614 10140 20074 48/// 70222 81100
                   333 10235 20065 5//// 81830
                   555 00///=
201306160600 AAXX 16061 67667 NIL=
201306160000 AAXX 16004 67667 NIL=
201306151200 AAXX 15120 67667 NIL=
201306150900 AAXX 15094 67667 NIL=
201306150300 AAXX 15034 67667 NIL=
201306141800 AAXX 14184 67667 NIL=
201306140600 AAXX 14064 67667 32980 01803 10185 20085 48/// 70200
                   333 10255 20045 5////
                   555 00///=
201306140000 AAXX 14004 67667 NIL=
201306131500 AAXX 13154 67667 NIL=
201306131200 AAXX 13121 67667 NIL=
201306130900 AAXX 13094 67667 NIL=
201306130600 AAXX 13064 67667 32980 71803 10140 20074 48/// 70222 80008
                   333 10240 20045 87280
                   555 00///=
201306130000 AAXX 13004 67667 NIL=
201306121800 AAXX 12184 67667 NIL=
201306121500 AAXX 12154 67667 NIL=
201306121200 AAXX 12121 67667 NIL=
201306120600 AAXX 12064 67667 32480 73614 10175 20094 48/// 70200 87500
                   333 10265 20140 5//// 87610=
201306120300 AAXX 12034 67667 NIL=
201306111500 AAXX 11154 67667 NIL=
201306111200 AAXX 11124 67667 NIL=
201306110600 AAXX 11064 67667 32680 80914 10160 20106 48/// 70222 885//
                   333 10280 20115 5//// 88620=
201306110300 AAXX 11034 67667 NIL=
201306101800 AAXX 10184 67667 NIL=
201306101500 AAXX 10154 67667 NIL=
201306091200 AAXX 09121 67667 NIL=
201306090900 AAXX 09094 67667 NIL=
201306090600 AAXX 09064 67667 NIL=
201306082100 AAXX 08214 67667 NIL=
201306081800 AAXX 08184 67667 NIL=
201306081500 AAXX 08154 67667 NIL=
201306081200 AAXX 08124 67667 NIL=
201306071500 AAXX 07154 67667 NIL=
201306070600 AAXX 07064 67667 NIL=
201306061200 AAXX 06121 67667 NIL=
201306060600 AAXX 06064 67667 32980 00906 10190 20091 48///
                   333 10295 20089 58018
                   555 00///=
201306060000 AAXX 06004 67667 NIL=
201306051800 AAXX 05184 67667 NIL=
201306051500 AAXX 05154 67667 NIL=
201306051200 AAXX 05124 67667 NIL=
201306050600 AAXX 05064 67667 32980 00905 10190 20086 48///
                   333 10290 20084 58013=
201306050300 AAXX 05034 67667 NIL=
201306042100 AAXX 04214 67667 NIL=
201306041200 AAXX 04124 67667 NIL=
201306040600 AAXX 04064 67667 32980 00903 10195 20087 48///
                   333 10290 20075 59010=
201306040300 AAXX 04034 67667 NIL=
201306040000 AAXX 04004 67667 NIL=
201306031500 AAXX 03154 67667 NIL=
201306031200 AAXX 03121 67667 NIL=
201306030300 AAXX 03034 67667 NIL=
201306021800 AAXX 02184 67667 NIL=
201306021500 AAXX 02154 67667 NIL=
201306021200 AAXX 02121 67667 NIL=
201306020000 AAXX 02004 67667 NIL=

################################################################################
#  SYNOPS from 67673, Petauke (Zambia) | 14-15S | 031-17E | 1035 m
################################################################################
201306302100 AAXX 30214 67673 NIL=
201306301800 AAXX 30184 67673 NIL=
201306301200 AAXX 30120 67673 NIL=
201306300600 AAXX 30061 67673 NIL=
201306292100 AAXX 29214 67673 NIL=
201306291800 AAXX 29184 67673 NIL=
201306291500 AAXX 29154 67673 NIL=
201306291200 AAXX 29120 67673 NIL=
201306290900 AAXX 29094 67673 NIL=
201306290600 AAXX 29060 67673 NIL=
201306281500 AAXX 28154 67673 NIL=
201306281200 AAXX 28124 67673 41975 00902 10270 20060 48562 70500
                   333 58004=
201306280900 AAXX 28094 67673 41975 00502 10250 20070 48577 70500
                   333 58010=
201306280600 AAXX 28064 67673 31975 00903 10220 20074 48575 70500
                   333 10285 20140 58006
                   555 00///=
201306271500 AAXX 27154 67673 NIL=
201306271200 AAXX 27124 67673 41975 00502 10280 20066 48560 70500
                   333 59007=
201306270600 AAXX 27064 67673 31975 00000 10200 20093 48566 70500
                   333 10272 20130 59017
                   555 00///=
201306261500 AAXX 26154 67673 NIL=
201306261200 AAXX 26124 67673 41975 00503 10260 20048 48563 70500
                   333 59001=
201306260900 AAXX 26094 67673 41975 00902 10240 20076 48578 70500
                   333 59015=
201306260600 AAXX 26064 67673 31975 00904 10200 20094 48581 70500
                   333 10265 20120 59005
                   555 00///=
201306251800 AAXX 25184 67673 NIL=
201306251200 AAXX 25124 67673 41975 00502 10258 20058 48564 70500
                   333 59026=
201306250900 AAXX 25094 67673 41675 13506 10234 20073 48588 70500 81100
                   333 59022 81835=
201306250600 AAXX 25064 67673 31975 00805 10190 20092 48584 70500
                   333 10250 20120 59019
                   555 00///=
201306241200 AAXX 24124 67673 41675 50902 10230 20076 48584 70522 82130
                   333 5//// 82835 85360=
201306240600 AAXX 24064 67673 31575 61002 10180 20114 48600 70522
                   333 10250 20130 58004 83820 86360
                   555 00///=
201306231500 AAXX 23154 67673 NIL=
201306231200 AAXX 23121 67673 NIL=
201306221800 AAXX 22184 67673 NIL=
201306221500 AAXX 22154 67673 NIL=
201306221200 AAXX 22121 67673 NIL=
201306212100 AAXX 21214 67673 NIL=
201306211200 AAXX 21124 67673 41675 21004 10244 20074 48589 70500 82100
                   333 59005 82835=
201306210600 AAXX 21064 67673 31575 30906 10169 20109 48601 70500 83100
                   333 10242 20120 83820
                   555 00///=
201306210300 AAXX 21034 67673 NIL=
201306210000 AAXX 21004 67673 NIL=
201306201800 AAXX 20184 67673 NIL=
201306201500 AAXX 20154 67673 NIL=
201306200900 AAXX 20094 67673 42680 60907 10220 20068 48603 86130
                   333 58004 86832 82360=
201306200600 AAXX 20064 67673 32580 60902 10172 20105 48596 81130
                   333 10214 20140 58004 81820 86360
                   555 00///=
201306200300 AAXX 20034 67673 NIL=
201306200000 AAXX 20004 67673 NIL=
201306190900 AAXX 19094 67673 42580 60905 10185 20116 48593 86530
                   333 59020 86625 82360=
201306190600 AAXX 19061 67673 NIL=
201306190000 AAXX 19004 67673 NIL=
201306181500 AAXX 18154 67673 NIL=
201306171200 AAXX 17124 67673 41575 81506 10170 20108 48599 70522 885//
                   333 5////=
201306160600 AAXX 16061 67673 NIL=
201306160000 AAXX 16004 67673 NIL=
201306151200 AAXX 15120 67673 NIL=
201306150900 AAXX 15094 67673 NIL=
201306150300 AAXX 15034 67673 NIL=
201306141800 AAXX 14184 67673 NIL=
201306140600 AAXX 14064 67673 31975 21505 10202 20092 48585 70500 80001
                   333 10260 20123 58006 82080
                   555 00///=
201306140000 AAXX 14004 67673 NIL=
201306131500 AAXX 13154 67673 NIL=
201306131200 AAXX 13121 67673 NIL=
201306130900 AAXX 13094 67673 NIL=
201306130000 AAXX 13004 67673 NIL=
201306121800 AAXX 12184 67673 NIL=
201306121500 AAXX 12154 67673 41575 60901 10220 20085 48574 70522 81130
                   333 59037 81830 86360
                   555 10250=
201306121200 AAXX 12124 67673 41675 50501 10235 20085 48581 70522 83130
                   333 59032 83835 85360=
201306120600 AAXX 12064 67673 31575 31504 10170 20108 48592 70500 83530
                   333 10194 20140 59024 83620 82360
                   555 00///=
201306120300 AAXX 12034 67673 NIL=
201306111500 AAXX 11154 67673 41575 61005 10164 20124 48598 70522 86530
                   333 58031 86630 84360
                   555 10194=
201306111200 AAXX 11124 67673 41575 71504 10180 20127 48600 70522 875//
                   333 58036 87632=
201306110600 AAXX 11064 67673 31575 50902 10160 20126 48612 70500 85530
                   333 10270 20120 58041 85625 84360
                   555 00///=
201306110300 AAXX 11034 67673 NIL=
201306101800 AAXX 10184 67673 NIL=
201306101500 AAXX 10154 67673 41975 00904 10220 20054 48580 70500
                   333 5////=
201306101200 AAXX 10124 67673 41975 00906 10255 20035 48577 70500
                   333 5////=
201306100600 AAXX 10064 67673 31975 00603 10220 20074 48585 70500
                   333 10280 20140 58015
                   555 00///=
201306091200 AAXX 09121 67673 NIL=
201306090900 AAXX 09094 67673 NIL=
201306090600 AAXX 09064 67673 31975 00201 10190 20092 48566 70500
                   333 10270 20150 59014
                   555 00///=
201306082100 AAXX 08214 67673 NIL=
201306081800 AAXX 08184 67673 NIL=
201306081500 AAXX 08154 67673 NIL=
201306081200 AAXX 08124 67673 NIL=
201306071500 AAXX 07154 67673 41975 00701 10230 20074 48590 70500
                   333 59010 555 10255=
201306070600 AAXX 07064 67673 31575 20904 10180 20111 48612 70500 82100
                   333 10280 20130 58019 82825
                   555 00///=
201306061200 AAXX 06121 67673 NIL=
201306060600 AAXX 06064 67673 31975 00903 10200 20125 48603 70500
                   333 10283 20138 58019
                   555 00///=
201306060000 AAXX 06004 67673 NIL=
201306051800 AAXX 05184 67673 NIL=
201306051500 AAXX 05154 67673 41975 01401 10256 20099 48572 70500
                   333 58011 555 10283=
201306051200 AAXX 05124 67673 41975 00902 10280 20088 48575 70500
                   333 58011=
201306050600 AAXX 05064 67673 31975 00504 10220 20109 48588 70500
                   333 10280 20145 58009
                   555 00///=
201306050300 AAXX 05034 67673 NIL=
201306042100 AAXX 04214 67673 NIL=
201306041200 AAXX 04124 67673 41975 00802 10278 20083 48564 70500
                   333 59004=
201306040600 AAXX 04064 67673 31975 00702 10210 20085 48578 70500
                   333 10295 20140 59004
                   555 00///=
201306040300 AAXX 04034 67673 NIL=
201306040000 AAXX 04004 67673 NIL=
201306031500 AAXX 03154 67673 41975 00901 10250 20066 48556 70500
                   333 5////=
201306031200 AAXX 03121 67673 41975 00902 10280 20062 48568 70500
                   333 5////=
201306030600 AAXX 03064 67673 31975 00101 10220 20074 48584 70500
                   333 10280 20145 58001
                   555 00///=
201306030300 AAXX 03034 67673 NIL=
201306021800 AAXX 02184 67673 NIL=
201306021500 AAXX 02154 67673 NIL=
201306021200 AAXX 02121 67673 NIL=
201306020600 AAXX 02064 67673 31975 01502 10205 20072 48581 70500
                   333 10295 20140 58005
                   555 00///=
201306020000 AAXX 02004 67673 NIL=

################################################################################
#  SYNOPS from 67731, Senanga (Zambia) | 16-06S | 023-16E | 1027 m
################################################################################
201306302100 AAXX 30214 67731 NIL=
201306301800 AAXX 30184 67731 NIL=
201306301200 AAXX 30120 67731 NIL=
201306300600 AAXX 30061 67731 NIL=
201306292100 AAXX 29214 67731 NIL=
201306291800 AAXX 29184 67731 NIL=
201306291500 AAXX 29154 67731 NIL=
201306291200 AAXX 29120 67731 NIL=
201306290900 AAXX 29094 67731 NIL=
201306290600 AAXX 29060 67731 NIL=
201306281500 AAXX 28154 67731 NIL=
201306280900 AAXX 28094 67731 NIL=
201306280600 AAXX 28064 67731 32980 033// 10158 20081 48///
                   333 10306 20100 5////
                   555 00///=
201306271500 AAXX 27154 67731 NIL=
201306271200 AAXX 27121 67731 NIL=
201306261500 AAXX 26154 67731 NIL=
201306260600 AAXX 26060 67731 NIL=
201306251800 AAXX 25184 67731 NIL=
201306251200 AAXX 25121 67731 NIL=
201306250600 AAXX 25064 67731 32980 020// 10151 20091 48///
                   333 10289 20104 5////
                   555 00///=
201306240600 AAXX 24064 67731 32980 333// 10124 20070 48/// 80008
                   333 10286 20089 5//// 83080
                   555 00///=
201306231500 AAXX 23154 67731 NIL=
201306231200 AAXX 23121 67731 NIL=
201306221800 AAXX 22184 67731 NIL=
201306221500 AAXX 22154 67731 NIL=
201306221200 AAXX 22121 67731 NIL=
201306212100 AAXX 21214 67731 NIL=
201306210600 AAXX 21060 67731 NIL=
201306210300 AAXX 21034 67731 NIL=
201306210000 AAXX 21004 67731 NIL=
201306201800 AAXX 20184 67731 NIL=
201306201500 AAXX 20154 67731 NIL=
201306200600 AAXX 20064 67731 NIL=
201306200300 AAXX 20034 67731 NIL=
201306200000 AAXX 20004 67731 NIL=
201306190600 AAXX 19064 67731 32980 009// 10138 20068 48///
                   333 10250 20070 5////
                   555 00///=
201306190000 AAXX 19004 67731 NIL=
201306181500 AAXX 18154 67731 NIL=
201306180600 AAXX 18064 67731 32980 609// 10121 20104 48/// 86030
                   333 10255 20090 5//// 86361
                   555 00///=
201306160600 AAXX 16061 67731 NIL=
201306160000 AAXX 16004 67731 NIL=
201306151200 AAXX 15120 67731 NIL=
201306150900 AAXX 15094 67731 NIL=
201306150300 AAXX 15034 67731 NIL=
201306141800 AAXX 14184 67731 NIL=
201306140600 AAXX 14064 67731 32980 018// 10131 20089 48///
                   333 20088 5//// 555 00///=
201306140000 AAXX 14004 67731 NIL=
201306131500 AAXX 13154 67731 NIL=
201306131200 AAXX 13121 67731 NIL=
201306130900 AAXX 13094 67731 NIL=
201306130000 AAXX 13004 67731 NIL=
201306121800 AAXX 12184 67731 NIL=
201306121500 AAXX 12154 67731 NIL=
201306121200 AAXX 12121 67731 NIL=
201306120600 AAXX 12064 67731 32980 009// 10136 20080 48///
                   333 10269 20111 5////
                   555 00///=
201306120300 AAXX 12034 67731 NIL=
201306111500 AAXX 11154 67731 NIL=
201306111200 AAXX 11124 67731 NIL=
201306110300 AAXX 11034 67731 NIL=
201306101800 AAXX 10184 67731 NIL=
201306101500 AAXX 10154 67731 NIL=
201306100600 AAXX 10064 67731 32980 018// 10139 20034 48///
                   333 10305 20105 5////=
201306091200 AAXX 09121 67731 NIL=
201306090900 AAXX 09094 67731 NIL=
201306090600 AAXX 09064 67731 NIL=
201306082100 AAXX 08214 67731 NIL=
201306081800 AAXX 08184 67731 NIL=
201306081500 AAXX 08154 67731 NIL=
201306081200 AAXX 08124 67731 NIL=
201306071500 AAXX 07154 67731 NIL=
201306070600 AAXX 07064 67731 32980 009// 10166 20060 48///
                   333 10300 20125 5////
                   555 00///=
201306061200 AAXX 06121 67731 NIL=
201306060600 AAXX 06064 67731 32980 009// 10170 20080 48///
                   333 10300 20125 5////
                   555 00///=
201306060000 AAXX 06004 67731 NIL=
201306051800 AAXX 05184 67731 NIL=
201306051500 AAXX 05154 67731 NIL=
201306051200 AAXX 05124 67731 NIL=
201306050600 AAXX 05064 67731 32980 036// 10176 20071 48///
                   333 10315 20190 5////
                   555 00///=
201306050300 AAXX 05034 67731 NIL=
201306042100 AAXX 04214 67731 NIL=
201306041200 AAXX 04124 67731 NIL=
201306040600 AAXX 04064 67731 32980 009// 10164 20064 48///
                   333 10305 20095 5////=
201306040300 AAXX 04034 67731 NIL=
201306040000 AAXX 04004 67731 NIL=
201306031500 AAXX 03154 67731 NIL=
201306031200 AAXX 03121 67731 NIL=
201306030900 AAXX 03094 67731 42980 036// 10268 20100 48///
                   333 5////=
201306030600 AAXX 03064 67731 32980 036// 10167 20091 48///
                   333 10303 20110 555 00///=
201306030300 AAXX 03034 67731 NIL=
201306021800 AAXX 02184 67731 NIL=
201306021500 AAXX 02154 67731 NIL=
201306021200 AAXX 02121 67731 NIL=
201306020000 AAXX 02004 67731 NIL=

################################################################################
#  SYNOPS from 67741, Sesheke (Zambia) | 17-28S | 024-18E | 949 m
################################################################################
201306302100 AAXX 30214 67741 NIL=
201306301800 AAXX 30184 67741 NIL=
201306301200 AAXX 30120 67741 NIL=
201306300600 AAXX 30061 67741 NIL=
201306292100 AAXX 29214 67741 NIL=
201306291800 AAXX 29184 67741 NIL=
201306291500 AAXX 29154 67741 NIL=
201306291200 AAXX 29120 67741 NIL=
201306290900 AAXX 29094 67741 NIL=
201306290600 AAXX 29060 67741 NIL=
201306281500 AAXX 28154 67741 NIL=
201306280900 AAXX 28094 67741 NIL=
201306280600 AAXX 28060 67741 NIL=
201306271500 AAXX 27154 67741 NIL=
201306271200 AAXX 27121 67741 NIL=
201306261500 AAXX 26154 67741 NIL=
201306260600 AAXX 26060 67741 NIL=
201306251800 AAXX 25184 67741 NIL=
201306251200 AAXX 25121 67741 NIL=
201306231500 AAXX 23154 67741 NIL=
201306231200 AAXX 23121 67741 NIL=
201306221800 AAXX 22184 67741 NIL=
201306221500 AAXX 22154 67741 NIL=
201306221200 AAXX 22121 67741 NIL=
201306212100 AAXX 21214 67741 NIL=
201306210600 AAXX 21060 67741 NIL=
201306210300 AAXX 21034 67741 NIL=
201306210000 AAXX 21004 67741 NIL=
201306201800 AAXX 20184 67741 NIL=
201306201500 AAXX 20154 67741 NIL=
201306200600 AAXX 20064 67741 NIL=
201306200300 AAXX 20034 67741 NIL=
201306200000 AAXX 20004 67741 NIL=
201306190600 AAXX 19061 67741 NIL=
201306190000 AAXX 19004 67741 NIL=
201306181500 AAXX 18154 67741 NIL=
201306160600 AAXX 16061 67741 NIL=
201306160000 AAXX 16004 67741 NIL=
201306151200 AAXX 15120 67741 NIL=
201306150900 AAXX 15094 67741 NIL=
201306150300 AAXX 15034 67741 NIL=
201306141800 AAXX 14184 67741 NIL=
201306140000 AAXX 14004 67741 NIL=
201306131500 AAXX 13154 67741 NIL=
201306131200 AAXX 13121 67741 NIL=
201306130900 AAXX 13094 67741 NIL=
201306130000 AAXX 13004 67741 NIL=
201306121800 AAXX 12184 67741 NIL=
201306121500 AAXX 12154 67741 NIL=
201306121200 AAXX 12121 67741 NIL=
201306120600 AAXX 12064 67741 NIL=
201306120300 AAXX 12034 67741 NIL=
201306111500 AAXX 11154 67741 NIL=
201306111200 AAXX 11124 67741 NIL=
201306110300 AAXX 11034 67741 NIL=
201306101800 AAXX 10184 67741 NIL=
201306101500 AAXX 10154 67741 NIL=
201306091200 AAXX 09121 67741 NIL=
201306090900 AAXX 09094 67741 NIL=
201306090600 AAXX 09064 67741 NIL=
201306082100 AAXX 08214 67741 NIL=
201306081800 AAXX 08184 67741 NIL=
201306081500 AAXX 08154 67741 NIL=
201306081200 AAXX 08124 67741 NIL=
201306071500 AAXX 07154 67741 NIL=
201306070600 AAXX 07064 67741 NIL=
201306061200 AAXX 06121 67741 NIL=
201306060000 AAXX 06004 67741 NIL=
201306051800 AAXX 05184 67741 NIL=
201306051500 AAXX 05154 67741 NIL=
201306051200 AAXX 05124 67741 NIL=
201306050600 AAXX 05064 67741 NIL=
201306050300 AAXX 05034 67741 NIL=
201306042100 AAXX 04214 67741 NIL=
201306041200 AAXX 04124 67741 NIL=
201306040300 AAXX 04034 67741 NIL=
201306040000 AAXX 04004 67741 NIL=
201306031500 AAXX 03154 67741 NIL=
201306031200 AAXX 03121 67741 NIL=
201306030300 AAXX 03034 67741 NIL=
201306021800 AAXX 02184 67741 NIL=
201306021500 AAXX 02154 67741 NIL=
201306021200 AAXX 02121 67741 NIL=
201306020000 AAXX 02004 67741 NIL=

################################################################################
#  SYNOPS from 67743, Livingstone (Zambia) | 17-49S | 025-49E | 985 m
################################################################################
201306302100 AAXX 30214 67743 NIL=
201306301800 AAXX 30184 67743 NIL=
201306301500 AAXX 30154 67743 42980 01206 10270 20054 48557
                   333 58005 555 10281 91021=
201306301200 AAXX 30124 67743 42980 01207 10270 20068 48566
                   333 58008 91022=
201306300900 AAXX 30094 67743 42980 01006 10242 20062 48584
                   333 58007 91025=
201306300600 AAXX 30064 67743 32980 00000 10119 20064 48556
                   333 10285 20068 58015
                   555 91024=
201306292100 AAXX 29214 67743 NIL=
201306291800 AAXX 29184 67743 NIL=
201306291500 AAXX 29154 67743 42980 01006 10265 20068 48553
                   333 58009 555 10285 91020=
201306291200 AAXX 29124 67743 42980 00503 10275 20056 48560
                   333 58011 91021=
201306290900 AAXX 29094 67743 NIL=
201306290600 AAXX 29064 67743 32980 00000 10125 20055 48545
                   333 10284 20094 555 00040 91023=
201306281500 AAXX 28154 67743 42980 01105 10270 20049 48544
                   333 58005 555 10284 91019=
201306281200 AAXX 28124 67743 42980 00905 10271 20046 48548
                   333 58002 555 91020=
201306280900 AAXX 28094 67743 42980 00809 10235 20064 48564
                   333 58000=
201306280600 AAXX 28064 67743 32980 00102 10109 20064 48530
                   333 10285 20065 58000
                   555 00/// 91021=
201306271500 AAXX 27154 67743 42980 01808 10270 20062 48541
                   333 58000=
201306271200 AAXX 27124 67743 41975 01203 10270 20062 48548 70500
                   333 59005 555 91019=
201306270900 AAXX 27094 67743 41975 01803 10230 20104 48564 70500
                   333 59036 555 91022=
201306270600 AAXX 27064 67743 32980 00902 10120 20093 48536
                   333 10279 20072 59007
                   555 91021=
201306261500 AAXX 26154 67743 42980 11806 10265 20081
                   333 59007 81080=
201306261200 AAXX 26124 67743 42980 31807 10260 20090 48549 83011
                   333 59002 81360 82080 91020=
201306260900 AAXX 26094 67743 42980 42204 10217 20092 48564 83031
                   333 59011 83360 81080 91023=
201306260600 AAXX 26064 67743 32980 40000 10119 20111 48540 82031
                   333 10270 20/// 59011 82360 82080 91022=
201306251800 AAXX 25184 67743 NIL=
201306251500 AAXX 25154 67743 41975 12604 10251 20069 48545 70500 81030
                   333 59013 81360 555 10270 91019=
201306251200 AAXX 25124 67743 41975 10903 10256 20067 48551 70500 81030
                   333 59015 81360 91020=
201306250600 AAXX 25064 67743 34980 00904 10112 20089 48550
                   333 10269 20085 59014 91024=
201306241500 AAXX 24154 67743 42980 01206 10251 20087 48555
                   333 59011 555 10269 91021=
201306241200 AAXX 24124 67743 42980 10508 10255 20067 48563 80001
                   333 59011 81080 91022=
201306240900 AAXX 24094 67743 42980 10812 10225 20081 48592 81001
                   333 59005 81080 91026=
201306240600 AAXX 24064 67743 32980 10903 10121 20089 48575 81030
                   333 10260 20088 59005 81360
                   555 91025=
201306231500 AAXX 23154 67743 NIL=
201306231200 AAXX 23124 67743 42980 00910 10252 20092 48576
                   333 59004 555 91023=
201306230900 AAXX 23094 67743 42980 00911 10220 20086 48596
                   333 59008 555 91026=
201306230600 AAXX 23064 67743 32980 00805 10130 20061 48572
                   333 10245 20075 59009
                   555 00///=
201306221800 AAXX 22184 67743 NIL=
201306221500 AAXX 22154 67743 42980 01008 10230 20089 48564
                   333 59004 555 10245 91022=
201306221200 AAXX 22124 67743 42980 01208 10/// 20089 48576
                   333 58003 91024=
201306220900 AAXX 22094 67743 42780 11010 10200 20094 48560 81100
                   333 58005 91027=
201306220600 AAXX 22064 67743 32980 00000 10115 20075 48576
                   333 10259 20076 58005
                   555 91027=
201306212100 AAXX 21214 67743 NIL=
201306210600 AAXX 21064 67743 32980 00802 10119 20065 48571
                   333 10348 20078 58000=
201306210300 AAXX 21034 67743 NIL=
201306210000 AAXX 21004 67743 NIL=
201306201800 AAXX 20184 67743 NIL=
201306201500 AAXX 20154 67743 NIL=
201306200900 AAXX 20094 67743 42780 10912 10200 20073 48592 70200 81100
                   333 58004 81850 91027=
201306200600 AAXX 20064 67743 31975 01703 10099 20065 48567 70500
                   333 10236 20056 59002
                   555 00/// 91026=
201306200300 AAXX 20034 67743 NIL=
201306200000 AAXX 20004 67743 NIL=
201306191500 AAXX 19154 67743 42980 01207 10220 20082 48562
                   333 59010 555 91022=
201306191200 AAXX 19124 67743 42980 00909 10225 20085 48572
                   333 59013=
201306190900 AAXX 19094 67743 42680 20909 10195 20075 48592 82100
                   333 59017 82845 555 91026=
201306190600 AAXX 19064 67743 32980 01205 10105 20062 48571
                   333 10/// 20056 59015
                   555 00/// 91026=
201306190000 AAXX 19004 67743 NIL=
201306181500 AAXX 18154 67743 42980 00910 10220 20036 48572
                   333 59017 555 10236 91024=
201306181200 AAXX 18124 67743 42980 00910 10220 20049 48581
                   333 59011 91025=
201306180900 AAXX 18094 67743 42980 11011 10192 20056 48605 81030
                   333 59009 81358 91028=
201306180600 AAXX 18064 67743 32980 70908 10136 20056 48591 875//
                   333 10247 20095 59018 87625=
201306170900 AAXX 17094 67743 42980 01007 10204 20069 48615 70200 80210
                   555 91029=
201306170600 AAXX 17064 67743 32980 00901 10119 20065 48591 70200
                   333 10266 20079 58031 91029=
201306161500 AAXX 16154 67743 42980 01008 10/// 20033 48580
                   333 58030 555 91024=
201306161200 AAXX 16124 67743 42980 01011 10259 20030 48584
                   333 58027 555 91024=
201306160900 AAXX 16094 67743 42980 01009 10229 21019 48599
                   333 58022 555 91027=
201306160600 AAXX 16064 67743 32980 00902 10112 20017 48561
                   333 10281 20061 58014
                   555 91025=
201306160000 AAXX 16004 67743 NIL=
201306151500 AAXX 15154 67743 41975 01004 10272 20030 48555 70500
                   333 58009 555 10281 91021=
201306151200 AAXX 15124 67743 42980 01504 10282 20061 48562
                   333 58004 91021=
201306150900 AAXX 15094 67743 42980 01203 10231 20058 48578
                   333 58004 91024=
201306150300 AAXX 15034 67743 NIL=
201306141800 AAXX 14184 67743 NIL=
201306141500 AAXX 14154 67743 42980 00906 10258 20088 48547
                   333 59007 555 10275 91020=
201306141200 AAXX 14124 67743 42980 02606 10266 20075 48556
                   333 59004 91021=
201306140900 AAXX 14094 67743 42980 01704 10235 20085 48574
                   333 59007=
201306140600 AAXX 14064 67743 32980 00000 10110 20071 48544
                   333 10260 20/// 59008
                   555 00/// 91023=
201306140000 AAXX 14004 67743 NIL=
201306131500 AAXX 13154 67743 NIL=
201306131200 AAXX 13124 67743 42980 00903 10247 20086 48557 70200
                   333 59021 91021=
201306131020 AAXX 13104 67743 42980 02006 10253 20097 48550 70200 91020=
201306130900 AAXX 13094 67743 NIL=
201306130600 AAXX 13064 67743 32980 20000 10109 20080 48550 70200 82030
                   333 10249 20068 59019 82360 91024=
201306130000 AAXX 13004 67743 NIL=
201306121800 AAXX 12184 67743 NIL=
201306121500 AAXX 12154 67743 42780 31308 10228 20095 48562 83100
                   333 59022 83855=
201306121200 AAXX 12124 67743 42680 51204 10224 20106 48561 85100
                   333 59021 85845 555 91024=
201306120900 AAXX 12094 67743 42980 11210 10212 20117 48592 81030
                   333 59022 81360 555 91027=
201306120600 AAXX 12064 67743 32980 10904 10125 20105 48572 81030
                   333 10270 20090 59002 81360
                   555 91026=
201306120300 AAXX 12034 67743 NIL=
201306111500 AAXX 11154 67743 NIL=
201306111200 AAXX 11124 67743 42780 30908 10246 20105 48599 83100
                   333 58020 83856 555 91026=
201306110600 AAXX 11064 67743 32980 01208 10120 20093 48591
                   333 10291 20106 58032 91028=
201306110300 AAXX 11034 67743 NIL=
201306101800 AAXX 10184 67743 NIL=
201306101500 AAXX 10154 67743 NIL=
201306100900 AAXX 10094 67743 42980 01406 10213 20029 48588
                   333 58021 91026=
201306091200 AAXX 09124 67743 42980 01404 10297 20061 48563 70200=
201306091020 AAXX 09104 67743 42980 01702 10292 20062 48556 70200 91020=
201306090900 AAXX 09094 67743 42980 02002 10264 20073 48578 70200=
201306090600 AAXX 09064 67743 32980 00701 10109 20068 48559 70200
                   333 10280 20057 59018 91022=
201306082100 AAXX 08214 67743 NIL=
201306081800 AAXX 08184 67743 NIL=
201306081500 AAXX 08154 67743 42980 01803 10262 20065 48550
                   333 59035 555 10280 91020=
201306081200 AAXX 08124 67743 42980 01804 10266 20189 48550
                   333 59033 555 91021=
201306080900 AAXX 08094 67743 42980 02603 10234 20136 48579
                   333 59036 555 91024=
201306080600 AAXX 08064 67743 32980 00000 10110 20081 48510
                   333 10314 59032=
201306071500 AAXX 07154 67743 42980 01007 10260 20130 48572
                   333 59006 555 91023=
201306071200 AAXX 07124 67743 42980 00911 10270 2012/ 48595
                   333 58011 555 91025=
201306070900 AAXX 07094 67743 42980 01011 10280 20094 48626
                   333 58018 555 91028=
201306070600 AAXX 07064 67743 32980 01204 10145 20078 48591
                   333 10297 20105 58019
                   555 91028=
201306061200 AAXX 06124 67743 42980 00912 10285 20074 48585
                   333 58015 91024=
201306060900 AAXX 06094 67743 42980 01208 10252 20093
                   333 58018 91026=
201306060600 AAXX 06064 67743 32980 01004 10125 20055 48572
                   333 10293 20080 58021=
201306060000 AAXX 06004 67743 NIL=
201306051800 AAXX 05184 67743 NIL=
201306051500 AAXX 05154 67743 42975 00908 10278 20060 48564 70200
                   333 58022 91021=
201306051200 AAXX 05124 67743 42973 01008 10288 20054 48570 70500
                   333 58020 91022=
201306050900 AAXX 05094 67743 42980 00809 10258 20073 48585 70500
                   333 58017 91024=
201306050600 AAXX 05064 67743 32980 00000 10114 20062 48548 70200
                   333 10301 20073 58014
                   555 91024=
201306050300 AAXX 05034 67743 NIL=
201306042100 AAXX 04214 67743 NIL=
201306041500 AAXX 04154 67743 42980 00906 10291 20066 48567
                   333 59000 555 10301 91019=
201306041200 AAXX 04124 67743 42980 00905 10300 20060 48554
                   333 59003 91020=
201306040900 AAXX 04094 67743 42980 01105 10252 20066 48567
                   333 59007 555 91022=
201306040600 AAXX 04064 67743 32980 00000 10101 20076 48533
                   333 10300 20055 59010 91022=
201306040300 AAXX 04034 67743 NIL=
201306040000 AAXX 04004 67743 NIL=
201306031500 AAXX 03154 67743 42980 00806 10285 20036 48545
                   333 59001 555 91019=
201306031200 AAXX 03124 67743 42980 01804 10290 20040 48555
                   333 58001 555 91020=
201306031023 AAXX 03104 67743 42980 02403 10235 20085 48572 91023=
201306030600 AAXX 03064 67743 32980 02703 10130 20080 48550
                   333 10310 20068 58000
                   555 00/// 91023=
201306030300 AAXX 03034 67743 NIL=
201306021800 AAXX 02184 67743 NIL=
201306021500 AAXX 02154 67743 42980 01206 10294 20068 48546
                   333 58001 555 10310 91019=
201306021200 AAXX 02124 67743 42980 00000 10301 20070 48553
                   333 58003 91020=
201306020000 AAXX 02004 67743 NIL=
201306011500 AAXX 01154 67743 42980 20907 10295 20065 48547 80001
                   333 58002 82080 555 10315 91019=
201306011200 AAXX 01124 67743 42980 00905 10310 20063 48555
                   333 59001 91010=
201306010600 AAXX 01064 67743 43980 00000 10150 20085 48549
                   333 10316 20090 58008=

################################################################################
#  SYNOPS from 67751, Magoye (Zambia) | 16-00S | 027-36E | 1018 m
################################################################################
201306302100 AAXX 30214 67751 NIL=
201306301800 AAXX 30184 67751 NIL=
201306301200 AAXX 30120 67751 NIL=
201306300600 AAXX 30061 67751 NIL=
201306292100 AAXX 29214 67751 NIL=
201306291800 AAXX 29184 67751 NIL=
201306291500 AAXX 29154 67751 NIL=
201306291200 AAXX 29120 67751 NIL=
201306290900 AAXX 29094 67751 NIL=
201306290600 AAXX 29060 67751 NIL=
201306281500 AAXX 28154 67751 NIL=
201306280900 AAXX 28094 67751 NIL=
201306280600 AAXX 28060 67751 NIL=
201306271500 AAXX 27154 67751 NIL=
201306271200 AAXX 27121 67751 NIL=
201306261500 AAXX 26154 67751 NIL=
201306260600 AAXX 26060 67751 NIL=
201306251800 AAXX 25184 67751 NIL=
201306251200 AAXX 25121 67751 NIL=
201306231500 AAXX 23154 67751 NIL=
201306231200 AAXX 23121 67751 NIL=
201306221800 AAXX 22184 67751 NIL=
201306221500 AAXX 22154 67751 NIL=
201306221200 AAXX 22121 67751 NIL=
201306212100 AAXX 21214 67751 NIL=
201306210600 AAXX 21060 67751 NIL=
201306210300 AAXX 21034 67751 NIL=
201306210000 AAXX 21004 67751 NIL=
201306201800 AAXX 20184 67751 NIL=
201306201500 AAXX 20154 67751 NIL=
201306200600 AAXX 20064 67751 NIL=
201306200300 AAXX 20034 67751 NIL=
201306200000 AAXX 20004 67751 NIL=
201306190600 AAXX 19064 67751 32980 00704 10145 20104 48///
                   333 10211 20055 58010
                   555 00///=
201306190000 AAXX 19004 67751 NIL=
201306181500 AAXX 18154 67751 NIL=
201306180600 AAXX 18064 67751 32980 01503 10136 20090 48///
                   333 10235 20083 58012
                   555 00///=
201306160600 AAXX 16061 67751 NIL=
201306160000 AAXX 16004 67751 NIL=
201306151200 AAXX 15120 67751 NIL=
201306150900 AAXX 15094 67751 NIL=
201306150300 AAXX 15034 67751 NIL=
201306141800 AAXX 14184 67751 NIL=
201306140600 AAXX 14064 67751 32980 01602 10130 20072 48///
                   333 10255 20059 58008
                   555 00///=
201306140000 AAXX 14004 67751 NIL=
201306131500 AAXX 13154 67751 NIL=
201306131200 AAXX 13121 67751 NIL=
201306130900 AAXX 13094 67751 NIL=
201306130000 AAXX 13004 67751 NIL=
201306121800 AAXX 12184 67751 NIL=
201306121500 AAXX 12154 67751 NIL=
201306121200 AAXX 12121 67751 NIL=
201306120600 AAXX 12064 67751 32980 00705 10140 20110 48///
                   333 10237 20060 58020=
201306120300 AAXX 12034 67751 NIL=
201306111500 AAXX 11154 67751 NIL=
201306111200 AAXX 11124 67751 NIL=
201306110600 AAXX 11064 67751 32480 21508 10160 20106 48/// 82500
                   333 10282 20092 59040 82611=
201306110300 AAXX 11034 67751 NIL=
201306101800 AAXX 10184 67751 NIL=
201306101500 AAXX 10154 67751 NIL=
201306100600 AAXX 10064 67751 32980 01504 10130 20063 48///
                   333 10286 20050 59004=
201306091200 AAXX 09121 67751 NIL=
201306090900 AAXX 09094 67751 NIL=
201306090600 AAXX 09064 67751 NIL=
201306082100 AAXX 08214 67751 NIL=
201306081800 AAXX 08184 67751 NIL=
201306081500 AAXX 08154 67751 NIL=
201306081200 AAXX 08124 67751 NIL=
201306071500 AAXX 07154 67751 NIL=
201306070600 AAXX 07064 67751 32980 00908 10169 20116
                   333 10279 20084 59018
                   555 00///=
201306061200 AAXX 06121 67751 NIL=
201306060000 AAXX 06004 67751 NIL=
201306051800 AAXX 05184 67751 NIL=
201306051500 AAXX 05154 67751 NIL=
201306051200 AAXX 05124 67751 NIL=
201306050600 AAXX 05064 67751 32980 00000 10165 20084 48///
                   333 10289 20065 59009=
201306050300 AAXX 05034 67751 NIL=
201306042100 AAXX 04214 67751 NIL=
201306041200 AAXX 04124 67751 NIL=
201306040300 AAXX 04034 67751 NIL=
201306040000 AAXX 04004 67751 NIL=
201306031500 AAXX 03154 67751 NIL=
201306031200 AAXX 03121 67751 NIL=
201306030300 AAXX 03034 67751 NIL=
201306021800 AAXX 02184 67751 NIL=
201306021500 AAXX 02154 67751 NIL=
201306021200 AAXX 02121 67751 NIL=
201306020000 AAXX 02004 67751 NIL=

################################################################################
#  SYNOPS from 67753, Choma (Zambia) | 16-50S | 027-04E | 1213 m
################################################################################
201306302100 AAXX 30214 67753 NIL=
201306301800 AAXX 30184 67753 NIL=
201306301200 AAXX 30120 67753 NIL=
201306300600 AAXX 30061 67753 NIL=
201306292100 AAXX 29214 67753 NIL=
201306291800 AAXX 29184 67753 NIL=
201306291500 AAXX 29154 67753 NIL=
201306291200 AAXX 29120 67753 NIL=
201306290900 AAXX 29094 67753 NIL=
201306290600 AAXX 29060 67753 NIL=
201306281500 AAXX 28154 67753 NIL=
201306280900 AAXX 28094 67753 NIL=
201306280600 AAXX 28064 67753 31960 01504 10136 20074 48/// 70500
                   333 10259 20061 5////
                   555 00///=
201306271500 AAXX 27154 67753 NIL=
201306271200 AAXX 27121 67753 NIL=
201306270600 AAXX 27064 67753 31960 00000 10143 20111 48/// 70500
                   333 10263 20071 5////
                   555 00///=
201306261500 AAXX 26154 67753 NIL=
201306260600 AAXX 26060 67753 NIL=
201306251800 AAXX 25184 67753 NIL=
201306251200 AAXX 25121 67753 NIL=
201306250600 AAXX 25064 67753 31960 00508 10151 20105 48/// 70500
                   333 10237 20081 5////
                   555 00///=
201306231500 AAXX 23154 67753 NIL=
201306231200 AAXX 23121 67753 NIL=
201306221800 AAXX 22184 67753 NIL=
201306221500 AAXX 22154 67753 NIL=
201306221200 AAXX 22121 67753 NIL=
201306212100 AAXX 21214 67753 NIL=
201306210600 AAXX 21060 67753 NIL=
201306210300 AAXX 21034 67753 NIL=
201306210000 AAXX 21004 67753 NIL=
201306201800 AAXX 20184 67753 NIL=
201306201500 AAXX 20154 67753 NIL=
201306200600 AAXX 20064 67753 NIL=
201306200300 AAXX 20034 67753 NIL=
201306200000 AAXX 20004 67753 NIL=
201306190600 AAXX 19064 67753 31560 10608 10121 20084 48/// 70500 81100
                   333 10194 20026 5//// 81830
                   555 00///=
201306190000 AAXX 19004 67753 NIL=
201306181500 AAXX 18154 67753 NIL=
201306180600 AAXX 18064 67753 31560 10610 10140 20089 48/// 70500 81100
                   333 10214 20046 5//// 81830
                   555 00///=
201306170600 AAXX 17064 67753 31960 00906 10127 20099 48/// 70522
                   333 10235 20041 5////
                   555 00///=
201306160600 AAXX 16061 67753 NIL=
201306160000 AAXX 16004 67753 NIL=
201306151200 AAXX 15120 67753 NIL=
201306150900 AAXX 15094 67753 NIL=
201306150300 AAXX 15034 67753 NIL=
201306141800 AAXX 14184 67753 NIL=
201306140600 AAXX 14064 67753 31960 01006 10141 20085 48/// 70500
                   333 10227 20050 5////
                   555 00///=
201306140000 AAXX 14004 67753 NIL=
201306131500 AAXX 13154 67753 NIL=
201306131200 AAXX 13121 67753 NIL=
201306130900 AAXX 13094 67753 NIL=
201306130600 AAXX 13064 67753 31960 70504 10134 20114 48/// 70500 87030
                   333 10221 20070 5//// 87360
                   555 00///=
201306130000 AAXX 13004 67753 NIL=
201306121800 AAXX 12184 67753 NIL=
201306121500 AAXX 12154 67753 NIL=
201306121200 AAXX 12121 67753 NIL=
201306120600 AAXX 12064 67753 31560 10908 10129 20109 48/// 70500 81500
                   333 10219 20075 5//// 81620=
201306120300 AAXX 12034 67753 NIL=
201306111500 AAXX 11154 67753 NIL=
201306111200 AAXX 11124 67753 NIL=
201306110600 AAXX 11064 67753 31560 60808 10126 20117 48/// 70522 865//
                   333 10239 20070 5//// 86620=
201306110300 AAXX 11034 67753 NIL=
201306101800 AAXX 10184 67753 NIL=
201306101500 AAXX 10154 67753 NIL=
201306100600 AAXX 10064 67753 31960 02304 10142 20082 48/// 70500
                   333 10269 20066 5////
                   555 00///=
201306091200 AAXX 09121 67753 NIL=
201306090900 AAXX 09094 67753 NIL=
201306090600 AAXX 09064 67753 NIL=
201306082100 AAXX 08214 67753 NIL=
201306081800 AAXX 08184 67753 NIL=
201306081500 AAXX 08154 67753 NIL=
201306071500 AAXX 07154 67753 NIL=
201306070600 AAXX 07064 67753 NIL=
201306061200 AAXX 06121 67753 NIL=
201306060600 AAXX 06064 67753 31960 01104 10164 20086 48/// 70500
                   333 10276 20056 5////
                   555 00///=
201306060000 AAXX 06004 67753 NIL=
201306051800 AAXX 05184 67753 NIL=
201306051500 AAXX 05154 67753 NIL=
201306051200 AAXX 05124 67753 NIL=
201306050600 AAXX 05064 67753 31960 01304 10151 20075 48/// 70500
                   333 10275 20045 5////
                   555 00///=
201306050300 AAXX 05034 67753 NIL=
201306042100 AAXX 04214 67753 NIL=
201306041200 AAXX 04124 67753 NIL=
201306040600 AAXX 04064 67753 31960 01404 10154 20078 48/// 70500
                   333 10271 20044 5////=
201306040300 AAXX 04034 67753 NIL=
201306040000 AAXX 04004 67753 NIL=
201306031500 AAXX 03154 67753 NIL=
201306031200 AAXX 03121 67753 NIL=
201306030600 AAXX 03064 67753 31960 00606 10183 20069 48/// 70500
                   333 10275 20064 5////
                   555 00///=
201306030300 AAXX 03034 67753 NIL=
201306021800 AAXX 02184 67753 NIL=
201306021500 AAXX 02154 67753 NIL=
201306021200 AAXX 02121 67753 NIL=
201306020000 AAXX 02004 67753 NIL=

################################################################################
#  SYNOPS from 67855, Lupaki (Zambia) | 17-03-00S | 024-46-00E | 1000 m
################################################################################
201306301200 AAXX 30124 67855 NIL=
201306300600 AAXX 30064 67855 NIL=
201306291200 AAXX 29124 67855 NIL=
201306290600 AAXX 29064 67855 NIL=
201306281800 AAXX 28184 67855 NIL=
201306281200 AAXX 28124 67855 42975 13502 10290 20134 38/// 48/// 81030
                   333 5//// 81360=
201306271800 AAXX 27184 67855 NIL=
201306270600 AAXX 27064 67855 NIL=
201306261200 AAXX 26124 67855 NIL=
201306260600 AAXX 26064 67855 NIL=
201306251800 AAXX 25184 67855 NIL=
201306251200 AAXX 25124 67855 42975 03603 10254 20100 3//// 48///
                   333 5////=
201306250600 AAXX 25064 67855 31970 00000 10070 20053 38/// 48/// 70500
                   333 20049=
201306241800 AAXX 24184 67855 NIL=
201306241200 AAXX 24124 67855 42975 13602 10250 20103 38/// 48/// 81030
                   333 5//// 81360=
201306240600 AAXX 24064 67855 31970 01901 10078 20061 3//// 48/// 70500
                   333 20050 5////=
201306231800 AAXX 23184 67855 NIL=
201306231200 AAXX 23124 67855 NIL=
201306230600 AAXX 23064 67855 31970 01101 10052 20023 3//// 48/// 70500
                   333 20030 5////=
201306221800 AAXX 22184 67855 NIL=
201306221200 AAXX 22124 67855 42975 01802 10236 20088 3//// 48///
                   333 5////=
201306220600 AAXX 22064 67855 31970 01801 10064 20018 38/// 48/// 70500
                   333 20026 5////=
201306211200 AAXX 21124 67855 42980 01304 10250 20135 38/// 48///
                   333 5////=
201306210600 AAXX 21064 67855 NIL=
201306201200 AAXX 20124 67855 NIL=
201306200600 AAXX 20064 67855 31970 01301 10052 20008 3//// 48/// 70500
                   333 20005 5////=
201306191800 AAXX 19184 67855 NIL=
201306191200 AAXX 19124 67855 NIL=
201306181200 AAXX 18124 67855 NIL=
201306171800 AAXX 17184 67855 NIL=
201306171200 AAXX 17124 67855 NIL=
201306170600 AAXX 17064 67855 31970 01801 10078 20065 3//// 48/// 70500
                   333 20045 5////=
201306161800 AAXX 16184 67855 NIL=
201306161200 AAXX 16124 67855 NIL=
201306160600 AAXX 16064 67855 31970 00603 10104 20009 3//// 48/// 70500
                   333 20023 5////=
201306151800 AAXX 15184 67855 NIL=
201306150600 AAXX 15064 67855 NIL=
201306141800 AAXX 14184 67855 NIL=
201306141200 AAXX 14124 67855 42975 02002 10262 20121 3//// 48///
                   333 5////=
201306140600 AAXX 14064 67855 NIL=
201306131800 AAXX 13184 67855 NIL=
201306131200 AAXX 13124 67855 NIL=
201306121800 AAXX 12184 67855 NIL=
201306121200 AAXX 12124 67855 NIL=
201306120600 AAXX 12064 67855 NIL=
201306111200 AAXX 11124 67855 NIL=
201306110600 AAXX 11064 67855 NIL=
201306101800 AAXX 10184 67855 NIL=
201306101200 AAXX 10124 67855 NIL=
201306100600 AAXX 10064 67855 31970 00905 10134 20083 3//// 48/// 70500
                   333 20044 5////=
201306091800 AAXX 09184 67855 NIL=
201306091200 AAXX 09124 67855 42975 02004 10286 20043 3//// 48///
                   333 5////=
201306090600 AAXX 09064 67855 31970 00000 10076 20030 3//// 48/// 70500
                   333 20036 5////=
201306081800 AAXX 08184 67855 NIL=
201306081200 AAXX 08124 67855 42975 00902 10270 20109 3//// 48///
                   333 5////=
201306080600 AAXX 08064 67855 31970 00000 10070 20039 3//// 48/// 70500
                   333 20030 5////=
201306071800 AAXX 07184 67855 NIL=
201306071200 AAXX 07124 67855 42975 00303 10266 20139 3//// 48///
                   333 5////=
201306070600 AAXX 07064 67855 NIL=
201306061800 AAXX 06184 67855 NIL=
201306061200 AAXX 06124 67855 42980 00605 10302 20063 38/// 48///
                   333 5////=
201306060600 AAXX 06064 67855 32975 00603 10100 20010 38/// 48///
                   333 20052 5////=
201306051800 AAXX 05184 67855 NIL=
201306051200 AAXX 05124 67855 42975 00302 10304 20075 38/// 48///
                   333 5////=
201306050600 AAXX 05064 67855 32975 00000 10082 20015 38/// 48///
                   333 20020 5////=
201306041800 AAXX 04184 67855 NIL=
201306041200 AAXX 04124 67855 NIL=
201306040600 AAXX 04064 67855 32975 00000 10070 20043 3//// 48///
                   333 20045 5////=
201306031800 AAXX 03184 67855 NIL=
201306031200 AAXX 03124 67855 NIL=
201306030600 AAXX 03064 67855 32975 01301 10080 20009 3//// 48///
                   333 20030 5////=
201306021200 AAXX 02124 67855 42975 03303 10300 20080 3//// 48///
                   333 5////=
201306020600 AAXX 02064 67855 32975 00000 10070 20024 38/// 48///
                   333 20023 5////=
201306011200 AAXX 01124 67855 42975 13504 10290 20090 38/// 48/// 80001
                   333 5//// 81080=
201306010600 AAXX 01064 67855 32980 01401 10100 20035 38/// 48///
                   333 20044 5////=
