################################################################################
# Query made at 04/15/2022 01:42:52 UTC
# Country like Zamb*
# Time interval: from 06/01/2011 05:30  to 07/01/2011 06:30  UTC
################################################################################

################################################################################
#  SYNOPS from 67403, Kawambwa (Zambia) | 09-48S | 029-05E | 1323 m
################################################################################
201107010600 AAXX 01064 67403 32980 10901 10142 20085 48555 80001
                   333 10290 20079 58000=
201106300600 AAXX 30064 67403 32980 30902 10156 20091 48556 80001
                   333 10291 20081 58002 83080=
201106280600 AAXX 28064 67403 32980 30902 10164 20110 48556 80001
                   333 10285 20094 58004 83080=

################################################################################
#  SYNOPS from 67413, Mbala (Zambia) | 08-51S | 031-20E | 1673 m
################################################################################
201106290600 AAXX 29064 67413 32980 21410 10165 20113 48546 80001
                   333 10265 20110 58005 82080=

################################################################################
#  SYNOPS from 67441, Mwinilunga (Zambia) | 11-45S | 024-26E | 1361 m
################################################################################
201107010600 AAXX 01064 67441 31960 00000 10075 20061 48563 70500
                   333 10280 20//0 59002=
201106300900 AAXX 30094 67441 14965 00603 10250 20083 48578 70500
                   333 58005=
201106300600 AAXX 30064 67441 31960 00000 10110 20101 48571 70500
                   333 10280 20/// 58007=
201106290600 AAXX 29064 67441 31960 10000 10095 20078 48564 70500 80008
                   333 10295 20//0 58006 81280=
201106280600 AAXX 28064 67441 32960 10000 10085 20080 48558 70500 80004
                   333 10265 20/// 59010 81080=
201106240600 AAXX 24064 67441 31960 00000 10095 20075 48555 70500
                   333 10265 20//0 59006=
201106230600 AAXX 23064 67441 31960 00000 10100 20090 48561 70500
                   333 10270 20//0 59008=
201106160600 AAXX 16064 67441 31960 20000 10112 20078 48572 70500
                   333 10270 20/// 59003 82080=
201106140600 AAXX 14064 67441 31965 00000 10115 20076 48583 70500
                   333 10274 20/// 59007=
201106130900 AAXX 13094 67441 41965 01203 10245 20087 48594 70500
                   333 5////=
201106100600 AAXX 10064 67441 11/01 90000 10130 20130 48560 60054 70544 89///
                   333 10260 20/// 58006=
201106080600 AAXX 08064 67441 31960 00000 10135 20118 48553 70500
                   333 10300 20//0 58000=
201106060900 AAXX 06094 67441 42680 30000 10246 20110 48561 83100
                   333 5//// 83840=
201106030600 AAXX 03064 67441 31970 10000 10155 20130 48568 70500 8104/
                   333 10275 20/// 58005 81360=
201106010600 AAXX 01064 67441 31965 70000 10140 20131 48570 70522 8703/
                   333 10290 20//0 58000 87369=

################################################################################
#  SYNOPS from 67461, Mansa (Zambia) | 11-06S | 028-51E | 1382 m
################################################################################
201107010600 AAXX 01064 67461 31970 00802 10145 20079 48543 70500
                   333 10281 20045 58005=
201106300600 AAXX 30064 67461 31975 40902 10140 20104 48538 70500 80001
                   333 10282 20080 58002 84080=
201106291200 AAXX 29124 67461 41975 30805 10273 20094 48530 70500 80001
                   333 58010 83080=
201106280600 AAXX 28064 67461 31965 40803 10144 20120 48532 70500 80001
                   333 10272 20087 59007 84080=
201106240600 AAXX 24064 67461 31970 00902 10155 20131 48520 70500
                   333 10276 20097 59009=
201106200600 AAXX 20064 67461 31975 00905 10150 20119 48535 70500
                   333 10256 20091 59007=
201106160600 AAXX 16064 67461 31980 00703 10129 20105 48535 70500
                   333 10257 20067 59011=
201106100600 AAXX 10064 67461 32980 41204 10190 20169 48520 84030
                   333 10290 20141 59002 84362=
201106070600 AAXX 07064 67461 32980 21202 10195 20136 48523 70200 80001
                   333 10298 20110 59007 82080=
201106010600 AAXX 01064 67461 32980 61402 10200 20169 48530 70222 80008
                   333 10301 20130 59010 86280=

################################################################################
#  SYNOPS from 67475, Kasama (Zambia) | 10-13S | 031-08E | 1382 m
################################################################################
201107010600 AAXX 01064 67475 31970 00302 10182 20075 48549 70500
                   333 10269 20070 59003=
201106300600 AAXX 30064 67475 NIL=
201106280600 AAXX 28064 67475 31970 60304 10187 20116 48543 70522 80002
                   333 10266 20094 59001 86280=
201106230600 AAXX 23064 67475 31970 31206 10177 20102 48536 72842 80002
                   333 10248 20107 59007 83080=
201106160600 AAXX 16064 67475 31970 00102 10160 20086 48546 70500
                   333 10253 20078 59013=
201106140600 AAXX 14064 67475 31975 01006 10164 20088 48570 70500
                   333 10258 20122 58009=

################################################################################
#  SYNOPS from 67476, Misamfu (Zambia) | 10-06S | 031-15E | 1536 m
################################################################################
201107010600 AAXX 01064 67476 32980 00903 10178 20176 48///
                   333 10267 20069 59006=
201106300600 AAXX 30064 67476 32980 00903 10182 20101 48///
                   333 10269 20108 58003=
201106280600 AAXX 28064 67476 32980 10904 10191 20125 48/// 81030
                   333 10273 20110 5//// 81360=
201106200600 AAXX 20064 67476 32980 00905 10172 20126 48///
                   333 10283 20076 58002=
201106170600 AAXX 17064 67476 32980 10159 20103 48///
                   333 10263 20062 59013=
201106140600 AAXX 14064 67476 32980 00905 10154 20102 48///
                   333 10296 20088 5////=

################################################################################
#  SYNOPS from 67477, Mpika (Zambia) | 11-54S | 031-26E | 1400 m
################################################################################
201107010600 AAXX 01064 67477 31975 01103 10164 20068 48549 70500
                   333 10247 20051 59005=
201106300600 AAXX 30064 67477 32980 01002 10151 20075 48553
                   333 10247 20045 58011=
201106291200 AAXX 29124 67477 42980 11003 10242 20080 48530 80001
                   333 58007 81080=
201106280600 AAXX 28064 67477 31975 21205 10156 20103 48543 70500 80001
                   333 10245 20081 59007 82080=
201106240900 AAXX 24094 67477 42780 10802 10237 20082 48531 81100
                   333 59002 81856=
201106200900 AAXX 20094 67477 42680 10908 10214 20116 48544 81100
                   333 5//// 81838=
201106200600 AAXX 20064 67477 32480 11105 10164 20115 48545 81100
                   333 10224 20099 59011 81818=
201106170600 AAXX 17064 67477 32980 00903 10165 20084 48542
                   333 10232 20084 59009=
201106160600 AAXX 16064 67477 32980 01202 10157 20089 48550
                   333 10224 20069 59012=
201106100600 AAXX 10064 67477 32980 31102 10204 20141 48532 83030
                   333 10285 20136 58005 83361=
201106030600 AAXX 03064 67477 32480 41205 10179 20139 48556 845//
                   333 10248 20132 58013 84615=

################################################################################
#  SYNOPS from 67481, Isoka (Zambia) | 10-07S | 032-38E | 1360 m
################################################################################
201107010600 AAXX 01064 67481 31975 01201 10192 20084 70500
                   333 10266 20060 5////=
201106300600 AAXX 30064 67481 32975 01201 10195 20108 48///
                   333 10263 20085 5////=
201106280600 AAXX 28064 67481 31975 00902 10167 20130 48/// 70500
                   333 10263 20089 5////=

################################################################################
#  SYNOPS from 67531, Zambezi (Zambia) | 13-32S | 023-07E | 1077 m
################################################################################
201107010600 AAXX 01064 67531 31950 01202 10100 20067 48/// 70500
                   333 10290 20036 59001=
201106300900 AAXX 30094 67531 41970 00905 10240 20091 48/// 70500
                   333 58010=
201106300600 AAXX 30064 67531 31950 01504 10116 20086 48/// 70500
                   333 10296 20061 58009=
201106291200 AAXX 29124 67531 41975 11504 10291 20074 48/// 70500 80001
                   333 58003 81082=
201106290900 AAXX 29094 67531 41970 11305 10251 20089 48/// 80001
                   333 58001=
201106280900 AAXX 28094 67531 41965 30605 10235 20062 48/// 70500 80001
                   333 5//// 83082=
201106280600 AAXX 28064 67531 31950 10000 10091 20041 48/// 70500 80001
                   333 10262 20013 59016 81082=
201106240900 AAXX 24094 67531 41970 02102 10246 20084 48/// 70500
                   333 59001=
201106220900 AAXX 22094 67531 41980 01204 10237 20116
                   333 58001=
201106200600 AAXX 20064 67531 31975 01203 10126 20090 48/// 70500
                   333 10275 20082 59001=
201106171200 AAXX 17124 67531 42980 01103 10270 20112 48///
                   333 59004=
201106170600 AAXX 17064 67531 32980 00904 10132 20083 48///
                   333 10273 20030 59010=
201106160900 AAXX 16094 67531 41976 10905 10231 20069 48/// 70500 80001
                   333 59008 81082=
201106160600 AAXX 16064 67531 31978 11502 10115 20088 48/// 70500 80001
                   333 10265 20044 59003 81082=
201106130900 AAXX 13094 67531 42980 01105 10234 20081 48///
                   333 5////=
201106100600 AAXX 10064 67531 32980 01304 10150 20087 48///
                   333 10280 20076 59006=
201106070600 AAXX 07064 67531 32980 00902 10166 20139 48///
                   333 10295 20093 59015=
201106060900 AAXX 06094 67531 42890 10603 10261 20142 48/// 80001
                   333 5//// 81082=
201106030600 AAXX 03064 67531 32980 11303 10156 20124 48/// 81030
                   333 10290 20075 5//// 81361=
201106011200 AAXX 01124 67531 42980 11804 10290 20071 48/// 80002
                   333 58017 81080=
201106010600 AAXX 01064 67531 32980 11804 10155 20082 48/// 80002
                   333 10317 20095 58016 81082=

################################################################################
#  SYNOPS from 67541, Kasempa (Zambia) | 13-32S | 025-51E | 1234 m
################################################################################
201106300600 AAXX 30064 67541 NIL=
201106280600 AAXX 28064 67541 NIL=
201106160600 AAXX 16064 67541 NIL=

################################################################################
#  SYNOPS from 67551, Solwezi (Zambia) | 12-11S | 026-23E | 1386 m
################################################################################
201107010600 AAXX 01064 67551 31957 00000 10075 20073 48542 70500
                   333 10270 20045 59003=
201106300600 AAXX 30064 67551 31920 00000 10112 20089 48538 70500
                   333 10281 20068 58009=
201106280600 AAXX 28064 67551 31958 00903 10131 20072 48535 70500
                   333 10266 20057 58000=
201106170600 AAXX 17064 67551 31958 01304 10101 20071 48542 70500
                   333 10255 20040 59006=

################################################################################
#  SYNOPS from 67561, Ndola (Zambia) | 13-00S | 028-39E | 1269 m
################################################################################
201107010600 AAXX 01064 67561 31958 00000 10123 20077 48542 70500
                   333 10282 20055 59007=
201106300600 AAXX 30064 67561 31959 00000 10124 20073 48549 70400
                   333 10286 20059 58014=
201106291200 AAXX 29124 67561 41960 01805 10284 20061 48530 70500
                   333 58006=
201106280600 AAXX 28064 67561 31956 30000 10123 20070 48537 70400 80002
                   333 10275 20060 58000 83080=
201106230600 AAXX 23064 67561 31960 10000 10140 20104 48528 70500 81030
                   333 10274 20078 59015 81360=
201106220900 AAXX 22094 67561 41675 10000 10234 20099 48548 70500 81100
                   333 58001 81830=
201106171200 AAXX 17124 67561 41975 01206 10256 20079 48524 70500
                   333 59003=
201106170600 AAXX 17064 67561 31930 00000 10122 20082 48536 70400
                   333 10269 20071 59008 91022=
201106160600 AAXX 16064 67561 31958 00000 10115 20082 48543 70400
                   333 10253 20048 59010=
201106140600 AAXX 14064 67561 31960 00905 10155 20090 48565 70500
                   333 10276 20080 58003=
201106100600 AAXX 10064 67561 31958 70000 10175 20142 48532 70422 87030
                   333 10282 20135 58001 87360=
201106070600 AAXX 07064 67561 31970 00404 10166 20119 48538 70500
                   333 10278 20109=
201106040600 AAXX 04064 67561 31970 40000 10167 20138 48551 73811 80002
                   333 10266 20110 59004 84080=

################################################################################
#  SYNOPS from 67563, Kafironda (Zambia) | 12-36S | 028-07E | 1243 m
################################################################################
201107010600 AAXX 01064 67563 31970 00000 10066 20046 48/// 70500
                   333 10284 20011 59005=
201106300600 AAXX 30064 67563 31970 01201 10096 20070 48/// 70500
                   333 10292 20019 58012=
201106240600 AAXX 24064 67563 31970 00000 10110 20090 48/// 70500
                   333 10273 20040 59002=
201106230600 AAXX 23064 67563 31970 00201 10099 20090 48/// 70500
                   333 10275 20042 59003=
201106200600 AAXX 20064 67563 32980 10301 10104 20100 48/// 70500 81030
                   333 10264 20040 59010 81360=

################################################################################
#  SYNOPS from 67571, Serenje (Zambia) | 13-14S | 030-13E | 1384 m
################################################################################
201106240900 AAXX 24094 67571 41579 12406 10239 20049 48524 70500 81100
                   333 58002 81825=
201106130900 AAXX 13094 67571 41980 01203 10211 20081 48572 70500
                   333 58014=
201106060900 AAXX 06094 67571 42580 73602 10264 20096 48534 82108
                   333 59003 82825 87281=
201106011200 AAXX 01124 67571 41680 70210 10265 20086 48535 70522 84138
                   333 58010 84840 81361 87281=
201106010600 AAXX 01064 67571 32975 70902 10212 20144 48542 70522 82038
                   333 10293 20142 58000 82359 87280=

################################################################################
#  SYNOPS from 67575, Mkushi (Zambia) | 13-38S | 029-53E | 1237 m
################################################################################
201107010600 AAXX 01064 67575 31975 00000 10092 20062 48495 70500
                   333 10275 20033 59005=

################################################################################
#  SYNOPS from 67580, Msekera (Zambia) | 13-39S | 032-34E | 1025 m
################################################################################
201107010600 AAXX 01064 67580 32977 01103 10194 20087 48///
                   333 10285 20//0 59010=
201106300600 AAXX 30064 67580 32980 01102 10185 20088 48///
                   333 10283 20/// 58003=
201106291200 AAXX 29124 67580 42980 70000 10265 20093 48/// 80008
                   333 58006 87281=
201106290900 AAXX 29094 67580 42980 61607 10243 20089 48/// 80001
                   333 58000=
201106290600 AAXX 29064 67580 32980 60904 10174 20100 48/// 80008
                   333 10286 20//0 58004 86280=
201106280600 AAXX 28064 67580 32980 71606 10185 20112 48/// 80008
                   333 10272 20122 59003 87280=
201106240900 AAXX 24094 67580 42680 33006 10249 20112 48/// 83100
                   333 59004 83838=
201106240600 AAXX 24064 67580 32980 00000 10190 20136 48///
                   333 10274 20112 59010=
201106230600 AAXX 23064 67580 32980 31604 10180 20124 48/// 83030
                   333 10270 20118 59016 83360=
201106200900 AAXX 20094 67580 42680 61205 10234 20126 48/// 86200
                   333 59008 86835=
201106200600 AAXX 20064 67580 32980 00000 10186 20134 48///
                   333 10250 20118 59013=
201106160600 AAXX 16064 67580 32980 00902 10184 20124 48///
                   333 10269 20097 5////=
201106141200 AAXX 14124 67580 42982 01509 10244 20058 48///
                   333 5////=
201106140600 AAXX 14064 67580 32980 01205 10173 20091 48///
                   333 10265 20113 58001=
201106130900 AAXX 13094 67580 42980 01608 10238 20076 48///
                   333 58028=

################################################################################
#  SYNOPS from 67581, Chipata (Zambia) | 13-33S | 032-35E | 1028 m
################################################################################
201107010600 AAXX 01064 67581 32980 01205 10191 20099 48559 70200
                   333 10280 20115 59011=
201106300600 AAXX 30064 67581 32982 00000 10200 20070 48571
                   333 10291 20080 58010=
201106291200 AAXX 29124 67581 41980 10902 10270 20087 48551 70500 80002
                   333 58005 81080=
201106280600 AAXX 28064 67581 32980 11205 10207 20102 48558 80002
                   333 10275 20100 59005 81080=
201106231200 AAXX 23124 67581 41680 40906 10242 20118 48552 70500 84200
                   333 59012 84836=
201106220900 AAXX 22094 67581 41680 11603 10240 20132 48568 70500 81100
                   333 58002 81835=
201106200600 AAXX 20064 67581 32980 03002 10149 20127 48551
                   333 10268 20127 59011=
201106171200 AAXX 17124 67581 42980 02805 10266 20096 48540
                   333 59001=
201106160600 AAXX 16064 67581 32980 00903 10187 20119 48557
                   333 10260 20088 59016=
201106100600 AAXX 10064 67581 32982 31803 10226 20164 48541 83030
                   333 10280 20182 58004 83360=
201106070600 AAXX 07064 67581 32982 20805 10224 20139 48557 80002
                   333 10290 20190 58000 82080=

################################################################################
#  SYNOPS from 67583, Lundazi (Zambia) | 12-17S | 033-12E | 1143 m
################################################################################
201107010600 AAXX 01064 67583 32980 00000 10142 20102
                   333 10300 20060 5////=
201106300600 AAXX 30064 67583 32980 00902 10165 20100 48///
                   333 10285 20065 5////=
201106280600 AAXX 28064 67583 32980 11201 10180 20139 48/// 80001
                   333 10246 20090 5//// 81080=

################################################################################
#  SYNOPS from 67599, Mfuwe (Zambia) | 13-16S | 031-56E | 568 m
################################################################################
201106301200 AAXX 30124 67599 41970 00000 10295 20114 48566 70500
                   333 59002=
201106291200 AAXX 29124 67599 41970 32705 10310 20126 48574 70500 80001
                   333 58004 83080=
201106290900 AAXX 29094 67599 41970 20105 10265 20126 48479 70500
                   333 58001 82080=
201106290600 AAXX 29064 67599 31958 40000 10158 20109 48557 70500
                   333 10310 20098 58008 84080=
201106280600 AAXX 28064 67599 31975 00000 10145 20119 48544 70500
                   333 10308 20085 59008=
201106200900 AAXX 20094 67599 42580 13005 10259 20149 48579 81230
                   333 59008 81820 81360=
201106180600 AAXX 18064 67599 32980 10000 10164 20122 48564 81030
                   333 10315 20101 58018 81360=
201106171500 AAXX 17154 67599 41980 02403 10280 20136 48552 70500
                   333 58002=
201106171200 AAXX 17124 67599 41980 00505 10295 20128 48560 70500
                   333 59007=
201106170600 AAXX 17064 67599 31980 00000 10161 20116 48547 70500 80000
                   333 10300 20095 59019=
201106160900 AAXX 16094 67599 42680 10808 10245 20136 48584 81100
                   333 59012 81835=
201106160600 AAXX 16064 67599 32980 00000 10155 20111 48561
                   333 10290 20080 59014=
201106111500 AAXX 11154 67599 42980 00000 10314 20151 48550
                   333 58018=
201106101500 AAXX 10154 67599 41775 21806 10305 20179 48530 70400 82030
                   333 59004 82360=
201106081200 AAXX 08124 67599 42980 10325 20168 48548
                   333 59016 91016=
201106080600 AAXX 08064 67599 32980 00000 10209 20156 48562
                   333 10327 20150 58001=
201106070600 AAXX 07064 67599 32980 10000 10205 20166 48558 80001
                   333 10320 20131 58000 81080=
201106060600 AAXX 06064 67599 32980 10000 10200 20141 48558 80001
                   333 10320 20120 59005 81080
                   555 00///=
201106011200 AAXX 01124 67599 42680 40000 10335 20181 48568 83230
                   333 58006 83845 82360=
201106010600 AAXX 01064 67599 32980 10000 10221 20174 48560 81080
                   333 10352 20152 58002 81360=

################################################################################
#  SYNOPS from 67633, Mongu (Zambia) | 15-15S | 023-09E | 1052 m
################################################################################
201107010600 AAXX 01064 67633 31970 20904 10118 20024 48538 70500 80001
                   333 10295 20099 58004 82080=
201106300600 AAXX 30064 67633 31970 00603 10140 20046 48540 70500
                   333 10300 20110 58007=
201106280600 AAXX 28064 67633 31958 11301 10094 20024 48524 70500 80001
                   333 10260 20038 59011 81080=
201106240900 AAXX 24094 67633 41970 03002 10240 20114 48545 70500
                   333 58003=
201106240600 AAXX 24064 67633 31970 00000 10140 20084 48520 70500
                   333 10285 20085 59003=
201106230600 AAXX 23064 67633 31980 00912 10152 20072 48524 70500
                   333 10283 20110 59018=
201106200600 AAXX 20064 67633 31980 00905 10145 20089 48541 70500
                   333 10278 20101 58002=
201106170600 AAXX 17064 67633 31980 00905 10155 20069 48532 70500
                   333 10280 20111 59009 91021=
201106160600 AAXX 16064 67633 31980 00903 10135 20080 48539 70500
                   333 10270 20105 59007=
201106101200 AAXX 10124 67633 42980 02004 10273 20004 48523 70500
                   333 59006=
201106100600 AAXX 10064 67633 31980 01405 10138 20002 48525 70500
                   333 10260 20084 59005=
201106070600 AAXX 07064 67633 32982 10401 10177 20137 48508 81030
                   333 10240 20133 59013 81361=
201106030600 AAXX 03064 67633 32982 00908 10155 20130 48541
                   333 10284 20080 58008=
201106010600 AAXX 01064 67633 32982 11802 10143 20010 48550 70200 80001
                   333 10320 20123 58026 81080=

################################################################################
#  SYNOPS from 67641, Kaoma (Zambia) | 14-48S | 024-48E | 1213 m
################################################################################
201107010600 AAXX 01064 67641 32980 00901 10110 20062 48529
                   333 10289 20049 59007=
201106300600 AAXX 30064 67641 NIL=
201106280600 AAXX 28064 67641 32980 00901 10105 20043 48519
                   333 10274 20025 59012=
201106160600 AAXX 16064 67641 32982 00802 10068 20054 48523
                   333 10267 20050 59012=
201106100600 AAXX 10064 67641 32982 01602 10115 20081 48517
                   333 10286 20065 58006=
201106070600 AAXX 07064 67641 32982 21802 10170 20127 48513 82030
                   333 10294 20120 59009 82360=
201106010600 AAXX 01064 67641 32982 31504 10179 20011 48538 82030
                   333 10317 29124 58011 82360 81080=

################################################################################
#  SYNOPS from 67655, Mumbwa (Zambia) | 15-04S | 027-11E | 1216 m
################################################################################
201107010600 AAXX 01064 67655 31975 00703 10160 20042 48550 70500
                   333 10268 20060 59006=
201106290600 AAXX 29064 67655 31970 00000 10136 20071 48543 70500
                   333 10274 20073 58004=
201106160600 AAXX 16064 67655 32980 00904 10184 20066 48552
                   333 10246 20088 59012=
201106010600 AAXX 01064 67655 32980 20000 10169 20121 48554 80001
                   333 10304 20131 58012 82078=

################################################################################
#  SYNOPS from 67663, Kabwe (Zambia) | 14-27S | 028-28E | 1206 m
################################################################################
201107010600 AAXX 01064 67663 32980 00903 10136 20037 48527
                   333 10265 20070 59021=
201106300600 AAXX 30064 67663 32980 00000 10141 20056 48548
                   333 10262 20097 58006=
201106280600 AAXX 28064 67663 32980 00905 10126 20041 48533
                   333 10258 20090 59010=
201106200900 AAXX 20094 67663 42980 00903 10212 20111 48558
                   333 59010=
201106200600 AAXX 20064 67663 32980 00903 10151 20116 48547
                   333 10250 20100 59010=
201106170600 AAXX 17064 67663 32980 00903 10149 20077 48535
                   333 10245 20075 59004=
201106160600 AAXX 16064 67663 32980 00904 10142 20075 48537
                   333 10242 20066 59014=
201106070600 AAXX 07064 67663 32980 00905 10172 20125 48528
                   333 10280 20130 59005=
201106010600 AAXX 01064 67663 32980 20000 10204 20144 48551 70100 82032
                   333 10300 20142=

################################################################################
#  SYNOPS from 67665, Lusaka Internationalairport (Zambia) | 15-19S | 028-27E | 1152 m
################################################################################
201107010600 AAXX 01064 67665 31960 01592 10128 20081 48551 70500
                   333 10265 20068=
201107010400 AAXX 01044 67665 42980 01702 10055 20044 48530
                   333 59009=
201107010300 AAXX 01034 67665 42980 01603 10064 20042 48528
                   333 59005=
201107010000 AAXX 01004 67665 41970 01804 10083 20049 48535 70500
                   333 59002=
201106302100 AAXX 30214 67665 41970 01603 10094 20041 48547 70500
                   333 59004=
201106301200 AAXX 30124 67665 41970 01305 10255 20035 48556 70500
                   333 58009=
201106300900 AAXX 30094 67665 41970 00906 10227 20044 48526 70500
                   333 58007=
201106300600 AAXX 30064 67665 32970 01603 10139 20084 48559 70500
                   333 10274 20075 58008=
201106291800 AAXX 29184 67665 41960 01403 10150 20085 48546 70500
                   333 10274 58005=
201106291500 AAXX 29154 67665 41960 01410 10243 20071 48541 70500
                   333 58005=
201106291200 AAXX 29124 67665 41960 01305 10264 20077 48547 70500
                   333 58002=
201106290900 AAXX 29094 67665 41960 00808 10219 20047 48567 70500
                   333 58003=
201106290600 AAXX 29064 67665 31959 01206 10143 20081 48552 70500
                   333 10264 20066 58005=
201106290400 AAXX 29044 67665 41960 01604 10077 20056 48534 70500
                   333 58007=
201106282100 AAXX 28214 67665 41960 01604 10097 20076 48539 70500
                   333 58005=
201106281800 AAXX 28184 67665 41960 01404 10145 20080 48541 70500
                   333 10264 58001=
201106281200 AAXX 28124 67665 42965 00507 10255 20069 48544 70500
                   333 59004=
201106280900 AAXX 28094 67665 41980 00609 10222 20077 48564 70500
                   333 59010=
201106280600 AAXX 28064 67665 32980 01503 10119 20080 48545
                   333 10219 20040 59010=
201106271800 AAXX 27184 67665 41959 01404 10135 20056 48537
                   333 59007=
201106271500 AAXX 27154 67665 41959 00306 10231 20040 48536 70500
                   333 59012=
201106271200 AAXX 27124 67665 41970 00605 10240 20003 48546 70500
                   333 59005=
201106270400 AAXX 27044 67665 42980 01402 10046 20001 48534 70200
                   333 59008=
201106270300 AAXX 27034 67665 42980 01401 10059 20035 48534 70200
                   333 59004=
201106270000 AAXX 27004 67665 42980 01702 10076 20000 48537
                   333 59002=
201106262100 AAXX 26214 67665 42980 01603 10080 20012 48542 70200
                   333 59004=
201106261500 AAXX 26154 67665 42980 01107 10216 20012 48543
                   333 58000=
201106261200 AAXX 26124 67665 42980 01106 10231 20006 48542
                   333 58006 91022=
201106260900 AAXX 26094 67665 42980 01307 10221 20005 48574
                   333 58014=
201106260600 AAXX 26064 67665 32980 01402 10126 20032 48562
                   333 10260 20050 58022=
201106251800 AAXX 25184 67665 42980 01608 10156 20076 48549 70200
                   333 10260 58019=
201106251500 AAXX 25154 67665 41975 01509 10229 20049 48542 70500
                   333 58027 555 10260=
201106251200 AAXX 25124 67665 41970 01307 10250 20064 48547 70500
                   333 58020=
201106250900 AAXX 25094 67665 41959 01708 10239 20054 48563 70500 333=
201106250400 AAXX 25044 67665 42980 02101 10094 20074 48527
                   333 58005=
201106250300 AAXX 25034 67665 42980 02001 10103 20008 48570
                   333 58004=
201106250000 AAXX 25004 67665 42980 01903 10091 20080 48522
                   333 58003=
201106242100 AAXX 24214 67665 42980 00000 10123 20095 48537
                   333 58009=
201106241200 AAXX 24124 67665 41970 03004 10258 20069 48528 70500
                   333 59009 91019=
201106240900 AAXX 24094 67665 41970 02603 10230 20107 48548 70500
                   333 59009=
201106240600 AAXX 24064 67665 31970 01602 10137 20103 48536 70500
                   333 10254 20075 59011=
201106231800 AAXX 23184 67665 42980 01405 10147 20130 48530
                   333 10254 59019=
201106231500 AAXX 23154 67665 42980 11204 10229 20087 48527 81030
                   333 59018 81359=
201106231200 AAXX 23124 67665 41680 13602 10237 20089 48534 70511 81100
                   333 59016 81849=
201106230900 AAXX 23094 67665 41670 10906 10208 20114 48554 70411 81100
                   333 59022 81830 91022=
201106230600 AAXX 23064 67665 31959 01504 10135 20099 48547 70500
                   333 10222 20070 59018=
201106230400 AAXX 23044 67665 42980 01903 10077 20075 48532
                   333 59015=
201106222100 AAXX 22214 67665 42980 01703 10110 20110 48544
                   333 59004=
201106221200 AAXX 22124 67665 42670 31604 10221 20108 48548 70500 83100
                   333 59001 83843=
201106220900 AAXX 22094 67665 42980 00808 10201 20125 48574
                   333 58011=
201106220600 AAXX 22064 67665 32980 01305 10127 20104 48562
                   333 10250 20075 58008=
201106211800 AAXX 21184 67665 42980 01404 10141 20086 10250 48550
                   333 58012=
201106211500 AAXX 21154 67665 42980 01208 10226 20071 48548
                   333 58003=
201106210600 AAXX 21064 67665 32980 01404 10136 20100 48555 70500
                   333 10255 20066=
201106210000 AAXX 21004 67665 42980 01803 10103 20094 70200
                   333 58007=
201106201200 AAXX 20124 67665 41680 11308 10240 20080 48546 70500 81100
                   333 59014 81835=
201106200900 AAXX 20094 67665 41580 10909 10218 20116 48572 81100
                   333 59009 81820=
201106200600 AAXX 20064 67665 31975 01603 10134 20112 48556 72840
                   333 10254 20065 59014=
201106191800 AAXX 19184 67665 42980 11304 10145 20136 48555 81030
                   333 10264 58000 81360=
201106191500 AAXX 19154 67665 42680 31108 10217 20126 48551 83100
                   333 58001 83845 555 10264=
201106191200 AAXX 19124 67665 42680 51208 10231 20144 48559 70500 85200
                   333 58003 85830 91023=
201106190600 AAXX 19064 67665 41480 10909 10204 20106 48578 70500 81100
                   333 58007 91025=
201106190400 AAXX 19044 67665 42980 01405 10090 20090 48551
                   333 58013=
201106190300 AAXX 19034 67665 42980 01504 10073 20073 48547
                   333 58016=
201106190000 AAXX 19004 67665 42980 00000 10094 20085 48556
                   333 58017=
201106182100 AAXX 18214 67665 42980 01705 10127 20090 48556
                   333 59005=
201106181800 AAXX 18184 67665 42980 01404 10148 20099 48555
                   333 10260 58010=
201106181200 AAXX 18124 67665 42980 00711 10253 20091 48555
                   333 58014=
201106180900 AAXX 18094 67665 42980 00912 10233 20094 48575 70200
                   333 58008 91024=
201106180600 AAXX 18064 67665 32980 01703 10131 20079 48556 70500
                   333 10261 20066 58007=
201106171800 AAXX 17184 67665 42980 01705 10145 20079 48546
                   333 10261 58008=
201106171500 AAXX 17154 67665 42980 01106 10241 20068 48537
                   333 58002=
201106171200 AAXX 17124 67665 42980 01307 10257 20080 48566
                   333 59003=
201106170900 AAXX 17094 67665 42980 01210 10228 20099 48567
                   333 59002=
201106170600 AAXX 17064 67665 32980 00502 10132 20115 48550
                   333 10247 20055 59005 91023=
201106170400 AAXX 17044 67665 42980 01803 10067 20067 48527
                   333 59010=
201106162100 AAXX 16214 67665 42980 01604 10093 20093 48539
                   333 59011=
201106161800 AAXX 16184 67665 42980 01304 10135 20106 70200
                   333 10247 59017=
201106161500 AAXX 16154 67665 42980 09004 10228 20086 48532 70200
                   333 59012 555 10247=
201106160900 AAXX 16094 67665 42980 01006 10206 20079 48564
                   333 59012=
201106160600 AAXX 16064 67665 32980 01403 10120 20112 48553
                   333 10235 20060 59011=
201106151800 AAXX 15184 67665 42980 01303 10137 20115 48553
                   333 10235 59018=
201106151500 AAXX 15154 67665 42980 01005 10216 20094 48550
                   333 59018=
201106150600 AAXX 15064 67665 32980 01404 10112 20091 48562
                   333 10264 20066 59019=
201106150400 AAXX 15044 67665 42980 01403 10074 20074 48546 70200
                   333 59020=
201106150300 AAXX 15034 67665 42980 01503 10078 20078 48547 70200
                   333 59014=
201106150000 AAXX 15004 67665 42980 00000 10086 20086 48553
                   333 59009=
201106142100 AAXX 14214 67665 42980 01603 10109 20110 48571
                   333 58001=
201106141500 AAXX 14154 67665 42980 10906 10206 20102 48567 70500 81030
                   333 59001 81360=
201106141200 AAXX 14124 67665 42680 11009 10222 20090 48574 81500
                   333 59003 81635=
201106140900 AAXX 14094 67665 42580 10712 10200 20114 48593 81500
                   333 59005 81620=
201106140600 AAXX 14064 67665 21970 01205 10115 20100 48580 70500
                   333 10250 20071 58000=
201106131800 AAXX 13184 67665 42980 01404 10139 20112 48572
                   333 10250 58004=
201106131500 AAXX 13154 67665 42980 00808 10244 20097 48570
                   333 58007 555 10250=
201106131200 AAXX 13124 67665 42980 01009 10244 20085 48580
                   333 58014=
201106130900 AAXX 13094 67665 42980 00811 10219 20118 48601
                   333 58015=
201106130600 AAXX 13064 67665 32980 01306 10130 20082 48583
                   333 10260 20075 58019=
201106130400 AAXX 13044 67665 42980 01404 10104 20085 48566
                   333 58017=
201106130300 AAXX 13034 67665 42980 01603 10087 20068 48558
                   333 58016=
201106130000 AAXX 13004 67665 42980 01605 10105 20065 48560
                   333 58018=
201106122100 AAXX 12214 67665 42980 01503 10106 20085 48568
                   333 58023=
201106120900 AAXX 12094 67665 42980 20909 10219 20085 48586 80001
                   333 58030 82080 91026=
201106120600 AAXX 12064 67665 32980 21702 10130 20112 48565 80001
                   333 10262 20065 58025 82080
                   555 00/// 91025=
201106111500 AAXX 11154 67665 42980 21407 10230 20050 48538 80001
                   333 58018 82080=
201106111200 AAXX 11124 67665 42980 11305 10252 20030 48540 80001
                   333 58000 81080=
201106110600 AAXX 11064 67665 32980 11104 10145 20061 48544 80001
                   333 10270 20060 58006 81080 91022=
201106102100 AAXX 10214 67665 41960 01603 10100 20054 48519 70500
                   333 59003=
201106101800 AAXX 10184 67665 41975 02504 10165 20046 48525 70500
                   333 10270 59004=
201106101500 AAXX 10154 67665 42980 02407 10240 20039 48522
                   333 58003=
201106101200 AAXX 10124 67665 42980 02406 10266 20069 48523 70500
                   333 59002=
201106100600 AAXX 10064 67665 32970 01603 10152 20100 48538 70500
                   333 10280 20096 58005=
201106091500 AAXX 09154 67665 41959 12507 10256 20080 48521 81030
                   333 58010 81360=
201106091200 AAXX 09124 67665 41660 40402 10264 20115 48519 70500 81130
                   333 58007 81845 83360=
201106090600 AAXX 09064 67665 31965 30402 10170 20163 48536 70511 83030
                   333 10294 20139 58001 83360=
201106090400 AAXX 09044 67665 42980 23202 10164 20164 48523 70200 82030
                   333 59002 82360=
201106090300 AAXX 09034 67665 42980 22001 10155 20155 48516 82030
                   333 59006 82360=
201106090000 AAXX 09004 67665 42980 22803 10177 20177 48520 82030
                   333 59003 82360=
201106082100 AAXX 08214 67665 42980 10901 10179 20171 48512 81030
                   333 59009 81360=
201106081200 AAXX 08124 67665 42980 13510 10276 20152 58515 81030
                   333 59017 81360 91017=
201106080900 AAXX 08094 67665 41970 10210 10238 20160 48539 70522 81030
                   333 59010 81360=
201106080600 AAXX 08064 67665 31960 61503 10161 20128 48534 70522 86030
                   333 10279 20130 59009 86360=
201106071800 AAXX 07184 67665 42980 21402 10185 20144 48528 82030
                   333 10279 59006 82360=
201106071500 AAXX 07154 67665 42780 20307 10260 20115 48524 81130
                   333 59006 81850 81360
                   555 10279=
201106070900 AAXX 07094 67665 42980 10511 10250 20156 48551 81030
                   333 59008 81360=
201106070600 AAXX 07064 67665 32980 01305 10172 20164 48540
                   333 10240 20127 59006=
201106070400 AAXX 07044 67665 42980 21603 10132 20132 48524 82030
                   333 59005 82359=
201106070000 AAXX 07004 67665 42980 01404 10141 20141 48530
                   333 59007=
201106062100 AAXX 06214 67665 42980 11505 10151 20151 48531 81030
                   333 59005 81359=
201106061200 AAXX 06124 67665 42680 60505 10258 20137 48538 86200
                   333 59003 86840 91020=
201106060900 AAXX 06094 67665 42680 20509 10244 20168 48587 70322 81130
                   333 59006 81830 81360 91022=
201106060600 AAXX 06064 67665 32980 41404 10149 20116 48543 84030
                   333 10254 20130 59022 84360
                   555 00/// 91022=
201106051800 AAXX 05184 67665 42980 31204 10168 20160 48538 83030
                   333 10254 59018 83360=
201106051500 AAXX 05154 67665 42680 40905 10236 20149 48541 84130
                   333 59023 84845 81360=
201106051200 AAXX 05124 67665 42680 50606 10240 20145 48538 85200
                   333 59015 85830=
201106050600 AAXX 05064 67665 32980 31104 10170 20137 48554 83030
                   333 10245 20105 59013 83360 91023=
201106050400 AAXX 05044 67665 41960 31402 10126 20126 48537 71022 83030
                   333 59013 83360=
201106042100 AAXX 04214 67665 42980 31603 10130 20130 48555 81030
                   333 59008 83360=
201106040900 AAXX 04094 67665 42480 60911 10215 20177 48576 86530
                   333 59015 86515 81360=
201106040600 AAXX 04064 67665 32380 11203 10151 20128 48564 81531
                   333 10249 20095 59017 81508 81360 81080=
201106031800 AAXX 03184 67665 41960 11203 10153 20153 48564 70500
                   333 81030 10249 58001 81360=
201106031500 AAXX 03154 67665 42680 21109 10220 20165 48560 81230
                   333 58000 81840 81360=
201106031200 AAXX 03124 67665 42580 60911 10240 20171 48565 86200
                   333 58002 86825=
201106030600 AAXX 03064 67665 31359 81204 10176 20176 48576 70552 8573/
                   333 10276 20099 58012 85707 87359=
201106030400 AAXX 03044 67665 42980 71003 10167 20151 48563 70322 8763/
                   333 58011 87705 83360 91024=
201106030300 AAXX 03034 67665 42980 31203 10155 20155 48558 70322 83030
                   333 58010 83360 91024=
201106030000 AAXX 03004 67665 42980 01604 10152 20152 48556
                   333 58020=
201106022100 AAXX 02214 67665 42980 01402 10148 20148 48564 70200
                   333 58024=
201106020900 AAXX 02094 67665 41560 70709 10201 20170 48588 70522 875//
                   333 58018 87620=
201106020600 AAXX 02064 67665 32980 11105 10167 20142 48565 81030
                   333 10299 20100 58014 81360=
201106011500 AAXX 01154 67665 42780 61408 10247 20134 48549 81132
                   333 58016 81850 83360 83080
                   555 10299=
201106011200 AAXX 01124 67665 42680 71006 10285 20100 48555 70222 83102
                   333 58012 83835 85280 91021=
201106010900 AAXX 01094 67665 42980 11205 10275 20140 48572 70200 81001
                   333 58008 81080 91023=
201106010600 AAXX 01064 67665 32980 11606 10193 20177 48554 70400 81030
                   333 58002 81360 91023=

################################################################################
#  SYNOPS from 67666, Lusaka City Airport (Zambia) | 15-25S | 028-19E | 1280 m
################################################################################
201107010600 AAXX 01064 67666 31980 00903 10170 20025 48549 70500
                   333 10240 20070 59008=
201106301200 AAXX 30124 67666 42980 00903 10240 20052 48532
                   333 58005=
201106300600 AAXX 30064 67666 31978 00906 10160 20030 48555 70500
                   333 10266 20110 58010=
201106291200 AAXX 29124 67666 42980 00903 10255 20059 48538
                   333 58003=
201106290900 AAXX 29094 67666 42980 00908 10218 20066 48567
                   333 58003=
201106290600 AAXX 29064 67666 32980 00910 10160 20039 48546
                   333 10256 20110 58003=
201106280600 AAXX 28064 67666 32980 01210 10/// 20042 48534
                   333 10245 20085 59012=
201106240900 AAXX 24094 67666 42980 00904 10224 20052 48538
                   333 59008=
201106240600 AAXX 24064 67666 31960 00907 10160 20095 48532 70500
                   333 10240 20075 59010=
201106230600 AAXX 23064 67666 32980 00907 10150 20095 48541
                   333 10210 20070 59018=
201106200900 AAXX 20094 67666 42680 10910 10210 20096 48562 81100
                   333 59006 81830=
201106200600 AAXX 20064 67666 32980 00000 10155 20111 48553
                   333 10236 20070 59013=
201106171200 AAXX 17124 67666 42980 00905 10245 20085 48534
                   333 59002=
201106170600 AAXX 17064 67666 31978 00505 10155 20091 48547 70500
                   333 10240 20070 59005=
201106160600 AAXX 16064 67666 32980 01213 10147 20068 48551
                   333 10228 20096 59010=
201106141200 AAXX 14124 67666 42580 10906 10210 20080 48563 81500
                   333 58003 81622=
201106140600 AAXX 14064 67666 32980 01014 10150 20085 48579
                   333 10245 20095 58000=
201106080600 AAXX 08064 67666 31975 50905 10165 20122 48526 70500 85030
                   333 10240 20120 59004 85360=
201106060900 AAXX 06094 67666 42980 20914 10230 20122 48548 82030
                   333 59008 82360=
201106011200 AAXX 01124 67666 42780 30902 10275 20084 48535 83201
                   333 58003 83858 82080=
201106010600 AAXX 01064 67666 31975 12003 10195 20119 48552 70500 80001
                   333 10290 20120 59001 81080=

################################################################################
#  SYNOPS from 67667, Mount Makulu (Zambia) | 15-33S | 028-15E | 1213 m
################################################################################
201107010600 AAXX 01064 67667 31970 00000 10130 20036 70500
                   333 10270 20025=
201106300600 AAXX 30064 67667 31970 01808 10185 20002 48/// 70500
                   333 10270 20125 5////=
201106280600 AAXX 28064 67667 31970 00908 10145 20069 48/// 70500
                   333 10260 20060 5////=

################################################################################
#  SYNOPS from 67673, Petauke (Zambia) | 14-15S | 031-17E | 1035 m
################################################################################
201107010600 AAXX 01064 67673 31970 00902 10195 20050 48565 70500
                   333 10280 20124 59003=
201106300600 AAXX 30064 67673 31960 01205 10189 20042 48566 70500
                   333 10280 20128 58002=
201106280600 AAXX 28064 67673 31965 01204 10184 20069 48557 70500
                   333 10279 20127 59009=
201106170600 AAXX 17064 67673 31970 01204 10199 20109 48556 70500
                   333 10263 20123 59021=
201106141200 AAXX 14124 67673 41975 00904 10236 20059 48580 70500
                   333 59004=

################################################################################
#  SYNOPS from 67731, Senanga (Zambia) | 16-06S | 023-16E | 1027 m
################################################################################
201107010600 AAXX 01064 67731 31975 01301 10141 20076 48/// 70500
                   333 10288 20071 5////=
201106300600 AAXX 30064 67731 31970 01001 10131 20061 48/// 70500
                   333 10268 20088 5////=
201106280600 AAXX 28064 67731 00000 10095 20057 48/// 70500
                   333 10260 20021 5////=

################################################################################
#  SYNOPS from 67743, Livingstone (Zambia) | 17-49S | 025-49E | 985 m
################################################################################
201106301200 AAXX 30124 67743 41970 02206 10261 20010 48557 70400
                   333 58009=
201106300900 AAXX 30094 67743 41959 02203 10210 20060 48571 70400
                   333 58010=
201106300600 AAXX 30064 67743 31959 00000 10072 20040 48538 70400
                   333 10281 20/// 58010=
201106291500 AAXX 29154 67743 42980 00807 10267 20005 48542
                   333 58009=
201106291200 AAXX 29124 67743 42980 01906 10278 20017 48522
                   333 58007=
201106280900 AAXX 28094 67743 42980 01404 10205 20016 48561
                   333 59012=
201106280600 AAXX 28064 67743 32980 00000 10059 21008 48523
                   333 10251 20/// 59016=
201106240600 AAXX 24064 67743 32980 00000 10106 20082 48505
                   333 10266 20//0 59016=
201106231200 AAXX 23124 67743 42980 00906 10258 20044 48532
                   333 59022=
201106230600 AAXX 23064 67743 32980 00000 10113 20074 48529
                   333 10260 20//0 59029=
201106220900 AAXX 22094 67743 42980 01805 10198 20071 48576
                   333 58006=
201106200900 AAXX 20094 67743 42980 03505 10217 20078 48572
                   333 59009=
201106200600 AAXX 20064 67743 32980 00802 10115 20076 48546
                   333 10256 20/// 59011=
201106180900 AAXX 18094 67743 42980 01009 10235 20034 48577 70200
                   333 58013=
201106180600 AAXX 18064 67743 32980 00203 10136 20065 48550 70200
                   333 10281 20/// 20000=
201106171500 AAXX 17154 67743 42980 01005 10267 20043 48543
                   333 58007=
201106171200 AAXX 17124 67743 42980 01104 10272 20/// 48568
                   333 59002=
201106170600 AAXX 17064 67743 32980 00000 10104 20064 48532
                   333 10278 2//// 59006 91022=
201106160900 AAXX 16094 67743 41975 01107 10234 20074 48568 70500
                   333 59014=
201106160600 AAXX 16064 67743 32980 00000 10100 20086 48540
                   333 10254 20/// 59014=
201106141200 AAXX 14124 67743 42980 20109 10242 20096 48572 70200 82100
                   333 59008 82857=
201106140600 AAXX 14064 67743 32980 01204 10132 20088 48484
                   333 10273 20/// 59005=
201106130900 AAXX 13094 67743 42980 01008 10220 20074 48599
                   333 58015=
201106111500 AAXX 11154 67743 42980 10804 10256 20041 48539 80001
                   333 58020 81080=
201106111200 AAXX 11124 67743 42980 12705 10248 20056 48540 80001
                   333 58021 81080=
201106101200 AAXX 10124 67743 42980 02107 10258 20015 48524
                   333 59004=
201106100600 AAXX 10064 67743 32980 00000 10106 20011 48531
                   333 10260 20/// 58005=
201106080600 AAXX 08064 67743 12780 52707 10175 20151 48513 69954 82530
                   333 10308 20//0 59002 82550 84360=
201106070600 AAXX 07064 67743 32980 70506 10163 20127 48514 70200 87030=
201106060900 AAXX 06094 67743 42980 80906 10221 20118 48555 70222 8807/
                   333 59004 88359=
201106060600 AAXX 06064 67743 32980 80000 10178 20124 48533 8807/
                   333 10280 20//0 59016 88359=
201106040900 AAXX 04094 67743 42980 30906 10237 20124 48577 83030
                   333 59008 83060=
201106040600 AAXX 04064 67743 32980 43502 10135 20121 48553 70300 86030
                   333 10280 20/// 59008 86360=
201106020900 AAXX 02094 67743 42980 01408 10196 20090 48587
                   333 58004=
201106011200 AAXX 01124 67743 42980 02004 10251 21017 48570 70200
                   333 58039=
201106010600 AAXX 01064 67743 32980 10102 10128 21017 47566 70100 81030
                   333 10328 20//0 58041 81360=

################################################################################
#  SYNOPS from 67751, Magoye (Zambia) | 16-00S | 027-36E | 1018 m
################################################################################
201106170600 AAXX 17064 67751 32980 00000 10115 20092
                   333 10258 20017 58004=

################################################################################
#  SYNOPS from 67753, Choma (Zambia) | 16-50S | 027-04E | 1213 m
################################################################################
201107010600 AAXX 01064 67753 31960 01004 10143 20074 70500
                   333 10256 20038=
201106300600 AAXX 30064 67753 31960 01004 10131 20052 48/// 70500
                   333 10261 20029 5////=
201106291200 AAXX 29124 67753 41970 00907 10256 20064 48/// 70500
                   333 5////=
201106290600 AAXX 29064 67753 31970 00904 10119 20054 48/// 70500
                   333 10234 20022 5////=
201106280900 AAXX 28094 67753 41970 00912 10219 20007 48/// 70500
                   333 5////=
201106280600 AAXX 28064 67753 31970 00906 10147 20026 48/// 70500
                   333 10244 20005 5////=
201106240600 AAXX 24064 67753 31970 02705 10129 20076 48/// 70500
                   333 10250 20049 5////=
201106230600 AAXX 23064 67753 31970 00905 10124 20077 48/// 70500
                   333 10228 20039 5////=
201106220900 AAXX 22094 67753 41970 00912 10200 20099 48/// 70500
                   333 5////=
201106200600 AAXX 20064 67753 31970 01006 10136 21004 48/// 70500
                   333 10233 20024 5////=
201106170600 AAXX 17064 67753 31970 01005 10134 20072 40500
                   333 10248 20041=
201106160600 AAXX 16064 67753 31970 00903 10119 20099 48/// 70500
                   333 10221 20042 5////=
201106101200 AAXX 10124 67753 42980 01907 10246 20129 48///
                   333 5////=
201106100600 AAXX 10064 67753 32980 01804 10118 20001 48///
                   333 10250 20064 5////=
201106070600 AAXX 07064 67753 32980 53505 10163 20120 85030
                   333 10264 20130 85360=
201106060900 AAXX 06094 67753 42680 13606 10255 20113 48/// 81100
                   333 81845=
201106030600 AAXX 03064 67753 32480 70608 10152 20142 48/// 875//
                   333 10253 20088 5//// 87615=
201106010600 AAXX 01064 67753 32980 61805 10147 20025 86030
                   333 10296 20116 86360=

################################################################################
#  SYNOPS from 67855, Lupaki (Zambia) | 17-03-00S | 024-46-00E | 1000 m
################################################################################
201107010600 AAXX 01064 67855 NIL=
201106301200 AAXX 30124 67855 42980 01803 10272 20041 3//// 4////
                   333 5////=
201106300600 AAXX 30064 67855 31960 00000 10048 21005 3//// 48/// 70500
                   333 20008 5////=
201106280600 AAXX 28064 67855 31960 00301 10012 21005 3//// 48/// 70500
                   333 21025 5////=
201106270600 AAXX 27064 67855 31960 00000 10008 21005 3//// 48/// 70500
                   333 21040 5////=
201106260600 AAXX 26064 67855 31960 00000 11012 21075 38/// 48/// 70500
                   333 21015 5////=
201106251200 AAXX 25124 67855 42980 02403 10204 21095 38/// 48///
                   333 5////=
201106250600 AAXX 25064 67855 31960 02002 10060 21015 38/// 48/// 70500
                   333 20015 5////=
201106240600 AAXX 24064 67855 31960 00000 10060 20040 38/// 48/// 70500
                   333 20035 5////=
201106231200 AAXX 23124 67855 42980 00101 10260 20055 38/// 48///
                   333 5////=
201106230600 AAXX 23064 67855 31960 00000 10060 20040 38/// 48/// 70500
                   333 20033 5////=
201106220600 AAXX 22064 67855 31960 01401 10066 20057 38/// 48///
                   333 20032 5////=
201106211200 AAXX 21124 67855 42980 01001 10248 20065 3//// 48///
                   333 5////=
201106210600 AAXX 21064 67855 31960 01301 10048 20005 3//// 48/// 70500
                   333 20007 5////=
201106201200 AAXX 20124 67855 42980 00000 10256 20034 3//// 48///
                   333 5////=
201106200600 AAXX 20064 67855 31970 01301 10066 20045 3//// 48/// 70500
                   333 20029 5////=
201106191200 AAXX 19124 67855 NIL=
201106190600 AAXX 19064 67855 31960 00000 10070 20060 38/// 48/// 70500
                   333 20045 5////=
201106181200 AAXX 18124 67855 42980 00404 10270 20061 38/// 48///
                   333 5////=
201106180600 AAXX 18064 67855 31970 01301 10078 21005 3//// 48/// 70500
                   333 20035 5////=
201106171200 AAXX 17124 67855 42980 01501 10272 20053 3//// 48///
                   333 5////=
201106170600 AAXX 17064 67855 31960 00000 10078 20045 3//// 48/// 70500
                   333 20030 5////=
201106161200 AAXX 16124 67855 42980 01902 10254 20043 3//// 48///
                   333 5////=
201106160600 AAXX 16064 67855 31970 00000 10072 20068 3//// 48/// 70500
                   333 20030 5////=
201106151200 AAXX 15124 67855 42980 03301 10246 20065 3//// 48///
                   333 5////=
201106150600 AAXX 15064 67855 31970 00000 10056 20045 3//// 48/// 70500
                   333 20020 5////=
201106141200 AAXX 14124 67855 42980 01103 10244 20070 3//// 48///
                   333 5////=
201106140600 AAXX 14064 67855 NIL=
201106131200 AAXX 13124 67855 42980 00502 10264 20098 38/// 48///
                   333 5////=
201106130600 AAXX 13064 67855 31970 01201 10080 20058 3//// 48/// 70500
                   333 20038 5////=
201106121200 AAXX 12124 67855 NIL=
201106120600 AAXX 12064 67855 31970 01301 10060 20036 3//// 48/// 70500
                   333 20033 5////=
201106111200 AAXX 11124 67855 42980 03101 10258 20053 3//// 48///
                   333 5////=
201106110600 AAXX 11064 67855 31970 01901 10050 20026 38/// 48/// 70500
                   333 20015 5////=
201106100600 AAXX 10064 67855 31970 01801 10030 21005 3//// 48/// 70500
                   333 21015 5////=
201106091200 AAXX 09124 67855 42980 01902 10222 21048 3//// 48///
                   333 5////=
201106090600 AAXX 09064 67855 11970 00000 10060 20030 38/// 48/// 69904 70500
                   333 20030 5////=
201106081200 AAXX 08124 67855 NIL=
201106080600 AAXX 08064 67855 31570 63301 10194 20132 38/// 48/// 72162 83540
                   333 20135 5//// 83620 86458=
201106071200 AAXX 07124 67855 42680 33604 10280 20124 38/// 48/// 83130
                   333 5//// 83840=
201106070600 AAXX 07064 67855 31670 70000 10136 20118 3//// 48/// 70522 8353/
                   333 20123 5//// 83630 87360=
201106061200 AAXX 06124 67855 42680 80303 10240 20128 3//// 48/// 8113/
                   333 5//// 81840 88360=
201106060600 AAXX 06064 67855 31970 70901 10136 20091 3//// 48/// 70522 8703/
                   333 20105 5//// 87360=
201106051200 AAXX 05124 67855 NIL=
201106050600 AAXX 05064 67855 31970 00000 10102 20078 3//// 48/// 70500
                   333 20065 5////=
201106041200 AAXX 04124 67855 42780 33303 10274 20083 3//// 48/// 83400
                   333 5//// 83650=
201106040600 AAXX 04064 67855 31960 01301 10108 20100 38/// 48/// 70500
                   333 20070 5////=
201106030600 AAXX 03064 67855 31970 10000 10102 20083 38/// 48/// 70500 81030
                   333 20074 5//// 81360=
201106021200 AAXX 02124 67855 42680 22002 10246 20103 38/// 48/// 82100
                   333 5//// 82840=
201106020600 AAXX 02064 67855 31970 01501 10080 20075 38/// 48/// 70500
                   333 20049 5////=
201106011200 AAXX 01124 67855 42980 01803 10260 20010 3//// 48///
                   333 5////=
201106010600 AAXX 01064 67855 31970 01901 10096 20003 3//// 48/// 70500
                   333 20050 5////=
