################################################################################
# Query made at 04/14/2022 16:39:36 UTC
# Country like Zamb*
# Time interval: from 12/01/2012 05:30  to 12/31/2012 05:30  UTC
################################################################################

################################################################################
#  SYNOPS from 67599, Mfuwe (Zambia) | 13-16S | 031-56E | 568 m
################################################################################
201212100600 AAXX 10064 67599 11380 80000 10225 20217 48518 60024 75066 8277/
                   333 10365 20215 58010 82708 88460=
201212071200 AAXX 07124 67599 41680 63607 10350 20208 48541 72999 84902
                   333 58020 81945 83848 85080 91014=
201212031200 AAXX 03124 67599 42780 53608 10372 20207 48531 85200
                   333 59021 85850=
201212021500 AAXX 02154 67599 42780 50909 10350 20200 48530 70222 81930
                   333 58016 81950 83856 83360=

################################################################################
#  SYNOPS from 67633, Mongu (Zambia) | 15-15S | 023-09E | 1052 m
################################################################################
201212100600 AAXX 10064 67633 12482 53204 10226 20199 48499 60064 83532
                   333 10//0 20183 59008 83610 84640 83080=

################################################################################
#  SYNOPS from 67665, Lusaka Internationalairport (Zambia) | 15-19S | 028-27E | 1152 m
################################################################################
201212301800 AAXX 30184 67665 42760 62904 10208 20193 48514 70122 81930
                   333 10280 58010 81950 85360=
201212300300 AAXX 30034 67665 41980 73503 10198 20191 48512 74822 8353/
                   333 58008 84605 87360=
201212292100 AAXX 29214 67665 41959 71102 10199 20191 48525 76122 85032
                   333 58008 85459 85280=
201212290900 AAXX 29094 67665 42560 70306 10245 20231 48526 83232
                   333 59007 81920 83825 83360 82080 91018=
201212282100 AAXX 28214 67665 42780 61203 10207 20207 48518 81931
                   333 59001 81957 85360 81080=
201212281800 AAXX 28184 67665 42980 21202 10221 20214 48501 82031
                   333 10271 58003 82359 82080=
201212281500 AAXX 28154 67665 42780 43003 10256 20223 48484 83201
                   333 58000 83850 82080=
201212281200 AAXX 28124 67665 42680 40303 10254 20247 48501 83131
                   333 58008 83840 81360 83080=
201212280600 AAXX 28064 67665 11360 71208 10180 20180 48526 60044 76066 8477/
                   333 10294 20174 58008 84707 87359=
201212271800 AAXX 27184 67665 42780 51102 10238 20231 48490 71322 81932
                   333 10294 59017 81956 83359 85280=
201212271500 AAXX 27154 67665 42780 61104 10266 20245 48485 83232
                   333 59022 83856 81359 86280=
201212271200 AAXX 27124 67665 42680 61005 10277 20236 48497 85232
                   333 59022 81945 85845 81360 83080=
201212270900 AAXX 27094 67665 42680 60605 10267 20209 48523 85232
                   333 59018 85830 81360 81080=
201212270600 AAXX 27064 67665 12480 63602 10236 20181 48526 69904 82202
                   333 10296 20190 59010 82815 86080=
201212270300 AAXX 27034 67665 42380 53302 10198 20190 48512 81630
                   333 58001 81706 85360 91018=
201212270000 AAXX 27004 67665 42980 21502 10207 20200 48510 82030
                   333 59010 82360=
201212261800 AAXX 26184 67665 42775 71402 10222 20217 48514 81233
                   333 58002 81956 83360 86080=
201212260900 AAXX 26094 67665 42580 63605 10251 20223 48538 83832
                   333 59011 83825 81627 83360 82080=
201212260600 AAXX 26064 67665 12380 70000 10205 20195 48532 60034 81530
                   333 10270 20169 59016 81610 87360=
201212251800 AAXX 25184 67665 41780 60702 10194 20186 48509 81932
                   333 10270 59004 81956 85360 84080=
201212251500 AAXX 25154 67665 42680 70804 10202 20194 48493 81932
                   333 58002 81940 86360 82080 91015=
201212251200 AAXX 25124 67665 42680 73105 10254 20211 48515 84202
                   333 58009 81930 84835 83080 91017=
201212250600 AAXX 25064 67665 11460 82502 10189 20177 48543 60294 76169 8164/
                   333 10296 20181 58010 81615 87458=
201212241800 AAXX 24184 67665 42760 71603 10226 20219 48518 70222 82331
                   333 59012 81955 84360 85080=
201212241200 AAXX 24124 67665 42680 30305 10280 20200 48510 70122 83301
                   333 59009 83835 82080=
201212232100 AAXX 23214 67665 41960 73602 10186 20186 48532 76966 8704/
                   333 58004 87459=
201212221800 AAXX 22184 67665 42980 40705 10201 20194 48516 83032
                   333 59005 83360 82080=
201212220900 AAXX 22094 67665 41359 83003 10183 20183 48535 76166 8577/
                   333 58018 85705 87459=
201212220600 AAXX 22064 67665 11340 82704 10177 20177 48534 76166 8577/
                   333 10276 20165 58016 85706 87459=
201212210900 AAXX 21094 67665 42580 72903 10257 20206 48528 86830
                   333 58004 83825 84639 85360=
201212210600 AAXX 21064 67665 12460 70902 10210 20194 48523 60014 84530
                   333 10265 20190 59010 84615 87360=
201212201800 AAXX 20184 67665 42/80 30000 10210 20201 48501 82032
                   333 10265 59006 819// 81360 83080=
201212201500 AAXX 20154 67665 42780 20000 10260 20159 48480 81131
                   333 59011 81850 81360 81080
                   555 10265=
201212191800 AAXX 19184 67665 42780 50907 10227 20220 48510 71322 81932
                   333 58001 81950 84360 85080=
201212191200 AAXX 19124 67665 42580 60811 10262 48503 70222 85831
                   333 58004 85825 82628 83360 82080=
201212190900 AAXX 19094 67665 42480 70808 10230 20223 48526 70222 86830
                   333 58005 82815 84618 87360 91019=
201212190600 AAXX 19064 67665 12380 80909 10220 20188 48527 60074 70222 8563/
                   333 10285 20195 58002 85706 87360
                   555 00/// 91019=
201212182100 AAXX 18214 67665 42980 50902 10208 20208 48516 85030
                   333 59006 85360=
201212181800 AAXX 18184 67665 42680 61303 10211 20211 48506 81930
                   333 10285 58011 81940 86359=
201212180600 AAXX 18064 67665 32480 70202 10223 20216 48525 70222 84632
                   333 10295 20//0 58013 83610 85820 87080=
201212171800 AAXX 17183 67665 42980 71405 10228 20228 48498 70222 83032
                   333 59009 83360 84080=
201212171200 AAXX 17124 67665 42680 70103 10263 20227 48497 71522 86202
                   333 58000 81935 86838 84080=
201212162100 AAXX 16214 67665 41760 6//// 10193 20193 48513 71799 81932
                   333 59004 81956 86360 82080 91018=
201212160300 AAXX 16034 67665 42980 4//// 10195 20195 48507 84032
                   333 58001 84360 81080=
201212152100 AAXX 15214 67665 42780 6//// 10221 20221 48519 81932
                   333 58004 81950 86360 82080=
201212151800 AAXX 15184 67665 41780 60000 10232 20195 48505 71322 81932
                   333 10301 58000 81950 81360 86080=
201212151500 AAXX 15154 67665 42680 63302 10290 20208 48493 82232
                   333 59002 81940 81845 83360 83080=
201212151200 AAXX 15124 67665 42580 63003 10285 20213 48513 83232
                   333 59002 83828 82360 85080 91017=
201212141800 AAXX 14184 67665 42980 20805 10195 20187 48501 81031
                   333 10265 59001 81360 81080=
201212141500 AAXX 14154 67665 42780 31208 10244 20179 48489 83200
                   333 59003 83850 555 10265 91015=
201212140900 AAXX 14094 67665 41580 81206 10225 20197 48525 75022 885//
                   333 58801 88625=
201212140600 AAXX 14064 67665 12460 70903 10205 20185 48520 60034 81530
                   333 10240 20179 59004 81615 87360=
201212131800 AAXX 13184 67665 42460 50809 10201 20194 48502 70122 81530
                   333 10240 59005 81615 85360=
201212131500 AAXX 13154 67665 42460 71210 10226 20187 48491 70222 84531
                   333 59003 84612 86360 81080
                   555 10240 91015=
201212130900 AAXX 13094 67665 41380 80710 10215 20196 48522 75022 887//
                   333 58003 88709=
201212120900 AAXX 12094 67665 41359 80705 10202 20195 48518 76166 8577/
                   333 58020 85705 87459=
201212120600 AAXX 12064 67665 11359 80803 10190 20183 48515 60204 76166 8577/
                   333 10280 20175 58016 85708 87459=
201212110600 AAXX 11064 67665 12380 71703 10215 20208 48503 69954 81732
                   333 10255 20164 59020 81707 82812 86360 82080=
201212101800 AAXX 10184 67665 41680 71506 10203 20195 48487 76292 8197/
                   333 59019 81930 87459=
201212101200 AAXX 10124 67665 42680 51204 10262 20213 48488 83231
                   333 59012 82830 83360 84080=
201212100900 AAXX 10094 67665 42480 60000 10213 20176 48508 83131
                   333 59007 83815 83360 86280=
201212100600 AAXX 10064 67665 11360 80906 10210 20210 48521 72822 8673/
                   333 10300 20187 58002 86708 87360=
201212090900 AAXX 09094 67665 41660 71306 10245 20235 48520 78082 83232
                   333 59021 83830 85359 82080 91018=
201212090600 AAXX 09064 67665 12980 71304 10227 20219 48521 69904 70222 86032
                   333 10301 20195 59023 86360 81080
                   555 00/// 91018=
201212081800 AAXX 08184 67665 42980 61702 10235 20221 48512 83032
                   333 10301 59016 83360 86280=
201212081500 AAXX 08154 67665 42780 61207 10281 20217 48503 81932
                   333 59002 81950 81850 82359 86280=
201212080900 AAXX 08094 67665 41560 70903 10219 20219 48537 72999 81932
                   333 59004 81920 82820 82360 86280 91020=
201212080600 AAXX 08064 67665 42480 73005 10215 20197 48541 84632
                   333 10300 20190 58004 84708 85360 83080
                   555 00/// 91021=
201212071800 AAXX 07184 67665 41780 70905 10218 20211 48527 71799 8193/
                   333 10300 58001 81956 87360=
201212071200 AAXX 07124 67665 42680 60310 10289 20189 48515 85232
                   333 59007 85840 83360 81080 91017=
201212070900 AAXX 07094 67665 42680 63605 10272 20207 48547 85232
                   333 58006 85830 83360 81080=
201212062100 AAXX 06214 67665 41980 31403 10211 20205 48538 71300 81932
                   333 58027 81956 82360 83080=
201212051200 AAXX 05124 67665 41680 70708 10269 20188 48500 71722 81930
                   333 58012 81930 85830 83360=
201212042100 AAXX 04214 67665 41759 73006 10190 20190 48516 76096 8197/
                   333 58009 81950 87459=
201212041200 AAXX 04124 67665 42680 60806 10304 20169 48491 85202
                   333 59013 85845 84080=
201212040600 AAXX 04064 67665 32980 60906 10263 20197 48519 85032
                   333 10324 20201 59018 85360 84080=
201212032100 AAXX 03214 67665 42980 31503 10236 20199 49512 82032
                   333 59021 82360 81080=
201212031800 AAXX 03184 67665 42980 11902 10252 20187 48502 80001
                   333 10324 59019 81080=
201212031500 AAXX 03154 67665 41780 41205 10309 20165 48492 71520 81331
                   333 59027 81950 83856 82359 83080=
201212031200 AAXX 03124 67665 42680 59903 10307 20153 48505 84201
                   333 59030 84848 83080=
201212030900 AAXX 03094 67665 42680 51008 10286 20189 48535 85200
                   333 59016 85838=
201212030600 AAXX 03064 67665 32980 10606 10248 20189 48536 80001
                   333 10302 59021 81080=
201212021800 AAXX 02184 67665 42980 01201 10246 20178 48521
                   333 10302 59006=
201212021500 AAXX 02154 67665 42780 40905 10292 20162 48517 82101
                   333 58007 82857 84080=
201212021200 AAXX 02124 67665 42780 50607 10355 20197 48544 85202
                   333 58020 85850 84080=
201212020900 AAXX 02094 67665 42680 40407 10268 20168 48548 81132
                   333 58011 81835 81360 84080 91021=
201212020600 AAXX 02064 67665 42980 31010 10233 20153 48554 81032
                   333 10310 20185 58009 81360 83080
                   555 00/// 91022=
201212011200 AAXX 01124 67665 42680 50908 10290 20120 48518 83232
                   333 58006 83845 82360 85080=
201212010900 AAXX 01094 67665 42980 60613 10273 20136 48537 82032
                   333 58010 82360 86080=
201212010600 AAXX 01064 67665 32980 60810 10230 20110 48535 85032
                   333 10310 20185 58006 85360 83080=

################################################################################
#  SYNOPS from 67743, Livingstone (Zambia) | 17-49S | 025-49E | 985 m
################################################################################
201212281500 AAXX 28154 67743 42680 41508 10302 20187 48482 83242
                   333 58001 83845 81260 82080=
201212281200 AAXX 28124 67743 42680 51606 10295 20182 48508 83132
                   333 58015 83840 81360 84080=
201212031500 AAXX 03154 67743 41680 73112 10256 20183 48508 71222 8294/
                   333 59007 82945 83845 84460=
201212021200 AAXX 02124 67743 42780 63606 10305 20165 48528 86101
                   333 59007 85855 81080=

################################################################################
#  SYNOPS from 67855, Lupaki (Zambia) | 17-03-00S | 024-46-00E | 1000 m
################################################################################
201212301200 AAXX 30124 67855 NIL=
201212300600 AAXX 30064 67855 12980 60000 10232 20200 3//// 48/// 60014 84072
                   333 20193 5//// 84460 86080=
201212291200 AAXX 29124 67855 42680 50301 10332 20188 38/// 48/// 85202
                   333 5//// 85840=
201212290600 AAXX 29064 67855 32980 40301 10242 20196 38/// 48/// 81032
                   333 20180 5//// 81360 84080=
201212281200 AAXX 28124 67855 42680 73001 10288 20187 38/// 48/// 83102
                   333 5//// 83840 87080=
201212280600 AAXX 28064 67855 12380 73308 10214 20185 3//// 48/// 60014 85602
                   333 20184 5//// 85707 87080=
201212271200 AAXX 27124 67855 42680 63302 10336 20185 3//// 4//// 84201
                   333 5//// 84880 86080=
201212270600 AAXX 27064 67855 32980 60000 10242 20190 3//// 48/// 86071
                   333 20205 5//// 86460=
201212261200 AAXX 26124 67855 NIL=
201212260600 AAXX 26064 67855 12980 62001 10214 20190 38/// 48/// 60334 86072
                   333 20169 5//// 86460=
201212251200 AAXX 25124 67855 NIL=
201212250600 AAXX 25064 67855 12980 73601 10238 20194 3//// 48/// 69904 8707/
                   333 20194 5//// 87459=
201212240600 AAXX 24064 67855 11980 70000 10212 20198 3//// 48/// 60024 72161 8707/
                   333 20194 5//// 87460=
201212231200 AAXX 23124 67855 41680 70000 10254 20202 3//// 48/// 72162 8227/
                   333 5//// 82830 87459=
201212230600 AAXX 23064 67855 32680 73604 10230 20166 3//// 48/// 8157/
                   333 20185 5//// 81630 87460=
201212221800 AAXX 22184 67855 NIL=
201212221200 AAXX 22124 67855 NIL=
201212220600 AAXX 22064 67855 32380 70602 10222 20148 3//// 48/// 8367/
                   333 20174 5//// 83707 87460=
201212211200 AAXX 21124 67855 42680 43604 10308 20173 3//// 48/// 84272
                   333 5//// 84830 85460=
201212210600 AAXX 21064 67855 11980 51601 10220 20186 3//// 48/// 60064 72842 85030
                   333 20179 5//// 85360=
201212201200 AAXX 20124 67855 NIL=
201212200600 AAXX 20064 67855 NIL=
201212191200 AAXX 19124 67855 42680 53608 10305 20174 38/// 48/// 85231
                   333 5//// 85840 83360=
201212190600 AAXX 19064 67855 32980 40603 10242 20177 3//// 48/// 8407/
                   333 20193 5//// 84460=
201212181200 AAXX 18124 67855 41680 73601 10264 20181 3//// 48/// 72992 8327/
                   333 5//// 83840 87459=
201212180600 AAXX 18064 67855 12380 70602 10222 20197 38/// 48/// 60314 876//
                   333 20178 5//// 87707=
201212171200 AAXX 17124 67855 42680 53302 10320 20190 38/// 48/// 83202
                   333 5//// 82840 85080=
201212170600 AAXX 17064 67855 11380 70303 10216 20199 38/// 48/// 60164 72162 8167/
                   333 20189 5//// 81707 87459=
201212161200 AAXX 16124 67855 42680 43402 10310 20186 3//// 48/// 84201
                   333 5//// 84840=
201212160600 AAXX 16064 67855 32980 33602 10262 20187 3//// 48/// 80002
                   333 20190 5//// 83080=
201212151200 AAXX 15124 67855 42680 53602 10306 20181 3//// 48/// 85230
                   333 5//// 85840=
201212150600 AAXX 15064 67855 32980 40603 10244 20153 3//// 48/// 84070
                   333 20195 5//// 84460=
201212141200 AAXX 14124 67855 NIL=
201212140600 AAXX 14064 67855 12980 70703 10216 20183 3//// 48/// 60034 8707/
                   333 20182 5//// 87460=
201212131200 AAXX 13124 67855 42380 70701 10262 20178 3//// 48/// 8567/
                   333 5//// 85708 87460=
201212130600 AAXX 13064 67855 32380 72102 10224 20159 3//// 48/// 8167/
                   333 20200 5//// 81707 87460=
201212121200 AAXX 12124 67855 42380 70603 10262 20165 3//// 48/// 8567/
                   333 5//// 85708 87460=
201212120900 AAXX 12094 67855 42380 70606 10266 20174 3//// 48/// 8367/
                   333 5//// 83707 87460=
201212120600 AAXX 12064 67855 11980 71301 10208 20183 38/// 48/// 60114 72162 8707/
                   333 20160 5//// 87459=
201212111200 AAXX 11124 67855 41680 63605 10284 20199 38/// 48/// 72992 84271
                   333 5//// 84840 86460=
201212110600 AAXX 11064 67855 12980 50303 10220 20200 38/// 48/// 60124 85070
                   333 20178 5//// 85460=
201212101200 AAXX 10124 67855 NIL=
201212100600 AAXX 10064 67855 12980 43602 10256 20193 3//// 48/// 69904 84071
                   333 20196 5//// 84460=
201212091200 AAXX 09124 67855 NIL=
201212090600 AAXX 09064 67855 12980 40000 10240 20197 3//// 48/// 69904 82031
                   333 20176 5//// 82360 84080=
201212081200 AAXX 08124 67855 41680 43303 10278 20195 3//// 48/// 72998 84272
                   333 5//// 84830=
201212080600 AAXX 08064 67855 12980 20602 10252 20194 3//// 48/// 69904 82031
                   333 20178 5//// 82360=
201212071200 AAXX 07124 67855 41670 71402 10240 20212 3//// 48/// 78098 8527/
                   333 5//// 85840 87459=
201212070600 AAXX 07064 67855 12380 70000 10210 20203 3//// 48/// 60024 72162 83670
                   333 20177 5//// 83707 87460=
201212061200 AAXX 06124 67855 41670 71802 10224 20200 3//// 48/// 78198 8427/
                   333 5//// 84830 87459=
201212060600 AAXX 06064 67855 12980 70000 10226 20193 38/// 48/// 69954 8707/
                   333 20190 5//// 87460=
201212051200 AAXX 05124 67855 NIL=
201212050600 AAXX 05064 67855 31680 63002 10257 20165 38/// 48/// 81531
                   333 20199 5//// 81630 83360=
201212041200 AAXX 04124 67855 42680 62503 10286 20174 38/// 48/// 82272
                   333 5//// 82840 86460=
201212040600 AAXX 04064 67855 12980 60302 10222 20186 3//// 48/// 60084 86072
                   333 20193 5//// 86460=
201212031200 AAXX 03124 67855 42680 62702 10364 20153 3//// 48/// 86202
                   333 5//// 86840=
201212030600 AAXX 03064 67855 NIL=
201212021200 AAXX 02124 67855 NIL=
201212020600 AAXX 02064 67855 32980 70603 10226 20133 3//// 48/// 8707/
                   333 20166 5//// 87460=
201212011200 AAXX 01124 67855 42980 73601 10310 20119 3//// 48/// 8707/
                   333 5//// 87460=
201212010600 AAXX 01064 67855 32880 61102 10248 20100 3//// 48/// 86072
                   333 20194 5//// 86460=
