################################################################################
# Query made at 04/14/2022 06:24:45 UTC
# Country like Zamb*
# Time interval: from 04/01/2014 05:30  to 05/01/2014 05:30  UTC
################################################################################

################################################################################
#  SYNOPS from 67403, Kawambwa (Zambia) | 09-48S | 029-05E | 1323 m
################################################################################
201404302100 AAXX 30214 67403 NIL=
201404301200 AAXX 30124 67403 NIL=
201404300900 AAXX 30094 67403 NIL=
201404300600 AAXX 30064 67403 32480 40903 10193 20174 48511 82130
                   333 10296 20/// 58002 82810 82362
                   555 00/// 20000=
201404300300 AAXX 30034 67403 NIL=
201404292100 AAXX 29214 67403 NIL=
201404291800 AAXX 29184 67403 NIL=
201404291500 AAXX 29154 67403 NIL=
201404291200 AAXX 29124 67403 NIL=
201404290900 AAXX 29094 67403 NIL=
201404290600 AAXX 29064 67403 NIL=
201404290300 AAXX 29034 67403 NIL=
201404290000 AAXX 29004 67403 NIL=
201404282100 AAXX 28214 67403 NIL=
201404281800 AAXX 28184 67403 NIL=
201404281500 AAXX 28154 67403 NIL=
201404281200 AAXX 28124 67403 NIL=
201404280900 AAXX 28094 67403 NIL=
201404280600 AAXX 28064 67403 NIL=
201404272100 AAXX 27214 67403 NIL=
201404271800 AAXX 27184 67403 NIL=
201404271500 AAXX 27154 67403 NIL=
201404271200 AAXX 27124 67403 NIL=
201404270600 AAXX 27060 67403 NIL=
201404261800 AAXX 26184 67403 NIL=
201404261500 AAXX 26154 67403 NIL=
201404261200 AAXX 26124 67403 NIL=
201404260900 AAXX 26094 67403 NIL=
201404260600 AAXX 26064 67403 NIL=
201404260300 AAXX 26034 67403 NIL=
201404251800 AAXX 25184 67403 NIL=
201404251500 AAXX 25154 67403 NIL=
201404251200 AAXX 25124 67403 NIL=
201404250900 AAXX 25094 67403 NIL=
201404250600 AAXX 25064 67403 11980 70000 10222 20191 48513 60164 70242 86031
                   333 10311 20/// 58003 86362 81080
                   555 00/// 20000=
201404250300 AAXX 25034 67403 NIL=
201404250000 AAXX 25004 67403 NIL=
201404241200 AAXX 24124 67403 NIL=
201404240900 AAXX 24094 67403 NIL=
201404240600 AAXX 24064 67403 32980 70602 10213 20181 48502 87030
                   333 10300 20/// 59017 87362
                   555 00/// 20010=
201404231200 AAXX 23124 67403 NIL=
201404230900 AAXX 23094 67403 NIL=
201404230600 AAXX 23064 67403 12480 50902 10219 20185 48522 60104 81131
                   333 10296 20/// 58004 81810 81362 84080
                   555 00/// 20990=
201404221200 AAXX 22124 67403 NIL=
201404220600 AAXX 22064 67403 NIL=
201404220300 AAXX 22034 67403 NIL=
201404212100 AAXX 21214 67403 NIL=
201404211800 AAXX 21184 67403 NIL=
201404211500 AAXX 21154 67403 NIL=
201404211200 AAXX 21124 67403 NIL=
201404210900 AAXX 21094 67403 NIL=
201404210600 AAXX 21064 67403 NIL=
201404202100 AAXX 20214 67403 NIL=
201404201800 AAXX 20184 67403 NIL=
201404201500 AAXX 20154 67403 NIL=
201404201200 AAXX 20124 67403 NIL=
201404200600 AAXX 20064 67403 NIL=
201404200000 AAXX 20004 67403 NIL=
201404192100 AAXX 19214 67403 NIL=
201404191800 AAXX 19184 67403 NIL=
201404191500 AAXX 19154 67403 NIL=
201404191200 AAXX 19124 67403 NIL=
201404190900 AAXX 19094 67403 NIL=
201404190600 AAXX 19061 67403 NIL=
201404190000 AAXX 19004 67403 NIL=
201404181800 AAXX 18184 67403 NIL=
201404181200 AAXX 18124 67403 NIL=
201404180900 AAXX 18094 67403 NIL=
201404180600 AAXX 18064 67403 NIL=
201404171500 AAXX 17154 67403 NIL=
201404171200 AAXX 17124 67403 NIL=
201404170900 AAXX 17094 67403 NIL=
201404170600 AAXX 17064 67403 32480 70902 10216 20168 48522 81131
                   333 10285 20/// 58005 81812 81362 86080
                   555 00/// 20000=
201404162100 AAXX 16214 67403 NIL=
201404161500 AAXX 16154 67403 NIL=
201404161200 AAXX 16124 67403 NIL=
201404160900 AAXX 16094 67403 NIL=
201404160600 AAXX 16064 67403 32980 20902 10218 20160 48512 82031
                   333 10285 20/// 59007 82362 81080
                   555 00/// 20000=
201404160300 AAXX 16034 67403 NIL=
201404152100 AAXX 15214 67403 NIL=
201404151800 AAXX 15184 67403 NIL=
201404151500 AAXX 15154 67403 NIL=
201404151200 AAXX 15124 67403 NIL=
201404150900 AAXX 15094 67403 NIL=
201404150600 AAXX 15064 67403 32980 11202 10207 20158 48521 80001
                   333 10277 20/// 58000 81080
                   555 00/// 20000=
201404150300 AAXX 15034 67403 NIL=
201404142100 AAXX 14214 67403 NIL=
201404141200 AAXX 14124 67403 NIL=
201404140900 AAXX 14094 67403 NIL=
201404140600 AAXX 14064 67403 NIL=
201404140300 AAXX 14034 67403 NIL=
201404140000 AAXX 14004 67403 NIL=
201404131800 AAXX 13184 67403 NIL=
201404131500 AAXX 13154 67403 NIL=
201404131200 AAXX 13124 67403 NIL=
201404130900 AAXX 13094 67403 NIL=
201404130600 AAXX 13064 67403 NIL=
201404121800 AAXX 12184 67403 NIL=
201404121500 AAXX 12154 67403 NIL=
201404121200 AAXX 12124 67403 NIL=
201404120900 AAXX 12094 67403 NIL=
201404120600 AAXX 12064 67403 NIL=
201404111800 AAXX 11184 67403 NIL=
201404111500 AAXX 11154 67403 NIL=
201404111200 AAXX 11124 67403 NIL=
201404110900 AAXX 11094 67403 NIL=
201404110600 AAXX 11064 67403 12480 61603 10200 20168 48521 69974 83830
                   333 10275 20/// 59003 82610 81811 83362=
201404110300 AAXX 11034 67403 NIL=
201404110000 AAXX 11004 67403 NIL=
201404101200 AAXX 10124 67403 NIL=
201404100900 AAXX 10094 67403 NIL=
201404100600 AAXX 10064 67403 NIL=
201404092100 AAXX 09214 67403 NIL=
201404091500 AAXX 09154 67403 NIL=
201404091200 AAXX 09124 67403 NIL=
201404090900 AAXX 09094 67403 NIL=
201404090600 AAXX 09064 67403 11570 80000 10168 20168 48538 60604 76266
                   333 10270 20/// 58011 83620 88462=
201404090300 AAXX 09034 67403 NIL=
201404082100 AAXX 08214 67403 NIL=
201404081800 AAXX 08184 67403 NIL=
201404081500 AAXX 08154 67403 NIL=
201404081200 AAXX 08124 67403 NIL=
201404080900 AAXX 08094 67403 NIL=
201404080600 AAXX 08064 67403 12480 70000 10185 20177 48530 60184 8357/
                   333 10250 20/// 58001 83620 86462=
201404080300 AAXX 08034 67403 NIL=
201404071800 AAXX 07184 67403 NIL=
201404071500 AAXX 07154 67403 NIL=
201404071200 AAXX 07124 67403 NIL=
201404020900 AAXX 02094 67403 NIL=
201404020600 AAXX 02064 67403 11475 80000 10182 20179 48519 60174 76266 8257/
                   333 10275 20/// 58014 83618 87462=
201404020300 AAXX 02034 67403 NIL=
201404020000 AAXX 02004 67403 NIL=
201404012100 AAXX 01214 67403 NIL=
201404011800 AAXX 01184 67403 NIL=
201404011500 AAXX 01154 67403 NIL=
201404011200 AAXX 01124 67403 NIL=
201404010900 AAXX 01094 67403 NIL=
201404010600 AAXX 01064 67403 NIL=

################################################################################
#  SYNOPS from 67413, Mbala (Zambia) | 08-51S | 031-20E | 1673 m
################################################################################
201404302100 AAXX 30214 67413 NIL=
201404301200 AAXX 30124 67413 NIL=
201404300900 AAXX 30094 67413 NIL=
201404300600 AAXX 30064 67413 NIL=
201404300300 AAXX 30034 67413 NIL=
201404292100 AAXX 29214 67413 NIL=
201404291800 AAXX 29184 67413 NIL=
201404291500 AAXX 29154 67413 NIL=
201404291200 AAXX 29124 67413 NIL=
201404290900 AAXX 29094 67413 NIL=
201404290600 AAXX 29064 67413 NIL=
201404290300 AAXX 29034 67413 NIL=
201404290000 AAXX 29004 67413 NIL=
201404282100 AAXX 28214 67413 NIL=
201404281800 AAXX 28184 67413 NIL=
201404281500 AAXX 28154 67413 NIL=
201404281200 AAXX 28124 67413 NIL=
201404280900 AAXX 28094 67413 NIL=
201404280600 AAXX 28064 67413 NIL=
201404272100 AAXX 27214 67413 NIL=
201404271800 AAXX 27184 67413 NIL=
201404271500 AAXX 27154 67413 NIL=
201404271200 AAXX 27124 67413 NIL=
201404270600 AAXX 27060 67413 NIL=
201404261800 AAXX 26184 67413 NIL=
201404261500 AAXX 26154 67413 NIL=
201404261200 AAXX 26124 67413 NIL=
201404260900 AAXX 26094 67413 NIL=
201404260600 AAXX 26064 67413 NIL=
201404260300 AAXX 26034 67413 NIL=
201404251800 AAXX 25184 67413 NIL=
201404251500 AAXX 25154 67413 NIL=
201404251200 AAXX 25124 67413 NIL=
201404250900 AAXX 25094 67413 NIL=
201404250600 AAXX 25064 67413 NIL=
201404250300 AAXX 25034 67413 NIL=
201404250000 AAXX 25004 67413 NIL=
201404241200 AAXX 24124 67413 NIL=
201404240900 AAXX 24094 67413 NIL=
201404240600 AAXX 24064 67413 NIL=
201404231200 AAXX 23124 67413 NIL=
201404230900 AAXX 23094 67413 NIL=
201404230600 AAXX 23064 67413 NIL=
201404221200 AAXX 22124 67413 NIL=
201404220600 AAXX 22064 67413 12480 51014 10190 20158 48530 60044 83530
                   333 10/// 20/// 5//// 83610 82359 91023=
201404220300 AAXX 22034 67413 NIL=
201404212100 AAXX 21214 67413 NIL=
201404211800 AAXX 21184 67413 NIL=
201404211500 AAXX 21154 67413 NIL=
201404211200 AAXX 21124 67413 NIL=
201404210900 AAXX 21094 67413 NIL=
201404210600 AAXX 21064 67413 NIL=
201404202100 AAXX 20214 67413 NIL=
201404201800 AAXX 20184 67413 NIL=
201404201500 AAXX 20154 67413 NIL=
201404201200 AAXX 20124 67413 NIL=
201404200600 AAXX 20064 67413 NIL=
201404200000 AAXX 20004 67413 NIL=
201404192100 AAXX 19214 67413 NIL=
201404191800 AAXX 19184 67413 NIL=
201404191500 AAXX 19154 67413 NIL=
201404191200 AAXX 19124 67413 NIL=
201404190900 AAXX 19094 67413 NIL=
201404190600 AAXX 19061 67413 NIL=
201404190000 AAXX 19004 67413 NIL=
201404181800 AAXX 18184 67413 NIL=
201404181200 AAXX 18124 67413 NIL=
201404180900 AAXX 18094 67413 NIL=
201404180600 AAXX 18064 67413 NIL=
201404171500 AAXX 17154 67413 NIL=
201404171200 AAXX 17124 67413 NIL=
201404170900 AAXX 17094 67413 NIL=
201404170600 AAXX 17064 67413 32980 50910 10205 20157 48536 8503/
                   333 10270 20/// 59003 85359 91023=
201404162100 AAXX 16214 67413 NIL=
201404161500 AAXX 16154 67413 NIL=
201404161200 AAXX 16124 67413 NIL=
201404160900 AAXX 16094 67413 NIL=
201404160600 AAXX 16064 67413 NIL=
201404160300 AAXX 16034 67413 NIL=
201404152100 AAXX 15214 67413 NIL=
201404151800 AAXX 15184 67413 NIL=
201404151500 AAXX 15154 67413 NIL=
201404151200 AAXX 15124 67413 NIL=
201404150900 AAXX 15094 67413 NIL=
201404150600 AAXX 15064 67413 32980 10915 10185 20145 48540 81040
                   333 10265 20/// 59007 81360
                   555 00/// 20990 91024=
201404150300 AAXX 15034 67413 NIL=
201404142100 AAXX 14214 67413 NIL=
201404141200 AAXX 14124 67413 NIL=
201404140900 AAXX 14094 67413 NIL=
201404140600 AAXX 14064 67413 12480 40908 10185 20145 48548 69904 84501
                   333 10245 20/// 58003 84612 82080
                   555 00/// 20000 91025=
201404140300 AAXX 14034 67413 NIL=
201404140000 AAXX 14004 67413 NIL=
201404131800 AAXX 13184 67413 NIL=
201404131500 AAXX 13154 67413 NIL=
201404131200 AAXX 13124 67413 NIL=
201404130900 AAXX 13094 67413 NIL=
201404130600 AAXX 13064 67413 NIL=
201404121800 AAXX 12184 67413 NIL=
201404121500 AAXX 12154 67413 NIL=
201404121200 AAXX 12124 67413 NIL=
201404120900 AAXX 12094 67413 NIL=
201404120600 AAXX 12064 67413 NIL=
201404111800 AAXX 11184 67413 NIL=
201404111500 AAXX 11154 67413 NIL=
201404111200 AAXX 11124 67413 NIL=
201404110900 AAXX 11094 67413 NIL=
201404110600 AAXX 11064 67413 32480 70915 10175 20151 48544 875//
                   333 10255 20/// 5//// 87610 91024=
201404110300 AAXX 11034 67413 NIL=
201404110000 AAXX 11004 67413 NIL=
201404101200 AAXX 10124 67413 NIL=
201404100900 AAXX 10094 67413 NIL=
201404100600 AAXX 10064 67413 NIL=
201404092100 AAXX 09214 67413 NIL=
201404091500 AAXX 09154 67413 NIL=
201404091200 AAXX 09124 67413 NIL=
201404090900 AAXX 09094 67413 NIL=
201404090600 AAXX 09064 67413 12980 70000 10170 20155 48556 60144 8707/
                   333 10250 20/// 58003 87359
                   555 00/// 20007 91026=
201404090300 AAXX 09034 67413 NIL=
201404082100 AAXX 08214 67413 NIL=
201404081800 AAXX 08184 67413 NIL=
201404081500 AAXX 08154 67413 NIL=
201404081200 AAXX 08124 67413 NIL=
201404080900 AAXX 08094 67413 NIL=
201404080600 AAXX 08064 67413 NIL=
201404080300 AAXX 08034 67413 NIL=
201404071800 AAXX 07184 67413 NIL=
201404071500 AAXX 07154 67413 NIL=
201404071200 AAXX 07124 67413 NIL=
201404020900 AAXX 02094 67413 NIL=
201404020600 AAXX 02064 67413 12980 70000 10175 20166 48545 60114 8707/
                   333 10250 20/// 58009 87360 91024=
201404020300 AAXX 02034 67413 NIL=
201404020000 AAXX 02004 67413 NIL=
201404012100 AAXX 01214 67413 NIL=
201404011800 AAXX 01184 67413 NIL=
201404011500 AAXX 01154 67413 NIL=
201404011200 AAXX 01124 67413 NIL=
201404010900 AAXX 01094 67413 NIL=
201404010600 AAXX 01064 67413 32980 20000 10205 20174 48534 82040
                   333 10254 20/// 58012 82359 91023=

################################################################################
#  SYNOPS from 67441, Mwinilunga (Zambia) | 11-45S | 024-26E | 1361 m
################################################################################
201404302100 AAXX 30214 67441 NIL=
201404301200 AAXX 30124 67441 NIL=
201404300900 AAXX 30094 67441 NIL=
201404300600 AAXX 30064 67441 NIL=
201404300300 AAXX 30034 67441 NIL=
201404292100 AAXX 29214 67441 NIL=
201404291800 AAXX 29184 67441 NIL=
201404291500 AAXX 29154 67441 NIL=
201404291200 AAXX 29124 67441 NIL=
201404290900 AAXX 29094 67441 NIL=
201404290600 AAXX 29064 67441 32580 301// 10185 20177 48558 81130
                   333 10290 20/// 58003 81820 83360=
201404290300 AAXX 29034 67441 NIL=
201404290000 AAXX 29004 67441 NIL=
201404282100 AAXX 28214 67441 NIL=
201404281800 AAXX 28184 67441 NIL=
201404281500 AAXX 28154 67441 NIL=
201404281200 AAXX 28124 67441 NIL=
201404280900 AAXX 28094 67441 NIL=
201404280600 AAXX 28064 67441 32980 002// 10173 20/// 48561
                   333 10290 20/// 59002=
201404272100 AAXX 27214 67441 NIL=
201404271800 AAXX 27184 67441 NIL=
201404271500 AAXX 27154 67441 NIL=
201404271200 AAXX 27124 67441 NIL=
201404270600 AAXX 27060 67441 NIL=
201404261800 AAXX 26184 67441 NIL=
201404261500 AAXX 26154 67441 NIL=
201404261200 AAXX 26124 67441 NIL=
201404260900 AAXX 26094 67441 NIL=
201404260600 AAXX 26064 67441 NIL=
201404260300 AAXX 26034 67441 NIL=
201404251800 AAXX 25184 67441 NIL=
201404251500 AAXX 25154 67441 NIL=
201404251200 AAXX 25124 67441 NIL=
201404250900 AAXX 25094 67441 NIL=
201404250600 AAXX 25064 67441 11960 802// 10175 20167 48567 60154 76166 887//
                   333 10/// 20/// 59024 88709=
201404250300 AAXX 25034 67441 NIL=
201404250000 AAXX 25004 67441 NIL=
201404241200 AAXX 24124 67441 NIL=
201404240900 AAXX 24094 67441 NIL=
201404240600 AAXX 24064 67441 12580 70000 10177 20174 48543 60514 81130
                   333 10305 20/// 59002 81820 87360=
201404231200 AAXX 23124 67441 NIL=
201404230900 AAXX 23094 67441 NIL=
201404230600 AAXX 23064 67441 32982 10000 10145 20137 48545 80001
                   333 10280 20/// 59005 81080=
201404221200 AAXX 22124 67441 NIL=
201404220600 AAXX 22064 67441 32980 721// 10168 20148 48548 80003
                   333 10280 20/// 59004 87280=
201404220300 AAXX 22034 67441 NIL=
201404212100 AAXX 21214 67441 NIL=
201404211800 AAXX 21184 67441 NIL=
201404211500 AAXX 21154 67441 NIL=
201404211200 AAXX 21124 67441 NIL=
201404210900 AAXX 21094 67441 NIL=
201404210600 AAXX 21064 67441 NIL=
201404202100 AAXX 20214 67441 NIL=
201404201800 AAXX 20184 67441 NIL=
201404201500 AAXX 20154 67441 NIL=
201404201200 AAXX 20124 67441 NIL=
201404200600 AAXX 20064 67441 NIL=
201404200000 AAXX 20004 67441 NIL=
201404192100 AAXX 19214 67441 NIL=
201404191800 AAXX 19184 67441 NIL=
201404191500 AAXX 19154 67441 NIL=
201404191200 AAXX 19124 67441 NIL=
201404190900 AAXX 19094 67441 NIL=
201404190600 AAXX 19061 67441 NIL=
201404190000 AAXX 19004 67441 NIL=
201404181800 AAXX 18184 67441 NIL=
201404181200 AAXX 18124 67441 NIL=
201404180900 AAXX 18094 67441 NIL=
201404180600 AAXX 18064 67441 NIL=
201404171500 AAXX 17154 67441 NIL=
201404171200 AAXX 17124 67441 NIL=
201404170900 AAXX 17094 67441 NIL=
201404170600 AAXX 17064 67441 32982 416// 10165 20149 48554 80008
                   333 10290 20/// 59003 84280=
201404162100 AAXX 16214 67441 NIL=
201404161500 AAXX 16154 67441 NIL=
201404161200 AAXX 16124 67441 NIL=
201404160900 AAXX 16094 67441 NIL=
201404160600 AAXX 16064 67441 NIL=
201404160300 AAXX 16034 67441 NIL=
201404152100 AAXX 15214 67441 NIL=
201404151800 AAXX 15184 67441 NIL=
201404151500 AAXX 15154 67441 NIL=
201404151200 AAXX 15124 67441 NIL=
201404150900 AAXX 15094 67441 NIL=
201404150600 AAXX 15064 67441 32980 10000 10160 20149 48559 81040
                   333 10275 20/// 59015 81360=
201404150300 AAXX 15034 67441 NIL=
201404142100 AAXX 14214 67441 NIL=
201404141200 AAXX 14124 67441 NIL=
201404140900 AAXX 14094 67441 NIL=
201404140600 AAXX 14064 67441 32980 215// 10176 20167 48573 80004
                   333 10270 20/// 58008 82080=
201404140300 AAXX 14034 67441 NIL=
201404140000 AAXX 14004 67441 NIL=
201404131800 AAXX 13184 67441 NIL=
201404131500 AAXX 13154 67441 NIL=
201404131200 AAXX 13124 67441 NIL=
201404130900 AAXX 13094 67441 NIL=
201404130600 AAXX 13064 67441 NIL=
201404121800 AAXX 12184 67441 NIL=
201404121500 AAXX 12154 67441 NIL=
201404121200 AAXX 12124 67441 NIL=
201404120900 AAXX 12094 67441 NIL=
201404120600 AAXX 12064 67441 NIL=
201404111800 AAXX 11184 67441 NIL=
201404111500 AAXX 11154 67441 NIL=
201404111200 AAXX 11124 67441 NIL=
201404110900 AAXX 11094 67441 NIL=
201404110600 AAXX 11064 67441 NIL=
201404110300 AAXX 11034 67441 NIL=
201404110000 AAXX 11004 67441 NIL=
201404101200 AAXX 10124 67441 NIL=
201404100900 AAXX 10094 67441 NIL=
201404100600 AAXX 10064 67441 11965 818// 10165 20/// 48558 60524 71666 8802/
                   333 10200 20/// 5//// 88460=
201404092100 AAXX 09214 67441 NIL=
201404091500 AAXX 09154 67441 NIL=
201404091200 AAXX 09124 67441 NIL=
201404090900 AAXX 09094 67441 NIL=
201404090600 AAXX 09064 67441 11970 821// 10160 20160 48/// 60324 76166 8802/
                   333 10255 20/// 5//// 88460=
201404090300 AAXX 09034 67441 NIL=
201404082100 AAXX 08214 67441 NIL=
201404081800 AAXX 08184 67441 NIL=
201404081500 AAXX 08154 67441 NIL=
201404081200 AAXX 08124 67441 NIL=
201404080900 AAXX 08094 67441 NIL=
201404080600 AAXX 08064 67441 12980 70000 10180 20175 48568 60114 87030
                   333 10260 20/// 58002 87360=
201404080300 AAXX 08034 67441 NIL=
201404071800 AAXX 07184 67441 NIL=
201404071500 AAXX 07154 67441 NIL=
201404071200 AAXX 07124 67441 NIL=
201404020900 AAXX 02094 67441 NIL=
201404020600 AAXX 02064 67441 12480 80000 10185 20182 48545 60024 886//
                   333 10270 20/// 58004 88710=
201404020300 AAXX 02034 67441 NIL=
201404020000 AAXX 02004 67441 NIL=
201404012100 AAXX 01214 67441 NIL=
201404011800 AAXX 01184 67441 NIL=
201404011500 AAXX 01154 67441 NIL=
201404011200 AAXX 01124 67441 NIL=
201404010900 AAXX 01094 67441 NIL=
201404010600 AAXX 01064 67441 11/01 90000 10172 20172 48541 60074 74544 89///
                   333 10240 20/// 59008=

################################################################################
#  SYNOPS from 67461, Mansa (Zambia) | 11-06S | 028-51E | 1382 m
################################################################################
201404302100 AAXX 30214 67461 NIL=
201404301200 AAXX 30124 67461 NIL=
201404300900 AAXX 30094 67461 NIL=
201404300600 AAXX 30064 67461 NIL=
201404300300 AAXX 30034 67461 NIL=
201404292100 AAXX 29214 67461 NIL=
201404291800 AAXX 29184 67461 NIL=
201404291500 AAXX 29154 67461 NIL=
201404291200 AAXX 29124 67461 NIL=
201404290900 AAXX 29094 67461 NIL=
201404290600 AAXX 29064 67461 NIL=
201404290300 AAXX 29034 67461 NIL=
201404290000 AAXX 29004 67461 NIL=
201404282100 AAXX 28214 67461 NIL=
201404281800 AAXX 28184 67461 NIL=
201404281500 AAXX 28154 67461 NIL=
201404281200 AAXX 28124 67461 NIL=
201404280900 AAXX 28094 67461 NIL=
201404280600 AAXX 28064 67461 NIL=
201404272100 AAXX 27214 67461 NIL=
201404271800 AAXX 27184 67461 NIL=
201404271500 AAXX 27154 67461 NIL=
201404271200 AAXX 27124 67461 NIL=
201404270600 AAXX 27060 67461 NIL=
201404261800 AAXX 26184 67461 NIL=
201404261500 AAXX 26154 67461 NIL=
201404261200 AAXX 26124 67461 NIL=
201404260900 AAXX 26094 67461 NIL=
201404260600 AAXX 26064 67461 NIL=
201404260300 AAXX 26034 67461 NIL=
201404251800 AAXX 25184 67461 NIL=
201404251500 AAXX 25154 67461 NIL=
201404251200 AAXX 25124 67461 NIL=
201404250900 AAXX 25094 67461 NIL=
201404250600 AAXX 25064 67461 NIL=
201404250300 AAXX 25034 67461 NIL=
201404250000 AAXX 25004 67461 NIL=
201404241200 AAXX 24124 67461 41580 51106 10291 20187 48492 71522 85202
                   333 59023 85856 83080 91015=
201404240900 AAXX 24094 67461 NIL=
201404240600 AAXX 24064 67461 32980 31002 10210 20190 48517 70200 82031
                   333 10294 20160 59010 82361 82080 91018=
201404231200 AAXX 23124 67461 NIL=
201404230900 AAXX 23094 67461 NIL=
201404230600 AAXX 23064 67461 12580 71102 10204 20187 48517 60054 70222 8257/
                   333 10278 20174 58003 82621 87459 91019=
201404221200 AAXX 22124 67461 NIL=
201404220600 AAXX 22064 67461 32980 60705 10206 20180 48523 70222 82038
                   333 10274 20152 59002 82361 86280 91019=
201404220300 AAXX 22034 67461 NIL=
201404212100 AAXX 21214 67461 NIL=
201404211800 AAXX 21184 67461 NIL=
201404211500 AAXX 21154 67461 NIL=
201404211200 AAXX 21124 67461 NIL=
201404210900 AAXX 21094 67461 NIL=
201404210600 AAXX 21064 67461 NIL=
201404202100 AAXX 20214 67461 NIL=
201404201800 AAXX 20184 67461 NIL=
201404201500 AAXX 20154 67461 NIL=
201404201200 AAXX 20124 67461 NIL=
201404200600 AAXX 20064 67461 NIL=
201404200000 AAXX 20004 67461 NIL=
201404192100 AAXX 19214 67461 NIL=
201404191800 AAXX 19184 67461 NIL=
201404191500 AAXX 19154 67461 NIL=
201404191200 AAXX 19124 67461 NIL=
201404190900 AAXX 19094 67461 NIL=
201404190600 AAXX 19061 67461 NIL=
201404190000 AAXX 19004 67461 NIL=
201404181800 AAXX 18184 67461 NIL=
201404181200 AAXX 18124 67461 NIL=
201404180900 AAXX 18094 67461 NIL=
201404180600 AAXX 18064 67461 NIL=
201404171500 AAXX 17154 67461 NIL=
201404171200 AAXX 17124 67461 NIL=
201404170900 AAXX 17094 67461 NIL=
201404170600 AAXX 17064 67461 NIL=
201404162100 AAXX 16214 67461 NIL=
201404161500 AAXX 16154 67461 NIL=
201404161200 AAXX 16124 67461 NIL=
201404160900 AAXX 16094 67461 NIL=
201404160600 AAXX 16064 67461 NIL=
201404160300 AAXX 16034 67461 NIL=
201404152100 AAXX 15214 67461 NIL=
201404151800 AAXX 15184 67461 NIL=
201404151500 AAXX 15154 67461 NIL=
201404151200 AAXX 15124 67461 NIL=
201404150900 AAXX 15094 67461 NIL=
201404150600 AAXX 15064 67461 32580 20803 10196 20175 48536 70300 81501
                   333 10267 20140 59007 81626 82080 91020=
201404150300 AAXX 15034 67461 NIL=
201404142100 AAXX 14214 67461 NIL=
201404141200 AAXX 14124 67461 NIL=
201404140900 AAXX 14094 67461 NIL=
201404140600 AAXX 14064 67461 32580 30708 10187 20162 48542 70300 83500
                   333 10254 20144 59001 83631 91021=
201404140300 AAXX 14034 67461 NIL=
201404140000 AAXX 14004 67461 NIL=
201404131800 AAXX 13184 67461 NIL=
201404131500 AAXX 13154 67461 NIL=
201404131200 AAXX 13124 67461 NIL=
201404130900 AAXX 13094 67461 NIL=
201404130600 AAXX 13064 67461 NIL=
201404121800 AAXX 12184 67461 NIL=
201404121500 AAXX 12154 67461 NIL=
201404121200 AAXX 12124 67461 NIL=
201404120900 AAXX 12094 67461 NIL=
201404120600 AAXX 12064 67461 NIL=
201404111800 AAXX 11184 67461 NIL=
201404111500 AAXX 11154 67461 NIL=
201404111200 AAXX 11124 67461 NIL=
201404110900 AAXX 11094 67461 NIL=
201404110600 AAXX 11064 67461 32480 71306 10190 20165 48537 70322 875//
                   333 10259 20173 58004 87414 91021=
201404110300 AAXX 11034 67461 NIL=
201404110000 AAXX 11004 67461 NIL=
201404101200 AAXX 10124 67461 NIL=
201404100900 AAXX 10094 67461 NIL=
201404100600 AAXX 10064 67461 12480 80905 10185 20174 48528 60164 70222 875//
                   333 10222 20167 59004 87613 91020=
201404092100 AAXX 09214 67461 NIL=
201404091500 AAXX 09154 67461 NIL=
201404091200 AAXX 09124 67461 NIL=
201404090900 AAXX 09094 67461 NIL=
201404090600 AAXX 09064 67461 31256 81302 10182 20179 48536 76166 8577/
                   333 10247 20160 59008 85703 87459 91021=
201404090300 AAXX 09034 67461 NIL=
201404082100 AAXX 08214 67461 NIL=
201404081800 AAXX 08184 67461 NIL=
201404081500 AAXX 08154 67461 NIL=
201404081200 AAXX 08124 67461 NIL=
201404080900 AAXX 08094 67461 NIL=
201404080600 AAXX 08064 67461 12580 60808 10188 20171 48544 60044 70322 84530
                   333 10264 20165 58010 84621 84360 91021=
201404080300 AAXX 08034 67461 NIL=
201404071800 AAXX 07184 67461 NIL=
201404071500 AAXX 07154 67461 NIL=
201404071200 AAXX 07124 67461 NIL=
201404020900 AAXX 02094 67461 NIL=
201404020600 AAXX 02064 67461 12380 80000 10195 20188 48524 60024 70322 8277/
                   333 10292 20180 58009 82708 88459 91019=
201404020300 AAXX 02034 67461 NIL=
201404020000 AAXX 02004 67461 NIL=
201404012100 AAXX 01214 67461 NIL=
201404011800 AAXX 01184 67461 NIL=
201404011500 AAXX 01154 67461 NIL=
201404011200 AAXX 01124 67461 NIL=
201404010900 AAXX 01094 67461 NIL=
201404010600 AAXX 01064 67461 11980 50000 10210 20187 48517 60044 72844 85030
                   333 10292 20168 59017 85360 91018=

################################################################################
#  SYNOPS from 67475, Kasama (Zambia) | 10-13S | 031-08E | 1382 m
################################################################################
201404302100 AAXX 30214 67475 NIL=
201404301200 AAXX 30124 67475 42680 71208 10278 20162 48510 85201
                   333 59004 85840 86080
                   555 91018=
201404300900 AAXX 30094 67475 42580 70908 10260 20165 48540 85201
                   333 59001 85830 86080 91022=
201404300600 AAXX 30064 67475 32480 71304 10189 20174 48538 876//
                   333 10279 20150 59001 87620
                   555 00/// 91022=
201404300300 AAXX 30034 67475 NIL=
201404292100 AAXX 29214 67475 NIL=
201404291800 AAXX 29184 67475 NIL=
201404291500 AAXX 29154 67475 NIL=
201404291200 AAXX 29124 67475 NIL=
201404290900 AAXX 29094 67475 42580 71308 10225 20186 48539 86231
                   333 86830 82360 81080
                   555 91022=
201404290600 AAXX 29064 67475 32480 60910 10190 20166 48539 85631
                   333 10280 20149 59002 85620 82360 81080 91022=
201404290300 AAXX 29034 67475 NIL=
201404290000 AAXX 29004 67475 NIL=
201404282100 AAXX 28214 67475 NIL=
201404281800 AAXX 28184 67475 NIL=
201404281500 AAXX 28154 67475 NIL=
201404281200 AAXX 28124 67475 42680 51810 10274 20144 48515 70222 85201
                   333 58008 85835 81080 91019=
201404280900 AAXX 28094 67475 42580 51509 10256 20156 48541 70222 85500
                   333 58010 85625 91023=
201404280600 AAXX 28064 67475 32480 70507 10182 20176 48541 70322 875//
                   333 10301 20149 58007 87619
                   555 00/// 91022=
201404272100 AAXX 27214 67475 NIL=
201404271800 AAXX 27184 67475 NIL=
201404271500 AAXX 27154 67475 NIL=
201404271200 AAXX 27124 67475 NIL=
201404270600 AAXX 27060 67475 NIL=
201404261800 AAXX 26184 67475 NIL=
201404261500 AAXX 26154 67475 NIL=
201404261200 AAXX 26124 67475 NIL=
201404260900 AAXX 26094 67475 NIL=
201404260600 AAXX 26064 67475 NIL=
201404260300 AAXX 26034 67475 NIL=
201404251800 AAXX 25184 67475 NIL=
201404251500 AAXX 25154 67475 NIL=
201404251200 AAXX 25124 67475 42680 60908 10291 20153 48507 70322 86201
                   333 58004 81940 86840 84080 91018=
201404250900 AAXX 25094 67475 42580 50910 10261 20156 48532 70322 84204
                   333 58006 84829 83080 91021=
201404250600 AAXX 25064 67475 12480 30507 10209 20177 48535 69904 70200 82631
                   333 10290 20158 58013 82718 82360 82080
                   555 00/// 91021=
201404250300 AAXX 25034 67475 NIL=
201404250000 AAXX 25004 67475 NIL=
201404241200 AAXX 24124 67475 41770 51107 10262 20166 48502 78011 85202
                   333 58003 85850 81080 91017=
201404240900 AAXX 24094 67475 42680 30707 10262 20169 48526 83201
                   333 59006 83835 81080 91020=
201404240600 AAXX 24064 67475 32580 30910 10206 20167 48522 81131
                   333 59011 81820 81360 83080
                   555 00/// 91020=
201404231200 AAXX 23124 67475 41670 50407 10288 20157 48500 71522 83230
                   333 59010 81945 82850 83363 91017=
201404230900 AAXX 23094 67475 42680 40411 10261 20171 48532 84231
                   333 58004 84835 82362 81080 91021=
201404230600 AAXX 23064 67475 12480 40607 10191 20180 48532 60024 83631
                   333 10270 20164 58011 83712 81360 83080
                   555 91021=
201404221200 AAXX 22124 67475 41680 70901 10242 20174 48508 71582 8623/
                   333 58010 86840 81362 91018=
201404220900 AAXX 22094 67475 42680 61009 10240 20173 48527 85231
                   333 59002 85835 83361 81080 91020=
201404220600 AAXX 22064 67475 12480 61305 10200 20172 48522 60024 82670
                   333 10256 20164 58005 82620 84822 86360
                   555 91020=
201404220300 AAXX 22034 67475 NIL=
201404212100 AAXX 21214 67475 NIL=
201404211800 AAXX 21184 67475 NIL=
201404211500 AAXX 21154 67475 NIL=
201404211200 AAXX 21124 67475 NIL=
201404210900 AAXX 21094 67475 NIL=
201404210600 AAXX 21064 67475 NIL=
201404202100 AAXX 20214 67475 NIL=
201404201800 AAXX 20184 67475 NIL=
201404201500 AAXX 20154 67475 NIL=
201404201200 AAXX 20124 67475 NIL=
201404200600 AAXX 20064 67475 NIL=
201404200000 AAXX 20004 67475 NIL=
201404192100 AAXX 19214 67475 NIL=
201404191800 AAXX 19184 67475 NIL=
201404191500 AAXX 19154 67475 NIL=
201404191200 AAXX 19124 67475 NIL=
201404190900 AAXX 19094 67475 NIL=
201404190600 AAXX 19061 67475 NIL=
201404190000 AAXX 19004 67475 NIL=
201404181800 AAXX 18184 67475 NIL=
201404181200 AAXX 18124 67475 NIL=
201404180900 AAXX 18094 67475 NIL=
201404180600 AAXX 18064 67475 NIL=
201404171500 AAXX 17154 67475 NIL=
201404171200 AAXX 17124 67475 NIL=
201404170900 AAXX 17094 67475 42580 50907 10244 20163 48535 70322 85201
                   333 59002 85820 82080 91021=
201404170600 AAXX 17064 67475 NIL=
201404162100 AAXX 16214 67475 NIL=
201404161500 AAXX 16154 67475 NIL=
201404161200 AAXX 16124 67475 42780 41211 10274 20150 48515 84200
                   333 58004 84850 91019=
201404160900 AAXX 16094 67475 42680 41512 10257 20156 48537 84200
                   333 58005 84835 91021=
201404160600 AAXX 16064 67475 32480 20306 10187 20174 48532 70340 82601
                   333 10272 20135 59005 82712 81080
                   555 00/// 91021=
201404160300 AAXX 16034 67475 NIL=
201404152100 AAXX 15214 67475 NIL=
201404151800 AAXX 15184 67475 NIL=
201404151500 AAXX 15154 67475 NIL=
201404151200 AAXX 15124 67475 42680 40707 10262 20144 48510 84101
                   333 59011 84845 81080 91018=
201404150900 AAXX 15094 67475 NIL=
201404150600 AAXX 15064 67475 32480 10907 10183 20159 48537 81601
                   333 10262 20130 59007 81712 81080
                   555 00/// 91022=
201404150300 AAXX 15034 67475 NIL=
201404142100 AAXX 14214 67475 NIL=
201404141200 AAXX 14124 67475 42680 61208 10251 20152 48521 862//
                   333 59001 86845 91020=
201404140900 AAXX 14094 67475 42680 51311 10233 20156 48543 83131
                   333 59003 83830 82361 81080 91022=
201404140600 AAXX 14064 67475 32480 41412 10174 20154 48544 81671
                   333 10242 20151 59002 81712 83360 81080
                   555 00/// 91023=
201404140300 AAXX 14034 67475 NIL=
201404140000 AAXX 14004 67475 NIL=
201404131800 AAXX 13184 67475 NIL=
201404131500 AAXX 13154 67475 NIL=
201404131200 AAXX 13124 67475 NIL=
201404130900 AAXX 13094 67475 NIL=
201404130600 AAXX 13064 67475 NIL=
201404121800 AAXX 12184 67475 NIL=
201404121500 AAXX 12154 67475 NIL=
201404121200 AAXX 12124 67475 NIL=
201404120900 AAXX 12094 67475 NIL=
201404120600 AAXX 12064 67475 NIL=
201404111800 AAXX 11184 67475 NIL=
201404111500 AAXX 11154 67475 NIL=
201404111200 AAXX 11124 67475 NIL=
201404110900 AAXX 11094 67475 42580 70910 10212 20157 48542 70222 878//
                   333 58002 81820 86625 91022=
201404110600 AAXX 11064 67475 32480 81512 10181 20167 48544 886//
                   333 10250 20161 58003 88715 91023=
201404110300 AAXX 11034 67475 NIL=
201404110000 AAXX 11004 67475 NIL=
201404101200 AAXX 10124 67475 42680 61212 10238 20163 48515 868//
                   333 59008 83835 83640 91019=
201404100900 AAXX 10094 67475 NIL=
201404100600 AAXX 10064 67475 12480 80909 10184 20162 48541 69904 70322 8367/
                   333 10225 20161 59014 83710 88460 91022=
201404092100 AAXX 09214 67475 NIL=
201404091500 AAXX 09154 67475 NIL=
201404091200 AAXX 09124 67475 41580 71609 10206 20177 48522 75055 8427/
                   333 58003 84828 87460 91020=
201404090900 AAXX 09094 67475 42580 81107 10195 20166 48547 70222 8557/
                   333 59003 85622 88460 91023=
201404090600 AAXX 09064 67475 32480 81207 10181 20162 48554 70322 8263/
                   333 10250 20167 58004 82712 88360
                   555 00/// 91024=
201404090300 AAXX 09034 67475 NIL=
201404082100 AAXX 08214 67475 NIL=
201404081800 AAXX 08184 67475 NIL=
201404081500 AAXX 08154 67475 NIL=
201404081200 AAXX 08124 67475 42680 71608 10236 20162 48520 70222 872//
                   333 58008 87837 91020=
201404080900 AAXX 08094 67475 42580 70908 10214 20167 48550 70222 875//
                   333 58006 87622 91023=
201404080600 AAXX 08064 67475 12480 71008 10189 20168 48561 69904 70322 86531
                   333 10262 20170 58009 86616 82359 81080
                   555 00/// BB/// CC170 DD054
                   QNH 1023.9=
201404080300 AAXX 08034 67475 NIL=
201404071800 AAXX 07184 67475 NIL=
201404071500 AAXX 07154 67475 NIL=
201404071200 AAXX 07124 67475 42680 51411 10254 20177 48513 84233
                   333 58010 81945 83850 82363 82080 91019=
201404020900 AAXX 02094 67475 41480 82501 10219 20194 48541 76066 8177/
                   333 58019 81715 84825 88460 91022=
201404020600 AAXX 02064 67475 11330 80000 10174 20174 48535 60354 887//
                   333 10270 20162 58012 88709 91022=
201404020300 AAXX 02034 67475 NIL=
201404020000 AAXX 02004 67475 NIL=
201404012100 AAXX 01214 67475 NIL=
201404011800 AAXX 01184 67475 NIL=
201404011500 AAXX 01154 67475 NIL=
201404011200 AAXX 01124 67475 42680 51804 10264 20171 48496 70322 85200
                   333 58012 85840 91017=
201404010900 AAXX 01094 67475 42580 41704 10249 20176 48524 70222 83130
                   333 59023 83828 81360 91020=
201404010600 AAXX 01064 67475 12480 41502 10195 20174 48525 60034 70222 83131
                   333 10230 20146 59013 83818 82360 81080 91020=

################################################################################
#  SYNOPS from 67476, Misamfu (Zambia) | 10-06S | 031-15E | 1536 m
################################################################################
201404302100 AAXX 30214 67476 NIL=
201404301200 AAXX 30124 67476 NIL=
201404300900 AAXX 30094 67476 NIL=
201404300600 AAXX 30064 67476 NIL=
201404300300 AAXX 30034 67476 NIL=
201404292100 AAXX 29214 67476 NIL=
201404291800 AAXX 29184 67476 NIL=
201404291500 AAXX 29154 67476 NIL=
201404291200 AAXX 29124 67476 NIL=
201404290900 AAXX 29094 67476 NIL=
201404290600 AAXX 29064 67476 NIL=
201404290300 AAXX 29034 67476 NIL=
201404290000 AAXX 29004 67476 NIL=
201404282100 AAXX 28214 67476 NIL=
201404281800 AAXX 28184 67476 NIL=
201404281500 AAXX 28154 67476 NIL=
201404281200 AAXX 28124 67476 NIL=
201404280900 AAXX 28094 67476 NIL=
201404280600 AAXX 28064 67476 NIL=
201404272100 AAXX 27214 67476 NIL=
201404271800 AAXX 27184 67476 NIL=
201404271500 AAXX 27154 67476 NIL=
201404271200 AAXX 27124 67476 NIL=
201404270600 AAXX 27060 67476 NIL=
201404261800 AAXX 26184 67476 NIL=
201404261500 AAXX 26154 67476 NIL=
201404261200 AAXX 26124 67476 NIL=
201404260900 AAXX 26094 67476 NIL=
201404260600 AAXX 26064 67476 NIL=
201404260300 AAXX 26034 67476 NIL=
201404251800 AAXX 25184 67476 NIL=
201404251500 AAXX 25154 67476 NIL=
201404251200 AAXX 25124 67476 NIL=
201404250900 AAXX 25094 67476 NIL=
201404250600 AAXX 25064 67476 NIL=
201404250300 AAXX 25034 67476 NIL=
201404250000 AAXX 25004 67476 NIL=
201404241200 AAXX 24124 67476 NIL=
201404240900 AAXX 24094 67476 NIL=
201404240600 AAXX 24064 67476 NIL=
201404231200 AAXX 23124 67476 NIL=
201404230900 AAXX 23094 67476 NIL=
201404230600 AAXX 23064 67476 NIL=
201404221200 AAXX 22124 67476 NIL=
201404220600 AAXX 22064 67476 NIL=
201404220300 AAXX 22034 67476 NIL=
201404212100 AAXX 21214 67476 NIL=
201404211800 AAXX 21184 67476 NIL=
201404211500 AAXX 21154 67476 NIL=
201404211200 AAXX 21124 67476 NIL=
201404210900 AAXX 21094 67476 NIL=
201404210600 AAXX 21064 67476 NIL=
201404202100 AAXX 20214 67476 NIL=
201404201800 AAXX 20184 67476 NIL=
201404201500 AAXX 20154 67476 NIL=
201404201200 AAXX 20124 67476 NIL=
201404200600 AAXX 20064 67476 NIL=
201404200000 AAXX 20004 67476 NIL=
201404192100 AAXX 19214 67476 NIL=
201404191800 AAXX 19184 67476 NIL=
201404191500 AAXX 19154 67476 NIL=
201404191200 AAXX 19124 67476 NIL=
201404190900 AAXX 19094 67476 NIL=
201404190600 AAXX 19061 67476 NIL=
201404190000 AAXX 19004 67476 NIL=
201404181800 AAXX 18184 67476 NIL=
201404181200 AAXX 18124 67476 NIL=
201404180900 AAXX 18094 67476 NIL=
201404180600 AAXX 18064 67476 NIL=
201404171500 AAXX 17154 67476 NIL=
201404171200 AAXX 17124 67476 NIL=
201404170900 AAXX 17094 67476 NIL=
201404170600 AAXX 17064 67476 NIL=
201404162100 AAXX 16214 67476 NIL=
201404161500 AAXX 16154 67476 NIL=
201404161200 AAXX 16124 67476 NIL=
201404160900 AAXX 16094 67476 NIL=
201404160600 AAXX 16064 67476 NIL=
201404160300 AAXX 16034 67476 NIL=
201404152100 AAXX 15214 67476 NIL=
201404151800 AAXX 15184 67476 NIL=
201404151500 AAXX 15154 67476 NIL=
201404151200 AAXX 15124 67476 NIL=
201404150900 AAXX 15094 67476 NIL=
201404150600 AAXX 15064 67476 NIL=
201404150300 AAXX 15034 67476 NIL=
201404142100 AAXX 14214 67476 NIL=
201404141200 AAXX 14124 67476 NIL=
201404140900 AAXX 14094 67476 NIL=
201404140600 AAXX 14064 67476 NIL=
201404140300 AAXX 14034 67476 NIL=
201404140000 AAXX 14004 67476 NIL=
201404131800 AAXX 13184 67476 NIL=
201404131500 AAXX 13154 67476 NIL=
201404131200 AAXX 13124 67476 NIL=
201404130900 AAXX 13094 67476 NIL=
201404130600 AAXX 13064 67476 NIL=
201404121800 AAXX 12184 67476 NIL=
201404121500 AAXX 12154 67476 NIL=
201404121200 AAXX 12124 67476 NIL=
201404120900 AAXX 12094 67476 NIL=
201404120600 AAXX 12064 67476 NIL=
201404111800 AAXX 11184 67476 NIL=
201404111500 AAXX 11154 67476 NIL=
201404111200 AAXX 11124 67476 NIL=
201404110900 AAXX 11094 67476 NIL=
201404110600 AAXX 11064 67476 NIL=
201404110300 AAXX 11034 67476 NIL=
201404110000 AAXX 11004 67476 NIL=
201404101200 AAXX 10124 67476 NIL=
201404100900 AAXX 10094 67476 NIL=
201404100600 AAXX 10064 67476 NIL=
201404092100 AAXX 09214 67476 NIL=
201404091500 AAXX 09154 67476 NIL=
201404091200 AAXX 09124 67476 NIL=
201404090900 AAXX 09094 67476 NIL=
201404090600 AAXX 09064 67476 NIL=
201404090300 AAXX 09034 67476 NIL=
201404082100 AAXX 08214 67476 NIL=
201404081800 AAXX 08184 67476 NIL=
201404081500 AAXX 08154 67476 NIL=
201404081200 AAXX 08124 67476 NIL=
201404080900 AAXX 08094 67476 NIL=
201404080600 AAXX 08064 67476 12580 70904 10195 20172 48/// 69924 87530
                   333 10273 20186 5//// 87620 83360
                   555 00/// 20001=
201404080300 AAXX 08034 67476 NIL=
201404071800 AAXX 07184 67476 NIL=
201404071500 AAXX 07154 67476 NIL=
201404071200 AAXX 07124 67476 NIL=
201404020900 AAXX 02094 67476 NIL=
201404020600 AAXX 02064 67476 11980 80000 10176 20173 48/// 60544 76066 8804/
                   333 10282 20174 5//// 88460=
201404020300 AAXX 02034 67476 NIL=
201404020000 AAXX 02004 67476 NIL=
201404012100 AAXX 01214 67476 NIL=
201404011800 AAXX 01184 67476 NIL=
201404011500 AAXX 01154 67476 NIL=
201404011200 AAXX 01124 67476 NIL=
201404010900 AAXX 01094 67476 NIL=
201404010600 AAXX 01064 67476 NIL=

################################################################################
#  SYNOPS from 67477, Mpika (Zambia) | 11-54S | 031-26E | 1400 m
################################################################################
201404302100 AAXX 30214 67477 NIL=
201404301200 AAXX 30124 67477 NIL=
201404300900 AAXX 30094 67477 NIL=
201404300600 AAXX 30064 67477 32480 70000 10182 20162 48539 86530
                   333 10230 20/// 59004 86612 85359 91023=
201404300300 AAXX 30034 67477 NIL=
201404292100 AAXX 29214 67477 NIL=
201404291800 AAXX 29184 67477 NIL=
201404291500 AAXX 29154 67477 NIL=
201404291200 AAXX 29124 67477 NIL=
201404290900 AAXX 29094 67477 NIL=
201404290600 AAXX 29064 67477 NIL=
201404290300 AAXX 29034 67477 NIL=
201404290000 AAXX 29004 67477 NIL=
201404282100 AAXX 28214 67477 NIL=
201404281800 AAXX 28184 67477 NIL=
201404281500 AAXX 28154 67477 NIL=
201404281200 AAXX 28124 67477 NIL=
201404280900 AAXX 28094 67477 NIL=
201404280600 AAXX 28064 67477 NIL=
201404272100 AAXX 27214 67477 NIL=
201404271800 AAXX 27184 67477 NIL=
201404271500 AAXX 27154 67477 NIL=
201404271200 AAXX 27124 67477 NIL=
201404270600 AAXX 27060 67477 NIL=
201404261800 AAXX 26184 67477 NIL=
201404261500 AAXX 26154 67477 NIL=
201404261200 AAXX 26124 67477 NIL=
201404260900 AAXX 26094 67477 NIL=
201404260600 AAXX 26064 67477 NIL=
201404260300 AAXX 26034 67477 NIL=
201404251800 AAXX 25184 67477 NIL=
201404251500 AAXX 25154 67477 NIL=
201404251200 AAXX 25124 67477 NIL=
201404250900 AAXX 25094 67477 NIL=
201404250600 AAXX 25064 67477 32480 40905 10202 20168 48536 84501
                   333 10270 20/// 58009 84610 81080=
201404250300 AAXX 25034 67477 NIL=
201404250000 AAXX 25004 67477 NIL=
201404241200 AAXX 24124 67477 NIL=
201404240900 AAXX 24094 67477 NIL=
201404240600 AAXX 24064 67477 32980 21206 10209 20164 48527 80001
                   333 10241 20/// 59006 82080=
201404231200 AAXX 23124 67477 NIL=
201404230900 AAXX 23094 67477 NIL=
201404230600 AAXX 23064 67477 NIL=
201404221200 AAXX 22124 67477 NIL=
201404220600 AAXX 22064 67477 31480 61506 10194 20161 48530 70522 84501
                   333 10248 20/// 59003 84610 84080=
201404220300 AAXX 22034 67477 NIL=
201404212100 AAXX 21214 67477 NIL=
201404211800 AAXX 21184 67477 NIL=
201404211500 AAXX 21154 67477 NIL=
201404211200 AAXX 21124 67477 NIL=
201404210900 AAXX 21094 67477 NIL=
201404210600 AAXX 21064 67477 NIL=
201404202100 AAXX 20214 67477 NIL=
201404201800 AAXX 20184 67477 NIL=
201404201500 AAXX 20154 67477 NIL=
201404201200 AAXX 20124 67477 NIL=
201404200600 AAXX 20064 67477 NIL=
201404200000 AAXX 20004 67477 NIL=
201404192100 AAXX 19214 67477 NIL=
201404191800 AAXX 19184 67477 NIL=
201404191500 AAXX 19154 67477 NIL=
201404191200 AAXX 19124 67477 NIL=
201404190900 AAXX 19094 67477 NIL=
201404190600 AAXX 19061 67477 NIL=
201404190000 AAXX 19004 67477 NIL=
201404181800 AAXX 18184 67477 NIL=
201404181200 AAXX 18124 67477 NIL=
201404180900 AAXX 18094 67477 NIL=
201404180600 AAXX 18064 67477 NIL=
201404171500 AAXX 17154 67477 NIL=
201404171200 AAXX 17124 67477 NIL=
201404170900 AAXX 17094 67477 NIL=
201404170600 AAXX 17064 67477 NIL=
201404162100 AAXX 16214 67477 NIL=
201404161500 AAXX 16154 67477 NIL=
201404161200 AAXX 16124 67477 NIL=
201404160900 AAXX 16094 67477 NIL=
201404160600 AAXX 16064 67477 32480 21203 10195 20142 48535 82100
                   333 10255 20/// 59003 82815=
201404160300 AAXX 16034 67477 NIL=
201404152100 AAXX 15214 67477 NIL=
201404151800 AAXX 15184 67477 NIL=
201404151500 AAXX 15154 67477 NIL=
201404151200 AAXX 15124 67477 NIL=
201404150900 AAXX 15094 67477 NIL=
201404150600 AAXX 15064 67477 32580 11203 10185 20153 48538 81100
                   333 10/// 20/// 59009 81820=
201404150300 AAXX 15034 67477 NIL=
201404142100 AAXX 14214 67477 NIL=
201404141200 AAXX 14124 67477 NIL=
201404140900 AAXX 14094 67477 NIL=
201404140600 AAXX 14064 67477 12980 51204 10160 20144 48545 69904 85030
                   333 10225 20/// 59008 85359 91023=
201404140300 AAXX 14034 67477 NIL=
201404140000 AAXX 14004 67477 NIL=
201404131800 AAXX 13184 67477 NIL=
201404131500 AAXX 13154 67477 NIL=
201404131200 AAXX 13124 67477 NIL=
201404130900 AAXX 13094 67477 NIL=
201404130600 AAXX 13064 67477 NIL=
201404121800 AAXX 12184 67477 NIL=
201404121500 AAXX 12154 67477 NIL=
201404121200 AAXX 12124 67477 NIL=
201404120900 AAXX 12094 67477 NIL=
201404120600 AAXX 12064 67477 NIL=
201404111800 AAXX 11184 67477 NIL=
201404111500 AAXX 11154 67477 NIL=
201404111200 AAXX 11124 67477 NIL=
201404110900 AAXX 11094 67477 NIL=
201404110600 AAXX 11064 67477 12480 71206 10177 20154 48549 69904 875//
                   333 10220 20/// 58005 87610=
201404110300 AAXX 11034 67477 NIL=
201404110000 AAXX 11004 67477 NIL=
201404101200 AAXX 10124 67477 NIL=
201404100900 AAXX 10094 67477 NIL=
201404100600 AAXX 10064 67477 11475 70906 10168 20165 48543 60014 76062 875//
                   333 10210 20/// 59012 87610=
201404092100 AAXX 09214 67477 NIL=
201404091500 AAXX 09154 67477 NIL=
201404091200 AAXX 09124 67477 NIL=
201404090900 AAXX 09094 67477 NIL=
201404090600 AAXX 09064 67477 31380 81204 10165 20149 48555 76162 8657/
                   333 10200 20/// 59001 86608 88459 91024=
201404090300 AAXX 09034 67477 NIL=
201404082100 AAXX 08214 67477 NIL=
201404081800 AAXX 08184 67477 NIL=
201404081500 AAXX 08154 67477 NIL=
201404081200 AAXX 08124 67477 NIL=
201404080900 AAXX 08094 67477 NIL=
201404080600 AAXX 08064 67477 12380 61506 10165 20140 48556 69904 84570
                   333 10/// 20/// 58006 84608 86359 91025=
201404080300 AAXX 08034 67477 NIL=
201404071800 AAXX 07184 67477 NIL=
201404071500 AAXX 07154 67477 NIL=
201404071200 AAXX 07124 67477 NIL=
201404020900 AAXX 02094 67477 NIL=
201404020600 AAXX 02064 67477 11380 80000 10175 20168 48525 60384 72562 8657/
                   333 10265 20/// 58006 86608 88459 91022=
201404020300 AAXX 02034 67477 NIL=
201404020000 AAXX 02004 67477 NIL=
201404012100 AAXX 01214 67477 NIL=
201404011800 AAXX 01184 67477 NIL=
201404011500 AAXX 01154 67477 NIL=
201404011200 AAXX 01124 67477 NIL=
201404010900 AAXX 01094 67477 NIL=
201404010600 AAXX 01064 67477 32980 61204 10195 20163 48530 86030
                   333 10250 20/// 59008 86360 91021=

################################################################################
#  SYNOPS from 67481, Isoka (Zambia) | 10-07S | 032-38E | 1360 m
################################################################################
201404302100 AAXX 30214 67481 NIL=
201404301200 AAXX 30124 67481 NIL=
201404300900 AAXX 30094 67481 42580 50803 10240 20180 85500
                   333 58005 85820=
201404300600 AAXX 30064 67481 32480 60302 10199 20175 86500
                   333 10265 20177 59004 86610
                   555 00/// 20000=
201404300300 AAXX 30034 67481 NIL=
201404292100 AAXX 29214 67481 NIL=
201404291800 AAXX 29184 67481 NIL=
201404291500 AAXX 29154 67481 NIL=
201404291200 AAXX 29124 67481 42580 61202 10245 20177 86860
                   333 58000 81928 84828 82629 83361=
201404290900 AAXX 29094 67481 42580 70902 10235 20175 87820
                   333 59002 83825 86626 81361=
201404290600 AAXX 29064 67481 31380 70902 10197 20177 85650
                   333 10279 20169 58003 85708 84360=
201404290300 AAXX 29034 67481 NIL=
201404290000 AAXX 29004 67481 NIL=
201404282100 AAXX 28214 67481 NIL=
201404281800 AAXX 28184 67481 NIL=
201404281500 AAXX 28154 67481 NIL=
201404281200 AAXX 28124 67481 42680 61404 10270 20178 86801
                   333 59006 84838 82639 81080=
201404280900 AAXX 28094 67481 NIL=
201404280600 AAXX 28064 67481 32480 20803 10214 20169 81501
                   333 10274 20152 59005 81616 82080
                   555 00/// 20000=
201404272100 AAXX 27214 67481 NIL=
201404271800 AAXX 27184 67481 NIL=
201404271500 AAXX 27154 67481 NIL=
201404271200 AAXX 27124 67481 NIL=
201404270600 AAXX 27060 67481 NIL=
201404261800 AAXX 26184 67481 NIL=
201404261500 AAXX 26154 67481 NIL=
201404261200 AAXX 26124 67481 NIL=
201404260900 AAXX 26094 67481 NIL=
201404260600 AAXX 26064 67481 NIL=
201404260300 AAXX 26034 67481 NIL=
201404251800 AAXX 25184 67481 NIL=
201404251500 AAXX 25154 67481 NIL=
201404251200 AAXX 25124 67481 42680 50401 10260 20172 84202
                   333 58002 84839 83080=
201404250900 AAXX 25094 67481 42680 40801 10255 20171 84531
                   333 58002 84634 82361 82080=
201404250600 AAXX 25064 67481 32480 31203 10216 20169 82521
                   333 10276 20160 58010 82619 81361 82080
                   555 00/// 20000=
201404250300 AAXX 25034 67481 NIL=
201404250000 AAXX 25004 67481 NIL=
201404241200 AAXX 24124 67481 42680 50902 10265 20175 85201
                   333 58003 85838 81080=
201404240900 AAXX 24094 67481 42680 40606 10250 20175 84601
                   333 59003 84630 81080=
201404240600 AAXX 24064 67481 32980 30000 10216 20169 80001
                   333 10272 20156 59005 83080
                   555 00/// 20000=
201404231200 AAXX 23124 67481 42680 50604 10260 20174 83221
                   333 59008 83834 81635 84361 81080=
201404230900 AAXX 23094 67481 42580 60000 10235 20187 83520
                   333 58002 83625 86361=
201404230600 AAXX 23064 67481 31380 63001 10190 20179 75022 83770
                   333 10262 20162 58004 83709 86361
                   555 00/// 20000=
201404221200 AAXX 22124 67481 42580 71202 10244 20184 85850
                   333 58012 83826 82627 86361=
201404220900 AAXX 22094 67481 42480 80603 10233 20179 85520
                   333 58003 85618 88261=
201404220600 AAXX 22064 67481 32380 71801 10194 20180 83670
                   333 10259 20176 58001 83709 87361
                   555 00/// 20031=
201404220300 AAXX 22034 67481 NIL=
201404212100 AAXX 21214 67481 NIL=
201404211800 AAXX 21184 67481 NIL=
201404211500 AAXX 21154 67481 NIL=
201404211200 AAXX 21124 67481 NIL=
201404210900 AAXX 21094 67481 NIL=
201404210600 AAXX 21064 67481 NIL=
201404202100 AAXX 20214 67481 NIL=
201404201800 AAXX 20184 67481 NIL=
201404201500 AAXX 20154 67481 NIL=
201404201200 AAXX 20124 67481 NIL=
201404200600 AAXX 20064 67481 NIL=
201404200000 AAXX 20004 67481 NIL=
201404192100 AAXX 19214 67481 NIL=
201404191800 AAXX 19184 67481 NIL=
201404191500 AAXX 19154 67481 NIL=
201404191200 AAXX 19124 67481 NIL=
201404190900 AAXX 19094 67481 NIL=
201404190600 AAXX 19061 67481 NIL=
201404190000 AAXX 19004 67481 NIL=
201404181800 AAXX 18184 67481 NIL=
201404181200 AAXX 18124 67481 NIL=
201404180900 AAXX 18094 67481 NIL=
201404180600 AAXX 18064 67481 NIL=
201404171500 AAXX 17154 67481 NIL=
201404171200 AAXX 17124 67481 NIL=
201404170900 AAXX 17094 67481 42580 51204 10241 20169 84831
                   333 58000 82826 83627 82361 82080=
201404170600 AAXX 17064 67481 32980 40000 10205 20154 83031
                   333 10275 20154 59001 83361 83080
                   555 00/// 20000=
201404162100 AAXX 16214 67481 NIL=
201404161500 AAXX 16154 67481 NIL=
201404161200 AAXX 16124 67481 NIL=
201404160900 AAXX 16094 67481 42580 20303 10239 20166 82800
                   333 59007 81829 82630=
201404160600 AAXX 16064 67481 32480 10901 10200 20160 81200
                   333 10266 20170 59005 81815=
201404160300 AAXX 16034 67481 NIL=
201404152100 AAXX 15214 67481 NIL=
201404151800 AAXX 15184 67481 NIL=
201404151500 AAXX 15154 67481 NIL=
201404151200 AAXX 15124 67481 42680 60603 10260 20164 86800
                   333 59012 84839 82640=
201404150900 AAXX 15094 67481 42580 50603 10222 20161 85801
                   333 59006 82823 84624 82080=
201404150600 AAXX 15064 67481 32380 62702 10185 20161 85501
                   333 10249 20154 59010 85609 81080
                   555 00/// 20004=
201404150300 AAXX 15034 67481 NIL=
201404142100 AAXX 14214 67481 NIL=
201404141200 AAXX 14124 67481 42580 60603 10235 20172 86800
                   333 58001 81927 83827 83628=
201404140900 AAXX 14094 67481 42480 60805 10212 20172 85501
                   333 58002 85617 82080=
201404140600 AAXX 14064 67481 12380 70304 10180 20162 60044 84650
                   333 10253 20168 58001 84707 86360
                   555 00/// 20007=
201404140300 AAXX 14034 67481 NIL=
201404140000 AAXX 14004 67481 NIL=
201404131800 AAXX 13184 67481 NIL=
201404131500 AAXX 13154 67481 NIL=
201404131200 AAXX 13124 67481 NIL=
201404130900 AAXX 13094 67481 NIL=
201404130600 AAXX 13064 67481 NIL=
201404121800 AAXX 12184 67481 NIL=
201404121500 AAXX 12154 67481 NIL=
201404121200 AAXX 12124 67481 NIL=
201404120900 AAXX 12094 67481 NIL=
201404120600 AAXX 12064 67481 NIL=
201404111800 AAXX 11184 67481 NIL=
201404111500 AAXX 11154 67481 NIL=
201404111200 AAXX 11124 67481 42580 63302 10243 20173 84230
                   333 58006 84828 84361=
201404110900 AAXX 11094 67481 42480 61802 10214 20167 87500
                   333 58004 87618=
201404110600 AAXX 11064 67481 11380 82503 10178 20172 69904 72162 886//
                   333 10251 20169 58002 88707=
201404110300 AAXX 11034 67481 NIL=
201404110000 AAXX 11004 67481 NIL=
201404101200 AAXX 10124 67481 42580 60602 10237 70222 84251
                   333 59006 84828 83361 82080=
201404100900 AAXX 10094 67481 42480 70305 10211 20166 85550
                   333 59013 85616 86361=
201404100600 AAXX 10064 67481 12380 73401 10183 20169 60024 70244 86630
                   333 10239 20169 59011 86707 87280=
201404092100 AAXX 09214 67481 NIL=
201404091500 AAXX 09154 67481 NIL=
201404091200 AAXX 09124 67481 NIL=
201404090900 AAXX 09094 67481 41370 70402 10189 20181 48/// 75054 8677/
                   333 59008 86707 87460=
201404090600 AAXX 09064 67481 11/04 90405 10175 20175 60104 74564 887//
                   333 10228 20171 59002 88706
                   555 00/// 20003=
201404090300 AAXX 09034 67481 NIL=
201404082100 AAXX 08214 67481 NIL=
201404081800 AAXX 08184 67481 NIL=
201404081500 AAXX 08154 67481 NIL=
201404081200 AAXX 08124 67481 42480 62302 10222 20180 48/// 86532
                   333 58002 86617 85361 83080=
201404080900 AAXX 08094 67481 41380 83301 10181 20181 72055 8777/
                   333 58000 87706 88460=
201404080600 AAXX 08064 67481 11/04 93302 10172 20172 60034 74764
                   333 10249 20170 58011
                   555 00/// 20000=
201404080300 AAXX 08034 67481 NIL=
201404071800 AAXX 07184 67481 NIL=
201404071500 AAXX 07154 67481 NIL=
201404071200 AAXX 07124 67481 41480 70303 10222 20197 48/// 75066 84607
                   333 5//// 81923 84723 87280=
201404020900 AAXX 02094 67481 42480 70301 10208 20182 85567
                   333 58024 85611 83361 87280=
201404020600 AAXX 02064 67481 11375 70000 10186 20178 60114 74044 85657
                   333 10272 20172 58018 85706 84360 87280=
201404020300 AAXX 02034 67481 NIL=
201404020000 AAXX 02004 67481 NIL=
201404012100 AAXX 01214 67481 NIL=
201404011800 AAXX 01184 67481 NIL=
201404011500 AAXX 01154 67481 NIL=
201404011200 AAXX 01124 67481 42680 42603 10264 20177 48/// 84200
                   333 59014 81935 84835=
201404010900 AAXX 01094 67481 42580 20301 10242 20170 48/// 82100
                   333 59010 82828=
201404010600 AAXX 01064 67481 12980 23601 10195 20171 60344 82030
                   333 10252 20147 59010 82361=

################################################################################
#  SYNOPS from 67531, Zambezi (Zambia) | 13-32S | 023-07E | 1077 m
################################################################################
201404302100 AAXX 30214 67531 NIL=
201404301200 AAXX 30124 67531 NIL=
201404300900 AAXX 30094 67531 NIL=
201404300600 AAXX 30064 67531 NIL=
201404300300 AAXX 30034 67531 NIL=
201404292100 AAXX 29214 67531 NIL=
201404291800 AAXX 29184 67531 NIL=
201404291500 AAXX 29154 67531 NIL=
201404291200 AAXX 29124 67531 NIL=
201404290900 AAXX 29094 67531 42680 11005 10264 20185 48/// 81101
                   333 58003 81833 81082=
201404290600 AAXX 29064 67531 32980 11307 10199 20170 48/// 80001
                   333 10306 20173 59002 81082
                   555 00168=
201404290300 AAXX 29034 67531 NIL=
201404290000 AAXX 29004 67531 NIL=
201404282100 AAXX 28214 67531 NIL=
201404281800 AAXX 28184 67531 NIL=
201404281500 AAXX 28154 67531 NIL=
201404281200 AAXX 28124 67531 NIL=
201404280900 AAXX 28094 67531 42680 10908 10280 20180 48/// 81130
                   333 58000 81847=
201404280600 AAXX 28064 67531 32980 11204 10215 20180 48/// 81030
                   333 10306 20160 58001 81362
                   555 00156=
201404272100 AAXX 27214 67531 NIL=
201404271800 AAXX 27184 67531 NIL=
201404271500 AAXX 27154 67531 NIL=
201404271200 AAXX 27124 67531 NIL=
201404270600 AAXX 27061 67531 NIL=
201404261800 AAXX 26184 67531 NIL=
201404261500 AAXX 26154 67531 NIL=
201404261200 AAXX 26124 67531 NIL=
201404260900 AAXX 26094 67531 NIL=
201404260600 AAXX 26064 67531 NIL=
201404260300 AAXX 26034 67531 NIL=
201404251800 AAXX 25184 67531 NIL=
201404251500 AAXX 25154 67531 NIL=
201404251200 AAXX 25124 67531 NIL=
201404250900 AAXX 25094 67531 NIL=
201404250600 AAXX 25064 67531 12380 70000 10190 20184 48/// 60024 70222 8167/
                   333 10321 20186 58028 81707 87460
                   555 00191=
201404250300 AAXX 25034 67531 NIL=
201404250000 AAXX 25004 67531 NIL=
201404241200 AAXX 24124 67531 NIL=
201404240900 AAXX 24094 67531 NIL=
201404240600 AAXX 24064 67531 32980 31102 10204 20173 48/// 70222 83030
                   333 10321 20145 59010 83362=
201404231200 AAXX 23124 67531 NIL=
201404230900 AAXX 23094 67531 NIL=
201404230600 AAXX 23064 67531 32980 10801 10196 20164 48/// 70222 80001
                   333 10307 20125 58000 81082=
201404221200 AAXX 22124 67531 NIL=
201404220600 AAXX 22064 67531 32980 50904 10181 20150 48/// 70222 81038
                   333 10286 20138 59015 81361 85281
                   555 00140=
201404220300 AAXX 22034 67531 NIL=
201404212100 AAXX 21214 67531 NIL=
201404211800 AAXX 21184 67531 NIL=
201404211500 AAXX 21154 67531 NIL=
201404211200 AAXX 21124 67531 NIL=
201404210900 AAXX 21094 67531 NIL=
201404210600 AAXX 21064 67531 NIL=
201404202100 AAXX 20214 67531 NIL=
201404201800 AAXX 20184 67531 NIL=
201404201500 AAXX 20154 67531 NIL=
201404201200 AAXX 20124 67531 NIL=
201404200600 AAXX 20064 67531 NIL=
201404200000 AAXX 20004 67531 NIL=
201404192100 AAXX 19214 67531 NIL=
201404191800 AAXX 19184 67531 NIL=
201404191500 AAXX 19154 67531 NIL=
201404191200 AAXX 19124 67531 NIL=
201404190900 AAXX 19094 67531 NIL=
201404190600 AAXX 19061 67531 NIL=
201404190000 AAXX 19004 67531 NIL=
201404181800 AAXX 18184 67531 NIL=
201404181200 AAXX 18124 67531 NIL=
201404180900 AAXX 18094 67531 NIL=
201404180600 AAXX 18064 67531 NIL=
201404171500 AAXX 17154 67531 NIL=
201404171200 AAXX 17124 67531 NIL=
201404170900 AAXX 17094 67531 NIL=
201404170600 AAXX 17064 67531 NIL=
201404162100 AAXX 16214 67531 NIL=
201404161500 AAXX 16154 67531 NIL=
201404161200 AAXX 16124 67531 NIL=
201404160900 AAXX 16094 67531 NIL=
201404160600 AAXX 16064 67531 32980 11105 10180 20165 48/// 70222 80001
                   333 10298 20131 59007 81080=
201404160300 AAXX 16034 67531 NIL=
201404152100 AAXX 15214 67531 NIL=
201404151800 AAXX 15184 67531 NIL=
201404151500 AAXX 15154 67531 NIL=
201404151200 AAXX 15124 67531 NIL=
201404150900 AAXX 15094 67531 NIL=
201404150600 AAXX 15064 67531 32980 11105 10186 20157 48/// 70222 80001
                   333 10299 20130 59014 81080=
201404150300 AAXX 15034 67531 NIL=
201404142100 AAXX 14214 67531 NIL=
201404141200 AAXX 14124 67531 NIL=
201404140900 AAXX 14094 67531 NIL=
201404140600 AAXX 14064 67531 32980 60904 10190 20169 48/// 70222 80001
                   333 10264 20160 58014 83080=
201404140300 AAXX 14034 67531 NIL=
201404140000 AAXX 14004 67531 NIL=
201404131800 AAXX 13184 67531 NIL=
201404131500 AAXX 13154 67531 NIL=
201404131200 AAXX 13124 67531 NIL=
201404130900 AAXX 13094 67531 NIL=
201404130600 AAXX 13064 67531 NIL=
201404121800 AAXX 12184 67531 NIL=
201404121500 AAXX 12154 67531 NIL=
201404121200 AAXX 12124 67531 NIL=
201404120900 AAXX 12094 67531 NIL=
201404120600 AAXX 12064 67531 NIL=
201404111800 AAXX 11184 67531 NIL=
201404111500 AAXX 11154 67531 NIL=
201404111200 AAXX 11124 67531 NIL=
201404110900 AAXX 11094 67531 NIL=
201404110600 AAXX 11064 67531 11380 71305 10166 20157 48/// 69934 70262 8767/
                   333 10243 20160 58005 87707 87459=
201404110300 AAXX 11034 67531 NIL=
201404110000 AAXX 11004 67531 NIL=
201404101200 AAXX 10124 67531 41480 70907 10209 20172 48/// 76062 8557/
                   333 59003 85615 87462=
201404100900 AAXX 10094 67531 NIL=
201404100600 AAXX 10064 67531 12380 71403 10175 20167 48/// 69904 81631
                   333 10250 20160 59008 81707 87361=
201404092100 AAXX 09214 67531 NIL=
201404091500 AAXX 09154 67531 NIL=
201404091200 AAXX 09124 67531 41580 71206 10238 20178 48/// 76062 8527/
                   333 58004 85828 86362=
201404090900 AAXX 09094 67531 NIL=
201404090600 AAXX 09064 67531 11980 71103 10186 20177 48/// 60114 72162 8707/
                   333 10268 20183 58001 87460=
201404090300 AAXX 09034 67531 NIL=
201404082100 AAXX 08214 67531 NIL=
201404081800 AAXX 08184 67531 NIL=
201404081500 AAXX 08154 67531 NIL=
201404081200 AAXX 08124 67531 NIL=
201404080900 AAXX 08094 67531 NIL=
201404080600 AAXX 08064 67531 12380 71501 10195 20192 48/// 60604 70222 8167/
                   333 10290 20189 58003 81707 87460=
201404080300 AAXX 08034 67531 NIL=
201404071800 AAXX 07184 67531 NIL=
201404071500 AAXX 07154 67531 NIL=
201404071200 AAXX 07124 67531 42680 71405 10265 20191 48/// 70222 85231
                   333 58011 85830 83362 81080=
201404020900 AAXX 02094 67531 NIL=
201404020600 AAXX 02064 67531 12980 70402 10205 20199 48/// 60134 70222 8707/
                   333 10294 20191 58000 87360=
201404020300 AAXX 02034 67531 NIL=
201404020000 AAXX 02004 67531 NIL=
201404012100 AAXX 01214 67531 NIL=
201404011800 AAXX 01184 67531 NIL=
201404011500 AAXX 01154 67531 NIL=
201404011200 AAXX 01124 67531 NIL=
201404010900 AAXX 01094 67531 NIL=
201404010600 AAXX 01064 67531 NIL=

################################################################################
#  SYNOPS from 67541, Kasempa (Zambia) | 13-32S | 025-51E | 1234 m
################################################################################
201404302100 AAXX 30214 67541 NIL=
201404301200 AAXX 30124 67541 NIL=
201404300900 AAXX 30094 67541 NIL=
201404300600 AAXX 30064 67541 NIL=
201404300300 AAXX 30034 67541 NIL=
201404292100 AAXX 29214 67541 NIL=
201404291800 AAXX 29184 67541 NIL=
201404291500 AAXX 29154 67541 NIL=
201404291200 AAXX 29124 67541 NIL=
201404290900 AAXX 29094 67541 NIL=
201404290600 AAXX 29064 67541 NIL=
201404290300 AAXX 29034 67541 NIL=
201404290000 AAXX 29004 67541 NIL=
201404282100 AAXX 28214 67541 NIL=
201404281800 AAXX 28184 67541 NIL=
201404281500 AAXX 28154 67541 NIL=
201404281200 AAXX 28124 67541 NIL=
201404280900 AAXX 28094 67541 NIL=
201404280600 AAXX 28064 67541 32980 10602 10210 20187 48581 80001
                   333 10/// 20/// 5//// 81080=
201404272100 AAXX 27214 67541 NIL=
201404271800 AAXX 27184 67541 NIL=
201404271500 AAXX 27154 67541 NIL=
201404271200 AAXX 27124 67541 NIL=
201404270600 AAXX 27061 67541 NIL=
201404261800 AAXX 26184 67541 NIL=
201404261500 AAXX 26154 67541 NIL=
201404261200 AAXX 26124 67541 NIL=
201404260900 AAXX 26094 67541 NIL=
201404260600 AAXX 26064 67541 NIL=
201404260300 AAXX 26034 67541 NIL=
201404251800 AAXX 25184 67541 NIL=
201404251500 AAXX 25154 67541 NIL=
201404251200 AAXX 25124 67541 NIL=
201404250900 AAXX 25094 67541 NIL=
201404250600 AAXX 25064 67541 NIL=
201404250300 AAXX 25034 67541 NIL=
201404250000 AAXX 25004 67541 NIL=
201404241200 AAXX 24124 67541 NIL=
201404240900 AAXX 24094 67541 NIL=
201404240600 AAXX 24064 67541 NIL=
201404231200 AAXX 23124 67541 NIL=
201404230900 AAXX 23094 67541 NIL=
201404230600 AAXX 23064 67541 32980 10602 10193 20158 48515 70222 80001
                   333 10/// 20/// 59010 81080=
201404221200 AAXX 22124 67541 NIL=
201404220600 AAXX 22064 67541 32980 60702 10179 20153 48515 70222 80006
                   333 10/// 20/// 5//// 86080=
201404220300 AAXX 22034 67541 NIL=
201404212100 AAXX 21214 67541 NIL=
201404211800 AAXX 21184 67541 NIL=
201404211500 AAXX 21154 67541 NIL=
201404211200 AAXX 21124 67541 NIL=
201404210900 AAXX 21094 67541 NIL=
201404210600 AAXX 21064 67541 NIL=
201404202100 AAXX 20214 67541 NIL=
201404201800 AAXX 20184 67541 NIL=
201404201500 AAXX 20154 67541 NIL=
201404201200 AAXX 20124 67541 NIL=
201404200600 AAXX 20064 67541 NIL=
201404200000 AAXX 20004 67541 NIL=
201404192100 AAXX 19214 67541 NIL=
201404191800 AAXX 19184 67541 NIL=
201404191500 AAXX 19154 67541 NIL=
201404191200 AAXX 19124 67541 NIL=
201404190900 AAXX 19094 67541 NIL=
201404190600 AAXX 19061 67541 NIL=
201404190000 AAXX 19004 67541 NIL=
201404181800 AAXX 18184 67541 NIL=
201404181200 AAXX 18124 67541 NIL=
201404180900 AAXX 18094 67541 NIL=
201404180600 AAXX 18064 67541 NIL=
201404171500 AAXX 17154 67541 NIL=
201404171200 AAXX 17124 67541 NIL=
201404170900 AAXX 17094 67541 NIL=
201404170600 AAXX 17064 67541 32980 10603 10195 20160 48525 70222 80001
                   333 10/// 20/// 59004 81080=
201404162100 AAXX 16214 67541 NIL=
201404161500 AAXX 16154 67541 NIL=
201404161200 AAXX 16124 67541 NIL=
201404160900 AAXX 16094 67541 NIL=
201404160600 AAXX 16064 67541 32980 10602 10197 20163 48529 70222 80001
                   333 10/// 20/// 58001 81080=
201404160300 AAXX 16034 67541 NIL=
201404152100 AAXX 15214 67541 NIL=
201404151800 AAXX 15184 67541 NIL=
201404151500 AAXX 15154 67541 NIL=
201404151200 AAXX 15124 67541 NIL=
201404150900 AAXX 15094 67541 NIL=
201404150600 AAXX 15064 67541 32980 10702 10191 20161 48528 70222 80001
                   333 10/// 20/// 59017 81080=
201404150300 AAXX 15034 67541 NIL=
201404142100 AAXX 14214 67541 NIL=
201404141200 AAXX 14124 67541 NIL=
201404140900 AAXX 14094 67541 NIL=
201404140600 AAXX 14064 67541 32980 60603 10192 20160 48545 70222 81032
                   333 10/// 20/// 58003 81360 82080=
201404140300 AAXX 14034 67541 NIL=
201404140000 AAXX 14004 67541 NIL=
201404131800 AAXX 13184 67541 NIL=
201404131500 AAXX 13154 67541 NIL=
201404131200 AAXX 13124 67541 NIL=
201404130900 AAXX 13094 67541 NIL=
201404130600 AAXX 13064 67541 NIL=
201404121800 AAXX 12184 67541 NIL=
201404121500 AAXX 12154 67541 NIL=
201404121200 AAXX 12124 67541 NIL=
201404120900 AAXX 12094 67541 NIL=
201404120600 AAXX 12064 67541 NIL=
201404111800 AAXX 11184 67541 NIL=
201404111500 AAXX 11154 67541 NIL=
201404111200 AAXX 11124 67541 NIL=
201404110900 AAXX 11094 67541 NIL=
201404110600 AAXX 11064 67541 12380 80708 10163 20153 48540 60134 8353/
                   333 10/// 20/// 58005 83606 87360=
201404110300 AAXX 11034 67541 NIL=
201404110000 AAXX 11004 67541 NIL=
201404101200 AAXX 10124 67541 NIL=
201404100900 AAXX 10094 67541 NIL=
201404100600 AAXX 10064 67541 NIL=
201404092100 AAXX 09214 67541 NIL=
201404091500 AAXX 09154 67541 NIL=
201404091200 AAXX 09124 67541 NIL=
201404090900 AAXX 09094 67541 NIL=
201404090600 AAXX 09064 67541 32980 70503 10180 20163 48546 70222 8703/
                   333 10/// 20/// 58000 87360=
201404090300 AAXX 09034 67541 NIL=
201404082100 AAXX 08214 67541 NIL=
201404081800 AAXX 08184 67541 NIL=
201404081500 AAXX 08154 67541 NIL=
201404081200 AAXX 08124 67541 NIL=
201404080900 AAXX 08094 67541 NIL=
201404080600 AAXX 08064 67541 32380 70710 10180 20163 48546 70222 8353/
                   333 10/// 20/// 58004 83607 87360=
201404080300 AAXX 08034 67541 NIL=
201404071800 AAXX 07184 67541 NIL=
201404071500 AAXX 07154 67541 NIL=
201404071200 AAXX 07124 67541 NIL=
201404020900 AAXX 02094 67541 NIL=
201404020600 AAXX 02064 67541 12980 70000 10193 20188 48515 69904 70222 87030
                   333 10/// 20/// 58003 87360=
201404020300 AAXX 02034 67541 NIL=
201404020000 AAXX 02004 67541 NIL=
201404012100 AAXX 01214 67541 NIL=
201404011800 AAXX 01184 67541 NIL=
201404011500 AAXX 01154 67541 NIL=
201404011200 AAXX 01124 67541 NIL=
201404010900 AAXX 01094 67541 NIL=
201404010600 AAXX 01064 67541 NIL=

################################################################################
#  SYNOPS from 67543, Kabompo (Zambia) | 13-36S | 024-12E | 1075 m
################################################################################
201404302100 AAXX 30214 67543 NIL=
201404301200 AAXX 30124 67543 NIL=
201404300900 AAXX 30094 67543 NIL=
201404300600 AAXX 30064 67543 NIL=
201404300300 AAXX 30034 67543 NIL=
201404292100 AAXX 29214 67543 NIL=
201404291800 AAXX 29184 67543 NIL=
201404291500 AAXX 29154 67543 NIL=
201404291200 AAXX 29124 67543 NIL=
201404290900 AAXX 29094 67543 NIL=
201404290600 AAXX 29064 67543 NIL=
201404290300 AAXX 29034 67543 NIL=
201404290000 AAXX 29004 67543 NIL=
201404282100 AAXX 28214 67543 NIL=
201404281800 AAXX 28184 67543 NIL=
201404281500 AAXX 28154 67543 NIL=
201404281200 AAXX 28124 67543 NIL=
201404280900 AAXX 28094 67543 NIL=
201404280600 AAXX 28064 67543 NIL=
201404272100 AAXX 27214 67543 NIL=
201404271800 AAXX 27184 67543 NIL=
201404271500 AAXX 27154 67543 NIL=
201404271200 AAXX 27124 67543 NIL=
201404270600 AAXX 27061 67543 NIL=
201404261800 AAXX 26184 67543 NIL=
201404261500 AAXX 26154 67543 NIL=
201404261200 AAXX 26124 67543 NIL=
201404260900 AAXX 26094 67543 NIL=
201404260600 AAXX 26064 67543 NIL=
201404260300 AAXX 26034 67543 NIL=
201404251800 AAXX 25184 67543 NIL=
201404251500 AAXX 25154 67543 NIL=
201404251200 AAXX 25124 67543 NIL=
201404250900 AAXX 25094 67543 NIL=
201404250600 AAXX 25064 67543 NIL=
201404250300 AAXX 25034 67543 NIL=
201404250000 AAXX 25004 67543 NIL=
201404241200 AAXX 24124 67543 NIL=
201404240900 AAXX 24094 67543 NIL=
201404240600 AAXX 24064 67543 NIL=
201404231200 AAXX 23124 67543 NIL=
201404230900 AAXX 23094 67543 NIL=
201404230600 AAXX 23064 67543 NIL=
201404221200 AAXX 22124 67543 NIL=
201404220600 AAXX 22064 67543 NIL=
201404220300 AAXX 22034 67543 NIL=
201404212100 AAXX 21214 67543 NIL=
201404211800 AAXX 21184 67543 NIL=
201404211500 AAXX 21154 67543 NIL=
201404211200 AAXX 21124 67543 NIL=
201404210900 AAXX 21094 67543 NIL=
201404210600 AAXX 21064 67543 NIL=
201404202100 AAXX 20214 67543 NIL=
201404201800 AAXX 20184 67543 NIL=
201404201500 AAXX 20154 67543 NIL=
201404201200 AAXX 20124 67543 NIL=
201404200600 AAXX 20064 67543 NIL=
201404200000 AAXX 20004 67543 NIL=
201404192100 AAXX 19214 67543 NIL=
201404191800 AAXX 19184 67543 NIL=
201404191500 AAXX 19154 67543 NIL=
201404191200 AAXX 19124 67543 NIL=
201404190900 AAXX 19094 67543 NIL=
201404190600 AAXX 19061 67543 NIL=
201404190000 AAXX 19004 67543 NIL=
201404181800 AAXX 18184 67543 NIL=
201404181200 AAXX 18124 67543 NIL=
201404180900 AAXX 18094 67543 NIL=
201404180600 AAXX 18064 67543 NIL=
201404171500 AAXX 17154 67543 NIL=
201404171200 AAXX 17124 67543 NIL=
201404170900 AAXX 17094 67543 NIL=
201404170600 AAXX 17064 67543 NIL=
201404162100 AAXX 16214 67543 NIL=
201404161500 AAXX 16154 67543 NIL=
201404161200 AAXX 16124 67543 NIL=
201404160900 AAXX 16094 67543 NIL=
201404160600 AAXX 16064 67543 NIL=
201404160300 AAXX 16034 67543 NIL=
201404152100 AAXX 15214 67543 NIL=
201404151800 AAXX 15184 67543 NIL=
201404151500 AAXX 15154 67543 NIL=
201404151200 AAXX 15124 67543 NIL=
201404150900 AAXX 15094 67543 NIL=
201404150600 AAXX 15061 67543 NIL=
201404150300 AAXX 15034 67543 NIL=
201404142100 AAXX 14214 67543 NIL=
201404141200 AAXX 14124 67543 NIL=
201404140900 AAXX 14094 67543 NIL=
201404140600 AAXX 14064 67543 NIL=
201404140300 AAXX 14034 67543 NIL=
201404140000 AAXX 14004 67543 NIL=
201404131800 AAXX 13184 67543 NIL=
201404131500 AAXX 13154 67543 NIL=
201404131200 AAXX 13124 67543 NIL=
201404130900 AAXX 13094 67543 NIL=
201404130600 AAXX 13064 67543 NIL=
201404121800 AAXX 12184 67543 NIL=
201404121500 AAXX 12154 67543 NIL=
201404121200 AAXX 12124 67543 NIL=
201404120900 AAXX 12094 67543 NIL=
201404120600 AAXX 12064 67543 NIL=
201404111800 AAXX 11184 67543 NIL=
201404111500 AAXX 11154 67543 NIL=
201404111200 AAXX 11124 67543 NIL=
201404110900 AAXX 11094 67543 NIL=
201404110600 AAXX 11064 67543 NIL=
201404110300 AAXX 11034 67543 NIL=
201404110000 AAXX 11004 67543 NIL=
201404101200 AAXX 10124 67543 NIL=
201404100900 AAXX 10094 67543 NIL=
201404100600 AAXX 10064 67543 NIL=
201404092100 AAXX 09214 67543 NIL=
201404091500 AAXX 09154 67543 NIL=
201404091200 AAXX 09124 67543 NIL=
201404090900 AAXX 09094 67543 NIL=
201404090600 AAXX 09064 67543 NIL=
201404090300 AAXX 09034 67543 NIL=
201404082100 AAXX 08214 67543 NIL=
201404081800 AAXX 08184 67543 NIL=
201404081500 AAXX 08154 67543 NIL=
201404081200 AAXX 08124 67543 NIL=
201404080900 AAXX 08094 67543 NIL=
201404080600 AAXX 08064 67543 NIL=
201404080300 AAXX 08034 67543 NIL=
201404071800 AAXX 07184 67543 NIL=
201404071500 AAXX 07154 67543 NIL=
201404071200 AAXX 07124 67543 NIL=
201404020900 AAXX 02094 67543 NIL=
201404020600 AAXX 02064 67543 NIL=
201404020300 AAXX 02034 67543 NIL=
201404020000 AAXX 02004 67543 NIL=
201404012100 AAXX 01214 67543 NIL=
201404011800 AAXX 01184 67543 NIL=
201404011500 AAXX 01154 67543 NIL=
201404011200 AAXX 01124 67543 NIL=
201404010900 AAXX 01094 67543 NIL=
201404010600 AAXX 01064 67543 NIL=

################################################################################
#  SYNOPS from 67551, Solwezi (Zambia) | 12-11S | 026-23E | 1386 m
################################################################################
201404302100 AAXX 30214 67551 NIL=
201404301200 AAXX 30124 67551 NIL=
201404300900 AAXX 30094 67551 NIL=
201404300600 AAXX 30064 67551 NIL=
201404300300 AAXX 30034 67551 NIL=
201404292100 AAXX 29214 67551 NIL=
201404291800 AAXX 29184 67551 NIL=
201404291500 AAXX 29154 67551 NIL=
201404291200 AAXX 29124 67551 NIL=
201404290900 AAXX 29094 67551 NIL=
201404290600 AAXX 29064 67551 NIL=
201404290300 AAXX 29034 67551 NIL=
201404290000 AAXX 29004 67551 NIL=
201404282100 AAXX 28214 67551 NIL=
201404281800 AAXX 28184 67551 NIL=
201404281500 AAXX 28154 67551 NIL=
201404281200 AAXX 28124 67551 NIL=
201404280900 AAXX 28094 67551 NIL=
201404280600 AAXX 28064 67551 NIL=
201404272100 AAXX 27214 67551 NIL=
201404271800 AAXX 27184 67551 NIL=
201404271500 AAXX 27154 67551 NIL=
201404271200 AAXX 27124 67551 NIL=
201404270600 AAXX 27061 67551 NIL=
201404261800 AAXX 26184 67551 NIL=
201404261500 AAXX 26154 67551 NIL=
201404261200 AAXX 26124 67551 NIL=
201404260900 AAXX 26094 67551 NIL=
201404260600 AAXX 26064 67551 NIL=
201404260300 AAXX 26034 67551 NIL=
201404251800 AAXX 25184 67551 NIL=
201404251500 AAXX 25154 67551 NIL=
201404251200 AAXX 25124 67551 NIL=
201404250900 AAXX 25094 67551 NIL=
201404250600 AAXX 25064 67551 NIL=
201404250300 AAXX 25034 67551 NIL=
201404250000 AAXX 25004 67551 NIL=
201404241200 AAXX 24124 67551 NIL=
201404240900 AAXX 24094 67551 NIL=
201404240600 AAXX 24064 67551 NIL=
201404231200 AAXX 23124 67551 NIL=
201404230900 AAXX 23094 67551 NIL=
201404230600 AAXX 23064 67551 NIL=
201404221200 AAXX 22124 67551 NIL=
201404220600 AAXX 22064 67551 NIL=
201404220300 AAXX 22034 67551 NIL=
201404212100 AAXX 21214 67551 NIL=
201404211800 AAXX 21184 67551 NIL=
201404211500 AAXX 21154 67551 NIL=
201404211200 AAXX 21124 67551 NIL=
201404210900 AAXX 21094 67551 NIL=
201404210600 AAXX 21064 67551 NIL=
201404202100 AAXX 20214 67551 NIL=
201404201800 AAXX 20184 67551 NIL=
201404201500 AAXX 20154 67551 NIL=
201404201200 AAXX 20124 67551 NIL=
201404200600 AAXX 20064 67551 NIL=
201404200000 AAXX 20004 67551 NIL=
201404192100 AAXX 19214 67551 NIL=
201404191800 AAXX 19184 67551 NIL=
201404191500 AAXX 19154 67551 NIL=
201404191200 AAXX 19124 67551 NIL=
201404190900 AAXX 19094 67551 NIL=
201404190600 AAXX 19061 67551 NIL=
201404190000 AAXX 19004 67551 NIL=
201404181800 AAXX 18184 67551 NIL=
201404181200 AAXX 18124 67551 NIL=
201404180900 AAXX 18094 67551 NIL=
201404180600 AAXX 18064 67551 NIL=
201404171500 AAXX 17154 67551 NIL=
201404171200 AAXX 17124 67551 NIL=
201404170900 AAXX 17094 67551 NIL=
201404170600 AAXX 17064 67551 32970 10000 10180 20138 48537 80002
                   333 10283 20118 59001 81280
                   555 00/// 20000 91020=
201404162100 AAXX 16214 67551 NIL=
201404161500 AAXX 16154 67551 NIL=
201404161200 AAXX 16124 67551 NIL=
201404160900 AAXX 16094 67551 32970 00904 10193 20148 48535 80000
                   333 10275 20135 58001
                   555 00/// 20000 91020=
201404160600 AAXX 16064 67551 32970 09004 10193 20148 48535 80000
                   333 10275 20135 58001
                   555 00/// 20000 91020=
201404160300 AAXX 16034 67551 NIL=
201404152100 AAXX 15214 67551 NIL=
201404151800 AAXX 15184 67551 NIL=
201404151500 AAXX 15154 67551 NIL=
201404151200 AAXX 15124 67551 NIL=
201404150900 AAXX 15094 67551 NIL=
201404150600 AAXX 15061 67551 NIL=
201404150300 AAXX 15034 67551 NIL=
201404142100 AAXX 14214 67551 NIL=
201404141200 AAXX 14124 67551 NIL=
201404140900 AAXX 14094 67551 NIL=
201404140600 AAXX 14064 67551 NIL=
201404140300 AAXX 14034 67551 NIL=
201404140000 AAXX 14004 67551 NIL=
201404131800 AAXX 13184 67551 NIL=
201404131500 AAXX 13154 67551 NIL=
201404131200 AAXX 13124 67551 NIL=
201404130900 AAXX 13094 67551 NIL=
201404130600 AAXX 13064 67551 NIL=
201404121800 AAXX 12184 67551 NIL=
201404121500 AAXX 12154 67551 NIL=
201404121200 AAXX 12124 67551 NIL=
201404120900 AAXX 12094 67551 NIL=
201404120600 AAXX 12064 67551 NIL=
201404111800 AAXX 11184 67551 NIL=
201404111500 AAXX 11154 67551 NIL=
201404111200 AAXX 11124 67551 NIL=
201404110900 AAXX 11094 67551 NIL=
201404110600 AAXX 11064 67551 NIL=
201404110300 AAXX 11034 67551 NIL=
201404110000 AAXX 11004 67551 NIL=
201404101200 AAXX 10124 67551 NIL=
201404100900 AAXX 10094 67551 NIL=
201404100600 AAXX 10064 67551 NIL=
201404092100 AAXX 09214 67551 NIL=
201404091500 AAXX 09154 67551 NIL=
201404091200 AAXX 09124 67551 NIL=
201404090900 AAXX 09094 67551 NIL=
201404090600 AAXX 09064 67551 NIL=
201404090300 AAXX 09034 67551 NIL=
201404082100 AAXX 08214 67551 NIL=
201404081800 AAXX 08184 67551 NIL=
201404081500 AAXX 08154 67551 NIL=
201404081200 AAXX 08124 67551 NIL=
201404080900 AAXX 08094 67551 NIL=
201404080600 AAXX 08064 67551 NIL=
201404080300 AAXX 08034 67551 NIL=
201404071800 AAXX 07184 67551 NIL=
201404071500 AAXX 07154 67551 NIL=
201404071200 AAXX 07124 67551 NIL=
201404020900 AAXX 02094 67551 NIL=
201404020600 AAXX 02064 67551 NIL=
201404020300 AAXX 02034 67551 NIL=
201404020000 AAXX 02004 67551 NIL=
201404012100 AAXX 01214 67551 NIL=
201404011800 AAXX 01184 67551 NIL=
201404011500 AAXX 01154 67551 NIL=
201404011200 AAXX 01124 67551 NIL=
201404010900 AAXX 01094 67551 NIL=
201404010600 AAXX 01064 67551 NIL=

################################################################################
#  SYNOPS from 67561, Ndola (Zambia) | 13-00S | 028-39E | 1269 m
################################################################################
201404302100 AAXX 30214 67561 NIL=
201404301200 AAXX 30124 67561 NIL=
201404300900 AAXX 30094 67561 NIL=
201404300600 AAXX 30064 67561 NIL=
201404300300 AAXX 30034 67561 NIL=
201404292100 AAXX 29214 67561 NIL=
201404291800 AAXX 29184 67561 NIL=
201404291500 AAXX 29154 67561 NIL=
201404291200 AAXX 29124 67561 NIL=
201404290900 AAXX 29094 67561 NIL=
201404290600 AAXX 29064 67561 NIL=
201404290300 AAXX 29034 67561 NIL=
201404290000 AAXX 29004 67561 NIL=
201404282100 AAXX 28214 67561 NIL=
201404281800 AAXX 28184 67561 NIL=
201404281500 AAXX 28154 67561 NIL=
201404281200 AAXX 28124 67561 NIL=
201404280900 AAXX 28094 67561 NIL=
201404280600 AAXX 28064 67561 NIL=
201404272100 AAXX 27214 67561 NIL=
201404271800 AAXX 27184 67561 NIL=
201404271500 AAXX 27154 67561 NIL=
201404271200 AAXX 27124 67561 NIL=
201404270600 AAXX 27061 67561 NIL=
201404261800 AAXX 26184 67561 NIL=
201404261500 AAXX 26154 67561 NIL=
201404261200 AAXX 26124 67561 NIL=
201404260900 AAXX 26094 67561 NIL=
201404260600 AAXX 26064 67561 NIL=
201404260300 AAXX 26034 67561 NIL=
201404251800 AAXX 25184 67561 NIL=
201404251500 AAXX 25154 67561 NIL=
201404251200 AAXX 25124 67561 NIL=
201404250900 AAXX 25094 67561 NIL=
201404250600 AAXX 25064 67561 NIL=
201404250300 AAXX 25034 67561 NIL=
201404250000 AAXX 25004 67561 NIL=
201404241200 AAXX 24124 67561 NIL=
201404240900 AAXX 24094 67561 NIL=
201404240600 AAXX 24064 67561 NIL=
201404231200 AAXX 23124 67561 NIL=
201404230900 AAXX 23094 67561 NIL=
201404230600 AAXX 23064 67561 NIL=
201404221200 AAXX 22124 67561 NIL=
201404220600 AAXX 22064 67561 NIL=
201404220300 AAXX 22034 67561 NIL=
201404212100 AAXX 21214 67561 NIL=
201404211800 AAXX 21184 67561 NIL=
201404211500 AAXX 21154 67561 NIL=
201404211200 AAXX 21124 67561 NIL=
201404210900 AAXX 21094 67561 NIL=
201404210600 AAXX 21064 67561 NIL=
201404202100 AAXX 20214 67561 NIL=
201404201800 AAXX 20184 67561 NIL=
201404201500 AAXX 20154 67561 NIL=
201404201200 AAXX 20124 67561 NIL=
201404200600 AAXX 20064 67561 NIL=
201404200000 AAXX 20004 67561 NIL=
201404192100 AAXX 19214 67561 NIL=
201404191800 AAXX 19184 67561 NIL=
201404191500 AAXX 19154 67561 NIL=
201404191200 AAXX 19124 67561 NIL=
201404190900 AAXX 19094 67561 NIL=
201404190600 AAXX 19061 67561 NIL=
201404190000 AAXX 19004 67561 NIL=
201404181800 AAXX 18184 67561 NIL=
201404181200 AAXX 18124 67561 NIL=
201404180900 AAXX 18094 67561 NIL=
201404180600 AAXX 18064 67561 NIL=
201404171500 AAXX 17154 67561 NIL=
201404171200 AAXX 17124 67561 NIL=
201404170900 AAXX 17094 67561 NIL=
201404170600 AAXX 17064 67561 NIL=
201404162100 AAXX 16214 67561 NIL=
201404161500 AAXX 16154 67561 NIL=
201404161200 AAXX 16124 67561 NIL=
201404160900 AAXX 16094 67561 NIL=
201404160600 AAXX 16064 67561 NIL=
201404160300 AAXX 16034 67561 NIL=
201404152100 AAXX 15214 67561 NIL=
201404151800 AAXX 15184 67561 NIL=
201404151500 AAXX 15154 67561 NIL=
201404151200 AAXX 15124 67561 NIL=
201404150900 AAXX 15094 67561 NIL=
201404150600 AAXX 15061 67561 NIL=
201404150300 AAXX 15034 67561 NIL=
201404142100 AAXX 14214 67561 NIL=
201404141200 AAXX 14124 67561 NIL=
201404140900 AAXX 14094 67561 NIL=
201404140600 AAXX 14064 67561 NIL=
201404140300 AAXX 14034 67561 NIL=
201404140000 AAXX 14004 67561 NIL=
201404131800 AAXX 13184 67561 NIL=
201404131500 AAXX 13154 67561 NIL=
201404131200 AAXX 13124 67561 NIL=
201404130900 AAXX 13094 67561 NIL=
201404130600 AAXX 13064 67561 NIL=
201404121800 AAXX 12184 67561 NIL=
201404121500 AAXX 12154 67561 NIL=
201404121200 AAXX 12124 67561 NIL=
201404120900 AAXX 12094 67561 NIL=
201404120600 AAXX 12064 67561 NIL=
201404111800 AAXX 11184 67561 NIL=
201404111500 AAXX 11154 67561 NIL=
201404111200 AAXX 11124 67561 NIL=
201404110900 AAXX 11094 67561 NIL=
201404110600 AAXX 11064 67561 NIL=
201404110300 AAXX 11034 67561 NIL=
201404110000 AAXX 11004 67561 NIL=
201404101200 AAXX 10124 67561 NIL=
201404100900 AAXX 10094 67561 NIL=
201404100600 AAXX 10064 67561 NIL=
201404092100 AAXX 09214 67561 NIL=
201404091500 AAXX 09154 67561 NIL=
201404091200 AAXX 09124 67561 NIL=
201404090900 AAXX 09094 67561 NIL=
201404090600 AAXX 09064 67561 NIL=
201404090300 AAXX 09034 67561 NIL=
201404082100 AAXX 08214 67561 NIL=
201404081800 AAXX 08184 67561 NIL=
201404081500 AAXX 08154 67561 NIL=
201404081200 AAXX 08124 67561 NIL=
201404080900 AAXX 08094 67561 NIL=
201404080600 AAXX 08064 67561 NIL=
201404080300 AAXX 08034 67561 NIL=
201404071800 AAXX 07184 67561 NIL=
201404071500 AAXX 07154 67561 NIL=
201404071200 AAXX 07124 67561 NIL=
201404020900 AAXX 02094 67561 NIL=
201404020600 AAXX 02064 67561 NIL=
201404020300 AAXX 02034 67561 NIL=
201404020000 AAXX 02004 67561 NIL=
201404012100 AAXX 01214 67561 NIL=
201404011800 AAXX 01184 67561 NIL=
201404011500 AAXX 01154 67561 NIL=
201404011200 AAXX 01124 67561 NIL=
201404010900 AAXX 01094 67561 NIL=
201404010600 AAXX 01064 67561 NIL=

################################################################################
#  SYNOPS from 67563, Kafironda (Zambia) | 12-36S | 028-07E | 1243 m
################################################################################
201404302100 AAXX 30214 67563 NIL=
201404301200 AAXX 30124 67563 NIL=
201404300900 AAXX 30094 67563 NIL=
201404300600 AAXX 30064 67563 NIL=
201404300300 AAXX 30034 67563 NIL=
201404292100 AAXX 29214 67563 NIL=
201404291800 AAXX 29184 67563 NIL=
201404291500 AAXX 29154 67563 NIL=
201404291200 AAXX 29124 67563 NIL=
201404290900 AAXX 29094 67563 NIL=
201404290600 AAXX 29064 67563 11378 61601 10191 20180 48/// 69904 70520 81670
                   333 10264 20136 58003 81708 86359
                   555 00138=
201404290300 AAXX 29034 67563 NIL=
201404290000 AAXX 29004 67563 NIL=
201404282100 AAXX 28214 67563 NIL=
201404281800 AAXX 28184 67563 NIL=
201404281500 AAXX 28154 67563 NIL=
201404281200 AAXX 28124 67563 NIL=
201404280900 AAXX 28094 67563 NIL=
201404280600 AAXX 28064 67563 NIL=
201404272100 AAXX 27214 67563 NIL=
201404271800 AAXX 27184 67563 NIL=
201404271500 AAXX 27154 67563 NIL=
201404271200 AAXX 27124 67563 NIL=
201404270600 AAXX 27061 67563 NIL=
201404261800 AAXX 26184 67563 NIL=
201404261500 AAXX 26154 67563 NIL=
201404261200 AAXX 26124 67563 NIL=
201404260900 AAXX 26094 67563 NIL=
201404260600 AAXX 26064 67563 NIL=
201404260300 AAXX 26034 67563 NIL=
201404251800 AAXX 25184 67563 NIL=
201404251500 AAXX 25154 67563 NIL=
201404251200 AAXX 25124 67563 NIL=
201404250900 AAXX 25094 67563 NIL=
201404250600 AAXX 25064 67563 31909 70000 10182 20180 48/// 74440 87030
                   333 10304 20156 58020 87360
                   555 00154=
201404250300 AAXX 25034 67563 NIL=
201404250000 AAXX 25004 67563 NIL=
201404241200 AAXX 24124 67563 NIL=
201404240900 AAXX 24094 67563 NIL=
201404240600 AAXX 24064 67563 NIL=
201404231200 AAXX 23124 67563 NIL=
201404230900 AAXX 23094 67563 NIL=
201404230600 AAXX 23064 67563 NIL=
201404221200 AAXX 22124 67563 NIL=
201404220600 AAXX 22064 67563 NIL=
201404220300 AAXX 22034 67563 NIL=
201404212100 AAXX 21214 67563 NIL=
201404211800 AAXX 21184 67563 NIL=
201404211500 AAXX 21154 67563 NIL=
201404211200 AAXX 21124 67563 NIL=
201404210900 AAXX 21094 67563 NIL=
201404210600 AAXX 21064 67563 NIL=
201404202100 AAXX 20214 67563 NIL=
201404201800 AAXX 20184 67563 NIL=
201404201500 AAXX 20154 67563 NIL=
201404201200 AAXX 20124 67563 NIL=
201404200600 AAXX 20064 67563 NIL=
201404200000 AAXX 20004 67563 NIL=
201404192100 AAXX 19214 67563 NIL=
201404191800 AAXX 19184 67563 NIL=
201404191500 AAXX 19154 67563 NIL=
201404191200 AAXX 19124 67563 NIL=
201404190900 AAXX 19094 67563 NIL=
201404190600 AAXX 19061 67563 NIL=
201404190000 AAXX 19004 67563 NIL=
201404181800 AAXX 18184 67563 NIL=
201404181200 AAXX 18124 67563 NIL=
201404180900 AAXX 18094 67563 NIL=
201404180600 AAXX 18064 67563 NIL=
201404171500 AAXX 17154 67563 NIL=
201404171200 AAXX 17124 67563 NIL=
201404170900 AAXX 17094 67563 NIL=
201404170600 AAXX 17064 67563 NIL=
201404162100 AAXX 16214 67563 NIL=
201404161500 AAXX 16154 67563 NIL=
201404161200 AAXX 16124 67563 NIL=
201404160900 AAXX 16094 67563 NIL=
201404160600 AAXX 16064 67563 NIL=
201404160300 AAXX 16034 67563 NIL=
201404152100 AAXX 15214 67563 NIL=
201404151800 AAXX 15184 67563 NIL=
201404151500 AAXX 15154 67563 NIL=
201404151200 AAXX 15124 67563 NIL=
201404150900 AAXX 15094 67563 NIL=
201404150600 AAXX 15061 67563 NIL=
201404150300 AAXX 15034 67563 NIL=
201404142100 AAXX 14214 67563 NIL=
201404141200 AAXX 14124 67563 NIL=
201404140900 AAXX 14094 67563 NIL=
201404140600 AAXX 14064 67563 NIL=
201404140300 AAXX 14034 67563 NIL=
201404140000 AAXX 14004 67563 NIL=
201404131800 AAXX 13184 67563 NIL=
201404131500 AAXX 13154 67563 NIL=
201404131200 AAXX 13124 67563 NIL=
201404130900 AAXX 13094 67563 NIL=
201404130600 AAXX 13064 67563 NIL=
201404121800 AAXX 12184 67563 NIL=
201404121500 AAXX 12154 67563 NIL=
201404121200 AAXX 12124 67563 NIL=
201404120900 AAXX 12094 67563 NIL=
201404120600 AAXX 12064 67563 NIL=
201404111800 AAXX 11184 67563 NIL=
201404111500 AAXX 11154 67563 NIL=
201404111200 AAXX 11124 67563 NIL=
201404110900 AAXX 11094 67563 NIL=
201404110600 AAXX 11064 67563 NIL=
201404110300 AAXX 11034 67563 NIL=
201404110000 AAXX 11004 67563 NIL=
201404101200 AAXX 10124 67563 NIL=
201404100900 AAXX 10094 67563 NIL=
201404100600 AAXX 10064 67563 NIL=
201404092100 AAXX 09214 67563 NIL=
201404091500 AAXX 09154 67563 NIL=
201404091200 AAXX 09124 67563 NIL=
201404090900 AAXX 09094 67563 NIL=
201404090600 AAXX 09064 67563 NIL=
201404090300 AAXX 09034 67563 NIL=
201404082100 AAXX 08214 67563 NIL=
201404081800 AAXX 08184 67563 NIL=
201404081500 AAXX 08154 67563 NIL=
201404081200 AAXX 08124 67563 NIL=
201404080900 AAXX 08094 67563 NIL=
201404080600 AAXX 08064 67563 NIL=
201404080300 AAXX 08034 67563 NIL=
201404071800 AAXX 07184 67563 NIL=
201404071500 AAXX 07154 67563 NIL=
201404071200 AAXX 07124 67563 NIL=
201404020900 AAXX 02094 67563 NIL=
201404020600 AAXX 02064 67563 NIL=
201404020300 AAXX 02034 67563 NIL=
201404020000 AAXX 02004 67563 NIL=
201404012100 AAXX 01214 67563 NIL=
201404011800 AAXX 01184 67563 NIL=
201404011500 AAXX 01154 67563 NIL=
201404011200 AAXX 01124 67563 NIL=
201404010900 AAXX 01094 67563 NIL=
201404010600 AAXX 01064 67563 NIL=

################################################################################
#  SYNOPS from 67571, Serenje (Zambia) | 13-14S | 030-13E | 1384 m
################################################################################
201404302100 AAXX 30214 67571 NIL=
201404301200 AAXX 30124 67571 NIL=
201404300900 AAXX 30094 67571 NIL=
201404300600 AAXX 30064 67571 NIL=
201404300300 AAXX 30034 67571 NIL=
201404292100 AAXX 29214 67571 NIL=
201404291800 AAXX 29184 67571 NIL=
201404291500 AAXX 29154 67571 NIL=
201404291200 AAXX 29124 67571 NIL=
201404290900 AAXX 29094 67571 NIL=
201404290600 AAXX 29064 67571 11378 81506 10173 20156 48540 69904 75055 887//
                   333 10269 20171 58001 88708
                   555 00/// 20000=
201404290300 AAXX 29034 67571 NIL=
201404290000 AAXX 29004 67571 NIL=
201404282100 AAXX 28214 67571 NIL=
201404281800 AAXX 28184 67571 NIL=
201404281500 AAXX 28154 67571 NIL=
201404281200 AAXX 28124 67571 42682 61206 10256 20166 48525 70322 84161
                   333 58003 84840 81359 83080=
201404280900 AAXX 28094 67571 42582 71504 10243 20167 48544 70222 84508
                   333 59003 84623 85280=
201404280600 AAXX 28064 67571 32480 71505 10188 20172 48541 70322 876//
                   333 10281 20167 59007 87712
                   555 00/// 20000=
201404272100 AAXX 27214 67571 NIL=
201404271800 AAXX 27184 67571 NIL=
201404271500 AAXX 27154 67571 NIL=
201404271200 AAXX 27124 67571 NIL=
201404270600 AAXX 27061 67571 NIL=
201404261800 AAXX 26184 67571 NIL=
201404261500 AAXX 26154 67571 NIL=
201404261200 AAXX 26124 67571 NIL=
201404260900 AAXX 26094 67571 NIL=
201404260600 AAXX 26064 67571 NIL=
201404260300 AAXX 26034 67571 NIL=
201404251800 AAXX 25184 67571 NIL=
201404251500 AAXX 25154 67571 NIL=
201404251200 AAXX 25124 67571 42582 21203 10281 20137 48505 70200 82208
                   333 58011 82830 82281=
201404250900 AAXX 25094 67571 42482 20903 10264 20149 48535 70322 82538
                   333 58014 82618 81360 82280=
201404250600 AAXX 25064 67571 12982 40903 10199 20161 48532 60114 70222 82038
                   333 10288 20149 58014 82360 84280
                   555 00/// 20010=
201404250300 AAXX 25034 67571 NIL=
201404250000 AAXX 25004 67571 NIL=
201404241200 AAXX 24124 67571 41640 71512 10254 20166 48504 78198 872//
                   333 59006 81936 87836=
201404240900 AAXX 24094 67571 NIL=
201404240600 AAXX 24064 67571 12982 30902 10224 20170 48523 60104 70111 80001
                   333 10294 20164 59002 83080
                   555 00/// 20000=
201404231200 AAXX 23124 67571 NIL=
201404230900 AAXX 23094 67571 42682 40903 10263 20161 48525 70300 83101
                   333 59005 83830 82080=
201404230600 AAXX 23064 67571 NIL=
201404221200 AAXX 22124 67571 42782 80903 10249 20154 48514 70322 884//
                   333 58004 88650=
201404220900 AAXX 22094 67571 42682 70903 10250 20156 48534 70222 83108
                   333 58002 83832 87280=
201404220600 AAXX 22064 67571 32982 71205 10194 20152 48521 70222 81048
                   333 10262 20165 59003 81360 87280
                   555 00/// 20000=
201404220300 AAXX 22034 67571 NIL=
201404212100 AAXX 21214 67571 NIL=
201404211800 AAXX 21184 67571 NIL=
201404211500 AAXX 21154 67571 NIL=
201404211200 AAXX 21124 67571 NIL=
201404210900 AAXX 21094 67571 NIL=
201404210600 AAXX 21064 67571 NIL=
201404202100 AAXX 20214 67571 NIL=
201404201800 AAXX 20184 67571 NIL=
201404201500 AAXX 20154 67571 NIL=
201404201200 AAXX 20124 67571 NIL=
201404200600 AAXX 20064 67571 NIL=
201404200000 AAXX 20004 67571 NIL=
201404192100 AAXX 19214 67571 NIL=
201404191800 AAXX 19184 67571 NIL=
201404191500 AAXX 19154 67571 NIL=
201404191200 AAXX 19124 67571 NIL=
201404190900 AAXX 19094 67571 NIL=
201404190600 AAXX 19061 67571 NIL=
201404190000 AAXX 19004 67571 NIL=
201404181800 AAXX 18184 67571 NIL=
201404181200 AAXX 18124 67571 NIL=
201404180900 AAXX 18094 67571 NIL=
201404180600 AAXX 18064 67571 NIL=
201404171500 AAXX 17154 67571 NIL=
201404171200 AAXX 17124 67571 NIL=
201404170900 AAXX 17094 67571 NIL=
201404170600 AAXX 17064 67571 NIL=
201404162100 AAXX 16214 67571 NIL=
201404161500 AAXX 16154 67571 NIL=
201404161200 AAXX 16124 67571 42682 31202 10264 20136 48525 70200 83100
                   333 58007 83843=
201404160900 AAXX 16094 67571 42582 31204 10250 20147 48534 70300 83100
                   333 58000 83823=
201404160600 AAXX 16064 67571 32982 11205 10196 20134 48532 70200 80001
                   333 10260 20155 59007 81080
                   555 00/// 20000 40000 75026 86028=
201404160300 AAXX 16034 67571 NIL=
201404152100 AAXX 15214 67571 NIL=
201404151800 AAXX 15184 67571 NIL=
201404151500 AAXX 15154 67571 NIL=
201404151200 AAXX 15124 67571 42682 11604 10256 20125 48504 70222 81800
                   333 59020 81830=
201404150900 AAXX 15094 67571 42582 11505 10235 20127 48524 70222 81500
                   333 59021 81620=
201404150600 AAXX 15064 67571 32982 09002 10175 20134 48530 70222 80000
                   333 10240 20104 59016
                   555 00/// 20000=
201404150300 AAXX 15034 67571 NIL=
201404142100 AAXX 14214 67571 NIL=
201404141200 AAXX 14124 67571 42582 71502 10226 20146 48523 70222 82508
                   333 59004 82625 87281=
201404140900 AAXX 14094 67571 42582 71203 10203 20143 48552 70222 875//
                   333 58002 87620=
201404140600 AAXX 14064 67571 12482 71505 10156 20136 48549 69904 70222 875//
                   333 10230 20138 59002 87615
                   555 00/// 20001=
201404140300 AAXX 14034 67571 NIL=
201404140000 AAXX 14004 67571 NIL=
201404131800 AAXX 13184 67571 NIL=
201404131500 AAXX 13154 67571 NIL=
201404131200 AAXX 13124 67571 NIL=
201404130900 AAXX 13094 67571 NIL=
201404130600 AAXX 13064 67571 NIL=
201404121800 AAXX 12184 67571 NIL=
201404121500 AAXX 12154 67571 NIL=
201404121200 AAXX 12124 67571 NIL=
201404120900 AAXX 12094 67571 NIL=
201404120600 AAXX 12064 67571 NIL=
201404111800 AAXX 11184 67571 NIL=
201404111500 AAXX 11154 67571 NIL=
201404111200 AAXX 11124 67571 NIL=
201404110900 AAXX 11094 67571 41480 81205 10189 20147 48551 75055 885//
                   333 58006 88616=
201404110600 AAXX 11064 67571 11378 81504 10167 20146 48550 69924 75055 887//
                   333 10215 20154 58003 88706=
201404110300 AAXX 11034 67571 NIL=
201404110000 AAXX 11004 67571 NIL=
201404101200 AAXX 10124 67571 NIL=
201404100900 AAXX 10094 67571 41482 81504 10173 20147 48540 70252 885//
                   333 59008 88617=
201404100600 AAXX 10064 67571 11378 81203 10158 20148 48539 60064 75055 887//
                   333 10229 20151 59002 88708=
201404092100 AAXX 09214 67571 NIL=
201404091500 AAXX 09154 67571 NIL=
201404091200 AAXX 09124 67571 42482 71406 10202 20149 48532 70222 875//
                   333 58003 87616=
201404090900 AAXX 09094 67571 42482 71205 10193 20146 48541 70222 875//
                   333 59002 87615=
201404090600 AAXX 09064 67571 32382 71206 10174 20139 48540 70222 81638
                   333 10240 20152 59008 81709 81360 87280
                   555 00/// 20990=
201404090300 AAXX 09034 67571 NIL=
201404082100 AAXX 08214 67571 NIL=
201404081800 AAXX 08184 67571 NIL=
201404081500 AAXX 08154 67571 NIL=
201404081200 AAXX 08124 67571 42482 11204 10232 20131 48523 70222 81501
                   333 59005 81618 81080=
201404080900 AAXX 08094 67571 42482 11205 10214 20110 48552 70222 81501
                   333 59001 81615 81080=
201404080600 AAXX 08064 67571 12482 21205 10169 20133 48550 69904 70222 82501
                   333 10205 20140 58006 82615 81080
                   555 00/// 20990=
201404080300 AAXX 08034 67571 NIL=
201404071800 AAXX 07184 67571 NIL=
201404071500 AAXX 07154 67571 NIL=
201404071200 AAXX 07124 67571 42482 81505 10195 20161 48532 70222 8551/
                   333 58018 85615 88460=
201404020900 AAXX 02094 67571 42582 71503 10242 20160 48524 70222 8233/
                   333 58007 81920 81620 82825 87361=
201404020600 AAXX 02064 67571 12482 70000 10190 20178 48521 60024 70222 8153/
                   333 10252 20178 58001 81615 87360=
201404020300 AAXX 02034 67571 NIL=
201404020000 AAXX 02004 67571 NIL=
201404012100 AAXX 01214 67571 NIL=
201404011800 AAXX 01184 67571 NIL=
201404011500 AAXX 01154 67571 NIL=
201404011200 AAXX 01124 67571 41478 72103 10/// 20194 48492 72166 8327/
                   333 59007 81920 83825 87460=
201404010900 AAXX 01094 67571 42482 71204 10245 20169 48524 70222 8483/
                   333 59012 82618 84820 87360=
201404010600 AAXX 01064 67571 12482 71502 10196 20174 48522 60014 70222 8253/
                   333 10258 20167 59007 82615 87360=

################################################################################
#  SYNOPS from 67575, Mkushi (Zambia) | 13-38S | 029-53E | 1237 m
################################################################################
201404302100 AAXX 30214 67575 NIL=
201404301200 AAXX 30124 67575 NIL=
201404300900 AAXX 30094 67575 NIL=
201404300600 AAXX 30064 67575 32480 10602 10185 20156 48/// 81500
                   333 10250 20138 5//// 81615
                   555 00/// 20000=
201404300300 AAXX 30034 67575 NIL=
201404292100 AAXX 29214 67575 NIL=
201404291800 AAXX 29184 67575 NIL=
201404291500 AAXX 29154 67575 NIL=
201404291200 AAXX 29124 67575 NIL=
201404290900 AAXX 29094 67575 NIL=
201404290600 AAXX 29064 67575 32480 60904 10203 20157 48/// 86500
                   333 10287 20179 5//// 86615
                   555 00/// 20000=
201404290300 AAXX 29034 67575 NIL=
201404290000 AAXX 29004 67575 NIL=
201404282100 AAXX 28214 67575 NIL=
201404281800 AAXX 28184 67575 NIL=
201404281500 AAXX 28154 67575 NIL=
201404281200 AAXX 28124 67575 NIL=
201404280900 AAXX 28094 67575 NIL=
201404280600 AAXX 28064 67575 32480 21602 10215 20165 48/// 82501
                   333 10300 20155 5//// 82615 81080=
201404272100 AAXX 27214 67575 NIL=
201404271800 AAXX 27184 67575 NIL=
201404271500 AAXX 27154 67575 NIL=
201404271200 AAXX 27124 67575 NIL=
201404270600 AAXX 27061 67575 NIL=
201404261800 AAXX 26184 67575 NIL=
201404261500 AAXX 26154 67575 NIL=
201404261200 AAXX 26124 67575 NIL=
201404260900 AAXX 26094 67575 NIL=
201404260600 AAXX 26064 67575 NIL=
201404260300 AAXX 26034 67575 NIL=
201404251800 AAXX 25184 67575 NIL=
201404251500 AAXX 25154 67575 NIL=
201404251200 AAXX 25124 67575 NIL=
201404250900 AAXX 25094 67575 NIL=
201404250600 AAXX 25064 67575 12980 20000 10167 20155 48/// 60034 82072
                   333 10295 20145 5//// 82360 81080
                   555 00/// 20000=
201404250300 AAXX 25034 67575 NIL=
201404250000 AAXX 25004 67575 NIL=
201404241200 AAXX 24124 67575 NIL=
201404240900 AAXX 24094 67575 NIL=
201404240600 AAXX 24064 67575 32980 10000 10179 20162 48/// 81031
                   333 10310 20145 5//// 81360 81080
                   555 00/// 20000=
201404231200 AAXX 23124 67575 NIL=
201404230900 AAXX 23094 67575 NIL=
201404230600 AAXX 23064 67575 32980 10000 10207 20163 48/// 81030
                   333 10291 20155 5//// 81360
                   555 00/// 20000=
201404221200 AAXX 22124 67575 NIL=
201404220600 AAXX 22064 67575 32980 31303 10202 20149 48/// 82031
                   333 10287 20145 5//// 82360 82080
                   555 00/// 20000=
201404220300 AAXX 22034 67575 NIL=
201404212100 AAXX 21214 67575 NIL=
201404211800 AAXX 21184 67575 NIL=
201404211500 AAXX 21154 67575 NIL=
201404211200 AAXX 21124 67575 NIL=
201404210900 AAXX 21094 67575 NIL=
201404210600 AAXX 21064 67575 NIL=
201404202100 AAXX 20214 67575 NIL=
201404201800 AAXX 20184 67575 NIL=
201404201500 AAXX 20154 67575 NIL=
201404201200 AAXX 20124 67575 NIL=
201404200600 AAXX 20064 67575 NIL=
201404200000 AAXX 20004 67575 NIL=
201404192100 AAXX 19214 67575 NIL=
201404191800 AAXX 19184 67575 NIL=
201404191500 AAXX 19154 67575 NIL=
201404191200 AAXX 19124 67575 NIL=
201404190900 AAXX 19094 67575 NIL=
201404190600 AAXX 19061 67575 NIL=
201404190000 AAXX 19004 67575 NIL=
201404181800 AAXX 18184 67575 NIL=
201404181200 AAXX 18124 67575 NIL=
201404180900 AAXX 18094 67575 NIL=
201404180600 AAXX 18064 67575 NIL=
201404171500 AAXX 17154 67575 NIL=
201404171200 AAXX 17124 67575 NIL=
201404170900 AAXX 17094 67575 NIL=
201404170600 AAXX 17064 67575 NIL=
201404162100 AAXX 16214 67575 NIL=
201404161500 AAXX 16154 67575 NIL=
201404161200 AAXX 16124 67575 NIL=
201404160900 AAXX 16094 67575 NIL=
201404160600 AAXX 16064 67575 32980 10903 10204 20144 48/// 80001
                   333 10280 20140 5//// 81080
                   555 00/// 20000=
201404160300 AAXX 16034 67575 NIL=
201404152100 AAXX 15214 67575 NIL=
201404151800 AAXX 15184 67575 NIL=
201404151500 AAXX 15154 67575 NIL=
201404151200 AAXX 15124 67575 NIL=
201404150900 AAXX 15094 67575 NIL=
201404150600 AAXX 15064 67575 32480 10902 10188 20146 48/// 81100
                   333 10268 20170 5//// 81815=
201404150300 AAXX 15034 67575 NIL=
201404142100 AAXX 14214 67575 NIL=
201404141200 AAXX 14124 67575 NIL=
201404140900 AAXX 14094 67575 NIL=
201404140600 AAXX 14064 67575 32480 21604 10180 20135 48/// 81201
                   333 10234 20150 5//// 81816 81080
                   555 00/// 20996=
201404140300 AAXX 14034 67575 NIL=
201404140000 AAXX 14004 67575 NIL=
201404131800 AAXX 13184 67575 NIL=
201404131500 AAXX 13154 67575 NIL=
201404131200 AAXX 13124 67575 NIL=
201404130900 AAXX 13094 67575 NIL=
201404130600 AAXX 13064 67575 NIL=
201404121800 AAXX 12184 67575 NIL=
201404121500 AAXX 12154 67575 NIL=
201404121200 AAXX 12124 67575 NIL=
201404120900 AAXX 12094 67575 NIL=
201404120600 AAXX 12064 67575 NIL=
201404111800 AAXX 11184 67575 NIL=
201404111500 AAXX 11154 67575 NIL=
201404111200 AAXX 11124 67575 NIL=
201404110900 AAXX 11094 67575 NIL=
201404110600 AAXX 11064 67575 32480 70906 10186 20144 48/// 70222 87530
                   333 10200 20164 87716 81360=
201404110300 AAXX 11034 67575 NIL=
201404110000 AAXX 11004 67575 NIL=
201404101200 AAXX 10124 67575 NIL=
201404100900 AAXX 10094 67575 NIL=
201404100600 AAXX 10064 67575 11440 81201 10168 20155 48/// 60024 76165 8667/
                   333 10230 20160 5//// 87710 82360=
201404092100 AAXX 09214 67575 NIL=
201404091500 AAXX 09154 67575 NIL=
201404091200 AAXX 09124 67575 NIL=
201404090900 AAXX 09094 67575 NIL=
201404090600 AAXX 09064 67575 32480 61306 10186 20143 48/// 84502
                   333 10267 20160 5//// 84615 84080
                   555 00/// 20000=
201404090300 AAXX 09034 67575 NIL=
201404082100 AAXX 08214 67575 NIL=
201404081800 AAXX 08184 67575 NIL=
201404081500 AAXX 08154 67575 NIL=
201404081200 AAXX 08124 67575 NIL=
201404080900 AAXX 08094 67575 NIL=
201404080600 AAXX 08064 67575 32480 21206 10185 20139 48/// 82501
                   333 10221 20141 5//// 82615 81080=
201404080300 AAXX 08034 67575 NIL=
201404071800 AAXX 07184 67575 NIL=
201404071500 AAXX 07154 67575 NIL=
201404071200 AAXX 07124 67575 NIL=
201404020900 AAXX 02094 67575 NIL=
201404020600 AAXX 02064 67575 NIL=
201404020300 AAXX 02034 67575 NIL=
201404020000 AAXX 02004 67575 NIL=
201404012100 AAXX 01214 67575 NIL=
201404011800 AAXX 01184 67575 NIL=
201404011500 AAXX 01154 67575 NIL=
201404011200 AAXX 01124 67575 NIL=
201404010900 AAXX 01094 67575 NIL=
201404010600 AAXX 01064 67575 NIL=

################################################################################
#  SYNOPS from 67580, Msekera (Zambia) | 13-39S | 032-34E | 1025 m
################################################################################
201404302100 AAXX 30214 67580 NIL=
201404301200 AAXX 30124 67580 NIL=
201404300900 AAXX 30094 67580 42680 61502 10266 20176 48/// 86100
                   333 59005 86838=
201404300600 AAXX 30064 67580 32980 01202 10205 20174 48///
                   333 10252 20/// 59005
                   555 00/// 20011=
201404300300 AAXX 30034 67580 NIL=
201404292100 AAXX 29214 67580 NIL=
201404291800 AAXX 29184 67580 NIL=
201404291500 AAXX 29154 67580 NIL=
201404291200 AAXX 29124 67580 NIL=
201404290900 AAXX 29094 67580 42580 71204 10229 20177 48/// 8383/
                   333 58008 81824 82626 86360=
201404290600 AAXX 29064 67580 12480 71505 10201 20181 48/// 60114 85530
                   333 10303 20/// 58004 85616 82360
                   555 00/// 20000=
201404290300 AAXX 29034 67580 NIL=
201404290000 AAXX 29004 67580 NIL=
201404282100 AAXX 28214 67580 NIL=
201404281800 AAXX 28184 67580 NIL=
201404281500 AAXX 28154 67580 NIL=
201404281200 AAXX 28124 67580 NIL=
201404280900 AAXX 28094 67580 42780 71204 10295 20184 48/// 872//
                   333 59007 87850=
201404280600 AAXX 28064 67580 32980 71503 10226 20185 48/// 81038
                   333 10322 20/// 59006 81362 87280
                   555 00/// 20000=
201404272100 AAXX 27214 67580 NIL=
201404271800 AAXX 27184 67580 NIL=
201404271500 AAXX 27154 67580 NIL=
201404271200 AAXX 27124 67580 NIL=
201404270600 AAXX 27061 67580 NIL=
201404261800 AAXX 26184 67580 NIL=
201404261500 AAXX 26154 67580 NIL=
201404261200 AAXX 26124 67580 NIL=
201404260900 AAXX 26094 67580 NIL=
201404260600 AAXX 26064 67580 NIL=
201404260300 AAXX 26034 67580 NIL=
201404251800 AAXX 25184 67580 NIL=
201404251500 AAXX 25154 67580 NIL=
201404251200 AAXX 25124 67580 NIL=
201404250900 AAXX 25094 67580 42680 40903 10294 20177 48/// 81101
                   333 58010 81840 83080=
201404250600 AAXX 25064 67580 32980 30903 10250 20177 48/// 81031
                   333 10322 20/// 5//// 81361 82080
                   555 00/// 20000=
201404250300 AAXX 25034 67580 NIL=
201404250000 AAXX 25004 67580 NIL=
201404241200 AAXX 24124 67580 NIL=
201404240900 AAXX 24094 67580 42680 20903 10290 20187 48/// 82100
                   333 59006 82844=
201404240600 AAXX 24064 67580 32580 10604 10245 20185 48/// 81101
                   333 10332 20/// 5//// 81820 81080
                   555 00/// 20000=
201404231200 AAXX 23124 67580 42782 63604 10316 20169 48/// 86200
                   333 59010 86856=
201404230900 AAXX 23094 67580 42682 23605 10289 20178 48/// 82201
                   333 59001 82845 81080=
201404230600 AAXX 23064 67580 32982 00603 10242 20182 48///
                   333 10300 20/// 58000
                   555 00/// 20000=
201404221200 AAXX 22124 67580 42780 72402 10275 20175 48/// 878//
                   333 58005 84850 86656=
201404220900 AAXX 22094 67580 42680 72704 10274 20175 48/// 86208
                   333 58001 86840 86280=
201404220600 AAXX 22064 67580 NIL=
201404220300 AAXX 22034 67580 NIL=
201404212100 AAXX 21214 67580 NIL=
201404211800 AAXX 21184 67580 NIL=
201404211500 AAXX 21154 67580 NIL=
201404211200 AAXX 21124 67580 NIL=
201404210900 AAXX 21094 67580 NIL=
201404210600 AAXX 21064 67580 NIL=
201404202100 AAXX 20214 67580 NIL=
201404201800 AAXX 20184 67580 NIL=
201404201500 AAXX 20154 67580 NIL=
201404201200 AAXX 20124 67580 NIL=
201404200600 AAXX 20064 67580 NIL=
201404200000 AAXX 20004 67580 NIL=
201404192100 AAXX 19214 67580 NIL=
201404191800 AAXX 19184 67580 NIL=
201404191500 AAXX 19154 67580 NIL=
201404191200 AAXX 19124 67580 NIL=
201404190900 AAXX 19094 67580 NIL=
201404190600 AAXX 19061 67580 NIL=
201404190000 AAXX 19004 67580 NIL=
201404181800 AAXX 18184 67580 NIL=
201404181200 AAXX 18124 67580 NIL=
201404180900 AAXX 18094 67580 NIL=
201404180600 AAXX 18064 67580 NIL=
201404171500 AAXX 17154 67580 NIL=
201404171200 AAXX 17124 67580 NIL=
201404170900 AAXX 17094 67580 42680 51604 10256 20177 48/// 85200
                   333 58003 85840=
201404170600 AAXX 17064 67580 NIL=
201404162100 AAXX 16214 67580 NIL=
201404161500 AAXX 16154 67580 NIL=
201404161200 AAXX 16124 67580 NIL=
201404160900 AAXX 16094 67580 42680 61102 10259 20160 48/// 86100
                   333 58001 86838=
201404160600 AAXX 16064 67580 32980 01204 10220 20174 48///
                   333 10309 20/// 555 00/// 20000=
201404160300 AAXX 16034 67580 NIL=
201404152100 AAXX 15214 67580 NIL=
201404151800 AAXX 15184 67580 NIL=
201404151500 AAXX 15154 67580 NIL=
201404151200 AAXX 15124 67580 42780 72703 10287 20161 48/// 87200
                   333 59018 87856=
201404150900 AAXX 15094 67580 42680 70303 10269 20164 48/// 87200
                   333 59023 87838=
201404150600 AAXX 15064 67580 32580 41202 10204 20154 48/// 81130
                   333 10277 20//0 59020 81820 84360=
201404150300 AAXX 15034 67580 NIL=
201404142100 AAXX 14214 67580 NIL=
201404141200 AAXX 14124 67580 42780 61203 10247 20155 48/// 86202
                   333 59005 86856 81080=
201404140900 AAXX 14094 67580 42680 71504 10232 20164 48/// 86502
                   333 59001 86630 82080=
201404140600 AAXX 14064 67580 32480 71806 10191 20154 48/// 875//
                   333 10254 20/// 59005 87618
                   555 00/// 20990=
201404140300 AAXX 14034 67580 NIL=
201404140000 AAXX 14004 67580 NIL=
201404131800 AAXX 13184 67580 NIL=
201404131500 AAXX 13154 67580 NIL=
201404131200 AAXX 13124 67580 NIL=
201404130900 AAXX 13094 67580 NIL=
201404130600 AAXX 13064 67580 NIL=
201404121800 AAXX 12184 67580 NIL=
201404121500 AAXX 12154 67580 NIL=
201404121200 AAXX 12124 67580 NIL=
201404120900 AAXX 12094 67580 NIL=
201404120600 AAXX 12064 67580 NIL=
201404111800 AAXX 11184 67580 NIL=
201404111500 AAXX 11154 67580 NIL=
201404111200 AAXX 11124 67580 NIL=
201404110900 AAXX 11094 67580 NIL=
201404110600 AAXX 11064 67580 32480 71506 10205 20166 48/// 87530
                   333 10240 20/// 58005 87610 81361=
201404110300 AAXX 11034 67580 NIL=
201404110000 AAXX 11004 67580 NIL=
201404101200 AAXX 10124 67580 NIL=
201404100900 AAXX 10094 67580 42680 71506 10230 20165 48/// 85830
                   333 59010 83830 82632 84361=
201404100600 AAXX 10064 67580 32480 71506 10210 20151 48/// 84830
                   333 10258 20/// 59007 81816 83618 83360=
201404092100 AAXX 09214 67580 NIL=
201404091500 AAXX 09154 67580 NIL=
201404091200 AAXX 09124 67580 42780 71805 10244 20168 48/// 84238
                   333 59001 84856 81360 85280=
201404090900 AAXX 09094 67580 42680 71205 10220 20165 48/// 875//
                   333 59005 87635=
201404090600 AAXX 09064 67580 32480 71204 10208 20161 48/// 84538
                   333 10257 20/// 59009 84618 81360 87280
                   555 00/// 20000=
201404090300 AAXX 09034 67580 NIL=
201404082100 AAXX 08214 67580 NIL=
201404081800 AAXX 08184 67580 NIL=
201404081500 AAXX 08154 67580 NIL=
201404081200 AAXX 08124 67580 42780 60905 10252 20173 48/// 86802
                   333 59003 83850 85656 81080=
201404080900 AAXX 08094 67580 NIL=
201404080600 AAXX 08064 67580 32482 61606 10185 20153 48/// 86530
                   333 10230 20/// 58014 86618 81360
                   555 00/// 20000=
201404080300 AAXX 08034 67580 NIL=
201404071800 AAXX 07184 67580 NIL=
201404071500 AAXX 07154 67580 NIL=
201404071200 AAXX 07124 67580 42580 71405 10220 20174 48/// 878//
                   333 58032 82822 87624=
201404020900 AAXX 02094 67580 42680 73602 10264 20200 48/// 85231
                   333 58011 85834 83361 81080=
201404020600 AAXX 02064 67580 32980 72702 10214 20164 48/// 8703/
                   333 10293 20/// 58002 87360=
201404020300 AAXX 02034 67580 NIL=
201404020000 AAXX 02004 67580 NIL=
201404012100 AAXX 01214 67580 NIL=
201404011800 AAXX 01184 67580 NIL=
201404011500 AAXX 01154 67580 NIL=
201404011200 AAXX 01124 67580 NIL=
201404010900 AAXX 01094 67580 42680 73002 10274 20190 48/// 82130
                   333 59014 82838 85361=
201404010600 AAXX 01064 67580 32980 41202 10224 20164 48/// 84030
                   333 10299 20/// 84361=

################################################################################
#  SYNOPS from 67581, Chipata (Zambia) | 13-33S | 032-35E | 1028 m
################################################################################
201404302100 AAXX 30214 67581 NIL=
201404301200 AAXX 30124 67581 NIL=
201404300900 AAXX 30094 67581 NIL=
201404300600 AAXX 30064 67581 32980 00000 10203 20172 48549 70200
                   333 10270 20184 59004
                   555 00120 20014 91021=
201404300300 AAXX 30034 67581 NIL=
201404292100 AAXX 29214 67581 NIL=
201404291800 AAXX 29184 67581 NIL=
201404291500 AAXX 29154 67581 NIL=
201404291200 AAXX 29124 67581 42580 81202 10245 20172 48541 8527/
                   333 58013 85825 88458 91019=
201404290900 AAXX 29094 67581 42480 71603 10227 20177 48557 8527/
                   333 58011 85817 87458 91021=
201404290600 AAXX 29064 67581 12480 61502 10205 20182 48553 60144 84230
                   333 10291 20164 58004 84815 85358
                   555 00131 20000 91021=
201404290300 AAXX 29034 67581 NIL=
201404290000 AAXX 29004 67581 NIL=
201404282100 AAXX 28214 67581 NIL=
201404281800 AAXX 28184 67581 NIL=
201404281500 AAXX 28154 67581 NIL=
201404281200 AAXX 28124 67581 NIL=
201404280900 AAXX 28094 67581 NIL=
201404280600 AAXX 28064 67581 32680 20603 10251 20175 48556 81102
                   333 10340 20160 59005 81835 82080
                   555 00156 91021=
201404272100 AAXX 27214 67581 NIL=
201404271800 AAXX 27184 67581 NIL=
201404271500 AAXX 27154 67581 NIL=
201404271200 AAXX 27124 67581 NIL=
201404270600 AAXX 27061 67581 NIL=
201404261800 AAXX 26184 67581 NIL=
201404261500 AAXX 26154 67581 NIL=
201404261200 AAXX 26124 67581 NIL=
201404260900 AAXX 26094 67581 NIL=
201404260600 AAXX 26064 67581 NIL=
201404260300 AAXX 26034 67581 NIL=
201404251800 AAXX 25184 67581 NIL=
201404251500 AAXX 25154 67581 NIL=
201404251200 AAXX 25124 67581 NIL=
201404250900 AAXX 25094 67581 NIL=
201404250600 AAXX 25064 67581 32680 50606 10242 20166 48548 81132
                   333 10305 20177 58007 81835 82360 85080
                   555 00142 20000 91010=
201404250300 AAXX 25034 67581 NIL=
201404250000 AAXX 25004 67581 NIL=
201404241200 AAXX 24124 67581 NIL=
201404240900 AAXX 24094 67581 42580 43604 10278 20184 48546 84101
                   333 59004 84830 81080 91019=
201404240600 AAXX 24064 67581 32580 20405 10236 20182 48541 82100
                   333 10312 20194 58000 82824
                   555 00169 20000 91019=
201404231200 AAXX 23124 67581 NIL=
201404230900 AAXX 23094 67581 NIL=
201404230600 AAXX 23064 67581 32580 10308 10240 20172 48543 81101
                   333 10294 20145 59001 81825 81080
                   555 00130 20000 91019=
201404221200 AAXX 22124 67581 NIL=
201404220600 AAXX 22064 67581 32980 30903 10219 20159 48538 70200 80002
                   333 10264 20142 59005 83080
                   555 00116 20000 91019=
201404220300 AAXX 22034 67581 NIL=
201404212100 AAXX 21214 67581 NIL=
201404211800 AAXX 21184 67581 NIL=
201404211500 AAXX 21154 67581 NIL=
201404211200 AAXX 21124 67581 NIL=
201404210900 AAXX 21094 67581 NIL=
201404210600 AAXX 21064 67581 NIL=
201404202100 AAXX 20214 67581 NIL=
201404201800 AAXX 20184 67581 NIL=
201404201500 AAXX 20154 67581 NIL=
201404201200 AAXX 20124 67581 NIL=
201404200600 AAXX 20064 67581 NIL=
201404200000 AAXX 20004 67581 NIL=
201404192100 AAXX 19214 67581 NIL=
201404191800 AAXX 19184 67581 NIL=
201404191500 AAXX 19154 67581 NIL=
201404191200 AAXX 19124 67581 NIL=
201404190900 AAXX 19094 67581 NIL=
201404190600 AAXX 19061 67581 NIL=
201404190000 AAXX 19004 67581 NIL=
201404181800 AAXX 18184 67581 NIL=
201404181200 AAXX 18124 67581 NIL=
201404180900 AAXX 18094 67581 NIL=
201404180600 AAXX 18064 67581 NIL=
201404171500 AAXX 17154 67581 NIL=
201404171200 AAXX 17124 67581 NIL=
201404170900 AAXX 17094 67581 NIL=
201404170600 AAXX 17064 67581 NIL=
201404162100 AAXX 16214 67581 NIL=
201404161500 AAXX 16154 67581 NIL=
201404161200 AAXX 16124 67581 NIL=
201404160900 AAXX 16094 67581 NIL=
201404160600 AAXX 16064 67581 32980 21203 10226 20168 48547 70222 82030
                   333 10291 20146 59002 82359
                   555 00133 20000 91020=
201404160300 AAXX 16034 67581 NIL=
201404152100 AAXX 15214 67581 NIL=
201404151800 AAXX 15184 67581 NIL=
201404151500 AAXX 15154 67581 NIL=
201404151200 AAXX 15124 67581 42580 51703 10287 20154 48543 85200
                   333 59018 85844 91017=
201404150900 AAXX 15094 67581 42580 53603 10261 20158 48551 85200
                   333 59023 85838 91020=
201404150600 AAXX 15064 67581 32480 31501 10194 20160 48543 82130
                   333 10273 20120 59018 82814 83359
                   555 00105 20000 91021=
201404150300 AAXX 15034 67581 NIL=
201404142100 AAXX 14214 67581 NIL=
201404141200 AAXX 14124 67581 NIL=
201404140900 AAXX 14094 67581 NIL=
201404140600 AAXX 14064 67581 NIL=
201404140300 AAXX 14034 67581 NIL=
201404140000 AAXX 14004 67581 NIL=
201404131800 AAXX 13184 67581 NIL=
201404131500 AAXX 13154 67581 NIL=
201404131200 AAXX 13124 67581 NIL=
201404130900 AAXX 13094 67581 NIL=
201404130600 AAXX 13064 67581 NIL=
201404121800 AAXX 12184 67581 NIL=
201404121500 AAXX 12154 67581 NIL=
201404121200 AAXX 12124 67581 NIL=
201404120900 AAXX 12094 67581 NIL=
201404120600 AAXX 12064 67581 NIL=
201404111800 AAXX 11184 67581 NIL=
201404111500 AAXX 11154 67581 NIL=
201404111200 AAXX 11124 67581 NIL=
201404110900 AAXX 11094 67581 42680 60304 10250 20160 48557 86200
                   333 58007 86830 91022=
201404110600 AAXX 11064 67581 32580 51206 10200 20160 48561 81178
                   333 10218 20150 58003 81825 81359 85280
                   555 00160 20990 91022=
201404110300 AAXX 11034 67581 NIL=
201404110000 AAXX 11004 67581 NIL=
201404101200 AAXX 10124 67581 NIL=
201404100900 AAXX 10094 67581 NIL=
201404100600 AAXX 10064 67581 NIL=
201404092100 AAXX 09214 67581 NIL=
201404091500 AAXX 09154 67581 NIL=
201404091200 AAXX 09124 67581 41580 60901 10246 20166 48547 76022 86238
                   333 59001 86832 81358 82280 91020=
201404090900 AAXX 09094 67581 42580 61804 10233 20160 48571 85108
                   333 58001 85828 84280 91023=
201404090600 AAXX 09064 67581 32580 61305 10200 20149 48562 83138
                   333 10263 20135 59007 83824 81359 86280
                   555 00155 20000 91022=
201404090300 AAXX 09034 67581 NIL=
201404082100 AAXX 08214 67581 NIL=
201404081800 AAXX 08184 67581 NIL=
201404081500 AAXX 08154 67581 NIL=
201404081200 AAXX 08124 67581 42580 61303 10244 20160 48548 86230
                   333 59002 86833 81359 91020=
201404080900 AAXX 08094 67581 42580 51304 10241 20160 48570 85200
                   333 58001 85831 91023=
201404080600 AAXX 08064 67581 32480 31306 10197 20149 48568 82530
                   333 10240 20135 58009 82610 81359
                   555 00115 20000 91023=
201404080300 AAXX 08034 67581 NIL=
201404071800 AAXX 07184 67581 NIL=
201404071500 AAXX 07154 67581 NIL=
201404071200 AAXX 07124 67581 NIL=
201404020900 AAXX 02094 67581 42580 53604 10255 20196 48549 84270
                   333 58010 84820 85459 91020=
201404020600 AAXX 02064 67581 31470 80000 10215 20187 48538 71522 8317/
                   333 10290 20160 58002 83815 88459 91019=
201404020300 AAXX 02034 67581 NIL=
201404020000 AAXX 02004 67581 NIL=
201404012100 AAXX 01214 67581 NIL=
201404011800 AAXX 01184 67581 NIL=
201404011500 AAXX 01154 67581 NIL=
201404011200 AAXX 01124 67581 NIL=
201404010900 AAXX 01094 67581 42680 62502 10256 20174 48540 83130
                   333 59006 83835 83360 91019=
201404010600 AAXX 01064 67581 32680 51402 10230 20154 48538 81130
                   333 10280 20159 59006 81832 82360 91019=

################################################################################
#  SYNOPS from 67583, Lundazi (Zambia) | 12-17S | 033-12E | 1143 m
################################################################################
201404302100 AAXX 30214 67583 NIL=
201404301200 AAXX 30124 67583 NIL=
201404300900 AAXX 30094 67583 NIL=
201404300600 AAXX 30064 67583 32980 70902 10234 20175 87030
                   333 10295 20/// 5//// 87360
                   555 00/// 20000=
201404300300 AAXX 30034 67583 NIL=
201404292100 AAXX 29214 67583 NIL=
201404291800 AAXX 29184 67583 NIL=
201404291500 AAXX 29154 67583 NIL=
201404291200 AAXX 29124 67583 NIL=
201404290900 AAXX 29094 67583 NIL=
201404290600 AAXX 29064 67583 NIL=
201404290300 AAXX 29034 67583 NIL=
201404290000 AAXX 29004 67583 NIL=
201404282100 AAXX 28214 67583 NIL=
201404281800 AAXX 28184 67583 NIL=
201404281500 AAXX 28154 67583 NIL=
201404281200 AAXX 28124 67583 NIL=
201404280900 AAXX 28094 67583 NIL=
201404280600 AAXX 28064 67583 32980 3//// 10225 20190 82031
                   333 10300 2//// 5//// 82360 81080
                   555 00/// 20000=
201404272100 AAXX 27214 67583 NIL=
201404271800 AAXX 27184 67583 NIL=
201404271500 AAXX 27154 67583 NIL=
201404271200 AAXX 27124 67583 NIL=
201404270600 AAXX 27061 67583 NIL=
201404261800 AAXX 26184 67583 NIL=
201404261500 AAXX 26154 67583 NIL=
201404261200 AAXX 26124 67583 NIL=
201404260900 AAXX 26094 67583 NIL=
201404260600 AAXX 26064 67583 NIL=
201404260300 AAXX 26034 67583 NIL=
201404251800 AAXX 25184 67583 NIL=
201404251500 AAXX 25154 67583 NIL=
201404251200 AAXX 25124 67583 NIL=
201404250900 AAXX 25094 67583 NIL=
201404250600 AAXX 25064 67583 32580 21204 10230 20182 81531
                   333 10305 20/// 5//// 81625 81360 82080
                   555 00/// 20000=
201404250300 AAXX 25034 67583 NIL=
201404250000 AAXX 25004 67583 NIL=
201404241200 AAXX 24124 67583 NIL=
201404240900 AAXX 24094 67583 NIL=
201404240600 AAXX 24064 67583 NIL=
201404231200 AAXX 23124 67583 NIL=
201404230900 AAXX 23094 67583 NIL=
201404230600 AAXX 23064 67583 NIL=
201404221200 AAXX 22124 67583 NIL=
201404220600 AAXX 22064 67583 NIL=
201404220300 AAXX 22034 67583 NIL=
201404212100 AAXX 21214 67583 NIL=
201404211800 AAXX 21184 67583 NIL=
201404211500 AAXX 21154 67583 NIL=
201404211200 AAXX 21124 67583 NIL=
201404210900 AAXX 21094 67583 NIL=
201404210600 AAXX 21064 67583 NIL=
201404202100 AAXX 20214 67583 NIL=
201404201800 AAXX 20184 67583 NIL=
201404201500 AAXX 20154 67583 NIL=
201404201200 AAXX 20124 67583 NIL=
201404200600 AAXX 20064 67583 NIL=
201404200000 AAXX 20004 67583 NIL=
201404192100 AAXX 19214 67583 NIL=
201404191800 AAXX 19184 67583 NIL=
201404191500 AAXX 19154 67583 NIL=
201404191200 AAXX 19124 67583 NIL=
201404190900 AAXX 19094 67583 NIL=
201404190600 AAXX 19061 67583 NIL=
201404190000 AAXX 19004 67583 NIL=
201404181800 AAXX 18184 67583 NIL=
201404181200 AAXX 18124 67583 NIL=
201404180900 AAXX 18094 67583 NIL=
201404180600 AAXX 18064 67583 NIL=
201404171500 AAXX 17154 67583 NIL=
201404171200 AAXX 17124 67583 NIL=
201404170900 AAXX 17094 67583 NIL=
201404170600 AAXX 17064 67583 NIL=
201404162100 AAXX 16214 67583 NIL=
201404161500 AAXX 16154 67583 NIL=
201404161200 AAXX 16124 67583 NIL=
201404160900 AAXX 16094 67583 NIL=
201404160600 AAXX 16064 67583 NIL=
201404160300 AAXX 16034 67583 NIL=
201404152100 AAXX 15214 67583 NIL=
201404151800 AAXX 15184 67583 NIL=
201404151500 AAXX 15154 67583 NIL=
201404151200 AAXX 15124 67583 NIL=
201404150900 AAXX 15094 67583 NIL=
201404150600 AAXX 15064 67583 NIL=
201404150300 AAXX 15034 67583 NIL=
201404142100 AAXX 14214 67583 NIL=
201404141200 AAXX 14124 67583 NIL=
201404140900 AAXX 14094 67583 NIL=
201404140600 AAXX 14064 67583 NIL=
201404140300 AAXX 14034 67583 NIL=
201404140000 AAXX 14004 67583 NIL=
201404131800 AAXX 13184 67583 NIL=
201404131500 AAXX 13154 67583 NIL=
201404131200 AAXX 13124 67583 NIL=
201404130900 AAXX 13094 67583 NIL=
201404130600 AAXX 13064 67583 NIL=
201404121800 AAXX 12184 67583 NIL=
201404121500 AAXX 12154 67583 NIL=
201404121200 AAXX 12124 67583 NIL=
201404120900 AAXX 12094 67583 NIL=
201404120600 AAXX 12064 67583 NIL=
201404111800 AAXX 11184 67583 NIL=
201404111500 AAXX 11154 67583 NIL=
201404111200 AAXX 11124 67583 NIL=
201404110900 AAXX 11094 67583 NIL=
201404110600 AAXX 11064 67583 NIL=
201404110300 AAXX 11034 67583 NIL=
201404110000 AAXX 11004 67583 NIL=
201404101200 AAXX 10124 67583 NIL=
201404100900 AAXX 10094 67583 NIL=
201404100600 AAXX 10064 67583 12580 70904 10195 20169 69904 8353/
                   333 10265 20/// 5//// 83622 87360=
201404092100 AAXX 09214 67583 NIL=
201404091500 AAXX 09154 67583 NIL=
201404091200 AAXX 09124 67583 NIL=
201404090900 AAXX 09094 67583 NIL=
201404090600 AAXX 09064 67583 NIL=
201404090300 AAXX 09034 67583 NIL=
201404082100 AAXX 08214 67583 NIL=
201404081800 AAXX 08184 67583 NIL=
201404081500 AAXX 08154 67583 NIL=
201404081200 AAXX 08124 67583 NIL=
201404080900 AAXX 08094 67583 NIL=
201404080600 AAXX 08064 67583 NIL=
201404080300 AAXX 08034 67583 NIL=
201404071800 AAXX 07184 67583 NIL=
201404071500 AAXX 07154 67583 NIL=
201404071200 AAXX 07124 67583 NIL=
201404020900 AAXX 02094 67583 NIL=
201404020600 AAXX 02064 67583 12580 73602 10210 20195 60024 85531
                   333 10300 20180 5//// 85625 81360 81080=
201404020300 AAXX 02034 67583 NIL=
201404020000 AAXX 02004 67583 NIL=
201404012100 AAXX 01214 67583 NIL=
201404011800 AAXX 01184 67583 NIL=
201404011500 AAXX 01154 67583 NIL=
201404011200 AAXX 01124 67583 NIL=
201404010900 AAXX 01094 67583 NIL=
201404010600 AAXX 01064 67583 12980 72101 10200 20185 60294 86031
                   333 10300 20174 5//// 86360 81080=

################################################################################
#  SYNOPS from 67599, Mfuwe (Zambia) | 13-16S | 031-56E | 568 m
################################################################################
201404302100 AAXX 30214 67599 NIL=
201404301200 AAXX 30124 67599 NIL=
201404300900 AAXX 30094 67599 NIL=
201404300600 AAXX 30064 67599 39580 11802 10217 20179 48556 70100 81030
                   333 10290 20175 59003 81360
                   555 00175 91021=
201404300300 AAXX 30034 67599 NIL=
201404292100 AAXX 29214 67599 NIL=
201404291800 AAXX 29184 67599 NIL=
201404291500 AAXX 29154 67599 NIL=
201404291200 AAXX 29124 67599 NIL=
201404290900 AAXX 29094 67599 NIL=
201404290600 AAXX 29064 67599 32580 70000 10225 20194 48564 69994 70222 8153/
                   333 10335 20202 58005 81625 87359
                   555 00200 91021=
201404290300 AAXX 29034 67599 NIL=
201404290000 AAXX 29004 67599 NIL=
201404282100 AAXX 28214 67599 NIL=
201404281800 AAXX 28184 67599 NIL=
201404281500 AAXX 28154 67599 NIL=
201404281200 AAXX 28124 67599 NIL=
201404280900 AAXX 28094 67599 NIL=
201404280600 AAXX 28064 67599 NIL=
201404272100 AAXX 27214 67599 NIL=
201404271800 AAXX 27184 67599 NIL=
201404271500 AAXX 27154 67599 NIL=
201404271200 AAXX 27124 67599 NIL=
201404270600 AAXX 27061 67599 NIL=
201404261800 AAXX 26184 67599 NIL=
201404261500 AAXX 26154 67599 NIL=
201404261200 AAXX 26124 67599 NIL=
201404260900 AAXX 26094 67599 NIL=
201404260600 AAXX 26064 67599 NIL=
201404260300 AAXX 26034 67599 NIL=
201404251800 AAXX 25184 67599 NIL=
201404251500 AAXX 25154 67599 NIL=
201404251200 AAXX 25124 67599 NIL=
201404250900 AAXX 25094 67599 NIL=
201404250600 AAXX 25064 67599 NIL=
201404250300 AAXX 25034 67599 NIL=
201404250000 AAXX 25004 67599 NIL=
201404241200 AAXX 24124 67599 NIL=
201404240900 AAXX 24094 67599 NIL=
201404240600 AAXX 24064 67599 NIL=
201404231200 AAXX 23124 67599 NIL=
201404230900 AAXX 23094 67599 NIL=
201404230600 AAXX 23064 67599 NIL=
201404221200 AAXX 22124 67599 NIL=
201404220600 AAXX 22064 67599 NIL=
201404220300 AAXX 22034 67599 NIL=
201404212100 AAXX 21214 67599 NIL=
201404211800 AAXX 21184 67599 NIL=
201404211500 AAXX 21154 67599 NIL=
201404211200 AAXX 21124 67599 NIL=
201404210900 AAXX 21094 67599 NIL=
201404210600 AAXX 21064 67599 NIL=
201404202100 AAXX 20214 67599 NIL=
201404201800 AAXX 20184 67599 NIL=
201404201500 AAXX 20154 67599 NIL=
201404201200 AAXX 20124 67599 NIL=
201404200600 AAXX 20064 67599 NIL=
201404200000 AAXX 20004 67599 NIL=
201404192100 AAXX 19214 67599 NIL=
201404191800 AAXX 19184 67599 NIL=
201404191500 AAXX 19154 67599 NIL=
201404191200 AAXX 19124 67599 NIL=
201404190900 AAXX 19094 67599 NIL=
201404190600 AAXX 19061 67599 NIL=
201404190000 AAXX 19004 67599 NIL=
201404181800 AAXX 18184 67599 NIL=
201404181200 AAXX 18124 67599 NIL=
201404180900 AAXX 18094 67599 NIL=
201404180600 AAXX 18064 67599 NIL=
201404171500 AAXX 17154 67599 NIL=
201404171200 AAXX 17124 67599 NIL=
201404170900 AAXX 17094 67599 NIL=
201404170600 AAXX 17064 67599 NIL=
201404162100 AAXX 16214 67599 NIL=
201404161500 AAXX 16154 67599 NIL=
201404161200 AAXX 16124 67599 NIL=
201404160900 AAXX 16094 67599 NIL=
201404160600 AAXX 16064 67599 NIL=
201404160300 AAXX 16034 67599 NIL=
201404152100 AAXX 15214 67599 NIL=
201404151800 AAXX 15184 67599 NIL=
201404151500 AAXX 15154 67599 NIL=
201404151200 AAXX 15124 67599 NIL=
201404150900 AAXX 15094 67599 NIL=
201404150600 AAXX 15064 67599 NIL=
201404150300 AAXX 15034 67599 NIL=
201404142100 AAXX 14214 67599 NIL=
201404141200 AAXX 14124 67599 NIL=
201404140900 AAXX 14094 67599 NIL=
201404140600 AAXX 14064 67599 NIL=
201404140300 AAXX 14034 67599 NIL=
201404140000 AAXX 14004 67599 NIL=
201404131800 AAXX 13184 67599 NIL=
201404131500 AAXX 13154 67599 NIL=
201404131200 AAXX 13124 67599 NIL=
201404130900 AAXX 13094 67599 NIL=
201404130600 AAXX 13064 67599 NIL=
201404121800 AAXX 12184 67599 NIL=
201404121500 AAXX 12154 67599 NIL=
201404121200 AAXX 12124 67599 NIL=
201404120900 AAXX 12094 67599 NIL=
201404120600 AAXX 12064 67599 NIL=
201404111800 AAXX 11184 67599 NIL=
201404111500 AAXX 11154 67599 NIL=
201404111200 AAXX 11124 67599 NIL=
201404110900 AAXX 11094 67599 NIL=
201404110600 AAXX 11064 67599 NIL=
201404110300 AAXX 11034 67599 NIL=
201404110000 AAXX 11004 67599 NIL=
201404101200 AAXX 10124 67599 NIL=
201404100900 AAXX 10094 67599 NIL=
201404100600 AAXX 10064 67599 NIL=
201404092100 AAXX 09214 67599 NIL=
201404091500 AAXX 09154 67599 NIL=
201404091200 AAXX 09124 67599 NIL=
201404090900 AAXX 09094 67599 NIL=
201404090600 AAXX 09064 67599 NIL=
201404090300 AAXX 09034 67599 NIL=
201404082100 AAXX 08214 67599 NIL=
201404081800 AAXX 08184 67599 NIL=
201404081500 AAXX 08154 67599 NIL=
201404081200 AAXX 08124 67599 NIL=
201404080900 AAXX 08094 67599 NIL=
201404080600 AAXX 08064 67599 NIL=
201404080300 AAXX 08034 67599 NIL=
201404071800 AAXX 07184 67599 NIL=
201404071500 AAXX 07154 67599 NIL=
201404071200 AAXX 07124 67599 NIL=
201404020900 AAXX 02094 67599 NIL=
201404020600 AAXX 02064 67599 NIL=
201404020300 AAXX 02034 67599 NIL=
201404020000 AAXX 02004 67599 NIL=
201404012100 AAXX 01214 67599 NIL=
201404011800 AAXX 01184 67599 NIL=
201404011500 AAXX 01154 67599 NIL=
201404011200 AAXX 01124 67599 NIL=
201404010900 AAXX 01094 67599 NIL=
201404010600 AAXX 01064 67599 32380 70000 10240 20218 48547 70322 8173/
                   333 10333 20212 59006 81706 86359 91019=

################################################################################
#  SYNOPS from 67625, Kalabo (Zambia) | 14-51S | 022-42E | 1033 m
################################################################################
201404302100 AAXX 30214 67625 NIL=
201404301200 AAXX 30124 67625 NIL=
201404300900 AAXX 30094 67625 NIL=
201404300600 AAXX 30064 67625 NIL=
201404300300 AAXX 30034 67625 NIL=
201404292100 AAXX 29214 67625 NIL=
201404291800 AAXX 29184 67625 NIL=
201404291500 AAXX 29154 67625 NIL=
201404291200 AAXX 29124 67625 NIL=
201404290900 AAXX 29094 67625 NIL=
201404290600 AAXX 29064 67625 NIL=
201404290300 AAXX 29034 67625 NIL=
201404290000 AAXX 29004 67625 NIL=
201404282100 AAXX 28214 67625 NIL=
201404281800 AAXX 28184 67625 NIL=
201404281500 AAXX 28154 67625 NIL=
201404281200 AAXX 28124 67625 NIL=
201404280900 AAXX 28094 67625 NIL=
201404280600 AAXX 28064 67625 NIL=
201404272100 AAXX 27214 67625 NIL=
201404271800 AAXX 27184 67625 NIL=
201404271500 AAXX 27154 67625 NIL=
201404271200 AAXX 27124 67625 NIL=
201404270600 AAXX 27060 67625 NIL=
201404261800 AAXX 26184 67625 NIL=
201404261500 AAXX 26154 67625 NIL=
201404261200 AAXX 26124 67625 NIL=
201404260900 AAXX 26094 67625 NIL=
201404260600 AAXX 26064 67625 NIL=
201404260300 AAXX 26034 67625 NIL=
201404251800 AAXX 25184 67625 NIL=
201404251500 AAXX 25154 67625 NIL=
201404251200 AAXX 25124 67625 NIL=
201404250900 AAXX 25094 67625 NIL=
201404250600 AAXX 25064 67625 NIL=
201404250300 AAXX 25034 67625 NIL=
201404250000 AAXX 25004 67625 NIL=
201404241200 AAXX 24124 67625 NIL=
201404240900 AAXX 24094 67625 NIL=
201404240600 AAXX 24064 67625 NIL=
201404231200 AAXX 23124 67625 NIL=
201404230900 AAXX 23094 67625 NIL=
201404230600 AAXX 23064 67625 NIL=
201404221200 AAXX 22124 67625 NIL=
201404220600 AAXX 22064 67625 NIL=
201404220300 AAXX 22034 67625 NIL=
201404212100 AAXX 21214 67625 NIL=
201404211800 AAXX 21184 67625 NIL=
201404211500 AAXX 21154 67625 NIL=
201404211200 AAXX 21124 67625 NIL=
201404210900 AAXX 21094 67625 NIL=
201404210600 AAXX 21064 67625 NIL=
201404202100 AAXX 20214 67625 NIL=
201404201800 AAXX 20184 67625 NIL=
201404201500 AAXX 20154 67625 NIL=
201404201200 AAXX 20124 67625 NIL=
201404200600 AAXX 20064 67625 NIL=
201404200000 AAXX 20004 67625 NIL=
201404192100 AAXX 19214 67625 NIL=
201404191800 AAXX 19184 67625 NIL=
201404191500 AAXX 19154 67625 NIL=
201404191200 AAXX 19124 67625 NIL=
201404190900 AAXX 19094 67625 NIL=
201404190600 AAXX 19060 67625 NIL=
201404190000 AAXX 19004 67625 NIL=
201404181800 AAXX 18184 67625 NIL=
201404181200 AAXX 18124 67625 NIL=
201404180900 AAXX 18094 67625 NIL=
201404180600 AAXX 18064 67625 NIL=
201404171500 AAXX 17154 67625 NIL=
201404171200 AAXX 17124 67625 NIL=
201404170900 AAXX 17094 67625 NIL=
201404170600 AAXX 17064 67625 NIL=
201404162100 AAXX 16214 67625 NIL=
201404161500 AAXX 16154 67625 NIL=
201404161200 AAXX 16124 67625 NIL=
201404160900 AAXX 16094 67625 NIL=
201404160600 AAXX 16064 67625 NIL=
201404160300 AAXX 16034 67625 NIL=
201404152100 AAXX 15214 67625 NIL=
201404151800 AAXX 15184 67625 NIL=
201404151500 AAXX 15154 67625 NIL=
201404151200 AAXX 15124 67625 NIL=
201404150900 AAXX 15094 67625 NIL=
201404150600 AAXX 15060 67625 NIL=
201404150300 AAXX 15034 67625 NIL=
201404142100 AAXX 14214 67625 NIL=
201404141200 AAXX 14124 67625 NIL=
201404140900 AAXX 14094 67625 NIL=
201404140600 AAXX 14064 67625 NIL=
201404140300 AAXX 14034 67625 NIL=
201404140000 AAXX 14004 67625 NIL=
201404131800 AAXX 13184 67625 NIL=
201404131500 AAXX 13154 67625 NIL=
201404131200 AAXX 13124 67625 NIL=
201404130900 AAXX 13094 67625 NIL=
201404130600 AAXX 13064 67625 NIL=
201404121800 AAXX 12184 67625 NIL=
201404121500 AAXX 12154 67625 NIL=
201404121200 AAXX 12124 67625 NIL=
201404120900 AAXX 12094 67625 NIL=
201404120600 AAXX 12064 67625 NIL=
201404111800 AAXX 11184 67625 NIL=
201404111500 AAXX 11154 67625 NIL=
201404111200 AAXX 11124 67625 NIL=
201404110900 AAXX 11094 67625 NIL=
201404110600 AAXX 11064 67625 NIL=
201404110300 AAXX 11034 67625 NIL=
201404110000 AAXX 11004 67625 NIL=
201404101200 AAXX 10124 67625 NIL=
201404100900 AAXX 10094 67625 NIL=
201404100600 AAXX 10064 67625 NIL=
201404092100 AAXX 09214 67625 NIL=
201404091500 AAXX 09154 67625 NIL=
201404091200 AAXX 09124 67625 NIL=
201404090900 AAXX 09094 67625 NIL=
201404090600 AAXX 09064 67625 NIL=
201404090300 AAXX 09034 67625 NIL=
201404082100 AAXX 08214 67625 NIL=
201404081800 AAXX 08184 67625 NIL=
201404081500 AAXX 08154 67625 NIL=
201404081200 AAXX 08124 67625 NIL=
201404080900 AAXX 08094 67625 NIL=
201404080600 AAXX 08064 67625 NIL=
201404080300 AAXX 08034 67625 NIL=
201404071800 AAXX 07184 67625 NIL=
201404071500 AAXX 07154 67625 NIL=
201404071200 AAXX 07124 67625 NIL=
201404020900 AAXX 02094 67625 NIL=
201404020600 AAXX 02064 67625 NIL=
201404020300 AAXX 02034 67625 NIL=
201404020000 AAXX 02004 67625 NIL=
201404012100 AAXX 01214 67625 NIL=
201404011800 AAXX 01184 67625 NIL=
201404011500 AAXX 01154 67625 NIL=
201404011200 AAXX 01124 67625 NIL=
201404010900 AAXX 01094 67625 NIL=
201404010600 AAXX 01064 67625 NIL=

################################################################################
#  SYNOPS from 67633, Mongu (Zambia) | 15-15S | 023-09E | 1052 m
################################################################################
201404302100 AAXX 30214 67633 NIL=
201404301200 AAXX 30124 67633 NIL=
201404300900 AAXX 30094 67633 NIL=
201404300600 AAXX 30064 67633 NIL=
201404300300 AAXX 30034 67633 NIL=
201404292100 AAXX 29214 67633 NIL=
201404291800 AAXX 29184 67633 NIL=
201404291500 AAXX 29154 67633 NIL=
201404291200 AAXX 29124 67633 NIL=
201404290900 AAXX 29094 67633 NIL=
201404290600 AAXX 29064 67633 NIL=
201404290300 AAXX 29034 67633 NIL=
201404290000 AAXX 29004 67633 NIL=
201404282100 AAXX 28214 67633 NIL=
201404281800 AAXX 28184 67633 NIL=
201404281500 AAXX 28154 67633 NIL=
201404281200 AAXX 28124 67633 NIL=
201404280900 AAXX 28094 67633 NIL=
201404280600 AAXX 28064 67633 NIL=
201404272100 AAXX 27214 67633 NIL=
201404271800 AAXX 27184 67633 NIL=
201404271500 AAXX 27154 67633 NIL=
201404271200 AAXX 27124 67633 NIL=
201404270600 AAXX 27060 67633 NIL=
201404261800 AAXX 26184 67633 NIL=
201404261500 AAXX 26154 67633 NIL=
201404261200 AAXX 26124 67633 NIL=
201404260900 AAXX 26094 67633 NIL=
201404260600 AAXX 26064 67633 NIL=
201404260300 AAXX 26034 67633 NIL=
201404251800 AAXX 25184 67633 NIL=
201404251500 AAXX 25154 67633 NIL=
201404251200 AAXX 25124 67633 NIL=
201404250900 AAXX 25094 67633 NIL=
201404250600 AAXX 25064 67633 NIL=
201404250300 AAXX 25034 67633 NIL=
201404250000 AAXX 25004 67633 NIL=
201404241200 AAXX 24124 67633 NIL=
201404240900 AAXX 24094 67633 NIL=
201404240600 AAXX 24064 67633 NIL=
201404231200 AAXX 23124 67633 NIL=
201404230900 AAXX 23094 67633 NIL=
201404230600 AAXX 23064 67633 NIL=
201404221200 AAXX 22124 67633 NIL=
201404220600 AAXX 22064 67633 NIL=
201404220300 AAXX 22034 67633 NIL=
201404212100 AAXX 21214 67633 NIL=
201404211800 AAXX 21184 67633 NIL=
201404211500 AAXX 21154 67633 NIL=
201404211200 AAXX 21124 67633 NIL=
201404210900 AAXX 21094 67633 NIL=
201404210600 AAXX 21064 67633 NIL=
201404202100 AAXX 20214 67633 NIL=
201404201800 AAXX 20184 67633 NIL=
201404201500 AAXX 20154 67633 NIL=
201404201200 AAXX 20124 67633 NIL=
201404200600 AAXX 20064 67633 NIL=
201404200000 AAXX 20004 67633 NIL=
201404192100 AAXX 19214 67633 NIL=
201404191800 AAXX 19184 67633 NIL=
201404191500 AAXX 19154 67633 NIL=
201404191200 AAXX 19124 67633 NIL=
201404190900 AAXX 19094 67633 NIL=
201404190600 AAXX 19060 67633 NIL=
201404190000 AAXX 19004 67633 NIL=
201404181800 AAXX 18184 67633 NIL=
201404181200 AAXX 18124 67633 NIL=
201404180900 AAXX 18094 67633 NIL=
201404180600 AAXX 18064 67633 NIL=
201404171500 AAXX 17154 67633 NIL=
201404171200 AAXX 17124 67633 NIL=
201404170900 AAXX 17094 67633 NIL=
201404170600 AAXX 17064 67633 NIL=
201404162100 AAXX 16214 67633 NIL=
201404161500 AAXX 16154 67633 NIL=
201404161200 AAXX 16124 67633 NIL=
201404160900 AAXX 16094 67633 NIL=
201404160600 AAXX 16064 67633 NIL=
201404160300 AAXX 16034 67633 NIL=
201404152100 AAXX 15214 67633 NIL=
201404151800 AAXX 15184 67633 NIL=
201404151500 AAXX 15154 67633 NIL=
201404151200 AAXX 15124 67633 NIL=
201404150900 AAXX 15094 67633 NIL=
201404150600 AAXX 15060 67633 NIL=
201404150300 AAXX 15034 67633 NIL=
201404142100 AAXX 14214 67633 NIL=
201404141200 AAXX 14124 67633 NIL=
201404140900 AAXX 14094 67633 NIL=
201404140600 AAXX 14064 67633 NIL=
201404140300 AAXX 14034 67633 NIL=
201404140000 AAXX 14004 67633 NIL=
201404131800 AAXX 13184 67633 NIL=
201404131500 AAXX 13154 67633 NIL=
201404131200 AAXX 13124 67633 NIL=
201404130900 AAXX 13094 67633 NIL=
201404130600 AAXX 13064 67633 NIL=
201404121800 AAXX 12184 67633 NIL=
201404121500 AAXX 12154 67633 NIL=
201404121200 AAXX 12124 67633 NIL=
201404120900 AAXX 12094 67633 NIL=
201404120600 AAXX 12064 67633 NIL=
201404111800 AAXX 11184 67633 NIL=
201404111500 AAXX 11154 67633 NIL=
201404111200 AAXX 11124 67633 NIL=
201404110900 AAXX 11094 67633 NIL=
201404110600 AAXX 11064 67633 NIL=
201404110300 AAXX 11034 67633 NIL=
201404110000 AAXX 11004 67633 NIL=
201404101200 AAXX 10124 67633 NIL=
201404100900 AAXX 10094 67633 NIL=
201404100600 AAXX 10064 67633 NIL=
201404092100 AAXX 09214 67633 NIL=
201404091500 AAXX 09154 67633 NIL=
201404091200 AAXX 09124 67633 NIL=
201404090900 AAXX 09094 67633 NIL=
201404090600 AAXX 09064 67633 NIL=
201404090300 AAXX 09034 67633 NIL=
201404082100 AAXX 08214 67633 NIL=
201404081800 AAXX 08184 67633 NIL=
201404081500 AAXX 08154 67633 NIL=
201404081200 AAXX 08124 67633 NIL=
201404080900 AAXX 08094 67633 NIL=
201404080600 AAXX 08064 67633 NIL=
201404080300 AAXX 08034 67633 NIL=
201404071800 AAXX 07184 67633 NIL=
201404071500 AAXX 07154 67633 NIL=
201404071200 AAXX 07124 67633 NIL=
201404020900 AAXX 02094 67633 NIL=
201404020600 AAXX 02064 67633 NIL=
201404020300 AAXX 02034 67633 NIL=
201404020000 AAXX 02004 67633 NIL=
201404012100 AAXX 01214 67633 NIL=
201404011800 AAXX 01184 67633 NIL=
201404011500 AAXX 01154 67633 NIL=
201404011200 AAXX 01124 67633 NIL=
201404010900 AAXX 01094 67633 NIL=
201404010600 AAXX 01064 67633 NIL=

################################################################################
#  SYNOPS from 67641, Kaoma (Zambia) | 14-48S | 024-48E | 1213 m
################################################################################
201404302100 AAXX 30214 67641 NIL=
201404301200 AAXX 30124 67641 NIL=
201404300900 AAXX 30094 67641 NIL=
201404300600 AAXX 30064 67641 NIL=
201404300300 AAXX 30034 67641 NIL=
201404292100 AAXX 29214 67641 NIL=
201404291800 AAXX 29184 67641 NIL=
201404291500 AAXX 29154 67641 NIL=
201404291200 AAXX 29124 67641 NIL=
201404290900 AAXX 29094 67641 NIL=
201404290600 AAXX 29064 67641 NIL=
201404290300 AAXX 29034 67641 NIL=
201404290000 AAXX 29004 67641 NIL=
201404282100 AAXX 28214 67641 NIL=
201404281800 AAXX 28184 67641 NIL=
201404281500 AAXX 28154 67641 NIL=
201404281200 AAXX 28124 67641 NIL=
201404280900 AAXX 28094 67641 NIL=
201404280600 AAXX 28064 67641 NIL=
201404272100 AAXX 27214 67641 NIL=
201404271800 AAXX 27184 67641 NIL=
201404271500 AAXX 27154 67641 NIL=
201404271200 AAXX 27124 67641 NIL=
201404270600 AAXX 27060 67641 NIL=
201404261800 AAXX 26184 67641 NIL=
201404261500 AAXX 26154 67641 NIL=
201404261200 AAXX 26124 67641 NIL=
201404260900 AAXX 26094 67641 NIL=
201404260600 AAXX 26064 67641 NIL=
201404260300 AAXX 26034 67641 NIL=
201404251800 AAXX 25184 67641 NIL=
201404251500 AAXX 25154 67641 NIL=
201404251200 AAXX 25124 67641 NIL=
201404250900 AAXX 25094 67641 NIL=
201404250600 AAXX 25064 67641 NIL=
201404250300 AAXX 25034 67641 NIL=
201404250000 AAXX 25004 67641 NIL=
201404241200 AAXX 24124 67641 NIL=
201404240900 AAXX 24094 67641 NIL=
201404240600 AAXX 24064 67641 NIL=
201404231200 AAXX 23124 67641 NIL=
201404230900 AAXX 23094 67641 NIL=
201404230600 AAXX 23064 67641 NIL=
201404221200 AAXX 22124 67641 NIL=
201404220600 AAXX 22064 67641 32982 20302 10179 20148 48514 70300 80001
                   333 10306 20125 59008 82080
                   555 00///=
201404220300 AAXX 22034 67641 NIL=
201404212100 AAXX 21214 67641 NIL=
201404211800 AAXX 21184 67641 NIL=
201404211500 AAXX 21154 67641 NIL=
201404211200 AAXX 21124 67641 NIL=
201404210900 AAXX 21094 67641 NIL=
201404210600 AAXX 21064 67641 NIL=
201404202100 AAXX 20214 67641 NIL=
201404201800 AAXX 20184 67641 NIL=
201404201500 AAXX 20154 67641 NIL=
201404201200 AAXX 20124 67641 NIL=
201404200600 AAXX 20064 67641 NIL=
201404200000 AAXX 20004 67641 NIL=
201404192100 AAXX 19214 67641 NIL=
201404191800 AAXX 19184 67641 NIL=
201404191500 AAXX 19154 67641 NIL=
201404191200 AAXX 19124 67641 NIL=
201404190900 AAXX 19094 67641 NIL=
201404190600 AAXX 19060 67641 NIL=
201404190000 AAXX 19004 67641 NIL=
201404181800 AAXX 18184 67641 NIL=
201404181200 AAXX 18124 67641 NIL=
201404180900 AAXX 18094 67641 NIL=
201404180600 AAXX 18064 67641 NIL=
201404171500 AAXX 17154 67641 NIL=
201404171200 AAXX 17124 67641 NIL=
201404170900 AAXX 17094 67641 NIL=
201404170600 AAXX 17064 67641 NIL=
201404162100 AAXX 16214 67641 NIL=
201404161500 AAXX 16154 67641 NIL=
201404161200 AAXX 16124 67641 NIL=
201404160900 AAXX 16094 67641 NIL=
201404160600 AAXX 16064 67641 NIL=
201404160300 AAXX 16034 67641 NIL=
201404152100 AAXX 15214 67641 NIL=
201404151800 AAXX 15184 67641 NIL=
201404151500 AAXX 15154 67641 NIL=
201404151200 AAXX 15124 67641 NIL=
201404150900 AAXX 15094 67641 NIL=
201404150600 AAXX 15060 67641 NIL=
201404150300 AAXX 15034 67641 NIL=
201404142100 AAXX 14214 67641 NIL=
201404141200 AAXX 14124 67641 NIL=
201404140900 AAXX 14094 67641 NIL=
201404140600 AAXX 14064 67641 NIL=
201404140300 AAXX 14034 67641 NIL=
201404140000 AAXX 14004 67641 NIL=
201404131800 AAXX 13184 67641 NIL=
201404131500 AAXX 13154 67641 NIL=
201404131200 AAXX 13124 67641 NIL=
201404130900 AAXX 13094 67641 NIL=
201404130600 AAXX 13064 67641 NIL=
201404121800 AAXX 12184 67641 NIL=
201404121500 AAXX 12154 67641 NIL=
201404121200 AAXX 12124 67641 NIL=
201404120900 AAXX 12094 67641 NIL=
201404120600 AAXX 12064 67641 NIL=
201404111800 AAXX 11184 67641 NIL=
201404111500 AAXX 11154 67641 NIL=
201404111200 AAXX 11124 67641 NIL=
201404110900 AAXX 11094 67641 NIL=
201404110600 AAXX 11064 67641 NIL=
201404110300 AAXX 11034 67641 NIL=
201404110000 AAXX 11004 67641 NIL=
201404101200 AAXX 10124 67641 NIL=
201404100900 AAXX 10094 67641 NIL=
201404100600 AAXX 10064 67641 32682 71405 10182 20163 48531 70222 8253/
                   333 10260 20170 59009 82638 87360 91020=
201404092100 AAXX 09214 67641 NIL=
201404091500 AAXX 09154 67641 NIL=
201404091200 AAXX 09124 67641 NIL=
201404090900 AAXX 09094 67641 NIL=
201404090600 AAXX 09064 67641 32982 71403 10185 20160 48541 70222 87030
                   333 10274 20171 59001 87360
                   555 00/// 20001 40115 91021=
201404090300 AAXX 09034 67641 NIL=
201404082100 AAXX 08214 67641 NIL=
201404081800 AAXX 08184 67641 NIL=
201404081500 AAXX 08154 67641 NIL=
201404081200 AAXX 08124 67641 NIL=
201404080900 AAXX 08094 67641 NIL=
201404080600 AAXX 08064 67641 12982 61002 10186 20172 48542 60014 70222 80008
                   333 10280 20171 58007 86280
                   555 00/// 20010 QNH 10216=
201404080300 AAXX 08034 67641 NIL=
201404071800 AAXX 07184 67641 NIL=
201404071500 AAXX 07154 67641 NIL=
201404071200 AAXX 07124 67641 NIL=
201404020900 AAXX 02094 67641 NIL=
201404020600 AAXX 02064 67641 NIL=
201404020300 AAXX 02034 67641 NIL=
201404020000 AAXX 02004 67641 NIL=
201404012100 AAXX 01214 67641 NIL=
201404011800 AAXX 01184 67641 NIL=
201404011500 AAXX 01154 67641 NIL=
201404011200 AAXX 01124 67641 NIL=
201404010900 AAXX 01094 67641 NIL=
201404010600 AAXX 01064 67641 NIL=

################################################################################
#  SYNOPS from 67655, Mumbwa (Zambia) | 15-04S | 027-11E | 1216 m
################################################################################
201404302100 AAXX 30214 67655 NIL=
201404301200 AAXX 30124 67655 NIL=
201404300900 AAXX 30094 67655 NIL=
201404300600 AAXX 30064 67655 NIL=
201404300300 AAXX 30034 67655 NIL=
201404292100 AAXX 29214 67655 NIL=
201404291800 AAXX 29184 67655 NIL=
201404291500 AAXX 29154 67655 NIL=
201404291200 AAXX 29124 67655 NIL=
201404290900 AAXX 29094 67655 NIL=
201404290600 AAXX 29064 67655 NIL=
201404290300 AAXX 29034 67655 NIL=
201404290000 AAXX 29004 67655 NIL=
201404282100 AAXX 28214 67655 NIL=
201404281800 AAXX 28184 67655 NIL=
201404281500 AAXX 28154 67655 NIL=
201404281200 AAXX 28124 67655 NIL=
201404280900 AAXX 28094 67655 NIL=
201404280600 AAXX 28064 67655 32880 51304 10204 20186 48547 83071
                   333 10290 20/// 58010 83358 82080 91023=
201404272100 AAXX 27214 67655 NIL=
201404271800 AAXX 27184 67655 NIL=
201404271500 AAXX 27154 67655 NIL=
201404271200 AAXX 27124 67655 NIL=
201404270600 AAXX 27060 67655 NIL=
201404261800 AAXX 26184 67655 NIL=
201404261500 AAXX 26154 67655 NIL=
201404261200 AAXX 26124 67655 NIL=
201404260900 AAXX 26094 67655 NIL=
201404260600 AAXX 26064 67655 NIL=
201404260300 AAXX 26034 67655 NIL=
201404251800 AAXX 25184 67655 NIL=
201404251500 AAXX 25154 67655 NIL=
201404251200 AAXX 25124 67655 NIL=
201404250900 AAXX 25094 67655 NIL=
201404250600 AAXX 25064 67655 NIL=
201404250300 AAXX 25034 67655 NIL=
201404250000 AAXX 25004 67655 NIL=
201404241200 AAXX 24124 67655 NIL=
201404240900 AAXX 24094 67655 NIL=
201404240600 AAXX 24064 67655 NIL=
201404231200 AAXX 23124 67655 NIL=
201404230900 AAXX 23094 67655 NIL=
201404230600 AAXX 23064 67655 NIL=
201404221200 AAXX 22124 67655 NIL=
201404220600 AAXX 22064 67655 32980 41005 10189 20145 48531 80001
                   333 10282 20/// 59009 84080 91021=
201404220300 AAXX 22034 67655 NIL=
201404212100 AAXX 21214 67655 NIL=
201404211800 AAXX 21184 67655 NIL=
201404211500 AAXX 21154 67655 NIL=
201404211200 AAXX 21124 67655 NIL=
201404210900 AAXX 21094 67655 NIL=
201404210600 AAXX 21064 67655 NIL=
201404202100 AAXX 20214 67655 NIL=
201404201800 AAXX 20184 67655 NIL=
201404201500 AAXX 20154 67655 NIL=
201404201200 AAXX 20124 67655 NIL=
201404200600 AAXX 20064 67655 NIL=
201404200000 AAXX 20004 67655 NIL=
201404192100 AAXX 19214 67655 NIL=
201404191800 AAXX 19184 67655 NIL=
201404191500 AAXX 19154 67655 NIL=
201404191200 AAXX 19124 67655 NIL=
201404190900 AAXX 19094 67655 NIL=
201404190600 AAXX 19060 67655 NIL=
201404190000 AAXX 19004 67655 NIL=
201404181800 AAXX 18184 67655 NIL=
201404181200 AAXX 18124 67655 NIL=
201404180900 AAXX 18094 67655 NIL=
201404180600 AAXX 18064 67655 NIL=
201404171500 AAXX 17154 67655 NIL=
201404171200 AAXX 17124 67655 NIL=
201404170900 AAXX 17094 67655 NIL=
201404170600 AAXX 17064 67655 NIL=
201404162100 AAXX 16214 67655 NIL=
201404161500 AAXX 16154 67655 NIL=
201404161200 AAXX 16124 67655 NIL=
201404160900 AAXX 16094 67655 NIL=
201404160600 AAXX 16064 67655 32980 10905 10195 20158 48538 80001
                   333 10275 20/// 59006 81080
                   555 00/// 91021=
201404160300 AAXX 16034 67655 NIL=
201404152100 AAXX 15214 67655 NIL=
201404151800 AAXX 15184 67655 NIL=
201404151500 AAXX 15154 67655 NIL=
201404151200 AAXX 15124 67655 NIL=
201404150900 AAXX 15094 67655 NIL=
201404150600 AAXX 15060 67655 NIL=
201404150300 AAXX 15034 67655 NIL=
201404142100 AAXX 14214 67655 NIL=
201404141200 AAXX 14124 67655 NIL=
201404140900 AAXX 14094 67655 NIL=
201404140600 AAXX 14064 67655 32580 41006 10176 20150 48/// 81531
                   333 10/// 20/// 59002 81616 82360 83080 91024=
201404140300 AAXX 14034 67655 NIL=
201404140000 AAXX 14004 67655 NIL=
201404131800 AAXX 13184 67655 NIL=
201404131500 AAXX 13154 67655 NIL=
201404131200 AAXX 13124 67655 NIL=
201404130900 AAXX 13094 67655 NIL=
201404130600 AAXX 13064 67655 NIL=
201404121800 AAXX 12184 67655 NIL=
201404121500 AAXX 12154 67655 NIL=
201404121200 AAXX 12124 67655 NIL=
201404120900 AAXX 12094 67655 NIL=
201404120600 AAXX 12064 67655 NIL=
201404111800 AAXX 11184 67655 NIL=
201404111500 AAXX 11154 67655 NIL=
201404111200 AAXX 11124 67655 NIL=
201404110900 AAXX 11094 67655 NIL=
201404110600 AAXX 11064 67655 NIL=
201404110300 AAXX 11034 67655 NIL=
201404110000 AAXX 11004 67655 NIL=
201404101200 AAXX 10124 67655 NIL=
201404100900 AAXX 10094 67655 NIL=
201404100600 AAXX 10064 67655 NIL=
201404092100 AAXX 09214 67655 NIL=
201404091500 AAXX 09154 67655 NIL=
201404091200 AAXX 09124 67655 NIL=
201404090900 AAXX 09094 67655 NIL=
201404090600 AAXX 09064 67655 NIL=
201404090300 AAXX 09034 67655 NIL=
201404082100 AAXX 08214 67655 NIL=
201404081800 AAXX 08184 67655 NIL=
201404081500 AAXX 08154 67655 NIL=
201404081200 AAXX 08124 67655 NIL=
201404080900 AAXX 08094 67655 NIL=
201404080600 AAXX 08064 67655 NIL=
201404080300 AAXX 08034 67655 NIL=
201404071800 AAXX 07184 67655 NIL=
201404071500 AAXX 07154 67655 NIL=
201404071200 AAXX 07124 67655 NIL=
201404020900 AAXX 02094 67655 NIL=
201404020600 AAXX 02064 67655 NIL=
201404020300 AAXX 02034 67655 NIL=
201404020000 AAXX 02004 67655 NIL=
201404012100 AAXX 01214 67655 NIL=
201404011800 AAXX 01184 67655 NIL=
201404011500 AAXX 01154 67655 NIL=
201404011200 AAXX 01124 67655 NIL=
201404010900 AAXX 01094 67655 NIL=
201404010600 AAXX 01064 67655 NIL=

################################################################################
#  SYNOPS from 67659, Kafue Polder (Zambia) | 15-46S | 027-55E | 978 m
################################################################################
201404302100 AAXX 30214 67659 NIL=
201404301200 AAXX 30124 67659 NIL=
201404300900 AAXX 30094 67659 NIL=
201404300600 AAXX 30064 67659 NIL=
201404300300 AAXX 30034 67659 NIL=
201404292100 AAXX 29214 67659 NIL=
201404291800 AAXX 29184 67659 NIL=
201404291500 AAXX 29154 67659 NIL=
201404291200 AAXX 29124 67659 NIL=
201404290900 AAXX 29094 67659 NIL=
201404290600 AAXX 29064 67659 NIL=
201404290300 AAXX 29034 67659 NIL=
201404290000 AAXX 29004 67659 NIL=
201404282100 AAXX 28214 67659 NIL=
201404281800 AAXX 28184 67659 NIL=
201404281500 AAXX 28154 67659 NIL=
201404281200 AAXX 28124 67659 NIL=
201404280900 AAXX 28094 67659 NIL=
201404280600 AAXX 28064 67659 NIL=
201404272100 AAXX 27214 67659 NIL=
201404271800 AAXX 27184 67659 NIL=
201404271500 AAXX 27154 67659 NIL=
201404271200 AAXX 27124 67659 NIL=
201404270600 AAXX 27060 67659 NIL=
201404261800 AAXX 26184 67659 NIL=
201404261500 AAXX 26154 67659 NIL=
201404261200 AAXX 26124 67659 NIL=
201404260900 AAXX 26094 67659 NIL=
201404260600 AAXX 26064 67659 NIL=
201404260300 AAXX 26034 67659 NIL=
201404251800 AAXX 25184 67659 NIL=
201404251500 AAXX 25154 67659 NIL=
201404251200 AAXX 25124 67659 NIL=
201404250900 AAXX 25094 67659 NIL=
201404250600 AAXX 25064 67659 NIL=
201404250300 AAXX 25034 67659 NIL=
201404250000 AAXX 25004 67659 NIL=
201404241200 AAXX 24124 67659 NIL=
201404240900 AAXX 24094 67659 NIL=
201404240600 AAXX 24064 67659 NIL=
201404231200 AAXX 23124 67659 NIL=
201404230900 AAXX 23094 67659 NIL=
201404230600 AAXX 23064 67659 NIL=
201404221200 AAXX 22124 67659 NIL=
201404220600 AAXX 22064 67659 NIL=
201404220300 AAXX 22034 67659 NIL=
201404212100 AAXX 21214 67659 NIL=
201404211800 AAXX 21184 67659 NIL=
201404211500 AAXX 21154 67659 NIL=
201404211200 AAXX 21124 67659 NIL=
201404210900 AAXX 21094 67659 NIL=
201404210600 AAXX 21064 67659 NIL=
201404202100 AAXX 20214 67659 NIL=
201404201800 AAXX 20184 67659 NIL=
201404201500 AAXX 20154 67659 NIL=
201404201200 AAXX 20124 67659 NIL=
201404200600 AAXX 20064 67659 NIL=
201404200000 AAXX 20004 67659 NIL=
201404192100 AAXX 19214 67659 NIL=
201404191800 AAXX 19184 67659 NIL=
201404191500 AAXX 19154 67659 NIL=
201404191200 AAXX 19124 67659 NIL=
201404190900 AAXX 19094 67659 NIL=
201404190600 AAXX 19060 67659 NIL=
201404190000 AAXX 19004 67659 NIL=
201404181800 AAXX 18184 67659 NIL=
201404181200 AAXX 18124 67659 NIL=
201404180900 AAXX 18094 67659 NIL=
201404180600 AAXX 18064 67659 NIL=
201404171500 AAXX 17154 67659 NIL=
201404171200 AAXX 17124 67659 NIL=
201404170900 AAXX 17094 67659 NIL=
201404170600 AAXX 17064 67659 NIL=
201404162100 AAXX 16214 67659 NIL=
201404161500 AAXX 16154 67659 NIL=
201404161200 AAXX 16124 67659 NIL=
201404160900 AAXX 16094 67659 NIL=
201404160600 AAXX 16064 67659 NIL=
201404160300 AAXX 16034 67659 NIL=
201404152100 AAXX 15214 67659 NIL=
201404151800 AAXX 15184 67659 NIL=
201404151500 AAXX 15154 67659 NIL=
201404151200 AAXX 15124 67659 NIL=
201404150900 AAXX 15094 67659 NIL=
201404150600 AAXX 15060 67659 NIL=
201404150300 AAXX 15034 67659 NIL=
201404142100 AAXX 14214 67659 NIL=
201404141200 AAXX 14124 67659 NIL=
201404140900 AAXX 14094 67659 NIL=
201404140600 AAXX 14064 67659 NIL=
201404140300 AAXX 14034 67659 NIL=
201404140000 AAXX 14004 67659 NIL=
201404131800 AAXX 13184 67659 NIL=
201404131500 AAXX 13154 67659 NIL=
201404131200 AAXX 13124 67659 NIL=
201404130900 AAXX 13094 67659 NIL=
201404130600 AAXX 13064 67659 NIL=
201404121800 AAXX 12184 67659 NIL=
201404121500 AAXX 12154 67659 NIL=
201404121200 AAXX 12124 67659 NIL=
201404120900 AAXX 12094 67659 NIL=
201404120600 AAXX 12064 67659 NIL=
201404111800 AAXX 11184 67659 NIL=
201404111500 AAXX 11154 67659 NIL=
201404111200 AAXX 11124 67659 NIL=
201404110900 AAXX 11094 67659 NIL=
201404110600 AAXX 11064 67659 NIL=
201404110300 AAXX 11034 67659 NIL=
201404110000 AAXX 11004 67659 NIL=
201404101200 AAXX 10124 67659 NIL=
201404100900 AAXX 10094 67659 NIL=
201404100600 AAXX 10064 67659 NIL=
201404092100 AAXX 09214 67659 NIL=
201404091500 AAXX 09154 67659 NIL=
201404091200 AAXX 09124 67659 NIL=
201404090900 AAXX 09094 67659 NIL=
201404090600 AAXX 09064 67659 NIL=
201404090300 AAXX 09034 67659 NIL=
201404082100 AAXX 08214 67659 NIL=
201404081800 AAXX 08184 67659 NIL=
201404081500 AAXX 08154 67659 NIL=
201404081200 AAXX 08124 67659 NIL=
201404080900 AAXX 08094 67659 NIL=
201404080600 AAXX 08064 67659 NIL=
201404080300 AAXX 08034 67659 NIL=
201404071800 AAXX 07184 67659 NIL=
201404071500 AAXX 07154 67659 NIL=
201404071200 AAXX 07124 67659 NIL=
201404020900 AAXX 02094 67659 NIL=
201404020600 AAXX 02064 67659 NIL=
201404020300 AAXX 02034 67659 NIL=
201404020000 AAXX 02004 67659 NIL=
201404012100 AAXX 01214 67659 NIL=
201404011800 AAXX 01184 67659 NIL=
201404011500 AAXX 01154 67659 NIL=
201404011200 AAXX 01124 67659 NIL=
201404010900 AAXX 01094 67659 NIL=
201404010600 AAXX 01064 67659 NIL=

################################################################################
#  SYNOPS from 67662, Kabwe Agric (Zambia) | 14-24S | 028-30E | 1165 m
################################################################################
201404302100 AAXX 30214 67662 NIL=
201404301200 AAXX 30124 67662 NIL=
201404300900 AAXX 30094 67662 NIL=
201404300600 AAXX 30064 67662 NIL=
201404300300 AAXX 30034 67662 NIL=
201404292100 AAXX 29214 67662 NIL=
201404291800 AAXX 29184 67662 NIL=
201404291500 AAXX 29154 67662 NIL=
201404291200 AAXX 29124 67662 NIL=
201404290900 AAXX 29094 67662 NIL=
201404290600 AAXX 29064 67662 NIL=
201404290300 AAXX 29034 67662 NIL=
201404290000 AAXX 29004 67662 NIL=
201404282100 AAXX 28214 67662 NIL=
201404281800 AAXX 28184 67662 NIL=
201404281500 AAXX 28154 67662 NIL=
201404281200 AAXX 28124 67662 NIL=
201404280900 AAXX 28094 67662 NIL=
201404280600 AAXX 28064 67662 NIL=
201404272100 AAXX 27214 67662 NIL=
201404271800 AAXX 27184 67662 NIL=
201404271500 AAXX 27154 67662 NIL=
201404271200 AAXX 27124 67662 NIL=
201404270600 AAXX 27060 67662 NIL=
201404261800 AAXX 26184 67662 NIL=
201404261500 AAXX 26154 67662 NIL=
201404261200 AAXX 26124 67662 NIL=
201404260900 AAXX 26094 67662 NIL=
201404260600 AAXX 26064 67662 NIL=
201404260300 AAXX 26034 67662 NIL=
201404251800 AAXX 25184 67662 NIL=
201404251500 AAXX 25154 67662 NIL=
201404251200 AAXX 25124 67662 NIL=
201404250900 AAXX 25094 67662 NIL=
201404250600 AAXX 25064 67662 NIL=
201404250300 AAXX 25034 67662 NIL=
201404250000 AAXX 25004 67662 NIL=
201404241200 AAXX 24124 67662 NIL=
201404240900 AAXX 24094 67662 NIL=
201404240600 AAXX 24064 67662 NIL=
201404231200 AAXX 23124 67662 NIL=
201404230900 AAXX 23094 67662 NIL=
201404230600 AAXX 23064 67662 NIL=
201404221200 AAXX 22124 67662 NIL=
201404220600 AAXX 22064 67662 NIL=
201404220300 AAXX 22034 67662 NIL=
201404212100 AAXX 21214 67662 NIL=
201404211800 AAXX 21184 67662 NIL=
201404211500 AAXX 21154 67662 NIL=
201404211200 AAXX 21124 67662 NIL=
201404210900 AAXX 21094 67662 NIL=
201404210600 AAXX 21064 67662 NIL=
201404202100 AAXX 20214 67662 NIL=
201404201800 AAXX 20184 67662 NIL=
201404201500 AAXX 20154 67662 NIL=
201404201200 AAXX 20124 67662 NIL=
201404200600 AAXX 20064 67662 NIL=
201404200000 AAXX 20004 67662 NIL=
201404192100 AAXX 19214 67662 NIL=
201404191800 AAXX 19184 67662 NIL=
201404191500 AAXX 19154 67662 NIL=
201404191200 AAXX 19124 67662 NIL=
201404190900 AAXX 19094 67662 NIL=
201404190600 AAXX 19060 67662 NIL=
201404190000 AAXX 19004 67662 NIL=
201404181800 AAXX 18184 67662 NIL=
201404181200 AAXX 18124 67662 NIL=
201404180900 AAXX 18094 67662 NIL=
201404180600 AAXX 18064 67662 NIL=
201404171500 AAXX 17154 67662 NIL=
201404171200 AAXX 17124 67662 NIL=
201404170900 AAXX 17094 67662 NIL=
201404170600 AAXX 17064 67662 NIL=
201404162100 AAXX 16214 67662 NIL=
201404161500 AAXX 16154 67662 NIL=
201404161200 AAXX 16124 67662 NIL=
201404160900 AAXX 16094 67662 NIL=
201404160600 AAXX 16064 67662 NIL=
201404160300 AAXX 16034 67662 NIL=
201404152100 AAXX 15214 67662 NIL=
201404151800 AAXX 15184 67662 NIL=
201404151500 AAXX 15154 67662 NIL=
201404151200 AAXX 15124 67662 NIL=
201404150900 AAXX 15094 67662 NIL=
201404150600 AAXX 15060 67662 NIL=
201404150300 AAXX 15034 67662 NIL=
201404142100 AAXX 14214 67662 NIL=
201404141200 AAXX 14124 67662 NIL=
201404140900 AAXX 14094 67662 NIL=
201404140600 AAXX 14064 67662 NIL=
201404140300 AAXX 14034 67662 NIL=
201404140000 AAXX 14004 67662 NIL=
201404131800 AAXX 13184 67662 NIL=
201404131500 AAXX 13154 67662 NIL=
201404131200 AAXX 13124 67662 NIL=
201404130900 AAXX 13094 67662 NIL=
201404130600 AAXX 13064 67662 NIL=
201404121800 AAXX 12184 67662 NIL=
201404121500 AAXX 12154 67662 NIL=
201404121200 AAXX 12124 67662 NIL=
201404120900 AAXX 12094 67662 NIL=
201404120600 AAXX 12064 67662 NIL=
201404111800 AAXX 11184 67662 NIL=
201404111500 AAXX 11154 67662 NIL=
201404111200 AAXX 11124 67662 NIL=
201404110900 AAXX 11094 67662 NIL=
201404110600 AAXX 11064 67662 NIL=
201404110300 AAXX 11034 67662 NIL=
201404110000 AAXX 11004 67662 NIL=
201404101200 AAXX 10124 67662 NIL=
201404100900 AAXX 10094 67662 NIL=
201404100600 AAXX 10064 67662 NIL=
201404092100 AAXX 09214 67662 NIL=
201404091500 AAXX 09154 67662 NIL=
201404091200 AAXX 09124 67662 NIL=
201404090900 AAXX 09094 67662 NIL=
201404090600 AAXX 09064 67662 NIL=
201404090300 AAXX 09034 67662 NIL=
201404082100 AAXX 08214 67662 NIL=
201404081800 AAXX 08184 67662 NIL=
201404081500 AAXX 08154 67662 NIL=
201404081200 AAXX 08124 67662 NIL=
201404080900 AAXX 08094 67662 NIL=
201404080600 AAXX 08064 67662 NIL=
201404080300 AAXX 08034 67662 NIL=
201404071800 AAXX 07184 67662 NIL=
201404071500 AAXX 07154 67662 NIL=
201404071200 AAXX 07124 67662 NIL=
201404020900 AAXX 02094 67662 NIL=
201404020600 AAXX 02064 67662 NIL=
201404020300 AAXX 02034 67662 NIL=
201404020000 AAXX 02004 67662 NIL=
201404012100 AAXX 01214 67662 NIL=
201404011800 AAXX 01184 67662 NIL=
201404011500 AAXX 01154 67662 NIL=
201404011200 AAXX 01124 67662 NIL=
201404010900 AAXX 01094 67662 NIL=
201404010600 AAXX 01064 67662 NIL=

################################################################################
#  SYNOPS from 67663, Kabwe (Zambia) | 14-27S | 028-28E | 1206 m
################################################################################
201404302100 AAXX 30214 67663 NIL=
201404301200 AAXX 30124 67663 NIL=
201404300900 AAXX 30094 67663 NIL=
201404300600 AAXX 30064 67663 NIL=
201404300300 AAXX 30034 67663 NIL=
201404292100 AAXX 29214 67663 NIL=
201404291800 AAXX 29184 67663 NIL=
201404291500 AAXX 29154 67663 NIL=
201404291200 AAXX 29124 67663 NIL=
201404290900 AAXX 29094 67663 NIL=
201404290600 AAXX 29064 67663 NIL=
201404290300 AAXX 29034 67663 NIL=
201404290000 AAXX 29004 67663 NIL=
201404282100 AAXX 28214 67663 NIL=
201404281800 AAXX 28184 67663 NIL=
201404281500 AAXX 28154 67663 NIL=
201404281200 AAXX 28124 67663 NIL=
201404280900 AAXX 28094 67663 NIL=
201404280600 AAXX 28064 67663 NIL=
201404272100 AAXX 27214 67663 NIL=
201404271800 AAXX 27184 67663 NIL=
201404271500 AAXX 27154 67663 NIL=
201404271200 AAXX 27124 67663 NIL=
201404270600 AAXX 27060 67663 NIL=
201404261800 AAXX 26184 67663 NIL=
201404261500 AAXX 26154 67663 NIL=
201404261200 AAXX 26124 67663 NIL=
201404260900 AAXX 26094 67663 NIL=
201404260600 AAXX 26064 67663 NIL=
201404260300 AAXX 26034 67663 NIL=
201404251800 AAXX 25184 67663 NIL=
201404251500 AAXX 25154 67663 NIL=
201404251200 AAXX 25124 67663 NIL=
201404250900 AAXX 25094 67663 NIL=
201404250600 AAXX 25064 67663 NIL=
201404250300 AAXX 25034 67663 NIL=
201404250000 AAXX 25004 67663 NIL=
201404241200 AAXX 24124 67663 NIL=
201404240900 AAXX 24094 67663 NIL=
201404240600 AAXX 24064 67663 NIL=
201404231200 AAXX 23124 67663 NIL=
201404230900 AAXX 23094 67663 NIL=
201404230600 AAXX 23064 67663 NIL=
201404221200 AAXX 22124 67663 NIL=
201404220600 AAXX 22064 67663 NIL=
201404220300 AAXX 22034 67663 NIL=
201404212100 AAXX 21214 67663 NIL=
201404211800 AAXX 21184 67663 NIL=
201404211500 AAXX 21154 67663 NIL=
201404211200 AAXX 21124 67663 NIL=
201404210900 AAXX 21094 67663 NIL=
201404210600 AAXX 21064 67663 NIL=
201404202100 AAXX 20214 67663 NIL=
201404201800 AAXX 20184 67663 NIL=
201404201500 AAXX 20154 67663 NIL=
201404201200 AAXX 20124 67663 NIL=
201404200600 AAXX 20064 67663 NIL=
201404200000 AAXX 20004 67663 NIL=
201404192100 AAXX 19214 67663 NIL=
201404191800 AAXX 19184 67663 NIL=
201404191500 AAXX 19154 67663 NIL=
201404191200 AAXX 19124 67663 NIL=
201404190900 AAXX 19094 67663 NIL=
201404190600 AAXX 19060 67663 NIL=
201404190000 AAXX 19004 67663 NIL=
201404181800 AAXX 18184 67663 NIL=
201404181200 AAXX 18124 67663 NIL=
201404180900 AAXX 18094 67663 NIL=
201404180600 AAXX 18064 67663 NIL=
201404171500 AAXX 17154 67663 NIL=
201404171200 AAXX 17124 67663 NIL=
201404170900 AAXX 17094 67663 NIL=
201404170600 AAXX 17064 67663 NIL=
201404162100 AAXX 16214 67663 NIL=
201404161500 AAXX 16154 67663 NIL=
201404161200 AAXX 16124 67663 NIL=
201404160900 AAXX 16094 67663 NIL=
201404160600 AAXX 16064 67663 32980 20303 10194 20152 48530 80002
                   333 10279 20132 59010 82080
                   555 00/// 20000=
201404160300 AAXX 16034 67663 NIL=
201404152100 AAXX 15214 67663 NIL=
201404151800 AAXX 15184 67663 NIL=
201404151500 AAXX 15154 67663 NIL=
201404151200 AAXX 15124 67663 NIL=
201404150900 AAXX 15094 67663 NIL=
201404150600 AAXX 15064 67663 32980 01606 10190 20150 48539
                   333 10258 20144 59015
                   555 00/// 20000=
201404150300 AAXX 15034 67663 NIL=
201404142100 AAXX 14214 67663 NIL=
201404141200 AAXX 14124 67663 NIL=
201404140900 AAXX 14094 67663 NIL=
201404140600 AAXX 14064 67663 32980 20403 10174 20142 48551 81032
                   333 10256 20134 59005 81360 82080
                   555 00/// 20990=
201404140300 AAXX 14034 67663 NIL=
201404140000 AAXX 14004 67663 NIL=
201404131800 AAXX 13184 67663 NIL=
201404131500 AAXX 13154 67663 NIL=
201404131200 AAXX 13124 67663 NIL=
201404130900 AAXX 13094 67663 NIL=
201404130600 AAXX 13064 67663 NIL=
201404121800 AAXX 12184 67663 NIL=
201404121500 AAXX 12154 67663 NIL=
201404121200 AAXX 12124 67663 NIL=
201404120900 AAXX 12094 67663 NIL=
201404120600 AAXX 12064 67663 NIL=
201404111800 AAXX 11184 67663 NIL=
201404111500 AAXX 11154 67663 NIL=
201404111200 AAXX 11124 67663 NIL=
201404110900 AAXX 11094 67663 NIL=
201404110600 AAXX 11064 67663 12480 80904 10167 20157 48550 60114 70322 8557/
                   333 10200 20148 58013 85616 88460=
201404110300 AAXX 11034 67663 NIL=
201404110000 AAXX 11004 67663 NIL=
201404101200 AAXX 10124 67663 NIL=
201404100900 AAXX 10094 67663 NIL=
201404100600 AAXX 10064 67663 11480 81004 10166 20158 48538 76166 8557/
                   333 10186 20144 58014 85617 88460=
201404092100 AAXX 09214 67663 NIL=
201404091500 AAXX 09154 67663 NIL=
201404091200 AAXX 09124 67663 NIL=
201404090900 AAXX 09094 67663 NIL=
201404090600 AAXX 09064 67663 32480 60903 10184 20152 48528 70322 84532
                   333 10262 20144 59010 84618 84360 83080
                   555 00/// 20000=
201404090300 AAXX 09034 67663 NIL=
201404082100 AAXX 08214 67663 NIL=
201404081800 AAXX 08184 67663 NIL=
201404081500 AAXX 08154 67663 NIL=
201404081200 AAXX 08124 67663 NIL=
201404080900 AAXX 08094 67663 NIL=
201404080600 AAXX 08064 67663 32980 30904 10181 20150 48537 81032
                   333 10264 20141 59001 81360 83080
                   555 00/// 20000=
201404080300 AAXX 08034 67663 NIL=
201404071800 AAXX 07184 67663 NIL=
201404071500 AAXX 07154 67663 NIL=
201404071200 AAXX 07124 67663 NIL=
201404020900 AAXX 02094 67663 NIL=
201404020600 AAXX 02064 67663 32980 40203 10223 20188 48526 82037
                   333 10295 20169 58000 82360 84080=
201404020300 AAXX 02034 67663 NIL=
201404020000 AAXX 02004 67663 NIL=
201404012100 AAXX 01214 67663 NIL=
201404011800 AAXX 01184 67663 NIL=
201404011500 AAXX 01154 67663 NIL=
201404011200 AAXX 01124 67663 NIL=
201404010900 AAXX 01094 67663 NIL=
201404010600 AAXX 01064 67663 32980 41808 10220 20179 48526 83082
                   333 10290 20178 59005 83360 81080=

################################################################################
#  SYNOPS from 67665, Lusaka Internationalairport (Zambia) | 15-19S | 028-27E | 1152 m
################################################################################
201405010300 AAXX 01034 67665 42980 01505 10132 20114 48521
                   333 59007=
201405010000 AAXX 01004 67665 42980 01503 10149 20140 48520
                   333 59009=
201404302100 AAXX 30214 67665 42780 01103 10153 20118 48534
                   333 59009=
201404301800 AAXX 30184 67665 42980 11305 10180 20129 48534 81080
                   333 59005 81360=
201404301200 AAXX 30124 67665 NIL=
201404300900 AAXX 30094 67665 NIL=
201404300600 AAXX 30061 67665 32980 00903 10185 20144 48555
                   333 10//0 20//0 59012=
201404300300 AAXX 30034 67665 42980 01503 10133 20124 48528
                   333 58004=
201404292100 AAXX 29214 67665 42980 01306 10154 20136 48543
                   333 59001=
201404291800 AAXX 29184 67665 42980 01206 10172 20138 48537
                   333 59004=
201404291500 AAXX 29154 67665 42680 41209 10235 20138 48535 84200
                   333 58000 84835=
201404291200 AAXX 29124 67665 42680 60908 10234 20136 48541 86200
                   333 58003 86832=
201404290900 AAXX 29094 67665 42480 50901 10212 20129 48563 85800
                   333 58006 82818 83620 91023=
201404290600 AAXX 29064 67665 32480 10911 10176 20116 48555 81500
                   333 59006 81610 555 00///=
201404290300 AAXX 29034 67665 42980 31009 10155 20124 48536 83030
                   333 58008 83360=
201404290000 AAXX 29004 67665 42980 01004 10155 20139 48532
                   333 59007=
201404282100 AAXX 28214 67665 42980 01202 10171 20147 48547
                   333 58002=
201404281800 AAXX 28184 67665 42980 11009 10189 20148 48544 80001
                   333 58000 81080=
201404281500 AAXX 28154 67665 42680 41011 10256 20164 48538 84201
                   333 58001 84840 81080=
201404281200 AAXX 28124 67665 42580 51211 10247 20143 48541 85200
                   333 58005 85835=
201404280900 AAXX 28094 67665 42580 50911 10250 20147 48562 85831
                   333 59003 82622 84825 81360 81080=
201404280600 AAXX 28061 67665 32480 21006 10195 20138 48552 81831
                   333 10//0 20//0 59003 81615 81360 81080=
201404280300 AAXX 28034 67665 42980 10904 10156 20144 48528 81030
                   333 59004 81360=
201404272100 AAXX 27214 67665 42980 11103 10190 20167 48548 81030
                   333 58003 81360=
201404271800 AAXX 27184 67665 42980 41302 10200 20169 48546 82031
                   333 58006 82360 83080=
201404271500 AAXX 27154 67665 42680 61203 10262 20186 48537 82232
                   333 58008 82840 83360 83080=
201404271200 AAXX 27124 67665 42580 41010 10268 20186 48538 84201
                   333 59001 84825 81080=
201404270600 AAXX 27060 67665 NIL=
201404261800 AAXX 26184 67665 NIL=
201404261500 AAXX 26154 67665 NIL=
201404261200 AAXX 26124 67665 NIL=
201404260900 AAXX 26094 67665 42680 60710 10253 20203 48561 86800
                   333 58005 84830 83635=
201404260600 AAXX 26061 67665 12380 11010 10208 20188 48558 60234 81631
                   333 10//0 20//0 59003 81708 81360 81080=
201404260300 AAXX 26034 67665 42980 30803 10166 20150 48510 83030
                   333 58002 83360 91020=
201404260000 AAXX 26004 67665 42980 31303 10165 20148 48530 83030
                   333 58010 83360=
201404252100 AAXX 25214 67665 42980 31504 10189 20165 48541 83030
                   333 58005 83360 91021=
201404251800 AAXX 25184 67665 42780 41803 10203 20171 48532 81930
                   333 58014 81956 83360=
201404251500 AAXX 25154 67665 42680 52004 10247 20171 48519 81232
                   333 58007 81845 84360 82080=
201404251200 AAXX 25124 67665 42680 62803 10243 20166 48534 83272
                   333 58023 83830 85360 82080=
201404250900 AAXX 25094 67665 41360 72504 10200 20185 48550 72996 8177/
                   333 58011 81708 81820 87459=
201404250600 AAXX 25064 67665 11320 81207 10188 20188 48547 60094 79596 8573/=
201404250300 AAXX 25034 67665 41980 72609 10189 20173 48530 78022 85730
                   333 58012 85706 85360=
201404250000 AAXX 25004 67665 42980 50103 10186 20172 48522 85030
                   333 58004 85360=
201404241800 AAXX 24184 67665 42980 61003 10197 20174 48519 86030
                   333 58003 86360=
201404241500 AAXX 24154 67665 41660 71306 10193 20171 48505 72592 81931
                   333 58007 81945 86360 81080 91017=
201404241200 AAXX 24124 67665 NIL=
201404240900 AAXX 24094 67665 NIL=
201404240600 AAXX 24064 67665 NIL=
201404231200 AAXX 23124 67665 NIL=
201404230900 AAXX 23094 67665 NIL=
201404230600 AAXX 23064 67665 NIL=
201404221200 AAXX 22124 67665 NIL=
201404220600 AAXX 22064 67665 32980 10906 10182 20008 48539 80002
                   333 10/// 20/// 59006 81080=
201404220300 AAXX 22034 67665 42980 01003 10127 20115 48515
                   333 59010=
201404212100 AAXX 21214 67665 42980 01004 10155 20134 48524
                   333 59012=
201404211800 AAXX 21184 67665 42980 21203 10184 20159 58522 82030
                   333 59019 82360=
201404211500 AAXX 21154 67665 42680 10244 20167 48516 82201
                   333 59025 82850 82080=
201404211200 AAXX 21124 67665 NIL=
201404210900 AAXX 21094 67665 42480 20909 10226 20147 48551 82100
                   333 59025 82825=
201404210600 AAXX 21064 67665 32980 10809 10166 20124 48543 80001
                   333 59022 81080=
201404202100 AAXX 20214 67665 42980 01502 10154 20129 48525
                   333 59027=
201404201800 AAXX 20184 67665 42980 01102 10187 20154 48542
                   333 59023=
201404201500 AAXX 20154 67665 42680 31205 10250 20151 48542 83100
                   333 59023 83850=
201404201200 AAXX 20124 67665 42680 60908 10250 20147 48544 86500
                   333 59011 86640=
201404200600 AAXX 20064 67665 32480 70811 10169 20116 48563 70322 87500
                   333 59007 87610=
201404200000 AAXX 20004 67665 NIL=
201404192100 AAXX 19214 67665 NIL=
201404191800 AAXX 19184 67665 42980 21303 10170 20128 48561 80001
                   333 58007 82080=
201404191500 AAXX 19154 67665 42680 30806 10242 20144 48563 83500
                   333 58007 83640=
201404191200 AAXX 19124 67665 42580 40607 10250 20149 48563 84500
                   333 58004 84625=
201404190900 AAXX 19094 67665 NIL=
201404190600 AAXX 19060 67665 NIL=
201404190000 AAXX 19004 67665 42980 01204 10136 20119 48543
                   333 58010=
201404181800 AAXX 18184 67665 42980 61107 10178 20146 48556 86030
                   333 58022 86360=
201404181200 AAXX 18124 67665 NIL=
201404180900 AAXX 18094 67665 NIL=
201404180600 AAXX 18064 67665 NIL=
201404172100 AAXX 17214 67665 42980 01104 10158 20141 48542 70200
                   333 58006=
201404171500 AAXX 17154 67665 42680 40911 10247 20170 48533 84200
                   333 58002 84830=
201404171200 AAXX 17124 67665 42680 60910 10254 20188 48534 86830
                   333 59002 85630 83832 81360=
201404170900 AAXX 17094 67665 42580 50812 10226 20121 48551 85530
                   333 58006 85625 81360=
201404170600 AAXX 17061 67665 32480 21110 10187 20152 48554 81130
                   333 10//0 20//0 58012 81815 82360=
201404170300 AAXX 17034 67665 42980 00902 10149 20129 48530
                   333 58009=
201404162100 AAXX 16214 67665 42980 01402 10166 20150 48538
                   333 58006=
201404161500 AAXX 16154 67665 42680 40907 10254 20152 48532 84200
                   333 58000 84830=
201404161200 AAXX 16124 67665 42680 50809 10260 20159 48542 85200
                   333 58010 85838=
201404160900 AAXX 16094 67665 42580 20809 10250 20158 48557 82100
                   333 58003 82822=
201404160600 AAXX 16061 67665 32980 11110 10190 20158 48543 80001
                   333 10//0 20//0 59004 81080=
201404160300 AAXX 16034 67665 42980 01002 10132 20116 48518
                   333 59001=
201404152100 AAXX 15214 67665 42980 01002 10158 20131 48531
                   333 59008=
201404151800 AAXX 15184 67665 42980 11004 10182 20150 48531 81030
                   333 59009 81360=
201404151500 AAXX 15154 67665 42680 51309 10233 20180 48528 84200
                   333 59009 84845=
201404151200 AAXX 15124 67665 42680 51006 10255 20197 48532 85800
                   333 59017 83832 83635=
201404150900 AAXX 15094 67665 42480 30706 10245 20194 48554 83500
                   333 59025 83620=
201404150600 AAXX 15064 67665 32980 10807 10182 20108 48545 81030
                   333 10//0 20//0 59022 81360=
201404150300 AAXX 15034 67665 42980 01402 10130 20112 48519
                   333 59021=
201404142100 AAXX 14214 67665 42980 01402 10158 20133 48539
                   333 59017=
201404141200 AAXX 14124 67665 NIL=
201404140900 AAXX 14094 67665 42580 40913 10228 20160 48576 84500
                   333 58002 84623=
201404140600 AAXX 14064 67665 NIL=
201404140300 AAXX 14034 67665 42980 11203 10139 20121 48541 80001
                   333 59010 81360 91022=
201404140000 AAXX 14004 67665 42980 11502 10149 20132 48544 80001
                   333 59008 81080=
201404132100 AAXX 13214 67665 42980 11203 10158 20132 48555 80001
                   333 59005 81080 91023=
201404131800 AAXX 13184 67665 42980 31503 10177 20143 48550 80002
                   333 59008 83080=
201404131500 AAXX 13154 67665 42780 50506 10238 20160 48547 83202
                   333 59013 83850 83080=
201404131200 AAXX 13124 67665 42680 60610 10234 20164 48550 86502
                   333 59007 86635 82080=
201404130900 AAXX 13094 67665 42580 70611 10220 20166 48573 86530
                   333 59002 86625 82360=
201404130600 AAXX 13064 67665 32480 70706 10183 20150 48568 84530
                   333 59004 84610 85360=
201404130300 AAXX 13034 67665 42380 60904 10170 20154 48553 84630
                   333 58003 84707 85360=
201404130000 AAXX 13004 67665 42980 61404 10156 20139 48553 86030
                   333 58007 86360=
201404122100 AAXX 12214 67665 42980 40905 10170 20154 48561 84030
                   333 59005 84360=
201404121800 AAXX 12184 67665 42980 70803 10187 20163 48559 8703/
                   333 59005 87360=
201404121500 AAXX 12154 67665 42680 81010 10208 20168 48556 8453/
                   333 58000 84638 87360 91023=
201404121200 AAXX 12124 67665 NIL=
201404120900 AAXX 12094 67665 42480 70612 10209 20170 48573 8653/
                   333 58004 86615 84360=
201404120600 AAXX 12064 67665 NIL=
201404112100 AAXX 11214 67665 42680 71103 10167 20151 48566 70222 8457/
                   333 58007 84645 87459=
201404111800 AAXX 11184 67665 42680 70908 10178 20154 48563 8557/
                   333 58001 85635 87459=
201404111500 AAXX 11154 67665 42680 81010 10190 20166 48553 70252 8757/
                   333 59002 87635 88459=
201404111200 AAXX 11124 67665 41560 81013 10195 20164 48551 75855 8657/
                   333 59003 86625 88459=
201404110900 AAXX 11094 67665 41459 70911 10181 20147 48565 75855 8557/
                   333 58002 85612 87459 91024=
201404110600 AAXX 11064 67665 NIL=
201404110300 AAXX 11034 67665 41360 80910 10156 20140 48544 75855 8577/
                   333 58002 85707 88359=
201404110000 AAXX 11004 67665 41360 81111 10154 20136 48545 75855 8477/
                   333 58004 84707 88359=
201404102100 AAXX 10214 67665 41360 81207 10150 20133 48556 75855 8277/
                   333 58008 82707 88359=
201404101200 AAXX 10124 67665 NIL=
201404100900 AAXX 10094 67665 NIL=
201404100600 AAXX 10064 67665 11360 70912 10166 20105 48562 60014 75155 8577/
                   333 58002 85708 87359=
201404092100 AAXX 09214 67665 41960 71004 10166 20154 48552 76366 87070
                   333 59001 87359=
201404091500 AAXX 09154 67665 42680 70913 10214 20167 48544 83230
                   333 59001 83840 85360=
201404091200 AAXX 09124 67665 42680 71013 10222 20176 48550 84130
                   333 59003 84830 86360=
201404090900 AAXX 09094 67665 NIL=
201404090600 AAXX 09064 67665 NIL=
201404090300 AAXX 09034 67665 42980 10000 10135 20118 48540 81030
                   333 59006 81030=
201404082100 AAXX 08214 67665 42980 31203 10166 20142 48552 83030
                   333 59008 83360=
201404081800 AAXX 08184 67665 42980 71002 10190 20158 48553 8603/
                   333 58002 86360=
201404081500 AAXX 08154 67665 42680 70712 10220 20174 48546 8323/
                   333 58003 83835 86360=
201404081200 AAXX 08124 67665 NIL=
201404080900 AAXX 08094 67665 42580 60815 10227 20175 48573 86200
                   333 58000 86825=
201404080600 AAXX 08061 67665 32480 21108 10172 20153 48567 81130
                   333 10//0 20//0 58004 81812 82360=
201404080300 AAXX 08034 67665 42980 10804 10139 20121 48546 81030
                   333 58005 81360=
201404080000 AAXX 08004 67665 42980 10000 10142 20125 48551 81030
                   333 58007 81360=
201404072100 AAXX 07214 67665 42980 10702 10154 20137 48557 81030
                   333 58017 81360 91024=
201404071800 AAXX 07184 67665 42980 30904 10179 20155 48550 83030
                   333 58017 83360=
201404071500 AAXX 07154 67665 42780 60707 10226 20179 48545 84230
                   333 58020 84845 85360=
201404071200 AAXX 07124 67665 42680 70612 10239 20182 48555 86530
                   333 58019 86640 84360=
201404070900 AAXX 07094 67665 42580 60713 10225 20177 48573 85530
                   333 58019 85625 84360=
201404070000 AAXX 07004 67665 42980 10910 10191 20176 48542 81030
                   333 58017 81360=
201404062100 AAXX 06214 67665 42980 21604 10191 20168 48546 82030
                   333 58013 82360=
201404061800 AAXX 06184 67665 42980 21704 10204 20165 48536 82030
                   333 58004 82360=
201404061500 AAXX 06154 67665 41680 50607 10249 20182 48528 78082 81932
                   333 58014 81945 84845 82360 81080=
201404061200 AAXX 06124 67665 42680 70909 10250 20174 48538 81931
                   333 58004 81930 84835 83360=
201404060300 AAXX 06034 67665 42980 01503 10165 20158 48527
                   333 59001=
201404060000 AAXX 06004 67665 42980 00302 10175 20159 48524
                   333 58004=
201404051800 AAXX 05184 67665 42980 31104 10218 20162 48535 83030
                   333 58004 83360=
201404051500 AAXX 05154 67665 42580 41006 10272 20272 30184 48526 83230
                   333 58015 83835 81360=
201404050900 AAXX 05094 67665 42580 20611 10254 20163 48559 82100
                   333 58013 82825=
201404050300 AAXX 05034 67665 42980 10903 10167 20151 48528 81030
                   333 58009 81360=
201404050000 AAXX 05004 67665 42980 01604 10171 20155 48525
                   333 58004=
201404042100 AAXX 04214 67665 42980 11402 10185 20153 48535 81030
                   333 58006 81360=
201404041500 AAXX 04154 67665 41680 61005 10266 20167 48523 78022 86231
                   333 58012 86830 84360 81080=
201404041200 AAXX 04124 67665 42680 60809 10290 20212 48535 86201
                   333 58011 86830 83080=
201404040600 AAXX 04064 67665 32980 41002 10213 20175 48548 80002
                   333 10//0 20//0 58012 84080=
201404040300 AAXX 04034 67665 42980 10000 10168 20151 48519 81030
                   333 58006 81360=
201404031800 AAXX 03184 67665 42980 11204 10214 20192 48518 81030
                   333 58002 81360=
201404031500 AAXX 03154 67665 42680 41007 10284 20206 48512 82231
                   333 59002 82850 82360 82080=
201404030900 AAXX 03094 67665 42480 20603 10279 20223 48547 70200 82500
                   333 59005 82620=
201404030600 AAXX 03064 67665 32980 11002 10205 20166 48537 70200 80001
                   333 10/// 20/// 59001 81080=
201404030300 AAXX 03034 67665 42980 00000 10159 20142 48512
                   333 59001=
201404022100 AAXX 02214 67665 42980 21203 10178 20154 48525 80001
                   333 58006 82080=
201404021800 AAXX 02184 67665 42980 31103 10214 20184 48516 81031
                   333 59005 81360 82080=
201404021200 AAXX 02124 67665 42680 40605 10274 20195 48526 83201
                   333 58003 83840 83080=
201404020900 AAXX 02094 67665 42580 50607 10263 20174 48549 83232
                   333 58006 81825 81360 83080=
201404020600 AAXX 02064 67665 32980 30904 10191 20150 48535 81032
                   333 59001 81360 83080
                   555 00///=
201404020300 AAXX 02034 67665 42980 11603 10148 20131 48511 81030
                   333 59004 81360 91018=
201404020000 AAXX 02004 67665 42980 10000 10166 20148 48512 81030
                   333 59008 81360=
201404012100 AAXX 01214 67665 42980 11402 10184 20160 48517 81030
                   333 59010 81360 91019=
201404011800 AAXX 01184 67665 42980 31303 10204 20174 48520 80001
                   333 58002 83080=
201404011500 AAXX 01154 67665 42780 41003 10270 20180 48510 84201
                   333 59006 84856 81080=
201404011200 AAXX 01124 67665 42680 50504 10271 20179 48523 85200
                   333 59004 85840=
201404010900 AAXX 01094 67665 NIL=
201404010600 AAXX 01064 67665 NIL=

################################################################################
#  SYNOPS from 67666, Lusaka City Airport (Zambia) | 15-25S | 028-19E | 1280 m
################################################################################
201404302100 AAXX 30214 67666 NIL=
201404301200 AAXX 30124 67666 NIL=
201404300900 AAXX 30094 67666 42680 11004 10229 20132 48551 81100
                   333 58005 81845 91022=
201404300600 AAXX 30064 67666 32980 00903 10190 20131 48538
                   333 10250 20120 58011 91021=
201404300300 AAXX 30034 67666 NIL=
201404292100 AAXX 29214 67666 NIL=
201404291800 AAXX 29184 67666 NIL=
201404291500 AAXX 29154 67666 NIL=
201404291200 AAXX 29124 67666 NIL=
201404290900 AAXX 29094 67666 NIL=
201404290600 AAXX 29064 67666 32480 10910 10175 20142 48548 81500
                   333 10265 20150 58005 82610 91022=
201404290300 AAXX 29034 67666 NIL=
201404290000 AAXX 29004 67666 NIL=
201404282100 AAXX 28214 67666 NIL=
201404281800 AAXX 28184 67666 NIL=
201404281500 AAXX 28154 67666 NIL=
201404281200 AAXX 28124 67666 42480 50908 10255 20170 48534 85200
                   333 58003 85822 91020=
201404280900 AAXX 28094 67666 42480 41010 10240 20170 48554 84200
                   333 59005 84815 91022=
201404280600 AAXX 28064 67666 32980 30910 10200 20160 48545 82031
                   333 10280 20174 59004 82360 81078 91021=
201404272100 AAXX 27214 67666 NIL=
201404271800 AAXX 27184 67666 NIL=
201404271500 AAXX 27154 67666 NIL=
201404271200 AAXX 27124 67666 NIL=
201404270600 AAXX 27060 67666 NIL=
201404261800 AAXX 26184 67666 NIL=
201404261500 AAXX 26154 67666 NIL=
201404261200 AAXX 26124 67666 NIL=
201404260900 AAXX 26094 67666 NIL=
201404260600 AAXX 26064 67666 NIL=
201404260300 AAXX 26034 67666 NIL=
201404251800 AAXX 25184 67666 NIL=
201404251500 AAXX 25154 67666 NIL=
201404251200 AAXX 25124 67666 NIL=
201404250900 AAXX 25094 67666 NIL=
201404250600 AAXX 25064 67666 11359 82102 10178 20175 48548 60514 79566 8577/
                   333 10270 20170 58024 85709 88458 91022=
201404250300 AAXX 25034 67666 NIL=
201404250000 AAXX 25004 67666 NIL=
201404241200 AAXX 24124 67666 41380 71407 10190 20190 48509 79529 813//
                   333 58008 81309 85810 91017=
201404240900 AAXX 24094 67666 42480 51211 10255 20178 48528 81131
                   333 59008 81812 82360 82080 91019=
201404240600 AAXX 24064 67666 32980 51209 10205 20156 48527 83031
                   333 10289 20185 59002 83360 82078
                   555 00/// 20000 91019=
201404231200 AAXX 23124 67666 NIL=
201404230900 AAXX 23094 67666 42980 00905 10255 20163 48534
                   333 59011 91020=
201404230600 AAXX 23064 67666 32980 00905 10205 20140 48521
                   333 10275 20165 59006 91020=
201404221200 AAXX 22124 67666 NIL=
201404220900 AAXX 22094 67666 42380 31005 10233 20140 48542 81201
                   333 58003 81815 91021=
201404220600 AAXX 22064 67666 32980 21202 10189 20141 48509 80001
                   333 10260 20141 59005 82080 91020=
201404220300 AAXX 22034 67666 NIL=
201404212100 AAXX 21214 67666 NIL=
201404211800 AAXX 21184 67666 NIL=
201404211500 AAXX 21154 67666 NIL=
201404211200 AAXX 21124 67666 NIL=
201404210900 AAXX 21094 67666 NIL=
201404210600 AAXX 21064 67666 NIL=
201404202100 AAXX 20214 67666 NIL=
201404201800 AAXX 20184 67666 NIL=
201404201500 AAXX 20154 67666 NIL=
201404201200 AAXX 20124 67666 NIL=
201404200600 AAXX 20064 67666 NIL=
201404200000 AAXX 20004 67666 NIL=
201404192100 AAXX 19214 67666 NIL=
201404191800 AAXX 19184 67666 NIL=
201404191500 AAXX 19154 67666 NIL=
201404191200 AAXX 19124 67666 NIL=
201404190900 AAXX 19094 67666 NIL=
201404190600 AAXX 19060 67666 NIL=
201404190000 AAXX 19004 67666 NIL=
201404181800 AAXX 18184 67666 NIL=
201404181200 AAXX 18124 67666 NIL=
201404180900 AAXX 18094 67666 NIL=
201404180600 AAXX 18064 67666 NIL=
201404171500 AAXX 17154 67666 NIL=
201404171200 AAXX 17124 67666 NIL=
201404170900 AAXX 17094 67666 42480 60909 10225 20133 48503 84230
                   333 58002 84820 81359 91022=
201404170600 AAXX 17064 67666 32380 73209 10187 20157 48538 82230
                   333 10270 20165 58008 82815 87359 91022=
201404162100 AAXX 16214 67666 NIL=
201404161500 AAXX 16154 67666 NIL=
201404161200 AAXX 16124 67666 NIL=
201404160900 AAXX 16094 67666 42480 30910 10240 20144 48551 83200
                   333 58006 83812 91022=
201404160600 AAXX 16064 67666 32980 01009 10203 20150 48539
                   333 10260 20178 59009
                   555 00/// 91021=
201404160300 AAXX 16034 67666 NIL=
201404152100 AAXX 15214 67666 NIL=
201404151800 AAXX 15184 67666 NIL=
201404151500 AAXX 15154 67666 NIL=
201404151200 AAXX 15124 67666 42580 51006 10245 20147 48524 85200
                   333 59016 85840 91019=
201404150900 AAXX 15094 67666 42980 20904 10230 20121 48548 82100
                   333 59022 82835 91021=
201404150600 AAXX 15064 67666 32980 00909 10190 20140 48539
                   333 10250 20150 58041 91021=
201404150300 AAXX 15034 67666 NIL=
201404142100 AAXX 14214 67666 NIL=
201404141200 AAXX 14124 67666 NIL=
201404140900 AAXX 14094 67666 42580 30906 10216 20143 48565 83500
                   333 58001 83620 91024=
201404140600 AAXX 14064 67666 32480 50909 10170 20146 48558 85500
                   333 10265 20145 58006 85615 91023=
201404140300 AAXX 14034 67666 NIL=
201404140000 AAXX 14004 67666 NIL=
201404131800 AAXX 13184 67666 NIL=
201404131500 AAXX 13154 67666 NIL=
201404131200 AAXX 13124 67666 NIL=
201404130900 AAXX 13094 67666 NIL=
201404130600 AAXX 13064 67666 NIL=
201404121800 AAXX 12184 67666 NIL=
201404121500 AAXX 12154 67666 NIL=
201404121200 AAXX 12124 67666 NIL=
201404120900 AAXX 12094 67666 NIL=
201404120600 AAXX 12064 67666 NIL=
201404111800 AAXX 11184 67666 NIL=
201404111500 AAXX 11154 67666 NIL=
201404111200 AAXX 11124 67666 42480 81513 10190 20158 48544 885//
                   333 59002 88612 91021=
201404110900 AAXX 11094 67666 42380 81214 10190 20158 48557 885//
                   333 59001 88607 91023=
201404110600 AAXX 11064 67666 12380 80812 10160 20148 48554 60134 886//
                   333 10170 20135 58001 88704 91023=
201404110300 AAXX 11034 67666 NIL=
201404110000 AAXX 11004 67666 NIL=
201404101200 AAXX 10124 67666 41380 81008 10160 20152 48543 76121 885//
                   333 58004 88610 91022=
201404100900 AAXX 10094 67666 41380 81013 10165 20153 48555 76022 886//
                   333 59004 88707 91023=
201404100600 AAXX 10064 67666 11380 80913 10160 20153 48557 60074 75021 885//
                   333 10231 20150 59001 88704 91023=
201404092100 AAXX 09214 67666 NIL=
201404091500 AAXX 09154 67666 NIL=
201404091200 AAXX 09124 67666 NIL=
201404090900 AAXX 09094 67666 42380 71209 10183 20135 48556 82230
                   333 5//// 82818 87358 91024=
201404090600 AAXX 09064 67666 32980 71209 10163 20139 48546 877//
                   333 10235 20149 59009 87358
                   555 00/// 20000 91023=
201404090300 AAXX 09034 67666 NIL=
201404082100 AAXX 08214 67666 NIL=
201404081800 AAXX 08184 67666 NIL=
201404081500 AAXX 08154 67666 NIL=
201404081200 AAXX 08124 67666 NIL=
201404080900 AAXX 08094 67666 NIL=
201404080600 AAXX 08064 67666 32980 30909 10179 20131 48556 83030
                   333 10246 20145 58007 83358 91024=
201404080300 AAXX 08034 67666 NIL=
201404071800 AAXX 07184 67666 NIL=
201404071500 AAXX 07154 67666 NIL=
201404071200 AAXX 07124 67666 NIL=
201404020900 AAXX 02094 67666 NIL=
201404020600 AAXX 02064 67666 32980 21008 10210 20163 48534 80002
                   333 10275 20145 58004 82080 91020=
201404020300 AAXX 02034 67666 NIL=
201404020000 AAXX 02004 67666 NIL=
201404012100 AAXX 01214 67666 NIL=
201404011800 AAXX 01184 67666 NIL=
201404011500 AAXX 01154 67666 NIL=
201404011200 AAXX 01124 67666 NIL=
201404010900 AAXX 01094 67666 42480 31008 10245 20166 48535 83200
                   333 59002 83815 91020=
201404010600 AAXX 01064 67666 32980 10911 10200 20150 48529 81030
                   333 10275 20170 59004 81358 91020=

################################################################################
#  SYNOPS from 67667, Mount Makulu (Zambia) | 15-33S | 028-15E | 1213 m
################################################################################
201404302100 AAXX 30214 67667 NIL=
201404301200 AAXX 30124 67667 NIL=
201404300900 AAXX 30094 67667 NIL=
201404300600 AAXX 30064 67667 NIL=
201404300300 AAXX 30034 67667 NIL=
201404292100 AAXX 29214 67667 NIL=
201404291800 AAXX 29184 67667 NIL=
201404291500 AAXX 29154 67667 NIL=
201404291200 AAXX 29124 67667 NIL=
201404290900 AAXX 29094 67667 NIL=
201404290600 AAXX 29064 67667 NIL=
201404290300 AAXX 29034 67667 NIL=
201404290000 AAXX 29004 67667 NIL=
201404282100 AAXX 28214 67667 NIL=
201404281800 AAXX 28184 67667 NIL=
201404281500 AAXX 28154 67667 NIL=
201404281200 AAXX 28124 67667 NIL=
201404280900 AAXX 28094 67667 NIL=
201404280600 AAXX 28064 67667 NIL=
201404272100 AAXX 27214 67667 NIL=
201404271800 AAXX 27184 67667 NIL=
201404271500 AAXX 27154 67667 NIL=
201404271200 AAXX 27124 67667 NIL=
201404270600 AAXX 27060 67667 NIL=
201404261800 AAXX 26184 67667 NIL=
201404261500 AAXX 26154 67667 NIL=
201404261200 AAXX 26124 67667 NIL=
201404260900 AAXX 26094 67667 NIL=
201404260600 AAXX 26064 67667 NIL=
201404260300 AAXX 26034 67667 NIL=
201404251800 AAXX 25184 67667 NIL=
201404251500 AAXX 25154 67667 NIL=
201404251200 AAXX 25124 67667 NIL=
201404250900 AAXX 25094 67667 NIL=
201404250600 AAXX 25064 67667 NIL=
201404250300 AAXX 25034 67667 NIL=
201404250000 AAXX 25004 67667 NIL=
201404241200 AAXX 24124 67667 NIL=
201404240900 AAXX 24094 67667 NIL=
201404240600 AAXX 24064 67667 NIL=
201404231200 AAXX 23124 67667 NIL=
201404230900 AAXX 23094 67667 NIL=
201404230600 AAXX 23064 67667 NIL=
201404221200 AAXX 22124 67667 NIL=
201404220600 AAXX 22064 67667 NIL=
201404220300 AAXX 22034 67667 NIL=
201404212100 AAXX 21214 67667 NIL=
201404211800 AAXX 21184 67667 NIL=
201404211500 AAXX 21154 67667 NIL=
201404211200 AAXX 21124 67667 NIL=
201404210900 AAXX 21094 67667 NIL=
201404210600 AAXX 21064 67667 NIL=
201404202100 AAXX 20214 67667 NIL=
201404201800 AAXX 20184 67667 NIL=
201404201500 AAXX 20154 67667 NIL=
201404201200 AAXX 20124 67667 NIL=
201404200600 AAXX 20064 67667 NIL=
201404200000 AAXX 20004 67667 NIL=
201404192100 AAXX 19214 67667 NIL=
201404191800 AAXX 19184 67667 NIL=
201404191500 AAXX 19154 67667 NIL=
201404191200 AAXX 19124 67667 NIL=
201404190900 AAXX 19094 67667 NIL=
201404190600 AAXX 19060 67667 NIL=
201404190000 AAXX 19004 67667 NIL=
201404181800 AAXX 18184 67667 NIL=
201404181200 AAXX 18124 67667 NIL=
201404180900 AAXX 18094 67667 NIL=
201404180600 AAXX 18064 67667 NIL=
201404171500 AAXX 17154 67667 NIL=
201404171200 AAXX 17124 67667 NIL=
201404170900 AAXX 17094 67667 NIL=
201404170600 AAXX 17064 67667 NIL=
201404162100 AAXX 16214 67667 NIL=
201404161500 AAXX 16154 67667 NIL=
201404161200 AAXX 16124 67667 NIL=
201404160900 AAXX 16094 67667 NIL=
201404160600 AAXX 16064 67667 NIL=
201404160300 AAXX 16034 67667 NIL=
201404152100 AAXX 15214 67667 NIL=
201404151800 AAXX 15184 67667 NIL=
201404151500 AAXX 15154 67667 NIL=
201404151200 AAXX 15124 67667 NIL=
201404150900 AAXX 15094 67667 NIL=
201404150600 AAXX 15064 67667 NIL=
201404150300 AAXX 15034 67667 NIL=
201404142100 AAXX 14214 67667 NIL=
201404141200 AAXX 14124 67667 NIL=
201404140900 AAXX 14094 67667 NIL=
201404140600 AAXX 14064 67667 NIL=
201404140300 AAXX 14034 67667 NIL=
201404140000 AAXX 14004 67667 NIL=
201404131800 AAXX 13184 67667 NIL=
201404131500 AAXX 13154 67667 NIL=
201404131200 AAXX 13124 67667 NIL=
201404130900 AAXX 13094 67667 NIL=
201404130600 AAXX 13064 67667 NIL=
201404121800 AAXX 12184 67667 NIL=
201404121500 AAXX 12154 67667 NIL=
201404121200 AAXX 12124 67667 NIL=
201404120900 AAXX 12094 67667 NIL=
201404120600 AAXX 12064 67667 NIL=
201404111800 AAXX 11184 67667 NIL=
201404111500 AAXX 11154 67667 NIL=
201404111200 AAXX 11124 67667 NIL=
201404110900 AAXX 11094 67667 NIL=
201404110600 AAXX 11064 67667 NIL=
201404110300 AAXX 11034 67667 NIL=
201404110000 AAXX 11004 67667 NIL=
201404101200 AAXX 10124 67667 NIL=
201404100900 AAXX 10094 67667 NIL=
201404100600 AAXX 10064 67667 NIL=
201404092100 AAXX 09214 67667 NIL=
201404091500 AAXX 09154 67667 NIL=
201404091200 AAXX 09124 67667 NIL=
201404090900 AAXX 09094 67667 NIL=
201404090600 AAXX 09064 67667 NIL=
201404090300 AAXX 09034 67667 NIL=
201404082100 AAXX 08214 67667 NIL=
201404081800 AAXX 08184 67667 NIL=
201404081500 AAXX 08154 67667 NIL=
201404081200 AAXX 08124 67667 NIL=
201404080900 AAXX 08094 67667 NIL=
201404080600 AAXX 08064 67667 NIL=
201404080300 AAXX 08034 67667 NIL=
201404071800 AAXX 07184 67667 NIL=
201404071500 AAXX 07154 67667 NIL=
201404071200 AAXX 07124 67667 NIL=
201404020900 AAXX 02094 67667 NIL=
201404020600 AAXX 02064 67667 NIL=
201404020300 AAXX 02034 67667 NIL=
201404020000 AAXX 02004 67667 NIL=
201404012100 AAXX 01214 67667 NIL=
201404011800 AAXX 01184 67667 NIL=
201404011500 AAXX 01154 67667 NIL=
201404011200 AAXX 01124 67667 NIL=
201404010900 AAXX 01094 67667 NIL=
201404010600 AAXX 01064 67667 NIL=

################################################################################
#  SYNOPS from 67673, Petauke (Zambia) | 14-15S | 031-17E | 1035 m
################################################################################
201404302100 AAXX 30214 67673 NIL=
201404301200 AAXX 30124 67673 42680 60901 10278 20163 48550 86200
                   333 59009 86840=
201404300900 AAXX 30094 67673 42680 61601 10277 20145 48572 86200
                   333 59006 86833=
201404300600 AAXX 30064 67673 32480 21601 10222 20163 48560 82031
                   333 10231 20149 59010 82360 81080
                   555 00/// 20000=
201404300300 AAXX 30034 67673 NIL=
201404292100 AAXX 29214 67673 NIL=
201404291800 AAXX 29184 67673 NIL=
201404291500 AAXX 29154 67673 NIL=
201404291200 AAXX 29124 67673 42580 71502 10241 20163 48552 88500
                   333 58013 88628=
201404290900 AAXX 29094 67673 42580 71203 10221 20163 48567 87500
                   333 58004 87626=
201404290600 AAXX 29064 67673 32584 61002 10210 20164 48568 86500
                   333 10288 20180 58002 86625
                   555 00/// 20002=
201404290300 AAXX 29034 67673 NIL=
201404290000 AAXX 29004 67673 NIL=
201404282100 AAXX 28214 67673 NIL=
201404281800 AAXX 28184 67673 NIL=
201404281500 AAXX 28154 67673 NIL=
201404281200 AAXX 28124 67673 NIL=
201404280900 AAXX 28094 67673 42584 61003 10250 20182 48569 86231
                   333 59004 86830 84360 81080=
201404280600 AAXX 28064 67673 12584 50904 10230 20187 48569 60024 84130
                   333 10310 20180 58000 84826 85360
                   555 00/// 20990=
201404272100 AAXX 27214 67673 NIL=
201404271800 AAXX 27184 67673 NIL=
201404271500 AAXX 27154 67673 NIL=
201404271200 AAXX 27124 67673 NIL=
201404270600 AAXX 27060 67673 NIL=
201404261800 AAXX 26184 67673 NIL=
201404261500 AAXX 26154 67673 NIL=
201404261200 AAXX 26124 67673 NIL=
201404260900 AAXX 26094 67673 NIL=
201404260600 AAXX 26064 67673 NIL=
201404260300 AAXX 26034 67673 NIL=
201404251800 AAXX 25184 67673 NIL=
201404251500 AAXX 25154 67673 NIL=
201404251200 AAXX 25124 67673 NIL=
201404250900 AAXX 25094 67673 42684 40506 10270 20173 48564 83131
                   333 58014 83835 82360 84080=
201404250600 AAXX 25064 67673 32584 40202 10236 20173 48563 81131
                   333 10324 20174 58012 81825 82360 84080
                   555 00/// 20000=
201404250300 AAXX 25034 67673 NIL=
201404250000 AAXX 25004 67673 NIL=
201404241200 AAXX 24124 67673 42684 50103 10313 20175 48532 85201
                   333 59022 85840 82080=
201404240900 AAXX 24094 67673 42684 40106 10284 20174 48552 84101
                   333 59017 84835 83080=
201404240600 AAXX 24064 67673 32584 20103 10236 20182 48552 81131
                   333 10315 20186 59006 81825 82360 81080
                   555 00/// 20000=
201404231200 AAXX 23124 67673 NIL=
201404230900 AAXX 23094 67673 NIL=
201404230600 AAXX 23064 67673 32984 20201 10240 20163 48558 82030
                   333 10300 20185 59001 82360
                   555 00/// 20000=
201404221200 AAXX 22124 67673 42684 60901 10294 20158 48537 86200
                   333 5//// 86840=
201404220900 AAXX 22094 67673 42684 50502 10278 20158 48570 85100
                   333 5//// 85832=
201404220600 AAXX 22064 67673 NIL=
201404220300 AAXX 22034 67673 NIL=
201404212100 AAXX 21214 67673 NIL=
201404211800 AAXX 21184 67673 NIL=
201404211500 AAXX 21154 67673 NIL=
201404211200 AAXX 21124 67673 NIL=
201404210900 AAXX 21094 67673 NIL=
201404210600 AAXX 21064 67673 NIL=
201404202100 AAXX 20214 67673 NIL=
201404201800 AAXX 20184 67673 NIL=
201404201500 AAXX 20154 67673 NIL=
201404201200 AAXX 20124 67673 NIL=
201404200600 AAXX 20064 67673 NIL=
201404200000 AAXX 20004 67673 NIL=
201404192100 AAXX 19214 67673 NIL=
201404191800 AAXX 19184 67673 NIL=
201404191500 AAXX 19154 67673 NIL=
201404191200 AAXX 19124 67673 NIL=
201404190900 AAXX 19094 67673 NIL=
201404190600 AAXX 19060 67673 NIL=
201404190000 AAXX 19004 67673 NIL=
201404181800 AAXX 18184 67673 NIL=
201404181200 AAXX 18124 67673 NIL=
201404180900 AAXX 18094 67673 NIL=
201404180600 AAXX 18064 67673 NIL=
201404171500 AAXX 17154 67673 NIL=
201404171200 AAXX 17124 67673 NIL=
201404170900 AAXX 17094 67673 42684 41002 10270 20162 48572 84100
                   333 58006 84835=
201404170600 AAXX 17064 67673 32584 30904 10220 20157 48565
                   333 10310 20173 58007
                   555 00/// 20000=
201404162100 AAXX 16214 67673 NIL=
201404161500 AAXX 16154 67673 NIL=
201404161200 AAXX 16124 67673 NIL=
201404160900 AAXX 16094 67673 42684 50901 10284 20154 48568 85200
                   333 59003 85835=
201404160600 AAXX 16064 67673 NIL=
201404160300 AAXX 16034 67673 NIL=
201404152100 AAXX 15214 67673 NIL=
201404151800 AAXX 15184 67673 NIL=
201404151500 AAXX 15154 67673 NIL=
201404151200 AAXX 15124 67673 42684 51501 10284 20124 48543 85100
                   333 59021 85840=
201404150900 AAXX 15094 67673 42680 40803 10260 20141 48567 84100
                   333 59025 84835=
201404150600 AAXX 15064 67673 32984 41503 10223 20136 48565
                   333 10280 20149 59019
                   555 00/// 20000=
201404150300 AAXX 15034 67673 NIL=
201404142100 AAXX 14214 67673 NIL=
201404141200 AAXX 14124 67673 42680 51901 10268 20145 48562 85230
                   333 5//// 85835 83360=
201404140900 AAXX 14094 67673 42580 50903 10250 20156 48589 84131
                   333 5//// 84832 85360 81080=
201404140600 AAXX 14064 67673 32580 41503 10200 20153 48580 82131
                   333 10268 20155 59001 82825 83360 84080
                   555 00/// 20000=
201404140300 AAXX 14034 67673 NIL=
201404140000 AAXX 14004 67673 NIL=
201404131800 AAXX 13184 67673 NIL=
201404131500 AAXX 13154 67673 NIL=
201404131200 AAXX 13124 67673 NIL=
201404130900 AAXX 13094 67673 NIL=
201404130600 AAXX 13064 67673 NIL=
201404121800 AAXX 12184 67673 NIL=
201404121500 AAXX 12154 67673 NIL=
201404121200 AAXX 12124 67673 NIL=
201404120900 AAXX 12094 67673 NIL=
201404120600 AAXX 12064 67673 NIL=
201404111800 AAXX 11184 67673 NIL=
201404111500 AAXX 11154 67673 NIL=
201404111200 AAXX 11124 67673 42580 61002 10234 20164 48559 84130
                   333 59001 84828 86360=
201404110900 AAXX 11094 67673 42580 61006 10225 20163 48586 86530
                   333 59003 86628 84360=
201404110600 AAXX 11064 67673 12580 81004 10192 20157 48577 69904 885//
                   333 10230 20174 58005 88622=
201404110300 AAXX 11034 67673 NIL=
201404110000 AAXX 11004 67673 NIL=
201404101200 AAXX 10124 67673 42580 80904 10220 20148 48548 885//
                   333 59001 88626=
201404100900 AAXX 10094 67673 42580 70905 10220 20154 48575 875//
                   333 59005 87626=
201404100600 AAXX 10064 67673 12580 81004 10184 20152 48571 69904 885//
                   333 10244 20170 59004 88620=
201404092100 AAXX 09214 67673 NIL=
201404091500 AAXX 09154 67673 NIL=
201404091200 AAXX 09124 67673 42580 71002 10227 20155 48560 875//
                   333 59008 87628=
201404090900 AAXX 09094 67673 42580 70802 10212 20152 48580 875//
                   333 58000 87626=
201404090600 AAXX 09064 67673 42580 61403 10193 20152 48576 85531
                   333 10233 20170 59006 85624 84360 82080
                   555 00/// 20000=
201404090300 AAXX 09034 67673 NIL=
201404082100 AAXX 08214 67673 NIL=
201404081800 AAXX 08184 67673 NIL=
201404081500 AAXX 08154 67673 NIL=
201404081200 AAXX 08124 67673 42580 61002 10242 20159 48555 84230
                   333 59014 84830 86360=
201404080900 AAXX 08094 67673 42580 70903 10231 20225 48584 875//
                   333 58000 87628=
201404080600 AAXX 08064 67673 32580 41103 10192 20182 48580 84530
                   333 10220 20155 58007 84624 83360
                   555 00/// 20000=
201404080300 AAXX 08034 67673 NIL=
201404071800 AAXX 07184 67673 NIL=
201404071500 AAXX 07154 67673 NIL=
201404071200 AAXX 07124 67673 42580 81503 10224 20158 48565 88500
                   333 58031 88628=
201404020900 AAXX 02094 67673 42680 53502 10265 20190 48558 85231
                   333 58003 85832 81360 84080=
201404020600 AAXX 02064 67673 32580 40901 10238 20172 48552 82131
                   333 10300 20182 59005 82825 83360 84080=
201404020300 AAXX 02034 67673 NIL=
201404020000 AAXX 02004 67673 NIL=
201404012100 AAXX 01214 67673 NIL=
201404011800 AAXX 01184 67673 NIL=
201404011500 AAXX 01154 67673 NIL=
201404011200 AAXX 01124 67673 42680 50901 10280 20197 48531 85230
                   333 59007 85840 84360=
201404010900 AAXX 01094 67673 42580 50901 10260 20167 48553 83130
                   333 59005 83832 85360=
201404010600 AAXX 01064 67673 12580 50801 10210 20175 48552 60074 82130
                   333 10295 20180 59001 82825 85360=

################################################################################
#  SYNOPS from 67731, Senanga (Zambia) | 16-06S | 023-16E | 1027 m
################################################################################
201404302100 AAXX 30214 67731 NIL=
201404301200 AAXX 30124 67731 NIL=
201404300900 AAXX 30094 67731 NIL=
201404300600 AAXX 30064 67731 NIL=
201404300300 AAXX 30034 67731 NIL=
201404292100 AAXX 29214 67731 NIL=
201404291800 AAXX 29184 67731 NIL=
201404291500 AAXX 29154 67731 NIL=
201404291200 AAXX 29124 67731 NIL=
201404290900 AAXX 29094 67731 NIL=
201404290600 AAXX 29064 67731 NIL=
201404290300 AAXX 29034 67731 NIL=
201404290000 AAXX 29004 67731 NIL=
201404282100 AAXX 28214 67731 NIL=
201404281800 AAXX 28184 67731 NIL=
201404281500 AAXX 28154 67731 NIL=
201404281200 AAXX 28124 67731 NIL=
201404280900 AAXX 28094 67731 NIL=
201404280600 AAXX 28064 67731 NIL=
201404272100 AAXX 27214 67731 NIL=
201404271800 AAXX 27184 67731 NIL=
201404271500 AAXX 27154 67731 NIL=
201404271200 AAXX 27124 67731 NIL=
201404270600 AAXX 27060 67731 NIL=
201404261800 AAXX 26184 67731 NIL=
201404261500 AAXX 26154 67731 NIL=
201404261200 AAXX 26124 67731 NIL=
201404260900 AAXX 26094 67731 NIL=
201404260600 AAXX 26064 67731 NIL=
201404260300 AAXX 26034 67731 NIL=
201404251800 AAXX 25184 67731 NIL=
201404251500 AAXX 25154 67731 NIL=
201404251200 AAXX 25124 67731 NIL=
201404250900 AAXX 25094 67731 NIL=
201404250600 AAXX 25064 67731 NIL=
201404250300 AAXX 25034 67731 NIL=
201404250000 AAXX 25004 67731 NIL=
201404241200 AAXX 24124 67731 NIL=
201404240900 AAXX 24094 67731 NIL=
201404240600 AAXX 24064 67731 NIL=
201404231200 AAXX 23124 67731 NIL=
201404230900 AAXX 23094 67731 NIL=
201404230600 AAXX 23064 67731 NIL=
201404221200 AAXX 22124 67731 NIL=
201404220600 AAXX 22064 67731 NIL=
201404220300 AAXX 22034 67731 NIL=
201404212100 AAXX 21214 67731 NIL=
201404211800 AAXX 21184 67731 NIL=
201404211500 AAXX 21154 67731 NIL=
201404211200 AAXX 21124 67731 NIL=
201404210900 AAXX 21094 67731 NIL=
201404210600 AAXX 21064 67731 NIL=
201404202100 AAXX 20214 67731 NIL=
201404201800 AAXX 20184 67731 NIL=
201404201500 AAXX 20154 67731 NIL=
201404201200 AAXX 20124 67731 NIL=
201404200600 AAXX 20064 67731 NIL=
201404200000 AAXX 20004 67731 NIL=
201404192100 AAXX 19214 67731 NIL=
201404191800 AAXX 19184 67731 NIL=
201404191500 AAXX 19154 67731 NIL=
201404191200 AAXX 19124 67731 NIL=
201404190900 AAXX 19094 67731 NIL=
201404190600 AAXX 19060 67731 NIL=
201404190000 AAXX 19004 67731 NIL=
201404181800 AAXX 18184 67731 NIL=
201404181200 AAXX 18124 67731 NIL=
201404180900 AAXX 18094 67731 NIL=
201404180600 AAXX 18064 67731 NIL=
201404171500 AAXX 17154 67731 NIL=
201404171200 AAXX 17124 67731 NIL=
201404170900 AAXX 17094 67731 NIL=
201404170600 AAXX 17064 67731 NIL=
201404162100 AAXX 16214 67731 NIL=
201404161500 AAXX 16154 67731 NIL=
201404161200 AAXX 16124 67731 NIL=
201404160900 AAXX 16094 67731 NIL=
201404160600 AAXX 16064 67731 NIL=
201404160300 AAXX 16034 67731 NIL=
201404152100 AAXX 15214 67731 NIL=
201404151800 AAXX 15184 67731 NIL=
201404151500 AAXX 15154 67731 NIL=
201404151200 AAXX 15124 67731 NIL=
201404150900 AAXX 15094 67731 NIL=
201404150600 AAXX 15064 67731 NIL=
201404150300 AAXX 15034 67731 NIL=
201404142100 AAXX 14214 67731 NIL=
201404141200 AAXX 14124 67731 NIL=
201404140900 AAXX 14094 67731 NIL=
201404140600 AAXX 14064 67731 NIL=
201404140300 AAXX 14034 67731 NIL=
201404140000 AAXX 14004 67731 NIL=
201404131800 AAXX 13184 67731 NIL=
201404131500 AAXX 13154 67731 NIL=
201404131200 AAXX 13124 67731 NIL=
201404130900 AAXX 13094 67731 NIL=
201404130600 AAXX 13064 67731 NIL=
201404121800 AAXX 12184 67731 NIL=
201404121500 AAXX 12154 67731 NIL=
201404121200 AAXX 12124 67731 NIL=
201404120900 AAXX 12094 67731 NIL=
201404120600 AAXX 12064 67731 NIL=
201404111800 AAXX 11184 67731 NIL=
201404111500 AAXX 11154 67731 NIL=
201404111200 AAXX 11124 67731 NIL=
201404110900 AAXX 11094 67731 NIL=
201404110600 AAXX 11064 67731 NIL=
201404110300 AAXX 11034 67731 NIL=
201404110000 AAXX 11004 67731 NIL=
201404101200 AAXX 10124 67731 NIL=
201404100900 AAXX 10094 67731 NIL=
201404100600 AAXX 10064 67731 NIL=
201404092100 AAXX 09214 67731 NIL=
201404091500 AAXX 09154 67731 NIL=
201404091200 AAXX 09124 67731 NIL=
201404090900 AAXX 09094 67731 NIL=
201404090600 AAXX 09064 67731 NIL=
201404090300 AAXX 09034 67731 NIL=
201404082100 AAXX 08214 67731 NIL=
201404081800 AAXX 08184 67731 NIL=
201404081500 AAXX 08154 67731 NIL=
201404081200 AAXX 08124 67731 NIL=
201404080900 AAXX 08094 67731 NIL=
201404080600 AAXX 08064 67731 NIL=
201404080300 AAXX 08034 67731 NIL=
201404071800 AAXX 07184 67731 NIL=
201404071500 AAXX 07154 67731 NIL=
201404071200 AAXX 07124 67731 NIL=
201404020900 AAXX 02094 67731 NIL=
201404020600 AAXX 02064 67731 NIL=
201404020300 AAXX 02034 67731 NIL=
201404020000 AAXX 02004 67731 NIL=
201404012100 AAXX 01214 67731 NIL=
201404011800 AAXX 01184 67731 NIL=
201404011500 AAXX 01154 67731 NIL=
201404011200 AAXX 01124 67731 NIL=
201404010900 AAXX 01094 67731 NIL=
201404010600 AAXX 01064 67731 NIL=

################################################################################
#  SYNOPS from 67741, Sesheke (Zambia) | 17-28S | 024-18E | 949 m
################################################################################
201404302100 AAXX 30214 67741 NIL=
201404301200 AAXX 30124 67741 NIL=
201404300900 AAXX 30094 67741 NIL=
201404300600 AAXX 30064 67741 NIL=
201404300300 AAXX 30034 67741 NIL=
201404292100 AAXX 29214 67741 NIL=
201404291800 AAXX 29184 67741 NIL=
201404291500 AAXX 29154 67741 NIL=
201404291200 AAXX 29124 67741 NIL=
201404290900 AAXX 29094 67741 NIL=
201404290600 AAXX 29064 67741 NIL=
201404290300 AAXX 29034 67741 NIL=
201404290000 AAXX 29004 67741 NIL=
201404282100 AAXX 28214 67741 NIL=
201404281800 AAXX 28184 67741 NIL=
201404281500 AAXX 28154 67741 NIL=
201404281200 AAXX 28124 67741 NIL=
201404280900 AAXX 28094 67741 NIL=
201404280600 AAXX 28064 67741 NIL=
201404272100 AAXX 27214 67741 NIL=
201404271800 AAXX 27184 67741 NIL=
201404271500 AAXX 27154 67741 NIL=
201404271200 AAXX 27124 67741 NIL=
201404270600 AAXX 27060 67741 NIL=
201404261800 AAXX 26184 67741 NIL=
201404261500 AAXX 26154 67741 NIL=
201404261200 AAXX 26124 67741 NIL=
201404260900 AAXX 26094 67741 NIL=
201404260600 AAXX 26064 67741 NIL=
201404260300 AAXX 26034 67741 NIL=
201404251800 AAXX 25184 67741 NIL=
201404251500 AAXX 25154 67741 NIL=
201404251200 AAXX 25124 67741 NIL=
201404250900 AAXX 25094 67741 NIL=
201404250600 AAXX 25064 67741 NIL=
201404250300 AAXX 25034 67741 NIL=
201404250000 AAXX 25004 67741 NIL=
201404241200 AAXX 24124 67741 NIL=
201404240900 AAXX 24094 67741 NIL=
201404240600 AAXX 24064 67741 NIL=
201404231200 AAXX 23124 67741 NIL=
201404230900 AAXX 23094 67741 NIL=
201404230600 AAXX 23064 67741 NIL=
201404221200 AAXX 22124 67741 NIL=
201404220600 AAXX 22064 67741 NIL=
201404220300 AAXX 22034 67741 NIL=
201404212100 AAXX 21214 67741 NIL=
201404211800 AAXX 21184 67741 NIL=
201404211500 AAXX 21154 67741 NIL=
201404211200 AAXX 21124 67741 NIL=
201404210900 AAXX 21094 67741 NIL=
201404210600 AAXX 21064 67741 NIL=
201404202100 AAXX 20214 67741 NIL=
201404201800 AAXX 20184 67741 NIL=
201404201500 AAXX 20154 67741 NIL=
201404201200 AAXX 20124 67741 NIL=
201404200600 AAXX 20064 67741 NIL=
201404200000 AAXX 20004 67741 NIL=
201404192100 AAXX 19214 67741 NIL=
201404191800 AAXX 19184 67741 NIL=
201404191500 AAXX 19154 67741 NIL=
201404191200 AAXX 19124 67741 NIL=
201404190900 AAXX 19094 67741 NIL=
201404190600 AAXX 19060 67741 NIL=
201404190000 AAXX 19004 67741 NIL=
201404181800 AAXX 18184 67741 NIL=
201404181200 AAXX 18124 67741 NIL=
201404180900 AAXX 18094 67741 NIL=
201404180600 AAXX 18064 67741 NIL=
201404171500 AAXX 17154 67741 NIL=
201404171200 AAXX 17124 67741 NIL=
201404170900 AAXX 17094 67741 NIL=
201404170600 AAXX 17064 67741 NIL=
201404162100 AAXX 16214 67741 NIL=
201404161500 AAXX 16154 67741 NIL=
201404161200 AAXX 16124 67741 NIL=
201404160900 AAXX 16094 67741 NIL=
201404160600 AAXX 16064 67741 NIL=
201404160300 AAXX 16034 67741 NIL=
201404152100 AAXX 15214 67741 NIL=
201404151800 AAXX 15184 67741 NIL=
201404151500 AAXX 15154 67741 NIL=
201404151200 AAXX 15124 67741 NIL=
201404150900 AAXX 15094 67741 NIL=
201404150600 AAXX 15064 67741 NIL=
201404150300 AAXX 15034 67741 NIL=
201404142100 AAXX 14214 67741 NIL=
201404141200 AAXX 14124 67741 NIL=
201404140900 AAXX 14094 67741 NIL=
201404140600 AAXX 14064 67741 NIL=
201404140300 AAXX 14034 67741 NIL=
201404140000 AAXX 14004 67741 NIL=
201404131800 AAXX 13184 67741 NIL=
201404131500 AAXX 13154 67741 NIL=
201404131200 AAXX 13124 67741 NIL=
201404130900 AAXX 13094 67741 NIL=
201404130600 AAXX 13064 67741 NIL=
201404121800 AAXX 12184 67741 NIL=
201404121500 AAXX 12154 67741 NIL=
201404121200 AAXX 12124 67741 NIL=
201404120900 AAXX 12094 67741 NIL=
201404120600 AAXX 12064 67741 NIL=
201404111800 AAXX 11184 67741 NIL=
201404111500 AAXX 11154 67741 NIL=
201404111200 AAXX 11124 67741 NIL=
201404110900 AAXX 11094 67741 NIL=
201404110600 AAXX 11064 67741 NIL=
201404110300 AAXX 11034 67741 NIL=
201404110000 AAXX 11004 67741 NIL=
201404101200 AAXX 10124 67741 NIL=
201404100900 AAXX 10094 67741 NIL=
201404100600 AAXX 10064 67741 NIL=
201404092100 AAXX 09214 67741 NIL=
201404091500 AAXX 09154 67741 NIL=
201404091200 AAXX 09124 67741 NIL=
201404090900 AAXX 09094 67741 NIL=
201404090600 AAXX 09064 67741 NIL=
201404090300 AAXX 09034 67741 NIL=
201404082100 AAXX 08214 67741 NIL=
201404081800 AAXX 08184 67741 NIL=
201404081500 AAXX 08154 67741 NIL=
201404081200 AAXX 08124 67741 NIL=
201404080900 AAXX 08094 67741 NIL=
201404080600 AAXX 08064 67741 NIL=
201404080300 AAXX 08034 67741 NIL=
201404071800 AAXX 07184 67741 NIL=
201404071500 AAXX 07154 67741 NIL=
201404071200 AAXX 07124 67741 NIL=
201404020900 AAXX 02094 67741 NIL=
201404020600 AAXX 02064 67741 NIL=
201404020300 AAXX 02034 67741 NIL=
201404020000 AAXX 02004 67741 NIL=
201404012100 AAXX 01214 67741 NIL=
201404011800 AAXX 01184 67741 NIL=
201404011500 AAXX 01154 67741 NIL=
201404011200 AAXX 01124 67741 NIL=
201404010900 AAXX 01094 67741 NIL=
201404010600 AAXX 01064 67741 NIL=

################################################################################
#  SYNOPS from 67743, Livingstone (Zambia) | 17-49S | 025-49E | 985 m
################################################################################
201404302100 AAXX 30214 67743 NIL=
201404301200 AAXX 30124 67743 NIL=
201404300900 AAXX 30094 67743 NIL=
201404300600 AAXX 30064 67743 NIL=
201404300300 AAXX 30034 67743 NIL=
201404292100 AAXX 29214 67743 NIL=
201404291800 AAXX 29184 67743 NIL=
201404291500 AAXX 29154 67743 NIL=
201404291200 AAXX 29124 67743 NIL=
201404290900 AAXX 29094 67743 NIL=
201404290600 AAXX 29064 67743 NIL=
201404290300 AAXX 29034 67743 NIL=
201404290000 AAXX 29004 67743 NIL=
201404282100 AAXX 28214 67743 NIL=
201404281800 AAXX 28184 67743 NIL=
201404281500 AAXX 28154 67743 NIL=
201404281200 AAXX 28124 67743 NIL=
201404280900 AAXX 28094 67743 NIL=
201404280600 AAXX 28064 67743 NIL=
201404272100 AAXX 27214 67743 NIL=
201404271800 AAXX 27184 67743 NIL=
201404271500 AAXX 27154 67743 NIL=
201404271200 AAXX 27124 67743 NIL=
201404270600 AAXX 27060 67743 NIL=
201404261800 AAXX 26184 67743 NIL=
201404261500 AAXX 26154 67743 NIL=
201404261200 AAXX 26124 67743 NIL=
201404260900 AAXX 26094 67743 NIL=
201404260600 AAXX 26064 67743 NIL=
201404260300 AAXX 26034 67743 NIL=
201404251800 AAXX 25184 67743 NIL=
201404251500 AAXX 25154 67743 NIL=
201404251200 AAXX 25124 67743 NIL=
201404250900 AAXX 25094 67743 NIL=
201404250600 AAXX 25064 67743 NIL=
201404250300 AAXX 25034 67743 NIL=
201404250000 AAXX 25004 67743 NIL=
201404241200 AAXX 24124 67743 NIL=
201404240900 AAXX 24094 67743 NIL=
201404240600 AAXX 24064 67743 NIL=
201404231200 AAXX 23124 67743 NIL=
201404230900 AAXX 23094 67743 42980 12503 10283 20142 48535 81030
                   333 59011 81360 91018=
201404230600 AAXX 23064 67743 42980 00000 10206 20159 70200
                   333 10312 20134 58008
                   555 91019=
201404221200 AAXX 22124 67743 NIL=
201404220600 AAXX 22064 67743 32980 41802 10180 20126 48514 70100 84030
                   333 10300 20145 59030 84360
                   555 00/// 91020=
201404220300 AAXX 22034 67743 NIL=
201404212100 AAXX 21214 67743 NIL=
201404211800 AAXX 21184 67743 NIL=
201404211500 AAXX 21154 67743 NIL=
201404211200 AAXX 21124 67743 NIL=
201404210900 AAXX 21094 67743 NIL=
201404210600 AAXX 21064 67743 32980 11405 10183 20131 48550 80001
                   333 10310 20124 81080
                   555 00/// 91021=
201404202100 AAXX 20214 67743 NIL=
201404201800 AAXX 20184 67743 NIL=
201404201500 AAXX 20154 67743 NIL=
201404201200 AAXX 20124 67743 NIL=
201404200600 AAXX 20064 67743 NIL=
201404200000 AAXX 20004 67743 NIL=
201404192100 AAXX 19214 67743 NIL=
201404191800 AAXX 19184 67743 NIL=
201404191500 AAXX 19154 67743 NIL=
201404191200 AAXX 19124 67743 NIL=
201404190900 AAXX 19094 67743 NIL=
201404190600 AAXX 19060 67743 NIL=
201404190000 AAXX 19004 67743 NIL=
201404181800 AAXX 18184 67743 NIL=
201404181200 AAXX 18124 67743 NIL=
201404180900 AAXX 18094 67743 NIL=
201404180600 AAXX 18064 67743 NIL=
201404171500 AAXX 17154 67743 NIL=
201404171200 AAXX 17124 67743 NIL=
201404170900 AAXX 17094 67743 NIL=
201404170600 AAXX 17064 67743 32980 11110 10195 20153 48554 81030
                   333 10308 20170 58011 81360
                   555 91022=
201404162100 AAXX 16214 67743 NIL=
201404161500 AAXX 16154 67743 NIL=
201404161200 AAXX 16124 67743 NIL=
201404160900 AAXX 16094 67743 NIL=
201404160600 AAXX 16064 67743 NIL=
201404160300 AAXX 16034 67743 NIL=
201404152100 AAXX 15214 67743 NIL=
201404151800 AAXX 15184 67743 NIL=
201404151500 AAXX 15154 67743 NIL=
201404151200 AAXX 15124 67743 NIL=
201404150900 AAXX 15094 67743 NIL=
201404150600 AAXX 15064 67743 32980 10000 10211 20163 48539 70300 81030
                   333 10311 20151 59026 81360
                   555 00/// BB/// CC151 DD/// Q1020.5=
201404150300 AAXX 15034 67743 NIL=
201404142100 AAXX 14214 67743 NIL=
201404141200 AAXX 14124 67743 42680 50805 10282 20154 48557 70322 85200
                   333 58004 85840 91021=
201404140900 AAXX 14094 67743 NIL=
201404140600 AAXX 14064 67743 32980 21206 10190 20165 48557 82030
                   333 10295 20150 59001 82360
                   555 00/// 91023=
201404140300 AAXX 14034 67743 NIL=
201404140000 AAXX 14004 67743 NIL=
201404131800 AAXX 13184 67743 NIL=
201404131500 AAXX 13154 67743 NIL=
201404131200 AAXX 13124 67743 NIL=
201404130900 AAXX 13094 67743 42680 51010 10237 20167 48570 85200
                   333 59017 85830 91023=
201404130600 AAXX 13064 67743 32980 41009 10184 20154 48560 84031
                   333 10245 20160 59015 84359 81080
                   555 91023=
201404121800 AAXX 12184 67743 NIL=
201404121500 AAXX 12154 67743 NIL=
201404121200 AAXX 12124 67743 NIL=
201404120900 AAXX 12094 67743 42480 81009 10195 20172 48578 86571
                   333 58003 86610 88358 91025=
201404120600 AAXX 12064 67743 12380 81111 10161 48570 60054 887//
                   333 10209 20155 58010 88708
                   555 00/// 91025=
201404111800 AAXX 11184 67743 NIL=
201404111500 AAXX 11154 67743 NIL=
201404111200 AAXX 11124 67743 NIL=
201404110900 AAXX 11094 67743 NIL=
201404110600 AAXX 11064 67743 NIL=
201404110300 AAXX 11034 67743 NIL=
201404110000 AAXX 11004 67743 NIL=
201404101500 AAXX 10154 67743 42680 81011 10201 20136 48551 8253/
                   333 58011 82630 87360=
201404101200 AAXX 10124 67743 42580 81210 10189 20151 48556 70250 8553/
                   333 58012 85625 83360
                   555 91022=
201404100900 AAXX 10094 67743 42580 80914 10206 20142 48570 885//
                   333 58002 88625 91024=
201404100600 AAXX 10064 67743 32980 41207 10172 20130 48558 84030
                   333 10275 20155 59007 84359
                   555 91023=
201404092100 AAXX 09214 67743 NIL=
201404091500 AAXX 09154 67743 NIL=
201404091200 AAXX 09124 67743 NIL=
201404090900 AAXX 09094 67743 42580 81009 10236 20147 48574 81131
                   333 59007 81830 83360 84080 91024=
201404090600 AAXX 09064 67743 NIL=
201404090300 AAXX 09034 67743 NIL=
201404082100 AAXX 08214 67743 NIL=
201404081800 AAXX 08184 67743 NIL=
201404081500 AAXX 08154 67743 NIL=
201404081200 AAXX 08124 67743 NIL=
201404080900 AAXX 08094 67743 NIL=
201404080600 AAXX 08064 67743 NIL=
201404080300 AAXX 08034 67743 NIL=
201404071800 AAXX 07184 67743 NIL=
201404071500 AAXX 07154 67743 42680 21210 10276 20140 48546 81101
                   333 58014 82850 81080=
201404071200 AAXX 07124 67743 42580 30807 20172 48554 82131
                   333 58012 82835 81360 82080 91021=
201404070600 AAXX 07064 67743 32980 21212 10109 20041 48560 81031
                   333 10295 20167 58014 81360 81080
                   555 91023=
201404061500 AAXX 06154 67743 42680 21111 10280 20147 48535 82201
                   333 59021 82835 81080=
201404061200 AAXX 06124 67743 42680 41209 10287 20156 48547 84201
                   333 59010 84830 81080 91019=
201404060900 AAXX 06094 67743 42580 21212 10256 20164 48561 82131
                   333 59004 82825 81360 81080 91021=
201404060600 AAXX 06064 67743 32980 11110 10215 20169 48553 81031
                   333 10312 20185 59005 81360 81080
                   555 00/// 91021=
201404041500 AAXX 04154 67743 42680 53602 10294 20187 48518 83230
                   333 58014 83840 82360=
201404041200 AAXX 04124 67743 42680 41004 10310 20151 48533 84200
                   333 58010 84840 555 91018=
201404040600 AAXX 04064 67743 32980 21303 10229 20159 82031
                   333 10328 20168 58015 82359 81080
                   555 91020=
201404030600 AAXX 03064 67743 32980 21005 10222 20168 48530 81031
                   333 10335 20170 58004 81360 81080
                   555 00/// 91019=
201404020900 AAXX 02094 67743 NIL=
201404020600 AAXX 02064 67743 NIL=
201404020300 AAXX 02034 67743 NIL=
201404020000 AAXX 02004 67743 NIL=
201404012100 AAXX 01214 67743 NIL=
201404011800 AAXX 01184 67743 NIL=
201404011500 AAXX 01154 67743 42680 20807 10291 20186 48504 81130
                   333 59008 81840 81360=
201404011200 AAXX 01124 67743 42680 30712 10285 20203 48519 83130
                   333 59002 83835 81360 91016=
201404010900 AAXX 01094 67743 42680 41005 10277 20195 48540 84230
                   333 59005 84830 81360 91019=
201404010600 AAXX 01064 67743 32980 20503 10218 20178 48527 82030
                   333 10320 20174 59005 82360
                   555 00/// 91018=

################################################################################
#  SYNOPS from 67751, Magoye (Zambia) | 16-00S | 027-36E | 1018 m
################################################################################
201404302100 AAXX 30214 67751 NIL=
201404301200 AAXX 30124 67751 NIL=
201404300900 AAXX 30094 67751 NIL=
201404300600 AAXX 30064 67751 NIL=
201404300300 AAXX 30034 67751 NIL=
201404292100 AAXX 29214 67751 NIL=
201404291800 AAXX 29184 67751 NIL=
201404291500 AAXX 29154 67751 NIL=
201404291200 AAXX 29124 67751 NIL=
201404290900 AAXX 29094 67751 NIL=
201404290600 AAXX 29064 67751 NIL=
201404290300 AAXX 29034 67751 NIL=
201404290000 AAXX 29004 67751 NIL=
201404282100 AAXX 28214 67751 NIL=
201404281800 AAXX 28184 67751 NIL=
201404281500 AAXX 28154 67751 NIL=
201404281200 AAXX 28124 67751 NIL=
201404280900 AAXX 28094 67751 NIL=
201404280600 AAXX 28064 67751 NIL=
201404272100 AAXX 27214 67751 NIL=
201404271800 AAXX 27184 67751 NIL=
201404271500 AAXX 27154 67751 NIL=
201404271200 AAXX 27124 67751 NIL=
201404270600 AAXX 27060 67751 NIL=
201404261800 AAXX 26184 67751 NIL=
201404261500 AAXX 26154 67751 NIL=
201404261200 AAXX 26124 67751 NIL=
201404260900 AAXX 26094 67751 NIL=
201404260600 AAXX 26064 67751 NIL=
201404260300 AAXX 26034 67751 NIL=
201404251800 AAXX 25184 67751 NIL=
201404251500 AAXX 25154 67751 NIL=
201404251200 AAXX 25124 67751 NIL=
201404250900 AAXX 25094 67751 NIL=
201404250600 AAXX 25064 67751 NIL=
201404250300 AAXX 25034 67751 NIL=
201404250000 AAXX 25004 67751 NIL=
201404241200 AAXX 24124 67751 NIL=
201404240900 AAXX 24094 67751 NIL=
201404240600 AAXX 24064 67751 NIL=
201404231200 AAXX 23124 67751 NIL=
201404230900 AAXX 23094 67751 NIL=
201404230600 AAXX 23064 67751 NIL=
201404221200 AAXX 22124 67751 NIL=
201404220600 AAXX 22064 67751 NIL=
201404220300 AAXX 22034 67751 NIL=
201404212100 AAXX 21214 67751 NIL=
201404211800 AAXX 21184 67751 NIL=
201404211500 AAXX 21154 67751 NIL=
201404211200 AAXX 21124 67751 NIL=
201404210900 AAXX 21094 67751 NIL=
201404210600 AAXX 21064 67751 NIL=
201404202100 AAXX 20214 67751 NIL=
201404201800 AAXX 20184 67751 NIL=
201404201500 AAXX 20154 67751 NIL=
201404201200 AAXX 20124 67751 NIL=
201404200600 AAXX 20064 67751 NIL=
201404200000 AAXX 20004 67751 NIL=
201404192100 AAXX 19214 67751 NIL=
201404191800 AAXX 19184 67751 NIL=
201404191500 AAXX 19154 67751 NIL=
201404191200 AAXX 19124 67751 NIL=
201404190900 AAXX 19094 67751 NIL=
201404190600 AAXX 19060 67751 NIL=
201404190000 AAXX 19004 67751 NIL=
201404181800 AAXX 18184 67751 NIL=
201404181200 AAXX 18124 67751 NIL=
201404180900 AAXX 18094 67751 NIL=
201404180600 AAXX 18064 67751 NIL=
201404171500 AAXX 17154 67751 NIL=
201404171200 AAXX 17124 67751 NIL=
201404170900 AAXX 17094 67751 NIL=
201404170600 AAXX 17064 67751 NIL=
201404162100 AAXX 16214 67751 NIL=
201404161500 AAXX 16154 67751 NIL=
201404161200 AAXX 16124 67751 NIL=
201404160900 AAXX 16094 67751 NIL=
201404160600 AAXX 16064 67751 NIL=
201404160300 AAXX 16034 67751 NIL=
201404152100 AAXX 15214 67751 NIL=
201404151800 AAXX 15184 67751 NIL=
201404151500 AAXX 15154 67751 NIL=
201404151200 AAXX 15124 67751 NIL=
201404150900 AAXX 15094 67751 NIL=
201404150600 AAXX 15064 67751 NIL=
201404150300 AAXX 15034 67751 NIL=
201404142100 AAXX 14214 67751 NIL=
201404141200 AAXX 14124 67751 NIL=
201404140900 AAXX 14094 67751 NIL=
201404140600 AAXX 14064 67751 NIL=
201404140300 AAXX 14034 67751 NIL=
201404140000 AAXX 14004 67751 NIL=
201404131800 AAXX 13184 67751 NIL=
201404131500 AAXX 13154 67751 NIL=
201404131200 AAXX 13124 67751 NIL=
201404130900 AAXX 13094 67751 NIL=
201404130600 AAXX 13064 67751 NIL=
201404121800 AAXX 12184 67751 NIL=
201404121500 AAXX 12154 67751 NIL=
201404121200 AAXX 12124 67751 NIL=
201404120900 AAXX 12094 67751 NIL=
201404120600 AAXX 12064 67751 NIL=
201404111800 AAXX 11184 67751 NIL=
201404111500 AAXX 11154 67751 NIL=
201404111200 AAXX 11124 67751 NIL=
201404110900 AAXX 11094 67751 NIL=
201404110600 AAXX 11064 67751 NIL=
201404110300 AAXX 11034 67751 NIL=
201404110000 AAXX 11004 67751 NIL=
201404101200 AAXX 10124 67751 NIL=
201404100900 AAXX 10094 67751 NIL=
201404100600 AAXX 10064 67751 NIL=
201404092100 AAXX 09214 67751 NIL=
201404091500 AAXX 09154 67751 NIL=
201404091200 AAXX 09124 67751 NIL=
201404090900 AAXX 09094 67751 NIL=
201404090600 AAXX 09064 67751 NIL=
201404090300 AAXX 09034 67751 NIL=
201404082100 AAXX 08214 67751 NIL=
201404081800 AAXX 08184 67751 NIL=
201404081500 AAXX 08154 67751 NIL=
201404081200 AAXX 08124 67751 NIL=
201404080900 AAXX 08094 67751 NIL=
201404080600 AAXX 08064 67751 NIL=
201404080300 AAXX 08034 67751 NIL=
201404071800 AAXX 07184 67751 NIL=
201404071500 AAXX 07154 67751 NIL=
201404071200 AAXX 07124 67751 NIL=
201404020900 AAXX 02094 67751 NIL=
201404020600 AAXX 02064 67751 NIL=
201404020300 AAXX 02034 67751 NIL=
201404020000 AAXX 02004 67751 NIL=
201404012100 AAXX 01214 67751 NIL=
201404011800 AAXX 01184 67751 NIL=
201404011500 AAXX 01154 67751 NIL=
201404011200 AAXX 01124 67751 NIL=
201404010900 AAXX 01094 67751 NIL=
201404010600 AAXX 01064 67751 NIL=

################################################################################
#  SYNOPS from 67753, Choma (Zambia) | 16-50S | 027-04E | 1213 m
################################################################################
201404302100 AAXX 30214 67753 NIL=
201404301200 AAXX 30124 67753 NIL=
201404300900 AAXX 30094 67753 NIL=
201404300600 AAXX 30064 67753 32960 10000 10168 20145 48545 81040
                   333 10253 20110 59012 81360=
201404300300 AAXX 30034 67753 NIL=
201404292100 AAXX 29214 67753 NIL=
201404291800 AAXX 29184 67753 NIL=
201404291500 AAXX 29154 67753 NIL=
201404291200 AAXX 29124 67753 NIL=
201404290900 AAXX 29094 67753 NIL=
201404290600 AAXX 29064 67753 32560 30511 10179 20158 48517 83800
                   333 10255 20124 58033 82620 81825
                   555 00///=
201404290300 AAXX 29034 67753 NIL=
201404290000 AAXX 29004 67753 NIL=
201404282100 AAXX 28214 67753 NIL=
201404281800 AAXX 28184 67753 NIL=
201404281500 AAXX 28154 67753 NIL=
201404281200 AAXX 28124 67753 NIL=
201404280900 AAXX 28094 67753 NIL=
201404280600 AAXX 28064 67753 31560 31307 10200 20185 48549 72822 82804
                   333 10280 20155 58040 81620 81825 81080=
201404272100 AAXX 27214 67753 NIL=
201404271800 AAXX 27184 67753 NIL=
201404271500 AAXX 27154 67753 NIL=
201404271200 AAXX 27124 67753 NIL=
201404270600 AAXX 27060 67753 NIL=
201404261800 AAXX 26184 67753 NIL=
201404261500 AAXX 26154 67753 NIL=
201404261200 AAXX 26124 67753 NIL=
201404260900 AAXX 26094 67753 NIL=
201404260600 AAXX 26064 67753 NIL=
201404260300 AAXX 26034 67753 NIL=
201404251800 AAXX 25184 67753 NIL=
201404251500 AAXX 25154 67753 NIL=
201404251200 AAXX 25124 67753 NIL=
201404250900 AAXX 25094 67753 NIL=
201404250600 AAXX 25064 67753 NIL=
201404250300 AAXX 25034 67753 NIL=
201404250000 AAXX 25004 67753 NIL=
201404241200 AAXX 24124 67753 NIL=
201404240900 AAXX 24094 67753 NIL=
201404240600 AAXX 24064 67753 32960 51206 10205 20166 48521 85030
                   333 10300 20161 58046 85360=
201404231200 AAXX 23124 67753 NIL=
201404230900 AAXX 23094 67753 NIL=
201404230600 AAXX 23064 67753 32960 03509 10205 20135 48529
                   333 10278 20118 58064=
201404221200 AAXX 22124 67753 NIL=
201404220600 AAXX 22064 67753 32960 30110 10199 20143 48529 82032
                   333 10270 20115 58091 82360 81080=
201404220300 AAXX 22034 67753 NIL=
201404212100 AAXX 21214 67753 NIL=
201404211800 AAXX 21184 67753 NIL=
201404211500 AAXX 21154 67753 NIL=
201404211200 AAXX 21124 67753 NIL=
201404210900 AAXX 21094 67753 NIL=
201404210600 AAXX 21064 67753 NIL=
201404202100 AAXX 20214 67753 NIL=
201404201800 AAXX 20184 67753 NIL=
201404201500 AAXX 20154 67753 NIL=
201404201200 AAXX 20124 67753 NIL=
201404200600 AAXX 20064 67753 NIL=
201404200000 AAXX 20004 67753 NIL=
201404192100 AAXX 19214 67753 NIL=
201404191800 AAXX 19184 67753 NIL=
201404191500 AAXX 19154 67753 NIL=
201404191200 AAXX 19124 67753 NIL=
201404190900 AAXX 19094 67753 NIL=
201404190600 AAXX 19064 67753 NIL=
201404190000 AAXX 19004 67753 NIL=
201404181800 AAXX 18184 67753 NIL=
201404181200 AAXX 18124 67753 NIL=
201404180900 AAXX 18094 67753 NIL=
201404180600 AAXX 18064 67753 NIL=
201404171500 AAXX 17154 67753 NIL=
201404171200 AAXX 17124 67753 NIL=
201404170900 AAXX 17094 67753 NIL=
201404170600 AAXX 17064 67753 12560 71315 10172 20154 48545 69984 8554/
                   333 10277 20149 58011 85620 82360=
201404162100 AAXX 16214 67753 NIL=
201404161500 AAXX 16154 67753 NIL=
201404161200 AAXX 16124 67753 NIL=
201404160900 AAXX 16094 67753 NIL=
201404160600 AAXX 16064 67753 32960 00612 10205 20181 48540
                   333 10260 20135 58003
                   555 00///=
201404160300 AAXX 16034 67753 NIL=
201404152100 AAXX 15214 67753 NIL=
201404151800 AAXX 15184 67753 NIL=
201404151500 AAXX 15154 67753 NIL=
201404151200 AAXX 15124 67753 NIL=
201404150900 AAXX 15094 67753 NIL=
201404150600 AAXX 15064 67753 32960 11107 10202 20174 48539 81040
                   333 10257 20125 59025 81360=
201404150300 AAXX 15034 67753 NIL=
201404142100 AAXX 14214 67753 NIL=
201404141200 AAXX 14124 67753 NIL=
201404140900 AAXX 14094 67753 NIL=
201404140600 AAXX 14064 67753 32560 20820 10194 20159 48557 81230
                   333 10255 20154 58014 81825 81360
                   555 00///=
201404140300 AAXX 14034 67753 NIL=
201404140000 AAXX 14004 67753 NIL=
201404131800 AAXX 13184 67753 NIL=
201404131500 AAXX 13154 67753 NIL=
201404131200 AAXX 13124 67753 NIL=
201404130900 AAXX 13094 67753 NIL=
201404130600 AAXX 13064 67753 NIL=
201404121800 AAXX 12184 67753 NIL=
201404121500 AAXX 12154 67753 NIL=
201404121200 AAXX 12124 67753 NIL=
201404120900 AAXX 12094 67753 NIL=
201404120600 AAXX 12064 67753 NIL=
201404111800 AAXX 11184 67753 NIL=
201404111500 AAXX 11154 67753 NIL=
201404111200 AAXX 11124 67753 NIL=
201404110900 AAXX 11094 67753 NIL=
201404110600 AAXX 11064 67753 11550 80911 10156 20154 48554 60124 76062 8255/
                   333 10184 20144 58036 82620 86360=
201404110300 AAXX 11034 67753 NIL=
201404110000 AAXX 11004 67753 NIL=
201404101200 AAXX 10124 67753 NIL=
201404100900 AAXX 10094 67753 NIL=
201404100600 AAXX 10064 67753 11560 80620 10161 20154 48554 72162 8535/
                   333 10222 20146 59049 83620 85360=
201404092100 AAXX 09214 67753 NIL=
201404091500 AAXX 09154 67753 NIL=
201404091200 AAXX 09124 67753 NIL=
201404090900 AAXX 09094 67753 NIL=
201404090600 AAXX 09064 67753 32560 71406 10168 20144 48555 8483/
                   333 10230 20125 58024 83620 81825 83360=
201404090300 AAXX 09034 67753 NIL=
201404082100 AAXX 08214 67753 NIL=
201404081800 AAXX 08184 67753 NIL=
201404081500 AAXX 08154 67753 NIL=
201404081200 AAXX 08124 67753 NIL=
201404080900 AAXX 08094 67753 NIL=
201404080600 AAXX 08064 67753 32560 61011 10182 20155 48566 81532
                   333 10255 20138 58016 81620 84360 82080
                   555 00///=
201404080300 AAXX 08034 67753 NIL=
201404071800 AAXX 07184 67753 NIL=
201404071500 AAXX 07154 67753 NIL=
201404071200 AAXX 07124 67753 NIL=
201404020900 AAXX 02094 67753 NIL=
201404020600 AAXX 02064 67753 32960 20514 10219 20181 48531 82034
                   333 10275 20175 59032 82360 81080=
201404020300 AAXX 02034 67753 NIL=
201404020000 AAXX 02004 67753 NIL=
201404012100 AAXX 01214 67753 NIL=
201404011800 AAXX 01184 67753 NIL=
201404011500 AAXX 01154 67753 NIL=
201404011200 AAXX 01124 67753 NIL=
201404010900 AAXX 01094 67753 NIL=
201404010600 AAXX 01064 67753 32560 40510 10209 20184 48530 81130
                   333 10278 20165 59021 81820 83360=

################################################################################
#  SYNOPS from 67855, Lupaki (Zambia) | 17-03-00S | 024-46-00E | 1000 m
################################################################################
201404301200 AAXX 30124 67855 41970 03003 10286 20131 3//// 48/// 70500
                   333 5////=
201404300600 AAXX 30064 67855 00000 10134 20112 3//// 48/// 70500
                   333 20093 5////=
201404291800 AAXX 29184 67855 NIL=
201404291200 AAXX 29124 67855 42975 01803 10212 20104 3//// 48///
                   333 5////=
201404290600 AAXX 29064 67855 32975 00601 10156 20129 3//// 48///
                   333 20112 5////=
201404281200 AAXX 28124 67855 NIL=
201404280600 AAXX 28064 67855 NIL=
201404271200 AAXX 27124 67855 NIL=
201404261200 AAXX 26124 67855 42775 50000 10286 20181 3//// 48/// 85231
                   333 59002 83850=
201404260600 AAXX 26064 67855 NIL=
201404251800 AAXX 25184 67855 NIL=
201404251200 AAXX 25124 67855 NIL=
201404250600 AAXX 25064 67855 12975 70000 10186 20161 3//// 48/// 69904 8703/
                   333 5//// 87360=
201404241800 AAXX 24184 67855 NIL=
201404241200 AAXX 24124 67855 NIL=
201404240600 AAXX 24064 67855 NIL=
201404231800 AAXX 23184 67855 NIL=
201404231200 AAXX 23124 67855 41770 43601 10296 20139 3//// 48/// 70500 84131
                   333 5//// 83856=
201404230600 AAXX 23064 67855 31970 40000 10150 20137 3//// 48/// 70500 80001
                   333 20118 5//// 84080=
201404221800 AAXX 22184 67855 NIL=
201404221200 AAXX 22124 67855 41670 70000 10290 20134 3//// 48/// 70522 83202
                   333 5//// 83845 87080=
201404220600 AAXX 22064 67855 31970 60000 10152 20114 3//// 48/// 70511 80002
                   333 5//// 86080=
201404211800 AAXX 21184 67855 NIL=
201404211200 AAXX 21124 67855 NIL=
201404210600 AAXX 21064 67855 31970 10000 10130 20123 3//// 48/// 81031
                   333 20082 5//// 81360=
201404201800 AAXX 20184 67855 NIL=
201404201200 AAXX 20124 67855 41770 41801 10278 20161 3//// 48/// 70500 84101
                   333 5//// 84850=
201404200600 AAXX 20064 67855 32975 30901 10168 20118 3//// 48/// 80001
                   333 20109 5//// 83080=
201404191200 AAXX 19124 67855 NIL=
201404190600 AAXX 19064 67855 32575 20000 10160 20140 3//// 48/// 82530
                   333 20109 5//// 82620=
201404181800 AAXX 18184 67855 NIL=
201404181200 AAXX 18124 67855 NIL=
201404180600 AAXX 18064 67855 32570 12001 10146 20136 3//// 4//// 70500 81500
                   333 20123 5//// 81620=
201404171200 AAXX 17124 67855 42675 71203 10242 20158 3//// 4//// 8553/
                   333 5//// 85635 87360=
201404170600 AAXX 17064 67855 NIL=
201404161200 AAXX 16124 67855 41670 40602 10292 20174 3//// 48/// 70511 82230
                   333 5//// 82845 84360=
201404160600 AAXX 16064 67855 31970 40901 10190 20163 3//// 48/// 70500 84030
                   333 20158 5//// 84360=
201404151200 AAXX 15124 67855 42675 32001 10268 20162 3//// 48/// 83260
                   333 5//// 83845=
201404150600 AAXX 15064 67855 32975 01901 10172 20157 3//// 48///
                   333 20148 5////=
201404141200 AAXX 14124 67855 42675 63602 10264 20185 3//// 48/// 86531
                   333 5//// 86640=
201404140600 AAXX 14064 67855 NIL=
201404131200 AAXX 13124 67855 NIL=
201404130600 AAXX 13064 67855 12975 70902 10168 20135 3//// 4//// 60014 87071
                   333 20139 5//// 87459=
201404121800 AAXX 12184 67855 NIL=
201404121200 AAXX 12124 67855 42675 71804 10260 20170 3//// 4//// 8557/
                   333 5//// 85640 87459=
201404120600 AAXX 12064 67855 41675 60706 10232 20169 3//// 48/// 82531
                   333 5//// 82630 86360=
201404111200 AAXX 11124 67855 NIL=
201404110600 AAXX 11064 67855 11970 71802 10158 20156 3//// 48/// 60054 76162 8707/
                   333 20153 5//// 87458=
201404101200 AAXX 10124 67855 41675 70000 10220 20154 3//// 48/// 75051 85572
                   333 5//// 85630 87459=
201404091800 AAXX 09184 67855 NIL=
201404091200 AAXX 09124 67855 41670 71803 10250 20140 3//// 48/// 72582 85232
                   333 5//// 85835 87360=
201404090600 AAXX 09064 67855 31970 60605 10170 20130 3//// 48/// 70511 86030
                   333 20120 5//// 86360=
201404081200 AAXX 08124 67855 41670 50602 10278 20134 3//// 4//// 70511 85531
                   333 5//// 85645=
201404080600 AAXX 08064 67855 31570 31302 10156 20111 3//// 4//// 70500 81531
                   333 20108 5//// 81620 83360=
201404071800 AAXX 07184 67855 NIL=
201404071200 AAXX 07124 67855 41670 40902 10282 20131 3//// 4//// 70500 81531
                   333 5//// 81645 84080=
201404070600 AAXX 07064 67855 31570 10703 10142 20124 3//// 48/// 70500 81500
                   333 20105 5//// 81620=
201404061800 AAXX 06184 67855 NIL=
201404061200 AAXX 06124 67855 NIL=
201404060600 AAXX 06064 67855 12975 11204 10180 20165 3//// 48/// 69904 81031
                   333 20163 5//// 81360=
201404051800 AAXX 05184 67855 NIL=
201404051200 AAXX 05124 67855 41770 50000 10318 20156 3//// 48/// 70511 85231
                   333 5//// 85850=
201404050600 AAXX 05064 67855 NIL=
201404041200 AAXX 04124 67855 42775 50000 10302 20190 3//// 48/// 85231
                   333 5//// 85850=
201404040600 AAXX 04064 67855 32975 10602 10210 20164 3//// 48/// 81031
                   333 20186 5//// 81360=
201404031200 AAXX 03124 67855 NIL=
201404030600 AAXX 03064 67855 31970 10000 10204 20177 3//// 4//// 70500 81030
                   333 20154 5//// 81360=
201404021200 AAXX 02124 67855 42775 53604 10322 20176 3//// 4//// 85230
                   333 5//// 85850=
201404020600 AAXX 02064 67855 12975 10000 10196 20168 3//// 48/// 69904 80001
                   333 20153 5//// 81080=
201404011800 AAXX 01184 67855 NIL=
201404011200 AAXX 01124 67855 41770 50000 10290 20185 3//// 48/// 70511 85200
                   333 5//// 85850=
201404010600 AAXX 01064 67855 31970 00302 10200 20160 3//// 48/// 70500
                   333 20144 5////=
