################################################################################
# Query made at 04/15/2022 01:49:10 UTC
# Country like Zamb*
# Time interval: from 01/01/2010 05:30  to 01/31/2010 06:30  UTC
################################################################################

################################################################################
#  SYNOPS from 67413, Mbala (Zambia) | 08-51S | 031-20E | 1673 m
################################################################################
201001260900 AAXX 26094 67413 42570 62606 10243 20169 48518 81131
                   333 58003 81820 86359 81080=

################################################################################
#  SYNOPS from 67441, Mwinilunga (Zambia) | 11-45S | 024-26E | 1361 m
################################################################################
201001290600 AAXX 29064 67441 NIL=
201001260600 AAXX 26064 67441 12980 60000 10195 20184 48547 60074 86030
                   333 10270 20/// 5//// 86360=
201001250600 AAXX 25064 67441 NIL=
201001190600 AAXX 19064 67441 NIL=
201001180600 AAXX 18064 67441 12580 30000 10190 20175 48576 60014 83100
                   333 10272 20/// 58001 83818=
201001110600 AAXX 11064 67441 11580 50000 10217 20187 48538 69984 72840 81131
                   333 10303 20/// 59002 81820 84360 81080=
201001060600 AAXX 06064 67441 NIL=

################################################################################
#  SYNOPS from 67461, Mansa (Zambia) | 11-06S | 028-51E | 1382 m
################################################################################
201001290600 AAXX 29064 67461 32975 80000 10211 20197 48503 86078
                   333 10280 20181 59008 86461 88280=
201001260600 AAXX 26064 67461 12580 70000 10210 20194 48517 60014 81578
                   333 10289 20181 58005 81620 87461 85280=
201001250600 AAXX 25064 67461 NIL=
201001190600 AAXX 19064 67461 32580 73603 10195 20185 48524 82530
                   333 10255 20173 59024 82620 86362=
201001180600 AAXX 18064 67461 11465 82402 10189 20189 48553 60014 74142 885//
                   333 10290 20172 58011 88618=
201001110600 AAXX 11064 67461 12575 62501 10209 20188 48510 60054 83530
                   333 10280 20175 59006 83620 85361=
201001060600 AAXX 06064 67461 32580 71202 10218 20191 48516 72992 82538
                   333 10270 20178 59008 81920 82620 84362 86280=

################################################################################
#  SYNOPS from 67475, Kasama (Zambia) | 10-13S | 031-08E | 1382 m
################################################################################
201001290600 AAXX 29064 67475 12980 73509 10228 20198 48510 69904 82037
                   333 10270 20183 59006 84361 87280=
201001260600 AAXX 26064 67475 12680 62702 10220 20182 48516 60044 81932
                   333 10295 20162 58000 81935 84361 86080=
201001250600 AAXX 25064 67475 12980 60000 10204 20192 48516 60154 86030
                   333 10272 20166 59002 86360=
201001200600 AAXX 20064 67475 12480 70000 10211 20177 48538 60024 81132
                   333 10288 20170 58008 81815 83360 87080=
201001190600 AAXX 19064 67475 NIL=
201001180600 AAXX 18064 67475 12980 71503 10198 20195 48544 60214 8707/
                   333 10276 20171 58000 87460=
201001110600 AAXX 11064 67475 NIL=
201001060600 AAXX 06064 67475 32480 70000 10209 20185 48511 81132
                   333 10259 20169 59007 81815 84360 87280=

################################################################################
#  SYNOPS from 67477, Mpika (Zambia) | 11-54S | 031-26E | 1400 m
################################################################################
201001290600 AAXX 29064 67477 12280 82402 10197 20189 48509 69904 886//
                   333 10265 20165 58005 88704=
201001260600 AAXX 26064 67477 32480 52901 10217 20190 48511 81108
                   333 10295 20155 59001 81813 85280=
201001250600 AAXX 25064 67477 12480 32801 10224 20193 48512 69904 81131
                   333 10279 20155 59009 81816 82361 81080=
201001190600 AAXX 19064 67477 11980 71203 10205 20177 48528 60274 82038
                   333 10255 20169 59018 82361 86280=
201001180600 AAXX 18064 67477 32480 71801 10198 20176 48546 8653/
                   333 10273 20169 58004 86612 87361=
201001110600 AAXX 11064 67477 32480 72301 10196 20184 48519 86530
                   333 10268 20179 58006 86610 83361=
201001060600 AAXX 06064 67477 12480 70000 10220 20187 48508 60044 81137
                   333 10282 20168 59008 81817 81362 87280=

################################################################################
#  SYNOPS from 67531, Zambezi (Zambia) | 13-32S | 023-07E | 1077 m
################################################################################
201001290600 AAXX 29064 67531 11380 80607 10195 20189 48/// 60544 76066 8177/
                   333 10296 20185 5//// 81706 88460=
201001260600 AAXX 26064 67531 32980 70305 10251 20207 48/// 8707/
                   333 10315 20194 5//// 87362=
201001250600 AAXX 25064 67531 11980 30403 10236 20204 48/// 60014 83030
                   333 10271 20166 5//// 83363=
201001190600 AAXX 19064 67531 11380 73602 10193 20185 48/// 60724 75035 8472/
                   333 10311 20179 5//// 84706 87460=
201001180600 AAXX 18064 67531 11365 80602 10195 20192 48/// 60204 76166 8477/
                   333 10260 20184 5//// 84706 88460=
201001110600 AAXX 11064 67531 NIL=
201001060600 AAXX 06064 67531 12380 70302 10211 20202 48/// 69904 8167/
                   333 10296 20184 5//// 81707 87460=

################################################################################
#  SYNOPS from 67541, Kasempa (Zambia) | 13-32S | 025-51E | 1234 m
################################################################################
201001290600 AAXX 29064 67541 NIL=
201001260600 AAXX 26064 67541 NIL=
201001250600 AAXX 25064 67541 NIL=
201001190600 AAXX 19064 67541 NIL=
201001180600 AAXX 18064 67541 NIL=
201001110600 AAXX 11064 67541 12982 70000 10189 20184 48510 60094 8703/
                   333 10/// 20/// 5//// 87360=

################################################################################
#  SYNOPS from 67561, Ndola (Zambia) | 13-00S | 028-39E | 1269 m
################################################################################
201001290600 AAXX 29064 67561 12480 70000 10192 20180 48499 60284 82538
                   333 10290 20176 59009 82615 85360 85280=
201001271200 AAXX 27124 67561 41659 80208 10200 20192 48486 79592 8627/
                   333 58008 81938 86838 87459=
201001260600 AAXX 26064 67561 11975 60000 10213 20188 48513 60044 70592 83038
                   333 10317 20181 59001 83360 85280=
201001250600 AAXX 25064 67561 31258 60000 10186 20184 48512 74142
                   333 10268 20155 59002 83603 83360 85280=
201001200900 AAXX 20094 67561 41470 70000 10251 20188 48530 70562 81178
                   333 58000 81815 86460 87280=
201001190600 AAXX 19064 67561 31360 70000 10200 20182 48525 70522 83538
                   333 10252 20180 59023 83615 85360 87280=
201001181200 AAXX 18124 67561 41680 40000 10227 20179 48/// 79594 83238
                   333 59016 81930 83830 82360=
201001180600 AAXX 18064 67561 11220 80000 10185 20186 48546 60174 74144 82638
                   333 10269 20172 58005 82703 86360 88280=
201001150600 AAXX 15064 67561 11470 80000 10176 20179 48536 69904 70522 8557/=
201001121200 AAXX 12124 67561 42680 60707 10290 20187 48494 86201
                   333 58006 86840 81080=
201001120900 AAXX 12094 67561 42580 64007 10263 48518 86200
                   333 58010 86825 Q1018.8=
201001120600 AAXX 12064 67561 11256 50000 10208 20189 48519 60054 74042 83631
                   333 10283 20188 58011 83705 81810 83360 82080
                   Q1019.5=
201001110600 AAXX 11064 67561 11960 60000 10204 20177 48508 60014 70522 85030
                   333 10272 20180 59004 86360=
201001080600 AAXX 08064 67561 11459 80000 10201 20182 48521 69124 70562 8157/
                   333 10280 20190 58013 81610 88459=
201001060600 AAXX 06064 67561 11470 70000 10211 20196 48512 69904 70542 82238
                   333 10299 20179 59002 82810 87280=
201001020600 AAXX 02064 67561 31960 60000 10220 20190 48521 70522 86032
                   333 10278 20174 59004 86361 83080=
201001011200 AAXX 01124 67561 42680 70000 10272 20182 48498 86262
                   333 59008 81930 86830 83360 82080=

################################################################################
#  SYNOPS from 67563, Kafironda (Zambia) | 12-36S | 028-07E | 1243 m
################################################################################
201001200900 AAXX 20094 67563 41575 61502 10250 20170 48/// 70522 82130
                   333 58007 82840 86360=

################################################################################
#  SYNOPS from 67580, Msekera (Zambia) | 13-39S | 032-34E | 1025 m
################################################################################
201001290900 AAXX 29094 67580 41680 73003 10263 20213 48/// 70362 83238
                   333 59001 83835 81360 87280=
201001200900 AAXX 20094 67580 42680 63003 10245 20192 48534 81130
                   333 58006 81820 86358=
201001200600 AAXX 2006/ 67580 12980 71203 10227 20207 48/// 69964 8707/
                   333 10272 20188 5//// 87360=
201001150900 AAXX 15094 67580 41475 83605 10217 20194 48/// 72162 8657/
                   333 58022 86635 87460=
201001150600 AAXX 15064 67580 11475 72703 10218 20203 48/// 60124 71522 8657/
                   333 10291 20198 58015 86615 87460=
201001140900 AAXX 14094 67580 41680 71204 10252 20203 48/// 78022 872//
                   333 58009 87840=
201001061200 AAXX 06124 67580 41780 72703 10293 20//0 20/// 48/// 71582 86208
                   333 59003 86856 87280=

################################################################################
#  SYNOPS from 67581, Chipata (Zambia) | 13-33S | 032-35E | 1028 m
################################################################################
201001290600 AAXX 29064 67581 11370 80000 10217 20202 48512 69904 76022 8477/
                   333 10285 20202 58008 84708 88460=
201001260600 AAXX 26064 67581 12984 60502 10248 20199 48514 60034 82038
                   333 10332 20206 59005 82360 84280=
201001250600 AAXX 25064 67581 32980 00203 10250 20188 48520
                   333 10338 20185 59002=
201001211200 AAXX 21124 67581 41680 61405 10266 20216 48523 71799 8197/
                   333 58005 81925 83830 87460=
201001190600 AAXX 19064 67581 11470 80000 10208 20200 48536 60264 8467/
                   333 10280 20200 59017 84708 81958 87460=
201001180600 AAXX 18064 67581 11980 80603 10211 20194 48553 60354 72166 8807/
                   333 10261 20200 58010 88460=
201001150900 AAXX 15094 67581 41470 83406 10212 20197 48546 76162 8457/
                   333 58027 84620 88460 Q1021.6=
201001130600 AAXX 13064 67581 12680 41703 10244 20203 48528 60044 70311 82132
                   333 10318 20217 58001 82825 82360 82080=
201001120600 AAXX 12064 67581 32584 40803 10260 20202 48530 82232
                   333 10319 20200 58006 82828 81360 82080
                   5/5 Q1017.7=
201001110600 AAXX 11064 67581 32980 01603 10240 20183 48519
                   333 10295 20175 58007=
201001060600 AAXX 06064 67581 32684 61305 10242 20189 48517 81938
                   333 10320 20195 59002 81935 81840 81360 86280=

################################################################################
#  SYNOPS from 67599, Mfuwe (Zambia) | 13-16S | 031-56E | 568 m
################################################################################
201001291500 AAXX 29154 67599 41660 80000 10255 20243 48480 71796 8191/
                   333 59005 819// 82835 88460=
201001291200 AAXX 29124 67599 41670 60000 10325 20249 48506 71722 81930
                   333 58003 81930 83830 86360=
201001290900 AAXX 29094 67599 42560 70000 10294 20241 48520 85201
                   333 59003 8525 87080=
201001271500 AAXX 27154 67599 41680 73312 10305 20229 48480 76022 8297/
                   333 59012 82930 84840 87460=
201001271200 AAXX 27124 67599 42680 40708 10345 20235 48500 84200
                   333 59016 81935 84835=
201001260600 AAXX 26064 67599 32980 70000 10270 20235 48525 80001
                   333 10365 20223 59010 87080=
201001250900 AAXX 25094 67599 42680 32904 10310 20241 48535 83200
                   333 59002 83835=
201001211200 AAXX 21124 67599 42660 51805 10315 20232 48538 83231
                   333 59003 83840 85360 87080=
201001200600 AAXX 2006/ 67599 11280 70000 10235 20221 48545 69904 76022 8377/
                   333 10294 20205 58003 83705 87459=
201001191500 AAXX 19154 67599 42480 70000 10275 20233 48522 8197/
                   333 59007 81912 82815 87460=
201001191200 AAXX 19124 67599 41480 70000 10255 20234 48529 75056 8587/
                   333 59005 85610 819// 87460=
201001181500 AAXX 18154 67599 42660 70000 10299 20239 48537 8197/
                   333 59026 819// 83840 87360=
201001181200 AAXX 18124 67599 42560 70000 10290 20242 48546 8523/
                   333 59020 819// 85825 87360=
201001171200 AAXX 17124 67599 41356 80000 10216 20216 48537 79796 819//
                   333 58036 819// 88706=
201001160600 AAXX 16064 67599 12380 82105 10245 20224 48564 69904 70256 8177/
                   333 10300 20215 58014 81707 88459
                   555 00/// 20003 Q1021.0=
201001140900 AAXX 14094 67599 42660 61104 10300 20223 48551 86200
                   333 58008 86832=
201001121500 AAXX 12154 67599 41460 73306 10314 20240 48503 71622 8193/
                   333 58006 82920 82830 87360=
201001121200 AAXX 12124 67599 41460 72206 10306 20236 48516 71722 829//
                   333 58001 829// 87830=
201001120900 AAXX 12094 67599 42670 53404 10310 20235 48545 70322 85200
                   333 58005 85832 Q1016.0=
201001111500 AAXX 11154 67599 42680 20000 10335 20215 48503 82200
                   333 59011 82840=
201001111200 AAXX 11124 67599 52680 52708 10335 20215 48524 85200
                   333 59004 85838=
201001091200 AAXX 09124 67599 41580 62406 10300 20238 48518 71792 819//
                   333 59009 81920 86822=
201001061200 AAXX 06124 67599 42580 63507 10310 20245 48512 70322 86200
                   333 58002 86828=
201001060600 AAXX 06064 67599 32480 70000 10255 20227 48524 70200 8487/
                   333 10335 20205 59003 83612 82815 86460 Q1015.9=
201001031200 AAXX 03124 67599 42680 40000 10330 20226 48523 84200
                   333 59004 84832=
201001011500 AAXX 01154 67599 41580 70000 10305 20251 48508 71799 8197/
                   333 59029 83830 86460=
201001011200 AAXX 01124 67599 42580 40000 10305 20229 48528 84200
                   333 59011 84825=

################################################################################
#  SYNOPS from 67633, Mongu (Zambia) | 15-15S | 023-09E | 1052 m
################################################################################
201001290900 AAXX 29094 67633 42582 63304 10263 20195 48489 81132
                   333 59011 81825 86361 83080=
201001290600 AAXX 29064 67633 32482 70000 10218 20200 48488 83532
                   333 10288 20203 59004 83615 85360 84080=
201001260900 AAXX 26094 67633 42582 63605 10274 20216 48511 82138
                   333 58003 82825 84361 86280=
201001260600 AAXX 26064 67633 32982 60000 10232 20206 48505 85032
                   333 10315 20208 58003 85360 83080=
201001250600 AAXX 25064 67633 32982 50000 10230 20184 48502 85030
                   333 10285 20210 59002 85361=
201001200900 AAXX 20094 67633 41480 80105 10212 20202 48523 76165 8452/
                   333 59003 84615 87460=
201001190600 AAXX 19064 67633 12482 70000 10202 20197 48519 60264 8467/
                   333 10280 20200 59017 84708 81958 87460=
201001181200 AAXX 18124 67633 42682 60904 10270 20200 48520 83238
                   333 59006 83840 83360 86280=
201001180600 AAXX 18064 67633 12382 73601 10196 20192 48539 60344 75055 8553/
                   333 10310 20190 58012 85630 84360=
201001140900 AAXX 14094 67633 42682 40902 10301 20195 48529 84202
                   333 59003 84835 83080=
201001110600 AAXX 11064 67633 11675 70000 10192 20188 48493 60414 79599 8193/
                   333 10300 20184 59012 81930 87360=
201001060600 AAXX 06064 67633 11982 70904 10216 20192 48509 60114 72992 8197/
                   333 10314 20206 58006 81958 87461=

################################################################################
#  SYNOPS from 67641, Kaoma (Zambia) | 14-48S | 024-48E | 1213 m
################################################################################
201001290600 AAXX 29064 67641 12982 73401 10208 20196 48485 60034 82538
                   333 10300 20194 59004 82630 84360 85280=
201001250600 AAXX 25064 67641 12982 22701 10215 20193 48494 60094 80002
                   333 10279 20169 59007 82080=
201001190600 AAXX 19064 67641 12682 72702 10214 20187 48515 69904 83530
                   333 10285 20195 59027 83630 86360=
201001180600 AAXX 18064 67641 11682 73601 10196 20192 48539 60344 75055 8553/
                   333 10310 20190 58012 85630 84360=
201001110600 AAXX 11064 67641 12682 70401 10212 20196 48492 60454 81530
                   333 10303 20181 59003 81630 87360=
201001060600 AAXX 06064 67641 NIL=

################################################################################
#  SYNOPS from 67663, Kabwe (Zambia) | 14-27S | 028-28E | 1206 m
################################################################################
201001290600 AAXX 29064 67663 11380 83602 10195 20187 48475 60244 72162 8277/
                   333 10305 20186 59017 82707 88460=
201001260600 AAXX 26064 67663 32980 12703 10233 20189 48502 81032
                   333 10320 20187 59002 81360 81080=
201001250600 AAXX 25064 67663 12980 33501 10223 20186 48503 69934 83032
                   333 10290 20165 58006 82360 82080=
201001190600 AAXX 19064 67663 12980 50902 10215 20193 48519 69904 85030
                   333 10265 20185 59024 85360=
201001180600 AAXX 18064 67663 12380 70000 10196 20187 48541 60564 85670
                   333 10273 20173 58008 85708 87460=
201001110600 AAXX 11064 67663 12980 50602 10225 20191 48505 60094 86030
                   333 10295 20189 59002 85360=
201001060600 AAXX 06064 67663 32380 71505 10208 20191 48514 876//
                   333 10313 20186 58008 87708=

################################################################################
#  SYNOPS from 67665, Lusaka Internationalairport (Zambia) | 15-19S | 028-27E | 1152 m
################################################################################
201001310600 AAXX 31064 67665 11360 70403 10219 20219 48525 60034 70522 876//
                   333 10290 20201 58014 87709 Q1019.5=
201001301200 AAXX 30124 67665 42580 73210 10278 20246 48500 85232
                   333 58009 85825 82360 85080 Q1015.7=
201001300900 AAXX 30094 67665 42480 70708 10253 20237 48516 70322 8513/
                   333 58012 85810 Q1017.8=
201001300600 AAXX 30064 67665 32380 82703 10210 20210 48510 70322 83732
                   333 10272 20194 58013 83705 85360 87080 Q1017.8=
201001300400 AAXX 30044 67665 41360 82902 10210 20210 48503 72166 8373/
                   333 59008 83706 88359=
201001300300 AAXX 30034 67665 41358 72302 10212 20212 48450 76166 8173/
                   333 59011 81706 819// 87359=
201001300000 AAXX 30004 67665 41358 72302 10212 20212 48498 76166 8193/
                   333 58000 82706 81950 87359=
201001292100 AAXX 29214 67665 41358 71502 10210 20210 48499 79596 8193/
                   333 58000 82706 81950 87359=
201001291800 AAXX 29184 67665 41880 62904 10233 20233 48491 71322 81932
                   333 10272 59006 819// 84359 85080=
201001291500 AAXX 29154 67665 42680 62907 10261 20240 48475 81932
                   333 58007 81935 83840 82360 86080=
201001291200 AAXX 29124 67665 42580 73405 10261 20240 48489 84132
                   333 58009 84825 84360 85080=
201001290900 AAXX 29094 67665 42470 73302 10224 20224 48501 8317/333 58000 83812 87459
                   Q1016.5=
201001290600 AAXX 29064 67665 11360 72602 10205 20205 48498 60204 72166 8274/
                   333 10301 20/// 59012 82708 87460=
201001290400 AAXX 29044 67665 41359 82704 10218 20218 48497 76166 8274/
                   333 59006 82706 88459=
201001290300 AAXX 29034 67665 41359 72805 10214 20214 48490 76166 8373/
                   333 59004 83706 87359=
201001282100 AAXX 28214 67665 41359 73002 10231 20231 48502 76166 81732
                   333 59003 81706 81950 84359 85280=
201001271800 AAXX 27184 67665 42680 71502 10212 20212 48493 8193/
                   333 59003 81940 87359=
201001271500 AAXX 27154 67665 42660 80903 10220 20220 48480 8193/
                   333 58005 81935 87359=
201001271200 AAXX 27124 67665 41460 72715 10215 20215 48497 79596 82232
                   333 58005 82707 81925 83360 86080=
201001270600 AAXX 27064 67665 32980 53604 10250 20248 48514 70222 82032
                   333 10332 20/// 59010 823650 83080
                   555 00199 Q1017.6=
201001261800 AAXX 26184 67665 42780 61302 10244 20236 48499 81233
                   333 58008 819// 81361 85080=
201001261200 AAXX 26124 67665 42680 62903 10300 20214 48502 70222
                   333 58001 82849 86080=
201001260900 AAXX 26094 67665 42680 50303 10285 20229 48521 81202
                   333 58000 81840 85080=
201001260600 AAXX 26064 67665 32980 12706 10223 20223 48514 80001
                   333 10310 20/// 59006 81080=
201001251200 AAXX 25124 67665 42680 53305 10298 20208 48500 85101
                   333 59004 85835 82080=
201001250900 AAXX 25094 67665 42580 20602 10277 20221 48530 82101
                   333 59005 82820 82080=
201001250600 AAXX 25064 67665 12980 12703 10220 20220 48520 60364 81031
                   333 10305 20171 58000 81360 81080=
201001241200 AAXX 24124 67665 42680 62806 10288 20224 48504 86200
                   333 59019 86830 Q1016.0=
201001240900 AAXX 24094 67665 42480 23505 10269 20227 48524 70300 81101
                   333 59009 82815 81080 Q1018.5=
201001240600 AAXX 24064 67665 31380 33401 10202 20202 48518 72844 81632
                   333 10274 20165 59003 81606 81360 83080 Q1018.8=
201001240400 AAXX 24044 67665 41959 41603 10188 20188 48508 74244 81032
                   333 59016 81360 83080=
201001240300 AAXX 24034 67665 41980 23001 10187 20187 48502 74244 82032
                   333 59013 82360 81380=
201001240000 AAXX 24004 67665 42980 22001 10188 20188 48500 70200 82030
                   333 59009 82360=
201001232100 AAXX 23214 67665 42980 31602 10193 20193 48509 70200 83032
                   333 59009 83360 81080 Q1017.9=
201001230900 AAXX 23094 67665 42680 63308 10257 20243 48531 85230
                   333 59013 85830 83360=
201001230400 AAXX 23044 67665 42380 72704 10204 20204 48525 81680
                   333 59006 81707 87360=
201001230300 AAXX 23034 67665 42980 71002 10201 20201 48516 87030
                   333 59012 87360=
201001222100 AAXX 22214 67665 41780 32702 10204 20204 48519 71300
                   333 58018 81950 81360 82080=
201001221800 AAXX 22184 67665 42780 61203 10223 20223 48520 81932
                   333 10285 59006 81950 83360 84080=
201001221500 AAXX 22154 67665 42670 60000 10219 20219 48501 81972
                   333 59010 81930 84360 83380=
201001221200 AAXX 22124 67665 42680 63609 10271 20214 48522 85230
                   333 59010 81930 85835 83360=
201001220900 AAXX 22094 67665 42380 60106 10262 20248 48544 70322 84830
                   333 59011 81508 83810 82360 Q1020.9=
201001211500 AAXX 21154 67665 42680 60501 10256 20228 48515 82232
                   333 58017 82845 81360 84280=
201001211200 AAXX 21124 67665 42680 72705 10255 20234 48529 86832
                   333 58014 85830 82632 83360 83280=
201001210900 AAXX 21094 67665 42480 72605 10228 20189 48548 70122 81132
                   333 59002 81818 83260 87280 Q1021.8=
201001210600 AAXX 21064 67665 12380 72807 10209 20194 48541 60024 70322 83532
                   333 10291 20198 58000 83606 85360 85280
                   555 00195 Q1021.4=
201001210400 AAXX 21044 67665 41359 73005 10200 20192 48532 71562 81932
                   333 58004 819// 82608 85360 85280=
201001201200 AAXX 20124 67665 42680 43305 10275 20187 48516 84200
                   333 59001 84835=
201001200900 AAXX 20094 67665 42580 62806 10250 20198 48541 84830
                   333 58008 83820 81622 82360=
201001200600 AAXX 20064 67665 11360 72907 10206 20206 48541 60034 72844 83630
                   333 10298 20/// 58006 83708 86360=
201001191800 AAXX 19184 67665 42980 32706 10196 20196 48520 81932
                   333 10298 59011 81950 83360 81080=
201001191500 AAXX 19154 67665 42680 63207 10265 20213 48510 71722 81931
                   333 59004 81940 85845 83360 83080=
201001191200 AAXX 19124 67665 42680 63203 10278 20191 48520 85201
                   333 59018 85835 82080=
201001190600 AAXX 19064 67665 12375 50604 10254 20222 48541 60064 81501
                   333 10281 20180 59023 81708 85080=
201001181500 AAXX 18154 67665 41655 60507 10240 20240 48519 76022 81932
                   333 58014 81935 84840 81360 83080=
201001181200 AAXX 18124 67665 41580 60511 10254 20213 48536 76022 81932
                   333 58001 81925 85830 82359 83080=
201001180900 AAXX 18094 67665 42470 60408 10258 20230 48559 70222 85100
                   333 58002 85715 Q1022.6=
201001180600 AAXX 18064 67665 11308 71004 10241 20241 48556 60024 74744 85608
                   333 10310 20/// 58002 85708 87280=
201001180400 AAXX 18044 67665 41301 70503 10211 20211 48551 74744 8553/
                   333 58019 819// 85702 87360=
201001180300 AAXX 18034 67665 41/60 71003 10207 20207 48546 72844 8553/
                   333 58019 819// 85702 87360=
201001180000 AAXX 18004 67665 41301 51003 10207 20207 48541 74329 8193/
                   333 58009 81709 82930 84360=
201001172100 AAXX 17214 67665 41580 72701 10191 20191 4850 71792 8193/
                   333 59007 82930 87359=
201001171800 AAXX 17184 67665 41358 70114 10220 20220 48543 71722 81932
                   333 10310 58028 81609 82930 84850 85360=
201001171500 AAXX 17154 67665 41680 40805 10268 20233 48528 71722 81931
                   333 59004 81935 83840 82360 83080=
201001171200 AAXX 17124 67665 42680 60704 10261 20222 48536 81332
                   333 58007 81930 83830 84080=
201001170900 AAXX 17094 67665 42580 63603 10226 20226 48553 82532
                   333 58003 82620 84360 85080=
201001170600 AAXX 17064 67665 11359 80910 10235 20235 48559 60534 71796 8477/
                   333 10301 20//0 58007 84707 81935 87459=
201001170400 AAXX 17044 67665 41/80 80906 10207 20207 48540 71322 8473/
                   333 59002 84707 819// 88359=
201001170300 AAXX 17034 67665 41/80 61202 10224 20224 48529 71322 81930
                   333 59010 819// 86360=
201001161800 AAXX 16184 67665 42680 71202 10210 20210 48523 81972
                   333 59010 81940 85360 81080=
201001161500 AAXX 16154 67665 41580 70308 10206 20206 48525 71722 8497/
                   333 58019 84620 81925 87459=
201001161200 AAXX 16124 67665 42680 53003 10296 20225 48534 85200
                   333 58006 85835=
201001160900 AAXX 16094 67665 42480 42480 32704 10272 20224 48555 70322 81131 59005 81818
                   81360 83080 Q1022.0=
201001160600 AAXX 16064 67665 12380 32705 10215 20195 48550 60994 70322 81532
                   333 10308 20179 59002 81606 81360 83080
                   555 00180 Q1022.2=
201001151800 AAXX 15184 67665 42780 62804 10214 20214 48533 81930
                   333 10308 58016 81956 85360=
201001151500 AAXX 15154 67665 41760 40606 10281 20209 48515 71600 84230
                   333 58005 81950 83850 81360=
201001151200 AAXX 15124 67665 42680 53504 10287 20216 48527 84230
                   333 58003 84840 81360=
201001150900 AAXX 15094 67665 42580 60204 10264 20243 48550 70322 86200
                   333 58013 86820 Q1021.5=
201001150600 AAXX 15064 67665 32480 43003 10210 20185 48540 70322 81131
                   333 10296 20170 58016 81810 81360 83080
                   555 00/// Q1021.3=
201001141200 AAXX 14124 67665 42680 50607 10279 20217 48522 70222 85200
                   333 58000 85842=
201001140900 AAXX 14094 67665 42680 50410 10258 20215 48536 85200
                   333 59002 85830=
201001140600 AAXX 14064 67665 32980 10807 10233 20219 48537 81030
                   333 10310 20190 58003 81360=
201001140400 AAXX 14044 67665 42980 61201 10200 20200 48521 86080
                   333 58004 86360=
201001140300 AAXX 14034 67665 42980 51101 10204 20204 48515 85031
                   333 58010 85360 82080=
201001140000 AAXX 14004 67665 42980 01603 10201 20201 48515 81030
                   333 58012 81360=
201001132100 AAXX 13214 67665 42980 11403 10214 20214 48522 80001
                   333 58007 81080=
201001131800 AAXX 13184 67665 42980 40804 10237 20237 48516 83031
                   333 58014 82360 Q1018.0=
201001131500 AAXX 13154 67665 42680 40607 10274 20217 48506 84201
                   333 58010 84840 Q1016.3=
201001131200 AAXX 13124 67665 42580 50406 10284 20212 48523 83200
                   333 58008 83830 Q1018.2=
201001130600 AAXX 13064 67665 32980 41106 10236 20216 48534 70122 84030
                   333 10300 20180 58008 84360=
201001121800 AAXX 12184 67665 42980 41208 10243 20222 48502 81032
                   333 10300 59004 81359 84280=
201001121500 AAXX 12154 67665 42680 31006 10288 20217 48497 83101
                   333 58004 83845 81080=
201001121200 AAXX 12124 67665 42680 50408 10285 20221 48515 85100
                   333 58008 85830=
201001120900 AAXX 12094 67665 42480 60209 10273 20224 48532 70322 86100
                   333 58009 86820 Q1019.4=
201001120600 AAXX 12064 67665 32380 30603 10231 20224 48526 81131
                   333 10299 20171 58006 81810 82360 83080
                   555 00181 Q1019.3=
201001120400 AAXX 12044 67665 42980 11502 10185 20185 48514 70322 82032
                   333 58004 82360 87080=
201001120000 AAXX 12004 67665 42980 11503 10187 20187 48509 70200 81030
                   333 58002 81360=
201001111800 AAXX 11184 67665 42980 11402 10233 20226 48505 81030
                   333 10299 59007 81359=
201001111500 AAXX 11154 67665 42780 30507 10272 20223 48491 83201
                   333 59001 83850 82080=
201001111200 AAXX 11124 67665 42680 60307 10281 20224 48505 86202
                   333 58005 86840 82080=
201001110900 AAXX 11094 67665 41560 60607 10250 20236 48521 78022 85230
                   333 59002 85820 84360=
201001110600 AAXX 11064 67665 12980 60302 10218 20218 48519 69964 86030
                   333 10255 20185 59002 86360=
201001110400 AAXX 11044 67665 42980 72802 10202 20202 48511 87030
                   333 59001 87360=
201001110300 AAXX 11034 67665 42980 72802 10201 20201 48506 87030
                   333 59001 87360=
201001110000 AAXX 11004 67665 42980 73301 10204 20204 48505 8703/
                   333 59001 87360=
201001102100 AAXX 10214 67665 41660 72502 10200 20200 48515 76122 8193/
                   333 59004 81940 87360=
201001101800 AAXX 10184 67665 41680 72203 10214 20214 48509 71322 8193/
                   333 58003 81930 87360=
201001101500 AAXX 10154 67665 42680 60606 10258 20243 48491 81932
                   333 59019 81940 83842 84380 83080=
201001101200 AAXX 10124 67665 42680 60607 10271 20236 48501 84232
                   333 59012 84840 82360 84080=
201001100900 AAXX 10094 67665 42480 70208 10258 20221 48524 70322 85802
                   333 58003 83815 82612 86080 Q1018.7=
201001100600 AAXX 10064 67665 11375 70403 10205 20190 48520 60994 72844 82732
                   333 10251 20174 59004 82705 83360 85080
                   555 00184 Q1018.9=
201001091800 AAXX 09184 67665 42660 73004 10190 20190 48504 8193/
                   333 10251 59004 81945 87360=
201001091500 AAXX 09154 67665 41660 72505 10226 20226 48506 71622 82232
                   333 59005 81940 82840 85360 82080=
201001091200 AAXX 09124 67665 41560 73003 10212 20212 48505 72992 81932
                   333 59011 81920 84820 84360 85080=
201001090900 AAXX 09094 67665 41460 70106 10224 20224 48526 71522 8583/
                   333 81810 84312 86360
                   555 Q1019.4=
201001090600 AAXX 09064 67665 11360 73603 10204 20193 48523 60024 74142 8263/
                   333 10264 20170 82706 87360
                   555 00156 Q1019.3=
201001090400 AAXX 09044 67665 41358 71302 10206 20206 48518 74144 8267/ 58000 82615 83560
                   87080 Q1018.7=
201001080900 AAXX 08094 67665 42580 62605 10234 20229 48527 84830
                   333 58010 81825 83627 85360=
201001080600 AAXX 08064 67665 11360 71802 10206 20206 48523 76166 8163/
                   333 10286 20195 58005 81708 87359=
201001080300 AAXX 08034 67665 42980 72703 10203 20203 48511 87032
                   333 58002 85360 87280=
201001080000 AAXX 08004 67665 42980 72801 10210 20210 48509 87031
                   333 58002 87360 82080=
201001072100 AAXX 07214 67665 42980 63004 10214 20214 48522 81931
                   333 58011 819// 85360 82080=
201001071800 AAXX 07184 67665 42880 40204 10220 20220 48504 82231
                   333 58002 819// 83360 84080 Q1016.9=
201001071500 AAXX 07154 67665 42780 40910 10251 20237 48485 83231
                   333 59014 82840 82360 84080 Q1014.4=
201001071200 AAXX 07124 67665 42580 60203 10268 20211 48507 85200
                   333 59002 85830 Q1016.5=
201001070600 AAXX 07064 67665 12380 51106 10213 20188 48518 69934 81530
                   333 10295 20155 59009 81708 84360=
201001061800 AAXX 06184 67665 42980 01105 10197 20197 48498
                   333 10295 58002=
201001061500 AAXX 06154 67665 42680 71209 10223 20223 48492 83232
                   333 58010 83835 82360 85280=
201001061200 AAXX 06124 67665 42580 70806 10259 20224 48507 85232
                   333 58003 85825 82360 83080=
201001060600 AAXX 06064 67665 11260 80910 10188 20188 48527 60164 75066 877//
                   333 10310 20175 58006 87706 88359=
201001060400 AAXX 06044 67665 41959 81306 10199 20199 48512 76166 85073
                   333 59004 85459 86080=
201001060300 AAXX 06034 67665 41455 71210 10192 20192 48511 76166 8197/ 58001 81915 87459
                   Q1018.1=
201001060000 AAXX 06004 67665 41556 71608 10202 20202 48509 79592 8197/
                   333 58004 81920 87459=
201001052100 AAXX 05214 67665 41780 61801 10223 20223 48514 71322 81932
                   333 59004 81950 83360 83080=
201001051500 AAXX 05154 67665 42780 60604 10284 20228 48489 81932
                   333 58001 81956 81360 85080=
201001051200 AAXX 05124 67665 42780 60305 10295 20217 48509 86202
                   333 59010 86850 83080=
201001050900 AAXX 05094 67665 42780 53605 10277 20235 48529 85101
                   333 59004 85855 83080 01018.9=
201001050600 AAXX 05064 67665 31980 53004 10230 20230 48523 72844 85081
                   333 10306 20214 59005 85360 84080
                   555 00184 Q1019.0=
201001050400 AAXX 05044 67665 41980 71601 10208 20205 48517 74122 87080
                   333 59004 87360=
201001050300 AAXX 05034 67665 42980 61302 10191 20191 48510 86030
                   333 59004 86360=
201001050000 AAXX 05004 67665 42980 11502 10206 20206 48506 81030
                   333 59007 81360=
201001042100 AAXX 04214 67665 42980 11502 10223 20223 48516 81030
                   333 59001 81360=
201001041800 AAXX 04184 67665 41780 20601 10252 20216 48502 81901
                   333 59001 81956 81080=
201001041500 AAXX 04154 67665 42780 53603 10293 20207 48489 83202
                   333 58004 83850 83080=
201001041200 AAXX 04124 67665 42680 63304 10292 20229 48518 86202
                   333 58010 86840 83080=
201001040900 AAXX 04094 67665 42580 73104 10266 20232 48530 70322 81102
                   333 59003 82820 87280 Q1019.3=
201001040600 AAXX 04064 67665 32480 72704 10216 20192 48527 70322 81132
                   333 10310 20180 59005 81812 81360 87280
                   555 00/// Q1019.6=
201001031800 AAXX 03184 67665 42780 20502 10243 20219 48505 81932
                   333 10310 58000 81956 81360 81080=
201001031500 AAXX 03154 67665 42780 20706 10298 20196 48494 82200
                   333 59002 82850=
201001031200 AAXX 03124 67665 42680 30603 10297 20211 48509 83201
                   333 59003 83840 81080=
201001030900 AAXX 03094 67665 42480 63306 10267 20225 48533 70322 84201
                   333 58001 84818 83080 Q1019.7=
201001030600 AAXX 03064 67665 32980 42703 10226 20195 48532 70200 82031
                   333 10309 20172 58008 82360 82080=
201001020900 AAXX 02094 67665 42680 40105 10282 20238 48535 84201
                   333 59003 84835 81080=
201001020600 AAXX 02064 67665 31980 20501 10234 20234 48525 80001
                   333 10291 20170 59012 81080=
201001020400 AAXX 02044 67665 42980 11301 10188 20188 48516 81031
                   333 59003 81360 81080=
201001020300 AAXX 02034 67665 42980 11502 10184 20184 48511 81030
                   333 59002 81360=
201001020000 AAXX 02004 67665 42980 01602 10189 20189 48513
                   333 59008=
201001012100 AAXX 01214 67665 42980 12801 10207 20207 48517 80001
                   333 59010 81080=
201001011800 AAXX 01184 67665 42980 11001 10228 20228 48507 81030
                   333 10291 59016 81360=
201001011500 AAXX 01154 67665 41680 40806 10257 20235 48495 71622 84231
                   333 59013 84840 82360 82080=
201001011200 AAXX 01124 67665 42580 50406 10278 20230 48519 85200
                   333 59008 85828=
201001010600 AAXX 01064 67665 12365 72703 10228 20221 485536 69904 72844 86602
                   333 10265 20160 59004 86706 84078=

################################################################################
#  SYNOPS from 67666, Lusaka City Airport (Zambia) | 15-25S | 028-19E | 1280 m
################################################################################
201001271200 AAXX 27124 67666 41680 82505 10213 20194 48488 71729 8198/
                   333 59002 81935 85835 88460=
201001260900 AAXX 26094 67666 42580 40603 10280 20186 48508 82202
                   333 59001 82835 82080=
201001211200 AAXX 21124 67666 42580 73608 10246 20202 48520 878//
                   333 58011 84628 83835=
201001200900 AAXX 20094 67666 42680 51003 10230 20181 48532 85230
                   333 58003 85830 84360=
201001200600 AAXX 2006/ 67666 12480 80910 10195 20187 48532 60034 8567/
                   333 10277 20175 58006 85718 88459=
201001150900 AAXX 15094 67666 42580 50405 10264 20184 48534 85200
                   333 58010 85828 Q1020.6=
201001150600 AAXX 15064 67666 32480 23002 10214 20185 48535 82500
                   333 10281 20170 5//// 82615 Q1020.7=
201001140900 AAXX 14094 67666 42580 50807 10255 20171 48528 84130
                   333 59001 84828 81360=
201001120900 AAXX 12094 67666 42580 40507 10260 20186 48523 83101
                   333 58006 83830 82080 Q1018.7=
201001061200 AAXX 06124 67666 42680 70902 10275 20193 48501 85230
                   333 58002 85835 86360=
201001060600 AAXX 06064 67666 11475 80906 1085 20182 48517 60274 76162 8657/
                   333 10298 20165 58006 86618 88459 Q1018.9=

################################################################################
#  SYNOPS from 67673, Petauke (Zambia) | 14-15S | 031-17E | 1035 m
################################################################################
201001260900 AAXX 26094 67673 42680 60502 10295 20198 48528 85231
                   333 59001 85830 82360 84080=

################################################################################
#  SYNOPS from 67743, Livingstone (Zambia) | 17-49S | 025-49E | 985 m
################################################################################
201001290600 AAXX 29064 67743 12680 70903 10213 20203 48488 60034 82131
                   333 10291 20198 59001 82830 85360 83080=
201001260600 AAXX 26064 67743 12980 52206 10245 20200 48505 69904 80001
                   333 10317 20205 59004 85080=
201001250600 AAXX 25064 67743 32680 62503 10223 20183 48503 82530
                   333 10315 20192 59011 82830 85360=
201001190600 AAXX 19064 67743 12580 62405 10227 20199 48526 60014 82430
                   333 10330 20196 59039 82625 84360=
201001180600 AAXX 18064 67743 12380 80000 10196 20196 48552 60094 8477/
                   333 10/// 20186 58010 84707 88460=
201001111200 AAXX 11124 67743 41680 81009 10225 20203 48496 71796 8297/
                   333 58012 82945 84840 87460=
201001110600 AAXX 11064 67743 12380 80805 10226 20208 48910 69904 8267/
                   333 10296 20209 58001 82706 88360=
201001091500 AAXX 09154 67743 42560 83110 10195 20195 48485 76062 82300
                   333 58004 82920 86648=
201001091200 AAXX 09124 67743 42580 73409 10252 20197 48491 82330
                   333 59019 82925 84825 81362=
201001080900 AAXX 08094 67743 42680 60506 10262 20193 48522 85230
                   333 59005 85830 85360=
201001080600 AAXX 08064 67743 11980 60605 10230 20201 48514 60284 86030
                   333 10284 20200 58000 86360=
201001061500 AAXX 06154 67743 42680 61206 10250 20204 48488 83131
                   333 58011 83835 82360 84080=
201001061200 AAXX 06124 67743 42480 41002 10243 20197 48505 83130
                   333 58009 83815 83360=
201001060600 AAXX 06064 67743 11359 82802 10211 20209 48516 60084 76162 8477/
                   333 10327 20200 58001 84706 88459=
201001031200 AAXX 03124 67743 42680 73104 10242 20197 48505 70292 81302
                   333 58034 83840 82080=
201001020900 AAXX 02094 67743 42680 23104 10300 20188 48525 82100
                   333 59012 82830=
201001020600 AAXX 02064 67743 32980 32803 10240 20195 48516 80001
                   333 10317 20195 59010 83080=
201001011500 AAXX 01154 67743 42780 40706 10310 20176 48492 82130
                   333 59010 82856 82360=
201001011200 AAXX 01124 67743 42680 60407 10304 20172 48519 82231
                   333 59003 83850 82360 81080=

################################################################################
#  SYNOPS from 67753, Choma (Zambia) | 16-50S | 027-04E | 1213 m
################################################################################
201001290600 AAXX 29064 67753 11380 83607 10201 20196 48/// 60184 72162 8677/
                   333 10286 20181 5//// 86708 88459=
201001260600 AAXX 26064 67753 NIL=
201001250600 AAXX 25064 67753 32980 71905 10233 20198 48/// 80008
                   333 10279 20167 5//// 87280=
201001190600 AAXX 19064 67753 12980 73606 10207 20193 48/// 60234 80008
                   333 10281 20163 5//// 87280=
201001180600 AAXX 18064 67753 NIL=
201001110600 AAXX 11064 67753 12380 73606 10206 20198 48/// 60104 72162 8777/
                   333 10272 20181 5//// 87708 87459=
201001060600 AAXX 06064 67753 11380 83604 10199 20191 48/// 60234 72162 8167/
                   333 10301 20175 5//// 81708 88459=

################################################################################
#  SYNOPS from 67855, Lupaki (Zambia) | 17-03-00S | 024-46-00E | 1000 m
################################################################################
201001310600 AAXX 31064 67855 12380 50901 10204 20193 3//// 48/// 60084 82770
                   333 20190 5//// 82706 85459=
201001301200 AAXX 30124 67855 NIL=
201001300600 AAXX 30064 67855 NIL=
201001290600 AAXX 29064 67855 NIL=
201001280600 AAXX 28064 67855 NIL=
201001271200 AAXX 27124 67855 NIL=
201001270600 AAXX 27064 67855 NIL=
201001261200 AAXX 26124 67855 42780 52701 10348 20185 3//// 48/// 84202
                   333 5//// 84856=
201001260600 AAXX 26064 67855 32980 50901 10242 20208 3//// 48/// 85032
                   333 20180 5//// 85360=
201001251200 AAXX 25124 67855 42780 62703 10312 20198 3//// 48/// 84270
                   333 5//// 84856=
201001250600 AAXX 25064 67855 NIL=
201001240600 AAXX 24064 67855 12980 50901 10220 20206 3//// 48/// 69904 82072
                   333 20190 5//// 82459 83080=
201001231200 AAXX 23124 67855 NIL=
201001230600 AAXX 23064 67855 NIL=
201001210600 AAXX 21064 67855 12980 70000 10222 20212 3//// 48/// 60064 8707/
                   333 20200 5//// 87459=
201001160600 AAXX 16064 67855 32980 40901 10244 20158 3//// 48/// 80002
                   333 20150 5//// 84080=
201001140600 AAXX 14064 67855 32980 40205 10220 20145 3//// 48/// 80002
                   333 20170 5//// 84080=
201001130600 AAXX 13064 67855 32980 01202 10234 20178 3//// 48///
                   333 20170 5////=
201001120600 AAXX 12064 67855 12980 71501 10224 20204 3//// 48/// 69904 8703/
                   333 20210 5//// 87359=
201001111200 AAXX 11124 67855 42780 63502 10320 20198 3//// 48/// 85202
                   333 5//// 85856=
201001110600 AAXX 11064 67855 12980 70904 10224 20183 3//// 48/// 69904 8703/
                   333 20204 5//// 87359=
201001100600 AAXX 10064 67855 32980 60905 10228 20157 3//// 48/// 82032
                   333 20120 5//// 82360 84080=
201001091200 AAXX 09124 67855 42780 51802 10328 20155 3//// 48/// 85200
                   333 5//// 82856=
201001070600 AAXX 07064 67855 12380 50601 10194 20176 3//// 48/// 60364 81640
                   333 20168 5//// 81706 84360=
201001051200 AAXX 05124 67855 41780 60902 10332 20166 3//// 48/// 72992 86200
                   333 5//// 86850=
201001050600 AAXX 05064 67855 12480 31304 10235 20191 3//// 48/// 69914 81532
                   333 20187 5//// 81610=
201001041200 AAXX 04124 67855 42780 63102 10316 20203 38/// 48/// 86200
                   333 5//// 86856=
201001040600 AAXX 04064 67855 11980 53602 10258 20202 38/// 48/// 69904 72582 82032
                   333 20213 5//// 82359 83080=
201001030600 AAXX 03064 67855 11975 70601 10238 20208 38/// 48/// 60244 72162 84263
                   333 20205 5//// 84359=
201001021200 AAXX 02124 67855 42780 60000 10344 20192 3//// 48/// 86200
                   333 5//// 86856=
