################################################################################
# Query made at 04/17/2022 11:43:40 UTC
# Country like Zamb*
# Time interval: from 03/01/2007 05:30  to 03/31/2007 05:30  UTC
################################################################################

################################################################################
#  SYNOPS from 67599, Mfuwe (Zambia) | 13-16S | 031-56E | 568 m
################################################################################
200703210900 AAXX 21094 67599 42580 30000 10310 20226 48559 82102
                   333 58012 82825 82080=
200703201500 AAXX 20154 67599 42680 20000 10330 20228 48516 82200
                   333 59007 82845=
200703181500 AAXX 18154 67599 42680 30000 10330 20216 48497 81904
                   333 58000 81935 81840 82080=
200703121200 AAXX 12124 67599 41580 70000 10300 20230 48533 71799 81932
                   333 59004 81925 85825 82380=

################################################################################
#  SYNOPS from 67655, Mumbwa (Zambia) | 15-04S | 027-11E | 1216 m
################################################################################
200703230300 AAXX 23034 67655 42980 10000 20168 48523 80002
                   333 58002 81080=

################################################################################
#  SYNOPS from 67665, Lusaka Internationalairport (Zambia) | 15-19S | 028-27E | 1152 m
################################################################################
200703310400 AAXX 31044 67665 41480 60805 10187 20187 48529 82530
                   333 59005 82610 85360=
200703310000 AAXX 31004 67665 42980 50000 10194 20194 48527 85030
                   333 59008 85360=
200703301800 AAXX 30184 67665 42980 21004 10214 20214 48523
                   333 10300 59013 81360 81080=
200703301500 AAXX 30154 67665 42780 51010 10281 20218 48513 82231
                   333 59018 81950 82850 81360 81080
                   555 10300=
200703301200 AAXX 30124 67665 42680 57105 10286 20215 48531 85200
                   333 59013 85835=
200703300300 AAXX 30034 67665 42980 01102 10176 20176 48530
                   333 59011=
200703300000 AAXX 30004 67665 42980 11203 10183 20183 48534 81030
                   333 59005 81360=
200703292100 AAXX 29214 67665 42980 01703 10186 20186 48545
                   333 58001=
200703291800 AAXX 29184 67665 42980 21005 10213 20213 48536 81030
                   333 10294 58014 82360=
200703291200 AAXX 29124 67665 42680 50805 10276 20215 48546 85200
                   333 58002 85835=
200703290600 AAXX 29064 67665 12980 31006 10211 20211 48557 69924 83031
                   333 10302 20172 58000 83359 81080=
200703290400 AAXX 29044 67665 42980 21503 10175 20175 48543 82031
                   333 58005 82360 81080=
200703282100 AAXX 28214 67665 42980 11404 10194 20194 48545 80001
                   333 58004 81080=
200703281800 AAXX 28184 67665 42980 11204 10211 20211 48530 80001
                   333 10302 58001 81080=
200703281500 AAXX 28154 67665 42680 51205 10236 20236 48526 81903
                   333 58007 81945 83850 84080=
200703281200 AAXX 28124 67665 42680 50408 10283 20222 48544 85200
                   333 58012 85842=
200703271500 AAXX 27154 67665 42780 61407 10240 20219 48519 83932
                   333 58015 83950 84360 85080
                   555 1018/3=
200703271200 AAXX 27124 67665 42680 60309 10290 20227 48533 86201
                   333 58001 86840 81080=
200703261200 AAXX 26124 67665 42680 50307 10273 20221 48529 85201
                   333 58004 85830 81080 91019=
200703260900 AAXX 26094 67665 42480 70613 10245 20224 48543 875//
                   333 58000 87615 91021=
200703251500 AAXX 25154 67665 42780 61107 10255 20222 48515 81932
                   333 58003 81950 83850 84360 82080
                   555 10291 91017=
200703251018 AAXX 25104 67665 42680 61112 10269 20243 48526 85232 91018=
200703250900 AAXX 25094 67665 42480 61014 10268 20241 48546 85232
                   333 58004 85815 82360 83080=
200703250600 AAXX 25064 67665 12380 70910 10219 20219 48540 60124 82532
                   333 10299 20189 58006 82708 83359 84079 91021=
200703250000 AAXX 25004 67665 41680 60502 10199 20199 48530 72592 81932
                   333 58006 81950 83359 86079=
200703240600 AAXX 24064 67665 32480 51004 10210 20210 48532 82832
                   333 10305 20//0 58006 81812 81615 82360 84080=
200703240400 AAXX 24044 67665 42480 51104 10170 20170 48519 82632
                   333 59003 82705 82360 83080=
200703240300 AAXX 24034 67665 42980 21001 10172 20172 48518 81032
                   333 59005 81360 81080=
200703232100 AAXX 23214 67665 42980 41703 10196 20196 48535 82032
                   333 58001 82360 82080=
200703231800 AAXX 23184 67665 42780 51103 10227 20223 48527 58005 81932
                   333 10305 81950 84360 81080 91019=
200703231500 AAXX 23154 67665 42780 51107 10284 20224 48519 81932
                   333 58002 81950 84360 81080 91017=
200703230600 AAXX 23064 67665 32980 21204 10212 20212 48540 80002
                   333 10315 20//0 59001 82080=
200703230400 AAXX 23044 67665 42980 20000 10164 20164 48526 81082
                   333 58005 81360 81080=
200703220900 AAXX 22094 67665 42680 40205 10276 20238 48552 81102
                   333 58009 81825 84080 91020=
200703220600 AAXX 22064 67665 32980 30803 10210 20210 48541 80002
                   333 10324 20174 58006 83080=
200703220400 AAXX 22044 67665 42980 20000 10174 20174 48523 81031
                   333 58002 81360 82080=
200703220300 AAXX 22034 67665 42980 11702 10179 20179 48522 80001
                   333 58006 81080=
200703220000 AAXX 22004 67665 42980 10000 10186 20186 48513 80001
                   333 59001 81080=
200703212100 AAXX 21214 67665 42980 00000 10193 20193 48513
                   333 58005=
200703211800 AAXX 21184 67665 41980 12602 10206 20206 48510 71300 81931
                   333 58006 81959 81360 81080=
200703211200 AAXX 21124 67665 42680 40906 10309 20209 49525 84200
                   333 58004 81940 84840=
200703210900 AAXX 21094 67665 42580 20706 10288 20210 48544 82100
                   333 58007 82825=
200703210600 AAXX 21064 67665 32980 20000 10231 20216 48538 80002
                   333 10310 20174 82080=
200703210400 AAXX 21044 67665 42980 32502 10168 20168 48520 81032
                   333 58009 81359 82080=
200703201800 AAXX 20184 67665 42980 11904 10226 20211 48506 81030
                   333 10310 58007 81360=
200703201500 AAXX 20154 67665 42680 13503 10294 20200 48501 81100
                   333 58000 81845=
200703200600 AAXX 20064 67665 12980 40404 10160 20216 48524 60994 70122 84032
                   333 10316 20198 58003 84360 80380=
200703191800 AAXX 19184 67665 42780 60903 10204 20204 48497 58003 81930
                   333 85360 82080 91016=
200703191500 AAXX 19154 67665 42780 60504 10279 20215 48499 83232
                   333 58010 81950 83360 84080
                   555 91015=
200703191200 AAXX 19124 67665 42680 63501 10287 20208 48510 84232
                   333 58008 84840 81360 85080
                   555 91016=
200703190900 AAXX 19094 67665 42580 70207 10269 20219 48527 81232
                   333 58004 81825 84360 85080
                   555 91019=
200703181400 AAXX 18144 67665 42780 51105 10298 20201 48492 81902
                   333 59002 81950 85080=
200703181200 AAXX 18124 67665 42680 53302 10303 20176 48504 81102
                   333 59001 81845 85080=
200703180900 AAXX 18094 67665 42980 30305 10286 20207 48526 80001
                   333 59007 83080=
200703180600 AAXX 18064 67665 32980 22903 10215 20193 48519 80001
                   333 10306 20162 59008 82080 91018=
200703171500 AAXX 17154 67665 42780 11205 10293 20191 48489 81100
                   333 59006 81856=
200703161500 AAXX 16154 67665 42680 41204 10278 20194 48497 83231
                   333 59005 83849 83360 81080
                   555 10300 91015=
200703161200 AAXX 16124 67665 42680 53305 10284 20197 48510 85200
                   333 59004 85840=
200703160900 AAXX 16094 67665 42580 50602 10260 20209 48536 85201
                   333 58000 83820 81080 91019=
200703152100 AAXX 15214 67665 42980 20000 10184 20184 48512 80002
                   333 58000 82080=
200703151800 AAXX 15184 67665 42980 21704 10202 20202 48502 80002
                   333 58000 82080=
200703151200 AAXX 15124 67665 42680 61402 10264 20207 48510 84202
                   333 58005 84837 85080=
200703150900 AAXX 15094 67665 42580 60806 10243 20222 48531 85202
                   333 58005 85825 83080=
200703150600 AAXX 15064 67665 32480 61107 10190 20190 48526 82533
                   333 10290 20154 59003 82615 85080=
200703141800 AAXX 14184 67665 42980 51103 10218 20218 48503 84032
                   333 59008 84360 85080=
200703141500 AAXX 14154 67665 42680 61309 10265 20234 48501 81932
                   333 59006 81935 84360 85080=
200703141200 AAXX 14124 67665 42680 61107 10285 20222 48508 85202
                   333 59015 85830 83080=
200703140300 AAXX 14034 67665 42980 01403 10181 20181 48510
                   333 59010=
200703140000 AAXX 14004 67665 41980 11903 10179 20179 48508 71300 81930
                   333 59012 81960 81360=
200703132100 AAXX 13214 67665 42980 00000 10193 20193 48520
                   333 59009=
200703131500 AAXX 13154 67665 41780 31506 10278 20222 48510 71500 83232
                   333 59011 83850 81360 81080=
200703131200 AAXX 13124 67665 42680 41006 10279 20206 48523 84202
                   333 59010 84840 81080=
200703121800 AAXX 12184 67665 42780 14020 10206 20206 48522 81201
                   333 59001 81856 81080=
200703121500 AAXX 12154 67665 42780 41110 10265 20215 48520 84101
                   333 59001 84850 81080=
200703121200 AAXX 12124 67665 42680 51207 10268 20212 48531 85300
                   333 59006 81940 85840=
200703120900 AAXX 12094 67665 24680 50812 10247 20226 48553 85800
                   333 58012 83820 82625
                   555 Q1022.2=
200703111800 AAXX 11184 67665 41780 20000 10202 20202 48523 71322 81932
                   333 59009 81950 81360 81080 555=
200703110600 AAXX 11064 67665 32480 31008 10196 20196 48542 83132
                   333 10271 20162 59015 83815 81360 81080=
200703110400 AAXX 11044 67665 42980 11105 10165 20165 48531 81032
                   333 59009 81360 81080=
200703101800 AAXX 10184 67665 42680 21404 10192 20192 48528 81232
                   333 10271 59013 81845 81360 81080=
200703100600 AAXX 10064 67665 12380 61011 10195 20195 48557 60034 85730
                   333 10240 20165 58005 85708 84360 91023=
200703091800 AAXX 09184 67665 41959 70000 10186 20186 48543 71322 8193/
                   333 10224 58021 81960 87360=
200703091500 AAXX 09154 67665 41360 70708 10209 20209 48529 71566 85772
                   333 58018 85709 84625 84360 83080=
200703091200 AAXX 09124 67665 41358 70916 10194 20194 48535 76166 847//
                   333 58017 84708 87815=
200703090900 AAXX 09094 67665 41359 70915 70915 10216 20216 48554 8177/
                   333 58018 81705 84610 87359=
200703081500 AAXX 08154 67665 41580 50913 10229 20222 48512 85830
                   333 58015 85625 84360=
200703081200 AAXX 08124 67665 42580 60914 10236 20222 48526 8683/
                   333 58001 82824 84360=
200703071200 AAXX 07124 67665 42680 60810 10267 20239 48509 83202
                   333 58008 83830 84080=
200703070900 AAXX 07094 67665 42580 70815 10249 20249 48252 70262 86232
                   333 59001 86820 81360 83080 91019=
200703061500 AAXX 06154 67665 42680 73505 10241 20241 48486 71799
                   333 59016 82945 81360 86080=
200703060900 AAXX 06094 67665 42580 50703 10265 20252 48529 82101
                   333 59001 82820 84080 91019=
200703060600 AAXX 06064 67665 32980 50000 10223 20223 48522 81030
                   333 10300 20185 59002 81360 84080=
200703060400 AAXX 06044 67665 42980 30000 10192 20192 48512 81031
                   333 58004 81360 82080=
200703060300 AAXX 06034 67665 42980 10000 10191 20191 48512 80001
                   333 58009 81080=
200703060000 AAXX 06004 67665 42980 20000 10195 20195 48516 80002
                   333 58012 82080=
200703042100 AAXX 04214 67665 42680 60000 10195 20195 48504 81932
                   333 59002 81930 81360 86080=
200703031800 AAXX 03184 67665 42780 20000 10209 20209 48501 81930
                   333 10300 59010 81950 82360=
200703030600 AAXX 03064 67665 12470 50603 10227 20227 48533 60074 70244 85530
                   333 10292 20164 85610 81360=
200703030400 AAXX 03044 67665 41902 40000 10205 20205 48520 74642 83032
                   333 58004 83360 83080=
200703021500 AAXX 02154 67665 41660 63009 10217 20217 48502 71796 82932
                   333 58011 82935 83709 83359 81080=
200703021200 AAXX 02124 67665 42680 51105 10278 20230 48506 85230
                   333 58001 85835 81360=
200703020900 AAXX 02094 67665 42580 61402 10247 20233 48532 86530
                   333 58014 86620 84360 91019=
200703020600 AAXX 02064 67665 11358 70302 10224 20224 48532 60144 74044 877//
                   333 10256 20165 58017 87706=
200703011800 AAXX 01184 67665 42980 12802 10196 20196 48500 81030
                   333 10240 58007 81360=
200703011500 AAXX 01154 67665 42580 70000 10229 20229 48491 82972
                   333 58011 82925 83830 84360 86080=
200703011200 AAXX 01124 67665 41470 73408 10210 20210 48498 71599 8297/
                   333 58013 82912 86520 84360=
200703010600 AAXX 01064 67665 12375 70405 10208 20208 48513 60074 87830
                   333 10264 20186 58006 86709 81820 86359=

################################################################################
#  SYNOPS from 67743, Livingstone (Zambia) | 17-49S | 025-49E | 985 m
################################################################################
200703281500 AAXX 28154 67743 42780 40303 10301 20164 48512 84260
                   333 59005 84856 83360=
200703210900 AAXX 21094 67743 42780 30403 10305 20204 48539 81131
                   333 59019 81850 83360 81080=
200703201500 AAXX 20154 67743 42880 62807 10330 20155 48486 86400
                   333 58006 86657 82857=
200703011500 AAXX 01154 67743 42780 40805 10295 20182 48469 84201
                   333 58001 84850 81080=

################################################################################
#  SYNOPS from 67855, Lupaki (Zambia) | 17-03-00S | 024-46-00E | 1000 m
################################################################################
200703310000 AAXX 31004 67855 NIL=
200703301800 AAXX 30184 67855 NIL=
200703301200 AAXX 30124 67855 NIL=
200703300600 AAXX 30064 67855 32980 50501 10208 20171 3//// 48/// 84032
                   333 20176 5//// 84360=
200703300000 AAXX 30004 67855 NIL=
200703291800 AAXX 29184 67855 NIL=
200703291200 AAXX 29124 67855 NIL=
200703290600 AAXX 29064 67855 31980 70701 10225 20182 3//// 48/// 70192 84032
                   333 20196 5//// 84360 87080=
200703290000 AAXX 29004 67855 NIL=
200703281800 AAXX 28184 67855 NIL=
200703281200 AAXX 28124 67855 NIL=
200703280600 AAXX 28064 67855 11580 60501 10202 20192 3//// 48/// 60014 71796 85233
                   333 20195 5//// 81920 84825=
200703280000 AAXX 28004 67855 NIL=
200703271800 AAXX 27184 67855 NIL=
200703271200 AAXX 27124 67855 NIL=
200703270600 AAXX 27064 67855 32980 70201 10216 20180 38/// 48/// 81032
                   333 20170 5//// 81360 87080=
200703270000 AAXX 27004 67855 NIL=
200703261800 AAXX 26184 67855 NIL=
200703261200 AAXX 26124 67855 NIL=
200703260600 AAXX 26064 67855 32980 70501 10224 20193 3//// 48/// 81032
                   333 20145 5//// 81360 87080=
200703260000 AAXX 26004 67855 NIL=
200703251200 AAXX 25124 67855 NIL=
200703250600 AAXX 25064 67855 NIL=
200703250000 AAXX 25004 67855 NIL=
200703241800 AAXX 24184 67855 NIL=
200703241200 AAXX 24124 67855 NIL=
200703240600 AAXX 24064 67855 NIL=
200703240000 AAXX 24004 67855 NIL=
200703231800 AAXX 23184 67855 NIL=
200703231200 AAXX 23124 67855 NIL=
200703230600 AAXX 23064 67855 NIL=
200703230000 AAXX 23004 67855 NIL=
200703221800 AAXX 22184 67855 NIL=
200703221200 AAXX 22124 67855 NIL=
200703220600 AAXX 22064 67855 NIL=
200703220000 AAXX 22004 67855 NIL=
200703211800 AAXX 21184 67855 NIL=
200703211200 AAXX 21124 67855 NIL=
200703210600 AAXX 21064 67855 12980 70701 10210 20172 3//// 48/// 60014 80002
                   333 20166 5//// 87080=
200703210000 AAXX 21004 67855 NIL=
200703201800 AAXX 20184 67855 NIL=
200703201200 AAXX 20124 67855 NIL=
200703200600 AAXX 20064 67855 NIL=
200703200000 AAXX 20004 67855 NIL=
200703191800 AAXX 19184 67855 NIL=
200703191200 AAXX 19124 67855 NIL=
200703190600 AAXX 19064 67855 12980 40901 10228 20171 3//// 48/// 69904 80001
                   333 20211 5//// 84080=
200703190000 AAXX 19004 67855 NIL=
200703181800 AAXX 18184 67855 NIL=
200703181200 AAXX 18124 67855 NIL=
200703180600 AAXX 18064 67855 NIL=
200703180000 AAXX 18004 67855 NIL=
200703171800 AAXX 17184 67855 NIL=
200703171200 AAXX 17124 67855 NIL=
200703170600 AAXX 17064 67855 NIL=
200703170000 AAXX 17004 67855 NIL=
200703161800 AAXX 16184 67855 NIL=
200703161200 AAXX 16124 67855 NIL=
200703160600 AAXX 16064 67855 32980 31601 10163 20121 3//// 48/// 80002
                   333 20110 5//// 83080=
200703160000 AAXX 16004 67855 NIL=
200703151800 AAXX 15184 67855 NIL=
200703151200 AAXX 15124 67855 NIL=
200703150600 AAXX 15064 67855 32980 70000 10174 20139 3//// 48/// 80002
                   333 20131 5//// 87080=
200703150000 AAXX 15004 67855 NIL=
200703141800 AAXX 14184 67855 NIL=
200703141200 AAXX 14124 67855 NIL=
200703140600 AAXX 14064 67855 32980 41001 10168 20129 38/// 48/// 80002
                   333 20123 5//// 84080=
200703140000 AAXX 14004 67855 NIL=
200703131800 AAXX 13184 67855 NIL=
200703131200 AAXX 13124 67855 NIL=
200703130600 AAXX 13064 67855 NIL=
200703130000 AAXX 13004 67855 NIL=
200703121800 AAXX 12184 67855 NIL=
200703121200 AAXX 12124 67855 NIL=
200703120600 AAXX 12064 67855 NIL=
200703120000 AAXX 12004 67855 NIL=
200703111800 AAXX 11184 67855 NIL=
200703111200 AAXX 11124 67855 NIL=
200703110600 AAXX 11064 67855 NIL=
200703110000 AAXX 11004 67855 NIL=
200703101800 AAXX 10184 67855 NIL=
200703101200 AAXX 10124 67855 NIL=
200703100600 AAXX 10064 67855 NIL=
200703100000 AAXX 10004 67855 NIL=
200703091800 AAXX 09184 67855 NIL=
200703091200 AAXX 09124 67855 NIL=
200703090600 AAXX 09064 67855 12980 70000 10180 20152 3//// 48/// 69904 87030
                   333 20142 5//// 87360=
200703090000 AAXX 09004 67855 NIL=
200703081800 AAXX 08184 67855 NIL=
200703081200 AAXX 08124 67855 NIL=
200703080600 AAXX 08064 67855 12980 71801 10190 20159 3//// 48/// 69904 87030
                   333 20160 5//// 87360=
200703080000 AAXX 08004 67855 NIL=
200703071800 AAXX 07184 67855 NIL=
200703071200 AAXX 07124 67855 NIL=
200703070600 AAXX 07064 67855 12980 81501 10195 20178 3//// 48/// 60044 81032
                   333 20174 5//// 81360=
200703070000 AAXX 07004 67855 NIL=
200703061800 AAXX 06184 67855 NIL=
200703061200 AAXX 06124 67855 NIL=
200703060600 AAXX 06064 67855 12980 70000 10206 20201 3//// 48/// 60584 87072
                   333 20186 5//// 87460=
200703060000 AAXX 06004 67855 NIL=
200703051800 AAXX 05184 67855 NIL=
200703051200 AAXX 05124 67855 NIL=
200703050600 AAXX 05064 67855 11980 71701 10223 20193 3//// 48/// 60054 70192 84032
                   333 20195 5//// 84360 87080=
200703050000 AAXX 05004 67855 NIL=
200703041800 AAXX 04184 67855 NIL=
200703041200 AAXX 04124 67855 NIL=
200703040600 AAXX 04064 67855 NIL=
200703040000 AAXX 04004 67855 NIL=
200703031800 AAXX 03184 67855 NIL=
200703031200 AAXX 03124 67855 NIL=
200703030600 AAXX 03064 67855 NIL=
200703030000 AAXX 03004 67855 NIL=
200703021800 AAXX 02184 67855 NIL=
200703021200 AAXX 02124 67855 NIL=
200703020600 AAXX 02064 67855 32980 00701 10200 20168 3//// 48///
                   333 20165 5////=
200703020000 AAXX 02004 67855 NIL=
200703011800 AAXX 01184 67855 NIL=
200703011200 AAXX 01124 67855 NIL=
200703010600 AAXX 01064 67855 32980 00901 10197 20164 3//// 48///
                   333 20160 5////=
