################################################################################
# Query made at 04/14/2022 06:16:06 UTC
# Country like Zamb*
# Time interval: from 01/01/2014 05:30  to 01/31/2014 05:30  UTC
################################################################################

################################################################################
#  SYNOPS from 67403, Kawambwa (Zambia) | 09-48S | 029-05E | 1323 m
################################################################################
201401310300 AAXX 31034 67403 NIL=
201401310000 AAXX 31004 67403 NIL=
201401302100 AAXX 30214 67403 NIL=
201401301800 AAXX 30184 67403 NIL=
201401301500 AAXX 30154 67403 NIL=
201401301200 AAXX 30124 67403 NIL=
201401300900 AAXX 30094 67403 NIL=
201401300600 AAXX 30064 67403 NIL=
201401300300 AAXX 30034 67403 NIL=
201401292100 AAXX 29214 67403 NIL=
201401291800 AAXX 29184 67403 NIL=
201401291500 AAXX 29154 67403 NIL=
201401291200 AAXX 29124 67403 NIL=
201401290900 AAXX 29094 67403 NIL=
201401290600 AAXX 29064 67403 11570 70000 10176 20176 48499 60154 74442 8257/
                   333 10252 20/// 58004 82620 87462=
201401290300 AAXX 29034 67403 NIL=
201401290000 AAXX 29004 67403 NIL=
201401282100 AAXX 28214 67403 NIL=
201401281800 AAXX 28184 67403 NIL=
201401281500 AAXX 28154 67403 NIL=
201401281200 AAXX 28124 67403 NIL=
201401280900 AAXX 28094 67403 NIL=
201401280600 AAXX 28064 67403 NIL=
201401280300 AAXX 28034 67403 NIL=
201401272100 AAXX 27214 67403 NIL=
201401271800 AAXX 27184 67403 NIL=
201401271500 AAXX 27154 67403 NIL=
201401271200 AAXX 27124 67403 NIL=
201401270900 AAXX 27094 67403 NIL=
201401270600 AAXX 27064 67403 NIL=
201401270300 AAXX 27034 67403 NIL=
201401270000 AAXX 27004 67403 NIL=
201401262100 AAXX 26214 67403 NIL=
201401261800 AAXX 26184 67403 NIL=
201401261500 AAXX 26154 67403 NIL=
201401261200 AAXX 26124 67403 NIL=
201401260900 AAXX 26094 67403 NIL=
201401260600 AAXX 26064 67403 NIL=
201401251800 AAXX 25184 67403 NIL=
201401251500 AAXX 25154 67403 NIL=
201401251200 AAXX 25124 67403 NIL=
201401250900 AAXX 25094 67403 NIL=
201401250600 AAXX 25064 67403 NIL=
201401250000 AAXX 25004 67403 NIL=
201401242100 AAXX 24214 67403 NIL=
201401241800 AAXX 24184 67403 NIL=
201401241500 AAXX 24154 67403 NIL=
201401241200 AAXX 24124 67403 NIL=
201401240900 AAXX 24094 67403 NIL=
201401240600 AAXX 24064 67403 11480 80000 10194 20188 60074 72162 8357/
                   333 10275 20/// 59006 83620 87462=
201401240300 AAXX 24034 67403 NIL=
201401240000 AAXX 24004 67403 NIL=
201401231500 AAXX 23154 67403 NIL=
201401231200 AAXX 23124 67403 NIL=
201401230900 AAXX 23094 67403 NIL=
201401230600 AAXX 23064 67403 NIL=
201401230300 AAXX 23034 67403 NIL=
201401230000 AAXX 23004 67403 NIL=
201401222100 AAXX 22214 67403 NIL=
201401221800 AAXX 22184 67403 NIL=
201401221500 AAXX 22154 67403 NIL=
201401221200 AAXX 22124 67403 NIL=
201401220900 AAXX 22094 67403 NIL=
201401220600 AAXX 22064 67403 12580 70000 10194 20187 48500 60254 72166 83532
                   333 10285 20/// 59017 83620 83362 82080=
201401220000 AAXX 22004 67403 NIL=
201401212100 AAXX 21214 67403 NIL=
201401211800 AAXX 21184 67403 NIL=
201401211200 AAXX 21124 67403 NIL=
201401210900 AAXX 21094 67403 NIL=
201401210600 AAXX 21064 67403 12580 80000 10190 20182 48521 60344 8357/
                   333 10282 20/// 58001 83620 87362=
201401210300 AAXX 21034 67403 NIL=
201401202100 AAXX 20214 67403 NIL=
201401201800 AAXX 20184 67403 NIL=
201401201200 AAXX 20124 67403 NIL=
201401200900 AAXX 20094 67403 NIL=
201401200600 AAXX 20064 67403 12580 70000 10210 20195 48521 60064 8357/
                   333 10300 20/// 59002 83620 86362=
201401200000 AAXX 20004 67403 NIL=
201401192100 AAXX 19214 67403 NIL=
201401191800 AAXX 19184 67403 NIL=
201401191500 AAXX 19154 67403 NIL=
201401191200 AAXX 19124 67403 NIL=
201401190900 AAXX 19094 67403 NIL=
201401190600 AAXX 19064 67403 NIL=
201401190000 AAXX 19004 67403 NIL=
201401181800 AAXX 18184 67403 NIL=
201401181200 AAXX 18124 67403 NIL=
201401180900 AAXX 18094 67403 NIL=
201401180600 AAXX 18064 67403 NIL=
201401180300 AAXX 18034 67403 NIL=
201401180000 AAXX 18004 67403 NIL=
201401171800 AAXX 17184 67403 NIL=
201401171200 AAXX 17120 67403 NIL=
201401170900 AAXX 17094 67403 NIL=
201401170600 AAXX 17060 67403 NIL=
201401170300 AAXX 17034 67403 NIL=
201401162100 AAXX 16214 67403 NIL=
201401161800 AAXX 16184 67403 NIL=
201401161500 AAXX 16154 67403 NIL=
201401161200 AAXX 16124 67403 NIL=
201401160900 AAXX 16094 67403 NIL=
201401160600 AAXX 16064 67403 NIL=
201401151200 AAXX 15124 67403 NIL=
201401150600 AAXX 15064 67403 12580 80000 10180 20171 48548 60444 8257/
                   333 10250 20/// 58018 82620 87462=
201401140600 AAXX 14064 67403 NIL=
201401140300 AAXX 14034 67403 NIL=
201401132100 AAXX 13214 67403 NIL=
201401131800 AAXX 13184 67403 NIL=
201401131500 AAXX 13154 67403 NIL=
201401131200 AAXX 13124 67403 NIL=
201401130900 AAXX 13094 67403 NIL=
201401130600 AAXX 13064 67403 12980 70000 10190 20177 48540 60144 8807/
                   333 10250 20/// 59014 88462=
201401091500 AAXX 09154 67403 NIL=
201401091200 AAXX 09124 67403 NIL=
201401090900 AAXX 09094 67403 NIL=
201401090600 AAXX 09064 67403 NIL=
201401090000 AAXX 09004 67403 NIL=
201401082100 AAXX 08214 67403 NIL=
201401081800 AAXX 08184 67403 NIL=
201401081500 AAXX 08150 67403 NIL=
201401081200 AAXX 08124 67403 NIL=
201401080900 AAXX 08094 67403 NIL=
201401080600 AAXX 08064 67403 NIL=
201401080300 AAXX 08034 67403 NIL=
201401080000 AAXX 08004 67403 NIL=
201401072100 AAXX 07214 67403 NIL=
201401071800 AAXX 07184 67403 NIL=
201401071500 AAXX 07154 67403 NIL=
201401071200 AAXX 07124 67403 NIL=
201401070900 AAXX 07094 67403 NIL=
201401070600 AAXX 07064 67403 NIL=
201401070300 AAXX 07034 67403 NIL=
201401070000 AAXX 07004 67403 NIL=
201401062100 AAXX 06214 67403 NIL=
201401061800 AAXX 06184 67403 NIL=
201401061500 AAXX 06154 67403 NIL=
201401061200 AAXX 06124 67403 NIL=
201401060900 AAXX 06094 67403 NIL=
201401060600 AAXX 06064 67403 NIL=
201401060300 AAXX 06034 67403 NIL=
201401052100 AAXX 05214 67403 NIL=
201401051800 AAXX 05184 67403 NIL=
201401051500 AAXX 05154 67403 NIL=
201401051200 AAXX 05124 67403 NIL=
201401050900 AAXX 05094 67403 NIL=
201401050000 AAXX 05004 67403 NIL=
201401042100 AAXX 04214 67403 NIL=
201401041800 AAXX 04184 67403 NIL=
201401041500 AAXX 04154 67403 NIL=
201401041200 AAXX 04124 67403 NIL=
201401040900 AAXX 04094 67403 NIL=
201401040600 AAXX 04064 67403 NIL=
201401040000 AAXX 04004 67403 NIL=
201401031800 AAXX 03184 67403 NIL=
201401031500 AAXX 03154 67403 NIL=
201401031200 AAXX 03124 67403 NIL=
201401030900 AAXX 03094 67403 NIL=
201401030600 AAXX 03064 67403 NIL=
201401022100 AAXX 02214 67403 NIL=
201401021800 AAXX 02184 67403 NIL=
201401021500 AAXX 02154 67403 NIL=
201401021200 AAXX 02124 67403 NIL=
201401020900 AAXX 02094 67403 NIL=
201401020600 AAXX 02064 67403 NIL=
201401020000 AAXX 02004 67403 NIL=
201401012100 AAXX 01214 67403 NIL=
201401011800 AAXX 01184 67403 NIL=
201401011500 AAXX 01154 67403 NIL=
201401010900 AAXX 01094 67403 NIL=
201401010600 AAXX 01064 67403 NIL=

################################################################################
#  SYNOPS from 67413, Mbala (Zambia) | 08-51S | 031-20E | 1673 m
################################################################################
201401310300 AAXX 31034 67413 NIL=
201401310000 AAXX 31004 67413 NIL=
201401302100 AAXX 30214 67413 NIL=
201401301800 AAXX 30184 67413 NIL=
201401301500 AAXX 30154 67413 NIL=
201401301200 AAXX 30124 67413 NIL=
201401300900 AAXX 30094 67413 NIL=
201401300600 AAXX 30064 67413 12980 70000 10195 20155 48525 69944 8707/
                   333 10250 20/// 59001 87360 91022=
201401300300 AAXX 30034 67413 NIL=
201401292100 AAXX 29214 67413 NIL=
201401291800 AAXX 29184 67413 NIL=
201401291500 AAXX 29154 67413 NIL=
201401291200 AAXX 29124 67413 NIL=
201401290900 AAXX 29094 67413 NIL=
201401290600 AAXX 29064 67413 12580 81004 10170 20154 48528 60124 8151/
                   333 10235 20/// 58003 81615 87460 91022=
201401290300 AAXX 29034 67413 NIL=
201401290000 AAXX 29004 67413 NIL=
201401282100 AAXX 28214 67413 NIL=
201401281800 AAXX 28184 67413 NIL=
201401281500 AAXX 28154 67413 NIL=
201401281200 AAXX 28124 67413 NIL=
201401280900 AAXX 28094 67413 NIL=
201401280600 AAXX 28064 67413 12480 71005 10180 20154 48526 60134 82038
                   333 10260 20/// 59002 82359 85280
                   555 00/// 20003 91022=
201401280300 AAXX 28034 67413 NIL=
201401272100 AAXX 27214 67413 NIL=
201401271800 AAXX 27184 67413 NIL=
201401271500 AAXX 27154 67413 NIL=
201401271200 AAXX 27124 67413 NIL=
201401270900 AAXX 27094 67413 NIL=
201401270600 AAXX 27064 67413 NIL=
201401270300 AAXX 27034 67413 NIL=
201401270000 AAXX 27004 67413 NIL=
201401262100 AAXX 26214 67413 NIL=
201401261800 AAXX 26184 67413 NIL=
201401261500 AAXX 26154 67413 NIL=
201401261200 AAXX 26124 67413 NIL=
201401260900 AAXX 26094 67413 NIL=
201401260600 AAXX 26064 67413 NIL=
201401251800 AAXX 25184 67413 NIL=
201401251500 AAXX 25154 67413 NIL=
201401251200 AAXX 25124 67413 NIL=
201401250900 AAXX 25094 67413 NIL=
201401250600 AAXX 25064 67413 NIL=
201401250000 AAXX 25004 67413 NIL=
201401242100 AAXX 24214 67413 NIL=
201401241800 AAXX 24184 67413 NIL=
201401241500 AAXX 24154 67413 NIL=
201401241200 AAXX 24124 67413 NIL=
201401240900 AAXX 24094 67413 41480 83205 10180 20154 48532 75164 887//
                   333 58001 88715 91022=
201401240600 AAXX 24064 67413 11/03 93220 10155 20155 48532 60064 74766 89///
                   333 10250 20/// 59003 8/7// 91023=
201401240300 AAXX 24034 67413 NIL=
201401240000 AAXX 24004 67413 NIL=
201401231500 AAXX 23154 67413 NIL=
201401231200 AAXX 23124 67413 NIL=
201401230900 AAXX 23094 67413 NIL=
201401230600 AAXX 23064 67413 11/10 90000 10170 20163 48534 60404 74346 8////
                   333 10240 20/// 59006 91023=
201401230300 AAXX 23034 67413 NIL=
201401230000 AAXX 23004 67413 NIL=
201401222100 AAXX 22214 67413 NIL=
201401221800 AAXX 22184 67413 NIL=
201401221500 AAXX 22154 67413 NIL=
201401221200 AAXX 22124 67413 NIL=
201401220900 AAXX 22094 67413 NIL=
201401220600 AAXX 22064 67413 32480 70000 10185 20162 48539 8152/
                   333 10240 20/// 59006 81610 87257 91024=
201401220000 AAXX 22004 67413 NIL=
201401212100 AAXX 21214 67413 NIL=
201401211800 AAXX 21184 67413 NIL=
201401211200 AAXX 21124 67413 NIL=
201401210900 AAXX 21094 67413 NIL=
201401210600 AAXX 21064 67413 11/80 90000 10180 20164 48546 69904 74344 89///
                   333 10250 20/// 58004 897// 91025=
201401210300 AAXX 21034 67413 NIL=
201401202100 AAXX 20214 67413 NIL=
201401201800 AAXX 20184 67413 NIL=
201401201200 AAXX 20124 67413 NIL=
201401200900 AAXX 20094 67413 NIL=
201401200600 AAXX 20064 67413 32880 70000 10200 20168 48540 8703/
                   333 10260 20/// 59001 87357 91024=
201401200000 AAXX 20004 67413 NIL=
201401192100 AAXX 19214 67413 NIL=
201401191800 AAXX 19184 67413 NIL=
201401191500 AAXX 19154 67413 NIL=
201401191200 AAXX 19124 67413 NIL=
201401190900 AAXX 19094 67413 NIL=
201401190600 AAXX 19064 67413 NIL=
201401190000 AAXX 19004 67413 NIL=
201401181800 AAXX 18184 67413 NIL=
201401181200 AAXX 18124 67413 NIL=
201401180900 AAXX 18094 67413 NIL=
201401180600 AAXX 18064 67413 NIL=
201401180300 AAXX 18034 67413 NIL=
201401180000 AAXX 18004 67413 NIL=
201401171800 AAXX 17184 67413 NIL=
201401171200 AAXX 17120 67413 NIL=
201401170900 AAXX 17094 67413 NIL=
201401170600 AAXX 17064 67413 11320 80000 10185 20178 48549 69934 71742 886//
                   333 10245 20/// 59008 8/9// 88709 91025=
201401170300 AAXX 17034 67413 NIL=
201401162100 AAXX 16214 67413 NIL=
201401161800 AAXX 16184 67413 NIL=
201401161500 AAXX 16154 67413 NIL=
201401161200 AAXX 16124 67413 NIL=
201401160900 AAXX 16094 67413 NIL=
201401160600 AAXX 16064 67413 12980 80000 10175 20158 48558 60014 8807/
                   333 10200 20/// 58005 88360 91026=
201401151200 AAXX 15124 67413 NIL=
201401150600 AAXX 15064 67413 12480 70000 10168 20155 48543 60114 8557/
                   333 10227 20/// 58026 85315 83459 91025=
201401140600 AAXX 14064 67413 NIL=
201401140300 AAXX 14034 67413 NIL=
201401132100 AAXX 13214 67413 NIL=
201401131800 AAXX 13184 67413 NIL=
201401131500 AAXX 13154 67413 NIL=
201401131200 AAXX 13124 67413 NIL=
201401130900 AAXX 13094 67413 NIL=
201401091500 AAXX 09154 67413 NIL=
201401091200 AAXX 09124 67413 NIL=
201401090900 AAXX 09094 67413 NIL=
201401090600 AAXX 09064 67413 NIL=
201401090000 AAXX 09004 67413 NIL=
201401082100 AAXX 08214 67413 NIL=
201401081800 AAXX 08184 67413 NIL=
201401081500 AAXX 08150 67413 NIL=
201401081200 AAXX 08124 67413 NIL=
201401080900 AAXX 08094 67413 NIL=
201401080600 AAXX 08064 67413 NIL=
201401080300 AAXX 08034 67413 NIL=
201401080000 AAXX 08004 67413 NIL=
201401072100 AAXX 07214 67413 NIL=
201401071800 AAXX 07184 67413 NIL=
201401071500 AAXX 07154 67413 NIL=
201401071200 AAXX 07124 67413 NIL=
201401070900 AAXX 07094 67413 NIL=
201401070600 AAXX 07064 67413 NIL=
201401070300 AAXX 07034 67413 NIL=
201401070000 AAXX 07004 67413 NIL=
201401062100 AAXX 06214 67413 NIL=
201401061800 AAXX 06184 67413 NIL=
201401061500 AAXX 06154 67413 NIL=
201401061200 AAXX 06124 67413 NIL=
201401060900 AAXX 06094 67413 NIL=
201401060600 AAXX 06064 67413 NIL=
201401060300 AAXX 06034 67413 NIL=
201401052100 AAXX 05214 67413 NIL=
201401051800 AAXX 05184 67413 NIL=
201401051500 AAXX 05154 67413 NIL=
201401051200 AAXX 05124 67413 NIL=
201401050900 AAXX 05094 67413 NIL=
201401050000 AAXX 05004 67413 NIL=
201401042100 AAXX 04214 67413 NIL=
201401041800 AAXX 04184 67413 NIL=
201401041500 AAXX 04154 67413 NIL=
201401041200 AAXX 04124 67413 NIL=
201401040900 AAXX 04094 67413 NIL=
201401040600 AAXX 04064 67413 NIL=
201401040000 AAXX 04004 67413 NIL=
201401031800 AAXX 03184 67413 NIL=
201401031500 AAXX 03154 67413 NIL=
201401031200 AAXX 03124 67413 NIL=
201401030900 AAXX 03094 67413 NIL=
201401030600 AAXX 03064 67413 32980 80000 10180 20173 48533 69934 8801/
                   333 10220 20/// 58001 88460 91023=
201401022100 AAXX 02214 67413 NIL=
201401021800 AAXX 02184 67413 NIL=
201401021500 AAXX 02154 67413 NIL=
201401021200 AAXX 02124 67413 NIL=
201401020900 AAXX 02094 67413 NIL=
201401020600 AAXX 02064 67413 12480 80000 10190 20175 48532 60014 8151/
                   333 10260 20/// 59008 81615 87460 91023=
201401020000 AAXX 02004 67413 NIL=
201401012100 AAXX 01214 67413 NIL=
201401011800 AAXX 01184 67413 NIL=
201401011500 AAXX 01154 67413 NIL=
201401010900 AAXX 01094 67413 NIL=
201401010600 AAXX 01064 67413 NIL=

################################################################################
#  SYNOPS from 67441, Mwinilunga (Zambia) | 11-45S | 024-26E | 1361 m
################################################################################
201401310300 AAXX 31034 67441 NIL=
201401310000 AAXX 31004 67441 NIL=
201401302100 AAXX 30214 67441 NIL=
201401301800 AAXX 30184 67441 NIL=
201401301500 AAXX 30154 67441 NIL=
201401301200 AAXX 30124 67441 NIL=
201401300900 AAXX 30094 67441 NIL=
201401300600 AAXX 30064 67441 32580 60000 10185 20177 48548 81135
                   333 10275 20/// 58009 81825 84360 83080=
201401300300 AAXX 30034 67441 NIL=
201401292100 AAXX 29214 67441 NIL=
201401291800 AAXX 29184 67441 NIL=
201401291500 AAXX 29154 67441 NIL=
201401291200 AAXX 29124 67441 NIL=
201401290900 AAXX 29094 67441 NIL=
201401290600 AAXX 29064 67441 NIL=
201401290300 AAXX 29034 67441 NIL=
201401290000 AAXX 29004 67441 NIL=
201401282100 AAXX 28214 67441 NIL=
201401281800 AAXX 28184 67441 NIL=
201401281500 AAXX 28154 67441 NIL=
201401281200 AAXX 28124 67441 NIL=
201401280900 AAXX 28094 67441 NIL=
201401280600 AAXX 28064 67441 12980 70000 10190 20183 48539 60014 81038
                   333 10260 20/// 58005 81360 86280=
201401280300 AAXX 28034 67441 NIL=
201401272100 AAXX 27214 67441 NIL=
201401271800 AAXX 27184 67441 NIL=
201401271500 AAXX 27154 67441 NIL=
201401271200 AAXX 27124 67441 NIL=
201401270900 AAXX 27094 67441 NIL=
201401270600 AAXX 27064 67441 NIL=
201401270300 AAXX 27034 67441 NIL=
201401270000 AAXX 27004 67441 NIL=
201401262100 AAXX 26214 67441 NIL=
201401261800 AAXX 26184 67441 NIL=
201401261500 AAXX 26154 67441 NIL=
201401261200 AAXX 26124 67441 NIL=
201401260900 AAXX 26094 67441 NIL=
201401260600 AAXX 26064 67441 NIL=
201401251800 AAXX 25184 67441 NIL=
201401251500 AAXX 25154 67441 NIL=
201401251200 AAXX 25124 67441 NIL=
201401250900 AAXX 25094 67441 NIL=
201401250600 AAXX 25064 67441 NIL=
201401250000 AAXX 25004 67441 NIL=
201401242100 AAXX 24214 67441 NIL=
201401241800 AAXX 24184 67441 NIL=
201401241500 AAXX 24154 67441 NIL=
201401241200 AAXX 24124 67441 NIL=
201401240900 AAXX 24094 67441 NIL=
201401240600 AAXX 24064 67441 NIL=
201401240300 AAXX 24034 67441 NIL=
201401240000 AAXX 24004 67441 NIL=
201401231500 AAXX 23154 67441 NIL=
201401231200 AAXX 23124 67441 NIL=
201401230900 AAXX 23094 67441 NIL=
201401230600 AAXX 23064 67441 11/02 90000 10180 20180 48534 60444 74544 89///
                   333 10265 20/// 59009=
201401230300 AAXX 23034 67441 NIL=
201401230000 AAXX 23004 67441 NIL=
201401222100 AAXX 22214 67441 NIL=
201401221800 AAXX 22184 67441 NIL=
201401221500 AAXX 22154 67441 NIL=
201401221200 AAXX 22124 67441 NIL=
201401220900 AAXX 22094 67441 NIL=
201401220600 AAXX 22064 67441 NIL=
201401220000 AAXX 22004 67441 NIL=
201401212100 AAXX 21214 67441 NIL=
201401211800 AAXX 21184 67441 NIL=
201401211200 AAXX 21124 67441 NIL=
201401210900 AAXX 21094 67441 NIL=
201401210600 AAXX 21064 67441 12380 706// 10180 20172 48553 60034 8463/
                   333 10275 20/// 59003 84709 87360=
201401210300 AAXX 21034 67441 NIL=
201401202100 AAXX 20214 67441 NIL=
201401201800 AAXX 20184 67441 NIL=
201401201200 AAXX 20124 67441 NIL=
201401200900 AAXX 20094 67441 NIL=
201401200600 AAXX 20064 67441 31408 70000 10170 20164 48556 74244 8317/
                   333 10300 20/// 5//// 83818 87360=
201401200000 AAXX 20004 67441 NIL=
201401192100 AAXX 19214 67441 NIL=
201401191800 AAXX 19184 67441 NIL=
201401191500 AAXX 19154 67441 NIL=
201401191200 AAXX 19124 67441 NIL=
201401190900 AAXX 19094 67441 NIL=
201401190600 AAXX 19064 67441 NIL=
201401190000 AAXX 19004 67441 NIL=
201401181800 AAXX 18184 67441 NIL=
201401181200 AAXX 18124 67441 NIL=
201401180900 AAXX 18094 67441 NIL=
201401180600 AAXX 18064 67441 NIL=
201401180300 AAXX 18034 67441 NIL=
201401180000 AAXX 18004 67441 NIL=
201401171800 AAXX 17184 67441 NIL=
201401171200 AAXX 17120 67441 NIL=
201401170900 AAXX 17094 67441 NIL=
201401170600 AAXX 17064 67441 11480 70000 10182 20179 48571 60064 72162 8113/
                   333 10265 20/// 59013 81818 87360=
201401170300 AAXX 17034 67441 NIL=
201401162100 AAXX 16214 67441 NIL=
201401161800 AAXX 16184 67441 NIL=
201401161500 AAXX 16154 67441 NIL=
201401161200 AAXX 16124 67441 NIL=
201401160900 AAXX 16094 67441 NIL=
201401160600 AAXX 16064 67441 11958 820// 10167 20156 48584 60094 76362 8802/
                   333 10270 20/// 58031 88460=
201401151200 AAXX 15124 67441 NIL=
201401150600 AAXX 15064 67441 11980 80000 10175 20175 48553 60254 72166 8807/
                   333 10270 20/// 58010 88360=
201401140600 AAXX 14064 67441 NIL=
201401140300 AAXX 14034 67441 NIL=
201401132100 AAXX 13214 67441 NIL=
201401131800 AAXX 13184 67441 NIL=
201401131500 AAXX 13154 67441 NIL=
201401131200 AAXX 13124 67441 NIL=
201401130900 AAXX 13094 67441 NIL=
201401130600 AAXX 13064 67441 11560 70000 10185 20185 48553 60044 76196 8112/
                   333 10275 20/// 59012 81820 87460=
201401091500 AAXX 09154 67441 NIL=
201401091200 AAXX 09124 67441 NIL=
201401090900 AAXX 09094 67441 NIL=
201401090600 AAXX 09064 67441 12480 80000 10185 20177 48545 60054 8117/
                   333 10256 20/// 58005 81818 88360=
201401090000 AAXX 09004 67441 NIL=
201401082100 AAXX 08214 67441 NIL=
201401081800 AAXX 08184 67441 NIL=
201401081500 AAXX 08150 67441 NIL=
201401081200 AAXX 08124 67441 NIL=
201401080900 AAXX 08094 67441 NIL=
201401080600 AAXX 08064 67441 12380 827// 10180 20155 48540 69904 886//
                   333 10/// 20/// 58015 88701=
201401080300 AAXX 08034 67441 NIL=
201401080000 AAXX 08004 67441 NIL=
201401072100 AAXX 07214 67441 NIL=
201401071800 AAXX 07184 67441 NIL=
201401071500 AAXX 07154 67441 NIL=
201401071200 AAXX 07124 67441 NIL=
201401070900 AAXX 07094 67441 NIL=
201401070600 AAXX 07064 67441 NIL=
201401070300 AAXX 07034 67441 NIL=
201401070000 AAXX 07004 67441 NIL=
201401062100 AAXX 06214 67441 NIL=
201401061800 AAXX 06184 67441 NIL=
201401061500 AAXX 06154 67441 NIL=
201401061200 AAXX 06124 67441 NIL=
201401060900 AAXX 06094 67441 NIL=
201401060600 AAXX 06064 67441 NIL=
201401060300 AAXX 06034 67441 NIL=
201401052100 AAXX 05214 67441 NIL=
201401051800 AAXX 05184 67441 NIL=
201401051500 AAXX 05154 67441 NIL=
201401051200 AAXX 05124 67441 NIL=
201401050900 AAXX 05094 67441 NIL=
201401050000 AAXX 05004 67441 NIL=
201401042100 AAXX 04214 67441 NIL=
201401041800 AAXX 04184 67441 NIL=
201401041500 AAXX 04154 67441 NIL=
201401041200 AAXX 04124 67441 NIL=
201401040900 AAXX 04094 67441 NIL=
201401040600 AAXX 04064 67441 NIL=
201401040000 AAXX 04004 67441 NIL=
201401031800 AAXX 03184 67441 NIL=
201401031500 AAXX 03154 67441 NIL=
201401031200 AAXX 03124 67441 NIL=
201401030900 AAXX 03094 67441 NIL=
201401030600 AAXX 03064 67441 NIL=
201401022100 AAXX 02214 67441 NIL=
201401021800 AAXX 02184 67441 NIL=
201401021500 AAXX 02154 67441 NIL=
201401021200 AAXX 02124 67441 NIL=
201401020900 AAXX 02094 67441 NIL=
201401020600 AAXX 02064 67441 12580 729// 10205 20183 48529 69904 8113/
                   333 10255 20/// 58004 81820 87360=
201401020000 AAXX 02004 67441 NIL=
201401012100 AAXX 01214 67441 NIL=
201401011800 AAXX 01184 67441 NIL=
201401011500 AAXX 01154 67441 NIL=
201401010900 AAXX 01094 67441 NIL=
201401010600 AAXX 01064 67441 NIL=

################################################################################
#  SYNOPS from 67461, Mansa (Zambia) | 11-06S | 028-51E | 1382 m
################################################################################
201401310300 AAXX 31034 67461 NIL=
201401310000 AAXX 31004 67461 NIL=
201401302100 AAXX 30214 67461 NIL=
201401301800 AAXX 30184 67461 NIL=
201401301500 AAXX 30154 67461 NIL=
201401301200 AAXX 30124 67461 NIL=
201401300900 AAXX 30094 67461 NIL=
201401300600 AAXX 30064 67461 12580 60000 10204 20186 48502 60184 70322 81532
                   333 10282 20172 58002 81622 85361 83080 91016=
201401300300 AAXX 30034 67461 NIL=
201401292100 AAXX 29214 67461 NIL=
201401291800 AAXX 29184 67461 NIL=
201401291500 AAXX 29154 67461 NIL=
201401291200 AAXX 29124 67461 NIL=
201401290900 AAXX 29094 67461 NIL=
201401290600 AAXX 29064 67461 12280 80000 10197 20190 48499 60164 70322 8177/
                   333 10214 20178 59007 81708 88461 91016=
201401290300 AAXX 29034 67461 NIL=
201401290000 AAXX 29004 67461 NIL=
201401282100 AAXX 28214 67461 NIL=
201401281800 AAXX 28184 67461 NIL=
201401281500 AAXX 28154 67461 NIL=
201401281200 AAXX 28124 67461 NIL=
201401280900 AAXX 28094 67461 NIL=
201401280600 AAXX 28064 67461 31260 80000 10197 20191 48507 71799 8577/
                   333 10285 20186 58001 81920 85707 87461 91017=
201401280300 AAXX 28034 67461 NIL=
201401272100 AAXX 27214 67461 NIL=
201401271800 AAXX 27184 67461 NIL=
201401271500 AAXX 27154 67461 NIL=
201401271200 AAXX 27124 67461 NIL=
201401270900 AAXX 27094 67461 NIL=
201401270600 AAXX 27064 67461 NIL=
201401270300 AAXX 27034 67461 NIL=
201401270000 AAXX 27004 67461 NIL=
201401262100 AAXX 26214 67461 NIL=
201401261800 AAXX 26184 67461 NIL=
201401261500 AAXX 26154 67461 NIL=
201401261200 AAXX 26124 67461 NIL=
201401260900 AAXX 26094 67461 NIL=
201401260600 AAXX 26064 67461 NIL=
201401251800 AAXX 25184 67461 NIL=
201401251500 AAXX 25154 67461 NIL=
201401251200 AAXX 25124 67461 NIL=
201401250900 AAXX 25094 67461 NIL=
201401250600 AAXX 25064 67461 NIL=
201401250000 AAXX 25004 67461 NIL=
201401242100 AAXX 24214 67461 NIL=
201401241800 AAXX 24184 67461 NIL=
201401241500 AAXX 24154 67461 NIL=
201401241200 AAXX 24124 67461 NIL=
201401240900 AAXX 24094 67461 NIL=
201401240600 AAXX 24064 67461 11175 83102 10185 20183 48504 60224 76166 8377/
                   333 10279 20173 59008 83702 88461 91017=
201401240300 AAXX 24034 67461 NIL=
201401240000 AAXX 24004 67461 NIL=
201401231500 AAXX 23154 67461 NIL=
201401231200 AAXX 23124 67461 NIL=
201401230900 AAXX 23094 67461 NIL=
201401230600 AAXX 23064 67461 NIL=
201401230300 AAXX 23034 67461 NIL=
201401230000 AAXX 23004 67461 NIL=
201401222100 AAXX 22214 67461 NIL=
201401221800 AAXX 22184 67461 NIL=
201401221500 AAXX 22154 67461 NIL=
201401221200 AAXX 22124 67461 NIL=
201401220900 AAXX 22094 67461 NIL=
201401220600 AAXX 22064 67461 32980 50000 10215 20193 48515 70222 83032
                   333 10294 20185 59014 83362 84080 91018=
201401220000 AAXX 22004 67461 NIL=
201401212100 AAXX 21214 67461 NIL=
201401211800 AAXX 21184 67461 NIL=
201401211200 AAXX 21124 67461 NIL=
201401210900 AAXX 21094 67461 NIL=
201401210600 AAXX 21064 67461 12380 83602 10194 20188 48527 60074 70222 8577/
                   333 10292 20176 58009 85707 87461 91020=
201401210300 AAXX 21034 67461 NIL=
201401202100 AAXX 20214 67461 NIL=
201401201800 AAXX 20184 67461 NIL=
201401201200 AAXX 20124 67461 NIL=
201401200900 AAXX 20094 67461 NIL=
201401200600 AAXX 20064 67461 11275 81202 10192 20189 48518 60024 76166 8477/
                   333 10/// 20/// 5//// 84703 87461 91019=
201401200000 AAXX 20004 67461 NIL=
201401192100 AAXX 19214 67461 NIL=
201401191800 AAXX 19184 67461 NIL=
201401191500 AAXX 19154 67461 NIL=
201401191200 AAXX 19124 67461 NIL=
201401190900 AAXX 19094 67461 NIL=
201401190600 AAXX 19064 67461 NIL=
201401190000 AAXX 19004 67461 NIL=
201401181800 AAXX 18184 67461 NIL=
201401181200 AAXX 18124 67461 NIL=
201401180900 AAXX 18094 67461 NIL=
201401180600 AAXX 18064 67461 NIL=
201401180300 AAXX 18034 67461 NIL=
201401180000 AAXX 18004 67461 NIL=
201401171800 AAXX 17184 67461 NIL=
201401171200 AAXX 17120 67461 NIL=
201401170900 AAXX 17094 67461 NIL=
201401170600 AAXX 17064 67461 12480 70000 10210 20199 48524 60164 70222 8157/
                   333 10274 20178 59011 81613 87461 91019=
201401170300 AAXX 17034 67461 NIL=
201401162100 AAXX 16214 67461 NIL=
201401161800 AAXX 16184 67461 NIL=
201401161500 AAXX 16154 67461 NIL=
201401161200 AAXX 16124 67461 NIL=
201401160900 AAXX 16094 67461 NIL=
201401160600 AAXX 16064 67461 12480 72902 10205 20195 48534 60054 70322 8553/
                   333 10260 20180 58002 85612 85361 91020=
201401151200 AAXX 15124 67461 NIL=
201401150600 AAXX 15064 67461 11480 80000 10185 20170 48530 60394 72162 8357/
                   333 10229 20160 58019 83618 87461 91020=
201401140600 AAXX 14064 67461 NIL=
201401140300 AAXX 14034 67461 NIL=
201401132100 AAXX 13214 67461 NIL=
201401131800 AAXX 13184 67461 NIL=
201401131500 AAXX 13154 67461 NIL=
201401131200 AAXX 13124 67461 NIL=
201401130900 AAXX 13094 67461 NIL=
201401130600 AAXX 13064 67461 12580 70000 10204 20189 48527 69904 70222 8157/
                   333 10263 20177 58004 81631 87463 91019=
201401091500 AAXX 09154 67461 NIL=
201401091200 AAXX 09124 67461 NIL=
201401090900 AAXX 09094 67461 NIL=
201401090600 AAXX 09064 67461 32380 50902 10200 20193 48506 82532
                   333 10285 20168 58009 82606 81361 85080 91018=
201401090000 AAXX 09004 67461 NIL=
201401082100 AAXX 08214 67461 NIL=
201401081800 AAXX 08184 67461 NIL=
201401081500 AAXX 08150 67461 NIL=
201401081200 AAXX 08124 67461 NIL=
201401080900 AAXX 08094 67461 NIL=
201401080600 AAXX 08064 67461 11375 80902 10180 20179 48495 60024 76066 8257/
                   333 10296 20170 58007 82606 88460
                   555 00/// 20004 91017=
201401080300 AAXX 08034 67461 NIL=
201401080000 AAXX 08004 67461 NIL=
201401072100 AAXX 07214 67461 NIL=
201401071800 AAXX 07184 67461 NIL=
201401071500 AAXX 07154 67461 NIL=
201401071200 AAXX 07124 67461 NIL=
201401070900 AAXX 07094 67461 NIL=
201401070600 AAXX 07064 67461 12980 70902 10195 20187 48486 60044 8707/
                   333 10280 20175 59004 87460
                   555 00/// 20000 91016=
201401070300 AAXX 07034 67461 NIL=
201401070000 AAXX 07004 67461 NIL=
201401062100 AAXX 06214 67461 NIL=
201401061800 AAXX 06184 67461 NIL=
201401061500 AAXX 06154 67461 NIL=
201401061200 AAXX 06124 67461 NIL=
201401060900 AAXX 06094 67461 NIL=
201401060600 AAXX 06064 67461 32980 80902 10207 20189 48499 8807/
                   333 10280 20170 58020 88462
                   555 00/// 20011 91017=
201401060300 AAXX 06034 67461 NIL=
201401052100 AAXX 05214 67461 NIL=
201401051800 AAXX 05184 67461 NIL=
201401051500 AAXX 05154 67461 NIL=
201401051200 AAXX 05124 67461 NIL=
201401050900 AAXX 05094 67461 NIL=
201401050000 AAXX 05004 67461 NIL=
201401042100 AAXX 04214 67461 NIL=
201401041800 AAXX 04184 67461 NIL=
201401041500 AAXX 04154 67461 NIL=
201401041200 AAXX 04124 67461 NIL=
201401040900 AAXX 04094 67461 NIL=
201401040600 AAXX 04064 67461 NIL=
201401040000 AAXX 04004 67461 NIL=
201401031800 AAXX 03184 67461 NIL=
201401031500 AAXX 03154 67461 NIL=
201401031200 AAXX 03124 67461 NIL=
201401030900 AAXX 03094 67461 NIL=
201401030600 AAXX 03064 67461 12980 63502 10220 20198 48508 60054 86070
                   333 10284 20185 58000 86462 91018=
201401022100 AAXX 02214 67461 NIL=
201401021800 AAXX 02184 67461 NIL=
201401021500 AAXX 02154 67461 NIL=
201401021200 AAXX 02124 67461 NIL=
201401020900 AAXX 02094 67461 NIL=
201401020600 AAXX 02064 67461 32380 60903 10215 20196 48507 83530
                   333 10270 20183 59004 83606 86362 91018=
201401020000 AAXX 02004 67461 NIL=
201401012100 AAXX 01214 67461 NIL=
201401011800 AAXX 01184 67461 NIL=
201401011500 AAXX 01154 67461 NIL=
201401010900 AAXX 01094 67461 NIL=
201401010600 AAXX 01064 67461 NIL=

################################################################################
#  SYNOPS from 67475, Kasama (Zambia) | 10-13S | 031-08E | 1382 m
################################################################################
201401310300 AAXX 31034 67475 NIL=
201401310000 AAXX 31004 67475 NIL=
201401302100 AAXX 30214 67475 NIL=
201401301800 AAXX 30184 67475 NIL=
201401301500 AAXX 30154 67475 NIL=
201401301200 AAXX 30124 67475 42780 60704 10284 20160 48492 81332
                   333 59014 81950 83850 84362 81080 91016=
201401300900 AAXX 30094 67475 42680 60804 10260 20190 48517 83232
                   333 59012 83835 86361 83080 91019=
201401300600 AAXX 30064 67475 41205 /1905 10183 20183 48516 74744 8////
                   333 10255 20163 59005 91019=
201401300300 AAXX 30034 67475 NIL=
201401292100 AAXX 29214 67475 NIL=
201401291800 AAXX 29184 67475 NIL=
201401291500 AAXX 29154 67475 NIL=
201401291200 AAXX 29124 67475 41680 80903 10232 20170 48505 75022 8327/
                   333 58010 83845 87463 91018=
201401290900 AAXX 29094 67475 42680 80103 10207 20178 48527 70322 82233
                   333 58004 82830 83361 88080 91021=
201401290600 AAXX 29064 67475 42580 83602 10178 20172 48521 70322 8113/
                   333 10238 20161 58006 81820 88360 91020=
201401290300 AAXX 29034 67475 NIL=
201401290000 AAXX 29004 67475 NIL=
201401282100 AAXX 28214 67475 NIL=
201401281800 AAXX 28184 67475 NIL=
201401281500 AAXX 28154 67475 NIL=
201401281200 AAXX 28124 67475 42780 71806 10226 20173 48495 70252 8627/
                   333 58013 86850 87465 91017=
201401280900 AAXX 28094 67475 42680 71506 10204 20176 48528 70322 8427/
                   333 58015 84840 87362 91020=
201401280600 AAXX 28064 67475 42980 83503 10184 20176 48515 70322 8807/
                   333 10281 20165 58006 88360 91019=
201401280300 AAXX 28034 67475 NIL=
201401272100 AAXX 27214 67475 NIL=
201401271800 AAXX 27184 67475 NIL=
201401271500 AAXX 27154 67475 NIL=
201401271200 AAXX 27124 67475 42780 52506 10272 20172 48483 70322 81934
                   333 59006 81956 83856 85365 81080 91015=
201401270900 AAXX 27094 67475 42680 63402 10246 20177 48510 70322 82231
                   333 58002 82840 86362 81080 91018=
201401270600 AAXX 27064 67475 NIL=
201401270300 AAXX 27034 67475 NIL=
201401270000 AAXX 27004 67475 NIL=
201401262100 AAXX 26214 67475 NIL=
201401261800 AAXX 26184 67475 NIL=
201401261500 AAXX 26154 67475 NIL=
201401261200 AAXX 26124 67475 NIL=
201401260900 AAXX 26094 67475 NIL=
201401260600 AAXX 26064 67475 NIL=
201401251800 AAXX 25184 67475 NIL=
201401251500 AAXX 25154 67475 NIL=
201401251200 AAXX 25124 67475 NIL=
201401250900 AAXX 25094 67475 NIL=
201401250600 AAXX 25064 67475 NIL=
201401250000 AAXX 25004 67475 NIL=
201401242100 AAXX 24214 67475 NIL=
201401241800 AAXX 24184 67475 NIL=
201401241500 AAXX 24154 67475 NIL=
201401241200 AAXX 24124 67475 42680 63515 10245 20180 48488 85251
                   333 58010 85850 83360 82080 91016=
201401240900 AAXX 24094 67475 41670 83510 10206 20175 48509 75088 8357/
                   333 58002 83635 88360 91019=
201401240600 AAXX 24064 67475 11580 83508 10180 20180 48515 60044 78052 8227/
                   333 10276 20170 58001 82720 82830 87460
                   555 00/// 91019=
201401240300 AAXX 24034 67475 NIL=
201401240000 AAXX 24004 67475 NIL=
201401231500 AAXX 23154 67475 NIL=
201401231200 AAXX 23124 67475 42780 52709 10261 20161 48479 81933
                   333 59011 81950 83850 81362 83080 91015=
201401230900 AAXX 23094 67475 42680 62912 10246 20171 48509 83232
                   333 59009 83845 84361 83080 91018=
201401230600 AAXX 23064 67475 NIL=
201401230300 AAXX 23034 67475 NIL=
201401230000 AAXX 23004 67475 NIL=
201401222100 AAXX 22214 67475 NIL=
201401221800 AAXX 22184 67475 NIL=
201401221500 AAXX 22154 67475 NIL=
201401221200 AAXX 22124 67475 41780 63605 10226 20184 48489 71799 81973
                   333 59018 81950 81850 84362 86082 91016=
201401220900 AAXX 22094 67475 42680 60203 10250 20182 48518 81973
                   333 59014 81935 85840 83360 82080 91019=
201401220600 AAXX 22064 67475 11580 33404 10199 20183 48521 69904 70322 81231
                   333 10232 20169 59013 81725 81830 82360 83080
                   91020=
201401220000 AAXX 22004 67475 NIL=
201401212100 AAXX 21214 67475 NIL=
201401211800 AAXX 21184 67475 NIL=
201401211200 AAXX 21124 67475 42780 42709 10254 20172 48508 70222 84202
                   333 59012 84850 83081 91018=
201401210900 AAXX 21094 67475 41680 62807 10223 20173 48531 70362 86131
                   333 58007 86840 84360 82080 91021=
201401210600 AAXX 21064 67475 11980 82804 10183 20175 48533 60114 76022 8807/
                   333 10192 20167 58001 88480 91021=
201401210300 AAXX 21034 67475 NIL=
201401202100 AAXX 20214 67475 NIL=
201401201800 AAXX 20184 67475 NIL=
201401201200 AAXX 20124 67475 41780 61705 10274 20174 48496 71722 81933
                   333 59008 81950 84850 82363 82080 91017=
201401201020 AAXX 20104 67475 42680 70806 10255 20180 48525 85231 91020=
201401200900 AAXX 20094 67475 NIL=
201401200600 AAXX 20064 67475 12575 63606 10212 20176 48533 69904 81171
                   333 10289 20169 58005 81825 84460 83080 91021=
201401200000 AAXX 20004 67475 NIL=
201401192100 AAXX 19214 67475 NIL=
201401191800 AAXX 19184 67475 NIL=
201401191500 AAXX 19154 67475 NIL=
201401191200 AAXX 19124 67475 NIL=
201401190900 AAXX 19094 67475 NIL=
201401190600 AAXX 19064 67475 NIL=
201401190000 AAXX 19004 67475 NIL=
201401181800 AAXX 18184 67475 NIL=
201401181200 AAXX 18124 67475 NIL=
201401180900 AAXX 18094 67475 NIL=
201401180600 AAXX 18064 67475 NIL=
201401180300 AAXX 18034 67475 NIL=
201401180000 AAXX 18004 67475 NIL=
201401171800 AAXX 17184 67475 NIL=
201401171200 AAXX 17124 67475 41680 63605 10210 20185 48504 76065 8533/
                   333 59002 85850 82460 91018=
201401170900 AAXX 17094 67475 42680 72806 10220 20790 48526 8657/
                   333 58005 86635 82360 91020=
201401170600 AAXX 17064 67475 11303 80000 10182 20182 48534 60154 75045 8477/
                   333 10278 20155 59007 84710 88460 91021=
201401170300 AAXX 17034 67475 NIL=
201401162100 AAXX 16214 67475 NIL=
201401161800 AAXX 16184 67475 NIL=
201401161500 AAXX 16154 67475 NIL=
201401161200 AAXX 16124 67475 NIL=
201401160900 AAXX 16094 67475 42580 63305 10242 20178 48524 85231
                   333 59007 85830 85365 82080 91021=
201401160600 AAXX 16064 67475 12780 73501 10193 20183 48541 69904 8227/
                   333 10240 20160 58000 82810 87460 91022=
201401151200 AAXX 15124 67475 42680 72113 10230 20163 48522 83222
                   333 58031 83840 85464 83080 91020=
201401150900 AAXX 15094 67475 41580 81809 10206 20172 48538 75055 8683/
                   333 58020 82825 84630 85362 91022=
201401150600 AAXX 15064 67475 11475 82904 10170 20166 48540 60504 75066 8477/
                   333 10245 20160 58021 84713 88460 91022=
201401140600 AAXX 14064 67475 NIL=
201401140300 AAXX 14034 67475 NIL=
201401132100 AAXX 13214 67475 NIL=
201401131800 AAXX 13184 67475 NIL=
201401131500 AAXX 13154 67475 NIL=
201401131200 AAXX 13124 67475 42680 50905 10242 20186 48499 70222 83238
                   333 59003 83832 82360 85280 91017=
201401130900 AAXX 13094 67475 42680 80606 10212 20178 48532 70222 8517/
                   333 58000 85830 91021=
201401130600 AAXX 13064 67475 12580 80207 10182 20179 48533 60824 8387/
                   333 10279 20163 59001 83620 88360 91021=
201401091500 AAXX 09154 67475 NIL=
201401091200 AAXX 09124 67475 41780 72206 10256 20172 48484 71799 81933
                   333 5//// 81950 83850 82363 86080 91015=
201401090900 AAXX 09094 67475 42680 62906 10254 20172 48516 81933
                   333 58000 81942 84845 81362 85080 91019=
201401090600 AAXX 09064 67475 12980 73207 10195 20174 48520 69924 70222 84072
                   333 10266 20166 58000 84360 86080 91020=
201401090000 AAXX 09004 67475 NIL=
201401082100 AAXX 08214 67475 NIL=
201401081800 AAXX 08184 67475 NIL=
201401081500 AAXX 08150 67475 NIL=
201401081200 AAXX 08124 67475 42680 73006 10243 20162 48/// 70222 81171
                   333 5//// 81845 87362 86280=
201401080900 AAXX 08094 67475 41680 83209 10200 20162 48514 72052 83178
                   333 58019 83830 84362 86280 91019 67475 41680
                   83209 10200 20162 48514 72052 83178 58019 83830
                   84362 86280 91019 67673 42580 53501 10280 20200
                   48510 85231 58002 85826 82360 84080=
201401080600 AAXX 08064 67475 11359 82510 10160 20160 48519 69964 75896 8577/
                   333 10287 20156 58017 85709 88460
                   555 91020=
201401080300 AAXX 08034 67475 NIL=
201401080000 AAXX 08004 67475 NIL=
201401072100 AAXX 07214 67475 NIL=
201401071800 AAXX 07184 67475 NIL=
201401071500 AAXX 07154 67475 NIL=
201401071200 AAXX 07124 67475 42780 52606 10271 20164 48473 72999 81933
                   333 58003 81950 83850 82363 83080 91014=
201401070900 AAXX 07094 67475 42680 52505 10253 20156 48497 82231
                   333 59001 82840 84362 81080 91017=
201401070600 AAXX 07064 67475 12980 63507 10201 20183 48504 60054 86032
                   333 10279 20170 59005 86360 83080
                   555 91018=
201401070300 AAXX 07034 67475 NIL=
201401070000 AAXX 07004 67475 NIL=
201401062100 AAXX 06214 67475 NIL=
201401061800 AAXX 06184 67475 NIL=
201401061500 AAXX 06154 67475 NIL=
201401061200 AAXX 06124 67475 42680 7//// 10274 20174 48449 81932
                   333 58/// 81948 84850 85080 91017=
201401060900 AAXX 06094 67475 42680 7//// 10254 20185 48494 83232
                   333 58/// 83840 84363 85080 91017=
201401060600 AAXX 06064 67475 12980 72206 10189 20167 48514 60014 70266 84072
                   333 10276 20161 58006 84360 86080 91018=
201401060300 AAXX 06034 67475 NIL=
201401052100 AAXX 05214 67475 NIL=
201401051800 AAXX 05184 67475 NIL=
201401051500 AAXX 05154 67475 NIL=
201401051200 AAXX 05124 67475 NIL=
201401050900 AAXX 05094 67475 NIL=
201401050000 AAXX 05004 67475 NIL=
201401042100 AAXX 04214 67475 NIL=
201401041800 AAXX 04184 67475 NIL=
201401041500 AAXX 04154 67475 NIL=
201401041200 AAXX 04124 67475 NIL=
201401040900 AAXX 04094 67475 NIL=
201401040600 AAXX 04064 67475 NIL=
201401040000 AAXX 04004 67475 NIL=
201401031800 AAXX 03184 67475 NIL=
201401031500 AAXX 03154 67475 NIL=
201401031200 AAXX 03124 67475 41670 81205 10217 20187 48495 76022 84272
                   333 59007 84845 83463 86080 91017=
201401030900 AAXX 03094 67475 42680 70406 10237 20185 48516 83138
                   333 5//// 83835 81362 87280 91019=
201401030600 AAXX 03064 67475 12480 73603 10189 20184 48519 60014 81638
                   333 10250 20170 58002 81710 82360 87280 91020=
201401022100 AAXX 02214 67475 NIL=
201401021800 AAXX 02184 67475 NIL=
201401021500 AAXX 02154 67475 NIL=
201401021200 AAXX 02124 67475 41670 73605 10221 20185 48/// 71799 81973
                   333 5//// 81940 84845 82363 83080 91016=
201401020900 AAXX 02094 67475 42680 73407 10230 20194 70322 8623/
                   333 5//// 86830 87362=
201401020600 AAXX 02064 67475 12380 83604 10186 20183 48517 60134 70222 8367/
                   333 10277 20171 59007 83709 88360 91020=
201401020000 AAXX 02004 67475 NIL=
201401012100 AAXX 01214 67475 NIL=
201401011800 AAXX 01184 67475 NIL=
201401011500 AAXX 01154 67475 NIL=
201401010900 AAXX 01094 67475 NIL=
201401010600 AAXX 01064 67475 NIL=

################################################################################
#  SYNOPS from 67476, Misamfu (Zambia) | 10-06S | 031-15E | 1536 m
################################################################################
201401310300 AAXX 31034 67476 NIL=
201401310000 AAXX 31004 67476 NIL=
201401302100 AAXX 30214 67476 NIL=
201401301800 AAXX 30184 67476 NIL=
201401301500 AAXX 30154 67476 NIL=
201401301200 AAXX 30124 67476 NIL=
201401300900 AAXX 30094 67476 NIL=
201401300600 AAXX 30064 67476 NIL=
201401300300 AAXX 30034 67476 NIL=
201401292100 AAXX 29214 67476 NIL=
201401291800 AAXX 29184 67476 NIL=
201401291500 AAXX 29154 67476 NIL=
201401291200 AAXX 29124 67476 NIL=
201401290900 AAXX 29094 67476 NIL=
201401290600 AAXX 29064 67476 NIL=
201401290300 AAXX 29034 67476 NIL=
201401290000 AAXX 29004 67476 NIL=
201401282100 AAXX 28214 67476 NIL=
201401281800 AAXX 28184 67476 NIL=
201401281500 AAXX 28154 67476 NIL=
201401281200 AAXX 28124 67476 NIL=
201401280900 AAXX 28094 67476 NIL=
201401280600 AAXX 28064 67476 NIL=
201401280300 AAXX 28034 67476 NIL=
201401272100 AAXX 27214 67476 NIL=
201401271800 AAXX 27184 67476 NIL=
201401271500 AAXX 27154 67476 NIL=
201401271200 AAXX 27124 67476 NIL=
201401270900 AAXX 27094 67476 NIL=
201401270600 AAXX 27064 67476 NIL=
201401270300 AAXX 27034 67476 NIL=
201401270000 AAXX 27004 67476 NIL=
201401262100 AAXX 26214 67476 NIL=
201401261800 AAXX 26184 67476 NIL=
201401261500 AAXX 26154 67476 NIL=
201401261200 AAXX 26124 67476 NIL=
201401260900 AAXX 26094 67476 NIL=
201401260600 AAXX 26064 67476 NIL=
201401251800 AAXX 25184 67476 NIL=
201401251500 AAXX 25154 67476 NIL=
201401251200 AAXX 25124 67476 NIL=
201401250900 AAXX 25094 67476 NIL=
201401250600 AAXX 25064 67476 NIL=
201401250000 AAXX 25004 67476 NIL=
201401242100 AAXX 24214 67476 NIL=
201401241800 AAXX 24184 67476 NIL=
201401241500 AAXX 24154 67476 NIL=
201401241200 AAXX 24124 67476 NIL=
201401240900 AAXX 24094 67476 NIL=
201401240600 AAXX 24064 67476 NIL=
201401240300 AAXX 24034 67476 NIL=
201401240000 AAXX 24004 67476 NIL=
201401231500 AAXX 23154 67476 NIL=
201401231200 AAXX 23124 67476 NIL=
201401230900 AAXX 23094 67476 NIL=
201401230600 AAXX 23064 67476 NIL=
201401230300 AAXX 23034 67476 NIL=
201401230000 AAXX 23004 67476 NIL=
201401222100 AAXX 22214 67476 NIL=
201401221800 AAXX 22184 67476 NIL=
201401221500 AAXX 22154 67476 NIL=
201401221200 AAXX 22124 67476 NIL=
201401220900 AAXX 22094 67476 NIL=
201401220600 AAXX 22064 67476 NIL=
201401220000 AAXX 22004 67476 NIL=
201401212100 AAXX 21214 67476 NIL=
201401211800 AAXX 21184 67476 NIL=
201401211200 AAXX 21124 67476 NIL=
201401210900 AAXX 21094 67476 NIL=
201401210600 AAXX 21064 67476 NIL=
201401210300 AAXX 21034 67476 NIL=
201401202100 AAXX 20214 67476 NIL=
201401201800 AAXX 20184 67476 NIL=
201401201200 AAXX 20124 67476 NIL=
201401200900 AAXX 20094 67476 NIL=
201401200600 AAXX 20064 67476 NIL=
201401200000 AAXX 20004 67476 NIL=
201401192100 AAXX 19214 67476 NIL=
201401191800 AAXX 19184 67476 NIL=
201401191500 AAXX 19154 67476 NIL=
201401191200 AAXX 19124 67476 NIL=
201401190900 AAXX 19094 67476 NIL=
201401190600 AAXX 19064 67476 NIL=
201401190000 AAXX 19004 67476 NIL=
201401181800 AAXX 18184 67476 NIL=
201401181200 AAXX 18124 67476 NIL=
201401180900 AAXX 18094 67476 NIL=
201401180600 AAXX 18064 67476 NIL=
201401180300 AAXX 18034 67476 NIL=
201401180000 AAXX 18004 67476 NIL=
201401171800 AAXX 17184 67476 NIL=
201401171200 AAXX 17124 67476 NIL=
201401170900 AAXX 17094 67476 NIL=
201401170600 AAXX 17064 67476 11378 80000 10190 20183 48/// 75065 8267/
                   333 10290 20174 5//// 82708 88458=
201401170300 AAXX 17034 67476 NIL=
201401162100 AAXX 16214 67476 NIL=
201401161800 AAXX 16184 67476 NIL=
201401161500 AAXX 16154 67476 NIL=
201401161200 AAXX 16124 67476 NIL=
201401160900 AAXX 16094 67476 NIL=
201401160600 AAXX 16064 67476 NIL=
201401151200 AAXX 15124 67476 NIL=
201401140600 AAXX 14064 67476 NIL=
201401140300 AAXX 14034 67476 NIL=
201401132100 AAXX 13214 67476 NIL=
201401131800 AAXX 13184 67476 NIL=
201401131500 AAXX 13154 67476 NIL=
201401131200 AAXX 13124 67476 NIL=
201401130900 AAXX 13094 67476 NIL=
201401130600 AAXX 13064 67476 11479 80803 10185 20179 48/// 60314 76166 8467/
                   333 10294 20167 5//// 84710 88459=
201401091500 AAXX 09154 67476 NIL=
201401091200 AAXX 09124 67476 NIL=
201401090900 AAXX 09094 67476 NIL=
201401090600 AAXX 09064 67476 NIL=
201401090000 AAXX 09004 67476 NIL=
201401082100 AAXX 08214 67476 NIL=
201401081800 AAXX 08184 67476 NIL=
201401081500 AAXX 08150 67476 NIL=
201401081200 AAXX 08124 67476 NIL=
201401080900 AAXX 08094 67476 NIL=
201401080600 AAXX 08064 67476 NIL=
201401080300 AAXX 08034 67476 NIL=
201401080000 AAXX 08004 67476 NIL=
201401072100 AAXX 07214 67476 NIL=
201401071800 AAXX 07184 67476 NIL=
201401071500 AAXX 07154 67476 NIL=
201401071200 AAXX 07124 67476 NIL=
201401070900 AAXX 07094 67476 NIL=
201401070600 AAXX 07064 67476 NIL=
201401070300 AAXX 07034 67476 NIL=
201401070000 AAXX 07004 67476 NIL=
201401062100 AAXX 06214 67476 NIL=
201401061800 AAXX 06184 67476 NIL=
201401061500 AAXX 06154 67476 NIL=
201401061200 AAXX 06124 67476 NIL=
201401060900 AAXX 06094 67476 NIL=
201401060600 AAXX 06064 67476 NIL=
201401060300 AAXX 06034 67476 NIL=
201401052100 AAXX 05214 67476 NIL=
201401051800 AAXX 05184 67476 NIL=
201401051500 AAXX 05154 67476 NIL=
201401051200 AAXX 05124 67476 NIL=
201401050900 AAXX 05094 67476 NIL=
201401050000 AAXX 05004 67476 NIL=
201401042100 AAXX 04214 67476 NIL=
201401041800 AAXX 04184 67476 NIL=
201401041500 AAXX 04154 67476 NIL=
201401041200 AAXX 04124 67476 NIL=
201401040900 AAXX 04094 67476 NIL=
201401040600 AAXX 04064 67476 NIL=
201401040000 AAXX 04004 67476 NIL=
201401031800 AAXX 03184 67476 NIL=
201401031500 AAXX 03154 67476 NIL=
201401031200 AAXX 03124 67476 NIL=
201401030900 AAXX 03094 67476 NIL=
201401030600 AAXX 03064 67476 NIL=
201401022100 AAXX 02214 67476 NIL=
201401021800 AAXX 02184 67476 NIL=
201401021500 AAXX 02154 67476 NIL=
201401021200 AAXX 02124 67476 NIL=
201401020900 AAXX 02094 67476 NIL=
201401020600 AAXX 02064 67476 NIL=
201401020000 AAXX 02004 67476 NIL=
201401012100 AAXX 01214 67476 NIL=
201401011800 AAXX 01184 67476 NIL=
201401011500 AAXX 01154 67476 NIL=
201401010900 AAXX 01094 67476 NIL=
201401010600 AAXX 01064 67476 NIL=

################################################################################
#  SYNOPS from 67477, Mpika (Zambia) | 11-54S | 031-26E | 1400 m
################################################################################
201401310300 AAXX 31034 67477 NIL=
201401310000 AAXX 31004 67477 NIL=
201401302100 AAXX 30214 67477 NIL=
201401301800 AAXX 30184 67477 NIL=
201401301500 AAXX 30154 67477 NIL=
201401301200 AAXX 30124 67477 NIL=
201401300900 AAXX 30094 67477 NIL=
201401300600 AAXX 30064 67477 12980 70000 10206 20174 48517 60014 87070
                   333 10230 20174 59007 87461=
201401300300 AAXX 30034 67477 NIL=
201401292100 AAXX 29214 67477 NIL=
201401291800 AAXX 29184 67477 NIL=
201401291500 AAXX 29154 67477 NIL=
201401291200 AAXX 29124 67477 NIL=
201401290900 AAXX 29094 67477 NIL=
201401290600 AAXX 29064 67477 11975 80000 10180 20171 48523 60094 76166 8807/
                   333 10266 20175 59001 88460 91021=
201401290300 AAXX 29034 67477 NIL=
201401290000 AAXX 29004 67477 NIL=
201401282100 AAXX 28214 67477 NIL=
201401281800 AAXX 28184 67477 NIL=
201401281500 AAXX 28154 67477 NIL=
201401281200 AAXX 28124 67477 NIL=
201401280900 AAXX 28094 67477 NIL=
201401280600 AAXX 28064 67477 32480 80000 10190 20177 48524 8657/
                   333 10280 20177 58011 86610 88460 91021=
201401280300 AAXX 28034 67477 NIL=
201401272100 AAXX 27214 67477 NIL=
201401271800 AAXX 27184 67477 NIL=
201401271500 AAXX 27154 67477 NIL=
201401271200 AAXX 27124 67477 NIL=
201401270900 AAXX 27094 67477 NIL=
201401270600 AAXX 27064 67477 NIL=
201401270300 AAXX 27034 67477 NIL=
201401270000 AAXX 27004 67477 NIL=
201401262100 AAXX 26214 67477 NIL=
201401261800 AAXX 26184 67477 NIL=
201401261500 AAXX 26154 67477 NIL=
201401261200 AAXX 26124 67477 NIL=
201401260900 AAXX 26094 67477 NIL=
201401260600 AAXX 26064 67477 NIL=
201401251800 AAXX 25184 67477 NIL=
201401251500 AAXX 25154 67477 NIL=
201401251200 AAXX 25124 67477 NIL=
201401250900 AAXX 25094 67477 NIL=
201401250600 AAXX 25064 67477 NIL=
201401250000 AAXX 25004 67477 NIL=
201401242100 AAXX 24214 67477 NIL=
201401241800 AAXX 24184 67477 NIL=
201401241500 AAXX 24154 67477 NIL=
201401241200 AAXX 24124 67477 NIL=
201401240900 AAXX 24094 67477 NIL=
201401240600 AAXX 24064 67477 12480 70000 10184 20181 48505 60034 86570
                   333 10270 20164 59011 86610 83459=
201401240300 AAXX 24034 67477 NIL=
201401240000 AAXX 24004 67477 NIL=
201401231500 AAXX 23154 67477 NIL=
201401231200 AAXX 23124 67477 NIL=
201401230900 AAXX 23094 67477 NIL=
201401230600 AAXX 23064 67477 11480 63305 10195 20174 48516 60304 72842 84530
                   333 10266 20175 59004 84610 85360 91020=
201401230300 AAXX 23034 67477 NIL=
201401230000 AAXX 23004 67477 NIL=
201401222100 AAXX 22214 67477 NIL=
201401221800 AAXX 22184 67477 NIL=
201401221500 AAXX 22154 67477 NIL=
201401221200 AAXX 22124 67477 NIL=
201401220900 AAXX 22094 67477 NIL=
201401220600 AAXX 22064 67477 11480 51204 10205 20187 48521 60044 72842 81130
                   333 10270 20164 59017 81810 85360=
201401220000 AAXX 22004 67477 NIL=
201401212100 AAXX 21214 67477 NIL=
201401211800 AAXX 21184 67477 NIL=
201401211200 AAXX 21124 67477 NIL=
201401210900 AAXX 21094 67477 NIL=
201401210600 AAXX 21064 67477 11420 80000 10170 20168 48536 60344 79596 8657/
                   333 10275 20165 58006 86610 81935 88460=
201401210300 AAXX 21034 67477 NIL=
201401202100 AAXX 20214 67477 NIL=
201401201800 AAXX 20184 67477 NIL=
201401201200 AAXX 20124 67477 NIL=
201401200900 AAXX 20094 67477 NIL=
201401200600 AAXX 20064 67477 12480 51003 10217 20178 48533 69984 81131
                   333 10266 20175 58000 81815 84360 84080 91022=
201401200000 AAXX 20004 67477 NIL=
201401192100 AAXX 19214 67477 NIL=
201401191800 AAXX 19184 67477 NIL=
201401191500 AAXX 19154 67477 NIL=
201401191200 AAXX 19124 67477 NIL=
201401190900 AAXX 19094 67477 NIL=
201401190600 AAXX 19064 67477 NIL=
201401190000 AAXX 19004 67477 NIL=
201401181800 AAXX 18184 67477 NIL=
201401181200 AAXX 18124 67477 NIL=
201401180900 AAXX 18094 67477 NIL=
201401180600 AAXX 18064 67477 NIL=
201401180300 AAXX 18034 67477 NIL=
201401180000 AAXX 18004 67477 NIL=
201401171800 AAXX 17184 67477 NIL=
201401171200 AAXX 17124 67477 NIL=
201401170900 AAXX 17094 67477 NIL=
201401170600 AAXX 17064 67477 12480 40000 10194 20161 48523 60264 82101
                   333 10253 20149 59008 82812 83080=
201401170300 AAXX 17034 67477 NIL=
201401162100 AAXX 16214 67477 NIL=
201401161800 AAXX 16184 67477 NIL=
201401161500 AAXX 16154 67477 NIL=
201401161200 AAXX 16124 67477 NIL=
201401160900 AAXX 16094 67477 NIL=
201401160600 AAXX 16064 67477 NIL=
201401151200 AAXX 15124 67477 NIL=
201401150600 AAXX 15064 67477 11475 83203 10176 20170 48533 60114 76066 8657/
                   333 10241 20161 58019 86610 84459=
201401140600 AAXX 14064 67477 NIL=
201401140300 AAXX 14034 67477 NIL=
201401132100 AAXX 13214 67477 NIL=
201401131800 AAXX 13184 67477 NIL=
201401131500 AAXX 13154 67477 NIL=
201401131200 AAXX 13124 67477 NIL=
201401130900 AAXX 13094 67477 NIL=
201401130600 AAXX 13064 67477 11480 70000 10201 20186 48528 60184 72822 8157/
                   333 10250 20175 59005 81610 87460=
201401091500 AAXX 09154 67477 NIL=
201401091200 AAXX 09124 67477 NIL=
201401090900 AAXX 09094 67477 NIL=
201401090600 AAXX 09064 67477 12480 63303 10212 20187 48513 60014 83530
                   333 10270 20174 58009 83610 86360=
201401090000 AAXX 09004 67477 NIL=
201401082100 AAXX 08214 67477 NIL=
201401081800 AAXX 08184 67477 NIL=
201401081500 AAXX 08150 67477 NIL=
201401081200 AAXX 08124 67477 NIL=
201401080900 AAXX 08094 67477 NIL=
201401080600 AAXX 08064 67477 NIL=
201401080300 AAXX 08034 67477 NIL=
201401080000 AAXX 08004 67477 NIL=
201401072100 AAXX 07214 67477 NIL=
201401071800 AAXX 07184 67477 NIL=
201401071500 AAXX 07154 67477 NIL=
201401071200 AAXX 07124 67477 NIL=
201401070900 AAXX 07094 67477 NIL=
201401070600 AAXX 07064 67477 NIL=
201401070300 AAXX 07034 67477 NIL=
201401070000 AAXX 07004 67477 NIL=
201401062100 AAXX 06214 67477 NIL=
201401061800 AAXX 06184 67477 NIL=
201401061500 AAXX 06154 67477 NIL=
201401061200 AAXX 06124 67477 NIL=
201401060900 AAXX 06094 67477 NIL=
201401060600 AAXX 06064 67477 11478 73002 10174 20172 48494 69904 76062 8457/
                   333 10250 20169 59002 84610 87460=
201401060300 AAXX 06034 67477 NIL=
201401052100 AAXX 05214 67477 NIL=
201401051800 AAXX 05184 67477 NIL=
201401051500 AAXX 05154 67477 NIL=
201401051200 AAXX 05124 67477 NIL=
201401050900 AAXX 05094 67477 NIL=
201401050000 AAXX 05004 67477 NIL=
201401042100 AAXX 04214 67477 NIL=
201401041800 AAXX 04184 67477 NIL=
201401041500 AAXX 04154 67477 NIL=
201401041200 AAXX 04124 67477 NIL=
201401040900 AAXX 04094 67477 NIL=
201401040600 AAXX 04064 67477 NIL=
201401040000 AAXX 04004 67477 NIL=
201401031800 AAXX 03184 67477 NIL=
201401031500 AAXX 03154 67477 NIL=
201401031200 AAXX 03124 67477 NIL=
201401030900 AAXX 03094 67477 NIL=
201401030600 AAXX 03064 67477 NIL=
201401022100 AAXX 02214 67477 NIL=
201401021800 AAXX 02184 67477 NIL=
201401021500 AAXX 02154 67477 NIL=
201401021200 AAXX 02124 67477 NIL=
201401020900 AAXX 02094 67477 NIL=
201401020600 AAXX 02064 67477 11480 80000 10176 20168 48499 60274 72842 8357/
                   333 10261 20160 59002 83610 88460=
201401020000 AAXX 02004 67477 NIL=
201401012100 AAXX 01214 67477 NIL=
201401011800 AAXX 01184 67477 NIL=
201401011500 AAXX 01154 67477 NIL=
201401010900 AAXX 01094 67477 NIL=
201401010600 AAXX 01064 67477 NIL=

################################################################################
#  SYNOPS from 67481, Isoka (Zambia) | 10-07S | 032-38E | 1360 m
################################################################################
201401310300 AAXX 31034 67481 NIL=
201401310000 AAXX 31004 67481 NIL=
201401302100 AAXX 30214 67481 NIL=
201401301800 AAXX 30184 67481 NIL=
201401301500 AAXX 30154 67481 NIL=
201401301200 AAXX 30124 67481 41680 62406 10261 20193 48/// 71792 85202
                   333 59018 81935 85835 83080=
201401300900 AAXX 30094 67481 42580 30303 10254 20190 48/// 82231
                   333 59012 82826 81361 81080=
201401300600 AAXX 30064 67481 12980 70000 10192 20178 60054 8707/
                   333 10224 20183 59006 87360=
201401300300 AAXX 30034 67481 NIL=
201401292100 AAXX 29214 67481 NIL=
201401291800 AAXX 29184 67481 NIL=
201401291500 AAXX 29154 67481 NIL=
201401291200 AAXX 29124 67481 41475 70203 10200 20193 72566 8367/
                   333 58025 83712 87460=
201401290900 AAXX 29094 67481 41480 70000 10/// 20186 75155 8383/
                   333 58003 83812 85615 87361=
201401290600 AAXX 29064 67481 12380 72302 10197 20185 60024 8367/
                   333 10256 20186 59005 83708 87460=
201401290300 AAXX 29034 67481 NIL=
201401290000 AAXX 29004 67481 NIL=
201401282100 AAXX 28214 67481 NIL=
201401281800 AAXX 28184 67481 NIL=
201401281500 AAXX 28154 67481 NIL=
201401281200 AAXX 28124 67481 41580 73306 10232 20176 71722 82267
                   333 58009 81922 82822 84361 87280=
201401280900 AAXX 28094 67481 42580 73002 10236 20190 82836
                   333 58001 82820 82622 84361 86280=
201401280600 AAXX 28064 67481 32380 70201 10200 20179 8267/
                   333 10289 20184 58006 82709 87361=
201401280300 AAXX 28034 67481 NIL=
201401272100 AAXX 27214 67481 NIL=
201401271800 AAXX 27184 67481 NIL=
201401271500 AAXX 27154 67481 NIL=
201401271200 AAXX 27124 67481 42680 60000 10272 20169 83807
                   333 59004 83845 84646 86280=
201401270900 AAXX 27094 67481 42680 53604 10262 20177 83831
                   333 59001 83836 82638 81361 85080=
201401270600 AAXX 27064 67481 NIL=
201401270300 AAXX 27034 67481 NIL=
201401270000 AAXX 27004 67481 NIL=
201401262100 AAXX 26214 67481 NIL=
201401261800 AAXX 26184 67481 NIL=
201401261500 AAXX 26154 67481 NIL=
201401261200 AAXX 26124 67481 NIL=
201401260900 AAXX 26094 67481 NIL=
201401260600 AAXX 26064 67481 NIL=
201401251800 AAXX 25184 67481 NIL=
201401251500 AAXX 25154 67481 NIL=
201401251200 AAXX 25124 67481 NIL=
201401250900 AAXX 25094 67481 NIL=
201401250600 AAXX 25064 67481 NIL=
201401250000 AAXX 25004 67481 NIL=
201401242100 AAXX 24214 67481 NIL=
201401241800 AAXX 24184 67481 NIL=
201401241500 AAXX 24154 67481 NIL=
201401241200 AAXX 24124 67481 NIL=
201401240900 AAXX 24094 67481 42480 73508 10214 20193 85607
                   333 58001 85711 87280=
201401240600 AAXX 24064 67481 11375 73504 10188 20183 69984 71022 85607
                   333 10280 20176 59004 85706 87280
                   555 00/// 20000=
201401240300 AAXX 24034 67481 NIL=
201401240000 AAXX 24004 67481 NIL=
201401231500 AAXX 23154 67481 NIL=
201401231200 AAXX 23124 67481 41580 63301 10235 20164 71592 83207
                   333 5//// 81928 83828 86280=
201401230900 AAXX 23094 67481 42580 63603 10252 20181 85831 59013 85825 83626 82361 82080=
201401230600 AAXX 23064 67481 NIL=
201401230300 AAXX 23034 67481 NIL=
201401230000 AAXX 23004 67481 NIL=
201401222100 AAXX 22214 67481 NIL=
201401221800 AAXX 22184 67481 NIL=
201401221500 AAXX 22154 67481 NIL=
201401221200 AAXX 22124 67481 42480 60103 10208 20176 8125/
                   333 5//// 81914 81814 86261=
201401220900 AAXX 22094 67481 41575 70308 10214 20177 71722 8327/
                   333 59007 81922 83822 87260=
201401220600 AAXX 22064 67481 31375 60000 10208 20195 71022 84630
                   333 10251 20184 59009 84707 86360=
201401220000 AAXX 22004 67481 NIL=
201401212100 AAXX 21214 67481 NIL=
201401211800 AAXX 21184 67481 NIL=
201401211200 AAXX 21124 67481 42580 70403 10243 20191 83807
                   333 58003 83823 84625 87280=
201401210900 AAXX 21094 67481 42580 73504 10235 20183 84507
                   333 58005 84622 86280=
201401210600 AAXX 21064 67481 11375 73404 10204 20182 60054 71522 84687
                   333 10274 20186 5//// 84606 85360 87280=
201401210300 AAXX 21034 67481 NIL=
201401202100 AAXX 20214 67481 NIL=
201401201800 AAXX 20184 67481 NIL=
201401201200 AAXX 20124 67481 41580 60605 10252 20196 71792 85802
                   333 5//// 82922 85822 82725 81080=
201401200900 AAXX 20094 67481 42580 63303 10251 20190 48/// 5//// 81920=
201401200600 AAXX 20064 67481 12480 60000 10211 20180 60114 81582
                   333 10274 20187 5//// 81612 83360 84080=
201401200000 AAXX 20004 67481 NIL=
201401192100 AAXX 19214 67481 NIL=
201401191800 AAXX 19184 67481 NIL=
201401191500 AAXX 19154 67481 NIL=
201401191200 AAXX 19124 67481 NIL=
201401190900 AAXX 19094 67481 NIL=
201401190600 AAXX 19064 67481 NIL=
201401190000 AAXX 19004 67481 NIL=
201401181800 AAXX 18184 67481 NIL=
201401181200 AAXX 18124 67481 NIL=
201401180900 AAXX 18094 67481 NIL=
201401180600 AAXX 18064 67481 NIL=
201401180300 AAXX 18034 67481 NIL=
201401180000 AAXX 18004 67481 NIL=
201401171800 AAXX 17184 67481 NIL=
201401171200 AAXX 17124 67481 42580 70404 10228 20209 84837
                   333 5//// 84820 84621 82361 86280=
201401170900 AAXX 17094 67481 42480 63604 10220 20188 83830 83815 84618 84361=
201401170600 AAXX 17064 67481 12380 80303 10180 20174 60234 8177/
                   333 10266 20173 5//// 81708 88360=
201401170300 AAXX 17034 67481 NIL=
201401162100 AAXX 16214 67481 NIL=
201401161800 AAXX 16184 67481 NIL=
201401161500 AAXX 16154 67481 NIL=
201401161200 AAXX 16124 67481 NIL=
201401160900 AAXX 16094 67481 42580 63606 10242 20180 83232
                   333 5//// 83826 83361 83080=
201401160600 AAXX 16064 67481 12980 70000 10190 20176 60054 8707/
                   333 10217 20175 5//// 87361=
201401151200 AAXX 15124 67481 41475 83602 10185 20176 76166 8457/
                   333 5//// 84613 88460=
201401150900 AAXX 15094 67481 41475 83601 10180 20171 76162 8357/
                   333 5//// 83610 88460=
201401150600 AAXX 15064 67481 11375 80000 10173 20167 60354 76162 8177/
                   333 10264 20168 5//// 81709 88460=
201401140600 AAXX 14064 67481 NIL=
201401140300 AAXX 14034 67481 NIL=
201401132100 AAXX 13214 67481 NIL=
201401131800 AAXX 13184 67481 NIL=
201401131500 AAXX 13154 67481 NIL=
201401131200 AAXX 13124 67481 42580 73601 10243 20180 81238
                   333 5//// 81825 82361 86280=
201401130900 AAXX 13094 67481 42380 80301 10185 20167 82737
                   333 5//// 82609 83361 87280=
201401130600 AAXX 13064 67481 11670 80000 10169 20165 60784 76196 8197/
                   333 10276 20167 5//// 81932 88460=
201401091500 AAXX 09154 67481 NIL=
201401091200 AAXX 09124 67481 41580 70204 10262 20216 71796
                   333 5//// 82922 85822 81361 87280=
201401090900 AAXX 09094 67481 42580 73303 10242 20194 84807
                   333 5//// 84821 83722 87280=
201401090600 AAXX 09064 67481 32380 73604 10209 20195 82137
                   333 10256 20185 5//// 82809 85360 87280=
201401090000 AAXX 09004 67481 NIL=
201401082100 AAXX 08214 67481 NIL=
201401081800 AAXX 08184 67481 NIL=
201401081500 AAXX 08150 67481 NIL=
201401081200 AAXX 08124 67481 42580 73607 10245 20194 83238
                   333 5//// 82820 84361 86280=
201401080900 AAXX 08094 67481 42480 73604 10202 20167 82836
                   333 5//// 82813 82715 85360 87280=
201401080600 AAXX 08064 67481 11375 82414 10170 20168 60294 71796 8497/
                   333 10286 20169 5//// 84706 81914 88460
                   555 00/// 20000=
201401080300 AAXX 08034 67481 NIL=
201401080000 AAXX 08004 67481 NIL=
201401072100 AAXX 07214 67481 NIL=
201401071800 AAXX 07184 67481 NIL=
201401071500 AAXX 07154 67481 NIL=
201401071200 AAXX 07124 67481 42680 63106 10279 20198 85232
                   333 5//// 81932 85832 82361 82080=
201401070900 AAXX 07094 67481 42580 60305 10255 20203 83830
                   333 5//// 83823 83725 85361=
201401070600 AAXX 07064 67481 NIL=
201401070300 AAXX 07034 67481 NIL=
201401070000 AAXX 07004 67481 NIL=
201401062100 AAXX 06214 67481 NIL=
201401061800 AAXX 06184 67481 NIL=
201401061500 AAXX 06154 67481 NIL=
201401061200 AAXX 06124 67481 42680 63005 10270 20159 85831
                   333 5//// 85842 81645 81361 84080=
201401060900 AAXX 06094 67481 42580 60304 10239 20182 48/// 82132
                   333 5//// 82820 84361 84080=
201401060600 AAXX 06064 67481 32980 63605 10212 20183 86031
                   333 10244 20177 5//// 86361 82080=
201401060300 AAXX 06034 67481 NIL=
201401052100 AAXX 05214 67481 NIL=
201401051800 AAXX 05184 67481 NIL=
201401051500 AAXX 05154 67481 NIL=
201401051200 AAXX 05124 67481 NIL=
201401050900 AAXX 05094 67481 NIL=
201401050000 AAXX 05004 67481 NIL=
201401042100 AAXX 04214 67481 NIL=
201401041800 AAXX 04184 67481 NIL=
201401041500 AAXX 04154 67481 NIL=
201401041200 AAXX 04124 67481 NIL=
201401040900 AAXX 04094 67481 NIL=
201401040600 AAXX 04064 67481 NIL=
201401040000 AAXX 04004 67481 NIL=
201401031800 AAXX 03184 67481 NIL=
201401031500 AAXX 03154 67481 NIL=
201401031200 AAXX 03124 67481 41475 73202 10234 20188 79598 84267
                   333 5//// 81916 84816 84360 87280=
201401030900 AAXX 03094 67481 42580 70503 10252 20192 8383/
                   333 5//// 83828 82830 85361=
201401030600 AAXX 03064 67481 12480 63402 10208 20180 69974 81538
                   333 10266 20179 5//// 81612 83361 86280=
201401022100 AAXX 02214 67481 NIL=
201401021800 AAXX 02184 67481 NIL=
201401021500 AAXX 02154 67481 NIL=
201401021200 AAXX 02124 67481 41680 71804 10218 20183 71798 85237
                   333 5//// 81930 85830 83361 87280=
201401020900 AAXX 02094 67481 42580 73402 10234 20183 83837
                   333 5//// 83823 83725 84361 87780=
201401020600 AAXX 02064 67481 12480 73502 10196 20193 60104 81637
                   333 10273 20184 5//// 81708 84361 87280=
201401020000 AAXX 02004 67481 NIL=
201401012100 AAXX 01214 67481 NIL=
201401011800 AAXX 01184 67481 NIL=
201401011500 AAXX 01154 67481 NIL=
201401010900 AAXX 01094 67481 NIL=
201401010600 AAXX 01064 67481 NIL=

################################################################################
#  SYNOPS from 67531, Zambezi (Zambia) | 13-32S | 023-07E | 1077 m
################################################################################
201401310300 AAXX 31034 67531 NIL=
201401310000 AAXX 31004 67531 NIL=
201401302100 AAXX 30214 67531 NIL=
201401301800 AAXX 30184 67531 NIL=
201401301500 AAXX 30154 67531 NIL=
201401301200 AAXX 30124 67531 41680 73007 10251 20178 48/// 70266 81578
                   333 58013 81630 81360 87280=
201401300900 AAXX 30094 67531 NIL=
201401300600 AAXX 30064 67531 11375 80602 10190 20186 48/// 60234 76166 8677/
                   333 10305 20180 58012 83706 82609 88459=
201401300300 AAXX 30034 67531 NIL=
201401292100 AAXX 29214 67531 NIL=
201401291800 AAXX 29184 67531 NIL=
201401291500 AAXX 29154 67531 NIL=
201401291200 AAXX 29124 67531 NIL=
201401290900 AAXX 29094 67531 41580 73607 10248 20187 48/// 70262 8587/
                   333 5//// 82825 83625 87360=
201401290600 AAXX 29064 67531 12980 60000 10207 20194 48/// 60074 85071
                   333 10273 20188 5//// 85360 82080=
201401290300 AAXX 29034 67531 NIL=
201401290000 AAXX 29004 67531 NIL=
201401282100 AAXX 28214 67531 NIL=
201401281800 AAXX 28184 67531 NIL=
201401281500 AAXX 28154 67531 NIL=
201401281200 AAXX 28124 67531 NIL=
201401280900 AAXX 28094 67531 42580 73601 10268 20194 48/// 8117/
                   333 5//// 81826 87360=
201401280600 AAXX 28064 67531 12980 70304 10205 20190 48/// 69934 8707/
                   333 10300 20193 5//// 87360=
201401280300 AAXX 28034 67531 NIL=
201401272100 AAXX 27214 67531 NIL=
201401271800 AAXX 27184 67531 NIL=
201401271500 AAXX 27154 67531 NIL=
201401271200 AAXX 27124 67531 NIL=
201401270900 AAXX 27094 67531 41480 73306 10235 20199 48/// 72166 8657/
                   333 58003 86618 87460=
201401270600 AAXX 27064 67531 NIL=
201401270300 AAXX 27034 67531 NIL=
201401270000 AAXX 27004 67531 NIL=
201401262100 AAXX 26214 67531 NIL=
201401261800 AAXX 26184 67531 NIL=
201401261500 AAXX 26154 67531 NIL=
201401261200 AAXX 26124 67531 NIL=
201401260900 AAXX 26094 67531 NIL=
201401260600 AAXX 26064 67531 NIL=
201401251800 AAXX 25184 67531 NIL=
201401251500 AAXX 25154 67531 NIL=
201401251200 AAXX 25124 67531 NIL=
201401250900 AAXX 25094 67531 NIL=
201401250600 AAXX 25064 67531 NIL=
201401250000 AAXX 25004 67531 NIL=
201401242100 AAXX 24214 67531 NIL=
201401241800 AAXX 24184 67531 NIL=
201401241500 AAXX 24154 67531 NIL=
201401241200 AAXX 24120 67531 NIL=
201401240900 AAXX 24094 67531 NIL=
201401240600 AAXX 24064 67531 NIL=
201401240300 AAXX 24034 67531 NIL=
201401240000 AAXX 24004 67531 NIL=
201401231500 AAXX 23154 67531 NIL=
201401231200 AAXX 23124 67531 NIL=
201401230900 AAXX 23094 67531 NIL=
201401230600 AAXX 23064 67531 11380 70000 10203 20194 48/// 60114 70342 81167
                   333 10325 20189 59006 81706 87360=
201401230300 AAXX 23034 67531 NIL=
201401230000 AAXX 23004 67531 NIL=
201401222100 AAXX 22214 67531 NIL=
201401221800 AAXX 22184 67531 NIL=
201401221500 AAXX 22154 67531 NIL=
201401221200 AAXX 22124 67531 NIL=
201401220900 AAXX 22094 67531 NIL=
201401220600 AAXX 22064 67531 NIL=
201401220000 AAXX 22004 67531 NIL=
201401212100 AAXX 21214 67531 NIL=
201401211800 AAXX 21184 67531 NIL=
201401211200 AAXX 21124 67531 NIL=
201401210900 AAXX 21094 67531 NIL=
201401210600 AAXX 21064 67531 12980 72402 10220 20190 48/// 8703/
                   333 10315 20170 5//// 87360=
201401210300 AAXX 21034 67531 NIL=
201401202100 AAXX 20214 67531 NIL=
201401201800 AAXX 20184 67531 NIL=
201401201200 AAXX 20124 67531 NIL=
201401200900 AAXX 20094 67531 NIL=
201401200600 AAXX 20064 67531 32380 71206 10202 20178 48/// 70222 8267/
                   333 10325 20177 5//// 82706 87459=
201401200000 AAXX 20004 67531 NIL=
201401192100 AAXX 19214 67531 NIL=
201401191800 AAXX 19184 67531 NIL=
201401191500 AAXX 19154 67531 NIL=
201401191200 AAXX 19124 67531 NIL=
201401190900 AAXX 19094 67531 NIL=
201401190600 AAXX 19064 67531 NIL=
201401190000 AAXX 19004 67531 NIL=
201401181800 AAXX 18184 67531 NIL=
201401181200 AAXX 18124 67531 NIL=
201401180900 AAXX 18094 67531 NIL=
201401180600 AAXX 18064 67531 NIL=
201401180300 AAXX 18034 67531 NIL=
201401180000 AAXX 18004 67531 NIL=
201401171800 AAXX 17184 67531 NIL=
201401171200 AAXX 17121 67531 NIL=
201401170900 AAXX 17094 67531 41480 60000 10230 20207 48/// 79599 85272
                   333 59008 81915 82360 81080=
201401170600 AAXX 17064 67531 11380 70000 10186 20184 48/// 60034 79599 8377/
                   333 10295 20173 59016 81706 82609 81940 87459=
201401170300 AAXX 17034 67531 NIL=
201401162100 AAXX 16214 67531 NIL=
201401161800 AAXX 16184 67531 NIL=
201401161500 AAXX 16154 67531 NIL=
201401161200 AAXX 16124 67531 NIL=
201401160900 AAXX 16094 67531 NIL=
201401160600 AAXX 16064 67531 12380 70000 10189 20185 48/// 60794 70222 8367/
                   333 10283 20180 58036 83706 87459=
201401151200 AAXX 15124 67531 NIL=
201401150600 AAXX 15064 67531 11380 70000 10195 20189 48/// 60044 76066 8372/
                   333 10283 20188 58013 83706 87459=
201401140600 AAXX 14064 67531 NIL=
201401140300 AAXX 14034 67531 NIL=
201401132100 AAXX 13214 67531 NIL=
201401131800 AAXX 13184 67531 NIL=
201401131500 AAXX 13154 67531 NIL=
201401131200 AAXX 13124 67531 42680 70303 10280 20187 48/// 85282
                   333 59026 85840 82360 81080=
201401130900 AAXX 13094 67531 NIL=
201401130600 AAXX 13064 67531 12980 71202 10201 20192 48/// 60094 8163/
                   333 10237 20179 59015 81706 87360
                   555 00194=
201401091500 AAXX 09154 67531 NIL=
201401091200 AAXX 09124 67531 NIL=
201401090900 AAXX 09094 67531 NIL=
201401090600 AAXX 09064 67531 32980 70000 10199 20189 48/// 8707/
                   333 10282 20180 58014 87360=
201401090000 AAXX 09004 67531 NIL=
201401082100 AAXX 08214 67531 NIL=
201401081800 AAXX 08184 67531 NIL=
201401081500 AAXX 08150 67531 NIL=
201401081200 AAXX 08124 67531 NIL=
201401080900 AAXX 08094 67531 NIL=
201401080600 AAXX 08064 67531 12980 73303 10206 20188 48/// 60214 85038
                   333 10296 20185 59001 85360 87280=
201401080300 AAXX 08034 67531 NIL=
201401080000 AAXX 08004 67531 NIL=
201401072100 AAXX 07214 67531 NIL=
201401071800 AAXX 07184 67531 NIL=
201401071500 AAXX 07154 67531 NIL=
201401071200 AAXX 07124 67531 NIL=
201401070900 AAXX 07094 67531 NIL=
201401070600 AAXX 07064 67531 32980 73403 10193 20183 48/// 8267/
                   333 10271 20170 58009 81706 81615 87359
                   555 00/// 67477 11980 70000 10203 20161 48507
                   69904 72122=
201401070300 AAXX 07034 67531 NIL=
201401070000 AAXX 07004 67531 NIL=
201401062100 AAXX 06214 67531 NIL=
201401061800 AAXX 06184 67531 NIL=
201401061500 AAXX 06154 67531 NIL=
201401061200 AAXX 06124 67531 NIL=
201401060900 AAXX 06094 67531 NIL=
201401060600 AAXX 06064 67531 32980 70302 10200 20178 48/// 8707/
                   333 10311 20185 58004 87460=
201401060300 AAXX 06034 67531 NIL=
201401052100 AAXX 05214 67531 NIL=
201401051800 AAXX 05184 67531 NIL=
201401051500 AAXX 05154 67531 NIL=
201401051200 AAXX 05124 67531 NIL=
201401050900 AAXX 05094 67531 NIL=
201401050000 AAXX 05004 67531 NIL=
201401042100 AAXX 04214 67531 NIL=
201401041800 AAXX 04184 67531 NIL=
201401041500 AAXX 04154 67531 NIL=
201401041200 AAXX 04124 67531 NIL=
201401040900 AAXX 04094 67531 NIL=
201401040600 AAXX 04064 67531 NIL=
201401040000 AAXX 04004 67531 NIL=
201401031800 AAXX 03184 67531 NIL=
201401031500 AAXX 03154 67531 NIL=
201401031200 AAXX 03124 67531 41580 73407 10248 20197 48/// 70266 82878
                   333 58023 81820 81621 83360 87280=
201401030900 AAXX 03094 67531 NIL=
201401030600 AAXX 03064 67531 11370 83304 10189 20184 48/// 60564 76166 8777/
                   333 10290 20185 5//// 87706 88459=
201401022100 AAXX 02214 67531 NIL=
201401021800 AAXX 02184 67531 NIL=
201401021500 AAXX 02154 67531 NIL=
201401021200 AAXX 02124 67531 NIL=
201401020900 AAXX 02094 67531 41480 73607 10242 20195 48/// 70365 8287/
                   333 5//// 81819 81620=
201401020600 AAXX 02064 67531 11380 70306 10194 20184 48/// 60024 75055 8377/
                   333 10246 20186 58005 83706 87460=
201401020000 AAXX 02004 67531 NIL=
201401012100 AAXX 01214 67531 NIL=
201401011800 AAXX 01184 67531 NIL=
201401011500 AAXX 01154 67531 NIL=
201401010900 AAXX 01094 67531 NIL=
201401010600 AAXX 01064 67531 NIL=

################################################################################
#  SYNOPS from 67541, Kasempa (Zambia) | 13-32S | 025-51E | 1234 m
################################################################################
201401310300 AAXX 31034 67541 NIL=
201401310000 AAXX 31004 67541 NIL=
201401302100 AAXX 30214 67541 NIL=
201401301800 AAXX 30184 67541 NIL=
201401301500 AAXX 30154 67541 NIL=
201401301200 AAXX 30121 67541 NIL=
201401300900 AAXX 30094 67541 NIL=
201401300600 AAXX 30064 67541 NIL=
201401300300 AAXX 30034 67541 NIL=
201401292100 AAXX 29214 67541 NIL=
201401291800 AAXX 29184 67541 NIL=
201401291500 AAXX 29154 67541 NIL=
201401291200 AAXX 29124 67541 NIL=
201401290900 AAXX 29094 67541 NIL=
201401290600 AAXX 29064 67541 NIL=
201401290300 AAXX 29034 67541 NIL=
201401290000 AAXX 29004 67541 NIL=
201401282100 AAXX 28214 67541 NIL=
201401281800 AAXX 28184 67541 NIL=
201401281500 AAXX 28154 67541 NIL=
201401281200 AAXX 28124 67541 NIL=
201401280900 AAXX 28094 67541 NIL=
201401280600 AAXX 28064 67541 NIL=
201401280300 AAXX 28034 67541 NIL=
201401272100 AAXX 27214 67541 NIL=
201401271800 AAXX 27184 67541 NIL=
201401271500 AAXX 27154 67541 NIL=
201401271200 AAXX 27124 67541 NIL=
201401270900 AAXX 27094 67541 NIL=
201401270600 AAXX 27064 67541 NIL=
201401270300 AAXX 27034 67541 NIL=
201401270000 AAXX 27004 67541 NIL=
201401262100 AAXX 26214 67541 NIL=
201401261800 AAXX 26184 67541 NIL=
201401261500 AAXX 26154 67541 NIL=
201401261200 AAXX 26124 67541 NIL=
201401260900 AAXX 26094 67541 NIL=
201401260600 AAXX 26064 67541 NIL=
201401251800 AAXX 25184 67541 NIL=
201401251500 AAXX 25154 67541 NIL=
201401251200 AAXX 25124 67541 NIL=
201401250900 AAXX 25094 67541 NIL=
201401250600 AAXX 25064 67541 NIL=
201401250000 AAXX 25004 67541 NIL=
201401242100 AAXX 24214 67541 NIL=
201401241800 AAXX 24184 67541 NIL=
201401241500 AAXX 24154 67541 NIL=
201401241200 AAXX 24120 67541 NIL=
201401240900 AAXX 24094 67541 NIL=
201401240600 AAXX 24064 67541 12980 70000 10196 20193 48488 60374 70222 8703/
                   333 10/// 20/// 59011 87360=
201401240300 AAXX 24034 67541 NIL=
201401240000 AAXX 24004 67541 NIL=
201401231500 AAXX 23154 67541 NIL=
201401231200 AAXX 23124 67541 NIL=
201401230900 AAXX 23094 67541 NIL=
201401230600 AAXX 23064 67541 12980 60000 10206 20196 48499 60074 86030
                   333 10/// 20/// 59009 86360=
201401230300 AAXX 23034 67541 NIL=
201401230000 AAXX 23004 67541 NIL=
201401222100 AAXX 22214 67541 NIL=
201401221800 AAXX 22184 67541 NIL=
201401221500 AAXX 22154 67541 NIL=
201401221200 AAXX 22124 67541 NIL=
201401220900 AAXX 22094 67541 NIL=
201401220600 AAXX 22064 67541 NIL=
201401220000 AAXX 22004 67541 NIL=
201401212100 AAXX 21214 67541 NIL=
201401211800 AAXX 21184 67541 NIL=
201401211200 AAXX 21124 67541 NIL=
201401210900 AAXX 21094 67541 42580 70000 10249 20194 48527 70222 81130
                   333 5//// 81820 86360=
201401210600 AAXX 21064 67541 12980 70000 10197 20188 48524 69904 70222 8703/
                   333 10/// 20/// 5//// 87360=
201401210300 AAXX 21034 67541 NIL=
201401202100 AAXX 20214 67541 NIL=
201401201800 AAXX 20184 67541 NIL=
201401201200 AAXX 20124 67541 NIL=
201401200900 AAXX 20094 67541 NIL=
201401200600 AAXX 20064 67541 NIL=
201401200000 AAXX 20004 67541 NIL=
201401192100 AAXX 19214 67541 NIL=
201401191800 AAXX 19184 67541 NIL=
201401191500 AAXX 19154 67541 NIL=
201401191200 AAXX 19124 67541 NIL=
201401190900 AAXX 19094 67541 NIL=
201401190600 AAXX 19064 67541 NIL=
201401190000 AAXX 19004 67541 NIL=
201401181800 AAXX 18184 67541 NIL=
201401181200 AAXX 18124 67541 NIL=
201401180900 AAXX 18094 67541 NIL=
201401180600 AAXX 18064 67541 NIL=
201401180300 AAXX 18034 67541 NIL=
201401180000 AAXX 18004 67541 NIL=
201401171800 AAXX 17184 67541 NIL=
201401171200 AAXX 17121 67541 NIL=
201401170900 AAXX 17094 67541 NIL=
201401170600 AAXX 17060 67541 NIL=
201401170300 AAXX 17034 67541 NIL=
201401162100 AAXX 16214 67541 NIL=
201401161800 AAXX 16184 67541 NIL=
201401161500 AAXX 16154 67541 NIL=
201401161200 AAXX 16124 67541 NIL=
201401160900 AAXX 16094 67541 NIL=
201401160600 AAXX 16064 67541 NIL=
201401151200 AAXX 15124 67541 NIL=
201401150600 AAXX 15064 67541 12380 70000 10185 20182 48516 60044 70222 8353/
                   333 10/// 20/// 58002 83606 87360=
201401140600 AAXX 14064 67541 NIL=
201401140300 AAXX 14034 67541 NIL=
201401132100 AAXX 13214 67541 NIL=
201401131800 AAXX 13184 67541 NIL=
201401131500 AAXX 13154 67541 NIL=
201401131200 AAXX 13124 67541 NIL=
201401130900 AAXX 13094 67541 NIL=
201401130600 AAXX 13064 67541 12980 70000 10190 20190 48514 60024 8703/
                   333 10/// 20/// 59017 87360=
201401091500 AAXX 09154 67541 NIL=
201401091200 AAXX 09124 67541 NIL=
201401090900 AAXX 09094 67541 NIL=
201401090600 AAXX 09064 67541 12980 70000 10193 20191 48503 60144 70222 8703/
                   333 10/// 20/// 58006 87360=
201401090000 AAXX 09004 67541 NIL=
201401082100 AAXX 08214 67541 NIL=
201401081800 AAXX 08184 67541 NIL=
201401081500 AAXX 08150 67541 NIL=
201401081200 AAXX 08124 67541 NIL=
201401080900 AAXX 08094 67541 NIL=
201401080600 AAXX 08064 67541 12380 70000 10213 20192 48497 69904 70222 8253/
                   333 10/// 20/// 58009 82606 87360
                   555 00///=
201401080300 AAXX 08034 67541 NIL=
201401080000 AAXX 08004 67541 NIL=
201401072100 AAXX 07214 67541 NIL=
201401071800 AAXX 07184 67541 NIL=
201401071500 AAXX 07154 67541 NIL=
201401071200 AAXX 07124 67541 NIL=
201401070900 AAXX 07094 67541 NIL=
201401070600 AAXX 07064 67541 32980 40000 10183 20178 48488 70222 84030
                   333 10/// 20/// 59005 84360=
201401070300 AAXX 07034 67541 NIL=
201401070000 AAXX 07004 67541 NIL=
201401062100 AAXX 06214 67541 NIL=
201401061800 AAXX 06184 67541 NIL=
201401061500 AAXX 06154 67541 NIL=
201401061200 AAXX 06124 67541 NIL=
201401060900 AAXX 06094 67541 NIL=
201401060600 AAXX 06064 67541 NIL=
201401060300 AAXX 06034 67541 NIL=
201401052100 AAXX 05214 67541 NIL=
201401051800 AAXX 05184 67541 NIL=
201401051500 AAXX 05154 67541 NIL=
201401051200 AAXX 05124 67541 NIL=
201401050900 AAXX 05094 67541 NIL=
201401050000 AAXX 05004 67541 NIL=
201401042100 AAXX 04214 67541 NIL=
201401041800 AAXX 04184 67541 NIL=
201401041500 AAXX 04154 67541 NIL=
201401041200 AAXX 04124 67541 NIL=
201401040900 AAXX 04094 67541 NIL=
201401040600 AAXX 04064 67541 NIL=
201401040000 AAXX 04004 67541 NIL=
201401031800 AAXX 03184 67541 NIL=
201401031500 AAXX 03154 67541 NIL=
201401031200 AAXX 03124 67541 NIL=
201401030900 AAXX 03094 67541 NIL=
201401030600 AAXX 03064 67541 12980 70000 10193 20187 48501 60034 70222 8703/
                   333 10/// 20/// 58014 87360=
201401022100 AAXX 02214 67541 NIL=
201401021800 AAXX 02184 67541 NIL=
201401021500 AAXX 02154 67541 NIL=
201401021200 AAXX 02124 67541 NIL=
201401020900 AAXX 02094 67541 NIL=
201401020600 AAXX 02064 67541 12980 70000 10209 20191 48487 60014 8703/
                   333 10/// 20/// 58002 87360=
201401020000 AAXX 02004 67541 NIL=
201401012100 AAXX 01214 67541 NIL=
201401011800 AAXX 01184 67541 NIL=
201401011500 AAXX 01154 67541 NIL=
201401010900 AAXX 01094 67541 NIL=
201401010600 AAXX 01064 67541 NIL=

################################################################################
#  SYNOPS from 67543, Kabompo (Zambia) | 13-36S | 024-12E | 1075 m
################################################################################
201401310300 AAXX 31034 67543 NIL=
201401310000 AAXX 31004 67543 NIL=
201401302100 AAXX 30214 67543 NIL=
201401301800 AAXX 30184 67543 NIL=
201401301500 AAXX 30154 67543 NIL=
201401301200 AAXX 30121 67543 NIL=
201401300900 AAXX 30094 67543 NIL=
201401300600 AAXX 30064 67543 NIL=
201401300300 AAXX 30034 67543 NIL=
201401292100 AAXX 29214 67543 NIL=
201401291800 AAXX 29184 67543 NIL=
201401291500 AAXX 29154 67543 NIL=
201401291200 AAXX 29124 67543 NIL=
201401290900 AAXX 29094 67543 NIL=
201401290600 AAXX 29064 67543 NIL=
201401290300 AAXX 29034 67543 NIL=
201401290000 AAXX 29004 67543 NIL=
201401282100 AAXX 28214 67543 NIL=
201401281800 AAXX 28184 67543 NIL=
201401281500 AAXX 28154 67543 NIL=
201401281200 AAXX 28124 67543 NIL=
201401280900 AAXX 28094 67543 NIL=
201401280600 AAXX 28064 67543 NIL=
201401280300 AAXX 28034 67543 NIL=
201401272100 AAXX 27214 67543 NIL=
201401271800 AAXX 27184 67543 NIL=
201401271500 AAXX 27154 67543 NIL=
201401271200 AAXX 27124 67543 NIL=
201401270900 AAXX 27094 67543 NIL=
201401270600 AAXX 27064 67543 NIL=
201401270300 AAXX 27034 67543 NIL=
201401270000 AAXX 27004 67543 NIL=
201401262100 AAXX 26214 67543 NIL=
201401261800 AAXX 26184 67543 NIL=
201401261500 AAXX 26154 67543 NIL=
201401261200 AAXX 26124 67543 NIL=
201401260900 AAXX 26094 67543 NIL=
201401260600 AAXX 26064 67543 NIL=
201401251800 AAXX 25184 67543 NIL=
201401251500 AAXX 25154 67543 NIL=
201401251200 AAXX 25124 67543 NIL=
201401250900 AAXX 25094 67543 NIL=
201401250600 AAXX 25064 67543 NIL=
201401250000 AAXX 25004 67543 NIL=
201401242100 AAXX 24214 67543 NIL=
201401241800 AAXX 24184 67543 NIL=
201401241500 AAXX 24154 67543 NIL=
201401241200 AAXX 24120 67543 NIL=
201401240900 AAXX 24094 67543 NIL=
201401240600 AAXX 24064 67543 NIL=
201401240300 AAXX 24034 67543 NIL=
201401240000 AAXX 24004 67543 NIL=
201401231500 AAXX 23154 67543 NIL=
201401231200 AAXX 23124 67543 NIL=
201401230900 AAXX 23094 67543 NIL=
201401230600 AAXX 23064 67543 NIL=
201401230300 AAXX 23034 67543 NIL=
201401230000 AAXX 23004 67543 NIL=
201401222100 AAXX 22214 67543 NIL=
201401221800 AAXX 22184 67543 NIL=
201401221500 AAXX 22154 67543 NIL=
201401221200 AAXX 22124 67543 NIL=
201401220900 AAXX 22094 67543 NIL=
201401220600 AAXX 22064 67543 NIL=
201401220000 AAXX 22004 67543 NIL=
201401212100 AAXX 21214 67543 NIL=
201401211800 AAXX 21184 67543 NIL=
201401211200 AAXX 21124 67543 NIL=
201401210900 AAXX 21094 67543 NIL=
201401210600 AAXX 21064 67543 NIL=
201401210300 AAXX 21034 67543 NIL=
201401202100 AAXX 20214 67543 NIL=
201401201800 AAXX 20184 67543 NIL=
201401201200 AAXX 20124 67543 NIL=
201401200900 AAXX 20094 67543 NIL=
201401200600 AAXX 20064 67543 NIL=
201401200000 AAXX 20004 67543 NIL=
201401192100 AAXX 19214 67543 NIL=
201401191800 AAXX 19184 67543 NIL=
201401191500 AAXX 19154 67543 NIL=
201401191200 AAXX 19124 67543 NIL=
201401190900 AAXX 19094 67543 NIL=
201401190600 AAXX 19064 67543 NIL=
201401190000 AAXX 19004 67543 NIL=
201401181800 AAXX 18184 67543 NIL=
201401181200 AAXX 18124 67543 NIL=
201401180900 AAXX 18094 67543 NIL=
201401180600 AAXX 18064 67543 NIL=
201401180300 AAXX 18034 67543 NIL=
201401180000 AAXX 18004 67543 NIL=
201401171800 AAXX 17184 67543 NIL=
201401171200 AAXX 17121 67543 NIL=
201401170900 AAXX 17094 67543 NIL=
201401170600 AAXX 17060 67543 NIL=
201401170300 AAXX 17034 67543 NIL=
201401162100 AAXX 16214 67543 NIL=
201401161800 AAXX 16184 67543 NIL=
201401161500 AAXX 16154 67543 NIL=
201401161200 AAXX 16124 67543 NIL=
201401160900 AAXX 16094 67543 NIL=
201401160600 AAXX 16064 67543 NIL=
201401151200 AAXX 15124 67543 NIL=
201401140600 AAXX 14064 67543 NIL=
201401140300 AAXX 14034 67543 NIL=
201401132100 AAXX 13214 67543 NIL=
201401131800 AAXX 13184 67543 NIL=
201401131500 AAXX 13154 67543 NIL=
201401131200 AAXX 13124 67543 NIL=
201401130900 AAXX 13094 67543 NIL=
201401091500 AAXX 09154 67543 NIL=
201401091200 AAXX 09124 67543 NIL=
201401090900 AAXX 09094 67543 NIL=
201401090600 AAXX 09064 67543 NIL=
201401090000 AAXX 09004 67543 NIL=
201401082100 AAXX 08214 67543 NIL=
201401081800 AAXX 08184 67543 NIL=
201401081500 AAXX 08150 67543 NIL=
201401081200 AAXX 08124 67543 NIL=
201401080900 AAXX 08094 67543 NIL=
201401080600 AAXX 08064 67543 NIL=
201401080300 AAXX 08034 67543 NIL=
201401080000 AAXX 08004 67543 NIL=
201401072100 AAXX 07214 67543 NIL=
201401071800 AAXX 07184 67543 NIL=
201401071500 AAXX 07154 67543 NIL=
201401071200 AAXX 07124 67543 NIL=
201401070900 AAXX 07094 67543 NIL=
201401070600 AAXX 07064 67543 NIL=
201401070300 AAXX 07034 67543 NIL=
201401070000 AAXX 07004 67543 NIL=
201401062100 AAXX 06214 67543 NIL=
201401061800 AAXX 06184 67543 NIL=
201401061500 AAXX 06154 67543 NIL=
201401061200 AAXX 06124 67543 NIL=
201401060900 AAXX 06094 67543 NIL=
201401060600 AAXX 06064 67543 NIL=
201401060300 AAXX 06034 67543 NIL=
201401052100 AAXX 05214 67543 NIL=
201401051800 AAXX 05184 67543 NIL=
201401051500 AAXX 05154 67543 NIL=
201401051200 AAXX 05124 67543 NIL=
201401050900 AAXX 05094 67543 NIL=
201401050000 AAXX 05004 67543 NIL=
201401042100 AAXX 04214 67543 NIL=
201401041800 AAXX 04184 67543 NIL=
201401041500 AAXX 04154 67543 NIL=
201401041200 AAXX 04124 67543 NIL=
201401040900 AAXX 04094 67543 NIL=
201401040600 AAXX 04064 67543 NIL=
201401040000 AAXX 04004 67543 NIL=
201401031800 AAXX 03184 67543 NIL=
201401031500 AAXX 03154 67543 NIL=
201401031200 AAXX 03124 67543 NIL=
201401030900 AAXX 03094 67543 NIL=
201401030600 AAXX 03064 67543 NIL=
201401022100 AAXX 02214 67543 NIL=
201401021800 AAXX 02184 67543 NIL=
201401021500 AAXX 02154 67543 NIL=
201401021200 AAXX 02124 67543 NIL=
201401020900 AAXX 02094 67543 NIL=
201401020600 AAXX 02064 67543 NIL=
201401020000 AAXX 02004 67543 NIL=
201401012100 AAXX 01214 67543 NIL=
201401011800 AAXX 01184 67543 NIL=
201401011500 AAXX 01154 67543 NIL=
201401010900 AAXX 01094 67543 NIL=
201401010600 AAXX 01064 67543 NIL=

################################################################################
#  SYNOPS from 67551, Solwezi (Zambia) | 12-11S | 026-23E | 1386 m
################################################################################
201401310300 AAXX 31034 67551 NIL=
201401310000 AAXX 31004 67551 NIL=
201401302100 AAXX 30214 67551 NIL=
201401301800 AAXX 30184 67551 NIL=
201401301500 AAXX 30154 67551 NIL=
201401301200 AAXX 30121 67551 NIL=
201401300900 AAXX 30094 67551 NIL=
201401300600 AAXX 30064 67551 NIL=
201401300300 AAXX 30034 67551 NIL=
201401292100 AAXX 29214 67551 NIL=
201401291800 AAXX 29184 67551 NIL=
201401291500 AAXX 29154 67551 NIL=
201401291200 AAXX 29124 67551 NIL=
201401290900 AAXX 29094 67551 NIL=
201401290600 AAXX 29064 67551 NIL=
201401290300 AAXX 29034 67551 NIL=
201401290000 AAXX 29004 67551 NIL=
201401282100 AAXX 28214 67551 NIL=
201401281800 AAXX 28184 67551 NIL=
201401281500 AAXX 28154 67551 NIL=
201401281200 AAXX 28124 67551 NIL=
201401280900 AAXX 28094 67551 NIL=
201401280600 AAXX 28064 67551 NIL=
201401280300 AAXX 28034 67551 NIL=
201401272100 AAXX 27214 67551 NIL=
201401271800 AAXX 27184 67551 NIL=
201401271500 AAXX 27154 67551 NIL=
201401271200 AAXX 27124 67551 NIL=
201401270900 AAXX 27094 67551 NIL=
201401270600 AAXX 27064 67551 NIL=
201401270300 AAXX 27034 67551 NIL=
201401270000 AAXX 27004 67551 NIL=
201401262100 AAXX 26214 67551 NIL=
201401261800 AAXX 26184 67551 NIL=
201401261500 AAXX 26154 67551 NIL=
201401261200 AAXX 26124 67551 NIL=
201401260900 AAXX 26094 67551 NIL=
201401260600 AAXX 26064 67551 NIL=
201401251800 AAXX 25184 67551 NIL=
201401251500 AAXX 25154 67551 NIL=
201401251200 AAXX 25124 67551 NIL=
201401250900 AAXX 25094 67551 NIL=
201401250600 AAXX 25064 67551 NIL=
201401250000 AAXX 25004 67551 NIL=
201401242100 AAXX 24214 67551 NIL=
201401241800 AAXX 24184 67551 NIL=
201401241500 AAXX 24154 67551 NIL=
201401241200 AAXX 24120 67551 NIL=
201401240900 AAXX 24094 67551 NIL=
201401240600 AAXX 24064 67551 11365 83606 10181 20181 48507 60164 8577/
                   333 10267 20181 59004 85707 81930 88462 91017=
201401240300 AAXX 24034 67551 NIL=
201401240000 AAXX 24004 67551 NIL=
201401231500 AAXX 23154 67551 NIL=
201401231200 AAXX 23124 67551 NIL=
201401230900 AAXX 23094 67551 NIL=
201401230600 AAXX 23064 67551 NIL=
201401230300 AAXX 23034 67551 NIL=
201401230000 AAXX 23004 67551 NIL=
201401222100 AAXX 22214 67551 NIL=
201401221800 AAXX 22184 67551 NIL=
201401221500 AAXX 22154 67551 NIL=
201401221200 AAXX 22124 67551 NIL=
201401220900 AAXX 22094 67551 NIL=
201401220600 AAXX 22064 67551 32970 70000 10180 20177 48518 8707/
                   333 10274 20168 59020 87362 91019=
201401220000 AAXX 22004 67551 NIL=
201401212100 AAXX 21214 67551 NIL=
201401211800 AAXX 21184 67551 NIL=
201401211200 AAXX 21124 67551 NIL=
201401210900 AAXX 21094 67551 NIL=
201401210600 AAXX 21064 67551 12359 71403 10183 20177 48530 60404 74044 8467/
                   333 10296 20167 58006 84707 87362 91021=
201401210300 AAXX 21034 67551 NIL=
201401202100 AAXX 20214 67551 NIL=
201401201800 AAXX 20184 67551 NIL=
201401201200 AAXX 20124 67551 NIL=
201401200900 AAXX 20094 67551 NIL=
201401200600 AAXX 20064 67551 32980 10903 10214 20184 48530 80001
                   333 10299 20166 58004 81080 91020=
201401200000 AAXX 20004 67551 NIL=
201401192100 AAXX 19214 67551 NIL=
201401191800 AAXX 19184 67551 NIL=
201401191500 AAXX 19154 67551 NIL=
201401191200 AAXX 19124 67551 NIL=
201401190900 AAXX 19094 67551 NIL=
201401190600 AAXX 19064 67551 NIL=
201401190000 AAXX 19004 67551 NIL=
201401181800 AAXX 18184 67551 NIL=
201401181200 AAXX 18124 67551 NIL=
201401180900 AAXX 18094 67551 NIL=
201401180600 AAXX 18064 67551 NIL=
201401180300 AAXX 18034 67551 NIL=
201401180000 AAXX 18004 67551 NIL=
201401171800 AAXX 17184 67551 NIL=
201401171200 AAXX 17121 67551 NIL=
201401170900 AAXX 17094 67551 NIL=
201401170600 AAXX 17060 67551 NIL=
201401170300 AAXX 17034 67551 NIL=
201401162100 AAXX 16214 67551 NIL=
201401161800 AAXX 16184 67551 NIL=
201401161500 AAXX 16154 67551 NIL=
201401161200 AAXX 16124 67551 NIL=
201401160900 AAXX 16094 67551 NIL=
201401160600 AAXX 16064 67551 12370 70000 10170 20170 48542 60634 8277/
                   333 10250 20160 58004 82707 87362 91022=
201401151200 AAXX 15124 67551 NIL=
201401140600 AAXX 14064 67551 NIL=
201401140300 AAXX 14034 67551 NIL=
201401132100 AAXX 13214 67551 NIL=
201401131800 AAXX 13184 67551 NIL=
201401131500 AAXX 13154 67551 NIL=
201401131200 AAXX 13124 67551 NIL=
201401130900 AAXX 13094 67551 NIL=
201401130600 AAXX 13064 67551 32380 70000 10203 20187 48524 82530
                   333 10270 20175 59010 82609 87362 91020=
201401091500 AAXX 09154 67551 NIL=
201401091200 AAXX 09124 67551 NIL=
201401090900 AAXX 09094 67551 NIL=
201401090600 AAXX 09064 67551 12480 70000 10185 20170 48513 60284 81132
                   333 10252 20152 58011 81810 85365 81080 91019=
201401090000 AAXX 09004 67551 NIL=
201401082100 AAXX 08214 67551 NIL=
201401081800 AAXX 08184 67551 NIL=
201401081500 AAXX 08150 67551 NIL=
201401081200 AAXX 08124 67551 NIL=
201401080900 AAXX 08094 67551 NIL=
201401080600 AAXX 08064 67551 12980 72904 10195 20167 48504 69944 8707/
                   333 10301 20174 58007 87362
                   555 00/// 20000 91017=
201401080300 AAXX 08034 67551 NIL=
201401080000 AAXX 08004 67551 NIL=
201401072100 AAXX 07214 67551 NIL=
201401071800 AAXX 07184 67551 NIL=
201401071500 AAXX 07154 67551 NIL=
201401071200 AAXX 07124 67551 NIL=
201401070900 AAXX 07094 67551 NIL=
201401070600 AAXX 07064 67551 32980 73004 10193 20179 48497 87070
                   333 10262 20171 59006 87362
                   555 00/// 20016 91017=
201401070300 AAXX 07034 67551 NIL=
201401070000 AAXX 07004 67551 NIL=
201401062100 AAXX 06214 67551 NIL=
201401061800 AAXX 06184 67551 NIL=
201401061500 AAXX 06154 67551 NIL=
201401061200 AAXX 06124 67551 NIL=
201401060900 AAXX 06094 67551 NIL=
201401060600 AAXX 06064 67551 11375 72404 10180 20159 48507 60164 78082 81777
                   333 10292 20166 58009 81707 87362 91017=
201401060300 AAXX 06034 67551 NIL=
201401052100 AAXX 05214 67551 NIL=
201401051800 AAXX 05184 67551 NIL=
201401051500 AAXX 05154 67551 NIL=
201401051200 AAXX 05124 67551 NIL=
201401050900 AAXX 05094 67551 NIL=
201401050000 AAXX 05004 67551 NIL=
201401042100 AAXX 04214 67551 NIL=
201401041800 AAXX 04184 67551 NIL=
201401041500 AAXX 04154 67551 NIL=
201401041200 AAXX 04124 67551 NIL=
201401040900 AAXX 04094 67551 NIL=
201401040600 AAXX 04064 67551 NIL=
201401040000 AAXX 04004 67551 NIL=
201401031800 AAXX 03184 67551 NIL=
201401031500 AAXX 03154 67551 NIL=
201401031200 AAXX 03124 67551 NIL=
201401030900 AAXX 03094 67551 NIL=
201401030600 AAXX 03064 67551 12975 73505 10195 20174 48507 69904 8707/
                   333 10275 20175 58002 87362 91018=
201401022100 AAXX 02214 67551 NIL=
201401021800 AAXX 02184 67551 NIL=
201401021500 AAXX 02154 67551 NIL=
201401021200 AAXX 02124 67551 NIL=
201401020900 AAXX 02094 67551 NIL=
201401020600 AAXX 02064 67551 NIL=
201401020000 AAXX 02004 67551 NIL=
201401012100 AAXX 01214 67551 NIL=
201401011800 AAXX 01184 67551 NIL=
201401011500 AAXX 01154 67551 NIL=
201401010900 AAXX 01094 67551 NIL=
201401010600 AAXX 01064 67551 NIL=

################################################################################
#  SYNOPS from 67561, Ndola (Zambia) | 13-00S | 028-39E | 1269 m
################################################################################
201401310300 AAXX 31034 67561 NIL=
201401310000 AAXX 31004 67561 NIL=
201401302100 AAXX 30214 67561 NIL=
201401301800 AAXX 30184 67561 NIL=
201401301500 AAXX 30154 67561 NIL=
201401301200 AAXX 30121 67561 NIL=
201401300900 AAXX 30094 67561 NIL=
201401300600 AAXX 30064 67561 NIL=
201401300300 AAXX 30034 67561 NIL=
201401292100 AAXX 29214 67561 NIL=
201401291800 AAXX 29184 67561 NIL=
201401291500 AAXX 29154 67561 NIL=
201401291200 AAXX 29124 67561 NIL=
201401290900 AAXX 29094 67561 NIL=
201401290600 AAXX 29064 67561 NIL=
201401290300 AAXX 29034 67561 NIL=
201401290000 AAXX 29004 67561 NIL=
201401282100 AAXX 28214 67561 NIL=
201401281800 AAXX 28184 67561 NIL=
201401281500 AAXX 28154 67561 NIL=
201401281200 AAXX 28124 67561 NIL=
201401280900 AAXX 28094 67561 NIL=
201401280600 AAXX 28064 67561 NIL=
201401280300 AAXX 28034 67561 NIL=
201401272100 AAXX 27214 67561 NIL=
201401271800 AAXX 27184 67561 NIL=
201401271500 AAXX 27154 67561 NIL=
201401271200 AAXX 27124 67561 NIL=
201401270900 AAXX 27094 67561 NIL=
201401270600 AAXX 27064 67561 NIL=
201401270300 AAXX 27034 67561 NIL=
201401270000 AAXX 27004 67561 NIL=
201401262100 AAXX 26214 67561 NIL=
201401261800 AAXX 26184 67561 NIL=
201401261500 AAXX 26154 67561 NIL=
201401261200 AAXX 26124 67561 NIL=
201401260900 AAXX 26094 67561 NIL=
201401260600 AAXX 26064 67561 NIL=
201401251800 AAXX 25184 67561 NIL=
201401251500 AAXX 25154 67561 NIL=
201401251200 AAXX 25124 67561 NIL=
201401250900 AAXX 25094 67561 NIL=
201401250600 AAXX 25064 67561 NIL=
201401250000 AAXX 25004 67561 NIL=
201401242100 AAXX 24214 67561 NIL=
201401241800 AAXX 24184 67561 NIL=
201401241500 AAXX 24154 67561 NIL=
201401241200 AAXX 24120 67561 NIL=
201401240900 AAXX 24094 67561 NIL=
201401240600 AAXX 24064 67561 NIL=
201401240300 AAXX 24034 67561 NIL=
201401240000 AAXX 24004 67561 NIL=
201401231500 AAXX 23154 67561 NIL=
201401231200 AAXX 23124 67561 NIL=
201401230900 AAXX 23094 67561 NIL=
201401230600 AAXX 23064 67561 NIL=
201401230300 AAXX 23034 67561 NIL=
201401230000 AAXX 23004 67561 NIL=
201401222100 AAXX 22214 67561 NIL=
201401221800 AAXX 22184 67561 NIL=
201401221500 AAXX 22154 67561 NIL=
201401221200 AAXX 22124 67561 NIL=
201401220900 AAXX 22094 67561 NIL=
201401220600 AAXX 22064 67561 NIL=
201401220000 AAXX 22004 67561 NIL=
201401212100 AAXX 21214 67561 NIL=
201401211800 AAXX 21184 67561 NIL=
201401211200 AAXX 21124 67561 NIL=
201401210900 AAXX 21094 67561 NIL=
201401210600 AAXX 21064 67561 NIL=
201401210300 AAXX 21034 67561 NIL=
201401202100 AAXX 20214 67561 NIL=
201401201800 AAXX 20184 67561 NIL=
201401201200 AAXX 20124 67561 NIL=
201401200900 AAXX 20094 67561 NIL=
201401200600 AAXX 20064 67561 NIL=
201401200000 AAXX 20004 67561 NIL=
201401192100 AAXX 19214 67561 NIL=
201401191800 AAXX 19184 67561 NIL=
201401191500 AAXX 19154 67561 NIL=
201401191200 AAXX 19124 67561 NIL=
201401190900 AAXX 19094 67561 NIL=
201401190600 AAXX 19064 67561 NIL=
201401190000 AAXX 19004 67561 NIL=
201401181800 AAXX 18184 67561 NIL=
201401181200 AAXX 18124 67561 NIL=
201401180900 AAXX 18094 67561 NIL=
201401180600 AAXX 18064 67561 NIL=
201401180300 AAXX 18034 67561 NIL=
201401180000 AAXX 18004 67561 NIL=
201401171800 AAXX 17184 67561 NIL=
201401171200 AAXX 17121 67561 NIL=
201401170900 AAXX 17094 67561 41460 50605 10235 20190 48535 70522 85200
                   333 59004 85810 91021=
201401170600 AAXX 17060 67561 NIL=
201401170300 AAXX 17034 67561 NIL=
201401162100 AAXX 16214 67561 NIL=
201401161800 AAXX 16184 67561 NIL=
201401161500 AAXX 16154 67561 NIL=
201401161200 AAXX 16124 67561 NIL=
201401160900 AAXX 16094 67561 NIL=
201401160600 AAXX 16064 67561 NIL=
201401151200 AAXX 15124 67561 NIL=
201401140600 AAXX 14064 67561 NIL=
201401140300 AAXX 14034 67561 NIL=
201401132100 AAXX 13214 67561 NIL=
201401131800 AAXX 13184 67561 NIL=
201401131500 AAXX 13154 67561 NIL=
201401131200 AAXX 13124 67561 NIL=
201401130900 AAXX 13094 67561 NIL=
201401091500 AAXX 09154 67561 NIL=
201401091200 AAXX 09124 67561 NIL=
201401090900 AAXX 09094 67561 NIL=
201401090600 AAXX 09064 67561 NIL=
201401090000 AAXX 09004 67561 NIL=
201401082100 AAXX 08214 67561 NIL=
201401081800 AAXX 08184 67561 NIL=
201401081500 AAXX 08150 67561 NIL=
201401081200 AAXX 08124 67561 NIL=
201401080900 AAXX 08094 67561 NIL=
201401080600 AAXX 08064 67561 NIL=
201401080300 AAXX 08034 67561 NIL=
201401080000 AAXX 08004 67561 NIL=
201401072100 AAXX 07214 67561 NIL=
201401071800 AAXX 07184 67561 NIL=
201401071500 AAXX 07154 67561 NIL=
201401071200 AAXX 07124 67561 NIL=
201401070900 AAXX 07094 67561 NIL=
201401070600 AAXX 07064 67561 NIL=
201401070300 AAXX 07034 67561 NIL=
201401070000 AAXX 07004 67561 NIL=
201401062100 AAXX 06214 67561 NIL=
201401061800 AAXX 06184 67561 NIL=
201401061500 AAXX 06154 67561 NIL=
201401061200 AAXX 06124 67561 NIL=
201401060900 AAXX 06094 67561 NIL=
201401060600 AAXX 06064 67561 NIL=
201401060300 AAXX 06034 67561 NIL=
201401052100 AAXX 05214 67561 NIL=
201401051800 AAXX 05184 67561 NIL=
201401051500 AAXX 05154 67561 NIL=
201401051200 AAXX 05124 67561 NIL=
201401050900 AAXX 05094 67561 NIL=
201401050000 AAXX 05004 67561 NIL=
201401042100 AAXX 04214 67561 NIL=
201401041800 AAXX 04184 67561 NIL=
201401041500 AAXX 04154 67561 NIL=
201401041200 AAXX 04124 67561 NIL=
201401040900 AAXX 04094 67561 NIL=
201401040600 AAXX 04064 67561 NIL=
201401040000 AAXX 04004 67561 NIL=
201401031800 AAXX 03184 67561 NIL=
201401031500 AAXX 03154 67561 NIL=
201401031200 AAXX 03124 67561 NIL=
201401030900 AAXX 03094 67561 NIL=
201401030600 AAXX 03064 67561 NIL=
201401022100 AAXX 02214 67561 NIL=
201401021800 AAXX 02184 67561 NIL=
201401021500 AAXX 02154 67561 NIL=
201401021200 AAXX 02124 67561 NIL=
201401020900 AAXX 02094 67561 NIL=
201401020600 AAXX 02064 67561 NIL=
201401020000 AAXX 02004 67561 NIL=
201401012100 AAXX 01214 67561 NIL=
201401011800 AAXX 01184 67561 NIL=
201401011500 AAXX 01154 67561 NIL=
201401010900 AAXX 01094 67561 NIL=
201401010600 AAXX 01064 67561 NIL=

################################################################################
#  SYNOPS from 67563, Kafironda (Zambia) | 12-36S | 028-07E | 1243 m
################################################################################
201401310300 AAXX 31034 67563 NIL=
201401310000 AAXX 31004 67563 NIL=
201401302100 AAXX 30214 67563 NIL=
201401301800 AAXX 30184 67563 NIL=
201401301500 AAXX 30154 67563 NIL=
201401301200 AAXX 30121 67563 NIL=
201401300900 AAXX 30094 67563 NIL=
201401300600 AAXX 30064 67563 12380 80000 10191 20180 48/// 60314 8267/
                   333 10279 20175 58001 82707 88358
                   555 00163 20020=
201401300300 AAXX 30034 67563 NIL=
201401292100 AAXX 29214 67563 NIL=
201401291800 AAXX 29184 67563 NIL=
201401291500 AAXX 29154 67563 NIL=
201401291200 AAXX 29124 67563 NIL=
201401290900 AAXX 29094 67563 NIL=
201401290600 AAXX 29064 67563 NIL=
201401290300 AAXX 29034 67563 NIL=
201401290000 AAXX 29004 67563 NIL=
201401282100 AAXX 28214 67563 NIL=
201401281800 AAXX 28184 67563 NIL=
201401281500 AAXX 28154 67563 NIL=
201401281200 AAXX 28124 67563 NIL=
201401280900 AAXX 28094 67563 NIL=
201401280600 AAXX 28064 67563 11575 82902 10190 20180 48/// 60394 71792 8297/
                   333 10287 20170 5//// 82925 88359
                   555 00160 20018=
201401280300 AAXX 28034 67563 NIL=
201401272100 AAXX 27214 67563 NIL=
201401271800 AAXX 27184 67563 NIL=
201401271500 AAXX 27154 67563 NIL=
201401271200 AAXX 27124 67563 NIL=
201401270900 AAXX 27094 67563 NIL=
201401270600 AAXX 27064 67563 NIL=
201401270300 AAXX 27034 67563 NIL=
201401270000 AAXX 27004 67563 NIL=
201401262100 AAXX 26214 67563 NIL=
201401261800 AAXX 26184 67563 NIL=
201401261500 AAXX 26154 67563 NIL=
201401261200 AAXX 26124 67563 NIL=
201401260900 AAXX 26094 67563 NIL=
201401260600 AAXX 26064 67563 NIL=
201401251800 AAXX 25184 67563 NIL=
201401251500 AAXX 25154 67563 NIL=
201401251200 AAXX 25124 67563 NIL=
201401250900 AAXX 25094 67563 NIL=
201401250600 AAXX 25064 67563 NIL=
201401250000 AAXX 25004 67563 NIL=
201401242100 AAXX 24214 67563 NIL=
201401241800 AAXX 24184 67563 NIL=
201401241500 AAXX 24154 67563 NIL=
201401241200 AAXX 24120 67563 NIL=
201401240900 AAXX 24094 67563 NIL=
201401240600 AAXX 24064 67563 NIL=
201401240300 AAXX 24034 67563 NIL=
201401240000 AAXX 24004 67563 NIL=
201401231500 AAXX 23154 67563 NIL=
201401231200 AAXX 23124 67563 NIL=
201401230900 AAXX 23094 67563 NIL=
201401230600 AAXX 23064 67563 12380 63401 10234 20190 48/// 60174 81602
                   333 10279 20176 59007 81708 86080
                   555 00170=
201401230300 AAXX 23034 67563 NIL=
201401230000 AAXX 23004 67563 NIL=
201401222100 AAXX 22214 67563 NIL=
201401221800 AAXX 22184 67563 NIL=
201401221500 AAXX 22154 67563 NIL=
201401221200 AAXX 22124 67563 NIL=
201401220900 AAXX 22094 67563 NIL=
201401220600 AAXX 22064 67563 NIL=
201401220000 AAXX 22004 67563 NIL=
201401212100 AAXX 21214 67563 NIL=
201401211800 AAXX 21184 67563 NIL=
201401211200 AAXX 21124 67563 NIL=
201401210900 AAXX 21094 67563 NIL=
201401210600 AAXX 21064 67563 11380 83502 10190 20180 48/// 60214 72162 8277/
                   333 10310 20170 58006 82708 88360=
201401210300 AAXX 21034 67563 NIL=
201401202100 AAXX 20214 67563 NIL=
201401201800 AAXX 20184 67563 NIL=
201401201200 AAXX 20124 67563 NIL=
201401200900 AAXX 20094 67563 NIL=
201401200600 AAXX 20064 67563 31975 20000 10227 20180 48/// 70500 82030
                   333 10310 20157 58006 82360=
201401200000 AAXX 20004 67563 NIL=
201401192100 AAXX 19214 67563 NIL=
201401191800 AAXX 19184 67563 NIL=
201401191500 AAXX 19154 67563 NIL=
201401191200 AAXX 19124 67563 NIL=
201401190900 AAXX 19094 67563 NIL=
201401190600 AAXX 19064 67563 NIL=
201401190000 AAXX 19004 67563 NIL=
201401181800 AAXX 18184 67563 NIL=
201401181200 AAXX 18124 67563 NIL=
201401180900 AAXX 18094 67563 NIL=
201401180600 AAXX 18064 67563 NIL=
201401180300 AAXX 18034 67563 NIL=
201401180000 AAXX 18004 67563 NIL=
201401171800 AAXX 17184 67563 NIL=
201401171200 AAXX 17121 67563 NIL=
201401170900 AAXX 17094 67563 NIL=
201401170600 AAXX 17060 67563 NIL=
201401170300 AAXX 17034 67563 NIL=
201401162100 AAXX 16214 67563 NIL=
201401161800 AAXX 16184 67563 NIL=
201401161500 AAXX 16154 67563 NIL=
201401161200 AAXX 16124 67563 NIL=
201401160900 AAXX 16094 67563 NIL=
201401160600 AAXX 16064 67563 NIL=
201401151200 AAXX 15124 67563 NIL=
201401140600 AAXX 14064 67563 NIL=
201401140300 AAXX 14034 67563 NIL=
201401132100 AAXX 13214 67563 NIL=
201401131800 AAXX 13184 67563 NIL=
201401131500 AAXX 13154 67563 NIL=
201401131200 AAXX 13124 67563 NIL=
201401130900 AAXX 13094 67563 NIL=
201401091500 AAXX 09154 67563 NIL=
201401091200 AAXX 09124 67563 NIL=
201401090900 AAXX 09094 67563 NIL=
201401090600 AAXX 09064 67563 12980 40302 10208 20190 48/// 60064 80002
                   333 10272 20176 58007 84080=
201401090000 AAXX 09004 67563 NIL=
201401082100 AAXX 08214 67563 NIL=
201401081800 AAXX 08184 67563 NIL=
201401081500 AAXX 08150 67563 NIL=
201401081200 AAXX 08124 67563 NIL=
201401080900 AAXX 08094 67563 NIL=
201401080600 AAXX 08064 67563 NIL=
201401080300 AAXX 08034 67563 NIL=
201401080000 AAXX 08004 67563 NIL=
201401072100 AAXX 07214 67563 NIL=
201401071800 AAXX 07184 67563 NIL=
201401071500 AAXX 07154 67563 NIL=
201401071200 AAXX 07124 67563 NIL=
201401070900 AAXX 07094 67563 NIL=
201401070600 AAXX 07064 67563 NIL=
201401070300 AAXX 07034 67563 NIL=
201401070000 AAXX 07004 67563 NIL=
201401062100 AAXX 06214 67563 NIL=
201401061800 AAXX 06184 67563 NIL=
201401061500 AAXX 06154 67563 NIL=
201401061200 AAXX 06124 67563 NIL=
201401060900 AAXX 06094 67563 NIL=
201401060600 AAXX 06064 67563 NIL=
201401060300 AAXX 06034 67563 NIL=
201401052100 AAXX 05214 67563 NIL=
201401051800 AAXX 05184 67563 NIL=
201401051500 AAXX 05154 67563 NIL=
201401051200 AAXX 05124 67563 NIL=
201401050900 AAXX 05094 67563 NIL=
201401050000 AAXX 05004 67563 NIL=
201401042100 AAXX 04214 67563 NIL=
201401041800 AAXX 04184 67563 NIL=
201401041500 AAXX 04154 67563 NIL=
201401041200 AAXX 04124 67563 NIL=
201401040900 AAXX 04094 67563 NIL=
201401040600 AAXX 04064 67563 NIL=
201401040000 AAXX 04004 67563 NIL=
201401031800 AAXX 03184 67563 NIL=
201401031500 AAXX 03154 67563 NIL=
201401031200 AAXX 03124 67563 NIL=
201401030900 AAXX 03094 67563 NIL=
201401030600 AAXX 03064 67563 NIL=
201401022100 AAXX 02214 67563 NIL=
201401021800 AAXX 02184 67563 NIL=
201401021500 AAXX 02154 67563 NIL=
201401021200 AAXX 02124 67563 NIL=
201401020900 AAXX 02094 67563 NIL=
201401020600 AAXX 02064 67563 12380 73603 10220 20190 48/// 60244 81670
                   333 10256 20184 59003 81708 87358=
201401020000 AAXX 02004 67563 NIL=
201401012100 AAXX 01214 67563 NIL=
201401011800 AAXX 01184 67563 NIL=
201401011500 AAXX 01154 67563 NIL=
201401010900 AAXX 01094 67563 NIL=
201401010600 AAXX 01064 67563 NIL=

################################################################################
#  SYNOPS from 67571, Serenje (Zambia) | 13-14S | 030-13E | 1384 m
################################################################################
201401310300 AAXX 31034 67571 NIL=
201401310000 AAXX 31004 67571 NIL=
201401302100 AAXX 30214 67571 NIL=
201401301800 AAXX 30184 67571 NIL=
201401301500 AAXX 30154 67571 NIL=
201401301200 AAXX 30124 67571 42482 73603 10248 20178 48504 70222 8327/
                   333 58006 81918 83818 87360=
201401300900 AAXX 30094 67571 42982 73002 10234 20174 48503 70222 86038
                   333 58001 86360 87280=
201401300600 AAXX 30064 67571 12880 72702 10188 20171 48501 60014 70222 8703/
                   333 10263 20166 59001 87360=
201401300300 AAXX 30034 67571 NIL=
201401292100 AAXX 29214 67571 NIL=
201401291800 AAXX 29184 67571 NIL=
201401291500 AAXX 29154 67571 NIL=
201401291200 AAXX 29124 67571 42482 70302 10248 20191 48463 71722 83348
                   333 58008 82920 82825 83360 87280=
201401290900 AAXX 29094 67571 42482 82703 10221 20189 48503 70222 878//
                   333 86615 82818=
201401290600 AAXX 29064 67571 11378 80000 10180 20172 48501 60194 76122 81767
                   333 10262 20170 59009 81707 83358 88279=
201401290300 AAXX 29034 67571 NIL=
201401290000 AAXX 29004 67571 NIL=
201401282100 AAXX 28214 67571 NIL=
201401281800 AAXX 28184 67571 NIL=
201401281500 AAXX 28154 67571 NIL=
201401281200 AAXX 28124 67571 NIL=
201401280900 AAXX 28094 67571 41482 73603 10208 20164 48502 72162 81838
                   333 58007 81815 82360 87280=
201401280600 AAXX 28064 67571 12280 71802 10191 20182 48511 60024 70344 876//
                   333 10255 50172 58013 87705=
201401280300 AAXX 28034 67571 NIL=
201401272100 AAXX 27214 67571 NIL=
201401271800 AAXX 27184 67571 NIL=
201401271500 AAXX 27154 67571 NIL=
201401271200 AAXX 27124 67571 42482 72704 10245 20177 48463 70222 82238
                   333 58015 81918 81819 82360 86280=
201401270900 AAXX 27094 67571 42481 73305 10220 20184 48503 70222 875//
                   333 58010 87615=
201401270600 AAXX 27064 67571 NIL=
201401270300 AAXX 27034 67571 NIL=
201401270000 AAXX 27004 67571 NIL=
201401262100 AAXX 26214 67571 NIL=
201401261800 AAXX 26184 67571 NIL=
201401261500 AAXX 26154 67571 NIL=
201401261200 AAXX 26124 67571 NIL=
201401260900 AAXX 26094 67571 NIL=
201401260600 AAXX 26064 67571 NIL=
201401251800 AAXX 25184 67571 NIL=
201401251500 AAXX 25154 67571 NIL=
201401251200 AAXX 25124 67571 NIL=
201401250900 AAXX 25094 67571 NIL=
201401250600 AAXX 25064 67571 NIL=
201401250000 AAXX 25004 67571 NIL=
201401242100 AAXX 24214 67571 NIL=
201401241800 AAXX 24184 67571 NIL=
201401241500 AAXX 24154 67571 NIL=
201401241200 AAXX 24124 67571 41482 72702 10228 20191 48473 72999 82266
                   333 59006 81918 82820 81358 87279 67481 42680
                   53308 10248 20164 83236 58010 83832 84361 85280=
201401240900 AAXX 24094 67571 42482 73603 10243 20186 48483 70222 8584/
                   333 59010 81918 85818 85360=
201401240600 AAXX 24064 67571 32278 73602 10197 20187 48492 70222 876//
                   333 10280 20156 59012 87707
                   555 00/// 20000=
201401240300 AAXX 24034 67571 NIL=
201401240000 AAXX 24004 67571 NIL=
201401231500 AAXX 23154 67571 NIL=
201401231200 AAXX 23124 67571 42482 71503 10242 20180 48483 70222 83846
                   333 59001 81920 83823 81360 87280=
201401230900 AAXX 23094 67571 42482 73303 10243 20181 48493 70222 8686/ 89013 81918 86818
                   82360=
201401230600 AAXX 23064 67571 NIL=
201401230300 AAXX 23034 67571 NIL=
201401230000 AAXX 23004 67571 NIL=
201401222100 AAXX 22214 67571 NIL=
201401221800 AAXX 22184 67571 NIL=
201401221500 AAXX 22154 67571 NIL=
201401221200 AAXX 22124 67571 41482 70902 10232 20192 48483 72999 82266
                   333 59018 81919 82820 84360 87280=
201401220900 AAXX 22094 67571 42478 73304 10228 20184 48513 70222 878//
                   333 59014 81919 87820=
201401220600 AAXX 22064 67571 12482 40000 10201 20183 48512 69904 70222 81858
                   333 10250 20170 59009 81615 81817 82360 82280=
201401220000 AAXX 22004 67571 NIL=
201401212100 AAXX 21214 67571 NIL=
201401211800 AAXX 21184 67571 NIL=
201401211200 AAXX 21124 67571 42482 72402 10228 20176 48493 70222 81266
                   333 58005 81917 81818 81358 87279=
201401210900 AAXX 21094 67571 41381 73602 10201 20178 48522 72999 876//
                   333 58010 87707 8/9//=
201401210600 AAXX 21064 67571 12482 70000 10211 20182 48522 69904 70222 875//
                   333 10286 20192 58000 87615=
201401210300 AAXX 21034 67571 NIL=
201401202100 AAXX 20214 67571 NIL=
201401201800 AAXX 20184 67571 NIL=
201401201200 AAXX 20124 67571 41582 71504 10251 20174 48494 76022 83208
                   333 59008 81923 83827 87280=
201401200900 AAXX 20094 67571 42482 70603 10261 20178 48514 70222 81919=
201401200600 AAXX 20064 67571 12982 71503 10210 20173 48523 60024 70222 81048
                   333 10271 20190 58001 81360 87280=
201401200000 AAXX 20004 67571 NIL=
201401192100 AAXX 19214 67571 NIL=
201401191800 AAXX 19184 67571 NIL=
201401191500 AAXX 19154 67571 NIL=
201401191200 AAXX 19124 67571 NIL=
201401190900 AAXX 19094 67571 NIL=
201401190600 AAXX 19064 67571 NIL=
201401190000 AAXX 19004 67571 NIL=
201401181800 AAXX 18184 67571 NIL=
201401181200 AAXX 18124 67571 NIL=
201401180900 AAXX 18094 67571 NIL=
201401180600 AAXX 18064 67571 NIL=
201401180300 AAXX 18034 67571 NIL=
201401180000 AAXX 18004 67571 NIL=
201401171800 AAXX 17184 67571 NIL=
201401171200 AAXX 17124 67571 42582 52703 10278 20152 48495 70122 84202
                   333 59016 81923 84832 81080=
201401170900 AAXX 17094 67571 42482 73602 10233 20156 48523 70222 83238
                   333 59008 81918 83818 81360 87280=
201401170600 AAXX 17064 67571 31278 70000 10183 20171 48531 72842 8363/
                   333 10255 20153 59004 83704 87360=
201401170300 AAXX 17034 67571 NIL=
201401162100 AAXX 16214 67571 NIL=
201401161800 AAXX 16184 67571 NIL=
201401161500 AAXX 16154 67571 NIL=
201401161200 AAXX 16124 67571 NIL=
201401160900 AAXX 16094 67571 42582 71805 10229 20171 48533 70222 84838
                   333 58005 83621 82826 85360 87280=
201401160600 AAXX 16064 67571 12482 71202 10204 20169 48532 60034 70222 82538
                   333 10230 20171 58007 82616 86360=
201401151200 AAXX 15124 67571 41478 70302 10208 20178 48502 72055 8658/
                   333 58012 86615 87360=
201401150900 AAXX 15094 67571 41270 83303 10178 20170 48521 75155 887//
                   333 58014 88705=
201401150600 AAXX 15064 67571 11370 70602 10183 20163 48521 60554 75322 877//
                   333 10215 20170 58015 87706=
201401140600 AAXX 14064 67571 NIL=
201401140300 AAXX 14034 67571 NIL=
201401132100 AAXX 13214 67571 NIL=
201401131800 AAXX 13184 67571 NIL=
201401131500 AAXX 13154 67571 NIL=
201401131200 AAXX 13124 67571 41480 71802 10217 20187 48482 76099 8231/
                   333 59024 81920 82823 87460=
201401130900 AAXX 13094 67571 42482 72402 10236 20174 48513 70222 85238
                   333 59008 81919 85820 82360 87280=
201401130600 AAXX 13064 67571 12482 70906 10202 20174 48522 69904 70222 81578
                   333 10245 20174 59008 81616 86360 87280=
201401091500 AAXX 09154 67571 NIL=
201401091200 AAXX 09124 67571 41581 71803 10209 20164 48482 79592 84368
                   333 58038 84930 81825 83360 87280=
201401090900 AAXX 09094 67571 42482 73000 10258 20202 48504 70222 84208
                   333 58002 81918 84820 87280=
201401090600 AAXX 09064 67571 12482 70000 10202 20185 48502 60374 70222 81548
                   333 10249 20163 58009 81617 84360 87280=
201401090000 AAXX 09004 67571 NIL=
201401082100 AAXX 08214 67571 NIL=
201401081800 AAXX 08184 67571 NIL=
201401081500 AAXX 08150 67571 NIL=
201401081200 AAXX 08124 67571 42482 73002 10233 20195 48483 70222 84538
                   333 58025 84617 85360 87280=
201401080900 AAXX 08094 67571 42482 83602 10205 20188 48492 70222 885//
                   333 58021 88615=
201401080600 AAXX 08064 67571 11380 83002 10187 20178 48491 70262 886//
                   333 10289 20189 58003 88705=
201401080300 AAXX 08034 67571 NIL=
201401080000 AAXX 08004 67571 NIL=
201401072100 AAXX 07214 67571 NIL=
201401071800 AAXX 07184 67571 NIL=
201401071500 AAXX 07154 67571 NIL=
201401071200 AAXX 07124 67571 42482 43602 10279 20177 48454 70222 84201
                   333 59010 81918 84818 83617 83081=
201401070900 AAXX 07094 67571 NIL=
201401070600 AAXX 07064 67571 32482 73002 10200 20185 48492 70222 8654/
                   333 10264 20186 58012 86615 83360
                   555 00/// 20023=
201401070300 AAXX 07034 67571 NIL=
201401070000 AAXX 07004 67571 NIL=
201401062100 AAXX 06214 67571 NIL=
201401061800 AAXX 06184 67571 NIL=
201401061500 AAXX 06154 67571 NIL=
201401061200 AAXX 06124 67571 42482 73003 10251 20186 48463 70222 82248
                   333 58020 81617 82818 81361 87281=
201401060900 AAXX 06094 67571 42482 73602 10208 20177 48482 70222 81548
                   333 58014 81616 86360 87280=
201401060600 AAXX 06064 67571 11482 72702 10185 20166 48481 60234 72162 81548
                   333 10277 20165 59002 81615 82360 87280=
201401060300 AAXX 06034 67571 NIL=
201401052100 AAXX 05214 67571 NIL=
201401051800 AAXX 05184 67571 NIL=
201401051500 AAXX 05154 67571 NIL=
201401051200 AAXX 05124 67571 NIL=
201401050900 AAXX 05094 67571 NIL=
201401050000 AAXX 05004 67571 NIL=
201401042100 AAXX 04214 67571 NIL=
201401041800 AAXX 04184 67571 NIL=
201401041500 AAXX 04154 67571 NIL=
201401041200 AAXX 04124 67571 NIL=
201401040900 AAXX 04094 67571 NIL=
201401040600 AAXX 04064 67571 NIL=
201401040000 AAXX 04004 67571 NIL=
201401031800 AAXX 03184 67571 NIL=
201401031500 AAXX 03154 67571 NIL=
201401031200 AAXX 03124 67571 42482 73002 10247 20186 48494 70222 8187/
                   333 58021 81918 81825 87461=
201401030900 AAXX 03094 67571 42482 73302 10228 20189 48513 70222 8587/
                   333 58012 84616 82818 87360=
201401030600 AAXX 03064 67571 11375 83302 10183 20177 48521 60034 76166 887//
                   333 10281 20174 58011 88707=
201401022100 AAXX 02214 67571 NIL=
201401021800 AAXX 02184 67571 NIL=
201401021500 AAXX 02154 67571 NIL=
201401021200 AAXX 02124 67571 42482 73303 10267 20177 48474 70222 84238
                   333 59007 81920 84824 82361 87281=
201401020900 AAXX 02094 67571 42482 73302 10235 20184 48503 70222 83538
                   333 58002 81918 83620 83360 87280=
201401020600 AAXX 02064 67571 12278 83002 10193 20176 48511 60014 70222 8467/
                   333 10254 20180 58001 84704 88460=
201401020000 AAXX 02004 67571 NIL=
201401012100 AAXX 01214 67571 NIL=
201401011800 AAXX 01184 67571 NIL=
201401011500 AAXX 01154 67571 NIL=
201401010900 AAXX 01094 67571 NIL=
201401010600 AAXX 01064 67571 NIL=

################################################################################
#  SYNOPS from 67575, Mkushi (Zambia) | 13-38S | 029-53E | 1237 m
################################################################################
201401310300 AAXX 31034 67575 NIL=
201401310000 AAXX 31004 67575 NIL=
201401302100 AAXX 30214 67575 NIL=
201401301800 AAXX 30184 67575 NIL=
201401301500 AAXX 30154 67575 NIL=
201401301200 AAXX 30124 67575 NIL=
201401300900 AAXX 30094 67575 NIL=
201401300600 AAXX 30064 67575 NIL=
201401300300 AAXX 30034 67575 NIL=
201401292100 AAXX 29214 67575 NIL=
201401291800 AAXX 29184 67575 NIL=
201401291500 AAXX 29154 67575 NIL=
201401291200 AAXX 29124 67575 NIL=
201401290900 AAXX 29094 67575 NIL=
201401290600 AAXX 29064 67575 NIL=
201401290300 AAXX 29034 67575 NIL=
201401290000 AAXX 29004 67575 NIL=
201401282100 AAXX 28214 67575 NIL=
201401281800 AAXX 28184 67575 NIL=
201401281500 AAXX 28154 67575 NIL=
201401281200 AAXX 28124 67575 NIL=
201401280900 AAXX 28094 67575 NIL=
201401280600 AAXX 28064 67575 NIL=
201401280300 AAXX 28034 67575 NIL=
201401272100 AAXX 27214 67575 NIL=
201401271800 AAXX 27184 67575 NIL=
201401271500 AAXX 27154 67575 NIL=
201401271200 AAXX 27124 67575 NIL=
201401270900 AAXX 27094 67575 NIL=
201401270600 AAXX 27064 67575 NIL=
201401270300 AAXX 27034 67575 NIL=
201401270000 AAXX 27004 67575 NIL=
201401262100 AAXX 26214 67575 NIL=
201401261800 AAXX 26184 67575 NIL=
201401261500 AAXX 26154 67575 NIL=
201401261200 AAXX 26124 67575 NIL=
201401260900 AAXX 26094 67575 NIL=
201401260600 AAXX 26064 67575 NIL=
201401251800 AAXX 25184 67575 NIL=
201401251500 AAXX 25154 67575 NIL=
201401251200 AAXX 25124 67575 NIL=
201401250900 AAXX 25094 67575 NIL=
201401250600 AAXX 25064 67575 NIL=
201401250000 AAXX 25004 67575 NIL=
201401242100 AAXX 24214 67575 NIL=
201401241800 AAXX 24184 67575 NIL=
201401241500 AAXX 24154 67575 NIL=
201401241200 AAXX 24124 67575 NIL=
201401240900 AAXX 24094 67575 NIL=
201401240600 AAXX 24064 67575 NIL=
201401240300 AAXX 24034 67575 NIL=
201401240000 AAXX 24004 67575 NIL=
201401231500 AAXX 23154 67575 NIL=
201401231200 AAXX 23124 67575 NIL=
201401230900 AAXX 23094 67575 NIL=
201401230600 AAXX 23064 67575 NIL=
201401230300 AAXX 23034 67575 NIL=
201401230000 AAXX 23004 67575 NIL=
201401222100 AAXX 22214 67575 NIL=
201401221800 AAXX 22184 67575 NIL=
201401221500 AAXX 22154 67575 NIL=
201401221200 AAXX 22124 67575 NIL=
201401220900 AAXX 22094 67575 NIL=
201401220600 AAXX 22064 67575 NIL=
201401220000 AAXX 22004 67575 NIL=
201401212100 AAXX 21214 67575 NIL=
201401211800 AAXX 21184 67575 NIL=
201401211200 AAXX 21124 67575 NIL=
201401210900 AAXX 21094 67575 NIL=
201401210600 AAXX 21064 67575 NIL=
201401210300 AAXX 21034 67575 NIL=
201401202100 AAXX 20214 67575 NIL=
201401201800 AAXX 20184 67575 NIL=
201401201200 AAXX 20124 67575 NIL=
201401200900 AAXX 20094 67575 NIL=
201401200600 AAXX 20064 67575 NIL=
201401200000 AAXX 20004 67575 NIL=
201401192100 AAXX 19214 67575 NIL=
201401191800 AAXX 19184 67575 NIL=
201401191500 AAXX 19154 67575 NIL=
201401191200 AAXX 19124 67575 NIL=
201401190900 AAXX 19094 67575 NIL=
201401190600 AAXX 19064 67575 NIL=
201401190000 AAXX 19004 67575 NIL=
201401181800 AAXX 18184 67575 NIL=
201401181200 AAXX 18124 67575 NIL=
201401180900 AAXX 18094 67575 NIL=
201401180600 AAXX 18064 67575 NIL=
201401180300 AAXX 18034 67575 NIL=
201401180000 AAXX 18004 67575 NIL=
201401171800 AAXX 17184 67575 NIL=
201401171200 AAXX 17124 67575 NIL=
201401170900 AAXX 17094 67575 NIL=
201401170600 AAXX 17060 67575 NIL=
201401170300 AAXX 17034 67575 NIL=
201401162100 AAXX 16214 67575 NIL=
201401161800 AAXX 16184 67575 NIL=
201401161500 AAXX 16154 67575 NIL=
201401161200 AAXX 16124 67575 NIL=
201401160900 AAXX 16094 67575 NIL=
201401160600 AAXX 16064 67575 NIL=
201401151200 AAXX 15124 67575 NIL=
201401140600 AAXX 14064 67575 NIL=
201401140300 AAXX 14034 67575 NIL=
201401132100 AAXX 13214 67575 NIL=
201401131800 AAXX 13184 67575 NIL=
201401131500 AAXX 13154 67575 NIL=
201401131200 AAXX 13124 67575 NIL=
201401130900 AAXX 13094 67575 NIL=
201401091500 AAXX 09154 67575 NIL=
201401091200 AAXX 09124 67575 NIL=
201401090900 AAXX 09094 67575 NIL=
201401090600 AAXX 09064 67575 NIL=
201401090000 AAXX 09004 67575 NIL=
201401082100 AAXX 08214 67575 NIL=
201401081800 AAXX 08184 67575 NIL=
201401081500 AAXX 08150 67575 NIL=
201401081200 AAXX 08124 67575 NIL=
201401080900 AAXX 08094 67575 NIL=
201401080600 AAXX 08064 67575 NIL=
201401080300 AAXX 08034 67575 NIL=
201401080000 AAXX 08004 67575 NIL=
201401072100 AAXX 07214 67575 NIL=
201401071800 AAXX 07184 67575 NIL=
201401071500 AAXX 07154 67575 NIL=
201401071200 AAXX 07124 67575 NIL=
201401070900 AAXX 07094 67575 NIL=
201401070600 AAXX 07064 67575 NIL=
201401070300 AAXX 07034 67575 NIL=
201401070000 AAXX 07004 67575 NIL=
201401062100 AAXX 06214 67575 NIL=
201401061800 AAXX 06184 67575 NIL=
201401061500 AAXX 06154 67575 NIL=
201401061200 AAXX 06124 67575 NIL=
201401060900 AAXX 06094 67575 NIL=
201401060600 AAXX 06064 67575 NIL=
201401060300 AAXX 06034 67575 NIL=
201401052100 AAXX 05214 67575 NIL=
201401051800 AAXX 05184 67575 NIL=
201401051500 AAXX 05154 67575 NIL=
201401051200 AAXX 05124 67575 NIL=
201401050900 AAXX 05094 67575 NIL=
201401050000 AAXX 05004 67575 NIL=
201401042100 AAXX 04214 67575 NIL=
201401041800 AAXX 04184 67575 NIL=
201401041500 AAXX 04154 67575 NIL=
201401041200 AAXX 04124 67575 NIL=
201401040900 AAXX 04094 67575 NIL=
201401040600 AAXX 04064 67575 NIL=
201401040000 AAXX 04004 67575 NIL=
201401031800 AAXX 03184 67575 NIL=
201401031500 AAXX 03154 67575 NIL=
201401031200 AAXX 03124 67575 NIL=
201401030900 AAXX 03094 67575 NIL=
201401030600 AAXX 03064 67575 NIL=
201401022100 AAXX 02214 67575 NIL=
201401021800 AAXX 02184 67575 NIL=
201401021500 AAXX 02154 67575 NIL=
201401021200 AAXX 02124 67575 NIL=
201401020900 AAXX 02094 67575 NIL=
201401020600 AAXX 02064 67575 NIL=
201401020000 AAXX 02004 67575 NIL=
201401012100 AAXX 01214 67575 NIL=
201401011800 AAXX 01184 67575 NIL=
201401011500 AAXX 01154 67575 NIL=
201401010900 AAXX 01094 67575 NIL=
201401010600 AAXX 01064 67575 NIL=

################################################################################
#  SYNOPS from 67580, Msekera (Zambia) | 13-39S | 032-34E | 1025 m
################################################################################
201401310300 AAXX 31034 67580 NIL=
201401310000 AAXX 31004 67580 NIL=
201401302100 AAXX 30214 67580 NIL=
201401301800 AAXX 30184 67580 NIL=
201401301500 AAXX 30154 67580 NIL=
201401301200 AAXX 30124 67580 42780 72703 10273 20197 48/// 84238
                   333 59004 84850 84362 87280=
201401300900 AAXX 30094 67580 41680 70903 10252 20201 48/// 72065 8527/
                   333 59002 85835 87460=
201401300600 AAXX 30064 67580 12980 70000 10217 20196 48/// 60024 8707/
                   333 10256 20/// 59005 87458=
201401300300 AAXX 30034 67580 NIL=
201401292100 AAXX 29214 67580 NIL=
201401291800 AAXX 29184 67580 NIL=
201401291500 AAXX 29154 67580 NIL=
201401291200 AAXX 29124 67580 NIL=
201401290900 AAXX 29094 67580 42580 73603 10229 20201 48/// 86831
                   333 58008 82822 84624 82361 82080=
201401290600 AAXX 29064 67580 11480 73002 10209 20196 48/// 60114 72162 8353/
                   333 10265 20/// 58008 83612 87360=
201401290300 AAXX 29034 67580 NIL=
201401290000 AAXX 29004 67580 NIL=
201401282100 AAXX 28214 67580 NIL=
201401281800 AAXX 28184 67580 NIL=
201401281500 AAXX 28154 67580 NIL=
201401281200 AAXX 28124 67580 NIL=
201401280900 AAXX 28094 67580 NIL=
201401280600 AAXX 28064 67580 12480 72705 10211 20203 48/// 60014 83508
                   333 10307 20/// 58009 83614 87280=
201401280300 AAXX 28034 67580 NIL=
201401272100 AAXX 27214 67580 NIL=
201401271800 AAXX 27184 67580 NIL=
201401271500 AAXX 27154 67580 NIL=
201401271200 AAXX 27124 67580 42680 72704 10290 20203 48/// 85208
                   333 59001 85849 87280=
201401270900 AAXX 27094 67580 42680 73603 10273 20210 48/// 82108
                   333 58005 82830 87280=
201401270600 AAXX 27064 67580 NIL=
201401270300 AAXX 27034 67580 NIL=
201401270000 AAXX 27004 67580 NIL=
201401262100 AAXX 26214 67580 NIL=
201401261800 AAXX 26184 67580 NIL=
201401261500 AAXX 26154 67580 NIL=
201401261200 AAXX 26124 67580 NIL=
201401260900 AAXX 26094 67580 NIL=
201401260600 AAXX 26064 67580 NIL=
201401251800 AAXX 25184 67580 NIL=
201401251500 AAXX 25154 67580 NIL=
201401251200 AAXX 25124 67580 NIL=
201401250900 AAXX 25094 67580 NIL=
201401250600 AAXX 25064 67580 NIL=
201401250000 AAXX 25004 67580 NIL=
201401242100 AAXX 24214 67580 NIL=
201401241800 AAXX 24184 67580 NIL=
201401241500 AAXX 24154 67580 NIL=
201401241200 AAXX 24124 67580 NIL=
201401240900 AAXX 24094 67580 NIL=
201401240600 AAXX 24064 67580 12480 70303 10225 20198 48/// 69904 8683/
                   333 10299 20/// 59006 82814 84616 83360
                   555 00/// 20998=
201401240300 AAXX 24034 67580 NIL=
201401240000 AAXX 24004 67580 NIL=
201401231500 AAXX 23154 67580 NIL=
201401231200 AAXX 23124 67580 42780 72703 10289 20196 48/// 87208
                   333 59011 87856 84280=
201401230900 AAXX 23094 67580 42680 73002 10260 20202 48/// 87201
                   333 59011 87834 81080=
201401230600 AAXX 23064 67580 NIL=
201401230300 AAXX 23034 67580 NIL=
201401230000 AAXX 23004 67580 NIL=
201401222100 AAXX 22214 67580 NIL=
201401221800 AAXX 22184 67580 NIL=
201401221500 AAXX 22154 67580 NIL=
201401221200 AAXX 22124 67580 42780 50302 10301 20200 48/// 83232
                   333 59011 83856 81362 83080=
201401220900 AAXX 22094 67580 42680 71803 10274 20195 48/// 872//=
201401220600 AAXX 22064 67580 12980 70000 10239 20204 48/// 60054 82038
                   333 10311 20/// 59004 82360 87280=
201401220000 AAXX 22004 67580 NIL=
201401212100 AAXX 21214 67580 NIL=
201401211800 AAXX 21184 67580 NIL=
201401211200 AAXX 21124 67580 41675 70905 10285 20184 48/// 71792 86238
                   333 59004 81945 85850 81362 87280=
201401210900 AAXX 21094 67580 42680 71804 10285 20189 48/// 85238
                   333 58000 85840 81362 87280=
201401210600 AAXX 21064 67580 12980 70904 10252 20197 48/// 69904 81038
                   333 10310 20/// 59006 81362 87280=
201401210300 AAXX 21034 67580 NIL=
201401202100 AAXX 20214 67580 NIL=
201401201800 AAXX 20184 67580 NIL=
201401201200 AAXX 20124 67580 NIL=
201401200900 AAXX 20094 67580 42680 72404 10276 20200 48/// 58006 85840=
201401200600 AAXX 20064 67580 32980 71103 10238 20195 48/// 80008
                   333 10309 20/// 59001 87280=
201401200000 AAXX 20004 67580 NIL=
201401192100 AAXX 19214 67580 NIL=
201401191800 AAXX 19184 67580 NIL=
201401191500 AAXX 19154 67580 NIL=
201401191200 AAXX 19124 67580 NIL=
201401190900 AAXX 19094 67580 NIL=
201401190600 AAXX 19064 67580 NIL=
201401190000 AAXX 19004 67580 NIL=
201401181800 AAXX 18184 67580 NIL=
201401181200 AAXX 18124 67580 NIL=
201401180900 AAXX 18094 67580 NIL=
201401180600 AAXX 18064 67580 NIL=
201401180300 AAXX 18034 67580 NIL=
201401180000 AAXX 18004 67580 NIL=
201401171800 AAXX 17184 67580 NIL=
201401171200 AAXX 17124 67580 NIL=
201401170900 AAXX 17094 67580 42680 61204 10272 20197 48/// 86202
                   333 59017 86845 83080=
201401170600 AAXX 17064 67580 32480 50000 10220 20198 48/// 82132
                   333 10280 20/// 59011 82818 81362 84080=
201401170300 AAXX 17034 67580 NIL=
201401162100 AAXX 16214 67580 NIL=
201401161800 AAXX 16184 67580 NIL=
201401161500 AAXX 16154 67580 NIL=
201401161200 AAXX 16124 67580 NIL=
201401160900 AAXX 16094 67580 42680 72704 10240 20196 48/// 8527/
                   333 58011 85835 87360=
201401160600 AAXX 16064 67580 11475 80000 10210 20196 48/// 60444 72842 872//
                   333 10230 20/// 58010 87818=
201401151200 AAXX 15124 67580 NIL=
201401150900 AAXX 15094 67580 41580 73302 10226 20201 48/// 70362 85838
                   333 58003 82824 83626 82361 85280=
201401150600 AAXX 15064 67580 11480 72702 10210 20199 48/// 60044 76062 84530
                   333 10250 20/// 58017 84612 85360=
201401140600 AAXX 14064 67580 NIL=
201401140300 AAXX 14034 67580 NIL=
201401132100 AAXX 13214 67580 NIL=
201401131800 AAXX 13184 67580 NIL=
201401131500 AAXX 13154 67580 NIL=
201401131200 AAXX 13124 67580 41675 70304 10222 20197 48/// 79592 85238
                   333 59001 81945 85848 81360 87280=
201401130900 AAXX 13094 67580 42680 70903 10247 20207 48/// 8627/
                   333 5//// 86840 87460=
201401130600 AAXX 13064 67580 12480 70000 10219 20196 48/// 60014 8117/
                   333 10282 20/// 5//// 81818 88460=
201401091500 AAXX 09154 67580 NIL=
201401091200 AAXX 09124 67580 NIL=
201401090900 AAXX 09094 67580 42680 62705 10260 20202 48/// 83131
                   333 58017 83834 82361 82080=
201401090600 AAXX 09064 67580 12980 4//// 10215 20201 48/// 60174 84038
                   333 10290 20/// 58019 84360 85280=
201401090000 AAXX 09004 67580 NIL=
201401082100 AAXX 08214 67580 NIL=
201401081800 AAXX 08184 67580 NIL=
201401081500 AAXX 08150 67580 NIL=
201401081200 AAXX 08124 67580 41680 72403 10285 20216 48/// 71792 81937
                   333 58014 81940 83845 81362 87280=
201401080900 AAXX 08094 67580 41675 80000 10239 20219 48/// 72996 8197/
                   333 58013 81925 87460=
201401080600 AAXX 08064 67580 11470 80000 10220 20200 48/// 69954 71796 8197/
                   333 10320 20/// 58003 81915 88460
                   555 00/// 20992=
201401080300 AAXX 08034 67580 NIL=
201401080000 AAXX 08004 67580 NIL=
201401072100 AAXX 07214 67580 NIL=
201401071800 AAXX 07184 67580 NIL=
201401071500 AAXX 07154 67580 NIL=
201401071200 AAXX 07124 67580 42780 72704 10303 20203 48/// 82208
                   333 59009 82856 87280=
201401070900 AAXX 07094 67580 42580 73005 10278 20186 48/// 59012 81138 81362 81825 87280=
201401070600 AAXX 07064 67580 12980 70000 10245 20185 48/// 69924 8707/
                   333 10289 20/// 58001 87460
                   555 00/// 20016=
201401070300 AAXX 07034 67580 NIL=
201401070000 AAXX 07004 67580 NIL=
201401062100 AAXX 06214 67580 NIL=
201401061800 AAXX 06184 67580 NIL=
201401061500 AAXX 06154 67580 NIL=
201401061200 AAXX 06124 67580 NIL=
201401060900 AAXX 06094 67580 42680 73603 10256 20198 48/// 82138
                   333 58005 82834 82361 87280=
201401060600 AAXX 06064 67580 12980 70902 10234 20188 48/// 60164 87030
                   333 10270 20/// 59005 87360=
201401060300 AAXX 06034 67580 NIL=
201401052100 AAXX 05214 67580 NIL=
201401051800 AAXX 05184 67580 NIL=
201401051500 AAXX 05154 67580 NIL=
201401051200 AAXX 05124 67580 NIL=
201401050900 AAXX 05094 67580 NIL=
201401050000 AAXX 05004 67580 NIL=
201401042100 AAXX 04214 67580 NIL=
201401041800 AAXX 04184 67580 NIL=
201401041500 AAXX 04154 67580 NIL=
201401041200 AAXX 04124 67580 NIL=
201401040900 AAXX 04094 67580 NIL=
201401040600 AAXX 04064 67580 NIL=
201401040000 AAXX 04004 67580 NIL=
201401031800 AAXX 03184 67580 NIL=
201401031500 AAXX 03154 67580 NIL=
201401031200 AAXX 03124 67580 NIL=
201401030900 AAXX 03094 67580 42680 73303 10258 20193 48/// 81137
                   333 5//// 81835 82360 87280=
201401030600 AAXX 03064 67580 11975 80000 10211 20193 48/// 60324 72162 8807/
                   333 10287 20/// 58005 88460=
201401022100 AAXX 02214 67580 NIL=
201401021800 AAXX 02184 67580 NIL=
201401021500 AAXX 02154 67580 NIL=
201401021200 AAXX 02124 67580 41680 72404 10267 20214 48/// 71762 8197/
                   333 58003 81945 87360=
201401020900 AAXX 02094 67580 41575 70000 10230 20216 48/// 76162 8117/
                   333 5//// 81825 87460=
201401020600 AAXX 02064 67580 11475 80304 10214 20199 48/// 60034 76022 8457/
                   333 10274 20/// 58010 84618 87460=
201401020000 AAXX 02004 67580 NIL=
201401012100 AAXX 01214 67580 NIL=
201401011800 AAXX 01184 67580 NIL=
201401011500 AAXX 01154 67580 NIL=
201401010900 AAXX 01094 67580 NIL=
201401010600 AAXX 01064 67580 NIL=

################################################################################
#  SYNOPS from 67581, Chipata (Zambia) | 13-33S | 032-35E | 1028 m
################################################################################
201401310300 AAXX 31034 67581 NIL=
201401310000 AAXX 31004 67581 NIL=
201401302100 AAXX 30214 67581 NIL=
201401301800 AAXX 30184 67581 NIL=
201401301500 AAXX 30154 67581 NIL=
201401301200 AAXX 30124 67581 NIL=
201401300900 AAXX 30094 67581 NIL=
201401300600 AAXX 30064 67581 11980 80000 10210 20187 48517 69904 75022 8807/
                   333 10246 20182 59009 88462 91017=
201401300300 AAXX 30034 67581 NIL=
201401292100 AAXX 29214 67581 NIL=
201401291800 AAXX 29184 67581 NIL=
201401291500 AAXX 29154 67581 NIL=
201401291200 AAXX 29124 67581 NIL=
201401290900 AAXX 29094 67581 NIL=
201401290600 AAXX 29064 67581 12380 80000 10202 20192 48528 60264 70222 8577/
                   333 10280 20190 58009 58009 85704 88459 91018=
201401290300 AAXX 29034 67581 NIL=
201401290000 AAXX 29004 67581 NIL=
201401282100 AAXX 28214 67581 NIL=
201401281800 AAXX 28184 67581 NIL=
201401281500 AAXX 28154 67581 NIL=
201401281200 AAXX 28124 67581 42580 73604 10255 20198 48498 8427/
                   333 58011 84825 87458 91015=
201401280900 AAXX 28094 67581 42580 70000 10230 20201 48521 8427/
                   333 58014 84825 87458 91017=
201401280600 AAXX 28064 67581 12150 83105 10207 20199 48517 60144 8452/
                   333 10280 20184 58007 84602 88458 91017=
201401280300 AAXX 28034 67581 NIL=
201401272100 AAXX 27214 67581 NIL=
201401271800 AAXX 27184 67581 NIL=
201401271500 AAXX 27154 67581 NIL=
201401271200 AAXX 27124 67581 NIL=
201401270900 AAXX 27094 67581 NIL=
201401270600 AAXX 27064 67581 NIL=
201401270300 AAXX 27034 67581 NIL=
201401270000 AAXX 27004 67581 NIL=
201401262100 AAXX 26214 67581 NIL=
201401261800 AAXX 26184 67581 NIL=
201401261500 AAXX 26154 67581 NIL=
201401261200 AAXX 26124 67581 NIL=
201401260900 AAXX 26094 67581 NIL=
201401260600 AAXX 26064 67581 NIL=
201401251800 AAXX 25184 67581 NIL=
201401251500 AAXX 25154 67581 NIL=
201401251200 AAXX 25124 67581 NIL=
201401250900 AAXX 25094 67581 NIL=
201401250600 AAXX 25064 67581 NIL=
201401250000 AAXX 25004 67581 NIL=
201401242100 AAXX 24214 67581 NIL=
201401241800 AAXX 24184 67581 NIL=
201401241500 AAXX 24154 67581 NIL=
201401241200 AAXX 24124 67581 NIL=
201401241012 AAXX 24104 67581 41660 70000 10235 20213 48484 78022 8322/ 88002 81935 83835
                   87458 91012=
201401240900 AAXX 24094 67581 42580 60402 10260 20198 48508 86208
                   333 59004 81925 86825 81280 91016=
201401240600 AAXX 24064 67581 12480 63603 10222 20212 48513 60104 83230
                   333 10296 20183 59007 81920 83820 86360
                   555 00180 20388 91016=
201401240300 AAXX 24034 67581 NIL=
201401240000 AAXX 24004 67581 NIL=
201401231500 AAXX 23154 67581 NIL=
201401231200 AAXX 23124 67581 NIL=
201401230900 AAXX 23094 67581 NIL=
201401230600 AAXX 23064 67581 12680 63501 10232 20203 48521 60394 85802
                   333 10308 20175 59008 82830 83632 86080 91017=
201401230300 AAXX 23034 67581 NIL=
201401230000 AAXX 23004 67581 NIL=
201401222100 AAXX 22214 67581 NIL=
201401221800 AAXX 22184 67581 NIL=
201401221500 AAXX 22154 67581 NIL=
201401221200 AAXX 22124 67581 42680 42802 10290 48498 84202
                   333 59022 84830 83080 91013=
201401220900 AAXX 22094 67581 42680 70000 10269 20183 48526 8523/
                   333 59003 85830 83362 91017=
201401220600 AAXX 22064 67581 12980 60000 10237 20199 48529 69904 84038
                   333 10289 20176 59004 84362 86280 91018=
201401220000 AAXX 22004 67581 NIL=
201401212100 AAXX 21214 67581 NIL=
201401211800 AAXX 21184 67581 NIL=
201401211200 AAXX 21124 67581 NIL=
201401210900 AAXX 21094 67581 NIL=
201401210600 AAXX 21064 67581 NIL=
201401210300 AAXX 21034 67581 NIL=
201401202100 AAXX 20214 67581 NIL=
201401201800 AAXX 20184 67581 NIL=
201401201200 AAXX 20124 67581 42680 60904 10291 20186 48517 86208
                   333 59006 81930 86830 85280 91016=
201401201017 AAXX 20104 67581 42680 61303 10284 20190 48548 86278 91017=
201401200900 AAXX 20094 67581 NIL=
201401200600 AAXX 20064 67581 32980 63003 10220 20186 48536 81018
                   333 10294 20185 59001 81460 86280
                   555 00186 20014 91019=
201401200000 AAXX 20004 67581 NIL=
201401192100 AAXX 19214 67581 NIL=
201401191800 AAXX 19184 67581 NIL=
201401191500 AAXX 19154 67581 NIL=
201401191200 AAXX 19124 67581 NIL=
201401190900 AAXX 19094 67581 NIL=
201401190600 AAXX 19064 67581 NIL=
201401190000 AAXX 19004 67581 NIL=
201401181800 AAXX 18184 67581 NIL=
201401181200 AAXX 18124 67581 NIL=
201401180900 AAXX 18094 67581 NIL=
201401180600 AAXX 18064 67581 NIL=
201401180300 AAXX 18034 67581 NIL=
201401180000 AAXX 18004 67581 NIL=
201401171800 AAXX 17184 67581 NIL=
201401171200 AAXX 17124 67581 NIL=
201401170900 AAXX 17094 67581 NIL=
201401170600 AAXX 17064 67581 32580 42703 10212 20192 48539 70322 82132
                   333 10279 20169 59010 82825 81360 82080 91019=
201401170300 AAXX 17034 67581 NIL=
201401162100 AAXX 16214 67581 NIL=
201401161800 AAXX 16184 67581 NIL=
201401161500 AAXX 16154 67581 NIL=
201401161200 AAXX 16124 67581 NIL=
201401160900 AAXX 16094 67581 42580 60900 10260 20177 48548 8627/
                   333 58008 81925 86825 86458 91019=
201401160600 AAXX 16064 67581 42110 71000 10180 20186 48533 8257/
                   333 58011 82601 87458 91019=
201401151200 AAXX 15124 67581 NIL=
201401150900 AAXX 15094 67581 41458 73001 10223 20192 48536 76066 8657/
                   333 58008 86615 87459 91019=
201401150600 AAXX 15064 67581 11457 80000 10205 20198 48539 60614 76044 8777/
                   333 10240 20180 58018 87710 88459 91019=
201401140600 AAXX 14064 67581 NIL=
201401140300 AAXX 14034 67581 NIL=
201401132100 AAXX 13214 67581 NIL=
201401131800 AAXX 13184 67581 NIL=
201401131500 AAXX 13154 67581 NIL=
201401131200 AAXX 13124 67581 NIL=
201401130900 AAXX 13094 67581 NIL=
201401130600 AAXX 13064 67581 12580 81803 10222 20192 48540 69904 70322 8217/
                   333 10271 20186 59010 82825 88460 91019=
201401091500 AAXX 09154 67581 NIL=
201401091200 AAXX 09124 67581 NIL=
201401090900 AAXX 09094 67581 NIL=
201401090600 AAXX 09064 67581 11660 70000 10220 20203 48520 60044 71799 81970
                   333 10280 20196 58021 81930 82830 87459 91017=
201401090000 AAXX 09004 67581 NIL=
201401082100 AAXX 08214 67581 NIL=
201401081800 AAXX 08184 67581 NIL=
201401081500 AAXX 08150 67581 NIL=
201401081200 AAXX 08124 67581 41680 63603 10276 20210 48485 71792 83238
                   333 58017 81930 83830 82360 86280 91012=
201401080900 AAXX 08094 67581 41680 80400 10230 20206 48500 78086 8117/
                   333 58012 81930 81830 88460 91015=
201401080600 AAXX 08064 67581 31680 81808 10235 20195 48503 71722 8117/
                   333 10295 20199 58003 81930 81830 88460
                   555 00195 20000 91015=
201401080300 AAXX 08034 67581 NIL=
201401080000 AAXX 08004 67581 NIL=
201401072100 AAXX 07214 67581 NIL=
201401071800 AAXX 07184 67581 NIL=
201401071500 AAXX 07154 67581 NIL=
201401071200 AAXX 07124 67581 NIL=
201401070900 AAXX 07094 67581 42680 52604 10272 20184 48496 82108
                   333 59010 82835 85280 91013=
201401070600 AAXX 07064 67581 32680 73401 10236 20182 48500 81170
                   333 10277 20211 58001 81835 87460
                   555 00208 20090 91015=
201401070300 AAXX 07034 67581 NIL=
201401070000 AAXX 07004 67581 NIL=
201401062100 AAXX 06214 67581 NIL=
201401061800 AAXX 06184 67581 NIL=
201401061500 AAXX 06154 67581 NIL=
201401061200 AAXX 06124 67581 42580 72803 10270 20183 48479 81138
                   333 81830 81362 87280 91011=
201401060900 AAXX 06094 67581 42480 82702 10257 20201 48500 8257/
                   333 58007 82610 88462 91014=
201401060600 AAXX 06064 67581 12980 80303 10228 20186 48498 60094 8807/
                   333 10268 20197 59002 88360
                   555 00188 91015=
201401060300 AAXX 06034 67581 NIL=
201401052100 AAXX 05214 67581 NIL=
201401051800 AAXX 05184 67581 NIL=
201401051500 AAXX 05154 67581 NIL=
201401051200 AAXX 05124 67581 NIL=
201401050900 AAXX 05094 67581 NIL=
201401050000 AAXX 05004 67581 NIL=
201401042100 AAXX 04214 67581 NIL=
201401041800 AAXX 04184 67581 NIL=
201401041500 AAXX 04154 67581 NIL=
201401041200 AAXX 04124 67581 NIL=
201401040900 AAXX 04094 67581 NIL=
201401040600 AAXX 04064 67581 NIL=
201401040000 AAXX 04004 67581 NIL=
201401031800 AAXX 03184 67581 NIL=
201401031500 AAXX 03154 67581 NIL=
201401031200 AAXX 03124 67581 41660 72005 10221 20196 48505 78122 872//
                   333 58020 81930 87835 91015=
201401030900 AAXX 03094 67581 42680 82806 10274 20182 48527 81137
                   333 58005 81832 83363 88280 91017=
201401030600 AAXX 03064 67581 12980 81802 10215 20184 48528 8807/
                   333 10282 20183 58004 88462 91018=
201401022100 AAXX 02214 67581 NIL=
201401021800 AAXX 02184 67581 NIL=
201401021500 AAXX 02154 67581 NIL=
201401021200 AAXX 02124 67581 NIL=
201401020900 AAXX 02094 67581 NIL=
201401020600 AAXX 02064 67581 12480 83603 10210 20198 48524 60074 8557/
                   333 10272 20193 58009 85610 88460 91018=
201401020000 AAXX 02004 67581 NIL=
201401012100 AAXX 01214 67581 NIL=
201401011800 AAXX 01184 67581 NIL=
201401011500 AAXX 01154 67581 NIL=
201401010900 AAXX 01094 67581 NIL=
201401010600 AAXX 01064 67581 NIL=

################################################################################
#  SYNOPS from 67583, Lundazi (Zambia) | 12-17S | 033-12E | 1143 m
################################################################################
201401310300 AAXX 31034 67583 NIL=
201401310000 AAXX 31004 67583 NIL=
201401302100 AAXX 30214 67583 NIL=
201401301800 AAXX 30184 67583 NIL=
201401301500 AAXX 30154 67583 NIL=
201401301200 AAXX 30124 67583 NIL=
201401300900 AAXX 30094 67583 NIL=
201401300600 AAXX 30064 67583 NIL=
201401300300 AAXX 30034 67583 NIL=
201401292100 AAXX 29214 67583 NIL=
201401291800 AAXX 29184 67583 NIL=
201401291500 AAXX 29154 67583 NIL=
201401291200 AAXX 29124 67583 NIL=
201401290900 AAXX 29094 67583 NIL=
201401290600 AAXX 29064 67583 NIL=
201401290300 AAXX 29034 67583 NIL=
201401290000 AAXX 29004 67583 NIL=
201401282100 AAXX 28214 67583 NIL=
201401281800 AAXX 28184 67583 NIL=
201401281500 AAXX 28154 67583 NIL=
201401281200 AAXX 28124 67583 NIL=
201401280900 AAXX 28094 67583 NIL=
201401280600 AAXX 28064 67583 12980 70000 10255 20195 60034 70222 81037
                   333 10310 20182 5//// 81360 87280=
201401280300 AAXX 28034 67583 NIL=
201401272100 AAXX 27214 67583 NIL=
201401271800 AAXX 27184 67583 NIL=
201401271500 AAXX 27154 67583 NIL=
201401271200 AAXX 27124 67583 NIL=
201401270900 AAXX 27094 67583 NIL=
201401270600 AAXX 27064 67583 NIL=
201401270300 AAXX 27034 67583 NIL=
201401270000 AAXX 27004 67583 NIL=
201401262100 AAXX 26214 67583 NIL=
201401261800 AAXX 26184 67583 NIL=
201401261500 AAXX 26154 67583 NIL=
201401261200 AAXX 26124 67583 NIL=
201401260900 AAXX 26094 67583 NIL=
201401260600 AAXX 26064 67583 NIL=
201401251800 AAXX 25184 67583 NIL=
201401251500 AAXX 25154 67583 NIL=
201401251200 AAXX 25124 67583 NIL=
201401250900 AAXX 25094 67583 NIL=
201401250600 AAXX 25064 67583 NIL=
201401250000 AAXX 25004 67583 NIL=
201401242100 AAXX 24214 67583 NIL=
201401241800 AAXX 24184 67583 NIL=
201401241500 AAXX 24154 67583 NIL=
201401241200 AAXX 24124 67583 NIL=
201401240900 AAXX 24094 67583 NIL=
201401240600 AAXX 24064 67583 NIL=
201401240300 AAXX 24034 67583 NIL=
201401240000 AAXX 24004 67583 NIL=
201401231500 AAXX 23154 67583 NIL=
201401231200 AAXX 23124 67583 NIL=
201401230900 AAXX 23094 67583 NIL=
201401230600 AAXX 23064 67583 NIL=
201401230300 AAXX 23034 67583 NIL=
201401230000 AAXX 23004 67583 NIL=
201401222100 AAXX 22214 67583 NIL=
201401221800 AAXX 22184 67583 NIL=
201401221500 AAXX 22154 67583 NIL=
201401221200 AAXX 22124 67583 NIL=
201401220900 AAXX 22094 67583 NIL=
201401220600 AAXX 22064 67583 12980 70000 10250 20191 70222 87030
                   333 10285 20184 5//// 87360=
201401220000 AAXX 22004 67583 NIL=
201401212100 AAXX 21214 67583 NIL=
201401211800 AAXX 21184 67583 NIL=
201401211200 AAXX 21124 67583 NIL=
201401210900 AAXX 21094 67583 NIL=
201401210600 AAXX 21064 67583 12980 71501 10220 20198 69904 81037
                   333 10303 20195 5//// 81360 87280=
201401210300 AAXX 21034 67583 NIL=
201401202100 AAXX 20214 67583 NIL=
201401201800 AAXX 20184 67583 NIL=
201401201200 AAXX 20124 67583 NIL=
201401200900 AAXX 20094 67583 NIL=
201401200600 AAXX 20064 67583 12980 71501 10215 20177 60014 83037
                   333 10320 20180 5//// 83360 87280=
201401200000 AAXX 20004 67583 NIL=
201401192100 AAXX 19214 67583 NIL=
201401191800 AAXX 19184 67583 NIL=
201401191500 AAXX 19154 67583 NIL=
201401191200 AAXX 19124 67583 NIL=
201401190900 AAXX 19094 67583 NIL=
201401190600 AAXX 19064 67583 NIL=
201401190000 AAXX 19004 67583 NIL=
201401181800 AAXX 18184 67583 NIL=
201401181200 AAXX 18124 67583 NIL=
201401180900 AAXX 18094 67583 NIL=
201401180600 AAXX 18064 67583 NIL=
201401180300 AAXX 18034 67583 NIL=
201401180000 AAXX 18004 67583 NIL=
201401171800 AAXX 17184 67583 NIL=
201401171200 AAXX 17124 67583 NIL=
201401170900 AAXX 17094 67583 NIL=
201401170600 AAXX 17064 67583 11980 70000 10203 20185 60094 72162 87070
                   333 10270 20181 5//// 87460=
201401170300 AAXX 17034 67583 NIL=
201401162100 AAXX 16214 67583 NIL=
201401161800 AAXX 16184 67583 NIL=
201401161500 AAXX 16154 67583 NIL=
201401161200 AAXX 16124 67583 NIL=
201401160900 AAXX 16094 67583 NIL=
201401160600 AAXX 16064 67583 11980 70000 10207 20201 60014 76062 87031
                   333 10260 20189 5//// 87360 81080
                   555 00/// 20003=
201401151200 AAXX 15124 67583 NIL=
201401150600 AAXX 15064 67583 11977 83603 10195 20187 60034 76162 8807/
                   333 10250 20194 5//// 88460=
201401140600 AAXX 14064 67583 NIL=
201401140300 AAXX 14034 67583 NIL=
201401132100 AAXX 13214 67583 NIL=
201401131800 AAXX 13184 67583 NIL=
201401131500 AAXX 13154 67583 NIL=
201401131200 AAXX 13124 67583 NIL=
201401130900 AAXX 13094 67583 NIL=
201401130600 AAXX 13064 67583 12980 80000 10218 20199 60064 8807/
                   333 10288 20174 5//// 88460=
201401091500 AAXX 09154 67583 NIL=
201401091200 AAXX 09124 67583 NIL=
201401090900 AAXX 09094 67583 NIL=
201401090600 AAXX 09064 67583 11580 72701 10240 20189 69904 71522 82532
                   333 10295 20184 5//// 82626 85360 82080=
201401090000 AAXX 09004 67583 NIL=
201401082100 AAXX 08214 67583 NIL=
201401081800 AAXX 08184 67583 NIL=
201401081500 AAXX 08150 67583 NIL=
201401081200 AAXX 08124 67583 41575 82704 10220 20182 71522 8457/=
201401080900 AAXX 08094 67583 42680 82102 10268 20181 70222 83237
                   333 5//// 83835 81360 88280=
201401080600 AAXX 08064 67583 31680 73603 10230 20182 72992 81537
                   333 10346 20205 5//// 81628 82360 87280
                   555 00/// 20000=
201401080300 AAXX 08034 67583 NIL=
201401080000 AAXX 08004 67583 NIL=
201401072100 AAXX 07214 67583 NIL=
201401071800 AAXX 07184 67583 NIL=
201401071500 AAXX 07154 67583 NIL=
201401071200 AAXX 07124 67583 NIL=
201401070900 AAXX 07094 67583 NIL=
201401070600 AAXX 07064 67583 32980 72101 10221 20182 70222 87030
                   333 10330 20195 5//// 87360
                   555 00/// 20003=
201401070300 AAXX 07034 67583 NIL=
201401070000 AAXX 07004 67583 NIL=
201401062100 AAXX 06214 67583 NIL=
201401061800 AAXX 06184 67583 NIL=
201401061500 AAXX 06154 67583 NIL=
201401061200 AAXX 06124 67583 NIL=
201401060900 AAXX 06094 67583 NIL=
201401060600 AAXX 06064 67583 12980 73602 10225 20180 60034 86032
                   333 10299 5//// 86360 81080=
201401060300 AAXX 06034 67583 NIL=
201401052100 AAXX 05214 67583 NIL=
201401051800 AAXX 05184 67583 NIL=
201401051500 AAXX 05154 67583 NIL=
201401051200 AAXX 05124 67583 NIL=
201401050900 AAXX 05094 67583 NIL=
201401050000 AAXX 05004 67583 NIL=
201401042100 AAXX 04214 67583 NIL=
201401041800 AAXX 04184 67583 NIL=
201401041500 AAXX 04154 67583 NIL=
201401041200 AAXX 04124 67583 NIL=
201401040900 AAXX 04094 67583 NIL=
201401040600 AAXX 04064 67583 NIL=
201401040000 AAXX 04004 67583 NIL=
201401031800 AAXX 03184 67583 NIL=
201401031500 AAXX 03154 67583 NIL=
201401031200 AAXX 03124 67583 NIL=
201401030900 AAXX 03094 67583 NIL=
201401030600 AAXX 03064 67583 NIL=
201401022100 AAXX 02214 67583 NIL=
201401021800 AAXX 02184 67583 NIL=
201401021500 AAXX 02154 67583 NIL=
201401021200 AAXX 02124 67583 NIL=
201401020900 AAXX 02094 67583 NIL=
201401020600 AAXX 02064 67583 NIL=
201401020000 AAXX 02004 67583 NIL=
201401012100 AAXX 01214 67583 NIL=
201401011800 AAXX 01184 67583 NIL=
201401011500 AAXX 01154 67583 NIL=
201401010900 AAXX 01094 67583 NIL=
201401010600 AAXX 01064 67583 NIL=

################################################################################
#  SYNOPS from 67599, Mfuwe (Zambia) | 13-16S | 031-56E | 568 m
################################################################################
201401310300 AAXX 31034 67599 NIL=
201401310000 AAXX 31004 67599 NIL=
201401302100 AAXX 30214 67599 NIL=
201401301800 AAXX 30184 67599 NIL=
201401301500 AAXX 30154 67599 NIL=
201401301200 AAXX 30124 67599 NIL=
201401300900 AAXX 30094 67599 NIL=
201401300600 AAXX 30064 67599 NIL=
201401300300 AAXX 30034 67599 NIL=
201401292100 AAXX 29214 67599 NIL=
201401291800 AAXX 29184 67599 NIL=
201401291500 AAXX 29154 67599 NIL=
201401291200 AAXX 29124 67599 NIL=
201401290900 AAXX 29094 67599 NIL=
201401290600 AAXX 29064 67599 11259 70000 10206 20204 48530 60184 70298 8174/
                   333 10310 20200 58019 81703 87459 91018=
201401290300 AAXX 29034 67599 NIL=
201401290000 AAXX 29004 67599 NIL=
201401282100 AAXX 28214 67599 NIL=
201401281800 AAXX 28184 67599 NIL=
201401281500 AAXX 28154 67599 NIL=
201401281200 AAXX 28124 67599 NIL=
201401280900 AAXX 28094 67599 NIL=
201401280600 AAXX 28064 67599 12380 70000 10235 20221 48523 60084 70322 8253/
                   333 10335 20215 58009 82605 87360
                   555 00225 91016=
201401280300 AAXX 28034 67599 NIL=
201401272100 AAXX 27214 67599 NIL=
201401271800 AAXX 27184 67599 NIL=
201401271500 AAXX 27154 67599 NIL=
201401271200 AAXX 27124 67599 NIL=
201401270900 AAXX 27094 67599 NIL=
201401270600 AAXX 27064 67599 NIL=
201401270300 AAXX 27034 67599 NIL=
201401270000 AAXX 27004 67599 NIL=
201401262100 AAXX 26214 67599 NIL=
201401261800 AAXX 26184 67599 NIL=
201401261500 AAXX 26154 67599 NIL=
201401261200 AAXX 26124 67599 NIL=
201401260900 AAXX 26094 67599 NIL=
201401260600 AAXX 26064 67599 NIL=
201401251800 AAXX 25184 67599 NIL=
201401251500 AAXX 25154 67599 NIL=
201401251200 AAXX 25124 67599 NIL=
201401250900 AAXX 25094 67599 NIL=
201401250600 AAXX 25064 67599 NIL=
201401250000 AAXX 25004 67599 NIL=
201401242100 AAXX 24214 67599 NIL=
201401241800 AAXX 24184 67599 NIL=
201401241500 AAXX 24154 67599 NIL=
201401241200 AAXX 24124 67599 NIL=
201401240900 AAXX 24094 67599 NIL=
201401240600 AAXX 24064 67599 12480 60000 10260 20224 48528 69994 70222 83203
                   333 10335 20215 59013 83806 83630 85075
                   555 00220 20015 91015=
201401240300 AAXX 24034 67599 NIL=
201401240000 AAXX 24004 67599 NIL=
201401231500 AAXX 23154 67599 NIL=
201401231200 AAXX 23124 67599 NIL=
201401230900 AAXX 23094 67599 NIL=
201401230600 AAXX 23064 67599 NIL=
201401230300 AAXX 23034 67599 NIL=
201401230000 AAXX 23004 67599 NIL=
201401222100 AAXX 22214 67599 NIL=
201401221800 AAXX 22184 67599 NIL=
201401221500 AAXX 22154 67599 NIL=
201401221200 AAXX 22124 67599 NIL=
201401220900 AAXX 22094 67599 NIL=
201401220600 AAXX 22064 67599 32980 30000 10250 20221 48535 83030
                   333 10333 20210 59012 83360 91017=
201401220000 AAXX 22004 67599 NIL=
201401212100 AAXX 21214 67599 NIL=
201401211800 AAXX 21184 67599 NIL=
201401211200 AAXX 21124 67599 NIL=
201401210900 AAXX 21094 67599 NIL=
201401210600 AAXX 21064 67599 NIL=
201401210300 AAXX 21034 67599 NIL=
201401202100 AAXX 20214 67599 NIL=
201401201800 AAXX 20184 67599 NIL=
201401201200 AAXX 20124 67599 NIL=
201401200900 AAXX 20094 67599 NIL=
201401200600 AAXX 20064 67599 32980 50000 10272 20227 48553 82031
                   333 10350 20205 59005 82360 85080 91018=
201401200000 AAXX 20004 67599 NIL=
201401192100 AAXX 19214 67599 NIL=
201401191800 AAXX 19184 67599 NIL=
201401191500 AAXX 19154 67599 NIL=
201401191200 AAXX 19124 67599 NIL=
201401190900 AAXX 19094 67599 NIL=
201401190600 AAXX 19064 67599 NIL=
201401190000 AAXX 19004 67599 NIL=
201401181800 AAXX 18184 67599 NIL=
201401181200 AAXX 18124 67599 NIL=
201401180900 AAXX 18094 67599 NIL=
201401180600 AAXX 18064 67599 NIL=
201401180300 AAXX 18034 67599 NIL=
201401180000 AAXX 18004 67599 NIL=
201401171800 AAXX 17184 67599 NIL=
201401171200 AAXX 17124 67599 NIL=
201401170900 AAXX 17094 67599 NIL=
201401170600 AAXX 17064 67599 32380 60000 10230 20209 48552 8475/
                   333 10325 20210 59009 84706 85360 91020=
201401170300 AAXX 17034 67599 NIL=
201401162100 AAXX 16214 67599 NIL=
201401161800 AAXX 16184 67599 NIL=
201401161500 AAXX 16154 67599 NIL=
201401161200 AAXX 16124 67599 NIL=
201401160900 AAXX 16094 67599 NIL=
201401160600 AAXX 16064 67599 12380 71904 10234 20217 48560 60024 877//
                   333 10255 20210 58005 81806 87706 91020=
201401151200 AAXX 15124 67599 NIL=
201401150600 AAXX 15064 67599 11380 70000 10222 20212 48551 60474 71522 8457/
                   333 10251 20210 58023 84608 87459 91020=
201401140600 AAXX 14064 67599 NIL=
201401140300 AAXX 14034 67599 NIL=
201401132100 AAXX 13214 67599 NIL=
201401131800 AAXX 13184 67599 NIL=
201401131500 AAXX 13154 67599 NIL=
201401131200 AAXX 13124 67599 NIL=
201401130900 AAXX 13094 67599 NIL=
201401130600 AAXX 13064 67599 32980 80000 10305 20221 48550 8706/
                   333 10305 20220 59009 87359 91019=
201401091500 AAXX 09154 67599 NIL=
201401091200 AAXX 09124 67599 NIL=
201401090900 AAXX 09094 67599 NIL=
201401090600 AAXX 09064 67599 12480 70000 10250 20227 48533 60054 70222 8173/
                   333 10336 20210 58026 81710 87362 91017=
201401090000 AAXX 09004 67599 NIL=
201401082100 AAXX 08214 67599 NIL=
201401081800 AAXX 08184 67599 NIL=
201401081500 AAXX 08150 67599 NIL=
201401081200 AAXX 08124 67599 NIL=
201401080900 AAXX 08094 67599 NIL=
201401080600 AAXX 08064 67599 32980 73604 10265 20224 48513 82032
                   333 10350 20225 58003 82360 87080
                   555 00225 91014=
201401080300 AAXX 08034 67599 NIL=
201401080000 AAXX 08004 67599 NIL=
201401072100 AAXX 07214 67599 NIL=
201401071800 AAXX 07184 67599 NIL=
201401071500 AAXX 07154 67599 NIL=
201401071200 AAXX 07124 67599 NIL=
201401070900 AAXX 07094 67599 NIL=
201401070600 AAXX 07064 67599 NIL=
201401070300 AAXX 07034 67599 NIL=
201401070000 AAXX 07004 67599 NIL=
201401062100 AAXX 06214 67599 NIL=
201401061800 AAXX 06184 67599 NIL=
201401061500 AAXX 06154 67599 NIL=
201401061200 AAXX 06124 67599 NIL=
201401060900 AAXX 06094 67599 NIL=
201401060600 AAXX 06064 67599 32780 70000 10230 20212 48504 8353/
                   333 10305 20205 58000 83650 87358 91014=
201401060300 AAXX 06034 67599 NIL=
201401052100 AAXX 05214 67599 NIL=
201401051800 AAXX 05184 67599 NIL=
201401051500 AAXX 05154 67599 NIL=
201401051200 AAXX 05124 67599 NIL=
201401050900 AAXX 05094 67599 NIL=
201401050000 AAXX 05004 67599 NIL=
201401042100 AAXX 04214 67599 NIL=
201401041800 AAXX 04184 67599 NIL=
201401041500 AAXX 04154 67599 NIL=
201401041200 AAXX 04124 67599 NIL=
201401040900 AAXX 04094 67599 NIL=
201401040600 AAXX 04064 67599 NIL=
201401040000 AAXX 04004 67599 NIL=
201401031800 AAXX 03184 67599 NIL=
201401031500 AAXX 03154 67599 NIL=
201401031200 AAXX 03124 67599 NIL=
201401030900 AAXX 03094 67599 NIL=
201401030600 AAXX 03064 67599 12380 81803 10222 20214 48535 60974 8177/
                   333 10342 20205 58010 81703 88459 91018=
201401022100 AAXX 02214 67599 NIL=
201401021800 AAXX 02184 67599 NIL=
201401021500 AAXX 02154 67599 NIL=
201401021200 AAXX 02124 67599 NIL=
201401020900 AAXX 02094 67599 NIL=
201401020600 AAXX 02064 67599 11359 5//// 10222 20219 48526 60274 76066 8577/
                   333 10330 20210 58010 85705 819// 87459 91017=
201401020000 AAXX 02004 67599 NIL=
201401012100 AAXX 01214 67599 NIL=
201401011800 AAXX 01184 67599 NIL=
201401011500 AAXX 01154 67599 NIL=
201401010900 AAXX 01094 67599 NIL=
201401010600 AAXX 01064 67599 NIL=

################################################################################
#  SYNOPS from 67625, Kalabo (Zambia) | 14-51S | 022-42E | 1033 m
################################################################################
201401310300 AAXX 31034 67625 NIL=
201401310000 AAXX 31004 67625 NIL=
201401302100 AAXX 30214 67625 NIL=
201401301800 AAXX 30184 67625 NIL=
201401301500 AAXX 30154 67625 NIL=
201401301200 AAXX 30120 67625 NIL=
201401300900 AAXX 30090 67625 NIL=
201401300600 AAXX 30064 67625 NIL=
201401300300 AAXX 30034 67625 NIL=
201401292100 AAXX 29214 67625 NIL=
201401291800 AAXX 29184 67625 NIL=
201401291500 AAXX 29154 67625 NIL=
201401291200 AAXX 29124 67625 NIL=
201401290900 AAXX 29094 67625 NIL=
201401290600 AAXX 29064 67625 NIL=
201401290300 AAXX 29034 67625 NIL=
201401290000 AAXX 29004 67625 NIL=
201401282100 AAXX 28214 67625 NIL=
201401281800 AAXX 28184 67625 NIL=
201401281500 AAXX 28154 67625 NIL=
201401281200 AAXX 28120 67625 NIL=
201401280900 AAXX 28094 67625 NIL=
201401280600 AAXX 28064 67625 NIL=
201401280300 AAXX 28034 67625 NIL=
201401272100 AAXX 27214 67625 NIL=
201401271800 AAXX 27184 67625 NIL=
201401271500 AAXX 27154 67625 NIL=
201401271200 AAXX 27124 67625 NIL=
201401270900 AAXX 27094 67625 NIL=
201401270600 AAXX 27064 67625 NIL=
201401270300 AAXX 27034 67625 NIL=
201401270000 AAXX 27004 67625 NIL=
201401262100 AAXX 26214 67625 NIL=
201401261800 AAXX 26184 67625 NIL=
201401261500 AAXX 26154 67625 NIL=
201401261200 AAXX 26124 67625 NIL=
201401260900 AAXX 26094 67625 NIL=
201401260600 AAXX 26064 67625 NIL=
201401251800 AAXX 25184 67625 NIL=
201401251500 AAXX 25154 67625 NIL=
201401251200 AAXX 25124 67625 NIL=
201401250900 AAXX 25094 67625 NIL=
201401250600 AAXX 25064 67625 NIL=
201401250000 AAXX 25004 67625 NIL=
201401242100 AAXX 24214 67625 NIL=
201401241800 AAXX 24184 67625 NIL=
201401241500 AAXX 24154 67625 NIL=
201401241200 AAXX 24120 67625 NIL=
201401240900 AAXX 24094 67625 NIL=
201401240600 AAXX 24064 67625 NIL=
201401240300 AAXX 24034 67625 NIL=
201401240000 AAXX 24004 67625 NIL=
201401231500 AAXX 23154 67625 NIL=
201401231200 AAXX 23124 67625 NIL=
201401230900 AAXX 23094 67625 NIL=
201401230600 AAXX 23064 67625 NIL=
201401230300 AAXX 23034 67625 NIL=
201401230000 AAXX 23004 67625 NIL=
201401222100 AAXX 22214 67625 NIL=
201401221800 AAXX 22184 67625 NIL=
201401221500 AAXX 22154 67625 NIL=
201401221200 AAXX 22124 67625 NIL=
201401220900 AAXX 22094 67625 NIL=
201401220600 AAXX 22064 67625 NIL=
201401220000 AAXX 22004 67625 NIL=
201401212100 AAXX 21214 67625 NIL=
201401211800 AAXX 21184 67625 NIL=
201401211200 AAXX 21124 67625 NIL=
201401210900 AAXX 21094 67625 NIL=
201401210600 AAXX 21064 67625 NIL=
201401210300 AAXX 21034 67625 NIL=
201401202100 AAXX 20214 67625 NIL=
201401201800 AAXX 20184 67625 NIL=
201401201200 AAXX 20124 67625 NIL=
201401200900 AAXX 20094 67625 NIL=
201401200600 AAXX 20064 67625 NIL=
201401200000 AAXX 20004 67625 NIL=
201401192100 AAXX 19214 67625 NIL=
201401191800 AAXX 19184 67625 NIL=
201401191500 AAXX 19154 67625 NIL=
201401191200 AAXX 19124 67625 NIL=
201401190900 AAXX 19094 67625 NIL=
201401190600 AAXX 19064 67625 NIL=
201401190000 AAXX 19004 67625 NIL=
201401181800 AAXX 18184 67625 NIL=
201401181200 AAXX 18124 67625 NIL=
201401180900 AAXX 18094 67625 NIL=
201401180600 AAXX 18064 67625 NIL=
201401180300 AAXX 18034 67625 NIL=
201401180000 AAXX 18004 67625 NIL=
201401171800 AAXX 17184 67625 NIL=
201401171200 AAXX 17120 67625 NIL=
201401170900 AAXX 17090 67625 NIL=
201401170600 AAXX 17060 67625 NIL=
201401170300 AAXX 17034 67625 NIL=
201401162100 AAXX 16214 67625 NIL=
201401161800 AAXX 16184 67625 NIL=
201401161500 AAXX 16154 67625 NIL=
201401161200 AAXX 16124 67625 NIL=
201401160900 AAXX 16094 67625 NIL=
201401160600 AAXX 16064 67625 NIL=
201401151200 AAXX 15124 67625 NIL=
201401140600 AAXX 14064 67625 NIL=
201401140300 AAXX 14034 67625 NIL=
201401132100 AAXX 13214 67625 NIL=
201401131800 AAXX 13184 67625 NIL=
201401131500 AAXX 13154 67625 NIL=
201401131200 AAXX 13124 67625 NIL=
201401130900 AAXX 13094 67625 NIL=
201401091500 AAXX 09154 67625 NIL=
201401091200 AAXX 09124 67625 NIL=
201401090900 AAXX 09094 67625 NIL=
201401090600 AAXX 09064 67625 NIL=
201401090000 AAXX 09004 67625 NIL=
201401082100 AAXX 08214 67625 NIL=
201401081800 AAXX 08184 67625 NIL=
201401081500 AAXX 08150 67625 NIL=
201401081200 AAXX 08124 67625 NIL=
201401080900 AAXX 08094 67625 NIL=
201401080600 AAXX 08064 67625 NIL=
201401080300 AAXX 08034 67625 NIL=
201401080000 AAXX 08004 67625 NIL=
201401072100 AAXX 07214 67625 NIL=
201401071800 AAXX 07184 67625 NIL=
201401071500 AAXX 07154 67625 NIL=
201401071200 AAXX 07124 67625 NIL=
201401070900 AAXX 07094 67625 NIL=
201401070600 AAXX 07064 67625 NIL=
201401070300 AAXX 07034 67625 NIL=
201401070000 AAXX 07004 67625 NIL=
201401062100 AAXX 06214 67625 NIL=
201401061800 AAXX 06184 67625 NIL=
201401061500 AAXX 06154 67625 NIL=
201401061200 AAXX 06124 67625 NIL=
201401060900 AAXX 06094 67625 NIL=
201401060600 AAXX 06064 67625 NIL=
201401060300 AAXX 06034 67625 NIL=
201401052100 AAXX 05214 67625 NIL=
201401051800 AAXX 05184 67625 NIL=
201401051500 AAXX 05154 67625 NIL=
201401051200 AAXX 05124 67625 NIL=
201401050900 AAXX 05094 67625 NIL=
201401050000 AAXX 05004 67625 NIL=
201401042100 AAXX 04214 67625 NIL=
201401041800 AAXX 04184 67625 NIL=
201401041500 AAXX 04154 67625 NIL=
201401041200 AAXX 04124 67625 NIL=
201401040900 AAXX 04094 67625 NIL=
201401040600 AAXX 04064 67625 NIL=
201401040000 AAXX 04004 67625 NIL=
201401031800 AAXX 03184 67625 NIL=
201401031500 AAXX 03154 67625 NIL=
201401031200 AAXX 03124 67625 NIL=
201401030900 AAXX 03094 67625 NIL=
201401030600 AAXX 03064 67625 12682 73615 10207 20/// 48/// 60034 81830
                   333 10285 20181 5//// 81830 86360=
201401022100 AAXX 02214 67625 NIL=
201401021800 AAXX 02184 67625 NIL=
201401021500 AAXX 02154 67625 NIL=
201401021200 AAXX 02124 67625 NIL=
201401020900 AAXX 02094 67625 NIL=
201401020600 AAXX 02064 67625 NIL=
201401020000 AAXX 02004 67625 NIL=
201401012100 AAXX 01214 67625 NIL=
201401011800 AAXX 01184 67625 NIL=
201401011500 AAXX 01154 67625 NIL=
201401010900 AAXX 01094 67625 NIL=
201401010600 AAXX 01064 67625 NIL=

################################################################################
#  SYNOPS from 67633, Mongu (Zambia) | 15-15S | 023-09E | 1052 m
################################################################################
201401310300 AAXX 31034 67633 NIL=
201401310000 AAXX 31004 67633 NIL=
201401302100 AAXX 30214 67633 NIL=
201401301800 AAXX 30184 67633 NIL=
201401301500 AAXX 30154 67633 NIL=
201401301200 AAXX 30120 67633 NIL=
201401300900 AAXX 30090 67633 NIL=
201401300600 AAXX 30064 67633 NIL=
201401300300 AAXX 30034 67633 NIL=
201401292100 AAXX 29214 67633 NIL=
201401291800 AAXX 29184 67633 NIL=
201401291500 AAXX 29154 67633 NIL=
201401291200 AAXX 29124 67633 NIL=
201401290900 AAXX 29094 67633 NIL=
201401290600 AAXX 29064 67633 NIL=
201401290300 AAXX 29034 67633 NIL=
201401290000 AAXX 29004 67633 NIL=
201401282100 AAXX 28214 67633 NIL=
201401281800 AAXX 28184 67633 NIL=
201401281500 AAXX 28154 67633 NIL=
201401281200 AAXX 28120 67633 NIL=
201401280900 AAXX 28094 67633 NIL=
201401280600 AAXX 28064 67633 NIL=
201401280300 AAXX 28034 67633 NIL=
201401272100 AAXX 27214 67633 NIL=
201401271800 AAXX 27184 67633 NIL=
201401271500 AAXX 27154 67633 NIL=
201401271200 AAXX 27124 67633 NIL=
201401270900 AAXX 27094 67633 NIL=
201401270600 AAXX 27064 67633 NIL=
201401270300 AAXX 27034 67633 NIL=
201401270000 AAXX 27004 67633 NIL=
201401262100 AAXX 26214 67633 NIL=
201401261800 AAXX 26184 67633 NIL=
201401261500 AAXX 26154 67633 NIL=
201401261200 AAXX 26124 67633 NIL=
201401260900 AAXX 26094 67633 NIL=
201401260600 AAXX 26064 67633 NIL=
201401251800 AAXX 25184 67633 NIL=
201401251500 AAXX 25154 67633 NIL=
201401251200 AAXX 25124 67633 NIL=
201401250900 AAXX 25094 67633 NIL=
201401250600 AAXX 25064 67633 NIL=
201401250000 AAXX 25004 67633 NIL=
201401242100 AAXX 24214 67633 NIL=
201401241800 AAXX 24184 67633 NIL=
201401241500 AAXX 24154 67633 NIL=
201401241200 AAXX 24120 67633 NIL=
201401240900 AAXX 24094 67633 NIL=
201401240600 AAXX 24064 67633 NIL=
201401240300 AAXX 24034 67633 NIL=
201401240000 AAXX 24004 67633 NIL=
201401231500 AAXX 23154 67633 NIL=
201401231200 AAXX 23124 67633 NIL=
201401230900 AAXX 23094 67633 NIL=
201401230600 AAXX 23064 67633 12980 70000 10225 20207 48503 60154 70222 8707/
                   333 10330 20190 59008 87360 91016=
201401230300 AAXX 23034 67633 NIL=
201401230000 AAXX 23004 67633 NIL=
201401222100 AAXX 22214 67633 NIL=
201401221800 AAXX 22184 67633 NIL=
201401221500 AAXX 22154 67633 NIL=
201401221200 AAXX 22124 67633 NIL=
201401220900 AAXX 22094 67633 NIL=
201401220600 AAXX 22064 67633 NIL=
201401220000 AAXX 22004 67633 NIL=
201401212100 AAXX 21214 67633 NIL=
201401211800 AAXX 21184 67633 NIL=
201401211200 AAXX 21124 67633 NIL=
201401210900 AAXX 21094 67633 NIL=
201401210600 AAXX 21064 67633 NIL=
201401210300 AAXX 21034 67633 NIL=
201401202100 AAXX 20214 67633 NIL=
201401201800 AAXX 20184 67633 NIL=
201401201200 AAXX 20124 67633 NIL=
201401200900 AAXX 20094 67633 NIL=
201401200600 AAXX 20064 67633 NIL=
201401200000 AAXX 20004 67633 NIL=
201401192100 AAXX 19214 67633 NIL=
201401191800 AAXX 19184 67633 NIL=
201401191500 AAXX 19154 67633 NIL=
201401191200 AAXX 19124 67633 NIL=
201401190900 AAXX 19094 67633 NIL=
201401190600 AAXX 19064 67633 NIL=
201401190000 AAXX 19004 67633 NIL=
201401181800 AAXX 18184 67633 NIL=
201401181200 AAXX 18124 67633 NIL=
201401180900 AAXX 18094 67633 NIL=
201401180600 AAXX 18064 67633 NIL=
201401180300 AAXX 18034 67633 NIL=
201401180000 AAXX 18004 67633 NIL=
201401171800 AAXX 17184 67633 NIL=
201401171200 AAXX 17120 67633 NIL=
201401170900 AAXX 17090 67633 NIL=
201401170600 AAXX 17060 67633 NIL=
201401170300 AAXX 17034 67633 NIL=
201401162100 AAXX 16214 67633 NIL=
201401161800 AAXX 16184 67633 NIL=
201401161500 AAXX 16154 67633 NIL=
201401161200 AAXX 16124 67633 NIL=
201401160900 AAXX 16094 67633 NIL=
201401160600 AAXX 16064 67633 12380 63602 10205 20192 48543 60174 72122 81532
                   333 10300 20186 58024 81610 85360 83080
                   555 00/// 20001 91021=
201401151200 AAXX 15124 67633 NIL=
201401140600 AAXX 14064 67633 NIL=
201401140300 AAXX 14034 67633 NIL=
201401132100 AAXX 13214 67633 NIL=
201401131800 AAXX 13184 67633 NIL=
201401131500 AAXX 13154 67633 NIL=
201401131200 AAXX 13124 67633 NIL=
201401130900 AAXX 13094 67633 NIL=
201401091500 AAXX 09154 67633 NIL=
201401091200 AAXX 09124 67633 NIL=
201401090900 AAXX 09094 67633 NIL=
201401090600 AAXX 09064 67633 NIL=
201401090000 AAXX 09004 67633 NIL=
201401082100 AAXX 08214 67633 NIL=
201401081800 AAXX 08184 67633 NIL=
201401081500 AAXX 08150 67633 NIL=
201401081200 AAXX 08124 67633 NIL=
201401080900 AAXX 08094 67633 NIL=
201401080600 AAXX 08064 67633 NIL=
201401080300 AAXX 08034 67633 NIL=
201401080000 AAXX 08004 67633 NIL=
201401072100 AAXX 07214 67633 NIL=
201401071800 AAXX 07184 67633 NIL=
201401071500 AAXX 07154 67633 NIL=
201401071200 AAXX 07124 67633 NIL=
201401070900 AAXX 07094 67633 NIL=
201401070600 AAXX 07064 67633 NIL=
201401070300 AAXX 07034 67633 NIL=
201401070000 AAXX 07004 67633 NIL=
201401062100 AAXX 06214 67633 NIL=
201401061800 AAXX 06184 67633 NIL=
201401061500 AAXX 06154 67633 NIL=
201401061200 AAXX 06124 67633 NIL=
201401060900 AAXX 06094 67633 NIL=
201401060600 AAXX 06064 67633 NIL=
201401060300 AAXX 06034 67633 NIL=
201401052100 AAXX 05214 67633 NIL=
201401051800 AAXX 05184 67633 NIL=
201401051500 AAXX 05154 67633 NIL=
201401051200 AAXX 05124 67633 NIL=
201401050900 AAXX 05094 67633 NIL=
201401050000 AAXX 05004 67633 NIL=
201401042100 AAXX 04214 67633 NIL=
201401041800 AAXX 04184 67633 NIL=
201401041500 AAXX 04154 67633 NIL=
201401041200 AAXX 04124 67633 NIL=
201401040900 AAXX 04094 67633 NIL=
201401040600 AAXX 04064 67633 NIL=
201401040000 AAXX 04004 67633 NIL=
201401031800 AAXX 03184 67633 NIL=
201401031500 AAXX 03154 67633 NIL=
201401031200 AAXX 03124 67633 NIL=
201401030900 AAXX 03094 67633 NIL=
201401030600 AAXX 03064 67633 NIL=
201401022100 AAXX 02214 67633 NIL=
201401021800 AAXX 02184 67633 NIL=
201401021500 AAXX 02154 67633 NIL=
201401021200 AAXX 02124 67633 NIL=
201401020900 AAXX 02094 67633 NIL=
201401020600 AAXX 02064 67633 NIL=
201401020000 AAXX 02004 67633 NIL=
201401012100 AAXX 01214 67633 NIL=
201401011800 AAXX 01184 67633 NIL=
201401011500 AAXX 01154 67633 NIL=
201401010900 AAXX 01094 67633 NIL=
201401010600 AAXX 01064 67633 NIL=

################################################################################
#  SYNOPS from 67641, Kaoma (Zambia) | 14-48S | 024-48E | 1213 m
################################################################################
201401310300 AAXX 31034 67641 NIL=
201401310000 AAXX 31004 67641 NIL=
201401302100 AAXX 30214 67641 NIL=
201401301800 AAXX 30184 67641 NIL=
201401301500 AAXX 30154 67641 NIL=
201401301200 AAXX 30120 67641 NIL=
201401300900 AAXX 30090 67641 NIL=
201401300600 AAXX 30064 67641 11680 80604 10192 20188 48489 60234 76062 8227/
                   333 10276 20182 58010 85640 87460 91015=
201401300300 AAXX 30034 67641 NIL=
201401292100 AAXX 29214 67641 NIL=
201401291800 AAXX 29184 67641 NIL=
201401291500 AAXX 29154 67641 NIL=
201401291200 AAXX 29124 67641 NIL=
201401290900 AAXX 29094 67641 NIL=
201401290600 AAXX 29064 67641 NIL=
201401290300 AAXX 29034 67641 NIL=
201401290000 AAXX 29004 67641 NIL=
201401282100 AAXX 28214 67641 NIL=
201401281800 AAXX 28184 67641 NIL=
201401281500 AAXX 28154 67641 NIL=
201401281200 AAXX 28120 67641 NIL=
201401280900 AAXX 28094 67641 NIL=
201401280600 AAXX 28064 67641 12982 70401 10220 20203 48486 69904 70222 8707/
                   333 10297 20190 59001 87360 91014=
201401280300 AAXX 28034 67641 NIL=
201401272100 AAXX 27214 67641 NIL=
201401271800 AAXX 27184 67641 NIL=
201401271500 AAXX 27154 67641 NIL=
201401271200 AAXX 27124 67641 42682 73506 10268 20191 48479 70222 8383/
                   333 59011 83840 81642 86360 91013=
201401270900 AAXX 27094 67641 42682 73403 10236 20191 48490 70222 878//
                   333 58005 84840 83642 91014=
201401270600 AAXX 27064 67641 NIL=
201401270300 AAXX 27034 67641 NIL=
201401270000 AAXX 27004 67641 NIL=
201401262100 AAXX 26214 67641 NIL=
201401261800 AAXX 26184 67641 NIL=
201401261500 AAXX 26154 67641 NIL=
201401261200 AAXX 26124 67641 NIL=
201401260900 AAXX 26094 67641 NIL=
201401260600 AAXX 26064 67641 NIL=
201401251800 AAXX 25184 67641 NIL=
201401251500 AAXX 25154 67641 NIL=
201401251200 AAXX 25124 67641 NIL=
201401250900 AAXX 25094 67641 NIL=
201401250600 AAXX 25064 67641 NIL=
201401250000 AAXX 25004 67641 NIL=
201401242100 AAXX 24214 67641 NIL=
201401241800 AAXX 24184 67641 NIL=
201401241500 AAXX 24154 67641 NIL=
201401241200 AAXX 24120 67641 NIL=
201401240900 AAXX 24094 67641 NIL=
201401240600 AAXX 24064 67641 12982 71002 10216 20199 48485 69954 83038
                   333 10314 20195 59013 83360 86280
                   555 00/// 20000 91014=
201401240300 AAXX 24034 67641 NIL=
201401240000 AAXX 24004 67641 NIL=
201401231500 AAXX 23154 67641 NIL=
201401231200 AAXX 23124 67641 NIL=
201401230900 AAXX 23094 67641 NIL=
201401230600 AAXX 23064 67641 NIL=
201401230300 AAXX 23034 67641 NIL=
201401230000 AAXX 23004 67641 NIL=
201401222100 AAXX 22214 67641 NIL=
201401221800 AAXX 22184 67641 NIL=
201401221500 AAXX 22154 67641 NIL=
201401221200 AAXX 22124 67641 NIL=
201401220900 AAXX 22094 67641 42682 51503 10296 20196 48513 70221 85231
                   333 59010 85845 83160 81080 91016=
201401220600 AAXX 22064 67641 12982 20902 10220 20193 48510 69904 70140 81030
                   333 10305 20170 59006 82360 91016=
201401220000 AAXX 22004 67641 NIL=
201401212100 AAXX 21214 67641 NIL=
201401211800 AAXX 21184 67641 NIL=
201401211200 AAXX 21124 67641 NIL=
201401210900 AAXX 21094 67641 42682 71004 10286 20203 48522 70222 872//
                   333 59003 87844 91017=
201401210600 AAXX 21064 67641 12982 53602 10224 20206 48516 69904 70240 85031
                   333 10306 20187 59011 85360 81080 91017=
201401210300 AAXX 21034 67641 NIL=
201401202100 AAXX 20214 67641 NIL=
201401201800 AAXX 20184 67641 NIL=
201401201200 AAXX 20124 67641 NIL=
201401200900 AAXX 20094 67641 42682 60902 10293 20199 48525 70221 81130
                   333 58001 81842 86360 91017=
201401200600 AAXX 20064 67641 32682 31201 10225 20192 48523 70102 81271
                   333 10336 20189 58014 81840 81360 81080 91018=
201401200000 AAXX 20004 67641 NIL=
201401192100 AAXX 19214 67641 NIL=
201401191800 AAXX 19184 67641 NIL=
201401191500 AAXX 19154 67641 NIL=
201401191200 AAXX 19124 67641 NIL=
201401190900 AAXX 19094 67641 NIL=
201401190600 AAXX 19064 67641 NIL=
201401190000 AAXX 19004 67641 NIL=
201401181800 AAXX 18184 67641 NIL=
201401181200 AAXX 18124 67641 NIL=
201401180900 AAXX 18094 67641 NIL=
201401180600 AAXX 18064 67641 NIL=
201401180300 AAXX 18034 67641 NIL=
201401180000 AAXX 18004 67641 NIL=
201401171800 AAXX 17184 67641 NIL=
201401171200 AAXX 17120 67641 NIL=
201401170900 AAXX 17090 67641 NIL=
201401170600 AAXX 17064 67641 12982 20102 10221 20200 48527 69924 81032
                   333 10305 20197 59013 81360 81080 91018=
201401170300 AAXX 17034 67641 NIL=
201401162100 AAXX 16214 67641 NIL=
201401161800 AAXX 16184 67641 NIL=
201401161500 AAXX 16154 67641 NIL=
201401161200 AAXX 16124 67641 NIL=
201401160900 AAXX 16094 67641 42682 72601 10230 20196 48546 70222 878//
                   333 58028 82830 85632 91021=
201401160600 AAXX 16064 67641 12582 72604 10209 20193 48538 60034 70262 875//
                   333 10325 20194 58020 87620 91021=
201401151200 AAXX 15124 67641 42682 61003 10291 20182 48512 70262 85231
                   333 58012 85842 81361 81080 91016=
201401150900 AAXX 15094 67641 42682 72801 10262 20182 48523 70262 81130
                   333 58015 81840 87360 91017=
201401150600 AAXX 15064 67641 11682 80202 10200 20190 48518 60034 72162 885//
                   333 10304 20190 58020 88635 91018=
201401140600 AAXX 14064 67641 NIL=
201401140300 AAXX 14034 67641 NIL=
201401132100 AAXX 13214 67641 NIL=
201401131800 AAXX 13184 67641 NIL=
201401131500 AAXX 13154 67641 NIL=
201401131200 AAXX 13124 67641 NIL=
201401130900 AAXX 13094 67641 NIL=
201401130600 AAXX 13064 67641 12582 70602 10205 20198 48513 60104 70222 83530
                   333 10245 20194 59003 83628 87360 91017=
201401091500 AAXX 09154 67641 NIL=
201401091200 AAXX 09124 67641 NIL=
201401090900 AAXX 09094 67641 NIL=
201401090600 AAXX 09064 67641 NIL=
201401090000 AAXX 09004 67641 NIL=
201401082100 AAXX 08214 67641 NIL=
201401081800 AAXX 08184 67641 NIL=
201401081500 AAXX 08150 67641 NIL=
201401081200 AAXX 08124 67641 NIL=
201401080900 AAXX 08094 67641 NIL=
201401080600 AAXX 08064 67641 NIL=
201401080300 AAXX 08034 67641 NIL=
201401080000 AAXX 08004 67641 NIL=
201401072100 AAXX 07214 67641 NIL=
201401071800 AAXX 07184 67641 NIL=
201401071500 AAXX 07154 67641 NIL=
201401071200 AAXX 07124 67641 NIL=
201401070900 AAXX 07094 67641 NIL=
201401070600 AAXX 07064 67641 32582 31901 10210 20188 48486 82530
                   333 10326 20176 58011 82620 81360
                   555 00/// 20000 91014=
201401070300 AAXX 07034 67641 NIL=
201401070000 AAXX 07004 67641 NIL=
201401062100 AAXX 06214 67641 NIL=
201401061800 AAXX 06184 67641 NIL=
201401061500 AAXX 06154 67641 NIL=
201401061200 AAXX 06124 67641 NIL=
201401060900 AAXX 06094 67641 NIL=
201401060600 AAXX 06064 67641 32982 73002 10205 20177 48475 83032
                   333 10315 20197 58006 83360 84080 91013=
201401060300 AAXX 06034 67641 NIL=
201401052100 AAXX 05214 67641 NIL=
201401051800 AAXX 05184 67641 NIL=
201401051500 AAXX 05154 67641 NIL=
201401051200 AAXX 05124 67641 NIL=
201401050900 AAXX 05094 67641 NIL=
201401050000 AAXX 05004 67641 NIL=
201401042100 AAXX 04214 67641 NIL=
201401041800 AAXX 04184 67641 NIL=
201401041500 AAXX 04154 67641 NIL=
201401041200 AAXX 04124 67641 NIL=
201401040900 AAXX 04094 67641 NIL=
201401040600 AAXX 04064 67641 NIL=
201401040000 AAXX 04004 67641 NIL=
201401031800 AAXX 03184 67641 NIL=
201401031500 AAXX 03154 67641 NIL=
201401031200 AAXX 03124 67641 NIL=
201401030900 AAXX 03094 67641 NIL=
201401030600 AAXX 03064 67641 12682 72805 10217 20197 48482 60064 70262 875//
                   333 10290 20195 58008 87642 91014=
201401022100 AAXX 02214 67641 NIL=
201401021800 AAXX 02184 67641 NIL=
201401021500 AAXX 02154 67641 NIL=
201401021200 AAXX 02124 67641 41682 72701 10256 20221 48468 72162
                   333 59001 83844 81360 86080 91012=
201401020900 AAXX 02094 67641 42682 73405 10236 20193 48479 70222 878//
                   333 58004 82845 86648 91013=
201401020600 AAXX 02064 67641 12782 80201 10206 20194 48476 60024 70222 885//
                   333 10264 20189 58005 88656 91013=
201401020000 AAXX 02004 67641 NIL=
201401012100 AAXX 01214 67641 NIL=
201401011800 AAXX 01184 67641 NIL=
201401011500 AAXX 01154 67641 NIL=
201401010900 AAXX 01094 67641 NIL=
201401010600 AAXX 01064 67641 NIL=

################################################################################
#  SYNOPS from 67655, Mumbwa (Zambia) | 15-04S | 027-11E | 1216 m
################################################################################
201401310300 AAXX 31034 67655 NIL=
201401310000 AAXX 31004 67655 NIL=
201401302100 AAXX 30214 67655 NIL=
201401301800 AAXX 30184 67655 NIL=
201401301500 AAXX 30154 67655 NIL=
201401301200 AAXX 30120 67655 NIL=
201401300900 AAXX 30090 67655 NIL=
201401300600 AAXX 30064 67655 12980 73507 10194 20179 48514 60354 8702/
                   333 10197 20/// 59000 87460 91017=
201401300300 AAXX 30034 67655 NIL=
201401292100 AAXX 29214 67655 NIL=
201401291800 AAXX 29184 67655 NIL=
201401291500 AAXX 29154 67655 NIL=
201401291200 AAXX 29124 67655 NIL=
201401290900 AAXX 29094 67655 NIL=
201401290600 AAXX 29064 67655 NIL=
201401290300 AAXX 29034 67655 NIL=
201401290000 AAXX 29004 67655 NIL=
201401282100 AAXX 28214 67655 NIL=
201401281800 AAXX 28184 67655 NIL=
201401281500 AAXX 28154 67655 NIL=
201401281200 AAXX 28120 67655 NIL=
201401280900 AAXX 28094 67655 NIL=
201401280600 AAXX 28064 67655 NIL=
201401280300 AAXX 28034 67655 NIL=
201401272100 AAXX 27214 67655 NIL=
201401271800 AAXX 27184 67655 NIL=
201401271500 AAXX 27154 67655 NIL=
201401271200 AAXX 27124 67655 NIL=
201401270900 AAXX 27094 67655 NIL=
201401270600 AAXX 27064 67655 NIL=
201401270300 AAXX 27034 67655 NIL=
201401270000 AAXX 27004 67655 NIL=
201401262100 AAXX 26214 67655 NIL=
201401261800 AAXX 26184 67655 NIL=
201401261500 AAXX 26154 67655 NIL=
201401261200 AAXX 26124 67655 NIL=
201401260900 AAXX 26094 67655 NIL=
201401260600 AAXX 26064 67655 NIL=
201401251800 AAXX 25184 67655 NIL=
201401251500 AAXX 25154 67655 NIL=
201401251200 AAXX 25124 67655 NIL=
201401250900 AAXX 25094 67655 NIL=
201401250600 AAXX 25064 67655 NIL=
201401250000 AAXX 25004 67655 NIL=
201401242100 AAXX 24214 67655 NIL=
201401241800 AAXX 24184 67655 NIL=
201401241500 AAXX 24154 67655 NIL=
201401241200 AAXX 24120 67655 NIL=
201401240900 AAXX 24094 67655 NIL=
201401240600 AAXX 24064 67655 NIL=
201401240300 AAXX 24034 67655 NIL=
201401240000 AAXX 24004 67655 NIL=
201401231500 AAXX 23154 67655 NIL=
201401231200 AAXX 23124 67655 NIL=
201401230900 AAXX 23094 67655 NIL=
201401230600 AAXX 23064 67655 NIL=
201401230300 AAXX 23034 67655 NIL=
201401230000 AAXX 23004 67655 NIL=
201401222100 AAXX 22214 67655 NIL=
201401221800 AAXX 22184 67655 NIL=
201401221500 AAXX 22154 67655 NIL=
201401221200 AAXX 22124 67655 NIL=
201401220900 AAXX 22094 67655 NIL=
201401220600 AAXX 22064 67655 12980 40000 10220 20198 48528 60054 82071
                   333 10300 20160 59011 83360 81080 91019=
201401220000 AAXX 22004 67655 NIL=
201401212100 AAXX 21214 67655 NIL=
201401211800 AAXX 21184 67655 NIL=
201401211200 AAXX 21124 67655 NIL=
201401210900 AAXX 21094 67655 NIL=
201401210600 AAXX 21064 67655 NIL=
201401210300 AAXX 21034 67655 NIL=
201401202100 AAXX 20214 67655 NIL=
201401201800 AAXX 20184 67655 NIL=
201401201200 AAXX 20124 67655 NIL=
201401200900 AAXX 20094 67655 NIL=
201401200600 AAXX 20064 67655 NIL=
201401200000 AAXX 20004 67655 NIL=
201401192100 AAXX 19214 67655 NIL=
201401191800 AAXX 19184 67655 NIL=
201401191500 AAXX 19154 67655 NIL=
201401191200 AAXX 19124 67655 NIL=
201401190900 AAXX 19094 67655 NIL=
201401190600 AAXX 19064 67655 NIL=
201401190000 AAXX 19004 67655 NIL=
201401181800 AAXX 18184 67655 NIL=
201401181200 AAXX 18124 67655 NIL=
201401180900 AAXX 18094 67655 NIL=
201401180600 AAXX 18064 67655 NIL=
201401180300 AAXX 18034 67655 NIL=
201401180000 AAXX 18004 67655 NIL=
201401171800 AAXX 17184 67655 NIL=
201401171200 AAXX 17120 67655 NIL=
201401170900 AAXX 17090 67655 NIL=
201401170600 AAXX 17060 67655 NIL=
201401170300 AAXX 17034 67655 NIL=
201401162100 AAXX 16214 67655 NIL=
201401161800 AAXX 16184 67655 NIL=
201401161500 AAXX 16154 67655 NIL=
201401161200 AAXX 16124 67655 NIL=
201401160900 AAXX 16094 67655 NIL=
201401160600 AAXX 16064 67655 NIL=
201401151200 AAXX 15124 67655 NIL=
201401140600 AAXX 14064 67655 NIL=
201401140300 AAXX 14034 67655 NIL=
201401132100 AAXX 13214 67655 NIL=
201401131800 AAXX 13184 67655 NIL=
201401131500 AAXX 13154 67655 NIL=
201401131200 AAXX 13124 67655 NIL=
201401130900 AAXX 13094 67655 NIL=
201401091500 AAXX 09154 67655 NIL=
201401091200 AAXX 09124 67655 NIL=
201401090900 AAXX 09094 67655 NIL=
201401090600 AAXX 09064 67655 NIL=
201401090000 AAXX 09004 67655 NIL=
201401082100 AAXX 08214 67655 NIL=
201401081800 AAXX 08184 67655 NIL=
201401081500 AAXX 08150 67655 NIL=
201401081200 AAXX 08124 67655 NIL=
201401080900 AAXX 08094 67655 NIL=
201401080600 AAXX 08064 67655 NIL=
201401080300 AAXX 08034 67655 NIL=
201401080000 AAXX 08004 67655 NIL=
201401072100 AAXX 07214 67655 NIL=
201401071800 AAXX 07184 67655 NIL=
201401071500 AAXX 07154 67655 NIL=
201401071200 AAXX 07124 67655 NIL=
201401070900 AAXX 07094 67655 NIL=
201401070600 AAXX 07064 67655 NIL=
201401070300 AAXX 07034 67655 NIL=
201401070000 AAXX 07004 67655 NIL=
201401062100 AAXX 06214 67655 NIL=
201401061800 AAXX 06184 67655 NIL=
201401061500 AAXX 06154 67655 NIL=
201401061200 AAXX 06124 67655 NIL=
201401060900 AAXX 06094 67655 NIL=
201401060600 AAXX 06064 67655 NIL=
201401060300 AAXX 06034 67655 NIL=
201401052100 AAXX 05214 67655 NIL=
201401051800 AAXX 05184 67655 NIL=
201401051500 AAXX 05154 67655 NIL=
201401051200 AAXX 05124 67655 NIL=
201401050900 AAXX 05094 67655 NIL=
201401050000 AAXX 05004 67655 NIL=
201401042100 AAXX 04214 67655 NIL=
201401041800 AAXX 04184 67655 NIL=
201401041500 AAXX 04154 67655 NIL=
201401041200 AAXX 04124 67655 NIL=
201401040900 AAXX 04094 67655 NIL=
201401040600 AAXX 04064 67655 NIL=
201401040000 AAXX 04004 67655 NIL=
201401031800 AAXX 03184 67655 NIL=
201401031500 AAXX 03154 67655 NIL=
201401031200 AAXX 03124 67655 NIL=
201401030900 AAXX 03094 67655 NIL=
201401030600 AAXX 03064 67655 NIL=
201401022100 AAXX 02214 67655 NIL=
201401021800 AAXX 02184 67655 NIL=
201401021500 AAXX 02154 67655 NIL=
201401021200 AAXX 02124 67655 NIL=
201401020900 AAXX 02094 67655 NIL=
201401020600 AAXX 02064 67655 NIL=
201401020000 AAXX 02004 67655 NIL=
201401012100 AAXX 01214 67655 NIL=
201401011800 AAXX 01184 67655 NIL=
201401011500 AAXX 01154 67655 NIL=
201401010900 AAXX 01094 67655 NIL=
201401010600 AAXX 01064 67655 NIL=

################################################################################
#  SYNOPS from 67659, Kafue Polder (Zambia) | 15-46S | 027-55E | 978 m
################################################################################
201401310300 AAXX 31034 67659 NIL=
201401310000 AAXX 31004 67659 NIL=
201401302100 AAXX 30214 67659 NIL=
201401301800 AAXX 30184 67659 NIL=
201401301500 AAXX 30154 67659 NIL=
201401301200 AAXX 30120 67659 NIL=
201401300900 AAXX 30090 67659 NIL=
201401300600 AAXX 30064 67659 NIL=
201401300300 AAXX 30034 67659 NIL=
201401292100 AAXX 29214 67659 NIL=
201401291800 AAXX 29184 67659 NIL=
201401291500 AAXX 29154 67659 NIL=
201401291200 AAXX 29124 67659 NIL=
201401290900 AAXX 29094 67659 NIL=
201401290600 AAXX 29064 67659 NIL=
201401290300 AAXX 29034 67659 NIL=
201401290000 AAXX 29004 67659 NIL=
201401282100 AAXX 28214 67659 NIL=
201401281800 AAXX 28184 67659 NIL=
201401281500 AAXX 28154 67659 NIL=
201401281200 AAXX 28120 67659 NIL=
201401280900 AAXX 28094 67659 NIL=
201401280600 AAXX 28064 67659 NIL=
201401280300 AAXX 28034 67659 NIL=
201401272100 AAXX 27214 67659 NIL=
201401271800 AAXX 27184 67659 NIL=
201401271500 AAXX 27154 67659 NIL=
201401271200 AAXX 27124 67659 NIL=
201401270900 AAXX 27094 67659 NIL=
201401270600 AAXX 27064 67659 NIL=
201401270300 AAXX 27034 67659 NIL=
201401270000 AAXX 27004 67659 NIL=
201401262100 AAXX 26214 67659 NIL=
201401261800 AAXX 26184 67659 NIL=
201401261500 AAXX 26154 67659 NIL=
201401261200 AAXX 26124 67659 NIL=
201401260900 AAXX 26094 67659 NIL=
201401260600 AAXX 26064 67659 NIL=
201401251800 AAXX 25184 67659 NIL=
201401251500 AAXX 25154 67659 NIL=
201401251200 AAXX 25124 67659 NIL=
201401250900 AAXX 25094 67659 NIL=
201401250600 AAXX 25064 67659 NIL=
201401250000 AAXX 25004 67659 NIL=
201401242100 AAXX 24214 67659 NIL=
201401241800 AAXX 24184 67659 NIL=
201401241500 AAXX 24154 67659 NIL=
201401241200 AAXX 24120 67659 NIL=
201401240900 AAXX 24094 67659 NIL=
201401240600 AAXX 24064 67659 NIL=
201401240300 AAXX 24034 67659 NIL=
201401240000 AAXX 24004 67659 NIL=
201401231500 AAXX 23154 67659 NIL=
201401231200 AAXX 23124 67659 NIL=
201401230900 AAXX 23094 67659 NIL=
201401230600 AAXX 23064 67659 NIL=
201401230300 AAXX 23034 67659 NIL=
201401230000 AAXX 23004 67659 NIL=
201401222100 AAXX 22214 67659 NIL=
201401221800 AAXX 22184 67659 NIL=
201401221500 AAXX 22154 67659 NIL=
201401221200 AAXX 22124 67659 NIL=
201401220900 AAXX 22094 67659 NIL=
201401220600 AAXX 22064 67659 NIL=
201401220000 AAXX 22004 67659 NIL=
201401212100 AAXX 21214 67659 NIL=
201401211800 AAXX 21184 67659 NIL=
201401211200 AAXX 21124 67659 NIL=
201401210900 AAXX 21094 67659 NIL=
201401210600 AAXX 21064 67659 NIL=
201401210300 AAXX 21034 67659 NIL=
201401202100 AAXX 20214 67659 NIL=
201401201800 AAXX 20184 67659 NIL=
201401201200 AAXX 20124 67659 NIL=
201401200900 AAXX 20094 67659 NIL=
201401200600 AAXX 20064 67659 NIL=
201401200000 AAXX 20004 67659 NIL=
201401192100 AAXX 19214 67659 NIL=
201401191800 AAXX 19184 67659 NIL=
201401191500 AAXX 19154 67659 NIL=
201401191200 AAXX 19124 67659 NIL=
201401190900 AAXX 19094 67659 NIL=
201401190600 AAXX 19064 67659 NIL=
201401190000 AAXX 19004 67659 NIL=
201401181800 AAXX 18184 67659 NIL=
201401181200 AAXX 18124 67659 NIL=
201401180900 AAXX 18094 67659 NIL=
201401180600 AAXX 18064 67659 NIL=
201401180300 AAXX 18034 67659 NIL=
201401180000 AAXX 18004 67659 NIL=
201401171800 AAXX 17184 67659 NIL=
201401171200 AAXX 17120 67659 NIL=
201401170900 AAXX 17090 67659 NIL=
201401170600 AAXX 17060 67659 NIL=
201401170300 AAXX 17034 67659 NIL=
201401162100 AAXX 16214 67659 NIL=
201401161800 AAXX 16184 67659 NIL=
201401161500 AAXX 16154 67659 NIL=
201401161200 AAXX 16124 67659 NIL=
201401160900 AAXX 16094 67659 NIL=
201401160600 AAXX 16064 67659 NIL=
201401151200 AAXX 15124 67659 NIL=
201401140600 AAXX 14064 67659 NIL=
201401140300 AAXX 14034 67659 NIL=
201401132100 AAXX 13214 67659 NIL=
201401131800 AAXX 13184 67659 NIL=
201401131500 AAXX 13154 67659 NIL=
201401131200 AAXX 13124 67659 NIL=
201401130900 AAXX 13094 67659 NIL=
201401091500 AAXX 09154 67659 NIL=
201401091200 AAXX 09124 67659 NIL=
201401090900 AAXX 09094 67659 NIL=
201401090600 AAXX 09064 67659 NIL=
201401090000 AAXX 09004 67659 NIL=
201401082100 AAXX 08214 67659 NIL=
201401081800 AAXX 08184 67659 NIL=
201401081500 AAXX 08150 67659 NIL=
201401081200 AAXX 08124 67659 NIL=
201401080900 AAXX 08094 67659 NIL=
201401080600 AAXX 08064 67659 NIL=
201401080300 AAXX 08034 67659 NIL=
201401080000 AAXX 08004 67659 NIL=
201401072100 AAXX 07214 67659 NIL=
201401071800 AAXX 07184 67659 NIL=
201401071500 AAXX 07154 67659 NIL=
201401071200 AAXX 07124 67659 NIL=
201401070900 AAXX 07094 67659 NIL=
201401070600 AAXX 07064 67659 NIL=
201401070300 AAXX 07034 67659 NIL=
201401070000 AAXX 07004 67659 NIL=
201401062100 AAXX 06214 67659 NIL=
201401061800 AAXX 06184 67659 NIL=
201401061500 AAXX 06154 67659 NIL=
201401061200 AAXX 06124 67659 NIL=
201401060900 AAXX 06094 67659 NIL=
201401060600 AAXX 06064 67659 NIL=
201401060300 AAXX 06034 67659 NIL=
201401052100 AAXX 05214 67659 NIL=
201401051800 AAXX 05184 67659 NIL=
201401051500 AAXX 05154 67659 NIL=
201401051200 AAXX 05124 67659 NIL=
201401050900 AAXX 05094 67659 NIL=
201401050000 AAXX 05004 67659 NIL=
201401042100 AAXX 04214 67659 NIL=
201401041800 AAXX 04184 67659 NIL=
201401041500 AAXX 04154 67659 NIL=
201401041200 AAXX 04124 67659 NIL=
201401040900 AAXX 04094 67659 NIL=
201401040600 AAXX 04064 67659 NIL=
201401040000 AAXX 04004 67659 NIL=
201401031800 AAXX 03184 67659 NIL=
201401031500 AAXX 03154 67659 NIL=
201401031200 AAXX 03124 67659 NIL=
201401030900 AAXX 03094 67659 NIL=
201401030600 AAXX 03064 67659 NIL=
201401022100 AAXX 02214 67659 NIL=
201401021800 AAXX 02184 67659 NIL=
201401021500 AAXX 02154 67659 NIL=
201401021200 AAXX 02124 67659 NIL=
201401020900 AAXX 02094 67659 NIL=
201401020600 AAXX 02064 67659 NIL=
201401020000 AAXX 02004 67659 NIL=
201401012100 AAXX 01214 67659 NIL=
201401011800 AAXX 01184 67659 NIL=
201401011500 AAXX 01154 67659 NIL=
201401010900 AAXX 01094 67659 NIL=
201401010600 AAXX 01064 67659 NIL=

################################################################################
#  SYNOPS from 67662, Kabwe Agric (Zambia) | 14-24S | 028-30E | 1165 m
################################################################################
201401310300 AAXX 31034 67662 NIL=
201401310000 AAXX 31004 67662 NIL=
201401302100 AAXX 30214 67662 NIL=
201401301800 AAXX 30184 67662 NIL=
201401301500 AAXX 30154 67662 NIL=
201401301200 AAXX 30120 67662 NIL=
201401300900 AAXX 30090 67662 NIL=
201401300600 AAXX 30064 67662 NIL=
201401300300 AAXX 30034 67662 NIL=
201401292100 AAXX 29214 67662 NIL=
201401291800 AAXX 29184 67662 NIL=
201401291500 AAXX 29154 67662 NIL=
201401291200 AAXX 29124 67662 NIL=
201401290900 AAXX 29094 67662 NIL=
201401290600 AAXX 29064 67662 NIL=
201401290300 AAXX 29034 67662 NIL=
201401290000 AAXX 29004 67662 NIL=
201401282100 AAXX 28214 67662 NIL=
201401281800 AAXX 28184 67662 NIL=
201401281500 AAXX 28154 67662 NIL=
201401281200 AAXX 28120 67662 NIL=
201401280900 AAXX 28094 67662 NIL=
201401280600 AAXX 28064 67662 NIL=
201401280300 AAXX 28034 67662 NIL=
201401272100 AAXX 27214 67662 NIL=
201401271800 AAXX 27184 67662 NIL=
201401271500 AAXX 27154 67662 NIL=
201401271200 AAXX 27124 67662 NIL=
201401270900 AAXX 27094 67662 NIL=
201401270600 AAXX 27064 67662 NIL=
201401270300 AAXX 27034 67662 NIL=
201401270000 AAXX 27004 67662 NIL=
201401262100 AAXX 26214 67662 NIL=
201401261800 AAXX 26184 67662 NIL=
201401261500 AAXX 26154 67662 NIL=
201401261200 AAXX 26124 67662 NIL=
201401260900 AAXX 26094 67662 NIL=
201401260600 AAXX 26064 67662 NIL=
201401251800 AAXX 25184 67662 NIL=
201401251500 AAXX 25154 67662 NIL=
201401251200 AAXX 25124 67662 NIL=
201401250900 AAXX 25094 67662 NIL=
201401250600 AAXX 25064 67662 NIL=
201401250000 AAXX 25004 67662 NIL=
201401242100 AAXX 24214 67662 NIL=
201401241800 AAXX 24184 67662 NIL=
201401241500 AAXX 24154 67662 NIL=
201401241200 AAXX 24120 67662 NIL=
201401240900 AAXX 24094 67662 NIL=
201401240600 AAXX 24064 67662 NIL=
201401240300 AAXX 24034 67662 NIL=
201401240000 AAXX 24004 67662 NIL=
201401231500 AAXX 23154 67662 NIL=
201401231200 AAXX 23124 67662 NIL=
201401230900 AAXX 23094 67662 NIL=
201401230600 AAXX 23064 67662 NIL=
201401230300 AAXX 23034 67662 NIL=
201401230000 AAXX 23004 67662 NIL=
201401222100 AAXX 22214 67662 NIL=
201401221800 AAXX 22184 67662 NIL=
201401221500 AAXX 22154 67662 NIL=
201401221200 AAXX 22124 67662 NIL=
201401220900 AAXX 22094 67662 NIL=
201401220600 AAXX 22064 67662 NIL=
201401220000 AAXX 22004 67662 NIL=
201401212100 AAXX 21214 67662 NIL=
201401211800 AAXX 21184 67662 NIL=
201401211200 AAXX 21124 67662 NIL=
201401210900 AAXX 21094 67662 NIL=
201401210600 AAXX 21064 67662 NIL=
201401210300 AAXX 21034 67662 NIL=
201401202100 AAXX 20214 67662 NIL=
201401201800 AAXX 20184 67662 NIL=
201401201200 AAXX 20124 67662 NIL=
201401200900 AAXX 20094 67662 NIL=
201401200600 AAXX 20064 67662 NIL=
201401200000 AAXX 20004 67662 NIL=
201401192100 AAXX 19214 67662 NIL=
201401191800 AAXX 19184 67662 NIL=
201401191500 AAXX 19154 67662 NIL=
201401191200 AAXX 19124 67662 NIL=
201401190900 AAXX 19094 67662 NIL=
201401190600 AAXX 19064 67662 NIL=
201401190000 AAXX 19004 67662 NIL=
201401181800 AAXX 18184 67662 NIL=
201401181200 AAXX 18124 67662 NIL=
201401180900 AAXX 18094 67662 NIL=
201401180600 AAXX 18064 67662 NIL=
201401180300 AAXX 18034 67662 NIL=
201401180000 AAXX 18004 67662 NIL=
201401171800 AAXX 17184 67662 NIL=
201401171200 AAXX 17120 67662 NIL=
201401170900 AAXX 17090 67662 NIL=
201401170600 AAXX 17060 67662 NIL=
201401170300 AAXX 17034 67662 NIL=
201401162100 AAXX 16214 67662 NIL=
201401161800 AAXX 16184 67662 NIL=
201401161500 AAXX 16154 67662 NIL=
201401161200 AAXX 16124 67662 NIL=
201401160900 AAXX 16094 67662 NIL=
201401160600 AAXX 16064 67662 NIL=
201401151200 AAXX 15124 67662 NIL=
201401140600 AAXX 14064 67662 NIL=
201401140300 AAXX 14034 67662 NIL=
201401132100 AAXX 13214 67662 NIL=
201401131800 AAXX 13184 67662 NIL=
201401131500 AAXX 13154 67662 NIL=
201401131200 AAXX 13124 67662 42680 72804 10269 20196 86230
                   333 81930 86830 85360=
201401130900 AAXX 13094 67662 42580 71702 10234 20196 84270
                   333 5//// 84825 87360=
201401130600 AAXX 13064 67662 12580 82803 10206 20188 60624 8657/
                   333 10/// 20/// 86620 88460=
201401091500 AAXX 09154 67662 NIL=
201401091200 AAXX 09124 67662 NIL=
201401090900 AAXX 09094 67662 NIL=
201401090600 AAXX 09064 67662 NIL=
201401090000 AAXX 09004 67662 NIL=
201401082100 AAXX 08214 67662 NIL=
201401081800 AAXX 08184 67662 NIL=
201401081500 AAXX 08150 67662 NIL=
201401081200 AAXX 08124 67662 NIL=
201401080900 AAXX 08094 67662 NIL=
201401080600 AAXX 08064 67662 NIL=
201401080300 AAXX 08034 67662 NIL=
201401080000 AAXX 08004 67662 NIL=
201401072100 AAXX 07214 67662 NIL=
201401071800 AAXX 07184 67662 NIL=
201401071500 AAXX 07154 67662 NIL=
201401071200 AAXX 07124 67662 NIL=
201401070900 AAXX 07094 67662 42980 32003 10275 20184 82032
                   333 82360 83080=
201401070600 AAXX 07064 67662 32980 71602 10219 20183 87030
                   333 10/// 20/// 87360
                   555 00/// 20008 67481 32980 53604 10205 20188
                   85032=
201401070300 AAXX 07034 67662 NIL=
201401070000 AAXX 07004 67662 NIL=
201401062100 AAXX 06214 67662 NIL=
201401061800 AAXX 06184 67662 NIL=
201401061500 AAXX 06154 67662 NIL=
201401061200 AAXX 06124 67662 NIL=
201401060900 AAXX 06094 67662 42580 72705 10250 20180 48/// 81238
                   333 81825 85360 87280=
201401060600 AAXX 06064 67662 12980 71503 10/// 20181 60084 8707/
                   333 10/// 20/// 87360=
201401060300 AAXX 06034 67662 NIL=
201401052100 AAXX 05214 67662 NIL=
201401051800 AAXX 05184 67662 NIL=
201401051500 AAXX 05154 67662 NIL=
201401051200 AAXX 05124 67662 NIL=
201401050900 AAXX 05094 67662 NIL=
201401050000 AAXX 05004 67662 NIL=
201401042100 AAXX 04214 67662 NIL=
201401041800 AAXX 04184 67662 NIL=
201401041500 AAXX 04154 67662 NIL=
201401041200 AAXX 04124 67662 NIL=
201401040900 AAXX 04094 67662 NIL=
201401040600 AAXX 04064 67662 NIL=
201401040000 AAXX 04004 67662 NIL=
201401031800 AAXX 03184 67662 NIL=
201401031500 AAXX 03154 67662 NIL=
201401031200 AAXX 03124 67662 NIL=
201401030900 AAXX 03094 67662 NIL=
201401030600 AAXX 03064 67662 NIL=
201401022100 AAXX 02214 67662 NIL=
201401021800 AAXX 02184 67662 NIL=
201401021500 AAXX 02154 67662 NIL=
201401021200 AAXX 02124 67662 NIL=
201401020900 AAXX 02094 67662 NIL=
201401020600 AAXX 02064 67662 NIL=
201401020000 AAXX 02004 67662 NIL=
201401012100 AAXX 01214 67662 NIL=
201401011800 AAXX 01184 67662 NIL=
201401011500 AAXX 01154 67662 NIL=
201401010900 AAXX 01094 67662 NIL=
201401010600 AAXX 01064 67662 NIL=

################################################################################
#  SYNOPS from 67663, Kabwe (Zambia) | 14-27S | 028-28E | 1206 m
################################################################################
201401310300 AAXX 31034 67663 NIL=
201401310000 AAXX 31004 67663 NIL=
201401302100 AAXX 30214 67663 NIL=
201401301800 AAXX 30184 67663 NIL=
201401301500 AAXX 30154 67663 NIL=
201401301200 AAXX 30120 67663 NIL=
201401300900 AAXX 30090 67663 NIL=
201401300600 AAXX 30064 67663 NIL=
201401300300 AAXX 30034 67663 NIL=
201401292100 AAXX 29214 67663 NIL=
201401291800 AAXX 29184 67663 NIL=
201401291500 AAXX 29154 67663 NIL=
201401291200 AAXX 29124 67663 NIL=
201401290900 AAXX 29094 67663 NIL=
201401290600 AAXX 29064 67663 NIL=
201401290300 AAXX 29034 67663 NIL=
201401290000 AAXX 29004 67663 NIL=
201401282100 AAXX 28214 67663 NIL=
201401281800 AAXX 28184 67663 NIL=
201401281500 AAXX 28154 67663 NIL=
201401281200 AAXX 28120 67663 NIL=
201401280900 AAXX 28094 67663 NIL=
201401280600 AAXX 28064 67663 32980 61005 10213 48510 85032
                   333 10287 20185 59002 85360 83080=
201401280300 AAXX 28034 67663 NIL=
201401272100 AAXX 27214 67663 NIL=
201401271800 AAXX 27184 67663 NIL=
201401271500 AAXX 27154 67663 NIL=
201401271200 AAXX 27124 67663 NIL=
201401270900 AAXX 27094 67663 NIL=
201401270600 AAXX 27064 67663 NIL=
201401270300 AAXX 27034 67663 NIL=
201401270000 AAXX 27004 67663 NIL=
201401262100 AAXX 26214 67663 NIL=
201401261800 AAXX 26184 67663 NIL=
201401261500 AAXX 26154 67663 NIL=
201401261200 AAXX 26124 67663 NIL=
201401260900 AAXX 26094 67663 NIL=
201401260600 AAXX 26064 67663 NIL=
201401251800 AAXX 25184 67663 NIL=
201401251500 AAXX 25154 67663 NIL=
201401251200 AAXX 25124 67663 NIL=
201401250900 AAXX 25094 67663 NIL=
201401250600 AAXX 25064 67663 NIL=
201401250000 AAXX 25004 67663 NIL=
201401242100 AAXX 24214 67663 NIL=
201401241800 AAXX 24184 67663 NIL=
201401241500 AAXX 24154 67663 NIL=
201401241200 AAXX 24120 67663 NIL=
201401240900 AAXX 24094 67663 NIL=
201401240600 AAXX 24064 67663 NIL=
201401240300 AAXX 24034 67663 NIL=
201401240000 AAXX 24004 67663 NIL=
201401231500 AAXX 23154 67663 NIL=
201401231200 AAXX 23124 67663 NIL=
201401230900 AAXX 23094 67663 NIL=
201401230600 AAXX 23064 67663 32980 63503 10210 20189 48500 70222 81038
                   333 10298 20184 59019 81360 86280=
201401230300 AAXX 23034 67663 NIL=
201401230000 AAXX 23004 67663 NIL=
201401222100 AAXX 22214 67663 NIL=
201401221800 AAXX 22184 67663 NIL=
201401221500 AAXX 22154 67663 NIL=
201401221200 AAXX 22124 67663 NIL=
201401220900 AAXX 22094 67663 NIL=
201401220600 AAXX 22064 67663 NIL=
201401220000 AAXX 22004 67663 NIL=
201401212100 AAXX 21214 67663 NIL=
201401211800 AAXX 21184 67663 NIL=
201401211200 AAXX 21124 67663 NIL=
201401210900 AAXX 21094 67663 NIL=
201401210600 AAXX 21064 67663 NIL=
201401210300 AAXX 21034 67663 NIL=
201401202100 AAXX 20214 67663 NIL=
201401201800 AAXX 20184 67663 NIL=
201401201200 AAXX 20124 67663 NIL=
201401200900 AAXX 20094 67663 NIL=
201401200600 AAXX 20064 67663 NIL=
201401200000 AAXX 20004 67663 NIL=
201401192100 AAXX 19214 67663 NIL=
201401191800 AAXX 19184 67663 NIL=
201401191500 AAXX 19154 67663 NIL=
201401191200 AAXX 19124 67663 NIL=
201401190900 AAXX 19094 67663 NIL=
201401190600 AAXX 19064 67663 NIL=
201401190000 AAXX 19004 67663 NIL=
201401181800 AAXX 18184 67663 NIL=
201401181200 AAXX 18124 67663 NIL=
201401180900 AAXX 18094 67663 NIL=
201401180600 AAXX 18064 67663 NIL=
201401180300 AAXX 18034 67663 NIL=
201401180000 AAXX 18004 67663 NIL=
201401171800 AAXX 17184 67663 NIL=
201401171200 AAXX 17120 67663 NIL=
201401170900 AAXX 17090 67663 NIL=
201401170600 AAXX 17064 67663 32980 23303 10214 20186 48533 82030
                   333 10288 20169 59021 82360=
201401170300 AAXX 17034 67663 NIL=
201401162100 AAXX 16214 67663 NIL=
201401161800 AAXX 16184 67663 NIL=
201401161500 AAXX 16154 67663 NIL=
201401161200 AAXX 16124 67663 NIL=
201401160900 AAXX 16094 67663 NIL=
201401160600 AAXX 16064 67663 12480 42204 10204 20174 48552 69904 82530
                   333 10265 20168 58024 82618 83360=
201401151200 AAXX 15124 67663 NIL=
201401150600 AAXX 15064 67663 12480 70805 10198 20188 48530 60024 8553/
                   333 10252 20185 58007 85617 86360=
201401140600 AAXX 14064 67663 NIL=
201401140300 AAXX 14034 67663 NIL=
201401132100 AAXX 13214 67663 NIL=
201401131800 AAXX 13184 67663 NIL=
201401131500 AAXX 13154 67663 NIL=
201401131200 AAXX 13124 67663 NIL=
201401130900 AAXX 13094 67663 NIL=
201401130600 AAXX 13064 67663 12480 72003 10201 20177 48524 60194 875//
                   333 10232 20188 59003 87619=
201401091500 AAXX 09154 67663 NIL=
201401091200 AAXX 09124 67663 NIL=
201401090900 AAXX 09094 67663 NIL=
201401090600 AAXX 09064 67663 12980 52603 10222 20189 48517 69904 81038
                   333 10302 20181 59013 81360 85280=
201401090000 AAXX 09004 67663 NIL=
201401082100 AAXX 08214 67663 NIL=
201401081800 AAXX 08184 67663 NIL=
201401081500 AAXX 08150 67663 NIL=
201401081200 AAXX 08124 67663 NIL=
201401080900 AAXX 08094 67663 NIL=
201401080600 AAXX 08064 67663 32480 73403 10220 20190 48528 8553/
                   333 10315 20197 58000 81919 85619 87360
                   555 00/// 20990=
201401080300 AAXX 08034 67663 NIL=
201401080000 AAXX 08004 67663 NIL=
201401072100 AAXX 07214 67663 NIL=
201401071800 AAXX 07184 67663 NIL=
201401071500 AAXX 07154 67663 NIL=
201401071200 AAXX 07124 67663 NIL=
201401070900 AAXX 07094 67663 NIL=
201401070600 AAXX 07064 67663 12980 53004 10220 20180 48530 69904 85032
                   333 10300 20191 58003 85360 81080
                   555 00/// 20016=
201401070300 AAXX 07034 67663 NIL=
201401070000 AAXX 07004 67663 NIL=
201401062100 AAXX 06214 67663 NIL=
201401061800 AAXX 06184 67663 NIL=
201401061500 AAXX 06154 67663 NIL=
201401061200 AAXX 06124 67663 NIL=
201401060900 AAXX 06094 67663 NIL=
201401060600 AAXX 06064 67663 12980 83304 10201 20178 48522 60164 86088
                   333 10283 20175 58040 86460 86280=
201401060300 AAXX 06034 67663 NIL=
201401052100 AAXX 05214 67663 NIL=
201401051800 AAXX 05184 67663 NIL=
201401051500 AAXX 05154 67663 NIL=
201401051200 AAXX 05124 67663 NIL=
201401050900 AAXX 05094 67663 NIL=
201401050000 AAXX 05004 67663 NIL=
201401042100 AAXX 04214 67663 NIL=
201401041800 AAXX 04184 67663 NIL=
201401041500 AAXX 04154 67663 NIL=
201401041200 AAXX 04124 67663 NIL=
201401040900 AAXX 04094 67663 NIL=
201401040600 AAXX 04064 67663 NIL=
201401040000 AAXX 04004 67663 NIL=
201401031800 AAXX 03184 67663 NIL=
201401031500 AAXX 03154 67663 NIL=
201401031200 AAXX 03124 67663 NIL=
201401030900 AAXX 03094 67663 41580 73505 10221 20194 48518 76066 8457/
                   333 58030 84620 87460=
201401030600 AAXX 03064 67663 11480 80403 10191 20187 48502 60274 76166 8357/
                   333 10287 20180 58009 81918 83618 88460
                   555 00/// 20000=
201401022100 AAXX 02214 67663 NIL=
201401021800 AAXX 02184 67663 NIL=
201401021500 AAXX 02154 67663 NIL=
201401021200 AAXX 02124 67663 NIL=
201401020900 AAXX 02094 67663 NIL=
201401020600 AAXX 02064 67663 32980 83303 10209 20192 48495 8803/
                   333 10267 20196 59015 88360=
201401020000 AAXX 02004 67663 NIL=
201401012100 AAXX 01214 67663 NIL=
201401011800 AAXX 01184 67663 NIL=
201401011500 AAXX 01154 67663 NIL=
201401010900 AAXX 01094 67663 NIL=
201401010600 AAXX 01064 67663 NIL=

################################################################################
#  SYNOPS from 67665, Lusaka Internationalairport (Zambia) | 15-19S | 028-27E | 1152 m
################################################################################
201401310300 AAXX 31034 67665 42380 53106 10186 20177 48510 84632
                   333 59013 84708 83360 82080=
201401310000 AAXX 31004 67665 42380 33004 10190 20174 48510 82632
                   333 59008 82707 84080=
201401302100 AAXX 30214 67665 42980 53203 10200 20169 48521 83032
                   333 58001 83360 83080=
201401301800 AAXX 30184 67665 42980 42804 10224 20170 48503 82032
                   333 10285 59011 82360 84080=
201401301500 AAXX 30154 67665 42680 52906 10276 20194 48489 84232
                   333 59006 84840 82360 85080=
201401301200 AAXX 30124 67665 42580 73204 10240 20180 48509 9583/
                   333 59015 84625 83828 87360=
201401300900 AAXX 30090 67665 NIL=
201401300600 AAXX 30064 67665 NIL=
201401300300 AAXX 30034 67665 NIL=
201401292100 AAXX 29214 67665 NIL=
201401291800 AAXX 29184 67665 NIL=
201401291500 AAXX 29154 67665 NIL=
201401291200 AAXX 29124 67665 NIL=
201401290900 AAXX 29094 67665 42480 63205 10244 20208 48517 85831
                   333 58003 82615 83820 85360=
201401290600 AAXX 29064 67665 42380 80803 10198 20174 48513 8467/
                   333 58002 84706 87359=
201401290300 AAXX 29034 67665 41256 71203 10190 20169 48500 76022 8767/
                   333 58011 87704 88359=
201401290000 AAXX 29004 67665 42257 71203 10192 20165 48501 876//
                   333 58005 87705=
201401282100 AAXX 28214 67665 42660 60202 10197 20171 48514 81930
                   333 58005 81945 85360=
201401281800 AAXX 28184 67665 42660 72105 10197 20174 48496 82930
                   333 58006 82930 86360=
201401281500 AAXX 28154 67665 41660 70203 10201 20188 58475 71799 86971
                   333 58004 81935 85638 84459 81080=
201401281200 AAXX 28124 67665 42458 72809 10266 20207 48494 79522 86831
                   333 59001 83625 84828 81930 81360=
201401280900 AAXX 28094 67665 42460 80403 10236 20214 48514 70244 8773/
                   333 58003 87705 87359=
201401280600 AAXX 28064 67665 11358 80804 10207 20204 48512 69914 71042 8773/
                   333 10/// 20/// 58009 87708 88359=
201401280300 AAXX 28034 67665 41/01 90803 10185 20185 48489 74544 8////
                   333 58010 8////=
201401272100 AAXX 27214 67665 42680 70903 10201 20186 48509 81932
                   333 58013 81940 82360 86080=
201401271800 AAXX 27184 67665 42680 70902 10210 20188 48492 81932
                   333 10264 58003 81940 83360 86080=
201401271500 AAXX 27154 67665 42580 72203 10237 20189 48476 82132
                   333 58003 82825 83359 85080=
201401271200 AAXX 27124 67665 42456 72712 10232 20189 48490 8787/
                   333 58017 84612 85815 86359=
201401270900 AAXX 27094 67665 42480 72805 10225 20196 48511 8583/
                   333 58011 83610 84812 86360=
201401270600 AAXX 27064 67665 NIL=
201401270300 AAXX 27034 67665 41/02 92802 10186 20171 48532 74322 89///
                   333 59004 8////=
201401270000 AAXX 27004 67665 41358 73302 10180 20180 48481 76022 8577/
                   333 59002 85705 87459=
201401262100 AAXX 26214 67665 42760 71003 10194 20179 48495 8193/
                   333 59016 81956 87360=
201401261800 AAXX 26184 67665 41759 71504 10193 20193 48487 78099 8194/
                   333 10290 59009 81950 87459=
201401261500 AAXX 26154 67665 42660 73205 10224 20193 48471 71792 81932
                   333 59002 81940 85840 84360 83080=
201401261200 AAXX 26124 67665 42660 62703 10273 20179 48478 85232
                   333 59006 85835 83360 81080=
201401260900 AAXX 26094 67665 41560 72805 10232 20200 48499 76022 8553/
                   333 59011 85620 87359=
201401260600 AAXX 26061 67665 11460 73303 10194 20188 48496 60044 76042 8253/
                   333 10330 20//0 59011 82610 87360=
201401251800 AAXX 25184 67665 41758 81302 10197 20197 48497 79599 8197/
                   333 10330 58008 81950 87459=
201401251500 AAXX 25154 67665 41660 71206 10240 20196 48475 71799 8193/
                   333 59006 81940 83845 87360=
201401251200 AAXX 25124 67665 42660 63304 10278 20179 48485 82080=
201401250900 AAXX 25094 67665 42460 63004 10249 20201 48512 85801
                   333 58003 84618 84820 85080=
201401250600 AAXX 25064 67665 12359 53006 10200 20197 48508 60674 72842 82631
                   333 10274 20/// 58002 82708 83612 82360 84080=
201401250000 AAXX 25004 67665 NIL=
201401242100 AAXX 24214 67665 NIL=
201401241800 AAXX 24184 67665 42960 40502 10200 20185 48489 83032
                   333 10274 59002 83359 83080=
201401241500 AAXX 24154 67665 42659 61404 10215 20202 48478 72992 81932
                   333 59001 81940 83359 85079=
201401241200 AAXX 24120 67665 NIL=
201401240900 AAXX 24094 67665 41559 61006 10235 20191 48508 76822 86202
                   333 59012 86825 81080=
201401240600 AAXX 24064 67665 NIL=
201401240500 AAXX 24054 67665 12480 40903 10218 20165 48509 60044 81131
                   333 10314 20//0 59012 81810 83360 81080
                   555 00///=
201401240300 AAXX 24034 67665 42970 60602 10194 20179 48487 7022/ 8603/
                   333 59014 86360=
201401240000 AAXX 24004 67665 NIL=
201401231500 AAXX 23154 67665 NIL=
201401231200 AAXX 23124 67665 NIL=
201401230900 AAXX 23094 67665 42680 71209 10265 20200 48524 86271
                   333 59011 82940 85842 83459 81080=
201401230600 AAXX 23064 67665 31660 62904 10225 20206 48521 70522 83531
                   333 10310 20/// 59009 83630 85360 82080=
201401230300 AAXX 23034 67665 42980 22404 10188 20178 48500 82031
                   333 59008 82360 81080=
201401230000 AAXX 23004 67665 42980 42203 10205 20178 48502 84031
                   333 59008 84360 81080=
201401222100 AAXX 22214 67665 42980 43003 10200 20180 48509 83031
                   333 59008 83360 81080=
201401221800 AAXX 22184 67665 42980 60805 10225 20187 48510 70222 85031
                   333 59007 85360 84080=
201401221500 AAXX 22154 67665 42680 61209 10254 20181 48496 70222 82931
                   333 59006 82938 87360=
201401221200 AAXX 22124 67665 41560 71005 10230 20184 48515 71799 81970
                   333 58002 81928 84830 87360=
201401220900 AAXX 22094 67665 NIL=
201401220600 AAXX 22064 67665 NIL=
201401220300 AAXX 22034 67665 42980 70902 10184 20174 48507 87030
                   333 59011 87360=
201401220000 AAXX 22004 67665 NIL=
201401212100 AAXX 21214 67665 42980 60000 10199 20184 48517 84032
                   333 59013 84360 83080=
201401211800 AAXX 21184 67665 41780 73003 10216 20187 48515 71322 81932
                   333 59001 81956 83360 85080=
201401211200 AAXX 21124 67665 42680 62903 10285 20186 48520 86202
                   333 59005 86848 84080=
201401210900 AAXX 21094 67665 42680 60307 10261 20182 48539 85201
                   333 58000 85838 81080=
201401210600 AAXX 21064 67665 32480 60803 10217 20190 48539 70322 81532
                   333 10284 20/// 59002 81620=
201401210300 AAXX 21034 67665 42980 40000 10193 20181 48518 84030
                   333 59002 84360=
201401202100 AAXX 20214 67665 42980 31003 10204 20189 48529 83030
                   333 58001 83360=
201401201800 AAXX 20184 67665 42980 61303 10219 20194 48514 83032 89005 83360 83080=
201401201200 AAXX 20124 67665 42680 63003 10292 20168 48525 85202
                   333 59003 85845 82080=
201401200900 AAXX 20094 67665 42680 50405 10264 20183 48539 85201
                   333 59003 85835 81080=
201401200600 AAXX 20064 67665 32980 21204 10225 20191 48541 81031
                   333 10295 20/// 58002 81360 82080=
201401200300 AAXX 20034 67665 42980 10903 10176 20153 48529 81030
                   333 58001 81360 91019=
201401200000 AAXX 20004 67665 NIL=
201401192100 AAXX 19214 67665 NIL=
201401191800 AAXX 19184 67665 42980 31003 10220 20183 48519 82032
                   333 10294 58009 82080=
201401191500 AAXX 19154 67665 42780 51006 10280 20178 48512 84232
                   333 58013 84856 81360 82080=
201401191200 AAXX 19124 67665 42680 63403 10279 20175 48527 85202
                   333 58007 85845 83080=
201401190900 AAXX 19094 67665 42680 60405 10269 20182 48543 84202
                   333 59009 84830 82080=
201401190600 AAXX 19064 67665 32980 30102 10216 20192 48539 81032
                   333 58007 81360 83080=
201401190000 AAXX 19004 67665 NIL=
201401181800 AAXX 18184 67665 42980 20000 10213 20166 48509 81032
                   333 10290 59003 81360 82080=
201401181200 AAXX 18124 67665 41659 61307 10259 20180 48519 71622 81930
                   333 59005 81935 86838 81360=
201401180900 AAXX 18094 67665 42580 51003 10258 20196 48533 70222 85230
                   333 59011 85825 82360=
201401180600 AAXX 18061 67665 41980 31103 10220 20182 48530 60234 70200 83030
                   333 10275 20//0 59014 83360=
201401180300 AAXX 18034 67665 42980 42403 10178 20155 48510 84030
                   333 59014 84360=
201401180000 AAXX 18004 67665 42980 42000 10181 20165 48515 84030
                   333 59013 84360=
201401172100 AAXX 17214 67665 42980 31303 10185 20161 48525 83030
                   333 59021 83360=
201401171800 AAXX 17184 67665 42559 61102 10210 20169 48512 82960
                   333 58018 82935 83360=
201401171200 AAXX 17120 67665 NIL=
201401170900 AAXX 17090 67665 NIL=
201401170600 AAXX 17064 67665 11460 31002 10196 20187 48543 60064 70142 81531
                   333 10275 20//0 59010 81610 82360 81080=
201401170300 AAXX 17034 67665 42960 10004 10185 20177 48524 70222 82031
                   333 59015 81360 82080=
201401162100 AAXX 16214 67665 NIL=
201401161800 AAXX 16184 67665 42980 20000 10205 20174 48530 82031
                   333 58000 82360 82080=
201401161500 AAXX 16154 67665 41660 71004 10205 20191 48522 79596 82931
                   333 58010 82942 84842 83360=
201401161200 AAXX 16124 67665 41680 61410 10260 20186 48543 71722 82931
                   333 58013 82938 85838 82360 81080=
201401160900 AAXX 16094 67665 42580 60405 10255 20180 48555 85231
                   333 58010 85820 83360 81080=
201401160600 AAXX 16064 67665 NIL=
201401160300 AAXX 16034 67665 42980 32903 10183 20171 48537 83030
                   333 58017 83360=
201401160000 AAXX 16004 67665 42980 23004 10182 20166 48533 81031
                   333 58019 81360 81080=
201401152100 AAXX 15214 67665 42980 32903 10194 20184 48542 82031
                   333 58018 82360 81080=
201401151200 AAXX 15124 67665 42580 71005 10255 20163 48530 70222 87830
                   333 58018 83830 82635 85360=
201401150900 AAXX 15094 67665 42460 70808 10224 20194 48546 71522 852//
                   333 58022 85620 83825=
201401150600 AAXX 15064 67665 32460 71106 10203 20186 48540 70322 8557/
                   333 10275 20//0 58020 85612 87360=
201401150300 AAXX 15034 67665 41357 71204 10185 20180 48521 74222 877//
                   333 58011 87705=
201401142100 AAXX 14214 67665 42980 61203 10201 20186 48526 86030
                   333 58007 86360=
201401141800 AAXX 14184 67665 41680 61003 10214 20192 48513 71322 81930
                   333 58008 81945 86360=
201401141200 AAXX 14124 67665 42680 60914 10256 20167 48512 84231
                   333 59001 84835 81360 83080=
201401140900 AAXX 14094 67665 42480 70910 10242 20185 48523 70222 8553/
                   333 59017 85620 84360=
201401140600 AAXX 14064 67665 NIL=
201401140300 AAXX 14034 67665 42980 20000 10187 20174 48512 82030
                   333 59008 82360=
201401132100 AAXX 13214 67665 42980 41103 10202 20179 48519 70222 84031
                   333 59010 84360 82080=
201401131800 AAXX 13184 67665 42780 50804 10219 20186 48507 81932
                   333 58004 81956 83360 84080=
201401131500 AAXX 13154 67665 42680 51211 10240 20188 48493 84232
                   333 59029 81935 84835 82360 81080=
201401131200 AAXX 13124 67665 42680 51107 10263 20184 48513 84232
                   333 58023 84840 81360 81080=
201401130900 AAXX 13094 67665 42580 70807 10245 20187 48541 86830
                   333 59005 83825 85630 82360=
201401130600 AAXX 13064 67665 12360 71203 10205 20191 48541 60244 8363/
                   333 10275 20/// 59006 87309 87360
                   555 00///=
201401130300 AAXX 13034 67665 42360 70805 10187 20155 48518 876//
                   333 59012 87706 91019=
201401130000 AAXX 13004 67665 42980 30803 10215 20169 48522 83030
                   333 59015 83360=
201401122100 AAXX 12214 67665 42980 31002 10201 20171 48528 83030
                   333 59013 83360 91020=
201401121800 AAXX 12184 67665 42960 51204 10194 20182 48527 70222 84031
                   333 10265 58003 84360 83080=
201401121500 AAXX 12154 67665 41659 71006 10209 20190 48518 76362 81930
                   333 58004 81940 84840 86359=
201401121200 AAXX 12124 67665 42680 70704 10203 20195 48528 72162 87830
                   333 58018 85830 84632 84359=
201401120900 AAXX 12094 67665 42680 70907 10235 20173 48546 87830
                   333 58004 86835 83637 81360=
201401120600 AAXX 12064 67665 32480 61209 10218 20174 48559 83570
                   333 10300 20/// 58011 83628 86459=
201401120300 AAXX 12034 67665 42980 61306 10186 20178 48531 86030
                   333 58014 86360=
201401120000 AAXX 12004 67665 42980 71009 10189 20179 48533 8703/
                   333 58018 87360=
201401112100 AAXX 11214 67665 42980 71304 10204 20173 48541 8703/
                   333 58020 87360=
201401111800 AAXX 11184 67665 42780 72403 10211 20181 48527 8193/
                   333 10276 58015 81956 87360=
201401111500 AAXX 11154 67665 42680 73503 10224 20184 48515 81932
                   333 58024 81945 85360 83080=
201401111200 AAXX 11124 67665 42680 73404 10264 20195 48518 83232
                   333 58010 83838 81360 86280=
201401110900 AAXX 11094 67665 42480 60000 10228 20189 48539 83831
                   333 58019 82615 83818 83360 84080=
201401110600 AAXX 11064 67665 12380 72703 10200 20191 48535 60394 70222 85631
                   333 10300 2//// 58012 85709 85360 82080=
201401110300 AAXX 11034 67665 42960 62403 10195 20179 48519 70222 85031
                   333 58009 85360 82080=
201401110000 AAXX 11004 67665 42960 62502 10195 20179 48517 70222 85031
                   333 58016 85360 82080=
201401101800 AAXX 10184 67665 41758 82504 10189 20189 48510 79599 8293/
                   333 58012 82956 83360=
201401101500 AAXX 10154 67665 42780 62410 10275 20194 48493 70222 85201
                   333 58013 82950 81080=
201401101200 AAXX 10124 67665 42680 63204 10270 20196 48510 70122 83230
                   333 10//0 20//0 58019 83840 86360=
201401100900 AAXX 10094 67665 42680 73207 10252 48523 8117/
                   333 58000 81830 87360=
201401100600 AAXX 10064 67665 32375 30404 10209 20194 48525 81631
                   333 10280 20//0 58007 81709 82360 81080
                   555 10///=
201401091800 AAXX 09184 67665 42559 62702 10200 20160 48499 8193/
                   333 58001 81940 85360 81080=
201401091500 AAXX 09154 67665 NIL=
201401091200 AAXX 09124 67665 41670 61103 10279 20189 48492 70522 84232
                   333 58004 84845 85360 81080=
201401090900 AAXX 09094 67665 42680 71806 10250 20184 48522 70322 81231
                   333 58020 81835 87360 81030=
201401090600 AAXX 09064 67665 31980 61506 10215 20194 48512 71022 83031
                   333 10310 20/// 58017 83360 86080=
201401090000 AAXX 09004 67665 41880 33504 10189 20159 48496 71300 81931
                   333 58021 81958 82360 83080=
201401082100 AAXX 08214 67665 42980 42604 10206 20167 48508 70100 83031
                   333 58020 83360 83080=
201401081800 AAXX 08184 67665 NIL=
201401081500 AAXX 08154 67665 42780 72903 10240 20171 48483 70222 81932
                   333 58016 81950 83360 86080=
201401081200 AAXX 08124 67665 42680 72504 10279 20164 48488 81932
                   333 58009 81945 83848 82360 86080=
201401080900 AAXX 08094 67665 42680 53203 10275 20194 48505 81232
                   333 58010 81840 85080=
201401080600 AAXX 08061 67665 32980 53403 10240 20189 48505 82082
                   333 10309 20//0 59001 82360 85080=
201401080300 AAXX 08034 67665 42980 21002 10187 20171 48482 82030
                   333 59001 82360=
201401080000 AAXX 08004 67665 NIL=
201401072100 AAXX 07214 67665 42980 30000 10214 20159 48489 81032
                   333 58008 81360 83080=
201401071800 AAXX 07184 67665 NIL=
201401071500 AAXX 07154 67665 42680 62603 10290 20195 48473 70222 82201
                   333 58010 82850 81030 86080=
201401071200 AAXX 07124 67665 42680 32707 10295 20187 48481 70200 83201
                   333 59005 83840 81080=
201401070900 AAXX 07094 67665 42680 12909 10273 20187 48489 81231
                   333 58007 81830 81360 81080=
201401070600 AAXX 07064 67665 NIL=
201401070300 AAXX 07034 67665 42980 12704 10179 20172 48482 81030
                   333 58010 81360=
201401070000 AAXX 07004 67665 NIL=
201401062100 AAXX 06214 67665 42980 30000 10202 20168 48480 82031
                   333 58024 82360 81080=
201401061800 AAXX 06184 67665 42880 42703 10220 20186 48468 70122 81932
                   333 58016 81957 81360 85080=
201401061500 AAXX 06154 67665 42780 62706 10286 20172 48463 70222 81962
                   333 58019 81956 84360 83080=
201401061200 AAXX 06124 67665 42680 62708 10282 20198 48474 58015 70322 84080 85202 85838=
201401060900 AAXX 06094 67665 42580 10246 20158 48491 81232
                   333 58006 81820 81360 87080=
201401060600 AAXX 06064 67665 NIL=
201401060300 AAXX 06034 67665 41760 53004 10186 20178 48473 72992 81931
                   333 59002 81957 85360 81080=
201401060000 AAXX 06004 67665 41758 72709 10174 20174 48463 79599 8297/
                   333 59014 82950 87459=
201401052100 AAXX 05214 67665 42780 20302 10224 20174 48469 81031
                   333 59024 81957 82360 81080=
201401051932 AAXX 05204 67665 42780 43002 10244 20186 48454 72992 91932
                   333 10296 59039 81856 84360 81080=
201401051500 AAXX 05154 67665 42780 52705 10280 20178 48443 70122 85232
                   333 59027 85856 81360 82080=
201401051200 AAXX 05124 67665 42680 63006 10288 20184 48460 84832
                   333 59033 84840 81642 82360 85080=
201401050900 AAXX 05094 67665 NIL=
201401050300 AAXX 05034 67665 42980 50905 10190 20151 48475 71022 84031
                   333 59026 84360 81080=
201401050000 AAXX 05004 67665 42960 83008 10190 20183 48479 70262 87031
                   333 59032 87360 81080=
201401042100 AAXX 04214 67665 42760 83005 10196 20174 48498 70292 8197/
                   333 59022 81956 87459=
201401041800 AAXX 04184 67665 41758 82708 10196 20196 48488 79599 8297/
                   333 10289 59008 82950 87459=
201401041500 AAXX 04154 67665 42680 23005 10284 20183 48470 82201
                   333 59022 82845 81080=
201401041200 AAXX 04124 67665 42680 53205 10270 20196 48491 83202
                   333 59022 83830 85080=
201401040900 AAXX 04094 67665 42460 53504 10232 20199 48514 83531
                   333 59009 83615 83360 84080=
201401040600 AAXX 04064 67665 11359 80503 10190 20184 48518 60234 75022 8567/
                   333 10270 2//// 59004 85705 88459=
201401040000 AAXX 04004 67665 41660 71205 10182 20165 72192 82930
                   333 58008 82940 84359=
201401031800 AAXX 03184 67665 42680 40604 10233 20202 48498 70222 81931
                   333 58011 81942=
201401031500 AAXX 03154 67665 42680 61004 10254 20196 48488 70122 84831
                   333 10270 20/// 58018 81932 84832 83360 82080=
201401031200 AAXX 03124 67665 42560 72903 10254 20196 48511 70222 86832
                   333 58020 86825 83622 81360 81080=
201401030900 AAXX 03094 67665 42460 73305 10231 20200 48520 8353/
                   333 58019 83612 87360 91018=
201401030600 AAXX 03064 67665 11359 83402 10190 20188 48522 60404 78162 8577/
                   333 58016 85708 88459=
201401022100 AAXX 02214 67665 NIL=
201401021800 AAXX 02184 67665 42460 51000 10203 20173 81933
                   333 59001 81925 84360=
201401021500 AAXX 02154 67665 NIL=
201401021200 AAXX 02124 67665 42480 70507 10210 20180 70292 8197/
                   333 58006 84615 81920 87459=
201401020900 AAXX 02094 67665 41460 73004 10236 20199 48505 71022 8453/
                   333 59002 84616 87450=
201401020600 AAXX 02064 67665 NIL=
201401020000 AAXX 02004 67665 NIL=
201401012100 AAXX 01214 67665 NIL=
201401011800 AAXX 01184 67665 42960 40703 10221 20176 48488 70122 83031
                   333 59003 83360 83080=
201401011500 AAXX 01154 67665 NIL=
201401010900 AAXX 01094 67665 NIL=
201401010600 AAXX 01064 67665 NIL=

################################################################################
#  SYNOPS from 67666, Lusaka City Airport (Zambia) | 15-25S | 028-19E | 1280 m
################################################################################
201401310300 AAXX 31034 67666 NIL=
201401310000 AAXX 31004 67666 NIL=
201401302100 AAXX 30214 67666 NIL=
201401301800 AAXX 30184 67666 NIL=
201401301500 AAXX 30154 67666 NIL=
201401301200 AAXX 30124 67666 NIL=
201401300900 AAXX 30094 67666 42580 80705 10217 20183 48512 887//
                   333 58005 88458 91017=
201401300600 AAXX 30064 67666 32480 72705 10193 20181 48499 60174 8477/
                   333 10269 20171 58005 84710 87458 91017=
201401300300 AAXX 30034 67666 NIL=
201401292100 AAXX 29214 67666 NIL=
201401291800 AAXX 29184 67666 NIL=
201401291500 AAXX 29154 67666 NIL=
201401291200 AAXX 29124 67666 NIL=
201401290900 AAXX 29094 67666 NIL=
201401290600 AAXX 29064 67666 12980 70000 10200 20192 48504 60014 8707/
                   333 10275 20184 58001 87459 91017=
201401290300 AAXX 29034 67666 NIL=
201401290000 AAXX 29004 67666 NIL=
201401282100 AAXX 28214 67666 NIL=
201401281800 AAXX 28184 67666 NIL=
201401281500 AAXX 28154 67666 NIL=
201401281200 AAXX 28120 67666 NIL=
201401280900 AAXX 28094 67666 NIL=
201401280600 AAXX 28064 67666 11210 80912 10205 20198 48504 60074 74544 887//
                   333 10244 20186 58006 88703
                   555 00/// 20015 91017=
201401280300 AAXX 28034 67666 NIL=
201401272100 AAXX 27214 67666 NIL=
201401271800 AAXX 27184 67666 NIL=
201401271500 AAXX 27154 67666 NIL=
201401271200 AAXX 27124 67666 NIL=
201401270900 AAXX 27094 67666 NIL=
201401270600 AAXX 27064 67666 NIL=
201401270300 AAXX 27034 67666 NIL=
201401270000 AAXX 27004 67666 NIL=
201401262100 AAXX 26214 67666 NIL=
201401261800 AAXX 26184 67666 NIL=
201401261500 AAXX 26154 67666 NIL=
201401261200 AAXX 26124 67666 NIL=
201401260900 AAXX 26094 67666 NIL=
201401260600 AAXX 26064 67666 NIL=
201401251800 AAXX 25184 67666 NIL=
201401251500 AAXX 25154 67666 NIL=
201401251200 AAXX 25124 67666 NIL=
201401250900 AAXX 25094 67666 NIL=
201401250600 AAXX 25064 67666 NIL=
201401250000 AAXX 25004 67666 NIL=
201401242100 AAXX 24214 67666 NIL=
201401241800 AAXX 24184 67666 NIL=
201401241500 AAXX 24154 67666 NIL=
201401241200 AAXX 24120 67666 NIL=
201401240900 AAXX 24094 67666 42580 70908 10250 20198 48503 84232
                   333 59010 84825 84360 91016=
201401240600 AAXX 24064 67666 12480 50809 10225 20196 48501 60044 82180
                   333 10284 20180 59014 82815 83358 91016=
201401240300 AAXX 24034 67666 NIL=
201401240000 AAXX 24004 67666 NIL=
201401231500 AAXX 23154 67666 NIL=
201401231200 AAXX 23124 67666 NIL=
201401230900 AAXX 23094 67666 NIL=
201401230600 AAXX 23064 67666 11978 31603 10232 20198 48515 69904 70500 83031
                   333 10265 20177 59012 83360 81080 91018=
201401230300 AAXX 23034 67666 NIL=
201401230000 AAXX 23004 67666 NIL=
201401222100 AAXX 22214 67666 NIL=
201401221800 AAXX 22184 67666 NIL=
201401221500 AAXX 22154 67666 NIL=
201401221200 AAXX 22124 67666 NIL=
201401220900 AAXX 22094 67666 NIL=
201401220600 AAXX 22064 67666 11370 71805 10195 20179 48523 60014 70522 8357/
                   333 10276 20171 59008 83610 87459 91017=
201401220000 AAXX 22004 67666 NIL=
201401212100 AAXX 21214 67666 NIL=
201401211800 AAXX 21184 67666 NIL=
201401211200 AAXX 21124 67666 NIL=
201401210900 AAXX 21094 67666 NIL=
201401210600 AAXX 21064 67666 12980 70906 10211 20179 48532 60074 8707/
                   333 10289 20170 59002 87459 91020=
201401210300 AAXX 21034 67666 NIL=
201401202100 AAXX 20214 67666 NIL=
201401201800 AAXX 20184 67666 NIL=
201401201200 AAXX 20124 67666 NIL=
201401200900 AAXX 20094 67666 42580 61205 10255 20180 48524 84201
                   333 59002 84825 82080 91019=
201401200600 AAXX 20064 67666 32980 50905 10227 20176 48532 82031
                   333 10290 20183 58004 82359 83080 91020=
201401200000 AAXX 20004 67666 NIL=
201401192100 AAXX 19214 67666 NIL=
201401191800 AAXX 19184 67666 NIL=
201401191500 AAXX 19154 67666 NIL=
201401191200 AAXX 19124 67666 NIL=
201401190900 AAXX 19094 67666 NIL=
201401190600 AAXX 19064 67666 NIL=
201401190000 AAXX 19004 67666 NIL=
201401181800 AAXX 18184 67666 NIL=
201401181200 AAXX 18124 67666 NIL=
201401180900 AAXX 18094 67666 NIL=
201401180600 AAXX 18064 67666 NIL=
201401180300 AAXX 18034 67666 NIL=
201401180000 AAXX 18004 67666 NIL=
201401171800 AAXX 17184 67666 NIL=
201401171200 AAXX 17124 67666 42680 62707 10271 20170 48506 84230
                   333 59016 84830 82359 91017=
201401170900 AAXX 17094 67666 42480 60407 10251 20181 48533 85200
                   333 59015 85820 91020=
201401170600 AAXX 17064 67666 32980 51005 10203 20183 48529 60014 83031
                   333 10262 20157 59013 83359 82280 91020=
201401170300 AAXX 17034 67666 NIL=
201401162100 AAXX 16214 67666 NIL=
201401161800 AAXX 16184 67666 NIL=
201401161500 AAXX 16154 67666 NIL=
201401161200 AAXX 16124 67666 NIL=
201401160900 AAXX 16094 67666 NIL=
201401160600 AAXX 16064 67666 12480 70000 10190 20174 48547 60034 8257/
                   333 10274 20162 58013 82610 87458 91022=
201401151200 AAXX 15124 67666 NIL=
201401150900 AAXX 15094 67666 42480 70910 10222 20176 48535 878//
                   333 58020 84615 83820 91020=
201401150600 AAXX 15064 67666 12480 70906 10195 20179 48534 69914 8357/
                   333 10257 20170 58020 83610 87459 91020=
201401140600 AAXX 14064 67666 NIL=
201401140300 AAXX 14034 67666 NIL=
201401132100 AAXX 13214 67666 NIL=
201401131800 AAXX 13184 67666 NIL=
201401131500 AAXX 13154 67666 NIL=
201401131200 AAXX 13124 67666 NIL=
201401130900 AAXX 13094 67666 NIL=
201401130600 AAXX 13064 67666 12480 80803 10201 20185 48539 60044 886//
                   333 10251 20179 59004 88710 91020=
201401091500 AAXX 09154 67666 NIL=
201401091200 AAXX 09124 67666 NIL=
201401090900 AAXX 09094 67666 42980 73203 10251 20185 48505 83038
                   333 5//// 83359 87280 91017=
201401090600 AAXX 09064 67666 32980 70000 10229 20184 48513 83038
                   333 10233 20177 58012 83359 87280 91017=
201401090000 AAXX 09004 67666 NIL=
201401082100 AAXX 08214 67666 NIL=
201401081800 AAXX 08184 67666 NIL=
201401081500 AAXX 08154 67666 NIL=
201401081200 AAXX 08124 67666 NIL=
201401080900 AAXX 08094 67666 NIL=
201401080600 AAXX 08064 67666 32980 70000 10245 20177 48500 83038
                   333 10295 20180 58001 83359 87280
                   555 00/// 20000 91016=
201401080300 AAXX 08034 67666 NIL=
201401080000 AAXX 08004 67666 NIL=
201401072100 AAXX 07214 67666 NIL=
201401071800 AAXX 07184 67666 NIL=
201401071500 AAXX 07154 67666 NIL=
201401071200 AAXX 07124 67666 NIL=
201401070900 AAXX 07094 67666 NIL=
201401070600 AAXX 07064 67666 NIL=
201401070300 AAXX 07034 67666 NIL=
201401070000 AAXX 07004 67666 NIL=
201401062100 AAXX 06214 67666 NIL=
201401061800 AAXX 06184 67666 NIL=
201401061500 AAXX 06154 67666 NIL=
201401061200 AAXX 06124 67666 NIL=
201401060900 AAXX 06094 67666 NIL=
201401060600 AAXX 06064 67666 NIL=
201401060300 AAXX 06034 67666 NIL=
201401052100 AAXX 05214 67666 NIL=
201401051800 AAXX 05184 67666 NIL=
201401051500 AAXX 05154 67666 NIL=
201401051200 AAXX 05124 67666 NIL=
201401050900 AAXX 05094 67666 NIL=
201401050000 AAXX 05004 67666 NIL=
201401042100 AAXX 04214 67666 NIL=
201401041800 AAXX 04184 67666 NIL=
201401041500 AAXX 04154 67666 NIL=
201401041200 AAXX 04124 67666 NIL=
201401040900 AAXX 04094 67666 NIL=
201401040600 AAXX 04064 67666 NIL=
201401040000 AAXX 04004 67666 NIL=
201401031800 AAXX 03184 67666 NIL=
201401031500 AAXX 03154 67666 NIL=
201401031200 AAXX 03124 67666 NIL=
201401030900 AAXX 03094 67666 NIL=
201401030600 AAXX 03064 67666 11380 80000 10187 20181 48509 60114 75020 887//
                   333 10321 20171 58013 88708 91018=
201401022100 AAXX 02214 67666 NIL=
201401021800 AAXX 02184 67666 NIL=
201401021500 AAXX 02154 67666 NIL=
201401021200 AAXX 02124 67666 NIL=
201401020900 AAXX 02094 67666 42480 80703 10237 20198 48494 8557/
                   333 59001 85615 88458 91016=
201401020600 AAXX 02064 67666 31478 80705 10205 20191 48502 70500 8457/
                   333 10266 20190 58001 84610 88458 91016=
201401020000 AAXX 02004 67666 NIL=
201401012100 AAXX 01214 67666 NIL=
201401011800 AAXX 01184 67666 NIL=
201401011500 AAXX 01154 67666 NIL=
201401010900 AAXX 01094 67666 NIL=
201401010600 AAXX 01064 67666 NIL=

################################################################################
#  SYNOPS from 67667, Mount Makulu (Zambia) | 15-33S | 028-15E | 1213 m
################################################################################
201401310300 AAXX 31034 67667 NIL=
201401310000 AAXX 31004 67667 NIL=
201401302100 AAXX 30214 67667 NIL=
201401301800 AAXX 30184 67667 NIL=
201401301500 AAXX 30154 67667 NIL=
201401301200 AAXX 30124 67667 NIL=
201401300900 AAXX 30094 67667 NIL=
201401300600 AAXX 30064 67667 NIL=
201401300300 AAXX 30034 67667 NIL=
201401292100 AAXX 29214 67667 NIL=
201401291800 AAXX 29184 67667 NIL=
201401291500 AAXX 29154 67667 NIL=
201401291200 AAXX 29124 67667 NIL=
201401290900 AAXX 29094 67667 NIL=
201401290600 AAXX 29064 67667 NIL=
201401290300 AAXX 29034 67667 NIL=
201401290000 AAXX 29004 67667 NIL=
201401282100 AAXX 28214 67667 NIL=
201401281800 AAXX 28184 67667 NIL=
201401281500 AAXX 28154 67667 NIL=
201401281200 AAXX 28120 67667 NIL=
201401280900 AAXX 28094 67667 NIL=
201401280600 AAXX 28064 67667 NIL=
201401280300 AAXX 28034 67667 NIL=
201401272100 AAXX 27214 67667 NIL=
201401271800 AAXX 27184 67667 NIL=
201401271500 AAXX 27154 67667 NIL=
201401271200 AAXX 27124 67667 NIL=
201401270900 AAXX 27094 67667 NIL=
201401270600 AAXX 27064 67667 NIL=
201401270300 AAXX 27034 67667 NIL=
201401270000 AAXX 27004 67667 NIL=
201401262100 AAXX 26214 67667 NIL=
201401261800 AAXX 26184 67667 NIL=
201401261500 AAXX 26154 67667 NIL=
201401261200 AAXX 26124 67667 NIL=
201401260900 AAXX 26094 67667 NIL=
201401260600 AAXX 26064 67667 NIL=
201401251800 AAXX 25184 67667 NIL=
201401251500 AAXX 25154 67667 NIL=
201401251200 AAXX 25124 67667 NIL=
201401250900 AAXX 25094 67667 NIL=
201401250600 AAXX 25064 67667 NIL=
201401250000 AAXX 25004 67667 NIL=
201401242100 AAXX 24214 67667 NIL=
201401241800 AAXX 24184 67667 NIL=
201401241500 AAXX 24154 67667 NIL=
201401241200 AAXX 24120 67667 NIL=
201401240900 AAXX 24094 67667 NIL=
201401240600 AAXX 24064 67667 NIL=
201401240300 AAXX 24034 67667 NIL=
201401240000 AAXX 24004 67667 NIL=
201401231500 AAXX 23154 67667 NIL=
201401231200 AAXX 23124 67667 NIL=
201401230900 AAXX 23094 67667 NIL=
201401230600 AAXX 23064 67667 NIL=
201401230300 AAXX 23034 67667 NIL=
201401230000 AAXX 23004 67667 NIL=
201401222100 AAXX 22214 67667 NIL=
201401221800 AAXX 22184 67667 NIL=
201401221500 AAXX 22154 67667 NIL=
201401221200 AAXX 22124 67667 NIL=
201401220900 AAXX 22094 67667 NIL=
201401220600 AAXX 22064 67667 NIL=
201401220000 AAXX 22004 67667 NIL=
201401212100 AAXX 21214 67667 NIL=
201401211800 AAXX 21184 67667 NIL=
201401211200 AAXX 21124 67667 NIL=
201401210900 AAXX 21094 67667 NIL=
201401210600 AAXX 21064 67667 NIL=
201401210300 AAXX 21034 67667 NIL=
201401202100 AAXX 20214 67667 NIL=
201401201800 AAXX 20184 67667 NIL=
201401201200 AAXX 20124 67667 NIL=
201401200900 AAXX 20094 67667 NIL=
201401200600 AAXX 20064 67667 NIL=
201401200000 AAXX 20004 67667 NIL=
201401192100 AAXX 19214 67667 NIL=
201401191800 AAXX 19184 67667 NIL=
201401191500 AAXX 19154 67667 NIL=
201401191200 AAXX 19124 67667 NIL=
201401190900 AAXX 19094 67667 NIL=
201401190600 AAXX 19064 67667 NIL=
201401190000 AAXX 19004 67667 NIL=
201401181800 AAXX 18184 67667 NIL=
201401181200 AAXX 18124 67667 NIL=
201401180900 AAXX 18094 67667 NIL=
201401180600 AAXX 18064 67667 NIL=
201401180300 AAXX 18034 67667 NIL=
201401180000 AAXX 18004 67667 NIL=
201401171800 AAXX 17184 67667 NIL=
201401171200 AAXX 17124 67667 NIL=
201401170900 AAXX 17090 67667 NIL=
201401170600 AAXX 17064 67667 NIL=
201401170300 AAXX 17034 67667 NIL=
201401162100 AAXX 16214 67667 NIL=
201401161800 AAXX 16184 67667 NIL=
201401161500 AAXX 16154 67667 NIL=
201401161200 AAXX 16124 67667 NIL=
201401160900 AAXX 16094 67667 NIL=
201401160600 AAXX 16064 67667 NIL=
201401151200 AAXX 15124 67667 NIL=
201401140600 AAXX 14064 67667 NIL=
201401140300 AAXX 14034 67667 NIL=
201401132100 AAXX 13214 67667 NIL=
201401131800 AAXX 13184 67667 NIL=
201401131500 AAXX 13154 67667 NIL=
201401131200 AAXX 13124 67667 NIL=
201401130900 AAXX 13094 67667 NIL=
201401091500 AAXX 09154 67667 NIL=
201401091200 AAXX 09124 67667 NIL=
201401090900 AAXX 09094 67667 NIL=
201401090600 AAXX 09064 67667 NIL=
201401090000 AAXX 09004 67667 NIL=
201401082100 AAXX 08214 67667 NIL=
201401081800 AAXX 08184 67667 NIL=
201401081500 AAXX 08154 67667 NIL=
201401081200 AAXX 08124 67667 NIL=
201401080900 AAXX 08094 67667 NIL=
201401080600 AAXX 08064 67667 NIL=
201401080300 AAXX 08034 67667 NIL=
201401080000 AAXX 08004 67667 NIL=
201401072100 AAXX 07214 67667 NIL=
201401071800 AAXX 07184 67667 NIL=
201401071500 AAXX 07154 67667 NIL=
201401071200 AAXX 07124 67667 NIL=
201401070900 AAXX 07094 67667 NIL=
201401070600 AAXX 07064 67667 NIL=
201401070300 AAXX 07034 67667 NIL=
201401070000 AAXX 07004 67667 NIL=
201401062100 AAXX 06214 67667 NIL=
201401061800 AAXX 06184 67667 NIL=
201401061500 AAXX 06154 67667 NIL=
201401061200 AAXX 06124 67667 NIL=
201401060900 AAXX 06094 67667 NIL=
201401060600 AAXX 06064 67667 NIL=
201401060300 AAXX 06034 67667 NIL=
201401052100 AAXX 05214 67667 NIL=
201401051800 AAXX 05184 67667 NIL=
201401051500 AAXX 05154 67667 NIL=
201401051200 AAXX 05124 67667 NIL=
201401050900 AAXX 05094 67667 NIL=
201401050000 AAXX 05004 67667 NIL=
201401042100 AAXX 04214 67667 NIL=
201401041800 AAXX 04184 67667 NIL=
201401041500 AAXX 04154 67667 NIL=
201401041200 AAXX 04124 67667 NIL=
201401040900 AAXX 04094 67667 NIL=
201401040600 AAXX 04064 67667 NIL=
201401040000 AAXX 04004 67667 NIL=
201401031800 AAXX 03184 67667 NIL=
201401031500 AAXX 03154 67667 NIL=
201401031200 AAXX 03124 67667 NIL=
201401030900 AAXX 03094 67667 NIL=
201401030600 AAXX 03064 67667 NIL=
201401022100 AAXX 02214 67667 NIL=
201401021800 AAXX 02184 67667 NIL=
201401021500 AAXX 02154 67667 NIL=
201401021200 AAXX 02124 67667 NIL=
201401020900 AAXX 02094 67667 NIL=
201401020600 AAXX 02064 67667 NIL=
201401020000 AAXX 02004 67667 NIL=
201401012100 AAXX 01214 67667 NIL=
201401011800 AAXX 01184 67667 NIL=
201401011500 AAXX 01154 67667 NIL=
201401010900 AAXX 01094 67667 NIL=
201401010600 AAXX 01064 67667 NIL=

################################################################################
#  SYNOPS from 67673, Petauke (Zambia) | 14-15S | 031-17E | 1035 m
################################################################################
201401310300 AAXX 31034 67673 NIL=
201401310000 AAXX 31004 67673 NIL=
201401302100 AAXX 30214 67673 NIL=
201401301800 AAXX 30184 67673 NIL=
201401301500 AAXX 30154 67673 NIL=
201401301200 AAXX 30124 67673 42584 62101 10262 20233 48513 85871
                   333 58007 85830 83632 86360 85080=
201401300900 AAXX 30094 67673 42580 72001 10247 20211 48527 8487/
                   333 58003 84828 83629 87360=
201401300600 AAXX 30064 67673 12570 82102 10205 20189 48519 69904 8257/
                   333 10267 20184 58002 82623 88460=
201401300300 AAXX 30034 67673 NIL=
201401292100 AAXX 29214 67673 NIL=
201401291800 AAXX 29184 67673 NIL=
201401291500 AAXX 29154 67673 NIL=
201401291200 AAXX 29124 67673 42584 60202 10263 20221 48506 86231
                   333 59004 86830 83360 84080=
201401290900 AAXX 29094 67673 42584 60701 10248 20188 48525 85131
                   333 59002 85827 84360 86080=
201401290600 AAXX 29064 67673 12580 72701 10215 20199 48519 60064 8213/
                   333 10250 20192 59010 82825 87360=
201401290300 AAXX 29034 67673 NIL=
201401290000 AAXX 29004 67673 NIL=
201401282100 AAXX 28214 67673 NIL=
201401281800 AAXX 28184 67673 NIL=
201401281500 AAXX 28154 67673 NIL=
201401281200 AAXX 28124 67673 42680 50202 10282 20210 48513 85231
                   333 58012 85835 84360 85080=
201401280900 AAXX 28094 67673 42680 60102 10250 20207 48527 84131
                   333 58005 84835 86360 83080=
201401280600 AAXX 28064 67673 12580 73501 10220 20198 48529 60014 8213/
                   333 10300 20200 58010 82825 87360=
201401280300 AAXX 28034 67673 NIL=
201401272100 AAXX 27214 67673 NIL=
201401271800 AAXX 27184 67673 NIL=
201401271500 AAXX 27154 67673 NIL=
201401271200 AAXX 27124 67673 NIL=
201401270900 AAXX 27094 67673 42684 63002 10254 20198 48522 85131
                   333 58007 85835 84360 86080=
201401270600 AAXX 27064 67673 NIL=
201401270300 AAXX 27034 67673 NIL=
201401270000 AAXX 27004 67673 NIL=
201401262100 AAXX 26214 67673 NIL=
201401261800 AAXX 26184 67673 NIL=
201401261500 AAXX 26154 67673 NIL=
201401261200 AAXX 26124 67673 NIL=
201401260900 AAXX 26094 67673 NIL=
201401260600 AAXX 26064 67673 NIL=
201401251800 AAXX 25184 67673 NIL=
201401251500 AAXX 25154 67673 NIL=
201401251200 AAXX 25124 67673 NIL=
201401250900 AAXX 25094 67673 NIL=
201401250600 AAXX 25064 67673 NIL=
201401250000 AAXX 25004 67673 NIL=
201401242100 AAXX 24214 67673 NIL=
201401241800 AAXX 24184 67673 NIL=
201401241500 AAXX 24154 67673 NIL=
201401241200 AAXX 24124 67673 42684 60701 10290 20193 48499 86201
                   333 59002 86840 83080=
201401240900 AAXX 24094 67673 42684 60901 10258 20194 48516 86201
                   333 59011 86835 84080=
201401240600 AAXX 24064 67673 12584 50202 10230 20201 48520 69954 83131
                   333 10310 20206 59017 83825 85360 82080
                   555 00/// 20990=
201401240300 AAXX 24034 67673 NIL=
201401240000 AAXX 24004 67673 NIL=
201401231500 AAXX 23154 67673 NIL=
201401231200 AAXX 23124 67673 NIL=
201401230900 AAXX 23094 67673 42680 63601 10262 20202 48529 86201
                   333 59014 86835 83080=
201401230600 AAXX 23064 67673 12580 60201 10240 20195 48539 69904 81131
                   333 10310 20196 59001 81825 82360 86080=
201401230300 AAXX 23034 67673 NIL=
201401230000 AAXX 23004 67673 NIL=
201401222100 AAXX 22214 67673 NIL=
201401221800 AAXX 22184 67673 NIL=
201401221500 AAXX 22154 67673 NIL=
201401221200 AAXX 22124 67673 41680 60901 10300 20182 48515 71522 86231
                   333 59011 86838 84360 83080=
201401220900 AAXX 22094 67673 42684 50901 10276 20186 48546 85201
                   333 58011 85835 83080=
201401220600 AAXX 22064 67673 NIL=
201401220000 AAXX 22004 67673 NIL=
201401212100 AAXX 21214 67673 NIL=
201401211800 AAXX 21184 67673 NIL=
201401211200 AAXX 21124 67673 42684 61001 10300 20182 48526 86232
                   333 59005 86835 83360 83080=
201401210900 AAXX 21094 67673 42584 60901 10275 20198 48534 86231
                   333 59003 86830 83360 84080=
201401210600 AAXX 21064 67673 42580 60802 10238 20194 48535 60224 82131
                   333 10323 20205 59004 82825 85360 86080=
201401210300 AAXX 21034 67673 NIL=
201401202100 AAXX 20214 67673 NIL=
201401201800 AAXX 20184 67673 NIL=
201401201200 AAXX 20124 67673 NIL=
201401200900 AAXX 20094 67673 42584 60403 10270 20184 48537 86231
                   333 59002 86830 82360 85080=
201401200600 AAXX 20064 67673 12580 70602 10232 20186 48537 69904 87138
                   333 10315 20197 58009 82825 83360 87280=
201401200000 AAXX 20004 67673 NIL=
201401192100 AAXX 19214 67673 NIL=
201401191800 AAXX 19184 67673 NIL=
201401191500 AAXX 19154 67673 NIL=
201401191200 AAXX 19124 67673 NIL=
201401190900 AAXX 19094 67673 NIL=
201401190600 AAXX 19064 67673 NIL=
201401190000 AAXX 19004 67673 NIL=
201401181800 AAXX 18184 67673 NIL=
201401181200 AAXX 18124 67673 NIL=
201401180900 AAXX 18094 67673 NIL=
201401180600 AAXX 18064 67673 NIL=
201401180300 AAXX 18034 67673 NIL=
201401180000 AAXX 18004 67673 NIL=
201401171800 AAXX 17184 67673 NIL=
201401171200 AAXX 17124 67673 41580 72003 10208 20186 48524 76222 8587/
                   333 58002 84825 85626 87460=
201401170900 AAXX 17094 67673 42680 60402 10240 20184 48545 86230 59002 86830 84360=
201401170600 AAXX 17064 67673 NIL=
201401170300 AAXX 17034 67673 NIL=
201401162100 AAXX 16214 67673 NIL=
201401161800 AAXX 16184 67673 NIL=
201401161500 AAXX 16154 67673 NIL=
201401161200 AAXX 16124 67673 NIL=
201401160900 AAXX 16094 67673 42580 71602 10248 20183 48549 8653/
                   333 58007 86625 83360=
201401160600 AAXX 16064 67673 12465 60000 10205 20192 48550 60154 86531
                   333 10215 20192 58011 86616 84360=
201401151200 AAXX 15124 67673 NIL=
201401150900 AAXX 15094 67673 41570 81603 10223 20192 48537 71522 885//
                   333 58003 85622=
201401150600 AAXX 15064 67673 11580 81102 10205 20190 48538 60214 76066 8557/
                   333 10240 20195 58007 85620 88459=
201401140600 AAXX 14064 67673 NIL=
201401140300 AAXX 14034 67673 NIL=
201401132100 AAXX 13214 67673 NIL=
201401131800 AAXX 13184 67673 NIL=
201401131500 AAXX 13154 67673 NIL=
201401131200 AAXX 13124 67673 NIL=
201401130900 AAXX 13094 67673 42680 60402 10248 20197 48537 8653/
                   333 59017 86630 85360=
201401130600 AAXX 13064 67673 12680 70901 10217 20195 48536 60114 8553/
                   333 10260 20190 59021 85630 87360=
201401091500 AAXX 09154 67673 NIL=
201401091200 AAXX 09124 67673 NIL=
201401090900 AAXX 09094 67673 42580 53601 10264 20198 48527 84131
                   333 58021 84830 85360 83080=
201401090600 AAXX 09064 67673 12580 60000 10226 20198 48531 69964 83131
                   333 10300 20190 58026 83825 86360 84080=
201401090000 AAXX 09004 67673 NIL=
201401082100 AAXX 08214 67673 NIL=
201401081800 AAXX 08184 67673 NIL=
201401081500 AAXX 08154 67673 NIL=
201401081200 AAXX 08124 67673 41580 70201 10214 20193 48493 72992 86232
                   333 58017 81928 86828 85360 87080=
201401080900 AAXX 08094 67673 NIL=
201401080600 AAXX 08064 67673 42980 63603 10240 20205 48508 86031
                   333 10277 20223 59001 86360 83080
                   555 00/// 20998=
201401080300 AAXX 08034 67673 NIL=
201401080000 AAXX 08004 67673 NIL=
201401072100 AAXX 07214 67673 NIL=
201401071800 AAXX 07184 67673 NIL=
201401071500 AAXX 07154 67673 NIL=
201401071200 AAXX 07124 67673 42685 62501 10310 20202 48492 86231
                   333 59006 86834 82362 83080=
201401070900 AAXX 07094 67673 42684 52002 10284 20195 48509 85131
                   333 58000 85832 82360 83080=
201401070600 AAXX 07064 67673 12984 43401 10260 20195 48512 70200 83031
                   333 10277 20215 58000 83360 84080
                   555 00/// 20990=
201401070300 AAXX 07034 67673 NIL=
201401070000 AAXX 07004 67673 NIL=
201401062100 AAXX 06214 67673 NIL=
201401061800 AAXX 06184 67673 NIL=
201401061500 AAXX 06154 67673 NIL=
201401061200 AAXX 06124 67673 42580 83202 10267 20182 48492 8527/
                   333 58001 85828 88460=
201401060900 AAXX 06094 67673 41580 71901 10220 20190 48498 58004 81928 8523/ 85828 87360=
201401060600 AAXX 06064 67673 11580 82702 10220 20182 48505 76022 8317/
                   333 10300 20198 58014 83825 88460=
201401060300 AAXX 06034 67673 NIL=
201401052100 AAXX 05214 67673 NIL=
201401051800 AAXX 05184 67673 NIL=
201401051500 AAXX 05154 67673 NIL=
201401051200 AAXX 05124 67673 NIL=
201401050900 AAXX 05094 67673 NIL=
201401050000 AAXX 05004 67673 NIL=
201401042100 AAXX 04214 67673 NIL=
201401041800 AAXX 04184 67673 NIL=
201401041500 AAXX 04154 67673 NIL=
201401041200 AAXX 04124 67673 NIL=
201401040900 AAXX 04094 67673 NIL=
201401040600 AAXX 04064 67673 NIL=
201401040000 AAXX 04004 67673 NIL=
201401031800 AAXX 03184 67673 NIL=
201401031500 AAXX 03154 67673 NIL=
201401031200 AAXX 03124 67673 NIL=
201401030900 AAXX 03094 67673 41580 82501 10230 20198 48535 76166 8417/
                   333 58017 84830 88459=
201401030600 AAXX 03064 67673 11580 83601 10200 20185 48525 60024 76066 8217/
                   333 10290 20188 58014 82822 88459=
201401022100 AAXX 02214 67673 NIL=
201401021800 AAXX 02184 67673 NIL=
201401021500 AAXX 02154 67673 NIL=
201401021200 AAXX 02124 67673 42680 63601 10265 20201 48506 84131
                   333 5//// 84832 86360 82080=
201401020900 AAXX 02094 67673 42580 83601 10225 20203 48520 8311/
                   333 5//// 83822 88460=
201401020600 AAXX 02064 67673 12970 83604 10205 20195 48523 60034 70266 8761/
                   333 10280 20195 58007 87614 82822 88476
                   555 00/// 20092=
201401020000 AAXX 02004 67673 NIL=
201401012100 AAXX 01214 67673 NIL=
201401011800 AAXX 01184 67673 NIL=
201401011500 AAXX 01154 67673 NIL=
201401010900 AAXX 01094 67673 NIL=
201401010600 AAXX 01064 67673 NIL=

################################################################################
#  SYNOPS from 67731, Senanga (Zambia) | 16-06S | 023-16E | 1027 m
################################################################################
201401310300 AAXX 31034 67731 NIL=
201401310000 AAXX 31004 67731 NIL=
201401302100 AAXX 30214 67731 NIL=
201401301800 AAXX 30184 67731 NIL=
201401301500 AAXX 30154 67731 NIL=
201401301200 AAXX 30124 67731 NIL=
201401300900 AAXX 30094 67731 NIL=
201401300600 AAXX 30064 67731 NIL=
201401300300 AAXX 30034 67731 NIL=
201401292100 AAXX 29214 67731 NIL=
201401291800 AAXX 29184 67731 NIL=
201401291500 AAXX 29154 67731 NIL=
201401291200 AAXX 29124 67731 NIL=
201401290900 AAXX 29094 67731 NIL=
201401290600 AAXX 29064 67731 NIL=
201401290300 AAXX 29034 67731 NIL=
201401290000 AAXX 29004 67731 NIL=
201401282100 AAXX 28214 67731 NIL=
201401281800 AAXX 28184 67731 NIL=
201401281500 AAXX 28154 67731 NIL=
201401281200 AAXX 28124 67731 NIL=
201401280900 AAXX 28094 67731 NIL=
201401280600 AAXX 28064 67731 NIL=
201401280300 AAXX 28034 67731 NIL=
201401272100 AAXX 27214 67731 NIL=
201401271800 AAXX 27184 67731 NIL=
201401271500 AAXX 27154 67731 NIL=
201401271200 AAXX 27124 67731 NIL=
201401270900 AAXX 27094 67731 NIL=
201401270600 AAXX 27064 67731 NIL=
201401270300 AAXX 27034 67731 NIL=
201401270000 AAXX 27004 67731 NIL=
201401262100 AAXX 26214 67731 NIL=
201401261800 AAXX 26184 67731 NIL=
201401261500 AAXX 26154 67731 NIL=
201401261200 AAXX 26124 67731 NIL=
201401260900 AAXX 26094 67731 NIL=
201401260600 AAXX 26064 67731 NIL=
201401251800 AAXX 25184 67731 NIL=
201401251500 AAXX 25154 67731 NIL=
201401251200 AAXX 25124 67731 NIL=
201401250900 AAXX 25094 67731 NIL=
201401250600 AAXX 25064 67731 NIL=
201401250000 AAXX 25004 67731 NIL=
201401242100 AAXX 24214 67731 NIL=
201401241800 AAXX 24184 67731 NIL=
201401241500 AAXX 24154 67731 NIL=
201401241200 AAXX 24124 67731 NIL=
201401240900 AAXX 24094 67731 NIL=
201401240600 AAXX 24064 67731 NIL=
201401240300 AAXX 24034 67731 NIL=
201401240000 AAXX 24004 67731 NIL=
201401231500 AAXX 23154 67731 NIL=
201401231200 AAXX 23124 67731 NIL=
201401230900 AAXX 23094 67731 NIL=
201401230600 AAXX 23064 67731 NIL=
201401230300 AAXX 23034 67731 NIL=
201401230000 AAXX 23004 67731 NIL=
201401222100 AAXX 22214 67731 NIL=
201401221800 AAXX 22184 67731 NIL=
201401221500 AAXX 22154 67731 NIL=
201401221200 AAXX 22124 67731 NIL=
201401220900 AAXX 22094 67731 NIL=
201401220600 AAXX 22064 67731 NIL=
201401220000 AAXX 22004 67731 NIL=
201401212100 AAXX 21214 67731 NIL=
201401211800 AAXX 21184 67731 NIL=
201401211200 AAXX 21124 67731 NIL=
201401210900 AAXX 21094 67731 NIL=
201401210600 AAXX 21064 67731 NIL=
201401210300 AAXX 21034 67731 NIL=
201401202100 AAXX 20214 67731 NIL=
201401201800 AAXX 20184 67731 NIL=
201401201200 AAXX 20124 67731 NIL=
201401200900 AAXX 20094 67731 NIL=
201401200600 AAXX 20064 67731 NIL=
201401200000 AAXX 20004 67731 NIL=
201401192100 AAXX 19214 67731 NIL=
201401191800 AAXX 19184 67731 NIL=
201401191500 AAXX 19154 67731 NIL=
201401191200 AAXX 19124 67731 NIL=
201401190900 AAXX 19094 67731 NIL=
201401190600 AAXX 19064 67731 NIL=
201401190000 AAXX 19004 67731 NIL=
201401181800 AAXX 18184 67731 NIL=
201401181200 AAXX 18124 67731 NIL=
201401180900 AAXX 18094 67731 NIL=
201401180600 AAXX 18064 67731 NIL=
201401180300 AAXX 18034 67731 NIL=
201401180000 AAXX 18004 67731 NIL=
201401171800 AAXX 17184 67731 NIL=
201401171200 AAXX 17124 67731 NIL=
201401170900 AAXX 17090 67731 NIL=
201401170600 AAXX 17064 67731 NIL=
201401170300 AAXX 17034 67731 NIL=
201401162100 AAXX 16214 67731 NIL=
201401161800 AAXX 16184 67731 NIL=
201401161500 AAXX 16154 67731 NIL=
201401161200 AAXX 16124 67731 NIL=
201401160900 AAXX 16094 67731 NIL=
201401160600 AAXX 16064 67731 NIL=
201401151200 AAXX 15124 67731 NIL=
201401140600 AAXX 14064 67731 NIL=
201401140300 AAXX 14034 67731 NIL=
201401132100 AAXX 13214 67731 NIL=
201401131800 AAXX 13184 67731 NIL=
201401131500 AAXX 13154 67731 NIL=
201401131200 AAXX 13124 67731 NIL=
201401130900 AAXX 13094 67731 NIL=
201401091500 AAXX 09154 67731 NIL=
201401091200 AAXX 09124 67731 NIL=
201401090900 AAXX 09094 67731 NIL=
201401090600 AAXX 09064 67731 NIL=
201401090000 AAXX 09004 67731 NIL=
201401082100 AAXX 08214 67731 NIL=
201401081800 AAXX 08184 67731 NIL=
201401081500 AAXX 08154 67731 NIL=
201401081200 AAXX 08124 67731 NIL=
201401080900 AAXX 08094 67731 NIL=
201401080600 AAXX 08064 67731 NIL=
201401080300 AAXX 08034 67731 NIL=
201401080000 AAXX 08004 67731 NIL=
201401072100 AAXX 07214 67731 NIL=
201401071800 AAXX 07184 67731 NIL=
201401071500 AAXX 07154 67731 NIL=
201401071200 AAXX 07124 67731 NIL=
201401070900 AAXX 07094 67731 NIL=
201401070600 AAXX 07064 67731 NIL=
201401070300 AAXX 07034 67731 NIL=
201401070000 AAXX 07004 67731 NIL=
201401062100 AAXX 06214 67731 NIL=
201401061800 AAXX 06184 67731 NIL=
201401061500 AAXX 06154 67731 NIL=
201401061200 AAXX 06124 67731 NIL=
201401060900 AAXX 06094 67731 NIL=
201401060600 AAXX 06064 67731 NIL=
201401060300 AAXX 06034 67731 NIL=
201401052100 AAXX 05214 67731 NIL=
201401051800 AAXX 05184 67731 NIL=
201401051500 AAXX 05154 67731 NIL=
201401051200 AAXX 05124 67731 NIL=
201401050900 AAXX 05094 67731 NIL=
201401050000 AAXX 05004 67731 NIL=
201401042100 AAXX 04214 67731 NIL=
201401041800 AAXX 04184 67731 NIL=
201401041500 AAXX 04154 67731 NIL=
201401041200 AAXX 04124 67731 NIL=
201401040900 AAXX 04094 67731 NIL=
201401040600 AAXX 04064 67731 NIL=
201401040000 AAXX 04004 67731 NIL=
201401031800 AAXX 03184 67731 NIL=
201401031500 AAXX 03154 67731 NIL=
201401031200 AAXX 03124 67731 NIL=
201401030900 AAXX 03094 67731 NIL=
201401030600 AAXX 03064 67731 NIL=
201401022100 AAXX 02214 67731 NIL=
201401021800 AAXX 02184 67731 NIL=
201401021500 AAXX 02154 67731 NIL=
201401021200 AAXX 02124 67731 NIL=
201401020900 AAXX 02094 67731 NIL=
201401020600 AAXX 02064 67731 NIL=
201401020000 AAXX 02004 67731 NIL=
201401012100 AAXX 01214 67731 NIL=
201401011800 AAXX 01184 67731 NIL=
201401011500 AAXX 01154 67731 NIL=
201401010900 AAXX 01094 67731 NIL=
201401010600 AAXX 01064 67731 NIL=

################################################################################
#  SYNOPS from 67741, Sesheke (Zambia) | 17-28S | 024-18E | 949 m
################################################################################
201401310300 AAXX 31034 67741 NIL=
201401310000 AAXX 31004 67741 NIL=
201401302100 AAXX 30214 67741 NIL=
201401301800 AAXX 30184 67741 NIL=
201401301500 AAXX 30154 67741 NIL=
201401301200 AAXX 30124 67741 NIL=
201401300900 AAXX 30094 67741 NIL=
201401300600 AAXX 30064 67741 NIL=
201401300300 AAXX 30034 67741 NIL=
201401292100 AAXX 29214 67741 NIL=
201401291800 AAXX 29184 67741 NIL=
201401291500 AAXX 29154 67741 NIL=
201401291200 AAXX 29124 67741 NIL=
201401290900 AAXX 29094 67741 NIL=
201401290600 AAXX 29064 67741 NIL=
201401290300 AAXX 29034 67741 NIL=
201401290000 AAXX 29004 67741 NIL=
201401282100 AAXX 28214 67741 NIL=
201401281800 AAXX 28184 67741 NIL=
201401281500 AAXX 28154 67741 NIL=
201401281200 AAXX 28124 67741 NIL=
201401280900 AAXX 28094 67741 NIL=
201401280600 AAXX 28064 67741 NIL=
201401280300 AAXX 28034 67741 NIL=
201401272100 AAXX 27214 67741 NIL=
201401271800 AAXX 27184 67741 NIL=
201401271500 AAXX 27154 67741 NIL=
201401271200 AAXX 27124 67741 NIL=
201401270900 AAXX 27094 67741 NIL=
201401270600 AAXX 27064 67741 NIL=
201401270300 AAXX 27034 67741 NIL=
201401270000 AAXX 27004 67741 NIL=
201401262100 AAXX 26214 67741 NIL=
201401261800 AAXX 26184 67741 NIL=
201401261500 AAXX 26154 67741 NIL=
201401261200 AAXX 26124 67741 NIL=
201401260900 AAXX 26094 67741 NIL=
201401260600 AAXX 26064 67741 NIL=
201401251800 AAXX 25184 67741 NIL=
201401251500 AAXX 25154 67741 NIL=
201401251200 AAXX 25124 67741 NIL=
201401250900 AAXX 25094 67741 NIL=
201401250600 AAXX 25064 67741 NIL=
201401250000 AAXX 25004 67741 NIL=
201401242100 AAXX 24214 67741 NIL=
201401241800 AAXX 24184 67741 NIL=
201401241500 AAXX 24154 67741 NIL=
201401241200 AAXX 24124 67741 NIL=
201401240900 AAXX 24094 67741 NIL=
201401240600 AAXX 24064 67741 NIL=
201401240300 AAXX 24034 67741 NIL=
201401240000 AAXX 24004 67741 NIL=
201401231500 AAXX 23154 67741 NIL=
201401231200 AAXX 23124 67741 NIL=
201401230900 AAXX 23094 67741 NIL=
201401230600 AAXX 23064 67741 NIL=
201401230300 AAXX 23034 67741 NIL=
201401230000 AAXX 23004 67741 NIL=
201401222100 AAXX 22214 67741 NIL=
201401221800 AAXX 22184 67741 NIL=
201401221500 AAXX 22154 67741 NIL=
201401221200 AAXX 22124 67741 NIL=
201401220900 AAXX 22094 67741 NIL=
201401220600 AAXX 22064 67741 NIL=
201401220000 AAXX 22004 67741 NIL=
201401212100 AAXX 21214 67741 NIL=
201401211800 AAXX 21184 67741 NIL=
201401211200 AAXX 21124 67741 NIL=
201401210900 AAXX 21094 67741 NIL=
201401210600 AAXX 21064 67741 NIL=
201401210300 AAXX 21034 67741 NIL=
201401202100 AAXX 20214 67741 NIL=
201401201800 AAXX 20184 67741 NIL=
201401201200 AAXX 20124 67741 NIL=
201401200900 AAXX 20094 67741 NIL=
201401200600 AAXX 20064 67741 NIL=
201401200000 AAXX 20004 67741 NIL=
201401192100 AAXX 19214 67741 NIL=
201401191800 AAXX 19184 67741 NIL=
201401191500 AAXX 19154 67741 NIL=
201401191200 AAXX 19124 67741 NIL=
201401190900 AAXX 19094 67741 NIL=
201401190600 AAXX 19064 67741 NIL=
201401190000 AAXX 19004 67741 NIL=
201401181800 AAXX 18184 67741 NIL=
201401181200 AAXX 18124 67741 NIL=
201401180900 AAXX 18094 67741 NIL=
201401180600 AAXX 18064 67741 NIL=
201401180300 AAXX 18034 67741 NIL=
201401180000 AAXX 18004 67741 NIL=
201401171800 AAXX 17184 67741 NIL=
201401171200 AAXX 17124 67741 NIL=
201401170900 AAXX 17090 67741 NIL=
201401170600 AAXX 17064 67741 NIL=
201401170300 AAXX 17034 67741 NIL=
201401162100 AAXX 16214 67741 NIL=
201401161800 AAXX 16184 67741 NIL=
201401161500 AAXX 16154 67741 NIL=
201401161200 AAXX 16124 67741 NIL=
201401160900 AAXX 16094 67741 NIL=
201401160600 AAXX 16064 67741 NIL=
201401151200 AAXX 15124 67741 NIL=
201401140600 AAXX 14064 67741 NIL=
201401140300 AAXX 14034 67741 NIL=
201401132100 AAXX 13214 67741 NIL=
201401131800 AAXX 13184 67741 NIL=
201401131500 AAXX 13154 67741 NIL=
201401131200 AAXX 13124 67741 NIL=
201401130900 AAXX 13094 67741 NIL=
201401091500 AAXX 09154 67741 NIL=
201401091200 AAXX 09124 67741 NIL=
201401090900 AAXX 09094 67741 NIL=
201401090600 AAXX 09064 67741 NIL=
201401090000 AAXX 09004 67741 NIL=
201401082100 AAXX 08214 67741 NIL=
201401081800 AAXX 08184 67741 NIL=
201401081500 AAXX 08154 67741 NIL=
201401081200 AAXX 08124 67741 NIL=
201401080900 AAXX 08094 67741 NIL=
201401080600 AAXX 08064 67741 NIL=
201401080300 AAXX 08034 67741 NIL=
201401080000 AAXX 08004 67741 NIL=
201401072100 AAXX 07214 67741 NIL=
201401071800 AAXX 07184 67741 NIL=
201401071500 AAXX 07154 67741 NIL=
201401071200 AAXX 07124 67741 NIL=
201401070900 AAXX 07094 67741 NIL=
201401070600 AAXX 07064 67741 NIL=
201401070300 AAXX 07034 67741 NIL=
201401070000 AAXX 07004 67741 NIL=
201401062100 AAXX 06214 67741 NIL=
201401061800 AAXX 06184 67741 NIL=
201401061500 AAXX 06154 67741 NIL=
201401061200 AAXX 06124 67741 NIL=
201401060900 AAXX 06094 67741 NIL=
201401060600 AAXX 06064 67741 NIL=
201401060300 AAXX 06034 67741 NIL=
201401052100 AAXX 05214 67741 NIL=
201401051800 AAXX 05184 67741 NIL=
201401051500 AAXX 05154 67741 NIL=
201401051200 AAXX 05124 67741 NIL=
201401050900 AAXX 05094 67741 NIL=
201401050000 AAXX 05004 67741 NIL=
201401042100 AAXX 04214 67741 NIL=
201401041800 AAXX 04184 67741 NIL=
201401041500 AAXX 04154 67741 NIL=
201401041200 AAXX 04124 67741 NIL=
201401040900 AAXX 04094 67741 NIL=
201401040600 AAXX 04064 67741 NIL=
201401040000 AAXX 04004 67741 NIL=
201401031800 AAXX 03184 67741 NIL=
201401031500 AAXX 03154 67741 NIL=
201401031200 AAXX 03124 67741 NIL=
201401030900 AAXX 03094 67741 NIL=
201401030600 AAXX 03064 67741 NIL=
201401022100 AAXX 02214 67741 NIL=
201401021800 AAXX 02184 67741 NIL=
201401021500 AAXX 02154 67741 NIL=
201401021200 AAXX 02124 67741 NIL=
201401020900 AAXX 02094 67741 NIL=
201401020600 AAXX 02064 67741 NIL=
201401020000 AAXX 02004 67741 NIL=
201401012100 AAXX 01214 67741 NIL=
201401011800 AAXX 01184 67741 NIL=
201401011500 AAXX 01154 67741 NIL=
201401010900 AAXX 01094 67741 NIL=
201401010600 AAXX 01064 67741 NIL=

################################################################################
#  SYNOPS from 67743, Livingstone (Zambia) | 17-49S | 025-49E | 985 m
################################################################################
201401310300 AAXX 31034 67743 NIL=
201401310000 AAXX 31004 67743 NIL=
201401302100 AAXX 30214 67743 NIL=
201401301800 AAXX 30184 67743 NIL=
201401301500 AAXX 30154 67743 42478 73002 10220 20205 48472 71692 83931
                   333 59005 81920 83615 87360 91012=
201401301200 AAXX 30124 67743 42580 73007 10280 20214 48491 70222 83231
                   333 58008 83008 83830 85360 81080 91013=
201401300900 AAXX 30094 67743 42580 73507 10255 20204 48505 81531
                   333 58001 81620 86360 81080 91015=
201401300600 AAXX 30064 67743 12480 83006 10205 20190 48496 60114 8157/
                   333 10285 20195=
201401300300 AAXX 30034 67743 NIL=
201401292100 AAXX 29214 67743 NIL=
201401291800 AAXX 29184 67743 NIL=
201401291500 AAXX 29154 67743 NIL=
201401291200 AAXX 29124 67743 NIL=
201401290900 AAXX 29094 67743 NIL=
201401290600 AAXX 29064 67743 67743 12480 81204 10205 20205 48494 60124 8564/
                   333 10265 20200 58001 85615 88458
                   555 91015=
201401290300 AAXX 29034 67743 NIL=
201401290000 AAXX 29004 67743 NIL=
201401282100 AAXX 28214 67743 NIL=
201401281800 AAXX 28184 67743 NIL=
201401281500 AAXX 28154 67743 41680 71103 10208 20202 48456 71722 8197/
                   333 58004 81930 82630 87460=
201401281200 AAXX 28124 67743 41580 71606 10227 20217 48477 78022 84570
                   333 59001 84625 83825 84359 91013=
201401280900 AAXX 28094 67743 42580 60404 10241 20212 48499 70122 83530
                   333 33620 83359 91015=
201401280600 AAXX 28064 67743 NIL=
201401280300 AAXX 28034 67743 NIL=
201401272100 AAXX 27214 67743 NIL=
201401271800 AAXX 27184 67743 NIL=
201401271500 AAXX 27154 67743 42580 72802 20205 48469 70222 81971
                   333 58007 81925 83825 87360 81080 91011=
201401271200 AAXX 27124 67743 41470 73007 10226 20210 48480 79592 8297/
                   333 58003 83718 82920 87360=
201401270900 AAXX 27094 67743 42480 71503 10245 20203 48499 70222 84271
                   333 59041 83820 86359 81080 91014=
201401270600 AAXX 27064 67743 42480 71001 10215 20208 48497 8157/
                   333 10300 20195 58006 81618 81358 555=
201401270300 AAXX 27034 67743 NIL=
201401270000 AAXX 27004 67743 NIL=
201401262100 AAXX 26214 67743 NIL=
201401261800 AAXX 26184 67743 NIL=
201401261500 AAXX 26154 67743 NIL=
201401261200 AAXX 26124 67743 NIL=
201401260900 AAXX 26094 67743 NIL=
201401260600 AAXX 26064 67743 12580 73202 10206 20203 48490 70260 81530
                   333 10332 20194 59006 81620 85359
                   555 91014=
201401251800 AAXX 25184 67743 NIL=
201401251500 AAXX 25154 67743 42680 62001 10320 20203 48469 72922 82301
                   333 58000 82835 85080=
201401251200 AAXX 25124 67743 42670 50905 10280 20209 48484 71522 81301
                   333 90128=
201401250900 AAXX 25094 67743 42480 63005 10285 20210 48510 83231
                   333 58000 83820 81360 85080 91015=
201401250600 AAXX 25064 67743 32380 53502 10235 20198 48501 81531
                   333 10325 20200 59001 81610 81359 85079
                   555 91015=
201401250000 AAXX 25004 67743 NIL=
201401242100 AAXX 24214 67743 NIL=
201401241800 AAXX 24184 67743 NIL=
201401241500 AAXX 24154 67743 NIL=
201401241200 AAXX 24124 67743 NIL=
201401240900 AAXX 24094 67743 42580 50807 10285 20206 48510 82131
                   333 59015 82825 81360 84080 91015=
201401240600 AAXX 24064 67743 12980 70000 10220 20190 48500 60054 86031
                   333 10326 20200 59022 86360 82080
                   555 00/// 91015=
201401240300 AAXX 24034 67743 NIL=
201401240000 AAXX 24004 67743 NIL=
201401231500 AAXX 23154 67743 NIL=
201401231200 AAXX 23124 67743 NIL=
201401230900 AAXX 23094 67743 42980 40906 10275 20195 48523 83131
                   333 59013 83856 81360 83080=
201401230600 AAXX 23064 67743 NIL=
201401230300 AAXX 23034 67743 NIL=
201401230000 AAXX 23004 67743 NIL=
201401222100 AAXX 22214 67743 NIL=
201401221800 AAXX 22184 67743 NIL=
201401221500 AAXX 22154 67743 42780 11108 10306 20174 48495 81130
                   333 59009 81857 81360=
201401221200 AAXX 22124 67743 42780 41209 10316 20180 48517 86100
                   333 59005 83850 555 91015=
201401220900 AAXX 22094 67743 42680 11009 10288 20194 48539 81130
                   333 59002 81830 81360=
201401220600 AAXX 22064 67743 12980 11204 10239 20200 48530 60024 81031
                   333 10350 20198 59004 81360 81080
                   555 91018=
201401220000 AAXX 22004 67743 NIL=
201401212100 AAXX 21214 67743 NIL=
201401211800 AAXX 21184 67743 NIL=
201401211200 AAXX 21124 67743 NIL=
201401210900 AAXX 21094 67743 NIL=
201401210600 AAXX 21064 67743 NIL=
201401210300 AAXX 21034 67743 NIL=
201401202100 AAXX 20214 67743 NIL=
201401201800 AAXX 20184 67743 NIL=
201401201500 AAXX 20154 67743 42780 11206 10332 20161 48508 81100
                   333 59002 81856=
201401201200 AAXX 20124 67743 42680 30907 10320 20174 48532 83101
                   333 58005 83845 81080 91017=
201401200900 AAXX 20094 67743 42680 10607 10290 20192 48546 70300 81101
                   333 58003 81840 81080 91019=
201401200600 AAXX 20064 67743 32980 10805 10230 20193 48537 80001
                   333 10365 20190 58006 81080
                   555 91019=
201401200000 AAXX 20004 67743 NIL=
201401192100 AAXX 19214 67743 NIL=
201401191800 AAXX 19184 67743 NIL=
201401191500 AAXX 19154 67743 42680 55006 10325 20177 48811 7232 81930
                   333 58006 81945 83850 81360=
201401191200 AAXX 19124 67743 NIL=
201401190900 AAXX 19094 67743 NIL=
201401190600 AAXX 19064 67743 32980 11004 10240 20188 48534 70200 80001
                   333 10363 20175 58012 81080
                   555 91019=
201401190000 AAXX 19004 67743 NIL=
201401181800 AAXX 18184 67743 NIL=
201401181200 AAXX 18124 67743 42780 43202 10322 20184 48515 84100
                   333 59017 84850 555 91015=
201401180900 AAXX 18094 67743 42780 13502 10300 20188 48531 81100
                   333 59019 81850=
201401180600 AAXX 18064 67743 42980 13504 10230 20184 48520 81030
                   333 10340 20190 59020 81360
                   555 91017=
201401180300 AAXX 18034 67743 NIL=
201401180000 AAXX 18004 67743 NIL=
201401171800 AAXX 17184 67743 NIL=
201401171500 AAXX 17154 67743 42780 31809 10330 20164 48511 83200
                   333 59015 83856=
201401171200 AAXX 17124 67743 NIL=
201401170900 AAXX 17090 67743 NIL=
201401170600 AAXX 17064 67743 32980 00000 10230 20193 48541
                   333 10323 20185 59015
                   555 00/// 91020=
201401170300 AAXX 17034 67743 NIL=
201401162100 AAXX 16214 67743 NIL=
201401161800 AAXX 16184 67743 NIL=
201401161500 AAXX 16154 67743 41780 32807 10278 20197 48518 71591 81281
                   333 58000 81845 81359 81070=
201401161200 AAXX 16124 67743 42780 51505 10314 20188 48540 70222 85201
                   333 59001 85850 81070=
201401160900 AAXX 16094 67743 42680 42104 10269 20194 48558 70300 84100
                   333 88010 84830 90213=
201401160600 AAXX 16064 67743 32980 70903 10221 20203 48552 87080
                   333 10305 20185 87359
                   555 91021=
201401151500 AAXX 15154 67743 42580 31506 10280 20192 48516 79522 81931
                   333 58012 81930 81835 81360 81080=
201401151200 AAXX 15124 67743 41580 61008 10280 20192 48434 71722 84330
                   333 58002 84830 81935 81360 91018=
201401150900 AAXX 15094 67743 42580 30909 10275 20169 48549 70300 82131
                   333 58019 81630 81835 81360 81080 91020=
201401150600 AAXX 15064 67743 32780 10210 20194 48540 70222 82531
                   333 10316 20182 58023 82640 85359 81079
                   555 91020=
201401141500 AAXX 14154 67743 42580 43507 10239 20203 48499 71717 81980
                   333 58013 81920 84820 81360=
201401140600 AAXX 14064 67743 NIL=
201401140300 AAXX 14034 67743 NIL=
201401132100 AAXX 13214 67743 NIL=
201401131800 AAXX 13184 67743 NIL=
201401131500 AAXX 13154 67743 NIL=
201401131200 AAXX 13124 67743 NIL=
201401130900 AAXX 13094 67743 NIL=
201401130600 AAXX 13064 67743 12980 20905 10232 20206 48536 60034 82030
                   333 10300 20194 59001 82360
                   555 91019=
201401121500 AAXX 12154 67743 41675 51704 10255 20212 48512 76022 83260
                   333 58003 83835 82359=
201401120900 AAXX 12094 67743 42580 50914 20199 48543 83230
                   333 58007 83825 83360 91019=
201401120600 AAXX 12064 67743 32980 70906 10220 20198 48535 8703/
                   333 10325 20200 58007 87359
                   555 10195=
201401111500 AAXX 11154 67743 41480 63005 10247 20200 48508 71792 81931
                   333 58030 82620 81945 83360 81080=
201401110900 AAXX 11094 67743 42580 63604 10273 20201 48534 81531
                   333 59003 81630 85360 82080 91018=
201401101500 AAXX 10154 67743 42980 43504 10242 20210 48479 74031
                   333 58010 84359 81080=
201401101200 AAXX 10124 67743 42680 60806 10265 20193 48508 72917
                   333 58016 81930 85830 81360
                   555 91015=
201401100900 AAXX 10094 67743 42980 31004 10295 20201 48530 71130
                   333 58005 81840 82360=
201401100600 AAXX 10064 67743 42980 50105 10245 20176 48511 60994 74031
                   333 10335 20214 59004 84359 81080
                   555 91016=
201401091500 AAXX 09154 67743 42780 31205 10290 20186 48477 83200
                   333 59003 83856=
201401091200 AAXX 09124 67743 42780 40904 10335 20190 48502 84200
                   333 59003 84856 555 91013=
201401090900 AAXX 09094 67743 NIL=
201401090600 AAXX 09064 67743 32980 30902 10230 20200 48512 82031
                   333 10281 20195 58024 82360 81080
                   555 91016=
201401090000 AAXX 09004 67743 NIL=
201401082100 AAXX 08214 67743 NIL=
201401081800 AAXX 08184 67743 NIL=
201401081500 AAXX 08154 67743 42980 71004 10270 20188 48478 8707/
                   333 58020 87360=
201401081200 AAXX 08124 67743 NIL=
201401080900 AAXX 08094 67743 42980 73604 10235 20206 48501 8707/
                   333 58022 87359 91015=
201401080600 AAXX 08064 67743 31980 72709 10225 20195 48498 75022 8707/
                   333 10342 20205 58011 87359
                   555 00/// 91015=
201401080300 AAXX 08034 67743 NIL=
201401080000 AAXX 08004 67743 NIL=
201401072100 AAXX 07214 67743 NIL=
201401071800 AAXX 07184 67743 NIL=
201401071500 AAXX 07154 67743 42780 32808 10328 20163 48467 70200 82131
                   333 58014 82856 81360 81080 91010=
201401071200 AAXX 07124 67743 42680 33006 10325 20167 48475 82131
                   333 58009 82845 81360 81080 91011=
201401071010 AAXX 07104 67743 42780 32808 10328 20163 48467 70200 82131 58014 82856 91010=
201401070900 AAXX 07094 67743 42580 23004 10295 20225 48490 81131
                   333 58014 81825 81360 81080 91013=
201401070600 AAXX 07064 67743 32580 13006 10240 20196 48559 81531
                   333 10325 20210 58017 81620 81360 81080 91013=
201401070300 AAXX 07034 67743 NIL=
201401070000 AAXX 07004 67743 NIL=
201401062100 AAXX 06214 67743 NIL=
201401061800 AAXX 06184 67743 NIL=
201401061500 AAXX 06154 67743 42880 42807 10320 20160 48453 82261
                   333 58021 82857 81358 83080=
201401061200 AAXX 06124 67743 42880 33006 10320 20170 48466 81201
                   333 58027 81857 83080 91010=
201401060900 AAXX 06094 67743 42980 52911 10281 20179 48474 70122 85002
                   333 58022 85070 91011=
201401060600 AAXX 06064 67743 12980 73005 10221 20207 48470 60024 81032
                   333 10295 20181 58022 81359 85080
                   555 91012=
201401060300 AAXX 06034 67743 NIL=
201401052100 AAXX 05214 67743 NIL=
201401051800 AAXX 05184 67743 NIL=
201401051500 AAXX 05154 67743 NIL=
201401051200 AAXX 05124 67743 NIL=
201401050900 AAXX 05094 67743 42580 73609 10255 20196 48448 83270
                   333 59048 83830 87358=
201401050000 AAXX 05004 67743 NIL=
201401042100 AAXX 04214 67743 NIL=
201401041800 AAXX 04184 67743 NIL=
201401041500 AAXX 04154 67743 41980 70904 10205 20205 48450 72196 82038
                   333 59017 82360 87279=
201401041200 AAXX 04124 67743 42780 70903 10235 20221 48469 81238
                   333 59022 81856 81359 87279 91012=
201401040900 AAXX 04094 67743 41970 70904 10207 20207 48486 76162 8707/
                   333 59012 87359 91014=
201401040600 AAXX 04064 67743 12480 71802 10215 20208 48491 60174 70222 8157/
                   333 10246 20195 59009 81615 87358
                   555 91014=
201401040000 AAXX 04004 67743 NIL=
201401031800 AAXX 03184 67743 NIL=
201401031500 AAXX 03154 67743 NIL=
201401031200 AAXX 03124 67743 41470 81509 10235 20214 48490 76022 8547/
                   333 58027 83620 82825 87460 91014=
201401030900 AAXX 03094 67743 42480 81505 10223 20216 48501 72162 84471
                   333 58020 82616 82825 86360 91015=
201401030600 AAXX 03064 67743 32480 81005 10197 20194 48496 60164 70222 8357/
                   333 10244 20184 58011 83610 87359
                   555 91015=
201401022100 AAXX 02214 67743 NIL=
201401021800 AAXX 02184 67743 NIL=
201401021500 AAXX 02154 67743 NIL=
201401021200 AAXX 02124 67743 42580 60307 10284 20204 48472 83231
                   333 59011 83820 81080
                   555 91011=
201401020900 AAXX 02094 67743 42580 50806 10260 20207 48489 8153/
                   333 81620 83825 81360=
201401020600 AAXX 02064 67743 NIL=
201401020000 AAXX 02004 67743 NIL=
201401012100 AAXX 01214 67743 NIL=
201401011800 AAXX 01184 67743 NIL=
201401011500 AAXX 01154 67743 NIL=
201401011200 AAXX 01124 67743 41570 80908 10220 20212 48473 76062 8557/
                   333 59002 85520 88760
                   555 91012=
201401010900 AAXX 01094 67743 41470 80909 10210 20202 48490 60662 8577/
                   333 58003 86608 85710 88358=
201401010600 AAXX 01064 67743 11368 81203 10200 20200 48486 60364 8777/
                   333 10240 59008 87606 88358
                   555 00/// 91014=

################################################################################
#  SYNOPS from 67751, Magoye (Zambia) | 16-00S | 027-36E | 1018 m
################################################################################
201401310300 AAXX 31034 67751 NIL=
201401310000 AAXX 31004 67751 NIL=
201401302100 AAXX 30214 67751 NIL=
201401301800 AAXX 30184 67751 NIL=
201401301500 AAXX 30154 67751 NIL=
201401301200 AAXX 30124 67751 NIL=
201401300900 AAXX 30094 67751 NIL=
201401300600 AAXX 30064 67751 NIL=
201401300300 AAXX 30034 67751 NIL=
201401292100 AAXX 29214 67751 NIL=
201401291800 AAXX 29184 67751 NIL=
201401291500 AAXX 29154 67751 NIL=
201401291200 AAXX 29124 67751 NIL=
201401290900 AAXX 29094 67751 NIL=
201401290600 AAXX 29064 67751 NIL=
201401290300 AAXX 29034 67751 NIL=
201401290000 AAXX 29004 67751 NIL=
201401282100 AAXX 28214 67751 NIL=
201401281800 AAXX 28184 67751 NIL=
201401281500 AAXX 28154 67751 NIL=
201401281200 AAXX 28124 67751 42482 73004 10252 20173 48473 70222 81348
                   333 58000 81920 81825 83360 87280=
201401280900 AAXX 28094 67751 NIL=
201401280600 AAXX 28064 67751 NIL=
201401280300 AAXX 28034 67751 NIL=
201401272100 AAXX 27214 67751 NIL=
201401271800 AAXX 27184 67751 NIL=
201401271500 AAXX 27154 67751 NIL=
201401271200 AAXX 27124 67751 NIL=
201401270900 AAXX 27094 67751 NIL=
201401270600 AAXX 27064 67751 NIL=
201401270300 AAXX 27034 67751 NIL=
201401270000 AAXX 27004 67751 NIL=
201401262100 AAXX 26214 67751 NIL=
201401261800 AAXX 26184 67751 NIL=
201401261500 AAXX 26154 67751 NIL=
201401261200 AAXX 26124 67751 NIL=
201401260900 AAXX 26094 67751 NIL=
201401260600 AAXX 26064 67751 NIL=
201401251800 AAXX 25184 67751 NIL=
201401251500 AAXX 25154 67751 NIL=
201401251200 AAXX 25124 67751 NIL=
201401250900 AAXX 25094 67751 NIL=
201401250600 AAXX 25064 67751 NIL=
201401250000 AAXX 25004 67751 NIL=
201401242100 AAXX 24214 67751 NIL=
201401241800 AAXX 24184 67751 NIL=
201401241500 AAXX 24154 67751 NIL=
201401241200 AAXX 24124 67751 NIL=
201401240900 AAXX 24094 67751 NIL=
201401240600 AAXX 24064 67751 NIL=
201401240300 AAXX 24034 67751 NIL=
201401240000 AAXX 24004 67751 NIL=
201401231500 AAXX 23154 67751 NIL=
201401231200 AAXX 23124 67751 NIL=
201401230900 AAXX 23094 67751 NIL=
201401230600 AAXX 23064 67751 NIL=
201401230300 AAXX 23034 67751 NIL=
201401230000 AAXX 23004 67751 NIL=
201401222100 AAXX 22214 67751 NIL=
201401221800 AAXX 22184 67751 NIL=
201401221500 AAXX 22154 67751 NIL=
201401221200 AAXX 22124 67751 NIL=
201401220900 AAXX 22094 67751 NIL=
201401220600 AAXX 22064 67751 NIL=
201401220000 AAXX 22004 67751 NIL=
201401212100 AAXX 21214 67751 NIL=
201401211800 AAXX 21184 67751 NIL=
201401211200 AAXX 21124 67751 NIL=
201401210900 AAXX 21094 67751 NIL=
201401210600 AAXX 21064 67751 NIL=
201401210300 AAXX 21034 67751 NIL=
201401202100 AAXX 20214 67751 NIL=
201401201800 AAXX 20184 67751 NIL=
201401201200 AAXX 20124 67751 NIL=
201401200900 AAXX 20094 67751 NIL=
201401200600 AAXX 20064 67751 NIL=
201401200000 AAXX 20004 67751 NIL=
201401192100 AAXX 19214 67751 NIL=
201401191800 AAXX 19184 67751 NIL=
201401191500 AAXX 19154 67751 NIL=
201401191200 AAXX 19124 67751 NIL=
201401190900 AAXX 19094 67751 NIL=
201401190600 AAXX 19064 67751 NIL=
201401190000 AAXX 19004 67751 NIL=
201401181800 AAXX 18184 67751 NIL=
201401181200 AAXX 18124 67751 NIL=
201401180900 AAXX 18094 67751 NIL=
201401180600 AAXX 18064 67751 NIL=
201401180300 AAXX 18034 67751 NIL=
201401180000 AAXX 18004 67751 NIL=
201401171800 AAXX 17184 67751 NIL=
201401171200 AAXX 17124 67751 NIL=
201401170900 AAXX 17090 67751 NIL=
201401170600 AAXX 17064 67751 NIL=
201401170300 AAXX 17034 67751 NIL=
201401162100 AAXX 16214 67751 NIL=
201401161800 AAXX 16184 67751 NIL=
201401161500 AAXX 16154 67751 NIL=
201401161200 AAXX 16124 67751 NIL=
201401160900 AAXX 16094 67751 NIL=
201401160600 AAXX 16064 67751 NIL=
201401151200 AAXX 15124 67751 NIL=
201401140600 AAXX 14064 67751 NIL=
201401140300 AAXX 14034 67751 NIL=
201401132100 AAXX 13214 67751 NIL=
201401131800 AAXX 13184 67751 NIL=
201401131500 AAXX 13154 67751 NIL=
201401131200 AAXX 13124 67751 NIL=
201401130900 AAXX 13094 67751 NIL=
201401091500 AAXX 09154 67751 NIL=
201401091200 AAXX 09124 67751 NIL=
201401090900 AAXX 09094 67751 NIL=
201401090600 AAXX 09064 67751 NIL=
201401090000 AAXX 09004 67751 NIL=
201401082100 AAXX 08214 67751 NIL=
201401081800 AAXX 08184 67751 NIL=
201401081500 AAXX 08154 67751 NIL=
201401081200 AAXX 08124 67751 NIL=
201401080900 AAXX 08094 67751 NIL=
201401080600 AAXX 08064 67751 NIL=
201401080300 AAXX 08034 67751 NIL=
201401080000 AAXX 08004 67751 NIL=
201401072100 AAXX 07214 67751 NIL=
201401071800 AAXX 07184 67751 NIL=
201401071500 AAXX 07154 67751 NIL=
201401071200 AAXX 07124 67751 NIL=
201401070900 AAXX 07094 67751 NIL=
201401070600 AAXX 07064 67751 NIL=
201401070300 AAXX 07034 67751 NIL=
201401070000 AAXX 07004 67751 NIL=
201401062100 AAXX 06214 67751 NIL=
201401061800 AAXX 06184 67751 NIL=
201401061500 AAXX 06154 67751 NIL=
201401061200 AAXX 06124 67751 NIL=
201401060900 AAXX 06094 67751 NIL=
201401060600 AAXX 06064 67751 NIL=
201401060300 AAXX 06034 67751 NIL=
201401052100 AAXX 05214 67751 NIL=
201401051800 AAXX 05184 67751 NIL=
201401051500 AAXX 05154 67751 NIL=
201401051200 AAXX 05124 67751 NIL=
201401050900 AAXX 05094 67751 NIL=
201401050000 AAXX 05004 67751 NIL=
201401042100 AAXX 04214 67751 NIL=
201401041800 AAXX 04184 67751 NIL=
201401041500 AAXX 04154 67751 NIL=
201401041200 AAXX 04124 67751 NIL=
201401040900 AAXX 04094 67751 NIL=
201401040600 AAXX 04064 67751 NIL=
201401040000 AAXX 04004 67751 NIL=
201401031800 AAXX 03184 67751 NIL=
201401031500 AAXX 03154 67751 NIL=
201401031200 AAXX 03124 67751 NIL=
201401030900 AAXX 03094 67751 NIL=
201401030600 AAXX 03064 67751 NIL=
201401022100 AAXX 02214 67751 NIL=
201401021800 AAXX 02184 67751 NIL=
201401021500 AAXX 02154 67751 NIL=
201401021200 AAXX 02124 67751 NIL=
201401020900 AAXX 02094 67751 NIL=
201401020600 AAXX 02064 67751 NIL=
201401020000 AAXX 02004 67751 NIL=
201401012100 AAXX 01214 67751 NIL=
201401011800 AAXX 01184 67751 NIL=
201401011500 AAXX 01154 67751 NIL=
201401010900 AAXX 01094 67751 NIL=
201401010600 AAXX 01064 67751 NIL=

################################################################################
#  SYNOPS from 67753, Choma (Zambia) | 16-50S | 027-04E | 1213 m
################################################################################
201401310300 AAXX 31034 67753 NIL=
201401310000 AAXX 31004 67753 NIL=
201401302100 AAXX 30214 67753 NIL=
201401301800 AAXX 30184 67753 NIL=
201401301500 AAXX 30154 67753 NIL=
201401301200 AAXX 30124 67753 NIL=
201401300900 AAXX 30094 67753 NIL=
201401300600 AAXX 30064 67753 12560 63416 10198 20189 48/// 60134 83530
                   333 10266 20175 5//// 83620 83360
                   555 00///=
201401300300 AAXX 30034 67753 NIL=
201401292100 AAXX 29214 67753 NIL=
201401291800 AAXX 29184 67753 NIL=
201401291500 AAXX 29154 67753 NIL=
201401291200 AAXX 29124 67753 NIL=
201401290900 AAXX 29094 67753 NIL=
201401290600 AAXX 29064 67753 11360 63313 10190 20184 48/// 60164 76062 83631
                   333 10265 20172 5//// 82709 81820 83360 81080
                   555 00///=
201401290300 AAXX 29034 67753 NIL=
201401290000 AAXX 29004 67753 NIL=
201401282100 AAXX 28214 67753 NIL=
201401281800 AAXX 28184 67753 NIL=
201401281500 AAXX 28154 67753 NIL=
201401281200 AAXX 28124 67753 NIL=
201401280900 AAXX 28094 67753 NIL=
201401280600 AAXX 28064 67753 12360 73110 10203 20184 48/// 60134 8263/
                   333 10250 20198 5//// 82709 85360
                   555 00///=
201401280300 AAXX 28034 67753 NIL=
201401272100 AAXX 27214 67753 NIL=
201401271800 AAXX 27184 67753 NIL=
201401271500 AAXX 27154 67753 NIL=
201401271200 AAXX 27124 67753 NIL=
201401270900 AAXX 27094 67753 NIL=
201401270600 AAXX 27064 67753 NIL=
201401270300 AAXX 27034 67753 NIL=
201401270000 AAXX 27004 67753 NIL=
201401262100 AAXX 26214 67753 NIL=
201401261800 AAXX 26184 67753 NIL=
201401261500 AAXX 26154 67753 NIL=
201401261200 AAXX 26124 67753 NIL=
201401260900 AAXX 26094 67753 NIL=
201401260600 AAXX 26064 67753 NIL=
201401251800 AAXX 25184 67753 NIL=
201401251500 AAXX 25154 67753 NIL=
201401251200 AAXX 25124 67753 NIL=
201401250900 AAXX 25094 67753 NIL=
201401250600 AAXX 25064 67753 NIL=
201401250000 AAXX 25004 67753 NIL=
201401242100 AAXX 24214 67753 NIL=
201401241800 AAXX 24184 67753 NIL=
201401241500 AAXX 24154 67753 NIL=
201401241200 AAXX 24124 67753 NIL=
201401240900 AAXX 24094 67753 NIL=
201401240600 AAXX 24064 67753 32560 50909 10215 20196 48/// 81132
                   333 10300 20180 5//// 81820 82360 82080
                   555 00///=
201401240300 AAXX 24034 67753 NIL=
201401240000 AAXX 24004 67753 NIL=
201401231500 AAXX 23154 67753 NIL=
201401231200 AAXX 23124 67753 NIL=
201401230900 AAXX 23094 67753 NIL=
201401230600 AAXX 23064 67753 32560 51017 10220 20191 48/// 82132
                   333 10305 20175 5//// 82820 82360 81080
                   555 00///=
201401230300 AAXX 23034 67753 NIL=
201401230000 AAXX 23004 67753 NIL=
201401222100 AAXX 22214 67753 NIL=
201401221800 AAXX 22184 67753 NIL=
201401221500 AAXX 22154 67753 NIL=
201401221200 AAXX 22124 67753 NIL=
201401220900 AAXX 22094 67753 NIL=
201401220600 AAXX 22064 67753 12560 41812 10220 20194 48/// 60094 81170
                   333 10295 20175 5//// 81820 83360=
201401220000 AAXX 22004 67753 NIL=
201401212100 AAXX 21214 67753 NIL=
201401211800 AAXX 21184 67753 NIL=
201401211200 AAXX 21124 67753 NIL=
201401210900 AAXX 21094 67753 NIL=
201401210600 AAXX 21064 67753 32560 20613 10233 20201 48/// 81130
                   333 10286 20160 5//// 81820 81360=
201401210300 AAXX 21034 67753 NIL=
201401202100 AAXX 20214 67753 NIL=
201401201800 AAXX 20184 67753 NIL=
201401201200 AAXX 20124 67753 NIL=
201401200900 AAXX 20094 67753 NIL=
201401200600 AAXX 20064 67753 12560 40913 10210 20187 60044 81170
                   333 10291 20170 5//// 81820 83360=
201401200000 AAXX 20004 67753 NIL=
201401192100 AAXX 19214 67753 NIL=
201401191800 AAXX 19184 67753 NIL=
201401191500 AAXX 19154 67753 NIL=
201401191200 AAXX 19124 67753 NIL=
201401190900 AAXX 19094 67753 NIL=
201401190600 AAXX 19064 67753 NIL=
201401190000 AAXX 19004 67753 NIL=
201401181800 AAXX 18184 67753 NIL=
201401181200 AAXX 18124 67753 NIL=
201401180900 AAXX 18094 67753 NIL=
201401180600 AAXX 18064 67753 NIL=
201401180300 AAXX 18034 67753 NIL=
201401180000 AAXX 18004 67753 NIL=
201401171800 AAXX 17184 67753 NIL=
201401171200 AAXX 17124 67753 NIL=
201401170900 AAXX 17094 67753 NIL=
201401170600 AAXX 17064 67753 12560 21805 10209 20197 48/// 60124 82100
                   333 10272 20161 5//// 82825=
201401170300 AAXX 17034 67753 NIL=
201401162100 AAXX 16214 67753 NIL=
201401161800 AAXX 16184 67753 NIL=
201401161500 AAXX 16154 67753 NIL=
201401161200 AAXX 16124 67753 NIL=
201401160900 AAXX 16094 67753 NIL=
201401160600 AAXX 16064 67753 12560 33410 10214 20196 48/// 69984 82131
                   333 10262 20161 5//// 81620 81825 81360 81080=
201401151200 AAXX 15124 67753 NIL=
201401150600 AAXX 15064 67753 11560 60312 10194 20189 48/// 60284 72562 82832
                   333 10277 20169 5//// 81620 81825 83360 81080=
201401140600 AAXX 14064 67753 NIL=
201401140300 AAXX 14034 67753 NIL=
201401132100 AAXX 13214 67753 NIL=
201401131800 AAXX 13184 67753 NIL=
201401131500 AAXX 13154 67753 NIL=
201401131200 AAXX 13124 67753 NIL=
201401130900 AAXX 13094 67753 NIL=
201401130600 AAXX 13064 67753 11560 70409 10195 20189 48/// 69904 76062 81171
                   333 10264 20170 5//// 81820 84360 82080=
201401091500 AAXX 09154 67753 NIL=
201401091200 AAXX 09124 67753 NIL=
201401090900 AAXX 09094 67753 NIL=
201401090600 AAXX 09064 67753 12960 50808 10231 20194 48/// 60034 81032
                   333 10290 20176 5//// 81360 84080=
201401090000 AAXX 09004 67753 NIL=
201401082100 AAXX 08214 67753 NIL=
201401081800 AAXX 08184 67753 NIL=
201401081500 AAXX 08154 67753 NIL=
201401081200 AAXX 08124 67753 NIL=
201401080900 AAXX 08094 67753 NIL=
201401080600 AAXX 08064 67753 NIL=
201401080300 AAXX 08034 67753 NIL=
201401080000 AAXX 08004 67753 NIL=
201401072100 AAXX 07214 67753 NIL=
201401071800 AAXX 07184 67753 NIL=
201401071500 AAXX 07154 67753 NIL=
201401071200 AAXX 07124 67753 NIL=
201401070900 AAXX 07094 67753 NIL=
201401070600 AAXX 07064 67753 32560 62808 10226 20194 48/// 81130
                   333 10316 20182 5//// 81820
                   555 00///=
201401070300 AAXX 07034 67753 NIL=
201401070000 AAXX 07004 67753 NIL=
201401062100 AAXX 06214 67753 NIL=
201401061800 AAXX 06184 67753 NIL=
201401061500 AAXX 06154 67753 NIL=
201401061200 AAXX 06124 67753 NIL=
201401060900 AAXX 06094 67753 NIL=
201401060600 AAXX 06064 67753 12960 63010 10219 20187 48/// 60024 81032
                   333 10280 20181 5//// 81360 85080=
201401060300 AAXX 06034 67753 NIL=
201401052100 AAXX 05214 67753 NIL=
201401051800 AAXX 05184 67753 NIL=
201401051500 AAXX 05154 67753 NIL=
201401051200 AAXX 05124 67753 NIL=
201401050900 AAXX 05094 67753 NIL=
201401050000 AAXX 05004 67753 NIL=
201401042100 AAXX 04214 67753 NIL=
201401041800 AAXX 04184 67753 NIL=
201401041500 AAXX 04154 67753 NIL=
201401041200 AAXX 04124 67753 NIL=
201401040900 AAXX 04094 67753 NIL=
201401040600 AAXX 04064 67753 NIL=
201401040000 AAXX 04004 67753 NIL=
201401031800 AAXX 03184 67753 NIL=
201401031500 AAXX 03154 67753 NIL=
201401031200 AAXX 03124 67753 NIL=
201401030900 AAXX 03094 67753 NIL=
201401030600 AAXX 03064 67753 12360 83511 10189 20179 48/// 69944 8217/
                   333 10257 20176 5//// 81709 81820 86360=
201401022100 AAXX 02214 67753 NIL=
201401021800 AAXX 02184 67753 NIL=
201401021500 AAXX 02154 67753 NIL=
201401021200 AAXX 02124 67753 NIL=
201401020900 AAXX 02094 67753 NIL=
201401020600 AAXX 02064 67753 11560 70210 10194 20191 48/// 60234 72162 8257/
                   333 10263 20171 5//// 81620 81825 86360=
201401020000 AAXX 02004 67753 NIL=
201401012100 AAXX 01214 67753 NIL=
201401011800 AAXX 01184 67753 NIL=
201401011500 AAXX 01154 67753 NIL=
201401010900 AAXX 01094 67753 NIL=
201401010600 AAXX 01064 67753 NIL=

################################################################################
#  SYNOPS from 67855, Lupaki (Zambia) | 17-03-00S | 024-46-00E | 1000 m
################################################################################
201401301800 AAXX 30184 67855 NIL=
201401301200 AAXX 30124 67855 NIL=
201401300600 AAXX 30064 67855 12375 70401 10230 20201 3//// 48/// 69904 8767/
                   333 20212 5//// 87707=
201401291800 AAXX 29184 67855 NIL=
201401291200 AAXX 29124 67855 42675 73303 10290 20216 3//// 48/// 8523/
                   333 5//// 85840 87360=
201401290600 AAXX 29064 67855 42375 73602 10216 20189 38/// 48/// 60024 81632
                   333 20198 5//// 81707 83360 87080=
201401281800 AAXX 28184 67855 NIL=
201401281200 AAXX 28124 67855 41375 73302 10240 20212 38/// 48/// 72162 8267/
                   333 5//// 82707 87459=
201401280600 AAXX 28064 67855 11970 70502 10206 20200 3//// 48/// 60284 72162 8707/
                   333 20189 5//// 87459=
201401271800 AAXX 27184 67855 NIL=
201401271200 AAXX 27124 67855 NIL=
201401270600 AAXX 27064 67855 12375 51802 10216 20193 3//// 48/// 60084 81681
                   333 20193 5//// 81707 85360=
201401261200 AAXX 26124 67855 NIL=
201401260600 AAXX 26064 67855 NIL=
201401251200 AAXX 25124 67855 41670 60101 10320 20210 3//// 48/// 71798 84203
                   333 5//// 81925 83830 86080=
201401250600 AAXX 25064 67855 11975 70000 10230 20213 3//// 48/// 69964 70398 81031
                   333 20194 5//// 81360 87080=
201401241800 AAXX 24184 67855 NIL=
201401241200 AAXX 24124 67855 42775 71801 10316 20152 3//// 48/// 84202
                   333 5//// 84850 87080=
201401240600 AAXX 24064 67855 12980 60301 10216 20193 38/// 48/// 60014 80002
                   333 20188 5//// 86080=
201401231800 AAXX 23184 67855 NIL=
201401231200 AAXX 23124 67855 42780 60701 10322 20207 38/// 48/// 86232
                   333 5//// 86850=
201401230600 AAXX 23064 67855 32375 50602 10230 20193 3//// 48/// 81632
                   333 20189 5//// 81707 85080=
201401221200 AAXX 22124 67855 NIL=
201401220600 AAXX 22064 67855 32975 10604 10220 20168 38/// 48/// 80001
                   333 20167 5//// 81080=
201401201800 AAXX 20184 67855 NIL=
201401201200 AAXX 20124 67855 41770 10902 10330 20178 3//// 48/// 70500 81100
                   333 5//// 81850=
201401200600 AAXX 20064 67855 31970 11802 10220 20158 3//// 48/// 70500 80001
                   333 20144 5//// 81080=
201401191200 AAXX 19124 67855 NIL=
201401190600 AAXX 19064 67855 32975 00403 10220 20166 38/// 48///
                   333 20153 5////=
201401181800 AAXX 18184 67855 NIL=
201401181200 AAXX 18124 67855 42680 32701 10316 20146 38/// 48/// 83200
                   333 5//// 83840=
201401180600 AAXX 18064 67855 32975 00602 10216 20176 3//// 48///
                   333 20144 5////=
201401171800 AAXX 17184 67855 NIL=
201401171200 AAXX 17124 67855 42675 51701 10296 20158 3//// 48/// 85200
                   333 5//// 85840=
201401170600 AAXX 17064 67855 31975 00000 10220 20175 3//// 48/// 70242
                   333 20165 5////=
201401161800 AAXX 16184 67855 NIL=
201401161200 AAXX 16124 67855 42675 31402 10310 20156 3//// 48/// 83260
                   333 5//// 83840=
201401160600 AAXX 16064 67855 32375 11601 10216 20178 3//// 48/// 81630
                   333 20172 5//// 81707=
201401151800 AAXX 15184 67855 NIL=
201401151200 AAXX 15124 67855 42675 30000 10304 20185 3//// 48/// 83230
                   333 5//// 83840=
201401150600 AAXX 15064 67855 11375 61401 10222 20181 3//// 48/// 60034 70341 81630
                   333 20174 5//// 81707 86360=
201401141800 AAXX 14184 67855 NIL=
201401141200 AAXX 14124 67855 42675 50604 10326 20228 3//// 48/// 85230
                   333 5//// 85840=
201401140600 AAXX 14064 67855 32375 30905 10236 20186 38/// 48/// 83630
                   333 20195 5//// 83807=
201401131200 AAXX 13124 67855 42675 50301 10300 20200 38/// 48/// 85200
                   333 5//// 85840=
201401130600 AAXX 13064 67855 12975 10703 10230 20198 3//// 48/// 60274 81030
                   333 20194 5//// 81360=
201401121200 AAXX 12124 67855 NIL=
201401120600 AAXX 12064 67855 11970 70000 10198 20189 3//// 48/// 60054 70262 8707/
                   333 20187 5//// 87459=
201401111200 AAXX 11124 67855 42675 53601 10306 20200 3//// 48/// 83230
                   333 5//// 83835 85360=
201401110600 AAXX 11064 67855 11975 72002 10210 20196 3//// 48/// 60154 70262 8707/
                   333 20190 5//// 87459=
201401101200 AAXX 10124 67855 41675 41801 10322 20163 3//// 48/// 72581 84230
                   333 5//// 84840=
201401100600 AAXX 10064 67855 32980 40401 10242 20199 38/// 48/// 81031
                   333 20184 5//// 81360 84080=
201401091200 AAXX 09124 67855 42675 51901 10312 20185 3//// 48/// 85260
                   333 5//// 85840=
201401090600 AAXX 09064 67855 11975 60601 10222 20193 38/// 48/// 60024 72842 86030
                   333 20204 5//// 86360=
201401081800 AAXX 08184 67855 NIL=
201401081200 AAXX 08124 67855 41675 52102 10322 20159 38/// 48/// 71792 85233
                   333 5//// 81935 84840=
201401080600 AAXX 08064 67855 31975 70000 10228 20197 3//// 48/// 72842 8707/
                   333 20178 5//// 87459=
201401071800 AAXX 07184 67855 NIL=
201401071200 AAXX 07124 67855 42675 71401 10276 20186 3//// 48/// 8227/
                   333 5//// 82840 87459=
201401070600 AAXX 07064 67855 12975 70000 10222 20202 3//// 48/// 60024 83032
                   333 20184 5//// 83360 87080=
201401061800 AAXX 06184 67855 NIL=
201401061200 AAXX 06124 67855 42675 72602 10286 20198 3//// 48/// 84202
                   333 5//// 84840 87080=
201401060600 AAXX 06064 67855 11375 73002 10220 20191 3//// 48/// 60104 70262 8567/
                   333 20203 5//// 85707 87459=
201401051200 AAXX 05124 67855 41375 73403 10260 20226 3//// 48/// 72582 8567/
                   333 5//// 85707 87459=
201401050600 AAXX 05064 67855 11375 73603 10216 20202 3//// 48/// 60144 72162 8568/
                   333 20172 5//// 85707 87360=
201401041800 AAXX 04184 67855 NIL=
201401041200 AAXX 04124 67855 41675 73001 10266 20209 3//// 48/// 70298 8327/
                   333 5//// 83835 87459=
201401040600 AAXX 04064 67855 12380 70702 10222 20197 38/// 48/// 60014 8367/
                   333 20198 5//// 83707 87459=
201401031800 AAXX 03184 67855 NIL=
201401031200 AAXX 03124 67855 41670 73601 10254 20203 38/// 48/// 78098 8327/
                   333 5//// 83835 87458=
201401030600 AAXX 03064 67855 11370 70502 10226 20199 3//// 48/// 69904 76062 8577/
                   333 20203 5//// 85707 87458=
201401021200 AAXX 02124 67855 41675 73301 10262 20205 3//// 48/// 8527/
                   333 5//// 85835 87459=
201401020600 AAXX 02064 67855 11375 70601 10206 20200 3//// 48/// 60684 70262 8367/
                   333 20189 5//// 83707 87459=
201401011200 AAXX 01124 67855 41670 71801 10246 20215 3//// 48/// 72582 8527/
                   333 5//// 85835 87459=
201401010600 AAXX 01064 67855 NIL=
