################################################################################
# Query made at 04/15/2022 01:50:48 UTC
# Country like Zamb*
# Time interval: from 03/01/2010 05:30  to 03/31/2010 06:30  UTC
################################################################################

################################################################################
#  SYNOPS from 67413, Mbala (Zambia) | 08-51S | 031-20E | 1673 m
################################################################################
201003310600 AAXX 31064 67413 12980 41313 10205 20166 48514 60034 80001
                   333 10240 20150 59011 84080=
201003190600 AAXX 19064 67413 12480 71410 10198 20172 48551 69964 81532
                   333 10285 20161 58007 81613 83360 85280=
201003030600 AAXX 03064 67413 12980 70000 10185 20161 48549 60024 8707/
                   333 10240 20140 58005 87459=

################################################################################
#  SYNOPS from 67441, Mwinilunga (Zambia) | 11-45S | 024-26E | 1361 m
################################################################################
201003310600 AAXX 31064 67441 12480 70000 10195 20195 48558 60114 8113/
                   333 10300 20//0 59007 81815 87360=
201003300900 AAXX 30094 67441 42682 60000 10263 20192 48569 86100
                   333 59012 86830=
201003300600 AAXX 30064 67441 11980 20000 10200 20185 48565 60024 72840 82041
                   333 10280 20/// 59003 82360 81080=
201003290900 AAXX 29094 67441 42580 60000 20187 48581 86100
                   333 5//// 86825=
201003290600 AAXX 29064 67441 12480 70000 10195 20180 48568 60114 8217/
                   333 10275 20/// 58017 82815 87360=
201003261200 AAXX 26124 67441 42680 50000 10282 20192 48534 85200
                   333 5//// 85835=
201003260600 AAXX 26064 67441 11/01 90000 10173 20173 48558 60024 74540
                   333 10280 20/// 58016=
201003250600 AAXX 25064 67441 11405 10000 10182 20182 48543 60024 74244 81130
                   333 10280 20/// 58015 81815 81360=
201003240900 AAXX 24094 67441 42580 70000 10245 20187 48536 8113/
                   333 5//// 81825 87360=
201003240300 AAXX 24034 67441 12480 70000 10195 20182 48528 69904 8113/
                   333 10265 20/// 5//// 81818 87360=
201003230600 AAXX 23064 67441 11980 70000 10185 20180 48/// 60184 72166 8707/
                   333 10265 20/// 5//// 87360=
201003220600 AAXX 22064 67441 NIL=
201003180600 AAXX 18064 67441 11580 60000 10200 20193 48586 60124 72842 81230
                   333 10275 20/// 58015 81825 86360=
201003170600 AAXX 17064 67441 11903 70000 10188 20179 48542 60054 74442 8703/
                   333 10285 20//0 59009 87360=
201003160600 AAXX 16064 67441 12480 70000 10190 20183 48530 69904 8113/
                   333 10295 20//0 58011 81815 87360=
201003120600 AAXX 12064 67441 11980 70000 10205 20198 48516 60014 76022 8703/
                   333 10295 20200 85005 87360=
201003110600 AAXX 11064 67441 11975 80000 10185 20185 48556 60124 76166 8802/
                   333 10285 20/// 59001 88460=
201003100900 AAXX 10094 67441 42680 31203 10254 20197 48554 82130
                   333 59009 83830 81360 Q1021.0=
201003090900 AAXX 09094 67441 41480 70000 10200 20185 48572 72166 8217/
                   333 5//// 82818 87360=
201003090600 AAXX 09064 67441 11980 80000 10195 20187 48554 60204 70266 8807/
                   333 10290 20/// 58002 88460=
201003020600 AAXX 02064 67441 12480 83605 10190 20183 48542 69904 885//
                   333 10295 20/// 58013 88618=
201003010600 AAXX 01064 67441 11980 70000 10191 20180 48529 60254 72162 8703/
                   333 10265 20//// 5//// 87360=

################################################################################
#  SYNOPS from 67461, Mansa (Zambia) | 11-06S | 028-51E | 1382 m
################################################################################
201003300600 AAXX 30064 67461 12580 71802 10198 20194 48555 60144 875//
                   333 10294 20182 58005 87620=
201003260600 AAXX 26064 67461 32580 50903 10227 20207 48543 84531
                   333 10292 20174 58009 84620 83360 83080=
201003250600 AAXX 25064 67461 NIL=
201003230600 AAXX 23064 67461 12580 70803 10205 20192 48505 60754 8257/
                   333 10270 20180 59014 82620 87461=
201003220600 AAXX 22064 67461 12580 70000 10206 20191 48526 60334 8257/
                   333 10300 20182 59006 82618 86462=
201003190600 AAXX 19064 67461 32580 83601 10201 20194 48539 8357/
                   333 10305 20176 58017 83620 88461=
201003180600 AAXX 18064 67461 32980 61002 10226 20207 48531 83038
                   333 10315 20187 58001 83362 85280=
201003090600 AAXX 09064 67461 32580 71206 20188 48526 8257/
                   333 10290 20180 59008 82624 87462=
201003020600 AAXX 02064 67461 11560 83509 10195 20184 48529 60134 76062 8807/
                   333 10277 20182 58027 88362=
201003010600 AAXX 01064 67461 11570 70000 10195 20192 48506 60044 74142 83538
                   333 10292 20180 58032 83620 83362 87280=

################################################################################
#  SYNOPS from 67475, Kasama (Zambia) | 10-13S | 031-08E | 1382 m
################################################################################
201003260600 AAXX 26064 67475 32580 60912 10206 20191 48539 86500
                   333 10269 20167 58017 86610=
201003250600 AAXX 25064 67475 12680 80000 10190 20176 48521 60184 8197/
                   333 10281 20179 58000 81940 88460=
201003230600 AAXX 23064 67475 11475 70305 10204 20183 48507 69904 72842 8553/
                   333 10279 20175 5//// 85610 87360=
201003220600 AAXX 22064 67475 32480 70305 10209 20189 48/// 8258/
                   333 10286 20173 5//// 82615 87361=
201003190600 AAXX 19064 67475 12480 80107 10190 20187 48543 60024 8557/
                   333 10307 20174 58012 85610 87460=
201003110900 AAXX 11094 67475 42580 42803 10262 20192 48527 84230
                   333 59005 81925 84825 82361=
201003110600 AAXX 11064 67475 11478 60803 10220 20200 48532 60044 72842 82531
                   333 10276 20178 59008 82610 86361 82080=
201003100900 AAXX 10094 67475 41580 61407 10237 20197 48531 71522 86500
                   333 58005 86620 Q1020.6=
201003090900 AAXX 09094 67475 42582 50309 10257 20187 48527 85201
                   333 59014 85828 83080=
201003090600 AAXX 09064 67475 32480 60904 10220 20190 48532 82532
                   333 10/// 20176 59010 82615 81361 86080=
201003020600 AAXX 02064 67475 12980 73516 10195 20182 48531 60054 8707/
                   333 10276 20178 58020 87361=
201003010900 AAXX 01094 67475 42580 60304 10238 20184 48507 85232
                   333 59017 81925 85825 85361 86080=
201003010600 AAXX 01064 67475 12480 73604 10182 20176 48510 60174 86732
                   333 10281 20169 59027 86710 85360 87080=

################################################################################
#  SYNOPS from 67476, Misamfu (Zambia) | 10-06S | 031-15E | 1536 m
################################################################################
201003190600 AAXX 19064 67476 12380 80000 10199 20188 48/// 60024 886//
                   333 10311 20165 58008 88708=

################################################################################
#  SYNOPS from 67477, Mpika (Zambia) | 11-54S | 031-26E | 1400 m
################################################################################
201003300600 AAXX 30064 67477 12380 71504 10203 20183 48546 69954 86531
                   333 10265 20173 59002 86608 81362 81080=
201003250600 AAXX 25064 67477 12480 71203 10204 20184 48526 69904 875//
                   333 10272 20174 58010 87610=
201003230600 AAXX 23064 67477 12380 71204 10192 20179 48506 69904 875//
                   333 10258 20171 59015 87608=
201003220600 AAXX 22064 67477 11360 71105 10198 20184 48522 60094 70362 8277/
                   333 10267 20174 59009 82706 87360=
201003190600 AAXX 19064 67477 12280 80605 10189 20179 48537 60054 8367/
                   333 10267 20175 58007 83703 88360=
201003020600 AAXX 02064 67477 11380 80000 10189 20184 48536 60204 76166 8277/
                   333 10248 20180 58029 82708 88459=
201003010600 AAXX 01064 67477 NIL=

################################################################################
#  SYNOPS from 67481, Isoka (Zambia) | 10-07S | 032-38E | 1360 m
################################################################################
201003260600 AAXX 26064 67481 12380 40000 10211 20163 48/// 60104 81603
                   333 10280 20175 5//// 81709 84360=

################################################################################
#  SYNOPS from 67531, Zambezi (Zambia) | 13-32S | 023-07E | 1077 m
################################################################################
201003300600 AAXX 30064 67531 12980 11002 10214 20196 48/// 60124 81032
                   333 10287 20169 59001 81365 81082=
201003290600 AAXX 29064 67531 12980 20302 10209 20192 48/// 60044 81032
                   333 10280 20182=
201003260600 AAXX 26064 67531 12480 50902 10214 20205 48/// 60024 82532
                   333 10310 20182 58001 82610 81360 83082=
201003250600 AAXX 25064 67531 12380 50601 10212 20196 48/// 60064 81638
                   333 10272 20166 5//// 81707 81362 85281=
201003240900 AAXX 24094 67531 41580 73306 10245 20201 48/// 79599 872//
                   333 5//// 81925 87826=
201003230600 AAXX 23064 67531 12380 73603 10200 20186 48/// 60064 81650
                   333 10266 20189 5//// 81706 87460=
201003220600 AAXX 22064 67531 11380 73602 10205 20201 48/// 69934 70262 8667/
                   333 10279 20185 5//// 86706 87460=
201003190900 AAXX 19094 67531 41580 73607 10252 20197 48/// 76062 8687/
                   333 58011 83620 84822 82622 87460=
201003190600 AAXX 19064 67531 12480 73602 10230 20207 48/// 60044 81132
                   333 10306 20195 58006 81810 86362 81080=
201003180900 AAXX 18094 67531 42580 70401 10270 20211 48/// 81131
                   333 58015 81825 87361=
201003180600 AAXX 18064 67531 12980 71001 10204 20194 48/// 60064 8707/
                   333 10311 20195 87460=
201003090600 AAXX 09064 67531 12480 70904 10223 20191 48/// 69904 8113/
                   333 10229 20184 59002 81616 87361=
201003020600 AAXX 02064 67531 12380 71201 10215 20202 48/// 60034 8162/
                   333 10300 20190 5//// 87706 87460=
201003010600 AAXX 01064 67531 32980 70000 10210 20193 48/// 8167/
                   333 10330 20183 5//// 81707 87460=

################################################################################
#  SYNOPS from 67541, Kasempa (Zambia) | 13-32S | 025-51E | 1234 m
################################################################################
201003250600 AAXX 25064 67541 NIL=
201003220600 AAXX 22064 67541 NIL=
201003020600 AAXX 02064 67541 NIL=
201003010600 AAXX 01064 67541 NIL=

################################################################################
#  SYNOPS from 67551, Solwezi (Zambia) | 12-11S | 026-23E | 1386 m
################################################################################
201003260600 AAXX 26064 67551 11358 70000 10196 20196 48518 60094 74044 82630
                   333 10260 20172 58005 82620 86360=

################################################################################
#  SYNOPS from 67561, Ndola (Zambia) | 13-00S | 028-39E | 1269 m
################################################################################
201003290600 AAXX 29064 67561 11/10 10178 20175 48574 60034 74544 8////
                   333 10294 20256 58023 89///=
201003260600 AAXX 26064 67561 12980 40606 10210 20191 48533 60014 81032
                   333 10293 20170 58006 81360 84080=
201003250900 AAXX 25094 67561 41460 70605 10252 20192 48530 70522 84238
                   333 58015 86360 87280=
201003250600 AAXX 25064 67561 31960 70000 10205 20190 48527 70522 86038
                   333 10270 20185 58010 86360 87280=
201003240900 AAXX 24094 67561 42480 70506 10223 20182 48512 84238
                   333 58009 84812 83360 87280=
201003230600 AAXX 23064 67561 31960 71203 10207 20183 48508 70522 86078
                   333 10275 20172 59012 86459 86528=
201003220600 AAXX 22064 67561 31565 50000 10211 20187 48545 70522 82638
                   333 10282 20175 59007 82620 83361 85280=
201003190600 AAXX 19064 67561 11356 80000 10195 20186 48540 69914 74622 84638
                   333 10270 20185 58011 84707 86360 87280=
201003180600 AAXX 18064 67561 11958 70000 10204 20191 48530 60124 72122 86038
                   333 10285 20/// 58011 86560 87280=
201003160600 AAXX 16064 67561 31360 70000 10208 20186 48529 70522 84638
                   333 10282 20190 58010 84706 85360 87280
                   555 BB040 CC190 DD/// Q1020.7=
201003150600 AAXX 15064 67561 31970 70000 10204 20185 48520 70522 85038
                   333 58009 85361 85280=
201003140900 AAXX 14094 67561 42560 40405 10276 20180 48514 70500 83202
                   333 59010 83822 83080=
201003130600 AAXX 13064 67561 11980 50000 10209 20193 48524 60114 70342
                   333 10//0 20165 59009 81810 85280=
201003110600 AAXX 11064 67561 11356 70000 10212 20197 48531 69904 74242 83638
                   333 10300 20189 59009 83707 84360 85280=
201003091200 AAXX 09124 67561 41660 70000 10286 20182 48502 70522 85232
                   333 59020 85835 84360 84280=
201003090900 AAXX 09094 67561 41560 70505 10250 20183 48531 70522 84230
                   333 59013 84822 85360 86280=
201003090600 AAXX 09064 67561 11960 60000 10207 20177 48532 69904 70522 85033
                   333 10274 20175 58006 85360 86280=
201003030600 AAXX 03064 67561 11259 80000 10187 20187 48537 60274 74022 8463/
                   333 10219 20180 58022 84708 87360=
201003020600 AAXX 02064 67561 11268 80603 10199 20192 48517 60224 72162 8577/
                   333 10272 20184 58015 85703 88459=
201003010900 AAXX 01094 67561 41570 70000 10251 20192 48500 70522 86238
                   333 59033 81920 85820 83360 87280=
201003010600 AAXX 01064 67561 11370 70000 10201 20196 48502 60094 70522 86538
                   333 10290 20175 59030 81708 84610 83360 86280=

################################################################################
#  SYNOPS from 67563, Kafironda (Zambia) | 12-36S | 028-07E | 1243 m
################################################################################
201003260600 AAXX 26064 67563 12980 11602 10228 20190 48/// 60014 80001
                   333 10292 20161 59015 81080=
201003030600 AAXX 03064 67563 12380 70901 10198 20180 48/// 60064 82720
                   333 10221 20179 58021 82703 86358=

################################################################################
#  SYNOPS from 67571, Serenje (Zambia) | 13-14S | 030-13E | 1384 m
################################################################################
201003190600 AAXX 19064 67571 12984 70905 10202 20181 48532 60274 86038
                   333 10272 20182 58009 86360 87280=

################################################################################
#  SYNOPS from 67580, Msekera (Zambia) | 13-39S | 032-34E | 1025 m
################################################################################
201003290900 AAXX 29094 67580 42680 53604 10277 20204 48/// 85230
                   333 58014 85840 81362=
201003260600 AAXX 26064 67580 32980 60000 10247 20203 48/// 80008
                   333 10299 20180 58009 86282=
201003251200 AAXX 25124 67580 41780 70303 10291 20208 48/// 71522 85208
                   333 58026 81950 85856 87280=
201003190600 AAXX 19064 67580 12480 70902 10219 20198 48/// 69984 82531
                   333 10299 20184 58018 82616 85360 83080=
201003180900 AAXX 18094 67580 42680 71502 10280 20206 48/// 82138
                   333 58006 82530 83362 84280=
201003110600 AAXX 11064 67580 32480 70000 10243 20208 48/// 81131
                   333 10298 20185 59006 81817 86360 82080=
201003090600 AAXX 09064 67580 32980 71802 10222 20191 48/// 8703/
                   333 10269 20180 59004 87360=
201003030600 AAXX 03064 67580 12980 72403 10216 20196 48/// 60134 87031
                   333 10238 20179 58009 87360 83080=

################################################################################
#  SYNOPS from 67581, Chipata (Zambia) | 13-33S | 032-35E | 1028 m
################################################################################
201003300600 AAXX 30064 67581 32580 31405 10239 20205 48560 82130
                   333 10300 20195 58000 82825 83360=
201003260600 AAXX 26064 67581 32980 00803 10256 20202 48552
                   333 10303 20918 58010=
201003250600 AAXX 25064 67581 11582 50706 10250 20207 48543 69944 72162 82130
                   333 10299 20204 58011 82825 83360=
201003230600 AAXX 23064 67581 12682 20000 10242 20196 48524 69964 81130
                   333 10309 20190 59017 81830 81360=
201003220600 AAXX 22064 67581 12480 50403 10245 20199 48541 60114 82130
                   333 10286 20193 59004 82825 83360=
201003190600 AAXX 19064 67581 12582 71203 10215 20200 48550 60034 8357/
                   333 10311 20185 59017 83625 87460=
201003180600 AAXX 18064 67581 12580 70503 10245 20203 48540 69904 8217/
                   333 10292 20196 58002 82820 87460=
201003020600 AAXX 02064 67581 NIL=
201003010600 AAXX 01064 67581 12580 70000 10215 20208 48509 60084 82532
                   333 10315 20192 59016 82630 83360 81080=

################################################################################
#  SYNOPS from 67583, Lundazi (Zambia) | 12-17S | 033-12E | 1143 m
################################################################################
201003310600 AAXX 31064 67583 32580 20601 10230 20205 81532
                   333 10301 20169 5//// 81625 81360 81080=
201003260600 AAXX 26064 67583 12580 11302 10238 20196 48/// 81501
                   333 10295 20170 5//// 81625 81080=
201003030600 AAXX 03064 67583 11975 71901 10210 20203 48/// 60264 76162 83037
                   333 10295 20185 5//// 83360 87280=

################################################################################
#  SYNOPS from 67599, Mfuwe (Zambia) | 13-16S | 031-56E | 568 m
################################################################################
201003310600 AAXX 31064 67599 32980 10000 10251 20226 48561 81031
                   333 10345 20//0 59008 81360 82080=
201003300600 AAXX 30064 67599 12280 50000 10236 20218 48561 60024 81630
                   333 10345 20/// 59002 81704 85360=
201003260600 AAXX 26064 67599 12980 10000 10274 20224 48553 69904 80001
                   333 10337 20/// 58010 81080=
201003251200 AAXX 25124 67599 41780 60000 10317 20247 48540 71792 84232
                   333 58020 81956 84856 83360 85080=
201003240300 AAXX 24034 67599 11340 70000 10234 20227 48531 60134 74044 8277/
                   333 10335 20/// 59007 82708 87359=
201003231500 AAXX 23154 67599 42680 30000 10323 20232 48504 71700 82201
                   333 59016 81940 82850 83080=
201003231200 AAXX 23124 67599 42680 60000 10300 20237 48505 71792 81900
                   333 59019 81930 86840=
201003221500 AAXX 22154 67599 41680 70000 10256 20238 48596 72992 82932
                   333 59017 82940 83360 85080=
201003221200 AAXX 22124 67599 41705 71615 10314 20240 48526 79596 8427/
                   333 59014 81950 84850 87460=
201003220600 AAXX 22064 67599 11475 70000 10248 20231 48549 60024 72842 8331/
                   333 10235 20/// 59005 83811 86360=
201003190600 AAXX 19064 67599 32480 80000 10246 20229 48560 8117/
                   333 10346 20/// 58022 81812 88460=
201003180900 AAXX 18094 67599 42580 60000 10295 20232 48559 8227/
                   333 58008 82825 86360=
201003161500 AAXX 16154 67599 41780 70000 10283 20230 48520 72992 83232
                   333 58011 81956 83856 83360 86080=
201003160600 AAXX 16064 67599 12480 70000 10245 20222 48545 60014 8117/
                   333 10354 20/// 58011 81810 86460
                   555 00/// 20000 Q1018.8=
201003150600 AAXX 15064 67599 32980 72105 10246 20225 48535 83032
                   333 10356 20//0 58015 83360 87280=
201003131500 AAXX 13154 67599 42680 40000 10335 20231 48509 83202
                   333 59030 83835 82080=
201003131200 AAXX 13124 67599 42680 10320 20230 48522 83202
                   333 59030 83835 84080=
201003130900 AAXX 13094 67599 42580 40105 10295 20240 48542 84200
                   333 59025 84825=
201003130600 AAXX 13064 67599 32480 40000 10245 20224 48537 82502
                   333 10330 20235 59008 82610 84080=
201003120600 AAXX 12064 67599 32980 50000 10272 20242 48554 8503/
                   333 10364 20250 85360=
201003110900 AAXX 11094 67599 42580 30000 10312 20243 48556 83200
                   333 59015 83825=
201003101200 AAXX 10124 67599 42680 40000 10312 20236 48533 83280
                   333 58004 83840 84360=
201003091200 AAXX 09124 67599 42680 30000 10314 20224 48532 83200
                   333 59030 83835=
201003090900 AAXX 09094 67599 42580 60000 10296 20234 48561 8323/
                   333 59018 83825 86360=
201003090600 AAXX 09064 67599 32980 70000 10235 20215 48548 8703/
                   333 10319 20214 59009 87360=
201003071200 AAXX 07124 67599 42680 52005 10301 20206 48556 83201
                   333 59006 83840 85080=
201003061200 AAXX 06124 67599 42680 71806 10275 20211 48552 8323/
                   333 58018 83856 87360=
201003050600 AAXX 05064 67599 32260 80000 10235 20-221 48559 69904 70122 8577/
                   333 10326 20220 58003 85706 88459 00/// 20001
                   Q1020.8=
201003041200 AAXX 04124 67599 41580 53306 10295 20232 48538 71722 81900
                   333 59007 81920 85822 Q1016=
201003040600 AAXX 04064 67599 11380 80000 10235 20228 48557 60014 76022 8377/
                   333 10322 20216 59005 83706 88459
                   555 00/// 20008 Q1020.5=
201003030600 AAXX 03064 67599 12280 80000 10223 20211 48556 60084 8277/
                   333 10260 20205 5808 82704 88459=
201003021500 AAXX 02154 67599 42580 70000 10255 20234 48525 84208
                   333 58035 84820 87280=
201003020600 AAXX 02064 67599 11256 80000 10220 48549 60454 76066 8777/
                   333 10327 20203 58039 87703 88459 Q1020.2=
201003010600 AAXX 01064 67599 32259 80000 10235 20228 48519 60014 887//
                   333 10325 20214 59018 88704=

################################################################################
#  SYNOPS from 67633, Mongu (Zambia) | 15-15S | 023-09E | 1052 m
################################################################################
201003300600 AAXX 30064 67633 12982 10904 10227 20193 48536 60064 81030
                   333 10300 20193 59003 81360=
201003290600 AAXX 29064 67633 12980 50000 10214 20203 48544 60204 85030
                   333 10290 20175 58028 85361=
201003260600 AAXX 26064 67633 12980 40903 10235 20200 48530 60034
                   333 10285 20200 58014 84080=
201003250600 AAXX 25064 67633 12482 60000 10215 20200 48512 60064 82538
                   333 10288 20195 58024 82618 82361 86280=
201003240300 AAXX 24034 67633 12980 50306 10226 20197 48490 60134 83032
                   333 10260 20198 59014 83360 84080=
201003230600 AAXX 23064 67633 11980 80000 10212 20205 48502 60054 76066 8197/
                   333 10240 20205 59008 81959 88460=
201003220600 AAXX 22064 67633 12482 61805 10224 20201 48511 60044 84532
                   333 10298 20205 59012 84615 85361 83080=
201003190600 AAXX 19064 67633 11480 70000 10210 20195 48526 60014 79599 8352/
                   333 10298 20205 58005 83615 81950 87460=
201003180600 AAXX 18064 67633 11982 80000 10203 20194 48522 60314 76066 8707/
                   333 10315 20195 58015 87460=
201003110600 AAXX 11064 67633 32980 70905 10235 20184 48525 8707/
                   333 10308 20220 59006 87460=
201003100900 AAXX 10094 67633 42682 60904 10276 20200 48537 70222 83232
                   333 59008 83830 82361 85080 Q1019.3=
201003090600 AAXX 09064 67633 32982 50905 10220 20177 48530 83038
                   333 10302 20180 59003 83361 85280=
201003040900 AAXX 04094 67633 42582 60904 10250 20198 48515 70222 84208
                   333 58002 81920 83820 86825 Q1017.2=
201003020600 AAXX 02064 67633 12382 60906 10224 20195 48508 60104 84650
                   333 10295 20204 59005 84706 86361=
201003010900 AAXX 01094 67633 42580 61802 10254 20216 48517 85232
                   333 59016 81920 84820 83361 83080=
201003010600 AAXX 01064 67633 12982 70000 10210 20198 48512 60354 84038
                   333 10314 20192 59014 84361 87280=

################################################################################
#  SYNOPS from 67641, Kaoma (Zambia) | 14-48S | 024-48E | 1213 m
################################################################################
201003300600 AAXX 30064 67641 12682 20801 10215 20201 48533 60234 81530
                   333 10290 20192 58021 81630 81360=
201003260600 AAXX 26064 67641 12980 51401 10216 20208 48517 69974 85030
                   333 10300 20183 58011 85360=
201003250600 AAXX 25064 67641 12682 40901 10211 20202 48507 60084 81532
                   333 10264 20185 58017 81630 81360 83080=
201003230600 AAXX 23064 67641 12682 61101 10218 20206 48493 69924 82530
                   333 10290 20205 59014 82630 83360=
201003220600 AAXX 22064 67641 11682 60904 10213 20202 48507 60084 82530
                   333 10286 20196 59007 82630 84360=
201003180600 AAXX 18064 67641 11682 70801 10260 20201 48520 60054 86532
                   333 10300 20201 58022 86630 84360 81080=
201003020600 AAXX 02064 67641 11682 81001 10211 20197 48503 69904 72055 865//
                   333 10300 20200 59005 86630=
201003010600 AAXX 01064 67641 12682 52801 10221 20207 48509 60884 82532
                   333 10315 20192 59016 82630 83360 81080=

################################################################################
#  SYNOPS from 67663, Kabwe (Zambia) | 14-27S | 028-28E | 1206 m
################################################################################
201003300600 AAXX 30064 67663 12480 40703 10221 20194 48544 60104 81532
                   333 10301 20181 58000 81617 81360 83080=
201003260600 AAXX 26064 67663 12480 40903 10230 20204 48517 60064 80002
                   333 10295 20187 58009 84080=
201003250600 AAXX 25064 67663 32480 50701 10216 20200 48506 82530
                   333 10282 20198 58014 82617 84360=
201003230600 AAXX 23064 67663 32480 30803 10205 20178 48493 82502
                   333 10277 20165 59018 82612 82080=
201003220600 AAXX 22064 67663 12980 70901 10202 20194 48509 60114 8567/
                   333 10267 20182 59006 85708 87460=
201003190600 AAXX 19064 67663 12480 73603 10211 20198 48530 60194 83580
                   333 10268 20184 58006 81917 83617 87460=
201003180600 AAXX 18064 67663 12980 80000 10193 20188 48522 60134 8808/
                   333 10300 20176 58011 88460=
201003170600 AAXX 17064 67663 12982 60000 10225 10205 48512 60014 83038
                   333 10310 20210 59009 83361 86280=
201003020600 AAXX 02064 67663 12382 60906 10224 20195 48508 60104 84650
                   333 10295 20204 59005 84706 86361=
201003010600 AAXX 01064 67663 NIL=

################################################################################
#  SYNOPS from 67665, Lusaka Internationalairport (Zambia) | 15-19S | 028-27E | 1152 m
################################################################################
201003310600 AAXX 31064 67665 12480 50706 10215 20199 48551 69984 83631
                   333 10287 20176 59011 83710 82360 83080=
201003310400 AAXX 31044 67665 41480 30903 10182 20182 48536 74122 81532
                   333 58016 81610 83360 85080=
201003310300 AAXX 31034 67665 42980 30803 10183 20183 48533 70200 83031
                   333 58015 83360 81080=
201003310000 AAXX 31004 67665 42980 31003 10192 20192 48534 70200 83031
                   333 58017 83360 81080=
201003302100 AAXX 30214 67665 42980 31202 10201 20201 48546 70200 82031
                   333 58025 82360 81080=
201003301200 AAXX 30124 67665 42580 60408 10277 20263 48543 70222 86200
                   333 59003 86835 91021=
201003300900 AAXX 30094 67665 42580 60608 10250 20191 48567 86100
                   333 58001 86825=
201003300600 AAXX 30064 67665 12480 40806 10216 20201 48562 69904 84531
                   333 10295 20185 59001 84610 81360 82080=
201003291800 AAXX 29184 67665 42980 60603 10212 20205 48548 84032
                   333 10295 58017 84359 85280=
201003290900 AAXX 29094 67665 42580 60307 10262 20199 48568 70222 86200
                   333 58018 86820=
201003290600 AAXX 29064 67665 32480 40806 10200 20188 48522 70322 81532
                   333 10300 20174 58024 81610 82360 83080
                   555 00180=
201003281800 AAXX 28184 67665 42780 71002 10210 20210 48532 70222 81932
                   333 58013 81950 83360 87080=
201003281500 AAXX 28154 67665 42780 31011 10255 20227 48516 81931
                   333 58006 81950 81856 81360 81080=
201003281200 AAXX 28124 67665 42680 60607 10295 20240 48529 70222 85230
                   333 58013 85840 81360=
201003280600 AAXX 28064 67665 12470 21204 10211 20204 48538 69904 82530
                   333 10290 20180 59005 82610 81360=
201003280400 AAXX 28044 67665 41959 11102 10187 28187 48529 74100 81030
                   333 58001 81360=
201003280300 AAXX 28034 67665 42980 11602 10190 20190 48523 81030
                   333 59001 81360=
201003272100 AAXX 27214 67665 42980 21503 10202 20202 48531 82030
                   333 58000 82360=
201003271800 AAXX 27184 67665 42780 30704 10232 20232 48521 81930
                   333 59008 81950 83360=
201003271500 AAXX 27154 67665 41780 20103 10279 20209 48514 81932
                   333 59006 81947 81360 81080=
201003271200 AAXX 27124 67665 41660 60707 10268 20211 48525 71782
                   333 59003 81940 84840 81360 81080=
201003270600 AAXX 27064 67665 32480 31206 10222 20192 48545 81131
                   333 10305 20184 59002 81812 81360 82080=
201003261800 AAXX 26184 67665 42780 31403 10215 20125 48527 81203
                   333 59004 81957 83080=
201003261200 AAXX 26124 67665 42680 60507 10289 20201 48529 86200
                   333 59005 81933 86835=
201003260600 AAXX 26064 67665 32480 40905 10227 20203 48548 81131
                   333 10283 20180 58005 81818 82360 83080=
201003251800 AAXX 25184 67665 42/80 11003 10211 20211 48531 71322 81931
                   333 10282 58025 819// 81360 81080=
201003251500 AAXX 25154 67665 42680 20410 10266 20191 48515 82131
                   333 58020 82845 81360 82080=
201003251200 AAXX 25124 67665 42680 30706 10266 20185 48532 83131
                   333 58030 83830 84360 84080=
201003250900 AAXX 25094 67665 42480 60508 10248 48542 70322 82102
                   333 58021 82815 86080=
201003250800 AAXX 25084 67665 42480 60508 10248 48542 70322 82102
                   333 58021 82815 86080=
201003250600 AAXX 25064 67665 32480 70510 10214 20214 48540 81532
                   333 10275 20181 58023 83610 84360 87280=
201003250400 AAXX 25044 67665 42980 61002 10187 20187 48523 70322 83032
                   333 58016 83360 82080=
201003250300 AAXX 25034 67665 42980 21203 10184 20184 48517 70200 82030
                   333 58016 82360=
201003250000 AAXX 25004 67665 42980 21303 10192 20192 48516 70200 82030
                   333 58020 82360=
201003242100 AAXX 24214 67665 42980 21403 10201 20201 48523 70200 82030
                   333 58016 82360=
201003241500 AAXX 24154 67665 42780 40610 10267 20217 48494 82231
                   333 58002 82850 81360 82080=
201003241200 AAXX 24124 67665 42680 60306 10279 20203 48506
                   333 59001 85338 83080=
201003240900 AAXX 24094 67665 42680 60111 10246 20190 48526 86202
                   333 58000 86825 83080=
201003240600 AAXX 24064 67665 32580 50705 10207 20185 48518 81132
                   333 10281 20165 59004 81820 81360 84080=
201003240400 AAXX 24044 67665 42980 11303 10171 20171 48504 81032
                   333 59006 81360 81080=
201003240300 AAXX 24034 67665 42980 11303 10171 20171 48501 81030
                   333 59002 81360=
201003232100 AAXX 23214 67665 42980 11202 10199 20199 48507 81030
                   333 59008 81360=
201003231800 AAXX 23184 67665 42980 11003 10213 20213 48501 81030
                   333 10281 59006 81360=
201003231200 AAXX 23124 67665 42680 60705 10265 20185 48504 86200
                   333 59016 86830=
201003230900 AAXX 23094 67665 42580 60608 10237 20200 48525 86200
                   333 59016 83620 65825=
201003230600 AAXX 23064 67665 32460 30806 10194 20175 48519 81102
                   333 10270 20160 59015 81812 83080=
201003221500 AAXX 22154 67665 42780 40607 10259 20189 48500 84230
                   333 59019 84850 82360=
201003221200 AAXX 22124 67665 42680 70506 10256 20186 48520 86830
                   333 59011 85840 83360=
201003220900 AAXX 22094 67665 42560 70410 10245 20187 48542 70222 85830
                   333 59011 82825 85627 84360 Q1020.8=
201003220600 AAXX 22064 67665 12460 70608 10202 20191 48535 60054 84530
                   333 10267 20195 59005 84610 85360=
201003210900 AAXX 21094 67665 41459 83605 10213 20213 48545 76122 8683/
                   333 58005 82815 85616 87359=
201003210600 AAXX 21064 67665 32360 80704 10204 20195 48540 60194 8573/
                   333 10276 20194 58001 85709 87360=
201003200900 AAXX 20094 67665 42470 73504 10234 20227 48543 70322 866//
                   333 59010 87712 Q1021.3=
201003200600 AAXX 20064 67665 12370 73204 10186 20186 48538 60194 70322 8667/
                   333 10256 20180 59004 86708 87466 Q1021.3=
201003191200 AAXX 19124 67665 41355 80506 10244 20244 48529 76566 8663/
                   333 58015 86703 87359 Q1020.1=
201003190900 AAXX 19094 67665 41357 70307 10206 20206 48550 76162 8663/
                   333 58010 86709 87359=
201003190600 AAXX 19064 67665 11358 70508 10209 20196 48544 60024 8653/
                   333 10285 20200 58006 86708 87359=
201003190400 AAXX 19044 67665 42380 80203 10200 20200 48533 70322 8553/
                   333 58008 85606 88359=
201003190300 AAXX 19034 67665 42280 70402 10203 20203 48528 70222 8363/
                   333 59014 83704 87359=
201003190000 AAXX 19004 67665 42280 70902 10202 20202 48541 70222 8363/
                   333 58008 83704 87359=
201003182100 AAXX 18214 67665 41259 60602 10205 20205 48541 76122 81932
                   333 58010 83504 81950 85359 81080=
201003181200 AAXX 18124 67665 42680 62402 10257 20214 48522 85232
                   333 58008 85830 81360 82080=
201003180900 AAXX 18094 67665 42470 70704 10232 20196 48543 8413/
                   333 58007 84815 87360=
201003180600 AAXX 18064 67665 11360 71403 10189 20189 48536 60024 76066 8177/
                   333 10295 20180 58006 81708 87459=
201003180400 AAXX 18044 67665 41/60 72703 10181 20181 48523 79596 8193/
                   333 58004 819// 87359=
201003180300 AAXX 18034 67665 41/60 72407 10190 20190 48521 79596 8193/
                   333 58004 819// 87359=
201003172100 AAXX 17214 67665 41780 60402 10212 20212 48527 71322 81932
                   333 59005 81950 84360 85080=
201003171800 AAXX 17184 67665 41780 51207 10223 20223 48512 71722 81932
                   333 10295 59004 81950 83360 83080=
201003171500 AAXX 17154 67665 42780 40302 10274 20246 48494 83202
                   333 59015 83850 82080=
201003171200 AAXX 17124 67665 42680 62805 10272 20199 48516 86200
                   333 59012 86845=
201003170900 AAXX 17094 67665 42580 70206 10247 20198 48539 70322 86801
                   333 59014 85825 82628 81080 Q1020.4=
201003170600 AAXX 17064 67665 32480 71004 10196 20181 48531 70322 83531
                   333 10286 20170 59010 83610 85360 82080
                   555 00180 Q1020.2=
201003161500 AAXX 16154 67665 42680 40804 10260 20193 48507 83231
                   333 58012 83845 81360 83080=
201003161200 AAXX 16124 67665 42680 60405 10266 20191 48527 86232
                   333 58011 86835 82360 83080=
201003160600 AAXX 16064 67665 12380 80707 10205 20193 48543 69904 70322 85501
                   333 10290 20176 58701 85606 87079
                   555 00184 Q1021.5=
201003151200 AAXX 15124 67665 42680 70208 10261 20211 48515 85202
                   333 58022 85832 84080=
201003150900 AAXX 15094 67665 42580 70709 10251 20215 48541 85232
                   333 58015 85825 83360 84280=
201003150600 AAXX 15064 67665 31459 70805 10212 20203 48533 71022 85531
                   333 10309 20194 58018 85610 86360 82080=
201003141200 AAXX 14124 67665 41675 61603 10283 20205 48496 70522 86200
                   333 59013 82942 86845=
201003140900 AAXX 14094 67665 41660 50904 10271 20229 48526 70522 85230
                   333 59006 85830 81360=
201003140600 AAXX 14064 67665 32980 51404 10234 20191 48517 85030
                   333 10311 20190 59017 85360=
201003131800 AAXX 13184 67665 42980 03302 10220 20220 48500
                   333 10311 59022=
201003131500 AAXX 13154 67665 42880 11208 10294 20177 48498 81231
                   333 59020 81856 81359 81080=
201003131200 AAXX 13124 67665 42780 51303 10305 20204 48512 84101
                   333 59020 84850 81080=
201003130900 AAXX 13094 67665 42680 30603 10287 20238 48535 82101
                   333 59015 82830 81080=
201003130600 AAXX 13064 67665 32980 00000 10239 20229 48534
                   333 59011 555 00176 Q1020.1=
201003130400 AAXX 13044 67665 42980 11402 10170 20170 48517 81030
                   333 59009 81360=
201003130300 AAXX 13034 67665 42980 10902 10176 20176 48515 81030
                   333 59009 81360=
201003122000 AAXX 12204 67665 42980 23203 10208 20208 48532 80002
                   333 58000 81080=
201003121800 AAXX 12184 67665 42980 21203 10222 20222 48522 81902
                   333 10310 59005 819// 81080=
201003121500 AAXX 12154 67665 42880 20905 10294 20208 48518 81930
                   333 58003 81957 81360=
201003121200 AAXX 12124 67665 42680 50804 10298 20251 48531 85200
                   333 58005 85845=
201003120900 AAXX 12094 67665 42580 50807 10272 20228 48547 84230
                   333 58002 84825 81360=
201003120600 AAXX 12064 67665 32980 10000 10232 20211 48544 81031
                   333 58007 81360 81080
                   555 00165 Q1021.4=
201003120400 AAXX 12044 67665 42980 11801 10185 20185 48528 81030
                   333 58006 81360=
201003120300 AAXX 12034 67665 42980 11403 10183 20183 48525 81030
                   333 58003 81360=
201003112100 AAXX 11214 67665 42980 12601 10208 20208 48535 81030
                   333 58006 81360=
201003111800 AAXX 11184 67665 42780 21504 10227 20227 48527 81930
                   333 10308 58011 81956 81360=
201003111200 AAXX 11124 67665 42680 50303 10289 20263 48525 85200
                   333 58004 85842=
201003110900 AAXX 11094 67665 42580 40704 10268 20268 48548 83130
                   333 58000 83820 81360=
201003110600 AAXX 11064 67665 32980 41003 10224 20194 48536 83031
                   333 10291 20174 59011 83360 81080=
201003101500 AAXX 10154 67665 42780 61104 10271 20214 48506 84232
                   333 59007 81950 83850 81360 81080=
201003101200 AAXX 10124 67665 42680 61003 10274 20232 48519 84230
                   333 59009 84835 82360=
201003100900 AAXX 10094 67665 42480 60604 10260 20246 48547 70322 84831
                   333 59006 81615 83818 82360 81080 Q1021.3=
201003100600 AAXX 10064 67665 32480 72804 10200 20194 48544 70222 81531
                   333 10280 20180 59003 81510 87360 81080
                   555 00185 Q1021.8=
201003091800 AAXX 09184 67665 42980 11204 10208 20208 48524 81030
                   333 10280 59011 81360=
201003091500 AAXX 09154 67665 42780 41211 10264 20198 48511 83232
                   333 59023 83850 84360 82080=
201003091200 AAXX 09124 67665 42680 60705 10268 20190 48527 86202
                   333 59018 86835 81080=
201003090900 AAXX 09094 67665 42580 60606 10238 20221 48550 85802
                   333 59007 84825 82627 82080=
201003090600 AAXX 09064 67665 32480 40804 10201 20179 48547 81532
                   333 10259 20162 59004 81610 81360 84080=
201003081800 AAXX 08184 67665 42980 10902 10207 20207 48533 81030
                   333 10259 59012 81361=
201003081500 AAXX 08154 67665 42780 60406 10234 20181 48530 84231
                   333 59013 84856 84361 83080=
201003081200 AAXX 08124 67665 42680 60409 10254 20176 48543 86231
                   333 59013 86840 81361 82080=
201003071200 AAXX 07124 67665 41680 70805 10207 20198 48550 72162 84830
                   333 58012 83828 81630 86360=
201003070600 AAXX 07064 67665 32480 70807 10197 20172 48559 8547/
                   333 10245 20170 58008 85615 87360=
201003070400 AAXX 07044 67665 42980 71003 10175 20175 48543 70222 84032
                   333 58001 84360 87080=
201003070300 AAXX 07034 67665 42380 70903 10181 20181 48538 70222 84530
                   333 58000 84606 87360=
201003070000 AAXX 07004 67665 42680 70904 10187 20187 48539 70222 87030
                   333 58000 87360=
201003062100 AAXX 06214 67665 42680 51003 10189 20189 48550 70222 82530
                   333 58002 82640 85360=
201003061200 AAXX 06124 67665 42580 70507 10223 20223 48542 875//
                   333 58007 87622=
201003060400 AAXX 06044 67665 42980 70906 10177 20177 48539 87030
                   333 59012 87360=
201003060300 AAXX 06034 67665 42980 70812 10183 20183 48538 87030
                   333 59001 87360=
201003052100 AAXX 05214 67665 42580 70804 10188 20188 48549 82530
                   333 58009 82625 87360=
201003051800 AAXX 05184 67665 42480 50906 10199 20199 48534 83530
                   333 10255 58004 83615 85360=
201003051500 AAXX 05154 67665 42580 60806 10236 20236 48522 85530
                   333 58003 85620 83360=
201003051200 AAXX 05124 67665 41460 60905 10219 20219 48510 78022 84530
                   333 58018 84618 86360=
201003050900 AAXX 05094 67665 41480 70606 10207 20207 48553 72162 8553/
                   333 59009 85612 87359 Q1022.8=
201003050600 AAXX 05064 67665 11259 80705 10176 20176 48551 60834 76166 8377/
                   333 10268 20175 59005 83704 88459
                   555 00176 Q1022.9=
201003041800 AAXX 04184 67665 41660 70905 10198 20198 48530 81932
                   333 10268 59002 81930 84359 86280=
201003041500 AAXX 04154 67665 41258 72805 10209 20209 48515 79562 8573/
                   333 58010 85704 81920 87359=
201003041200 AAXX 04124 67665 42680 60209 10260 20246 48522 85832
                   333 59001 83630 84832 81360 81080=
201003040900 AAXX 04094 67665 42380 80311 10232 20218 48548 70222 8553/
                   333 58003 85608 87360 Q1021=
201003040600 AAXX 04064 67665 11260 80605 10200 20200 48542 72162 8573/
                   333 10270 20196 59002 85704 88359
                   555 00199 Q1021.6=
201003031200 AAXX 03124 67665 42680 60306 10264 20193 48523 70222 58010 81932 84835 85360=
201003030900 AAXX 03094 67665 42580 73506 10236 20217 48546 85830
                   333 58013 82820 83622 85360=
201003030600 AAXX 03064 67665 12360 73606 10205 20205 48545 60094 8573/
                   333 10267 20205 58015 85708 87360=
201003021800 AAXX 02184 67665 42358 80604 10199 20199 48520 8163/
                   333 10267 58011 81709 87359=
201003021500 AAXX 02154 67665 41456 83310 10197 20197 48505 76066 84632
                   333 58012 84710 86830 83359 84080=
201003021200 AAXX 02124 67665 41359 70209 10260 20214 48513 71662 82602
                   333 58005 82708 86820 83080=
201003020900 AAXX 02094 67665 42360 80312 10236 20236 48533 70222 8663/
                   333 58008 86704 87360 Q1020.0=
201003020600 AAXX 02064 67665 11358 80606 10199 20199 48529 60094 76152 8664/
                   333 10245 20193 58010 88705 88359=
201003011200 AAXX 01124 67665 42480 80918 10234 20234 48505 885//
                   333 59011 88612 Q1016.9=
201003010900 AAXX 01094 67665 41380 70911 10212 20212 48522 71662 8553/
                   333 59018 85609 87359=
201003010600 AAXX 01064 67665 12380 70909 10208 20199 48521 60014 8553/
                   333 10285 20195 59019 85608 87360=

################################################################################
#  SYNOPS from 67666, Lusaka City Airport (Zambia) | 15-25S | 028-19E | 1280 m
################################################################################
201003310600 AAXX 31064 67666 32480 30801 10210 20192 48543 82501
                   333 10280 20174 59011 82610 81080=
201003300600 AAXX 30064 67666 12480 40913 10210 20187 48554 60054 84502
                   333 10276 20175 59001 84612 83080=
201003290900 AAXX 29094 67666 42580 20507 10246 20176 48557 84201
                   333 58019 84830 81080=
201003251200 AAXX 25124 67666 42680 50803 10267 20184 48532 83208
                   333 58028 83835 85280=
201003221200 AAXX 22124 67666 42680 70907 10255 20180 48511 86230
                   333 59014 86835 84360=
201003220600 AAXX 22064 67666 12460 70908 10200 20185 48529 60164 85530
                   333 10228 20176 59005 85618 87359=
201003190600 AAXX 19064 67666 12480 80910 10201 20192 48540 60024 885//
                   333 10261 20185 58009 88612=
201003180900 AAXX 18094 67666 42580 71004 10234 20183 48535 83132
                   333 58006 83825 87360 82080=
201003170600 AAXX 17064 67666 12480 50908 10202 20167 48524 60024 82531
                   333 109280 20162 59013 82612 83359 83080=
201003120600 AAXX 12064 67666 32980 30903 10246 20181 48503 80002
                   333 10289 20160 58/// 82080=
201003110900 AAXX 11094 67666 42680 40804 10260 20168 48536 84200
                   333 58003 84835=
201003101200 AAXX 10124 67666 42680 61002 10274 20178 48511 86231
                   333 59009 86840 81360 81080=
201003100900 AAXX 10094 67666 42580 50605 10251 20180 48533 83231
                   333 59008 83830 84360 82080 Q1020.7=
201003090900 AAXX 09094 67666 42580 50908 10232 20175 48541 85202
                   333 59007 85825 83080=
201003090600 AAXX 09064 67666 32480 50910 10200 20169 48539 81504
                   333 10235 20150 59007 81610 85080=
201003041200 AAXX 04124 67666 41578 61007 10230 20208 48513 78222 81933
                   333 58000 81925 85825 83360 84080=
201003040900 AAXX 04094 67666 42480 80915 10288 20187 48539 8683/
                   333 58001 85614 83816 88460 Q1020.9=
201003030600 AAXX 03064 67666 12480 70910 10202 20192 48538 60044 875//
                   333 10260 20179 58017 87615=

################################################################################
#  SYNOPS from 67667, Mount Makulu (Zambia) | 15-33S | 028-15E | 1213 m
################################################################################
201003260600 AAXX 26064 67667 32580 30908 10240 20196 48/// 82501
                   333 10289 20185 82625 83080=

################################################################################
#  SYNOPS from 67673, Petauke (Zambia) | 14-15S | 031-17E | 1035 m
################################################################################
201003221200 AAXX 22124 67673 42680 61002 10274 20189 48519 86230
                   333 5//// 86840 82360=
201003100900 AAXX 10094 67673 42680 63601 10280 20193 48557 85231
                   333 59004 85830 83360 82080=
201003090900 AAXX 09094 67673 42580 60902 10265 20181 86131
                   333 5//// 86830 84360 81080=

################################################################################
#  SYNOPS from 67741, Sesheke (Zambia) | 17-28S | 024-18E | 949 m
################################################################################
201003260600 AAXX 26064 67741 12980 50901 10220 20211 48540 60164 83032
                   333 10280 20196 58023 83360 84080=
201003220600 AAXX 22064 67741 32980 10000 10226 20207 48529 81030
                   333 10305 20190 59003 81361=
201003190600 AAXX 19064 67741 12980 70902 10215 20207 48528 60054 8707/
                   333 10230 20200 58011 87360=
201003170600 AAXX 17064 67741 32980 30901 10221 20208 48518 83032
                   333 10304 20196 59019 83361 81080=
201003110600 AAXX 11064 67741 32980 10000 10205 20174 48526 81032
                   333 10317 20155 59011 81362 81080=
201003090600 AAXX 09064 67741 32580 32601 10210 20188 48548 81132
                   333 10295 20160 59001 81826 81362 82080=

################################################################################
#  SYNOPS from 67743, Livingstone (Zambia) | 17-49S | 025-49E | 985 m
################################################################################
201003300600 AAXX 30064 67743 32980 21006 10230 20201 48557 81040
                   333 10310 20/// 58005 82360=
201003281200 AAXX 28124 67743 42680 41008 10302 20207 48525 70222 84230
                   333 58001 84840 83360=
201003261200 AAXX 26124 67743 42780 30304 10329 20181 48530 83200
                   333 58007 83856=
201003260600 AAXX 26064 67743 12980 30103 10220 20210 48543 69904 83030
                   333 10322 20/// 58017 83360=
201003251500 AAXX 25154 67743 42780 41006 10300 20205 48507 83160
                   333 59016 83856 83360=
201003251200 AAXX 25124 67743 42680 41110 10302 20179 48518 84260
                   333 58019 84845 83360=
201003250900 AAXX 25094 67743 42680 50808 10295 20199 48545 84201
                   333 58022 84840 82080=
201003250600 AAXX 25064 67743 32980 50000 10210 20195 48523 83031
                   333 10316 20/// 58016 83360 83080=
201003240300 AAXX 24034 67743 32480 50703 10222 20199 10310 20/// 59009 83615 83360=
201003231200 AAXX 23124 67743 42680 50909 10295 20175 48503 70222 85200
                   333 59016 85840=
201003230600 AAXX 23064 67743 32480 40905 10215 20201 48520 82502
                   333 10310 20/// 59016 82612 82080=
201003221500 AAXX 22154 67743 42680 50206 10289 20187 48511 82232
                   333 59008 82850 81360 83080=
201003221200 AAXX 22124 67743 42580 51012 10300 20181 48519 84230
                   333 59015 84848 83360=
201003220600 AAXX 22064 67743 32980 70406 10210 20202 48534 87030
                   333 10305 2//// 58008 87360=
201003210900 AAXX 21094 67743 42680 41207 10266 20195 48549 81401
                   333 58007 84840 81080=
201003190900 AAXX 19094 67743 42580 50608 10271 20196 48546 84130
                   333 58004 84827 83827 83360=
201003190600 AAXX 19064 67743 12480 40603 10216 20194 48530 60034 81130
                   333 10294 20111 58013 81815 83360=
201003180900 AAXX 18094 67743 42580 83503 10245 20194 48538 81177
                   333 58013 81825 84360 87280=
201003180600 AAXX 18064 67743 12980 83304 10209 20192 48525 69954 8807/
                   333 10284 20/// 58007 88359=
201003161500 AAXX 16154 67743 42680 60000 10226 20208 48503 72962 83370
                   333 59009 83840=
201003161200 AAXX 16124 67743 41680 71206 10277 20200 48427 71722 83370
                   333 58009 82935 83835 85460=
201003160600 AAXX 16064 67743 32580 71008 10217 20190 48537 70200 83571
                   333 10315 20/// 58010 83622 85360
                   555 00/// BB/// CC/// DD090 20000 Q1020.1=
201003131500 AAXX 13154 67743 42880 10000 10335 20171 48499 81100
                   333 59024 81857=
201003131200 AAXX 13124 67743 42880 11503 10340 20170 48514 81100
                   333 59014 81857=
201003130600 AAXX 13064 67743 32980 01806 10222 20176 48518
                   333 10341 20190 59018=
201003120600 AAXX 12064 67743 32980 10000 10211 20158 48534 80001
                   333 58004 82080=
201003110900 AAXX 11094 67743 42980 20104 10290 20160 48547
                   333 59003 82080=
201003110600 AAXX 11064 67743 32980 00502 10217 20175 48548
                   333 10320 20160 59008=
201003101200 AAXX 10124 67743 42680 41205 10304 20151 48523 83170
                   333 59012 83845 82360=
201003100900 AAXX 10094 67743 42908 40605 10273 20166 48544 84070
                   333 59014 84460 Q1019.9=
201003091500 AAXX 09154 67743 42880 30000 10293 20138 48518 83100
                   333 59020 83857=
201003091200 AAXX 09124 67743 42780 31105 10289 20130 48533 83100
                   333 59016 83856=
201003090900 AAXX 09094 67743 42680 31104 10250 20171 48554 83100
                   333 59003 59003 83830=
201003090600 AAXX 09064 67743 32480 21006 10194 20174 48542 82501
                   333 10282 20161 59007 82610 82080=
201003081500 AAXX 08154 67743 42680 70904 10266 20152 48533 84230
                   333 59009 85845 83360=
201003081200 AAXX 08124 67743 42680 70908 10272 20150 48545 85201
                   333 5//// 85835 83080=
201003071200 AAXX 07124 67743 42680 30907 10272 20154 48553 83100
                   333 58004 83845=
201003061200 AAXX 06124 67743 42680 61110 10252 20174 48545 83130 3333 58016 83830 86360=
201003041500 AAXX 04154 67743 41250 81208 10201 20198 48511 72566 847//
                   333 58013 84703 87610=
201003041200 AAXX 04124 67743 41340 81004 10201 20196 48521 876//
                   333 58010 84708 87612=
201003040600 AAXX 04064 67743 11357 80910 10195 20195 48525 60834 76566 886//
                   333 10289 20190 58010 88708
                   555 00/// BB/// CC190 DD389 Q1019.7=
201003030600 AAXX 03064 67743 12380 80907 10210 20203 48524 60014 887//
                   333 10300 20200 589004 88708=
201003021500 AAXX 02154 67743 42680 50909 10280 20201 48499 82862
                   333 59006 82840 82360 83080=
201003021200 AAXX 02124 67743 41580 70507 10260 20201 48531 76022 86870
                   333 59010 82630 84835 82360=
201003020600 AAXX 02064 67743 12380 60108 10220 20205 48527 69904 8277/
                   333 10290 20200 59002 82708 86360=
201003010900 AAXX 01094 67743 42680 61210 10240 20180 48516 85100
                   333 59014 85830=
201003010600 AAXX 01064 67743 32480 51306 10210 20185 48536 84530
                   333 10300 20185 59009 84610 83360=

################################################################################
#  SYNOPS from 67753, Choma (Zambia) | 16-50S | 027-04E | 1213 m
################################################################################
201003250600 AAXX 25064 67753 NIL=
201003190600 AAXX 19064 67753 11360 70608 10195 20194 48/// 60064 72162 8777/
                   333 10260 20171 5//// 87708 87459=
201003020600 AAXX 02064 67753 NIL=

################################################################################
#  SYNOPS from 67855, Lupaki (Zambia) | 17-03-00S | 024-46-00E | 1000 m
################################################################################
201003310600 AAXX 31064 67855 32980 02001 10196 20181 3//// 48///
                   333 20120 5////=
201003301200 AAXX 30124 67855 42680 50601 10320 20186 3//// 48/// 85201
                   333 5//// 85840=
201003300600 AAXX 30064 67855 32980 21801 10204 20178 38/// 48/// 82040
                   333 20170 5//// 82360=
201003291200 AAXX 29124 67855 42680 53602 10298 20192 38/// 48/// 85200
                   333 5//// 85840=
201003290600 AAXX 29064 67855 11980 21201 10198 20193 38/// 48/// 60154 72196 82030
                   333 20190 5//// 82360=
201003280600 AAXX 28064 67855 12980 73601 10210 20198 3//// 48/// 60014 80001
                   333 20185 5//// 87080=
201003270600 AAXX 27064 67855 12980 70000 10200 20198 3//// 48/// 60044 80002
                   333 20120 5//// 87080=
201003260600 AAXX 26064 67855 32980 50401 10228 20203 3//// 48/// 82031
                   333 20185 5//// 82358 83080=
201003250600 AAXX 25064 67855 32980 23601 10226 20194 38/// 48/// 81031
                   333 20185 5//// 81360=
201003240600 AAXX 24064 67855 32980 20703 10200 20166 38/// 48/// 80002
                   333 20165 5//// 82080=
201003231200 AAXX 23124 67855 42680 50201 10280 20196 3//// 48/// 85200
                   333 5//// 85840=
201003230600 AAXX 23064 67855 32980 00104 10196 20168 3//// 48///
                   333 20165 5////=
201003221200 AAXX 22124 67855 42680 60801 10310 20182 3//// 48/// 86100
                   333 5//// 86840=
201003220600 AAXX 22064 67855 32980 01501 10204 20179 3//// 48///
                   333 20179 5////=
201003210600 AAXX 21064 67855 32965 70601 10196 20187 3//// 48/// 8703/
                   333 20175 5//// 87359=
201003201200 AAXX 20124 67855 42780 73601 10284 20191 3//// 48/// 85230
                   333 5//// 85850 84360=
201003200600 AAXX 20064 67855 12965 71801 10190 20190 3//// 48/// 60024 70522 8703/
                   333 20180 5//// 87359=
201003191200 AAXX 19124 67855 41580 70902 10256 20201 38/// 48/// 71792 84233
                   333 5//// 81920 84840 85360=
201003190600 AAXX 19064 67855 12380 70301 10200 20197 3//// 48/// 60044 8463/
                   333 20185 5//// 84707 86359=
201003181200 AAXX 18124 67855 41675 81801 10228 20203 3//// 48/// 72196 82933
                   333 5//// 81920 82840 87360=
201003180600 AAXX 18064 67855 11375 71001 10206 20200 3//// 48/// 60274 72192 82632
                   333 20186 5//// 82706 84360=
201003170600 AAXX 17064 67855 12980 70000 10200 20195 3//// 48/// 60054 86032
                   333 20175 5//// 86359=
201003161200 AAXX 16124 67855 NIL=
201003160600 AAXX 16064 67855 32980 71203 10206 20179 3//// 48/// 8705/
                   333 20184 5//// 87360=
201003151200 AAXX 15124 67855 42680 71302 10316 20186 3//// 48/// 85201
                   333 5//// 85840 87080=
201003150600 AAXX 15064 67855 NIL=
201003141200 AAXX 14124 67855 42680 61602 10316 20186 3//// 48/// 85201
                   333 5//// 85840 86080=
201003140600 AAXX 14064 67855 11965 70801 10200 20196 3//// 48/// 60024 70522 82501
                   333 20180 5//// 82658 87080=
201003130600 AAXX 13064 67855 11965 70301 10202 20181 3//// 48/// 69904 70562 87082
                   333 20180 5//// 87458=
201003121200 AAXX 12124 67855 42680 73001 10336 20173 3//// 48/// 81101
                   333 5//// 81840 87080=
201003120600 AAXX 12064 67855 NIL=
201003111200 AAXX 11124 67855 NIL=
201003110600 AAXX 11064 67855 NIL=
201003101200 AAXX 10124 67855 42680 42401 10306 20167 3//// 48/// 84100
                   333 5//// 84850=
201003100600 AAXX 10064 67855 32980 20000 10170 20145 38/// 48/// 80002
                   333 20125 5//// 82080=
201003091200 AAXX 09124 67855 42680 52701 10290 20138 3//// 48/// 85100
                   333 5//// 85840=
201003081200 AAXX 08124 67855 42680 51801 10275 20127 3//// 48/// 81130
                   333 5//// 85850=
201003080600 AAXX 08064 67855 32380 30601 10174 20152 3//// 48/// 81630
                   333 20135 5//// 81706=
201003071200 AAXX 07124 67855 NIL=
201003070600 AAXX 07064 67855 NIL=
201003061200 AAXX 06124 67855 42680 72003 10288 20139 3//// 48/// 84132
                   333 5//// 84850 83360=
201003060600 AAXX 06064 67855 32980 60704 10186 20152 3//// 48/// 86040
                   333 20165 5//// 86360=
201003051200 AAXX 05124 67855 NIL=
201003050600 AAXX 05064 67855 12380 81201 10196 20184 38/// 48/// 80124
                   333 20184 5//// 84707 88459=
201003041200 AAXX 04124 67855 NIL=
201003040600 AAXX 04064 67855 NIL=
201003030600 AAXX 03064 67855 11375 70802 10218 20202 3//// 48/// 60054 72165 8463/
                   333 20200 5//// 84707 87360=
201003021200 AAXX 02124 67855 42980 70604 10300 20200 3//// 48/// 86232
                   333 5//// 86850 83360=
201003020600 AAXX 02064 67855 32980 71301 10210 20180 3//// 48/// 86031
                   333 20185 5//// 86360=
201003011200 AAXX 01124 67855 NIL=
201003010600 AAXX 01064 67855 32380 50904 10210 20175 3//// 48/// 84632
                   333 20175 5//// 84707=
