################################################################################
# Query made at 04/06/2022 07:20:10 UTC
# Country like Zamb*
# Time interval: from 04/30/2021 23:30  to 05/31/2021 23:30  UTC
################################################################################

################################################################################
#  SYNOPS from 67403, Kawambwa (Zambia) | 09-48S | 029-05E | 1323 m
################################################################################
202105271200 AAXX 27124 67403 NIL=
202105270900 AAXX 27094 67403 NIL=
202105270600 AAXX 27064 67403 31975 00903 10154 20102 48535 70500
                   333 10284 20122 59007
                   555 00///=
202105220600 AAXX 22064 67403 31975 31402 10173 20114 48543 70500 80001
                   333 10293 20129 58002 83080
                   555 00///=
202105210600 AAXX 21064 67403 31975 20901 10165 20129 48540 70500 82031
                   333 10290 20138 59002 82360 82080
                   555 00///=
202105190600 AAXX 19064 67403 31975 51203 10186 20140 48540 70520 81031
                   333 10297 20154 59001 81360 84080
                   555 00///=
202105170600 AAXX 17064 67403 31975 01201 10178 20142 48523 70500
                   333 10272 20131 5////
                   555 00///=
202105140900 AAXX 14094 67403 NIL=
202105140600 AAXX 14064 67403 31975 50702 10180 20133 48535 70522 85030
                   333 10290 20146 59002 85360=
202105131200 AAXX 13124 67403 NIL=
202105130600 AAXX 13064 67403 31975 01203 10166 20122 48535 70500
                   333 10272 20135 59009=
202105120900 AAXX 12094 67403 31975 01202 10156 20112 48543 70500 80000
                   333 10248 20170 59007
                   555 00/// 20000=
202105101200 AAXX 10124 67403 NIL=
202105031200 AAXX 03124 67403 NIL=
202105020900 AAXX 02094 67403 NIL=

################################################################################
#  SYNOPS from 67413, Mbala (Zambia) | 08-51S | 031-20E | 1673 m
################################################################################
202105271200 AAXX 27124 67413 NIL=
202105270900 AAXX 27094 67413 NIL=
202105140900 AAXX 14094 67413 NIL=
202105131200 AAXX 13124 67413 NIL=
202105101200 AAXX 10124 67413 NIL=
202105031200 AAXX 03124 67413 NIL=
202105020900 AAXX 02094 67413 NIL=

################################################################################
#  SYNOPS from 67441, Mwinilunga (Zambia) | 11-45S | 024-26E | 1361 m
################################################################################
202105311200 AAXX 31124 67441 42980 00412 10245 20091 48562
                   333 5////=
202105280900 AAXX 28094 67441 42980 00490 10230 20093 48579
                   333 5////=
202105280600 AAXX 28064 67441 31980 00000 10115 20094 48576 70500
                   333 10240 20010 58006
                   555 00///=
202105271200 AAXX 27124 67441 42980 00000 10210 20065 48569
                   333 58003=
202105270900 AAXX 27094 67441 NIL=
202105270600 AAXX 27064 67441 32980 00904 10125 20083 48578 70500
                   333 10253 20092 59001
                   555 00///=
202105200900 AAXX 20094 67441 42980 31304 10241 20126 48590 80001
                   333 59003 83075=
202105190900 AAXX 19094 67441 42980 30907 10240 20121 48587 70400 80008
                   333 58002 83275=
202105190600 AAXX 19064 67441 31980 40000 10135 20119 48577 70500 80008
                   333 10265 20084 58001 84275
                   555 00///=
202105180900 AAXX 18094 67441 42980 31204 10240 20121 48585 80008
                   333 58009 83275=
202105170900 AAXX 17094 67441 42980 00902 10240 20120 48///
                   333 5////=
202105170600 AAXX 17064 67441 31980 00000 10145 20112 48564
                   333 10290 20080 58009
                   555 00///=
202105140900 AAXX 14094 67441 NIL=
202105131200 AAXX 13124 67441 NIL=
202105130600 AAXX 13064 67441 32980 00906 10165 20010 48562
                   333 10250 20123 58002=
202105120900 AAXX 12094 67441 32980 01003 10130 20108 48586 70500 80001
                   333 10270 20110 59004=
202105110900 AAXX 11094 67441 42980 51203 10240 20120 48594 85300
                   333 58004 85360=
202105101200 AAXX 10124 67441 NIL=
202105031200 AAXX 03124 67441 NIL=
202105020900 AAXX 02094 67441 NIL=

################################################################################
#  SYNOPS from 67461, Mansa (Zambia) | 11-06S | 028-51E | 1382 m
################################################################################
202105280600 AAXX 28064 67461 31975 01310 10150 20105 48545 70500
                   333 10260 20050 59002 91021=
202105271200 AAXX 27124 67461 NIL=
202105270900 AAXX 27094 67461 NIL=
202105270600 AAXX 27064 67461 32980 01209 10150 20105 48547
                   333 10252 20064 59010 91022=
202105250900 AAXX 25094 67461 42580 30717 10220 20114 48568 83200
                   333 59011 83837 91024=
202105210600 AAXX 21064 67461 31970 11217 10160 20135 48545 70500 80001
                   333 10272 20092 58008 81080 91018=
202105150900 AAXX 15094 67461 42680 11120 10258 20156 48541 81200
                   333 59008 81846 91020=
202105150600 AAXX 15064 67461 32980 01208 10182 20151 48535
                   333 10283 20099 59010
                   555 00/// 91020=
202105140900 AAXX 14094 67461 NIL=
202105140600 AAXX 14064 67461 32980 00820 10167 20134 48543
                   333 10264 20095 58000
                   555 00/// 91021=
202105131200 AAXX 13124 67461 NIL=
202105130600 AAXX 13064 67461 32980 00722 10164 20128 48543
                   333 10248 20087 59007 91021=
202105120900 AAXX 12094 67461 32980 00715 10162 20127 48559
                   333 10268 20078 555 00///=
202105101200 AAXX 10124 67461 NIL=
202105031200 AAXX 03124 67461 NIL=
202105030600 AAXX 03064 67461 12380 81516 10175 20161 48520 69904 886//
                   333 10270 20142 58002 88706 91019=
202105020900 AAXX 02094 67461 NIL=

################################################################################
#  SYNOPS from 67469, Samfya (Zambia) | 11-22S | 029-54E | 1171 m
################################################################################
202105310900 AAXX 31094 67469 42980 00905 10213 20140 48///
                   333 5////=
202105271200 AAXX 27124 67469 NIL=
202105270900 AAXX 27094 67469 NIL=
202105270600 AAXX 27064 67469 32980 01213 10172 20120 48///
                   333 10221 20128 5////=
202105210600 AAXX 21064 67469 32980 11407 10194 20150 48/// 81030
                   333 10241 20156 5//// 81360=
202105201200 AAXX 20124 67469 42980 20704 10237 20140 48/// 82031
                   333 5//// 82360 81080=
202105200900 AAXX 20094 67469 42680 11005 10224 20130 48/// 81030
                   333 5//// 81360=
202105190900 AAXX 19094 67469 42980 21008 10225 20150 48/// 82031
                   333 5//// 82360 81080=
202105180900 AAXX 18094 67469 42980 21006 10250 20170 48/// 82031
                   333 5//// 82360 81080=
202105140900 AAXX 14094 67469 NIL=
202105140600 AAXX 14064 67469 32980 40905 10196 20140 48/// 80008
                   333 10246 20166 5//// 84280=
202105131200 AAXX 13124 67469 NIL=
202105101200 AAXX 10124 67469 NIL=
202105061200 AAXX 06124 67469 42680 00910 10261 20170 48/// 82100
                   333 5//// 82830=
202105060600 AAXX 06064 67469 32980 00905 10207 20200 48///
                   333 10265 20188 5////=
202105031200 AAXX 03124 67469 NIL=
202105020900 AAXX 02094 67469 NIL=

################################################################################
#  SYNOPS from 67475, Kasama (Zambia) | 10-13S | 031-08E | 1382 m
################################################################################
202105310900 AAXX 31094 67475 42660 10306 10237 20115 48542 81100
                   333 59006 81840 91022=
202105280600 AAXX 28064 67475 32960 00403 10157 20105 48551
                   333 1//// 20086 59002 91024=
202105271200 AAXX 27124 67475 42680 01802 10260 20081 48534
                   333 58000 91021=
202105270900 AAXX 27094 67475 42680 03502 10225 20115 48554
                   333 59009 91024=
202105270600 AAXX 27064 67475 32980 00703 10165 20103 48483
                   333 1//// 20080 59006 91024=
202105251200 AAXX 25124 67475 42680 60703 10241 20103 48543 83201
                   333 59014 83830 84080 91022=
202105250900 AAXX 25094 67475 42680 41003 10213 20110 48570 83201
                   333 59011 83830 82080 91026=
202105250600 AAXX 25064 67475 32680 33603 10155 20120 48548
                   333 1//// 20095 59028 82830 82080 91023=
202105220900 AAXX 22094 67475 42660 41713 10229 20112 48560 81108
                   333 58002 81830 84280 91024=
202105220600 AAXX 22064 67475 32960 20807 10177 20106 48556 80001
                   333 1//// 20098 82080 91024=
202105210900 AAXX 21094 67475 42660 60910 10238 20111 48558 81108
                   333 59005 81840 86280 91024=
202105201200 AAXX 20124 67475 42660 50909 10257 20126 48537 81108
                   333 59001 81848 85280 91021=
202105200900 AAXX 20094 67475 42660 11011 10237 20121 48563 81101
                   333 58005 81840 81080 91025=
202105190900 AAXX 19094 67475 42680 71403 10250 20141 48559 82201
                   333 59001 82830 86080 91024=
202105180900 AAXX 18094 67475 42680 70903 10256 20120 48555 82201
                   333 58001 82830 86280
                   555 91024=
202105170900 AAXX 17094 67475 42680 20902 10225 20127 48541 82200
                   333 58001 82830 91022=
202105150600 AAXX 15064 67475 32960 00910 10183 20125 48541
                   333 1//// 20118 5//// 91022=
202105140900 AAXX 14094 67475 42660 31007 10240 20122 48549 82101
                   333 59002 82830 82080 91023=
202105140600 AAXX 14064 67475 32960 30809 10196 20125 48546 80001
                   333 1//// 20109 59005 83080 91023=
202105131200 AAXX 13124 67475 42660 31208 10257 20118 48524 83100
                   333 59009 83845 91020=
202105130900 AAXX 13094 67475 42660 31608 10231 20119 48550 82101
                   333 59010 82830 83080 91023=
202105130600 AAXX 13064 67475 32950 10905 10172 20120 48550 80001
                   333 10//0 20096 59006 81080 91023=
202105121200 AAXX 12124 67475 42660 10911 10254 20094 48533 81100
                   333 59009 81960 91021=
202105120900 AAXX 12094 67475 42560 21214 10226 20098 48560 81101
                   333 59004 82825 81080 91024=
202105110900 AAXX 11094 67475 42680 41107 10233 20103 48564 82201
                   333 58021 82830 82080 91025=
202105101200 AAXX 10124 67475 42680 71202 10245 20109 48532 83201
                   333 58017 83835 85080 91021=
202105061200 AAXX 06124 67475 42760 40907 10271 20145 48518 84200
                   333 58008 84850 91019=
202105060600 AAXX 06064 67475 32980 31608 10185 20147 48535 80001
                   333 10//0 20119 58001 83080 91022=
202105050900 AAXX 05094 67475 42960 51208 10246 20146 48536 83230
                   333 58005 83825 84360 91021=
202105031200 AAXX 03124 67475 42480 81703 10209 20146 48519 886//
                   333 58014 88610 91020=
202105030600 AAXX 03064 67475 32480 81407 10178 20148 48532 886//
                   333 1//// 20165 5//// 88610 91021=
202105020900 AAXX 02094 67475 NIL=
202105020600 AAXX 02064 67475 32580 81503 10211 20171 48537 83631
                   333 1//// 20174 58015 83620 82360 84080 91022=

################################################################################
#  SYNOPS from 67476, Misamfu (Zambia) | 10-06S | 031-15E | 1536 m
################################################################################
202105310900 AAXX 31094 67476 42780 10802 10231 20124 48/// 81100
                   333 5//// 81850=
202105281200 AAXX 28124 67476 42980 02601 10267 20089 48///
                   333 5////=
202105280600 AAXX 28064 67476 31979 00702 10133 20098 48/// 70500
                   333 10270 20053 59002
                   555 00///=
202105271200 AAXX 27124 67476 NIL=
202105270900 AAXX 27094 67476 NIL=
202105270600 AAXX 27064 67476 31978 00402 10133 20106 48/// 70500
                   333 10255 20050 58007
                   555 00///=
202105250600 AAXX 25064 67476 31380 50000 10134 20125 48/// 72844 85600
                   333 10234 20067 59009 85708=
202105220600 AAXX 22064 67476 31978 11202 10166 20116 48/// 70500 80001
                   333 10265 20074 59001 81080
                   555 00///=
202105210600 AAXX 21064 67476 31978 11803 10176 20130 48/// 70500 80001
                   333 10267 20076 59004 81080
                   555 00///=
202105201200 AAXX 20124 67476 42780 11402 10260 20134 48/// 81101
                   333 59001 81856 81080=
202105200900 AAXX 20094 67476 41779 11802 10236 20135 48/// 70500 81101
                   333 58004 81850 81080=
202105190900 AAXX 19094 67476 42680 61102 10235 20155 48/// 83108
                   333 58006 83840 85280=
202105190600 AAXX 19064 67476 32980 61603 10195 20145 48/// 81038
                   333 10275 20115 58002 81360 86280
                   555 00///=
202105180900 AAXX 18094 67476 42680 51503 10250 20156 48/// 81108
                   333 58014 81848 85280=
202105170600 AAXX 17064 67476 31978 10000 10176 20154 48/// 70540 80001
                   333 10284 20085 59001 81080
                   555 00///=
202105150600 AAXX 15064 67476 32980 00902 10188 20149 48///
                   333 10270 20101 59001
                   555 00///=
202105140900 AAXX 14094 67476 42780 11303 10240 20135 48/// 81101
                   333 59001 81850 81080=
202105140600 AAXX 14064 67476 32980 11003 10176 20136 48/// 80001
                   333 10262 20091 59005 81080=
202105131200 AAXX 13124 67476 NIL=
202105130600 AAXX 13064 67476 31978 11202 10255 20130 48/// 70500 80001
                   333 10255 20072 59005 81080=
202105121200 AAXX 12124 67476 42780 10903 10246 20178 48/// 81100
                   333 59009 81856=
202105120900 AAXX 12094 67476 31978 10903 10171 20115 48/// 70500 80001
                   333 10253 20061 59007 81080
                   555 00///=
202105110600 AAXX 11064 67476 31977 01504 10175 20118 48/// 70500
                   333 10259 20115 58012=
202105101200 AAXX 10124 67476 NIL=
202105060600 AAXX 06064 67476 31578 11702 10180 20154 48/// 70500 81100
                   333 10263 20112 58000 81820=
202105031200 AAXX 03124 67476 41679 81001 10197 20159 48/// 75055 888//
                   333 5//// 81845 87647=
202105030900 AAXX 03094 67476 41678 81802 10195 20155 48/// 75052 885//
                   333 5//// 88632=
202105030600 AAXX 03064 67476 32580 81802 10176 20155 48/// 885//
                   333 10273 20157 59001 88520=
202105020900 AAXX 02094 67476 NIL=
202105020600 AAXX 02064 67476 12580 61802 10200 20174 48/// 69904 864//
                   333 10290 20171 58015 86620=

################################################################################
#  SYNOPS from 67477, Mpika (Zambia) | 11-54S | 031-26E | 1400 m
################################################################################
202105311200 AAXX 31124 67477 41675 11207 10232 20125 48535 70500 81100
                   333 5//// 81836=
202105310900 AAXX 31094 67477 41575 11211 10221 20112 48545 70500 81100
                   333 5//// 81832=
202105280600 AAXX 28064 67477 32980 00902 10156 20102 48560
                   333 10232 20094 59002=
202105271200 AAXX 27124 67477 42980 01902 10216 20108 48549
                   333 59002=
202105270900 AAXX 27094 67477 NIL=
202105270600 AAXX 27064 67477 32980 01203 10146 20113 48562
                   333 10219 20092 59004=
202105251200 AAXX 25124 67477 42680 21203 10206 20104 48554 82131
                   333 59014 82830 81363 82080=
202105250900 AAXX 25094 67477 42580 20903 10189 20090 48579 82100
                   333 59020 82825=
202105250600 AAXX 25064 67477 32480 21202 10142 20130 48580 81130
                   333 10247 20101 59009 81812 82359=
202105210900 AAXX 21094 67477 41975 01205 10225 20120 48565 70500
                   333 59007=
202105210600 AAXX 21064 67477 31975 01206 10170 20112 48564 70500
                   333 10242 20110 59002
                   555 00///=
202105201200 AAXX 20124 67477 41975 01205 10239 20130 48550 70500
                   333 59003=
202105200900 AAXX 20094 67477 41975 01208 10214 20112 48572 70500
                   333 58002=
202105190900 AAXX 19094 67477 42980 60910 10211 20130 48570 80005
                   333 58003 86280=
202105190600 AAXX 19064 67477 32980 31510 10171 20104 48564 80001
                   333 10260 20140 58003 83080
                   555 00///=
202105180900 AAXX 18094 67477 42680 20910 10233 20133 48566 81101
                   333 58017 81835 82080=
202105170900 AAXX 17094 67477 42680 11208 10243 20130 48549 81100
                   333 5//// 81840=
202105170600 AAXX 17064 67477 32980 01205 10195 20134 10260 20115 58002 00///=
202105150600 AAXX 15064 67477 32980 00360 10177 20156 48///
                   333 10252 20130 5////
                   555 00///=
202105140900 AAXX 14094 67477 42580 11204 10229 20121 48557 81101
                   333 59003 81822 82080=
202105140600 AAXX 14064 67477 32480 01209 10171 20131 48554
                   333 10237 20124 59005=
202105131200 AAXX 13124 67477 42680 31203 10227 20110 48536 83100
                   333 59004 83836=
202105130900 AAXX 13094 67477 42580 21207 10213 20121 48560 82101
                   333 59005 82824 81080=
202105130600 AAXX 13064 67477 32480 10908 10164 20131 48560 81100
                   333 10233 20114 59010 81812=
202105121200 AAXX 12124 67477 42680 21202 10223 20108 48540 82100
                   333 59003 82830=
202105120900 AAXX 12094 67477 42580 40903 10208 20114 48565 83101
                   333 59009 83820 82080=
202105110600 AAXX 11064 67477 32480 10902 10166 20141 48574 81100
                   333 10244 20111 58020 81812=
202105101200 AAXX 10124 67477 42680 20906 10229 20121 48541 82101
                   333 59002 82830 82080=
202105100900 AAXX 10094 67477 42580 10903 10223 20141 48544 82101
                   333 58000 82812 81080=
202105061200 AAXX 06124 67477 42680 21508 10235 20160 48530 82100
                   333 58007 82841=
202105060600 AAXX 06064 67477 32980 11209 10119 20132 48546 80001
                   333 10245 20129 58002 81080=
202105050900 AAXX 05094 67477 42580 20908 10211 20143 48545 82100
                   333 58002 82828=
202105040900 AAXX 04094 67477 42980 81209 10183 20148 48541 8557/
                   333 59003 85619 88360=
202105031200 AAXX 03124 67477 42480 81509 10170 20149 48530 885//
                   333 5//// 88614=
202105030600 AAXX 03064 67477 12980 81210 10149 20128 48540 60084 8807/
                   333 10255 20140 59001 88459=
202105020900 AAXX 02094 67477 NIL=
202105020600 AAXX 02064 67477 11480 71204 10193 20167 48544 69904 72052 86530
                   333 10283 20168 58019 86510 82359=

################################################################################
#  SYNOPS from 67481, Isoka (Zambia) | 10-07S | 032-38E | 1360 m
################################################################################
202105311200 AAXX 31124 67481 42680 51002 10254 20133 48/// 85100
                   333 5//// 85840=
202105280600 AAXX 28064 67481 32980 02002 10180 20111 48///
                   333 10252 20090 5////
                   555 00///=
202105271200 AAXX 27124 67481 NIL=
202105270900 AAXX 27094 67481 NIL=
202105270600 AAXX 27064 67481 32980 02702 10162 20127 48///
                   333 10240 20086 5////
                   555 00///=
202105250600 AAXX 25064 67481 32480 62703 10150 20117 48/// 86500
                   333 10240 20118 5//// 86610
                   555 00///=
202105210900 AAXX 21094 67481 42580 10902 10220 20127 48/// 81100
                   333 58003 81825=
202105210600 AAXX 21064 67481 32980 02002 10190 20124 48///
                   333 10262 20106 5////
                   555 00///=
202105190600 AAXX 19064 67481 32480 22603 10206 20146 48/// 81101
                   333 10286 20150 5//// 81810 82080
                   555 00///=
202105170600 AAXX 17064 67481 32980 01202 10202 20128 48///
                   333 10276 20108 5////
                   555 00///=
202105140900 AAXX 14094 67481 NIL=
202105140600 AAXX 14064 67481 32980 12002 10190 20130 48/// 80001
                   333 10258 20112 5//// 81080=
202105131200 AAXX 13124 67481 NIL=
202105130600 AAXX 13064 67481 32980 23303 10179 20124 48/// 80001
                   333 10250 20076 5//// 82080=
202105120900 AAXX 12094 67481 32980 12003 10180 20121 48/// 80001
                   333 10270 20102 5//// 81080
                   555 00///=
202105110600 AAXX 11064 67481 32980 02703 10176 20128 48///
                   333 10278 20106 5////=
202105101200 AAXX 10124 67481 NIL=
202105060600 AAXX 06064 67481 32480 61003 10180 20153 48/// 86500
                   333 10250 20138 5//// 86610=
202105031200 AAXX 03124 67481 NIL=
202105030600 AAXX 03064 67481 11380 82002 10162 20162 48/// 60014 72162 887//
                   333 10272 20164 5//// 88707=
202105020900 AAXX 02094 67481 NIL=

################################################################################
#  SYNOPS from 67531, Zambezi (Zambia) | 13-32S | 023-07E | 1077 m
################################################################################
202105311200 AAXX 31124 67531 42980 00000 10276 20109 48///
                   333 5////=
202105310900 AAXX 31094 67531 42980 01005 10251 20077 48///
                   333 5////=
202105280600 AAXX 28064 67531 31970 01002 10115 20074 48/// 70500
                   333 10265 20040 59006
                   555 00///=
202105271200 AAXX 27124 67531 42980 01204 10252 20095 48///
                   333 58001=
202105270900 AAXX 27094 67531 42980 01208 10221 20087 48///
                   333 59005=
202105270600 AAXX 27064 67531 31970 00804 10139 20078 48/// 70500
                   333 10266 20076 59005
                   555 00///=
202105251200 AAXX 25124 67531 42980 00904 10252 20108 48///
                   333 59004=
202105250900 AAXX 25094 67531 42780 10905 10221 20110 48/// 81100
                   333 59006 81850=
202105250600 AAXX 25064 67531 31970 01004 10132 20104 48/// 70500
                   333 10265 20076 59004
                   555 00///=
202105220600 AAXX 22064 67531 31970 00904 10146 20105 48/// 70500
                   333 10281 20102 58005
                   555 00///=
202105210900 AAXX 21094 67531 42980 01005 10248 20134 48///
                   333 58000=
202105210600 AAXX 21064 67531 31960 00000 10151 20126 48/// 70500
                   333 10296 20087 59003
                   555 00///=
202105201200 AAXX 20124 67531 42780 23003 10278 20129 48/// 82100
                   333 59003 82856=
202105200900 AAXX 20094 67531 42980 00905 10246 20130 48///
                   333 58001=
202105190900 AAXX 19094 67531 42980 01207 10250 20117 48///
                   333 58002=
202105190600 AAXX 19064 67531 31970 41004 10152 20124 48/// 70522 84030
                   333 10293 20105 58007 84362
                   555 00///=
202105180900 AAXX 18094 67531 42980 01006 10262 20133 48///
                   333 58012=
202105170900 AAXX 17094 67531 42980 00000 10263 20153 48///
                   333 58008=
202105170600 AAXX 17064 67531 31970 00903 10166 20129 48/// 70500
                   333 10300 20090 58003
                   555 00///=
202105150600 AAXX 15064 67531 31975 00000 10150 20120 48/// 70500
                   333 10285 20084 59003
                   555 00///=
202105140900 AAXX 14094 67531 42980 00907 10245 20125 48///
                   333 59004=
202105140600 AAXX 14064 67531 32980 10905 10155 20113 48/// 81030
                   333 10275 20090 59009 81362=
202105131200 AAXX 13124 67531 42780 20000 10260 20112 48/// 82100
                   333 59007 82856=
202105130900 AAXX 13094 67531 42980 11207 10240 20120 48/// 81030
                   333 59010 81362=
202105121200 AAXX 12124 67531 42980 00805 10261 20101 48///
                   333 59012=
202105120900 AAXX 12094 67531 42680 21208 10240 20102 48/// 82100
                   333 59005 81839=
202105110600 AAXX 11064 67531 32980 50905 10170 20121 48/// 85030
                   333 10292 20115 58015 85362=
202105101200 AAXX 10124 67531 42780 40906 10284 20121 48/// 84200
                   333 58016 84850=
202105100900 AAXX 10094 67531 42680 21004 10262 20142 48/// 82100
                   333 58014 82840=
202105061200 AAXX 06124 67531 42780 61804 10277 20173 48/// 84202
                   333 58007 84850 83081=
202105060600 AAXX 06064 67531 32980 31206 10173 20150 48/// 80002
                   333 10290 20127 58003 83080=
202105050900 AAXX 05094 67531 42680 10907 10250 20157 48/// 81100
                   333 59003 81840=
202105040900 AAXX 04094 67531 42680 30906 10236 20159 48/// 83100
                   333 59003 83839=
202105031200 AAXX 03124 67531 42680 70906 10250 20172 48/// 8523/
                   333 58007 85835 84362=
202105030600 AAXX 03064 67531 12480 41005 10201 20182 48/// 69904 83530
                   333 10272 20176 59012 83610 83362=
202105020900 AAXX 02094 67531 41480 70605 10234 20194 48/// 70262 8117/
                   333 58015 81817 87460=
202105020600 AAXX 02064 67531 11380 81104 10195 20188 48/// 60194 76066 8657/
                   333 10315 20185 58015 86609 88460=

################################################################################
#  SYNOPS from 67541, Kasempa (Zambia) | 13-32S | 025-51E | 1234 m
################################################################################
202105311200 AAXX 31124 67541 42980 00000 10265 20156 48490
                   333 5////=
202105310900 AAXX 31094 67541 42980 00000 10245 20150 48508
                   333 5////=
202105280600 AAXX 28064 67541 32980 00000 10095 20075 48525
                   333 10254 20004 58000
                   555 00///=
202105271200 AAXX 27124 67541 42980 00000 10238 20135 48508
                   333 58000=
202105270900 AAXX 27094 67541 42980 00503 10215 20133 48534
                   333 58000=
202105270600 AAXX 27064 67541 32980 00000 10105 20080 48525
                   333 10250 20020 58000
                   555 00///=
202105250600 AAXX 25064 67541 32980 00000 10145 20109 48534
                   333 10249 20074 59009
                   555 00///=
202105220600 AAXX 22064 67541 32980 10000 10150 20124 48525 80001
                   333 10279 20070 58014 81080
                   555 00///=
202105210600 AAXX 21064 67541 32980 30000 10155 20129 48511 80003
                   333 10276 20058 5//// 83080
                   555 00///=
202105200900 AAXX 20094 67541 42980 10503 10245 20160 48/// 80001
                   333 5//// 81080=
202105190600 AAXX 19064 67541 32980 70000 10150 20115 48/// 80007
                   333 10270 20064 5//// 87080
                   555 00///=
202105180900 AAXX 18094 67541 42980 10503 10260 20165 48/// 80001
                   333 5//// 81080=
202105170900 AAXX 17094 67541 42980 10503 10263 20175 48/// 80001
                   333 5//// 81080=
202105170600 AAXX 17064 67541 32980 10000 10150 20133 48/// 80001
                   333 10286 20060 5//// 81080
                   555 00///=
202105150600 AAXX 15064 67541 32980 10000 10165 20140 48/// 81030
                   333 10280 20060 5//// 81360
                   555 00///=
202105140900 AAXX 14094 67541 42980 00505 10240 20163 48///
                   333 5////=
202105140600 AAXX 14064 67541 32980 00000 10169 20131 48///
                   333 10260 20079 5////=
202105131200 AAXX 13124 67541 NIL=
202105130600 AAXX 13064 67541 32980 20000 10175 20133 48/// 82030
                   333 10259 20096 5//// 82360=
202105121200 AAXX 12124 67541 42980 00000 10245 20160 48///
                   333 5////=
202105120900 AAXX 12094 67541 42980 00507 10230 20141 48///
                   333 5////=
202105110900 AAXX 11094 67541 42980 10504 10240 20153 48/// 80001
                   333 5//// 81080=
202105110600 AAXX 11064 67541 32980 10000 10160 20135 48/// 80001
                   333 10279 20060 5//// 81080=
202105101200 AAXX 10124 67541 42680 60000 10245 20168 48/// 86200
                   333 5//// 86830=
202105100900 AAXX 10094 67541 42980 10503 10250 20156 48/// 80001
                   333 5//// 81080=
202105060600 AAXX 06064 67541 32980 20000 10180 20148 48/// 80002
                   333 10270 20119 5//// 82080=
202105050900 AAXX 05094 67541 42680 10000 10240 20162 48/// 81100
                   333 5//// 81830=
202105031200 AAXX 03124 67541 42480 70000 10195 20155 48/// 8423/
                   333 5//// 84815 87360=
202105030600 AAXX 03064 67541 12380 60504 10172 20152 48/// 69904 82530
                   333 10279 20136 5//// 82606 84360=
202105020900 AAXX 02094 67541 NIL=

################################################################################
#  SYNOPS from 67543, Kabompo (Zambia) | 13-36S | 024-12E | 1075 m
################################################################################
202105311200 AAXX 31124 67543 42980 00000 10282 20090 48///
                   333 5////=
202105280900 AAXX 28094 67543 41975 00000 10224 20077 48/// 70500
                   333 5////=
202105271200 AAXX 27124 67543 NIL=
202105270900 AAXX 27094 67543 NIL=
202105210900 AAXX 21094 67543 41975 00901 10252 20129 48/// 70500
                   333 5////=
202105210600 AAXX 21064 67543 31970 40000 10136 20112 48/// 72842 80005
                   333 10294 20092 5//// 84280=
202105190900 AAXX 19094 67543 42980 40903 10248 20114 48/// 81035
                   333 5//// 81862 84285=
202105150600 AAXX 15064 67543 31965 00000 10134 20121 48/// 72844
                   333 10290 20096 5////=
202105140900 AAXX 14094 67543 NIL=
202105140600 AAXX 14064 67543 32980 20000 10148 20106 48/// 82030
                   333 10282 20112 5//// 82362=
202105131200 AAXX 13124 67543 NIL=
202105130600 AAXX 13064 67543 32980 70000 10146 20110 48/// 8703/
                   333 10292 20210 5//// 87361=
202105101200 AAXX 10124 67543 NIL=
202105060600 AAXX 06064 67543 32980 50000 10170 20141 48/// 80007
                   333 10294 20140 5//// 85280=
202105031200 AAXX 03124 67543 NIL=
202105030600 AAXX 03064 67543 11480 41002 10194 20155 48/// 60044 72122 83531
                   333 10308 20180 5//// 83615 82361 81080=
202105020900 AAXX 02094 67543 NIL=
202105020600 AAXX 02064 67543 11965 80000 10190 20184 48/// 60174 76166 8802/
                   333 10304 20186 5//// 88460=

################################################################################
#  SYNOPS from 67551, Solwezi (Zambia) | 12-11S | 026-23E | 1386 m
################################################################################
202105310900 AAXX 31094 67551 42980 00906 10235 20096 48542
                   333 59003 555 91022=
202105280600 AAXX 28064 67551 32980 00705 10110 20096 48544
                   333 10246 20065 58000
                   555 00/// 91023=
202105271200 AAXX 27124 67551 42980 01205 10243 20081 48527
                   333 58000 91021=
202105270900 AAXX 27094 67551 NIL=
202105270600 AAXX 27064 67551 31980 00000 10116 20090 48545 70500
                   333 10243 20082 59005
                   555 00/// 91023=
202105250900 AAXX 25094 67551 42580 31208 10209 20075 48564 82100
                   333 59012 83825 91025=
202105250600 AAXX 25064 67551 31980 01207 10126 20110 48558 70500
                   333 10239 20091 59010 91025=
202105220600 AAXX 22064 67551 32980 30903 10160 20111 48553 83030
                   333 10264 20096 58008 83362 91024=
202105210900 AAXX 21094 67551 42680 41205 10235 20112 48555 82130
                   333 59005 82840 83362 91023=
202105180900 AAXX 18094 67551 42480 60605 10236 20126 48554 82130
                   333 58008 555 91023=
202105170900 AAXX 17094 67551 42480 11507 10246 20102 48543 81100
                   333 58009 555 91022=
202105140900 AAXX 14094 67551 42480 10906 10237 20110 48545 81100
                   333 59001 81815 91023=
202105140600 AAXX 14064 67551 32980 01503 10143 20113 48535
                   333 10250 20112 59006 91022=
202105131200 AAXX 13124 67551 42780 50905 10244 20109 48522 85100
                   333 59007 85850 91020=
202105130900 AAXX 13094 67551 42980 42680 10225 20104 48550 84100
                   333 59010 84845 91022=
202105130600 AAXX 13064 67551 32980 01505 10139 20110 48550
                   333 10245 20095 59009 91023=
202105120900 AAXX 12094 67551 32980 01205 10142 20104 48549
                   333 10246 20105 59009
                   555 00/// 91024=
202105110600 AAXX 11064 67551 32980 40905 10165 20118 48561 84030
                   333 10258 20149 58017 84362 91025=
202105101200 AAXX 10124 67551 NIL=
202105060600 AAXX 06064 67551 32980 30803 10165 20143 48530 80001
                   333 10256 20129 58003 83080 91021=
202105031200 AAXX 03124 67551 NIL=
202105030600 AAXX 03064 67551 31360 71007 10167 20151 48526 75155 877//
                   333 10254 20166 58004 87706 91023=
202105020900 AAXX 02094 67551 NIL=

################################################################################
#  SYNOPS from 67561, Ndola (Zambia) | 13-00S | 028-39E | 1269 m
################################################################################
202105311200 AAXX 31124 67561 42980 00809 10254 20054 48527
                   333 58002 91019=
202105310900 AAXX 31094 67561 41970 01111 10237 20067 48551 70500
                   333 58002 91022=
202105280600 AAXX 28064 67561 31956 00000 10130 20096 48552 70400
                   333 10251 20068 58000
                   555 00/// 91024=
202105271200 AAXX 27124 67561 42980 00504 10241 20076 48544
                   333 58001 91021=
202105270900 AAXX 27094 67561 42980 01007 10216 20064 48567
                   333 59002 91024=
202105270600 AAXX 27064 67561 31958 00000 10153 20095 48553 70400
                   333 10255 20123 59005
                   555 00/// 91024=
202105220900 AAXX 22094 67561 41575 11007 10243 20074 48565 70500 81101
                   333 58005 81830 81080 91024=
202105220600 AAXX 22064 67561 31958 10603 10157 20111 48556 70400 81030
                   333 10276 20105 58004 81360 91024=
202105210600 AAXX 21064 67561 31956 00904 10155 20122 48552 70400
                   333 10248 20100 59003 91023=
202105180900 AAXX 18094 67561 41675 51011 10250 20094 48561 70511 85102
                   333 58011 85830 82080
                   555 91023=
202105170900 AAXX 17094 67561 42580 41610 10263 20073 48551 84100
                   333 58004 84825 91022=
202105170600 AAXX 17064 67561 31957 00000 10185 20134 48539 70400
                   333 10282 20104 58000
                   555 00/// 91022=
202105150600 AAXX 15064 67561 31958 01004 10173 20132 48547 70400
                   333 10276 20104 58002
                   555 00/// 91023=
202105140900 AAXX 14094 67561 NIL=
202105131200 AAXX 13124 67561 42680 61004 10248 20096 48533 86200
                   333 59005 86845 91020=
202105130900 AAXX 13094 67561 42980 21207 10213 20121 48560 82101
                   333 59005 82824 81080=
202105121200 AAXX 12124 67561 42580 41008 10245 20089 48538 84100
                   333 59015 84835 91021=
202105120900 AAXX 12094 67561 41575 41009 10226 20097 48564 70511 84100
                   333 59013 84820 91024=
202105101200 AAXX 10124 67561 NIL=
202105040900 AAXX 04094 67561 41465 41409 10225 20135 48540 70511 84530
                   333 59012 84615 82360 91021=
202105031200 AAXX 03124 67561 41675 71606 10205 20130 48529 70522 872//
                   333 58016 87840 91020=
202105030600 AAXX 03064 67561 11460 61211 10162 20124 48543 60234 70522 865//
                   333 10273 20151 58003 86610 91022=
202105020900 AAXX 02094 67561 41475 61106 10231 20186 48545 70562 85231
                   333 58012 85815 84360 81080 91022=
202105020600 AAXX 02064 67561 31260 80305 10185 20169 48541 70522 8563/
                   333 10278 20185 58010 85705 88360 91022=

################################################################################
#  SYNOPS from 67563, Kafironda (Zambia) | 12-36S | 028-07E | 1243 m
################################################################################
202105280600 AAXX 28064 67563 31950 01402 10110 20080 48/// 70500
                   333 10268 20034 5////
                   555 00020=
202105271200 AAXX 27124 67563 NIL=
202105270900 AAXX 27094 67563 NIL=
202105270600 AAXX 27064 67563 31940 01802 10086 20070 48/// 70500
                   333 10266 20024 59005
                   555 00016=
202105250600 AAXX 25064 67563 31901 00000 10060 20060 48/// 74244
                   333 10248 20044 59008
                   555 00032=
202105140900 AAXX 14094 67563 NIL=
202105140600 AAXX 14064 67563 31975 00000 10120 20100 48/// 70500
                   333 10267 20066 59007
                   555 00056=
202105131200 AAXX 13124 67563 NIL=
202105130600 AAXX 13064 67563 31975 10000 10132 20110 48/// 70500 81030
                   333 10263 20059 59009 81360
                   555 00048=
202105101200 AAXX 10124 67563 NIL=
202105060600 AAXX 06064 67563 31978 31502 10174 20140 48/// 70500 83030
                   333 10267 20098 58006 83360
                   555 00088=
202105031200 AAXX 03124 67563 NIL=
202105030600 AAXX 03064 67563 11378 80604 10172 20170 48/// 60064 70522 887//
                   333 10284 20163 58007 88707
                   555 00152=
202105020900 AAXX 02094 67563 NIL=
202105020600 AAXX 02064 67563 11378 70000 10200 20180 48/// 60014 70522 83770
                   333 10280 20156 5//// 83708 87359
                   555 00145=

################################################################################
#  SYNOPS from 67571, Serenje (Zambia) | 13-14S | 030-13E | 1384 m
################################################################################
202105280600 AAXX 28064 67571 32982 00904 10160 20072 48510
                   333 10228 20095 59003
                   555 00///=
202105271200 AAXX 27124 67571 42982 01203 10216 20072 48503
                   555 59008=
202105270900 AAXX 27094 67571 NIL=
202105270600 AAXX 27064 67571 32982 00908 10134 20068 48509
                   333 10219 20081 59006
                   555 00///=
202105251200 AAXX 25124 67571 42682 21208 10201 20111 48502 82100
                   333 59019 82840=
202105250600 AAXX 25064 67571 12482 71207 10124 20089 48528 69904 8153/
                   333 10201 20090 59008 81615 87360
                   555 00///=
202105210900 AAXX 21094 67571 42982 01802 10224 20095 48513
                   333 59003=
202105190900 AAXX 19094 67571 42982 20908 10206 20079 48522 80001
                   333 58002 82080=
202105180600 AAXX 18064 67571 32982 10903 10195 20114 48511 80001
                   333 10251 20132 58020 81080
                   555 00///=
202105170900 AAXX 17094 67571 42582 31206 10230 20101 48503 83200
                   333 58005 83828=
202105170600 AAXX 17064 67571 32982 00904 10195 20122 48492
                   333 10258 20115 58008
                   555 00///=
202105140900 AAXX 14094 67571 NIL=
202105131200 AAXX 13124 67571 42582 60904 10227 20099 48483 86200
                   333 59008 86835=
202105110600 AAXX 11064 67571 32482 10906 10152 20106 48529 81500
                   333 10234 20100 58022 81615=
202105101200 AAXX 10124 67571 NIL=
202105100900 AAXX 10094 67571 42684 51211 10215 20087 48513 70222 81108
                   333 58020 81831 85280=
202105061200 AAXX 06124 67571 42682 20605 10232 20121 48473 82100
                   333 58006 82845=
202105060600 AAXX 06064 67571 32982 11208 10174 20105 48500 81030
                   333 10231 20130 58009 81360=
202105040900 AAXX 04094 67571 42482 70903 10171 20125 48491 875//
                   333 59002 87615=
202105031200 AAXX 03124 67571 42378 81204 10163 20131 48480 70222 886//
                   333 58003 88709=
202105020900 AAXX 02094 67571 NIL=
202105020600 AAXX 02064 67571 32382 71506 10198 20170 48492 876//
                   333 10274 20179 58014 87708=

################################################################################
#  SYNOPS from 67575, Mkushi (Zambia) | 13-38-00S | 029-26-00E | 1237 m
################################################################################
202105310900 AAXX 31094 67575 42980 01206 10239 20077 48514
                   333 5////=
202105271200 AAXX 27124 67575 NIL=
202105270900 AAXX 27094 67575 NIL=
202105250600 AAXX 25064 67575 12480 11203 10145 20109 48533 69904 81500
                   333 10220 20100 59010 81613
                   555 00084=
202105220600 AAXX 22064 67575 32980 01201 10170 20105 48521
                   333 10273 20112 58000
                   555 00095=
202105201200 AAXX 20124 67575 42680 10901 10264 20106 48502 81100
                   333 59010 81842=
202105200900 AAXX 20094 67575 42980 10903 10246 20110 48530 80001
                   333 59004 81080=
202105190900 AAXX 19094 67575 42980 71209 10232 20087 48532 80008
                   333 58009 87280=
202105180900 AAXX 18094 67575 42680 21307 10252 20107 48525 81200
                   333 5//// 81832=
202105150600 AAXX 15064 67575 32980 00903 10184 20128 48503
                   333 10283 20116 59005=
202105140900 AAXX 14094 67575 NIL=
202105140600 AAXX 14064 67575 32980 01203 10178 20122 48508
                   333 10254 20127 5////
                   555 00116=
202105131200 AAXX 13124 67575 42780 31303 10234 20102 48595 83200
                   333 59011 83850=
202105130900 AAXX 13094 67575 42680 30904 10234 20097 48520 83200
                   333 59007 83835=
202105130600 AAXX 13064 67575 32980 01202 10166 20125 48///
                   333 10251 20105 5////
                   555 00077=
202105110900 AAXX 11094 67575 42680 21203 10202 20096 48537 82200
                   333 58019 82830=
202105101200 AAXX 10124 67575 42680 21405 10260 20109 48503 82200
                   333 5//// 82838=
202105061200 AAXX 06124 67575 42760 31202 10253 20135 48483 83200
                   333 58005 83856=
202105060600 AAXX 06064 67575 32980 11103 10181 20123 48504 80001
                   333 10271 20126 58008 81080
                   555 00103=
202105031200 AAXX 03124 67575 NIL=
202105020900 AAXX 02094 67575 NIL=

################################################################################
#  SYNOPS from 67580, Msekera (Zambia) | 13-39S | 032-34E | 1025 m
################################################################################
202105311200 AAXX 31124 67580 42680 70903 10288 20120 48/// 87100
                   333 58001 87846=
202105310900 AAXX 31094 67580 42680 11002 10274 20128 48/// 81100
                   333 59001 81834=
202105280600 AAXX 28064 67580 32980 01206 10166 20102 48///
                   333 10282 20109 59003
                   555 00///=
202105271200 AAXX 27124 67580 42980 00000 10254 20096 48///
                   333 59004=
202105270900 AAXX 27094 67580 42680 10604 10233 20078 48/// 81100
                   333 59007 81830=
202105270600 AAXX 27064 67580 32980 01206 10164 20083 48///
                   333 10277 20112 59006
                   555 00///=
202105220900 AAXX 22094 67580 41680 51506 10254 20110 48/// 70510 85100
                   333 58004 85845=
202105220600 AAXX 22064 67580 31980 01204 10196 20117 48///
                   333 10304 20147 58005
                   555 00///=
202105210900 AAXX 21094 67580 42980 00602 10257 20112 48///
                   333 59007=
202105210600 AAXX 21064 67580 32980 0//// 10205 20114 48///
                   333 10296 20133 59008
                   555 00///=
202105201200 AAXX 20124 67580 42680 10902 10270 20098 48/// 81100
                   333 59004 81842=
202105200900 AAXX 20094 67580 42680 11203 10249 20099 48/// 81100
                   333 58004 81832=
202105190900 AAXX 19094 67580 42980 71207 10256 20108 48/// 80008
                   333 58010 87280=
202105190600 AAXX 19064 67580 32980 71507 10191 20129 48/// 80008
                   333 10312 20138 58009 87280
                   555 00///=
202105180900 AAXX 18094 67580 42680 71204 10276 20127 48/// 85208
                   333 58027 85835 87280=
202105170600 AAXX 17064 67580 32980 00000 10210 20152 48///
                   333 10306 20137 59004
                   555 00///=
202105150600 AAXX 15064 67580 32980 01202 10187 20131 48///
                   333 10295 20127 59008
                   555 00///=
202105140900 AAXX 14094 67580 42680 50905 10248 20132 48/// 85101
                   333 58000 85840 81080=
202105140600 AAXX 14064 67580 32980 21205 10195 20141 48/// 80002
                   333 10294 20132 59005 82080=
202105131200 AAXX 13124 67580 42680 61507 10264 20106 48/// 85102
                   333 59003 85845 83080=
202105130900 AAXX 13094 67580 42680 51206 10260 20113 48/// 85101
                   333 59011 85835 81080=
202105130600 AAXX 13064 67580 31960 01210 10190 20104 48555 70500
                   333 10256 20113 59007 91023=
202105120900 AAXX 12094 67580 42680 51203 10240 20126 48/// 85100
                   333 59007 85830=
202105110600 AAXX 11064 67580 32980 01505 10182 20121 48///
                   333 10276 20136 58020=
202105101200 AAXX 10124 67580 NIL=
202105100900 AAXX 10094 67580 41680 11510 10252 20105 48/// 70500 81100
                   333 58016 81840=
202105050900 AAXX 05094 67580 42680 50000 10254 20128 48/// 81131
                   333 59003 81835 84362 81080=
202105040900 AAXX 04094 67580 42680 31606 10226 20142 48/// 82130
                   333 59003 82830 81362=
202105031200 AAXX 03124 67580 42680 81505 10206 20149 48/// 8757/
                   333 58018 87630 88460=
202105030900 AAXX 03094 67580 42580 71205 1//// 20140 48/// 878//
                   333 58014 83824 86626=
202105030600 AAXX 03064 67580 32480 71206 10182 20144 48/// 87500
                   333 10298 20147 58016 87612=
202105020900 AAXX 02094 67580 NIL=

################################################################################
#  SYNOPS from 67581, Chipata (Zambia) | 13-33S | 032-35E | 1028 m
################################################################################
202105280600 AAXX 28064 67581 32980 01605 10178 20096 48570
                   333 10//0 20119 59002
                   555 00/// 91024=
202105271200 AAXX 27124 67581 NIL=
202105270900 AAXX 27094 67581 32980 01708 10182 20090 48572
                   333 10/// 20090 59004
                   555 00/// 91024=
202105270600 AAXX 27064 67581 32980 01708 10182 20090 48572
                   333 1//// 20114 59004 91024=
202105250900 AAXX 25094 67581 42680 11406 10221 20081 48595 70200 81100
                   333 59014 81845 91026=
202105250600 AAXX 25064 67581 32980 01612 10172 20080 48586
                   333 10//0 20135 59009
                   555 00/// 91026=
202105220600 AAXX 22064 67581 32980 00905 10210 20107 48578
                   333 10//0 20130 58004
                   555 00/// 91024=
202105210600 AAXX 21064 67581 32980 01406 10206 20100 48573
                   333 10//0 20110 59005
                   555 00/// 91023=
202105201200 AAXX 20124 67581 42980 11604 10269 20101 48568 81030
                   333 59003 81360 91022=
202105200900 AAXX 20094 67581 42680 10905 10244 20096 48588 81100
                   333 58000 81830 91024=
202105190600 AAXX 19064 67581 32980 41710 10200 20113 48576 80001
                   333 10//0 20163 58004 84080
                   555 00/// 91024=
202105180900 AAXX 18094 67581 42680 30904 10276 20118 48587 83102
                   333 58023 83830 82080 91024=
202105170900 AAXX 17094 67581 42680 50906 10264 20121 48562 85100
                   333 59001 85840 555 91021=
202105150600 AAXX 15064 67581 32980 01604 10215 20116 48562
                   333 10//0 20128 59008
                   555 00/// 91021=
202105140900 AAXX 14094 67581 42680 50905 10255 20115 48575 86100
                   333 59002 85835 91023=
202105140600 AAXX 14064 67581 32980 00912 10215 20124 48570
                   333 10//0 20134 59004
                   555 00/// 91023=
202105131200 AAXX 13124 67581 42580 40903 10264 20086 48557 84100
                   333 58000 84834 91021=
202105130900 AAXX 13094 67581 42680 31804 10250 20091 48579 83100
                   333 59011 83830 91023=
202105130600 AAXX 13064 67581 32980 01604 10210 20089 48574
                   333 10//0 20142 59007 91023=
202105120900 AAXX 12094 67581 42680 31806 10233 20111 48585 83100
                   333 59003 83830 91024=
202105110600 AAXX 11064 67581 32980 01605 10190 20102 48581
                   333 10//0 20159 58020
                   555 00/// 91025=
202105101200 AAXX 10124 67581 NIL=
202105100900 AAXX 10094 67581 42980 00915 10255 20091 48578
                   333 58015 91023=
202105060600 AAXX 06064 67581 32980 01204 10205 20090 48561
                   333 10//0 20142 58007 91022=
202105040900 AAXX 04094 67581 42680 41805 10228 20131 48557 84100
                   333 59004 84832 91021=
202105031200 AAXX 03124 67581 NIL=
202105030600 AAXX 03064 67581 32480 31206 10190 20126 48555 82530
                   333 10//0 20162 58005 82610 82360 91022=
202105020900 AAXX 02094 67581 NIL=
202105020600 AAXX 02064 67581 12480 71409 10212 20178 48554 69904 70322 865//
                   333 10//0 20190 58020 86610 91021=

################################################################################
#  SYNOPS from 67583, Lundazi (Zambia) | 12-17S | 033-12E | 1143 m
################################################################################
202105280600 AAXX 28064 67583 32980 01101 10122 20101 48///
                   333 10280 2//// 5////=
202105271200 AAXX 27124 67583 NIL=
202105270900 AAXX 27094 67583 NIL=
202105270600 AAXX 27064 67583 32980 10000 10140 20131 48/// 81030
                   333 10//0 20//0 5//// 81359
                   555 00///=
202105220600 AAXX 22064 67583 32980 00000 10140 20109 48///
                   333 10296 20//0 5////
                   555 00///=
202105210600 AAXX 21064 67583 32980 60000 10156 20117 48/// 70222 80008
                   333 10285 20//0 5//// 86280
                   555 00///=
202105170600 AAXX 17064 67583 32980 00000 10180 20144 48///
                   333 10314 20//0 555 00///=
202105140900 AAXX 14094 67583 NIL=
202105131200 AAXX 13124 67583 NIL=
202105101200 AAXX 10124 67583 NIL=
202105031200 AAXX 03124 67583 NIL=
202105030600 AAXX 03064 67583 32480 71506 10180 20147 48/// 70322 875//
                   333 10288 20//0 5//// 87610=
202105020900 AAXX 02094 67583 NIL=

################################################################################
#  SYNOPS from 67599, Mfuwe (Zambia) | 13-16S | 031-56E | 568 m
################################################################################
202105310900 AAXX 31094 67599 41560 10804 10280 20149 48519 70500 81100
                   333 59001 81828 91020=
202105280600 AAXX 28064 67599 31960 00000 10154 20106 48544 70500
                   333 10315 20080 59002
                   555 00045 910230=
202105271200 AAXX 27124 67599 NIL=
202105270900 AAXX 27094 67599 NIL=
202105270600 AAXX 27064 67599 32980 00000 10150 20105 48552
                   333 10305 20085 59008
                   555 00060 91023=
202105250600 AAXX 25064 67599 32980 40000 10189 20147 48565 84030
                   333 10302 20096 58001 84360
                   555 00079 91026=
202105190600 AAXX 19064 67599 32980 20000 10211 20118 48572 80001
                   333 10340 20128 58011 82080
                   555 00/// 91023=
202105170600 AAXX 17064 67599 32980 01402 10212 20139 48543
                   333 10335 20142 58004
                   555 00117 91019=
202105150600 AAXX 15064 67599 32980 02002 10182 20166 48543
                   333 10334 20135 59008
                   555 00/// 91020=
202105140900 AAXX 14094 67599 NIL=
202105140600 AAXX 14064 67599 32980 01705 10188 20133 48554
                   333 10325 20118 59006
                   555 00092 91021=
202105131200 AAXX 13124 67599 NIL=
202105130600 AAXX 13064 67599 32980 30000 10183 20143 48556 83030
                   333 10313 20120 59007 83360
                   555 00100 91022=
202105101200 AAXX 10124 67599 NIL=
202105060600 AAXX 06064 67599 32980 11502 10193 20128 48552 80001
                   333 10315 20120 58009 81080
                   555 00097 91021=
202105031200 AAXX 03124 67599 NIL=
202105030600 AAXX 03064 67599 32680 31805 10217 20144 48554 82131
                   333 10308 20172 58017 82830 81360 81080 91020=
202105020900 AAXX 02094 67599 NIL=

################################################################################
#  SYNOPS from 67625, Kalabo (Zambia) | 14-51S | 022-42E | 1033 m
################################################################################
202105311200 AAXX 31124 67625 41980 10811 10275 20079 48/// 70500 80005
                   333 81275=
202105310900 AAXX 31094 67625 41980 10916 10231 20099 48/// 70500 80005
                   333 81275=
202105280600 AAXX 28064 67625 32982 01109 10139 20090 48///
                   333 10255 20100 59017
                   555 00///=
202105271200 AAXX 27124 67625 42982 01214 10248 20096 48///
                   333 59002=
202105270900 AAXX 27094 67625 42982 00918 10220 20086 48///
                   333 59009=
202105270600 AAXX 27064 67625 32982 01209 10135 20089 48///
                   333 10250 20095 58001
                   555 00///=
202105250600 AAXX 25064 67625 32982 00912 10145 20110 48///
                   333 10255 20115 59006
                   555 00///=
202105220600 AAXX 22064 67625 32982 01109 10179 20128 48///
                   333 10280 20130 58002
                   555 00///=
202105210900 AAXX 21094 67625 42982 00912 10240 20134 48///
                   333 5////=
202105210600 AAXX 21064 67625 32982 11208 10170 20135 48/// 80001
                   333 10280 20130 59002 81075
                   555 00///=
202105201200 AAXX 20124 67625 42982 21204 10272 20132 48/// 82030
                   333 5//// 82360=
202105200900 AAXX 20094 67625 42982 00616 10239 20125 48///
                   333 5////=
202105190900 AAXX 19094 67625 42982 00818 10245 20120 48///
                   333 5////=
202105190600 AAXX 19064 67625 32982 70908 10188 20133 48/// 8703/
                   333 10287 20160 5//// 87360
                   555 00///=
202105180900 AAXX 18094 67625 42982 00618 10275 20093 48///
                   333 5////=
202105170900 AAXX 17094 67625 42982 01219 10260 20109 48///=
202105170600 AAXX 17064 67625 32982 01212 10172 20130 48///
                   333 10290 20125 5////
                   555 00///=
202105150600 AAXX 15064 67625 32982 01504 10165 20128 48///
                   333 10270 20130 59004
                   555 00///=
202105140900 AAXX 14094 67625 42982 20917 10230 20110 48/// 82030
                   333 5//// 82361=
202105140600 AAXX 14064 67625 32982 10916 10165 20113 48/// 81030
                   333 10265 20130 59004 81360=
202105131200 AAXX 13124 67625 42982 23511 10258 20093 48/// 82030
                   333 5//// 82360=
202105130900 AAXX 13094 67625 42982 11220 10240 20091 48/// 81030
                   333 5//// 82360=
202105130600 AAXX 13064 67625 32980 00913 10170 20126 48///
                   333 10265 20120 59011=
202105121200 AAXX 12124 67625 42982 11018 10260 20085 48/// 81030
                   333 5//// 81360=
202105120900 AAXX 12094 67625 42982 00921 10240 20136 48///
                   333 5////=
202105110900 AAXX 11094 67625 42982 00618 10250 20113 48///
                   333 5////=
202105110600 AAXX 11064 67625 32982 00908 10178 20121 48///
                   333 10285 20132 58002=
202105101200 AAXX 10124 67625 42982 10922 10280 20091 48/// 81030
                   333 81360=
202105100900 AAXX 10094 67625 42982 01238 10265 20080 48///
                   333 5////=
202105061200 AAXX 06124 67625 42682 71210 10269 20153 48/// 81103
                   333 59007 81844 87075=
202105060600 AAXX 06064 67625 32982 70913 10190 20148 48/// 80003
                   333 10275 20154 5//// 87075=
202105050900 AAXX 05094 67625 42682 10916 10241 20152 48/// 81100
                   333 81835=
202105031200 AAXX 03124 67625 42682 70917 10250 20173 48/// 8513/
                   333 85830 87360=
202105030600 AAXX 03064 67625 12482 80815 10195 20176 48/// 69924 886//
                   333 10274 20180 5//// 88710=
202105020900 AAXX 02094 67625 NIL=
202105020600 AAXX 02064 67625 12982 81706 10195 20190 48/// 60444 8802/
                   333 10300 20180 5//// 88460=

################################################################################
#  SYNOPS from 67633, Mongu (Zambia) | 15-15S | 023-09E | 1052 m
################################################################################
202105280600 AAXX 28064 67633 32980 01004 10140 20075 48544
                   333 10272 20106 59005
                   555 00064 91022=
202105271200 AAXX 27124 67633 42980 01303 10262 20067 48552
                   333 59007 91021=
202105270900 AAXX 27094 67633 42980 00806 10240 20065 48565
                   333 59004 91023=
202105270600 AAXX 27064 67633 32980 00906 10136 20070 48547
                   333 10270 20096 59001
                   555 00065 91023=
202105251200 AAXX 25124 67633 42980 00306 10264 20094 48559
                   333 59013 91022=
202105250600 AAXX 25064 67633 32980 00601 10157 20104 48565
                   333 10261 20104 59003
                   555 00060 91024=
202105220900 AAXX 22094 67633 42680 11006 10268 20104 48576 81100
                   333 58009 81830 91024=
202105220600 AAXX 22064 67633 32980 01104 10183 20112 48544
                   333 10291 20127 58000
                   555 00094 91022=
202105210900 AAXX 21094 67633 42980 00903 10260 20126 48567
                   333 58003 91023=
202105190900 AAXX 19094 67633 42980 00908 10265 20107 48570
                   333 58006 91023=
202105190600 AAXX 19064 67633 32980 70902 10199 20129 48560 87030
                   333 10307 20175 58008 87360
                   555 00154 91012=
202105180900 AAXX 18094 67633 42980 00905 10275 20101 48566
                   333 58009 91022=
202105170900 AAXX 17094 67633 42980 01006 10270 20124 48557
                   333 58008 91021=
202105170600 AAXX 17064 67633 32980 01002 10186 20113 48535
                   333 10299 20131 58007
                   555 00104 91020=
202105140900 AAXX 14094 67633 42980 00612 10250 20103 48560
                   333 59006 91022=
202105140600 AAXX 14064 67633 32980 01004 10176 20109 48543
                   333 10279 20132 59007
                   555 00112 91021=
202105131200 AAXX 13124 67633 42680 20902 10276 20096 48543 82100
                   333 59009 82845 91019=
202105130900 AAXX 13094 67633 42680 31003 10251 20095 48566 83100
                   333 59005 83830 91023=
202105130600 AAXX 13064 67633 32980 00903 10179 20116 48550
                   333 10279 20129 58002
                   555 00110 91022=
202105101200 AAXX 10124 67633 42680 11802 10285 20096 48557 81100
                   333 58016 81840 91021=
202105100900 AAXX 10094 67633 42980 01006 10267 20089 48571
                   333 58008 91023=
202105050900 AAXX 05094 67633 42580 20808 10260 20145 48544 82100
                   333 58007 82825 91020=
202105031200 AAXX 03124 67633 NIL=
202105030600 AAXX 03064 67633 12980 60906 10185 20162 48519 60404 70322 862//
                   333 10296 20168 59004 86645
                   555 00170 91017=
202105020900 AAXX 02094 67633 42680 70602 10258 20187 48550 8113/
                   333 58012 81830 87360 91021=
202105020600 AAXX 02064 67633 12980 71802 10203 20196 48535 60164 8707/
                   333 10311 20184 58014 87460
                   555 00194 91020=

################################################################################
#  SYNOPS from 67641, Kaoma (Zambia) | 14-48S | 024-48E | 1213 m
################################################################################
202105280600 AAXX 28064 67641 32980 00000 10082 20059 48528
                   333 10270 20054 58000
                   555 00/// 91021=
202105271200 AAXX 27124 67641 42980 01506 10255 20076 48545
                   333 58002 91021=
202105270900 AAXX 27094 67641 42980 01303 10222 20070 48554
                   333 59009 91022=
202105270600 AAXX 27064 67641 32980 00000 10067 20053 48526
                   333 10266 20050 59007 91021=
202105201200 AAXX 20124 67641 42780 10402 10277 20125 48536 81100
                   333 58012 81856 91018=
202105200900 AAXX 20094 67641 42980 03602 10245 20121 48556
                   333 59007 91022=
202105140900 AAXX 14094 67641 NIL=
202105140600 AAXX 14064 67641 32980 00000 10131 20105 48527
                   333 10282 20096 59002 91020=
202105131200 AAXX 13124 67641 NIL=
202105130600 AAXX 13064 67641 32980 20901 10130 20113 48528 82030
                   333 10271 20112 58016 82360=
202105101200 AAXX 10124 67641 NIL=
202105060600 AAXX 06064 67641 32980 20000 10152 20133 48518 80001
                   333 10281 20126 58000 82080 91018=
202105031200 AAXX 03124 67641 NIL=
202105030600 AAXX 03064 67641 12580 51001 10187 20161 48523 60024 85800
                   333 10275 20176 59007 83825 82630 91018=
202105020900 AAXX 02094 67641 42580 70804 10247 20186 48539 8523/
                   333 58019 85832 87360 91020=
202105020600 AAXX 02064 67641 11980 72102 10199 20192 48533 60044 72166 8707/
                   333 10318 20192 58017 87460 91020=

################################################################################
#  SYNOPS from 67655, Mumbwa (Zambia) | 15-04S | 027-11E | 1216 m
################################################################################
202105271200 AAXX 27124 67655 NIL=
202105270900 AAXX 27094 67655 NIL=
202105190900 AAXX 19094 67655 42980 01015 10229 20068 48591
                   333 58009 91025=
202105190600 AAXX 19064 67655 32980 40905 10144 20082 48568 80001
                   333 10271 20092 58012 84080
                   555 00/// 91024=
202105170600 AAXX 17064 67655 32980 00705 10160 20107 48541
                   333 10310 20114 58001
                   555 00/// 91021=
202105140900 AAXX 14094 67655 NIL=
202105131200 AAXX 13124 67655 NIL=
202105101200 AAXX 10124 67655 NIL=
202105060600 AAXX 06064 67655 32980 21008 10164 20118 48543 82030
                   333 10252 20121 58002 82359 91021=
202105031200 AAXX 03124 67655 NIL=
202105020900 AAXX 02094 67655 NIL=
202105020600 AAXX 02064 67655 32480 70000 10199 20185 48549 875//
                   333 10277 20172 58012 87610 91021=

################################################################################
#  SYNOPS from 67659, Kafue Polder (Zambia) | 15-46S | 027-55E | 978 m
################################################################################
202105271200 AAXX 27124 67659 NIL=
202105270900 AAXX 27094 67659 NIL=
202105210600 AAXX 21064 67659 32980 10704 10176 20116 48/// 70200 80001
                   333 10280 20070 5//// 81080
                   555 00///=
202105190900 AAXX 19094 67659 41975 20705 10242 20130 48/// 70500 80001
                   333 5//// 82080=
202105190600 AAXX 19064 67659 31975 11306 10187 20125 48/// 70500 80001
                   333 10298 20082 5//// 81080
                   555 00///=
202105180900 AAXX 18094 67659 32580 21406 10269 20130 48/// 82200
                   333 5//// 82825=
202105140900 AAXX 14094 67659 NIL=
202105131200 AAXX 13124 67659 NIL=
202105101200 AAXX 10124 67659 NIL=
202105060600 AAXX 06064 67659 32980 10903 10201 20138 48/// 81030
                   333 10270 20094 5//// 81359=
202105031200 AAXX 03124 67659 NIL=
202105020900 AAXX 02094 67659 NIL=

################################################################################
#  SYNOPS from 67662, Kabwe Agric (Zambia) | 14-24S | 028-30E | 1165 m
################################################################################
202105271200 AAXX 27124 67662 NIL=
202105270900 AAXX 27094 67662 NIL=
202105140900 AAXX 14094 67662 NIL=
202105131200 AAXX 13124 67662 NIL=
202105101200 AAXX 10124 67662 NIL=
202105031200 AAXX 03124 67662 NIL=
202105020900 AAXX 02094 67662 NIL=

################################################################################
#  SYNOPS from 67663, Kabwe (Zambia) | 14-27S | 028-28E | 1206 m
################################################################################
202105311200 AAXX 31124 67663 42980 00916 10255 20080 48526
                   333 58013=
202105310900 AAXX 31094 67663 42980 00920 10230 20100 48536
                   333 58006=
202105280600 AAXX 28064 67663 32980 00902 10143 20083 48529
                   333 10250 20046 5////
                   555 00182=
202105271200 AAXX 27124 67663 NIL=
202105270900 AAXX 27094 67663 NIL=
202105251200 AAXX 25124 67663 42680 50809 10212 20102 48542 85500
                   333 58046 85632=
202105250900 AAXX 25094 67663 42580 40810 10191 20101 48560 84500
                   333 58038 84625=
202105250600 AAXX 25064 67663 32980 01209 10146 20112 48552
                   333 10213 20080 58031
                   555 00206=
202105220900 AAXX 22094 67663 42580 20605 10236 20099 48542 82100
                   333 58000 82824=
202105220600 AAXX 22064 67663 32980 00903 10176 20106 48543
                   333 10263 20084 58010
                   555 00208=
202105210600 AAXX 21064 67663 32980 10204 10159 20120 48537 81030
                   333 10263 20101 59002 81360
                   555 00166=
202105201200 AAXX 20124 67663 42680 30204 10250 20108 48539 83100
                   333 58001 83838=
202105200900 AAXX 20094 67663 42980 10414 10221 20118 48550 80001
                   333 58011 81080=
202105190600 AAXX 19064 67663 32980 51309 10156 20097 48557 80002
                   333 10272 20102 58003 85080
                   555 00180=
202105180900 AAXX 18094 67663 42580 30908 10243 20104 48512 82130
                   333 59014 81360=
202105150600 AAXX 15064 67663 32980 01006 10170 20128 48534
                   333 10272 20106 59006
                   555 00174=
202105140900 AAXX 14094 67663 42680 10907 10225 20116 48545 81100
                   333 58004 81832=
202105140600 AAXX 14064 67663 32980 00804 10167 20124 48540
                   333 10252 20100 59006
                   555 00176=
202105131200 AAXX 13124 67663 42680 60210 10246 20101 48531 86100
                   333 58037 86832=
202105130600 AAXX 13064 67663 32980 11803 10172 20116 48527 81030
                   333 10223 20098 58017 81360
                   555 00163=
202105101200 AAXX 10124 67663 NIL=
202105061200 AAXX 06124 67663 42680 10908 10250 20127 48523 81100
                   333 58002 81835=
202105060600 AAXX 06064 67663 32980 11004 10178 20140 48533 81030
                   333 10250 20113 58004 81360
                   555 00176=
202105040900 AAXX 04094 67663 42580 60810 10203 20130 48538 86530
                   333 59013 86623 81360=
202105031200 AAXX 03124 67663 42580 81212 10171 20136 48528 885//
                   333 58042 88625=
202105030600 AAXX 03064 67663 12480 71009 10161 20133 60024 875//
                   333 10232 20126 58024 87618
                   555 00168=
202105020900 AAXX 02094 67663 NIL=

################################################################################
#  SYNOPS from 67665, Lusaka Internationalairport (Zambia) | 15-19S | 028-27E | 1152 m
################################################################################
202105312100 AAXX 31214 67665 42980 01603 10111 20072 48535
                   333 59003=
202105311800 AAXX 31184 67665 42980 01802 10141 20070 48538 70200
                   333 58000 91022=
202105310900 AAXX 31094 67665 42980 00814 10234 20045 48567 70200
                   333 58000=
202105310600 AAXX 31064 67665 32980 00000 10157 20060 48553 70200
                   333 10264 20//0 59001
                   555 00///=
202105310300 AAXX 31034 67665 42980 01902 10090 20048 48529 70200
                   333 59008=
202105310000 AAXX 31004 67665 42980 01802 10086 20050 48526 70200
                   333 59005=
202105302100 AAXX 30214 67665 42980 01402 10126 20048 48540 70200
                   333 59003=
202105301800 AAXX 30184 67665 42980 01605 10155 20065 48539
                   333 10264 59003=
202105301500 AAXX 30154 67665 42980 00507 20041 48540
                   333 59003=
202105301200 AAXX 30124 67665 42980 00705 10263 20052 48545
                   333 59010=
202105300600 AAXX 30064 67665 32980 00000 10133 20085 48548
                   333 10242 20/// 59006 91023=
202105300000 AAXX 30004 67665 42980 00000 10105 20060 48539
                   333 59005=
202105292100 AAXX 29214 67665 42980 00000 10101 20061 48539
                   333 59005=
202105291800 AAXX 29184 67665 42980 00000 10161 20066 48543 70200
                   333 10254 59006=
202105291500 AAXX 29154 67665 42980 00904 10245 20021 48544 70200
                   333 59005 555 10254=
202105291200 AAXX 29124 67665 42980 01803 10243 20030 48552 70200
                   333 58001=
202105290900 AAXX 29094 67665 42980 00507 10215 20040 48570
                   333 59009=
202105281800 AAXX 28184 67665 42980 01203 10149 20061 48547
                   333 59011=
202105281500 AAXX 28154 67665 42980 01006 10232 20025 48545
                   333 59012=
202105281200 AAXX 28124 67665 42980 00710 10238 20019 48551
                   333 59012=
202105280900 AAXX 28094 67665 42980 00608 10208 20040 48577
                   333 59003=
202105280600 AAXX 28064 67665 32980 01603 10126 20079 48562
                   333 10242 20/// 59006
                   555 00/// 91025=
202105280000 AAXX 28004 67665 42980 01702 10067 20039 48543
                   333 58001 555 91023=
202105272100 AAXX 27214 67665 42980 01902 10098 20051 48555
                   333 59007 555 91024=
202105271200 AAXX 27124 67665 42980 01112 10228 20045 48561 70200
                   333 59004 91023=
202105270900 AAXX 27094 67665 42980 00810 10209 20045 48581
                   333 59008=
202105270600 AAXX 27064 67665 32980 01204 10125 20073 48567 70200
                   333 10239 20//0 59005 91025=
202105261200 AAXX 26124 67665 42980 01008 10228 20000 48565
                   333 59010 555 91023=
202105260900 AAXX 26094 67665 42980 01011 10197 20054 48586
                   333 59016=
202105260600 AAXX 26064 67665 32980 01304 10125 20067 48572
                   333 10230 20//0 59012=
202105260300 AAXX 26034 67665 42980 01603 10077 20055 48550
                   333 59010=
202105260000 AAXX 26004 67665 42980 01804 10081 20061 48551
                   333 59013=
202105252100 AAXX 25214 67665 42980 01502 10093 20063 48564
                   333 59011=
202105251800 AAXX 25184 67665 42980 01202 10131 20082 48573
                   333 59008 91026=
202105251200 AAXX 25124 67665 42680 31311 10223 20067 48574 83500
                   333 59017 83635 91024=
202105250900 AAXX 25094 67665 42580 50712 10183 20094 48599 85500
                   333 59009 85622 555 91028=
202105250600 AAXX 25064 67665 32480 21104 10126 20098 48584 82500
                   333 10224 20/// 59014 82615
                   555 00///=
202105250300 AAXX 25034 67665 42980 01402 10090 20080 48561 70200
                   333 59015=
202105250000 AAXX 25004 67665 42980 01901 10105 20086 48568 70200
                   333 59009=
202105242100 AAXX 24214 67665 42980 01702 10108 20099 48577 70200
                   333 59006=
202105241800 AAXX 24184 67665 42980 00605 10146 20091 48584
                   333 10224 59004=
202105241500 AAXX 24154 67665 42680 50811 10200 20082 48581 82530
                   333 59002 82645 85358=
202105241200 AAXX 24124 67665 42680 50709 10220 20083 48590 85500
                   333 58005 85635=
202105240900 AAXX 24094 67665 42580 50811 10189 20101 48609 70122 85500
                   333 58013 85625 91029=
202105240600 AAXX 24064 67665 42380 51003 10135 20116 48598 85630
                   333 10224 20//0 58019 85708 82360
                   555 00///=
202105240000 AAXX 24004 67665 42980 01901 10105 20086 48568 70200
                   333 59009=
202105232100 AAXX 23214 67665 42980 01504 10119 20100 48584
                   333 58018=
202105231800 AAXX 23184 67665 42980 01203 10139 20101 48586
                   333 10232 58032=
202105231500 AAXX 23154 67665 42980 31013 10205 20090 48584 83030
                   333 58026 83360 555 10232=
202105221800 AAXX 22184 67665 42980 12003 10161 20089 48568
                   333 59023=
202105221500 AAXX 22154 67665 42980 11007 10231 20055 48561 81030
                   333 58011 81360=
202105220900 AAXX 22094 67665 42680 11108 10230 20076 48577 81100
                   333 58005 81840=
202105220600 AAXX 22064 67665 32980 09902 10150 20101 48567
                   333 10260 20//0 59002
                   555 00/// 91025=
202105211800 AAXX 21184 67665 42980 01504 10164 20092 48550
                   333 10260 20//0 58005 91024=
202105211200 AAXX 21124 67665 42980 11105 10251 20084 48555 80001
                   333 59007 81080 91022=
202105210600 AAXX 21064 67665 32980 01502 10162 20118 48570
                   333 10249 20090 59002 91025=
202105201200 AAXX 20124 67665 41680 20707 10236 20086 48561 70500 82100
                   333 59012 82835 91023=
202105200600 AAXX 20064 67665 32980 01105 10151 20111 48570
                   333 10248 20//0 59003=
202105200300 AAXX 20034 67665 42980 09902 10093 20073 48545
                   333 59006=
202105200000 AAXX 20004 67665 42980 01603 10110 20082 48551
                   333 59002=
202105192100 AAXX 19214 67665 42980 01503 10122 20084 48561
                   333 59001=
202105191800 AAXX 19184 67665 42980 01204 10160 20091 48565
                   333 58000 91024=
202105191200 AAXX 19124 67665 41980 01114 10243 20084 48573 70500
                   333 58008 91024=
202105190900 AAXX 19094 67665 42980 10716 10221 20076 48590 70500 80001
                   333 58003 81080 555 91026=
202105190600 AAXX 19064 67665 32980 11006 10145 20118 48573 80001
                   333 10264 20/// 58012 81080
                   555 00///=
202105190300 AAXX 19034 67665 42980 01107 10117 20078 48555 70200
                   333 58014=
202105190000 AAXX 19004 67665 42980 01303 10121 20071 48554 70200
                   333 58012=
202105182100 AAXX 18214 67665 42980 01302 10139 20072 48564 70200
                   333 58021=
202105181800 AAXX 18184 67665 42980 01304 10166 20093 48567
                   333 10264 58022=
202105181500 AAXX 18154 67665 42980 10911 10240 20080 48566 81030
                   333 58024 81359=
202105181200 AAXX 18124 67665 42680 40812 10250 20083 48555 84500
                   333 58020 84638=
202105180900 AAXX 18094 67665 42680 31015 10245 20099 48592 83500
                   333 58028 83630 91026=
202105180600 AAXX 18064 67665 32980 01404 10170 20108 48565
                   333 10267 20//0 58018
                   555 00///=
202105171800 AAXX 17184 67665 42980 11802 10177 20075 48547 81030
                   333 10275 58013 81360=
202105171500 AAXX 17154 67665 42980 21307 10260 20060 48545 82030
                   333 58014 82360 555 10275=
202105171200 AAXX 17124 67665 42980 11408 10267 20026 48549 81030
                   333 58013=
202105170900 AAXX 17094 67665 42580 11708 10262 20047 48566 81100
                   333 58003 81835 555 91023=
202105170600 AAXX 17064 67665 32980 00000 10204 20118 48550
                   333 10202 58003=
202105161800 AAXX 16184 67665 42980 09902 10187 20102 48536
                   333 59006=
202105161500 AAXX 16154 67665 42980 11108 10257 20092 48531 81030
                   333 59008 81360=
202105161200 AAXX 16124 67665 42780 19903 10269 20074 48535 81100
                   333 59019 81856=
202105160900 AAXX 16094 67665 42680 11205 10246 20076 48561 70300 81100
                   333 59007 81840=
202105160600 AAXX 16064 67665 32980 01202 10183 20124 48545
                   333 10271 20/// 59015
                   555 00/// 91022=
202105160300 AAXX 16034 67665 42980 09901 10118 20099 48525
                   333 59017 555 91020=
202105160000 AAXX 16004 67665 42980 09902 10130 20103 48527
                   333 59012 555 91020=
202105152100 AAXX 15214 67665 42980 01701 10146 20105 48540
                   333 59008 555 91022=
202105151800 AAXX 15184 67665 42980 01402 10172 20121 48587 70200
                   333 10271 20//0 58027 91021=
202105151500 AAXX 15154 67665 42780 21102 10247 20100 48538 70322 82100
                   333 59010 82850 91020=
202105151200 AAXX 15124 67665 42680 53601 10256 20105 48554 70200 85100
                   333 59008 85842 91022=
202105150900 AAXX 15094 67665 42580 30705 10228 20109 48565 83100
                   333 59006 83825=
202105150600 AAXX 15064 67665 42980 11403 10177 20121 48560 70200 81030
                   333 10264 20/// 59003 81360 91023=
202105150000 AAXX 15004 67665 42980 01902 10131 20104 48538 70200
                   333 59002 91022=
202105141800 AAXX 14184 67665 42980 21304 10172 20121 48540 82030
                   333 10264 59019 82360
                   555 91021=
202105141500 AAXX 14154 67665 42780 21003 10248 20080 48544 82100
                   333 59015 82850 555 91021=
202105141200 AAXX 14124 67665 42580 40802 10239 20090 48549 84100
                   333 59010 84835 555 91021=
202105140900 AAXX 14094 67665 42580 30808 10226 48571 83100
                   333 59009 83830=
202105140600 AAXX 14064 67665 32980 01206 10159 20112 48560
                   333 10232 20//0 59006=
202105140300 AAXX 14034 67665 42980 09902 10114 20087 48540
                   333 59001=
202105140000 AAXX 14004 67665 42980 01302 10212 20093 48539
                   333 59004=
202105132100 AAXX 13214 67665 42980 01602 10132 20102 48550
                   333 59004=
202105131800 AAXX 13184 67665 42980 11404 10154 20104 48555 70200 81030
                   333 58002 81360 91023=
202105131200 AAXX 13124 67665 NIL=
202105130900 AAXX 13094 67665 42580 50811 10210 20085 48577 85500
                   333 59011 85622 555 91025=
202105130600 AAXX 13064 67665 32980 01205 10148 20101 48564 70200
                   333 10226 20/// 59009=
202105130300 AAXX 13034 67665 42980 00000 10101 20094 48539 70200
                   333 59020=
202105130000 AAXX 13004 67665 42980 01702 10112 20091 48543 70200
                   333 58016=
202105122100 AAXX 12214 67665 42980 00000 10122 20104 48552
                   333 59016=
202105121800 AAXX 12184 67665 42980 21604 10159 20112 48555 82030
                   333 10226 59017 82360=
202105121500 AAXX 12154 67665 42680 51211 10214 20103 48557 81530
                   333 59008 81645 85359=
202105121200 AAXX 12124 67665 42680 70912 10216 20103 48561 875//
                   333 59009 87640 555 91023=
202105120900 AAXX 12094 67665 42580 51012 10216 20111 48589 70221 85500
                   333 59003 85625 91026=
202105120600 AAXX 12064 67665 42980 01105 10142 20116 48571
                   333 10226 20//0 59009=
202105111800 AAXX 11184 67665 42980 01604 10152 20099 48569
                   333 10246 58015=
202105111500 AAXX 11154 67665 42980 10908 10228 20074 48565 81030
                   333 58010 81360 555 10246=
202105111200 AAXX 11124 67665 42680 51108 10237 20075 48576 85200
                   333 58017 85835=
202105110900 AAXX 11094 67665 42480 41108 10215 20103 48592 84500
                   333 58014 84618 555 91027=
202105110600 AAXX 11064 67665 32980 11108 10165 20108 48584 81030
                   333 10260 20//0 58023 81360 91026=
202105101800 AAXX 10184 67665 42980 01403 10171 20101 48558
                   333 58017=
202105101500 AAXX 10154 67665 42780 31309 10237 20089 48557 81230
                   333 58017 81856 83360=
202105101200 AAXX 10124 67665 42680 60907 10258 20074 48560 86200
                   333 58020 86840=
202105100900 AAXX 10094 67665 42580 31209 10232 20124 48580 82502
                   333 58015 82625 81080=
202105090600 AAXX 09064 67665 32980 01202 10163 20126 48556
                   333 10254 20//0 58004 91023=
202105080600 AAXX 08064 67665 32980 01205 10147 20112 48558 80001
                   333 10250 20//0 59011 81080=
202105080300 AAXX 08034 67665 42980 01502 10107 20088 48536
                   333 59010=
202105080000 AAXX 08004 67665 42980 01402 10108 20089 48535
                   333 59006=
202105072100 AAXX 07214 67665 42980 09902 10115 20095 48546
                   333 59004=
202105071800 AAXX 07184 67665 42980 01505 10157 20103 48546
                   333 10250 59009=
202105070600 AAXX 07064 67665 32980 01207 10149 20104 48568 70200
                   333 10255 20//0 58017 58017
                   555 00///=
202105070300 AAXX 07034 67665 42980 01503 10110 20081 48545 70200
                   333 58013=
202105070000 AAXX 07004 67665 42980 00000 10115 20085 48542 70200
                   333 58018=
202105062100 AAXX 06214 67665 42980 01502 10130 20086 48552 70200
                   333 58019=
202105061800 AAXX 06184 67665 42980 01606 10165 20092 48556 70200
                   333 58024 91023=
202105061200 AAXX 06124 67665 42680 21507 10253 20092 48545 70200 82130
                   333 58005 82835 81360 91021=
202105060600 AAXX 06064 67665 32980 11104 10156 20121 48554 81030
                   333 10234 20//0 58002 81360=
202105052100 AAXX 05214 67665 42980 01505 10142 20106 48533
                   333 59006=
202105051800 AAXX 05184 67665 42980 11203 10173 20121 48533 81030
                   333 10243 59007 81360=
202105051500 AAXX 05154 67665 42780 20607 10233 20105 48530 81130
                   333 59006 81850 81360
                   555 10243=
202105051200 AAXX 05124 67665 42680 41009 10225 20104 48536 84100
                   333 59002 84835=
202105050900 AAXX 05094 67665 42480 20810 10213 20112 48558 82100
                   333 59009 82812 91023=
202105050600 AAXX 05064 67665 32980 01007 10158 20124 48559 70122
                   333 10230 20//0 59005
                   555 91023=
202105041800 AAXX 04184 67665 42980 51503 10173 20131 48540 70122 85030
                   333 59011 85360=
202105041500 AAXX 04154 67665 42980 61006 10215 20112 48535 70122 86030
                   333 59018 86360=
202105040900 AAXX 04094 67665 42580 60909 10190 20131 48564 70222 86500
                   333 59003 86622=
202105040000 AAXX 04004 67665 42980 19902 10133 20124 48539 81030
                   333 59003 81360 555 91022=
202105032100 AAXX 03214 67665 42980 20000 10148 20131 48550 83030
                   333 59004 83360 555 91023=
202105031200 AAXX 03124 67665 42480 7//// 10192 20116 48558 875//
                   333 58006 87625=
202105030900 AAXX 03094 67665 42580 70917 10181 20111 48565 70222 875//
                   333 58004 87620 91024=
202105030600 AAXX 03064 67665 32480 60915 10167 20115 48564 70322 865//
                   333 10236 20/// 58012 86615 91024=
202105030300 AAXX 03034 67665 42980 61110 10157 20126 48548 70222 86030
                   333 58017 86360 91022=
202105021800 AAXX 02184 67665 42780 70709 10190 20160 48552 82130
                   333 58017 82850 86360
                   555 10236 91022=
202105021500 AAXX 02154 67665 42680 61110 10212 20156 48543 84530
                   333 58026 84640 85360
                   555 91021=
202105021200 AAXX 02124 67665 42680 60915 10227 20160 48548 85530
                   333 58016 85630 83360
                   555 91021=
202105020900 AAXX 02094 67665 42480 60912 10215 20160 48567 86530
                   333 58012 86620 83360=
202105020600 AAXX 02064 67665 32480 61016 10193 20162 48555 86530
                   333 10265 20/// 58020 86612 83360=
202105020300 AAXX 02034 67665 42980 31209 10187 20173 48534 83030
                   333 58009 83360=
202105020000 AAXX 02004 67665 42980 71204 10190 20182 48535 8707/
                   333 58019 87360=
202105012100 AAXX 01214 67665 42980 59901 10192 20180 48542 85030
                   333 58026 85360=
202105011800 AAXX 01184 67665 42680 41304 10208 20183 48538 70222 84230
                   333 58023 84850 84360 91021=
202105011500 AAXX 01154 67665 42680 41405 10256 20163 48524 70122 82130
                   333 58015 82845 84360 91018=
202105010600 AAXX 01064 67665 11360 71203 10183 20175 48534 60154 72162 8377/
                   333 10291 20//0 58000 83709 87459
                   555 00///=
202105010300 AAXX 01034 67665 41720 81906 10179 20179 48526 79596 8197/
                   333 58000 81957 88459=

################################################################################
#  SYNOPS from 67666, Lusaka City Airport (Zambia) | 15-25-00S | 028-28-00E | 1280 m
################################################################################
202105310900 AAXX 31094 67666 42980 00916 10228 20050 48559
                   333 59023 91023=
202105280600 AAXX 28064 67666 31978 00804 10149 20055 48559 70522
                   333 10214 20099 58000 91024=
202105271200 AAXX 27124 67666 42980 07010 10228 20030 48553 70222
                   333 58004 91022=
202105270900 AAXX 27094 67666 42980 00813 10200 20050 48574
                   333 59004 91025=
202105270600 AAXX 27064 67666 32980 00913 10148 20051 48558 70222
                   333 10240 20120 59010
                   555 00/// 91024=
202105220900 AAXX 22094 67666 42480 30910 10221 20082 48570 83200
                   333 58004 83820 555 91025=
202105220600 AAXX 22064 67666 32980 00907 10189 20081 48567
                   333 10250 20120 58009
                   555 00/// 91025=
202105210600 AAXX 21064 67666 32978 10902 10170 20107 48560 70500 80005
                   333 10240 20114 59004 81278 91024=
202105201200 AAXX 20124 67666 42780 11112 10230 20090 48551 81100
                   333 59009 81850 91022=
202105200900 AAXX 20094 67666 42680 41010 10200 20114 48574 84200
                   333 59004 84830 91025=
202105200600 AAXX 20064 67666 31978 00910 1//// 20114 48562 70500
                   333 10240 20130 59004
                   555 00/// 91024=
202105190600 AAXX 19064 67666 32980 01014 10160 20105 48568 70500
                   333 10260 20140 58007
                   555 00/// 91025=
202105180600 AAXX 18064 67666 32980 00905 10190 20075 48557
                   333 10250 20129 59021
                   555 00/// 91024=
202105170900 AAXX 17094 67666 42580 21811 10240 20056 48554 82100
                   333 58006 82825 91022=
202105170600 AAXX 17064 67666 32980 01805 10192 20120 48544
                   333 10270 20130 58002
                   555 00/// 67477 32980 01205 10195 20134 10260
                   20115 58002 00///=
202105150600 AAXX 15064 67666 32980 21009 10182 20115 48548 82030
                   333 10250 20140 59007 82360
                   555 00/// 91022=
202105140900 AAXX 14094 67666 42680 20612 10212 48560 70322 82200
                   333 59009 82830 91023=
202105140600 AAXX 14064 67666 32980 01011 10168 20100 48553
                   333 10230 20130 59008 91023=
202105131200 AAXX 13124 67666 NIL=
202105130600 AAXX 13064 67666 32980 01210 10153 20085 48554
                   333 10220 20110 59007 91024=
202105120900 AAXX 12094 67666 32980 00910 10150 20122 48563
                   333 10249 20139 59009 91025=
202105110600 AAXX 11064 67666 32480 60912 10163 20105 48574 84530
                   333 10299 20131 5//// 84610 91026=
202105101200 AAXX 10124 67666 NIL=
202105060600 AAXX 06064 67666 32980 00910 10152 20116 48544
                   333 10289 20130 58006 91022=
202105031200 AAXX 03124 67666 42480 81012 10170 20117 48541
                   333 58014 88615 91021=
202105030600 AAXX 03064 67666 32480 70913 10160 20110 48551 875//
                   333 10270 20150 5//// 87610 91023=
202105020900 AAXX 02094 67666 42480 81213 10192 20160 48558 885//
                   333 58014 88615 91023=

################################################################################
#  SYNOPS from 67667, Mount Makulu (Zambia) | 15-33S | 028-15E | 1213 m
################################################################################
202105311200 AAXX 31124 67667 42980 10908 10234 20092 48614 80001
                   333 5//// 81082=
202105280900 AAXX 28094 67667 42980 01402 10212 20091 48622
                   333 59008=
202105280600 AAXX 28064 67667 32980 00901 10136 20102 48614
                   333 10258 20028 58005
                   555 00///=
202105271200 AAXX 27124 67667 NIL=
202105270900 AAXX 27094 67667 NIL=
202105270600 AAXX 27064 67667 32980 00901 10146 20082 48619
                   333 10248 20042 58005
                   555 00///=
202105210600 AAXX 21064 67667 32980 10902 10180 20123 48621 80001
                   333 10269 20135 59001 81080
                   555 00///=
202105201200 AAXX 20124 67667 42680 10501 10244 20129 48605 81100
                   333 59010 81835=
202105200900 AAXX 20094 67667 42680 20907 10220 20133 48618 82100
                   333 58003 82830=
202105190900 AAXX 19094 67667 42680 10906 10224 20114 48648 81100
                   333 58011 81830=
202105190600 AAXX 19064 67667 32980 00902 10175 20127 48631
                   333 10275 20110 58007
                   555 00///=
202105170600 AAXX 17064 67667 32980 00901 10202 20138 48602
                   333 10290 20092 59009
                   555 00///=
202105150600 AAXX 15064 67667 32980 11801 10202 20142 48607 80001
                   333 10272 20126 5//// 81080
                   555 00///=
202105140900 AAXX 14094 67667 NIL=
202105140600 AAXX 14064 67667 32980 11501 10180 20132 48/// 80001
                   333 10266 20120 5//// 81080=
202105131200 AAXX 13124 67667 42580 40904 10228 20119 48601 84100
                   333 58015 84825=
202105130900 AAXX 13094 67667 42580 41502 10212 20110 48625 84100
                   333 5//// 84825=
202105130600 AAXX 13064 67667 32980 10901 10168 20122 48619 80001
                   333 10250 20086 59014 81080=
202105110600 AAXX 11064 67667 32980 20904 10174 20142 48633 80001
                   333 10280 20100 59017 82080=
202105101200 AAXX 10124 67667 NIL=
202105060600 AAXX 06064 67667 32980 10910 10185 20119 48604 80002
                   333 10262 20126 58001 81080=
202105031200 AAXX 03124 67667 42680 81202 10182 20130 48595 885//
                   333 5//// 88630=
202105030600 AAXX 03064 67667 32580 71001 10162 20138 48610 875//
                   333 10234 20153 59027 87625=
202105020900 AAXX 02094 67667 NIL=

################################################################################
#  SYNOPS from 67673, Petauke (Zambia) | 14-15S | 031-17E | 1035 m
################################################################################
202105280600 AAXX 28064 67673 32984 00901 10188 20105 48///
                   333 10260 2//// 5////=
202105271200 AAXX 27124 67673 42984 00502 10250 20100 48///
                   333 5////=
202105270900 AAXX 27094 67673 42984 00802 10230 20092 48///
                   333 5////=
202105270600 AAXX 27064 67673 32984 00902 10196 20115 48///
                   333 10254 2//// 5////=
202105210900 AAXX 21094 67673 42584 40000 10250 20140 48/// 84100
                   333 5//// 84830=
202105201200 AAXX 20124 67673 42684 40802 10270 20120 48///
                   333 5//// 84835=
202105200900 AAXX 20094 67673 42584 63602 10224 20156 48///
                   333 5//// 86830=
202105180900 AAXX 18094 67673 42684 50905 10266 20151 48/// 85130
                   333 5//// 85830 84360=
202105140900 AAXX 14094 67673 42684 50902 10260 20150 48/// 85100
                   333 5//// 85832=
202105140600 AAXX 14064 67673 32984 00901 10210 20162 48///
                   333 10260 2//// 5////=
202105131200 AAXX 13124 67673 42684 51004 10260 20130 48/// 85100
                   333 5//// 85832=
202105130900 AAXX 13094 67673 42680 50505 10230 20133 48/// 85100
                   333 5//// 85830=
202105130600 AAXX 13064 67673 32584 60504 10200 20150 48/// 82130
                   333 10262 20//0 5//// 82826 86360=
202105110900 AAXX 11094 67673 42680 40905 10225 20140 48/// 84100
                   333 5//// 84830=
202105101200 AAXX 10124 67673 NIL=
202105060600 AAXX 06064 67673 32984 00902 10200 20135 48///
                   333 10270 20//0 5////=
202105040900 AAXX 04094 67673 42890 60802 10210 20130 48/// 83130
                   333 5//// 83830 86360=
202105031200 AAXX 03124 67673 NIL=
202105030600 AAXX 03064 67673 32584 83604 10160 20145 48/// 885//
                   333 10230 2//// 5//// 88625=
202105020900 AAXX 02094 67673 NIL=

################################################################################
#  SYNOPS from 67731, Senanga (Zambia) | 16-06S | 023-16E | 1027 m
################################################################################
202105311200 AAXX 31124 67731 42980 127// 10271 20076 48/// 80008
                   333 59011 81080=
202105310900 AAXX 31094 67731 42980 218// 10256 20085 48/// 80008
                   333 59007 82080=
202105280600 AAXX 28064 67731 32980 015// 10171 20099 48///
                   333 10278 20116 58003
                   555 00033=
202105271200 AAXX 27124 67731 42980 016// 10263 20088 48///
                   333 58004=
202105270900 AAXX 27094 67731 42980 009// 10237 20080 48///
                   333 58001=
202105270600 AAXX 27064 67731 32980 018// 10179 20097 48/// 70200
                   333 10298 20121 58000
                   555 00043=
202105220600 AAXX 22064 67731 32980 006// 10147 20102 48///
                   333 10284 20118 58007
                   555 00090=
202105210600 AAXX 21064 67731 32980 002// 10152 20099 48///
                   333 10278 20111 58004
                   555 00085=
202105201200 AAXX 20124 67731 42980 029// 10274 20111 48///
                   333 59002=
202105200900 AAXX 20094 67731 42980 009// 10262 20119 48///
                   333 59004=
202105190900 AAXX 19094 67731 42980 010// 10271 20086 48///
                   333 58001=
202105190600 AAXX 19064 67731 32980 009// 10181 20105 48///
                   333 10306 20145 58005
                   555 00112=
202105180900 AAXX 18094 67731 42980 013// 10272 20081 48///
                   333 58014=
202105170900 AAXX 17094 67731 42980 012// 10265 20119 48///
                   333 5////=
202105170600 AAXX 17064 67731 32980 007// 10188 20108 48///
                   333 10291 20125 59009
                   555 00099=
202105150600 AAXX 15064 67731 32980 018// 10148 20105 48///
                   333 10267 20110 59006
                   555 00083=
202105140900 AAXX 14094 67731 NIL=
202105140600 AAXX 14064 67731 32980 012// 10156 20095 48///
                   333 10277 20123 59007
                   555 00092=
202105131200 AAXX 13124 67731 NIL=
202105130600 AAXX 13064 67731 32980 101// 10178 20110 48/// 81010
                   333 10296 20120 59012 81462
                   555 00095=
202105121200 AAXX 12124 67731 42680 418// 10271 20161 48/// 84100
                   333 58001 84830=
202105120900 AAXX 12094 67731 42480 227// 10247 20131 48/// 82100
                   333 58003 82820=
202105110900 AAXX 11094 67731 42980 009// 10263 20079 48/// 70200
                   333 59003=
202105110600 AAXX 11064 67731 32980 010// 10171 20104 48/// 70200
                   333 10290 20126 58006=
202105101200 AAXX 10124 67731 NIL=
202105060600 AAXX 06064 67731 32980 010// 10188 20130 48///
                   333 10275 20140 58005=
202105031200 AAXX 03124 67731 42680 609// 10261 20168 48/// 84202
                   333 58013 84830 85080=
202105030600 AAXX 03064 67731 12480 609// 10183 20147 48/// 60184 83570
                   333 10299 20154 58004 83611 86360
                   555 00034=
202105020900 AAXX 02094 67731 NIL=
202105020600 AAXX 02064 67731 12980 812// 10202 20181 48/// 69904 87039
                   333 10305 20192 58018 87360 88180
                   555 00029=

################################################################################
#  SYNOPS from 67741, Sesheke (Zambia) | 17-28S | 024-18E | 949 m
################################################################################
202105280600 AAXX 28064 67741 32980 00000 10108 20086 48544
                   333 10268 20038 59004
                   555 00///=
202105271200 AAXX 27124 67741 NIL=
202105270900 AAXX 27094 67741 NIL=
202105270600 AAXX 27064 67741 32980 00000 10134 20092 48557
                   333 10302 20046 59010
                   555 00///=
202105210900 AAXX 21094 67741 42980 00902 10260 20125 48575
                   333 58003=
202105210600 AAXX 21064 67741 32980 00000 10144 20115 48550
                   333 10298 20077 59003
                   555 00///=
202105200900 AAXX 20094 67741 42980 00801 10266 20149 48577
                   333 5////=
202105190600 AAXX 19064 67741 32980 00901 10184 20111 48568
                   333 10296 20094 58009
                   555 00///=
202105170900 AAXX 17094 67741 42980 01001 10278 20142 48570
                   333 5////=
202105170600 AAXX 17064 67741 32980 00000 10172 20116 48537
                   333 10298 20079 59005
                   555 00///=
202105140900 AAXX 14094 67741 NIL=
202105140600 AAXX 14064 67741 32980 20000 10144 20119 48541 82030
                   333 10268 20100 59010 82362=
202105131200 AAXX 13124 67741 42980 31201 10261 20112 48546 83030
                   333 59022 83362=
202105130900 AAXX 13094 67741 42980 50901 10248 20106 48578 85030
                   333 59018 85362=
202105130600 AAXX 13064 67741 32980 31201 10184 20115 48558 83030
                   333 10270 20113 59011 83362=
202105121200 AAXX 12124 67741 42980 00902 10232 20116 48588
                   333 59007=
202105120900 AAXX 12094 67741 32980 00000 10114 20098 48553
                   333 10306 20069 59007
                   555 00///=
202105110900 AAXX 11094 67741 42980 01201 10246 20134 48602
                   333 58011=
202105110600 AAXX 11064 67741 32980 00901 10150 20113 48571
                   333 10290 20084 58011
                   555 00///=
202105101200 AAXX 10124 67741 42980 00902 10286 20111 48572
                   333 5////=
202105100900 AAXX 10094 67741 42980 00901 10265 20117 48585
                   333 5////=
202105060600 AAXX 06064 67741 32980 00701 10174 20127 48537
                   333 10271 20100 58000=
202105050900 AAXX 05094 67741 42980 11002 10246 20124 48554 81030
                   333 5//// 81362=
202105031200 AAXX 03124 67741 42980 10902 10246 20152 48554 81030
                   333 5//// 81362=
202105030600 AAXX 03064 67741 32980 51002 10187 20134 48561 85030
                   333 10274 20164 58018 85362=
202105020900 AAXX 02094 67741 NIL=
202105020600 AAXX 02064 67741 32980 60000 10181 20169 48540 86030
                   333 10284 20158 58019 86362=

################################################################################
#  SYNOPS from 67743, Livingstone (Zambia) | 17-49S | 025-49E | 985 m
################################################################################
202105280600 AAXX 28064 67743 32980 00000 10122 20072 48546
                   333 10265 20039 59008
                   555 00/// 91023=
202105271200 AAXX 27124 67743 NIL=
202105270900 AAXX 27094 67743 NIL=
202105270600 AAXX 27064 67743 32980 00501 10130 20094 48556 70200
                   333 10262 20060 59010
                   555 00/// 910244=
202105260900 AAXX 26094 67743 42680 10708 10223 20104 48585 70300
                   333 59005 81835 91025=
202105250600 AAXX 25064 67743 32980 11403 10141 20092 48579 82030
                   333 10254 20069 59020 82360 91026=
202105220600 AAXX 22064 67743 32980 00504 10154 20114 48563 70200
                   333 10280 20089 58006
                   555 00/// 91024=
202105210600 AAXX 21064 67743 32980 12001 10140 20114 48542 70200 80001
                   333 10300 20125 59005 81080
                   555 00/// 910237=
202105201200 AAXX 20124 67743 42980 00408 10275 20096 48553
                   333 59014 91020=
202105140900 AAXX 14094 67743 NIL=
202105140600 AAXX 14064 67743 32980 11101 10165 20123 48551 81030
                   333 10275 20140 81360 91023=
202105131200 AAXX 13124 67743 NIL=
202105101200 AAXX 10124 67743 NIL=
202105100900 AAXX 10094 67743 42980 00807 10259 20087 48585
                   333 58014 91024=
202105061200 AAXX 06124 67743 42780 20809 10274 20116 48539 82100
                   333 58006 91019=
202105031200 AAXX 03124 67743 NIL=
202105030600 AAXX 03064 67743 32580 11311 10163 20104 48538 81100
                   333 10240 20125 58019 81825 91024=
202105020900 AAXX 02094 67743 42680 61209 10226 20157 48565 70222 83570
                   333 58021 83633 85360 91023=
202105020600 AAXX 02064 67743 32980 71213 10191 20155 48553 70222 87030
                   333 10289 20170 58023 87360 91022=

################################################################################
#  SYNOPS from 67751, Magoye (Zambia) | 16-00S | 027-36E | 1018 m
################################################################################
202105311200 AAXX 31124 67751 42980 10902 10272 20082 48/// 80001
                   333 5//// 81080=
202105271200 AAXX 27124 67751 NIL=
202105270900 AAXX 27094 67751 NIL=
202105270600 AAXX 27064 67751 32980 00000 10162 20080 48///
                   333 1//// 20053 5////
                   555 00///=
202105180900 AAXX 18094 67751 42780 11302 10268 20108 48/// 81100
                   333 5//// 81869=
202105170900 AAXX 17094 67751 42780 12802 10270 20116 48///
                   333 5//// 81860=
202105140900 AAXX 14094 67751 NIL=
202105140600 AAXX 14064 67751 32980 00000 10163 20110 48///
                   333 10//0 20094 5////=
202105131200 AAXX 13124 67751 NIL=
202105130600 AAXX 13064 67751 32980 10000 10155 20111 48/// 81030
                   333 10//0 20095 5//// 81360=
202105110600 AAXX 11064 67751 32980 10000 10164 20138 48/// 81030
                   333 10//0 20097 5//// 81360=
202105101200 AAXX 10124 67751 NIL=
202105060600 AAXX 06064 67751 32980 01801 10158 20131 48///
                   333 10//0 20090 5////=
202105031200 AAXX 03124 67751 NIL=
202105020900 AAXX 02094 67751 NIL=

################################################################################
#  SYNOPS from 67753, Choma (Zambia) | 16-50S | 027-04E | 1213 m
################################################################################
202105310900 AAXX 31094 67753 42980 40208 10236 20081 48551 80002
                   333 59001 84080=
202105280600 AAXX 28064 67753 32980 00000 10160 20078 48554
                   333 10236 20040 59007
                   555 00///=
202105271200 AAXX 27124 67753 NIL=
202105270900 AAXX 27094 67753 NIL=
202105250900 AAXX 25094 67753 42680 40904 10209 20103 48588 84200
                   333 59014 84845=
202105250600 AAXX 25064 67753 32980 50000 10131 20089 48571 85030
                   333 10227 20064 58019 85360
                   555 00///=
202105220600 AAXX 22064 67753 32980 00000 10151 20122 48563
                   333 10251 20076 58007
                   555 00///=
202105210600 AAXX 21064 67753 32980 10000 10164 20120 48554 80001
                   333 10256 20071 59007 81080
                   555 00///=
202105201200 AAXX 20124 67753 42780 10906 10247 20122 48543 81100
                   333 59014 81856=
202105200900 AAXX 20094 67753 42680 10604 10228 48571 81100
                   333 59016 81840=
202105190600 AAXX 19064 67753 32980 00000 10156 20110 48574
                   333 10265 20092 58011
                   555 00///=
202105170600 AAXX 17064 67753 32980 00000 10167 20114 48536
                   333 10284 20088 58002
                   555 00///=
202105150600 AAXX 15064 67753 32980 00000 10159 20114 48545
                   333 10249 20092 5////
                   555 00///=
202105140900 AAXX 14094 67753 NIL=
202105140600 AAXX 14064 67753 32980 10000 10152 20104 48/// 81030
                   333 10242 20068 5//// 81360=
202105131200 AAXX 13124 67753 NIL=
202105130600 AAXX 13064 67753 32980 30000 10145 20101 48/// 83030
                   333 10241 20076 5//// 83360=
202105120900 AAXX 12094 67753 32580 20000 10159 20102 48574 82500
                   333 10243 20976 59006 82620
                   555 00///=
202105110600 AAXX 11064 67753 32980 00000 10154 20109 48573
                   333 10259 20092 58020=
202105101200 AAXX 10124 67753 NIL=
202105060600 AAXX 06064 67753 32980 00902 10189 20135 48549
                   333 10246 20078 58005=
202105031200 AAXX 03124 67753 NIL=
202105030600 AAXX 03064 67753 12480 80000 10145 20116 48553 69904 885//
                   333 10206 20140 58004 88618=
202105020900 AAXX 02094 67753 41470 80902 10169 20167 48555 75022 8353/
                   333 58024 83620 85360=
202105020600 AAXX 02064 67753 11480 80000 10174 20158 48555 60014 75022 8453/
                   333 10265 20159 58022 84618 84360=
