################################################################################
# Query made at 04/10/2022 06:53:05 UTC
# Country like Zamb*
# Time interval: from 07/01/2019 05:30  to 07/31/2019 06:30  UTC
################################################################################

################################################################################
#  SYNOPS from 67403, Kawambwa (Zambia) | 09-48S | 029-05E | 1323 m
################################################################################
201907301200 AAXX 30124 67403 NIL=
201907290900 AAXX 29094 67403 NIL=
201907261200 AAXX 26124 67403 NIL=
201907260900 AAXX 26094 67403 NIL=
201907251200 AAXX 25124 67403 NIL=
201907250900 AAXX 25094 67403 NIL=
201907250600 AAXX 25064 67403 31975 00901 10154 20060 48537 70500
                   333 10290 20094 58011
                   555 000082=
201907240900 AAXX 24094 67403 NIL=
201907240600 AAXX 24064 67403 31975 00901 10145 20085 48526 70500
                   333 10274 20092 59017
                   555 00090=
201907190600 AAXX 19064 67403 31975 01202 10163 20087 48535 70500
                   333 10278 20126 59007
                   555 00120=
201907181200 AAXX 18124 67403 NIL=
201907180600 AAXX 18064 67403 31975 01203 10147 20089 48541 70500
                   333 10276 20112 59020
                   555 00106=
201907170900 AAXX 17094 67403 NIL=
201907150900 AAXX 15094 67403 NIL=
201907150600 AAXX 15064 67403 31975 01203 10163 20102 48535 70500
                   333 10265 20132 5////
                   555 00112=
201907100600 AAXX 10064 67403 31975 10901 10159 20069 48543 70500 81031
                   333 10282 20132 58002 81360 81080
                   555 00108=
201907090600 AAXX 09064 67403 31975 01402 10168 20079 48543 70500
                   333 10284 20114 58000
                   555 00100=
201907080600 AAXX 08064 67403 31975 30902 10164 20091 48543 70500 80001
                   333 10264 20132 5//// 83080
                   555 00104=
201907050600 AAXX 05064 67403 31975 10902 10177 20117 48534 70520 81030
                   333 10275 20116 59010 81360
                   555 00114=
201907030600 AAXX 03064 67403 31975 00902 10180 20098 48536 70500
                   333 10248 20135 5////
                   555 00108=

################################################################################
#  SYNOPS from 67413, Mbala (Zambia) | 08-51S | 031-20E | 1673 m
################################################################################
201907301200 AAXX 30124 67413 NIL=
201907290900 AAXX 29094 67413 NIL=
201907261200 AAXX 26124 67413 NIL=
201907260900 AAXX 26094 67413 NIL=
201907251200 AAXX 25124 67413 NIL=
201907250900 AAXX 25094 67413 NIL=
201907250600 AAXX 25064 67413 NIL=
201907240900 AAXX 24094 67413 NIL=
201907190600 AAXX 19064 67413 32980 00906 10158 20094 48551
                   333 10248 20114 59012
                   555 00180 91025=
201907181200 AAXX 18124 67413 NIL=
201907170900 AAXX 17094 67413 NIL=
201907170600 AAXX 17064 67413 32980 00908 10140 20087 48579
                   333 10268 20098 58014 91028=
201907160600 AAXX 16064 67413 32980 01009 10135 20109 48565
                   333 10/// 20102 58008
                   555 00090 91026=
201907150900 AAXX 15094 67413 NIL=
201907050600 AAXX 05064 67413 32980 00906 10150 20114 48///
                   333 10270 20108 5////
                   555 00170=

################################################################################
#  SYNOPS from 67441, Mwinilunga (Zambia) | 11-45S | 024-26E | 1361 m
################################################################################
201907310600 AAXX 31064 67441 31965 00000 10095 20051 48554 70500
                   333 10274 20//0 59011
                   555 00///=
201907301200 AAXX 30124 67441 NIL=
201907291200 AAXX 29124 67441 41975 00000 10280 20050 70500
                   333 5////=
201907290900 AAXX 29094 67441 41975 00000 10235 20064 48581 70500
                   333 5////=
201907290600 AAXX 29064 67441 31965 00000 10095 20031 48564 70500
                   333 10276 20//0 5////
                   555 00///=
201907261200 AAXX 26124 67441 NIL=
201907260900 AAXX 26094 67441 41975 00903 10225 20038 48587 70500
                   333 58004=
201907260600 AAXX 26064 67441 31970 00000 10100 20032 48572 70500
                   333 10284 2//// 58000=
201907251200 AAXX 25124 67441 NIL=
201907250900 AAXX 25094 67441 41975 00000 10235 20073 48583 70500
                   333 58010=
201907250600 AAXX 25064 67441 31965 00000 10095 20035 48572 70500
                   333 10268 2//// 58012=
201907240900 AAXX 24094 67441 NIL=
201907240600 AAXX 24064 67441 31970 00000 10100 20057 48560 70500
                   333 10264 2//// 59011=
201907231200 AAXX 23124 67441 41975 00000 10245 20083 48562 70500
                   333 58000=
201907230600 AAXX 23064 67441 31970 00000 10105 20071 48571 70500
                   333 10267 2//// 58006=
201907181200 AAXX 18124 67441 NIL=
201907170900 AAXX 17094 67441 NIL=
201907160600 AAXX 16064 67441 32980 00000 10125 20082 48578
                   333 10275 2//// 58006=
201907150900 AAXX 15094 67441 NIL=

################################################################################
#  SYNOPS from 67461, Mansa (Zambia) | 11-06S | 028-51E | 1382 m
################################################################################
201907301200 AAXX 30124 67461 NIL=
201907290900 AAXX 29094 67461 NIL=
201907290600 AAXX 29064 67461 31978 21104 10144 20084 48546 70500 80001
                   333 10256 20061 59006 82080
                   555 00/// 91022=
201907261200 AAXX 26124 67461 NIL=
201907260900 AAXX 26094 67461 41978 00821 10214 20065 48564 70500
                   333 58019 91024=
201907251200 AAXX 25124 67461 NIL=
201907250900 AAXX 25094 67461 41975 01006 10224 20058 48546 70500
                   333 58019 91021=
201907250600 AAXX 25064 67461 31970 01205 10135 20055 48530 70500
                   333 10270 20069 58009
                   555 00/// 91020=
201907240900 AAXX 24094 67461 41975 01206 10225 20081 48527 70500
                   333 59023 91019=
201907190900 AAXX 19094 67461 41675 11207 10220 20099 48537 70500 81500
                   333 59012 81638 91020=
201907190600 AAXX 19064 67461 31975 01206 10136 20104 48521 70500
                   333 10250 20078 59012 91019=
201907181200 AAXX 18124 67461 NIL=
201907180600 AAXX 18064 67461 31970 01407 10129 20085 48531 70500
                   333 10258 20082 59021 91021=
201907170900 AAXX 17094 67461 42980 01509 10222 20064 48558
                   333 59001 91020=
201907150900 AAXX 15094 67461 42980 01515 10221 20100 48558
                   333 59002 91022=
201907150600 AAXX 15064 67461 31975 00610 10147 20108 48547 70500
                   333 10268 20095 58003
                   555 00/// 91023=
201907100600 AAXX 10064 67461 31975 01507 10140 20061 48541 70500
                   333 10265 20092 58011
                   555 00/// 91021=
201907090600 AAXX 09064 67461 31975 01305 10135 20066 48529 70500
                   333 10270 20069 58000
                   555 00/// 91020=
201907080600 AAXX 08064 67461 32980 11203 10145 20079 48530 80001
                   333 10270 20072 58001 81080 91020=
201907050600 AAXX 05064 67461 32980 71105 10159 20111 48545 8703/
                   333 10259 20114 59011 87360 91022=
201907030600 AAXX 03064 67461 32980 01403 10165 20118 48556
                   333 10278 20094 58018 91023=

################################################################################
#  SYNOPS from 67469, Samfya (Zambia) | 11-22S | 029-54E | 1171 m
################################################################################
201907301200 AAXX 30124 67469 42980 00705 10241 20160 48///
                   333 5////=
201907290900 AAXX 29094 67469 NIL=
201907261200 AAXX 26124 67469 NIL=
201907260900 AAXX 26094 67469 NIL=
201907251200 AAXX 25124 67469 NIL=
201907250900 AAXX 25094 67469 NIL=
201907250600 AAXX 25064 67469 NIL=
201907240900 AAXX 24094 67469 42980 00905 10496 20120 48///
                   333 5////=
201907190900 AAXX 19094 67469 42980 01306 10206 20120 48///
                   333 5////=
201907190600 AAXX 19064 67469 32980 01605 10173 20130 48///
                   333 10234 2//// 5////=
201907181200 AAXX 18124 67469 42680 21508 10232 20130 48/// 82230
                   333 5//// 82846 81360=
201907180600 AAXX 18064 67469 32980 01508 10156 20120 48///
                   333 10238 20130 5////=
201907171200 AAXX 17124 67469 42980 00806 10232 20150 48///
                   333 5////=
201907170900 AAXX 17094 67469 42980 01410 10201 20100 48///
                   333 5////=
201907161200 AAXX 16124 67469 42980 01107 10230 20120 48///
                   333 5////=
201907151200 AAXX 15124 67469 42980 00705 10231 20150 48///
                   333 5////=
201907150900 AAXX 15094 67469 42980 01109 10203 20140 48///
                   333 5////=
201907150600 AAXX 15064 67469 32980 01507 10165 20110 48///
                   333 10246 20140 5////
                   555 00///=
201907100600 AAXX 10064 67469 32980 01506 10170 20130 48///
                   333 10253 20160 5////
                   555 00///=
201907090600 AAXX 09064 67469 32980 02701 10138 20090 48///
                   333 10254 20120 5////
                   555 00///=
201907080600 AAXX 08064 67469 32980 32804 10149 20110 48/// 81031
                   333 10240 20113 5//// 81360 83080=
201907050600 AAXX 05064 67469 32980 61504 10159 20140 48/// 86030
                   333 10239 20119 5//// 86360=
201907030600 AAXX 03064 67469 32480 11309 10155 20120 48/// 81100
                   333 10231 20132 5//// 81813=

################################################################################
#  SYNOPS from 67475, Kasama (Zambia) | 10-13S | 031-08E | 1382 m
################################################################################
201907310600 AAXX 31064 67475 31960 01208 10162 20108 48540 70500
                   333 10282 20181 59003 91222=
201907301200 AAXX 30124 67475 NIL=
201907290900 AAXX 29094 67475 41560 31005 10215 20067 48543 70500 83200
                   333 59006 83825 91024=
201907290600 AAXX 29064 67475 31960 01405 10156 20107 48549 70500
                   333 10152 20081 59012
                   555 00/// 91023=
201907261200 AAXX 26124 67475 NIL=
201907260900 AAXX 26094 67475 NIL=
201907260600 AAXX 26064 67475 31960 01305 10146 20065 48555 70500
                   333 01291 20096 58001=
201907251200 AAXX 25124 67475 NIL=
201907250900 AAXX 25094 67475 NIL=
201907250600 AAXX 25064 67475 31960 00703 10161 20045 48554 70500
                   333 10281 20065 58011 91024=
201907240900 AAXX 24094 67475 NIL=
201907240600 AAXX 24064 67475 31960 00605 10152 20071 48543 70500
                   333 10271 20071 59003 91023=
201907230900 AAXX 23094 67475 42960 01107 10205 20076 48557 70500
                   333 59016 91024=
201907190600 AAXX 19064 67475 31960 01408 10161 20087 48547 70500
                   333 10281 20089 59013 91023=
201907181200 AAXX 18124 67475 NIL=
201907180600 AAXX 18064 67475 32960 01214 10164 20103 48560 70500
                   333 10274 20094 59020 91024=
201907170900 AAXX 17094 67475 NIL=
201907170600 AAXX 17064 67475 31963 00807 10168 20071 48579 70500
                   333 10268 20104 58015 91027=
201907161200 AAXX 16124 67475 41960 00910 10247 20041 48/// 70500
                   333 5////=
201907150900 AAXX 15094 67475 NIL=
201907150600 AAXX 15064 67475 31960 00913 10156 20099 48559 70500
                   333 10286 20116 555 00/// 91025=
201907100600 AAXX 10064 67475 31960 01107 10178 20076 48562 70500
                   333 10286 20124 58003
                   555 00///=
201907090600 AAXX 09064 67475 31960 01003 10169 20101 48559 70500
                   333 10291 20080 58002
                   555 00/// 91024=
201907080600 AAXX 08064 67475 31960 01305 10163 20110 48542 70500
                   333 10272 20090 59003 91022=
201907050600 AAXX 05064 67475 31960 01405 10162 20113 48545 70500
                   333 10280 20105 5//// 91023=
201907030600 AAXX 03064 67475 31960 01413 10191 20115 48547 70500
                   333 10301 20147 58004 91023=

################################################################################
#  SYNOPS from 67476, Misamfu (Zambia) | 10-06S | 031-15E | 1536 m
################################################################################
201907310600 AAXX 31064 67476 31975 00304 10152 20103 48/// 70500
                   333 10269 20040 5////
                   555 00/// 20000=
201907301200 AAXX 30124 67476 41778 11806 10262 20066 48/// 70500 81100
                   333 59010 81850=
201907290900 AAXX 29094 67476 41677 51037 10216 20061 48/// 70510 85101
                   333 5//// 85835 81080=
201907261200 AAXX 26124 67476 41977 01311 10241 20052 48/// 70500
                   333 58007=
201907260900 AAXX 26094 67476 41977 01510 10212 20052 48/// 70500
                   333 5////=
201907251200 AAXX 25124 67476 41978 02005 10265 20012 48/// 70500
                   333 58011=
201907250900 AAXX 25094 67476 41977 01307 10225 20015 48/// 70500
                   333 58009=
201907250600 AAXX 25064 67476 31975 00802 10136 20066 48/// 70500
                   333 10268 20012 58011=
201907240900 AAXX 24094 67476 NIL=
201907240600 AAXX 24064 67476 31976 00905 10133 20080 48/// 70500
                   333 10252 20020 5////=
201907230900 AAXX 23094 67476 41977 00705 10204 20075 48/// 70500
                   333 59015=
201907191200 AAXX 19124 67476 41778 30606 10250 20083 48/// 70500 83100
                   333 59011 83850=
201907190900 AAXX 19094 67476 41677 10805 10228 20095 48/// 70500 81100
                   333 5//// 81835=
201907190600 AAXX 19064 67476 31976 00907 10159 20091 48/// 70500
                   333 10257 20052 5////=
201907181200 AAXX 18124 67476 41778 30905 10242 20065 48/// 70500 83100
                   333 58014 83850=
201907180900 AAXX 18094 67476 41677 10910 10220 20086 48/// 70500 81100
                   333 5//// 81835=
201907180600 AAXX 18064 67476 31976 01206 10154 20104 48/// 70500
                   333 10252 20046 59018=
201907171200 AAXX 17124 67476 41778 11304 10241 20069 48/// 70500 81100
                   333 58006 81850=
201907170900 AAXX 17094 67476 41677 10907 10212 20082 48/// 70500 81100
                   333 58010 81840=
201907161200 AAXX 16124 67476 41778 11508 10245 20042 48/// 70500 81100
                   333 58010 81856=
201907151200 AAXX 15124 67476 41778 10907 10241 20079 48/// 70500 81100
                   333 5//// 81850=
201907150900 AAXX 15094 67476 41677 11209 10217 20087 48/// 70500 81100
                   333 5//// 81837=
201907150600 AAXX 15064 67476 31978 01310 10151 20102 48/// 70500
                   333 10261 20070 5////
                   555 00///=
201907111200 AAXX 11124 67476 41978 11811 10255 20067 48/// 70500 80001
                   333 59004 81080=
201907100600 AAXX 10064 67476 31976 01405 10167 20084 48/// 70500
                   333 10266 20070 58004
                   555 00///=
201907090600 AAXX 09064 67476 31976 01263 10159 20105 48/// 70500
                   333 10270 20038 58002
                   555 00///=
201907080600 AAXX 08064 67476 31976 48401 10140 20096 48/// 70521 80001
                   333 10267 20047 5//// 84080=
201907050600 AAXX 05064 67476 31976 01207 10159 20115 48/// 70500
                   333 10255 20065 59012=
201907030600 AAXX 03064 67476 31977 01205 10180 20116 48/// 70500
                   333 10280 20080 5////=

################################################################################
#  SYNOPS from 67477, Mpika (Zambia) | 11-54S | 031-26E | 1400 m
################################################################################
201907301200 AAXX 30124 67477 NIL=
201907290900 AAXX 29094 67477 NIL=
201907261200 AAXX 26124 67477 NIL=
201907260900 AAXX 26094 67477 NIL=
201907260600 AAXX 26064 67477 31975 01208 10153 20090 48/// 70500
                   333 10241 20077 555 00062=
201907251200 AAXX 25124 67477 NIL=
201907250900 AAXX 25094 67477 NIL=
201907250600 AAXX 25064 67477 31978 01201 10142 20090 48///
                   333 10242 20037 5////
                   555 00024=
201907240900 AAXX 24094 67477 42980 00000 10213 20070 48///
                   333 5////=
201907240600 AAXX 24064 67477 31978 00901 10161 20060 48/// 70500
                   333 10221 20079 5////
                   555 00061=
201907230900 AAXX 23094 67477 41978 01201 10182 20080 48/// 70500
                   333 5////=
201907190600 AAXX 19064 67477 31975 21502 10143 20113 48/// 70500 82030
                   333 10230 20065 5//// 82360
                   555 00052=
201907181200 AAXX 18124 67477 41675 41205 10223 20090 48/// 70500 84100
                   333 5//// 84834=
201907180900 AAXX 18094 67477 41575 31210 10201 20101 48/// 70500 83100
                   333 5//// 83826=
201907180600 AAXX 18064 67477 31975 11204 10150 20104 48/// 70500 81030
                   333 10232 20074 5//// 81360
                   555 00070=
201907171200 AAXX 17124 67477 41675 31208 10215 20090 48/// 70500 83200
                   333 5//// 83834=
201907170900 AAXX 17094 67477 41575 21212 10200 20083 48/// 70500 82100
                   333 5//// 82828=
201907151200 AAXX 15124 67477 41675 11212 10215 20096 48/// 70500 81100
                   333 5//// 81836=
201907150900 AAXX 15094 67477 41575 31212 10190 20110 48/// 70500 83500
                   333 5//// 83625=
201907150600 AAXX 15064 67477 31475 11211 10146 20102 48/// 70500 81500
                   333 10249 20110 5//// 81615=
201907111200 AAXX 11124 67477 42980 01205 10223 20090 48///
                   333 5////=
201907100600 AAXX 10064 67477 32980 00907 10153 20050 48///
                   333 10249 20107 5////
                   555 00093=
201907090600 AAXX 09064 67477 32980 01205 10176 20080 48///
                   333 10252 20088 5////
                   555 00072=
201907081200 AAXX 08124 67477 42980 00000 10236 20070 48///
                   333 5////=
201907080600 AAXX 08064 67477 32980 01201 10177 20080 48///
                   333 10263 20099 5////
                   555 00071=
201907050600 AAXX 05064 67477 31975 21506 10160 20119 48/// 70500 82030
                   333 10270 20115 5//// 82360
                   555 00099=
201907030600 AAXX 03064 67477 32480 40906 10179 20120 48/// 84500
                   333 10262 20090 5//// 84619
                   555 00080=

################################################################################
#  SYNOPS from 67481, Isoka (Zambia) | 10-07S | 032-38E | 1360 m
################################################################################
201907310600 AAXX 31064 67481 31970 02002 10180 20130 48/// 70500
                   333 10264 20110 5////=
201907301200 AAXX 30124 67481 NIL=
201907290900 AAXX 29094 67481 41675 32002 10212 20106 48/// 70500 83100
                   333 5//// 83830=
201907290600 AAXX 29064 67481 31975 03002 10170 20112 48/// 70500
                   333 10222 20100 5////
                   555 00///=
201907261200 AAXX 26124 67481 NIL=
201907260900 AAXX 26094 67481 NIL=
201907260600 AAXX 26064 67481 31970 02504 10136 20082 48/// 70500
                   333 10268 20090 5////=
201907251200 AAXX 25124 67481 NIL=
201907250900 AAXX 25094 67481 NIL=
201907250600 AAXX 25064 67481 31970 02002 10165 20082 48/// 70500
                   333 10253 20105 5////=
201907240900 AAXX 24094 67481 NIL=
201907240600 AAXX 24064 67481 31975 02602 10173 20081 48/// 70500
                   333 10270 20094 5////=
201907230900 AAXX 23094 67481 41575 11203 10198 20085 48/// 70500
                   333 5//// 81820=
201907230600 AAXX 23064 67481 31975 01003 10140 20075 48/// 70500
                   333 10235 20100 5////=
201907190600 AAXX 19064 67481 31978 02702 10176 20095 48/// 70500
                   333 10246 20108 5////=
201907181200 AAXX 18124 67481 NIL=
201907180600 AAXX 18064 67481 31978 00301 10180 20100 48/// 70500
                   333 10260 20102 5////=
201907170900 AAXX 17094 67481 NIL=
201907160600 AAXX 16064 67481 31978 01003 10165 20076 48/// 70500
                   333 10250 20098 5////=
201907150900 AAXX 15094 67481 NIL=
201907150600 AAXX 15064 67481 31978 03002 10160 20117 48/// 70500
                   333 10265 20102 5////
                   555 00///=
201907080600 AAXX 08064 67481 31975 32702 10185 20104 48/// 70500 80001
                   333 10262 20102 5//// 83080=
201907050600 AAXX 05064 67481 31978 03002 10168 20120 48/// 70500
                   333 10232 20116 5////=
201907030600 AAXX 03064 67481 31978 00902 10152 20096 48530 70500
                   333 10286 20074 58006 91021=

################################################################################
#  SYNOPS from 67531, Zambezi (Zambia) | 13-32S | 023-07E | 1077 m
################################################################################
201907301200 AAXX 30124 67531 42980 01806 10292 20083 48///
                   333 58007=
201907290900 AAXX 29094 67531 42980 01007 10237 20166 48///
                   333 51800=
201907290600 AAXX 29064 67531 31975 10903 10124 20070 48/// 70500 80001
                   333 10285 20070 59002 81081
                   555 00040=
201907261200 AAXX 26124 67531 NIL=
201907260900 AAXX 26094 67531 42980 10704 10242 20027 478// 70222 80001
                   333 5//// 81080=
201907260600 AAXX 26064 67531 31975 00903 10100 20002 48/// 70500
                   333 10298 20056 58000
                   555 00027=
201907251200 AAXX 25124 67531 NIL=
201907250900 AAXX 25094 67531 41975 01207 10245 20014 48/// 70500
                   333 5////=
201907250600 AAXX 25064 67531 31970 00704 10126 20024 48/// 70500
                   333 10294 20053 58011
                   555 00041=
201907240900 AAXX 24094 67531 NIL=
201907191200 AAXX 19124 67531 41975 01204 10263 20056 48/// 70500
                   333 59005=
201907190900 AAXX 19094 67531 41975 01406 10227 20067 48/// 70500
                   333 59005=
201907190600 AAXX 19064 67531 31970 01302 10116 20059 48/// 70500
                   333 10276 20075 59011
                   555 00045=
201907181200 AAXX 18124 67531 42980 01803 10265 20069 48///
                   333 59009=
201907180900 AAXX 18094 67531 42980 01508 10230 20062 48///
                   333 59008=
201907180600 AAXX 18064 67531 32980 01005 10125 20069 48///
                   333 10290 20090 59009
                   555 00065=
201907171200 AAXX 17124 67531 42980 01305 10274 20074 48///
                   333 58016=
201907170900 AAXX 17094 67531 NIL=
201907160600 AAXX 16064 67531 31975 00903 10130 20077 48/// 70500
                   333 10286 20087 5////
                   555 00064=
201907150900 AAXX 15094 67531 NIL=
201907150600 AAXX 15064 67531 31975 00905 10096 20059 48/// 70500
                   333 10280 20052 5////
                   555 00///=
201907080600 AAXX 08064 67531 31975 10000 10080 20044 48/// 70500 80001
                   333 10287 20020 58006 81082
                   555 00023=
201907050600 AAXX 05064 67531 32980 00803 10130 20091 48///
                   333 10295 20080 59012
                   555 00070=
201907030600 AAXX 03064 67531 32980 01501 10095 20066 48///
                   333 10291 20063 58015
                   555 00050=

################################################################################
#  SYNOPS from 67541, Kasempa (Zambia) | 13-32S | 025-51E | 1234 m
################################################################################
201907310600 AAXX 31064 67541 32980 10000 10095 20049 48/// 70222 80001
                   333 10294 20004 5//// 81080
                   555 00///=
201907301200 AAXX 30124 67541 42980 00000 10280 20050 48///
                   333 5////=
201907290900 AAXX 29094 67541 42980 10704 10240 20053 48/// 70222 80001
                   333 5//// 81080=
201907261200 AAXX 26124 67541 42980 10000 10285 20029 48///
                   333 5////=
201907260900 AAXX 26094 67541 NIL=
201907260600 AAXX 26064 67541 32980 10000 10150 20024 48/// 80001
                   333 10292 20010 5////=
201907251200 AAXX 25124 67541 42980 10000 10270 20015 48/// 70222 80001
                   333 5//// 81080=
201907250900 AAXX 25094 67541 42980 10702 10247 20013 48/// 70222 80001
                   333 5//// 81080=
201907250600 AAXX 25064 67541 32980 10000 10060 20036 48/// 80001
                   333 10286 21010 5//// 81080=
201907240900 AAXX 24094 67541 42980 10602 10235 20059 48/// 70222 80001
                   333 5//// 81080=
201907240600 AAXX 24064 67541 32980 10000 10080 20060 48/// 80001
                   333 10272 20002 5//// 81080=
201907230900 AAXX 23094 67541 42980 10703 10210 20072 48/// 70222 80001
                   333 5//// 81080=
201907221200 AAXX 22124 67541 42980 00000 10260 20007 48///
                   333 5////=
201907190900 AAXX 19094 67541 42980 10804 10230 20064 48/// 80001
                   333 5//// 81080=
201907190600 AAXX 19064 67541 32980 10000 10125 20066 48/// 80001
                   333 10274 20036 5//// 81080=
201907181200 AAXX 18124 67541 42980 00705 10256 20084 48///
                   333 5////=
201907180900 AAXX 18094 67541 42980 10608 10230 20089 48/// 80001
                   333 5//// 81080=
201907180600 AAXX 18064 67541 32980 10603 10140 20084 48/// 80001
                   333 10274 20066 5//// 81080=
201907171200 AAXX 17124 67541 42980 00602 10260 20085 48///
                   333 5////=
201907170900 AAXX 17094 67541 42980 10607 10220 20074 48/// 80001
                   333 5//// 81080=
201907161200 AAXX 16124 67541 42980 10607 10255 20090 48/// 80001
                   333 5//// 81080=
201907151200 AAXX 15124 67541 42980 20603 10255 20090 48/// 80001
                   333 5//// 82080=
201907150900 AAXX 15094 67541 42980 10607 10215 20091 48/// 80001
                   333 5//// 81080=
201907150600 AAXX 15064 67541 32980 10000 10120 20081 48/// 80001
                   333 10284 20040 5//// 81080
                   555 00///=
201907111200 AAXX 11124 67541 42980 20000 10270 20075 48/// 80002
                   333 5//// 82080=
201907100600 AAXX 10064 67541 32980 10000 10110 20060 48/// 80001
                   333 10280 20020 5//// 81080
                   555 00///=
201907090600 AAXX 09064 67541 32980 10000 10075 20043 48/// 80001
                   333 10290 20//0 5//// 81080
                   555 00///=
201907080600 AAXX 08064 67541 32980 10000 10085 20046 48/// 80001
                   333 10288 20000 5//// 81080=
201907050600 AAXX 05064 67541 32980 20000 10135 20099 48/// 80002
                   333 10280 20062 5//// 82080=
201907030600 AAXX 03064 67541 32980 10000 10098 20071 48/// 80001
                   333 10286 20032 5//// 81080=

################################################################################
#  SYNOPS from 67543, Kabompo (Zambia) | 13-36S | 024-12E | 1075 m
################################################################################
201907310600 AAXX 31064 67543 31965 00000 10106 20048 48/// 70500
                   333 10306 20052 59011
                   555 00///=
201907301200 AAXX 30124 67543 NIL=
201907290900 AAXX 29094 67543 NIL=
201907290600 AAXX 29064 67543 12970 00000 10140 20043 48/// 70500
                   333 10298 20090 59001
                   555 00///=
201907261200 AAXX 26124 67543 NIL=
201907260900 AAXX 26094 67543 41970 01403 10250 21010 48/// 70500
                   333 59003=
201907260600 AAXX 26064 67543 31970 00000 10134 21013 48/// 70500
                   333 10300 20098 59006=
201907251200 AAXX 25124 67543 NIL=
201907250900 AAXX 25094 67543 41970 01101 10240 20010 48/// 70500
                   333 58017=
201907250600 AAXX 25064 67543 31965 00000 10102 20039 48/// 70500
                   333 10292 20040 58017=
201907241200 AAXX 24124 67543 41970 00902 10246 20042 48/// 70500
                   333 59016=
201907240900 AAXX 24094 67543 NIL=
201907240600 AAXX 24064 67543 31965 00000 10090 20055 48/// 70500
                   333 10284 20038 59015=
201907181200 AAXX 18124 67543 NIL=
201907180600 AAXX 18064 67543 31970 01102 10146 20071 48/// 70500
                   333 10284 20090 59004=
201907171200 AAXX 17124 67543 41970 01801 10272 20058 48/// 70500
                   333 58012=
201907170900 AAXX 17094 67543 41970 01003 10234 20072 48/// 70500
                   333 58014=
201907161200 AAXX 16124 67543 41970 00902 10274 20068 48/// 70500
                   333 58004=
201907151200 AAXX 15124 67543 41970 00601 10270 20081 48/// 70500
                   333 5////=
201907150900 AAXX 15094 67543 41970 00702 10230 20094 48/// 70500
                   333 5////=
201907150600 AAXX 15064 67543 31970 00902 10150 20078 48/// 70500
                   333 10294 20086 5////
                   555 00///=

################################################################################
#  SYNOPS from 67551, Solwezi (Zambia) | 12-11S | 026-23E | 1386 m
################################################################################
201907310600 AAXX 31064 67551 31970 00000 10134 20050 48536 70500
                   333 10258 20062 59010
                   555 00/// 91021=
201907301200 AAXX 30124 67551 NIL=
201907290900 AAXX 29094 67551 NIL=
201907290600 AAXX 29064 67551 31958 01204 10134 20056 48555 70500 80000
                   333 10270 20064 59001
                   555 00/// 91023=
201907261200 AAXX 26124 67551 NIL=
201907260900 AAXX 26094 67551 NIL=
201907260600 AAXX 26064 67551 31957 01103 10086 20041 48556 70500
                   333 10279 20047 5//// 91023=
201907251200 AAXX 25124 67551 NIL=
201907250900 AAXX 25094 67551 NIL=
201907250600 AAXX 25064 67551 31965 00000 10121 20040 48547 70500
                   333 10269 20049 58014 91023=
201907240900 AAXX 24094 67551 NIL=
201907240600 AAXX 24064 67551 31960 00000 10076 20064 48539 70500
                   333 10259 20046 59014 91022=
201907190600 AAXX 19064 67551 31965 01506 10119 20065 48539 70500
                   333 10236 20071 59014 91022=
201907181200 AAXX 18124 67551 NIL=
201907170900 AAXX 17094 67551 NIL=
201907150900 AAXX 15094 67551 NIL=
201907150600 AAXX 15064 67551 31959 01304 10122 20061 48547 70500
                   333 10324 20067 59011
                   555 00/// 91023=
201907100600 AAXX 10064 67551 31970 10118 10//0 20041 48556 70500
                   333 10266 20070 59004
                   555 00/// 91024=
201907090600 AAXX 09064 67551 31958 14005 10120 20039 48560 70500 80001
                   333 10267 20068 58007 81080
                   555 00/// 91024=
201907080600 AAXX 08064 67551 31958 10000 10088 20066 48560 70500 80001
                   333 10259 20047 58008 81080 91023=
201907050600 AAXX 05064 67551 31970 40903 10135 20104 48542 70500 84030
                   333 10244 20100 59012 84360 91022=
201907030600 AAXX 03064 67551 31970 00000 10128 20093 48543 70500
                   333 10259 20075 58003 91023=

################################################################################
#  SYNOPS from 67561, Ndola (Zambia) | 13-00S | 028-39E | 1269 m
################################################################################
201907310600 AAXX 31064 67561 31910 00000 10124 20070 48534 70400
                   333 10275 20070 59010
                   555 00/// 91022=
201907301200 AAXX 30124 67561 NIL=
201907290900 AAXX 29094 67561 NIL=
201907261200 AAXX 26124 67561 NIL=
201907260900 AAXX 26094 67561 NIL=
201907260600 AAXX 26064 67561 31059 01405 10154 20000 48558 70400
                   333 10278 20084 59003 91024=
201907251200 AAXX 25124 67561 NIL=
201907250900 AAXX 25094 67561 NIL=
201907250600 AAXX 25064 67561 31956 08003 10111 20032 48550 70400
                   333 10270 20060 58015
                   555 00/// 91024=
201907240900 AAXX 24094 67561 NIL=
201907240600 AAXX 24064 67561 31956 00000 10105 20065 48528 70400
                   333 10251 20056 5//// 91022=
201907230600 AAXX 23064 67561 31930 00000 10105 20056 48553 70400
                   333 10229 20058 59011 91024=
201907190900 AAXX 19094 67561 41560 01005 10226 20070 48559 70500
                   333 59018 91023=
201907190600 AAXX 19064 67561 31958 00000 10145 20081 48550 70400
                   333 10251 20080 59013 91023=
201907181200 AAXX 18124 67561 NIL=
201907170900 AAXX 17094 67561 NIL=
201907170600 AAXX 17064 67561 31959 00000 10133 20071 48581 70400
                   333 10247 20095 58016 91027=
201907150900 AAXX 15094 67561 NIL=
201907080600 AAXX 08064 67561 31956 10000 10130 20072 48553 74640 80001
                   333 10265 20066 58006=

################################################################################
#  SYNOPS from 67563, Kafironda (Zambia) | 12-36S | 028-07E | 1243 m
################################################################################
201907301200 AAXX 30124 67563 NIL=
201907290900 AAXX 29094 67563 NIL=
201907290600 AAXX 29064 67563 31940 40000 10127 20080 48/// 70500 80001
                   333 10276 20031 59007 84080
                   555 00020=
201907261200 AAXX 26124 67563 NIL=
201907260900 AAXX 26094 67563 NIL=
201907260600 AAXX 26064 67563 31930 00802 1//// 2//// 48/// 70540
                   333 10290 20001 5////
                   555 01015=
201907251200 AAXX 25124 67563 NIL=
201907250900 AAXX 25094 67563 NIL=
201907250600 AAXX 25064 67563 31940 00000 10100 20035 48/// 70500
                   333 10280 20005 5//// 01004=
201907240900 AAXX 24094 67563 NIL=
201907240600 AAXX 24064 67563 31940 00000 10090 20080 48/// 70500
                   333 10263 20005 59017
                   555 01001=
201907230600 AAXX 23064 67563 31950 00000 10120 20061 48/// 70500
                   333 10253 20012 59016
                   555 00009=
201907220600 AAXX 22064 67563 31950 01208 10148 20090 48/// 70500
                   333 10292 20102 58011
                   555 00078=
201907190600 AAXX 19064 67563 31950 10802 10140 20086 48/// 70500 81030
                   333 10270 20030 5//// 81364
                   555 00028=
201907181200 AAXX 18124 67563 NIL=
201907180600 AAXX 18064 67563 31930 00902 10110 20071 48/// 70500
                   333 10260 20030 5////
                   555 00030=
201907170900 AAXX 17094 67563 NIL=
201907170600 AAXX 17064 67563 31950 01805 10165 20070 48/// 70500
                   333 10275 20078 58008
                   555 00043=
201907150900 AAXX 15094 67563 NIL=
201907150600 AAXX 15064 67563 31930 00802 10117 20090 48/// 70500
                   333 10280 20024 59001
                   555 00018=
201907090600 AAXX 09064 67563 31940 00000 10100 20060 48/// 70540
                   333 10278 20010 58010
                   555 00005=
201907050600 AAXX 05064 67563 31670 01802 10170 20118 48/// 70500
                   333 10275 20115 5////
                   555 00095=

################################################################################
#  SYNOPS from 67571, Serenje (Zambia) | 13-14S | 030-13E | 1384 m
################################################################################
201907301200 AAXX 30124 67571 NIL=
201907290900 AAXX 29094 67571 42975 30000 10206 20060 48512 70500 80001
                   333 59010 83080=
201907261200 AAXX 26124 67571 42970 01513 10204 20035 48502 70500
                   333 58008=
201907260900 AAXX 26094 67571 NIL=
201907251200 AAXX 25124 67571 NIL=
201907250900 AAXX 25094 67571 42970 01504 10206 20019 48512 70500
                   333 58023=
201907250600 AAXX 25064 67571 32965 01506 10158 20015 48520 70500
                   333 10236 20013 58026
                   555 00///=
201907240900 AAXX 24094 67571 NIL=
201907230900 AAXX 23094 67571 42978 01503 10170 20056 48510 70500
                   333 59006=
201907230600 AAXX 23064 67571 32978 01203 10132 20076 48509 70500
                   333 10223 20077 59008
                   555 00///=
201907181200 AAXX 18124 67571 42779 41213 10205 20072 48502 70511 84500
                   333 59012 84656=
201907180900 AAXX 18094 67571 42578 51208 10190 20076 48521 70511 85500
                   333 59019 85626=
201907171200 AAXX 17124 67571 42978 01505 10210 20062 48512 70500
                   333 58005=
201907170900 AAXX 17094 67571 42578 11209 10191 20051 48541 70500 81100
                   333 58017 81826=
201907170600 AAXX 17064 67571 32978 01204 10148 20062 48539 70500
                   333 10221 20099 58021=
201907161200 AAXX 16124 67571 42979 01203 10220 20065 48513 70500
                   333 58009=
201907150900 AAXX 15094 67571 NIL=
201907090600 AAXX 09064 67571 32970 01204 10170 20032 48520 70500
                   333 10244 20108 58022
                   555 00///=
201907050600 AAXX 05064 67571 32980 70906 10145 20098 48/// 70500 8703/
                   333 10230 20130 5//// 87360=

################################################################################
#  SYNOPS from 67575, Mkushi (Zambia) | 13-38-00S | 029-26-00E | 1237 m
################################################################################
201907301200 AAXX 30124 67575 41975 01303 10259 20045 48483 70500
                   333 59006 555 5////=
201907290900 AAXX 29094 67575 41975 11201 10228 20045 48518 70500 80001
                   333 5//// 81080 555 5////=
201907290600 AAXX 29064 67575 31975 20981 10129 20075 48507 70500 80001
                   333 10255 20031 56016 82080
                   555 00040=
201907261200 AAXX 26124 67575 41975 00906 10243 20019 48536 70500
                   333 58009 555 /////=
201907260900 AAXX 26094 67575 41975 01408 10210 20043 48530 70500
                   333 58003 555 /////=
201907251200 AAXX 25124 67575 41975 01206 10261 21050 48506 70500
                   333 58017 555//=
201907250900 AAXX 25094 67575 41375 10208 10232 20000 48529 70500
                   333 58019=
201907250600 AAXX 25064 67575 31970 00401 10120 20014 48514 70500
                   333 10271 20000 58014
                   555 00000=
201907240900 AAXX 24094 67575 NIL=
201907181200 AAXX 18124 67575 NIL=
201907180600 AAXX 18064 67575 31975 00902 10130 20072 48529 70500
                   333 10250 20064 59015
                   555 00054=
201907170900 AAXX 17094 67575 NIL=
201907160600 AAXX 16064 67575 31975 01202 10136 20077 48526 70500
                   333 10248 20070 5////
                   555 00066=
201907150900 AAXX 15094 67575 NIL=

################################################################################
#  SYNOPS from 67580, Msekera (Zambia) | 13-39S | 032-34E | 1025 m
################################################################################
201907310600 AAXX 31064 67580 31975 01203 10220 20133 48/// 70500
                   333 10295 20129 59008
                   555 00////=
201907301200 AAXX 30124 67580 NIL=
201907290900 AAXX 29094 67580 NIL=
201907261200 AAXX 26124 67580 NIL=
201907260900 AAXX 26094 67580 41675 12404 10202 20107 48/// 70500 81100
                   333 58010 81830=
201907260600 AAXX 26064 67580 31975 01204 10146 20091 48/// 70500
                   333 10294 20100 58011=
201907251200 AAXX 25124 67580 NIL=
201907250900 AAXX 25094 67580 NIL=
201907250600 AAXX 25064 67580 NIL=
201907240900 AAXX 24094 67580 NIL=
201907240600 AAXX 24064 67580 31975 00903 10140 20072 48/// 70500
                   333 10264 20079 59024=
201907230900 AAXX 23094 67580 41975 03303 10204 20053 48/// 70500
                   333 59021=
201907230600 AAXX 23064 67580 31975 00803 10147 20072 48/// 70500
                   333 10238 20094 59018=
201907190900 AAXX 19094 67580 41675 70905 10250 20102 48/// 70522 87200
                   333 59025 87840=
201907190600 AAXX 19064 67580 31975 61606 10193 20103 48/// 70521 86030
                   333 10284 20112 5//// 86360=
201907181200 AAXX 18124 67580 NIL=
201907180900 AAXX 18094 67580 41675 61605 10238 20101 48/// 70510 86200
                   333 5//// 86840=
201907180600 AAXX 18064 67580 31475 21204 10165 20098 48/// 70510 81130
                   333 10282 20104 5//// 81814 81362=
201907170900 AAXX 17094 67580 NIL=
201907170600 AAXX 17064 67580 31975 11204 10184 20097 48/// 70510 81130
                   333 10259 20100 58008 81818 81360=
201907160600 AAXX 16064 67580 31975 60903 10185 20116 48/// 70522 86032
                   333 10284 20128 58012 86360 81080=
201907150900 AAXX 15094 67580 NIL=
201907100600 AAXX 10064 67580 31970 01204 10164 20083 48/// 70500
                   333 10282 20110 58006
                   555 00///=
201907090600 AAXX 09064 67580 31975 71204 10186 20091 48/// 70522 80008
                   333 10305 20109 58014 87282
                   555 00///=
201907060600 AAXX 06064 67580 31980 10904 10196 20117 48/// 70500 81030
                   333 10285 20140 59008 81360=
201907030600 AAXX 03064 67580 31480 11203 10208 20141 48/// 70500 81130
                   333 10304 20165 58013 81818 81360=

################################################################################
#  SYNOPS from 67581, Chipata (Zambia) | 13-33S | 032-35E | 1028 m
################################################################################
201907310600 AAXX 31064 67581 32980 00610 10219 20098 48558
                   333 10280 20145 59008
                   555 00/// 91022=
201907301200 AAXX 30124 67581 NIL=
201907290900 AAXX 29094 67581 NIL=
201907290600 AAXX 29064 67581 32980 01708 10205 20069 48568
                   333 10260 20112 59014
                   555 00/// 91023=
201907261200 AAXX 26124 67581 NIL=
201907260900 AAXX 26094 67581 NIL=
201907260600 AAXX 26064 67581 32980 01710 10160 20064 48579
                   333 10277 20126 5//// 91025=
201907251200 AAXX 25124 67581 NIL=
201907250900 AAXX 25094 67581 NIL=
201907250600 AAXX 25064 67581 32980 01706 10186 20050 48///
                   333 10275 20064 5////
                   555 00/// 910//=
201907240900 AAXX 24094 67581 NIL=
201907240600 AAXX 24064 67581 32980 00000 10170 20035 48557
                   333 10240 20067 59020 91022=
201907230600 AAXX 23064 67581 32980 01710 10160 20030 48574
                   333 10252 20108 59020 91024=
201907190600 AAXX 19064 67581 32980 31603 10202 20095 48569 83030
                   333 10250 20130 5//// 83360 91023=
201907181200 AAXX 18124 67581 NIL=
201907180600 AAXX 18064 67581 32980 00915 10198 20080 48///
                   333 10264 20144 5////=
201907170900 AAXX 17094 67581 NIL=
201907170600 AAXX 17064 67581 32980 01706 10181 20076 48599
                   333 10248 20120 58006 91027=
201907150900 AAXX 15094 67581 NIL=
201907150600 AAXX 15064 67581 32980 01606 10170 20087 48582
                   333 10270 20125 58000
                   555 00/// 91021=
201907100600 AAXX 10064 67581 32980 01406 10172 20050 48581
                   333 10278 20142 58002
                   555 00/// 91025=
201907050600 AAXX 05064 67581 32980 01707 10183 20079 48564
                   333 10265 20145 5//// 91023=

################################################################################
#  SYNOPS from 67583, Lundazi (Zambia) | 12-17S | 033-12E | 1143 m
################################################################################
201907301200 AAXX 30124 67583 41757 40000 10272 20108 48/// 70500 84100
                   333 5//// 84856=
201907290900 AAXX 29094 67583 NIL=
201907290600 AAXX 29064 67583 31957 10000 10142 20125 48/// 70500 80001
                   333 10270 2//// 5//// 81080
                   555 00///=
201907261200 AAXX 26124 67583 NIL=
201907260900 AAXX 26094 67583 NIL=
201907251200 AAXX 25124 67583 NIL=
201907250900 AAXX 25094 67583 NIL=
201907250600 AAXX 25064 67583 31956 00000 10118 20065 48/// 70500
                   333 10288 2//// 5////=
201907241200 AAXX 24124 67583 41956 02702 10270 20062 48/// 70500
                   333 5////=
201907240900 AAXX 24094 67583 41956 02703 10238 20059 48/// 70500
                   333 5////=
201907240600 AAXX 24064 67583 31956 00000 10106 20077 48/// 70500
                   333 10260 2//// 5////=
201907231200 AAXX 23124 67583 41656 01802 10248 20085 48/// 70500
                   333 5////=
201907230900 AAXX 23094 67583 41656 12701 10214 20087 48/// 70500 81100
                   333 5//// 81830=
201907190900 AAXX 19094 67583 41657 51203 10234 20129 48/// 70521 85130
                   333 5//// 85835 81360=
201907190600 AAXX 19064 67583 31957 10902 10184 20135 48/// 70500 81030
                   333 10274 2//// 5//// 81360=
201907181200 AAXX 18124 67583 NIL=
201907180600 AAXX 18064 67583 31957 71203 10170 20127 48/// 70522 87030
                   333 10254 2//// 5//// 87359=
201907170900 AAXX 17094 67583 NIL=
201907150900 AAXX 15094 67583 41758 40903 10240 20108 48/// 70500 84100
                   333 5//// 84850=
201907150600 AAXX 15064 67583 31457 11203 10160 20128 48/// 70500 81130
                   333 10276 20//0 5//// 81812 81359
                   555 00///=
201907100600 AAXX 10064 67583 31957 01704 10160 20082 48/// 70500
                   333 10290 20//0 5////
                   555 00///=
201907090600 AAXX 09064 67583 31957 00902 10172 20092 48/// 70500
                   333 10286 20//0 5////
                   555 00///=
201907080600 AAXX 08064 67583 31956 11501 10148 20105 70500 80001
                   333 10288 2//// 5//// 81080=
201907050600 AAXX 05064 67583 31957 41702 10149 20115 48/// 70500 84030
                   333 10256 2//// 5//// 84360=
201907030600 AAXX 03064 67583 31958 40903 10176 20151 48/// 70500 84030
                   333 10312 2//// 5//// 84359=

################################################################################
#  SYNOPS from 67599, Mfuwe (Zambia) | 13-16S | 031-56E | 568 m
################################################################################
201907301200 AAXX 30124 67599 NIL=
201907290900 AAXX 29094 67599 NIL=
201907261200 AAXX 26124 67599 NIL=
201907260900 AAXX 26094 67599 NIL=
201907260600 AAXX 26064 67599 31959 01606 10179 20076 48571 70500
                   333 10324 20096 58010
                   555 00095 91024=
201907251200 AAXX 25124 67599 NIL=
201907250900 AAXX 25094 67599 NIL=
201907250600 AAXX 25064 67599 31957 01403 10142 20026 48548 70500
                   333 10310 20070 58013
                   555 00090 91023=
201907240900 AAXX 24094 67599 NIL=
201907240600 AAXX 24064 67599 31957 01405 10155 20055 48541 70500
                   333 10296 20070 59025
                   555 00095 91022=
201907190600 AAXX 19064 67599 31975 50000 10198 20102 48560 70522 85030
                   333 10301 20125 59024 85360
                   555 00130 91022=
201907181200 AAXX 18124 67599 NIL=
201907180600 AAXX 18064 67599 32980 20000 10185 20085 48575 82030
                   333 10306 20122 59013 82360
                   555 00125 91024=
201907170900 AAXX 17094 67599 NIL=
201907150900 AAXX 15094 67599 NIL=
201907150600 AAXX 15064 67599 31975 01605 10180 20103 48570 70500
                   333 10322 20105 59007
                   555 00115 91024=
201907100600 AAXX 10064 67599 31975 00000 10169 20032 48572 70500
                   333 10322 20088 58013
                   555 00100 91024=
201907090600 AAXX 09064 67599 31975 01404 10187 20037 48566 70500
                   333 10335 20105 58008
                   555 00111 91023=
201907080600 AAXX 08064 67599 31958 01506 10158 20061 48550 70500
                   333 10315 20080 58004
                   555 00095 91022=
201907060600 AAXX 06064 67599 32980 71506 10194 20093 48547 87030
                   333 10305 20155 59011 87360
                   555 00175 91021=
201907050600 AAXX 05064 67599 32980 10909 10195 20102 48557 81030
                   333 10305 20125 59014 81360
                   555 00135 91022=
201907030600 AAXX 03064 67599 32980 01408 10236 20148 48562
                   333 10315 20180 58001
                   555 00175 91021=

################################################################################
#  SYNOPS from 67625, Kalabo (Zambia) | 14-51S | 022-42E | 1033 m
################################################################################
201907301200 AAXX 30124 67625 42982 01409 10290 20008 48///
                   333 58000=
201907290900 AAXX 29094 67625 42982 00908 10250 20040 48///=
201907261200 AAXX 26124 67625 42982 00809 10295 21051 4////
                   333 58010=
201907260900 AAXX 26094 67625 42982 00915 10250 21015 48///
                   333 59008=
201907251200 AAXX 25124 67625 42982 01204 10296 21030 48///
                   333 58011=
201907250900 AAXX 25094 67625 42982 01011 10260 21020 48///
                   333 58023=
201907250600 AAXX 25064 67625 32982 01209 10133 20005 48///
                   333 10290 20094 58015=
201907240900 AAXX 24094 67625 42982 00908 10245 20044 48///
                   333 59026=
201907230900 AAXX 23094 67625 42982 00509 10216 20066 48///
                   333 59007=
201907190900 AAXX 19094 67625 42982 01114 10240 20028 48///
                   333 59013=
201907190600 AAXX 19064 67625 32982 01210 10125 20050 48///
                   333 10273 20096 59006=
201907181200 AAXX 18124 67625 42982 01213 10265 20067 48///
                   333 59006=
201907180600 AAXX 18064 67625 32982 01209 10125 20073 48///
                   333 10280 20105 59008=
201907171200 AAXX 17124 67625 42982 00912 10275 20067 48///
                   333 58019=
201907170900 AAXX 17094 67625 42982 00913 10225 20079 48/// 58012=
201907161200 AAXX 16124 67625 42982 01211 10279 20066 48///
                   333 5////=
201907150900 AAXX 15094 67625 42982 00911 10220 20072 48///
                   333 5////=
201907150600 AAXX 15064 67625 32982 01207 10120 20048 48///
                   333 10280 20100 59005
                   555 00///=
201907111200 AAXX 11124 67625 42982 01208 10285 20015 48///
                   333 59008=
201907090600 AAXX 09064 67625 32982 21415 10130 21054 48/// 80001
                   333 10297 20075 58002 82075
                   555 00///=
201907081200 AAXX 08124 67625 42982 11210 10290 21019 48/// 80001
                   333 5//// 81275=
201907080600 AAXX 08064 67625 32982 01413 10125 21003 48///
                   333 10283 20075 58009=
201907050600 AAXX 05064 67625 32982 01205 10145 20076 48///
                   333 10290 20123 59012=

################################################################################
#  SYNOPS from 67633, Mongu (Zambia) | 15-15S | 023-09E | 1052 m
################################################################################
201907301200 AAXX 30124 67633 NIL=
201907290900 AAXX 29094 67633 42980 00906 10248 20044 48560
                   333 59001 91022=
201907261200 AAXX 26124 67633 42980 00910 10285 20160 48547
                   333 59013 555 91020=
201907260900 AAXX 26094 67633 42980 00915 10250 21006 48569
                   333 59002 555 91023=
201907251200 AAXX 25124 67633 42980 01305 10297 21002 48558
                   333 58023 555 91021=
201907250900 AAXX 25094 67633 NIL=
201907250600 AAXX 25064 67633 32980 00905 10034 48550
                   333 10296 20110 555 00/// 91023=
201907240900 AAXX 24094 67633 NIL=
201907190900 AAXX 19094 67633 42980 00903 10244 20056 48566
                   333 59015 91023=
201907181200 AAXX 18124 67633 NIL=
201907170900 AAXX 17094 67633 NIL=
201907160600 AAXX 16064 67633 32980 00905 10145 20085 48552
                   333 10280 20117 58006 91023=
201907150900 AAXX 15094 67633 NIL=
201907150600 AAXX 15064 67633 32980 00903 10120 20053 48542
                   333 10290 20107 58002
                   555 00/// 91023=
201907050600 AAXX 05064 67633 32980 00906 10156 20076 48538
                   333 10297 20120 59014 91021=
201907030600 AAXX 03064 67633 32980 01802 10125 20040 48548
                   333 10278 20107 58008 91023=

################################################################################
#  SYNOPS from 67641, Kaoma (Zambia) | 14-48S | 024-48E | 1213 m
################################################################################
201907301200 AAXX 30124 67641 NIL=
201907290900 AAXX 29094 67641 NIL=
201907290600 AAXX 29064 67641 31975 03602 10086 20039 48526 70500
                   333 10277 20046 59010
                   555 00/// 91021=
201907261200 AAXX 26124 67641 NIL=
201907260900 AAXX 26094 67641 42980 01208 10240 20011 48553
                   333 59007 91022=
201907260600 AAXX 26064 67641 31960 00801 10115 20022 48538 70500
                   333 10290 20044 59001
                   555 00/// 91022=
201907251200 AAXX 25124 67641 NIL=
201907250900 AAXX 25094 67641 42980 01102 10251 20013 48561 70500
                   333 58009 91022=
201907250600 AAXX 25064 67641 31960 03601 10074 20052 48534 70500
                   333 10291 20039 58014
                   555 00/// 91022=
201907240900 AAXX 24094 67641 42980 10206 10240 20038 48550
                   333 59007 91021=
201907240600 AAXX 24064 67641 31958 03602 10090 20028 48524 70500
                   333 10276 20048 59012 91021=
201907181200 AAXX 18124 67641 NIL=
201907170900 AAXX 17094 67641 NIL=
201907160600 AAXX 16064 67641 32980 00601 10104 20078 48541
                   333 10270 20072 58007 91022=
201907150900 AAXX 15094 67641 NIL=
201907080600 AAXX 08064 67641 31958 00000 10077 20036 48531 70500
                   333 10284 20054 59004 91022=
201907050600 AAXX 05064 67641 32980 03602 10115 20080 48529
                   333 10292 20090 59015 91021=

################################################################################
#  SYNOPS from 67655, Mumbwa (Zambia) | 15-04S | 027-11E | 1216 m
################################################################################
201907301200 AAXX 30124 67655 NIL=
201907290900 AAXX 29094 67655 NIL=
201907261200 AAXX 26124 67655 NIL=
201907260900 AAXX 26094 67655 NIL=
201907251200 AAXX 25124 67655 NIL=
201907250900 AAXX 25094 67655 NIL=
201907250600 AAXX 25064 67655 NIL=
201907240900 AAXX 24094 67655 NIL=
201907190600 AAXX 19064 67655 31958 00000 10128 20074 48555 70500
                   333 10250 20100 59019 91023=
201907181200 AAXX 18124 67655 NIL=
201907170900 AAXX 17094 67655 NIL=
201907170600 AAXX 17064 67655 32980 00908 10146 20092 48585
                   333 10266 20093 58016 91027=
201907150900 AAXX 15094 67655 NIL=
201907050600 AAXX 05064 67655 42980 01404 10147 20098 48561 70200
                   333 10255 20/// 59020 91024=

################################################################################
#  SYNOPS from 67659, Kafue Polder (Zambia) | 15-46S | 027-55E | 978 m
################################################################################
201907301200 AAXX 30124 67659 NIL=
201907290900 AAXX 29094 67659 NIL=
201907290600 AAXX 29064 67659 32980 02703 10125 20059 48///
                   333 10255 20050 59020=
201907261200 AAXX 26124 67659 NIL=
201907260900 AAXX 26094 67659 NIL=
201907260600 AAXX 26064 67659 32980 01505 10157 20068 48/// 70222
                   333 10276 20041 5////
                   555 00/// 20000=
201907251200 AAXX 25124 67659 NIL=
201907250900 AAXX 25094 67659 NIL=
201907250600 AAXX 25064 67659 32975 02580 10120 20050 48/// 70500
                   333 10285 20040 5////=
201907240900 AAXX 24094 67659 NIL=
201907240600 AAXX 24064 67659 32970 00903 10118 20061 48/// 70500
                   333 10250 20030 59017=
201907230600 AAXX 23064 67659 32975 01004 1//// 20082 48/// 70500
                   333 10296 20042 59012=
201907190600 AAXX 19064 67659 32980 01803 10120 20068 48///
                   333 10251 20045 59022=
201907181200 AAXX 18124 67659 NIL=
201907180600 AAXX 18064 67659 32970 01004 10140 2//// 48/// 70500
                   333 10252 20060 59012=
201907170900 AAXX 17094 67659 NIL=
201907170600 AAXX 17064 67659 32975 01806 10160 20096 48/// 70500
                   333 10252 20071 58015=
201907160600 AAXX 16064 67659 32980 00903 10141 20088 48/// 70500
                   333 10250 20062 58005=
201907150900 AAXX 15094 67659 NIL=
201907150600 AAXX 15064 67659 32980 01406 10163 20100 48/// 70500
                   333 10245 20060 59007
                   555 00///=
201907100600 AAXX 10064 67659 32975 00906 10166 20085 48/// 70500
                   333 10278 20045 58002
                   555 00///=
201907090600 AAXX 09064 67659 32975 01005 10182 20060 48/// 70500
                   333 10290 20051 58010
                   555 00///=
201907050600 AAXX 05064 67659 32980 01406 10167 20121 48///
                   333 10267 20090 59016=

################################################################################
#  SYNOPS from 67662, Kabwe Agric (Zambia) | 14-24S | 028-30E | 1165 m
################################################################################
201907301200 AAXX 30124 67662 NIL=
201907290900 AAXX 29094 67662 NIL=
201907290600 AAXX 29064 67662 32980 10000 10140 20085 70200 81030
                   333 10250 20012 81360
                   555 00///=
201907261200 AAXX 26124 67662 NIL=
201907260900 AAXX 26094 67662 NIL=
201907251200 AAXX 25124 67662 NIL=
201907250900 AAXX 25094 67662 NIL=
201907250600 AAXX 25064 67662 31975 00000 10132 20011 48/// 70500
                   333 10266 20008 5////=
201907240900 AAXX 24094 67662 42980 00902 10221 20042 48///
                   333 5////=
201907181200 AAXX 18124 67662 NIL=
201907180600 AAXX 18064 67662 32980 00000 10154 20084 48///
                   333 10254 20054 5////=
201907170900 AAXX 17094 67662 NIL=
201907170600 AAXX 17064 67662 32980 00902 10143 20091 48///
                   333 10248 20046 5////=
201907160600 AAXX 16064 67662 32980 00905 10137 20092 48///
                   333 10248 20044 5////=
201907150900 AAXX 15094 67662 NIL=
201907150600 AAXX 15064 67662 32980 00000 10125 20120 48///
                   333 10250 20060 555 00///=
201907100600 AAXX 10064 67662 31975 00904 10141 20028 48/// 70500
                   333 10262 20040 555 00///=
201907090600 AAXX 09064 67662 32980 00000 10138 20029 48///
                   333 10274 20014 555 00///=
201907080600 AAXX 08064 67662 32980 10000 10125 20055 80001
                   333 10260 20016 81080=

################################################################################
#  SYNOPS from 67663, Kabwe (Zambia) | 14-27S | 028-28E | 1206 m
################################################################################
201907310600 AAXX 31064 67663 32980 00903 10166 20051 48550
                   333 10272 20089 49009
                   555 00179=
201907301200 AAXX 30124 67663 NIL=
201907290900 AAXX 29094 67663 NIL=
201907290600 AAXX 29064 67663 32970 10603 10149 20061 48555 80002
                   333 10246 20069 59002 81080
                   555 00134=
201907261200 AAXX 26124 67663 NIL=
201907260900 AAXX 26094 67663 NIL=
201907251200 AAXX 25124 67663 NIL=
201907250900 AAXX 25094 67663 NIL=
201907250600 AAXX 25064 67663 31970 00909 10155 20022 48553 70500
                   333 10260 20075 58015=
201907240900 AAXX 24094 67663 NIL=
201907240600 AAXX 24064 67663 31970 01409 10163 20061 48539 70500
                   333 1//// 20065 59017=
201907230600 AAXX 23064 67663 31970 00805 10130 20074 48553 70500
                   333 10220 20075 59016
                   555 00166=
201907220600 AAXX 22064 67663 31970 00918 10155 20095 48570 70500
                   333 10278 20102 58013=
201907190600 AAXX 19064 67663 32980 03003 10147 20084 48562
                   333 10242 20088 58002
                   555 00168=
201907181200 AAXX 18124 67663 NIL=
201907180600 AAXX 18064 67663 32980 00906 10138 20084 48559
                   333 10244 20094 59020=
201907170900 AAXX 17094 67663 NIL=
201907170600 AAXX 17064 67663 32980 00908 10162 20074 48581
                   333 10243 20096 58020=
201907160600 AAXX 16064 67663 32980 00907 10136 20094 48559
                   333 10253 20091 58009
                   555 00171=
201907150900 AAXX 15094 67663 NIL=
201907150600 AAXX 15064 67663 32980 01007 10137 20082 48551
                   333 10247 20083 59010
                   555 00192=

################################################################################
#  SYNOPS from 67665, Lusaka Internationalairport (Zambia) | 15-19S | 028-27E | 1152 m
################################################################################
201907301200 AAXX 30124 67665 NIL=
201907300900 AAXX 30094 67665 41959 00706 10222 20016 48571 70500
                   333 59018=
201907300600 AAXX 30064 67665 31960 01502 10149 20051 48557 70500
                   333 10265 20//0 59003=
201907300300 AAXX 30034 67665 41959 01802 10100 20035 48536 70500
                   333 59004=
201907300000 AAXX 30004 67665 41959 01201 10102 20038 48537 70500
                   333 59005=
201907292100 AAXX 29214 67665 41959 01903 10120 20036 48549 70500
                   333 59007=
201907291800 AAXX 29184 67665 41959 01203 10174 20020 48549 70500
                   333 59014=
201907291500 AAXX 29154 67665 41959 00806 10250 20010 48543 70500
                   333 59019=
201907291200 AAXX 29124 67665 41959 01310 10255 20000 48552 70500
                   333 59019=
201907290900 AAXX 29094 67665 NIL=
201907290600 AAXX 29064 67665 31960 00000 10142 20040 48558 70500
                   333 10248 20//0 59018
                   555 00///=
201907290000 AAXX 29004 67665 42980 00000 10089 20020 48541 70200
                   333 59011=
201907282100 AAXX 28214 67665 42980 02001 10119 20034 48556 70500
                   333 58011=
201907281800 AAXX 28184 67665 41959 00804 10160 20024 48560 70500
                   333 59006=
201907281500 AAXX 28154 67665 41959 10234 20010 48559 70500
                   333 59006=
201907281200 AAXX 28124 67665 41959 01406 10238 20035 48568 70500
                   333 59002=
201907280900 AAXX 28094 67665 41959 00710 10200 20040 48585 70500
                   333 59007=
201907280600 AAXX 28064 67665 32980 01405 10122 20052 48573 70200
                   333 10234 59002 555 00/// 91026=
201907272100 AAXX 27214 67665 42980 01402 10104 20029 48563 70200
                   333 58004 91025=
201907271800 AAXX 27184 67665 41959 01105 10147 20021 48565 70500
                   333 10234 59003=
201907271500 AAXX 27154 67665 41959 00912 10217 21009 48563 70500
                   333 58002 555 10234=
201907271200 AAXX 27124 67665 41959 10015 10226 21022 48568 70500
                   333 58003=
201907261800 AAXX 26184 67665 41959 01204 10146 21012 48568 70500
                   333 58001 555 10262 91025=
201907261500 AAXX 26154 67665 41960 01015 10237 21019 48564 70500
                   333 5//// 555 10262=
201907261200 AAXX 26124 67665 NIL=
201907260900 AAXX 26094 67665 NIL=
201907260600 AAXX 26064 67665 31960 01304 10128 20006 48576 70500
                   333 10269 20//0 58013=
201907260300 AAXX 26034 67665 41959 10090 21020 48522 70500
                   333 58006=
201907260000 AAXX 26004 67665 41959 01702 10074 21009 48545 70500
                   333 58004=
201907252100 AAXX 25214 67665 41960 01503 10116 21030 48563 70500
                   333 58019=
201907251200 AAXX 25124 67665 NIL=
201907250900 AAXX 25094 67665 41959 00811 10221 21038 48587 70400
                   333 58024 91026=
201907250600 AAXX 25064 67665 NIL=
201907240900 AAXX 24094 67665 NIL=
201907240600 AAXX 24064 67665 32980 01501 10110 20035 48547 70200
                   333 10248 20//0 59018
                   555 00///=
201907240300 AAXX 24034 67665 42980 01902 10052 20015 48528 70200
                   333 59016=
201907240000 AAXX 24004 67665 42980 01703 10049 20012 48528 70200
                   333 59021=
201907232100 AAXX 23214 67665 42980 00000 10112 20040 48551 70200
                   333 59017=
201907231800 AAXX 23184 67665 42980 01003 10153 20030 48549
                   333 10248 59023=
201907231200 AAXX 23124 67665 42980 00709 10231 20006 48553 70200
                   333 59027=
201907230600 AAXX 23064 67665 32980 09903 10113 20050 48564 70200
                   333 10224 20//0 59016
                   555 00/// 91025=
201907222100 AAXX 22214 67665 4290 01403 10099 20046 48565 70200
                   333 59002 91025=
201907221800 AAXX 22184 67665 42980 01105 10142 20056 48569 70200
                   333 10224 58008=
201907221500 AAXX 22154 67665 42980 00810 10209 20038 48571
                   333 58014 555 10224=
201907221200 AAXX 22124 67665 42680 20910 10209 20045 48576 70100 82500
                   333 58016 82645=
201907220900 AAXX 22094 67665 42159 60713 10177 20063 48600 70522 86500
                   333 58025 86625=
201907220600 AAXX 22064 67665 32159 00811 10140 20096 48583 70500
                   333 10286 58021 91027=
201907210900 AAXX 21094 67665 42980 01309 10254 21002 48586 70200
                   333 58009=
201907210600 AAXX 21064 67665 32980 01202 10148 20020 48565
                   333 10284 20//0 58006=
201907210300 AAXX 21034 67665 41959 02301 10094 20027 48545 70500
                   333 58008=
201907210000 AAXX 21004 67665 41959 02402 10107 20033 48545 70500
                   333 58003=
201907202100 AAXX 20214 67665 41959 00904 10140 20007 48556 70500
                   333 59002=
201907201800 AAXX 20184 67665 41959 01403 10184 20005 48552 70500
                   333 59007=
201907200900 AAXX 20094 67665 41959 09902 10237 20018 48576 70500
                   333 59005=
201907192100 AAXX 19214 67665 42980 02102 10127 20020 48556 70200
                   333 59010=
201907190600 AAXX 19064 67665 32980 01302 10151 20051 48564 70200
                   333 10245 20//0 58019
                   555 00///=
201907190300 AAXX 19034 67665 42980 02002 10081 20040 48542 70200
                   333 59023=
201907190000 AAXX 19004 67665 42980 02703 10096 20044 48551 70200
                   333 58021=
201907182100 AAXX 18214 67665 42980 00901 10131 20040 48565 70200
                   333 59017=
201907181800 AAXX 18184 67665 42960 01303 10160 20039 48561 70200
                   333 59018=
201907181200 AAXX 18124 67665 41459 21014 10235 20030 48572 70500 81500
                   333 58014 81635=
201907180600 AAXX 18064 67665 31959 01304 10140 20074 48580 70500
                   333 10245 20//0 59012
                   555 00/// 91027=
201907180000 AAXX 18004 67665 42980 00000 10106 20055 48572 70200
                   333 59007 91026=
201907171800 AAXX 17184 67665 42980 01205 10166 20058 48580 70200
                   333 10245 58000=
201907171500 AAXX 17154 67665 42980 01111 10227 20056 48576 70200
                   333 58004 555 10245=
201907171200 AAXX 17124 67665 42980 00911 10230 20037 48584 70200
                   333 58006=
201907170900 AAXX 17094 67665 NIL=
201907170600 AAXX 17064 67665 32980 01305 10139 20079 48579 70200
                   333 10237 58012 91028=
201907161800 AAXX 16184 67665 42980 11206 10160 20075 48579 70100 81030
                   333 10237 58012 81360=
201907161200 AAXX 16124 67665 42680 20311 10228 20064 48578 70200 82545
                   333 58012 82645=
201907160900 AAXX 16094 67665 42680 30614 10209 20056 48595 70300 83500
                   333 58007 83630=
201907160600 AAXX 16064 67665 32980 01106 10130 20083 48579
                   333 10242 20//0 58010=
201907160300 AAXX 16034 67665 42980 01103 10093 20064 48562
                   333 58013=
201907160000 AAXX 16004 67665 42980 01304 10093 20052 48563
                   333 58013=
201907152100 AAXX 15214 67665 42980 10122 20063 48574
                   333 58014=
201907151800 AAXX 15184 67665 42980 01206 10158 20068 48567 70200
                   333 58005 91025=
201907150900 AAXX 15094 67665 NIL=
201907150600 AAXX 15064 67665 32980 01109 10121 20074 48568 70200
                   333 10248 20//0 59003=
201907150300 AAXX 15034 67665 42980 01207 10088 20045 48550 70200
                   333 59010=
201907150000 AAXX 15004 67665 42980 01302 10088 20045 48551 70200
                   333 59005=
201907142100 AAXX 14214 67665 42980 01303 10115 20050 48562 70200
                   333 59012=
201907141800 AAXX 14184 67665 41959 01206 10149 20038 48561 70500
                   333 59007=
201907141500 AAXX 14154 67665 41959 01212 10227 20045 48559 70500
                   333 59007=
201907141200 AAXX 14124 67665 41959 01106 10239 20040 48566 70500
                   333 59007=
201907140900 AAXX 14094 67665 41959 00813 10201 20064 48586 70500
                   333 59004 91026=
201907140600 AAXX 14064 67665 31959 01109 10110 20060 48570 70500
                   333 10254 20//0 59007=
201907140300 AAXX 14034 67665 42980 01303 10075 20030 48558 70200
                   333 58002=
201907131500 AAXX 13154 67665 41980 01109 10235 20030 48567 70500
                   333 58004=
201907131200 AAXX 13124 67665 41980 00806 10231 20006 48571 70500
                   333 58010=
201907130600 AAXX 13064 67665 32980 01205 10120 20035 48577 70200
                   333 10247 20//0 58011
                   555 00///=
201907130300 AAXX 13034 67665 42980 01102 10072 20010 48555 70200
                   333 58012=
201907130000 AAXX 13004 67665 42980 01004 10083 20000 48553 70200
                   333 58011=
201907122100 AAXX 12214 67665 42980 01204 10105 20000 48563 70200
                   333 58004=
201907121800 AAXX 12184 67665 42980 01205 10156 21005 48563
                   333 10247 58001=
201907121200 AAXX 12124 67665 41980 00708 10243 20011 48563 70500
                   333 59002=
201907120900 AAXX 12094 67665 41980 00909 10189 20033 48582 70500
                   333 58000=
201907120600 AAXX 12064 67665 31959 01205 10118 20045 48567 70500
                   333 10259 20//0 59007
                   555 00///=
201907112100 AAXX 11214 67665 42980 01406 10120 20009 48561 70200
                   333 59002 91025=
201907111800 AAXX 11184 67665 42980 01205 10152 20026 48561 70200
                   333 10259 59001=
201907111500 AAXX 11154 67665 41959 01013 10238 20004 48559 70500
                   333 59004 555 10259=
201907111200 AAXX 11124 67665 41959 01015 10248 20021 48566 70500
                   333 59001=
201907110600 AAXX 11064 67665 31959 01107 10129 20082 48575 70500
                   333 10149 59003 91026=
201907101500 AAXX 10154 67665 41959 01012 10247 21012 48565 70500
                   333 59006 555 10268 91023=
201907101200 AAXX 10124 67665 41959 01111 10265 21014 48570 70500
                   333 59004 91023=
201907100600 AAXX 10064 67665 31959 01107 10117 20018 48576 70500
                   333 10270 20//0 58002=
201907100300 AAXX 10034 67665 42980 01303 10076 20020 48558
                   333 58006=
201907092100 AAXX 09214 67665 42980 01304 10100 20010 48570
                   333 58015=
201907091800 AAXX 09184 67665 42980 01505 10148 21010 48573
                   333 58016=
201907091500 AAXX 09154 67665 41959 01113 10245 20016 48571 70500
                   333 58011 91024=
201907090900 AAXX 09094 67665 42980 00812 10226 20029 48594 70200
                   333 58014 91027=
201907090300 AAXX 09034 67665 42980 02201 10089 20022 48553
                   333 58011=
201907082100 AAXX 08214 67665 42980 01903 10120 21008 48549
                   333 58005=
201907080600 AAXX 08064 67665 32980 00000 10129 20058 48561
                   333 10125 58003=
201907071800 AAXX 07184 67665 42980 01502 10174 20002 48555
                   333 58008=
201907071500 AAXX 07154 67665 42980 11505 10248 21014 48554 80001
                   333 58008 81080=
201907071200 AAXX 07124 67665 42980 11205 10257 20005 48561 80001
                   333 58008 81080=
201907070900 AAXX 07094 67665 42980 10908 10231 20037 48581 80001
                   333 58006 81080=
201907070300 AAXX 07034 67665 42980 01702 10082 20026 48541 70200
                   333 58011=
201907070000 AAXX 07004 67665 42980 00000 10102 20025 48541 70200
                   333 58006=
201907062100 AAXX 06214 67665 42980 01801 10128 20006 48545 70200
                   333 59001=
201907061800 AAXX 06184 67665 42980 01503 10165 20010 48548
                   333 10263 58002=
201907061500 AAXX 06154 67665 42980 01106 10241 20010 48545
                   333 58001=
201907060900 AAXX 06094 67665 42980 00709 10225 21008 48575
                   333 59004=
201907060600 AAXX 06064 67665 32980 01104 10120 20051 48551 70200
                   333 10256 20//0 59006
                   555 00/// 91023=
201907051800 AAXX 05184 67665 42980 01502 10164 20046 48544 70200
                   333 10256 59020=
201907051500 AAXX 05154 67665 41959 01207 10245 21021 48546 70500
                   333 59011 555 10256=
201907051200 AAXX 05124 67665 41659 11107 10245 20016 48554 70500 81100
                   333 59019 81840=
201907041800 AAXX 04184 67665 42980 11503 10170 20076 48565 70200 81030
                   333 10255 59005 81360 91024=
201907040900 AAXX 04094 67665 42680 20812 10217 20104 48593 70200 82500
                   333 58005 82630=
201907031800 AAXX 03184 67665 42980 31503 10176 20095 48571 70200 83030
                   333 58020 83360 91025=
201907030900 AAXX 03094 67665 42680 61017 10224 20134 48588 70322 86500
                   333 58018 86630 91026=
201907030600 AAXX 03064 67665 32580 51004 10142 20069 48563 70300 83530
                   333 10272 20//0 58011 83620 82360=
201907030300 AAXX 03034 67665 42980 00901 10136 20065 48543 70200
                   333 58003=
201907021800 AAXX 02184 67665 42980 11102 10183 20093 48552 81030
                   333 58008 81360=
201907021500 AAXX 02154 67665 42980 01308 10256 20053 48546
                   333 58004=
201907021200 AAXX 02124 67665 42680 10707 10263 20057 48572 81100
                   333 58000 81840=
201907020600 AAXX 02064 67665 32980 01902 10152 20109 48554 70200
                   333 10269 59008=
201907012100 AAXX 01214 67665 42980 01801 10146 20081 48549 70200
                   333 59015=
201907011800 AAXX 01184 67665 42980 00801 10180 20094 48544 70200
                   333 59019=
201907011500 AAXX 01154 67665 42980 01102 10257 20040 48542 70200
                   333 59021=
201907011200 AAXX 01124 67665 42980 03404 10253 20061 48551 70100
                   333 59015=
201907010900 AAXX 01094 67665 42680 10807 10222 20092 48579 81100
                   333 59012 81835=
201907010600 AAXX 01064 67665 32980 01403 10149 20094 48562 70200
                   333 10244 20//0 59016
                   555 00///=

################################################################################
#  SYNOPS from 67666, Lusaka City Airport (Zambia) | 15-25-00S | 028-28-00E | 1280 m
################################################################################
201907310600 AAXX 31064 67666 31970 01108 10174 20045 48541 70500
                   333 10260 20110 5//// 91021=
201907301200 AAXX 30124 67666 42980 10810 10250 20010 48534 70222 80001
                   333 59004 81080 91020=
201907291200 AAXX 29124 67666 42980 00910 10215 20040 48565
                   333 59014 91024=
201907290900 AAXX 29094 67666 NIL=
201907261200 AAXX 26124 67666 NIL=
201907260900 AAXX 26094 67666 NIL=
201907260600 AAXX 26064 67666 31975 01204 10134 20050 48571 70500
                   333 10253 20068 58001
                   555 00/// 947269 91025=
201907251200 AAXX 25124 67666 NIL=
201907250900 AAXX 25094 67666 NIL=
201907250600 AAXX 25064 67666 32975 00806 10155 20023 48564
                   333 10252 20101 58014
                   555 00/// 91024=
201907240900 AAXX 24094 67666 NIL=
201907230600 AAXX 23064 67666 31970 00908 10112 20058 48560 70500
                   333 10202 20060 59017 91024=
201907220900 AAXX 22094 67666 41578 61120 10172 20074 48592 70503 86800
                   333 58620 84825 91027=
201907190600 AAXX 19064 67666 31980 00000 10159 20020 48554 70500
                   333 10233 20090 58018 91024=
201907181200 AAXX 18124 67666 42980 10911 10228 20038 48563 81030
                   333 59010 81360 91023=
201907180900 AAXX 18094 67666 42980 20910 10200 20050 48588
                   333 58012 82360 91027=
201907180600 AAXX 18064 67666 31970 01209 10142 20060 48576 70500
                   333 10233 20110 58013 91026=
201907170900 AAXX 17094 67666 NIL=
201907150900 AAXX 15094 67666 42480 30512 10180 20085 48577 83200
                   333 58000 83812 91025=
201907150600 AAXX 15064 67666 31970 00912 10129 20082 48564 70500
                   333 10230 20114 59007
                   555 00/// 91025=
201907090600 AAXX 09064 67666 32975 01407 10165 20033 48565 70500
                   333 10253 20120 58011
                   555 00/// 91025=
201907081200 AAXX 08124 67666 42980 01806 10260 20025 48554
                   333 58011 91022=
201907050600 AAXX 05064 67666 31975 00908 10150 20095 48556 70500
                   333 10240 20120 59020 91023=
201907030600 AAXX 03064 67666 31470 50906 10169 20069 48564 70521 85530
                   333 10261 20160 58009 85618 83360 91024=

################################################################################
#  SYNOPS from 67667, Mount Makulu (Zambia) | 15-33S | 028-15E | 1213 m
################################################################################
201907310600 AAXX 31064 67667 31970 00902 10190 20035 48580 70500
                   333 10279 20123 59015
                   555 00///=
201907301200 AAXX 30124 67667 NIL=
201907291200 AAXX 29124 67667 41970 00903 10246 20051 48573 70500
                   333 5////=
201907290900 AAXX 29094 67667 41970 00902 10222 20070 48602 70500
                   333 5////=
201907290600 AAXX 29064 67667 31970 01401 10173 20060 48594 70500
                   333 10266 20040 59019
                   555 00///=
201907261200 AAXX 26124 67667 NIL=
201907260900 AAXX 26094 67667 NIL=
201907260600 AAXX 26064 67667 31970 01702 10134 20040 48612 70500
                   333 10272 20042 58009=
201907251200 AAXX 25124 67667 NIL=
201907250900 AAXX 25094 67667 41970 00906 10227 21020 48619 70500
                   333 58021=
201907250600 AAXX 25064 67667 31970 00901 10170 20032 48605 70500
                   333 10272 20041 58013=
201907240900 AAXX 24094 67667 41970 02203 10210 20041 48/// 70500
                   333 5////=
201907240600 AAXX 24064 67667 31970 01501 10155 20040 48/// 70500
                   333 10263 20014 5////=
201907230900 AAXX 23094 67667 41670 00905 10185 20069 48/// 70500
                   333 5////=
201907230600 AAXX 23064 67667 31970 03602 10130 20065 48/// 70500
                   333 10234 20045 5////=
201907190900 AAXX 19094 67667 41975 00902 10220 20055 48611 70500
                   333 59009=
201907190600 AAXX 19064 67667 31975 00903 10180 20072 48611 70500
                   333 10252 20060 59016=
201907181200 AAXX 18124 67667 NIL=
201907180600 AAXX 18064 67667 31975 00906 10164 20091 48621 70500
                   333 10256 20087 58014=
201907170900 AAXX 17094 67667 NIL=
201907170600 AAXX 17064 67667 31975 01205 10160 20090 48638 70500
                   333 10253 20115 58014=
201907160600 AAXX 16064 67667 32980 00908 10154 20100 48621 70500
                   333 10253 20100 58013=
201907151200 AAXX 15124 67667 41975 00903 10234 20105 48591 70500
                   333 5////=
201907150900 AAXX 15094 67667 41675 20907 10191 20108 48631 70500 82100
                   333 5//// 82830=
201907150600 AAXX 15064 67667 31980 00910 10146 20093 48602 70500
                   333 10248 20113 59008
                   555 00///=
201907111200 AAXX 11124 67667 41980 01802 10245 20098 48586 70500
                   333 59005=
201907100600 AAXX 10064 67667 31980 00801 10140 20066 48620 70500
                   333 10280 20060 59003
                   555 00///=
201907090600 AAXX 09064 67667 31975 00902 10170 20050 48614 70500
                   333 10294 20075 58011
                   555 00///=
201907081200 AAXX 08124 67667 42980 01201 10246 20040 48607
                   333 5////=
201907080600 AAXX 08064 67667 32980 03601 10150 20080 48603
                   333 10278 20042 58003=
201907060600 AAXX 06064 67667 32980 00902 10156 20048 48599
                   333 10267 20055 59005=
201907030600 AAXX 03064 67667 32680 30901 10168 20093 48603 83130
                   333 10288 20087 58010 83840 82359=

################################################################################
#  SYNOPS from 67673, Petauke (Zambia) | 14-15S | 031-17E | 1035 m
################################################################################
201907301200 AAXX 30124 67673 NIL=
201907290900 AAXX 29094 67673 41670 20803 10238 20091 48581 70500 82100
                   333 59020 82830=
201907290600 AAXX 29064 67673 31970 00602 10202 20100 48572 70500
                   333 10260 20112 59019=
201907261200 AAXX 26124 67673 41975 00903 10242 20058 48579 70500
                   333 59010=
201907260900 AAXX 26094 67673 41975 00507 10204 20080 48597 70500
                   333 58015=
201907260600 AAXX 26064 67673 31975 00902 10160 20090 48587 70500
                   333 10287 20100 58007
                   555 00///=
201907251200 AAXX 25124 67673 41959 10802 10274 48594 70500
                   333 58022=
201907250900 AAXX 25094 67673 41959 01503 10250 20040 48596 70500
                   333 58013=
201907250600 AAXX 25064 67673 31959 01801 10176 20092 48584 70500
                   333 10275 20085 58002=
201907240900 AAXX 24094 67673 NIL=
201907230900 AAXX 23094 67673 41975 00502 10210 20065 48588 70500
                   333 59003=
201907230600 AAXX 23064 67673 31975 00802 10168 20055 48581 70500
                   333 10272 20072 59004=
201907191200 AAXX 19124 67673 41959 11702 10268 20060 48547 70500 81030
                   333 59032 81360=
201907190900 AAXX 19094 67673 41975 31103 10246 20075 48592 70500 81130
                   333 58002 82835 81360=
201907190600 AAXX 19064 67673 31959 21702 10186 20105 48584 70500 82030
                   333 10260 20110 59015 82360=
201907181200 AAXX 18124 67673 NIL=
201907170900 AAXX 17094 67673 NIL=
201907150900 AAXX 15094 67673 NIL=
201907111200 AAXX 11124 67673 41975 01503 10246 20070 48563 70500
                   333 59022=
201907050600 AAXX 05064 67673 31975 00801 10176 20090 48565 70500
                   333 10260 20115 59018=

################################################################################
#  SYNOPS from 67731, Senanga (Zambia) | 16-06S | 023-16E | 1027 m
################################################################################
201907310600 AAXX 31064 67731 32980 025// 10148 20029 48/// 70200
                   333 10305 20075 59003
                   555 00032=
201907301200 AAXX 30124 67731 42980 016// 10278 20001 48///
                   333 59017=
201907290900 AAXX 29094 67731 42980 014// 10247 20119 48///
                   333 59001=
201907290600 AAXX 29064 67731 32980 012// 10124 20062 48///
                   333 10290 20091 5////
                   555 00043=
201907261200 AAXX 26124 67731 NIL=
201907260900 AAXX 26094 67731 NIL=
201907260600 AAXX 26064 67731 32980 010// 10150 20037 48///
                   333 10306 20072 59004
                   555 00031=
201907251200 AAXX 25124 67731 NIL=
201907250900 AAXX 25094 67731 NIL=
201907250600 AAXX 25064 67731 32980 012// 10139 20030 48/// 70200
                   333 01290 20063 58013
                   555 00026=
201907240900 AAXX 24094 67731 NIL=
201907240600 AAXX 24064 67731 32980 002// 10098 20035 48///
                   333 10313 20056 58005
                   555 00023=
201907231200 AAXX 23124 67731 52980 021// 10279 20084 48///
                   333 59012=
201907230900 AAXX 23094 67731 42980 001// 10229 20073 48///
                   333 59007=
201907190600 AAXX 19064 67731 32980 012// 10127 20072 48///
                   333 10308 20084 59007
                   555 00013=
201907181200 AAXX 18124 67731 NIL=
201907180600 AAXX 18064 67731 32980 012// 10129 20099 48///
                   333 10303 20069 59003
                   555 00031=
201907170900 AAXX 17094 67731 NIL=
201907150900 AAXX 15094 67731 NIL=
201907150600 AAXX 15064 67731 32980 012// 10168 20048 48///
                   333 10280 20073 58008
                   555 00029=
201907111200 AAXX 11124 67731 42980 021// 10280 20009 48///
                   333 59027=
201907090600 AAXX 09064 67731 32980 018// 10137 20078 48///
                   333 10268 20077 59002
                   555 00027=

################################################################################
#  SYNOPS from 67741, Sesheke (Zambia) | 17-28S | 024-18E | 949 m
################################################################################
201907310600 AAXX 31064 67741 32980 00000 10141 20//0 48///
                   333 10292 20021 5////
                   555 00///=
201907301200 AAXX 30124 67741 NIL=
201907290900 AAXX 29094 67741 NIL=
201907290600 AAXX 29064 67741 32980 00000 10121 20/// 48///
                   333 10271 20030 5////
                   555 00///=
201907261200 AAXX 26124 67741 NIL=
201907260900 AAXX 26094 67741 NIL=
201907260600 AAXX 26064 67741 32980 00000 10126 2//// 48///
                   333 10294 20023 5////=
201907251200 AAXX 25124 67741 NIL=
201907250900 AAXX 25094 67741 NIL=
201907250600 AAXX 25064 67741 32980 00000 10150 2//// 48///
                   333 10298 20029 5////=
201907240900 AAXX 24094 67741 NIL=
201907240600 AAXX 24064 67741 32980 00901 10121 2//// 48///
                   333 10288 20016 5////=
201907230600 AAXX 23064 67741 32980 00701 10172 2//// 48///
                   333 10274 20040 5////=
201907190600 AAXX 19064 67741 32980 00000 10120 2//// 48///
                   333 10272 20048 5////=
201907181200 AAXX 18124 67741 NIL=
201907180600 AAXX 18064 67741 32980 00000 10129 2//// 48///
                   333 10266 20030 5////=
201907170900 AAXX 17094 67741 NIL=
201907170600 AAXX 17064 67741 32980 00000 10126 2//// 48///
                   333 10268 20036 5////=
201907160600 AAXX 16064 67741 32980 00601 10166 2//// 48///
                   333 10266 20034 5////=
201907150900 AAXX 15094 67741 NIL=
201907100600 AAXX 10064 67741 32980 01201 10106 20//0 48///
                   333 10304 20036 5////
                   555 00///=
201907090600 AAXX 09064 67741 32980 01201 10137 20//0 48///
                   333 10300 20015 5////
                   555 00///=
201907080600 AAXX 08064 67741 32980 10000 10089 2//// 48/// 80001
                   333 10289 20003 5//// 81080=
201907050600 AAXX 05064 67741 32980 00000 10124 2//// 48///
                   333 10292 20059 5////=
201907030600 AAXX 03064 67741 32980 01501 10092 20//0 48///
                   333 10261 20020 5////=

################################################################################
#  SYNOPS from 67743, Livingstone (Zambia) | 17-49S | 025-49E | 985 m
################################################################################
201907301200 AAXX 30124 67743 NIL=
201907290900 AAXX 29094 67743 NIL=
201907261200 AAXX 26124 67743 NIL=
201907260900 AAXX 26094 67743 NIL=
201907260600 AAXX 26064 67743 32980 91005 10135 21029 48561 70200
                   333 10289 20062 59004 91024=
201907251200 AAXX 25124 67743 NIL=
201907250900 AAXX 25094 67743 NIL=
201907250600 AAXX 25064 67743 32980 02601 10124 21006 48553
                   333 10274 20059 58018 91024=
201907240900 AAXX 24094 67743 NIL=
201907240600 AAXX 24064 67743 32980 01502 10122 20040 48539
                   333 10275 20050 59010=
201907230600 AAXX 23064 67743 32880 01301 19113 29938 48546 70200
                   333 10261 20073 59026 91023=
201907190600 AAXX 19064 67743 32980 03103 10119 20006 48552 70200
                   333 10263 20052 59016 91024=
201907181200 AAXX 18124 67743 NIL=
201907180600 AAXX 18064 67743 32980 00000 10110 20047 48562 70200
                   333 10260 20066 59016 91026=
201907170900 AAXX 17094 67743 NIL=
201907150900 AAXX 15094 67743 NIL=

################################################################################
#  SYNOPS from 67751, Magoye (Zambia) | 16-00S | 027-36E | 1018 m
################################################################################
201907301200 AAXX 30124 67751 NIL=
201907290900 AAXX 29094 67751 NIL=
201907290600 AAXX 29064 67751 31978 00000 10119 20037 70500
                   333 10255 20001 5////
                   555 00///=
201907261200 AAXX 26124 67751 NIL=
201907260900 AAXX 26094 67751 NIL=
201907260600 AAXX 26064 67751 31980 00405 10175 20036 70500
                   333 10280 20006 59006
                   555 00///=
201907251200 AAXX 25124 67751 NIL=
201907250900 AAXX 25094 67751 NIL=
201907250600 AAXX 25064 67751 31980 01701 10151 20115 48/// 70500
                   333 10268 20006 5////=
201907240900 AAXX 24094 67751 NIL=
201907240600 AAXX 24064 67751 32980 01201 10135 20035 48///
                   333 10271 20000 5////=
201907230600 AAXX 23064 67751 32980 01201 10147 20060 48///
                   333 10270 20016 5////=
201907190600 AAXX 19064 67751 32980 01701 10145 20055 48///
                   333 10255 20004 58021=
201907181200 AAXX 18124 67751 NIL=
201907170900 AAXX 17094 67751 NIL=
201907170600 AAXX 17064 67751 32980 00903 10188 20075 48///
                   333 10254 20040 5////=
201907160600 AAXX 16064 67751 32980 01202 10156 20085 48///
                   333 10251 20024 5////=
201907150900 AAXX 15094 67751 NIL=
201907150600 AAXX 15064 67751 32980 00404 10175 20075 48///
                   333 10250 20002 5////
                   555 00///=
201907090600 AAXX 09064 67751 32980 00803 10207 20029
                   333 10270 20032 5////
                   555 00///=
201907050600 AAXX 05064 67751 32980 00802 10185 20100 48///
                   333 10276 20048 58019
                   555 00036=

################################################################################
#  SYNOPS from 67753, Choma (Zambia) | 16-50S | 027-04E | 1213 m
################################################################################
201907301200 AAXX 30124 67753 NIL=
201907290900 AAXX 29094 67753 NIL=
201907261200 AAXX 26124 67753 NIL=
201907260900 AAXX 26094 67753 NIL=
201907251200 AAXX 25124 67753 NIL=
201907250900 AAXX 25094 67753 NIL=
201907250600 AAXX 25064 67753 31980 00000 10096 20044 48530 70500
                   333 10256 20036 58019
                   555 00///=
201907240900 AAXX 24094 67753 NIL=
201907190600 AAXX 19064 67753 31980 00000 10119 20062 48551 70500
                   333 10230 20048 59023=
201907181200 AAXX 18124 67753 NIL=
201907180600 AAXX 18064 67753 31980 00000 10095 20071 48579 70500
                   333 10230 20046 5////=
201907170900 AAXX 17094 67753 NIL=
201907170600 AAXX 17064 67753 31980 00716 10155 20077 48/// 70500
                   333 10225 20096 5////=
201907150900 AAXX 15094 67753 NIL=
201907100600 AAXX 10064 67753 31980 00000 10091 20051 48567 70500
                   333 10263 20048 58005
                   555 00///=
201907090600 AAXX 09064 67753 31980 00000 10139 20039 48562 70500
                   333 10264 20054 58008
                   555 00///=
201907080600 AAXX 08064 67753 31980 00000 10125 20043 48561 70500
                   333 10260 20038 58005=
201907060600 AAXX 06064 67753 31980 00000 10145 20088 48544 70500
                   333 10250 20072 5////=
201907050600 AAXX 05064 67753 31980 00000 10111 20084 48/// 70500
                   333 10254 20064 5////=

################################################################################
#  SYNOPS from 67855, Lupaki (Zambia) | 17-03-00S | 024-46-00E | 1000 m
################################################################################
201907301200 AAXX 30124 67855 42975 01904 10266 21030 3//// 48///
                   333 5////=
201907291200 AAXX 29124 67855 42975 01903 10268 20025 3//// 48///
                   333 5////=
201907280600 AAXX 28064 67855 31970 01801 10090 20060 3//// 48/// 70500
                   333 20035 5////=
201907270600 AAXX 27064 67855 32975 01105 10106 20020 3//// 48///
                   333 20046 5////=
201907261200 AAXX 26124 67855 42975 01403 10276 20025 3//// 48///
                   333 5////=
201907251200 AAXX 25124 67855 42975 00602 10290 20010 3//// 48///
                   333 5////=
201907250600 AAXX 25064 67855 32975 00901 10082 21015 3//// 48///
                   333 20035 5////=
201907241200 AAXX 24124 67855 42975 01601 10270 20021 3//// 48///
                   333 5////=
201907231200 AAXX 23124 67855 NIL=
201907230600 AAXX 23064 67855 32975 00000 10066 20035 3//// 48///
                   333 20030 5////=
201907221200 AAXX 22124 67855 42975 03003 10238 20080 3//// 48///
                   333 5////=
201907220600 AAXX 22064 67855 32975 00903 10094 20068 3//// 48///
                   333 20049 5////=
201907201200 AAXX 20124 67855 42975 01808 10280 21025 3//// 48///
                   333 5////=
201907200600 AAXX 20064 67855 32975 00000 10058 21010 3//// 48///
                   333 20008 5////=
201907191200 AAXX 19124 67855 42975 01802 10270 20068 3//// 48///
                   333 5////=
201907190600 AAXX 19064 67855 32975 00000 10068 20005 3//// 48///
                   333 20024 5////=
201907170600 AAXX 17064 67855 32975 01801 10088 20020 3//// 48///
                   333 20045 5////=
201907160600 AAXX 16064 67855 32975 00000 10092 20010 3//// 48///
                   333 20065 5////=
201907151200 AAXX 15124 67855 42975 01604 10264 20038 3//// 48///
                   333 5////=
201907141200 AAXX 14124 67855 42975 00302 10272 20008 38/// 48///
                   333 5////=
201907140600 AAXX 14064 67855 32975 00302 10056 20010 3//// 48///
                   333 20020 5////=
201907121200 AAXX 12124 67855 42975 00607 10274 21018 38/// 48///
                   333 5////=
201907120600 AAXX 12064 67855 32975 00000 10082 21014 3//// 48///
                   333 20028 5////=
201907110600 AAXX 11064 67855 32975 01801 10082 20015 3//// 48///
                   333 20030 5////=
201907101200 AAXX 10124 67855 42975 00000 10268 20063 3//// 48///
                   333 5////=
201907100600 AAXX 10064 67855 32975 00000 10064 20025 3//// 48///
                   333 20026 5////=
201907091200 AAXX 09124 67855 42975 00701 10278 20035 3//// 48///
                   333 5////=
201907080600 AAXX 08064 67855 32975 31802 10040 21073 3//// 48/// 80001
                   333 21005 5//// 83080=
201907070600 AAXX 07064 67855 32975 00000 10066 21025 3//// 48///
                   333 20005 5////=
201907060600 AAXX 06064 67855 32975 00000 10074 21015 3//// 48///
                   333 20038 5////=
201907051200 AAXX 05124 67855 42975 01602 10274 20068 38/// 48///
                   333 5////=
201907041200 AAXX 04124 67855 42675 10301 10272 20068 3//// 48/// 81100
                   333 5//// 81840=
201907040600 AAXX 04064 67855 32975 01901 10080 20030 3//// 48///
                   333 20053 5////=
201907031200 AAXX 03124 67855 42975 00703 10274 20068 3//// 48///
                   333 5////=
201907030600 AAXX 03064 67855 31970 01703 10136 20012 38874 48584 70500
                   333 20087 58023=
201907021200 AAXX 02124 67855 42975 02203 10262 20008 3//// 48///
                   333 5////=
201907020600 AAXX 02064 67855 32975 00000 10086 21005 3//// 48///
                   333 20033 5////=
