################################################################################
# Query made at 04/17/2022 11:27:47 UTC
# Country like Zamb*
# Time interval: from 06/01/2008 05:30  to 07/01/2008 05:30  UTC
################################################################################

################################################################################
#  SYNOPS from 67413, Mbala (Zambia) | 08-51S | 031-20E | 1673 m
################################################################################
200806250600 AAXX 25064 67413 32980 01610 20070 48566
                   333 10245 20080 58006=
200806170600 AAXX 17064 67413 32980 01312 10160 20107 48559
                   333 10250 20104 58007=
200806030600 AAXX 03064 67413 32980 11211 10188 20134 48542 81030
                   333 10256 20113 59004 81360=

################################################################################
#  SYNOPS from 67441, Mwinilunga (Zambia) | 11-45S | 024-26E | 1361 m
################################################################################
200806260600 AAXX 26064 67441 31965 01507 10110 20049 48587 70500
                   333 10240 20//0 59003
                   555 00///=
200806250900 AAXX 25094 67441 41970 01120 10200 20044 48593 70500
                   333 58004=
200806250600 AAXX 25064 67441 31965 01504 10150 20063 48590 70500
                   333 10250 20055 58010=
200806200600 AAXX 20064 67441 31960 00000 10096 20064 48/// 70500
                   333 10250 20043 5////=
200806191200 AAXX 19124 67441 41980 01010 10242 20050 48551 70500
                   333 59006=
200806181200 AAXX 18124 67441 41675 52109 10260 20072 48557 70521 81130
                   333 58006 81840 85362=
200806161200 AAXX 16124 67441 41665 62707 10270 20074 48543 70522 85130
                   333 5//// 85840 82362=

################################################################################
#  SYNOPS from 67461, Mansa (Zambia) | 11-06S | 028-51E | 1382 m
################################################################################
200806250900 AAXX 25094 67461 41775 20808 10211 20029 48577 70500 82100
                   333 5//// 82850=
200806170600 AAXX 17064 67461 31970 30904 10155 20125 48545 70500 82031
                   333 10270 20120 58003 82360 82080=
200806060900 AAXX 06094 67461 41965 01007 10238 20033 70500
                   333 58005 91021=
200806060600 AAXX 06064 67461 31965 20905 10140 20075 48546 70500 80001
                   333 10270 20105 58002 82080 91021=
200806030600 AAXX 03064 67461 31970 01003 10155 20120 48537
                   333 10282 20135 59002=

################################################################################
#  SYNOPS from 67475, Kasama (Zambia) | 10-13S | 031-08E | 1382 m
################################################################################
200806250600 AAXX 25064 67475 31975 01508 10124 20057 48563 70500
                   333 10238 20088 5////=
200806200600 AAXX 20064 67475 31475 10311 10161 20106 48550 70500 81100
                   333 10243 20089 58004 81818=
200806181200 AAXX 18124 67475 42680 61510 10228 20087 48541 86100
                   333 58000 86845=
200806060600 AAXX 06064 67475 31975 01056 10180 20073 48549 70500
                   333 10262 20092 58002 91023=
200806030600 AAXX 03064 67475 31975 40608 10195 20130 48539 70521 80001
                   333 10277 20102 59003 84080=

################################################################################
#  SYNOPS from 67477, Mpika (Zambia) | 11-54S | 031-26E | 1400 m
################################################################################
200806250600 AAXX 25064 67477 32480 11210 10145 20094 48567 81130
                   333 10210 20042 58004 81818 81362=
200806200600 AAXX 20064 67477 32480 11006 10159 20107 48555 81100
                   333 10219 20099 59001 81818=
200806181200 AAXX 18124 67477 42680 31108 10215 20133 48551 83100
                   333 58009 83830=
200806060600 AAXX 06064 67477 32980 01266 10165 20102 48552
                   333 10239 20095 58002=

################################################################################
#  SYNOPS from 67531, Zambezi (Zambia) | 13-32S | 023-07E | 1077 m
################################################################################
200806260600 AAXX 26064 67531 31975 01507 10147 20063 48/// 70500
                   333 10252 20081 58007
                   555 00///=
200806250900 AAXX 25094 67531 41978 01212 10213 20042 48/// 70500
                   333 58005=
200806250600 AAXX 25064 67531 31978 01405 10128 20056 48/// 70500
                   333 10261 20064 58004=
200806200600 AAXX 20064 67531 31975 01205 10130 20080 70500
                   333 10270 20063 58007=
200806170600 AAXX 17064 67531 31960 11401 10132 20112 48/// 70500 81030
                   333 10291 20077 58000 81363=
200806061200 AAXX 06124 67531 42980 01402 10265 20066 48///
                   333 5////=
200806060900 AAXX 06094 67531 41975 01405 10246 20079 48/// 70500
                   333 58005=
200806060600 AAXX 06064 67531 31975 00000 10139 20085 48/// 70500
                   333 10255 20070 58003=
200806030600 AAXX 03064 67531 31975 10000 10155 20130 48/// 70500 81030
                   333 10290 20059 59005 81363=

################################################################################
#  SYNOPS from 67551, Solwezi (Zambia) | 12-11S | 026-23E | 1386 m
################################################################################
200806250600 AAXX 25064 67551 31960 01005 10087 20056 48560 70500
                   333 10237 20072 58006=
200806061200 AAXX 06124 67551 42980 00000 10254 20084 48536
                   333 58003=
200806030600 AAXX 03064 67551 31970 11003 10153 20107 48528 70500 80001
                   333 10270 20105 59001 81080=

################################################################################
#  SYNOPS from 67561, Ndola (Zambia) | 13-00S | 028-39E | 1269 m
################################################################################
200806300900 AAXX 30094 67561 41970 01209 10218 20019 48570 70500
                   333 58002=
200806300600 AAXX 30064 67561 31960 00000 10122 20049 48561 70500
                   333 10265 20056 58007=
200806270400 AAXX 27044 67561 41960 00000 10057 20045 48558 70500
                   333 58008=
200806260600 AAXX 26064 67561 31970 01411 10151 20046 48568 70500
                   333 10231 20109 59002=
200806250900 AAXX 25094 67561 41670 71014 10194 20042 48580 70511 87200
                   333 58006 87840=
200806250600 AAXX 25064 67561 31970 61106 10142 20069 48569 70511 86030
                   333 10246 20087 58007 86360=
200806250400 AAXX 25044 67561 41975 10101 20061 48557 70511 86030
                   333 58005 86360=
200806241200 AAXX 24124 67561 41975 30808 10235 20048 48/// 70500 83100
                   333 58009 83858=
200806231200 AAXX 23124 67561 42980 01008 10237 20042 48576
                   333 58022=
200806200600 AAXX 20064 67561 31970 50000 10138 20102 48542 70511 85030
                   333 10226 20081 59008 85360=
200806191200 AAXX 19124 67561 42780 70808 10210 20076 48536 87400
                   333 87650=
200806181200 AAXX 18124 67561 41775 61511 10244 20054 48550 70511 86200
                   333 58011 86850=
200806170600 AAXX 17064 67561 31970 70604 10143 20101 48553 70522 87030
                   333 10270 20105 58006 87361=
200806160600 AAXX 16064 67561 32980 40505 10140 20111 48544 84030
                   333 10277 20099 59004 84360=
200806100600 AAXX 10064 67561 32980 00707 10146 20093 48580
                   333 10247 20080 58023=
200806091200 AAXX 09124 67561 41970 01207 10243 20022 48553 70500
                   333 58023=
200806061200 AAXX 06124 67561 41775 10705 10260 20063 48537 70500
                   333 58003 81850=
200806060900 AAXX 06094 67561 41975 01109 10241 20047 48559 70500
                   333 58003 555 91023=
200806060600 AAXX 06064 67561 31956 00000 10141 20095 48550 70400
                   333 10265 20055 58008
                   555 00/// 91023=
200806060400 AAXX 06044 67561 41956 00000 10057 20055 48533 70400
                   333 58009=
200806050600 AAXX 05064 67561 31975 00000 10175 20036 48545 70500
                   333 10281 20091 58005=
200806041500 AAXX 04154 67561 41970 72003 10245 20074 48527 70522 87060
                   333 58003 87359=
200806041200 AAXX 04124 67561 41675 52205 10265 20073 48526 70511 85200
                   333 59004 85840=
200806030900 AAXX 03094 67561 42680 20908 10249 20098 48552 82100
                   333 58003 82830=
200806030600 AAXX 03064 67561 31960 00000 10164 20106 48542 70500
                   333 10281 20093 58001=
200806030400 AAXX 03044 67561 41956 00000 10099 20088 48525 70400
                   333 59005=

################################################################################
#  SYNOPS from 67563, Kafironda (Zambia) | 12-36S | 028-07E | 1243 m
################################################################################
200806200600 AAXX 20064 67563 31970 50902 10125 20090 48/// 70522 85030
                   333 10225 20030 59004 85358=
200806170600 AAXX 17064 67563 31975 10604 10180 20100 48/// 70500 81030
                   333 10274 20082 58016 81358=
200806161200 AAXX 16124 67563 41675 40403 10251 20120 48/// 70500 84100
                   333 58005 84842=
200806030600 AAXX 03064 67563 31960 00000 10143 20110 48/// 70500
                   333 10295 20054 59011=

################################################################################
#  SYNOPS from 67571, Serenje (Zambia) | 13-14S | 030-13E | 1384 m
################################################################################
200806250600 AAXX 25064 67571 31975 00905 10135 20074 48568 70500
                   333 10222 20060 58007=
200806200600 AAXX 20064 67571 32984 00908 10160 20096 48539
                   333 10195 20115 59012=
200806161200 AAXX 16124 67571 42784 61207 10225 20094 48533 86100
                   333 58004 86856=
200806060900 AAXX 06094 67571 42980 00608 10221 20099 48553 70500
                   333 58002=

################################################################################
#  SYNOPS from 67580, Msekera (Zambia) | 13-39S | 032-34E | 1025 m
################################################################################
200806260600 AAXX 26064 67580 31980 01206 10175 20085 48/// 70500
                   333 10255 20101 58003=
200806250900 AAXX 25094 67580 42680 61208 10219 20073 48/// 85130
                   333 58008 85830 81362=
200806250600 AAXX 25064 67580 32980 70000 10170 20105 48/// 8703/
                   333 10257 20139 58006 87361=
200806241200 AAXX 24124 67580 42680 51209 10246 20064 48/// 85100
                   333 5//// 83845=
200806200600 AAXX 20064 67580 12980 73004 10178 20119 48/// 69904 8703/
                   333 10228 20153 59003 87360=
200806170600 AAXX 17064 67580 32980 01602 10204 20101 48///
                   333 10278 20132 58007=
200806161200 AAXX 16124 67580 42680 50907 10268 20099 48/// 85100
                   333 5//// 85845=
200806060900 AAXX 06094 67580 41980 01210 10247 20085 48/// 70500
                   333 58005=
200806030600 AAXX 03064 67580 32980 01605 10183 20104
                   333 10288 20125 58000=

################################################################################
#  SYNOPS from 67581, Chipata (Zambia) | 13-33S | 032-35E | 1028 m
################################################################################
200806241500 AAXX 24154 67581 42980 01008 10204 20052 48573
                   333 58008 555 91025=
200806241200 AAXX 24124 67581 42982 50907 10232 20045 48568 85050
                   333 58009 85360=
200806231200 AAXX 23124 67581 42684 60806 10249 20072 48563 86030
                   333 5//// 86359=
200806200600 AAXX 20064 67581 12982 60806 10195 20108 48562 69904 86030
                   333 10222 59001 86361=
200806170600 AAXX 17064 67581 32982 00908 10206 20087 48572
                   333 10275 20150 58008=
200806161200 AAXX 16124 67581 42682 50806 10262 20071 48556 85100
                   333 59007 85845=
200806160600 AAXX 16064 67581 32982 00909 10205 20150 48564
                   333 10260 20162 59007=
200806110900 AAXX 11094 67581 42682 70906 10196 20091 48587 8213/
                   333 59013 82830 87360=
200806101200 AAXX 10124 67581 42782 30906 10244 20056 48586 83100
                   333 58015 83856=
200806100600 AAXX 10064 67581 32682 11008 10167 20096 48599 81130
                   333 10250 20136 58025 81830 81362=
200806091200 AAXX 09124 67581 42982 10907 10245 20058 48572 81030
                   333 58020 81362=
200806061200 AAXX 06124 67581 42880 11004 10261 20088 48547 81100
                   333 58007 81858=
200806060900 AAXX 06094 67581 42984 01008 10251 20038 48570
                   333 58005 91022=
200806060600 AAXX 06064 67581 32984 01005 10200 20068 48562
                   333 10266 20109 58005 91027=
200806050600 AAXX 05064 67581 32984 00000 10190 20100 48536
                   333 10275 20120 58000=
200806041200 AAXX 04124 67581 42784 12106 10255 20072 48538 81100
                   333 59004 81856=
200806040600 AAXX 04064 67581 32980 00000 10185 20090 48554
                   333 10274 20107 58003=
200806030900 AAXX 03094 67581 42684 32005 10251 20096 48562 83100
                   333 58000 83840=
200806030600 AAXX 03064 67581 32984 01702 10215 20090 48557
                   333 10282 20150 58000=

################################################################################
#  SYNOPS from 67583, Lundazi (Zambia) | 12-17S | 033-12E | 1143 m
################################################################################
200806260600 AAXX 26064 67583 32983 01607 10161 20137 48///
                   333 10211 20070 58004=
200806250600 AAXX 25064 67583 32980 21509 10168 20108 48/// 82030
                   333 10205 20091 58007 82360=
200806241200 AAXX 24124 67583 42680 51503 10218 20129 48/// 70500 81100
                   333 5//// 85845=
200806200600 AAXX 20064 67583 31980 11204 10182 20132 81030
                   333 10220 20090 58006 81360=
200806170600 AAXX 17064 67583 32680 10905 10189 20120 48/// 81100
                   333 10250 20095 58005 81830=
200806061200 AAXX 06124 67583 42680 11502 10255 20063 48///
                   333 81100 555 58007 81850=
200806030600 AAXX 03064 67583 32980 01204 10190 20131
                   333 10250 20100 59002=

################################################################################
#  SYNOPS from 67599, Mfuwe (Zambia) | 13-16S | 031-56E | 568 m
################################################################################
200806301500 AAXX 30154 67599 41980 00000 10255 20077 48568 70422
                   333 58006=
200806260600 AAXX 26064 67599 32980 00000 10150 20096 48578
                   333 10260 20//0 58008=
200806250900 AAXX 25094 67599 42580 41210 10270 20104 48542 82130
                   333 58011 82825 83360=
200806241200 AAXX 24124 67599 42980 40804 10185 20088 48586 84030
                   333 58002 84360=
200806231500 AAXX 23154 67599 42980 60000 10270 20102 48575 86030
                   333 58016 86360=
200806200600 AAXX 20064 67599 12980 40000 10174 20134 48565 69904 70100 84030
                   333 10265 20//0 59001 84360=
200806191500 AAXX 19154 67599 42980 80000 10238 20154 48562 8803/
                   333 59007 88360 555 10265 91020=
200806181500 AAXX 18154 67599 42980 71203 10270 20112 48579 8207/
                   333 58012 87360=
200806181200 AAXX 18124 67599 42680 71205 10280 20115 48582 8197/
                   333 58012 84847 86360=
200806180600 AAXX 18061 67599 42680 71205 10280 20115 48582 8197/
                   333 58012 84847 86360=
200806170600 AAXX 17064 67599 32980 00000 10170 20119 48571
                   333 10320 20/// 58004=
200806160600 AAXX 16064 67599 32980 00000 10176 20124 48567
                   333 10314 20/// 59004=
200806110900 AAXX 11094 67599 42680 81305 10250 20095 48612 83230
                   333 59012 83830 84360=
200806101200 AAXX 10124 67599 42680 41010 10284 20104 48622 84130
                   333 58012 84840 81360=
200806061200 AAXX 06124 67599 42780 20000 10305 20096 48568 82100
                   333 58003 82850=
200806050600 AAXX 05064 67599 31975 00000 10160 20116 48554 70500
                   333 10315 20/// 58001=
200806041500 AAXX 04154 67599 42980 00000 10285 20144 48555
                   333 59002=
200806041200 AAXX 04124 67599 42780 12704 10300 20110 48564 81100
                   333 59004 81856=
200806030900 AAXX 03094 67599 42980 02405 10255 20124 48579
                   333 58010=
200806030600 AAXX 03064 67599 32980 00000 10172 20120 48548
                   333 10325 20//0 58001=
200806021200 AAXX 02124 67599 42880 51705 10315 20144 48558 85200
                   333 58011 85857=

################################################################################
#  SYNOPS from 67625, Kalabo (Zambia) | 14-51S | 022-42E | 1033 m
################################################################################
200806260600 AAXX 26064 67625 31975 01413 10116 20068 48/// 70500
                   333 10250 20064 58007=

################################################################################
#  SYNOPS from 67633, Mongu (Zambia) | 15-15S | 023-09E | 1052 m
################################################################################
200806260600 AAXX 26064 67633 31980 00905 10125 20002 48569 70500
                   333 10263 20075 59002=
200806250600 AAXX 25064 67633 31980 01202 10106 20070 48558 70500
                   333 10273 20066 58007=
200806231200 AAXX 23124 67633 41980 01304 10266 20052 48562 70500
                   333 58018=
200806200600 AAXX 20064 67633 31980 10104 20134 48532 70500 80001
                   333 10275 20109 58006 81080=
200806191200 AAXX 19124 67633 41980 00803 10265 20054 48551 70500
                   333 58011=
200806181200 AAXX 18124 67633 41980 50904 10280 20092 48542 70522 85030
                   333 58004 85361=
200806170600 AAXX 17064 67633 31980 60802 10107 20100 48538 70522 86030
                   333 10288 20127 58006 86360=
200806061200 AAXX 06124 67633 42980 00000 10275 20071 48542
                   333 59004=
200806060900 AAXX 06094 67633 41980 00096 10254 20057 48570 70500
                   333 59004 91023=
200806060600 AAXX 06064 67633 31980 01714 10133 20038 48547 70500
                   333 10292 20081 58007 91023=

################################################################################
#  SYNOPS from 67641, Kaoma (Zambia) | 14-48S | 024-48E | 1213 m
################################################################################
200806120600 AAXX 12064 67641 32980 00107 10150 20080 40206 52008
                   333 20122 50//0 55///
                   555 10000=

################################################################################
#  SYNOPS from 67655, Mumbwa (Zambia) | 15-04S | 027-11E | 1216 m
################################################################################
200806170600 AAXX 17064 67655 32780 30907 10150 20112 48561 83030
                   333 10252 20120 58003 83357=

################################################################################
#  SYNOPS from 67665, Lusaka Internationalairport (Zambia) | 15-19S | 028-27E | 1152 m
################################################################################
200806301800 AAXX 30184 67665 42980 00000 10112 20//0 48565
                   333 10//0 58004=
200806301500 AAXX 30154 67665 42980 00805 10201 20072 48559
                   333 58003=
200806301200 AAXX 30124 67665 42980 01008 10213 20032 48567
                   333 58002=
200806300900 AAXX 30094 67665 42980 00812 10186 20033 48593
                   333 58007=
200806300600 AAXX 30064 67665 32980 01204 10093 20054 48569
                   333 10247 20062 58002=
200806291800 AAXX 29184 67665 42980 00000 10122 20108 48563
                   333 59003=
200806291200 AAXX 29124 67665 42980 01107 10231 20050 48568
                   333 58001=
200806290900 AAXX 29094 67665 42980 01009 10201 20056 48587
                   333 59004=
200806290600 AAXX 29064 67665 32980 01603 10106 20053 48570
                   333 10240 20061 59003=
200806281800 AAXX 28184 67665 42980 01203 10121 20107 48565
                   333 59005=
200806281500 AAXX 28154 67665 4980 21311 10236 20040 48557 82030
                   333 59012 82360 555 10252=
200806281200 AAXX 28124 67665 42980 01108 10225 20042 48567
                   333 59012 91024=
200806280900 AAXX 28094 67665 42980 00709 10195 20056 48591
                   333 59011=
200806280600 AAXX 28064 67665 32980 01203 10110 20064 48572
                   333 10234 20065 59012=
200806280400 AAXX 28044 67665 42980 01504 10067 20//0 48557
                   333 59010=
200806280300 AAXX 28034 67665 42980 01004 10066 20//0 48551
                   333 59014=
200806271500 AAXX 27154 67665 42980 00907 10205 20050 48569
                   333 59001=
200806271200 AAXX 27124 67665 41980 00907 10211 20050 48576 70400
                   333 59009=
200806270400 AAXX 27044 67665 42980 00000 10058 20//0 48564
                   333 58000=
200806270300 AAXX 27034 67665 42980 00000 10061 20//0 48562
                   333 58002=
200806270000 AAXX 27004 67665 42980 00000 10073 20//0 48563
                   333 59004=
200806262100 AAXX 26214 67665 42980 01202 10115 20//0 48576
                   333 59004=
200806261800 AAXX 26184 67665 42980 11202 10135 20//0 48586 81030
                   333 10194 59001 81360=
200806261200 AAXX 26124 67665 42780 71108 10188 20060 48582 87400
                   333 58002 87650 91026=
200806260600 AAXX 26064 67665 32980 60000 10119 20079 48583 86030
                   333 10229 20082 58004 86360=
200806260400 AAXX 26044 67665 42980 21603 10088 20//0 48569 82030
                   333 58002 82359=
200806260300 AAXX 26034 67665 42980 21503 10087 20//0 48565 82030
                   333 58000 82359=
200806250900 AAXX 25094 67665 42680 61013 10200 20030 48598 86100
                   333 58006 86830=
200806250600 AAXX 25064 67665 32980 00703 10110 20074 48508
                   333 10237 20075 58007=
200806241800 AAXX 24184 67665 42980 10905 10128 20//0 48572 81030
                   333 10237 58011 81360=
200806241200 AAXX 24124 67665 42680 31009 10223 20084 48580 83100
                   333 58008 83845=
200806240900 AAXX 24094 67665 42580 30814 10202 20047 48592 83200
                   333 58003 83820=
200806240600 AAXX 24064 67665 32980 01403 10107 20035 48573
                   333 10249 20073 58001=
200806231800 AAXX 23184 67665 42980 00000 10147 20//0 48566
                   333 10249 58010=
200806231500 AAXX 23154 67665 42980 01105 10222 20045 48566
                   333 58021=
200806231200 AAXX 23124 67665 42980 01008 10237 20042 48576
                   333 58022=
200806230600 AAXX 23064 67665 32980 01302 10141 20056 48576 70200
                   333 10255 20084 58025=
200806221200 AAXX 22124 67665 42580 40603 10240 20082 48554 84200
                   333 58009 84827=
200806220900 AAXX 22094 67665 42580 20710 10220 20075 48570 58008 81815=
200806220600 AAXX 22064 67665 32980 21304 10134 20094 48552 82030
                   333 10276 20095 58003 82360=
200806211200 AAXX 21124 67665 42680 50303 10231 20085 48544 85200
                   333 59006 85935=
200806210600 AAXX 21064 67665 32980 71203 10150 20108 48551 87030
                   333 10237 20115 59009 87360=
200806210400 AAXX 21044 67665 42980 71303 10141 20//0 48541 8703/
                   333 59006 87360=
200806210300 AAXX 21034 67665 42980 71603 10145 20//0 48538 8703/
                   333 59005 87360=
200806202100 AAXX 20214 67665 42980 21303 10122 20//0 48547 82030
                   333 59007 82360=
200806201200 AAXX 20124 67665 42680 50806 10218 20090 48549 85230
                   333 59011 85840 83360=
200806200400 AAXX 20044 67665 42980 71403 10113 20//0 48543 87030
                   333 59011 87360=
200806200300 AAXX 20034 67665 42980 71502 10107 20//0 48539 87030
                   333 59010 87360=
200806200000 AAXX 20004 67665 42980 60000 10102 20//0 48536 86030
                   333 59016 86360=
200806192100 AAXX 19214 67665 42980 70000 10128 20//0 48556 87030
                   333 59015 87360=
200806191200 AAXX 19124 67665 42680 70608 10202 20078 48556 86230
                   333 59016 86840 82360 91023=
200806190900 AAXX 19094 67665 42680 70808 10195 20102 48580 82130
                   333 59022 82825 85359 91025=
200806190600 AAXX 19064 67665 32980 31204 10120 20100 48564 83030
                   333 10232 20094 59016 83359
                   555 00/// 91025=
200806181800 AAXX 18184 67665 42980 11102 10131 20118 48565 81030
                   333 58007 81360=
200806181500 AAXX 18154 67665 42780 50805 10196 20098 48565 84230
                   333 58019 84857 84360=
200806181200 AAXX 18124 67665 42680 60806 10209 20095 48573 86230
                   333 58015 86840 83360=
200806180900 AAXX 18094 67665 42680 50811 10185 20099 48557 81130
                   333 58024 81825 91028=
200806180400 AAXX 18044 67665 42980 15004 10099 20//0 48563 81030
                   333 58021 81359=
200806180300 AAXX 18034 67665 42980 01403 10101 20//0 48560
                   333 58022=
200806171800 AAXX 17184 67665 42980 31204 10150 20//0 48562 83030
                   333 10251 58011 83360=
200806171200 AAXX 17124 67665 42680 40709 10243 20103 48563 81130
                   333 58016 81842 84360=
200806170900 AAXX 17094 67665 42980 10608 10219 20102 48579 80001
                   333 58013 81080=
200806170600 AAXX 17064 67665 32980 11004 10149 20096 48564 81030
                   333 10260 20095 58008 81360=
200806161500 AAXX 16154 67665 42780 31104 10228 20132 48548 83130
                   333 58001 83850 82360=
200806161200 AAXX 16124 67665 42680 50908 10254 20107 48549 84130
                   333 59007 84835 81360=
200806160900 AAXX 16094 67665 42980 60610 10218 20121 48567 86030
                   333 59013 86360=
200806160600 AAXX 16064 67665 32980 71105 10146 20118 48555 87030
                   333 10232 20123 59012 87359=
200806151500 AAXX 15154 67665 42980 61005 10202 20092 48543 86030
                   333 59021 86360=
200806151200 AAXX 15124 67665 42680 51006 10217 20114 48551 84230
                   333 59019 84835 82360=
200806150900 AAXX 15094 67665 42580 40811 10192 20118 48577 84500
                   333 59014 84620=
200806150600 AAXX 15064 67665 32980 11105 10130 20111 48564 81030
                   333 59014 81360=
200806150300 AAXX 15034 67665 42980 20905 10097 20//0 48545
                   333 59016=
200806141200 AAXX 14124 67665 42580 71009 10192 20105 48566 87800
                   333 58013 84628 83830 91024=
200806140900 AAXX 14094 67665 42580 60809 10176 20124 48587 86800
                   333 58004 83620 85822=
200806140600 AAXX 14064 67665 32480 51005 10128 20095 48577 84530
                   333 10232 20069 58003 84610 81360=
200806131200 AAXX 13124 67665 42680 10711 10224 20058 48557 81100
                   333 59009 81840 91023=
200806130900 AAXX 13094 67665 42680 10804 20056 48583 70200 81100
                   333 59001 81825=
200806130400 AAXX 13044 67665 42980 00000 10055 20//0 48554
                   333 59004=
200806130000 AAXX 13004 67665 42980 00000 10074 20//0 48556
                   333 58000=
200806122100 AAXX 12214 67665 42980 00000 10085 20//0 48565
                   333 59006=
200806121800 AAXX 12184 67665 42980 01206 10114 20//0 48564
                   333 10220 59011=
200806121500 AAXX 12154 67665 42980 01108 10202 20065 48561
                   333 59020 555 10220 91023=
200806121200 AAXX 12124 67665 42680 10709 10200 20070 48563 81100
                   333 59009 81835 555 91024=
200806120600 AAXX 12064 67665 32980 01204 10104 20067 48571 70200
                   333 10192 20050 59008=
200806120400 AAXX 12044 67665 42980 01504 10054 20//0 48559
                   333 59009=
200806120300 AAXX 12034 67665 42980 11405 10059 20//0 48555 81030
                   333 59010 81358=
200806112100 AAXX 11214 67665 42980 61103 10103 20//0 48572 86030
                   333 59014 86360=
200806111800 AAXX 11184 67665 42980 71204 10134 20//0 48577 8703/
                   333 5//// 87359 555 10192=
200806111200 AAXX 11124 67665 42680 80808 10187 20092 48575 88800
                   333 59020 86640 85842=
200806110900 AAXX 11094 67665 42580 70807 10170 20096 48593 87500
                   333 59009 87630=
200806110600 AAXX 11064 67665 32980 50000 10175 20133 48590 85030
                   333 10299 20/// 59010 85360=
200806101500 AAXX 10154 67665 42680 71006 10185 20096 48594 87100
                   333 58017 87845=
200806101200 AAXX 10124 67665 42680 70811 10204 20081 48597 87500
                   333 58019 87630=
200806100900 AAXX 10094 67665 42580 50815 10192 20086 48610 85500
                   333 58018 85620=
200806100600 AAXX 10064 67665 32480 10915 10145 20090 48597 81130
                   333 10240 20067 58018 81810 81030=
200806091800 AAXX 09184 67665 42980 01105 10133 20//0 48584
                   333 10240 58034=
200806091500 AAXX 09154 67665 42980 09010 10197 20048 48580
                   333 58036=
200806091200 AAXX 09124 67665 42980 00910 10212 20050 48580
                   333 58035=
200806090900 AAXX 09094 67665 42980 00812 10193 20105 48593
                   333 58033=
200806090600 AAXX 09064 67665 32980 00904 10116 20090 48573
                   333 10255 20076 58027=
200806090400 AAXX 09044 67665 42980 01205 10068 20//0 48554
                   333 58023=
200806090300 AAXX 09034 67665 42980 01206 10073 20//0 48546
                   333 58018=
200806081200 AAXX 08124 67665 42980 01006 10240 20066 48550
                   333 58003=
200806080600 AAXX 08064 67665 32980 01203 10131 20100 48555
                   333 10258 20103 59003=
200806071200 AAXX 07124 67665 42680 11207 10243 20097 48547 81100
                   333 59007 81845=
200806070900 AAXX 07094 67665 42980 11005 10215 20103 48565 80001
                   333 59009 81080=
200806070600 AAXX 07064 67665 31975 00000 10130 20102 48553 70500
                   333 10260 20095 59004
                   555 00/// 91023=
200806070400 AAXX 07044 67665 42980 01404 10100 20//0 48539
                   333 59003=
200806070300 AAXX 07034 67665 42980 00000 10101 20//0 48535
                   333 59003=
200806062100 AAXX 06214 67665 42980 01703 10120 20//0 48546
                   333 58000=
200806061200 AAXX 06124 67665 42680 20907 10246 20092 48555 82100
                   333 58003 82845=
200806060900 AAXX 06094 67665 41980 00607 10217 20102 48575 58013 70500
                   555 91025=
200806060600 AAXX 06064 67665 31980 01102 10130 20084 48556 70500
                   333 10270 20086 58007
                   555 00/// 91024=
200806060400 AAXX 06044 67665 42980 00000 10090 20//0 48541
                   333 58005=
200806060300 AAXX 06034 67665 42980 00000 10088 20//0 48537
                   333 58006=
200806060000 AAXX 06004 67665 42980 00000 10097 20//0 48538
                   333 58004=
200806051800 AAXX 05184 67665 42980 10000 10151 20//0 48549 81030
                   333 10270 58002 81360=
200806050900 AAXX 05094 67665 42980 00809 10225 20076 48573
                   333 58009=
200806050600 AAXX 05064 67665 31975 00000 10136 20080 48551 70500
                   333 10271 20085 58002=
200806041800 AAXX 04184 67665 42980 00000 10144 20//0 48547
                   333 10271 59001=
200806041500 AAXX 04154 67665 42980 11505 10237 20072 48544 81030
                   333 58003 81359=
200806041200 AAXX 04124 67665 42980 01205 10249 20081 48545
                   333 59008=
200806040900 AAXX 04094 67665 42980 00814 10215 20058 48562
                   333 59010=
200806040600 AAXX 04064 67665 32980 00000 10120 20066 48546
                   333 10255 20080 59007=
200806031500 AAXX 03154 67665 42980 00604 10229 20090 48540
                   333 58005=
200806031200 AAXX 03124 67665 42680 11006 10241 20102 48549 81100
                   333 58012 81848=
200806030900 AAXX 03094 67665 42980 00805 10212 20107 48571
                   333 58009=
200806030600 AAXX 03064 67665 32980 01404 10140 20098 48556
                   333 10265 20101 58004=
200806021800 AAXX 02184 67665 42980 00000 10152 20//0 48538
                   333 10265 58002=
200806021500 AAXX 02154 67665 42980 01005 10246 20083 48538
                   333 58006=
200806021200 AAXX 02124 67665 42980 00808 10255 20077 48542
                   333 58009=
200806020600 AAXX 02064 67665 32980 01402 10147 20112 48552 72844
                   333 10268 20100 58010=
200806011200 AAXX 01124 67665 42780 10408 10262 20079 48533 81100
                   333 59005 81850=
200806010600 AAXX 01064 67665 32980 01702 10159 20073 48544 70200
                   333 10265 20098 59001=

################################################################################
#  SYNOPS from 67666, Lusaka City Airport (Zambia) | 15-25S | 028-19E | 1280 m
################################################################################
200806260600 AAXX 26064 67666 32980 71008 10135 20080 48577 8703/
                   333 10215 20098 58006 87360=
200806250900 AAXX 25094 67666 42580 30911 10190 20055 48586 83100
                   333 58007 83825=
200806250600 AAXX 25064 67666 32980 10913 10145 20090 48573 80001
                   333 10220 20095 58004 81080=
200806241200 AAXX 24124 67666 42780 30910 10212 20045 48564 83100
                   333 59015 83856=
200806200600 AAXX 20064 67666 32980 71004 10145 20090 48550 8703/
                   333 10206 20100 59006 87361=
200806181200 AAXX 1812/ 67666 42680 61210 10206 20088 48564 86230
                   333 58013 85840 81360=
200806180600 AAXX 18061 67666 42680 61210 10206 20088 48564 86230
                   333 58013 85840 81360=
200806170600 AAXX 17064 67666 32980 10711 20089 48552 81030
                   333 10236 20135 58003 81360=
200806161200 AAXX 16124 67666 42680 50709 10235 20096 48540 82130
                   333 58006 82840 83360=
200806061200 AAXX 06124 67666 42580 31006 10236 20127 47556 83100
                   333 58015 82825=
200806030600 AAXX 03064 67666 32980 00907 10165 20092 48553
                   333 10250 20125 59006=

################################################################################
#  SYNOPS from 67673, Petauke (Zambia) | 14-15S | 031-17E | 1035 m
################################################################################
200806250600 AAXX 25064 67673 31975 10908 10180 20122 48594 70500 81030
                   333 10245 20124 58009 81360=
200806241200 AAXX 24124 67673 42780 30906 10245 20100 48578 83100
                   333 58004 83850=
200806200600 AAXX 20064 67673 32980 70904 10191 20111 48570 87030
                   333 10221 20144 59002 87362=
200806181200 AAXX 1812/ 67673 42680 70906 10226 20091 48578 84230
                   333 58016 84840 87360=
200806180600 AAXX 18061 67673 42680 70906 10226 20091 48578 84230
                   333 58016 84840 87360=
200806170600 AAXX 17064 67673 31575 10905 10204 20089 48582 70500 81100
                   333 10280 20126 58008 81825=
200806030600 AAXX 03064 67673 32980 11407 10184 20100 48552 81030
                   333 10282 20124 59006 81362=

################################################################################
#  SYNOPS from 67741, Sesheke (Zambia) | 17-28S | 024-18E | 949 m
################################################################################
200806260600 AAXX 26064 67741 32980 00000 10074 20061 48569
                   333 10251 20035 58006=
200806030600 AAXX 03064 67741 32980 70803 10119 20095 48531 87030
                   333 10284 20073 58000 87362=

################################################################################
#  SYNOPS from 67743, Livingstone (Zambia) | 17-49S | 025-49E | 985 m
################################################################################
200806301500 AAXX 30154 67743 42980 01105 10250 21021 48561
                   333 59003=
200806300600 AAXX 30064 67743 31980 00604 10117 20016 48566 70500
                   333 20062 59001=
200806260600 AAXX 26064 67743 31975 20000 10104 20060 48579 70500 82030
                   333 58004 82360=
200806250900 AAXX 25094 67743 42975 00711 10210 20060 48501
                   333 58009=
200806250600 AAXX 25064 67743 32980 00802 10106 20041 48581
                   333 10260 20070 58007=
200806231500 AAXX 23154 67743 41970 01210 10250 20030 48570 70508
                   333 58020=
200806231200 AAXX 23124 67743 41770 11310 10265 20021 48579 70500 81100
                   333 58021 81856=
200806230600 AAXX 23064 67743 32980 00705 10150 20057 48569
                   333 10273 20091 58028=
200806191200 AAXX 19124 67743 42780 20712 10250 20055 48555 82100
                   333 59012 82856=
200806181500 AAXX 18154 67743 42780 30812 10240 20054 48559 81031
                   333 58011 81360 82080=
200806181200 AAXX 18124 67743 42780 60909 10257 20061 48563 82131
                   333 58012 82856 81360 84080=
200806170600 AAXX 17064 67743 32980 70903 10165 20122 48549 8703/
                   333 10254 20150 58002 87360=
200806161500 AAXX 16154 67743 42980 61109 10239 20083 48541 86030
                   333 59001 86361=
200806161200 AAXX 16124 67743 42780 61706 10245 20073 48546 83130
                   333 59003 83856 86361=
200806160600 AAXX 16064 67743 32980 70000 10138 20095 48541 8703/
                   333 10256 20110 59020 87359=
200806111200 AAXX 11124 67743 42780 50705 10214 20100 48500 85500
                   333 59019 85656=
200806110900 AAXX 11094 67743 42680 30911 10192 20101 48587
                   333 59021 83845=
200806101500 AAXX 10154 67743 42980 10208 10223 20062 48586 81030
                   333 58013 81360=
200806100600 AAXX 10064 67743 32980 20804 10120 20020 48560 82030
                   333 10/// 20080 58037 82361=
200806091500 AAXX 09154 67743 42980 00714 10230 20038 48575
                   333 58037=
200806091200 AAXX 09124 67743 42980 00908 10239 20062 48576
                   333 58031=
200806060900 AAXX 06094 67743 42980 02504 10121 20048 48572
                   333 58005 91024=
200806060600 AAXX 06064 67743 32980 00000 10132 20039 48547 70200
                   333 10279 20070 58006
                   555 00060 91023=
200806050900 AAXX 05094 67743 42980 01504 10236 20090 48567
                   333 58019=
200806050600 AAXX 05064 67743 32980 00000 10150 20099 48549
                   333 10//0 20117 58013=
200806041500 AAXX 04154 67743 42780 31205 10275 20085 48536 82130
                   333 58006 82857 81360=
200806041200 AAXX 04124 67743 42980 11201 10280 20092 48539 81030
                   333 58001 81360=
200806040600 AAXX 04064 67743 32980 00801 10160 20090 48537
                   333 10//0 20106 59001=
200806030900 AAXX 03094 67743 42980 00912 10255 20104 48566
                   333 58000=
200806011200 AAXX 01124 67743 42780 10000 10280 20077 48532 81100
                   333 59002 81856 91018=

################################################################################
#  SYNOPS from 67751, Magoye (Zambia) | 16-00S | 027-36E | 1018 m
################################################################################
200806170600 AAXX 17064 67751 31978 40304 10179 20102 48/// 70522 84030
                   333 10268 20105 59005 84360=

################################################################################
#  SYNOPS from 67753, Choma (Zambia) | 16-50S | 027-04E | 1213 m
################################################################################
200806250600 AAXX 25064 67753 31560 10905 10132 20070 48/// 70500 81100
                   333 10225 20035 5//// 81820=
200806241200 AAXX 24124 67753 41660 10916 10222 20060 48/// 70500 81100
                   333 5//// 81830=
200806200600 AAXX 20064 67753 31960 70806 10114 20083 70522 8703/
                   333 10229 20052 87360=
200806191200 AAXX 19124 67753 41660 40908 10202 20093 48/// 84100
                   333 5//// 84830=
200806181200 AAXX 18124 67753 41560 20816 10214 20086 48/// 70500 82100
                   333 5//// 82828=
200806161200 AAXX 16124 67753 41560 73608 10228 20096 48/// 70522 8353/
                   333 5//// 83628 87360=
200806061200 AAXX 06124 67753 41960 01005 10250 20102 48/// 70500
                   333 5////=
200806060900 AAXX 06094 67753 41960 00908 10235 20112 48/// 70500=
200806060600 AAXX 06064 67753 31960 01909 10183 20082 48/// 70500
                   333 10256 20065=
200806030600 AAXX 03064 67753 31960 02802 10157 20100 48/// 70500
                   333 10256 20070=

################################################################################
#  SYNOPS from 67855, Lupaki (Zambia) | 17-03-00S | 024-46-00E | 1000 m
################################################################################
200807010000 AAXX 01004 67855 NIL=
200806301800 AAXX 30184 67855 NIL=
200806301200 AAXX 30124 67855 NIL=
200806300600 AAXX 30064 67855 NIL=
200806300000 AAXX 30004 67855 NIL=
200806291800 AAXX 29184 67855 NIL=
200806291200 AAXX 29124 67855 NIL=
200806290600 AAXX 29064 67855 NIL=
200806290000 AAXX 29004 67855 NIL=
200806281800 AAXX 28184 67855 NIL=
200806281200 AAXX 28124 67855 NIL=
200806280600 AAXX 28064 67855 NIL=
200806280000 AAXX 28004 67855 NIL=
200806271800 AAXX 27184 67855 NIL=
200806271200 AAXX 27124 67855 NIL=
200806270600 AAXX 27064 67855 NIL=
200806270000 AAXX 27004 67855 NIL=
200806260600 AAXX 26064 67855 NIL=
200806260000 AAXX 26004 67855 NIL=
200806251800 AAXX 25184 67855 NIL=
200806251200 AAXX 25124 67855 NIL=
200806250600 AAXX 25064 67855 NIL=
200806250000 AAXX 25004 67855 NIL=
200806241800 AAXX 24184 67855 NIL=
200806241200 AAXX 24124 67855 NIL=
200806240600 AAXX 24064 67855 NIL=
200806240000 AAXX 24004 67855 NIL=
200806231800 AAXX 23184 67855 NIL=
200806231200 AAXX 23124 67855 NIL=
200806230600 AAXX 23064 67855 NIL=
200806230000 AAXX 23004 67855 NIL=
200806221800 AAXX 22184 67855 NIL=
200806221200 AAXX 22124 67855 NIL=
200806220600 AAXX 22064 67855 NIL=
200806220000 AAXX 22004 67855 NIL=
200806211800 AAXX 21184 67855 NIL=
200806211200 AAXX 21124 67855 NIL=
200806210600 AAXX 21064 67855 NIL=
200806210000 AAXX 21004 67855 NIL=
200806201800 AAXX 20184 67855 NIL=
200806201200 AAXX 20124 67855 NIL=
200806200600 AAXX 20064 67855 NIL=
200806200000 AAXX 20004 67855 NIL=
200806191800 AAXX 19184 67855 NIL=
200806191200 AAXX 19124 67855 NIL=
200806181200 AAXX 18124 67855 NIL=
200806180600 AAXX 18064 67855 NIL=
200806180000 AAXX 18004 67855 NIL=
200806171800 AAXX 17184 67855 NIL=
200806171200 AAXX 17124 67855 NIL=
200806170000 AAXX 17004 67855 NIL=
200806161800 AAXX 16184 67855 NIL=
200806161200 AAXX 16124 67855 NIL=
200806160600 AAXX 16064 67855 NIL=
200806160000 AAXX 16004 67855 NIL=
200806151800 AAXX 15184 67855 NIL=
200806151200 AAXX 15124 67855 NIL=
200806150600 AAXX 15064 67855 NIL=
200806150000 AAXX 15004 67855 NIL=
200806141800 AAXX 14184 67855 NIL=
200806141200 AAXX 14124 67855 NIL=
200806140600 AAXX 14064 67855 NIL=
200806140000 AAXX 14004 67855 NIL=
200806131800 AAXX 13184 67855 NIL=
200806131200 AAXX 13124 67855 NIL=
200806130600 AAXX 13064 67855 NIL=
200806130000 AAXX 13004 67855 NIL=
200806121800 AAXX 12184 67855 NIL=
200806121200 AAXX 12124 67855 NIL=
200806120000 AAXX 12004 67855 NIL=
200806111800 AAXX 11184 67855 NIL=
200806111200 AAXX 11124 67855 NIL=
200806110600 AAXX 11064 67855 NIL=
200806110000 AAXX 11004 67855 NIL=
200806101800 AAXX 10184 67855 NIL=
200806101200 AAXX 10124 67855 NIL=
200806100600 AAXX 10064 67855 NIL=
200806100000 AAXX 10004 67855 NIL=
200806091800 AAXX 09184 67855 NIL=
200806091200 AAXX 09124 67855 NIL=
200806090600 AAXX 09064 67855 NIL=
200806090000 AAXX 09004 67855 NIL=
200806081800 AAXX 08184 67855 NIL=
200806081200 AAXX 08124 67855 NIL=
200806080600 AAXX 08064 67855 NIL=
200806080000 AAXX 08004 67855 NIL=
200806071800 AAXX 07184 67855 NIL=
200806071200 AAXX 07124 67855 NIL=
200806070600 AAXX 07064 67855 NIL=
200806070000 AAXX 07004 67855 NIL=
200806061800 AAXX 06184 67855 NIL=
