################################################################################
# Query made at 04/14/2022 06:38:02 UTC
# Country like Zamb*
# Time interval: from 12/01/2014 05:30  to 12/31/2014 06:30  UTC
################################################################################

################################################################################
#  SYNOPS from 67403, Kawambwa (Zambia) | 09-48S | 029-05E | 1323 m
################################################################################
201412300900 AAXX 30094 67403 NIL=
201412300600 AAXX 30064 67403 11355 83405 10202 20194 48503 69924 76044 8373/
                   333 10/// 20194 59018 83706 88360 819//
                   555 00/// 20001=
201412240600 AAXX 24064 67403 11465 82002 10192 20180 48526 60074 71062 8353/
                   333 10/// 20189 58022 83615 87360
                   555 00/// 20015=
201412230300 AAXX 23034 67403 NIL=
201412201500 AAXX 20154 67403 NIL=
201412190900 AAXX 19094 67403 NIL=
201412190600 AAXX 19064 67403 NIL=
201412180900 AAXX 18094 67403 NIL=
201412180600 AAXX 18064 67403 11975 70000 10197 20184 48531 60164 70522 8703/
                   333 10/// 20166 58001 87360
                   555 00/// 20009=
201412160600 AAXX 16064 67403 32480 42703 10218 20202 48522 84531
                   333 10/// 20185 58007 84612 81360 83080
                   555 00/// 20000=
201412141500 AAXX 14154 67403 NIL=
201412110600 AAXX 11064 67403 NIL=
201412091200 AAXX 09124 67403 NIL=
201412080600 AAXX 08064 67403 11975 70000 10196 20192 48506 60434 75066 87031
                   333 10/// 20171 87360 84080
                   555 00/// 20018=
201412050600 AAXX 05064 67403 12980 50902 10217 20185 48527 60204 70262 84032
                   333 10/// 20172 58028 84360 83080
                   555 00/// 20000=
201412040600 AAXX 04064 67403 12580 60902 10217 48499 69904 70222 81131
                   333 10/// 20187 59021 81828 86359 84080
                   555 00/// 20004=
201412030900 AAXX 03094 67403 NIL=
201412020600 AAXX 02064 67403 11975 80000 10191 20177 48492 69904 75022 8803/
                   333 10/// 20183 59020 88360
                   555 00/// 20001=
201412020300 AAXX 02034 67403 NIL=
201412010900 AAXX 01094 67403 NIL=

################################################################################
#  SYNOPS from 67413, Mbala (Zambia) | 08-51S | 031-20E | 1673 m
################################################################################
201412300900 AAXX 30094 67413 NIL=
201412300600 AAXX 30064 67413 NIL=
201412240600 AAXX 24064 67413 12780 70000 10200 20162 48548 60134 8703/
                   333 10/// 20/// 5//// 87456 91025=
201412230300 AAXX 23034 67413 NIL=
201412201500 AAXX 20154 67413 NIL=
201412190900 AAXX 19094 67413 NIL=
201412190600 AAXX 19064 67413 NIL=
201412180900 AAXX 18094 67413 NIL=
201412141500 AAXX 14154 67413 NIL=
201412110600 AAXX 11064 67413 NIL=
201412091200 AAXX 09124 67413 NIL=
201412080600 AAXX 08064 67413 12780 70000 10195 20164 48529 60494 8707/
                   333 10//0 20//0 5//// 87456 91025=
201412030900 AAXX 03094 67413 NIL=
201412020300 AAXX 02034 67413 NIL=
201412010900 AAXX 01094 67413 NIL=

################################################################################
#  SYNOPS from 67441, Mwinilunga (Zambia) | 11-45S | 024-26E | 1361 m
################################################################################
201412300900 AAXX 30094 67441 NIL=
201412300600 AAXX 30064 67441 NIL=
201412240600 AAXX 24064 67441 11370 83302 10200 20193 48547 60124 70522 887//
                   333 10285 20/// 5//// 88709=
201412230300 AAXX 23034 67441 NIL=
201412201500 AAXX 20154 67441 NIL=
201412190900 AAXX 19094 67441 NIL=
201412190600 AAXX 19064 67441 NIL=
201412180900 AAXX 18094 67441 NIL=
201412180600 AAXX 18064 67441 11970 83301 10195 20182 48548 60044 70322 8804/
                   333 10266 20/// 59015 88460=
201412160600 AAXX 16064 67441 11470 83101 10195 20188 48557 78028 887//
                   333 10300 20/// 5//// 88712=
201412141500 AAXX 14154 67441 NIL=
201412110600 AAXX 11064 67441 31475 83302 10192 20177 48548 60054 70522 883//
                   333 10282 20/// 58012 88620=
201412091200 AAXX 09124 67441 NIL=
201412080600 AAXX 08064 67441 11570 430// 10200 20178 48547 69904 70511 81102
                   333 10280 20/// 58002 81830 83080=
201412050600 AAXX 05064 67441 11980 70000 10193 20189 48563 69904 76064 8707/
                   333 10270 20/// 58009 87360=
201412040600 AAXX 04064 67441 12480 70600 10195 20180 48554 60014 8453/
                   333 10250 20/// 58007 84618 87360=
201412030900 AAXX 03094 67441 NIL=
201412030600 AAXX 03064 67441 12480 70000 10195 20188 48547 60564 8113/
                   333 10265 20/// 5//// 81818 87360=
201412020300 AAXX 02034 67441 NIL=
201412010900 AAXX 01094 67441 NIL=

################################################################################
#  SYNOPS from 67461, Mansa (Zambia) | 11-06S | 028-51E | 1382 m
################################################################################
201412300900 AAXX 30094 67461 NIL=
201412300600 AAXX 30064 67461 NIL=
201412240600 AAXX 24064 67461 12380 80000 10198 20194 48528 60474 8567/
                   333 10289 20190 58016 85705 87459 91020=
201412230300 AAXX 23034 67461 NIL=
201412201500 AAXX 20154 67461 NIL=
201412190900 AAXX 19094 67461 NIL=
201412190600 AAXX 19064 67461 NIL=
201412180900 AAXX 18094 67461 NIL=
201412180600 AAXX 18064 67461 12580 70000 10216 20185 48535 60364 72844 8157/
                   333 10246 20175 58003 81627 87460 91020=
201412160600 AAXX 16064 67461 12580 60904 10220 20195 48526 60044 83231
                   333 10298 20175 58012 83836 85361 83080 91019=
201412141500 AAXX 14154 67461 NIL=
201412110600 AAXX 11064 67461 NIL=
201412091200 AAXX 09124 67461 NIL=
201412090600 AAXX 09064 67461 32580 50000 10210 20187 48521 70322 81230
                   333 10300 20160 58008 81838 85362 91019=
201412080600 AAXX 08064 67461 32580 70000 10210 20188 48513 70322 8157/
                   333 10300 20182 59005 81632 87462 91017=
201412030900 AAXX 03094 67461 NIL=
201412020300 AAXX 02034 67461 NIL=
201412010900 AAXX 01094 67461 NIL=

################################################################################
#  SYNOPS from 67475, Kasama (Zambia) | 10-13S | 031-08E | 1382 m
################################################################################
201412300900 AAXX 30094 67475 42680 73016 10237 20180 48497 8427/
                   333 5//// 84830 87460 91017=
201412300600 AAXX 30064 67475 12380 73517 10195 20182 48507 60064 8267/
                   333 10282 20176 59024 82708 87459
                   555 00/// 91018=
201412291200 AAXX 29124 67475 42780 62108 10278 20166 48489 8427/
                   333 59006 81950 83850 86362 91016=
201412240900 AAXX 24094 67475 41680 63106 10261 20179 48527 76022 86206
                   333 58006 81335 86835 83080 91020=
201412240600 AAXX 24064 67475 12580 60903 10214 20186 48533 69904 70342 82232
                   333 10266 20172 58010 82820 85359 83080
                   555 00/// 91021=
201412230600 AAXX 23064 67475 12980 72802 10206 20194 48523 60014 70222 8707/
                   333 10261 20176 59005 87359
                   555 00/// 91020=
201412230300 AAXX 23034 67475 NIL=
201412201500 AAXX 20154 67475 NIL=
201412190900 AAXX 19094 67475 41370 60522 10260 20175 48/// 71791 8177/
                   333 5//// 81708 81940 84840 83461=
201412190600 AAXX 19064 67475 NIL=
201412180900 AAXX 18094 67475 NIL=
201412180600 AAXX 18064 67475 32480 60000 10230 20177 48542 83251
                   333 10302 20169 58002 83825 84360 85080
                   555 00/// 91022=
201412160600 AAXX 16064 67475 32980 62703 10216 20194 48535 83072
                   333 10311 20159 58012
                   555 00/// 91021=
201412141500 AAXX 14154 67475 NIL=
201412110600 AAXX 11064 67475 NIL=
201412091200 AAXX 09124 67475 NIL=
201412080600 AAXX 08064 67475 12380 71702 10200 20185 48520 60024 8567/
                   333 10255 20174 59003 86710 87460
                   555 00/// 91020=
201412050600 AAXX 05064 67475 11320 70901 10190 20190 48538 60284 74240 86602
                   333 10287 20171 58002 86709 87080
                   555 00/// 91022=
201412041200 AAXX 04124 67475 41780 61202 10256 20291 48495 75099 86272
                   333 58001 81950 85850 81462 83080 91017=
201412040900 AAXX 04094 67475 41635 63604 10267 20182 48527 71522 86232
                   333 58000 86835 82361 84080 91020=
201412040600 AAXX 04064 67475 12580 63302 10198 20184 48537 60174 70222 84572
                   333 10283 20176 58006 84625 85360 83080
                   555 91022=
201412031200 AAXX 03124 67475 42780 50205 10269 20176 48494 81933
                   333 58018 81950 83850 83080 91017=
201412030900 AAXX 03094 67475 42680 73509 10237 20181 48515 8137/
                   333 58019 81935 83835 85360 91020=
201412030600 AAXX 03064 67475 12480 73506 10199 20184 48531 60084 8376/
                   333 10286 20166 58018 83712 86359
                   555 00/// 91021=
201412021200 AAXX 02124 67475 41770 50805 10272 20163 48476 71522 84270
                   333 59001 81950 83850 84462 91014=
201412020900 AAXX 02094 67475 42680 50610 10246 20173 48507 84230
                   333 59005 84835 84361 91018=
201412020600 AAXX 02064 67475 12980 61411 10206 20172 48513 60154 8607/
                   333 10286 20176 59010 86359
                   555 91019=
201412020300 AAXX 02034 67475 NIL=
201412010900 AAXX 01094 67475 42680 60203 10247 20169 48512 8523/
                   333 59017 85835 84360 91019=

################################################################################
#  SYNOPS from 67476, Misamfu (Zambia) | 10-06S | 031-15E | 1536 m
################################################################################
201412300900 AAXX 30094 67476 NIL=
201412300600 AAXX 30064 67476 11480 82002 10195 20181 48/// 60024 70222 8167/
                   333 10290 20185 59020 81714 88458
                   555 00/// 20990=
201412240600 AAXX 24064 67476 NIL=
201412230300 AAXX 23034 67476 NIL=
201412201500 AAXX 20154 67476 NIL=
201412190900 AAXX 19094 67476 NIL=
201412190600 AAXX 19064 67476 NIL=
201412180900 AAXX 18094 67476 NIL=
201412141500 AAXX 14154 67476 NIL=
201412110600 AAXX 11064 67476 NIL=
201412091200 AAXX 09124 67476 NIL=
201412090600 AAXX 09064 67476 12580 40903 10205 20178 48/// 60184 82130
                   333 10234 20139 5//// 82824 83359=
201412050600 AAXX 05064 67476 11409 40000 10191 20189 48/// 60364 74442 84632
                   333 10298 20167 58004 84715 83359 83080
                   555 00/// 20000=
201412040600 AAXX 04064 67476 32980 40401 10219 20181 48/// 84052
                   333 10284 20190 58004 84359 83080
                   555 00/// 20009=
201412030900 AAXX 03094 67476 NIL=
201412030600 AAXX 03064 67476 11580 60000 10194 20180 48/// 60094 70222 85531
                   333 10292 20176 58019 85620 86359 83080
                   555 00/// 20990=
201412020600 AAXX 02064 67476 11980 70903 10208 20171 48/// 69904 70222 87030
                   333 10302 20184 59011 87359
                   555 00/// 20990=
201412020300 AAXX 02034 67476 NIL=
201412010900 AAXX 01094 67476 NIL=

################################################################################
#  SYNOPS from 67477, Mpika (Zambia) | 11-54S | 031-26E | 1400 m
################################################################################
201412300900 AAXX 30094 67477 NIL=
201412300600 AAXX 30064 67477 12480 80000 10206 20184 48503 69904 8557/
                   333 10272 20182 59023 85616 84459=
201412240600 AAXX 24064 67477 12480 60000 10234 20177 48531 60034 81131
                   333 10242 20176 58006 81818 83360 84080=
201412230300 AAXX 23034 67477 NIL=
201412201500 AAXX 20154 67477 NIL=
201412190900 AAXX 19094 67477 NIL=
201412190600 AAXX 19064 67477 12980 50000 10230 20176 48532 60044 85030
                   333 10310 20175 59010 85359=
201412180900 AAXX 18094 67477 NIL=
201412180600 AAXX 18064 67477 32980 00000 10215 20178 48539 69904
                   333 10300 20171 58005=
201412160600 AAXX 16064 67477 32980 00000 10228 20161 48531
                   333 10315 20162 5////=
201412141500 AAXX 14154 67477 NIL=
201412110600 AAXX 11064 67477 NIL=
201412091200 AAXX 09124 67477 NIL=
201412090600 AAXX 09064 67477 32980 00000 10228 20160 48531
                   333 10314 20161 58004=
201412050600 AAXX 05064 67477 12980 50000 10220 20180 48543 60014 85030
                   333 10300 20172 58004 85359=
201412040600 AAXX 04064 67477 12480 60000 10235 20173 48539 69904 85130
                   333 10270 20181 58006 85815 81359=
201412030900 AAXX 03094 67477 NIL=
201412030600 AAXX 03064 67477 32980 00000 10215 20103 48533 86300
                   333 10314 20180 58023 86359=
201412020600 AAXX 02064 67477 32980 01206 10220 20125 48509
                   333 10290 20175 59015=
201412020300 AAXX 02034 67477 NIL=
201412010900 AAXX 01094 67477 NIL=

################################################################################
#  SYNOPS from 67481, Isoka (Zambia) | 10-07S | 032-38E | 1360 m
################################################################################
201412300900 AAXX 30094 67481 42480 73503 10225 20202 84520
                   333 59035 84611 86360=
201412300600 AAXX 30064 67481 11275 83601 10191 20188 60054 76166 8477/
                   333 10276 20185 59022 84704 88459
                   555 00/// 20041=
201412291200 AAXX 29124 67481 42580 50306 10257 20184 48/// 85920
                   333 59003 81931 82831 83634 84361=
201412240600 AAXX 24064 67481 12480 50301 10222 20183 60044 82530
                   333 10260 20180 58011 82617 84360
                   555 00/// 20004=
201412230300 AAXX 23034 67481 NIL=
201412201500 AAXX 20154 67481 NIL=
201412190900 AAXX 19094 67481 NIL=
201412190600 AAXX 19064 67481 12980 40202 10240 20170 69974 84500
                   333 10320 20180 58001 84624
                   555 00/// 20000=
201412180900 AAXX 18094 67481 NIL=
201412160600 AAXX 16064 67481 32980 43502 10234 20158 80001
                   333 10332 20185 58013 84080
                   555 00/// 20000=
201412141500 AAXX 14154 67481 NIL=
201412110600 AAXX 11064 67481 NIL=
201412091200 AAXX 09124 67481 NIL=
201412090600 AAXX 09064 67481 32480 63401 10219 20173 82530
                   333 10289 20181 58010 82618 85361
                   555 00/// 20000=
201412080600 AAXX 08064 67481 32980 50000 10215 20168 85020
                   333 10286 20193 58001 85361
                   555 00/// 20000=
201412051200 AAXX 05124 67481 42780 60603 10203 20164 71799 86903
                   333 59004 81955 86657 82080=
201412050900 AAXX 05094 67481 42680 50102 10274 20156 85801
                   333 58001 82844 84647 81080=
201412050600 AAXX 05064 67481 12580 60000 10232 20181 60014 81590
                   333 10273 20190 58005 81620 86361=
201412040900 AAXX 04094 67481 41675 63301 10255 20179 71522 86830
                   333 58006 82830 86633 81361=
201412040600 AAXX 04064 67481 12480 40202 10228 20186 60014 82520
                   333 10280 20185 58005 82618 82361
                   555 00/// 20000=
201412030900 AAXX 03094 67481 42580 70000 10240 20183 85820
                   333 58017 83824 82625 85361=
201412030600 AAXX 03064 67481 12480 63301 10215 20185 60264 84520
                   333 10292 20170 58014 84614 84361=
201412020900 AAXX 02094 67481 42680 70305 10258 20167 83580
                   333 58000 83637 87361=
201412020600 AAXX 02064 67481 32480 62002 10227 2//// 48/// 83580
                   333 10296 20195 59007 83619 85360=
201412020300 AAXX 02034 67481 NIL=
201412010900 AAXX 01094 67481 41680 50904 10259 20167 48/// 72999 85901
                   333 5//// 81937 84639 81080=

################################################################################
#  SYNOPS from 67531, Zambezi (Zambia) | 13-32S | 023-07E | 1077 m
################################################################################
201412300900 AAXX 30094 67531 42580 73305 10272 20200 48/// 70222 83230
                   333 59027 83825 85362=
201412300600 AAXX 30064 67531 32980 73604 10228 20195 48/// 70222 8707/
                   333 10314 20208 59021 87360=
201412240600 AAXX 24064 67531 NIL=
201412230300 AAXX 23034 67531 NIL=
201412201500 AAXX 20154 67531 NIL=
201412190900 AAXX 19094 67531 42580 73504 10255 20203 48/// 70222 83530
                   333 58011 83620 86361=
201412190600 AAXX 19064 67531 11980 70102 10197 20187 48/// 60044 72166 87070
                   333 10298 20184 59002 87360=
201412181200 AAXX 18124 67531 41680 70402 10233 20202 48/// 71799 8527/
                   333 58000 81945 85845 83360=
201412180900 AAXX 18094 67531 NIL=
201412180600 AAXX 18064 67531 32980 70102 10220 20186 48/// 70222 8707/
                   333 10285 20198 59011 87360=
201412160900 AAXX 16094 67531 42480 60000 10253 20204 48/// 70222 82130
                   333 58011 82818 85361=
201412160600 AAXX 16064 67531 12380 80302 10193 20187 48/// 60104 70222 8367/
                   333 10315 20186 58017 83707 88460
                   555 00173=
201412141500 AAXX 14154 67531 NIL=
201412110900 AAXX 11094 67531 42480 73303 10220 20191 48/// 70222 8557/
                   333 58015 85610 87360=
201412110600 AAXX 11064 67531 11380 73403 10190 20180 48/// 60064 76066 8377/
                   333 10306 20184 58011 83706 87360
                   555 00172=
201412091200 AAXX 09124 67531 NIL=
201412090600 AAXX 09064 67531 32980 70000 10229 20188 48/// 8707/
                   333 10316 20185 58000 87360
                   555 00170=
201412081200 AAXX 08124 67531 42780 43403 10300 20177 48/// 84202
                   333 58000 84850 81080=
201412080600 AAXX 08064 67531 32980 22404 10221 20192 48/// 82032
                   333 10314 20179 59001 82362 81081
                   555 00157=
201412050600 AAXX 05064 67531 11380 81805 10208 20196 48/// 60024 72165 8757/
                   333 10299 20190 58018 87609 88460
                   555 00180=
201412041200 AAXX 04124 67531 41680 73602 10225 20195 48/// 79599 8327/
                   333 59003 81935 83835 87460=
201412040900 AAXX 04094 67531 42580 73603 10265 20206 48/// 8313/
                   333 58013 83827 87361=
201412040600 AAXX 04064 67531 11480 50000 10216 20200 48/// 60054 70242 81132
                   333 10266 20/// 58009 81810 83360 82082
                   555 00161=
201412031200 AAXX 03124 67531 41680 70307 10271 20168 48/// 71799 8487/=
201412030900 AAXX 03094 67531 NIL=
201412030600 AAXX 03064 67531 12480 70302 10216 20193 48/// 60014 8157/
                   333 10296 20/// 58003 81610 87460
                   555 00185=
201412021200 AAXX 02124 67531 42680 72903 10290 20198 48/// 8427/
                   333 59011 84839 87360=
201412020600 AAXX 02064 67531 32980 70000 10214 20194 48/// 8707/
                   333 10286 20/// 59018 87460=
201412020300 AAXX 02034 67531 NIL=
201412010900 AAXX 01094 67531 41580 70907 10246 20182 48/// 70262 8117/
                   333 59020 81827 87361=

################################################################################
#  SYNOPS from 67541, Kasempa (Zambia) | 13-32S | 025-51E | 1234 m
################################################################################
201412300900 AAXX 30094 67541 NIL=
201412300600 AAXX 30064 67541 12980 70103 10216 20197 48489 60014 70222 87030
                   333 10/// 20/// 59022 87360=
201412240600 AAXX 24064 67541 12980 70000 10201 20192 48509 60014 70222 8703/
                   333 10/// 20/// 58009 87360=
201412230300 AAXX 23034 67541 NIL=
201412201500 AAXX 20154 67541 NIL=
201412190900 AAXX 19094 67541 NIL=
201412190600 AAXX 19064 67541 12980 70000 10198 20184 48518 60064 70222 8703/
                   333 10/// 20/// 59002 87360=
201412180900 AAXX 18094 67541 NIL=
201412180600 AAXX 18064 67541 12980 70000 10209 20197 48520 60014 70222 87030
                   333 10//0 20//0 59008 87360
                   555 00/// 20057=
201412160600 AAXX 16064 67541 12380 70000 10197 20191 48517 60574 70322 8353/
                   333 10/// 20/// 5//// 83606 87360=
201412141500 AAXX 14154 67541 NIL=
201412110600 AAXX 11064 67541 NIL=
201412091200 AAXX 09124 67541 NIL=
201412030900 AAXX 03094 67541 NIL=
201412020300 AAXX 02034 67541 NIL=
201412010900 AAXX 01094 67541 NIL=

################################################################################
#  SYNOPS from 67543, Kabompo (Zambia) | 13-36S | 024-12E | 1075 m
################################################################################
201412300900 AAXX 30094 67543 42680 7//06 10278 20190 48/// 84105
                   333 5//// 84830 85280=
201412300600 AAXX 30064 67543 32980 6//00 10226 20187 48/// 81045
                   333 10310 20186 5//// 81360 86280=
201412240600 AAXX 24064 67543 NIL=
201412230300 AAXX 23034 67543 NIL=
201412201500 AAXX 20154 67543 NIL=
201412190900 AAXX 19094 67543 NIL=
201412190600 AAXX 19064 67543 NIL=
201412180900 AAXX 18094 67543 NIL=
201412141500 AAXX 14154 67543 NIL=
201412110600 AAXX 11064 67543 NIL=
201412091200 AAXX 09124 67543 NIL=
201412030900 AAXX 03094 67543 NIL=
201412020300 AAXX 02034 67543 NIL=
201412010900 AAXX 01094 67543 NIL=

################################################################################
#  SYNOPS from 67551, Solwezi (Zambia) | 12-11S | 026-23E | 1386 m
################################################################################
201412300900 AAXX 30094 67551 NIL=
201412300600 AAXX 30064 67551 NIL=
201412240600 AAXX 24064 67551 11980 80000 10198 20182 48529 60054 8807/
                   333 10259 20178 58014 88362
                   555 00/// 20003 91020=
201412230300 AAXX 23034 67551 NIL=
201412201500 AAXX 20154 67551 NIL=
201412190900 AAXX 19094 67551 NIL=
201412190600 AAXX 19064 67551 12980 72703 10189 20162 48535 60214 82130
                   333 10277 20165 58007 82812 86360 91021=
201412180900 AAXX 18094 67551 NIL=
201412180600 AAXX 18064 67551 32982 72703 10219 20178 48535 80730
                   333 10268 20172 59012 87362 91021=
201412160600 AAXX 16064 67551 12375 73507 10195 20181 48531 60034 875//
                   333 10281 20176 58013 87620 91021=
201412141500 AAXX 14154 67551 NIL=
201412110600 AAXX 11064 67551 NIL=
201412091200 AAXX 09124 67551 NIL=
201412090600 AAXX 09064 67551 12980 71804 10197 20171 48522 60024 87030
                   333 10301 20176 59003 87362 91020=
201412080600 AAXX 08064 67551 32965 60000 10204 20164 48526 86030
                   333 10298 20166 58003 86362 91020=
201412050600 AAXX 05064 67551 12980 71003 10200 20171 48537 69924 87030
                   333 10261 20176 58013 87362 91021=
201412030900 AAXX 03094 67551 NIL=
201412020300 AAXX 02034 67551 NIL=
201412010900 AAXX 01094 67551 NIL=

################################################################################
#  SYNOPS from 67561, Ndola (Zambia) | 13-00S | 028-39E | 1269 m
################################################################################
201412310600 AAXX 31064 67561 11259 80000 10190 20183 48493 60254 75022 8367/
                   333 10246 20170 58004 83703 88459
                   555 00/// 91016=
201412301200 AAXX 30124 67561 41456 80000 10195 20191 48468 76162 8577/
                   333 59015 85707 819// 88459
                   555 66/// 77041 8895/ 98001=
201412300900 AAXX 30094 67561 41440 83610 10186 20183 48489 79162 857//
                   333 59012 88612=
201412300600 AAXX 30064 67561 31359 70102 10206 20197 48490 70422 81670
                   333 10228 20120 59028 81708 87460
                   555 91016=
201412290600 AAXX 29064 67561 11359 70000 10201 20192 48517 60014 72162 82638
                   333 10263 20186 58002 82708 85360 87280
                   555 00/// 20093 91019=
201412280600 AAXX 28064 67561 31959 70000 10196 20183 48515 60094 70422 87031
                   333 10287 20181 59002 86359 82079
                   555 00/// 20014 91019=
201412271200 AAXX 27124 67561 41675 70000 10271 20187 48481 70522 85202
                   333 59014 81940 85840 85080
                   555 66/// 77046 8890/ 98046 91014=
201412270600 AAXX 27064 67561 11465 70303 10216 20198 48518 60014 70522 81130
                   333 10272 20183 59012 81810 87360
                   555 00/// 20013 91019=
201412250600 AAXX 25064 67561 11960 70000 10212 20187 48536 60134 70562 86038
                   333 10257 20184 58013 86360 87280
                   555 00/// 20037 91021=
201412241200 AAXX 24124 67561 41660 70206 10212 20196 48508 76162 86208
                   333 58019 81930 86835 87280
                   555 66/// 77035 8885/ 98008 91018=
201412240600 AAXX 24064 67561 NIL=
201412230300 AAXX 23034 67561 41959 20000 10176 20174 48501 70500 82031
                   333 59002 82360 81080 91017=
201412210600 AAXX 21064 67561 11259 70000 10201 20192 48520 60134 82770
                   333 10298 20181 59012 82703 87459
                   555 00/// 20215 91019=
201412201500 AAXX 20154 67561 42980 60303 10293 20185 48483 84262
                   333 59038 81958 84858 81360 84080=
201412200600 AAXX 20064 67561 41158 70000 10184 20186 48531 60214 72822 876//
                   333 10285 20179 59001 87720
                   555 20010 91021=
201412190900 AAXX 19094 67561 NIL=
201412190600 AAXX 19064 67561 11465 72003 10206 20191 48533 60014 70562 81630
                   333 10296 20184 58002 81706 819// 82810 87360
                   555 20730 91021=
201412180900 AAXX 18094 67561 NIL=
201412180600 AAXX 18064 67561 11360 70000 10196 20189 48531 60734 72842 8663/
                   333 10288 20172 59003 86705 87360
                   555 00/// 20999 91020=
201412170600 AAXX 17064 67561 32960 60000 10234 20198 48530 70522 82038
                   333 10300 20190 59003 82359 81959 84270
                   555 00/// 91020=
201412161200 AAXX 16124 67561 42680 21010 10289 20184 48515 86201
                   333 58024 81940 86840 84080
                   555 91018=
201412160600 AAXX 16064 67561 31259 72203 10210 20187 48531 70522 82688
                   333 10308 20184 58014 82704 85360 87280
                   555 00/// 20990 91020=
201412141500 AAXX 14154 67561 41875 71706 10229 20172 48480 70592 82272
                   333 58007 81957 82857 84459 85280=
201412140600 AAXX 14064 67561 11975 72404 10216 20183 48524 60054 70522 83038
                   333 10300 20190 59009 83360 87280
                   555 00/// 91020=
201412120600 AAXX 12064 67561 11860 80000 10214 20187 48528 60024 70522 83038
                   333 10285 20//0 58004 83358 88270
                   555 91020=
201412110600 AAXX 11064 67561 31460 70000 10236 20192 48531 70522 81138
                   333 10291 20/// 59005 81810 85360 85280 91020=
201412100600 AAXX 10064 67561 31259 50503 10189 20154 48521 69904 70522 83632
                   333 10301 20/// 58008 83703 84359 81080
                   555 00/// 91021=
201412091200 AAXX 09124 67561 42670 50000 1//// 20169 48500 70322 84260
                   333 58010 81940 85840 82360 8868/ 98018 91016=
201412080600 AAXX 08064 67561 32958 40000 10220 20183 48519 70511 80008
                   333 10314 20/// 59005 84280
                   555 00/// 91019=
201412060600 AAXX 06064 67561 11358 72404 10204 20182 48536 60014 70522 85632
                   333 10318 20//0 59001 85705 85360 81080
                   555 00/// 20990 91021=
201412041200 AAXX 04124 67561 41760 70405 10270 20180 48506 70522 85200
                   333 58007 81950 85850 84650
                   555 66/// 77059 8875/ 98020 91017=
201412031200 AAXX 03124 67561 41560 20164 48491 70522 86200
                   333 58012 81935 86835 91016=
201412030900 AAXX 03094 67561 NIL=
201412030600 AAXX 03064 67561 31359 60000 10211 20175 48527 70422 83632
                   333 10296 20175 58016 83709 86360 82080
                   555 00/// 91020=
201412021200 AAXX 02124 67561 41770 50205 10293 20148 48488 70522 85232
                   333 59004 81955 85855 82360 82080 91015=
201412020300 AAXX 02034 67561 41959 50000 10194 20172 48495 70422 85032
                   333 59016 85360 83080 91016=
201412010900 AAXX 01094 67561 NIL=

################################################################################
#  SYNOPS from 67563, Kafironda (Zambia) | 12-36S | 028-07E | 1243 m
################################################################################
201412300900 AAXX 30094 67563 NIL=
201412300600 AAXX 30064 67563 NIL=
201412240600 AAXX 24064 67563 NIL=
201412230300 AAXX 23034 67563 NIL=
201412201500 AAXX 20154 67563 NIL=
201412190900 AAXX 19094 67563 NIL=
201412190600 AAXX 19064 67563 NIL=
201412180900 AAXX 18094 67563 NIL=
201412141500 AAXX 14154 67563 NIL=
201412110600 AAXX 11064 67563 NIL=
201412091200 AAXX 09124 67563 NIL=
201412030900 AAXX 03094 67563 NIL=
201412020300 AAXX 02034 67563 NIL=
201412010900 AAXX 01094 67563 NIL=

################################################################################
#  SYNOPS from 67571, Serenje (Zambia) | 13-14S | 030-13E | 1384 m
################################################################################
201412300900 AAXX 30094 67571 42482 72704 10233 20193 48483 70122 875//
                   333 59031 87619=
201412300600 AAXX 30064 67571 12379 72702 10207 20187 48492 69954 70222 8367/
                   333 10255 20180 59029 83706 87460
                   555 00/// 20012=
201412291200 AAXX 29124 67571 42682 72702 10245 20190 48483 70222 8523/
                   333 59003 81930 85830 87360=
201412240600 AAXX 24064 67571 12482 70000 10204 20173 48522 60044 70222 81938
                   333 10268 20178 58010 81818 82360 87280 8/9//
                   555 00/// 20001=
201412230300 AAXX 23034 67571 NIL=
201412201500 AAXX 20154 67571 NIL=
201412190900 AAXX 19094 67571 NIL=
201412190600 AAXX 19064 67571 NIL=
201412180900 AAXX 18094 67571 NIL=
201412180600 AAXX 18064 67571 32982 72702 10224 20168 48523 70222 85038
                   333 10290 20176 59004 85360 87280
                   555 00/// 20990=
201412161200 AAXX 16124 67571 41682 72406 10236 20172 48503 71796 81978
                   333 58029 81943 81845 86459 87280=
201412160900 AAXX 16094 67571 42682 72705 10259 20171 48525 70222 84208
                   333 58020 81940 84840 87280=
201412160600 AAXX 16064 67571 12682 72703 10224 20174 48523 69904 70222 81278
                   333 10318 20176 58014 81832 82360 87280
                   555 00/// 20011=
201412141500 AAXX 14154 67571 NIL=
201412110600 AAXX 11064 67571 NIL=
201412091200 AAXX 09124 67571 41682 72406 10224 20155 48492 72996 8132/
                   333 58018 81945 81847 87459=
201412090900 AAXX 09094 67571 41682 63605 10271 20153 48515 71799 86203
                   333 58010 81945 86847 84080=
201412081200 AAXX 08124 67571 42780 70000 10294 20122 48485 70222 86101
                   333 59006 86850 83081=
201412080600 AAXX 08064 67571 32980 71202 10238 20149 48524 70222 80008
                   333 10314 20159 59007 87280
                   555 00/// 20000=
201412050600 AAXX 05064 67571 12982 73602 10237 20167 48534 69904 70222 8707/
                   333 10305 20180 58006 87359
                   555 00/// 20990=
201412041200 AAXX 04124 67571 41682 30904 10275 20156 48505 76162 83233
                   333 58011 81940 83840 81360 82079=
201412040900 AAXX 04094 67571 42682 70605 10257 20161 48525 70222 8423/
                   333 58013 81930 84830 87360=
201412040600 AAXX 04064 67571 12981 40604 10237 20164 48524 69904 70111 84031
                   333 10279 20190 58006 84360 82080
                   555 20002=
201412030900 AAXX 03094 67571 42681 70000 10257 20157 48514 70222 85238
                   333 58013 81940 85840 81360 87280=
201412030600 AAXX 03064 67571 12580 70000 10201 20175 48522 60024 70222 81678
                   333 10310 20180 58014 81625 83359 87280
                   555 00/// 20000=
201412021200 AAXX 02124 67571 42781 61806 10290 20124 48474 70311 84230
                   333 59004 81950 84850 86360=
201412020900 AAXX 02094 67571 42681 11203 10272 20124 48494 70200 81360=
201412020600 AAXX 02064 67571 32981 21206 10230 20111 48503 70222 82030
                   333 10307 20174 59016 82360
                   555 00/// 20000=
201412020300 AAXX 02034 67571 NIL=
201412010900 AAXX 01094 67571 NIL=

################################################################################
#  SYNOPS from 67575, Mkushi (Zambia) | 13-38-00S | 029-26-00E | 1237 m
################################################################################
201412300900 AAXX 30094 67575 NIL=
201412300600 AAXX 30064 67575 32480 73601 10222 20197 48/// 70122 84272
                   333 10269 20195 5//// 84218 83360 81080
                   555 00/// 20086=
201412240600 AAXX 24064 67575 11970 71202 10185 20177 48/// 60174 76162 87072
                   333 10266 20176 5//// 87460 81278
                   555 00/// 20014=
201412230300 AAXX 23034 67575 NIL=
201412201500 AAXX 20154 67575 NIL=
201412190900 AAXX 19094 67575 NIL=
201412190600 AAXX 19064 67575 11480 72702 10203 20186 48/// 60014 70322 85572
                   333 10302 20190 5//// 85612 82360 81080
                   555 00/// 20024=
201412180900 AAXX 18094 67575 NIL=
201412180600 AAXX 18064 67575 11980 60000 10195 20187 48/// 60214 70222 86072
                   333 10300 20182 5//// 86360 81080
                   555 00/// 20028=
201412160600 AAXX 16064 67575 11480 70000 10195 20179 48/// 60034 70362 81672
                   333 10325 20178 5//// 81712 87360 81080
                   555 00/// 20001=
201412141500 AAXX 14154 67575 NIL=
201412110600 AAXX 11064 67575 NIL=
201412091200 AAXX 09124 67575 NIL=
201412080600 AAXX 08064 67575 32980 10402 10238 20138 48/// 70200 80001
                   333 10325 20175 5//// 81080
                   555 00/// 20000=
201412050600 AAXX 05064 67575 32480 33602 10239 20177 48/// 81132
                   333 10309 20195 5//// 81815 81365 83080
                   555 00/// 20990=
201412040600 AAXX 04064 67575 12980 13403 10239 20172 48/// 69904 81031
                   333 10310 20184 5//// 81365 81080
                   555 00/// 20003=
201412030900 AAXX 03094 67575 NIL=
201412020600 AAXX 02064 67575 32980 10903 10230 20111 48/// 81030
                   333 10300 20187 5//// 81360
                   555 00/// 20000=
201412020300 AAXX 02034 67575 NIL=
201412010900 AAXX 01094 67575 NIL=

################################################################################
#  SYNOPS from 67580, Msekera (Zambia) | 13-39S | 032-34E | 1025 m
################################################################################
201412300900 AAXX 30094 67580 42680 73305 10275 20224 48/// 86231
                   333 59037 86840 81361 83080=
201412300600 AAXX 30064 67580 12980 70302 10249 20205 48/// 69904 87030
                   333 10289 20/// 59031 87360
                   555 00/// 20006=
201412291200 AAXX 29124 67580 42780 72703 10281 20176 48/// 84237
                   333 59009 84850 81360 87280=
201412240600 AAXX 24064 67580 12580 70000 10262 20193 48/// 69934 81138
                   333 10307 20/// 58016 81820 81360 87280
                   555 00///=
201412230600 AAXX 23064 67580 12980 70000 10235 20196 48/// 69924 85078
                   333 10295 20/// 5//// 85460 87280
                   555 20033=
201412230300 AAXX 23034 67580 NIL=
201412201500 AAXX 20154 67580 NIL=
201412190900 AAXX 19094 67580 42780 73604 10331 20154 48/// 85237
                   333 59010 85850 81362 87280=
201412190600 AAXX 19064 67580 NIL=
201412181200 AAXX 18124 67580 42780 72703 10333 20152 48/// 83208
                   333 59003 83856 87280=
201412180900 AAXX 18094 67580 NIL=
201412180600 AAXX 18064 67580 12980 71603 10258 20193 48/// 60014 81038
                   333 10339 20//0 58005 81362 87280
                   555 00/// 20001=
201412160900 AAXX 16094 67580 42680 73004 10325 20147 48/// 84108
                   333 58012 84844 85280=
201412160600 AAXX 16064 67580 12980 70905 10290 20169 48/// 60014 80008
                   333 10377 20/// 58005 87280
                   555 00/// 20000=
201412141500 AAXX 14154 67580 NIL=
201412110600 AAXX 11064 67580 NIL=
201412091200 AAXX 09124 67580 42880 60000 10351 20145 48/// 86202
                   333 59003 86857 81080=
201412090900 AAXX 09094 67580 42780 70304 10312 20160 48/// 85232
                   333 58008 85850 85361 81080=
201412090600 AAXX 09064 67580 12580 2//// 10280 20185 48/// 69904 81130
                   333 10356 20/// 58003 81820 81362
                   555 00/// 20000=
201412050900 AAXX 05094 67580 42780 70303 10315 20167 48/// 86208
                   333 5//// 86850 87280=
201412050600 AAXX 05064 67580 32580 73603 10284 20180 48/// 81108
                   333 10355 20/// 58003 81825 87280
                   555 00/// 20000=
201412041200 AAXX 04124 67580 41780 70903 10336 20159 48/// 71522 85208
                   333 5//// 81956 84857 87280=
201412040900 AAXX 04094 67580 42780 70303 10322 20169 48/// 86208
                   333 5//// 86850 85280=
201412040600 AAXX 04064 67580 12480 71203 10277 20173 48/// 69904 81138
                   333 10330 20/// 58007 81818 81360 87280
                   555 00/// 20000=
201412031200 AAXX 03124 67580 41778 71204 10308 20163 48/// 78022 872//
                   333 58015 87850=
201412030900 AAXX 03094 67580 41775 71804 10305 20158 48/// 70522 85208
                   333 58011 85850 87280=
201412020600 AAXX 02064 67580 31975 11204 10261 20190 48/// 70500 80002
                   333 10314 20/// 59014 81080
                   555 00/// 20000=
201412020300 AAXX 02034 67580 NIL=
201412010900 AAXX 01094 67580 41775 61604 10280 20162 48/// 70522 86200
                   333 5//// 86856=

################################################################################
#  SYNOPS from 67581, Chipata (Zambia) | 13-33S | 032-35E | 1028 m
################################################################################
201412300900 AAXX 30094 67581 42680 73005 10272 20196 48489 85270
                   333 59038 85838 87459 91023=
201412300600 AAXX 30064 67581 12680 70000 10246 20206 48502 69904 83270
                   333 10282 20218 59030 83835 87459
                   555 00205 20006 91015=
201412291200 AAXX 29124 67581 42680 72606 10280 20192 48503 83208
                   333 59010 81940 83842 87280 91013=
201412240600 AAXX 24064 67581 32580 50000 10250 20191 48542 82232
                   333 10285 20181 58018 82830 83360 83080 91019=
201412230300 AAXX 23034 67581 NIL=
201412220900 AAXX 22094 67581 42680 62703 10248 20197 48527 85272
                   333 59011 85835 85459 82080 91017=
201412201500 AAXX 20154 67581 NIL=
201412190900 AAXX 19094 67581 NIL=
201412190600 AAXX 19064 67581 31660 70000 10263 20176 48533 82132
                   333 10336 20202 59010 81835 59010 81835 85360
                   82080 555 00203 91018=
201412181200 AAXX 18124 67581 42680 73206 10325 20167 48526 83208
                   333 59003 81940 82842 87280=
201412180900 AAXX 18094 67581 42680 73605 10295 20176 48541 82208
                   333 58002 82832 87280 91017=
201412180600 AAXX 18064 67581 12980 81704 10246 20184 48543 60094 81087
                   333 10334 20185 58004 81362 88280
                   555 00196 91019=
201412160900 AAXX 16094 67581 42680 63403 10322 20154 48539 85202
                   333 59012 85840 82080 91017=
201412160600 AAXX 16064 67581 12980 73503 10286 20166 48550 60044 81032
                   333 10360 20220 58003 81838 86080
                   555 00214 91018=
201412141500 AAXX 14154 67581 NIL=
201412110600 AAXX 11064 67581 NIL=
201412091200 AAXX 09124 67581 42580 61002 10325 20147 48511 86200
                   333 58004 86838 91014=
201412090900 AAXX 09094 67581 42580 50503 10305 20147 48539 85230
                   333 58005 85835 82360 91018=
201412041200 AAXX 04124 67581 42580 60704 10325 20153 48520 85231
                   333 58007 85838 82360 82080 91015=
201412040900 AAXX 04094 67581 42580 50905 10302 20179 48549 85200
                   333 58011 85835 91019=
201412040600 AAXX 04064 67581 12580 50403 10260 20185 48549 60034 83131
                   333 10330 20191 58007 83830 83360 82080
                   555 00197 20000 91020=
201412030900 AAXX 03094 67581 NIL=
201412021200 AAXX 02124 67581 42680 60904 10320 20141 48600 86200
                   333 59008 86840 91013=
201412020900 AAXX 02094 67581 42680 40000 10286 20143 48534 84100
                   333 5//// 84840 91016=
201412020600 AAXX 02064 67581 32980 00000 10252 20133 48527
                   333 10310 20184 5////
                   555 00185 20000 91017=
201412020300 AAXX 02034 67581 NIL=
201412010900 AAXX 01094 67581 NIL=

################################################################################
#  SYNOPS from 67583, Lundazi (Zambia) | 12-17S | 033-12E | 1143 m
################################################################################
201412300900 AAXX 30094 67583 NIL=
201412300600 AAXX 30064 67583 NIL=
201412240600 AAXX 24064 67583 NIL=
201412230300 AAXX 23034 67583 NIL=
201412201500 AAXX 20154 67583 NIL=
201412190900 AAXX 19094 67583 NIL=
201412190600 AAXX 19064 67583 31678 60903 10291 20177 48/// 70522 81137
                   333 10355 20/// 58010 81830 81360 86280=
201412180900 AAXX 18094 67583 NIL=
201412180600 AAXX 18064 67583 12580 70301 10250 20175 48/// 69904 81537
                   333 10357 20/// 58009 81625 81360 87280
                   555 000/// 20000=
201412160600 AAXX 16064 67583 31978 71203 10280 20173 48/// 70522 80007
                   333 10366 20/// 59006 87280=
201412141500 AAXX 14154 67583 NIL=
201412110600 AAXX 11064 67583 NIL=
201412091200 AAXX 09124 67583 NIL=
201412080600 AAXX 08064 67583 31678 10902 10260 20185 48/// 70500 81130
                   333 10325 20/// 58001 81830 81360=
201412040600 AAXX 04064 67583 31678 70902 10267 20183 48/// 70522 82837
                   333 10335 20/// 59006 81625 81827 82360 85280=
201412030900 AAXX 03094 67583 NIL=
201412020300 AAXX 02034 67583 NIL=
201412010900 AAXX 01094 67583 NIL=

################################################################################
#  SYNOPS from 67599, Mfuwe (Zambia) | 13-16S | 031-56E | 568 m
################################################################################
201412300900 AAXX 30094 67599 NIL=
201412300600 AAXX 30064 67599 NIL=
201412240600 AAXX 24064 67599 NIL=
201412230300 AAXX 23034 67599 NIL=
201412201500 AAXX 20154 67599 NIL=
201412190900 AAXX 19094 67599 NIL=
201412190600 AAXX 19064 67599 NIL=
201412180900 AAXX 18094 67599 NIL=
201412180600 AAXX 18064 67599 12980 70000 10255 20219 48536 60024 83032
                   333 10392 20222 58011 83360 87280
                   555 00230 91017=
201412160600 AAXX 16064 67599 32980 60906 10318 20198 48541 80002
                   333 10393 20250 58003 86080
                   555 00235 91015=
201412141500 AAXX 14154 67599 NIL=
201412110600 AAXX 11064 67599 NIL=
201412091200 AAXX 09124 67599 NIL=
201412090600 AAXX 09064 67599 32680 30904 10315 20199 48548 83130
                   333 10395 20240 59003 83848 81360
                   555 00235 91016=
201412080600 AAXX 08064 67599 12980 10907 10294 20192 48538 60074 81030
                   333 10385 20225 59008 81360
                   555 00225 91016=
201412050600 AAXX 05064 67599 12980 20905 10300 20207 48555 69904 82030
                   333 10365 20222 58003 82360
                   555 00220 91017=
201412040600 AAXX 04064 67599 12980 70907 10285 20197 48547 69904 8703/
                   333 10384 20245 58007 87460
                   555 00255 91017=
201412030900 AAXX 03094 67599 NIL=
201412020600 AAXX 02064 67599 32980 01206 10290 20140 48531
                   333 10360 20200 59018
                   555 00185 91015=
201412020300 AAXX 02034 67599 NIL=
201412010900 AAXX 01094 67599 NIL=

################################################################################
#  SYNOPS from 67625, Kalabo (Zambia) | 14-51S | 022-42E | 1033 m
################################################################################
201412300900 AAXX 30094 67625 NIL=
201412300600 AAXX 30064 67625 NIL=
201412240600 AAXX 24064 67625 11979 83504 10187 20185 48/// 60094 76166 8802/
                   333 10315 20174 58014 88460
                   555 00/// 20000=
201412230300 AAXX 23034 67625 NIL=
201412220600 AAXX 22064 67625 12482 62904 10210 20197 48/// 60074 867//
                   333 10249 20184 58000 86725
                   555 00/// 20007=
201412201500 AAXX 20154 67625 NIL=
201412190900 AAXX 19094 67625 32682 52906 10265 20209 48/// 85201
                   333 59011 82835 83075=
201412190600 AAXX 19064 67625 12982 62904 1//// 20198 48/// 60504 8604/
                   333 10230 20195 59009 86465
                   555 00/// 20050=
201412180900 AAXX 18094 67625 NIL=
201412161200 AAXX 16124 67625 42682 63403 10292 20194 48/// 85200
                   333 58011 85840=
201412160900 AAXX 16094 67625 41582 63606 10268 20218 48/// 72166 83130
                   333 58012 83827 86360=
201412160600 AAXX 16064 67625 11482 73605 10211 20207 48/// 60084 75066 876//
                   333 10339 20185 58008 87710
                   555 00/// 20994=
201412141500 AAXX 14154 67625 NIL=
201412110600 AAXX 11064 67625 NIL=
201412091200 AAXX 09124 67625 NIL=
201412050600 AAXX 05064 67625 11682 80704 10195 20193 48/// 60134 72055 8272/
                   333 10334 20184 58021 82715 87460=
201412040600 AAXX 04064 67625 32982 70000 10219 20203 48/// 8702/
                   333 10304 20189 58003 87460=
201412030900 AAXX 03094 67625 NIL=
201412020300 AAXX 02034 67625 NIL=
201412010900 AAXX 01094 67625 NIL=

################################################################################
#  SYNOPS from 67633, Mongu (Zambia) | 15-15S | 023-09E | 1052 m
################################################################################
201412300900 AAXX 30094 67633 42980 33310 10302 20209 48477 70200 80001
                   333 59047 83080 91012=
201412300600 AAXX 30064 67633 32980 43302 10245 20195 48479 70111 80001
                   333 10326 20205 59037 84080 91013=
201412240600 AAXX 24064 67633 11580 80000 10190 20188 48509 60114 76266 8457/
                   333 10295 20181 58070 84619 87460
                   555 00/// 20000 91017=
201412230300 AAXX 23034 67633 NIL=
201412201500 AAXX 20154 67633 NIL=
201412190900 AAXX 19094 67633 NIL=
201412190600 AAXX 19064 67633 NIL=
201412180900 AAXX 18094 67633 42580 70106 10284 20206 48519 84838
                   333 59004 83620 83822 85360 87280 91016=
201412180600 AAXX 18064 67633 32980 70703 10230 20197 48516 8707/
                   333 10315 20200 58000 87460 20003 91017=
201412141500 AAXX 14154 67633 NIL=
201412110600 AAXX 11064 67633 NIL=
201412091200 AAXX 09124 67633 NIL=
201412090600 AAXX 09064 67633 12980 80205 10200 20185 48513 69904 70222 8807/
                   333 10315 20195 58011 88460 91018=
201412080600 AAXX 08064 67633 12980 70103 10235 20192 48514 60064 70222 8707/
                   333 10317 20194 59002 87460 91017=
201412050600 AAXX 05064 67633 12980 80000 10198 20194 48543 60194 70262 8807/
                   333 10329 20184 58031 88460 91021=
201412040600 AAXX 04064 67633 12980 83502 10230 20194 48518 69904 8807/
                   333 10315 20201 59010 88460 91017=
201412030900 AAXX 03094 67633 NIL=
201412020300 AAXX 02034 67633 NIL=
201412010900 AAXX 01094 67633 NIL=

################################################################################
#  SYNOPS from 67641, Kaoma (Zambia) | 14-48S | 024-48E | 1213 m
################################################################################
201412300900 AAXX 30094 67641 NIL=
201412300600 AAXX 30064 67641 NIL=
201412240600 AAXX 24064 67641 12982 70000 10211 20202 48501 60194 8703/
                   333 10301 20204 58008 87360
                   555 00/// 20990 91016=
201412230300 AAXX 23034 67641 NIL=
201412201500 AAXX 20154 67641 NIL=
201412190900 AAXX 19094 67641 NIL=
201412190600 AAXX 19064 67641 NIL=
201412180900 AAXX 18094 67641 NIL=
201412180600 AAXX 18064 67641 32975 70000 10221 20200 48501 60024 70222 87060
                   333 10286 20196 59010 87360
                   555 00/// 91016=
201412160600 AAXX 16064 67641 32575 71801 10214 20187 48500 62074 76066 877//
                   333 10307 20182 59007 87730
                   555 00/// 20002 91016=
201412141500 AAXX 14154 67641 NIL=
201412110600 AAXX 11064 67641 NIL=
201412091200 AAXX 09124 67641 NIL=
201412090600 AAXX 09064 67641 32575 70000 10220 20168 48501 70200 8656/
                   333 10340 20198 58009 86630 81360 91016=
201412080600 AAXX 08064 67641 32980 00000 10236 20184 48933 70200
                   333 10/// 20181 59010 91015=
201412050600 AAXX 05064 67641 11982 80000 10216 20193 48533 75055 8453/
                   333 10302 20206 58020 84640 87360 91020=
201412030900 AAXX 03094 67641 NIL=
201412030600 AAXX 03064 67641 11680 80000 10196 20187 48504 60054 76066 8157/
                   333 10325 20192 58009 81640 87460
                   555 00/// 20000 91016=
201412020600 AAXX 02064 67641 32982 40603 10228 20186 48498 84030
                   333 10294 20181 59021 84360 91015=
201412020300 AAXX 02034 67641 NIL=
201412010900 AAXX 01094 67641 NIL=

################################################################################
#  SYNOPS from 67655, Mumbwa (Zambia) | 15-04S | 027-11E | 1216 m
################################################################################
201412300900 AAXX 30094 67655 NIL=
201412300600 AAXX 30064 67655 NIL=
201412240600 AAXX 24064 67655 NIL=
201412230300 AAXX 23034 67655 NIL=
201412201500 AAXX 20154 67655 NIL=
201412190900 AAXX 19094 67655 NIL=
201412190600 AAXX 19064 67655 NIL=
201412180900 AAXX 18094 67655 NIL=
201412141500 AAXX 14154 67655 NIL=
201412110600 AAXX 11064 67655 NIL=
201412091200 AAXX 09124 67655 NIL=
201412030900 AAXX 03094 67655 NIL=
201412020300 AAXX 02034 67655 NIL=
201412010900 AAXX 01094 67655 NIL=

################################################################################
#  SYNOPS from 67659, Kafue Polder (Zambia) | 15-46S | 027-55E | 978 m
################################################################################
201412300900 AAXX 30094 67659 NIL=
201412300600 AAXX 30064 67659 NIL=
201412240600 AAXX 24064 67659 NIL=
201412230300 AAXX 23034 67659 NIL=
201412201500 AAXX 20154 67659 NIL=
201412190900 AAXX 19094 67659 NIL=
201412190600 AAXX 19064 67659 NIL=
201412180900 AAXX 18094 67659 NIL=
201412141500 AAXX 14154 67659 NIL=
201412110600 AAXX 11064 67659 NIL=
201412091200 AAXX 09124 67659 NIL=
201412030900 AAXX 03094 67659 NIL=
201412020300 AAXX 02034 67659 NIL=
201412010900 AAXX 01094 67659 NIL=

################################################################################
#  SYNOPS from 67662, Kabwe Agric (Zambia) | 14-24S | 028-30E | 1165 m
################################################################################
201412300900 AAXX 30094 67662 NIL=
201412300600 AAXX 30064 67662 11960 82702 10193 60134 76166 8807/
                   333 10292 20/// 88459
                   555 00/// 20000=
201412240600 AAXX 24064 67662 12980 71003 10211 20201 60514 86032
                   333 10269 20/// 86360 83080
                   555 00/// 20011=
201412230300 AAXX 23034 67662 NIL=
201412201500 AAXX 20154 67662 NIL=
201412190900 AAXX 19094 67662 NIL=
201412190600 AAXX 19064 67662 NIL=
201412180900 AAXX 18094 67662 NIL=
201412160600 AAXX 16064 67662 12380 81702 10202 20192 48/// 60154 886//
                   333 10318 20/// 5//// 88707=
201412141500 AAXX 14154 67662 NIL=
201412110600 AAXX 11064 67662 NIL=
201412091200 AAXX 09124 67662 NIL=
201412030900 AAXX 03094 67662 NIL=
201412020300 AAXX 02034 67662 NIL=
201412010900 AAXX 01094 67662 NIL=

################################################################################
#  SYNOPS from 67663, Kabwe (Zambia) | 14-27S | 028-28E | 1206 m
################################################################################
201412300900 AAXX 30094 67663 NIL=
201412300600 AAXX 30064 67663 11360 83011 10192 20184 48493 60154 76166 8177/
                   333 10300 20186 59022 81708 88460
                   555 00///=
201412240600 AAXX 24064 67663 12980 52708 10220 20193 48525 60314 85032
                   333 10282 20185 58007 85360 82080
                   555 00///=
201412230600 AAXX 23064 67663 12580 62011 10226 20200 48519 60034 86538
                   333 10235 20190 59006 86620 82360 85280
                   555 00///=
201412230300 AAXX 23034 67663 NIL=
201412201500 AAXX 20154 67663 NIL=
201412190900 AAXX 19094 67663 NIL=
201412190600 AAXX 19064 67663 11980 82708 10185 20173 48528 60204 76166 8807/
                   333 10310 20172 58002 88460
                   555 00///=
201412180900 AAXX 18094 67663 NIL=
201412180600 AAXX 18064 67663 12980 63603 10217 20193 48528 60094 70222
                   333 10310 20188 58003
                   555 00///=
201412160600 AAXX 16064 67663 12580 82011 10200 20186 48531 60094 8257/
                   333 10310 20186 58020 82620 88460
                   555 00///=
201412141500 AAXX 14154 67663 NIL=
201412110600 AAXX 11064 67663 11970 61708 10223 20192 48533 60044 70522 84032
                   333 10304 20190 58000 86360 83080
                   555 00///=
201412091200 AAXX 09124 67663 NIL=
201412090600 AAXX 09064 67663 11470 61803 10211 20185 48522 60174 70522 81530
                   333 10342 20177 58008 81620 85360
                   555 00///=
201412080600 AAXX 08064 67663 31970 30907 10238 20136 48517 70500 80002
                   333 10334 20194 59022 83080=
201412040600 AAXX 04064 67663 11970 20203 10255 20154 48541 60014 70500 82030
                   333 10315 20194 58016 82360
                   555 00///=
201412030900 AAXX 03094 67663 NIL=
201412020600 AAXX 02064 67663 11570 80706 10216 20116 48518 69904 76066 885//
                   333 10306 20204 59010 88625
                   555 00///=
201412020300 AAXX 02034 67663 NIL=
201412010900 AAXX 01094 67663 NIL=

################################################################################
#  SYNOPS from 67665, Lusaka Internationalairport (Zambia) | 15-19S | 028-27E | 1152 m
################################################################################
201412310600 AAXX 31064 67665 32460 73403 10199 20176 48487 70222 84530
                   333 10288 20//0 59006 84715 86359=
201412310300 AAXX 31034 67665 42360 70000 10195 20180 48470 70222 83630
                   333 5//// 83709 87359=
201412301200 AAXX 30124 67665 42560 72805 10251 20198 48467 70162 8353/
                   333 59024 83620 87360=
201412300900 AAXX 30094 67665 NIL=
201412300600 AAXX 30064 67665 NIL=
201412292100 AAXX 29214 67665 41/80 72005 10230 20185 48506 71322 81930
                   333 59008 819// 86360=
201412291800 AAXX 29184 67665 42980 30000 10228 20165 48495 70222 82032
                   333 59010 83360 82080=
201412291500 AAXX 29154 67665 42680 72406 10256 20173 48489 70222 83232
                   333 59003 83845 85360 84080=
201412291200 AAXX 29124 67665 42680 62904 10266 20175 48495 70222 85232
                   333 59018 85830 85360 83080=
201412290600 AAXX 29064 67665 32980 10210 20140 48514 70222 8707/
                   333 10/// 20/// 59009 87459
                   555 00///=
201412290000 AAXX 29004 67665 42980 73102 10207 20143 48501 70222 8703/
                   333 59009 87360=
201412282100 AAXX 28214 67665 42970 62402 10216 20142 48512 70122 86030
                   333 59001 86360=
201412281800 AAXX 28184 67665 42760 72503 10228 20168 48505 70222 81932
                   333 10291 58001 81950 86360 81080=
201412281500 AAXX 28154 67665 42660 72406 10272 20171 48555 70222 81132
                   333 58014 81845 82360 86080=
201412281200 AAXX 28124 67665 42660 62414 10271 20211 48511 70222 83231
                   333 58015 83835 86360 81080=
201412280900 AAXX 28094 67665 42560 72614 10248 20205 48521 8384/
                   333 58004 81625 83830 87459=
201412280600 AAXX 28064 67665 12460 73007 10205 20183 48523 60074 8357/
                   333 10301 20//0 58005 83610 87459=
201412271500 AAXX 27154 67665 42680 60000 10277 20179 48480 70222 83232
                   333 59010 83845 83360 84080=
201412271200 AAXX 27124 67665 42680 52704 10259 20193 48485 81930
                   333 59024 81930 84830 84360=
201412270600 AAXX 27064 67665 31380 70302 10220 20174 48519 84531
                   333 59018 84610 83360 81080=
201412270300 AAXX 27034 67665 42980 63503 10200 20169 48507 86030
                   333 59015 86360=
201412270000 AAXX 27004 67665 42680 51602 10194 20162 48501 81930
                   333 59024 81940 84360=
201412262100 AAXX 26214 67665 42680 41303 10196 20165 48519 81930
                   333 59011 81940 84360=
201412261800 AAXX 26184 67665 42980 31302 10217 20188 48501 82061
                   333 59015 82360 82080=
201412251800 AAXX 25184 67665 42680 40605 10229 20149 48517 81902
                   333 58013 81942 84080=
201412251500 AAXX 25154 67665 42680 63602 10261 20146 48502 81902
                   333 58006 81935 84838 83080=
201412251200 AAXX 25124 67665 42580 73402 10256 20165 48524 70222 8197/
                   333 58013 81925 83830 86360=
201412250600 AAXX 25064 67665 41458 70000 10180 20180 48537 8357/
                   333 58013 83710 87458=
201412250300 AAXX 25034 67665 41658 72709 10177 20177 48532 81970
                   333 58022 81940 87458=
201412242100 AAXX 24214 67665 41780 70000 10//0 20//0 48/// 71322 81930
                   333 5//// 81950 86360=
201412241800 AAXX 24184 67665 41760 70000 10//0 20//0 48/// 71322 8193/
                   333 10290 59011 81950 87360=
201412241500 AAXX 24154 67665 41660 72504 10211 20203 48491 72992 8193/
                   333 59001 81935 87360 555=
201412241200 AAXX 24124 67665 42560 70806 10272 20174 48513 70322 81930
                   333 59010 81928 84830 86360=
201412240600 AAXX 24064 67665 12360 70602 10213 20202 48529 60014 85730
                   333 10289 20//0 58012 85709 87359=
201412240300 AAXX 24034 67665 42460 70000 10195 20179 48513 8153/
                   333 58009 81610 87359=
201412232100 AAXX 23214 67665 41660 71402 10201 20169 48533 76066 8197/
                   333 58015 81945 87459=
201412231800 AAXX 23184 67665 42680 71106 10201 20154 48513 8197/
                   333 58009 81942 87459=
201412231500 AAXX 23154 67665 42680 73403 10254 20204 48496 81930
                   333 58002 81935 82840 85360=
201412231200 AAXX 23124 67665 42680 70205 10270 20197 48503 81970
                   333 59013 81930 83835 83459=
201412230900 AAXX 23094 67665 42580 60505 10248 20196 48530 70222 85230
                   333 59002 85820 83360 91019=
201412230600 AAXX 23064 67665 32680 70504 10218 20188 48518 70242 8467/
                   333 10//0 20//0 59009 84708 87460=
201412230300 AAXX 23034 67665 NIL=
201412230000 AAXX 23004 67665 42980 70805 10200 20176 40507 8703/
                   333 59003 87360=
201412222100 AAXX 22214 67665 42980 71002 10200 20175 48519 70222 8703/
                   333 59003 87360=
201412221800 AAXX 22184 67665 41760 70000 10211 20181 48505 71392 8193/
                   333 10250 58000 81950 87360=
201412221500 AAXX 22154 67665 42660 73604 10230 20199 48492 70222 81532
                   333 58006 81645 81360 87280=
201412221200 AAXX 22124 67665 42660 70406 10245 20208 48513 70222 8193/
                   333 59020 81930 84832 87359=
201412220900 AAXX 22094 67665 42460 70703 10211 20181 48529 8457/
                   333 58015 84615 87459=
201412220600 AAXX 22064 67665 12360 71004 10190 20184 48523 60204 8377/
                   333 10293 20//0 58007 83708 87459=
201412210300 AAXX 21034 67665 42980 62704 10205 20182 48505 8607/
                   333 59013 86459=
201412210000 AAXX 21004 67665 42980 52404 10207 20185 48503 85070
                   333 59013 85359=
201412202100 AAXX 20214 67665 42980 51204 10205 20165 48520 81970
                   333 59011 819// 84459=
201412201500 AAXX 20154 67665 NIL=
201412191800 AAXX 19184 67665 42680 52303 10234 20146 48516 81962
                   333 58012 81940 83360 81080=
201412191500 AAXX 19154 67665 42680 72803 10289 20170 48504 83202
                   333 58001 83840 86080=
201412191200 AAXX 19124 67665 42680 72406 10260 20209 48517 83232
                   333 83832 82360 85080=
201412190900 AAXX 19094 67665 NIL=
201412190600 AAXX 19064 67665 NIL=
201412180900 AAXX 18094 67665 42680 63403 10256 20174 47537 85231
                   333 58005 85830 83360 82080=
201412180600 AAXX 18064 67665 31370 70203 10210 20177 48532 72842 84630
                   333 10292 20//0 58001 84709 82612 87360=
201412180300 AAXX 18034 67665 41/56 90503 10184 20144 48514 74622 85730
                   333 80003 85705 84360 91018=
201412180000 AAXX 18004 67665 42980 52701 10201 20153 48513 70222 85030
                   333 85360 91018=
201412172100 AAXX 17214 67665 42980 51402 10201 20145 48528 70222 85030
                   333 58005 85360 91020=
201412171500 AAXX 17154 67665 42680 70802 10218 20137 48508 70292 8114/
                   333 58010 81835 87459=
201412171200 AAXX 17124 67665 41580 73209 10243 20155 48511 72992 8493/
                   333 59012 81930 84832 86358=
201412170600 AAXX 17064 67665 32980 20000 10235 20175 48533 70200 82030
                   333 10272 20//0 58008 82360=
201412170000 AAXX 17004 67665 42980 40000 10195 20155 48516 70222 83032
                   333 58011 83360 82080=
201412162100 AAXX 16214 67665 41980 40000 10195 20147 48524 71322 81932
                   333 58013 81956 82360 82080=
201412161800 AAXX 16184 67665 42980 50903 10218 20155 48511 70222 82032
                   333 10256 58012 82360 83080=
201412161500 AAXX 16154 67665 42780 60401 10252 20190 48501 70122 81132
                   333 58015 81850 83360 83080=
201412161200 AAXX 16124 67665 42660 71002 10234 20199 48521 70222 8153/
                   333 58024 81635 87360=
201412160900 AAXX 16094 67665 42380 70706 10194 20187 48536 70222 8373/
                   333 59027 83708 87360=
201412151200 AAXX 15124 67665 42580 73104 10264 20165 48501 70222 82233
                   333 59027 82830 86360 81075=
201412150300 AAXX 15034 67665 42980 60903 10188 20163 48506 81970
                   333 59014 8197/ 86360=
201412150000 AAXX 15004 67665 42980 21303 10178 20145 48504 82030
                   333 59000 82360=
201412142100 AAXX 14214 67665 42680 21503 10179 20136 48517 81930
                   333 59005 81940 81360=
201412141500 AAXX 14154 67665 NIL=
201412131800 AAXX 13184 67665 42680 60602 10226 20173 48511 81970
                   333 59015 81940 86459=
201412131500 AAXX 13154 67665 41680 71402 10236 20183 48509 81970
                   333 59002 81935 82838 85459=
201412131200 AAXX 13124 67665 41660 60203 10236 20236 48513 81930
                   333 59026 81935 84838 83360=
201412130300 AAXX 13034 67665 42980 40000 10196 20165 48523 70222 84031
                   333 58000 84360 82080=
201412122100 AAXX 12214 67665 42980 40000 10197 20166 48533 70200 83031
                   333 58005 83360 82080=
201412121800 AAXX 12184 67665 42980 30000 10191 20158 48520 70100 83031
                   333 10250 58000 83360 81080=
201412121500 AAXX 12154 67665 42760 60603 10210 20194 48502 70162 81932
                   333 58004 81950 83360 85080=
201412121200 AAXX 12124 67665 41659 72106 10210 20195 48535 76062 8197/
                   333 58030 81930 84835 87459=
201412112100 AAXX 11214 67665 42760 72502 10200 20191 48528 8197/
                   333 58005 81950 87459=
201412111800 AAXX 11184 67665 41759 72402 20209 48524 76022 8197/
                   333 10305 58018 81956 87459=
201412111500 AAXX 11154 67665 41760 72611 10261 20168 48604 78022 81932
                   333 58015 81950 86360 83080=
201412111200 AAXX 11124 67665 41660 71503 10282 20166 48514 78022 81902
                   333 58006 81940 84845 86279=
201412110900 AAXX 11094 67665 42680 60708 10275 20194 48541 70222 84231
                   333 59006 84835 83360 82080=
201412110600 AAXX 11064 67665 12580 61003 10234 20191 48539 60014 70222 82231
                   333 10295 20/// 59001 82820 85360 82080=
201412110300 AAXX 11034 67665 42980 70404 10212 20122 48517 70222 8703/
                   333 59003 87359=
201412110000 AAXX 11004 67665 42980 63406 10207 20120 48516 70321 86030
                   333 58000 86360=
201412102100 AAXX 10214 67665 42980 61005 10221 20131 48526 70310 86030
                   333 58018 86360=
201412101800 AAXX 10184 67665 42980 21102 10247 20134 48510 70100 81031
                   333 10295 58003 81360 81080=
201412101500 AAXX 10154 67665 42780 32703 10284 20162 48492 70182 81932
                   333 58009 81950 81360=
201412101200 AAXX 10124 67665 41660 71010 10289 20166 48521 78022 81931
                   333 58010 81940 85845 81360 81080=
201412100900 AAXX 10094 67665 42680 61003 10233 20175 48540 70222 83230
                   333 58009 83835 84360=
201412100600 AAXX 10064 67665 12580 60903 10205 20183 48538 60024 70222 84230
                   333 59001 84820 85358=
201412091500 AAXX 09154 67665 42680 71403 10314 20142 48486 70322 81302
                   333 58001 81945 87080=
201412091200 AAXX 09124 67665 NIL=
201412090900 AAXX 09094 67665 42780 70203 10250 20120 48509 70222 81330
                   333 58012 81845 87360=
201412090300 AAXX 09034 67665 42680 61407 10226 20156 48525 81970
                   333 58007 81932 85459=
201412090000 AAXX 09004 67665 42680 40000 10233 20134 48512 81970
                   333 59009 81930 84459=
201412082100 AAXX 08214 67665 42980 31303 10234 20105 48508 83030
                   333 59014 83360=
201412081800 AAXX 08184 67665 42980 20903 10276 20121 48501 82030
                   333 59007 82360=
201412071800 AAXX 07184 67665 42980 11006 10255 20077 48505 81060
                   333 59012 81360=
201412071500 AAXX 07154 67665 42680 30715 10318 20078 48496 83200
                   333 59014 83848=
201412071200 AAXX 07124 67665 42680 20508 10310 20125 48518 82200
                   333 59009 82845=
201412070300 AAXX 07034 67665 42980 01203 10160 20075 48521 70200
                   333 59005=
201412062100 AAXX 06214 67665 42980 01303 10213 20089 48523 70200
                   333 59007=
201412061500 AAXX 06154 67665 42980 10911 10321 20081 48511 70200 81031
                   333 58006 81360 81080=
201412061200 AAXX 06124 67665 42980 20810 10327 20080 48530 70200 81101
                   333 58005 81848 81080=
201412060900 AAXX 06094 67665 42980 10809 10308 20092 48550 70200 80001
                   333 59001 81080 91020=
201412060600 AAXX 06064 67665 32980 21011 10245 20125 48552 70100 80001
                   333 10350 20//0 59002 82080
                   555 00///=
201412060300 AAXX 06034 67665 41970 10902 10167 20086 48527 70500 80002
                   333 58002 81080=
201412052100 AAXX 05214 67665 41970 21603 10210 20132 48530 70500 80002
                   333 59004 82080=
201412051800 AAXX 05184 67665 42980 41203 10258 20128 48521 70222 81032
                   333 59001 81360 84080=
201412051500 AAXX 05154 67665 42780 51009 10325 20126 48507 70222 82202
                   333 58002 82850 84080=
201412050900 AAXX 05094 67665 42680 50405 10301 20147 48551 70322 82102
                   333 58007 82830 85280 91021=
201412050300 AAXX 05034 67665 42980 22404 10192 20095 48527 70300 80002
                   333 58011 82080=
201412050000 AAXX 05004 67665 42980 12303 10202 20095 48522 70200 81030
                   333 58010 81360=
201412042100 AAXX 04214 67665 42980 41280 10237 20087 48537 70100 81030
                   333 58012 81360=
201412041800 AAXX 04184 67665 42980 31304 10262 20123 48522 83032
                   333 58008 83360 81080=
201412041500 AAXX 04154 67665 42680 70706 10319 20128 48513 82230
                   333 58009 82848 87360=
201412040900 AAXX 04094 67665 41670 60509 10296 20138 48544 70522 81132
                   333 59003 81830 83360 83080=
201412040600 AAXX 04064 67665 42980 10906 10252 20130 48548 80001
                   333 58010 81080=
201412040000 AAXX 04004 67665 42980 33402 10220 20099 48514 83030
                   333 58009 83360=
201412032100 AAXX 03214 67665 42980 22703 10236 20095 48526 82030
                   333 58010 82360=
201412031500 AAXX 03154 67665 42680 41108 10308 20125 48493 70122 82231
                   333 59009 82845 81360 82080=
201412030900 AAXX 03094 67665 42680 53305 10268 20125 48528 70222 85230
                   333 58003 85840 82360=
201412030600 AAXX 03064 67665 32780 50702 10230 20123 48531 70222 83031
                   333 10280 20//0 58012 83360 82080=
201412030300 AAXX 03034 67665 42980 50603 10208 20161 48515 85030
                   333 58009 85360=
201412022100 AAXX 02214 67665 42980 11300 10200 20125 48511 81030
                   333 59001 81360=
201412021800 AAXX 02184 67665 42980 41303 10237 20141 48506 84030
                   333 59005 84360=
201412021500 AAXX 02154 67665 42780 60908 10267 20149 48498 81330
                   333 58000 81950 84360=
201412020300 AAXX 02034 67665 NIL=
201412011800 AAXX 01184 67665 42680 71207 10242 20155 48511 81930
                   333 59003 81940 87360=
201412011200 AAXX 01124 67665 42580 50807 10278 48511 83831
                   333 59003 81638 81360 81080=
201412010900 AAXX 01094 67665 42580 50606 10258 20120 48535 70222 83530
                   333 59003 83828 83360=

################################################################################
#  SYNOPS from 67666, Lusaka City Airport (Zambia) | 15-25-00S | 028-28-00E | 1280 m
################################################################################
201412300900 AAXX 30094 67666 42480 82911 10200 20185 48480 8557/
                   333 59026 85610 86360 91014=
201412300600 AAXX 30064 67666 11380 81904 10190 20182 48487 60294 76122 8157/
                   333 10280 20170 59022 81704 87608 81359 91015=
201412240600 AAXX 24064 67666 NIL=
201412230300 AAXX 23034 67666 NIL=
201412221200 AAXX 22124 67666 42480 80000 10235 20215 48514 84230
                   333 59005 84820 87359 91019=
201412201500 AAXX 20154 67666 NIL=
201412190900 AAXX 19094 67666 NIL=
201412190600 AAXX 19064 67666 NIL=
201412180900 AAXX 18094 67666 NIL=
201412180600 AAXX 18064 67666 11380 70905 10203 20186 48520 60084 8387/
                   333 10281 20183 58004 81706 82610 85459 91019=
201412161200 AAXX 16124 67666 42480 70000 10230 20185 48516 8227/
                   333 58013 82828 85360 91018=
201412160900 AAXX 16094 67666 42480 80000 10205 20182 48554 885//
                   333 58030 88622 91021=
201412160600 AAXX 16064 67666 11480 80907 10190 20182 48528 60014 8157/
                   333 10270 20175 58011 81612 87358 91020=
201412141500 AAXX 14154 67666 NIL=
201412110600 AAXX 11064 67666 NIL=
201412091200 AAXX 09124 67666 42580 70909 10300 20182 48508 82231
                   333 58009 82825 84360 81080 91016=
201412090600 AAXX 09064 67666 12980 70605 10205 20173 48532 60014 87070
                   333 10332 20175 58013 87359 91020=
201412080600 AAXX 08064 67666 32980 00612 10236 20154 48524
                   333 10320 20192 58010 91019=
201412050900 AAXX 05094 67666 42580 41208 10290 20169 48544 83201
                   333 58011 82820 81080 91020=
201412050600 AAXX 05064 67666 32980 20605 10250 20182 48548 82032
                   333 10315 20175 58008 82360 81080 91021=
201412041200 AAXX 04124 67666 42580 60206 10310 20157 48513 84230
                   333 58003 84850 83360 91016=
201412040900 AAXX 04094 67666 42580 41304 10285 20153 48532 81130
                   333 58004 81840 84360=
201412040600 AAXX 04064 67666 32980 20905 10250 20150 48513 83030
                   333 10309 20170 5//// 83360 91020=
201412030900 AAXX 03094 67666 NIL=
201412020600 AAXX 02064 67666 12980 70910 10215 20143 48516 69904 87070
                   333 10281 20195 59018 87360
                   555 00/// 20000 91018=
201412020300 AAXX 02034 67666 NIL=
201412010900 AAXX 01094 67666 NIL=

################################################################################
#  SYNOPS from 67667, Mount Makulu (Zambia) | 15-33S | 028-15E | 1213 m
################################################################################
201412300900 AAXX 30094 67667 NIL=
201412300600 AAXX 30064 67667 NIL=
201412240600 AAXX 24064 67667 NIL=
201412230300 AAXX 23034 67667 NIL=
201412201500 AAXX 20154 67667 NIL=
201412190900 AAXX 19094 67667 NIL=
201412190600 AAXX 19064 67667 NIL=
201412180900 AAXX 18094 67667 NIL=
201412141500 AAXX 14154 67667 NIL=
201412110600 AAXX 11064 67667 NIL=
201412091200 AAXX 09124 67667 NIL=
201412030900 AAXX 03094 67667 NIL=
201412020300 AAXX 02034 67667 NIL=
201412010900 AAXX 01094 67667 NIL=

################################################################################
#  SYNOPS from 67673, Petauke (Zambia) | 14-15S | 031-17E | 1035 m
################################################################################
201412300900 AAXX 30094 67673 41575 82004 10220 20200 48502 79592 8627/
                   333 59022 81930 86830 88459=
201412300600 AAXX 30064 67673 32580 72901 10235 20205 48509 8513/
                   333 10268 20210 59032 85828 87360
                   555 00/// 20016=
201412240600 AAXX 24064 67673 12980 83401 10234 20200 48548 69904 8807/
                   333 10282 20213 58013 88460=
201412230600 AAXX 23064 67673 12580 80501 10232 20203 48535 60174 84237
                   333 10310 20181 59011 84827 82360 88280=
201412230300 AAXX 23034 67673 NIL=
201412201500 AAXX 20154 67673 NIL=
201412190900 AAXX 19094 67673 41565 82801 10200 20193 48539 76399 8427/
                   333 58004 84825 88459=
201412190600 AAXX 19064 67673 31570 83601 10225 20203 48546 79592 8527/
                   333 10310 20220 58001 81925 85825 85825 88459
                   555 00/// 20013=
201412180900 AAXX 18094 67673 NIL=
201412180600 AAXX 18064 67673 12980 80901 10212 20198 48535 60134 8807/
                   333 10208 20199 58000 88460
                   555 00/// 20993=
201412141500 AAXX 14154 67673 NIL=
201412110600 AAXX 11064 67673 12584 40802 10240 20195 48556 69904 82131
                   333 10305 20200 59002 82830 84360 83080=
201412091200 AAXX 09124 67673 NIL=
201412090600 AAXX 09064 67673 32680 30203 10274 20166 48550 81131
                   333 10350 20215 58003 81832 81360 83080=
201412051200 AAXX 05124 67673 42684 62702 10315 20155 48531 86230
                   333 58005 86842 84360=
201412050600 AAXX 05064 67673 12684 43601 10284 20163 48565 60024 81131
                   333 10340 20225 58003 81832 83360 84080=
201412041200 AAXX 04124 67673 41680 63602 10300 20164 48523 72962 85232
                   333 58004 81940 85840 86360 84080=
201412040900 AAXX 04094 67673 42680 50205 10315 20154 48556 85231
                   333 58000 85840 82360 82080=
201412040600 AAXX 04064 67673 32980 43601 10270 20133 48560 82031
                   333 10340 20225 58005 82360 84080
                   555 00/// 20002=
201412031200 AAXX 03124 67673 42680 60902 10322 20120 48522 86200
                   333 58006 86845=
201412030900 AAXX 03094 67673 42680 40101 10290 20140 48551 84131
                   333 58010 84835 82360 83080=
201412021200 AAXX 02124 67673 41675 62702 10308 20120 48515 70522 86100
                   333 59009 86840=
201412020900 AAXX 02094 67673 41675 30603 10290 20120 48541 70500 83100
                   333 59013 83835=
201412020600 AAXX 02064 67673 31975 10904 10246 20132 48547 70500 81030
                   333 10300 20205 59010 81360
                   555 00/// 20000=
201412020300 AAXX 02034 67673 NIL=
201412010900 AAXX 01094 67673 41675 70902 10261 20150 48549 70532 872//
                   333 5//// 87835=

################################################################################
#  SYNOPS from 67731, Senanga (Zambia) | 16-06S | 023-16E | 1027 m
################################################################################
201412300900 AAXX 30094 67731 NIL=
201412300600 AAXX 30064 67731 32980 206// 10251 20176 48/// 70200 80008
                   333 10351 20194 5//// 82080
                   555 00/// 20000=
201412240600 AAXX 24064 67731 NIL=
201412230300 AAXX 23034 67731 NIL=
201412201500 AAXX 20154 67731 NIL=
201412190900 AAXX 19094 67731 NIL=
201412190600 AAXX 19064 67731 11370 809// 10209 20180 48/// 60034 76166 8377/
                   333 10315 20170 5//// 83709 88459=
201412180900 AAXX 18094 67731 NIL=
201412180600 AAXX 18064 67731 32980 716// 10230 20203 48/// 70222 87028
                   333 10315 20200 5//// 87462 82275
                   555 00/// 20063=
201412160600 AAXX 16064 67731 12680 816// 10217 20200 48/// 60024 70222 8352/
                   333 10247 20197 5//// 83640 88460
                   555 00/// 20000=
201412141500 AAXX 14154 67731 NIL=
201412110600 AAXX 11064 67731 12480 806// 10214 20180 48/// 60034 70322 8357/
                   333 10296 20149 5//// 83614 88760=
201412091200 AAXX 09124 67731 NIL=
201412090600 AAXX 09064 67731 11378 808// 10208 20174 48/// 69904 75055 8377/
                   333 10310 20165 5//// 83708 88459=
201412080600 AAXX 08064 67731 32980 329// 10228 20176 48/// 70300 80008
                   333 10277 20180 5//// 83180
                   555 00/// 20212=
201412050600 AAXX 05064 67731 12480 826// 10204 20194 48/// 60134 70222 8552/
                   333 10286 20190 5//// 85618 87460
                   555 00/// 20000=
201412040600 AAXX 04064 67731 32980 821// 10235 20199 48/// 70222 86027
                   333 10300 20203 5//// 86460 84275
                   555 00/// 20000=
201412030900 AAXX 03094 67731 NIL=
201412020600 AAXX 02064 67731 12980 112// 10248 20187 48/// 69964 70200 80008
                   333 10248 20191 5//// 81080
                   555 00/// 20105=
201412020300 AAXX 02034 67731 NIL=
201412010900 AAXX 01094 67731 NIL=

################################################################################
#  SYNOPS from 67741, Sesheke (Zambia) | 17-28S | 024-18E | 949 m
################################################################################
201412300900 AAXX 30094 67741 NIL=
201412300600 AAXX 30064 67741 32980 70901 10228 20211 48483 8707/
                   333 10340 20220 59009 87362
                   555 00/// 20000=
201412240600 AAXX 24064 67741 12980 30901 10235 20214 48513 60024 82032
                   333 10289 20199 58017 82362 82080
                   555 00/// 20005=
201412230300 AAXX 23034 67741 NIL=
201412201500 AAXX 20154 67741 NIL=
201412190900 AAXX 19094 67741 42980 43602 10290 20215 48523 81232
                   333 59011 81835 83362 82080=
201412190600 AAXX 19064 67741 12680 72701 10230 20203 48521 60184 81970
                   333 10320 20203 58000 81930 87362
                   555 20990=
201412180900 AAXX 18094 67741 NIL=
201412141500 AAXX 14154 67741 NIL=
201412110600 AAXX 11064 67741 NIL=
201412091200 AAXX 09124 67741 NIL=
201412090600 AAXX 09064 67741 12980 72702 10215 20195 48528 60104 8707/
                   333 10356 20213 58009 87460=
201412080600 AAXX 08064 67741 32980 62601 10230 20171 48521 86030
                   333 10355 20218 59011 86363=
201412050600 AAXX 05064 67741 12980 72001 10259 20188 48550 69904 87070
                   333 10340 20206 58024 87461=
201412040600 AAXX 04064 67741 32980 52802 10260 20204 48527 83032
                   333 10316 20201 58002 83362 82080=
201412030900 AAXX 03094 67741 NIL=
201412020300 AAXX 02034 67741 NIL=
201412010900 AAXX 01094 67741 NIL=

################################################################################
#  SYNOPS from 67743, Livingstone (Zambia) | 17-49S | 025-49E | 985 m
################################################################################
201412300900 AAXX 30094 67743 NIL=
201412300600 AAXX 30064 67743 12580 81803 10221 20195 48485 60034 70322 8553/
                   333 10323 20207 59013 85625 85358
                   555 00/// 20000 91014=
201412260600 AAXX 26064 67743 11359 70305 10215 20193 48505 60054 75065 8457/
                   333 10275 20205 59022 84609 87359
                   555 00/// 20015 91016=
201412240600 AAXX 24064 67743 12480 60808 10220 20196 48520 60054 70322 84530
                   333 10301 20208 58013 84615 84358
                   555 00/// 20006 91018=
201412230300 AAXX 23034 67743 NIL=
201412201500 AAXX 20154 67743 NIL=
201412191200 AAXX 19124 67743 42680 53211 10304 20183 48504 70222 84231
                   333 58004 84842 81360 82080 91014=
201412190900 AAXX 19094 67743 NIL=
201412190600 AAXX 19064 67743 32480 73005 10230 20193 48523 70222 8133/
                   333 10309 20/// 59004 819// 81618 87360
                   555 00/// 20035 91018=
201412180900 AAXX 18094 67743 NIL=
201412150600 AAXX 15064 67743 12580 81503 10223 20197 48517 60164 70322 8353/
                   333 10322 20202 59019 83620 87358
                   555 20016 91017=
201412141500 AAXX 14154 67743 NIL=
201412110600 AAXX 11064 67743 12580 43101 10272 20183 48532 60018 81531
                   333 10320 20197 59008 81635 81360 83080
                   555 91018=
201412091200 AAXX 09124 67743 NIL=
201412030900 AAXX 03094 67743 NIL=
201412020300 AAXX 02034 67743 NIL=
201412010900 AAXX 01094 67743 42680 70907 10266 20166 48535 83230
                   333 58003 83835 86358 91019=

################################################################################
#  SYNOPS from 67751, Magoye (Zambia) | 16-00S | 027-36E | 1018 m
################################################################################
201412300900 AAXX 30094 67751 NIL=
201412300600 AAXX 30064 67751 NIL=
201412240600 AAXX 24064 67751 NIL=
201412230300 AAXX 23034 67751 NIL=
201412201500 AAXX 20154 67751 NIL=
201412190900 AAXX 19094 67751 NIL=
201412190600 AAXX 19064 67751 NIL=
201412180900 AAXX 18094 67751 NIL=
201412141500 AAXX 14154 67751 NIL=
201412110600 AAXX 11064 67751 NIL=
201412091200 AAXX 09124 67751 NIL=
201412030900 AAXX 03094 67751 NIL=
201412020300 AAXX 02034 67751 NIL=
201412010900 AAXX 01094 67751 NIL=

################################################################################
#  SYNOPS from 67753, Choma (Zambia) | 16-50S | 027-04E | 1213 m
################################################################################
201412300900 AAXX 30094 67753 NIL=
201412300600 AAXX 30064 67753 12560 70000 10215 20193 48483 69904 8453/
                   333 10310 20185 59022 82620 82828 83360
                   555 00///=
201412240600 AAXX 24064 67753 12560 40209 10228 20202 48523 69944 83830
                   333 10257 20193 58005 81620 82825 81360
                   555 00///=
201412230300 AAXX 23034 67753 NIL=
201412201500 AAXX 20154 67753 NIL=
201412190900 AAXX 19094 67753 NIL=
201412190600 AAXX 19064 67753 32360 80120 10205 20192 48521 8267/
                   333 10257 20195 58001 82709 86360=
201412180900 AAXX 18094 67753 NIL=
201412180600 AAXX 18064 67753 12560 60000 10213 20194 48521 60014 8127/
                   333 10284 20180 58005 81825 86360=
201412160600 AAXX 16064 67753 12560 83619 10191 20184 48528 60344 82557
                   333 10300 20171 58014 82620 82360 84280=
201412141500 AAXX 14154 67753 NIL=
201412110600 AAXX 11064 67753 32660 60000 10230 20177 48532 82230
                   333 10276 20183 59004 82830 84360=
201412091200 AAXX 09124 67753 NIL=
201412090600 AAXX 09064 67753 32960 60729 10246 20162 48524 86030
                   333 10326 20195 58009 86360
                   555 00///=
201412080600 AAXX 08064 67753 32960 60308 10239 20136 48513 86030
                   333 10329 20189 59012 86360=
201412050600 AAXX 05064 67753 32960 22106 10241 20138 48534 80002
                   333 10317 20166 5//// 82080=
201412040600 AAXX 04064 67753 32560 12706 10255 20206 48/// 81131
                   333 10301 20171 5//// 81830 81360 81080=
201412030900 AAXX 03094 67753 NIL=
201412030600 AAXX 03064 67753 12960 40811 10224 20171 48522 60154 84030
                   333 10271 20178 58005 84360=
201412020600 AAXX 02064 67753 32560 50806 10221 20175 48522 81130
                   333 10260 20181 59017 81830 84360=
201412020300 AAXX 02034 67753 NIL=
201412010900 AAXX 01094 67753 NIL=

################################################################################
#  SYNOPS from 67855, Lupaki (Zambia) | 17-03-00S | 024-46-00E | 1000 m
################################################################################
201412310600 AAXX 31064 67855 11575 70904 10226 20194 3//// 48/// 60034 70252 8557/
                   333 20199 5//// 85625 87459=
201412301200 AAXX 30124 67855 42675 71601 10268 20193 3//// 48/// 70252 8557/
                   333 5//// 85635 87459=
201412300600 AAXX 30064 67855 12575 71601 10210 20193 3//// 48/// 60134 70262 8557/
                   333 20202 5//// 85620 87459=
201412291200 AAXX 29124 67855 41675 73302 10272 20202 3//// 48/// 71798 84273
                   333 5//// 81925 83830 87459=
201412290600 AAXX 29064 67855 12575 53401 10248 20205 3//// 48/// 69904 81531
                   333 20194 5//// 83360 85080=
201412281200 AAXX 28124 67855 NIL=
201412280600 AAXX 28064 67855 11975 70000 10208 20198 3//// 48/// 60034 70298 85072
                   333 20198 5//// 85459 87080=
201412271200 AAXX 27124 67855 41670 50103 10276 20204 3//// 48/// 72585 85232
                   333 5//// 85840 83360=
201412270600 AAXX 27064 67855 12975 73601 10238 20200 3//// 48/// 69904 8707/
                   333 20198 5//// 87459=
201412261200 AAXX 26124 67855 42675 73603 10288 20199 3//// 48/// 78082 85233
                   333 59021 81930 85835 85080=
201412260600 AAXX 26064 67855 12575 70301 10214 20200 3//// 48/// 60124 82502
                   333 20198 5//// 82620 87080=
201412251200 AAXX 25124 67855 NIL=
201412250600 AAXX 25064 67855 12575 70602 10220 20208 3//// 48/// 60234 85572
                   333 20204 5//// 85625 87459=
201412241200 AAXX 24124 67855 53401 10298 20204 3//// 48/// 71792 85233
                   333 5//// 81925 84830=
201412240600 AAXX 24064 67855 NIL=
201412231200 AAXX 23124 67855 41670 50603 10304 20198 3//// 48/// 72598 85232
                   333 5//// 85840 83360=
201412221200 AAXX 22124 67855 NIL=
201412220600 AAXX 22064 67855 NIL=
201412211200 AAXX 21124 67855 41675 73001 10278 20204 3//// 48/// 72992 83232
                   333 5//// 83840 85360 87080=
201412200600 AAXX 20064 67855 NIL=
201412191200 AAXX 19124 67855 41970 73604 10294 20196 3//// 48/// 71792 85203
                   333 5//// 81925 84830 87080=
201412181200 AAXX 18124 67855 NIL=
201412180600 AAXX 18064 67855 NIL=
201412171200 AAXX 17124 67855 41670 63102 10304 20154 3//// 48/// 79598 85273
                   333 5//// 81925 84830 86080=
201412160600 AAXX 16064 67855 11970 70000 10200 20198 3//// 48/// 60184 76098 87072
                   333 20195 5//// 87458=
201412151200 AAXX 15124 67855 41675 73301 10278 20190 3//// 48/// 70262 85201
                   333 5//// 85840 87080=
201412150600 AAXX 15064 67855 12975 73601 10228 20198 3//// 48/// 60034 8707/
                   333 20195 5//// 87459=
201412141200 AAXX 14124 67855 41675 73301 10270 20191 3//// 48/// 70362 8527/
                   333 5//// 85840 87459=
201412140600 AAXX 14064 67855 NIL=
201412131200 AAXX 13124 67855 NIL=
201412130600 AAXX 13064 67855 NIL=
201412121200 AAXX 12124 67855 71675 70303 10234 20189 3//// 48/// 72162 8557/
                   333 5//// 85635 87360=
201412120600 AAXX 12064 67855 11670 70000 10200 20193 3//// 48/// 60184 78098 83272
                   333 20191 5//// 83830 87458=
201412111200 AAXX 11124 67855 41670 80303 10314 20183 3//// 48/// 71791 85233
                   333 5//// 81925 84830=
201412110600 AAXX 11064 67855 32975 30601 10250 20194 3//// 48/// 81031
                   333 20186 5//// 81360 83080=
201412101200 AAXX 10124 67855 NIL=
201412100600 AAXX 10064 67855 11975 63603 10210 20188 3//// 48/// 60154 70198 86071
                   333 20158 5//// 86459=
201412091200 AAXX 09124 67855 NIL=
201412090600 AAXX 09064 67855 31975 73601 10210 20188 3//// 48/// 60034 72162 8707/
                   333 20185 5//// 87459=
201412081200 AAXX 08124 67855 41775 73202 10318 20156 3//// 48/// 70262 8113/
                   333 5//// 81850 87360=
201412080600 AAXX 08064 67855 12975 60000 10238 20161 3//// 48/// 69904 86030
                   333 20214 5//// 86360=
201412071200 AAXX 07124 67855 41770 70000 10358 20143 3//// 48/// 70522 8523/
                   333 5//// 85850 87360=
201412070600 AAXX 07064 67855 31970 71203 10244 20155 3//// 48/// 70522 8707/
                   333 20230 5//// 87360=
201412061200 AAXX 06124 67855 NIL=
201412060600 AAXX 06064 67855 31970 20604 10262 20115 3//// 48/// 70500 80002
                   333 20168 5//// 82080=
201412051200 AAXX 05124 67855 41870 60000 10368 20114 3//// 48/// 70511 82102
                   333 5//// 82857 86080=
201412050600 AAXX 05064 67855 31970 40000 10230 20126 3//// 48/// 70500 80001
                   333 20132 5//// 84080=
201412041200 AAXX 04124 67855 41870 51602 10358 20118 3//// 48/// 70511 81102
                   333 5//// 81857 85080=
201412040600 AAXX 04064 67855 31970 30703 10240 20101 3//// 48/// 70500 80001
                   333 20138 5//// 83080=
201412031200 AAXX 03124 67855 42775 30601 10326 20134 3//// 48/// 83201
                   333 5//// 83856=
201412030600 AAXX 03064 67855 32975 00603 10216 20096 3//// 48///
                   333 20128 5////=
201412021200 AAXX 02124 67855 42775 30303 10308 20125 38/// 48/// 83130
                   333 5//// 83856=
201412020600 AAXX 02064 67855 12975 51204 10218 20136 3//// 48/// 60064 85070
                   333 20162 5//// 85459=
201412011200 AAXX 01124 67855 42675 53601 10290 20171 3//// 48/// 85230
                   333 5//// 85845 83360=
201412010600 AAXX 01064 67855 12575 30302 10224 20180 3//// 48/// 60174 81531
                   333 20192 5//// 81620 83360=
