################################################################################
# Query made at 04/15/2022 01:56:23 UTC
# Country like Zamb*
# Time interval: from 11/01/2010 05:30  to 12/01/2010 06:30  UTC
################################################################################

################################################################################
#  SYNOPS from 67403, Kawambwa (Zambia) | 09-48S | 029-05E | 1323 m
################################################################################
201011250600 AAXX 25064 67403 32980 70000 10224 20165 48532 86032
                   333 10264 20148 58008 86362 81080=
201011050600 AAXX 05064 67403 11975 70000 10241 20186 48513 70522 86032
                   333 10350 20163 58005 86362 81080=

################################################################################
#  SYNOPS from 67413, Mbala (Zambia) | 08-51S | 031-20E | 1673 m
################################################################################
201011231200 AAXX 23124 67413 41365 83207 10185 20177 48497 72892 8877/
                   333 58026 88709 81918=
201011080600 AAXX 08064 67413 31670 70202 10222 20149 48513 10291 20140 59002 82830 87279
                   Q1021.3=

################################################################################
#  SYNOPS from 67441, Mwinilunga (Zambia) | 11-45S | 024-26E | 1361 m
################################################################################
201011300600 AAXX 30064 67441 12480 60000 10181 20172 48563 60054 82130
                   333 10210 20/// 59005 82818 86360=
201011260900 AAXX 26094 67441 42682 60000 10266 20175 48545 84130
                   333 58005 84830 83362=
201011250600 AAXX 25064 67441 12980 70000 10185 20179 48535 60014 8703/
                   333 10272 20//0 58003 87360=
201011180600 AAXX 18064 67441 10205 20166 48528 69904 8703/
                   333 10310 20//0 59004 87360
                   555 00///=
201011120600 AAXX 12064 67441 11980 70000 10169 20179 48534 60174 72166 8707/
                   333 10260 20/// 59007 87630=
201011110600 AAXX 11064 67441 NIL=
201011100600 AAXX 10064 67441 32980 50000 10218 20178 48553 85030
                   333 10280 20/// 58009 85360=
201011080900 AAXX 08094 67441 41580 70000 10217 20187 48534 70166 8213/
                   333 5//// 82820 87361=
201011080600 AAXX 08064 67441 11975 80000 10180 20170 48534 60214 70522 8007/
                   333 10315 20//0 58003 88460 00/// 20002=
201011050600 AAXX 05064 67441 11970 10000 10210 20174 48543 69904 70500 81030
                   333 10305 20/// 59002 81360=
201011040900 AAXX 04094 67441 41580 70000 10245 20172 48538 70522 81130
                   333 5//// 81825 87362=
201011040600 AAXX 04064 67441 11980 30000 10209 20175 48545 60124 70500 83030
                   333 10300 20/// 58009 83360=
201011030600 AAXX 03064 67441 11980 10000 10190 20174 48533 60424 72844 81030
                   333 10273 20//0 58010 81360=
201011020600 AAXX 02064 67441 31965 70000 10212 20162 48527 70520 8703/
                   333 10298 20/// 5//// 87360=

################################################################################
#  SYNOPS from 67461, Mansa (Zambia) | 11-06S | 028-51E | 1382 m
################################################################################
201011300600 AAXX 30064 67461 12580 52704 10210 20139 48507 60074 82038
                   333 10290 20158 58001 82364 86280=
201011291200 AAXX 29124 67461 42680 73106 10276 20179 48488 84231
                   333 58009 84840 83362 84080=
201011261200 AAXX 26124 67461 42680 50902 10295 20156 48492 85200
                   333 58004 85840=
201011260900 AAXX 26094 67461 42580 30908 10280 20159 48517 81230
                   333 58000 81830 83361=
201011250900 AAXX 25094 67461 42580 70904 10255 20155 48515 8227/
                   333 58003 82827=
201011250600 AAXX 25064 67461 32580 71002 10211 20179 48513 70322 8353/
                   333 10280 20169 58004 83620 86361=
201011241200 AAXX 24124 67461 41575 63502 10261 20169 48483 71799 84238
                   333 58008 81937 84840 82360 82082=
201011170900 AAXX 17094 67461 42780 30908 10300 20144 48503 70310 82101
                   333 59021 82856 81080 91016=
201011120600 AAXX 12064 67461 32980 51203 10230 20161 48495 80001
                   333 10337 20165 59022 85085=
201011110600 AAXX 11064 67461 NIL=
201011100600 AAXX 10064 67461 NIL=
201011090900 AAXX 09094 67461 42780 63604 10263 20165 48510 70522 85201
                   333 58012 85840 83080=
201011090600 AAXX 09064 67461 12980 70000 10205 20164 48519 6//// 70522 8707/
                   333 10326 20160 58032 87362=
201011050600 AAXX 05064 67461 31980 70905 10240 20162 48509 70522 82037
                   333 10323 20168 59007 82364 82780=
201011040600 AAXX 04064 67461 12980 70903 10220 20159 48524 60094 83037
                   333 10339 20160 58007 83364 87280=
201011030600 AAXX 03064 67461 31965 70903 10238 20146 48509 70522 84037
                   333 10350 20185 58007 84364 87280=
201011021200 AAXX 02124 67461 41865 10906 10330 20102 48482 70500 83100
                   333 59017 83857=
201011020900 AAXX 02094 67461 41965 00903 10300 20112 48494 70500
                   333 59017=
201011020600 AAXX 02064 67461 31965 30902 10242 20146 48501 70510 81031
                   333 10349 20175 59007 81364 84080=

################################################################################
#  SYNOPS from 67475, Kasama (Zambia) | 10-13S | 031-08E | 1382 m
################################################################################
201011180600 AAXX 18064 67475 31970 73606 10246 20120 48494 70522 80002
                   333 10326 20165 59014 87080
                   555 00/// 20000=
201011120600 AAXX 12064 67475 31970 63608 10240 20134 48498 70522 85032
                   333 10333 20198 59025 85360 86080=
201011110600 AAXX 11064 67475 31970 20104 10230 20138 48523 70500 80001
                   333 10328 20154 59001 82080=
201011100900 AAXX 10094 67475 41675 62406 10280 20147 48522 70522 84230
                   333 58002 84848 83361=
201011100600 AAXX 10064 67475 11575 70602 10211 20163 48532 69904 70522 8707/
                   333 10319 20168 58011 87360=
201011090900 AAXX 09094 67475 41775 72413 10275 20151 48520 70522 8527/
                   333 58025 85850 87361=
201011090600 AAXX 09064 67475 31975 72707 10235 20148 48523 70522 8708/
                   333 10339 20173 58022 87360=
201011080900 AAXX 08094 67475 41875 43206 10302 20098 48495 70500 84100
                   333 59012 84858 91017=
201011080600 AAXX 08064 67475 31975 03607 10262 20087 48502 70500
                   333 10357 20154 59011 Q1017.9=
201011050900 AAXX 05094 67475 41975 10807 10311 20056 48511 70500 80001
                   333 58006 81080=
201011050600 AAXX 05064 67475 31975 00405 10252 20069 48525 70522
                   333 10334 20163 58006=
201011040900 AAXX 04094 67475 41870 33506 10309 20126 48505 70500 81301
                   333 58010 83857 81080=
201011040600 AAXX 04064 67475 31970 31504 10240 20144 48518 70500 80001
                   333 10336 20169 58010 83080=
201011011200 AAXX 01124 67475 41975 10807 10330 20054 48476 70500 81100
                   333 59028 81859=

################################################################################
#  SYNOPS from 67477, Mpika (Zambia) | 11-54S | 031-26E | 1400 m
################################################################################
201012010600 AAXX 01064 67477 12480 71106 10209 20170 48507 60034 82108
                   333 10297 20149 58001 82818 86280=
201011301200 AAXX 30124 67477 41780 70303 10290 20152 48460 70292 84268
                   333 58004 81956 84856 81360 85280=
201011300600 AAXX 30064 67477 12980 62402 10229 20160 48507 60014 81088
                   333 10322 20158 58002 81360 86280=
201011260600 AAXX 26064 67477 32580 10908 10230 20159 48516 81100
                   333 10292 20165 58003 81827=
201011250600 AAXX 25064 67477 12980 61105 10239 20170 48513 60014 86030
                   333 10270 20151 59004 86361=
201011221200 AAXX 22124 67477 41680 72702 10263 20152 48455 71792 8427/
                   333 5//// 81935 84835 87461=
201011120600 AAXX 12064 67477 32980 20603 10241 20140 48499 81081
                   333 10330 20161 59020 81361 82080=
201011110600 AAXX 11064 67477 32980 11003 10257 20131 48520 80001
                   333 10338 20159 59006 81080=
201011100600 AAXX 10064 67477 12980 22102 10244 20151 48525 69904 82080
                   333 10332 20159 58009 82361=
201011080900 AAXX 08094 67477 42880 20603 10301 20108 48495 81101
                   333 5//// 81857 82080=
201011050600 AAXX 05064 67477 31975 11005 10257 20100 48515 70500 81030
                   333 10323 20170 58007 81362=
201011040600 AAXX 04064 67477 11970 41502 10247 20134 48507 60034 70500 84030
                   333 10320 20152 58009 84361=
201011020900 AAXX 02094 67477 41868 10905 10294 20114 48489 70500 81100
                   333 5//// 81867=

################################################################################
#  SYNOPS from 67481, Isoka (Zambia) | 10-07S | 032-38E | 1360 m
################################################################################
201011250600 AAXX 25064 67481 11975 30000 10230 20168 60084 70500 80002
                   333 10304 20145 58001 83080=

################################################################################
#  SYNOPS from 67531, Zambezi (Zambia) | 13-32S | 023-07E | 1077 m
################################################################################
201012010600 AAXX 01064 67531 11380 80000 10190 20182 48/// 60014 76066 8177/
                   333 10241 20181 59002 81706 88360=
201011300900 AAXX 30094 67531 41480 70000 10225 20196 48/// 79596 8197/
                   333 59001 81917 81817 81617 88460=
201011300600 AAXX 30064 67531 12980 73302 10206 20186 48/// 69914 8707/
                   333 10294 20194 87460=
201011261200 AAXX 26124 67531 41680 20000 10271 20179 48/// 70262 82102
                   333 58008 82838 81080=
201011260900 AAXX 26094 67531 41480 71107 10216 20192 48/// 70262 8157/
                   333 58014 81612 87360=
201011260600 AAXX 26064 67531 12980 70602 10200 20193 48/// 60284 8707/
                   333 10306 20185 58012 87460=
201011250900 AAXX 25094 67531 41580 70000 10240 20187 48/// 72162 8117/
                   333 58019 81821 87360=
201011250600 AAXX 25064 67531 12380 70604 10194 20180 48/// 69924 8167/
                   333 10301 20172 58009 81706 87460=
201011241200 AAXX 24124 67531 41680 71803 10226 20186 48/// 71799 85280
                   333 5//// 81936 85836 83360=
201011221200 AAXX 22124 67531 42780 40303 10295 20166 48/// 84100
                   333 5//// 84850=
201011180900 AAXX 18094 67531 42680 13405 10288 20173 48/// 81102
                   333 59005 81846 81081=
201011180600 AAXX 18064 67531 32980 23304 10227 20173 48/// 80001
                   333 10334 20180 59013 82081=
201011170900 AAXX 17094 67531 42680 13606 10280 20183 48/// 81130
                   333 59025 81837 81361=
201011121200 AAXX 12124 67531 42680 70304 10239 20172 48/// 81178
                   333 59036 81836 83361 87280=
201011120600 AAXX 12064 67531 12480 70000 10220 20182 48/// 69914 8113/
                   333 10243 20184 59009 81815 87361=
201011111200 AAXX 11124 67531 41480 81507 10219 20191 48/// 70362 8487/
                   333 58030 81815 83615 88460=
201011110600 AAXX 11064 67531 12879 61793 19239 47/// 60014 8703/
                   333 10340 20196 59009 87361=
201011100900 AAXX 10094 67531 42680 32901 10285 20182 48/// 81131
                   333 58010 81840 81362 83081=
201011100600 AAXX 10064 67531 12980 23603 10240 20193 48/// 60234 82030
                   333 10327 20193 58011 82362=
201011090900 AAXX 09094 67531 42680 33601 10275 20186 48/// 81132
                   333 59007 81835 82081=
201011090600 AAXX 09064 67531 12980 30603 10226 20188 48/// 60024 82032
                   333 10285 20185 58000 82361 82081=
201011080900 AAXX 08094 67531 41380 83004 10206 20191 48111 79199 8177/
                   333 5//// 81707 88460=
201011080600 AAXX 08064 67531 11380 83604 10193 20182 48/// 60054 79599 8197/
                   333 10347 20197 58017 81706 819// 88460 00///
                   20001=
201011050900 AAXX 05094 67531 42980 73604 10286 20156 48/// 8707/
                   333 58006 87360=
201011050600 AAXX 05064 67531 12980 70305 10230 20167 48/// 69904 8707/
                   333 10361 20197 59001 87360=
201011040900 AAXX 04094 67531 42780 10103 10306 20161 48/// 81131
                   333 5//// 81856 81362 81081=
201011040600 AAXX 04064 67531 32980 10702 10240 20162 48/// 81031
                   333 10320 20170 58004 81362 81081=
201011030900 AAXX 03094 67531 42680 70303 10256 20162 48/// 8113/
                   333 5//// 81837 87361=
201011030600 AAXX 03064 67531 32980 30304 10228 20162 48/// 83030
                   333 10315 20170 58007 83361=
201011021200 AAXX 02124 67531 42780 70305 10295 20153 48/// 81103
                   333 59011 81850 87280=
201011020900 AAXX 02094 67531 42980 10711 10286 20153 48/// 81080
                   333 59004 81361=
201011020600 AAXX 02064 67531 32980 71004 10230 20162 48/// 8703/
                   333 10345 20197 59015 87361=
201011011200 AAXX 01124 67531 42980 70902 10319 20141 48/// 8703/
                   333 5//// 87361=
201011010900 AAXX 01094 67531 42980 71005 10279 20164 48/// 8707/
                   333 5//// 87461=

################################################################################
#  SYNOPS from 67541, Kasempa (Zambia) | 13-32S | 025-51E | 1234 m
################################################################################
201011120600 AAXX 12064 67541 NIL=
201011110600 AAXX 11064 67541 NIL=
201011100600 AAXX 10064 67541 NIL=
201011050600 AAXX 05064 67541 NIL=
201011040600 AAXX 04064 67541 NIL=

################################################################################
#  SYNOPS from 67551, Solwezi (Zambia) | 12-11S | 026-23E | 1386 m
################################################################################
201011250600 AAXX 25064 67551 12980 70705 10189 20187 48509 60144 8703/
                   333 10228 20161 58008 87362=

################################################################################
#  SYNOPS from 67561, Ndola (Zambia) | 13-00S | 028-39E | 1269 m
################################################################################
201011300600 AAXX 30064 67561 11360 70000 10185 20177 48501 60324 70522 83638
                   333 10316 20160 59001 83708 86360 87280=
201011280600 AAXX 28064 67561 31975 61111 10262 20167 48607 70522 80008
                   333 10326 20179 59016 86280
                   555 00/// 20002=
201011250900 AAXX 25094 67561 41470 72705 10219 20184 48521 76062 8453/
                   333 58013 84610 87460=
201011250600 AAXX 25064 67561 11970 80000 10206 20183 48518 60994 70522 8807/
                   333 10277 20190 58000 88460=
201011241200 AAXX 24124 67561 41660 70000 10257 20163 48489 70562 83238
                   333 58009 83830 85360 87280=
201011121200 AAXX 12124 67561 42780 70905 10304 20142 48468 86201
                   333 59024 81956 86256 81080=
201011120900 AAXX 12094 67561 42780 10909 10302 20143 48496 81101
                   333 59027 81850 91015=
201011120600 AAXX 12064 67561 31975 31008 10256 20144 48505 70511 81032
                   333 10306 20177 59025 81360 82080=
201011111200 AAXX 11124 67561 41660 72405 10283 20183 48521 70522 85238
                   333 59004 81945 84845 83360 87281=
201011110600 AAXX 11064 67561 NIL=
201011100600 AAXX 10064 67561 11970 70000 10210 20173 48521 60018 70522 86038
                   333 10334 20186 58006 86360=
201011090600 AAXX 09064 67561 31960 42104 10226 20158 48515 70511 80002
                   333 10334 20185 59015 84080=
201011080900 AAXX 08094 67561 41775 10406 10308 20119 48498 70500 81100
                   333 59006 91016=
201011080600 AAXX 08064 67561 31970 41008 10254 20146 48500 70511 84030
                   333 10332 20194 59002 84360 Q1016.9=
201011070900 AAXX 07094 67561 41770 70408 10298 20133 48503 70511 85230
                   333 59003 85850 87360=
201011070600 AAXX 07064 67561 31960 10907 20136 48503 81030
                   333 10345 20194 59010 81360=
201011050900 AAXX 05094 67561 41959 60304 10291 20158 48/// 70522 82038
                   333 5//// 82360 86280=
201011050600 AAXX 05064 67561 31959 50000 10228 20178 48516 70522 85038
                   333 10309 20200 58000 85360 85280=
201011040600 AAXX 04064 67561 11958 70000 10214 20176 48515 60144 70422 86038
                   333 10334 20179 58011 86360 87280=
201011021200 AAXX 02124 67561 41970 70405 10326 20124 48466 70511 85230
                   333 59013 81958 85858 87361=
201011020600 AAXX 02064 67561 31960 51008 10254 20153 48506 70511 85030
                   333 10346 20184 59013 85360=
201011011200 AAXX 01124 67561 41960 40504 10336 20118 48480 70511 84200
                   333 59009 84858=
201011010600 AAXX 01064 67561 31960 30810 10268 20145 48520 70511 83030
                   333 10354 20220 5//// 83360=

################################################################################
#  SYNOPS from 67563, Kafironda (Zambia) | 12-36S | 028-07E | 1243 m
################################################################################
201011250600 AAXX 25064 67563 11975 80402 10207 20190 48/// 60284 70522 8808/
                   333 10289 20177 58001 88358=

################################################################################
#  SYNOPS from 67571, Serenje (Zambia) | 13-14S | 030-13E | 1384 m
################################################################################
201011090900 AAXX 09094 67571 41678 33605 10300 20137 48496 70500 83200
                   333 58000 83835=
201011080900 AAXX 08094 67571 42580 73603 10286 20144 48495 86208
                   333 59003 81925 86830 85280=
201011080600 AAXX 08064 67571 31980 70906 10256 20122 48494 81088 10328 20185 59010 81362
                   87280=
201011050600 AAXX 05064 67571 11975 70603 10274 20139 48525 60024 70522 83038
                   333 10319 20202 58008 83360 87280=
201011040900 AAXX 04094 67571 41978 70904 10280 20143 48515 70522 84038
                   333 58028 84362 87281=
201011020900 AAXX 02094 67571 41678 73603 10301 20141 48496 70511 86230
                   333 59007 81930 86840 81361=

################################################################################
#  SYNOPS from 67580, Msekera (Zambia) | 13-39S | 032-34E | 1025 m
################################################################################
201011250900 AAXX 25094 67580 41678 51008 10275 20192 48/// 70522 83130
                   333 58011 83838 83361=
201011231200 AAXX 23124 67580 41680 73005 10268 20170 48/// 71792 85238
                   333 5//// 81948 84856 82360 87280=
201011230900 AAXX 23094 67580 42680 40000 10287 20188 48/// 84230
                   333 84845 81362=
201011180900 AAXX 18094 67580 41778 10328 20154 48/// 70500 81230
                   333 59004 82856 81362=
201011180600 AAXX 18064 67580 31978 10907 10287 20160 48/// 70500 81030=
201011170900 AAXX 17094 67580 41775 60604 10319 20132 48/// 70511 86200
                   333 59037 86850=
201011020900 AAXX 02094 67580 41775 50605 10328 20164 48/// 70500 85100
                   333 59020 85850=
201011020600 AAXX 02064 67580 31975 00905 10278 20154 48/// 70500
                   333 10351 20194 59022=
201011010900 AAXX 01094 67580 41775 40904 10320 20161 48/// 70510 84100
                   333 59033 84856=

################################################################################
#  SYNOPS from 67581, Chipata (Zambia) | 13-33S | 032-35E | 1028 m
################################################################################
201011300600 AAXX 30064 67581 11670 81806 10223 20198 48512 69904 70522 8217/
                   333 10355 20220 58005 82830 88460=
201011250600 AAXX 25064 67581 12680 51203 10245 20198 48546 60144 72166 82130
                   333 10319 20193 58020 82835 84360=
201011120600 AAXX 12064 67581 32980 00610 10258 20177 48511
                   333 10352 20228 59028=
201011110600 AAXX 11064 67581 32680 10809 10272 20180 48542 81100
                   333 10364 20240 58003 81840=
201011100600 AAXX 10064 67581 31970 10412 10289 20177 48542 70511 80002
                   333 10375 20250 58013 81080=
201011050600 AAXX 05064 67581 31980 40708 10285 20139 48538 70522 84030
                   333 10315 20226 59013 84360=
201011040600 AAXX 04064 67581 11970 00607 10282 20158 48527 69904 70500
                   333 10365 20/// 58015=

################################################################################
#  SYNOPS from 67583, Lundazi (Zambia) | 12-17S | 033-12E | 1143 m
################################################################################
201011250600 AAXX 25064 67583 12875 73601 10224 20186 48/// 60074 87070
                   333 10300 20181 5//// 87360=

################################################################################
#  SYNOPS from 67599, Mfuwe (Zambia) | 13-16S | 031-56E | 568 m
################################################################################
201011270600 AAXX 27064 67599 12980 10280 20208 48544 60044
                   333 10373 20215 59014=
201011260600 AAXX 26064 67599 12480 20000 10258 20216 48551 60074 81102
                   333 10366 20196 58012 81815 81080=
201011250900 AAXX 25094 67599 42680 60910 10317 20200 48543 8527/
                   333 59009 85835 86362=
201011250600 AAXX 25064 67599 32680 71206 10281 20198 48846 8127/
                   333 10359 20240 58009 81845 87359 87359=
201011141200 AAXX 14124 67599 42780 41010 10385 20160 48529 84200
                   333 58035 84850=
201011120900 AAXX 12094 67599 42680 20406 10355 20177 48532 70300 82201
                   333 59016 82830 81080 91013=
201011090600 AAXX 09064 67599 32980 30907 10322 20169 48543 80002
                   333 10399 20229 59010 83080=
201011080900 AAXX 08094 67599 42880 61214 10364 20164 48536 83201
                   333 58003 83857 84080 91013=
201011080600 AAXX 08064 67599 12980 51010 10309 20169 48532 69904 80001
                   333 10405 20231 59001 85080 Q1014.5=
201011050600 AAXX 05064 67599 11975 60910 10319 20161 48543 69904 70522 8603/
                   333 10415 20264 58003 86360=
201011040900 AAXX 04094 67599 42970 60311 10380 20175 48538 83031
                   333 58006 81360 86080=
201011030900 AAXX 03094 67599 41875 20610 10368 20174 48530 70522 82100
                   333 59007 82857=
201011030600 AAXX 03064 67599 31975 40806 10314 20189 48530 70500 80001
                   333 10404 20225 59011 84080=
201011020600 AAXX 02064 67599 32980 00610 10306 20174 48536
                   333 10400 20215 59017=
201011011500 AAXX 01154 67599 42880 30612 10377 20146 48509 81230
                   333 59025 81858 83360=
201011011200 AAXX 01124 67599 42780 40612 10380 20175 48520 70322 84200
                   333 59032 84856=
201011010900 AAXX 01094 67599 42575 30610 10356 20181 48548 83200
                   333 59030 83830=
201011010600 AAXX 01064 67599 12975 00912 10304 20191 48552 69904
                   333 10400 20226 59028=

################################################################################
#  SYNOPS from 67633, Mongu (Zambia) | 15-15S | 023-09E | 1052 m
################################################################################
201011300600 AAXX 30064 67633 32982 71502 10230 20201 48498 85038
                   333 10312 20216 59032 85360 87280=
201011291200 AAXX 29124 67633 42682 72701 10287 20185 48485 82238
                   333 58006 82840 81362 86280=
201011260900 AAXX 26094 67633 41582 70903 10228 20194 48527 71799 8527/
                   333 58010 81920 84830 87460=
201011260600 AAXX 26064 67633 32982 60000 10225 20195 48525 86030
                   333 10320 20200 58012 86460=
201011250600 AAXX 25064 67633 12480 70000 10220 20198 48511 60154 85530
                   333 10330 20190 58015 85620 82360=
201011241200 AAXX 24124 67633 42782 50702 10305 20169 48477 85200
                   333 59022 81850 84850=
201011180900 AAXX 18094 67633 42982 23401 10304 20166 48491 80008
                   333 59016 82080=
201011180600 AAXX 18064 67633 12982 43302 10247 20177 48485 60024 84030
                   333 10349 20204 59018 84369
                   555 00/// 20000=
201011120600 AAXX 12064 67633 11980 63604 10225 20179 48502 60014 70500 8607/
                   333 10256 20184 59015 86460=
201011110600 AAXX 11064 67633 12982 71803 10225 20188 48515 60034 8197/
                   333 10355 20204 58003 81940 87460=
201011100600 AAXX 10064 67633 31980 53604 10240 20187 48515 70522 85030
                   333 10335 20200 58004 85360=
201011050600 AAXX 05064 67633 32980 63304 10240 20171 48510 70522 82038
                   333 10360 20210 58000 82360 86280=
201011040600 AAXX 04064 67633 31960 13609 10240 20163 48501 70500 81030
                   333 10325 20215 58004 81361=
201011020900 AAXX 02094 67633 41965 10308 10320 20147 48500 70500 81030
                   333 59026 81362=
201011020600 AAXX 02064 67633 31965 10407 10261 20146 48500 70500 81030
                   333 10360 20203 59020 81361=

################################################################################
#  SYNOPS from 67641, Kaoma (Zambia) | 14-48S | 024-48E | 1213 m
################################################################################
201011300600 AAXX 30064 67641 11482 83502 10177 20174 48495 60184 76096 8457/
                   333 10292 20178 58002 84830 87461=
201011120600 AAXX 12064 67641 12982 60402 10251 20201 48496 60034 86030
                   333 10255 20176 59020 86361=
201011110600 AAXX 11064 67641 11482 71610 10200 20190 48513 60014 79598 81930
                   333 10340 20207 58010 81930 87361=
201011102100 AAXX 10213 67641 41365 71911 10190 20175 40196 52012 72166 872//=
201011100600 AAXX 10064 67641 NIL=
201011050600 AAXX 05064 67641 NIL=
201011040600 AAXX 04064 67641 NIL=

################################################################################
#  SYNOPS from 67655, Mumbwa (Zambia) | 15-04S | 027-11E | 1216 m
################################################################################
201011180600 AAXX 18064 67655 32980 10710 10269 20099 48491 80001
                   333 10339 20204 59020 81077=
201011080600 AAXX 08064 67655 31875 60905 10228 20167 48500 70500 86080
                   333 10348 20184 58046 83684 Q1017.6=

################################################################################
#  SYNOPS from 67663, Kabwe (Zambia) | 14-27S | 028-28E | 1206 m
################################################################################
201011300900 AAXX 30094 67663 41575 73501 10210 20187 48520 76166 8413/
                   333 58018 84825 87360=
201011120600 AAXX 12064 67663 32980 30902 10237 20158 48509 82032
                   333 10289 20192 59017 82360 81080=
201011110600 AAXX 11064 67663 12480 81801 10196 20181 48522 60024 8157/
                   333 10333 20182 58007 81610 88460=
201011100600 AAXX 10064 67663 11480 60000 10235 20175 48518 69904 70262 83580
                   333 10320 20195 58006 83616 84360=
201011050600 AAXX 05064 67663 32980 53602 10266 20169 48515 85030
                   333 10334 20210 58002 85360=
201011040600 AAXX 04064 67663 12980 50903 10230 20162 48509 60014 85030
                   333 10292 20178 59003 85360=

################################################################################
#  SYNOPS from 67665, Lusaka Internationalairport (Zambia) | 15-19S | 028-27E | 1152 m
################################################################################
201012010600 AAXX 01064 67665 12480 71009 10214 20186 48514 69934 85530
                   333 10245 20170 59010 86616 84360=
201011301200 AAXX 30124 67665 41580 71206 10246 20178 48515 70266 8527/
                   333 58042 85842 87460 91017=
201011300900 AAXX 30094 67665 42980 81305 10221 20182 48504 8803/
                   333 58005 88360=
201011300600 AAXX 30064 67665 11360 81405 10184 20175 48520 76266 8363/
                   333 10330 20175 58013 83708 87459=
201011300400 AAXX 30044 67665 41659 81893 10192 20192 48517 76296 8197/
                   333 58017 81935 88459=
201011291800 AAXX 29184 67665 41980 52806 10236 20222 48496 81931
                   333 10330 58003 81958 84360 83080=
201011291500 AAXX 29154 67665 41780 61705 10315 20161 48468 71722 81932
                   333 59021 81950 84856 82360 86280=
201011291200 AAXX 29124 67665 42780 60206 10314 20167 48480 86201
                   333 59019 81950 86855 82080=
201011290900 AAXX 29094 67665 42680 30807 10304 20207 48509 83101
                   333 59009 83842 81080=
201011290600 AAXX 29064 67665 12980 21104 10264 20194 48517 69994 80001
                   333 10310 20189 59004 82080=
201011290400 AAXX 29044 67665 42980 50901 10199 20199 48502 85030
                   333 59007 85360=
201011290300 AAXX 29034 67665 41/80 51504 10194 20194 48495 81030
                   333 59004 819// 85360=
201011282100 AAXX 28214 67665 42980 12903 10216 20216 48506 81030
                   333 59017 81360=
201011281800 AAXX 28184 67665 41780 31503 10240 20225 48493 71300 81932
                   333 10310 59024 81956 81360 83080=
201011280900 AAXX 28094 67665 42580 50511 10290 20179 48517 70322 85200
                   333 59019 85825=
201011280600 AAXX 28064 67665 12980 31106 10232 20189 48518 80001
                   333 10292 20175 58003 83080
                   555 00176=
201011270900 AAXX 27094 67665 42680 50808 10281 20215 48535 85231
                   333 59017 85835 81360 81080=
201011270600 AAXX 27064 67665 32980 20909 10240 20188 48535 82131
                   333 10292 20186 59009 82820 81360 81080=
201011261800 AAXX 26184 67665 42780 61503 10212 20212 48519 81932
                   333 58001 81950 85360 82080=
201011261500 AAXX 26154 67665 41780 70908 10235 20186 48507 71792 81932
                   333 59004 81950 81850 86360 81080=
201011261200 AAXX 26124 67665 42680 50705 10264 20198 48519 85232
                   333 58015 83840 83360 81080=
201011260900 AAXX 26094 67665 42580 60805 10230 20177 48542 81130
                   333 58015 81820 85360=
201011260600 AAXX 26064 67665 12460 71004 10200 20185 48539 60014 8173/
                   333 10285 20190 58010 81610 87360=
201011260400 AAXX 26044 67665 42380 71103 10209 20209 48526 70322 8353/
                   333 58006 83608 86360=
201011252100 AAXX 25214 67665 41980 40505 10242 20242 48531 71322 81931
                   333 58012 819// 84360 81080=
201011251200 AAXX 25124 67665 42680 60906 10275 20211 48465 70222 85932
                   333 58004 819// 85835 81380 84080=
201011250900 AAXX 25094 67665 42580 70305 10246 20193 48530
                   333 58008 84820 81622 85360 82080 91019=
201011250600 AAXX 25064 67665 12380 70407 10206 20191 48531 60224 84732
                   333 10292 20175 58009 85708 86360 83080
                   555 00185 91020=
201011241800 AAXX 24184 67665 41980 52803 10228 20214 48504 71322 81932
                   333 10292 58022 819// 82360 85280=
201011241500 AAXX 24154 67665 42780 63207 10270 20174 48465 82102
                   333 58015 82850 85080=
201011241200 AAXX 24124 67665 42680 53405 10274 20187 48504 84102
                   333 58025 84835 84080=
201011240900 AAXX 24094 67665 42580 63110 10256 20182 48523 70222 82132
                   333 58010 82820 81360 85080 91018=
201011240600 AAXX 24064 67665 32380 70309 10219 20184 48523 70322 875//
                   333 10314 20190 58024 87608 91019=
201011231200 AAXX 23124 67665 42680 63107 10307 20174 48483 81903
                   333 58010 81948 85849 83080 90134=
201011230900 AAXX 23094 67665 42680 73508 10276 20192 48508 70222 85202
                   333 58003 85835 84080 91016=
201011230600 AAXX 23064 67665 11959 62705 10224 20196 48500 60014 70522 81032
                   333 10305 20191 58000 81360 86080
                   555 00189=
201011230400 AAXX 23044 67665 41959 63302 10197 20197 48485 71922 82032
                   333 58001 82360 86080=
201011230300 AAXX 23034 67665 42980 63402 10201 20201 48480 86030
                   333 59011 86360=
201011222100 AAXX 22214 67665 42980 20000 10194 20194 48484 82030
                   333 58001 82360=
201011221800 AAXX 22184 67665 42980 10903 10206 20206 48470 81031
                   333 10305 59006 81360 81080=
201011221500 AAXX 22154 67665 41775 70908 10235 20169 48458 70922 81934
                   333 58001 81950 83856 82360 86460=
201011221200 AAXX 22124 67665 42675 70904 10294 20185 48491 81932
                   333 59003 81940 83840 82359 86080=
201011220600 AAXX 22064 67665 12980 71104 10231 20207 48498 60084 8707/
                   333 10310 20184 59008 83360 87080=
201011210900 AAXX 21094 67665 41508 72707 10228 20228 48503 79722 8193/
                   333 59028 81925 85825 83360=
201011210600 AAXX 21064 67665 31980 60502 10247 20198 48508 70522 81032
                   333 10299 20188 59037 81360 86080=
201011201800 AAXX 20184 67665 42780 50902 10219 20211 48499 81930
                   333 10299 59001 81956 85360=
201011201500 AAXX 20154 67665 42780 70905 10262 20183 48493 81230
                   333 58006 81850 87360=
201011201200 AAXX 20124 67665 42680 70503 10263 20198 48505 81232
                   333 58001 81840 86360 83080=
201011200900 AAXX 20094 67665 42460 61702 10229 20222 48530 70222 85571
                   333 58003 84620 85460 83080 91019=
201011200600 AAXX 20064 67665 11360 73605 10201 20201 48538 69954 70296 8657/
                   333 10337 20189 58005 819// 86608 85459 91021=
201011200400 AAXX 20044 67665 41960 80204 10190 20190 48524 76192 8807/
                   333 58003 88459=
201011200300 AAXX 20034 67665 41360 73608 10201 20201 48520 71799 8193/
                   333 58006 81910 87359=
201011200000 AAXX 20004 67665 42980 52305 10217 20194 48508 70222 85030
                   333 58009 85360=
201011192100 AAXX 19214 67665 41780 50305 10241 20188 48519 71322 81930
                   333 58004 81950 85360=
201011190900 AAXX 19094 67665 41670 70205 10285 20172 48535 70522 85102
                   333 58038 85845 86080=
201011190600 AAXX 19064 67665 31970 62804 10255 20173 48541 70522 82032
                   333 10350 20201 58039 82360 86080
                   555 00201=
201011181200 AAXX 18124 67665 42780 40406 10328 20129 48481 84200
                   333 59007 84850=
201011180900 AAXX 18094 67665 42680 10710 10320 20141 48500 70300 81100
                   333 59018 81840=
201011180600 AAXX 18064 67665 32980 01108 10260 20130 48503 70200
                   333 10339 20174 59018
                   555 00182=
201011171200 AAXX 17124 67665 42680 41005 10324 20117 48487 84200
                   333 58034 84850=
201011170900 AAXX 17094 67665 42580 20606 10305 20145 48517 70300 82100
                   333 59032 82840 91017=
201011170400 AAXX 17044 67665 42980 12903 10180 20139 48500 81030
                   333 59039 81360=
201011170300 AAXX 17034 67665 42980 11104 10177 20140 48496 80001
                   333 59040 81080=
201011162100 AAXX 16214 67665 42980 00904 10210 20155 48515
                   333 59030=
201011161200 AAXX 16124 67665 42680 50806 10306 20142 48520 70500 85200
                   333 59030 85850=
201011160900 AAXX 16094 67665 42980 10811 10284 20161 48546 70500 81100
                   333 58023 81825 91020=
201011160600 AAXX 16064 67665 32980 00913 10237 20176 48552 70500
                   333 10314 20171 58013
                   555 00169 91022=
201011160300 AAXX 16034 67665 42980 10905 10168 20161 48533 81030
                   333 59005 81360=
201011160000 AAXX 16004 67665 42980 01605 10192 20153 48530
                   333 58004=
201011151200 AAXX 15124 67665 42675 41014 10312 20146 48550 84200
                   333 58031 84849=
201011150900 AAXX 15094 67665 41658 41011 10292 20162 48567 70522 83202
                   333 58032 83845 82080=
201011150600 AAXX 15064 67665 11957 11111 10253 20178 48566 69904 70500 80001
                   333 10334 20246 58035 81080=
201011141800 AAXX 14184 67665 42980 12202 10261 20195 48514 80001
                   333 10334 58028 81080=
201011141500 AAXX 14154 67665 42780 40905 10315 20163 48511 81132
                   333 58027 81856 82360 84080=
201011141200 AAXX 14124 67665 42680 51106 10315 20164 48520 84232
                   333 58036 84840 81360 84080=
201011140900 AAXX 14094 67665 42580 72903 10274 20185 48535 70222 81102
                   333 58037 81825 86080 91019=
201011140400 AAXX 14044 67665 42380 72605 10198 20198 48515 70222 81532
                   333 58026 81606 86360 85080 91018=
201011140300 AAXX 14034 67665 42380 72605 10198 20198 48515 70222 81532
                   333 58026 81606 86360 85080 91018=
201011131800 AAXX 13184 67665 42980 71603 10234 20234 48483 8703/
                   333 10326 58004 87360=
201011131500 AAXX 13154 67665 42780 41703 10251 20198 48462 81932
                   333 59004 81956 83856 83360 83080=
201011131200 AAXX 13124 67665 42680 50105 10310 20171 48583 81932
                   333 59007 81940 84840 81359 83080=
201011130900 AAXX 13094 67665 41575 63206 10287 20174 48501 70522 82102
                   333 59011 82828 86080=
201011130600 AAXX 13064 67665 31960 62407 10237 20173 48503 70522 83032
                   333 10320 20205 59011 83360 86080
                   555 00207=
201011121800 AAXX 12184 67665 42980 31304 10243 20191 48481 83030
                   333 10320 59026 83360=
201011121500 AAXX 12154 67665 42880 40506 10299 20155 48471 81232
                   333 59030 81858 83360 83080=
201011121200 AAXX 12124 67665 42780 60306 10300 20162 48499 70522 83231
                   333 59029 83850 85360 83080=
201011120900 AAXX 12094 67665 42980 40508 10291 20147 48514 83031
                   333 59024 83360 81080 91017=
201011120600 AAXX 12064 67665 11980 51108 10236 20165 48514 60014 70222 85031
                   333 10302 20186 58032 85360 81080=
201011111800 AAXX 11184 67665 42980 11806 10234 20219 48505 81030
                   333 10302 58002 81360=
201011111500 AAXX 11154 67665 42780 22605 10283 20167 48499 82231
                   333 58000 82856 81360 82080=
201011111200 AAXX 11124 67665 42680 61002 10286 20182 48517 81171
                   333 58016 81840 85460 82080=
201011110600 AAXX 11064 67665 11980 71704 10232 20232 48544 60074 76066 8707/
                   333 10335 20186 58007 87359=
201011100900 AAXX 10094 67665 42580 50906 10309 20162 48532 70522 82101
                   333 58000 82830 84080=
201011100600 AAXX 10064 67665 31959 43504 10224 20180 48536 70522 81931
                   333 10320 20204 58010 819// 84360 82080=
201011091200 AAXX 09124 67665 42780 63005 10300 20164 48513 82202
                   333 58015 82850 85080=
201011090900 AAXX 09094 67665 42680 70303 10285 20180 48530 82202
                   333 58009 82830 86080=
201011090600 AAXX 09064 67665 11960 72606 10231 20178 48527 60014 70522 86032
                   333 10315 20183 58015 86360 81080=
201011090000 AAXX 09004 67665 11960 72606 10231 20178 48527 60014 70522 86032
                   333 10315 20183 58015 86360 81080=
201011081800 AAXX 08184 67665 41760 70804 10234 20212 48499 71722
                   333 10315 58005 81950 83360 85080=
201011081500 AAXX 08154 67665 41760 60906 10289 20185 48583 70522 83232
                   333 59003 82950 81850 83360 81080=
201011081200 AAXX 08124 67665 41960 63602 10279 20199 48496 70522 82230
                   333 58014 82845 85360=
201011080900 AAXX 08094 67665 41959 63606 10264 20206 48515 70500 82131
                   333 58008 82830 86360 82080 91017=
201011080600 AAXX 08064 67665 31959 43608 10256 20197 48516 70500 82031
                   333 10350 20203 58004 82360 82080
                   555 00185 91017=
201011080400 AAXX 08044 67665 42980 53302 10185 20177 48491 70200 82031
                   333 58004 82360 83080 91016=
201011080000 AAXX 08004 67665 42980 31202 10206 20192 48496 70200 83030
                   333 59001 83360=
201011071800 AAXX 07184 67665 42970 50915 10234 20181 48494 85030
                   333 10350 59003 85360=
201011071500 AAXX 07154 67665 41870 31010 10321 20127 48478 71722 81932
                   333 59011 81956 83858 82360 82080=
201011071200 AAXX 07124 67665 41770 50806 10335 20139 48488 70522 85201
                   333 59016 85856 82080=
201011070900 AAXX 07094 67665 41670 40409 10315 20163 48516 70511 84101
                   333 59010 82845 82080=
201011070600 AAXX 07064 67665 12980 20613 10272 20152 48514 60064 80001
                   333 10350 20195 59018 82080=
201011061200 AAXX 06124 67665 41760 50704 10334 20121 48500 70522 81131
                   333 58002 81850 82360 84080 91015=
201011060900 AAXX 06094 67665 41960 50504 10316 20133 48535 70511 81031
                   333 58000 81360 85080 91018=
201011060600 AAXX 06064 67665 31960 50705 10264 20146 48530 70522 82031
                   333 10335 20215 58003 82360 83080
                   555 00204 91019=
201011051200 AAXX 05124 67665 42770 50106 10331 20166 48501 70521 81101
                   333 58007 81850 85080=
201011050900 AAXX 05094 67665 41980 13609 10313 20142 48525 80001
                   333 58003 81080=
201011050600 AAXX 05064 67665 32980 03006 10256 20176 48527
                   333 10315 20182 58001=
201011041500 AAXX 04154 67665 41770 20305 10321 20171 48477 70500 81901
                   333 58000 81956 82080=
201011041200 AAXX 04124 67665 41670 23606 10321 20171 48493 70500 82100
                   333 59005 82848=
201011040900 AAXX 04094 67665 42960 13405 10295 20150 48521 81031
                   333 58000 81360 81080=
201011040600 AAXX 04064 67665 31960 23403 10235 20170 48524 70510 82031
                   333 10286 20194 58004 82360 81080=
201011040400 AAXX 04044 67665 41970 60401 10198 20198 48506 70522 86030
                   333 58005 86360=
201011032100 AAXX 03214 67665 41959 01201 10202 20202 48499 70500
                   333 58001=
201011031800 AAXX 03184 67665 41960 31202 10223 20208 48490 70500 81032
                   333 10286 58000 81360 83080=
201011031200 AAXX 03124 67665 41959 70602 10257 20190 48492 70522 87030
                   333 58008 87360=
201011030900 AAXX 03094 67665 42960 70404 10237 20208 48514 8707/
                   333 58011 87460=
201011030600 AAXX 03064 67665 31959 71001 10236 20236 48520 71566 8707/
                   333 10303 20198 58002 87459 91018=
201011021800 AAXX 02184 67665 41870 41306 10232 20195 48491 71300
                   333 10303 59026 81956 84360=
201011021500 AAXX 02154 67665 42880 23406 10294 20191 48472 81232
                   333 59021 81956 81360 81080=
201011021200 AAXX 02124 67665 42780 23304 10294 20174 48487 82231
                   333 59017 82850 81360 81080=
201011020900 AAXX 02094 67665 42680 30408 10265 20163 48513 81132
                   333 59017 81840 83360 83080=
201011020600 AAXX 02064 67665 12960 60904 10201 20175 48513 60194 83032
                   333 10326 20174 59017 83360 85280=
201011020400 AAXX 02044 67665 41960 71202 10209 20202 48505 71022 86032
                   333 59017 86360 83080=
201011020300 AAXX 02034 67665 42960 52802 10190 20190 48493 70322 85030
                   333 59018 85360=
201011020000 AAXX 02004 67665 41960 51007 10182 20182 48490 70122 81930
                   333 59025 819// 85360=
201011012100 AAXX 01214 67665 41756 72409 10190 20190 48516 79599 8197/
                   333 59017 81950 87459=
201011011800 AAXX 01184 67665 41960 72510 10208 20208 48519 79692 81932
                   333 10326 59014 85359 83080=
201011011500 AAXX 01154 67665 41960 60707 10315 20140 49496 70522 81331
                   333 59026 81950 83856 84360 82080=
201011011200 AAXX 01124 67665 41660 70405 10307 20153 48506 70522 83231
                   333 59020 83845 85360 82080=
201011010900 AAXX 01094 67665 41660 70811 10289 20185 48532 70522 83230
                   333 59020 83835 85360=
201011010600 AAXX 01064 67665 11960 60713 10248 20160 48536 69904 70522 86030
                   333 10340 20171 59025 86360=

################################################################################
#  SYNOPS from 67666, Lusaka City Airport (Zambia) | 15-25S | 028-19E | 1280 m
################################################################################
201012010600 AAXX 01064 67666 12480 60910 10205 20182 48507 60014 83530
                   333 10240 20155 59009 83612 83360=
201011301200 AAXX 30124 67666 42580 71808 10225 20179 48505 82870
                   333 58004 81820 82520 86460=
201011260600 AAXX 26064 67666 32480 70907 10200 20169 48524 8757/
                   333 10272 20170 58008 82610 87460=
201011250600 AAXX 25064 67666 12380 80907 10193 20186 48544 60034 72162 8567/
                   333 10275 20165 58034 85709 88460=
201011231200 AAXX 23124 67666 42680 60000 10287 20172 48456 85202
                   333 58010 85850 82080=
201011230900 AAXX 23094 67666 42680 51603 10260 20185 48500 85202
                   333 58007 81930 84830 83080 91016=
201011180600 AAXX 18064 67666 32980 00710 10260 20120 49495
                   333 10315 20160 59021=
201011120900 AAXX 12094 67666 42680 40908 10//0 20162 48505 84030
                   333 58025 84360 91016=
201011090600 AAXX 09064 67666 12980 72710 10218 20191 48521 60024 84037
                   333 10300 20175 58018 84360 87280=
201011080600 AAXX 08064 67666 32980 00914 10240 20163 48505
                   333 10335 70190 333 00/// 20000 Q1016.8=
201011040900 AAXX 04094 67666 42980 23505 10280 20156 48510 82030
                   333 58001 82360=
201011020900 AAXX 02094 67666 42980 50910 10260 20169 48504 81032
                   333 59017 81360 84280=
201011020600 AAXX 02064 67666 12980 70907 10210 20163 48507 60174 86072
                   333 10310 20160 59018 85360 82080=

################################################################################
#  SYNOPS from 67673, Petauke (Zambia) | 14-15S | 031-17E | 1035 m
################################################################################
201011250900 AAXX 25094 67673 42680 60903 10292 20168 48543 86201
                   333 58017 81935 86835 82080=
201011250600 AAXX 25064 67673 12580 61503 10238 20187 48544 69904 84131
                   333 10330 20202 58020 84825 86360 82080=
201011180900 AAXX 18094 67673 41675 50904 10333 20123 48513 70200 85200
                   333 59012 85840=
201011180600 AAXX 18064 67673 31975 40908 10290 20096 48517 70500 84030
                   333 10364 20234 59018 84360=
201011170900 AAXX 17094 67673 41675 60505 10302 20125 48525 70522 86130
                   333 59023 86835 83360=
201011090900 AAXX 09094 67673 41670 10906 10325 20137 48528 70500 81100
                   333 58000 81840=
201011080600 AAXX 08064 67673 11960 40907 10270 20179 48530 60024 70522 80008
                   333 10366 20214 58005 84280=
201011040900 AAXX 04094 67673 41970 53603 10310 20137 48530 70522 85030
                   333 58008 85360=
201011020900 AAXX 02094 67673 41670 50505 10307 20147 48527 70522 84131
                   333 59019 84835 85360 81080=
201011020600 AAXX 02064 67673 11970 60906 10275 20141 48533 69904 70522 86030
                   333 10352 20220 59015 86360=
201011010900 AAXX 01094 67673 41670 60204 10303 20153 48545 70522 86200
                   333 5//// 86835=

################################################################################
#  SYNOPS from 67743, Livingstone (Zambia) | 17-49S | 025-49E | 985 m
################################################################################
201012010600 AAXX 01064 67743 12380 51104 10203 20191 48508 60014 82630
                   333 10236 20//0 59011 82709 84360=
201011300900 AAXX 30094 67743 41459 80404 10210 20195 48523 76162 8257/
                   333 58036 82610 88459=
201011300600 AAXX 30064 67743 11359 82602 10200 20190 48519 60224 76162 8477/
                   333 10332 2//// 58024 84706 88459=
201011291500 AAXX 29154 67743 42680 53407 10290 20188 48467 83232
                   333 59004 82845 84360 82080=
201011291200 AAXX 29124 67743 41680 73409 10277 20228 48478 72922 82931
                   333 59010 82940 83845 84460=
201011280600 AAXX 28064 67743 12980 20805 10240 20197 48511 60164 81041
                   333 10326 20//0 58/// 81359 81079 5555 00///
                   BB/// CC/// DD057 20///=
201011261200 AAXX 26124 67743 41680 71006 10268 20177 48520 82131
                   333 58012 83840 84360 82080=
201011260900 AAXX 26094 67743 42670 72003 10225 20194 48531 84571
                   333 58013 82835 86360 82080=
201011260600 AAXX 26064 67743 11670 80609 10200 20196 48534 76022 8457/
                   333 10300 20/// 58013 84630 86360=
201011250900 AAXX 25094 67743 42480 61109 10241 20182 48543 82130
                   333 58020 82816 86360=
201011250600 AAXX 25064 67743 12380 71008 10211 20187 48529 60044 83630
                   333 10321 20//0 58029 83706 87360=
201011241200 AAXX 24124 67743 42780 71311 10300 20175 48498 82270
                   333 58022 82856 87360=
201011231200 AAXX 23124 67743 42780 60710 10337 20156 48481 82132
                   333 58023 82850 81360 85080=
201011230900 AAXX 23094 67743 42680 70703 10309 20178 48503 82132
                   333 58019 82842 84360 84080=
201011221500 AAXX 22154 67743 42780 30804 10355 20115 48441 81131
                   333 59017 81856 81360 81080=
201011201200 AAXX 20124 67743 42780 70705 10335 20151 48499 84231
                   333 59010 84857 82360 84080=
201011180900 AAXX 18094 67743 20808 10933 20109 48491 81130
                   333 59021 81850 81360=
201011180600 AAXX 18064 67743 32980 50906 48491 85030
                   333 10366 20//0 59023 85359
                   555 00/// 20000=
201011151200 AAXX 15124 67743 42680 51308 10315 20154 82160
                   333 58030 82840 82360=
201011141200 AAXX 14124 67743 42680 73604 10304 20161 48523 83272
                   333 58055 83850 85360 84080=
201011131500 AAXX 13154 67743 41680 82707 10221 20190 48477 79596 82931
                   333 58036 82945 83845 83360=
201011121200 AAXX 12124 67743 42880 61106 10347 20145 48484 83101
                   333 59039 83857 85080=
201011120600 AAXX 12064 67743 32980 41104 10256 20171 48513 84030
                   333 10/// 20/// 59025 84360=
201011111500 AAXX 11154 67743 42780 63606 10323 20143 48501 82131
                   333 59019 82857 82360 81080=
201011111200 AAXX 11124 67743 42780 60607 10330 20161 48518 82231
                   333 58016 82856 83360 82080=
201011110600 AAXX 11064 67743 12980 60410 10238 20191 48534 69904 82131
                   333 10352 20/// 58017 83845 82860=
201011100600 AAXX 10064 67743 12980 30906 10267 20177 48523 69904 83030
                   333 10358 20/// 58005 83360=
201011090900 AAXX 09094 67743 42980 73404 10282 20/// 48519 8707/
                   333 58015 87360=
201011090600 AAXX 09064 67743 11980 73609 10210 20185 48507 60014 72120 87070
                   333 10360 2//// 58004 87360=
201011080900 AAXX 08094 67743 42980 50206 10318 20137 48511 70200 81132
                   333 58005 81856 81360 82080 91015=
201011080600 AAXX 08064 67743 12980 71705 10243 20174 48509 70200 82032 10387 20111 58022
                   82360 85080 Q1016.3=
201011071500 AAXX 07154 67743 42880 10910 10366 20110 48469 81100
                   333 59024 81857=
201011071200 AAXX 07124 67743 42780 41410 10376 20120 48489 84100
                   333 59019 84856=
201011070900 AAXX 07094 67743 42680 11008 10356 20140 48513 81130
                   333 59020 81850 81360=
201011070600 AAXX 07064 67743 12980 10907 20142 48511 81030
                   333 10368 20//0 59012 81360=
201011050900 AAXX 05094 67743 42975 43010 10358 20153 48509 81032
                   333 59019 81360 82080=
201011050600 AAXX 05064 67743 31960 11308 10277 20162 48/// 70522 80008
                   333 10341 20197 5////=
201011040900 AAXX 04094 67743 42770 13209 10325 20149 48507 81130
                   333 59002 81850 81360=
201011040600 AAXX 04064 67743 12980 00203 10230 20169 48498 69944
                   333 10320 20/// 59002=
201011030600 AAXX 03064 67743 12980 40806 10235 20165 48499 60154 83031
                   333 10316 2//// 59004 83360 83080=
201011011500 AAXX 01154 67743 42670 11206 10300 20161 48497 81903
                   333 59031 81850 81069=
201011011200 AAXX 01124 67743 42970 10911 10280 20166 48513 81030
                   333 59034 81360=
201011010900 AAXX 01094 67743 41670 41109 10221 20172 48535 72166 82530
                   333 59018 82640 83360=
201011010600 AAXX 01064 67743 11770 71804 10220 20159 48543 69904 8457/
                   333 10270 20//0 58006 84650 87460=

################################################################################
#  SYNOPS from 67753, Choma (Zambia) | 16-50S | 027-04E | 1213 m
################################################################################
201011291200 AAXX 29124 67753 41680 71806 10273 20177 48/// 71792 85208
                   333 5//// 81945 85845 87280=
201011250600 AAXX 25064 67753 11580 70608 10196 20177 48/// 71592 8197/
                   333 10241 20171 81920 87459=
201011221200 AAXX 22124 67753 41670 73608 10239 20182 48/// 71792 82208
                   333 5//// 81945 82845 87280=
201011170900 AAXX 17094 67753 41770 60908 10319 20082 70522 86200
                   333 86856 42782 10301=
201011120600 AAXX 12064 67753 12980 70908 10261 20138 48/// 69904 80008
                   333 10291 20169 5//// 87280=
201011110600 AAXX 11064 67753 11980 83505 10201 20166 48/// 69904 72162 8807/
                   333 10314 20181 5//// 88458=
201011100900 AAXX 10094 67753 42680 73605 10288 20172 48/// 82108
                   333 5//// 82840 87280=
201011100600 AAXX 10064 67753 12980 71805 10239 20194 48/// 69904 87030
                   333 10304 20184 5//// 87360=
201011080600 AAXX 08064 67753 11960 00910 10256 20162 69904 70500
                   333 10301 20166=
201011040600 AAXX 04064 67753 12980 23007 10212 20164 48/// 69944 82030
                   333 10304 20171 5//// 82360=
201011030900 AAXX 03094 67753 42680 70910 10287 20154 48/// 81108
                   333 5//// 82845 87280=
201011020600 AAXX 02064 67753 32980 20608 10231 20166 48/// 80002
                   333 10291 20151 5//// 82080=
201011010900 AAXX 01094 67753 42980 70908 10255 20173 48/// 80008
                   333 5//// 87280=

################################################################################
#  SYNOPS from 67855, Lupaki (Zambia) | 17-03-00S | 024-46-00E | 1000 m
################################################################################
201012010600 AAXX 01064 67855 11380 70000 10198 20187 3//// 48/// 60664 8463/
                   333 20163 5//// 84707 87360=
201011301200 AAXX 30124 67855 41670 80601 10198 20186 3//// 48/// 79198 83273
                   333 5//// 81925 83830 88458=
201011300600 AAXX 30064 67855 11670 72201 10200 20200 3//// 48/// 60114 79298 82273
                   333 20200 5//// 81925 87358=
201011291200 AAXX 29124 67855 41670 72303 10270 20183 3//// 48/// 72598 84233
                   333 5//// 81930 84840 87080=
201011290600 AAXX 29064 67855 32980 60302 10280 20203 3//// 48/// 82031
                   333 20198 5//// 82360 85080=
201011281200 AAXX 28124 67855 NIL=
201011280600 AAXX 28064 67855 12380 30000 10230 20210 3//// 48/// 60284 81631
                   333 20183 5//// 81607=
201011271200 AAXX 27124 67855 41670 70302 10316 20176 3//// 48/// 71596 84233
                   333 5//// 81930 84840 85359 87080=
201011270600 AAXX 27064 67855 NIL=
201011261200 AAXX 26124 67855 42780 63602 10310 20160 38/// 48/// 84230
                   333 5//// 84850=
201011260600 AAXX 26064 67855 11370 70401 10216 20189 38/// 48/// 69904 72052 8463/
                   333 20193 5//// 84707 86359=
201011251200 AAXX 25124 67855 41670 70601 10304 20178 3//// 48/// 78082 85232
                   333 5//// 85840 87080=
201011250600 AAXX 25064 67855 11970 70501 10224 20180 3//// 48/// 60014 70522 82032
                   333 20193 5//// 82359 87080=
201011241200 AAXX 24124 67855 NIL=
201011240600 AAXX 24064 67855 32980 20501 10250 20166 3//// 48/// 82030
                   333 20165 5//// 82360=
201011231200 AAXX 23124 67855 41680 43303 10370 20145 3//// 48/// 71791 84203
                   333 5//// 81930 84840=
201011230600 AAXX 23064 67855 NIL=
201011221200 AAXX 22124 67855 42680 52402 10352 20115 38/// 48/// 85200
                   333 5//// 85840=
201011220600 AAXX 22064 67855 32980 20303 10266 20160 3//// 48/// 82030
                   333 20179 5//// 82360=
201011211200 AAXX 21124 67855 NIL=
201011210600 AAXX 21064 67855 12980 50801 10252 20194 3//// 48/// 60014 80001
                   333 20185 5//// 85080=
201011201200 AAXX 20124 67855 42680 53501 10312 20159 3//// 48/// 85200
                   333 5//// 85840=
201011200600 AAXX 20064 67855 NIL=
201011191200 AAXX 19124 67855 NIL=
201011190600 AAXX 19064 67855 32980 41801 10224 20169 3//// 48/// 84030
                   333 20180 5//// 84360=
201011181200 AAXX 18124 67855 NIL=
201011180600 AAXX 18064 67855 32980 41804 10244 20164 3//// 48/// 84030
                   333 20209 5//// 84360=
201011171200 AAXX 17124 67855 42680 51502 10340 20142 3//// 48/// 85230
                   333 5//// 85840=
201011170600 AAXX 17064 67855 32980 70602 10252 20150 3//// 48/// 8703/
                   333 20200 5//// 87360=
201011161200 AAXX 16124 67855 42680 51301 10328 20145 3//// 48/// 85200
                   333 5//// 85840=
201011160600 AAXX 16064 67855 32980 01503 10234 20170 3//// 48///
                   333 20174 5////=
201011150600 AAXX 15064 67855 NIL=
201011110600 AAXX 11064 67855 12980 70304 10260 20166 3//// 48/// 69904 8703/
                   333 20218 5//// 87360=
201011081200 AAXX 08124 67855 42680 60704 10334 20154 3//// 48/// 86201
                   333 5//// 86840 83080=
201011080600 AAXX 08064 67855 NIL=
201011071200 AAXX 07124 67855 NIL=
201011070600 AAXX 07064 67855 NIL=
201011051200 AAXX 05124 67855 42680 63602 10368 20146 3//// 48/// 86230
                   333 5//// 86830=
201011050600 AAXX 05064 67855 31970 23603 10290 20149 3//// 48/// 70500 82030
                   333 20180 5//// 82360=
201011041200 AAXX 04124 67855 42680 53504 10356 20140 3//// 48/// 85200
                   333 5//// 85830=
201011040600 AAXX 04064 67855 NIL=
201011031200 AAXX 03124 67855 42880 53304 10336 20149 3//// 48/// 85230
                   333 5//// 85857=
201011030600 AAXX 03064 67855 12980 10602 10232 20179 3//// 48/// 60024 81030
                   333 20178 5//// 81360=
201011021200 AAXX 02124 67855 42780 53002 10336 20136 3//// 48/// 85230
                   333 5//// 85856=
201011020600 AAXX 02064 67855 NIL=
201011011200 AAXX 01124 67855 41970 82202 10224 20185 3//// 48/// 76062 8807/
                   333 5//// 88459=
201011010600 AAXX 01064 67855 12980 72102 10220 20159 3//// 48/// 60304 8703/
                   333 20174 5//// 87360=
