################################################################################
# Query made at 04/14/2022 03:03:18 UTC
# Country like Zamb*
# Time interval: from 07/01/2017 05:30  to 07/31/2017 06:30  UTC
################################################################################

################################################################################
#  SYNOPS from 67403, Kawambwa (Zambia) | 09-48S | 029-05E | 1323 m
################################################################################
201707310600 AAXX 31064 67403 NIL=
201707270600 AAXX 27064 67403 31975 00902 10147 20087 48522 70500
                   333 10275 20128 58006
                   555 00069=
201707251500 AAXX 25154 67403 NIL=
201707240600 AAXX 24064 67403 31975 00903 10169 20112 48537 70500
                   333 10298 20144 58002
                   555 00075=
201707200600 AAXX 20064 67403 31975 01403 10163 20121 48542 70500
                   333 10300 20120 59010
                   555 00065=
201707131200 AAXX 13124 67403 NIL=
201707130900 AAXX 13094 67403 NIL=
201707130600 AAXX 13064 67403 31975 11403 10130 20069 48549 70500
                   333 10268 20094 59011 81080
                   555 00036=
201707110600 AAXX 11064 67403 31970 00901 10141 20078 48551 70500
                   333 10282 20092 58012
                   555 00045=
201707100600 AAXX 10064 67403 31975 00000 10120 20094 48538 70500
                   333 10280 20092 59003
                   555 00042=
201707070600 AAXX 07064 67403 31975 81802 10163 20125 48559 70500 8803/
                   333 10258 20162 58005 88360
                   555 00116=
201707050600 AAXX 05064 67403 31975 61605 10155 20095 48545 70500 86031
                   333 10228 20146 5//// 86360 81080
                   555 00104=

################################################################################
#  SYNOPS from 67413, Mbala (Zambia) | 08-51S | 031-20E | 1673 m
################################################################################
201707310600 AAXX 31064 67413 NIL=
201707251500 AAXX 25154 67413 NIL=
201707250600 AAXX 25064 67413 31978 11406 10160 20103 48565 70500 80001
                   333 10265 20130 58003 81080
                   555 00/// 91027=
201707240600 AAXX 24064 67413 31980 01003 10175 20115 48561 70500
                   333 10280 20125 58010
                   555 00/// 91026=
201707131200 AAXX 13124 67413 NIL=
201707130900 AAXX 13094 67413 NIL=
201707110600 AAXX 11064 67413 32980 00904 10155 20101 48570
                   333 10245 20092 58009
                   555 00092 91027=
201707060600 AAXX 06064 67413 32980 71012 10150 20105 48570 87030
                   333 10230 20135 58005 87357
                   555 00/// 91027=
201707050600 AAXX 05064 67413 32480 81312 10155 20111 48565 81508
                   333 10265 20100 59005 81615 88278
                   555 00/// 91027=

################################################################################
#  SYNOPS from 67441, Mwinilunga (Zambia) | 11-45S | 024-26E | 1361 m
################################################################################
201707310600 AAXX 31064 67441 NIL=
201707251500 AAXX 25154 67441 NIL=
201707131200 AAXX 13124 67441 NIL=
201707130900 AAXX 13094 67441 NIL=

################################################################################
#  SYNOPS from 67461, Mansa (Zambia) | 11-06S | 028-51E | 1382 m
################################################################################
201707310600 AAXX 31064 67461 NIL=
201707281200 AAXX 28124 67461 41575 11010 10232 20061 48547 70500 81100
                   333 58013 81837 91021=
201707270600 AAXX 27064 67461 31970 01203 10128 20074 48548 70500
                   333 10270 20104 58010
                   555 00082 91024=
201707260600 AAXX 26064 67461 31970 01203 10134 20090 48540 70500
                   333 10260 20102 59010
                   555 00085 91021=
201707251500 AAXX 25154 67461 NIL=
201707250900 AAXX 25094 67461 41975 01209 10218 20095 48557 70500
                   333 59002 91023=
201707241200 AAXX 24124 67461 41975 01006 10267 20098 48536 70500
                   333 58006 91020=
201707240600 AAXX 24064 67461 32980 00802 10154 20097 48549
                   333 10274 20110 59003
                   555 00082 91024=
201707200600 AAXX 20064 67461 32980 10803 10155 20123 48549 80001
                   333 10272 20109 59012 81080
                   555 00093 91023=
201707140900 AAXX 14094 67461 42980 00809 10203 20075 48562
                   333 59003 91024=
201707131200 AAXX 13124 67461 42980 00904 10238 20050 48538
                   333 59019 91020=
201707130900 AAXX 13094 67461 NIL=
201707130600 AAXX 13064 67461 32980 00904 10134 20069 48560
                   333 10259 20075 59010
                   555 00055 91024=
201707111200 AAXX 11124 67461 42580 11104 10238 20076 48553 81100
                   333 58016 81835 91022=
201707110600 AAXX 11064 67461 32980 01003 10254 20095 48561
                   333 10263 20061 58013
                   555 00053 91024=
201707100600 AAXX 10064 67461 32980 00803 10144 20095 48548
                   333 10255 20068 59003
                   555 00050 91024=
201707070900 AAXX 07094 67461 42980 60808 10200 20124 48566 86030
                   333 58000 86360 91024=
201707070600 AAXX 07064 67461 32380 71206 10145 20121 48561 8463/
                   333 10245 20125 58002 84706 86360
                   555 00110 91024=
201707060900 AAXX 06094 67461 41210 4//// 10202 20123 48566 81130
                   333 58000 81840 83360 91024=
201707060600 AAXX 06064 67461 32980 71503 10150 20115 48540 8707/
                   333 10232 20135 58007 87360
                   555 00120 91024=
201707050600 AAXX 05064 67461 32980 70803 10142 20102 48553 87030
                   333 10248 20115 58000 87360
                   555 00/// 91023=

################################################################################
#  SYNOPS from 67475, Kasama (Zambia) | 10-13S | 031-08E | 1382 m
################################################################################
201707310600 AAXX 31064 67475 NIL=
201707280600 AAXX 28064 67475 31960 01012 10139 20070 48562 70500
                   333 10258 20109 58001
                   555 00/// 91025=
201707270600 AAXX 27064 67475 31960 00811 10164 20069 48562 70500
                   333 10263 20104 58008
                   555 00///=
201707260600 AAXX 26064 67475 31960 40302 10161 20100 48554 70522 80001
                   333 10263 20094 59005 83080
                   555 00/// 91024=
201707251500 AAXX 25154 67475 NIL=
201707251200 AAXX 25124 67475 41760 11612 10251 20099 48536 70500 81100
                   333 59002 81856 91021=
201707250600 AAXX 25064 67475 31960 01009 10155 20080 48558 70500
                   333 10272 20094 58003
                   555 00/// 91025=
201707241200 AAXX 24124 67475 41760 11512 10262 20094 48535 70500 81100
                   333 58010 81856 91021=
201707240600 AAXX 24064 67475 31960 00304 10171 20117 48557 70500
                   333 10286 20106 58008
                   555 00/// 91024=
201707200600 AAXX 20064 67475 31960 00908 10176 20117 48555 70500
                   333 10276 20109 59012
                   555 00/// 91024=
201707131200 AAXX 13124 67475 NIL=
201707130900 AAXX 13094 67475 NIL=
201707110600 AAXX 11064 67475 31960 01103 10164 20082 48567 70500
                   333 10269 20071 58014
                   555 00/// 91026=
201707100600 AAXX 10064 67475 31975 00903 10179 20095 48554 70500
                   333 10261 20094 59005
                   555 00/// 91024=
201707070600 AAXX 07064 67475 31960 41214 10165 20145 48573 70522 82031
                   333 10250 20145 58001 82360 82080
                   555 00///=
201707060600 AAXX 06064 67475 31960 31411 10152 20117 48571 70500 81031
                   333 10250 20130 58011 81360 82080
                   555 00/// 91026=
201707050600 AAXX 05064 67475 31960 71411 10152 20098 48561 70500 8707/
                   333 10250 20134 58008 87360
                   555 00/// 91025=

################################################################################
#  SYNOPS from 67476, Misamfu (Zambia) | 10-06S | 031-15E | 1536 m
################################################################################
201707310600 AAXX 31064 67476 NIL=
201707270600 AAXX 27064 67476 32980 00903 10150 20091 48///
                   333 10263 20083 58000
                   555 00057=
201707251500 AAXX 25154 67476 NIL=
201707250600 AAXX 25064 67476 32980 01603 10138 20107 48///
                   333 10266 20074 58002
                   555 00052=
201707240600 AAXX 24064 67476 32980 00701 10147 20113 48///
                   333 10270 20076 5////
                   555 00058=
201707131200 AAXX 13124 67476 NIL=
201707130900 AAXX 13094 67476 NIL=
201707110600 AAXX 11064 67476 32980 00501 10130 20091 48///
                   333 10252 20064 58011
                   555 00041=
201707050600 AAXX 05064 67476 32580 71003 10130 20072 48/// 84230
                   333 10250 20121 5//// 84820 86360
                   555 00100=

################################################################################
#  SYNOPS from 67477, Mpika (Zambia) | 11-54S | 031-26E | 1400 m
################################################################################
201707310600 AAXX 31064 67477 31978 41206 10160 20100 48566 70500 84500
                   333 10239 20099 59007 84610
                   555 00086=
201707280600 AAXX 28064 67477 31478 51206 10129 20090 48580 70522 85500
                   333 10219 20096 58003
                   555 00084=
201707270600 AAXX 27064 67477 31978 01210 10150 20120 48575 70500
                   333 10239 20106 58012
                   555 00093=
201707260600 AAXX 26064 67477 31978 01204 10154 20089 48563 70500
                   333 10232 20090 59006
                   555 00084=
201707251500 AAXX 25154 67477 NIL=
201707250600 AAXX 25064 67477 31978 01206 10151 20130 48570 70500
                   333 10242 20106 58005
                   555 00097=
201707240600 AAXX 24064 67477 31975 00906 10178 20090 48565 70500
                   333 10265 20090 58000
                   555 00087=
201707200600 AAXX 20064 67477 31978 01202 10149 20089 48560 70500
                   333 10242 20112 59018
                   555 00108=
201707131200 AAXX 13124 67477 NIL=
201707130900 AAXX 13094 67477 NIL=
201707130600 AAXX 13064 67477 31978 0//// 10148 20090 48570 70500
                   333 10234 20069 59015
                   555 00042=
201707110600 AAXX 11064 67477 31980 00000 10132 20090 48562 70500
                   333 10242 20057 58006
                   555 00038=
201707100600 AAXX 10064 67477 32980 01202 10168 20110 48562
                   333 10231 20073 58000
                   555 00069=
201707070600 AAXX 07064 67477 31478 71210 10161 20120 48577 70522 84530
                   333 10221 20127 59001 84610 85360
                   555 00118=
201707060600 AAXX 06064 67477 31478 61208 10149 20100 48580 70522 84530
                   333 10203 20123 58008 84610 83359
                   555 00094=
201707050600 AAXX 05064 67477 31978 71206 10150 20110 48570 70522 87070
                   333 10224 20118 58001 87459
                   555 00089=

################################################################################
#  SYNOPS from 67481, Isoka (Zambia) | 10-07S | 032-38E | 1360 m
################################################################################
201707310600 AAXX 31064 67481 NIL=
201707280600 AAXX 28064 67481 31977 02702 10150 20085 48/// 70500
                   333 10247 20100 58003
                   555 00///=
201707270600 AAXX 27064 67481 31977 00904 10162 20090 48/// 70500
                   333 10252 20112 58001
                   555 00///=
201707251500 AAXX 25154 67481 NIL=
201707240600 AAXX 24064 67481 31977 03002 10173 20116 48/// 70500
                   333 10275 20120 5////
                   555 00///=
201707200600 AAXX 20064 67481 31476 13302 10170 20130 48/// 70500 81500
                   333 10270 20116 59017 81610
                   555 00///=
201707131200 AAXX 13124 67481 NIL=
201707130900 AAXX 13094 67481 NIL=
201707130600 AAXX 13064 67481 31977 00306 10150 20090 48/// 70500
                   333 10242 20085 59016
                   555 00///=
201707110600 AAXX 11064 67481 31977 00000 10162 20121 48/// 70500
                   333 10258 20089 58012
                   555 00///=
201707100600 AAXX 10064 67481 31977 02102 10170 20112 48/// 70500
                   333 10260 20092 59003
                   555 00///=
201707070600 AAXX 07064 67481 32980 52004 10170 20117 48/// 85030
                   333 10250 20100 58001 85361
                   555 00093=
201707050600 AAXX 05064 67481 31978 03004 10164 20131 48/// 70400
                   333 10250 20100 58007
                   555 00095=

################################################################################
#  SYNOPS from 67531, Zambezi (Zambia) | 13-32S | 023-07E | 1077 m
################################################################################
201707310600 AAXX 31064 67531 NIL=
201707251500 AAXX 25154 67531 NIL=
201707250600 AAXX 25064 67531 31975 00000 10136 20071 48/// 70500
                   333 10285 20046 5////
                   555 00048=
201707240600 AAXX 24064 67531 31970 01103 10139 20088 48/// 70500
                   333 10290 20062 5////
                   555 00055=
201707200600 AAXX 20064 67531 31970 01202 10124 20100 48/// 70500
                   333 10286 20071 5////
                   555 00062=
201707131200 AAXX 13124 67531 NIL=
201707130900 AAXX 13094 67531 NIL=
201707130600 AAXX 13064 67531 32980 00904 10124 20080 48/// 70200
                   333 10283 20056 5////
                   555 00072=
201707100600 AAXX 10064 67531 32980 01202 10140 20108 48///
                   333 10289 20073 5////
                   555 00069=
201707070600 AAXX 07064 67531 32980 01205 10140 20098 48/// 70200
                   333 10255 20096 5////
                   555 00082=
201707060600 AAXX 06064 67531 32980 10902 10130 20099 48/// 70200 81030
                   333 10261 20086 5//// 81362
                   555 00074=
201707050600 AAXX 05064 67531 32980 30000 10108 20079 48/// 83030
                   333 10264 20056 5//// 85361
                   555 00042=

################################################################################
#  SYNOPS from 67541, Kasempa (Zambia) | 13-32S | 025-51E | 1234 m
################################################################################
201707310600 AAXX 31064 67541 NIL=
201707280600 AAXX 28064 67541 31960 00605 10145 20055 48551 70500
                   333 10246 20088 58017
                   555 00///=
201707260600 AAXX 26064 67541 31960 00602 10146 20096 48534 70500
                   333 10244 20100 59005
                   555 00///=
201707251500 AAXX 25154 67541 NIL=
201707240600 AAXX 24064 67541 31960 00000 10147 20098 48538 70500
                   333 10250 20058 555 00///=
201707200600 AAXX 20064 67541 31970 00000 10124 20099 48532 70500
                   333 10250 20068 59027
                   555 00///=
201707131200 AAXX 13124 67541 NIL=
201707130900 AAXX 13094 67541 NIL=
201707130600 AAXX 13064 67541 32980 00000 10145 20079 48551
                   333 10266 20056 58001
                   555 00///=
201707100600 AAXX 10064 67541 32980 00000 10133 20085 48539
                   333 10254 20107 59014
                   555 00///=
201707070600 AAXX 07064 67541 32980 00000 10163 20123 48550
                   333 10248 20110 58001
                   555 00///=
201707060600 AAXX 06064 67541 32980 10602 10148 20112 48549 70222 81030
                   333 10266 20108 59001 81360
                   555 00///=
201707050600 AAXX 05064 67541 32980 20702 10136 20107 48550 70222 82030
                   333 10224 20098 59001 82360
                   555 00///=

################################################################################
#  SYNOPS from 67543, Kabompo (Zambia) | 13-36S | 024-12E | 1075 m
################################################################################
201707310600 AAXX 31064 67543 NIL=
201707251500 AAXX 25154 67543 NIL=
201707200600 AAXX 20064 67543 31970 00000 10148 20114 48/// 70500
                   333 10296 20116 59014
                   555 00078=
201707131200 AAXX 13124 67543 NIL=
201707130900 AAXX 13094 67543 NIL=
201707130600 AAXX 13064 67543 31970 00000 10122 20088 48/// 70500
                   333 10284 20094 5////
                   555 00060=
201707100600 AAXX 10064 67543 31965 00000 10120 20104 48/// 70500
                   333 10294 20100 58000
                   555 00082=
201707070600 AAXX 07064 67543 31975 30000 10136 20105 48/// 70500 83030
                   333 10258 20122 59003 83362
                   555 00082=
201707060600 AAXX 06064 67543 31975 11401 10138 20104 48/// 70500 81030
                   333 10288 20112 58001 81362
                   555 00068=
201707050600 AAXX 05064 67543 31975 60000 10130 20089 48/// 70522 86030
                   333 10288 20090 58011 86362
                   555 00054=

################################################################################
#  SYNOPS from 67551, Solwezi (Zambia) | 12-11S | 026-23E | 1386 m
################################################################################
201707310600 AAXX 31064 67551 NIL=
201707270600 AAXX 27064 67551 31957 01005 10132 20074 48554 70500
                   333 10263 20//0 58006
                   555 00///=
201707251500 AAXX 25154 67551 NIL=
201707240600 AAXX 24064 67551 32958 00904 10143 20087 48557 70500
                   333 10285 20//0 58004
                   555 00162 91023=
201707200600 AAXX 20064 67551 31957 00000 10118 20096 48548 70500
                   333 10275 20//0 59015
                   555 00137 91023=
201707131200 AAXX 13124 67551 NIL=
201707130900 AAXX 13094 67551 NIL=
201707130600 AAXX 13064 67551 32975 01504 10128 20170 48562
                   333 10272 20//0 59009
                   555 001198 91025=
201707100600 AAXX 10064 67551 31975 00903 10136 20098 48550 70500
                   333 10253 20//0 59005
                   555 00126 91023=
201707070600 AAXX 07064 67551 32975 30904 10131 20110 48560 83030
                   333 10249 20//0 59002 83362
                   555 00142 91025=
201707060600 AAXX 06064 67551 32975 61206 10130 20105 48567 86030
                   333 10268 20//0 58008 86360
                   555 00173 91026=
201707050600 AAXX 05064 67551 32970 41505 10119 20087 48559 84030
                   333 10260 20//0 58007 84360
                   555 00133 91025=

################################################################################
#  SYNOPS from 67561, Ndola (Zambia) | 13-00S | 028-39E | 1269 m
################################################################################
201707310600 AAXX 31064 67561 31960 01014 10164 20104 48560 70500
                   333 10256 20114 59004
                   555 00/// 91024=
201707280600 AAXX 28064 67561 31960 01209 10150 20074 48570 70500
                   333 10256 20103 58010
                   555 00/// 91025=
201707260600 AAXX 26064 67561 31959 00000 10145 20101 48554 70400
                   333 10195 20080 59004
                   555 00/// 91024=
201707251500 AAXX 25154 67561 41970 22006 10246 20073 48537 70500 82030
                   333 59001 82360=
201707251200 AAXX 25124 67561 41770 29902 10257 20093 48544 70500 82100
                   333 58001 82856 91021=
201707240600 AAXX 24064 67561 31960 00000 10131 20095 48556 70400
                   333 10281 20095 58005
                   555 00/// 91024=
201707200600 AAXX 20064 67561 31950 00000 10150 20112 48554 70400
                   333 10278 20098 59016
                   555 00/// 91024=
201707131200 AAXX 13124 67561 41970 00503 10236 20063 48549 70500
                   333 59005 555 91022=
201707130900 AAXX 13094 67561 41970 00606 10209 20064 48571 70500
                   333 59015 555 91025=
201707130600 AAXX 13064 67561 31960 00000 10130 20066 48559 70500
                   333 10256 20070 59016
                   555 00/// 91025=
201707120900 AAXX 12094 67561 41960 09904 10232 20076 48589 70500
                   333 58016 91027=
201707071200 AAXX 07124 67561 41970 30905 10260 20096 48558 70500 83030
                   333 59002 83361 91023=
201707070900 AAXX 07094 67561 41970 01013 10224 20113 48581 70500
                   333 59001 91026=
201707070600 AAXX 07064 67561 31960 09903 10139 20115 48573 70500
                   333 10240 20095 59001
                   555 00/// 91026=
201707060600 AAXX 06064 67561 11970 40000 10126 20106 48574 60024 70500 84030
                   333 10250 20100 58011 84360
                   555 00/// 91026=
201707050600 AAXX 05064 67561 31960 60000 10137 20100 48561 70522 86030
                   333 10247 20110 58003 86360
                   555 00/// 91025=

################################################################################
#  SYNOPS from 67563, Kafironda (Zambia) | 12-36S | 028-07E | 1243 m
################################################################################
201707310600 AAXX 31064 67563 NIL=
201707251500 AAXX 25154 67563 NIL=
201707240600 AAXX 24064 67563 32980 00000 10115 20096 48///
                   333 10290 20035 5////
                   555 00035=
201707131200 AAXX 13124 67563 NIL=
201707130900 AAXX 13094 67563 NIL=
201707100600 AAXX 10064 67563 32980 00000 10110 20090 48///
                   333 10270 20040 59005
                   555 00040=
201707070600 AAXX 07064 67563 32980 30000 10115 20115 48/// 70200 80008
                   333 10245 20065 59001 83280=
201707060600 AAXX 06064 67563 11970 21502 10135 20128 48/// 60014 70200 82030
                   333 10260 20100 58010 82360
                   555 00090=
201707050600 AAXX 05064 67563 32980 71504 10140 20132 48/// 70222 87070
                   333 10255 20020 5//// 87458
                   555 00020=

################################################################################
#  SYNOPS from 67571, Serenje (Zambia) | 13-14S | 030-13E | 1384 m
################################################################################
201707310600 AAXX 31064 67571 NIL=
201707281200 AAXX 28124 67571 42582 70912 10185 20064 48/// 70322 875//
                   333 5//// 87628=
201707280900 AAXX 28094 67571 42582 70910 10160 20077 48/// 70222 875//
                   333 5//// 87623=
201707270600 AAXX 27064 67571 32978 00912 10150 20063 48/// 70500
                   333 10241 20114 5////
                   555 00186=
201707251500 AAXX 25154 67571 NIL=
201707251200 AAXX 25124 67571 42978 00906 10225 20067 48/// 70500
                   333 5////=
201707250900 AAXX 25094 67571 42978 01210 10206 20079 48/// 70500
                   333 5////=
201707241200 AAXX 24124 67571 42978 01506 10235 20080 48/// 70500
                   333 5////=
201707240900 AAXX 24094 67571 42978 00908 10221 20076 48/// 70500
                   333 5////=
201707240600 AAXX 24064 67571 32978 01208 10173 20067 48/// 70500
                   333 10255 20140 5////
                   555 00198=
201707200600 AAXX 20064 67571 32978 01505 10156 20100 48/// 70500
                   333 10256 20133 5////
                   555 00186=
201707140900 AAXX 14094 67571 42978 00906 10196 20074 48///
                   333 5////=
201707131200 AAXX 13124 67571 42978 01206 10221 20076 48/// 70500
                   333 5////=
201707130900 AAXX 13094 67571 42978 0//// 10193 20050 48/// 70500
                   333 5////=
201707130600 AAXX 13064 67571 32978 01206 10141 20072 48/// 70500
                   333 10224 20079 5////
                   555 00180=
201707111200 AAXX 11124 67571 42678 10906 10235 20069 48/// 81100
                   333 5//// 81845=
201707110600 AAXX 11064 67571 32978 01205 10157 20099 48/// 70500
                   333 10252 20070 5////=
201707101200 AAXX 10124 67571 42978 00906 10240 20053 48/// 70500
                   333 5////=
201707100600 AAXX 10064 67571 32978 00903 10106 20089 48/// 70500
                   333 10243 20060 5////
                   555 00145=
201707070600 AAXX 07064 67571 32978 01505 10145 20109 48/// 70500
                   333 10215 20120 5////
                   555 00155=
201707060900 AAXX 06094 67571 42580 71206 10181 20110 48/// 70522 875//
                   333 5//// 87623=
201707050600 AAXX 05064 67571 32978 51508 10136 20076 48/// 70522 85030
                   333 10224 20121 5//// 85360
                   555 00146=

################################################################################
#  SYNOPS from 67575, Mkushi (Zambia) | 13-38-00S | 029-26-00E | 1237 m
################################################################################
201707310600 AAXX 31064 67575 NIL=
201707251500 AAXX 25154 67575 NIL=
201707131200 AAXX 13124 67575 NIL=
201707130900 AAXX 13094 67575 NIL=

################################################################################
#  SYNOPS from 67580, Msekera (Zambia) | 13-39S | 032-34E | 1025 m
################################################################################
201707310600 AAXX 31064 67580 NIL=
201707270600 AAXX 27064 67580 32980 01207 10178 20076 48///
                   333 10278 20110 58015
                   555 00///=
201707251500 AAXX 25154 67580 NIL=
201707240600 AAXX 24064 67580 32980 01204 10198 20116 48///
                   333 10290 20105 58008
                   555 00///=
201707200600 AAXX 20064 67580 32980 71504 10175 20124 48/// 8703/
                   333 10298 20131 59020 87360
                   555 00///=
201707131200 AAXX 13124 67580 NIL=
201707130900 AAXX 13094 67580 NIL=
201707070600 AAXX 07064 67580 32580 21504 10156 20129 48/// 82800
                   333 10258 20105 58004 81822 81624
                   555 00///=
201707060600 AAXX 06064 67580 32980 71202 10153 20125 48/// 8703/
                   333 10264 20112 58009 87360
                   555 00///=

################################################################################
#  SYNOPS from 67581, Chipata (Zambia) | 13-33S | 032-35E | 1028 m
################################################################################
201707310600 AAXX 31064 67581 NIL=
201707260600 AAXX 26064 67581 31960 01210 10206 20061 48582 70500
                   333 10250 20098 59010
                   555 00/// 91024=
201707251500 AAXX 25154 67581 NIL=
201707200600 AAXX 20064 67581 31960 71802 10193 20091 48571 70522 8707/
                   333 10288 20140 59017 87459
                   555 00/// 91023=
201707131200 AAXX 13124 67581 NIL=
201707130900 AAXX 13094 67581 NIL=
201707130600 AAXX 13064 67581 31960 01503 10182 20073 48578 70500
                   333 10252 20119 59013
                   555 00/// 91024=
201707100600 AAXX 10064 67581 31975 00904 10//0 20072 48573 70500
                   333 10268 20105 59003
                   555 00///=
201707070600 AAXX 07064 67581 31960 01604 10163 20126 48591 70500
                   333 10250 20057 58001
                   555 00/// 91027=

################################################################################
#  SYNOPS from 67583, Lundazi (Zambia) | 12-17S | 033-12E | 1143 m
################################################################################
201707310600 AAXX 31064 67583 31975 11203 10172 20135 48/// 70500 81500
                   333 10278 20108 5//// 81625
                   555 00///=
201707270600 AAXX 27064 67583 31958 00000 10142 20088 48/// 70500
                   333 10274 20086 5////
                   555 00///=
201707260600 AAXX 26064 67583 31975 00000 10148 20116 70500
                   333 10278 20098 5////
                   555 00///=
201707251500 AAXX 25154 67583 NIL=
201707250600 AAXX 25064 67583 31975 00000 10168 20100 48/// 70500
                   333 10288 20116 5////
                   555 00///=
201707240900 AAXX 24094 67583 41959 11201 10264 20100 48/// 70500 81030
                   333 5//// 81360=
201707240600 AAXX 24064 67583 31959 01501 10192 20125 48/// 70500
                   333 10302 20118 5////
                   555 00///=
201707200600 AAXX 20064 67583 31960 00000 10152 20138 48/// 70500
                   333 10290 20110 5////
                   555 00///=
201707131200 AAXX 13124 67583 NIL=
201707130900 AAXX 13094 67583 NIL=
201707130600 AAXX 13064 67583 31970 00000 10128 20092 48/// 70500
                   333 10272 20070 5////
                   555 00///=
201707110600 AAXX 11064 67583 31975 60000 10132 20094 48/// 70522 86030
                   333 10284 20070 5//// 86360
                   555 00///=
201707100600 AAXX 10064 67583 31975 00000 10140 20096 48/// 70500
                   333 10280 20066 5////
                   555 00///=
201707070600 AAXX 07064 67583 31575 50902 10174 20134 48/// 70522 81130
                   333 10252 20112 5//// 81825 85360
                   555 00///=
201707060600 AAXX 06064 67583 31975 11202 10162 20139 70500 81030
                   333 10250 20108 5//// 81360
                   555 00///=
201707050600 AAXX 05064 67583 31970 71203 10160 20130 48/// 70522 8707/
                   333 10270 20108 5//// 87360=

################################################################################
#  SYNOPS from 67599, Mfuwe (Zambia) | 13-16S | 031-56E | 568 m
################################################################################
201707310600 AAXX 31064 67599 NIL=
201707270600 AAXX 27064 67599 31960 00000 10185 20096 48575 70500
                   333 10300 20125 58015
                   555 00115 91025=
201707251500 AAXX 25154 67599 NIL=
201707250600 AAXX 25064 67599 32980 10806 10194 20106 48575
                   333 10328 20126 58009
                   555 00106 91024=
201707240600 AAXX 24064 67599 32980 00000 10164 20091 48///
                   333 10320 20108 5////
                   555 00098 91023=
201707200600 AAXX 20064 67599 32980 70000 10167 20134 48556 87030
                   333 10323 20126 59021 87359
                   555 00100 91022=
201707131200 AAXX 13124 67599 NIL=
201707130900 AAXX 13094 67599 NIL=
201707130600 AAXX 13064 67599 32980 00000 10150 20085 48559
                   333 10300 20078 59012
                   555 00090 91024=
201707100600 AAXX 10064 67599 31960 01803 10165 20102 48548 70500
                   333 10324 20110 59009
                   555 00080 91022=
201707070600 AAXX 07064 67599 32980 01705 10172 20135 48582
                   333 10295 20126 58003
                   555 00122 91025=
201707060600 AAXX 06064 67599 32980 60000 10195 20137 48586 86030
                   333 10290 20155 58004 86359
                   555 00145 91025=
201707050600 AAXX 05064 67599 32980 70000 10160 20126 48572 87030
                   333 10300 20125 58003 87360
                   555 00110 91025=

################################################################################
#  SYNOPS from 67625, Kalabo (Zambia) | 14-51S | 022-42E | 1033 m
################################################################################
201707310600 AAXX 31064 67625 32982 01210 10132 20084 48///
                   333 10266 20097 5////
                   555 00073=
201707281200 AAXX 28124 67625 42982 01212 10248 20047 48///
                   333 58014=
201707280900 AAXX 28094 67625 42982 00810 10216 20061 48///
                   333 58008=
201707270600 AAXX 27064 67625 32982 01305 10129 20066 48///
                   333 10268 20086 58002
                   555 00078=
201707251500 AAXX 25154 67625 NIL=
201707251200 AAXX 25124 67625 42982 01603 10272 20066 48///
                   333 58002=
201707250900 AAXX 25094 67625 42982 00708 10232 20079 48///
                   333 59003=
201707250600 AAXX 25064 67625 32982 01205 10134 20065 48///
                   333 10282 20105 58003
                   555 00078=
201707241200 AAXX 24124 67625 42982 02701 10279 20077 48///
                   333 5////=
201707240900 AAXX 24094 67625 42982 00906 10231 20076 48///
                   333 5////=
201707240600 AAXX 24064 67625 32982 01204 10136 20070 48///
                   333 10284 20087 555 00088=
201707200600 AAXX 20064 67625 32982 01805 10125 20078 48///
                   333 10285 20105 59012
                   555 00092=
201707140900 AAXX 14094 67625 42982 00806 10220 20085 48///
                   333 58002=
201707131200 AAXX 13124 67625 42982 00905 10264 20065 48///
                   333 59006=
201707130900 AAXX 13094 67625 42982 00706 10235 20081 48///
                   333 59017=
201707130600 AAXX 13064 67625 32982 00904 10138 20088 48///
                   333 10280 20109 59005
                   555 00080=
201707110600 AAXX 11064 67625 32982 50904 10157 20095 48/// 85030
                   333 10293 20133 59004 85361
                   555 00114=
201707101200 AAXX 10124 67625 42982 21203 10286 20095 48/// 82030
                   333 5//// 82361=
201707100600 AAXX 10064 67625 32982 50805 10165 20115 48/// 85030
                   333 10279 20139 58000 85361
                   555 00126=
201707071200 AAXX 07124 67625 42782 70610 10241 20107 48/// 81134
                   333 59005 81850 85360 87075=
201707070600 AAXX 07064 67625 32982 11205 10125 20097 48/// 81030
                   333 10255 20110 59022 81361
                   555 00094=
201707060600 AAXX 06064 67625 32982 11410 10116 20087 48/// 81030
                   333 10250 20095 58009 81360
                   555 00082=
201707050600 AAXX 05064 67625 32982 21205 10125 20069 48/// 82030
                   333 10267 20105 82361
                   555 00088=

################################################################################
#  SYNOPS from 67633, Mongu (Zambia) | 15-15S | 023-09E | 1052 m
################################################################################
201707310600 AAXX 31064 67633 NIL=
201707251500 AAXX 25154 67633 NIL=
201707240600 AAXX 24064 67633 32980 00905 10147 20068 48453
                   333 10300 20118 58007
                   555 00116 91023=
201707200600 AAXX 20064 67633 32980 00903 10155 20104 48554 70200
                   333 10297 20118 59019
                   555 00114 91023=
201707131200 AAXX 13124 67633 NIL=
201707130900 AAXX 13094 67633 NIL=
201707110600 AAXX 11064 67633 32980 40904 10158 20102 48572 70222 84030
                   333 10299 20140 58020 84360
                   555 00136 91025=
201707100600 AAXX 10064 67633 32980 20903 10175 20108 48574 82031
                   333 10304 20160 59001 82362 82080
                   555 00178 91020=
201707070600 AAXX 07064 67633 32980 40903 10140 20098 48565 70200 80001
                   333 10263 20117 59002 84080
                   555 00120 91025=
201707060600 AAXX 06064 67633 32980 00905 10130 20104 48566 70200
                   333 10258 20102 59008
                   555 00094 91025=
201707050900 AAXX 05094 67633 42680 20905 10235 20093 48587 70300 82100
                   333 58012 82840 91026=
201707050600 AAXX 05064 67633 32980 40904 10140 20077 48569 70122 84030
                   333 10267 20110 58017 84360
                   555 00100 91025=

################################################################################
#  SYNOPS from 67641, Kaoma (Zambia) | 14-48S | 024-48E | 1213 m
################################################################################
201707310600 AAXX 31064 67641 NIL=
201707260600 AAXX 26064 67641 31975 00000 10111 20080 48533 70500
                   333 10271 20076 59008
                   555 00046 91021=
201707251500 AAXX 25154 67641 NIL=
201707250600 AAXX 25064 67641 31975 00202 10100 20062 48538 70500
                   333 10284 20070 58004
                   555 00043 91022=
201707240600 AAXX 24064 67641 31975 00102 10094 20069 48534 70500
                   333 10289 20070 58010
                   555 00040 91022=
201707200600 AAXX 20064 67641 31975 00202 10102 20084 48541 70500
                   333 10286 20078 59012
                   555 00053 91022=
201707131200 AAXX 13124 67641 NIL=
201707130900 AAXX 13094 67641 NIL=
201707130600 AAXX 13064 67641 32978 01002 10105 20077 48548
                   333 10271 20072 59007
                   555 00046 91023=
201707110600 AAXX 11064 67641 32980 00902 10130 20095 48544
                   333 10285 20107 58005
                   555 00071 91022=
201707100600 AAXX 10064 67641 32978 01002 10104 20090 48535
                   333 10277 20088 59002
                   555 00064 91022=
201707070600 AAXX 07064 67641 32980 40802 10124 20101 48553 84030
                   333 10248 20096 59006 84360
                   555 00069 91023=
201707060600 AAXX 06064 67641 32980 10000 10097 20088 48554 81030
                   333 10246 20092 58005 81360
                   555 00049 91024=
201707050600 AAXX 05064 67641 32980 70902 10146 20094 48557 87030
                   333 10256 20116 58012 87360
                   555 00084 91023=

################################################################################
#  SYNOPS from 67655, Mumbwa (Zambia) | 15-04S | 027-11E | 1216 m
################################################################################
201707310600 AAXX 31064 67655 NIL=
201707251500 AAXX 25154 67655 NIL=
201707131200 AAXX 13124 67655 NIL=
201707130900 AAXX 13094 67655 NIL=

################################################################################
#  SYNOPS from 67659, Kafue Polder (Zambia) | 15-46S | 027-55E | 978 m
################################################################################
201707310600 AAXX 31064 67659 32980 12006 10175 20126 48/// 70322 81200
                   333 10245 20092 58000 81820
                   555 00///=
201707280600 AAXX 28064 67659 32980 31706 10150 20088 48/// 70222 83230
                   333 10247 20058 58010 83825 81360
                   555 00///=
201707270600 AAXX 27064 67659 32980 01905 10166 20097 48/// 70500
                   333 10252 20050 58016
                   555 00///=
201707260600 AAXX 26064 67659 32980 01704 10162 20078 48/// 70500
                   333 10242 20095 58020
                   555 00///=
201707251500 AAXX 25154 67659 NIL=
201707250600 AAXX 25064 67659 32980 02106 10171 20122 48/// 70500
                   333 10265 20070 58004
                   555 00///=
201707200600 AAXX 20064 67659 32980 01803 10146 20120 48/// 70500
                   333 10266 20082 58005
                   555 00///=
201707131200 AAXX 13124 67659 NIL=
201707130900 AAXX 13094 67659 NIL=
201707130600 AAXX 13064 67659 32980 01405 10150 20104 48/// 70500
                   333 10260 20189 59012
                   555 00///=
201707100600 AAXX 10064 67659 32980 01702 10135 20113 48/// 70500
                   333 10267 20090 59004
                   555 00///=
201707070600 AAXX 07064 67659 32980 11507 10155 20122 48/// 70322 81030
                   333 10240 20130 59003 81360
                   555 00///=
201707060600 AAXX 06064 67659 32980 70304 10132 20120 48/// 70222 87030
                   333 10227 20152 58004 87360
                   555 00///=

################################################################################
#  SYNOPS from 67662, Kabwe Agric (Zambia) | 14-24S | 028-30E | 1165 m
################################################################################
201707310600 AAXX 31064 67662 NIL=
201707270600 AAXX 27064 67662 32975 00000 10131 20071 70500
                   333 10245 20087 555 00046=
201707260600 AAXX 26064 67662 32975 00901 10136 20088 48/// 70500
                   333 10255 20072 5////
                   555 00032=
201707251500 AAXX 25154 67662 NIL=
201707250600 AAXX 25064 67662 32975 01205 10146 20067 70500
                   333 10256 20094 555 00064=
201707240600 AAXX 24064 67662 32975 00000 10147 20072 48/// 70500
                   333 10264 20084 555 00061=
201707200600 AAXX 20064 67662 32975 00000 10149 20108 48/// 70500
                   333 10265 20071 5////
                   555 00068=
201707131200 AAXX 13124 67662 NIL=
201707130900 AAXX 13094 67662 NIL=
201707110600 AAXX 11064 67662 32975 31502 10150 20100 48/// 70500 83030
                   333 10260 20073 5//// 83360
                   555 00070=
201707100600 AAXX 10064 67662 32975 00000 10118 20102 48/// 70500
                   333 10259 20071 5////
                   555 00062=
201707060600 AAXX 06064 67662 32975 30902 10138 20106 48/// 70500 83030
                   333 10217 20084 83360
                   555 00070=
201707050600 AAXX 05064 67662 32975 61503 10131 20094 48/// 70522 84031
                   333 10251 20065 5//// 84360 82080
                   555 00062=

################################################################################
#  SYNOPS from 67663, Kabwe (Zambia) | 14-27S | 028-28E | 1206 m
################################################################################
201707310600 AAXX 31064 67663 NIL=
201707251500 AAXX 25154 67663 NIL=
201707240600 AAXX 24064 67663 32980 00905 10155 20080 48522
                   333 10265 20100 58006
                   555 00150=
201707200600 AAXX 20064 67663 32980 01803 10141 20106 48535
                   333 10265 20098 59032
                   555 00///=
201707131200 AAXX 13124 67663 42580 11005 10214 20104 48562 70100 81100
                   333 59019 81822=
201707130900 AAXX 13094 67663 NIL=
201707100600 AAXX 10064 67663 32980 00706 10153 20105 48555
                   333 10245 20107 59001
                   555 00///=
201707070600 AAXX 07064 67663 32980 10904 10134 20113 48572 81030
                   333 10228 20104 59001 81360
                   555 00///=
201707060600 AAXX 06064 67663 32980 10606 10136 20106 48572 70200 81030
                   333 10224 20094 58007 81360
                   555 00178=
201707050600 AAXX 05064 67663 32980 20905 10132 20100 48566 70200 82030
                   333 10226 20096 58013 82360
                   555 00176=

################################################################################
#  SYNOPS from 67665, Lusaka Internationalairport (Zambia) | 15-19S | 028-27E | 1152 m
################################################################################
201707310600 AAXX 31064 67665 NIL=
201707310300 AAXX 31034 67665 42980 01303 10092 20072 48560 70200
                   333 59001 91025=
201707300900 AAXX 30094 67665 42680 40814 10195 20011 48595 84200
                   333 59008 84830=
201707300600 AAXX 30064 67665 32980 11008 10151 20106 48583 70100 81030
                   333 10231 20//0 59010 81360
                   555 00///=
201707300000 AAXX 30004 67665 42980 51704 10120 20070 48556 70222 85030
                   333 59008 85360=
201707290600 AAXX 29064 67665 42980 60000 10127 20085 48590 86030
                   333 58003 86360=
201707282100 AAXX 28214 67665 42980 41105 10145 20085 48481 86500
                   333 50003 84360=
201707281800 AAXX 28184 67665 42780 61005 10159 20065 48586 86500
                   333 58011 86656=
201707281500 AAXX 28154 67665 42680 60912 10183 20080 48582 86500
                   333 58011 86548=
201707280900 AAXX 28094 67665 42680 71115 10171 20079 48603 86230
                   333 58010 86833 83360=
201707280600 AAXX 28064 67665 32980 10909 10120 20071 48585 81030
                   333 10236 20//0 58008=
201707280300 AAXX 28034 67665 42980 01103 10068 20045 48570
                   333 58014=
201707280000 AAXX 28004 67665 42980 01203 10088 20063 48570
                   333 58005=
201707272100 AAXX 27214 67665 42980 01203 10107 20062 48578
                   333 58012=
201707271800 AAXX 27184 67665 42980 01003 10145 20056 48575 70200
                   333 10236 58014=
201707271500 AAXX 27154 67665 42980 00911 10207 20041 48575 70200
                   333 58020 91025=
201707271200 AAXX 27124 67665 42980 00911 10221 20039 48581 70200
                   333 58022=
201707270900 AAXX 27094 67665 42980 00716 10202 20060 48598
                   333 58015=
201707270600 AAXX 27064 67665 42980 01005 10120 20060 48577 70200
                   333 58013=
201707261500 AAXX 26154 67665 42980 01311 10221 20042 48557 70200
                   333 59005=
201707261200 AAXX 26124 67665 42980 00708 10232 20021 48561 70200
                   333 59006=
201707260900 AAXX 26094 67665 42980 00910 10203 20045 48584 70200
                   333 59008 91026=
201707260600 AAXX 26064 67665 32980 01104 10120 20081 48656
                   333 10//0 20//0 59012=
201707260300 AAXX 26034 67665 42980 01303 10091 20060 48550
                   333 59009=
201707260000 AAXX 26004 67665 42980 01603 10093 20065 48550
                   333 59006=
201707252100 AAXX 25214 67665 42980 01203 10122 20070 48564
                   333 59002=
201707251800 AAXX 25184 67665 42980 01204 10140 20073 48560
                   333 59005=
201707251500 AAXX 25154 67665 42980 01009 10213 20089 48561
                   333 58002=
201707251200 AAXX 25124 67665 42680 11008 10223 20091 48566 81100
                   333 59001 81845=
201707250900 AAXX 25094 67665 42680 10713 10200 20081 48591 81100
                   333 58007 81835=
201707250600 AAXX 25064 67665 32980 01107 10130 20082 48578
                   333 10//0 20//0 58013=
201707250300 AAXX 25034 67665 42980 01703 10098 20071 48559
                   333 58012=
201707250000 AAXX 25004 67665 42980 01302 10108 20073 48559
                   333 58016=
201707242100 AAXX 24214 67665 42980 00000 10126 20076 48565
                   333 58011=
201707241800 AAXX 24184 67665 42980 01005 10158 20007 48567 70200
                   333 58014=
201707241200 AAXX 24124 67665 42980 01013 10238 20100 48568 70200
                   333 58023=
201707240900 AAXX 24094 67665 42980 00812 10218 20095 48586
                   333 58019=
201707240600 AAXX 24064 67665 42980 01303 10133 20069 48565 70200
                   333 58012=
201707230900 AAXX 23094 67665 42980 01006 10228 20155 48577 70200
                   333 59001=
201707230600 AAXX 23064 67665 32980 00000 10127 20080 48555 70200
                   333 10247 20//0 59001
                   555 00///=
201707230300 AAXX 23034 67665 42980 01202 10088 20045 48535 70200
                   333 58001 91022=
201707230000 AAXX 23004 67665 42980 01402 10112 20072 48542 70200
                   333 58002=
201707222100 AAXX 22214 67665 42980 01202 10119 20070 48549 70200
                   333 59008 91023=
201707221500 AAXX 22154 67665 42980 00604 10234 20082 48535 70200
                   333 59002=
201707220900 AAXX 22094 67665 42980 00409 10210 20072 48576
                   333 58009=
201707212100 AAXX 21214 67665 42980 01203 10116 20067 48569 70200
                   333 59008=
201707210900 AAXX 21094 67665 42680 10610 10207 20091 48567 81100
                   333 59012 81830=
201707210000 AAXX 21004 67665 42980 00000 10107 20090 48540 70200
                   333 59014=
201707202100 AAXX 20214 67665 42980 00000 10130 20091 48556 70200
                   333 59016=
201707201500 AAXX 20154 67665 42980 10806 10234 20095 48550 70200 81030
                   333 58024 81360=
201707201200 AAXX 20124 67665 42680 21506 10236 20098 48556 70200 82100
                   333 59018 82840=
201707200900 AAXX 20094 67665 42580 00809 10204 20119 48578 70300
                   333 59016=
201707200600 AAXX 20064 67665 32980 01303 10147 20102 48568 70200
                   333 10265 20//0 58018
                   555 00///=
201707200000 AAXX 20004 67665 42980 00000 10116 20087 48554 70200
                   333 58024=
201707191800 AAXX 19184 67665 42980 00905 10161 20096 48576
                   333 59016=
201707191500 AAXX 19154 67665 42980 11310 10227 20092 48573 81060
                   333 59011 81358=
201707191200 AAXX 19124 67665 42680 11105 10252 20093 48575 81100
                   333 59012 81835=
201707190600 AAXX 19064 67665 32980 01104 10141 20093 48582
                   333 10257 20//0 59003=
201707190300 AAXX 19034 67665 42980 01104 10109 20091 48570
                   333 59002=
201707190000 AAXX 19004 67665 42980 02002 10116 20085 48573
                   333 58011=
201707182100 AAXX 18214 67665 42980 41303 10149 20116 48588 84030
                   333 58011 84360=
201707181800 AAXX 18184 67665 42980 61308 10191 20114 48595 70222 86030
                   333 10256 58022 86360=
201707181500 AAXX 18154 67665 42980 61211 10213 20100 48581 70322 86030
                   333 58016 86360=
201707181200 AAXX 18124 67665 42780 30913 10226 20084 48584 70300 83100
                   333 58019 83856=
201707180900 AAXX 18094 67665 42980 00815 10213 20100 48600
                   333 58014=
201707180600 AAXX 18064 67665 42980 01009 10145 20068 48587 70200
                   333 58019=
201707170900 AAXX 17094 67665 42980 00714 10240 20066 48591
                   333 58017=
201707170300 AAXX 17034 67665 42980 01402 10097 20076 48550
                   333 58008=
201707161800 AAXX 16184 67665 42980 01202 10148 20058 48552
                   333 10275 58003=
201707161500 AAXX 16154 67665 42980 00000 10265 20010 48550
                   333 59002=
201707151800 AAXX 15184 67665 42980 01103 10157 20077 48551
                   333 59008=
201707151500 AAXX 15154 67665 42980 00605 10234 20074 48547
                   333 59010=
201707151200 AAXX 15124 67665 42980 00706 10241 20070 48554
                   333 59002=
201707150900 AAXX 15094 67665 42980 00808 10203 20086 48572
                   333 59006=
201707150600 AAXX 15064 67665 32980 00903 10140 20094 48563
                   333 10//0 20//0 59002=
201707150000 AAXX 15004 67665 42980 01303 10107 20078 48547
                   333 59008=
201707141500 AAXX 14154 67665 42980 00707 10222 20095 48551
                   333 59007=
201707140900 AAXX 14094 67665 42980 00607 10200 20082 48578
                   333 59015=
201707140600 AAXX 14064 67665 32980 01502 10120 20071 48563 70200
                   333 59009=
201707131200 AAXX 13124 67665 NIL=
201707130900 AAXX 13094 67665 NIL=
201707130600 AAXX 13064 67665 32980 01402 10127 20081 48572 70200
                   333 10248 20074 59016
                   555 00///=
201707130300 AAXX 13034 67665 42980 00000 10097 20067 48562 70200
                   333 59006=
201707130000 AAXX 13004 67665 42980 01501 10110 20070 48571 70200
                   333 58005=
201707122100 AAXX 12214 67665 42980 00000 10116 20077 48574 70200
                   333 58004 91026=
201707121800 AAXX 12184 67665 42980 01603 20056 48577 70200
                   333 58007=
201707121500 AAXX 12154 67665 42980 00911 10221 20096 48580 70200
                   333 58014=
201707120900 AAXX 12094 67665 42680 10709 10206 20080 48607 81100
                   333 58017 81830=
201707120600 AAXX 12064 67665 32980 01305 10141 20106 48589
                   333 10260 20//0 58022=
201707120300 AAXX 12034 67665 42980 00000 10097 20081 48568
                   333 58026=
201707112100 AAXX 11214 67665 42980 11704 10133 20075 48572
                   333 58018=
201707111800 AAXX 11184 67665 42980 11305 10166 20092 48573 81030
                   333 10260 58015 81360=
201707111500 AAXX 11154 67665 42980 21105 10224 20056 48566 82030
                   333 58007 82360=
201707111200 AAXX 11124 67665 42980 31007 10233 20052 48572 83030
                   333 58019 83360=
201707110600 AAXX 11064 67665 32980 70902 10160 20116 48571 87030
                   333 10//0 20//0 58005 87360=
201707110300 AAXX 11034 67665 42980 11902 10140 20119 48549 81030
                   333 59006 81360=
201707110000 AAXX 11004 67665 42980 42102 10123 20090 48547 84030
                   333 59005 84359=
201707102100 AAXX 10214 67665 42980 20000 10136 20099 48557 82030
                   333 59009 82359=
201707101800 AAXX 10184 67665 42980 11202 10168 20110 48559 81030
                   333 59002 81359=
201707101500 AAXX 10154 67665 42980 21207 10235 20106 48550 82030
                   333 59009 82359=
201707101200 AAXX 10124 67665 42680 21106 10260 20098 48558 82100
                   333 59008 82840=
201707100900 AAXX 10094 67665 42980 00809 10227 20107 48581
                   333 59009=
201707090900 AAXX 09094 67665 42980 01110 10207 20113 48587
                   333 59017=
201707090600 AAXX 09064 67665 32980 01303 10138 20111 48569 70200
                   333 10250 20098 59022
                   555 00///=
201707090300 AAXX 09034 67665 42980 01202 10117 20087 48556 70200
                   333 59021=
201707090000 AAXX 09004 67665 42980 01402 10120 20092 48562 70200
                   333 59019=
201707082100 AAXX 08214 67665 42980 01502 10133 20096 48573 70200
                   333 59016 91026=
201707081500 AAXX 08154 67665 42980 00908 10226 20106 48575 70200
                   333 59003=
201707080900 AAXX 08094 67665 42680 20514 10196 20120 48602 82500
                   333 58001 82630=
201707080600 AAXX 08064 67665 32980 00908 10133 20096 48588
                   333 10228 20//0 59002=
201707080300 AAXX 08034 67665 42980 01105 10113 20095 48574 70200
                   333 58002=
201707071800 AAXX 07184 67665 42980 00804 10142 20104 48581 70200
                   333 10228 58005=
201707071200 AAXX 07124 67665 42680 20811 10214 20111 48579 82100
                   333 58011 82830=
201707061800 AAXX 06184 67665 42980 11005 10141 20086 48576 81030
                   333 59007 81360=
201707061200 AAXX 06124 67665 42680 60708 10211 20107 48578 86230
                   333 58004 86840 82360=
201707060900 AAXX 06094 67665 42680 30812 10190 20112 48600 82130
                   333 58001 82830 82360=
201707060600 AAXX 06064 67665 42980 30705 10133 20080 48590 70300 83030
                   333 58008 83360=
201707051800 AAXX 05184 67665 42980 21304 10134 20087 48582 70200 82030
                   333 58013 82060=
201707051200 AAXX 05124 67665 42680 41211 10209 20137 48574 70122 84530
                   333 58012 84535 81360=
201707050900 AAXX 05094 67665 42580 70913 10168 20115 48596 86530
                   333 58015 86620 82360=
201707050600 AAXX 05064 67665 32380 70808 10134 20104 48582 70322 8663/
                   333 10//0 20//0 58008 86709 83360
                   555 00///=
201707050300 AAXX 05034 67665 42980 11004 10116 20086 48564 81030
                   333 58009 81360 91025=
201707050000 AAXX 05004 67665 42980 11304 10123 20085 48559 70300 81030
                   333 58004 81360=
201707042100 AAXX 04214 67665 42980 11601 10125 20076 48573
                   333 58012 91026=
201707040900 AAXX 04094 67665 42680 30811 10196 20110 48586 83100
                   333 58006 83830=
201707040600 AAXX 04064 67665 42980 01305 10130 20092 48574 70200
                   333 58012=
201707031800 AAXX 03184 67665 42980 01303 10140 20061 48559 70100
                   333 10228 58005=
201707031500 AAXX 03154 67665 42980 21005 10217 20071 48557 70100 82030
                   333 58003 82360=
201707031200 AAXX 03124 67665 42680 41506 10121 20125 48558 70200 84200
                   333 58001 84840=
201707030900 AAXX 03094 67665 42580 20808 10196 20130 48581 70300 82130
                   333 58004 82825 81360 91026=
201707030600 AAXX 03064 67665 32980 11205 10135 20088 48564 81030
                   333 10//0 20//0 58005 81360=
201707030300 AAXX 03034 67665 42980 21202 10102 20085 48546 82030
                   333 59001 82360=
201707030000 AAXX 03004 67665 42980 51103 10132 20098 48550 85030
                   333 58002 85360=
201707022100 AAXX 02214 67665 42980 51003 10142 20091 48556 85030
                   333 58002 85360=
201707021800 AAXX 02184 67665 42980 51006 10156 20092 48558 85030
                   333 59006 85360=
201707021500 AAXX 02154 67665 42680 61107 10194 20107 48550 70222 81230
                   333 59009 81848 86360=
201707021200 AAXX 02124 67665 42680 61107 10209 20105 48556 70122 84230
                   333 59010 84838 83360=
201707020900 AAXX 02094 67665 42680 40608 10202 20116 48577 83230
                   333 59009 83830 83360=
201707020600 AAXX 02064 67665 42980 41403 10123 20074 48558 70300 84030
                   333 59012 84360=
201707010900 AAXX 01094 67665 42680 21008 10200 20124 48585 82100
                   333 59014 82830=
201707010600 AAXX 01064 67665 32980 01103 10139 20102 48581 70200
                   333 10250 20//0 59016
                   555 00///=

################################################################################
#  SYNOPS from 67666, Lusaka City Airport (Zambia) | 15-25-00S | 028-28-00E | 1280 m
################################################################################
201707310600 AAXX 31064 67666 NIL=
201707270600 AAXX 27064 67666 32980 00907 10141 20059 48572
                   333 10236 20111 58021
                   555 00/// 91026=
201707260600 AAXX 26064 67666 32980 00903 10157 20046 48554
                   333 10224 20122 59013
                   555 00/// 91024=
201707251500 AAXX 25154 67666 NIL=
201707250600 AAXX 25064 67666 32980 00910 10136 20075 48561
                   333 10252 20107 58007
                   555 00/// 91025=
201707240600 AAXX 24064 67666 32980 01605 10178 20063 48578 70500
                   333 10248 20124 58030
                   555 00042 91025=
201707200600 AAXX 20064 67666 32980 00906 10154 20117 48553
                   333 10252 20118 59017
                   555 00068 91024=
201707131200 AAXX 13124 67666 NIL=
201707130900 AAXX 13094 67666 NIL=
201707130600 AAXX 13064 67666 32980 00902 10135 20075 48562
                   333 10238 20077 59017
                   555 00040 91025=
201707110600 AAXX 11064 67666 32580 70704 10174 20094 48565 70122 874//
                   333 10239 20138 58007 87620
                   555 00109 91025=
201707100600 AAXX 10064 67666 32980 00908 10169 20105 48554
                   333 10251 20115 59008
                   555 00069 91024=
201707070600 AAXX 07064 67666 32380 70910 10129 20114 48580 70311 876//
                   333 10221 20122 58000 87710
                   555 00097 91027=
201707050600 AAXX 05064 67666 32480 80908 10133 20111 48571 887//
                   333 10224 20121 58016 88708
                   555 00103 91026=

################################################################################
#  SYNOPS from 67667, Mount Makulu (Zambia) | 15-33S | 028-15E | 1213 m
################################################################################
201707310600 AAXX 31064 67667 31980 10912 10158 20111 48/// 70500 81130
                   333 10260 20112 59001 81830 81360
                   555 00///=
201707280600 AAXX 28064 67667 31980 10910 10152 20090 48/// 70500 80001
                   333 10253 20084 58006 81082
                   555 00///=
201707270600 AAXX 27064 67667 31980 00903 10156 20067 48/// 70500
                   333 10254 20060 58016
                   555 00///=
201707260600 AAXX 26064 67667 31980 00906 10176 20050 48/// 70500
                   333 10254 20120 59014
                   555 00///=
201707251500 AAXX 25154 67667 NIL=
201707240600 AAXX 24064 67667 31980 00906 10184 20093 48/// 70500
                   333 10286 20076 58011
                   555 00///=
201707200600 AAXX 20064 67667 31980 00906 10167 20120 48/// 70500
                   333 10274 20104 59017
                   555 00///=
201707131200 AAXX 13124 67667 NIL=
201707130900 AAXX 13094 67667 NIL=
201707130600 AAXX 13064 67667 31980 00907 10158 20090 48/// 70500
                   333 10258 20102 59018
                   555 00///=
201707110600 AAXX 11064 67667 32580 80901 10182 20108 48/// 885//
                   333 10282 20138 58009 88640
                   555 00///=
201707100600 AAXX 10064 67667 32980 00905 10192 20122 48///
                   333 10289 20114 59008
                   555 00///=
201707070600 AAXX 07064 67667 32980 30902 10148 20112 48/// 83030
                   333 10252 20121 58002 83360
                   555 00///=
201707060600 AAXX 06064 67667 32480 71202 10134 20112 48/// 82530
                   333 10242 20090 59007 82625 85360
                   555 00///=
201707050600 AAXX 05064 67667 32480 71801 1//// 20113 48/// 86530
                   333 10246 20102 58013 86625 81360
                   555 00///=

################################################################################
#  SYNOPS from 67673, Petauke (Zambia) | 14-15S | 031-17E | 1035 m
################################################################################
201707310600 AAXX 31064 67673 31575 30507 10190 20120 48596 70500 83100
                   333 10260 20108 58003
                   555 00///=
201707270900 AAXX 27094 67673 41670 10901 10203 20067 48601 70500 81100
                   333 58012 81830=
201707270600 AAXX 27064 67673 31970 00904 10178 20068 48596 70500
                   333 10264 20118 58009
                   555 00///=
201707260600 AAXX 26064 67673 31970 00904 10182 20095 48587 70500
                   333 10260 20108 58005
                   555 00///=
201707251500 AAXX 25154 67673 NIL=
201707240600 AAXX 24064 67673 31965 01002 10205 20095 48577 70500
                   333 10290 20140 59002
                   555 00///=
201707200600 AAXX 20064 67673 32980 71002 10170 20130 48591 8703/
                   333 10278 20130 59031 87360
                   555 00///=
201707140900 AAXX 14094 67673 41973 00801 10234 20085 48595 70500
                   333 58036=
201707131200 AAXX 13124 67673 NIL=
201707130900 AAXX 13094 67673 NIL=
201707111200 AAXX 11124 67673 41675 30000 10274 20074 48578 70500 83100
                   333 58011 83835=
201707110600 AAXX 11064 67673 31975 00901 10178 20095 48579 70500
                   333 10276 20136 58002
                   555 00///=
201707101200 AAXX 10124 67673 42684 20801 10264 20083 48566 82100
                   333 5//// 82835=
201707100600 AAXX 10064 67673 32984 00901 10194 20122 48579
                   333 10270 20124 58007
                   555 00///=
201707070600 AAXX 07064 67673 32584 30904 10168 20123 48600 83100
                   333 10248 20118 59002 83825
                   555 00///=
201707060900 AAXX 06094 67673 42584 20901 10214 20121 48607 82100
                   333 58011 83830=
201707060600 AAXX 06064 67673 32584 40902 10152 20114 48606 84130
                   333 10250 20122 58010 84825 82360
                   555 00///=
201707050600 AAXX 05064 67673 32584 50902 10150 20112 48589 82230
                   333 10260 20108 58013 82820 85360
                   555 00///=

################################################################################
#  SYNOPS from 67731, Senanga (Zambia) | 16-06S | 023-16E | 1027 m
################################################################################
201707310600 AAXX 31064 67731 NIL=
201707280600 AAXX 28064 67731 32980 028// 10167 20058 48///
                   333 10292 20104 58018
                   555 00089=
201707270600 AAXX 27064 67731 32980 019// 10149 20043 48///
                   333 10286 20114 58009
                   555 00089=
201707260600 AAXX 26064 67731 32980 010// 10141 20063 48///
                   333 10279 20094 58000
                   555 00068=
201707251500 AAXX 25154 67731 NIL=
201707240600 AAXX 24064 67731 32980 012// 10139 20044 48///
                   333 10281 20101 59007
                   555 00068=
201707200600 AAXX 20064 67731 32980 003// 10131 20086 48/// 70200
                   333 10274 20113 59014
                   555 00079=
201707131200 AAXX 13124 67731 NIL=
201707130900 AAXX 13094 67731 NIL=
201707130600 AAXX 13064 67731 32980 026// 10157 20081 48/// 70200
                   333 10265 20117 59012
                   555 00088=
201707100600 AAXX 10064 67731 32980 017// 10172 20089 48///
                   333 10247 20115 59003
                   555 00122=
201707070600 AAXX 07064 67731 32980 009// 10143 20077 48///
                   333 10256 20111 58003
                   555 00099=
201707060600 AAXX 06064 67731 32980 013// 10139 20071 48///
                   333 10253 20101 58005
                   555 00086=
201707050600 AAXX 05064 67731 32980 010// 10141 20066 48///
                   333 10255 20102 58010
                   555 00079=

################################################################################
#  SYNOPS from 67741, Sesheke (Zambia) | 17-28S | 024-18E | 949 m
################################################################################
201707310600 AAXX 31064 67741 NIL=
201707270600 AAXX 27064 67741 32980 01001 10111 20074 48571
                   333 10265 20039 555 00102=
201707251500 AAXX 25154 67741 NIL=
201707131200 AAXX 13124 67741 NIL=
201707130900 AAXX 13094 67741 NIL=
201707070600 AAXX 07064 67741 32980 20901 10154 20106 48580 82030
                   333 10248 20120 59013 82362
                   555 00096=
201707060600 AAXX 06064 67741 32980 00801 10125 20097 48582
                   333 10250 20057 58006
                   555 00016=

################################################################################
#  SYNOPS from 67743, Livingstone (Zambia) | 17-49S | 025-49E | 985 m
################################################################################
201707310600 AAXX 31064 67743 32780 40904 10132 20084 48566 70222 84070
                   333 10265 20095 59002 84360
                   555 00/// 91026=
201707281200 AAXX 28124 67743 42980 01113 10230 20020 48585
                   333 58008 91025=
201707280900 AAXX 28094 67743 42980 01212 10189 20029 48604 70200
                   333 58013 91029=
201707251500 AAXX 25154 67743 NIL=
201707241200 AAXX 24124 67743 42980 01312 10261 20038 48570
                   333 58018 91023=
201707240900 AAXX 24094 67743 42980 00909 10235 20052 48588
                   333 58018 91026=
201707200600 AAXX 20064 67743 32980 02101 10142 20080 48553 70200
                   333 10280 20085 59021
                   555 00/// 91024=
201707131200 AAXX 13124 67743 NIL=
201707130900 AAXX 13094 67743 42680 10605 10228 20062 48590 81100
                   333 59014 81850 91026=
201707130600 AAXX 13064 67743 32980 00806 10154 20066 48569
                   333 10275 20070 59012
                   555 00/// 91025=
201707100600 AAXX 10064 67743 32980 01201 10159 20114 48554
                   333 10280 20097 59008
                   555 00/// 91024=
201707070600 AAXX 07064 67743 32980 50804 10126 20099 48576 70222 85020
                   333 10237 20086 59012 85460
                   555 00/// 91027=
201707060900 AAXX 06094 67743 42980 01009 10193 20084 48600 70200
                   333 5//// 91028=
201707060600 AAXX 06064 67743 32980 01005 10116 20094 48585 70200
                   333 10240 20073 58009
                   555 00/// 91028=
201707050600 AAXX 05064 67743 32980 00000 10104 20089 48573
                   333 10250 20080 58016
                   555 00/// 91027=

################################################################################
#  SYNOPS from 67751, Magoye (Zambia) | 16-00S | 027-36E | 1018 m
################################################################################
201707310600 AAXX 31064 67751 NIL=
201707280600 AAXX 28064 67751 32980 01203 10142 20062
                   333 10252 20055 59012
                   555 00///=
201707270600 AAXX 27064 67751 32980 01502 10124 20063 48///
                   333 10256 20067 59015
                   555 00///=
201707260600 AAXX 26064 67751 32980 01401 10140 20076 48///
                   333 10248 20062 58010
                   555 00///=
201707251500 AAXX 25154 67751 NIL=
201707250600 AAXX 25064 67751 32980 00905 10155 20081 48///
                   333 10272 20091 59009
                   555 00///=
201707240600 AAXX 24064 67751 32980 01802 10123 20056 48///
                   333 10274 20069 59003
                   555 00///=
201707200600 AAXX 20064 67751 32980 01801 10145 20099 48///
                   333 10274 20080 59017
                   555 00///=
201707131200 AAXX 13124 67751 NIL=
201707130900 AAXX 13094 67751 NIL=
201707070600 AAXX 07064 67751 32980 11604 10130 20105 48/// 81030
                   333 10237 20089 58009 81360
                   555 00///=
201707060600 AAXX 06064 67751 32980 20903 10140 20117 48/// 82030
                   333 10233 20078 59010 82360
                   555 00///=
201707050600 AAXX 05064 67751 32980 20905 10155 20113 82030
                   333 10244 20095 59023 82360
                   555 00///=

################################################################################
#  SYNOPS from 67753, Choma (Zambia) | 16-50S | 027-04E | 1213 m
################################################################################
201707310600 AAXX 31064 67753 NIL=
201707270600 AAXX 27064 67753 31960 03503 10119 20066 48570 70500
                   333 10230 20040 58017
                   555 00///=
201707251500 AAXX 25154 67753 NIL=
201707250600 AAXX 25064 67753 31960 60905 10110 20071 48569 70500 86030
                   333 10245 20050 58010 86360
                   555 00///=
201707240600 AAXX 24064 67753 31960 00000 10132 20066 48561 70500
                   333 10260 20050 58016
                   555 00///=
201707200600 AAXX 20064 67753 31960 03003 10112 20091 48559 70500
                   333 10244 20068 59016
                   555 00///=
201707131200 AAXX 13124 67753 NIL=
201707130900 AAXX 13094 67753 NIL=
201707130600 AAXX 13064 67753 31960 01803 10131 20090 48561 70500
                   333 10256 20064 5////
                   555 00///=
201707100600 AAXX 10064 67753 31975 00000 10106 20091 48550 70500
                   333 10//0 20//0 59026
                   555 00///=
201707070600 AAXX 07064 67753 31960 30000 10101 20101 48577 70500 83030
                   333 10219 20050 59007 83360
                   555 00///=
201707050600 AAXX 05064 67753 31960 30000 10090 20087 48576 70500 83030
                   333 10206 20078 58012 83360
                   555 00///=

################################################################################
#  SYNOPS from 67855, Lupaki (Zambia) | 17-03-00S | 024-46-00E | 1000 m
################################################################################
201707310600 AAXX 31064 67855 31970 70903 10160 20094 38/// 48/// 70522 8707/
                   333 20120 5//// 87360=
201707301200 AAXX 30124 67855 41970 53404 10250 20050 38/// 48/// 70522 85070
                   333 5//// 85360=
201707300600 AAXX 30064 67855 31970 71102 10118 20088 3//// 48/// 70522 8707/
                   333 20079 5//// 87360=
201707291200 AAXX 29124 67855 41670 73104 10226 20100 3//// 48/// 70522 8427/
                   333 5//// 84835 87360=
201707290600 AAXX 29064 67855 31570 71801 10126 20095 3//// 48/// 70522 875//
                   333 20079 5//// 87620=
201707281200 AAXX 28124 67855 41970 00605 10236 20035 3//// 48/// 70500
                   333 5////=
201707280600 AAXX 28064 67855 31970 00701 10076 20040 3//// 48/// 70500
                   333 20032 5////=
201707271200 AAXX 27124 67855 41970 00303 10246 20035 3//// 48/// 70500
                   333 5////=
201707270600 AAXX 27064 67855 31970 00601 10080 20020 38/// 48/// 70500
                   333 20035 5////=
201707261200 AAXX 26124 67855 41970 02103 10252 20040 38/// 48/// 70500
                   333 5////=
201707260600 AAXX 26064 67855 NIL=
201707251200 AAXX 25124 67855 NIL=
201707250600 AAXX 25064 67855 31970 00000 10082 20067 3//// 48/// 70500
                   333 20056 5////=
201707241200 AAXX 24124 67855 41870 01607 10268 20005 3//// 48/// 70500
                   333 5////=
201707240600 AAXX 24064 67855 31970 00901 10064 20030 3//// 48/// 70500
                   333 20039 5////=
201707231200 AAXX 23124 67855 NIL=
201707230600 AAXX 23064 67855 NIL=
201707221200 AAXX 22124 67855 41970 00000 10256 20063 3//// 48/// 70500
                   333 5////=
201707220600 AAXX 22064 67855 NIL=
201707211200 AAXX 21124 67855 41970 01803 10254 20025 3//// 48/// 70500
                   333 5////=
201707210600 AAXX 21064 67855 31970 00000 10060 20016 3//// 48/// 70500
                   333 20016 5////=
201707200600 AAXX 20064 67855 31970 00000 10076 20050 3//// 48/// 70540
                   333 20049 5////=
201707191200 AAXX 19124 67855 41770 11701 10254 20085 3//// 48/// 70500 81100
                   333 5//// 81856=
201707190600 AAXX 19064 67855 NIL=
201707181200 AAXX 18124 67855 41970 03601 10260 20090 3//// 48/// 70500
                   333 5////=
201707180600 AAXX 18064 67855 31970 00000 10092 20075 3//// 48/// 70500
                   333 20065 5////=
201707171200 AAXX 17124 67855 41970 01803 10292 20087 3//// 48/// 70500
                   333 5////=
201707170600 AAXX 17064 67855 NIL=
201707161200 AAXX 16124 67855 41970 03001 10268 20098 3//// 48/// 70500
                   333 5////=
201707160600 AAXX 16064 67855 NIL=
201707151200 AAXX 15124 67855 41970 00306 10254 20075 3//// 48/// 70500
                   333 5////=
201707150600 AAXX 15064 67855 31970 00000 10110 20042 3//// 48/// 70500
                   333 20040 5////=
201707141200 AAXX 14124 67855 41970 00302 10266 20063 3//// 48/// 70500
                   333 5////=
201707140600 AAXX 14064 67855 31970 00000 10078 20030 3//// 48/// 70500
                   333 20026 5////=
201707131200 AAXX 13124 67855 41970 00603 10256 20080 3//// 48///
                   333 5////=
201707130600 AAXX 13064 67855 31970 00000 10062 20030 3//// 48/// 70500
                   333 20026 5////=
201707121200 AAXX 12124 67855 41770 11603 10264 20104 3//// 48/// 81100
                   333 5////=
201707120600 AAXX 12064 67855 31970 00000 10086 20064 3//// 48/// 70500
                   333 20050 5////=
201707110600 AAXX 11064 67855 31970 00000 10086 20064 3//// 48/// 70500
                   333 20059 5////=
201707101200 AAXX 10124 67855 41970 01903 10280 20090 3//// 48/// 70500
                   333 5////=
201707100600 AAXX 10064 67855 31970 01801 10096 20078 3//// 48/// 70500
                   333 20070 5////=
201707091200 AAXX 09124 67855 NIL=
201707090600 AAXX 09064 67855 31970 00000 10090 20070 3//// 48/// 70500
                   333 20065 5////=
201707081200 AAXX 08124 67855 41970 00604 10260 20125 3//// 48/// 70500
                   333 5////=
201707080600 AAXX 08064 67855 31970 00000 10110 20091 3//// 48/// 70500
                   333 20088 5////=
201707071200 AAXX 07124 67855 41670 50302 10226 20105 38/// 48/// 70522 85200
                   333 5//// 85840=
201707070600 AAXX 07064 67855 11970 71801 10088 20080 3//// 48/// 69904 8707/
                   333 20085 5//// 87360=
201707061200 AAXX 06124 67855 NIL=
201707060600 AAXX 06064 67855 11970 00000 10072 20060 3//// 48/// 69904 70500
                   333 20042 5////=
201707051200 AAXX 05124 67855 41670 61803 10218 20098 3//// 48/// 72582 84270
                   333 5//// 84835 86360=
201707050600 AAXX 05064 67855 11970 51801 10120 20083 3//// 48/// 69904 70522 85070
                   333 20085 5//// 85360=
201707041200 AAXX 04124 67855 41670 71801 10212 20090 3//// 48/// 70522 8327/
                   333 5//// 83840 87360=
201707040600 AAXX 04064 67855 31970 80000 10130 20085 3//// 48/// 70522 8807/
                   333 20060 5//// 88360=
201707031200 AAXX 03124 67855 41670 50702 10216 20040 3//// 48/// 70511 85100
                   333 5//// 85840=
201707030600 AAXX 03064 67855 31970 00000 10060 20041 3//// 48/// 70500
                   333 20031 5////=
201707021200 AAXX 02124 67855 41670 21103 10242 20043 3//// 48/// 70500 82100
                   333 5//// 82845=
201707020600 AAXX 02064 67855 31970 00000 10040 20010 3//// 48/// 70500
                   333 20020 5////=
201707011200 AAXX 01124 67855 41670 11802 10250 20038 3//// 48/// 70500 81100
                   333 5//// 81845=
201707010600 AAXX 01064 67855 31970 10000 10094 20083 3//// 48///
                   333 20082 5//// 81360=
