################################################################################
# Query made at 04/18/2022 00:39:48 UTC
# Country like Zamb*
# Time interval: from 01/01/2006 05:30  to 01/31/2006 05:30  UTC
################################################################################

################################################################################
#  SYNOPS from 67403, Kawambwa (Zambia) | 09-48S | 029-05E | 1323 m
################################################################################
200601250600 AAXX 25064 67403 11580 71402 10213 20189 48547 69904 76062 81830
                   333 20179 555 10301 58010 81620 81821 87362=
200601170600 AAXX 17064 67403 11980 70000 10200 20192 48533 60174 76062 8703/
                   333 10276 20166 59005 87362=
200601130600 AAXX 13064 67403 12580 70000 10183 20172 48536 60304 8113/
                   333 10256 20152 58003 81820 87362=

################################################################################
#  SYNOPS from 67413, Mbala (Zambia) | 08-51S | 031-20E | 1673 m
################################################################################
200601270900 AAXX 27094 67413 42580 51008 10255 20154 48546 85201
                   333 58016 85825 82080=
200601260900 AAXX 26094 67413 42580 61008 10248 20157 48507 82220
                   333 58000 82830 84359=
200601250600 AAXX 25064 67413 12980 50000 10200 20169 48534 60234 85030
                   333 20155 555 10265 58006 85360=
200601191200 AAXX 19124 67413 42570 60000 10235 20185 48500 86206
                   333 58002 86820 81080=
200601170600 AAXX 17064 67413 12570 80000 10179 20173 48528 69904 885//
                   333 10240 20150 59001 88620=
200601130600 AAXX 13064 67413 12980 70910 10180 20164 48544 60044 8707/
                   333 10235 20145 58011 87459=

################################################################################
#  SYNOPS from 67461, Mansa (Zambia) | 11-06S | 028-51E | 1382 m
################################################################################
200601300600 AAXX 30064 67461 32480 72702 10204 20183 48510 8257/
                   333 10307 20176 59004 82616 87362=
200601261200 AAXX 26124 67461 41680 51804 10281 20190 48492 71722 84363
                   333 58000 81930 84830 81362 81079=
200601260900 AAXX 26094 67461 42580 70802 10252 20202 48520 8327/
                   333 58013 83820 87462=
200601250600 AAXX 25064 67461 32580 70906 10230 20183 48506 8257/
                   333 10290 20185 58015 82618 87461=
200601200600 AAXX 20064 67461 32380 50920 10202 20170 48512 81601
                   333 10280 20165 59012 81702 84080=
200601191200 AAXX 19124 67461 42680 50000 10266 20172 48491 85201
                   333 59016 85840 81080=
200601190900 AAXX 19094 67461 42580 61802 10230 20175 48518 83230
                   333 58011 83825 86312=
200601180900 AAXX 18094 67461 41560 83608 10180 20178 48580 76166 8557/
                   333 85620 88460=
200601170900 AAXX 17091 67461 42480 71205 10206 20188 48495 8557/
                   333 59019 85618 87362=
200601170600 AAXX 17064 67461 12480 80000 10194 20183 48495 69964 8157/
                   333 10240 20181 59001 81610 88460=
200601130600 AAXX 13064 67461 32380 73402 10193 20172 48515 81508
                   333 10280 20171 58006 81608 87280=
200601100600 AAXX 10064 67461 11560 83603 10176 20174 48514 60014 76166 8257/
                   333 10281 20169 58015 82620 88460=
200601090600 AAXX 09064 67461 11480 50801 10212 20188 48497 60194 72842 84530
                   333 10220 20171 58001 84610 81362=
200601050600 AAXX 05064 67461 32980 40802 10223 20176 48478 84030
                   333 10340 20185 59012 84364
                   555 00/// 20015 91014=
200601041200 AAXX 04124 67461 42580 73502 10249 20182 48462 8323/
                   333 59003 83830 84363=

################################################################################
#  SYNOPS from 67475, Kasama (Zambia) | 10-13S | 031-08E | 1382 m
################################################################################
200601270900 AAXX 27094 67475 42680 60813 10264 20183 48525 86202
                   333 59002 86840 84080=
200601261200 AAXX 26124 67475 42780 50611 10270 20185 48493 83182
                   333 59001 83850 84362 85080=
200601260900 AAXX 26094 67475 42680 70210 10240 20190 48526 8257/
                   333 58008 82630 87461=
200601250600 AAXX 25064 67475 12480 73604 10208 20192 48525 60154 8253/
                   333 10238 20177 58001 82610 87361=
200601200600 AAXX 20064 67475 32580 61208 10222 20184 48514 60014 82102
                   333 10276 20161 59012 82820 86080=
200601191200 AAXX 19124 67475 41680 61710 10267 20176 48489 71582 86232
                   333 58008 81930 86830 81361 82080=
200601170600 AAXX 17064 67475 11478 80308 10200 20187 48507 60024 72162 8657/
                   333 10232 20179 59010 86610 88460=
200601130600 AAXX 13064 67475 32980 80105 10205 20172 48529 8807/
                   333 10266 20160 58011 88460=
200601090600 AAXX 09064 67475 32580 30000 10221 20180 48505 82132
                   333 10277 20155 59003 82825 82361 83080=
200601050900 AAXX 05094 67475 42580 60610 10250 20180 48485 82332
                   333 59003 82820 84361 86080 91016=
200601050600 AAXX 05064 67475 11975 73308 10197 20173 48492 60104 72162 8707/
                   333 10258 20170 59006 87460
                   555 00166 20022 91017=
200601041200 AAXX 04124 67475 41680 62005 10240 20188 48469 71798 83272
                   333 58003 81940 83840 84462 85080=

################################################################################
#  SYNOPS from 67476, Misamfu (Zambia) | 10-06S | 031-15E | 1536 m
################################################################################
200601260900 AAXX 26094 67476 42580 70905 10235 20192 48/// 8217/
                   333 58010 82820 87360=
200601180900 AAXX 18094 67476 42580 73309 10236 20187 8327/
                   333 58016 83825 87360=
200601130600 AAXX 13064 67476 32980 73309 10204 20176 48/// 87030
                   333 10196 20172 58012 87360=

################################################################################
#  SYNOPS from 67477, Mpika (Zambia) | 11-54S | 031-26E | 1400 m
################################################################################
200601270900 AAXX 27094 67477 42580 70905 10251 20179 48527 82231
                   333 58006 82828 85362 83080=
200601250600 AAXX 25064 67477 32480 20903 10225 20179 48521 81181
                   333 10275 20170 58003 81818 81361 81080=
200601221200 AAXX 22124 67477 41760 70903 10265 20174 48418 71799 87202
                   333 59012 81945 86845 81080
                   555 66/// 77/// 887// 98020=
200601191200 AAXX 19124 67477 41680 71801 10245 20196 48496 71798 85263
                   333 58000 81930 85830 81360 81080=
200601190900 AAXX 19094 67477 41680 60904 10250 20185 48515 71522 86201
                   333 59002 81930 86830 81080=
200601170900 AAXX 17091 67477 42580 71002 10230 20185 48496 84236
                   333 59021 84820 83361 84275=
200601170600 AAXX 17064 67477 12480 70803 10211 20190 48486 69944 83570
                   333 10239 20180 59013 83610 87361=
200601130600 AAXX 13064 67477 11980 71001 10200 20184 48528 60014 70162 87070
                   333 10255 20170 58013 87360=
200601090600 AAXX 09064 67477 12480 41002 10215 20182 48499 60194 81101
                   333 10271 20160 59010 81814 84080=
200601041200 AAXX 04124 67477 41680 80901 10184 20172 48473 79598 8127/
                   333 58008 81930 81830 88460=

################################################################################
#  SYNOPS from 67531, Zambezi (Zambia) | 13-32S | 023-07E | 1077 m
################################################################################
200601270900 AAXX 27094 67531 42580 70302 10245 20193 48/// 8117/
                   333 5//// 81822 87360=
200601261200 AAXX 26124 67531 41780 61200 10215 20184 70292 83132
                   333 84850 82361 81081=
200601260900 AAXX 26094 67531 41980 20904 10295 20189 48/// 81032
                   333 5//// 81360 82081=
200601250600 AAXX 25064 67531 12380 71206 10216 20201 70124 81670
                   333 10276 20201 81706 82360=
200601200600 AAXX 20064 67531 12980 21202 10234 20191 60014 82830
                   333 10215 20176 82362=
200601191200 AAXX 19124 67531 42680 70601 10291 20179 48/// 83130
                   333 5//// 83844 85361=
200601190900 AAXX 19094 67531 42580 20302 10257 20196 48/// 81130
                   333 5//// 81825 82361=
200601180900 AAXX 18094 67531 42580 70606 10241 20195 8487/
                   333 82820 82621 87360=
200601170900 AAXX 17091 67531 42580 70605 10245 20195 48/// 8587/
                   333 5//// 83821 82622 87361=
200601170600 AAXX 17064 67531 12380 70604 10205 20191 69904 8463/
                   333 10300 20180 84708 87361=
200601111200 AAXX 11124 67531 41380 70306 10220 20186 48/// 72166 8362/
                   333 5//// 83708 87460=
200601100600 AAXX 10064 67531 32980 73607 10220 20191 48/// 83078
                   333 10274 20182 5//// 83360 86281=
200601090600 AAXX 09064 67531 12380 70305 10207 20194 48/// 60424 8467/
                   333 10297 20183 5//// 84707 87360=
200601050900 AAXX 05094 67531 42580 73608 10245 20183 83132
                   333 83825 81360 85080=
200601050600 AAXX 05064 67531 11380 73603 10209 20190 69924 75052 81771
                   333 10296 20185 81708 87360
                   555 00185 20016=
200601041200 AAXX 04124 67531 42680 71701 10270 20194 48/// 83107
                   333 5//// 83830 87280=

################################################################################
#  SYNOPS from 67551, Solwezi (Zambia) | 12-11S | 026-23E | 1386 m
################################################################################
200601261200 AAXX 26124 67551 42682 70903 10246 20168 48516 8227/
                   333 58004 82840 87362=
200601260900 AAXX 26094 67551 42982 71003 10232 20177 48528 8707/
                   333 58009 87462=
200601221200 AAXX 22124 67551 42582 53003 10262 20183 48508 85231
                   333 58007 85825 81362 81080 91016=
200601191200 AAXX 19124 67551 42682 70000 10260 20154 48505 84230
                   333 58005 84830 87362=
200601180900 AAXX 18094 67551 42582 73403 10215 20174 48511
                   333 58017 83615 87362=
200601170900 AAXX 17091 67551 42582 73103 10230 20178 48500 85237
                   333 59007 85825 82362 87280=
200601170600 AAXX 17064 67551 12482 70000 10186 20173 48507 60034 8267/
                   333 10235 20161 59008 82710 87362=

################################################################################
#  SYNOPS from 67561, Ndola (Zambia) | 13-00S | 028-39E | 1269 m
################################################################################
200601261200 AAXX 26124 67561 41575 50103 10260 20178 48505 76067 84232
                   333 58006 81928 84828 81362 81080=
200601260900 AAXX 26094 67561 41575 50603 10251 20185 48529 70522 84230
                   333 58008 84820 84361=
200601250600 AAXX 25064 67561 32480 70506 10217 20193 48525 85638
                   333 10281 20180 58002 85709 81361 85280=
200601190900 AAXX 19094 67561 41470 70000 10231 20169 48421 70562 85280
                   333 59001 85818 87361=
200601111200 AAXX 11124 67561 41670 72606 10268 20176 48481 70522 84238
                   333 59022 81940 84840 84361 87280=
200601100600 AAXX 10064 67561 11456 70000 10198 20187 48506 60274 70422 83538
                   333 10298 20184 58007 83610 86360 87280=
200601090600 AAXX 09064 67561 11475 70000 10200 20187 48499 60014 70522 87530
                   333 10260 20182 58002 87612 82361=
200601050900 AAXX 05094 67561 42580 70406 10257 20191 48485 81131
                   333 59008 81830 87362 81080 91015=
200601050600 AAXX 05064 67561 11975 60405 10202 20182 48485 69904 70522 86031
                   333 10261 20174 59023 86361 81080
                   555 00/// 20004 91015=

################################################################################
#  SYNOPS from 67563, Kafironda (Zambia) | 12-36S | 028-07E | 1243 m
################################################################################
200601270900 AAXX 27094 67563 41575 72102 10229 20180 48/// 76162 83170
                   333 5//// 83830 86360=
200601260900 AAXX 26094 67563 41575 60903 10245 20170 48/// 70522 85130
                   333 5//// 85830 82360=
200601180900 AAXX 18094 67563 41380 70403 10240 20190 72166 8377/
                   333 83706 87359=

################################################################################
#  SYNOPS from 67571, Serenje (Zambia) | 13-14S | 030-13E | 1384 m
################################################################################
200601270900 AAXX 27094 67571 42584 71403 10253 20196 48524 70266 8557/
                   333 58003 81920 85625 87360=

################################################################################
#  SYNOPS from 67581, Chipata (Zambia) | 13-33S | 032-35E | 1028 m
################################################################################
200601300600 AAXX 30064 67581 11580 70905 10210 20204 48510 60014 79198 8197/
                   333 10293 20195 59009 81930 83830 86460=
200601270900 AAXX 27094 67581 42684 70807 10277 20208 48541 81138
                   333 58000 81840 85362 87280=
200601261200 AAXX 26124 67581 41884 70411 10287 20208 48512 71522 85976
                   333 58004 82940 83840 84462 82080=
200601260900 AAXX 26094 67581 41684 70908 10247 20192 48524 71522 87201
                   333 58001 81925 87830 83080=
200601260600 AAXX 26064 67581 12548 61705 10222 20210 48537 60404 81130
                   333 10304 20183 58006 81825 86360=
200601250600 AAXX 25064 67581 12684 30910 10245 20202 48535 60312 81132
                   333 10305 20176 58000 81840 81362 82080=
200601230600 AAXX 23064 67581 12684 70302 10244 20209 48530 60074 81138
                   333 10308 20190 59005 81834 81362 87280=
200601200600 AAXX 20064 67581 32680 30603 10257 20204 48527 81132
                   333 10289 20190 59009 81830 81360 83080=
200601191200 AAXX 19124 67581 41684 72908 10280 20198 48507 72562 82938
                   333 59002 82940 82845 81360 87280=
200601190900 AAXX 19094 67581 42684 70609 10267 20220 48516 86202
                   333 59002 86840 82080=
200601180900 AAXX 18094 67581 42680 73603 10250 20206 48527 8417/
                   333 58015 84836 86460=
200601170900 AAXX 17091 67581 42684 70914 10258 20197 48513 81138
                   333 59011 81836 82362 83080=
200601170600 AAXX 17064 67581 11584 70808 10220 20184 48514 60014 72162 81337
                   333 10260 20201 59010 81920 84362 87280=
200601111200 AAXX 11124 67581 42684 72904 10260 20197 48492 81138
                   333 58010 81845 81845 81362 87280=
200601100600 AAXX 10064 67581 11484 70903 10248 20207 48507 69904 72162 81137
                   333 10320 20207 59002 81830 82362 87280=
200601090600 AAXX 09064 67581 12984 30704 10244 20203 48507 69904 80001
                   333 10297 20197 59010 83081=
200601050900 AAXX 05094 67581 42684 70713 10267 20204 48498 81138
                   333 59002 81840 81360 85080 91012=
200601050600 AAXX 05064 67581 12684 50610 10245 20203 48500 69904 81138
                   333 10290 20180 59006 81830 81362 85280
                   555 00/// 20002 91015=

################################################################################
#  SYNOPS from 67583, Lundazi (Zambia) | 12-17S | 033-12E | 1143 m
################################################################################
200601141800 AAXX 14184 67583 41000 81208 10198 20198 10252 38883 48509 59002 75986=

################################################################################
#  SYNOPS from 67599, Mfuwe (Zambia) | 13-16S | 031-56E | 568 m
################################################################################
200601300600 AAXX 30064 67599 32480 60000 10274 20241 48524 81932 84360 84360 84080=
200601261200 AAXX 26124 67599 41680 70910 10300 20238 48527 71798 8527/
                   333 58007 81945 85845 87460=
200601260900 AAXX 26094 67599 42680 70000 10295 20234 48553 8313/
                   333 58011 819// 83830 86360=
200601260600 AAXX 26064 67599 12480 60000 10260 20224 48551 69904 81531
                   333 10300 20//0 58006 81610 86360=
200601250600 AAXX 25064 67599 12480 40000 10255 20227 48543 60034 81131
                   333 20/// 555 10344 58000 81810 82360 83080=
200601230600 AAXX 23064 67599 11380 60000 10241 20231 48536 60024 72842 83632
                   333 10264 20/// 58003 83709 84360 84080=
200601200600 AAXX 20064 67599 32980 60000 10250 20228 48533 84032
                   333 10334 20//0 59010 84360 85080
                   555 00/// 20006 91016=
200601180900 AAXX 18094 67599 42480 72705 10266 20223 48537 84830
                   333 58019 83840 81645 86362=
200601130600 AAXX 13064 67599 11375 70000 10225 20219 48539 60024 72052 8577/
                   333 10322 20/// 58019 85709 87459=
200601120600 AAXX 12064 67599 12375 80000 10235 20221 48526 60036 76166 8377/
                   333 10312 20//0 58005 83709 88459
                   555 00/// 20012=
200601090600 AAXX 09064 67599 12480 50000 10245 20224 48509 60246 81102
                   333 10343 20/// 59011 81811 85080=

################################################################################
#  SYNOPS from 67633, Mongu (Zambia) | 15-15S | 023-09E | 1052 m
################################################################################
200601270900 AAXX 27094 67633 42682 51106 10271 20198 48535 83132
                   333 58007 83830 82361 81080=
200601261200 AAXX 26124 67633 42680 50706 10315 20182 48507 85230
                   333 59008 81930=
200601260900 AAXX 26094 67633 42680 23604 10283 20191 48530 82180
                   333 58005 82830 82360=
200601250600 AAXX 25064 67633 11980 70607 10209 20196 48512 60044 76162 86072
                   333 10302 20204 59004 86362 85080=
200601221200 AAXX 22124 67633 42680 73604 10272 20179 48511 82237
                   333 58010 82830 85362 87280
                   555 66066 77/// 8868/ 08028 91016=
200601200600 AAXX 20064 67633 32980 20504 10235 20192 48503 81032
                   333 10306 20193 58000 81361 82080=
200601191200 AAXX 19124 67633 42682 43602 10278 20193 48492 82402
                   333 58007 84840 81080=
200601190900 AAXX 19094 67633 42682 33608 10256 20191 48502 82132
                   333 59002 82830 82362 81080=
200601180900 AAXX 18094 67633 41582 70308 10216 20194 48498 72056 85832
                   333 58016 82825 83635 85361 83080=
200601170900 AAXX 17091 67633 42682 73610 10249 20184 48487 84232
                   333 59023 84830 85362 83080=
200601170600 AAXX 17064 67633 12982 70301 10211 20190 48486 69944 84038
                   333 10368 20193 59018 84361 86280=
200601111200 AAXX 11124 67633 41580 70305 10201 20195 48477 79199 84237
                   333 58003 81925 83825 83362 87280=
200601090600 AAXX 09064 67633 12982 53503 10226 20188 48493 69904 85030
                   333 10297 20197 59005 85360=
200601050900 AAXX 05094 67633 42682 43612 10277 20198 48484 84232
                   333 59008 84830 81361 81080 91013=
200601050600 AAXX 05064 67633 12982 60000 10239 20217 48477 60024 86030
                   333 10302 20197 59014 86361
                   555 00193 91013=
200601041200 AAXX 04124 67633 42682 70000 10250 20195 48472 82238
                   333 59003 81930 81830 82360 86080=

################################################################################
#  SYNOPS from 67655, Mumbwa (Zambia) | 15-04S | 027-11E | 1216 m
################################################################################
200601270900 AAXX 27094 67655 42480 70000 10250 20195 48546 85831
                   333 58003 82620 84825 83359 81078=

################################################################################
#  SYNOPS from 67659, Kafue Polder (Zambia) | 15-46S | 027-55E | 978 m
################################################################################
200601260900 AAXX 26094 67659 42484 60907 10279 20208 48/// 84838
                   333 5//// 82610 82820 83461 86280=

################################################################################
#  SYNOPS from 67663, Kabwe (Zambia) | 14-27S | 028-28E | 1206 m
################################################################################
200601170600 AAXX 17064 67663 12980 80704 10192 20181 48502 60264 8807/
                   333 10199 20170 59002 88460=
200601130600 AAXX 13064 67663 11970 70801 10190 20184 48513 60104 76166 8707/
                   333 10260 20180 58015 87460=
200601100600 AAXX 10064 67663 11375 73501 10210 20195 48494 60024 76066 8467/
                   333 10234 20195 58008 84709 84460=
200601090600 AAXX 09064 67663 12380 72803 10190 20181 48495 60024 8567/
                   333 10215 20173 58001 85709 87460=

################################################################################
#  SYNOPS from 67665, Lusaka Internationalairport (Zambia) | 15-19S | 028-27E | 1152 m
################################################################################
200601301200 AAXX 30124 67665 42680 63603 10282 20238 48490 85240
                   333 59002 85835 83360=
200601300900 AAXX 30094 67665 42480 70000 10239 20237 48515 8653/
                   333 59011 86615 85360=
200601300600 AAXX 30064 67665 42380 70000 10206 20206 48515 83630
                   333 10286 20189 59008 83708 86360
                   555 91018=
200601300400 AAXX 30044 67665 41780 60000 10208 20208 48560 71322 81933
                   333 59013 81955 85360 82080
                   555 91016=
200601300300 AAXX 30034 67665 41780 63003 10199 20199 48490 71322 81933
                   333 59020 81955 85360 82080
                   555 91015=
200601280900 AAXX 28094 67665 42480 73107 10234 20226 48542 8453/
                   333 58000 84615 87360=
200601280600 AAXX 28064 67665 12270 73302 10197 20197 48534 60054 70262 8377/
                   333 10276 20184 59002 83703 87359=
200601271800 AAXX 27184 67665 42575 80808 10220 20220 48529 8563/
                   333 10276 58016 85720 87360
                   555 91019=
200601271100 AAXX 27114 67665 42580 71202 10213 20213 48501 8323/
                   333 58000 83825 87359
                   555 10276 91016=
200601270900 AAXX 27094 67665 42580 70707 10243 20234 48543 875//
                   333 58005 87620=
200601270600 AAXX 27064 67665 12980 71004 10204 20204 48538 60034 70322 87032
                   333 10292 20191 59006 86360 81080 91021=
200601261200 AAXX 26124 67665 41559 70101 10221 20221 48523 79592 8197/
                   333 58006 81925 83826 87359=
200601260900 AAXX 26094 67665 42580 40709 10264 20237 48541 84232
                   333 58002 84830 82360 82080=
200601260600 AAXX 26064 67665 32480 60000 10217 20199 48547 83232
                   333 10291 20187 58006 83820 86360 83080=
200601251800 AAXX 25184 67665 42670 70000 10213 20213 48510 8972/
                   333 10292 59003 81935 83835 82359 87080 91018=
200601250900 AAXX 25094 67665 42580 70608 10254 20236 48536 878//
                   333 58000 86620 83822=
200601250600 AAXX 25064 67665 32380 41107 10214 20214 48538 81730
                   333 58004 81708 83360 91021=
200601241200 AAXX 24124 67665 42680 63203 10256 20242 48522 71522 81930
                   333 58011 81935 85838 81360 91018=
200601240900 AAXX 24094 67665 42580 60706 10256 20242 48538 85232
                   333 58003 85825 81360 83080=
200601240600 AAXX 24064 67665 32380 61202 10211 20211 48536 81132
                   333 58005 81810 82360 85080 91020=
200601231200 AAXX 23124 67665 42680 60303 10275 20241 48514 85202
                   333 59007 85840 82080=
200601230600 AAXX 23064 67665 12380 70000 10210 20210 48531 60014 82630
                   333 10264 20178 59002 82606 85710 82359=
200601230400 AAXX 23044 67665 42280 50000 10211 20211 48521 81632
                   333 59015 81604 83359 82080
                   555 91019=
200601230300 AAXX 23034 67665 42980 30000 10215 20215 48515 83030
                   333 59019 83359 555 91018=
200601221200 AAXX 22124 67665 41480 62512 10233 20233 48515 72562 8583/
                   333 59001 85620 83825 82360 91018=
200601220900 AAXX 22094 67665 41480 70607 10237 20230 48533 76022 878//
                   333 58003 84618 85820=
200601220600 AAXX 22064 67665 42480 62601 10221 20221 48531 60154 81232
                   333 10296 20175 59002 81810 84360 81080=
200601220400 AAXX 22044 67665 41/80 62307 10218 20218 48537 71796 81930
                   333 58014 819// 86360=
200601220300 AAXX 22034 67665 41/57 62811 10201 20201 48531 79796 81930
                   333 58016 819// 86360=
200601212100 AAXX 21214 67665 41780 51502 10213 20213 48533 71792 81930
                   333 58007 81950 85360=
200601211800 AAXX 21184 67665 42780 40602 10232 20232 48521 58019 71322 81932
                   333 10286 20205 81950 82850 83360 82080
                   555 91018=
200601210900 AAXX 21094 67665 42580 60708 10252 20237 48533 83102
                   333 83820 85080=
200601201500 AAXX 20154 67665 42680 71004 10231 20231 48509 70299 81932
                   333 58013 81940 83840 84360 82080
                   555 10298 91016=
200601200900 AAXX 20094 67665 42480 50306 10266 20245 48529 82802
                   333 58014 82615 84820 82080 91019=
200601200600 AAXX 20064 67665 32980 41201 10214 20214 48526 60014 84032
                   333 10286 20186 59003 84360 82080 91019=
200601191200 AAXX 19124 67665 42580 63504 10260 20238 48506 85232
                   333 58008 85830 83360 82080=
200601190900 AAXX 19094 67665 42480 73406 10222 20222 48525 70222 8563/
                   333 58005 85718 87360=
200601181800 AAXX 18184 67665 42680 60703 10214 20214 48501 81932
                   333 58001 81949 83360 85080 91016=
200601181500 AAXX 18154 67665 42680 53207 10246 20217 48485 83232
                   333 59003 81935 83835 81360 81080=
200601181200 AAXX 18124 67665 41580 53109 10249 20227 48501 71622 84830
                   333 58010 81920 83820 82360=
200601180900 AAXX 18094 67665 42480 73508 10219 20216 48520 8353/
                   333 58016 83610 87360=
200601180600 AAXX 18064 67665 41356 83504 10227 20227 48522 60254 76266 85630
                   333 10276 20185 58008 85706 88359=
200601170600 AAXX 17064 67665 11375 80905 10201 20201 48509 60044 70322 875//
                   333 10261 20190 59004 87608=
200601162100 AAXX 16214 67665 42480 60000 10189 20189 48515 81632
                   333 58008 81612 84360 82080=
200601160600 AAXX 16064 67665 12380 70000 10202 20202 48516 60084 70322 83532
                   333 10260 20195 58007 83608 85359 82080=
200601160400 AAXX 16044 67665 41380 70000 10206 20206 48511 81732
                   333 59005 81606 87359 83080
                   555 91017=
200601152100 AAXX 15214 67665 42680 61201 10214 20209 48510 71322 81932
                   333 59008 819// 82635 84360 84080
                   555 91017=
200601151500 AAXX 15154 67665 42580 70103 10274 20262 48496 82532
                   333 58004 82625 84360 86080=
200601151200 AAXX 15124 67665 42580 72004 10275 20262 48506 83132
                   333 58014 83820 86360 83080=
200601141500 AAXX 14154 67665 42780 53304 10292 20236 48494 83232
                   333 59005 83850 81360 81080=
200601141200 AAXX 14124 67665 42680 60302 10266 20228 48511 83232
                   333 59001 83835 82360 81080=
200601140900 AAXX 14094 67665 42480 73207 10239 20199 48528 8583/
                   333 59003 83615 82820 87360=
200601130900 AAXX 13094 67665 42480 70209 10225 20197 48531 58016 875//
                   555 91019=
200601130600 AAXX 13064 67665 12370 70404 10194 20194 48523 60094 70266 867//
                   333 10270 20173 58016 86706=
200601121500 AAXX 12154 67665 41570 72812 10187 20187 48489 79599 8653/
                   333 58024 81925 86625 87360
                   555 10270 91015=
200601120900 AAXX 12094 67665 41380 83308 10222 20222 48514 70222 8863/
                   333 58011 87612 86360 91018=
200601120600 AAXX 12064 67665 12380 80204 10194 20194 48510 60074 8773/
                   333 10270 20190 58007 87708 86360=
200601120400 AAXX 12044 67665 42380 73605 10200 20200 48502 85732
                   333 59002 85706 86360 83080 91017=
200601111200 AAXX 11124 67665 41370 73003 10211 20211 48485 72166 82732
                   333 59004 82707 83820 84360 86080=
200601110600 AAXX 11064 67665 11480 70000 10194 20194 48503 69904 72052 8353/
                   333 10264 20168 59005 83612 87360=
200601101200 AAXX 10124 67665 42580 70000 10253 20233 48495 83532
                   333 58009 83625 83830 85360 82080=
200601100600 AAXX 10064 67665 12480 72403 10217 20217 48511 60034 81580
                   333 10308 20200 58000 81615 87360=
200601100400 AAXX 10044 67665 42480 72702 10202 20202 48502 81530
                   333 58005 81610 87360=
200601100300 AAXX 10034 67665 41780 52603 10210 20210 48502 72162 81930
                   333 58007 81950 85360=
200601092100 AAXX 09214 67665 42780 51601 10210 20219 48510 81930
                   333 58006 81950 85360=
200601091800 AAXX 09184 67665 41680 70503 10218 20218 48497 71392 81932
                   333 58020 81940 83840 83360 84080=
200601091200 AAXX 09124 67665 42680 60000 10270 20212 48489 86201
                   333 58004 86838 81080=
200601090600 AAXX 09064 67665 32380 63201 10203 20203 48509 83532
                   333 10276 20184 58010 83610 83360 81080=
200601080600 AAXX 08064 67665 32480 50000 10218 20218 48505
                   333 59009 81130 81810 85360 91017=
200601080400 AAXX 08044 67665 42380 60000 10191 20191 48496
                   333 59005 81632 81606 85359 82080 91016=
200601080300 AAXX 08034 67665 42980 62702 10190 20190 48494
                   333 59002 86032 86359 82080 91016=
200601071200 AAXX 07124 67665 42680 62103 10281 20233 48497 84232
                   333 59018 84835 81360 81080=
200601070900 AAXX 07094 67665 42580 70202 10237 20230 48514 82230
                   333 59016 82820 86360=
200601070600 AAXX 07064 67665 31380 70803 10214 20214 48512 70322 85632
                   333 10235 20183 59010 85707 86360 81080 91018=
200601050900 AAXX 05094 67665 42580 70105 10261 20232 48498 83132
                   333 59004 83820 85360 82080=
200601041200 AAXX 04124 67665 42580 53306 10253 20240 48481 85202
                   333 59016 85825 81080=
200601040900 AAXX 04094 67665 42480 62508 10224 20224 48496 70122 85630
                   333 59011 85612 83820 82360 91016=
200601040600 AAXX 04064 67665 11359 73009 10196 20196 48503 60084 75052 8673/
                   333 10281 20192 59007 86708 84360 91017=
200601031200 AAXX 03124 67665 41358 73209 10217 20217 48493 76022 81930
                   333 59012 83710 81920 87825 82360 91015=
200601031015 AAXX 03104 67665 42580 60000 10210 20120 48487 70122 81932 91015=
200601030600 AAXX 03064 67665 32480 70803 10205 20205 48509 60184 70522 8153/
                   333 10280 20194 59026 83617 86360 91017=
200601030400 AAXX 03044 67665 42480 61104 10199 20199 48504 70522 81532
                   333 59024 82615 86360 81080=
200601010900 AAXX 01094 67665 41480 71014 10222 20222 48539 72052 875//
                   333 59002 87618=

################################################################################
#  SYNOPS from 67666, Lusaka City Airport (Zambia) | 15-25S | 028-19E | 1280 m
################################################################################
200601270900 AAXX 27094 67666 42480 70915 10236 20191 48530 85830
                   333 58006 84618 84822 84360=
200601260900 AAXX 26094 67666 42480 60910 10251 20191 48528 85831
                   333 58001 81618 85822 82361 81078=
200601221200 AAXX 22124 67666 41680 83608 10200 20183 48503 71761 8837/
                   333 85830 82360 91017=
200601200600 AAXX 20064 67666 32980 40905 10225 20187 48508 82031
                   333 10270 20113 58004 82360 84080=
200601130600 AAXX 13064 67666 12480 72508 10195 20178 48513 60034 875//
                   333 10262 20166 58821 87618=
200601090600 AAXX 09064 67666 12478 42906 10206 20189 48502 60034 82530
                   333 10265 20165 58009 82610 82360=

################################################################################
#  SYNOPS from 67673, Petauke (Zambia) | 14-15S | 031-17E | 1035 m
################################################################################
200601270900 AAXX 27094 67673 42684 70907 10280 20211 48547 86230
                   333 58001 81936 86836 86364=
200601261200 AAXX 26124 67673 41684 73612 10277 20189 48518 71522 82236
                   333 58004 81945 82845 82364 85280=
200601260900 AAXX 26094 67673 42684 70607 10269 20200 48543 87202
                   333 58003 87835 81080=
200601250600 AAXX 25064 67673 12684 20905 10246 20204 69904 81131
                   333 20193 555 10308 58005 81830 81362 81080=
200601191200 AAXX 19124 67673 42784 73302 10277 20198 48514 86202
                   333 58006 81950 86850 82080=
200601170900 AAXX 17091 67673 41560 80601 10200 20197 48512 79192
                   333 59007 819// 85620 88459=
200601170600 AAXX 17064 67673 12580 83402 10210 20203 48516 60024 8657/
                   333 10238 20192 59010 86620 88462=
200601130600 AAXX 13064 67673 11475 80808 10198 20192 48534 60044 76062 8457/
                   333 10271 20184 58017 84612 87460=
200601101200 AAXX 10124 67673 11575 81610 10224 20218 40115 57013 69901 72052 8627/
                   333 94327=
200601090600 AAXX 09064 67673 12984 70000 10232 20191 48508 60184 81038
                   333 10300 20178 59008 81360 87282=

################################################################################
#  SYNOPS from 67743, Livingstone (Zambia) | 17-49S | 025-49E | 985 m
################################################################################
200601300600 AAXX 30064 67743 12480 81006 10220 20215 48487 60054 8567/
                   333 10299 20200 59026 85710 88361=
200601291200 AAXX 29124 67743 41680 61503 10281 20216 48486 71522 86201
                   333 59031 86835 81080 91013=
200601261200 AAXX 26124 67743 42680 50911 10302 20201 48519 70222
                   333 59006 85835=
200601260900 AAXX 26094 67743 42680 50907 10296 20204 48539 70310 85200
                   333 58004 85830=
200601260600 AAXX 26064 67743 32980 30905 10236 20200 48535 80002
                   333 10305 20187 58003 83080=
200601250600 AAXX 25064 67743 12580 60904 10220 20201 48530 69904 70220 82830
                   333 10295 20193 59001 81620 81825 84360=
200601230600 AAXX 23064 67743 12980 70000 10220 20209 48515 60014 8703/
                   333 10301 20198 59010 87360=
200601221200 AAXX 22124 67743 42680 63007 10284 20205 48506 70222 84101
                   333 59018 85835 86080
                   555 91015=
200601200600 AAXX 20064 67743 12380 71403 10223 20212 48573 60144 70222 82730
                   333 10290 20205 58008 82709 86362
                   555 91017=
200601191200 AAXX 19124 67743 42680 73204 10277 20187 48496 83260
                   333 58011 83840 85360=
200601170900 AAXX 17091 67743 42480 80907 10239 20205 48495 885//
                   333 59016 88612=
200601170600 AAXX 17064 67743 11370 81004 10205 20199 48498 60074 75060 887//
                   333 10291 20194 58009 88708=
200601130600 AAXX 13064 67743 32370 70705 10219 20204 48503 70250 82670
                   333 10265 20203 58018 82709 87460=
200601120600 AAXX 12064 67743 12380 80905 10208 20202 48485 60074 8177/
                   333 10247 20197 58000 81709 88460=
200601111200 AAXX 11124 67743 41478 80203 10217 20210 48465 75856 8457/
                   333 59011 84615 88460=
200601100600 AAXX 10064 67743 12380 80000 10201 20201 48485 60264 8377/
                   333 10306 20190 59005 83709 87462=
200601090600 AAXX 09064 67743 32580 52706 10235 20196 48496 81143
                   333 10300 20202 58002 81835 84661 82080=
200601050600 AAXX 05064 67743 12360 80906 10217 20204 48486 60054 70200 887//
                   333 10296 59008 88708
                   555 00/// 91014=
200601041200 AAXX 04124 67743 41659 73407 10240 20212 48468 79529 83370
                   333 59049 83935 87460=

################################################################################
#  SYNOPS from 67751, Magoye (Zambia) | 16-00S | 027-36E | 1018 m
################################################################################
200601180900 AAXX 18094 67751 41480 80203 10207 20196 76066 885//
                   333 88613=
200601130600 AAXX 13064 67751 12980 70204 10221 20187 48/// 60024 8707/
                   333 10221 20188 5//// 87360=
200601090600 AAXX 09064 67751 12980 50403 10227 20195 48/// 69904 84031
                   333 10280 20180 5//// 84360 82080=

################################################################################
#  SYNOPS from 67753, Choma (Zambia) | 16-50S | 027-04E | 1213 m
################################################################################
200601270900 AAXX 27094 67753 42580 71810 10242 20182 48/// 85138
                   333 5//// 85820 84360 87280=
200601261200 AAXX 26124 67753 41680 61905 10261 20196 71722 86230
                   333 81938 86838 84360=
200601260900 AAXX 26094 67753 42680 61005 10250 20191 48/// 86120
                   333 5//// 86835 84360=
200601250600 AAXX 25064 67753 32380 72603 10204 20194 8764/
                   333 10275 20177 87708 84360=
200601190900 AAXX 19094 67753 42580 73605 10225 20186 48/// 86230
                   333 5//// 86825 84360=
200601180900 AAXX 18094 67753 41458 83604 10192 20186 72162 8777/
                   333 87708 88459=
200601170600 AAXX 17064 67753 11350 83608 10184 20183 60224 76162 8777/
                   333 10269 20181 87708 88459=
200601130600 AAXX 13064 67753 11359 83505 10189 20185 48/// 60204 76062 8777/
                   333 10241 20179 5//// 87708 88459=
200601111200 AAXX 11124 67753 42560 72704 10228 20188 48/// 8617/
                   333 5//// 86825 87460=
200601100600 AAXX 10064 67753 12980 71802 10201 20179 48/// 60034 85048
                   333 10282 20179 5//// 85360 86280=
200601090600 AAXX 09064 67753 11480 52702 10207 20194 48/// 60024 72842 83538
                   333 10278 20180 5//// 83610 82360 84280=
200601050900 AAXX 05094 67753 41580 70304 10220 20197 71722 84270
                   333 81920 83820 87460=
200601041200 AAXX 04124 67753 42580 70302 10230 20190 48/// 83220
                   333 5//// 83825 87460=

################################################################################
#  SYNOPS from 67855, Lupaki (Zambia) | 17-03-00S | 024-46-00E | 1000 m
################################################################################
200601310000 AAXX 31004 67855 NIL=
200601301800 AAXX 30184 67855 NIL=
200601301200 AAXX 30124 67855 NIL=
200601300600 AAXX 30064 67855 12580 71201 10218 20195 3//// 48/// 69904 82172
                   333 20185 5//// 82820 86460 87080=
200601291800 AAXX 29184 67855 NIL=
200601291200 AAXX 29124 67855 NIL=
200601290600 AAXX 29064 67855 NIL=
200601290000 AAXX 29004 67855 NIL=
200601281800 AAXX 28184 67855 NIL=
200601281200 AAXX 28124 67855 NIL=
200601280600 AAXX 28064 67855 NIL=
200601280000 AAXX 28004 67855 NIL=
200601271800 AAXX 27184 67855 NIL=
200601270600 AAXX 27064 67855 12980 70000 10228 20208 3//// 48/// 60054 81032
                   333 20195 5//// 81360 86080=
200601270000 AAXX 27004 67855 NIL=
200601261800 AAXX 26184 67855 NIL=
200601261200 AAXX 26124 67855 NIL=
200601260600 AAXX 26064 67855 32980 20701 10228 20192 3//// 48/// 80001
                   333 20185 5//// 82080=
200601260000 AAXX 26004 67855 NIL=
200601251800 AAXX 25184 67855 NIL=
200601251200 AAXX 25124 67855 NIL=
200601250600 AAXX 25064 67855 32580 70701 10230 20198 3//// 48/// 84132
                   333 20193 5//// 84820 87080=
200601250000 AAXX 25004 67855 NIL=
200601241800 AAXX 24184 67855 NIL=
200601241200 AAXX 24124 67855 NIL=
200601240600 AAXX 24064 67855 12980 80701 10195 20181 3//// 48/// 60054 8807/
                   333 20186 5//// 88460=
200601240000 AAXX 24004 67855 NIL=
200601231800 AAXX 23184 67855 NIL=
200601231200 AAXX 23124 67855 NIL=
200601230600 AAXX 23064 67855 11570 70201 10233 20205 3//// 48/// 60024 70522 85132
                   333 20195 5//// 85820 85080=
200601230000 AAXX 23004 67855 NIL=
200601221800 AAXX 22184 67855 NIL=
200601221200 AAXX 22124 67855 NIL=
200601220600 AAXX 22064 67855 NIL=
200601220000 AAXX 22004 67855 NIL=
200601211800 AAXX 21184 67855 NIL=
200601211200 AAXX 21124 67855 NIL=
200601210600 AAXX 21064 67855 NIL=
200601210000 AAXX 21004 67855 NIL=
200601201800 AAXX 20184 67855 NIL=
200601201200 AAXX 20124 67855 NIL=
200601200600 AAXX 20064 67855 12580 80000 10208 20197 3//// 48/// 60014 8127/
                   333 20192 5//// 81820 88460=
200601200000 AAXX 20004 67855 NIL=
200601191800 AAXX 19184 67855 NIL=
200601191200 AAXX 19124 67855 NIL=
200601190600 AAXX 19064 67855 NIL=
200601190000 AAXX 19004 67855 NIL=
200601181800 AAXX 18184 67855 NIL=
200601181200 AAXX 18124 67855 NIL=
200601180600 AAXX 18064 67855 12380 70401 10206 20195 3//// 48/// 60224 82670
                   333 20191 5//// 82706 87460=
200601180000 AAXX 18004 67855 NIL=
200601171800 AAXX 17184 67855 NIL=
200601171200 AAXX 17124 67855 NIL=
200601161200 AAXX 16124 67855 NIL=
200601160600 AAXX 16064 67855 NIL=
200601160000 AAXX 16004 67855 NIL=
200601151800 AAXX 15184 67855 NIL=
200601151200 AAXX 15124 67855 NIL=
200601150600 AAXX 15064 67855 NIL=
200601150000 AAXX 15004 67855 NIL=
200601141800 AAXX 14184 67855 NIL=
200601141200 AAXX 14124 67855 NIL=
200601140600 AAXX 14064 67855 NIL=
200601140000 AAXX 14004 67855 NIL=
200601131800 AAXX 13184 67855 NIL=
200601131200 AAXX 13124 67855 NIL=
200601130600 AAXX 13064 67855 NIL=
200601130000 AAXX 13004 67855 NIL=
200601121800 AAXX 12184 67855 NIL=
200601121200 AAXX 12124 67855 NIL=
200601120600 AAXX 12064 67855 NIL=
200601120000 AAXX 12004 67855 NIL=
200601111800 AAXX 11184 67855 NIL=
200601111200 AAXX 11124 67855 NIL=
200601110600 AAXX 11064 67855 12480 70702 10225 20197 3//// 48/// 60024 87572
                   333 20208 5//// 87615=
200601110000 AAXX 11004 67855 NIL=
200601101800 AAXX 10184 67855 NIL=
200601101200 AAXX 10124 67855 NIL=
200601100600 AAXX 10064 67855 12580 70301 10237 20211 3//// 48/// 60024 82232
                   333 20195 5//// 82820 87360=
200601100000 AAXX 10004 67855 NIL=
200601091800 AAXX 09184 67855 NIL=
200601091200 AAXX 09124 67855 NIL=
200601090600 AAXX 09064 67855 NIL=
200601090000 AAXX 09004 67855 NIL=
200601081800 AAXX 08184 67855 NIL=
200601081200 AAXX 08124 67855 NIL=
200601080600 AAXX 08064 67855 NIL=
200601080000 AAXX 08004 67855 NIL=
200601071800 AAXX 07184 67855 NIL=
200601071200 AAXX 07124 67855 NIL=
200601070600 AAXX 07064 67855 NIL=
200601070000 AAXX 07004 67855 NIL=
200601061800 AAXX 06184 67855 NIL=
200601061200 AAXX 06124 67855 NIL=
200601060600 AAXX 06064 67855 12580 70501 10218 20195 3//// 48/// 60114 81132
                   333 20183 5//// 81820 87080=
200601060000 AAXX 06004 67855 NIL=
200601051800 AAXX 05184 67855 NIL=
200601051200 AAXX 05124 67855 NIL=
200601050600 AAXX 05064 67855 12980 70501 10240 20194 3//// 48/// 60024 81032
                   333 20192 5//// 81360 87080=
200601050000 AAXX 05004 67855 NIL=
200601041800 AAXX 04184 67855 NIL=
200601041200 AAXX 04124 67855 NIL=
200601040000 AAXX 04004 67855 NIL=
200601031800 AAXX 03184 67855 NIL=
200601031200 AAXX 03124 67855 NIL=
200601030600 AAXX 03064 67855 32580 40701 10239 20191 3//// 48/// 81132
                   333 20166 5//// 81820 84080=
200601030000 AAXX 03004 67855 NIL=
200601021800 AAXX 02184 67855 NIL=
200601021200 AAXX 02124 67855 NIL=
200601020600 AAXX 02064 67855 NIL=
200601020000 AAXX 02004 67855 NIL=
200601011800 AAXX 01184 67855 NIL=
200601011200 AAXX 01124 67855 NIL=
200601010600 AAXX 01064 67855 NIL=
