################################################################################
# Query made at 04/15/2022 02:06:29 UTC
# Country like Zamb*
# Time interval: from 12/01/2009 05:30  to 12/31/2009 06:30  UTC
################################################################################

################################################################################
#  SYNOPS from 67403, Kawambwa (Zambia) | 09-48S | 029-05E | 1323 m
################################################################################
200912280600 AAXX 28064 67403 11380 71201 10196 20185 48530 60354 72162 8157/
                   333 10256 20144 59004 81608 87361=

################################################################################
#  SYNOPS from 67413, Mbala (Zambia) | 08-51S | 031-20E | 1673 m
################################################################################
200912230900 AAXX 23094 67413 42580 63305 10240 20171 48525 84231
                   333 59028 84825 81359 81080 Q1022.9=
200912221200 AAXX 22124 67413 42480 63306 10240 20172 48514 84832
                   333 5008 83618 81835 82360 81080=
200912140600 AAXX 14064 67413 12580 60000 10214 20168 48541 60584 81330
                   333 10260 20145 58007 81925 81820 86360=

################################################################################
#  SYNOPS from 67441, Mwinilunga (Zambia) | 11-45S | 024-26E | 1361 m
################################################################################
200912300600 AAXX 30064 67441 11960 80000 10185 20177 48531 60044 76162 8802/
                   333 10255 20/// 5//// 88460=
200912280900 AAXX 28094 67441 42680 43007 10245 20193 48540 83230
                   333 5//// 85830 82362=
200912280600 AAXX 28064 67441 NIL=
200912140600 AAXX 14064 67441 NIL=
200912090600 AAXX 09064 67441 12580 81803 10195 20182 48/// 69904 885//
                   333 10285 20/// 5//// 88620=
200912080600 AAXX 08064 67441 12580 30000 10195 20183 48/// 60024 82230
                   333 10300 20/// 5//// 828720 82360=
200912020600 AAXX 02064 67441 12480 70000 10200 20193 48546 60194 8117/
                   333 10265 20/// 5/// 81818 87360=

################################################################################
#  SYNOPS from 67461, Mansa (Zambia) | 11-06S | 028-51E | 1382 m
################################################################################
200912300600 AAXX 30064 67461 11570 83402 10188 20182 48514 60014 75252 8257/
                   333 10252 20170 58003 82625 88462=
200912280900 AAXX 28094 67461 41580 72902 10240 20187 48532 71522 84231
                   333 59010 84825 82362 83080=
200912280600 AAXX 28064 67461 32580 73402 10202 20190 48520 8257/
                   333 10275 20176 59011 82624 87362=
200912140600 AAXX 14064 67461 12580 60902 10212 20191 48528 60024 81538
                   333 10265 20175 58008 81620 82362 86280=
200912090600 AAXX 09064 67461 32980 50901 10245 20190 48513 82038
                   333 10308 20185 59004 82362 85280=
200912080600 AAXX 08064 67461 32582 31405 10239 20185 48517 81331
                   333 10308 20184 59002 81620 81362 83080=
200912020600 AAXX 02064 67461 12580 71402 10214 20187 48520 60014 8157/
                   333 10300 20184 58011 81620 87462=

################################################################################
#  SYNOPS from 67469, Samfya (Zambia) | 11-22S | 029-54E | 1171 m
################################################################################
200912050600 AAXX 05061 67469 32580 30903 10252 20169 38779 48565 82232
                   333 20158 50661 55/// 59005 82825 83075
                   555 10298 7//11=

################################################################################
#  SYNOPS from 67475, Kasama (Zambia) | 10-13S | 031-08E | 1382 m
################################################################################
200912300600 AAXX 30064 67475 11350 83405 10173 20173 48529 60414 76366 8477/
                   333 10194 20161 58009 84708 88460=
200912280600 AAXX 28064 67475 11475 73405 10198 20184 48522 60234 72842 8257/
                   333 10242 20154 59006 82610 87360=
200912140600 AAXX 14064 67475 NIL=
200912090900 AAXX 09094 67475 42680 71610 10275 20173 48507 85232
                   333 59003 85840 83361 82080=
200912090600 AAXX 09064 67475 32580 71306 10236 20173 48515 8117/
                   333 10306 20170 59003 81825 87460=
200912080600 AAXX 08064 67475 32580 60810 10240 20127 48518 81102
                   333 10305 20170 59004 81828 86080=
200912030600 AAXX 03064 67475 12980 60000 10224 20164 48531 60094 85072 3333 10246 20164
                   58009 85360 8080=
200912020600 AAXX 02064 67475 12480 71803 10220 20182 48522 60014 85231
                   333 10303 20172 58007 81945 85845 84360 87080=

################################################################################
#  SYNOPS from 67476, Misamfu (Zambia) | 10-06S | 031-15E | 1536 m
################################################################################
200912140600 AAXX 14064 67476 32480 70604 10207 20174 48/// 81130
                   333 10290 20168 5//// 81816 87360=

################################################################################
#  SYNOPS from 67477, Mpika (Zambia) | 11-54S | 031-26E | 1400 m
################################################################################
200912300600 AAXX 30064 67477 12480 73403 10197 20176 48523 60014 8153/
                   333 10246 20160 58010 81612 87361=
200912280600 AAXX 28064 67477 11380 83102 10185 20183 48523 69904 76042 8677/
                   333 10245 20149 59002 86706 87361=
200912140600 AAXX 14064 67477 32480 51305 10220 20184 48526 82138
                   333 10266 20179 58003 82816 81362 83280=
200912080600 AAXX 08064 67477 31580 12702 10233 20193 48/// 69904 81131
                   333 10309 20198 5//// 81817 81362 81082=
200912020600 AAXX 02064 67477 12480 72802 10220 20192 48517 60124 81138
                   333 10270 20178 58004 81812 81362 86280=

################################################################################
#  SYNOPS from 67481, Isoka (Zambia) | 10-07S | 032-38E | 1360 m
################################################################################
200912280600 AAXX 28064 67481 12380 70000 10192 20178 48/// 60064 83632
                   333 10219 20105 5//// 83709 83360 84080=

################################################################################
#  SYNOPS from 67531, Zambezi (Zambia) | 13-32S | 023-07E | 1077 m
################################################################################
200912280600 AAXX 28064 67531 NIL=
200912140600 AAXX 14064 67531 12480 73601 10219 20184 48/// 69914 8383/
                   333 10295 20186 5//// 81815 82615 87361=
200912080600 AAXX 08064 67531 12480 12702 10233 20193 48/// 69904 81131
                   333 10309 20198 5//// 81817 81362 81082=
200912020600 AAXX 02064 67531 11370 80000 10187 20187 48/// 60554 76196 8677/
                   333 10316 20182 5//// 86707 88460=

################################################################################
#  SYNOPS from 67541, Kasempa (Zambia) | 13-32S | 025-51E | 1234 m
################################################################################
200912300600 AAXX 30064 67541 12380 70000 10201 20195 48495 69904 8363/
                   333 10/// 20/// 59008 83607 87360=
200912280600 AAXX 28064 67541 12980 70000 10186 20181 48505 60024 82031
                   333 10/// 20/// 59010 82360 85080=
200912140600 AAXX 14064 67541 12982 70000 10210 20186 48518 60124 83031
                   333 10/// 20/// 59003 83360 84080=
200912101200 AAXX 10124 67541 41580 70511 10280 20215 48479 71521 86238
                   333 59010 81950 85856 86260=
200912080600 AAXX 08064 67541 NIL=
200912020600 AAXX 02064 67541 12380 70000 10202 20184 48513 60374 81100
                   333 10/// 20/// 58013 81806 86360=

################################################################################
#  SYNOPS from 67551, Solwezi (Zambia) | 12-11S | 026-23E | 1386 m
################################################################################
200912280600 AAXX 28064 67551 12980 73405 10195 20172 48515 60014 87030
                   333 10230 20167 59007 87362=

################################################################################
#  SYNOPS from 67561, Ndola (Zambia) | 13-00S | 028-39E | 1269 m
################################################################################
200912300600 AAXX 30064 67561 11275 80304 10192 20182 48525 60074 70522 8567/
                   333 10253 20178 58004 85703 88459=
200912280900 AAXX 28094 67561 41560 50000 10262 20181 48509 70522 85232
                   333 59020 85820 82360 85280=
200912280600 AAXX 28064 67561 11360 60000 10212 20192 48515 69984 74144 83632
                   333 10295 20176 59013 83706 84360 85280=
200912260600 AAXX 26064 67561 12380 70000 10202 20173 48535 60084 70262 85538
                   333 10255 20176 58018 85610 86360 87280=
200912241200 AAXX 24124 67561 41680 70703 10268 20178 48475 71722 87232
                   333 59016 81940 87840 81361 81080=
200912230900 AAXX 23094 67561 41607 10246 20193 48/// 70522 85230
                   333 59020 81915 85815 86360 Q1019.0=
200912210900 AAXX 21094 67561 41580 60000 10260 20186 48539 70522 83130
                   333 58005 83825 85360=
200912210600 AAXX 21064 67561 31980 70000 10210 20179 48537 70522 85038
                   333 10288 20175 58013 85360 87280=
200912141200 AAXX 14124 67561 42680 60805 10276 20188 48497 86201
                   333 58006 86840 81080=
200912140900 AAXX 14094 67561 42580 70907 10255 20178 48525 82238
                   333 58005 82825 83361 87280=
200912140600 AAXX 14064 67561 12380 71306 10211 20179 48529 60874 81638
                   333 10282 20165 58004 81708 84360 87280=
200912130900 AAXX 13094 67561 42580 70000 10264 20184 48520 86238
                   333 59005 86825 84361 87280 91019=
200912110600 AAXX 11064 67561 32980 70000 10224 20178 48510 85038
                   333 10306 20176 59006 85360 87280
                   555 00/// 20016 91018=
200912090900 AAXX 09094 67561 41560 61008 10290 20178 48510 70522 84231
                   333 59006 84830 82361 82080=
200912090600 AAXX 09064 67561 31960 60805 10235 20187 48517 70522 83032
                   333 10308 20185 59001 83361 85280=
200912081200 AAXX 08124 67561 42780 50403 10297 20149 48492 85201
                   333 59003 85850 81080=
200912080600 AAXX 08064 67561 32980 20808 10244 20179 48519 80001
                   333 10305 20176 59012 82080=
200912021200 AAXX 02124 67561 41580 71404 10274 20/// 48490 71722 86208
                   333 58017 81935 86835 87280=
200912020600 AAXX 02064 67561 12480 70706 10216 20184 48519 60014 84538
                   333 10305 20179 58008 84610 86360 87280=
200912011200 AAXX 01124 67561 41580 70000 10291 20168 48475 70322 85238
                   333 59017 81930 85830 84360 86280
                   555 66/// 77040 8875/ 98002 91013=

################################################################################
#  SYNOPS from 67580, Msekera (Zambia) | 13-39S | 032-34E | 1025 m
################################################################################
200912300900 AAXX 30094 67580 42680 73002 10250 20205 48/// 85230
                   333 58019 85835 84362=
200912290900 AAXX 29094 67580 41675 70303 10274 20206 48/// 71722 86233
                   333 59014 81935 85840 82360 82080=
200912281200 AAXX 28124 67580 41670 70903 10233 20209 48/// 79582 8427/
                   333 5//// 81930 83835 87460=
200912221200 AAXX 22124 67580 41675 70000 10264 20190 48/// 71722 85238
                   333 59027 81945 84850 84360 85280=
200912101200 AAXX 10124 67580 41780 70000 10314 20184 48/// 83202
                   333 59004 59004 83842 83080 Q1018.3=
200912010600 AAXX 01064 67580 32982 70603 10266 20189 48/// 85038
                   333 10303 20203 59010 85360 87280=

################################################################################
#  SYNOPS from 67581, Chipata (Zambia) | 13-33S | 032-35E | 1028 m
################################################################################
200912310600 AAXX 31064 67581 11980 70802 10215 20199 48530 60024 72166 8707/
                   333 10280 20202 59001 87460 Q1018.8=
200912300600 AAXX 30064 67581 11480 80903 10209 20197 48519 61194 72162 8377/
                   333 10289 20181 58016 83710 88462=
200912280900 AAXX 28094 67581 42580 73003 10253 20194 48521 81478
                   333 59001 81625 83835 85460 82280=
200912280600 AAXX 28064 67581 12584 71604 10225 20189 48525 69964 8117/
                   333 10287 20183 59017 81825 87460=
200912260600 AAXX 26064 67581 12684 70000 10221 20195 48538 60464 85530
                   333 10262 20165 85630 83360=
200912140600 AAXX 14064 67581 12684 51706 10260 20203 48540 60654 81138
                   333 10310 20205 58001 81836 81360 85280=
200912110600 AAXX 11064 67581 32684 20702 10232 20208 48512 81102
                   333 10232 20190 59002 81840 82080 Q1016.1=
200912090600 AAXX 09064 67581 32980 31205 10259 20196 48531 82032
                   333 10322 20212 59001 82360 82080=
200912080600 AAXX 08064 67581 32684 11705 10265 20198 48582 81100
                   333 10330 20214 59007 81840=
200912021200 AAXX 02124 67581 41680 60802 10300 20189 48498 71798 81908
                   333 58009 81940 83840 82280=

################################################################################
#  SYNOPS from 67583, Lundazi (Zambia) | 12-17S | 033-12E | 1143 m
################################################################################
200912140600 AAXX 14064 67583 12980 71702 10242 20193 48/// 60014 81037
                   333 10300 20175 5//// 81360 87280=

################################################################################
#  SYNOPS from 67599, Mfuwe (Zambia) | 13-16S | 031-56E | 568 m
################################################################################
200912310600 AAXX 31064 67599 12480 12480 41806 10260 20232 48547 69904 82230
                   333 10330 20224 58003 82812 84360 Q1018.2=
200912300900 AAXX 30094 67599 42680 63504 10279 20232 48548 83132
                   333 58024 819// 83840 85360 82080=
200912300600 AAXX 30064 67599 12475 70000 10234 20222 48534 60184 8557/
                   333 10330 20209 58016 85610 87460=
200912281500 AAXX 28154 67599 41580 70000 10295 20233 48503 71799 81938
                   333 59003 81825 82828 84360 87280=
200912281200 AAXX 28124 67599 42580 50905 10310 20226 48515 81902
                   333 58000 81922 84825 85080=
200912280600 AAXX 28064 67599 32980 70000 10230 20216 48533 8257/
                   333 10330 20210 58002 82608 87459=
200912230900 AAXX 23094 67599 42480 71005 10270 20220 48541 70222 878//
                   333 59013 83618 85820 Q1017.1=
200912221200 AAXX 22124 67599 41680 50000 10320 20230 48531 71722 81900
                   333 59021 81930 , 85832=
200912190600 AAXX 19064 67599 42980 80000 10255 20227 48548 8807/
                   333 10362 20210 58024 88459=
200912161200 AAXX 16124 67599 42680 30000 10320 20214 48535 82202
                   333 59013 83837 82080 Q1014.7=
200912140600 AAXX 14064 67599 12470 60000 10260 20232 48551 60184 81237
                   333 10345 20213 58008 81815 84360 86280=
200912131200 AAXX 13124 67599 70625 41557 70625 10320 20237 48514 79592 839//
                   333 59008 83928 87830=
200912110600 AAXX 11064 67599 32980 50405 10262 20231 48522 70122 80001
                   333 10335 20208 59014 85080
                   555 00/// 20014 Q1015.2=
200912101200 AAXX 10124 67599 41580 60505 10270 20228 48495 789592 8297/
                   333 58007 82922 83825 85460 Q1011.8=
200912100600 AAXX 10064 67599 12980 31505 10270 20235 48537 60144 70122 83030
                   333 10359 20220 59003 83300 Q1016.7=
200912081500 AAXX 08154 67599 41580 71506 10230 20216 48499 79596 8397/
                   333 58020 83920 82835 87460=
200912081200 AAXX 08124 67599 42680 61906 10350 20226 48531 819//
                   333 58000 81930 86835=
200912050600 AAXX 05064 67599 32960 70000 10260 20224 48547 70222 8707/
                   333 10356 20214 59006 87362
                   555 20990 Q1018.2=
200912010900 AAXX 01094 67599 42660 30000 10318 20226 48533 70122 81101
                   333 59018 81850 83080=
200912010600 AAXX 01064 67599 32960 50000 10264 20224 48526 85030
                   333 10350 20222 59018 85360=

################################################################################
#  SYNOPS from 67633, Mongu (Zambia) | 15-15S | 023-09E | 1052 m
################################################################################
200912300900 AAXX 30094 67633 41682 72702 10245 20193 48510 76066 8327/
                   333 58004 83830 87461=
200912280900 AAXX 28094 67633 42682 73003 10275 20211 48514 84208
                   333 59003 84630 87280=
200912280600 AAXX 28064 67633 32982 73604 10240 20179 48510 82038
                   333 10323 20195 59003 82361 87280=
200912220600 AAXX 2206/ 67633 12482 70000 10195 20190 48535 60444 70322 8557/
                   333 10317 20180 58001 85615 87461
                   555 00190 20006 Q1010.7=
200912141200 AAXX 14124 67633 42682 52704 10270 20197 48496 84230
                   333 59002 81940 84845 85361=
200912140600 AAXX 14064 67633 32582 60906 10235 20201 48525 83530
                   333 10303 20202 58006 83620 86361=
200912090600 AAXX 09064 67633 12982 70906 10204 20188 48515 60324 8703/
                   333 10320 20182 58010 87360=
200912080600 AAXX 08064 67633 12982 50000 10245 20202 48513 60124 85030
                   333 10314 20210 59016 85361=
200912041200 AAXX 04124 67633 42682 53304 10285 20196 48511 84202
                   333 59017 81950 83850 83080=
200912010600 AAXX 01064 67633 12982 70602 10240 20203 48499 60014 8707/
                   333 10308 20205 59016 87461=

################################################################################
#  SYNOPS from 67641, Kaoma (Zambia) | 14-48S | 024-48E | 1213 m
################################################################################
200912280600 AAXX 28064 67641 12682 71601 10214 20199 48502 60014 87500
                   333 10319 20189 58000 87630=
200912140600 AAXX 14064 67641 32682 60701 10215 20199 48509 69904 82532
                   333 10280 20195 58004 82630 85360 82080=
200912080600 AAXX 08064 67641 12982 20701 10242 20196 48507 69904 81032
                   333 10308 20184 58010 81360 82080=

################################################################################
#  SYNOPS from 67655, Mumbwa (Zambia) | 15-04S | 027-11E | 1216 m
################################################################################
200912220600 AAXX 2206/ 67655 32480 73508 10225 20190 48545 877//
                   333 10301 20182 59004 85615 83815 Q1021.1=

################################################################################
#  SYNOPS from 67663, Kabwe (Zambia) | 14-27S | 028-28E | 1206 m
################################################################################
200912300600 AAXX 30064 67663 11380 70602 10202 20193 48508 60094 71522 8377/
                   333 10279 20185 58008 83709 87460=
200912280600 AAXX 28064 67663 32680 70202 10212 20194 48514 82482
                   333 10312 20184 59006 81930 82630 86460 83080=
200912140600 AAXX 14064 67663 11975 81802 10177 20170 48525 60454 76166 8807/
                   333 10288 20168 58006 88460=
200912080600 AAXX 08064 67663 32980 20504 10235 20192 48527 81532
                   333 10298 20186 59023 81620 81360 81080=

################################################################################
#  SYNOPS from 67665, Lusaka Internationalairport (Zambia) | 15-19S | 028-27E | 1152 m
################################################################################
200912310600 AAXX 31064 67665 12380 70303 10212 20212 48538 60094 70322 8373/
                   333 10265 20185 58011 83708 86360
                   555 10193 Q1021.0=
200912310400 AAXX 31044 67665 42380 71003 10201 20201 48527 70322 8373/
                   333 58018 83705 87360=
200912310300 AAXX 31034 67665 42/80 70901 10208 20208 48528 70322 8703/
                   333 59002 819// 87360=
200912302100 AAXX 30214 67665 42780 71202 10210 20210 48532 70222 81932
                   333 58020 81950 84360 85080=
200912301800 AAXX 30184 67665 42780 60604 10215 20215 48513 81932
                   333 10265 58006 81950 83360 85080=
200912301500 AAXX 30154 67665 41557 70907 10228 20228 48500 76222
                   333 58012 81925 84620 85359 82080=
200912301200 AAXX 30124 67665 42680 60606 10258 20229 48504 85232
                   333 58004 85830 83360 82080=
200912300900 AAXX 30094 67665 41457 83304 10228 20228 48529 78022 8623/
                   333 58010 86810 85360=
200912300600 AAXX 30064 67665 12380 70905 10203 20103 48527 60074 8463/
                   333 10280 20179 58009 84609 87360=
200912300400 AAXX 30044 67665 41360 80502 10216 20216 48511 75022 8373/
                   333 59003 83708 819// 87360=
200912300300 AAXX 30034 67665 41/80 70302 10217 20217 48508 71322 81930
                   333 59002 819// 87360=
200912292100 AAXX 29214 67665 42680 70401 10206 20206 48512 81942
                   333 59001 81940 86459 82080=
200912291800 AAXX 29184 67665 41670 70602 10203 20203 48505 76162 81932
                   333 10280 58002 81930 96459 83080=
200912291500 AAXX 29154 67665 42370 70805 10213 20213 48486 81932
                   333 58004 81615 81930 85460 84080=
200912291200 AAXX 29124 67665 41658 60611 10260 20239 48500 78022 86230
                   333 59003 81930 86835 82360=
200912290900 AAXX 29094 67665 42580 60612 10264 20221 48523 70222 82132
                   333 59001 82820 83360N 85080 Q1018.6=
200912290600 AAXX 29064 67665 12380 50203 10220 20198 48520 60034 70322 81132
                   333 10285 20186 59017 81812 82360 85080
                   555 00184 Q1018.8=
200912281800 AAXX 28184 67665 42780 61302 10223 20223 48506 81932
                   333 10285 59003 81950 83360 85080=
200912281500 AAXX 28154 67665 42680 60612 10261 20233 48488 81932
                   333 59012 81945 81845 83360 85080=
200912281200 AAXX 28124 67665 41580 60504 10260 20217 48503 79599 85231
                   333 58004 81925 85825 81360 81080=
200912280900 AAXX 28094 67665 42480 63204 10239 20232 48522 85831
                   333 59008 85610 84360 84080=
200912280600 AAXX 28064 67665 11356 70606 10207 20209 48534 60074 79522 81931
                   333 10315 20195 59006 85705 81910 83359 83080=
200912280400 AAXX 28044 67665 42980 71403 10197 20197 48517 86031 58001 86360 83080 Q1018.7=
200912271200 AAXX 27124 67665 42680 40303 10296 20203 48503 84200
                   333 59013 84848=
200912270900 AAXX 27094 67665 42680 53306 10273 20232 48533 85200
                   333 58000 85830=
200912270600 AAXX 27064 67665 32980 42805 10227 20211 48524 81032
                   333 10299 20183 59014 81360 83080=
200912270300 AAXX 27034 67665 42980 32803 10197 20197 48510 81031
                   333 59013 81360 82080=
200912262100 AAXX 26214 67665 42980 12101 10208 20208 48516 81030
                   333 59004 81360=
200912261800 AAXX 26184 67665 42980 33604 10232 20218 48504 70222 81931
                   333 59011 819// 82360 82080 Q1016.8=
200912261500 AAXX 26154 67665 42780 43409 10266 20228 48496 70222 84230
                   333 59007 84845 Q1015.2=
200912261200 AAXX 26124 67665 42680 63309 10268 20218 48514 70222 86200
                   333 58010 86835 Q1017.3=
200912260600 AAXX 26064 67665 11380 63304 10211 20188 48536 60014 866//
                   333 10292 20168 58013 86708=
200912251800 AAXX 25184 67665 42880 41012 10227 20220 48513 81931
                   333 10289 58010 81958 83360 84080=
200912251500 AAXX 25154 67665 42780 40405 10264 20236 48500 81931
                   333 58012 81950 83856 83360 83080=
200912251200 AAXX 25124 67665 41680 50107 10283 20203 48505 7522 84231
                   333 58009 84840 82360 82080=
200912250400 AAXX 25044 67665 41860 71002 10192 20192 48519 74100 83038
                   333 58006 83360 86280=
200912250300 AAXX 25034 67665 42360 61002 10186 20186 48506 70222 84631
                   333 58007 84605 82360 81080=
200912250000 AAXX 25004 67665 42360 63301 10193 20193 48508 70322 8453/
                   333 58010 84605 819// 81360=
200912242100 AAXX 24214 67665 41380 63606 10218 20218 48520 79592 8197/
                   333 58010 83605 81930 83360=
200912241800 AAXX 24184 67665 41980 10602 10232 20224 48505 71322 81931
                   333 10299 58003 819// 81360 81080=
200912240400 AAXX 24044 67665 41960 20601 10190 20//0 48505 74100 82030
                   333 59012 82360=
200912232100 AAXX 23214 67665 42780 20901 10202 20//0 48509 81930
                   333 58018 81950 82360=
200912231800 AAXX 23184 67665 42780 63302 10221 20//0 48501 81932
                   333 10302 59025 819// 81360 85080=
200912231500 AAXX 23154 67665 42780 60510 10259 20175 48482 81932
                   333 59026 81950 83360 84080=
200912231200 AAXX 23124 67665 42680 53003 10274 20177 48502 85200
                   333 59018 85838=
200912230900 AAXX 23094 67665 42480 41004 10244 20194 48529 70100 84100
                   333 59017 84815 Q1019.4=
200912230600 AAXX 23064 67665 12360 63404 10195 20188 48529 60024 70328 85530
                   333 10269 20156 59021 85603 83360
                   555 00165 Q1020.1=
200912221800 AAXX 22184 67665 41780 53206 10196 20//0 48523 71322 81932
                   333 10267 59006 81608 81950 83360=
200912221500 AAXX 22154 67665 41680 60608 10235 20194 48511 72996 81932
                   333 59005 81945 83360 83080=
200912221200 AAXX 22124 67665 41680 52908 10255 20196 48517 71796 82230
                   333 59009 81930 81830 84360=
200912220900 AAXX 22094 67665 41580 63603 10248 20194 48545 78122 85230
                   333 59009 85820 83360 Q1021.4=
200912220600 AAXX 22064 67665 12380 60803 10214 20195 48551 60044 70322 81630
                   333 10296 20189 59004 81706 85360
                   555 00189 Q1022/5=
200912211200 AAXX 21124 67665 42680 41305 10283 20182 48530 83203
                   333 59001 81935 84840 82080=
200912210900 AAXX 21094 67665 42680 40405 10260 20185 48557 84232
                   333 58005 84830 81360 81080=
200912210600 AAXX 21064 67665 12480 30103 10215 20194 48555 60054 81530
                   333 10309 20180 58008 81612 83360=
200912210400 AAXX 21044 67665 42980 31003 10188 20188 48543 83031
                   333 58012 83360 82080=
200912210300 AAXX 21034 67665 42980 31103 10192 20192 48538 83031
                   333 58017 83360 83080=
200912210000 AAXX 21004 67665 42980 10401 10195 20/// 48535 80001
                   333 58014 81080=
200912202100 AAXX 20214 67665 4290 10704 10208 20//0 48549 81931
                   333 59013 819// 81360 81080=
200912201500 AAXX 20154 67665 41780 50212 10247 20195 48526 71525 81931
                   333 58018 81946 82850 83360 Q1018.2=
200912201200 AAXX 20124 67665 42680 40607 10292 20179 48532 83132
                   333 59003 83845 81360 84080 Q1019.1=
200912200600 AAXX 20064 67665 32980 51102 10223 20191 48549 82032
                   333 10308 20176 58006 81361 85080=
200912191200 AAXX 19124 67665 42680 63203 10269 20174 48531 81138
                   333 59029 81830 84360 87280=
200912190600 AAXX 19064 67665 11380 50106 10199 20171 48540 69954 82531
                   333 10310 20170 59018 82610 84360 83080=
200912190400 AAXX 19044 67665 41458 70415 10184 20184 48537 79562 8197/
                   333 84706 81915 87459=
200912190300 AAXX 19034 67665 41380 60605 10193 20//0 48519 71322 81932
                   333 58000 83705 81915 82360 82080=
200912190000 AAXX 19004 67665 42/80 43101 10204 20//0 48499 81932
                   333 59009 819// 82360 82080=
200912182100 AAXX 18214 67665 41780 61505 10218 20//0 48521 81938
                   333 59001 81950 81360 86280=
200912181200 AAXX 18124 67665 42680 63404 10249 20229 48500 81108
                   333 59012 81842 86280=
200912180900 AAXX 18094 67665 42680 630005 10249 20235 48522 81132
                   333 59009 81835 81360 86080=
200912180400 AAXX 18044 67665 42980 22202 10189 20189 48522 82031
                   333 58001 82360 85080 Q1019.4=
200912171800 AAXX 17184 67665 41780 30802 10245 20232 48512 71300 81932
                   333 59008 81956 82360 82080=
200912171200 AAXX 17124 67665 42680 53304 10290 20220 48518 85230
                   333 59009 85840 83360=
200912170900 AAXX 17094 67665 42580 43305 10266 20232 48533 70322 83131
                   333 333 59011 83825 81360 81080 Q1019.6=
200912170600 AAXX 17064 67665 32580 43005 10225 20198 48534 70300 81131
                   333 10285 20180 81815 81360 82080
                   555 00199 Q1020=
200912161200 AAXX 16124 67665 42680 73103 10259 20231 48523 86231
                   333 59015 81920 86830 83360 81080 Q1018.6=
200912160900 AAXX 16094 67665 42680 63304 10240 20218 48540 70222 85202
                   333 59006 85820 84080
                   555 Q1020.8=
200912160600 AAXX 16064 67665 12380 53503 10214 20214 48540 69904 81132
                   333 10227 20165 59012 81809 83360 85080
                   555 00147 Q1021.3=
200912160400 AAXX 16044 67665 42980 31101 10177 20177 48526 83031
                   333 59015 83360 83080=
200912160300 AAXX 16034 67665 42980 30801 10178 20178 48524 83031
                   333 59010 83360 81080=
200912152100 AAXX 15214 67665 42980 10604 10182 20182 48533 81030
                   333 59006 81360=
200912151800 AAXX 15184 67665 42975 60704 10186 20184 48528 81031
                   333 10227 59004 81359 86078=
200912150900 AAXX 15094 67665 41459 80606 10189 20189 48549 76052 8653/
                   333 58026 86612 88359 Q1022.6=
200912150600 AAXX 15064 67665 12480 70609 10198 20198 48548 60294 7022 8653/
                   333 10281 20168 58008 86612 87359
                   555 00180 Q1022.2=
200912141200 AAXX 14124 67665 41580 61405 10269 20236 48510 71622 85303
                   333 58008 81925 84829 83080=
200912140900 AAXX 14094 67665 42480 60707 10247 20233 48532 84131
                   333 58001 84815 84360 84080=
200912140600 AAXX 14064 67665 12380 73305 10207 20207 48541 60354 81632
                   333 10284 20176 59007 81609 85360 83080=
200912140400 AAXX 14044 67665 42380 73103 10194 20194 48535 70222 8167/
                   333 81708 87462=
200912140300 AAXX 14034 67665 42380 83203 10203 20203 48531 70322 8257/
                   333 82607 87359=
200912131800 AAXX 13184 67665 41980 71203 10210 20210 48525 78092 84032
                   333 10284 58006 86280=
200912131500 AAXX 13154 67665 41358 70903 10193 20193 48509 79599 81932
                   333 58016 81710 81930 83840 86360 83080=
200912131200 AAXX 13124 67665 41680 60206 10272 20229 48504 71322 81931
                   333 5//// 81930 86835 82080=
200912130900 AAXX 13094 67665 42580 60306 10252 20230 48531 85230
                   333 59002 85828 83360=
200912130600 AAXX 13064 67665 12480 63504 10208 20208 48535 69904 85530
                   333 10284 20180 59002 85610 84360=
200912130400 AAXX 13044 67665 42380 71003 10207 20207 48523 82632
                   333 58008 82709 83360 84080=
200912130300 AAXX 13034 67665 42370 71003 10208 20208 48514 82632
                   333 59009 82709 83360 84080=
200912130000 AAXX 13004 67665 41370 71003 10222 20222 48518 8367/ 72166
                   333 58007 83707 87459=
200912122100 AAXX 12214 67665 41770 71004 10200 20200 48531 81932 78022
                   333 58022 82706 84459 83080=
200912121800 AAXX 12184 67665 42980 11103 10208 20208 48519 81031
                   333 10284 58014 81360 81080=
200912121500 AAXX 12154 67665 42680 62103 10251 20206 48500 84231
                   333 58016 84840 83360 84080=
200912121200 AAXX 12124 67665 11960 80204 10105 48537 76266 8804/
                   333 10324 20196 58020 83610 88459
                   555 00180 Q1020.8=
200912120900 AAXX 12094 67665 42560 73406 10214 20214 48528 70222 84131
                   333 58011 84820 87360 81080 Q1019.8=
200912120000 AAXX 12004 67665 41665 72607 10182 20182 48507 79592 82933
                   333 58005 91956 83360 84079=
200912111800 AAXX 11184 67665 41680 70402 10221 20206 48507 70222 82932 58007 829// 84360
                   83080 Q1017.2=
200912111500 AAXX 11154 67665 42680 70407 10258 20233 48486 70222 84232
                   333 58007 83248 83360 86080 Q1014.3=
200912111200 AAXX 11124 67665 42580 71204 10276 20234 48494 70222 83232
                   333 59001 84835 82360 86080 Q1015.1=
200912110900 AAXX 11094 67665 42580 71305 10255 20228M 48521 70322 83232
                   333 59001 83820 82360 86080 Q1018.6=
200912110600 AAXX 11064 67665 32980 71405 10235 20194 48520 70222 83038
                   333 10304 20184 59009 83360 86080
                   555 00197 Q1018.6=
200912110400 AAXX 11044 67665 42980 61403 10190 20190 48508 84082
                   333 59007 84360 86080=
200912110300 AAXX 11034 67665 42980 62402 10196 20196 48501 82032
                   333 59005 82360 86080=
200912110000 AAXX 11004 67665 42980 12106 10203 20203 48504 80001
                   333 59002 81080=
200912101800 AAXX 10184 67665 41780 61003 10248 20212 48502 71792 81932
                   333 10304 59003 81950 83360 85080 Q1016.4=
200912101500 AAXX 10154 67665 42780 60404 10287 20208 48481 70322 81902
                   333 59009 81945 83850 85080
                   555 10304 Q1013.5=
200912101200 AAXX 10124 67665 42680 63610 10284 20228 48502 70222 83202
                   333 58034 83840 85080 Q1015.9=
200912100900 AAXX 10094 67665 42580 60306 10261 20234 48522 83402
                   333 58006 83625 85080 Q1018.5=
200912100600 AAXX 10064 67665 32480 10607 10236 20229 48530 70322 81102
                   333 10320 20179 59005 81810 84080
                   555 00196 Q1019.6=
200912091800 AAXX 09184 67665 42880 31503 10238 20238 48499 83031
                   333 59011 83360 82080 Q1016.1=
200912091500 AAXX 09154 67665 42880 50707 10293 20215 48491 70222 85201
                   333 59009 84845 82080 Q1014.5=
200912091200 AAXX 09124 67665 42680 50506 10292 48509 70222 85201=
200912090900 AAXX 09094 67665 42580 60609 10277 20242 48529 84202
                   333 59015 85080=
200912090600 AAXX 09064 67665 32380 50508 10239 20232 48533 81132
                   333 10300 20185 58000 81810 82360 84080=
200912090000 AAXX 09004 67665 42980 11203 10205 20205 48507 70200 81030
                   333 59005 8136-=
200912082100 AAXX 08214 67665 42980 10903 10223 20223 48521 81030
                   333 59004 81360=
200912081800 AAXX 08184 67665 42980 11204 10236 20229 48510 81030
                   333 10300 58015 81360=
200912081500 AAXX 08154 67665 42780 30507 10281 20225 48499 83230
                   333 59001 83856 83360=
200912081200 AAXX 08124 67665 42680 60407 10280 20232 48516 86200
                   333 59005 86840=
200912080900 AAXX 08094 67665 42580 50310 10272 20237 48528 85200
                   333 59013 85825=
200912080600 AAXX 08064 67665 32480 40510 10231 20231 48532 84602
                   333 10302 20176 59021 84612 83080=
200912080400 AAXX 08044 67665 42980 30904 10190 20190 48519 82032
                   333 59019 82360 83080=
200912080300 AAXX 08034 67665 42980 20903 10190 20190 48516 82032
                   333 59012 82360 81080=
200912072100 AAXX 07214 67665 42980 21303 10209 20209 48524 81032
                   333 59009 81360 82080=
200912071500 AAXX 07154 67665 42780 40106 10284 20228 48500 83232
                   333 59007 93850 81360 83080=
200912071200 AAXX 07124 67665 42680 50310 10279 20230 48521 85230
                   333 58007 85840 83360=
200912070600 AAXX 07064 67665 32380 70301 10211 20211 48551 8784/
                   333 10289 20170 58015 81709 87615 84460=
200912070400 AAXX 07044 67665 42980 31002 10186 20186 48538 83033
                   333 58012 83360 83080 Q1021.3=
200912062100 AAXX 06214 67665 42980 31403 10213 20213 48533 83033
                   333 59009 83360 83080 Q1020.5=
200912060900 AAXX 06094 67665 42380 70506 10250 20229 48535 70122 81132
                   333 59003 81809 85360 84080 Q1020.0=
200912060600 AAXX 06064 67665 42380 70204 10208 20208 48531 70322 82738
                   333 10307 20184 58000 82707 84360 85080
                   555 00199 Q1020.8=
200912060400 AAXX 06044 67665 42380 70402 10201 20201 48526 8273/
                   333 59003 82706 87360=
200912060300 AAXX 06034 67665 42380 50704 10206 20206 48523 82630
                   333 58008 82706 84360=
200912052100 AAXX 05214 67665 42780 52604 10209 20209 48541 81932
                   333 58016 81950 85360 81080=
200912051500 AAXX 05154 67665 42780 71207 10226 20212 48498 82222
                   333 58000 819// 82848 84360 85080
                   555 10307 Q10161=
200912051200 AAXX 05124 67665 42680 63406 10297 20234 48507 70222 84202
                   333 59022 84835 83080 Q1016.2=
200912050900 AAXX 05094 67665 42580 69497 10278 20236 48540 70222 83132
                   333 59008 83825 81360 84080 Q1020.3=
200912050600 AAXX 05064 67665 42980 60504 10246 20239 48542 81032
                   333 10281 20185 59011 81360 86080 00184 Q1020.5=
200912050300 AAXX 05034 67665 42980 41602 10193 20193 48516 82031
                   333 59008 82360 83080=
200912050000 AAXX 05004 67665 4290 11503 10204 20204 48509 81020
                   333 59014 81360=
200912042100 AAXX 04214 67665 42980 11603 10215 20215 48526 81020
                   333 59006 81360=
200912041800 AAXX 04184 67665 41780 51402 10234 20227 48521 48521 71322 81932
                   333 10281 59001 81950 81360 85080=
200912041500 AAXX 04154 67665 41680 50207 10259 20223 48501 72992 81932
                   333 58006 81945 81360 84080=
200912041200 AAXX 04124 67665 41680 51303 10233 20219 48521 72996 81932
                   333 58005 81930 81830 81360 84080=
200912031500 AAXX 03154 67665 42680 33402 10275 20217 48509 81931
                   333 58008 81940 82845 81360 82080=
200912031200 AAXX 03124 67665 42580 30802 10266 20231 48521 81131
                   333 59001 81830 81360 82080=
200912030900 AAXX 03094 67665 41430 83103 10190 20190 48541 79796 8323/
                   333 58014 81915 83815 87359=
200912030600 AAXX 03064 67665 12980 71004 10214 20214 48538 69924 8703/
                   333 10251 20190 58020 87360=
200912021800 AAXX 02184 67665 42980 50302 10215 20215 48511 84031
                   333 10251 58003 84360 82080=
200912021500 AAXX 02154 67665 42680 40305 10242 20227 48497 82131
                   333 58006 82845 81360 83080=
200912021200 AAXX 02124 67665 42680 70606 10240 20195 48518 8413/
                   333 58036 84835 86360=
200912020900 AAXX 02094 67665 41570 70606 10222 20222 48531 72562 8423/
                   333 58019 84825 86460=
200912020600 AAXX 02064 67665 12980 72403 10209 20209 48518 86032
                   333 10311 20184 58002 86360 83080=
200912020400 AAXX 02044 67665 42980 82505 10190 20190 48513 85032
                   333 85360 83080=
200912020000 AAXX 02004 67665 41680 72503 10197 20197 48507 81932
                   333 81945 85360 83080=
200912012100 AAXX 01214 67665 41680 72403 10204 20204 48507 72166 81932
                   333 81945 87462 83080=
200912011800 AAXX 01184 67665 41658 71604 10203 20203 48507 76166 81933
                   333 10311 81942 87461 81080
                   555 Q1017.5=
200912011200 AAXX 01124 67665 42680 62705 10299 20223 48488 70522 83202
                   333 59010 83835 84280=
200912010900 AAXX 01094 67665 42480 63406 10273 20232 48519 82132
                   333 59009 82818 84360 84280=
200912010600 AAXX 01064 67665 12980 43504 10222 20222 48517 60024 84031
                   333 10/// 20175 59003 84360 82080=

################################################################################
#  SYNOPS from 67666, Lusaka City Airport (Zambia) | 15-25S | 028-19E | 1280 m
################################################################################
200912310600 AAXX 31064 67666 12480 80904 10210 20195 48531 60024 8653/
                   333 10230 20183 58011 87618 84360 Q1020.2=
200912300900 AAXX 30094 67666 42580 70910 10232 20184 48522 8587/
                   333 58010 82625 87460=
200912300600 AAXX 30064 67666 12980 80903 10202 20183 48520 69934 8807/
                   333 10275 20177 58008 88459=
200912290900 AAXX 29094 67666 42580 40505 10256 20180 48514 84131
                   333 59008 82826 82360 82080 Q1017.7=
200912281200 AAXX 28124 67666 42580 60403 10269 20197 48494 85231
                   333 58000 81932 84832 81360 82080=
200912230900 AAXX 23094 67666 42580 40903 10246 20193 48522 83130
                   333 59015 83820 81360 Q1018.7=
200912221200 AAXX 22124 67666 41680 72704 10221 20175 48509 71792 819// 59008 81832 87832=
200912161200 AAXX 16124 67666 42680 70904 10260 20178 48515 87201
                   333 58004 81940 87840 8180 Q1017.8=
200912160900 AAXX 16094 67666 42680 50904 10235 20173 48532 85202
                   333 59007 85830 83080 Q1020.0=
200912140600 AAXX 14064 67666 12980 70803 10205 20174 48534 60234 8703/
                   333 10267 20175 58007 87359=
200912110600 AAXX 11064 67666 32980 72906 10220 20174 48515 86072
                   333 10312 20175 59009 86360 82080 Q1018.0=
200912101200 AAXX 10124 67666 42680 40907 10280 2082 48495 83202
                   333 59004 83842 83080 Q1018.3=
200912041200 AAXX 04124 67666 42680 60906 10235 20176 48512 85202
                   333 59001 81938 85838 82080=
200912010600 AAXX 01064 67666 32980 70703 10230 20185 48511 8703/
                   333 10298 20175 59013 87359=

################################################################################
#  SYNOPS from 67673, Petauke (Zambia) | 14-15S | 031-17E | 1035 m
################################################################################
200912281200 AAXX 28124 67673 41684 71805 10270 20187 48499 71792 83238
                   333 59008 82940 82840 83364 87280=
200912221200 AAXX 22124 67673 42680 72003 10235 20196 48525 83231
                   333 58001 83835 85360 87070=
200912161200 AAXX 16124 67673 42684 62003 10292 30170 48525 85204
                   333 59017 85840 82080=

################################################################################
#  SYNOPS from 67743, Livingstone (Zambia) | 17-49S | 025-49E | 985 m
################################################################################
200912300900 AAXX 30094 67743 42980 81008 10215 20182 48527 8807/333 58017 88460=
200912281500 AAXX 28154 67743 42680 72608 10227 20206 48482 71722 82331 5//// 82935 82840
                   84360 81080=
200912281200 AAXX 28124 67743 41680 60804 10231 20196 48505 72962 82942
                   333 58021 82935 84835 86461 82080=
200912280900 AAXX 28094 67743 42680 60402 10277 20203 48524 82130
                   333 58004 81830 86360=
200912280600 AAXX 28064 67743 12580 70302 10231 20206 48517 60154 82380
                   333 10350 20207 5//// 82325=
200912270900 AAXX 27094 67743 42680 30804 10300 20182 48528 83100
                   333 59011 83845=
200912260600 AAXX 26064 67743 32980 33606 10260 20200 48527 70200 83030
                   333 10320 20216 58016 83360=
200912251500 AAXX 25154 67743 42680 50105 10275 20201 48491 83260
                   333 5//// 83840 85360=
200912251200 AAXX 25124 67743 42680 63104 10292 20185 48504 82260
                   333 58014 83835 86360=
200912230900 AAXX 23094 67743 42680 51004 10290 20194 48523 85200
                   333 59024 85840 Q1019.2=
200912221500 AAXX 22154 67743 42680 61003 10292 20177 48503 85202
                   333 59014 85838 82080=
200912221200 AAXX 22124 67743 42680 63303 10302 20183 48522 84230
                   333 59028 84830 82360=
200912220900 AAXX 22094 67743 42680 80104 10269 20190 48547 7032282130
                   333 59010 82830 87360 Q1019.9=
200912210900 AAXX 21094 67743 42680 32703 10295 20193 48558 83100
                   333 59002 83840=
200912210600 AAXX 21064 67743 32980 31004 10249 20191 48556 83030
                   333 10332 20204 58022 83360=
200912141200 AAXX 14124 67743 42680 80000 10228 20207 48513 8226/
                   333 58008 82840 87360=
200912140900 AAXX 14094 67743 41680 71404 10272 20203 48530 71722 85271
                   333 59003 82940 85835 84460=
200912140600 AAXX 14064 67743 32480 51006 10226 20203 48536 83530
                   333 10389 20200 58008 83616 84360=
200912131500 AAXX 13154 67743 42780 61105 10270 20172 48495 84230
                   333 59018 84856 83360=
200912131200 AAXX 13124 67743 42680 70507 10260 20194 48510 85230
                   333 58013 85830 85360=
200912101200 AAXX 10124 67743 42780 60205 10325V 20179 48487 85231
                   333 59/// 85850 83360
                   555 Q1012.8=
200912100600 AAXX 10064 67743 32980 41702 10245 20206 48510 84031
                   333 10300 20205 59020 83360 82080 Q1016.7=
200912090900 AAXX 09094 67743 42580 82504 10258 20209 48533 83202
                   333 58011 83828 85080=
200912090600 AAXX 09064 67743 12980 61006 10230 20193 48530 60024 86030
                   333 10315 20188 59008 86364=
200912081200 AAXX 08124 67743 41680 71106 10260 20209 48493 71766 8527/
                   333 59014 85840 81935 84459=
200912080600 AAXX 08064 67743 12980 60905 10239 20204 48522 69904 83032
                   333 10296 20191 59106 83360 83080=
200912031500 AAXX 03154 67743 42680 73105 10301 20174 48492 84240
                   333 58006 84848 87460=
200912031200 AAXX 03124 67743 42680 73308 10305 20178 48510 84280
                   333 58004 82945 82845 86460=
200912030600 AAXX 03064 67743 32480 61003 10239 20194 48523 8178/
                   333 10310 20208 58015 81710 86360=
200912010600 AAXX 01064 67743 32480 80807 10246 20193 48510 8167/
                   333 10330 20/// 59014 81614 88360=

################################################################################
#  SYNOPS from 67753, Choma (Zambia) | 16-50S | 027-04E | 1213 m
################################################################################
200912280600 AAXX 28064 67753 11380 72806 10200 20184 48/// 60074 72992 82608
                   333 10309 20181 5//// 82709 87280=
200912140600 AAXX 14064 67753 12380 70608 10209 20194 48/// 60034 8367/
                   333 10256 20181 5//// 83708 87459=
200912080600 AAXX 08064 67753 12380 70607 10231 20203 48/// 60034 82508
                   333 10261 20169 5//// 82609 87280=

################################################################################
#  SYNOPS from 67855, Lupaki (Zambia) | 17-03-00S | 024-46-00E | 1000 m
################################################################################
200912310600 AAXX 31064 67855 12380 61502 10232 20207 38/// 48/// 60044 82732
                   333 20210 5//// 81706 85359=
200912270600 AAXX 27064 67855 32980 33301 10234 20194 3//// 48/// 83030
                   333 20190 5//// 83359=
200912230600 AAXX 23064 67855 32980 03601 10254 20199 3//// 48///
                   333 20190 5////=
200912221200 AAXX 22124 67855 NIL=
200912220600 AAXX 22064 67855 NIL=
200912211200 AAXX 21124 67855 NIL=
200912210600 AAXX 21064 67855 32980 30901 10238 20185 38/// 48/// 83080
                   333 20185 5//// 83859=
200912191200 AAXX 19124 67855 NIL=
200912190600 AAXX 19064 67855 NIL=
200912181200 AAXX 18124 67855 NIL=
200912180600 AAXX 18064 67855 32980 30601 10250 20201 3//// 48/// 81032
                   333 20200 5//// 81360=
200912171200 AAXX 17124 67855 NIL=
200912170600 AAXX 17064 67855 32980 43001 10246 20185 38/// 48/// 84032
                   333 20195 5//// 84360=
200912161200 AAXX 16124 67855 42780 50000 10302 20179 38/// 48/// 85202
                   333 5//// 85850=
200912160600 AAXX 16064 67855 32980 13302 10226 20178 3//// 48/// 80002
                   333 20170 5//// 81080=
200912151200 AAXX 15124 67855 NIL=
200912150600 AAXX 15064 67855 12980 20904 10206 20158 38/// 48/// 60034 82030
                   333 20160 5//// 82360=
200912141200 AAXX 14124 67855 42980 70000 10288 20182 38/// 48/// 8707/
                   333 5//// 87460=
200912140600 AAXX 14064 67855 NIL=
200912131200 AAXX 13124 67855 NIL=
200912130600 AAXX 13064 67855 NIL=
200912121200 AAXX 12124 67855 NIL=
200912120600 AAXX 12064 67855 NIL=
200912111200 AAXX 11124 67855 41980 61804 10276 20189 3//// 48/// 70162 82072
                   333 5//// 82460 84080=
200912110600 AAXX 11064 67855 11970 83401 10188 20100 3//// 48/// 60354 72162 8807/
                   333 20186 5//// 88460=
200912101200 AAXX 10124 67855 NIL=
200912100600 AAXX 10064 67855 32980 73301 10250 20214 3//// 48/// 81082
                   333 20195 5//// 81360 86080=
200912080600 AAXX 08064 67855 12980 73602 10264 20191 3//// 48/// 69904 70362 80002
                   333 20204 5//// 87080=
200912071200 AAXX 07124 67855 41980 73002 10276 20162 38/// 48/// 70262 87072
                   333 5//// 87460=
200912070600 AAXX 07064 67855 11970 80000 10202 20196 38/// 48/// 60054 76196 8807/
                   333 20164 5//// 88460=
200912021200 AAXX 02124 67855 41780 61604 10298 20210 3//// 48/// 71892 86263
                   333 5//// 81950 86856=
200912011200 AAXX 01124 67855 41580 70201 10296 20211 3//// 48/// 70262 83963
                   333 5//// 83920 83825=
200912010600 AAXX 01064 67855 NIL=
