################################################################################
# Query made at 04/14/2022 16:37:15 UTC
# Country like Zamb*
# Time interval: from 09/01/2012 05:30  to 10/01/2012 05:30  UTC
################################################################################

################################################################################
#  SYNOPS from 67403, Kawambwa (Zambia) | 09-48S | 029-05E | 1323 m
################################################################################
201209100600 AAXX 10064 67403 31980 20000 10193 20164 48549 70500 80001
                   333 10257 20/// 58001 82080=

################################################################################
#  SYNOPS from 67413, Mbala (Zambia) | 08-51S | 031-20E | 1673 m
################################################################################
201209140600 AAXX 14064 67413 31975 11412 10200 20104 48547 70500 81040
                   333 10295 20/// 58004 81360=

################################################################################
#  SYNOPS from 67441, Mwinilunga (Zambia) | 11-45S | 024-26E | 1361 m
################################################################################
201209100600 AAXX 10064 67441 NIL=

################################################################################
#  SYNOPS from 67461, Mansa (Zambia) | 11-06S | 028-51E | 1382 m
################################################################################
201209210900 AAXX 21094 67461 41975 20909 10288 20125 48522 70500 82031
                   333 58002 82363 81082=
201209200900 AAXX 20094 67461 41775 31119 10287 10287 20116 48532 70500 81101
                   333 58000 81856 82080=
201209200600 AAXX 20064 67461 31975 20902 10215 20135 48507 70500 80001
                   333 10320 20152 59001 82080=
201209100600 AAXX 10064 67461 11960 30802 10195 20172 48527 69904 70500 80001
                   333 10/// 20140 5//// 83080=
201209060600 AAXX 06064 67461 31960 00000 10165 20112 20049 48/// 48536 70187 70500
                   333 10341 20125 5////=

################################################################################
#  SYNOPS from 67475, Kasama (Zambia) | 10-13S | 031-08E | 1382 m
################################################################################
201209280600 AAXX 2806/ 67475 31970 43610 10235 20093 48543 70522 80001
                   333 10312 20138 59007 84080=
201209100600 AAXX 10064 67475 31970 10406 10200 20104 48539 70500 81030
                   333 10311 20184 59001 81360=
201209050600 AAXX 05064 67475 31970 01415 10195 20080 48546 70500
                   333 10300 20140 58003=

################################################################################
#  SYNOPS from 67477, Mpika (Zambia) | 11-54S | 031-26E | 1400 m
################################################################################
201209280600 AAXX 2806/ 67477 31970 60910 10225 20068 48537 70522 80008
                   333 10299 20163 59007 86280=
201209100600 AAXX 10064 67477 31970 00000 10210 20099 48541 70500
                   333 10290 20122 58009=

################################################################################
#  SYNOPS from 67531, Zambezi (Zambia) | 13-32S | 023-07E | 1077 m
################################################################################
201209280600 AAXX 2806/ 67531 31975 73304 10211 20166 48/// 70522 80008
                   333 10339 20185 59002 87281=
201209250600 AAXX 25064 67531 31960 23603 10205 20158 48/// 70500 80001
                   333 10336 20154 59007 82080=
201209240600 AAXX 24064 67531 11970 52504 10219 20170 48/// 69904 70511 85030
                   333 10356 20194 58012 85361=
201209211200 AAXX 21124 67531 41970 43602 10343 20110 48/// 70511 84102
                   333 5//// 84859 81082=
201209210600 AAXX 21064 67531 31965 11004 10251 20117 48/// 70500 81030
                   333 10353 20152 5//// 81362=
201209190600 AAXX 19064 67531 31965 21007 10241 20086 48/// 70500 82030
                   333 10335 20145 59012 82362=
201209180600 AAXX 18064 67531 31965 10906 10190 20071 48/// 70500 80002
                   333 10327 20122 59016 81082=
201209140600 AAXX 14064 67531 31960 01304 10222 20092 48/// 70500
                   333 10345 20139 59007=
201209130600 AAXX 13064 67531 31950 11007 10209 20094 48/// 70500 81030
                   333 10345 20176 5//// 81361=
201209110900 AAXX 11094 67531 41950 00403 10294 20053 48/// 70500
                   333 59009=
201209110600 AAXX 11064 67531 31950 00000 10167 20049 48/// 70500
                   333 10340 20086 59007=
201209100900 AAXX 10094 67531 41950 03103 10276 20096 48/// 70500
                   333 5////=
201209100600 AAXX 10064 67531 31950 00000 10142 20046 48/// 70500
                   333 10338 20072 59001=
201209061200 AAXX 06124 67531 41950 03305 10341 20079 48/// 70500
                   333 59007=
201209051200 AAXX 05124 67531 41959 21709 10281 20081 48422 70500 80001=
201209040900 AAXX 04094 67531 41950 01207 10307 20095 48/// 70500
                   333 59004=
201209040600 AAXX 04064 67531 31950 01105 10185 20088 48/// 70500
                   333 10345 20135 5////=
201209030900 AAXX 03094 67531 41950 00908 10303 20098 48/// 70500
                   333 5////=

################################################################################
#  SYNOPS from 67541, Kasempa (Zambia) | 13-32S | 025-51E | 1234 m
################################################################################
201209250600 AAXX 25064 67541 11970 20000 10214 20158 48487 69904 70522 82030
                   333 10//0 20179 59021 82360=
201209240600 AAXX 24064 67541 31970 00000 10194 20147 48508 70522 83030
                   333 10/// 20135 59010 83360=
201209210600 AAXX 21064 67541 31970 00000 10205 20112 48516 70500
                   333 10//0 20180 59006=
201209180600 AAXX 18064 67541 31970 40000 10201 20112 48576 70522 80004
                   333 10/// 20140 59017 84080=
201209100600 AAXX 10064 67541 31960 00000 10180 20144 48521 70500
                   333 10/// 20113 58003=
201209050600 AAXX 05064 67541 31960 00000 10182 20071 48535 70500
                   333 10/// 20090 58001=

################################################################################
#  SYNOPS from 67551, Solwezi (Zambia) | 12-11S | 026-23E | 1386 m
################################################################################
201209100600 AAXX 10064 67551 31957 03405 10185 20152 48538 70500
                   333 10305 20150 58017=

################################################################################
#  SYNOPS from 67561, Ndola (Zambia) | 13-00S | 028-39E | 1269 m
################################################################################
201209300600 AAXX 30064 67561 31950 01204 10232 20087 48533 70411
                   333 10341 20158 59002=
201209290900 AAXX 29094 67561 41958 70505 10290 20134 48536 70422 80008
                   333 59004 87280=
201209290600 AAXX 29064 67561 31956 60603 10221 20119 48534 70422 80008
                   333 10334 20170 59003 86280=
201209240600 AAXX 24064 67561 31958 20000 10215 20134 48518 70400 80002
                   333 10350 20165 58004 82080=
201209211200 AAXX 21124 67561 41960 60000 10305 20096 48503 70522 85208
                   333 59002 85857 85280=
201209210900 AAXX 21094 67561 41959 50708 10290 20130 48535 70522 80008
                   333 59004 85280=
201209210600 AAXX 21064 67561 31958 50605 10226 20127 48533 70522 80008
                   333 10323 20150 59002 85280=
201209201200 AAXX 20124 67561 41870 61905 10315 20120 48505 70511 85202
                   333 59003 85867 83080 91017=
201209200600 AAXX 20064 67561 31956 20000 10192 20111 48535 70400 81032
                   333 10324 59005 81360 82080=
201209191200 AAXX 19124 67561 41965 31603 10321 20122 48509 70500 83200
                   333 83858 91017=
201209190600 AAXX 19064 67561 31959 50805 10215 20133 48541 70422 80008
                   333 10305 20160 59004 85280=
201209140600 AAXX 14064 67561 31958 00705 10225 20106 48547 70400
                   333 10318 20165 59009=
201209111200 AAXX 11124 67561 41859 31405 10320 20077 48513 70400 83100
                   333 59001 83857=
201209101200 AAXX 10124 67561 41957 20304 10311 20125 48514 70400 82200
                   333 58000 82858 91017=
201209100900 AAXX 10094 67561 41958 00000 10268 20131 48541 70400
                   333 58001=
201209100600 AAXX 10064 67561 31956 21003 10193 20112 48534 70400 82030
                   333 10310 20160 59002 82360=
201209061200 AAXX 06124 67561 41960 00305 10297 20065 48523 70500
                   333 59002=
201209060600 AAXX 06064 67561 31959 00712 10212 20092 48548 70400
                   333 10302 20145 59004=
201209040900 AAXX 04094 67561 41956 00906 10275 20064 48554 70400
                   333 59013=
201209011500 AAXX 01154 67561 41970 01608 10314 20072 48/// 70500
                   333 59002=
201209011200 AAXX 01124 67561 41970 02003 10316 20073 48513 70500
                   333 58002=

################################################################################
#  SYNOPS from 67563, Kafironda (Zambia) | 12-36S | 028-07E | 1243 m
################################################################################
201209280600 AAXX 2806/ 67563 31960 63005 10242 20090 48/// 70522 80001
                   333 10323 20135 59008 86080=
201209250600 AAXX 25064 67563 11960 11801 10200 20170 48/// 60124 70500 81030
                   333 10344 20157 59004 82360=
201209240600 AAXX 24064 67563 31950 00602 10220 20140 48/// 70500
                   333 10350 20124 59005=
201209200600 AAXX 20064 67563 31960 11003 10217 20120 48/// 70500 81030
                   333 10327 20096 59010 81360=
201209191200 AAXX 19124 67563 41650 21604 10320 20120 48/// 70500 82100
                   333 59008 82848=
201209180600 AAXX 18064 67563 31950 11702 10170 20100 48/// 70500 80001
                   333 10300 20073 59013 81080=
201209170600 AAXX 17064 67563 31960 40903 10175 20090 48/// 70500 80001
                   333 10307 20082 59003 84080=
201209140600 AAXX 14064 67563 31950 01801 10168 20110 48/// 70500
                   333 10320 20084 59010=
201209130600 AAXX 13064 67563 31950 00502 10170 20130 48/// 70500
                   333 10315 20096 58002=
201209110900 AAXX 11094 67563 41960 01204 10303 20090 48/// 70500
                   333 58011=
201209110600 AAXX 11064 67563 31960 33002 10189 20110 48/// 70500 83030
                   333 10331 20105 48007 83360=
201209100600 AAXX 10064 67563 31960 21202 10199 20140 48/// 70500 82030
                   333 10324 20140 58000 82360=

################################################################################
#  SYNOPS from 67571, Serenje (Zambia) | 13-14S | 030-13E | 1384 m
################################################################################
201209280600 AAXX 2806/ 67571 31965 70902 10231 20072 48533 70522 80008
                   333 10312 20172 59011 87281=
201209210900 AAXX 21094 67571 41670 70902 10286 20100 48526 70522 81102
                   333 59003 82835 86280=
201209140600 AAXX 14064 67571 31970 20907 10229 20092 48543 70500 82030
                   333 10302 20161 59004 82361=
201209110900 AAXX 11094 67571 41958 00910 10292 20037 48536 70500
                   333 58004=

################################################################################
#  SYNOPS from 67580, Msekera (Zambia) | 13-39S | 032-34E | 1025 m
################################################################################
201209250600 AAXX 25064 67580 31975 21305 10269 20170 48/// 70511 80001
                   333 10367 20//0 58013 82080=
201209240600 AAXX 24064 67580 31975 11201 10264 20137 48/// 70500 80001
                   333 10305 20/// 59006 81080=
201209210900 AAXX 21094 67580 41670 10909 10304 20130 48/// 70500 81100
                   333 59002 81840=
201209210600 AAXX 21064 67580 31970 01208 10250 20120 48/// 70500
                   333 10333 20//0 59006=
201209200900 AAXX 20094 67580 41675 71206 10317 20100 48/// 70522 87100
                   333 59005 87840=
201209200600 AAXX 20064 67580 31975 00909 10274 20117 48/// 70500
                   333 10330 20//0 59006=
201209180600 AAXX 18064 67580 31575 11205 10229 20123 48/// 70500 81100
                   333 10299 20/// 59011 81821=
201209140600 AAXX 14064 67580 31975 41006 10258 20138 48/// 70500 84030
                   333 10326 20/// 59003=
201209130600 AAXX 13064 67580 31975 00906 10259 20139 48/// 70500
                   333 10299 20//0 59011=
201209110600 AAXX 11064 67580 31975 00908 10255 20114 48/// 70500
                   333 10336 20//0 59001=
201209100600 AAXX 10064 67580 31975 00806 10249 20096 48/// 70500
                   333 10328 20/// 58006=

################################################################################
#  SYNOPS from 67581, Chipata (Zambia) | 13-33S | 032-35E | 1028 m
################################################################################
201209100600 AAXX 10064 67581 31958 00612 10241 20111 48559 70500
                   333 10/// 20203 58005=
201209060600 AAXX 06064 67581 31958 00914 10231 20098 48558 70500
                   333 10//0 20199 59002=
201209050600 AAXX 05064 67581 31960 00904 10231 20104 48566 70500
                   333 10/// 20187 59006=

################################################################################
#  SYNOPS from 67583, Lundazi (Zambia) | 12-17S | 033-12E | 1143 m
################################################################################
201209100600 AAXX 10064 67583 32980 00502 10266 20114 48///
                   333 10310 20140 5////=

################################################################################
#  SYNOPS from 67599, Mfuwe (Zambia) | 13-16S | 031-56E | 568 m
################################################################################
201209280600 AAXX 2806/ 67599 31975 01005 10277 20122 48567 70500
                   333 10371 20182 59017=
201209261200 AAXX 26124 67599 41660 51906 10354 20150 48551 70522 85200
                   333 58029 85849=
201209240600 AAXX 24064 67599 31959 00906 10281 20159 48538 70500
                   333 10400 20202 59012=
201209211200 AAXX 21124 67599 41860 31006 10355 20159 48543 70511 83100
                   333 58008 83856=
201209210900 AAXX 21094 67599 41960 00000 10325 20166 48569 70500
                   333 58010=
201209210600 AAXX 21064 67599 31958 01803 10265 20141 48584 70500
                   333 10376 20175 59018=
201209200900 AAXX 20094 67599 41570 10907 10340 20154 48568 70500 82200
                   333 59019 82830=
201209180600 AAXX 18064 67599 31959 00000 10235 20139 49564 70500
                   333 10341 20153 59003=
201209100600 AAXX 10064 67599 31960 01209 10244 20127 48564 70500
                   333 10375 20149 58002=
201209040600 AAXX 04064 67599 31957 00000 10210 20136 48557 70500
                   333 10350 20135 59015=
201209030600 AAXX 03064 67599 31970 00000 10244 20171 48581 70500
                   333 10380 20171 58030=
201209011500 AAXX 01154 67599 41960 00000 10350 20164 48541 70500
                   333 58000=
201209010900 AAXX 01094 67599 41960 03509 10316 20154 48575 70500
                   333 59009 91019=

################################################################################
#  SYNOPS from 67633, Mongu (Zambia) | 15-15S | 023-09E | 1052 m
################################################################################
201209201200 AAXX 20124 67633 41775 10906 10364 20073 48503 70500 81100
                   333 59016 81850 91013=
201209200900 AAXX 20094 67633 41975 00812 10336 20094 48528 70500
                   333 59020=
201209200600 AAXX 20064 67633 31975 00905 10229 20082 48514 70500
                   333 10363 20180 59020=
201209190600 AAXX 19064 67633 31980 00906 10237 20087 48532 70500
                   333 10340 20148 59018=
201209140600 AAXX 14064 67633 31976 00904 10229 20095 48532 70500
                   333 10355 20180 59003=
201209130600 AAXX 13064 67633 31970 10804 10223 20122 48534 70500 80001
                   333 10370 20195 49006 81080=
201209100600 AAXX 10064 67633 31970 11004 10216 20029 48524 70500 80001
                   333 10354 20118 59010 81080=
201209050600 AAXX 05064 67633 31975 00905 10225 20079 48527 70500
                   333 10364 20185 59013=
201209040600 AAXX 04064 67633 31970 00803 10208 20099 48536 70500
                   333 10355 20176 59003=

################################################################################
#  SYNOPS from 67641, Kaoma (Zambia) | 14-48S | 024-48E | 1213 m
################################################################################
201209100600 AAXX 10064 67641 31975 01601 10129 20046 48509 70500
                   333 10340 20086 59002=

################################################################################
#  SYNOPS from 67655, Mumbwa (Zambia) | 15-04S | 027-11E | 1216 m
################################################################################
201209240600 AAXX 24064 67655 31965 50000 10250 20117 48513 70500 80008
                   333 10352 20/// 59001 85280=
201209210600 AAXX 21064 67655 32980 00908 10230 20088 48533 70200
                   333 10321 20//0 59005=

################################################################################
#  SYNOPS from 67663, Kabwe (Zambia) | 14-27S | 028-28E | 1206 m
################################################################################
201209100600 AAXX 10064 67663 NIL=
201209050600 AAXX 05064 67663 31970 00812 10200 20090 48532 70500
                   333 10300 20145 59005=

################################################################################
#  SYNOPS from 67665, Lusaka Internationalairport (Zambia) | 15-19S | 028-27E | 1152 m
################################################################################
201209301200 AAXX 30124 67665 41759 51009 10336 20040 48526 70500 81102
                   333 59001 81850 85080=
201209300900 AAXX 30094 67665 41959 20710 10319 20045 48550 70500 80002
                   333 58003 82080=
201209300600 AAXX 30064 67665 31959 10907 10263 20020 48548 70500 81031
                   333 10350 20/// 58010 81360 81080=
201209291800 AAXX 29184 67665 41960 11303 10262 20063 48525 70500 80001
                   333 58001 82080=
201209291200 AAXX 29124 67665 41959 11804 10337 20036 48527 70500 81031
                   333 58003 81360 81080=
201209290900 AAXX 29094 67665 41959 13303 10307 20041 48545 70500 80001
                   333 59006 81080=
201209290600 AAXX 29064 67665 31959 00000 10256 20040 48538 70500 81031
                   333 10340 20//0 59011 81360 81080=
201209281200 AAXX 28124 67665 41960 10305 10328 20034 48523 70500 80001
                   333 59012 81080=
201209280600 AAXX 28064 67665 31960 21003 10241 20094 48546 70521 80001
                   333 10325 20216 59013 82080=
201209280300 AAXX 28034 67665 41960 11602 10182 20056 48519 70500 80001
                   333 59015 81080=
201209280000 AAXX 28004 67665 41958 01701 10188 20099 48525 70500
                   333 59015=
201209272100 AAXX 27214 67665 41960 01501 10200 20081 48533 70500
                   333 59006=
201209271800 AAXX 27184 67665 41960 11203 10247 20083 48528 70500 80001
                   333 10325 59009 81080=
201209271200 AAXX 27124 67665 41759 10607 10305 20065 48532 70500 81030
                   333 59004 81360=
201209270600 AAXX 27064 67665 31959 10904 10211 20156 48555 70500 80001
                   333 10310 20194 59003 81080=
201209261800 AAXX 26184 67665 41959 01202 10223 20134 48533 70500
                   333 10310 58018=
201209261200 AAXX 26124 67665 41758 50905 10301 20141 48535 70500 81102
                   333 58022 82850 85080=
201209260900 AAXX 26094 67665 41959 20605 10266 20129 48559 70500 81031
                   333 58027 81360 81080=
201209260600 AAXX 26064 67665 31959 10907 10211 20156 48558 70500 81030
                   333 10330 20//0 58026 81362=
201209260300 AAXX 26034 67665 41960 01104 10188 20145 48534 70500
                   333 58034=
201209251200 AAXX 25124 67665 41758 10610 10316 20099 48514 70500 81100
                   333 58013 81856 555 91016=
201209250900 AAXX 25094 67665 41958 00705 10298 20116 48536 70500
                   333 58011 91019=
201209250600 AAXX 25064 67665 31958 10902 10240 20092 48536 70500 80001
                   333 10//0 20220 58010 81080=
201209241800 AAXX 24184 67665 41960 22101 10//0 20//0 48510 70500 82030
                   333 59008 82360=
201209240900 AAXX 24094 67665 41960 00902 10324 20073 48528 70500
                   333 59008=
201209240600 AAXX 24064 67665 31957 61401 10250 20081 48528 70522 86030
                   333 10355 20/// 59003 86360=
201209231200 AAXX 23124 67665 41560 10902 10345 20072 48507 70500 81100
                   333 59008 81830=
201209230900 AAXX 23094 67665 41960 00105 10314 20109 48534 70500
                   333 58000=
201209230600 AAXX 23064 67665 41960 00602 10249 20105 48531 70500
                   333 10336 20//0 59008=
201209230300 AAXX 23034 67665 41960 01602 10158 20135 48503 70500
                   333 59013=
201209230000 AAXX 23004 67665 42980 01602 10180 20080 48502
                   333 59015=
201209222100 AAXX 22214 67665 41958 01502 10201 20059 48516 70500
                   333 59013=
201209221800 AAXX 2218/ 67665 41960 11503 10236 20050 48511 70500 80001
                   333 10336 59014 81080=
201209221500 AAXX 22154 67665 41957 10601 10323 20070 48498 70500 81031
                   333 59021 81360 81080=
201209221200 AAXX 22124 67665 41757 11202 10317 20075 48511 70500 81100
                   333 59013 81856=
201209220900 AAXX 22094 67665 41960 00606 10298 20120 48533 70500
                   333 59019=
201209220600 AAXX 22064 67665 41960 00905 10232 20094 48536 70500
                   333 10292 20//0 59013
                   555 00/// 91020=
201209220300 AAXX 22034 67665 41960 01403 10175 20015 48517 70500
                   333 59003 91019=
201209212100 AAXX 21214 67665 41959 01402 10200 20081 48530 70500
                   333 59004 91020=
201209211800 AAXX 21184 67665 41957 01202 10233 20082 48523 70500
                   333 10329 59003=
201209211500 AAXX 21154 67665 41857 21203 10300 20071 48517 70500 82100
                   333 59004 82858=
201209211200 AAXX 21124 67665 41757 31005 10299 20070 48522 70500 83100
                   333 59026 83850=
201209210900 AAXX 21094 67665 41960 00603 10285 20100 48551 70500
                   333 58004=
201209210600 AAXX 21064 67665 31960 01103 10219 20094 48548 70500
                   333 10325 20//0 59002=
201209210300 AAXX 21034 67665 41960 01403 10173 20099 48519 70500
                   333 59004=
201209210000 AAXX 21004 67665 41960 01503 10166 20085 48515 70500
                   333 59002=
201209202100 AAXX 20214 67665 41960 01403 10203 20050 48534 70500
                   333 58003=
201209201800 AAXX 20184 67665 41960 11403 10226 20061 48526 70500 80001
                   333 10325 59001 81080=
201209201500 AAXX 20154 67665 41960 10606 10301 20061 48521 70500 81030
                   333 59002 81360 555 10325 91017=
201209201200 AAXX 20124 67665 41760 11106 10308 20071 48528 70500 81100
                   333 58002 81850 91018=
201209200900 AAXX 20094 67665 41960 00707 10292 20072 48555 70500
                   333 59001=
201209200600 AAXX 20064 67665 31560 11103 10221 20089 48549 70500 81030
                   333 20320 59005 81360=
201209191800 AAXX 19184 67665 41960 11502 10215 20063 48526 70500 80001
                   333 10320 59008 81080 91019=
201209191500 AAXX 19154 67665 41960 41406 10293 20059 48522 70500 80002
                   333 59008 84080 555 10320 91018=
201209191200 AAXX 1912/ 67665 41760 50705 10306 20055 48527 70522 81102
                   333 58006 81857 85080 91018=
201209190900 AAXX 19094 67665 41960 50805 10286 20076 48556 70500 80002
                   333 59014 85080=
201209190600 AAXX 19064 67665 31960 01202 10210 20136 48553 70500
                   333 10302 20/// 59012=
201209181800 AAXX 18184 67665 41960 11203 10222 20111 48534 70500 80001
                   333 59019 81080=
201209181200 AAXX 18124 67665 41760 30401 10284 20073 48538 70500 82102
                   333 59018 82850 82080=
201209180900 AAXX 18094 67665 41660 30807 10264 20104 48566 70500 81102
                   333 59019 83080=
201209180600 AAXX 18064 67665 31970 30804 10194 20114 48562 70500 80002
                   333 10285 20/// 59018 83080=
201209180300 AAXX 18034 67665 41980 01402 10134 20106 48537 70500
                   333 59027=
201209180000 AAXX 18004 67665 41970 01602 10150 20105 48543 70500
                   333 59008=
201209172100 AAXX 17214 67665 41970 01702 10162 20109 48552 70500
                   333 59015=
201209171800 AAXX 17184 67665 41970 11202 10195 20099 48548 70500 81030
                   333 59016 81360=
201209171500 AAXX 17154 67665 41970 20904 10262 20076 48545 70500 82030
                   333 59013 82360=
201209170900 AAXX 17094 67665 41560 40605 10245 20110 48583 70500 84100
                   333 59013 84830=
201209170600 AAXX 17064 67665 31460 11004 10191 20133 48579 70500 81100
                   333 10285 20//0 59010 81815=
201209170000 AAXX 17004 67665 41960 01402 10149 20093 48552 70500
                   333 59006=
201209161800 AAXX 16184 67665 41960 01403 10181 20080 48563 70500
                   333 10276 58004=
201209161500 AAXX 16154 67665 41960 11005 10252 20059 48554 70500 80001
                   333 58000 81080=
201209161200 AAXX 16124 67665 41960 31107 10264 20066 48568 70500 80002
                   333 58003 83080=
201209160600 AAXX 16064 67665 31960 00911 10193 20105 48589 70500
                   333 10320 20201 58013=
201209160300 AAXX 16034 67665 41960 01305 10155 20091 48561 70500
                   333 58012=
201209160000 AAXX 16004 67665 41960 01203 10152 20104 48556 70500
                   333 58013=
201209152100 AAXX 15214 67665 41960 01203 10173 20102 48568 70500=
201209151800 AAXX 15184 67665 01204 10209 20114 48562 70500
                   333 10320 58020=
201209150900 AAXX 15094 67665 41560 10906 10267 20108 48594 70500
                   333 58028=
201209150600 AAXX 15064 67665 31960 01106 10221 20150 48580 70500
                   333 10325 20//0 58024=
201209141800 AAXX 14184 67665 41960 01602 10220 20099 48545 70500
                   333 10325 58002 91021=
201209141500 AAXX 14154 67665 41960 01206 10296 20035 48539 70500
                   333 58005 555 10325 91019=
201209141200 AAXX 14124 67665 41760 11206 10310 20030 48542 70500 81100
                   333 59003 81857 91020=
201209140900 AAXX 14094 67665 41960 00806 10289 20069 48569 70500
                   333 59004=
201209140600 AAXX 14064 67665 31959 11205 10212 20110 48556 70500 80001
                   333 10310 20/// 59012 81080=
201209132100 AAXX 13214 67665 41970 11702 10183 20015 48543 70500 81030
                   333 59014 81360=
201209131800 AAXX 13184 67665 41970 11402 10212 20003 48541 70500 81030
                   333 10310 59013 81360=
201209131200 AAXX 13124 67665 41660 30505 10301 20100 48544 70500 83200
                   333 59010 83830=
201209130600 AAXX 13064 67665 31959 01203 10199 20159 48566 70500
                   333 10302 20//0 59004=
201209130300 AAXX 13034 67665 41959 01302 10149 20141 48456 70500
                   333 58017=
201209130000 AAXX 13004 67665 41958 01402 10158 20150 48546 70500
                   333 58012=
201209122100 AAXX 12214 67665 41959 01502 10174 20168 48555 70500
                   333 58009=
201209121800 AAXX 12184 67665 41959 11203 10209 20135 48554 70500 81030
                   333 10302 58015 81360=
201209121500 AAXX 12154 67665 41958 20703 10275 20088 48545 70500 82030
                   333 58015 82359=
201209121200 AAXX 12124 67665 41758 30607 10296 20116 48555 70500 83200
                   333 58019 83850=
201209120900 AAXX 12094 67665 41658 30707 10260 20159 48578 70500 83100
                   333 58023=
201209120600 AAXX 12064 67665 31958 01104 10194 20127 48569 70500
                   333 10335 20205 58024=
201209111500 AAXX 11154 67665 41957 00905 10296 20034 48532 70500
                   333 58012=
201209111200 AAXX 11124 67665 41758 10909 10320 20050 48538 70500 81100
                   333 58008 81850=
201209110900 AAXX 11094 67665 41959 01004 10301 20045 48561 70500
                   333 58006=
201209110600 AAXX 11064 67665 31958 01303 10231 20079 48551 70500
                   333 10330 20//0 58004=
201209110300 AAXX 11034 67665 41959 01705 10155 20079 48518 70500
                   333 58002=
201209110000 AAXX 11004 67665 41958 01402 10174 20069 48520 70500
                   333 58005=
201209102100 AAXX 10214 67665 41958 01503 10207 20068 48535 70500 58002=
201209101800 AAXX 10184 67665 41958 11103 10237 20085 48529 70500 81030
                   333 10330 58001 81360=
201209101500 AAXX 10154 67665 41957 10602 10314 20070 48521 70500 81030
                   333 58003 81360 555 10330 91017=
201209101200 AAXX 10124 67665 41957 10604 10316 20059 48529 70500 81100
                   333 58001 81835 91018=
201209100900 AAXX 10094 67665 41957 00605 10285 20074 48554 70500
                   333 58003=
201209100600 AAXX 10064 67665 31958 00602 10220 20090 48546 70500
                   333 10315 20/// 59003=
201209091200 AAXX 09124 67665 41960 00705 10303 20076 48524 70500
                   333 58005=
201209090900 AAXX 09094 67665 41960 00408 10278 20099 48550 70500
                   333 58009=
201209090600 AAXX 09064 67665 31959 00901 10197 20104 48540 70500
                   333 10325 20//0 58002=
201209081800 AAXX 08184 67665 41959 01402 10221 20100 48519 70500
                   333 59007=
201209080900 AAXX 08094 67665 41959 01802 10268 20099 48539 70500
                   333 59010=
201209080600 AAXX 08064 67665 31959 02103 10197 20111 48538 70500
                   333 10315 20//0 59004=
201209080300 AAXX 08034 67665 41960 01201 10152 20113 48520 70500
                   333 59003=
201209080000 AAXX 08004 67665 41960 01702 10167 20115 48521 70500
                   333 59008=
201209071800 AAXX 07184 67665 41960 01204 10223 20090 48526 70500
                   333 10315 59009=
201209071500 AAXX 07154 67665 41959 00602 10301 20064 48517 70500
                   333 59015=
201209070600 AAXX 07064 67665 31959 01204 10193 20095 48541 70500
                   333 10304 20//0 59019=
201209070300 AAXX 07034 67665 41960 01303 10144 20089 48525 70500
                   333 59014 91020=
201209070000 AAXX 07004 67665 41960 01601 10137 20081 48525 70500
                   333 59014 91020=
201209062100 AAXX 06214 67665 41960 00502 10178 20099 48539 70500
                   333 58918 91021=
201209061200 AAXX 06124 67665 41959 03303 10289 20065 48542 70500
                   333 59007=
201209060600 AAXX 06064 67665 31959 01303 10187 20111 48558 70500
                   333 10305 20132 58004=
201209052100 AAXX 05214 67665 41959 01203 10155 20070 48552 70500
                   333 58007=
201209051800 AAXX 05184 67665 41959 11303 10188 20040 48546 70500 80001
                   333 10305 58007 81080=
201209051200 AAXX 05124 67665 41959 00909 10294 20046 48549 70500
                   333 58002 555 91021=
201209050600 AAXX 05064 67665 31960 01403 10194 20085 48563 70500
                   333 10316 20204 58004=
201209050300 AAXX 05034 67665 41970 00000 10127 20069 48535 70500
                   333 5////=
201209050000 AAXX 05004 67665 41970 00000 10155 20069 48540 70500
                   333 5////=
201209041200 AAXX 04124 67665 41960 01006 10310 20047 48541 70500
                   333 59015=
201209040900 AAXX 04094 67665 41960 00804 10265 20081 48568 70500
                   333 58003=
201209040600 AAXX 04064 67665 31957 00000 10210 20136 48557 70500
                   333 10350 20135 59015=
201209031800 AAXX 03184 67665 41959 01302 10204 20139 48556 70500
                   333 58004=
201209031200 AAXX 03124 67665 41658 11005 10295 20114 48562 70500 81100
                   333 58014 81830=
201209030600 AAXX 03064 67665 31958 01005 10193 20170 48577 70500
                   333 10285 20200 59027=
201209030300 AAXX 03034 67665 41958 01303 10170 20137 48553
                   333 58026=
201209030000 AAXX 03004 67665 41958 01202 10162 20089 48558 70500
                   333 58022=
201209022100 AAXX 02214 67665 41958 01202 10196 20087 48559 70500
                   333 58018=
201209021800 AAXX 02184 67665 41959 01203 10224 20055 48554 70500
                   333 10330 58027=
201209021500 AAXX 02154 67665 41958 01106 10302 20046 48547 70500
                   333 58022=
201209021200 AAXX 02124 67665 41958 00905 10321 20054 58551 70500
                   333 58009=
201209020600 AAXX 02064 67665 31959 00903 10218 20106 48555 70500
                   333 10325 20213 58016=
201209011500 AAXX 01154 67665 41958 01703 10305 20078 48526 70500
                   333 58003=
201209011200 AAXX 01124 67665 41958 09902 10316 20073 48532 70500
                   333 59003=
201209010600 AAXX 01064 67665 31959 01202 10223 20109 48540 70500
                   333 10269 20//0 59016=

################################################################################
#  SYNOPS from 67666, Lusaka City Airport (Zambia) | 15-25S | 028-19E | 1280 m
################################################################################
201209280600 AAXX 2806/ 67666 32970 40908 10240 20144 48538 80001
                   333 10314 20159 29012 84080=
201209261200 AAXX 26124 67666 42980 40910 10295 20184 48526 81102
                   333 58022 81850 84080=
201209250600 AAXX 25064 67666 11970 30908 10245 20160 48529 69904 70500 83030
                   333 10346 20206 58007 83360=
201209240600 AAXX 24064 67666 31980 60000 10262 20148 48523 70500 86030
                   333 10317 20205 58002 86360=
201209211200 AAXX 21124 67666 42680 30906 10295 20145 48528 83100
                   333 59012 83850=
201209210900 AAXX 21094 67666 42980 01109 10280 20156 48541
                   333 59001=
201209210600 AAXX 21064 67666 32980 00910 10230 20088 48533 70200
                   333 10330 20190 59004=
201209201200 AAXX 20124 67666 42780 50913 10300 20121 48518 81101
                   333 58002 81850 83080 91017=
201209200900 AAXX 20094 67666 41980 00713 10286 20133 48539
                   333 59003=
201209200600 AAXX 20064 67666 32980 30910 10230 20132 48546 83030
                   333 10311 20195 59006 83359=
201209170600 AAXX 17064 67666 31980 00000 10185 20116 48569
                   333 10273 20142 59011=
201209140600 AAXX 14064 67666 32980 00907 10214 20136 48552
                   333 10284 20156 59008=
201209101200 AAXX 10124 67666 42680 10000 10305 20119 48521 81100
                   333 58002 81845 91018=
201209100600 AAXX 10064 67666 31975 00905 10228 20100 48538 70500
                   333 10306 20177 59002=
201209051200 AAXX 05124 67666 42980 00909 10285 20087 48538
                   333 59005 91020=
201209040600 AAXX 04064 67666 31980 00903 10200 20103 48556 70500
                   333 10365 20138 58014=
201209030900 AAXX 03094 67666 41980 00909 10245 20150 48577 70500
                   333 58023=

################################################################################
#  SYNOPS from 67673, Petauke (Zambia) | 14-15S | 031-17E | 1035 m
################################################################################
201209250600 AAXX 25064 67673 31965 01206 10270 20154 48543 70500
                   333 10365 20220 58011=

################################################################################
#  SYNOPS from 67741, Sesheke (Zambia) | 17-28S | 024-18E | 949 m
################################################################################
201209100600 AAXX 10064 67741 32980 00000 10146 20084 48523
                   333 10340 20073 59013=

################################################################################
#  SYNOPS from 67743, Livingstone (Zambia) | 17-49S | 025-49E | 985 m
################################################################################
201209300600 AAXX 30064 67743 31975 01804 10206 21064 48547 70500
                   333 10317 20125 58001=
201209291200 AAXX 29124 67743 41975 17707 10304 21038 48542 70500 81031
                   333 58038 81360 81060 91018=
201209290600 AAXX 29064 67743 31975 21708 10217 21050 48548 70500 82031
                   333 10362 20208 58021 81360 81080=
201209250600 AAXX 25064 67743 23980 01706 10244 20031 48524
                   333 10374 20181 58000
                   555 00/// BB/// CC181 DD/// Q1018.1=
201209230600 AAXX 23064 67743 31959 73004 10234 20054 48526 70500 87031
                   333 10374 20217 59002 87360 81080=
201209220600 AAXX 22064 67743 31970 41302 10215 20095 48511 70511 80001
                   333 10364 20165 59021 84079
                   555 91017=
201209211200 AAXX 21124 67743 41870 30807 10356 20038 48520 70500 83201
                   333 59007 83858 81080=
201209210600 AAXX 21064 67743 31970 00908 10240 20072 48537 70500
                   333 10363 20169 59003
                   555 91019=
201209201200 AAXX 20124 67743 41870 20910 10351 20049 48525 70500 81101
                   333 59006 81858 82080 91015=
201209200600 AAXX 20064 67743 41970 30904 10230 20065 48537 70500 80001
                   333 10246 20180 59014 83080=
201209190600 AAXX 19064 67743 31970 11003 10225 20095 48551 70500 80001
                   333 10328 20136 59010 81080=
201209170600 AAXX 17064 67743 31970 11908 10194 20125 48573 70500 80001
                   333 10302 20165 59008 81080
                   555 91021=
201209140600 AAXX 14064 67743 31875 00304 10241 20053 48547 70500
                   333 10355 20161 59009=
201209111200 AAXX 11124 67743 41970 01102 10345 20035 48542 70500
                   333 58007=
201209110900 AAXX 11094 67743 41970 01309 10305 20080 48562 70500
                   333 58008=
201209101500 AAXX 10154 67743 41975 02604 10341 20026 48523 70500
                   333 58003 555 10349 91015=
201209101200 AAXX 10124 67743 41975 01706 10339 20029 48530 70500
                   333 59003 91016=
201209100900 AAXX 10094 67743 41975 01107 10314 20036 48554 70500
                   333 59005=
201209100600 AAXX 10064 67743 31970 01002 10200 20032 48533 70500
                   333 10335 20109 59010=
201209090600 AAXX 09064 67743 32980 11103 10181 20067 48538
                   333 10315 20125 59003 81080=
201209061200 AAXX 06124 67743 41975 02708 10333 20063 48526 70500
                   333 59010=
201209060600 AAXX 06064 67743 31975 01403 10196 20071 48538 70500
                   333 10356 20181 58001=
201209050600 AAXX 05064 67743 31975 00408 10236 20062 48544 70500
                   333 10351 20164 59015=
201209040900 AAXX 04094 67743 41958 01406 10313 20126 48581 70500
                   333 59022=
201209040600 AAXX 04064 67743 31970 00706 10205 20102 48551 70500
                   333 10350 20148 59014=
201209011500 AAXX 01154 67743 41975 01004 10340 20009 48528 70500
                   333 58004=
201209011200 AAXX 01124 67743 41925 01006 10338 20016 48538 70500
                   333 59000=

################################################################################
#  SYNOPS from 67753, Choma (Zambia) | 16-50S | 027-04E | 1213 m
################################################################################
201209110600 AAXX 11064 67753 31960 01304 10207 20101 48/// 70500
                   333 10329 20124 5////=
201209100600 AAXX 10064 67753 31960 00902 10201 20116 48/// 70500
                   333 10319 20111 5////=
201209060600 AAXX 06064 67753 31960 00112 10191 20088 48/// 70500
                   333 10303 20110 5////=
201209050600 AAXX 05064 67753 31960 00808 10209 20092 48/// 70500
                   333 10316 20137 5////=

################################################################################
#  SYNOPS from 67855, Lupaki (Zambia) | 17-03-00S | 024-46-00E | 1000 m
################################################################################
201209301800 AAXX 30184 67855 NIL=
201209301200 AAXX 30124 67855 NIL=
201209300600 AAXX 30064 67855 31970 01203 10188 20062 3//// 48/// 70500
                   333 20089 5////=
201209291800 AAXX 29184 67855 NIL=
201209291200 AAXX 29124 67855 41970 42403 10310 21013 3//// 48/// 70511 80002
                   333 5//// 84080=
201209290600 AAXX 29064 67855 31970 21802 10226 20008 3//// 48/// 70511 80001
                   333 20180 5//// 82080=
201209281800 AAXX 28184 67855 NIL=
201209281200 AAXX 28124 67855 41970 73303 10334 20112 3//// 48/// 70511 80002
                   333 5//// 87080=
201209280600 AAXX 28064 67855 NIL=
201209271800 AAXX 27184 67855 NIL=
201209271200 AAXX 27124 67855 41970 13602 10340 20120 3//// 48/// 70511 81130
                   333 5//// 81856=
201209270600 AAXX 27064 67855 31970 40302 10228 20133 3//// 48/// 70511 84030
                   333 20158 5//// 84360=
201209261800 AAXX 26184 67855 NIL=
201209261200 AAXX 26124 67855 NIL=
201209260600 AAXX 26064 67855 31970 50605 10222 20120 38/// 48/// 70511 80001
                   333 20184 5//// 85080=
201209251200 AAXX 25124 67855 41770 10301 10340 20121 38/// 48/// 70500 81100
                   333 5//// 81856=
201209250600 AAXX 25064 67855 31970 00710 10238 20120 3//// 48/// 70500
                   333 20118 5////=
201209241800 AAXX 24184 67855 NIL=
201209241200 AAXX 24124 67855 41770 13004 10364 20050 3//// 48/// 70500 81100
                   333 5//// 81856=
201209240600 AAXX 24064 67855 31970 01801 10198 20128 3//// 48/// 70500
                   333 20128 5////=
201209231200 AAXX 23124 67855 41770 62403 10356 20098 3//// 48/// 70522 81102
                   333 5//// 81850 86080=
201209230600 AAXX 23064 67855 NIL=
201209221800 AAXX 22184 67855 NIL=
201209221200 AAXX 22124 67855 41970 73002 10356 20098 3//// 48/// 70511 80002
                   333 5//// 87080=
201209220600 AAXX 22064 67855 31970 03604 10246 20079 3//// 48/// 70500
                   333 20144 5////=
201209211200 AAXX 21124 67855 41770 22002 10338 20076 3//// 48/// 70500 82100
                   333 5//// 82850=
201209210600 AAXX 21064 67855 31970 00604 10226 20091 38/// 48/// 70500
                   333 20180 5////=
201209201800 AAXX 20184 67855 NIL=
201209201200 AAXX 20124 67855 41770 63605 10340 20063 38/// 48/// 70522 81102
                   333 5//// 81850 86080=
201209200600 AAXX 20064 67855 31970 51002 10228 20065 3//// 48/// 70511 80002
                   333 20139 5//// 85080=
201209191200 AAXX 19124 67855 41970 01603 10334 20063 3//// 48/// 70500
                   333 5////=
201209190600 AAXX 19064 67855 31970 21801 10178 20085 3//// 48/// 70500 80002
                   333 20119 5//// 82080=
201209181800 AAXX 18184 67855 NIL=
201209181200 AAXX 18124 67855 41770 43502 10308 20103 3//// 48/// 70500 84100
                   333 5//// 84850=
201209180600 AAXX 18064 67855 NIL=
201209171800 AAXX 17184 67855 NIL=
201209171200 AAXX 17124 67855 41670 53602 10260 20108 3//// 48/// 70511 85200
                   333 5//// 85840=
201209170600 AAXX 17064 67855 31370 11405 10176 20110 3//// 48/// 70500 81600
                   333 20123 5//// 81707=
201209161800 AAXX 16184 67855 NIL=
201209161200 AAXX 16124 67855 NIL=
201209160600 AAXX 16064 67855 31970 01105 10182 20123 38/// 48/// 70500
                   333 20148 5////=
201209151200 AAXX 15124 67855 41970 03602 10310 20090 38/// 48/// 70500
                   333 5////=
201209150600 AAXX 15064 67855 31970 01401 10184 20070 3//// 48/// 70500
                   333 20134 5////=
201209141800 AAXX 14184 67855 NIL=
201209141200 AAXX 14124 67855 41770 30705 10350 20073 3//// 48/// 70500 83100
                   333 5//// 83856=
201209140600 AAXX 14064 67855 31970 01901 10200 20043 3//// 48/// 70500
                   333 20145 5////=
201209131800 AAXX 13184 67855 NIL=
201209131200 AAXX 13124 67855 41970 03603 10342 20084 3//// 48/// 70500
                   333 5////=
201209130600 AAXX 13064 67855 31970 00302 10216 20125 3//// 48/// 70500
                   333 20129 5////=
201209121200 AAXX 12124 67855 41670 10305 10316 20115 81100
                   333 81840=
201209120600 AAXX 12064 67855 31970 00902 10196 20042 3//// 48/// 70500
                   333 20160 5////=
201209111800 AAXX 11184 67855 NIL=
201209111200 AAXX 11124 67855 41770 10703 10344 20070 3//// 48/// 70500 81100
                   333 5//// 81856=
201209110600 AAXX 11064 67855 31970 00901 10194 20079 38/// 48/// 70500
                   333 20106 5////=
201209101200 AAXX 10124 67855 41970 03002 10340 20018 38/// 48/// 70500 81100
                   333 5////=
201209100600 AAXX 10064 67855 31970 00000 10148 20020 38/// 48/// 70500
                   333 20068 5////=
201209091800 AAXX 09184 67855 NIL=
201209091200 AAXX 09124 67855 NIL=
201209090600 AAXX 09064 67855 31970 00000 10143 20103 38/// 48/// 70500
                   333 20100 5////=
201209081200 AAXX 08124 67855 41970 03301 10300 20025 38/// 48/// 70500
                   333 5////=
201209080600 AAXX 08064 67855 31970 01901 10108 20050 38/// 48/// 70500
                   333 20074 5////=
201209071800 AAXX 07184 67855 NIL=
201209071200 AAXX 07124 67855 41970 01801 10286 20048 3//// 48/// 70500
                   333 5////=
201209061800 AAXX 06184 67855 NIL=
201209061200 AAXX 06124 67855 41970 00305 10314 20066 3//// 48/// 70500
                   333 5////=
201209060600 AAXX 06064 67855 31970 00304 10218 20085 3//// 48/// 70500
                   333 20195 5////=
201209051800 AAXX 05184 67855 NIL=
201209051200 AAXX 05124 67855 41970 03603 10319 20100 38/// 48/// 70500
                   333 5////=
201209050600 AAXX 05064 67855 31970 00802 10200 20074 38/// 48/// 70500
                   333 20153 5////=
201209041800 AAXX 04184 67855 NIL=
201209041200 AAXX 04124 67855 41970 01302 10340 20081 38/// 48/// 70500
                   333 5////=
201209040600 AAXX 04064 67855 31970 01801 10150 20075 3//// 48/// 70500
                   333 20114 5////=
201209031200 AAXX 03124 67855 41970 01602 10336 20089 3//// 48/// 70500
                   333 5////=
201209030600 AAXX 03064 67855 31970 00604 10174 20125 3//// 48/// 70500
                   333 20130 5////=
201209021800 AAXX 02184 67855 NIL=
201209021200 AAXX 02124 67855 41970 01302 10340 20062 3//// 48/// 70500
                   333 5////=
201209020600 AAXX 02064 67855 31970 01801 10154 21035 3//// 48/// 70500
                   333 20075 5////=
201209011800 AAXX 01184 67855 NIL=
201209011200 AAXX 01124 67855 41970 02002 10342 20020 3//// 48/// 70500
                   333 5////=
201209010600 AAXX 01064 67855 31970 01701 10146 20000 38/// 48/// 70500
                   333 20075 5////=
