################################################################################
# Query made at 04/10/2022 06:49:13 UTC
# Country like Zamb*
# Time interval: from 03/01/2019 05:30  to 03/31/2019 06:30  UTC
################################################################################

################################################################################
#  SYNOPS from 67403, Kawambwa (Zambia) | 09-48S | 029-05E | 1323 m
################################################################################
201903291200 AAXX 29124 67403 NIL=
201903290600 AAXX 29064 67403 32980 20901 10216 20171 48526 82031
                   333 10294 20180 59014 82360 81080
                   555 00178=
201903280600 AAXX 28064 67403 11980 21803 10212 20182 48540 69994 81631
                   333 10308 20180 59010 81708 81360 82080
                   555 00181 20001=
201903270600 AAXX 27064 67403 12980 70902 10202 20184 48549 60014 8703/
                   333 10326 20176 58026 87360
                   555 00188=
201903260600 AAXX 26064 67403 12980 31201 10209 20194 48523 69924 82031
                   333 10300 20174 58008 82360 82080
                   555 00180 20007=
201903221200 AAXX 22124 67403 NIL=
201903220600 AAXX 22064 67403 11975 43201 10227 20187 48490 60034 70520 82031
                   333 10321 20178 59022 82360 82080=
201903210900 AAXX 21094 67403 NIL=
201903210600 AAXX 21064 67403 11975 70301 10204 20189 48510 60044 70522 87031
                   333 10328 20180 58008 87360 81080
                   555 00192=
201903201200 AAXX 20124 67403 NIL=
201903200600 AAXX 20064 67403 11975 70401 10213 20173 48503 60274 70522 8703/
                   333 10321 20180 59012 87360
                   555 00178=
201903190600 AAXX 19064 67403 31975 51801 10213 20176 48515 70522 85031
                   333 10327 20170 59004 85360 82080
                   555 00174=
201903180600 AAXX 18064 67403 11975 70702 10217 20203 48519 69954 70522 83037
                   333 10332 20//0 5//// 83360 87280=
201903150600 AAXX 15064 67403 12980 20901 10217 20171 48510 60014 81031
                   333 10318 20168 59010 81360 82080=
201903140900 AAXX 14094 67403 NIL=
201903140600 AAXX 14064 67403 11375 61802 10198 20179 48527 60154 81631
                   333 10301 20180 58000 81706 86360 81080
                   555 00187=
201903131200 AAXX 13124 67403 NIL=
201903110600 AAXX 11064 67403 11975 61202 10210 20187 48521 60254 70562 86030
                   333 10//0 20176 5//// 86360
                   555 00185=
201903070900 AAXX 07094 67403 NIL=
201903060900 AAXX 06094 67403 NIL=
201903060600 AAXX 06064 67403 11975 80901 10194 20183 48535 60384 72162 8803/
                   333 10312 20180 58027 88360
                   555 00182=
201903040600 AAXX 04064 67403 12980 63601 10192 20177 48524 60084 82037
                   333 10296 20170 59004 82360 86280=
201903010600 AAXX 01064 67403 32980 33001 10221 20188 48523 82081
                   333 10314 20180 58017 82360 83080
                   555 00193=

################################################################################
#  SYNOPS from 67413, Mbala (Zambia) | 08-51S | 031-20E | 1673 m
################################################################################
201903291200 AAXX 29124 67413 NIL=
201903221200 AAXX 22124 67413 NIL=
201903220600 AAXX 22064 67413 NIL=
201903210900 AAXX 21094 67413 NIL=
201903201200 AAXX 20124 67413 NIL=
201903190600 AAXX 19064 67413 NIL=
201903140900 AAXX 14094 67413 NIL=
201903140600 AAXX 14064 67413 32980 50000 10190 20158 48544 85030
                   333 1//// 20099 59004 85360
                   555 00194 91024=
201903131200 AAXX 13124 67413 NIL=
201903070900 AAXX 07094 67413 NIL=
201903060900 AAXX 06094 67413 NIL=
201903060600 AAXX 06064 67413 12980 70000 10180 20160 48554 60254 8707/
                   333 10//0 20090 5//// 87359 91025=

################################################################################
#  SYNOPS from 67441, Mwinilunga (Zambia) | 11-45S | 024-26E | 1361 m
################################################################################
201903291200 AAXX 29124 67441 NIL=
201903251200 AAXX 25124 67441 42680 60000 10215 2//// 48526 84220
                   333 5//// 84840 84360=
201903250600 AAXX 25064 67441 31308 40000 10180 20180 48546 74244 83630
                   333 10284 20//0 5//// 83708 84359=
201903221200 AAXX 22124 67441 NIL=
201903220600 AAXX 22064 67441 32980 30000 10170 20153 48535 80001
                   333 10294 2//// 59002 83070=
201903210900 AAXX 21094 67441 NIL=
201903210600 AAXX 21064 67441 11370 60000 10175 20175 48537 60044 70522 83650
                   333 10292 2//// 58002 83708 86359=
201903201200 AAXX 20124 67441 41680 70000 10295 20150 48517 71799 8233/
                   333 58000 82940 84850 84360=
201903200600 AAXX 20064 67441 31970 30000 10180 20146 48535 70500 83040
                   333 10289 20//0 59002 83360=
201903190600 AAXX 19064 67441 31309 40000 10160 20160 48537 74244 84600
                   333 10279 20//0 59011 84707=
201903181200 AAXX 18124 67441 41680 70000 10250 20165 48532 71799 8327/
                   333 5//// 81940 83840 86360=
201903180600 AAXX 18064 67441 31330 50000 10190 20190 48547 74244 83720
                   333 10282 20//0 59011 83707 85459=
201903140900 AAXX 14094 67441 42680 40000 10250 20174 48557 84109
                   333 5//// 84840 83170=
201903140600 AAXX 14064 67441 11350 60000 10180 20180 48549 60324 74244 84730
                   333 10220 20//0 59005 84708 86360=
201903131200 AAXX 13124 67441 41670 70000 10180 20170 48548 76266 887//
                   333 5//// 88709=
201903071200 AAXX 07124 67441 41680 70000 10220 20169 48521 71799 8322/
                   333 59024 81935 83835 86460=
201903070900 AAXX 07094 67441 42680 60000 10260 20175 48551 84230
                   333 59029 84845 84360=
201903070600 AAXX 07064 67441 11340 60000 10180 20172 48547 60094 74244 84730
                   333 10280 20//0 59025 84708 83360=
201903061200 AAXX 06124 67441 42680 60000 10280 20161 48546 84260
                   333 5//// 84850 85361=
201903060900 AAXX 06094 67441 42680 4//// 10230 20179 48580 8453/
                   333 5//// 84635 83840 84360=
201903060600 AAXX 06064 67441 11975 70000 10182 20171 48572 60044 70522 8702/
                   333 10310 20/// 58033 87460=
201903050600 AAXX 05064 67441 32680 50000 10195 20168 48540 82109
                   333 10310 20//0 59013 82840 85170=
201903040600 AAXX 04064 67441 31320 80000 10170 20170 48552 74244 887//
                   333 10290 20//0 59007 88706=
201903010600 AAXX 01064 67441 11580 60000 10200 20183 48558 60114 70522 84530
                   333 10310 20//0 58007 84630 84360=

################################################################################
#  SYNOPS from 67461, Mansa (Zambia) | 11-06S | 028-51E | 1382 m
################################################################################
201903291200 AAXX 29124 67461 NIL=
201903290600 AAXX 29064 67461 32980 11102 10207 20184 48528 80001
                   333 10274 20150 59019 81080
                   555 00/// 91020=
201903280600 AAXX 28064 67461 32580 61207 10219 20182 48547 81530
                   333 10284 20173 59006 81620 85360
                   555 00/// 91021=
201903270900 AAXX 27094 67461 42680 71205 10253 20191 48557 8523/
                   333 58042 85845 84360 91023=
201903270600 AAXX 27064 67461 12980 70000 10198 20185 48542 69914 8707/
                   333 10300 20167 58040 87460
                   555 00/// 91023=
201903260600 AAXX 26064 67461 12480 60905 10196 20171 48513 69904 83531
                   333 10271 20162 58012 83612 85360 83080
                   555 00/// 20017 91018=
201903221200 AAXX 22124 67461 NIL=
201903220600 AAXX 22064 67461 32980 11205 10222 2//// 48487 81031
                   333 10290 20162 59011 81360 81080 91015=
201903210900 AAXX 21094 67461 42680 62308 10255 20171 48515 81130
                   333 59003 81832 86360 91016=
201903210600 AAXX 21064 67461 12480 72604 10190 20181 48494 60064 8117/
                   333 10312 20169 59006 81818 87360 91016=
201903201200 AAXX 20124 67461 41780 63604 10284 20186 48479 71792 81930
                   333 59010 81950 85850 83360 91013=
201903200600 AAXX 20064 67461 32980 21902 10219 20187 48502 82031
                   333 10302 20162 59015 82360 81080 91016=
201903190600 AAXX 19064 67461 32980 70000 10201 20185 48516 8703/
                   333 10299 20168 59002 87360 91018=
201903150600 AAXX 15064 67461 32980 52702 10210 20188 48502 82031
                   333 10299 20170 59012 82360 84080 91015=
201903140900 AAXX 14094 67461 42680 53207 10265 20174 48516 81131
                   333 59006 81848 83360 81080 91017=
201903140600 AAXX 14064 67461 12480 70802 10195 20180 48513 60254 81130
                   333 10302 20168 59006 81818 86360 91018=
201903131200 AAXX 13124 67461 NIL=
201903130900 AAXX 13094 67461 42680 71807 10245 20180 48521 82130
                   333 58000 82832 86360 91018=
201903071200 AAXX 07124 67461 42680 73303 10268 20191 48531 84231
                   333 59005 84843 83360 83080 91015=
201903070900 AAXX 07094 67461 42580 73505 10248 20189 48523 8583/
                   333 59014 82625 83830 84360 91019=
201903060900 AAXX 06094 67461 42580 70102 10237 20201 48536 8653/
                   333 58018 86636 85360 91019=
201903060600 AAXX 06064 67461 12980 83102 10200 20185 48544 60054 8807/
                   333 10306 20177 58027 88460 91020=
201903040900 AAXX 04094 67461 42680 63602 10267 20190 48524 83231
                   333 58007 83846 81360 83080 91019=
201903040600 AAXX 04064 67461 32580 72802 10203 20189 48525 8253/
                   333 10290 20160 58013 82620 87360 91019=

################################################################################
#  SYNOPS from 67469, Samfya (Zambia) | 11-22S | 029-54E | 1171 m
################################################################################
201903291200 AAXX 29124 67469 NIL=
201903290600 AAXX 29064 67469 32980 31107 10242 20050 48/// 80002
                   333 10265 20207 5//// 83080
                   555 00///=
201903261200 AAXX 26124 67469 42680 40705 10277 20060 48/// 84208
                   333 5//// 81930 83830 84080=
201903260600 AAXX 26064 67469 32480 60401 10243 20130 48/// 83538
                   333 10279 20183 5//// 83610 83360 86280
                   555 00/// 20036=
201903250900 AAXX 25094 67469 42580 60906 10272 20080 48/// 83238
                   333 5//// 83820 83360 85280=
201903250600 AAXX 25064 67469 12280 71306 10212 20140 48/// 60364 84738
                   333 10280 20175 5//// 82609 83360 86280=
201903221200 AAXX 22124 67469 NIL=
201903220600 AAXX 22064 67469 32980 30501 10230 20090 48/// 81032
                   333 10293 20202 5//// 81360 83080=
201903210900 AAXX 21094 67469 NIL=
201903210600 AAXX 21064 67469 32980 22804 10220 20060 48/// 82032
                   333 10297 20182 5//// 82360 81080=
201903201200 AAXX 20124 67469 NIL=
201903200600 AAXX 20064 67469 32980 33402 10226 20100 48/// 82032
                   333 10280 20191 5//// 82360 81080=
201903190600 AAXX 19064 67469 12280 62504 10198 20110 48/// 60064 83632
                   333 10279 20199 5//// 83703 82815 86360 81080=
201903140900 AAXX 14094 67469 42680 50702 10259 20050 48/// 81130
                   333 5//// 81830 85360=
201903140600 AAXX 14064 67469 12980 70903 10210 20150 48/// 60194 8707/
                   333 10272 20175 5//// 87360=
201903131200 AAXX 13124 67469 NIL=
201903130900 AAXX 13094 67469 42680 60905 10259 20070 48/// 85232
                   333 5//// 85830 83360 82080=
201903130600 AAXX 13064 67469 12580 62501 10214 20120 48/// 60014 81132
                   333 10262 20195 5//// 81825 85360 82080=
201903070900 AAXX 07094 67469 NIL=
201903060900 AAXX 06094 67469 NIL=

################################################################################
#  SYNOPS from 67475, Kasama (Zambia) | 10-13S | 031-08E | 1382 m
################################################################################
201903291200 AAXX 29124 67475 42660 61603 10267 20175 48/// 862//
                   333 5//// 81940 85840=
201903290600 AAXX 29064 67475 32560 30000 10202 20181 48/// 82101
                   333 10276 20151 5//// 82818 82080
                   555 00///=
201903280600 AAXX 28064 67475 12460 30910 10204 20176 48/// 60244 81501
                   333 10292 20166 5//// 81615 82080
                   555 00///=
201903260600 AAXX 26064 67475 32360 73203 10200 20193 48/// 70344 866//
                   333 10271 20164 5//// 86707
                   555 00///=
201903221200 AAXX 22124 67475 42660 52005 10296 20178 48/// 85202
                   333 5//// 81945 84845 83080=
201903220600 AAXX 22064 67475 12960 40102 10224 20186 48/// 60014 80004
                   333 10294 20166 5//// 84080=
201903210900 AAXX 21094 67475 42560 62004 10251 20184 48/// 83251
                   333 5//// 83820 85360 82080=
201903210600 AAXX 21064 67475 12260 73304 10196 20190 48/// 60124 8267/
                   333 10301 20179 5//// 82705 86360=
201903201200 AAXX 20124 67475 NIL=
201903200600 AAXX 20064 67475 12960 40703 10218 20177 48/// 60214 82031
                   333 10320 20159 5//// 82460 82080=
201903190600 AAXX 19064 67475 12960 73604 10206 20192 48/// 69904 85078
                   333 10321 20176 5//// 85460 86280=
201903180600 AAXX 18064 67475 12960 73103 10205 20185 48/// 60024 82031
                   333 10320 20154 5//// 82360 85080=
201903150600 AAXX 15064 67475 32660 83605 10201 20185 48/// 82278
                   333 10292 20163 5//// 82838 84360 86280=
201903140900 AAXX 14094 67475 42560 71904 10249 20183 48/// 8325/
                   333 5//// 83820 86360=
201903140600 AAXX 14064 67475 12360 72407 10190 20179 48/// 60024 866//
                   333 10290 20159 5//// 86707=
201903131200 AAXX 13124 67475 42660 61907 10276 20166 48510 8425/
                   333 58003 81945 83845 86360 91018=
201903130900 AAXX 13094 67475 42660 71607 10245 20183 48539 8327/
                   333 59002 83835 86360 91022=
201903070900 AAXX 07094 67475 NIL=
201903060900 AAXX 06094 67475 NIL=
201903060600 AAXX 06064 67475 12960 83003 10196 20187 48544 60204 85078
                   333 10310 20166 58025 85460 87280 91022=
201903040600 AAXX 04064 67475 12960 80704 10198 20186 48535 69924 85078
                   333 10260 20169 58008 85460 88280 91021=
201903010600 AAXX 01064 67475 32560 61003 10208 20283 48527 82208
                   333 10296 20156 58011 82820 85280 91021=

################################################################################
#  SYNOPS from 67476, Misamfu (Zambia) | 10-06S | 031-15E | 1536 m
################################################################################
201903291200 AAXX 29124 67476 NIL=
201903250600 AAXX 25064 67476 32580 81003 10195 20185 48/// 8327/
                   333 10273 20148 5//// 83821 88460=
201903221200 AAXX 22124 67476 41680 53403 10293 20175 48/// 71510 81302
                   333 59005 81943 83843 82080=
201903220600 AAXX 22064 67476 32980 20603 10222 20187 48/// 80002
                   333 10292 20146 58001 82080=
201903210900 AAXX 21094 67476 42680 32104 10267 20177 48/// 81230
                   333 58012 81830 83360=
201903210600 AAXX 21064 67476 12980 63603 10214 20184 48/// 69914 8607/
                   333 10291 20169 58010 86360=
201903201200 AAXX 20124 67476 41675 63605 10224 20177 48/// 79592 81973
                   333 59002 81943 81845 85460 81080=
201903200600 AAXX 20064 67476 12980 10000 10210 20166 48/// 60334 81032
                   333 10302 20147 59019 81360 81080=
201903191200 AAXX 19124 67476 41680 43502 10291 20151 48/// 71511 81302
                   333 59012 81943 82845 82080=
201903190900 AAXX 19094 67476 41680 43603 10277 20178 48/// 82232
                   333 5//// 82830 81360 83080=
201903190600 AAXX 19064 67476 11480 60000 10215 20185 48/// 69904 71522 81472
                   333 10307 20161 59006 81615 85460 83080=
201903181200 AAXX 18124 67476 41680 63602 10295 20166 48/// 71722 81908
                   333 5//// 81940 83840 85280=
201903180600 AAXX 18064 67476 12980 70000 10215 20172 48/// 69904 81038
                   333 10304 20137 5//// 81360 87280=
201903140900 AAXX 14094 67476 NIL=
201903140600 AAXX 14064 67476 12480 60904 10193 20174 48/// 60024 8367/
                   333 10280 20150 58001 84715 86460=
201903131200 AAXX 13124 67476 NIL=
201903130600 AAXX 13064 67476 12580 40903 10203 20109 48/// 60184 83230
                   333 10297 20151 58001 83820 85360=
201903070900 AAXX 07094 67476 42680 72704 10240 20173 48/// 8227/
                   333 59020 82830 87360=
201903070600 AAXX 07064 67476 12280 70000 10183 20172 48/// 69974 8167/
                   333 10268 20151 59023 81705 87360=
201903060900 AAXX 06094 67476 42580 72605 10242 20182 48/// 82278
                   333 58022 82826 85360 87280=
201903060600 AAXX 06064 67476 11280 80000 10193 20182 48/// 60144 81667
                   333 10307 20155 58028 81706 85360 88280=
201903041200 AAXX 04124 67476 41680 62503 10276 20161 48/// 71522 84272
                   333 5//// 84847 84460 82080=
201903040900 AAXX 04094 67476 42680 32702 10264 20176 48/// 82202
                   333 5//// 82832 82080=
201903040600 AAXX 04064 67476 12980 70000 10195 20185 48/// 69904 8701/
                   333 10260 20160 5//// 87460=

################################################################################
#  SYNOPS from 67477, Mpika (Zambia) | 11-54S | 031-26E | 1400 m
################################################################################
201903291200 AAXX 29124 67477 42680 41503 10263 20170 48514 84200
                   333 5//// 84835=
201903290600 AAXX 29064 67477 32480 20908 10200 20170 48536 82500
                   333 10262 20153 59024 82613
                   555 00150=
201903280600 AAXX 28064 67477 32480 61203 10194 20178 48559 86500
                   333 10270 20172 59001 86611
                   555 00170=
201903270900 AAXX 27094 67477 42580 41205 10255 20199 48565 83100
                   333 58028 83828=
201903270600 AAXX 27064 67477 32480 31510 10218 20179 48561 83530
                   333 10288 20168 58038 82613 82360
                   555 00164=
201903260600 AAXX 26064 67477 32980 31504 10231 20185 48534 83030
                   333 10280 20182 58006 83360
                   555 00192 20000=
201903250900 AAXX 25094 67477 42580 40902 10253 20191 48534 83101
                   333 58001 83828 82080=
201903221200 AAXX 22124 67477 42680 41503 10278 20182 48501 84200
                   333 58003 84835=
201903220600 AAXX 22064 67477 32480 21504 10224 20190 48524 82100
                   333 10312 20179 58000 82817
                   555 00180=
201903210900 AAXX 21094 67477 41680 53002 10257 20178 48528 71722 82232
                   333 58016 81932 82832 83361 82080=
201903210600 AAXX 21064 67477 32980 43601 10204 20170 48523 84030
                   333 10308 20155 58010 84360
                   555 00162=
201903201200 AAXX 20124 67477 41780 43001 10295 20190 48495 71722 84201
                   333 59007 81950 84840 81080=
201903200600 AAXX 20064 67477 32980 10000 10215 20182 48513 80001
                   333 10312 20144 59011 81080=
201903190900 AAXX 19094 67477 42680 42702 10276 20192 48518 82131
                   333 59008 82835 82361 81080=
201903190600 AAXX 19064 67477 32480 53002 10215 20186 48524 81131
                   333 10308 20166 59006 81816 82360 83080
                   555 00174=
201903181200 AAXX 18124 67477 42680 42702 10298 20183 48500 84201
                   333 59003 84846 82080=
201903180600 AAXX 18064 67477 32980 62101 10212 20181 48530 85031
                   333 10292 20180 59010 85360 83080
                   555 00180=
201903150600 AAXX 15064 67477 12480 31202 10207 20170 48525 81101
                   333 10305 20173 59017 81812 83080=
201903140900 AAXX 14094 67477 42580 40000 10236 20190 48530 82231
                   333 59009 82822 82361 81080=
201903140600 AAXX 14064 67477 11480 82702 10189 20180 48542 60114 72122 8357/
                   333 10268 20170 59007 83611 86459
                   555 00163=
201903131200 AAXX 13124 67477 41680 60000 10261 20170 48518 72822 86201
                   333 58000 81930 86830 81080=
201903130900 AAXX 13094 67477 42580 50000 10252 20180 48541 85201
                   333 58005 85822 82080=
201903110600 AAXX 11064 67477 12480 70000 10202 20180 48540 60014 84570
                   333 10272 20173 59011 84611 85459
                   555 00180=
201903071200 AAXX 07124 67477 41980 80000 10203 20170 48/// 72122 8807/
                   333 5//// 88462=
201903070900 AAXX 07094 67477 41570 83302 10199 20199 48524 76066 8257/
                   333 59017 82620 87460=
201903060900 AAXX 06094 67477 NIL=
201903060600 AAXX 06064 67477 12480 60000 10196 20170 48543 60014 82571
                   333 10276 20166 58024 82610 85459 82080
                   555 00172=
201903041200 AAXX 04124 67477 41680 50902 10280 20190 48505 71799 81931
                   333 59005 81930 83830 82364 81080=
201903040900 AAXX 04094 67477 72580 50000 10256 20190 48525 83231
                   333 59012 83820 82361 82080=
201903040600 AAXX 04064 67477 12980 61202 10199 20170 48532 69904 84031
                   333 10283 20153 84359 84080
                   555 00162=
201903011200 AAXX 01124 67477 41680 41502 10285 20180 48507 71799 83202
                   333 58002 81943 83843 82080=
201903010600 AAXX 01064 67477 32480 21209 10219 20190 48529 81101
                   333 10292 20167 58008 81815 82080
                   555 00170=

################################################################################
#  SYNOPS from 67481, Isoka (Zambia) | 10-07S | 032-38E | 1360 m
################################################################################
201903291200 AAXX 29124 67481 NIL=
201903290600 AAXX 29064 67481 32480 72002 10198 20174 48/// 875//
                   333 10278 20188 5//// 87610
                   555 00///=
201903280600 AAXX 28064 67481 32480 73004 10198 20177 48/// 875//
                   333 10276 20168 5//// 87610
                   555 00///=
201903250900 AAXX 25094 67481 42580 73002 10232 20185 48/// 875//
                   333 5//// 87620=
201903250600 AAXX 25064 67481 11370 83002 10187 20183 48/// 69904 75022 887//
                   333 10280 20182 5//// 88706=
201903221200 AAXX 22124 67481 NIL=
201903220600 AAXX 22064 67481 12980 12702 10214 20192 48/// 69904 80001
                   333 10300 20175 5//// 81080=
201903210900 AAXX 21094 67481 NIL=
201903210600 AAXX 21064 67481 12480 52302 10214 20201 48/// 60074 81130
                   333 10290 20175 5//// 81810 85360=
201903201200 AAXX 20124 67481 NIL=
201903200600 AAXX 20064 67481 12980 03002 10227 20200 48/// 69904
                   333 10302 20178 5////=
201903190600 AAXX 19064 67481 12480 60000 10201 20176 48/// 60144 81131
                   333 10300 20172 5//// 81810 82360 86080=
201903180600 AAXX 18064 67481 12980 63002 10222 20194 48/// 69904 83031
                   333 10291 20187 5//// 83360 86080=
201903140900 AAXX 14094 67481 NIL=
201903140600 AAXX 14064 67481 12480 70000 10204 20186 48/// 60014 8357/
                   333 10260 20168 5//// 83610 87460=
201903131200 AAXX 13124 67481 NIL=
201903110600 AAXX 11064 67481 12380 80301 10200 20186 48/// 69904 886//
                   333 10271 20179 5//// 88708=
201903070900 AAXX 07094 67481 NIL=
201903060900 AAXX 06094 67481 42580 80602 10242 20172 48/// 81137
                   333 5//// 81820 83361 88280=
201903060600 AAXX 06064 67481 12480 80301 10200 20172 48/// 60174 81537
                   333 10280 20168 5//// 81610 82360 88280=
201903040600 AAXX 04064 67481 12480 71802 10206 20183 48/// 60054 8157/
                   333 10250 20180 5//// 81610 87460=
201903010600 AAXX 01064 67481 32980 52002 10202 20176 48/// 83031
                   333 10300 20172 5//// 83360=

################################################################################
#  SYNOPS from 67531, Zambezi (Zambia) | 13-32S | 023-07E | 1077 m
################################################################################
201903291200 AAXX 29124 67531 NIL=
201903280600 AAXX 28064 67531 32980 10902 10210 20177 48/// 80001
                   333 10326 20154 58003 81080
                   555 00150 20990=
201903250900 AAXX 25094 67531 42780 20902 10290 20194 48/// 81101
                   333 58003 81850 81081=
201903250600 AAXX 25064 67531 32980 20000 10209 20184 48/// 82030
                   333 10304 20155 58002 82362
                   555 00162=
201903221200 AAXX 22124 67531 NIL=
201903220600 AAXX 22064 67531 NIL=
201903210900 AAXX 21094 67531 NIL=
201903210600 AAXX 21064 67531 11980 70000 10192 20168 48/// 60054 72998 8707/
                   333 10316 20155 58011 87460=
201903201200 AAXX 20124 67531 42980 61204 10288 20210 48/// 86070
                   333 58004 86362=
201903200600 AAXX 20064 67531 12980 70301 10200 20185 48/// 60034 8707/
                   333 10336 20167 59009 87361
                   555 00190=
201903190600 AAXX 19064 67531 12980 22705 10213 20194 48/// 60014 82030
                   333 10319 20162 59027 82362
                   555 00182=
201903181200 AAXX 18124 67531 42980 32706 10270 20185 48/// 80001
                   333 58015 83080=
201903180600 AAXX 18064 67531 11370 81201 10184 20172 48/// 60024 79596 8477/
                   333 10234 20166 58018 84706 88460=
201903150600 AAXX 15064 67531 32980 20000 10216 20200 48/// 81031
                   333 10312 20150 59011 81361 82081=
201903140900 AAXX 14094 67531 42580 53104 10262 20198 48/// 83130
                   333 59012 83828 83362=
201903140600 AAXX 14064 67531 32980 51003 10200 20194 48/// 85030
                   333 10300 20180 59004 85362
                   555 00199=
201903131200 AAXX 13124 67531 NIL=
201903130900 AAXX 13094 67531 42580 63606 10257 20209 48/// 8423/
                   333 5//// 84820 83362=
201903110600 AAXX 11064 67531 12480 40000 10215 20201 48/// 60034 81132
                   333 10298 20149 59002 81810 82361 83081
                   555 00173=
201903071200 AAXX 07124 67531 41680 40000 10280 20188 48/// 82102
                   333 59032 82839 83081=
201903070900 AAXX 07094 67531 41380 72702 10234 20193 48/// 79196 8177/
                   333 59027 81708 87460=
201903070600 AAXX 07064 67531 11680 70000 10204 20195 48/// 69914 71799 8197/
                   333 10296 20165 59021 81942 87460
                   555 00190=
201903061200 AAXX 06124 67531 41680 70000 10273 20193 48/// 83107
                   333 58032 83833 87281=
201903060900 AAXX 06094 67531 41480 80000 10226 20200 48/// 8557/
                   333 58039 85612 88460=
201903060600 AAXX 06064 67531 12980 70000 10205 20198 48/// 60064 76066 8707/
                   333 10346 20173 58038 87460
                   555 00203=
201903041200 AAXX 04124 67531 42780 33105 10327 20180 48/// 83100
                   333 5//// 83857=
201903040900 AAXX 04094 67531 42980 23305 10292 20199 48/// 80001
                   333 5//// 82081=
201903040600 AAXX 04064 67531 32980 23602 10206 20182 48/// 81031
                   333 10322 20160 59014 81362 82080=
201903010600 AAXX 01064 67531 32980 60803 10200 20181 48/// 8607/
                   333 10340 20166 58016 86362
                   555 001832=

################################################################################
#  SYNOPS from 67541, Kasempa (Zambia) | 13-32S | 025-51E | 1234 m
################################################################################
201903291200 AAXX 29124 67541 NIL=
201903290600 AAXX 29064 67541 32980 20000 10190 20178 48/// 80002
                   333 10310 20140 5//// 82080
                   555 00///=
201903280600 AAXX 28064 67541 32980 20000 10205 20174 48/// 80002
                   333 10314 20140 5//// 82080
                   555 00///=
201903270900 AAXX 27094 67541 42580 60000 10275 20198 48/// 83232
                   333 5//// 83829 81360 82080=
201903270600 AAXX 27064 67541 32980 60000 10200 20185 48/// 80002
                   333 10310 20152 5//// 86080
                   555 00///=
201903260600 AAXX 26064 67541 12980 70000 10195 20188 48/// 8703/
                   333 10312 20162 5//// 87360
                   555 00/// 20000=
201903250900 AAXX 25094 67541 42580 70000 10270 20205 48/// 83825
                   333 87360=
201903221200 AAXX 22124 67541 42780 11103 10315 20182 48/// 81100
                   333 5//// 81856=
201903220600 AAXX 22064 67541 32980 30000 10190 20174 48/// 80003
                   333 10320 20148 5//// 83080=
201903210900 AAXX 21094 67541 42980 20000 10270 20197 48/// 82030
                   333 5//// 82360=
201903210600 AAXX 21064 67541 32980 70000 10195 20181 48/// 87030
                   333 10324 20162 5//// 87360=
201903201200 AAXX 20124 67541 NIL=
201903190600 AAXX 19064 67541 NIL=
201903180600 AAXX 18064 67541 12980 70000 10195 20183 48/// 60044 87030
                   333 10308 20170 5//// 87360=
201903150600 AAXX 15064 67541 32980 40000 10190 20182 48/// 80004
                   333 10300 20160 5//// 84080=
201903140900 AAXX 14094 67541 42980 70000 10260 20181 48/// 87030
                   333 5//// 87360=
201903140600 AAXX 14064 67541 12980 70000 10195 20188 48/// 60014 8703/
                   333 10280 20170 5//// 87360=
201903131200 AAXX 13124 67541 42580 60403 10265 20200 48/// 86200
                   333 5//// 83825=
201903130900 AAXX 13094 67541 42480 70000 10245 20201 48/// 8423/
                   333 5//// 87360=
201903110900 AAXX 11094 67541 42580 30203 10265 20200 48/// 83200
                   333 5//// 83825=
201903070900 AAXX 07094 67541 42980 70000 10240 20196 48/// 87030
                   333 5//// 87360=
201903060900 AAXX 06094 67541 42980 70000 10210 20195 48/// 8703/
                   333 5//// 87360=
201903060600 AAXX 06064 67541 12980 70000 10170 20170 48/// 60294 8703/
                   333 10318 20160 5//// 87360=
201903041200 AAXX 04124 67541 42680 60000 10295 20201 48/// 83203
                   333 5//// 83840 83080=
201903040900 AAXX 04094 67541 42980 50000 10290 20203 48/// 80005
                   333 5//// 85080=
201903040600 AAXX 04064 67541 32980 50000 10185 20177 48/// 80005
                   333 10316 20146 5//// 85080=
201903010600 AAXX 01064 67541 32980 60000 10190 20182 48/// 80006
                   333 10330 20170 5//// 86080=

################################################################################
#  SYNOPS from 67543, Kabompo (Zambia) | 13-36S | 024-12E | 1075 m
################################################################################
201903291200 AAXX 29124 67543 NIL=
201903290600 AAXX 29064 67543 32980 60000 10198 20168 48/// 80002
                   333 10324 20154 59018 86280
                   555 00///=
201903280600 AAXX 28064 67543 32980 20000 10196 20163 48/// 80001
                   333 10330 20152 59004 82080
                   555 00/// 20998=
201903270600 AAXX 27064 67543 11975 70000 10190 20182 48/// 69984 72844 87030
                   333 10328 20172 58022 87360
                   555 00///=
201903261200 AAXX 26124 67543 42683 70000 10298 20182 48/// 85230
                   333 58002 85835 83362=
201903260600 AAXX 26064 67543 32980 60000 10200 20181 48/// 85031
                   333 10324 20166 58001 85361 82080
                   555 00///=
201903250900 AAXX 25094 67543 42580 70000 10282 20188 48/// 84205
                   333 5//// 84825 86280=
201903221200 AAXX 22124 67543 42683 20000 10332 20156 48/// 82100
                   333 59008 82835=
201903220600 AAXX 22064 67543 32980 00000 10220 20197 48///
                   333 10330 20176 59005=
201903210900 AAXX 21094 67543 42980 70000 10264 20180 48/// 83037
                   333 58015 83362 86280=
201903210600 AAXX 21064 67543 32980 70000 10210 20173 48/// 80007
                   333 10330 20172 58013 87280=
201903201200 AAXX 20124 67543 42683 40000 10314 20192 48/// 83231
                   333 59004 83835 81362 82085=
201903200600 AAXX 20064 67543 12980 70000 10204 20191 48/// 60084 87030
                   333 10338 20188 59005 87361=
201903190600 AAXX 19064 67543 32980 40000 10192 20183 48/// 83035
                   333 10320 20176 59014 83361 84280=
201903180600 AAXX 18064 67543 32980 72702 10216 20173 48/// 8707/
                   333 10320 20182 58004 87260=
201903140900 AAXX 14094 67543 42582 60000 10268 20190 48/// 84230
                   333 59015 84820 84361=
201903140600 AAXX 14064 67543 11340 80000 10194 20189 48/// 69944 74244 886//
                   333 10312 20186 59009 88707=
201903131200 AAXX 13124 67543 42683 73005 10244 20171 48/// 8533/
                   333 5//// 81930 85830 87362=
201903130900 AAXX 13094 67543 42583 70000 10264 20194 48/// 878//
                   333 5//// 87820=
201903110600 AAXX 11064 67543 12383 40000 10218 20204 48/// 69934 82635
                   333 10306 20196 59005 82707 82361 83280=
201903071200 AAXX 07124 67543 42683 63301 10274 20189 48/// 83330
                   333 59023 81930 83830 85362=
201903070900 AAXX 07094 67543 42580 70000 10240 20189 48/// 8427/
                   333 59025 84820 87461=
201903060900 AAXX 06094 67543 42583 70000 10248 20187 48/// 8213/
                   333 58039 82825 87361=
201903060600 AAXX 06064 67543 12380 70902 10196 20181 48/// 60044 8563/
                   333 10336 20180 5//// 85707 87360=
201903041200 AAXX 04124 67543 42680 60000 10322 20178 48/// 85305
                   333 5//// 81935 85835 83285=
201903040900 AAXX 04094 67543 42980 60000 10294 20173 48/// 82037
                   333 5//// 82362 85285=
201903040600 AAXX 04064 67543 32980 70000 10192 20179 48/// 80007
                   333 10320 20168 5//// 87280=
201903010600 AAXX 01064 67543 12980 70000 10208 20190 48/// 60044 84037
                   333 10338 20192 5//// 84360 86280=

################################################################################
#  SYNOPS from 67551, Solwezi (Zambia) | 12-11S | 026-23E | 1386 m
################################################################################
201903291200 AAXX 29124 67551 NIL=
201903280600 AAXX 28064 67551 12980 11305 10200 20162 48546 60024 81030
                   333 10274 20161 59001 81362
                   555 00/// 20008 91023=
201903261200 AAXX 26124 67551 41680 70906 10268 20194 48510 71799 81930
                   333 58006 81930 84830 84362 91018=
201903260600 AAXX 26064 67551 11975 70000 10194 20178 48518 60094 74044 87030
                   333 10274 20160 58004 87362
                   555 00/// 20005 91020=
201903221200 AAXX 22124 67551 NIL=
201903220600 AAXX 22064 67551 32980 00000 10172 20162 48515
                   333 10304 20149 58001 91019=
201903210900 AAXX 21094 67551 NIL=
201903201200 AAXX 20124 67551 42680 4//// 10296 20152 48477 81900
                   333 59005 81945 84845 91014=
201903200600 AAXX 20064 67551 32980 60000 10//0 20165 48512 86030
                   333 10299 20148 59002 86362 91018=
201903190600 AAXX 19064 67551 12980 60000 10188 20182 48514 86030
                   333 10218 20150 59005 86362 91018=
201903180600 AAXX 18064 67551 12975 73503 10187 20179 48519 60104 86030
                   333 10274 20164 59003 86362 91019=
201903150600 AAXX 15064 67551 32975 50203 10180 20171 48514 85030
                   333 10291 20160 59014 85362 91018=
201903140900 AAXX 14094 67551 42580 50000 10248 20175 48527 82230
                   333 59009 82820 83362 91020=
201903140600 AAXX 14064 67551 12980 60000 10189 20172 48528 86030
                   333 10254 20159 59005 86362 91020=
201903131200 AAXX 13124 67551 41580 71805 10233 20205 48508 79928 81930
                   333 58002 81920 83820 87360 91018=
201903130900 AAXX 13094 67551 42480 71805 10209 20194 48532 83530
                   333 58004 83610 87360 91021=
201903070900 AAXX 07094 67551 NIL=
201903060900 AAXX 06094 67551 NIL=
201903060600 AAXX 06064 67551 12980 83503 10176 20172 48539 60054 8807/
                   333 10295 20169 58021 88362 91021=
201903050600 AAXX 05064 67551 32980 72805 10211 20171 48515 80007
                   333 10295 20158 59006 87280 91019=
201903011200 AAXX 01124 67551 41680 71805 10273 20178 48503 79592
                   333 58006 81935 85835 82080 91018=

################################################################################
#  SYNOPS from 67561, Ndola (Zambia) | 13-00S | 028-39E | 1269 m
################################################################################
201903291200 AAXX 29124 67561 NIL=
201903270600 AAXX 27064 67561 11970 61307 10210 20186 48558 69904 70522 83068
                   333 10306 20//0 58021 83360 86280
                   555 00/// 91024=
201903260600 AAXX 26064 67561 11959 70000 10200 20193 48527 69904 70422 86031
                   333 10287 20//0 58005 87360 81080
                   555 00/// 20012 91020=
201903221200 AAXX 22124 67561 NIL=
201903220600 AAXX 22064 67561 31957 10000 10206 20187 48516 74240 80001
                   333 10298 20104 58002 81080 91019=
201903210900 AAXX 21094 67561 NIL=
201903201200 AAXX 20124 67561 NIL=
201903190600 AAXX 19064 67561 31959 70804 10186 20174 48513 70422 8703/
                   333 10295 20158 59003 87360 91018=
201903180600 AAXX 18064 67561 11960 79902 10200 20185 48517 60054 8703/
                   333 10//0 20178 58001 87360=
201903150600 AAXX 15064 67561 31959 70000 10207 20187 48517 70422 80008
                   333 10299 20171 59015 87280 91019=
201903140900 AAXX 14094 67561 42580 30405 10261 20176 48529 81132
                   333 59013 81825 82360 83080 91020=
201903140600 AAXX 14064 67561 11375 50304 10194 20173 48531 60014 70522 81632
                   333 10290 20170 59009 81706 85360 82080 91020=
201903131200 AAXX 13124 67561 NIL=
201903130600 AAXX 13064 67561 11460 70604 10202 20188 48540 60014 70522 85530
                   333 10285 20178 58010 85615 87360=
201903110600 AAXX 11064 67561 11210 80906 10185 20182 48526 60014 74442 886//
                   333 10293 20175 59006 88702 91020=
201903070900 AAXX 07094 67561 NIL=
201903060900 AAXX 06094 67561 NIL=
201903060600 AAXX 06064 67561 11258 70000 10205 20183 48547 69904 70422 84538
                   333 10/// 20173 58031 84610 85360 87280 91022=
201903040600 AAXX 04064 67561 31158 60000 10185 20183 48522 74244 81738
                   333 10295 20159 59005 82702 83360 86280 91020=
201903010600 AAXX 01064 67561 11959 70000 10223 20188 48527 69904 70422 81038
                   333 10308 20182 58013 81360 87280 91020=

################################################################################
#  SYNOPS from 67563, Kafironda (Zambia) | 12-36S | 028-07E | 1243 m
################################################################################
201903291200 AAXX 29124 67563 NIL=
201903260600 AAXX 26064 67563 11878 61202 10210 20195 48/// 60044 70522 86030
                   333 10301 20176 58008 86360
                   555 00170=
201903250600 AAXX 25064 67563 11378 30702 10216 20190 48/// 60014 70500 81670
                   333 10289 20172 59004 81708 83359
                   555 00166=
201903221200 AAXX 22124 67563 NIL=
201903220600 AAXX 22064 67563 31978 10902 10215 20193 48/// 74042 80002
                   333 10322 20152 58000 81080
                   555 00152=
201903210900 AAXX 21094 67563 NIL=
201903201200 AAXX 20124 67563 NIL=
201903200600 AAXX 20064 67563 31378 42302 10190 20182 48/// 70500 82602
                   333 10320 20157 59010 82608 82080
                   555 00156=
201903190600 AAXX 19064 67563 11878 73202 10200 20185 48/// 60114 70522 87070
                   333 10295 20170 59002 87458
                   555 00160=
201903180600 AAXX 18064 67563 11978 72801 10198 20190 48/// 60094 70522 87070
                   333 10284 20174 59006 87359
                   555 00170=
201903140900 AAXX 14094 67563 NIL=
201903140600 AAXX 14064 67563 11878 60703 10205 20174 48/// 60044 70522 86070
                   333 10295 20175 58010 86360
                   555 00174=
201903131200 AAXX 13124 67563 NIL=
201903130600 AAXX 13064 67563 11780 70000 10200 20177 48/// 60054 76062 87070
                   333 10270 20185 58012 87458
                   555 00179=
201903110600 AAXX 11064 67563 11978 70802 10201 20190 48/// 60444 70562 87070
                   333 10294 20177 59003 87359
                   555 00178=
201903070900 AAXX 07094 67563 NIL=
201903070600 AAXX 07064 67563 11378 70000 10200 20185 48/// 60264 70522 81630
                   333 10300 20170 59025 81608 86360
                   555 00165=
201903060900 AAXX 06094 67563 NIL=
201903040600 AAXX 04064 67563 31978 33503 10207 20190 48/// 70500 80001
                   333 10303 20154 59007 83080
                   555 00153=
201903010600 AAXX 01064 67563 11978 70000 10210 20195 48/// 60014 70522 80008
                   333 10320 20185 58014 87270
                   555 00185=

################################################################################
#  SYNOPS from 67571, Serenje (Zambia) | 13-14S | 030-13E | 1384 m
################################################################################
201903291200 AAXX 29124 67571 42682 11805 10267 20125 48///
                   333 5//// 81840=
201903290600 AAXX 29064 67571 32982 00902 10200 20150 48///
                   333 10267 20130 5////
                   555 00///=
201903280600 AAXX 28064 67571 32582 71806 10191 20167 48/// 875//
                   333 10279 20147 5//// 87620
                   555 00///=
201903270600 AAXX 27064 67571 32482 71206 10200 20175 48/// 875//
                   333 10298 20180 5//// 87618
                   555 00///=
201903260600 AAXX 26064 67571 12982 20000 10200 20185 48/// 69904 81031
                   333 10282 20156 5//// 81360 81080
                   555 00/// 20990=
201903250600 AAXX 25064 67571 12482 71203 10203 20178 48/// 69904 86531
                   333 10262 20173 5//// 86618 81360 84080=
201903221200 AAXX 22124 67571 42682 51505 10278 20179 48/// 85201
                   333 5//// 81945 85845 81080=
201903220600 AAXX 22064 67571 12582 70903 10218 20194 48/// 69904 875//
                   333 10293 20165 5//// 87620=
201903210900 AAXX 21094 67571 42682 50302 10255 20180 48/// 85230
                   333 5//// 81935 85835 81360=
201903210600 AAXX 21064 67571 12982 12703 10200 20169 48/// 60204 81030
                   333 10295 20151 5//// 81360=
201903201200 AAXX 20124 67571 41670 70906 10262 20176 48/// 78198 872//
                   333 5//// 81945 87845=
201903200600 AAXX 20064 67571 12982 10000 10216 20189 48/// 69914 80001
                   333 10296 20144 5//// 81080=
201903190600 AAXX 19064 67571 12270 70000 10189 20176 48/// 69904 8167/
                   333 10286 20174 5//// 81703 87460=
201903181200 AAXX 18124 67571 42682 72703 10276 20175 48/// 83238
                   333 5//// 81936 83836 81360 87280=
201903180600 AAXX 18064 67571 12982 70000 10187 20173 48/// 60084 8707/
                   333 10272 20174 5//// 87460=
201903150600 AAXX 15064 67571 32982 70000 10204 20186 48/// 81038
                   333 10298 20157 5//// 81360 87280=
201903140900 AAXX 14094 67571 42682 70000 10255 20154 48/// 81138
                   333 5//// 81830 81360 87280=
201903140600 AAXX 14064 67571 32982 70602 10186 20164 48/// 81038
                   333 10282 20144 5//// 81360 87280=
201903131200 AAXX 13124 67571 42682 51505 10271 20164 48/// 85200
                   333 5//// 81940 85840=
201903130900 AAXX 13094 67571 42682 71203 10243 20169 48/// 872//
                   333 5//// 81930 87830=
201903110600 AAXX 11064 67571 12480 81503 10200 20184 48/// 60024 885//
                   333 10271 20180 5//// 88615=
201903071200 AAXX 07124 67571 41477 83303 10199 20188 48/// 76166 885//
                   333 5//// 88615 8/9//=
201903070900 AAXX 07094 67571 41378 82702 10191 20185 48/// 72162 887//
                   333 5//// 88708 8/9//=
201903060900 AAXX 06094 67571 42582 70902 10240 20179 48/// 875//
                   333 5//// 87623=
201903060600 AAXX 06064 67571 12482 70000 10195 20175 48/// 69914 8157/
                   333 10288 20171 5//// 81618 87360=
201903041200 AAXX 04124 67571 42682 52703 10279 20159 48/// 85201
                   333 5//// 81945 85845 81080=
201903040900 AAXX 04094 67571 42682 33002 10262 20167 48/// 82201
                   333 5//// 82840 82080=
201903040600 AAXX 04064 67571 32982 70000 10211 20176 48/// 80008
                   333 10283 20146 5//// 87280=
201903010600 AAXX 01064 67571 32982 71502 10234 20187 48553 81908
                   333 10301 20178 5//// 87280 8/9//=

################################################################################
#  SYNOPS from 67575, Mkushi (Zambia) | 13-38-00S | 029-26-00E | 1237 m
################################################################################
201903291200 AAXX 29124 67575 NIL=
201903280600 AAXX 28064 67575 32480 51205 10206 20178 48519 84501
                   333 10290 20148 59004 84613 82078
                   555 00145=
201903270900 AAXX 27094 67575 42680 61403 10260 20159 48528 81108
                   333 58037 81830 86280=
201903270600 AAXX 27064 67575 32480 60903 10215 20182 48523 83538
                   333 10316 20163 58038 83613 81360 84278
                   555 00163=
201903261200 AAXX 26124 67575 42600 21203 10307 20147 48467 82201
                   333 58000 82837 81080=
201903260600 AAXX 26064 67575 11380 30000 10201 20191 48485 69954 72840 81631
                   333 10300 20145 58000 81706 82360 81078
                   555 00148=
201903250900 AAXX 25094 67575 42680 33601 10264 20185 48488 82201
                   333 5//// 82830 82080=
201903221200 AAXX 22124 67575 42680 31202 10284 20163 48460 83201
                   333 58006 83838 81080=
201903220600 AAXX 22064 67575 32480 10000 10196 20187 48473 81101
                   333 10312 20145 58000 81815 81080
                   555 00148=
201903210900 AAXX 21094 67575 42680 22701 10280 20183 48483 82232
                   333 58018 82830 81362 81080=
201903210600 AAXX 21064 67575 32980 23001 10208 20186 48475 81032
                   333 10324 20160 58011 81360 82078
                   555 00164=
201903201200 AAXX 20124 67575 NIL=
201903200600 AAXX 20064 67575 32980 23601 10200 20185 48461 80001
                   333 10315 20146 59011 82078
                   555 00154=
201903190600 AAXX 19064 67575 12980 70901 10188 20176 48471 69914 82078
                   333 10299 20145 59003 82360 86278
                   555 00150=
201903181200 AAXX 18124 67575 42680 62703 10286 20171 48452 82278
                   333 5//// 82838 81363 84280=
201903180600 AAXX 18064 67575 12780 53603 10211 20195 48476 60104 81471
                   333 10296 20170 59004 81656 84360 82078
                   555 00178=
201903150600 AAXX 15064 67575 32480 60302 10203 20183 48477 81138
                   333 10315 20147 59013 81815 81360 86278=
201903140900 AAXX 14094 67575 42680 33601 10270 20162 48485 81131
                   333 59016 81830 81361 83080=
201903140600 AAXX 14064 67575 32980 43601 10186 20167 48488 81038
                   333 10291 20141 59012 81360 84278
                   555 00143=
201903131200 AAXX 13124 67575 42780 41202 10276 20160 48476 84200
                   333 5//// 84850=
201903130900 AAXX 13094 67575 42680 30901 10265 20158 48501 83200
                   333 5//// 83833=
201903110900 AAXX 11094 67575 42680 50905 10245 20185 48493 84271
                   333 5//// 84830 82361 81080=
201903071200 AAXX 07124 67575 41430 70901 10210 20195 48451 76162 82570
                   333 59014 82615 86460=
201903070900 AAXX 07094 67575 42480 72701 10225 20186 48479 85570
                   333 85619 83460=
201903060900 AAXX 06094 67575 41680 73301 10232 20195 48493 82278
                   333 58029 82830 81362 86280=
201903060600 AAXX 06064 67575 11260 82201 10190 20184 48502 69944 76162 8177/
                   333 10315 20160 58030 81704 88460
                   555 00167=
201903041200 AAXX 04124 67575 42680 21802 10311 20148 48451 82201
                   333 5//// 82838 81080=
201903040900 AAXX 04094 67575 42680 63601 10278 20174 48478 81208
                   333 5//// 81832 86280=
201903040600 AAXX 04064 67575 32480 70901 10187 20168 48473 81138
                   333 10315 20190 59008 81815 81360 87280
                   555 00147=
201903010600 AAXX 01064 67575 32980 50902 10233 20193 48487 80008
                   333 10310 20164 58015 85280
                   555 00165=

################################################################################
#  SYNOPS from 67580, Msekera (Zambia) | 13-39S | 032-34E | 1025 m
################################################################################
201903291200 AAXX 29124 67580 NIL=
201903290600 AAXX 29064 67580 32980 01202 10207 20172 48///
                   333 10294 20164 59029
                   555 00///=
201903280600 AAXX 28064 67580 32680 71504 10219 20185 48/// 87800
                   333 10309 20179 58008 83830 85632
                   555 00///=
201903270600 AAXX 27064 67580 32980 21502 10219 20185 48/// 80001
                   333 10340 20183 58026 82080
                   555 00/// 20028=
201903261200 AAXX 26124 67580 42880 73602 10327 20227 48/// 87200
                   333 59004 87857=
201903260600 AAXX 26064 67580 12980 20000 10235 20206 48/// 60284 80001
                   333 10290 20176 58004 82080
                   555 00/// 20013=
201903250900 AAXX 25094 67580 42680 71503 10274 20199 48/// 87201
                   333 5//// 87848 81080=
201903221200 AAXX 22124 67580 NIL=
201903220600 AAXX 22064 67580 12680 71203 10234 20206 48/// 60034 82831
                   333 10337 20200 58006 82832 81634 86360 82080=
201903210900 AAXX 21094 67580 42780 63002 10289 20204 48/// 86201
                   333 58025 86850 81080=
201903210600 AAXX 21064 67580 32680 40000 10227 20207 48/// 82131
                   333 10324 20191 58010 82832 81361 82080=
201903201200 AAXX 20124 67580 NIL=
201903200600 AAXX 20064 67580 32980 40000 10244 20202 48/// 82101
                   333 10//0 20//0 59012 82834 82080=
201903190600 AAXX 19064 67580 12580 73603 10226 20178 48/// 69904 81131
                   333 10332 20200 59003 81828 87360 81080=
201903180600 AAXX 18064 67580 12980 70000 10232 20193 48/// 60044 85031
                   333 10322 20199 59014 85360 83080=
201903150600 AAXX 15064 67580 32980 50303 10238 20196 48/// 80001
                   333 10324 20189 59019 85080=
201903140900 AAXX 14094 67580 42780 73302 10278 20184 48/// 84101
                   333 59017 84850 84080=
201903140600 AAXX 14064 67580 32980 70000 10216 20185 48/// 80001
                   333 10310 20166 59012 87080=
201903131200 AAXX 13124 67580 NIL=
201903130900 AAXX 13094 67580 42680 21502 10270 20156 48/// 81131
                   333 5//// 81846 81361 81080=
201903110900 AAXX 11094 67580 42680 31503 10260 20168 48/// 81131
                   333 5//// 81840 81361 82080=
201903110600 AAXX 11064 67580 12980 51204 10227 20176 48/// 60104 85030
                   333 10315 20193 59006 85360=
201903070900 AAXX 07094 67580 NIL=
201903070600 AAXX 07064 67580 11480 82703 10188 20185 48/// 60174 76166 8167/
                   333 10268 20181 5//// 81710 88460=
201903060900 AAXX 06094 67580 42680 72704 10246 20190 48/// 878//
                   333 58020 85840 87645=
201903060600 AAXX 06064 67580 11680 82703 10208 20190 48/// 69904 875//
                   333 10322 20192 58022 87630=
201903050600 AAXX 05064 67580 12980 70000 10236 20201 48/// 60084 81038
                   333 10332 20185 59010 81362 87280=
201903041200 AAXX 04124 67580 41880 72702 10309 20196 48/// 71722 81908
                   333 5//// 81957 87857 84280=
201903040600 AAXX 04064 67580 32980 30602 10240 20209 48/// 81031
                   333 10317 20183 5//// 81361 82080=
201903010600 AAXX 01064 67580 32980 71503 10245 20204 48/// 80001
                   333 10350 20207 58011 87080=

################################################################################
#  SYNOPS from 67581, Chipata (Zambia) | 13-33S | 032-35E | 1028 m
################################################################################
201903291200 AAXX 29124 67581 NIL=
201903280600 AAXX 28064 67581 32480 21708 10225 20177 48569 82510
                   333 10333 20185 59001 82610
                   555 00/// 20990 91022=
201903270600 AAXX 27064 67581 12980 11208 10235 20162 48572 69904 81031
                   333 10312 20188 59033 81360 81080
                   555 00/// 20021 91023=
201903250600 AAXX 25064 67581 12480 30000 10231 20193 48536 69904 83130
                   333 10290 20188 59001 83810 81360 91018=
201903221200 AAXX 22124 67581 42680 62706 10254 20198 48505 76022 84202
                   333 58005 81942 84842 82080 91015=
201903220600 AAXX 22064 67581 32580 40000 10242 20182 48531 82132
                   333 10310 20152 58006 82826 82360 82080 91018=
201903210900 AAXX 21094 67581 NIL=
201903210600 AAXX 21064 67581 11560 50000 10212 20207 48520 60034 72122 83130
                   333 10300 20146 58008 81925 82825 84360 91018=
201903201200 AAXX 20124 67581 41680 51804 10272 20194 48492 71792 84200
                   333 59034 81945 84845 91013=
201903200600 AAXX 20064 67581 32680 31604 10249 20204 48518 82102
                   333 10299 20142 59013 82830 82080 91016=
201903190900 AAXX 19094 67581 42680 52006 10274 20197 48525 83230
                   333 59006 83840 82360 91017=
201903190600 AAXX 19064 67581 12680 62704 10224 20188 48526 60054 82230
                   333 10302 20154 59003 82830 84360 91018=
201903181200 AAXX 18124 67581 42680 41806 10302 20194 48506 83102
                   333 59009 83845 82080 91014=
201903180600 AAXX 18064 67581 12980 61604 10244 20180 48533 60014 83032
                   333 10302 20158 59013 83360 82080 91018=
201903150600 AAXX 15064 67581 32980 50000 10242 20194 48529 80002
                   333 10305 20186 58018 85080 91018=
201903140900 AAXX 14094 67581 42680 51605 10278 20173 48550 83102
                   333 59016 83835 83080 91018=
201903140600 AAXX 14064 67581 32980 61405 10228 20188 48542 80002
                   333 10306 20204 59012 86280 91019=
201903131200 AAXX 13124 67581 NIL=
201903130600 AAXX 13064 67581 32980 20000 10219 20161 48554 81032
                   333 10293 20160 58005 81360 82080 91021=
201903110600 AAXX 11064 67581 12980 70000 10220 20174 48547 60034 8707/
                   333 10295 20200 59008 87460 91020=
201903070900 AAXX 07094 67581 NIL=
201903061200 AAXX 06124 67581 42680 81004 10236 20182 48520 8427/
                   333 58029 84840 87460 91017=
201903060900 AAXX 06094 67581 NIL=
201903060600 AAXX 06064 67581 11680 82106 10215 20188 48547 75022 8457/
                   333 10285 20194 58025 84630 87480 91020=
201903040600 AAXX 04064 67581 32980 40000 10232 20203 48530 80002
                   333 10308 20185 59006 84080 91018=
201903010600 AAXX 01064 67581 32980 40000 10258 20200 48538 80002
                   333 10310 20162 58010 84080 91018=

################################################################################
#  SYNOPS from 67583, Lundazi (Zambia) | 12-17S | 033-12E | 1143 m
################################################################################
201903291200 AAXX 29124 67583 NIL=
201903290600 AAXX 29064 67583 32980 70000 10198 20178 48/// 80008
                   333 10304 20//0 87280
                   555 00///=
201903260600 AAXX 26064 67583 32980 70000 10210 20203 48/// 8703/
                   333 10304 20//0 5//// 87359
                   555 00/// 20004=
201903250600 AAXX 25064 67583 12480 61802 10218 20198 48/// 60044 84631
                   333 10308 2//// 5//// 84710 81359 81080=
201903221200 AAXX 22124 67583 NIL=
201903220600 AAXX 22064 67583 32980 73602 10230 20208 48/// 81037
                   333 10326 2//// 5//// 81360 87280=
201903210900 AAXX 21094 67583 42680 50000 10300 20190 48/// 84132
                   333 5//// 81835 81360 83080=
201903210600 AAXX 21064 67583 32980 50000 10226 20195 48/// 81038
                   333 10318 2//// 5//// 81360 85280=
201903201200 AAXX 20124 67583 NIL=
201903200600 AAXX 20064 67583 32980 30000 10238 20196 48/// 81032
                   333 10290 20//0 5//// 81360 83080=
201903190600 AAXX 19064 67583 12980 73602 10214 20194 48/// 83037
                   333 10322 20//0 5//// 83360 87280=
201903180600 AAXX 18064 67583 12980 70000 10224 20202 48/// 69904 86032
                   333 10326 20//0 5//// 86360 81080=
201903140900 AAXX 14094 67583 NIL=
201903140600 AAXX 14064 67583 32480 60000 10206 20190 48/// 81631
                   333 10310 20//0 5//// 81710 84359 81080=
201903131200 AAXX 13124 67583 NIL=
201903071200 AAXX 07124 67583 41670 82605 10226 20192 48/// 78082 888//
                   333 5//// 84821 86621=
201903070900 AAXX 07094 67583 41680 72806 10230 20185 48/// 82162
                   333 5//// 82820 83620 81360 85280=
201903060900 AAXX 06094 67583 42680 73502 10234 20189 48/// 85838
                   333 5//// 82830 83630 83360 85280=
201903060600 AAXX 06064 67583 12580 72701 10202 20184 48/// 69904 82537
                   333 10321 20/// 5//// 82645 82360=
201903040600 AAXX 04064 67583 32480 70000 10216 20198 48/// 81208
                   333 10268 20//0 5//// 81812 87280=

################################################################################
#  SYNOPS from 67599, Mfuwe (Zambia) | 13-16S | 031-56E | 568 m
################################################################################
201903291200 AAXX 29124 67599 NIL=
201903260600 AAXX 26064 67599 12980 10000 10230 20197 48541 60214 81032
                   333 10275 20174 58005 81360 81080
                   555 00/// 20990 91019=
201903250600 AAXX 25064 67599 12680 31802 10240 20218 48528 60254 82131
                   333 10347 20198 59003 82830 82360 81080 91016=
201903221200 AAXX 22124 67599 NIL=
201903220600 AAXX 22064 67599 NIL=
201903210900 AAXX 21094 67599 NIL=
201903201200 AAXX 20124 67599 NIL=
201903200600 AAXX 20064 67599 32680 30901 10247 20211 48506 82101
                   333 10356 20190 59012 82830 83080
                   555 00206 91013=
201903190600 AAXX 19064 67599 12580 60903 10241 20212 48515 60054 82531
                   333 10357 20200 59009 82620 86360 82080
                   555 00225 91015=
201903180600 AAXX 18064 67599 12980 70000 10240 20217 48528 60024 8707/
                   333 10333 20200 59005 87459 91016=
201903140900 AAXX 14094 67599 NIL=
201903140600 AAXX 14064 67599 32980 60000 10220 20196 48530 81031
                   333 10335 20180 59013 81360 85080
                   555 00205 91018=
201903131200 AAXX 13124 67599 NIL=
201903110900 AAXX 11094 67599 42580 60000 10289 20194 48532 85230
                   333 59009 85825 82359 91017=
201903070900 AAXX 07094 67599 NIL=
201903060900 AAXX 06094 67599 NIL=
201903060600 AAXX 06064 67599 32980 60000 10230 20217 48536 82730
                   333 10364 20205 58028 82706 86358
                   555 00220 91018=
201903040600 AAXX 04064 67599 32980 40000 10258 20226 48524 80002
                   333 10355 20210 59009 84080
                   555 00230 91015=

################################################################################
#  SYNOPS from 67625, Kalabo (Zambia) | 14-51S | 022-42E | 1033 m
################################################################################
201903291200 AAXX 29124 67625 NIL=
201903290600 AAXX 29064 67625 32982 71704 10230 20185 48/// 81033
                   333 10340 20190 5//// 81361 87075
                   555 00///=
201903280600 AAXX 28064 67625 32982 11407 10230 20194 48/// 81040
                   333 10330 20185 58027 81361
                   555 00/// 20990=
201903270900 AAXX 27094 67625 42982 82903 10286 20171 48/// 81084
                   333 5//// 81361 88075=
201903270600 AAXX 27064 67625 12982 81801 10210 20185 48/// 69904 80004
                   333 10347 20183 59021 88075
                   555 00///=
201903261200 AAXX 26124 67625 41682 72004 10305 20188 48/// 72052 83204
                   333 59012 81945 83845 87075=
201903260600 AAXX 26064 67625 32982 73605 10209 20180 48/// 81084
                   333 10339 20180 59005 81360 87075
                   555 00/// 20000=
201903221200 AAXX 22124 67625 NIL=
201903220600 AAXX 22064 67625 NIL=
201903210900 AAXX 21094 67625 42982 33008 10289 20185 48/// 81045
                   333 58017 81361 83275=
201903210600 AAXX 21064 67625 32982 33009 10219 20192 48/// 81035
                   333 10356 20195 58002 81361 83275=
201903201200 AAXX 20124 67625 42882 30609 10345 20163 48/// 82205
                   333 59005 82857 83275=
201903200600 AAXX 20064 67625 32982 32904 10225 20188 48/// 80003
                   333 10345 20196 58001 83075=
201903190600 AAXX 19064 67625 32982 32503 10205 20190 48/// 80005
                   333 10330 20175 59013 83275=
201903181200 AAXX 18124 67625 42682 43303 10295 20175 48/// 81105
                   333 81846 84075=
201903180600 AAXX 18064 67625 11982 73602 10194 20180 48/// 60434 76066 87023
                   333 10345 20180 5//// 87460 87075=
201903150600 AAXX 15064 67625 32982 71802 10220 20184 48/// 80004
                   333 10340 20174 5//// 87075=
201903140900 AAXX 14094 67625 42682 51408 10296 20186 48/// 81144
                   333 59016 81845 81361 85075=
201903140600 AAXX 14064 67625 32982 31704 10225 20196 48/// 81045
                   333 10326 20174 5//// 81360 83275=
201903131200 AAXX 13124 67625 42782 40612 10316 20163 48/// 83205
                   333 5//// 83856 84275=
201903130900 AAXX 13094 67625 42682 40308 10285 20189 48/// 82105
                   333 5//// 81837 84275=
201903110900 AAXX 11094 67625 42682 62004 10300 20181 48/// 81103
                   333 5//// 81846 86075=
201903071200 AAXX 07124 67625 42782 41410 10327 20166 48/// 82105
                   333 5//// 82856 84275=
201903070900 AAXX 07094 67625 41982 63303 10284 20198 48/// 70592 81033
                   333 59030 81361 86075=
201903060900 AAXX 06094 67625 42982 81209 10246 20200 48/// 87073
                   333 58037 87460 87075=
201903060600 AAXX 06064 67625 11982 72403 10200 20200 48/// 60054 72052 86073
                   333 10346 20188 58019 86460 87075=
201903041200 AAXX 04124 67625 42882 73205 10350 20152 48/// 82133
                   333 82857 83361 87075=
201903040900 AAXX 04094 67625 42982 63004 10315 20170 48/// 85033
                   333 5//// 85361 86075=
201903040600 AAXX 04064 67625 32982 53104 10234 20183 48/// 81033
                   333 10345 20195 59009 81361 85075=
201903010600 AAXX 01064 67625 32282 73412 10205 20198 48/// 83634
                   333 10340 20185 58019 83705 83360 87075=

################################################################################
#  SYNOPS from 67633, Mongu (Zambia) | 15-15S | 023-09E | 1052 m
################################################################################
201903291200 AAXX 29124 67633 NIL=
201903290600 AAXX 29064 67633 32980 41802 10236 20184 48529 82038
                   333 10351 20205 59025 82361 84280
                   555 00/// 91019=
201903280600 AAXX 28064 67633 32980 20902 10235 20176 48554 80001
                   333 10337 20189 58007 82080
                   555 00/// 91022=
201903250600 AAXX 25064 67633 32980 40303 10220 20185 48516 83038
                   333 10339 20202 59000 83360 84280 91017=
201903221200 AAXX 22124 67633 NIL=
201903220600 AAXX 22064 67633 32980 00701 10249 20201 48501
                   333 10349 20194 59010 91016=
201903210900 AAXX 21094 67633 NIL=
201903201200 AAXX 20124 67633 NIL=
201903200600 AAXX 20064 67633 32980 23502 1//// 20192 48500 80001
                   333 10352 20198 59004 82080 91016=
201903190600 AAXX 19064 67633 32980 13603 10235 20199 48509 80001
                   333 10335 20194 59021 81080 91016=
201903180600 AAXX 18064 67633 12980 23604 10//0 20196 48524 60094 82031
                   333 10359 20185 58015 82360 81080 91019=
201903150600 AAXX 15064 67633 32980 20000 10235 20195 48520 80001
                   333 10340 20186 59007 82080 91018=
201903140900 AAXX 14094 67633 42680 32802 10280 20212 48532 82131
                   333 59008 82835 82360 81080 91018=
201903140600 AAXX 14064 67633 32980 33602 10225 20196 48526 83030
                   333 10337 20192 59007 83360 91018=
201903131200 AAXX 13124 67633 NIL=
201903130900 AAXX 13094 67633 42680 30905 10291 20200 48541 83100
                   333 58011 83835 91019=
201903110900 AAXX 11094 67633 42680 32603 10302 20207 48535 82101
                   333 59002 82840 81080 91018=
201903110600 AAXX 11064 67633 32980 20201 10238 20201 48519 81031
                   333 10348 20193 59008 81360 81080 91017=
201903071200 AAXX 07124 67633 42780 51804 10316 20203 48503 84232
                   333 59042 84850 82360 82080 91014=
201903070900 AAXX 07094 67633 NIL=
201903060900 AAXX 06094 67633 NIL=
201903060600 AAXX 06064 67633 12980 82702 10210 20197 48536 60174 8807/
                   333 10350 20192 58037 88460 91020=
201903040600 AAXX 04064 67633 12980 23601 10235 20190 48515 69944 81031
                   333 10350 20190 59009 81362 82080 91017=
201903010600 AAXX 01064 67633 12980 52701 10218 20196 48529 69904 80002
                   333 10355 20184 58020 85080 91019=

################################################################################
#  SYNOPS from 67641, Kaoma (Zambia) | 14-48S | 024-48E | 1213 m
################################################################################
201903291200 AAXX 29124 67641 NIL=
201903270600 AAXX 27064 67641 32980 70403 10208 20186 48548 81035
                   333 10342 20181 58035 81361 87280
                   555 00/// 91021=
201903260600 AAXX 26064 67641 32980 20603 10201 20180 48513 80001
                   333 10336 20170 59006 82080
                   555 00/// 91017=
201903250600 AAXX 25064 67641 32980 50402 10202 20181 48519 80008
                   333 10324 20168 58004 85280 91018=
201903221200 AAXX 22124 67641 NIL=
201903220600 AAXX 22064 67641 32980 01001 10223 20203 48500
                   333 10340 20175 59012 91015=
201903210900 AAXX 21094 67641 42980 50203 10270 20187 48519 80001
                   333 58014 85080 91017=
201903201200 AAXX 20124 67641 42680 30000 10335 20181 48494 83200
                   333 59007 83840 91014=
201903200600 AAXX 20064 67641 32980 10602 10209 20187 48494 81031
                   333 10340 20188 59006 81360 81080=
201903190600 AAXX 19064 67641 32980 00000 10210 20188 48500
                   333 10324 20178 59009 91016=
201903180600 AAXX 18064 67641 12980 52506 10215 20190 48509 60114 85030
                   333 10326 20188 58007 85360 91016=
201903140900 AAXX 14094 67641 42580 23203 10270 20187 48523 81130
                   333 59010 81834 82360 91017=
201903140600 AAXX 14064 67641 12580 70000 10201 20192 48521 69914 8153/
                   333 10326 20174 59005 81628 87360 91018=
201903131200 AAXX 13124 67641 42580 61205 10296 20186 48512 86200
                   333 59008 86836 91016=
201903130900 AAXX 13094 67641 42580 40906 10281 20198 48533 84200
                   333 58013 84834 91018=
201903110600 AAXX 11064 67641 32580 00000 10212 20198 48508 81102
                   333 10323 20174 59006 81820 81080 91017=
201903070900 AAXX 07094 67641 NIL=
201903070600 AAXX 07064 67641 12980 31404 10208 20181 48505 60094 81081
                   333 10311 20183 59036 81360 82080 91016=
201903060900 AAXX 06094 67641 NIL=
201903060600 AAXX 06064 67641 12980 71202 10204 20188 48537 60114 87030
                   333 10350 20180 58045 87360 91021=
201903040600 AAXX 04064 67641 32980 43601 10214 20188 48505 83032
                   333 10351 20178 59007 83360 81080 91016=
201903010900 AAXX 01094 67641 42680 61404 10290 20197 48530 81101
                   333 58022 81840 86080 91018=

################################################################################
#  SYNOPS from 67655, Mumbwa (Zambia) | 15-04S | 027-11E | 1216 m
################################################################################
201903291200 AAXX 29124 67655 NIL=
201903221200 AAXX 22124 67655 NIL=
201903220600 AAXX 22064 67655 32980 00606 10237 20174 48516
                   333 1//// 20181 59005 91017=
201903210900 AAXX 21094 67655 NIL=
201903201200 AAXX 20124 67655 NIL=
201903190600 AAXX 19064 67655 NIL=
201903140900 AAXX 14094 67655 NIL=
201903140600 AAXX 14064 67655 NIL=
201903131200 AAXX 13124 67655 NIL=
201903110600 AAXX 11064 67655 32480 30903 10210 20195 48526 82501
                   333 10//0 20170 58003 82610 83080 91019=
201903070900 AAXX 07094 67655 NIL=
201903060900 AAXX 06094 67655 NIL=
201903050600 AAXX 05064 67655 12980 30000 10245 20177 48519 69924 83030
                   333 1//// 2//// 83360 91017=

################################################################################
#  SYNOPS from 67659, Kafue Polder (Zambia) | 15-46S | 027-55E | 978 m
################################################################################
201903291200 AAXX 29124 67659 NIL=
201903280600 AAXX 28064 67659 32480 61407 10231 20189 48/// 84530
                   333 10331 20190 58003 84620 82360
                   555 00///=
201903260600 AAXX 26064 67659 12980 11004 10240 20189 48/// 69904 81030
                   333 10330 20162 59006 81360
                   555 00///=
201903221200 AAXX 22124 67659 NIL=
201903220600 AAXX 22064 67659 32980 00907 10240 2//// 48///
                   333 10360 20170 58004=
201903210900 AAXX 21094 67659 NIL=
201903210600 AAXX 21064 67659 32980 10904 10238 20198 48/// 81030
                   333 10353 20165 58011 81360=
201903201200 AAXX 20124 67659 NIL=
201903200600 AAXX 20064 67659 32980 00904 10250 20196 48///
                   333 10354 20170 59006=
201903190600 AAXX 19064 67659 32980 32703 10225 20//0 48/// 83030
                   333 10354 20172 5//// 83360=
201903180600 AAXX 18064 67659 32980 32704 10//0 20199 48/// 83030
                   333 10320 20190 59003 83360=
201903140900 AAXX 14094 67659 NIL=
201903140600 AAXX 14064 67659 32980 30503 10222 20187 48/// 83030
                   333 10334 20160 59012 83360=
201903131200 AAXX 13124 67659 NIL=
201903130600 AAXX 13064 67659 32980 40804 10224 20183 48/// 84030
                   333 10313 20160 58002 84360=
201903110600 AAXX 11064 67659 32980 3//// 10235 20199 48/// 83030
                   333 10329 20170 58002 83360=
201903070900 AAXX 07094 67659 NIL=
201903070600 AAXX 07064 67659 11970 40805 10235 20204 48/// 60014 84030
                   333 10305 20195 59024 84360=
201903060900 AAXX 06094 67659 NIL=
201903050600 AAXX 05064 67659 12980 11404 10240 20197 48/// 60044 81030
                   333 10347 20180 5//// 81360=
201903040600 AAXX 04064 67659 32980 11204 10232 20193 48/// 81030
                   333 10341 20170 59012 81360=
201903010600 AAXX 01064 67659 12980 41406 10256 20190 48/// 69904 83031
                   333 10347 20180 58017 83360 81080=

################################################################################
#  SYNOPS from 67662, Kabwe Agric (Zambia) | 14-24S | 028-30E | 1165 m
################################################################################
201903291200 AAXX 29124 67662 NIL=
201903280600 AAXX 28064 67662 32480 61804 10212 20182 48/// 86501
                   333 10300 20116 86615 81080
                   555 00///=
201903261200 AAXX 26124 67662 42780 60904 10310 20160 86200
                   333 86856=
201903260600 AAXX 26064 67662 32980 40000 10211 20196 48/// 83031
                   333 10285 20108 83360 81080
                   555 00///=
201903250600 AAXX 25064 67662 32980 70903 10201 20187 48/// 875//
                   333 10293 20120 5//// 87613=
201903221200 AAXX 22124 67662 42680 62802 10285 20173 48/// 86201
                   333 5//// 86848 84080=
201903220600 AAXX 22064 67662 32980 10000 10222 20196 48/// 80001
                   333 10312 20136 5//// 81080=
201903210900 AAXX 21094 67662 42680 60902 10279 20176 48/// 83131
                   333 5//// 83842 82360 83080=
201903210600 AAXX 21064 67662 32980 40000 10209 20180 48/// 82031
                   333 10313 20134 5//// 82360 83080=
201903201200 AAXX 20124 67662 42780 60000 10306 20178 48/// 86201
                   333 5//// 86850 81080=
201903200600 AAXX 20064 67662 32980 20000 10216 20192 48/// 80001
                   333 10315 20126 5//// 82080=
201903190600 AAXX 19064 67662 12980 60000 10210 20181 48/// 60334 86031
                   333 10298 20130 5//// 86360 82080=
201903181200 AAXX 18124 67662 41678 70000 10286 20192 71522 86232
                   333 5//// 86842 81360 82080=
201903180600 AAXX 18064 67662 12980 70000 10207 20187 48/// 60124 8707/
                   333 10311 20122 5//// 87360=
201903150600 AAXX 15064 67662 32980 70000 10234 20188 82032
                   333 10310 20122 5//// 82360 85080=
201903140900 AAXX 14094 67662 42680 40000 10273 20178 48/// 83130
                   333 5//// 83838 81360=
201903140600 AAXX 14064 67662 32480 63602 10199 20178 48/// 81131
                   333 10290 20111 5//// 81811 83360 84080=
201903131200 AAXX 13124 67662 NIL=
201903130600 AAXX 13064 67662 32980 50000 10217 20176 48/// 85030
                   333 10286 20116 5//// 85360=
201903070900 AAXX 07094 67662 NIL=
201903070600 AAXX 07064 67662 12380 70000 10206 20195 48/// 60124 8567/
                   333 10329 20094 85708 87360=
201903060900 AAXX 06094 67662 NIL=
201903060600 AAXX 06064 67662 12980 80000 10201 20187 48/// 60094 8807/
                   333 10330 20122 5//// 88360=
201903040900 AAXX 04094 67662 42680 60000 10272 20178 48/// 82101
                   333 5//// 82838 85080=
201903040600 AAXX 04064 67662 32980 50000 10223 20174 48/// 80001
                   333 10311 20092 5//// 85080=

################################################################################
#  SYNOPS from 67663, Kabwe (Zambia) | 14-27S | 028-28E | 1206 m
################################################################################
201903291200 AAXX 29124 67663 NIL=
201903250600 AAXX 25064 67663 32480 60908 10202 20183 48563 86532
                   333 10282 20168 59003 86618 81360 83080=
201903221200 AAXX 22124 67663 NIL=
201903220600 AAXX 22064 67663 32980 01207 1//// 20191 48545
                   333 10316 20171 59007=
201903210900 AAXX 21094 67663 NIL=
201903210600 AAXX 21064 67663 12980 23006 10211 20173 48511 60044 80002
                   333 10318 20180 58025 82080=
201903201200 AAXX 20124 67663 NIL=
201903190600 AAXX 19064 67663 12980 42705 10218 20166 48534 60064 84032
                   333 10303 20169 59011 84360 81080=
201903180600 AAXX 18064 67663 12980 52603 10208 20183 48543 60274 85030
                   333 10296 20174 59001 85360=
201903150600 AAXX 15064 67663 32980 23607 10202 20176 48558 81032
                   333 10302 20166 59011 81360 83080=
201903140900 AAXX 14094 67663 NIL=
201903140600 AAXX 14064 67663 32980 23607 10202 20176 48558 81032
                   333 10302 20166 59011 81360 83080=
201903131200 AAXX 13124 67663 NIL=
201903130600 AAXX 13064 67663 32980 10705 10208 20178 48545 81032
                   333 10284 20163 58006 81360 81080=
201903110600 AAXX 11064 67663 12580 20807 10218 20190 48563 69904 81532
                   333 10301 20178 58000=
201903070900 AAXX 07094 67663 NIL=
201903070600 AAXX 07064 67663 11580 63303 10212 20186 48537 60154 72162 82538
                   333 10278 20181 59034 82620 83360 85280=
201903060900 AAXX 06094 67663 NIL=
201903060600 AAXX 06064 67663 12980 70205 10201 20179 48571 60124 8707/
                   333 10341 20184 58036 87460=
201903050600 AAXX 05064 67663 12580 2//// 10231 20171 48539 69904 81532
                   333 10326 20179 59002 81620 82360 82080=
201903040600 AAXX 04064 67663 12980 63105 10234 20169 48541 69904 80008
                   333 10320 20188 59051 85280=
201903010600 AAXX 01064 67663 32980 60705 10232 20187 48604 83038
                   333 10322 20180 58016 83360 85280=

################################################################################
#  SYNOPS from 67665, Lusaka Internationalairport (Zambia) | 15-19S | 028-27E | 1152 m
################################################################################
201903310600 AAXX 31064 67665 42980 01111 10195 20145 48548 70200
                   333 10201 20//0 59004 91022=
201903301800 AAXX 30184 67665 42980 01504 10215 20115 48529 70200
                   333 59003 91019=
201903301500 AAXX 30154 67665 42980 01012 10289 20071 48527 70200
                   333 59001 91018=
201903300900 AAXX 30094 67665 42580 30910 10253 20141 48558 70200 83500
                   333 58003 83630=
201903300600 AAXX 30064 67665 32980 01205 10200 20133 48552
                   333 58004=
201903300000 AAXX 30004 67665 42980 01703 10176 20120 48529
                   333 59007=
201903292100 AAXX 29214 67665 42980 01303 10191 20125 48535
                   333 59012=
201903291200 AAXX 29124 67665 NIL=
201903290900 AAXX 29094 67665 42680 31605 10267 20110 48558 70300 83500
                   333 59015 83630=
201903280600 AAXX 28064 67665 32380 61009 10204 20173 48572 70310 86600
                   333 10310 20//0 58001 86708 91025=
201903270600 AAXX 27064 67665 32480 31109 10219 20174 48574 81631
                   333 10329 20//0 58008 81710 82360 81080
                   555 00///=
201903270300 AAXX 27034 67665 42980 21206 10187 20143 48507 70300 82031
                   333 58023 82360 81080=
201903270000 AAXX 27004 67665 42980 01305 10206 20134 48546
                   333 59012=
201903262100 AAXX 26214 67665 42980 01202 10213 20141 48543 70100
                   333 58022=
201903261200 AAXX 26124 67665 42880 41312 10327 20111 48530 70122 84201
                   333 59002 84857 81080 91018=
201903260900 AAXX 26094 67665 42780 20804 10291 20151 48550 70300 82101
                   333 5//// 82850 81080 91021=
201903260600 AAXX 26064 67665 32980 00000 10226 20173 48535
                   333 10297 20//0 59006=
201903251800 AAXX 25184 67665 42980 40503 10239 20164 48521 83032
                   333 10297 59001 83360 82080=
201903251500 AAXX 25154 67665 42680 51005 10283 20163 48509 82102
                   333 59005 82848 83080
                   555 10297=
201903251200 AAXX 25124 67665 42680 40805 10282 20150 48526 82102
                   333 59005 82830 83080=
201903250600 AAXX 25064 67665 32480 71106 10188 20172 48536 70322 86502
                   333 10296 20//0 59008 86612 83080=
201903250300 AAXX 25034 67665 42980 01204 10167 20148 48515 70200
                   333 59011=
201903250000 AAXX 25004 67665 42980 01203 10174 20156 48518 70200
                   333 59003=
201903240900 AAXX 24094 67665 42560 61012 10256 20164 48551 86500
                   333 59003 86625=
201903240300 AAXX 24034 67665 42980 30804 10169 20162 48526 70300 83360
                   333 58003 83360=
201903231800 AAXX 23184 67665 42980 10806 10206 20159 48518 70200 81030
                   333 58006 81360=
201903231500 AAXX 23154 67665 42680 31011 10265 20146 48524 70100 82230
                   333 58016 82848 83360=
201903231200 AAXX 23124 67665 42680 71111 10258 20156 48533 70322 87500
                   333 58016 87638=
201903230900 AAXX 23094 67665 42480 61019 10260 20140 48554 70222 86500
                   333 58017 86615=
201903221200 AAXX 22124 67665 NIL=
201903220900 AAXX 22094 67665 42580 50909 10272 20181 48538 70220 85500
                   333 58008 85622=
201903220600 AAXX 22064 67665 NIL=
201903212100 AAXX 21214 67665 42980 53602 10217 20154 48521 70322 85300
                   333 58013 85360 91018=
201903210900 AAXX 21094 67665 NIL=
201903210600 AAXX 21064 67665 42980 10203 10239 20175 48527 70200 80001
                   333 10337 58015 81080 91019=
201903201500 AAXX 20154 67665 42780 41207 10320 20118 48481 70111 84202
                   333 59005 84850 81080
                   555 10337 91013=
201903201200 AAXX 20124 67665 NIL=
201903200600 AAXX 20064 67665 32980 11403 10237 20184 48512 80001
                   333 10335 59008 81080
                   555 00///=
201903200300 AAXX 20034 67665 42980 12201 10185 20146 48493 80001
                   333 59004 81080=
201903200000 AAXX 20004 67665 42980 12405 10193 20137 48496 80001
                   333 59004 81080=
201903192100 AAXX 19214 67665 42980 10901 10207 20134 48501 81030
                   333 59012 81360=
201903191800 AAXX 19184 67665 42980 21803 10243 20121 48494 70200 81031
                   333 59007 81860 82080 91015=
201903190900 AAXX 19094 67665 42680 41403 10300 20154 48523 70211 81102
                   333 59005 81845 83080 91018=
201903190600 AAXX 19064 67665 NIL=
201903182100 AAXX 18214 67665 41660 60000 10210 20164 48513 71322 81932
                   333 59012 81950 84360 82080=
201903181800 AAXX 18184 67665 41660 60502 10232 20187 48501 71322 81932
                   333 10329 58023 81950 84360 82080=
201903181500 AAXX 18154 67665 41660 72406 10266 20176 48489 72582 84232
                   333 59025 81945 84848 83360 81080
                   555 10329=
201903181200 AAXX 18124 67665 42680 62208 10318 20136 48504 86200
                   333 58005 86838=
201903180900 AAXX 18094 67665 42680 33005 10289 20186 48527 70300 82131
                   333 59004 82835 82360 82080 91018=
201903180600 AAXX 18064 67665 12980 32405 10123 20176 48520 70200 60224 82031
                   333 59004 82360 83030=
201903180300 AAXX 18034 67665 42980 30000 10191 20176 48503 70200 83030
                   333 59006 83360=
201903180000 AAXX 18004 67665 42980 52603 10193 20165 48505 70222 81930
                   333 59004 819// 84360=
201903172100 AAXX 17214 67665 41/80 73205 10215 20182 48526 71722 81932
                   333 58026 819// 86360 82080=
201903171500 AAXX 17154 67665 42680 63311 10237 20158 48490 82232
                   333 58000 82848 85360 85080=
201903171200 AAXX 17124 67665 42680 52109 10313 20141 48498 85200
                   333 59008 85840=
201903170900 AAXX 17094 67665 42680 42607 10290 20170 48531 83131
                   333 59002 83830 81360 81080=
201903161800 AAXX 16184 67665 42780 41505 10234 20184 48507 70222 81931
                   333 59002 81956 84360 82080=
201903161500 AAXX 16154 67665 42780 51908 10277 20154 48495 70122 84231
                   333 59004 84850 82360 81080=
201903161200 AAXX 16124 67665 42680 63303 10288 20156 48504 70222 85231
                   333 59003 85835 83360 81080=
201903151200 AAXX 15124 67665 42680 52107 10319 20105 48510 70222 84102
                   333 59021 84832 82080=
201903150900 AAXX 15094 67665 42580 51304 10290 20140 48533 70222 81102
                   333 59008 81822 84080=
201903150600 AAXX 15064 67665 32980 72102 10223 20160 48525 70211 80008
                   333 10318 20//0 59003 87280=
201903140900 AAXX 14094 67665 NIL=
201903140600 AAXX 14064 67665 32980 11202 10210 20158 48538 70100 81031
                   333 58011 81360 81080 91021=
201903131200 AAXX 13124 67665 NIL=
201903130600 AAXX 13064 67665 32980 41104 10199 20168 48543 82032
                   333 10282 20//0 58000 82360 82080
                   555 00///=
201903130000 AAXX 13004 67665 42980 00000 10165 20148 48526 70200
                   333 58001=
201903122100 AAXX 12214 67665 42980 11402 10201 20154 48537 81030
                   333 58006 81360=
201903121500 AAXX 12154 67665 42680 30708 10277 20151 48516 70122 82130
                   333 58006 82848 83360 91017=
201903121200 AAXX 12124 67665 42680 51108 10271 20152 48530 85230
                   333 59005 82360 91019=
201903120900 AAXX 12094 67665 42580 60810 10246 20159 48554 70222 86500
                   333 59004 86625 91022=
201903111800 AAXX 11184 67665 42980 20604 10223 20171 48517 81031
                   333 10289 59002 81360 81080=
201903111500 AAXX 11154 67665 42680 41108 10277 20153 48510 83202
                   333 59003 83848 82080
                   555 10289=
201903111200 AAXX 11124 67665 42680 61009 10269 20165 48526 81330
                   333 58004 81930 85838 81360=
201903110600 AAXX 11064 67665 32480 40904 10210 20188 48547 70200 8353/
                   333 10298 20//0 58001 83615 83360=
201903110300 AAXX 11034 67665 42980 21601 10178 20170 48527 70200 82030
                   333 58002 82360=
201903110000 AAXX 11004 67665 42980 23501 10200 20178 48529 70200 82030
                   333 58007 82360=
201903102100 AAXX 10214 67665 42980 23402 10209 20179 48540 70200 82030
                   333 58011 82360=
201903101500 AAXX 10154 67665 42680 50507 10272 20174 48512 82331
                   333 58004 81945 83848 85360 81080=
201903100900 AAXX 10094 67665 42580 62902 10258 20174 48550 86200
                   333 59007 86825=
201903100600 AAXX 10064 67665 32380 43604 10212 20194 48541 70300 83630
                   333 10297 20//0 58011 83710 83360 Q1021=
201903091800 AAXX 09184 67665 42780 30503 10217 20193 48518 70200 81930
                   333 58017 81956 83360=
201903091500 AAXX 09154 67665 42660 71402 10229 20185 48503 70222 81930
                   333 58018 81945 86360=
201903091200 AAXX 09124 67665 42580 62405 10265 20174 48518 70222 85230
                   333 58025 85835 83360=
201903090600 AAXX 09064 67665 32380 62905 10213 20193 48521 70322 86632
                   333 10317 20/// 58014 86708 82360 83080 Q1020=
201903080900 AAXX 08094 67665 42580 53505 10253 20186 48519 70122 84530
                   333 59009 84620 82360=
201903070900 AAXX 07094 67665 NIL=
201903070600 AAXX 07064 67665 12360 71204 10218 20188 48521 69904 81632
                   333 10296 20//0 59034 81707=
201903070000 AAXX 07004 67665 42980 50000 10215 20186 48517 85032
                   333 59010 85360 81080=
201903062100 AAXX 06214 67665 42/60 52502 10218 20188 48530 84032
                   333 59001 819// 84360 81080=
201903061800 AAXX 06184 67665 42/80 33604 10235 20183 48519 81902
                   333 58009 819// 83359=
201903061500 AAXX 06154 67665 42680 32609 10268 20151 48515 81902
                   333 58018 81940 82840 82080=
201903061200 AAXX 06124 67665 42680 30103 10275 20159 48535 81301
                   333 58029 81935 83835 81080=
201903060900 AAXX 06094 67665 NIL=
201903060000 AAXX 06004 67665 42980 30000 10191 20176 48523 81030
                   333 58021 83360=
201903052100 AAXX 05214 67665 42780 70000 10204 20196 48524 81930
                   333 59013 81956 83360=
201903051800 AAXX 05184 67665 42780 70000 10214 20186 48507 8197/
                   333 10325 58006 81950 87459=
201903051500 AAXX 05154 67665 41660 70503 10227 20184 48492 72996 81937
                   333 58011 81940 83845 87459
                   555 10325=
201903051200 AAXX 05124 67665 42680 52602 10320 20151 48510 84232
                   333 58003 84835 82360 81080=
201903050900 AAXX 05094 67665 42580 10303 10296 20158 48532 81101
                   333 58003 81825 81080=
201903050600 AAXX 05064 67665 32980 11802 10230 20169 48573 80001
                   333 10331 20//0 59001 81080=
201903050300 AAXX 05034 67665 42980 02602 10192 20169 48504 70200
                   333 59005=
201903050000 AAXX 05004 67665 42980 02102 10//0 20//0 48/// 70200
                   333 59007=
201903042100 AAXX 04214 67665 42980 11802 10//0 20//0 48/// 70200 80001
                   333 59012 81080=
201903041200 AAXX 04124 67665 42680 40906 10319 20105 48507 70300 84201
                   333 59018 84843 81080=
201903040900 AAXX 04094 67665 42680 21902 10299 20143
                   333 59015 82830 81360=
201903040600 AAXX 04064 67665 32980 31104 10227 20165 48524 70200 80001
                   333 10227 20//0 59012 83080=
201903032100 AAXX 03214 67665 42980 33401 10199 20165 48517 70200 80001
                   333 59006 83080=
201903031800 AAXX 03184 67665 42980 32004 10225 20158 48508 70100 80001
                   333 59010 83080=
201903031500 AAXX 03154 67665 42680 40715 10304 20144 48510 70100 83201
                   333 59008 83850 82080=
201903031200 AAXX 03124 67665 42680 50904 10306 20119 48524 70122 85201
                   333 59006 85845 82080=
201903030900 AAXX 03094 67665 42680 50205 10286 20164 48543 70322 83101
                   333 58011 83835 85080=
201903030600 AAXX 03064 67665 31302 10224 20174 48535 70200 80001
                   333 10312 20//0 59014 83080 91020=
201903021500 AAXX 02154 67665 42780 51706 10272 20165 48517 70222 82102
                   333 58007 82848 84080=
201903020900 AAXX 02094 67665 42980 40808 10272 20136 48552 70200 80002
                   333 58008 84080=
201903011800 AAXX 01184 67665 42980 40803 10237 20141 48521 70222 80002
                   333 58012 84080 91018=

################################################################################
#  SYNOPS from 67666, Lusaka City Airport (Zambia) | 15-25-00S | 028-28-00E | 1280 m
################################################################################
201903291200 AAXX 29124 67666 42680 31305 10280 20117 48524 83100
                   333 59016 83840 91018=
201903290600 AAXX 29064 67666 31975 00906 10210 20145 48544 70500
                   333 10294 20170 59024
                   555 00/// 91021=
201903270900 AAXX 27094 67666 42580 20910 10265 20147 48572 81101
                   333 58037 81825 82080 91024=
201903250600 AAXX 25064 67666 31470 80906 10191 48533 70522 885//
                   333 10318 20176 59003 88618 91020=
201903221200 AAXX 22124 67666 NIL=
201903220600 AAXX 22064 67666 32980 11409 10219 20183 48521 80001
                   333 10312 20182 58002 81080 91018=
201903210900 AAXX 21094 67666 NIL=
201903210600 AAXX 21064 67666 32980 10000 10233 20181 48513 70500 80001
                   333 10321 20168 58012 81080 91018=
201903201200 AAXX 20124 67666 NIL=
201903200600 AAXX 20064 67666 31970 21808 10230 20168 48506 70500 80001
                   333 10319 20172 59009 82080 91017=
201903190600 AAXX 19064 67666 31980 21805 10231 20155 48513 60084 80002
                   333 10320 20171 59003 82080 91018=
201903180600 AAXX 18064 67666 32980 01003 10220 20179 48512 86030
                   333 10312 20179 59001 86359 91018=
201903150600 AAXX 15064 67666 32980 30000 10225 20152 48522 80003
                   333 10315 20161 59012 83080 91019=
201903140900 AAXX 14094 67666 NIL=
201903140600 AAXX 14064 67666 32980 40503 1//// 20153 48532 81031
                   333 10300 20150 59010 81359 84080 91020=
201903131200 AAXX 13124 67666 NIL=
201903130900 AAXX 13094 67666 42680 30708 10255 20160 48549 83130
                   333 58003 83835 81360 91021=
201903110900 AAXX 11094 67666 42580 61013 10237 20175 48537 84208
                   333 59002 84829 86280 91020=
201903110600 AAXX 11064 67666 32480 50912 10212 20174 48535 82536
                   333 10290 20182 58001 82615 82360 84280 91020=
201903070900 AAXX 07094 67666 42680 71008 10248 20175 48517 85238
                   333 59037 85830 82360 87280 91018=
201903060900 AAXX 06094 67666 42480 80705 10213 20182 48550 83137
                   333 58044 83815 82359 88280 91022=
201903060600 AAXX 06064 67666 11959 80707 10213 20173 48548 60014 70522 84087
                   333 10310 20180 58032 84359 88280 91022=
201903050600 AAXX 05064 67666 32980 10000 10231 20165 48513 81030
                   333 10326 20169 59003 81360 91018=
201903040600 AAXX 04064 67666 31978 61801 10251 20157 48522 70521 80008
                   333 10320 20168 59012 86280 91018=
201903011200 AAXX 01124 67666 42680 61303 10290 20150 48517 82105
                   333 58007 82845 85080 91017=
201903010600 AAXX 01064 67666 32980 71204 10225 20171 48536 80008
                   333 10310 20194 58017 87280 91020=

################################################################################
#  SYNOPS from 67667, Mount Makulu (Zambia) | 15-33S | 028-15E | 1213 m
################################################################################
201903291200 AAXX 29124 67667 NIL=
201903290600 AAXX 29064 67667 32980 20903 10230 20135 48577 80001
                   333 10324 20169 59025 82080
                   555 00///=
201903280600 AAXX 28064 67667 32580 60906 10208 20173 48601 86501
                   333 10348 20183 58004 86625 82080
                   555 00///=
201903250600 AAXX 25064 67667 32580 60802 10201 20189 48588 86500
                   333 10322 20172 58014 86625=
201903221200 AAXX 22124 67667 42680 21802 10302 20168 48538 82200
                   333 58011 82835=
201903220600 AAXX 22064 67667 32980 00902 10232 20188 48///
                   333 10362 20177 5////=
201903211200 AAXX 21124 67667 42680 30902 10324 20138 48528 82201
                   333 58013 83835 82080=
201903210900 AAXX 21094 67667 NIL=
201903210600 AAXX 21064 67667 32980 23401 10248 20200 48553 80001
                   333 10353 20168 59003 82080=
201903201500 AAXX 20154 67667 42780 41207 10320 20118 48481 70111 84202
                   333 59005 84850 81080
                   555 10337 91013=
201903201200 AAXX 20124 67667 42680 51502 10320 20173 48516 85201
                   333 59019 85835 81080=
201903200600 AAXX 20064 67667 32980 22702 10240 20198 48541 80001
                   333 10350 20153 59009 82080=
201903190600 AAXX 19064 67667 32980 42601 10234 20180 48549 80001
                   333 10342 20153 59003 84080=
201903180600 AAXX 18064 67667 32980 32702 10224 20191 48551 80002
                   333 10334 20165 58001 83080=
201903140900 AAXX 14094 67667 NIL=
201903140600 AAXX 14064 67667 32980 1//// 10225 20194 48595 80001
                   333 10328 20182 59024 81080=
201903131200 AAXX 13124 67667 NIL=
201903110600 AAXX 11064 67667 32580 60801 10220 20192 48594 86500
                   333 10324 20180 5//// 86625=
201903071200 AAXX 07124 67667 42680 72701 10262 20186 48524 87202
                   333 59030 87835 84080=
201903070900 AAXX 07094 67667 42680 60901 10252 20192 48548 86202
                   333 59036 86830 84080=
201903070600 AAXX 07064 67667 12580 61401 10240 20181 48552 60024 82102
                   333 10314 20185 59031 82825 86080=
201903060900 AAXX 06094 67667 NIL=
201903060600 AAXX 06064 67667 32580 70801 10214 20182 48603 87500
                   333 10354 20188 59029 87625=
201903040600 AAXX 04064 67667 32980 10801 10244 20181 48575 80001
                   333 10342 20168 58013 81080=
201903010600 AAXX 01064 67667 32980 70902 10235 20184 48576 80008
                   333 10338 20189 58023 87280=

################################################################################
#  SYNOPS from 67673, Petauke (Zambia) | 14-15S | 031-17E | 1035 m
################################################################################
201903291200 AAXX 29124 67673 NIL=
201903261200 AAXX 26124 67673 42684 60000 10306 20192 48524 86200
                   333 59044 86840=
201903260600 AAXX 26064 67673 32584 43601 10270 20195 48546 82101
                   333 10305 20178 58018 82830 84080
                   555 00///=
201903221200 AAXX 22124 67673 NIL=
201903220600 AAXX 22064 67673 NIL=
201903210900 AAXX 21094 67673 NIL=
201903201200 AAXX 20124 67673 41680 62004 10262 20200 48485 72922 86231
                   333 59045 81940 86840 84360 82080=
201903190600 AAXX 19064 67673 32980 70102 10210 20198 48491 84032
                   333 10314 20190 59035 84360 84080=
201903180600 AAXX 18064 67673 12980 5//// 10230 20201 48536 60074 83035
                   333 10330 20197 59014 83360 85280=
201903140900 AAXX 14094 67673 42680 43002 10264 20188 48536 83101
                   333 59022 83832 84080=
201903140600 AAXX 14064 67673 32980 43002 10240 20180 48548 82031
                   333 10305 20175 58005 82360 84080=
201903131200 AAXX 13124 67673 NIL=
201903110600 AAXX 11064 67673 32584 40802 10236 20174 48554 84131
                   333 10284 20180 58009 84828 82360 81080=
201903070900 AAXX 07094 67673 NIL=
201903060900 AAXX 06094 67673 NIL=
201903060600 AAXX 06064 67673 31570 80000 10204 20188 48532 83137
                   333 10332 20185 59011 83825 83360 88280=
201903050600 AAXX 05064 67673 12584 30502 10250 20182 48524 69904 83101
                   333 10330 20190 58002 83828 82080=
201903010600 AAXX 01064 67673 32980 51202 10235 20200 48549 80008
                   333 10324 20190 59003 85280=

################################################################################
#  SYNOPS from 67731, Senanga (Zambia) | 16-06S | 023-16E | 1027 m
################################################################################
201903291200 AAXX 29124 67731 NIL=
201903250900 AAXX 25094 67731 42480 309// 10285 20174 48/// 83100
                   333 58005 83821=
201903221200 AAXX 22124 67731 NIL=
201903220600 AAXX 22064 67731 32980 013// 10250 20151 48///
                   333 10357 20204 59011
                   555 00132=
201903210900 AAXX 21094 67731 NIL=
201903210600 AAXX 21064 67731 32980 033// 10241 20151 48///
                   333 10369 20204 58009
                   555 00124=
201903201200 AAXX 20124 67731 NIL=
201903200600 AAXX 20064 67731 32980 023// 10252 20199 48///
                   333 10367 20195 59005
                   555 00133=
201903190600 AAXX 19064 67731 NIL=
201903180600 AAXX 18064 67731 32980 017// 10230 20129 48///
                   333 10361 20206 58005
                   555 00109=
201903150600 AAXX 15064 67731 32980 019// 10238 20189 48///
                   333 10342 20190 59011=
201903140900 AAXX 14094 67731 NIL=
201903140600 AAXX 14064 67731 32980 016// 10231 20204 48///
                   333 10342 20191 58004
                   555 00127=
201903131200 AAXX 13124 67731 NIL=
201903130600 AAXX 13064 67731 12980 028// 10231 20184 48/// 60014
                   333 10335 20179 58004
                   555 00099=
201903110600 AAXX 11064 67731 32980 026// 10241 20186 48///
                   333 10363 20212 58017
                   555 00132=
201903070900 AAXX 07094 67731 NIL=
201903070600 AAXX 07064 67731 32980 107// 10244 20197 48/// 81020
                   333 10345 20195 59029 81460
                   555 00130=
201903061200 AAXX 06124 67731 42680 618// 10311 20187 48/// 84202
                   333 58030 84838 85080=
201903060900 AAXX 06094 67731 42480 727// 10260 20186 48/// 83132
                   333 58045 83824 84362 86080=
201903060600 AAXX 06064 67731 32480 809// 10230 20177 48/// 83578
                   333 10346 20189 58019 83615 84460 88280
                   555 00119=
201903050600 AAXX 05064 67731 12980 018// 10229 20185 48/// 60024
                   333 10373 20181 59016
                   555 00102=
201903040600 AAXX 04064 67731 32980 118// 10242 20196 48/// 81020
                   333 10372 20196 59007 81462
                   555 00133=
201903010600 AAXX 01064 67731 12980 407// 10231 20184 48/// 60024 80008
                   333 10365 20184 58013 84280
                   555 00084=

################################################################################
#  SYNOPS from 67741, Sesheke (Zambia) | 17-28S | 024-18E | 949 m
################################################################################
201903291200 AAXX 29124 67741 NIL=
201903290600 AAXX 29064 67741 32980 13501 10230 20166 48540 80001
                   333 10350 20160 59025 81080
                   555 00///=
201903280600 AAXX 28064 67741 32980 50000 10246 20155 48572 82032
                   333 10357 20177 58014 82362 84080
                   555 00///=
201903270600 AAXX 27064 67741 32980 10000 10247 20163 48554 80001
                   333 10370 20174 58032 81080
                   555 00///=
201903260600 AAXX 26064 67741 32980 13002 10238 20166 48523 80002
                   333 10356 20162 59007 81080
                   555 00/// 20000=
201903221200 AAXX 22124 67741 42680 30401 10364 20157 48517 83230
                   333 58006 83850 81362=
201903220600 AAXX 22064 67741 32980 10000 10230 20171 48512 81030
                   333 10372 20187 58008 81362=
201903210900 AAXX 21094 67741 42980 13004 10320 20193 48529 81030
                   333 58008 81362=
201903210600 AAXX 21064 67741 32980 23502 10241 20149 48504 82030
                   333 10378 20162 58003 82362=
201903201200 AAXX 20124 67741 NIL=
201903200600 AAXX 20064 67741 32980 00000 10233 20166 48512
                   333 10386 20174 5////=
201903190600 AAXX 19064 67741 32980 00000 10256 20174 48517
                   333 10366 20170 59011=
201903180600 AAXX 18064 67741 32980 10000 10253 20188 48525 80001
                   333 10358 20168 59011 81080=
201903140900 AAXX 14094 67741 42980 11401 10304 20175 48545 81030
                   333 58000 81362=
201903140600 AAXX 14064 67741 32980 21201 10215 20172 48529 82030
                   333 10349 20170 59006 82362=
201903131200 AAXX 13124 67741 NIL=
201903110600 AAXX 11064 67741 32680 20000 10217 20186 48531 82501
                   333 10349 20179 58004 82648 81080=
201903070900 AAXX 07094 67741 42980 10906 10285 20157 48532 80002
                   333 59029 81080=
201903060900 AAXX 06094 67741 42680 13202 10283 20192 48560 81030
                   333 58037 81362=
201903060600 AAXX 06064 67741 32980 10000 10234 20189 48550 81031
                   333 10364 20196 58037 81362 81080=
201903040600 AAXX 04064 67741 32980 20000 10246 20201 48516 82030
                   333 10373 20181 59007 82362=
201903010600 AAXX 01064 67741 32980 10000 10241 20184 48533 81030
                   333 10353 20175 58016 81362=

################################################################################
#  SYNOPS from 67743, Livingstone (Zambia) | 17-49S | 025-49E | 985 m
################################################################################
201903291200 AAXX 29124 67743 NIL=
201903280600 AAXX 28064 67743 32980 30905 10242 20138 48569 82031
                   333 10320 20197 58007 82360 81080
                   555 00/// 91023=
201903270600 AAXX 27064 67743 32980 10907 10250 20117 48564 81031
                   333 10375 20219 58036 81359 91022=
201903250600 AAXX 25064 67743 32980 01903 10231 20141 48531
                   333 10340 20177 59011 91019=
201903221200 AAXX 22124 67743 NIL=
201903220600 AAXX 22064 67743 32980 50402 10234 20117 48516 85030
                   333 10376 20186 58004 85360 91017=
201903210900 AAXX 21094 67743 NIL=
201903210600 AAXX 21064 67743 32980 50204 10230 20094 48512 85030
                   333 10367 20198 58002 85359 91017=
201903201200 AAXX 20124 67743 NIL=
201903200600 AAXX 20064 67743 32980 00805 10243 20125 48502
                   333 10370 20202 58004 91016=
201903190600 AAXX 19064 67743 32980 01503 10235 20147 48507
                   333 10366 20210 59008 91016=
201903180600 AAXX 18064 67743 32980 00103 10239 20154 48526
                   333 10349 20//0 59008 91017=
201903150600 AAXX 15064 67743 32980 41210 10226 20119 48528 80001
                   333 10354 20135 59002 84080 91018=
201903140900 AAXX 14094 67743 NIL=
201903140600 AAXX 14064 67743 32880 11107 10241 20123 48530 81030
                   333 10350 20145 59011 81358 91019=
201903131200 AAXX 13124 67743 NIL=
201903130600 AAXX 13064 67743 32980 01207 10230 20149 48540
                   333 10341 20120 58005 91020=
201903070900 AAXX 07094 67743 NIL=
201903070600 AAXX 07064 67743 32980 11217 10228 20136 48526 81030
                   333 10345 20086 59023 81360 91018=
201903061200 AAXX 06124 67743 42680 50203 10326 20126 48532 85201
                   333 58022 85845 81080 91017=
201903060900 AAXX 06094 67743 NIL=
201903060600 AAXX 06064 67743 32980 10000 10256 20135 48553 81081
                   333 10370 20094 58045 81360 81080 91021=
201903050600 AAXX 05064 67743 12980 00705 10236 20152 48502 69904
                   333 10360 20070 59010 91016=

################################################################################
#  SYNOPS from 67751, Magoye (Zambia) | 16-00S | 027-36E | 1018 m
################################################################################
201903291200 AAXX 29124 67751 NIL=
201903290600 AAXX 29064 67751 32980 10801 10239 20176 81040
                   333 10//0 20112 58022 81360
                   555 00///=
201903260600 AAXX 26064 67751 32980 00000 10235 20180 48///
                   333 10//0 20104 58006
                   555 00///=
201903250600 AAXX 25064 67751 32980 40802 10240 20176 48/// 80001
                   333 1//// 20110 58006 84080=
201903221200 AAXX 22124 67751 NIL=
201903220600 AAXX 22064 67751 32980 00801 10260 20185 48///
                   333 1//// 20122 59003=
201903210900 AAXX 21094 67751 NIL=
201903210600 AAXX 21064 67751 32980 13601 10226 20165 48/// 81040
                   333 1//// 20104 59012 81360=
201903201200 AAXX 20124 67751 NIL=
201903200600 AAXX 20064 67751 32980 03301 10251 20178 48///
                   333 10//0 20110 58009=
201903190600 AAXX 19064 67751 32980 40000 10236 20175 48/// 80001
                   333 10//0 20118 58007 84080=
201903180600 AAXX 18064 67751 32980 30201 10230 20172 48/// 83040
                   333 10//0 20122 59001 83360=
201903140900 AAXX 14094 67751 NIL=
201903140600 AAXX 14064 67751 NIL=
201903131200 AAXX 13124 67751 NIL=
201903130600 AAXX 13064 67751 32980 10000 10215 20181 48/// 81030
                   333 1//// 20155 59005 81360=
201903070900 AAXX 07094 67751 NIL=
201903060900 AAXX 06094 67751 NIL=
201903060600 AAXX 06064 67751 12980 61802 10225 20185 48/// 60084 86030
                   333 10//0 20192 59017 83660=

################################################################################
#  SYNOPS from 67753, Choma (Zambia) | 16-50S | 027-04E | 1213 m
################################################################################
201903291200 AAXX 29124 67753 NIL=
201903290600 AAXX 29064 67753 31980 03603 10219 20151 48541 70500
                   333 10307 20166 59025
                   555 00///=
201903280600 AAXX 28064 67753 31980 10805 10223 20166 48570 70500 81030
                   333 10320 20170 58009 81360
                   555 00///=
201903260600 AAXX 26064 67753 31980 01701 10231 20177 48523 70500
                   333 10322 20176 59001
                   555 00///=
201903221200 AAXX 22124 67753 NIL=
201903220600 AAXX 22064 67753 NIL=
201903210900 AAXX 21094 67753 NIL=
201903201200 AAXX 20124 67753 NIL=
201903200600 AAXX 20064 67753 31980 00000 10221 20186 48512 70500
                   333 10335 20180 59002=
201903190600 AAXX 19064 67753 31980 10000 10240 20163 48513 70500 81030
                   333 10326 20164 59003 81360=
201903150600 AAXX 15064 67753 31980 50000 10215 20159 48522 70522 80002
                   333 10320 20162 59012 85080=
201903140900 AAXX 14094 67753 NIL=
201903140600 AAXX 14064 67753 31980 10000 10226 20164 48532 81030
                   333 10318 20152 59007 81360=
201903131200 AAXX 13124 67753 NIL=
201903110600 AAXX 11064 67753 31580 10215 10227 20181 48532 70500 81500
                   333 10316 20172 58007 81620=
201903070900 AAXX 07094 67753 NIL=
201903060900 AAXX 06094 67753 NIL=
201903060600 AAXX 06064 67753 31980 20807 10236 20185 48542 70500 80001
                   333 10338 20190 59033 82080=
201903040600 AAXX 04064 67753 31980 10000 10235 20174 48513 70500 80001
                   333 10335 20170 59014 81080=
201903010600 AAXX 01064 67753 31980 32603 10250 20168 48533 70500 80001
                   333 10332 20164 58017 83080=

################################################################################
#  SYNOPS from 67855, Lupaki (Zambia) | 17-03-00S | 024-46-00E | 1000 m
################################################################################
201903310600 AAXX 31064 67855 31970 00000 10200 20153 3//// 48/// 70500
                   333 20153 5////=
201903300600 AAXX 30064 67855 31970 10302 10210 20143 3//// 48/// 70500 81030
                   333 20130 5//// 81360=
201903291200 AAXX 29124 67855 41870 41803 10344 20134 38/// 48/// 70500 84200
                   333 5//// 84857=
201903290600 AAXX 29064 67855 31970 00301 10200 20149 3//// 48/// 70500
                   333 10128 5////=
201903281200 AAXX 28124 67855 41870 50305 10348 20170 3//// 48/// 70511 85200
                   333 5//// 85857=
201903261200 AAXX 26124 67855 41870 40901 10378 20090 3//// 48/// 70500 84100
                   333 5//// 84857=
201903260600 AAXX 26064 67855 31970 00301 10202 20143 3//// 48/// 70500
                   333 20150 5////=
201903240600 AAXX 24064 67855 31970 70605 10198 20164 3//// 48/// 83030
                   333 20152 5//// 83360=
201903231200 AAXX 23124 67855 41870 40608 10336 20156 3//// 48/// 70500 84100
                   333 5//// 84856=
201903230600 AAXX 23064 67855 31970 00610 10214 20148 3//// 48/// 70500
                   333 20169 5////=
201903220600 AAXX 22064 67855 31970 40000 10218 20170 3//// 48/// 70511 84030
                   333 20165 5//// 84360=
201903201200 AAXX 20124 67855 41870 51509 10362 20099 3//// 48/// 70511 85200
                   333 5//// 85857=
201903191200 AAXX 19124 67855 41870 51802 10340 20108 3//// 48/// 70511 85200
                   333 5//// 85857=
201903190600 AAXX 19064 67855 31970 10000 10204 20164 3//// 48/// 70511 81030
                   333 20165 5//// 81360=
201903181200 AAXX 18124 67855 41870 51805 10344 20128 38/// 48/// 70500 85200
                   333 5//// 85857=
201903180600 AAXX 18064 67855 31970 01801 10178 20168 3//// 48/// 70500
                   333 20138 5////=
201903161200 AAXX 16124 67855 41975 71807 10270 20165 3//// 48/// 70162 8707/
                   333 5//// 87459=
201903151200 AAXX 15124 67855 41670 51803 10304 20155 3//// 48/// 70522 85208
                   333 5//// 85856 83280=
201903150600 AAXX 15064 67855 31970 51903 10212 20155 3//// 48/// 70522 80008
                   333 20145 5//// 85280=
201903140600 AAXX 14064 67855 31970 00000 10196 20148 3//// 48/// 70500
                   333 20148 5////=
201903131200 AAXX 13124 67855 41870 53001 10334 20125 3//// 48/// 70511 85100
                   333 5//// 85857=
201903130600 AAXX 13064 67855 31970 00608 10214 20169 3//// 48/// 70500
                   333 20152 5////=
201903121200 AAXX 12124 67855 41870 50303 10316 20148 3//// 48/// 70511 85200
                   333 5//// 85857=
201903120600 AAXX 12064 67855 31970 50607 10210 20148 3//// 48/// 70511 80008
                   333 20146 5//// 85280=
201903111200 AAXX 11124 67855 41870 51801 10332 20178 3//// 48/// 70511 85200
                   333 5//// 85857=
201903110600 AAXX 11064 67855 31970 50303 10208 20143 3//// 48/// 70511 85030
                   333 20108 5//// 84360=
201903100600 AAXX 10064 67855 31970 00607 10222 20148 3//// 48/// 70511
                   333 20160 5////=
201903081200 AAXX 08124 67855 41870 53302 10336 20133 3//// 48/// 70511 85100
                   333 5//// 85857=
201903071200 AAXX 07124 67855 41770 51901 10310 20120 3//// 48/// 70511 81100
                   333 5//// 85857=
201903070600 AAXX 07064 67855 11970 01903 10198 20163 3//// 48/// 69904 70500
                   333 20143 5////=
201903061200 AAXX 06124 67855 41770 50305 10280 20185 3//// 48/// 79598 85233
                   333 5//// 81945 84850=
201903051200 AAXX 05124 67855 41870 40000 10352 20158 3//// 48/// 70500 84200
                   333 5//// 84857=
201903050600 AAXX 05064 67855 31970 00303 20175 3//// 48/// 70500
                   333 20162 5////=
201903041200 AAXX 04124 67855 41870 41904 10352 20133 3//// 48/// 70511 84200
                   333 5//// 84857=
201903040600 AAXX 04064 67855 11970 50403 10230 20168 3//// 48/// 69904 70522 85070
                   333 20185 5//// 85360=
201903031200 AAXX 03124 67855 41870 52101 10338 20155 3//// 48/// 70511 85200
                   333 5//// 85857=
