################################################################################
# Query made at 04/14/2022 04:04:43 UTC
# Country like Zamb*
# Time interval: from 12/01/2015 05:30  to 12/31/2015 06:30  UTC
################################################################################

################################################################################
#  SYNOPS from 67403, Kawambwa (Zambia) | 09-48S | 029-05E | 1323 m
################################################################################
201512310600 AAXX 31064 67403 11375 71203 10/// 20195 48528 60014 72062 8553/
                   333 10/// 20187 59001 85615 87360
                   555 00/// 20008=
201512301200 AAXX 30124 67403 41680 72702 10250 20204 48513 72996 8193/
                   333 58010 81945 82845 87360=
201512291200 AAXX 29124 67403 42680 50902 10292 20189 48506 85200
                   333 81945 85845=
201512290900 AAXX 29094 67403 NIL=
201512290600 AAXX 29064 67403 12480 72702 10210 20198 48527 60024 70362 81531
                   333 10/// 20186 59001 81612 86360 82080
                   555 00/// 20049=
201512230900 AAXX 23094 67403 NIL=
201512220600 AAXX 22064 67403 12380 63405 10216 20199 48521 60144 70322 83530
                   333 10/// 20172 59007 83610 86360
                   555 00/// 20029=
201512211200 AAXX 21124 67403 42680 62005 10232 20187 48510 82132
                   333 59004 83830 84360 85080=
201512210600 AAXX 21064 67403 11880 72703 10217 20189 48529 60294 71722 81931
                   333 10/// 20176 59016 81958 85360 82080=
201512010600 AAXX 01064 67403 12980 30901 10206 20184 48533 60114 83081
                   333 10/// 20172 58007 83360 82080=

################################################################################
#  SYNOPS from 67413, Mbala (Zambia) | 08-51S | 031-20E | 1673 m
################################################################################
201512310600 AAXX 31064 67413 12980 71301 10190 20175 48545 60044 8707/
                   333 10235 20/// 59008 87359
                   555 00/// 20023 91024=
201512301200 AAXX 30124 67413 NIL=
201512291200 AAXX 29124 67413 NIL=
201512290900 AAXX 29094 67413 NIL=
201512290600 AAXX 29064 67413 NIL=
201512230900 AAXX 23094 67413 NIL=
201512220600 AAXX 22064 67413 12860 83003 10165 20157 48542 60054 882//
                   333 10250 20/// 59003 88815 91026=
201512010600 AAXX 01064 67413 12980 71007 10200 20177 48558 60014 8703/
                   333 10300 20/// 58007 87360 91026=

################################################################################
#  SYNOPS from 67441, Mwinilunga (Zambia) | 11-45S | 024-26E | 1361 m
################################################################################
201512301200 AAXX 30124 67441 NIL=
201512291200 AAXX 29124 67441 NIL=
201512290900 AAXX 29094 67441 NIL=
201512290600 AAXX 29064 67441 NIL=
201512230900 AAXX 23094 67441 NIL=
201512010600 AAXX 01064 67441 12382 815// 10195 20184 48575 60094 8663/
                   333 10270 20/// 59008 86709 87360=

################################################################################
#  SYNOPS from 67461, Mansa (Zambia) | 11-06S | 028-51E | 1382 m
################################################################################
201512301200 AAXX 30124 67461 NIL=
201512291200 AAXX 29124 67461 NIL=
201512290900 AAXX 29094 67461 NIL=
201512290600 AAXX 29064 67461 NIL=
201512280600 AAXX 28064 67461 12480 71702 10204 20197 48540 60134 83570
                   333 10301 20185 58010 83612 87460
                   555 00/// 20999 91021=
201512230900 AAXX 23094 67461 NIL=
201512210600 AAXX 21064 67461 11975 82703 10180 20179 48539 6///4 76062 8807/
                   333 10226 20176 5//// 88460 91021=

################################################################################
#  SYNOPS from 67475, Kasama (Zambia) | 10-13S | 031-08E | 1382 m
################################################################################
201512310600 AAXX 31064 67475 11580 72506 10186 20182 48529 60044 70242 875//
                   333 10281 20174 59010 87620
                   555 00/// 91021=
201512301200 AAXX 30124 67475 NIL=
201512291200 AAXX 29124 67475 NIL=
201512290900 AAXX 29094 67475 NIL=
201512290600 AAXX 29064 67475 12580 51004 10218 20187 48543 60064 82231
                   333 10291 20/// 58015 82825 83360 82080
                   555 00/// 91022=
201512280900 AAXX 28094 67475 42680 70810 10258 20172 48532 86208
                   333 58004 81940 85840 86280 91021=
201512240900 AAXX 24094 67475 41456 70903 10191 20188 48541 79596 8277/
                   333 58014 82710 81947 87461 91022=
201512230900 AAXX 23094 67475 41680 70106 10250 20172 48530 71522 84278
                   333 58000 81940 83840 84461 86280 91021=
201512220900 AAXX 22094 67475 42680 73411 10252 20181 48530 8527/
                   333 5//// 85840 87360 91021=
201512220600 AAXX 22064 67475 12980 73407 10204 20176 48533 60014 8707/
                   333 10266 20159 59006 87359 91021=
201512211200 AAXX 21124 67475 41475 72514 10198 20172 48509 75099 83778
                   333 59008 83715 81945 85462 87280 91018=
201512210600 AAXX 21064 67475 12480 73609 10192 20181 48538 69934 8177/
                   333 10252 20160 59011 81712 82820 87359 91022=

################################################################################
#  SYNOPS from 67476, Misamfu (Zambia) | 10-06S | 031-15E | 1536 m
################################################################################
201512301200 AAXX 30124 67476 NIL=
201512291200 AAXX 29124 67476 NIL=
201512290900 AAXX 29094 67476 NIL=
201512290600 AAXX 29064 67476 32980 41502 10208 20185 48/// 84060
                   333 10293 20174 58005 84360
                   555 00/// 20990=
201512280600 AAXX 28064 67476 12980 20602 10219 20188 48/// 69904 82031
                   333 10279 20180 5//// 82360 81080
                   555 00/// 20009=
201512230900 AAXX 23094 67476 NIL=
201512210600 AAXX 21064 67476 32580 73502 10192 20181 48/// 85530
                   333 10254 20164 5//// 82622 87360=
201512010600 AAXX 01064 67476 12980 21302 10215 20177 48/// 69904 82001
                   333 10298 20178 58000 82080=

################################################################################
#  SYNOPS from 67477, Mpika (Zambia) | 11-54S | 031-26E | 1400 m
################################################################################
201512310600 AAXX 31064 67477 32480 40000 10205 20/// 48535 83131
                   333 10270 20167 59005 83812 82358 82080
                   555 00/// 20009=
201512301200 AAXX 30124 67477 NIL=
201512300600 AAXX 30064 67477 12480 60902 10208 20/// 48540 60094 84570
                   333 10285 20177 59007 84612 84459=
201512291200 AAXX 29124 67477 NIL=
201512290900 AAXX 29094 67477 NIL=
201512290600 AAXX 29064 67477 32480 50000 10224 20/// 48546 84501
                   333 10282 20173 58007 84612 82080=
201512280600 AAXX 28064 67477 32480 50906 10220 20/// 48540 82131
                   333 10272 20182 58006 82812 82359 82080
                   555 00/// 20990=
201512230900 AAXX 23094 67477 NIL=
201512220600 AAXX 22064 67477 11480 8//// 10208 20/// 48/// 60034 8557/
                   333 10276 20181 5//// 86512 85459
                   555 00/// 20021=

################################################################################
#  SYNOPS from 67481, Isoka (Zambia) | 10-07S | 032-38E | 1360 m
################################################################################
201512310600 AAXX 31064 67481 12480 50000 10203 20184 48/// 60144 81530
                   333 10265 20185 59008 81610 85360
                   555 00/// 20990=
201512301200 AAXX 30124 67481 NIL=
201512300600 AAXX 30064 67481 12480 72702 10211 20192 48/// 69904 875//
                   333 10290 20188 58000 87610
                   555 00/// 20994=
201512291200 AAXX 29124 67481 NIL=
201512290900 AAXX 29094 67481 42680 62903 10254 20188 48/// 86201
                   333 58003 86830 84080=
201512290600 AAXX 29064 67481 12480 50603 10217 20190 48/// 69944 82101
                   333 10287 20187 58004 82815 85080
                   555 00/// 20990=
201512280900 AAXX 28094 67481 42680 52405 10252 20182 48/// 84231
                   333 5//// 84830 83361 83080=
201512240900 AAXX 24094 67481 41580 61804 10244 20179 48/// 71722 85910
                   333 58006 81923 84823 82624 81361=
201512230900 AAXX 23094 67481 42580 43604 10255 20188 48/// 84254
                   333 5//// 84827 81361 81080=
201512220900 AAXX 22094 67481 42680 73003 10260 20183 48/// 85850
                   333 5//// 82832 83634 86360=
201512220600 AAXX 22064 67481 12980 70000 10200 20190 48/// 60054 87078
                   333 10257 20181 59002 87359
                   555 00/// 20997=
201512210900 AAXX 21094 67481 41680 61802 10242 20187 48/// 78082 85230
                   333 5//// 81930 85830 83361=
201512210600 AAXX 21064 67481 12480 61802 10210 20170 48/// 69974 81130
                   333 10245 20181 58024 81815 86360=
201512010600 AAXX 01064 67481 12580 32302 10228 20171 48/// 69904 82101
                   333 10304 20185 58000 82820 83080=

################################################################################
#  SYNOPS from 67531, Zambezi (Zambia) | 13-32S | 023-07E | 1077 m
################################################################################
201512310600 AAXX 31064 67531 12980 32702 10235 20208 48/// 69904 70200 83030
                   333 10326 20192 5//// 83362
                   555 00/// 20007=
201512301200 AAXX 30124 67531 NIL=
201512291200 AAXX 29124 67531 NIL=
201512290900 AAXX 29094 67531 NIL=
201512290600 AAXX 29064 67531 12980 71702 10226 20189 48/// 60294 8707/
                   333 10270 20190 58011 87360
                   555 00/// 20990=
201512280600 AAXX 28064 67531 12980 70000 10225 20197 48/// 69904 8707/
                   333 10304 20186 58007 87360
                   555 00/// 20004=
201512230900 AAXX 23094 67531 NIL=
201512220600 AAXX 22064 67531 32980 23302 10232 20192 48/// 70200 82030
                   333 10309 20178 59011 82362
                   555 00/// 20001=

################################################################################
#  SYNOPS from 67541, Kasempa (Zambia) | 13-32S | 025-51E | 1234 m
################################################################################
201512301200 AAXX 30124 67541 NIL=
201512291200 AAXX 29124 67541 NIL=
201512290900 AAXX 29094 67541 NIL=
201512290600 AAXX 29064 67541 NIL=
201512230900 AAXX 23094 67541 NIL=

################################################################################
#  SYNOPS from 67543, Kabompo (Zambia) | 13-36S | 024-12E | 1075 m
################################################################################
201512301200 AAXX 30124 67543 NIL=
201512291200 AAXX 29124 67543 NIL=
201512290900 AAXX 29094 67543 NIL=
201512290600 AAXX 29064 67543 NIL=
201512230900 AAXX 23094 67543 NIL=

################################################################################
#  SYNOPS from 67551, Solwezi (Zambia) | 12-11S | 026-23E | 1386 m
################################################################################
201512301200 AAXX 30124 67551 NIL=
201512291200 AAXX 29124 67551 NIL=
201512290900 AAXX 29094 67551 NIL=
201512290600 AAXX 29064 67551 NIL=
201512230900 AAXX 23094 67551 NIL=

################################################################################
#  SYNOPS from 67561, Ndola (Zambia) | 13-00S | 028-39E | 1269 m
################################################################################
201512301200 AAXX 30124 67561 NIL=
201512291200 AAXX 29124 67561 NIL=
201512290900 AAXX 29094 67561 NIL=
201512290600 AAXX 29064 67561 NIL=
201512230900 AAXX 23094 67561 NIL=
201512210600 AAXX 21064 67561 31358 82805 10196 20194 48535 60294 70466 8577/
                   333 10266 20180 59006 85704 88459
                   555 00/// 91021=

################################################################################
#  SYNOPS from 67563, Kafironda (Zambia) | 12-36S | 028-07E | 1243 m
################################################################################
201512301200 AAXX 30124 67563 NIL=
201512291200 AAXX 29124 67563 NIL=
201512290900 AAXX 29094 67563 NIL=
201512290600 AAXX 29064 67563 NIL=
201512230900 AAXX 23094 67563 NIL=

################################################################################
#  SYNOPS from 67571, Serenje (Zambia) | 13-14S | 030-13E | 1384 m
################################################################################
201512310600 AAXX 31064 67571 32982 40903 10224 20154 48523 70200 80001
                   333 10273 20168 59012 84080
                   555 00232 20000=
201512301200 AAXX 30124 67571 42682 71803 10255 20169 48514 70222 85538
                   333 59002 85632 81360 86280=
201512300900 AAXX 30094 67571 42582 70902 10233 20173 48543 70222 875//
                   333 59004 87620=
201512300600 AAXX 30064 67571 32378 81203 10206 20167 48542 70322 886//
                   333 10282 20186 59007 88708
                   555 00221 20000=
201512291200 AAXX 29124 67571 42682 41505 10270 20181 48515 70111 84200
                   333 58006 81935 84835=
201512290900 AAXX 29094 67571 42482 61506 10247 20184 48534 70222 86800
                   333 58006 82618 85820=
201512290600 AAXX 29064 67571 32482 71706 10210 20181 48542 70222 875//
                   333 10285 20186 58007 87615
                   555 00226 20000=
201512280900 AAXX 28094 67571 42582 70906 10245 20185 48534 70222 84538
                   333 58013 84625 82360 87280=
201512230900 AAXX 23094 67571 42482 73003 10240 20195 48/// 70222 81538
                   333 5//// 81618 82360 87280=
201512220900 AAXX 22094 67571 42582 42102 10258 20186 48/// 70200 84201
                   333 5//// 84825 81080=
201512220600 AAXX 22064 67571 12482 72705 10201 20192 48/// 60214 70311 876//
                   333 10229 20170 5//// 87710
                   555 00220 20030=
201512211200 AAXX 21124 67571 41275 83005 10194 20189 48501 76166 887//
                   333 59007 88705=
201512210600 AAXX 21064 67571 11378 80000 10189 20183 48521 75052 887//
                   333 10273 20174 58008 88705=
201512010600 AAXX 01064 67571 32982 71205 10240 20166 81038
                   333 10297 20185 81360 87280=

################################################################################
#  SYNOPS from 67575, Mkushi (Zambia) | 13-38-00S | 029-26-00E | 1237 m
################################################################################
201512310600 AAXX 31064 67575 32980 10905 10232 20158 48/// 80001
                   333 10289 20157 5//// 81080
                   555 00/// 20000=
201512301200 AAXX 30124 67575 NIL=
201512291200 AAXX 29124 67575 NIL=
201512290900 AAXX 29094 67575 NIL=
201512290600 AAXX 29064 67575 32480 60902 10220 20190 48/// 70322 84532
                   333 10300 20185 5//// 84618 81360 81080
                   555 00/// 20000=
201512230900 AAXX 23094 67575 NIL=
201512220600 AAXX 22064 67575 12480 53602 10215 20194 48/// 60184 81138
                   333 10250 20171 5//// 81815 81360 85278
                   555 00/// 20029=
201512210600 AAXX 21064 67575 11360 80000 10195 20187 48/// 60294 71522 8577/
                   333 10252 20180 5//// 85706 84360=

################################################################################
#  SYNOPS from 67580, Msekera (Zambia) | 13-39S | 032-34E | 1025 m
################################################################################
201512310600 AAXX 31064 67580 32980 21202 10255 20186 48/// 81031
                   333 10308 20/// 59009 81361 81080
                   555 00/// 20000=
201512301200 AAXX 30124 67580 42780 62003 10296 20187 48/// 86200
                   333 59005 86856=
201512291200 AAXX 29124 67580 NIL=
201512290900 AAXX 29094 67580 42680 71204 10277 20197 48/// 86202
                   333 58005 86840 82080=
201512290600 AAXX 29064 67580 32580 71604 10237 20189 48/// 85138
                   333 10310 20/// 58007 85825 81360 85280
                   555 00/// 20013=
201512280900 AAXX 28094 67580 42680 71103 10284 20199 48/// 87201
                   333 58005 87848 81080=
201512230900 AAXX 23094 67580 41680 72003 10253 20202 48/// 71722 84208
                   333 58014 81930 83835 87280=
201512220900 AAXX 22094 67580 42680 52704 10271 20210 48/// 85202
                   333 5//// 85845 83080=
201512211200 AAXX 21124 67580 41675 70000 10230 20213 48/// 79592 872//
                   333 5//// 82930 86835=
201512210600 AAXX 21064 67580 11580 73603 10232 20198 48/// 60054 70362 86238
                   333 10301 20/// 59018 86825 83360 87280=
201512010600 AAXX 01064 67580 12980 70000 10255 20179 48/// 69904 81038
                   333 10310 20/// 59011 81362 86280=

################################################################################
#  SYNOPS from 67581, Chipata (Zambia) | 13-33S | 032-35E | 1028 m
################################################################################
201512301200 AAXX 30124 67581 42660 61615 10290 20188 48542 86100
                   333 59005 86845 91017=
201512291200 AAXX 29124 67581 42660 51808 10289 20186 48520 85200
                   333 58002 81944 85844 91018=
201512290900 AAXX 29094 67581 42660 51610 10276 20197 48557 85200
                   333 58003 85840 91021=
201512290600 AAXX 29064 67581 31660 41305 10239 20188 48557 69904 83131
                   333 10300 20205 58005 83838 82360 81080
                   555 00185 20000 91021=
201512230900 AAXX 23094 67581 NIL=
201512210600 AAXX 21064 67581 11580 63603 10220 20204 48537 72166 83570
                   333 10236 20166 59016 83620 86359
                   555 00199 20031 91019=

################################################################################
#  SYNOPS from 67583, Lundazi (Zambia) | 12-17S | 033-12E | 1143 m
################################################################################
201512301200 AAXX 30124 67583 NIL=
201512291200 AAXX 29124 67583 NIL=
201512290900 AAXX 29094 67583 NIL=
201512290600 AAXX 29064 67583 NIL=
201512230900 AAXX 23094 67583 NIL=
201512220600 AAXX 22064 67583 12068 73403 10212 20196 48/// 60174 72160 8172/
                   333 10/// 20/// 5//// 81701 87458
                   555 00/// 20049=
201512210600 AAXX 21064 67583 12475 72703 10216 20199 48/// 60494 70222 8173/
                   333 10/// 20/// 5//// 81710 83759=

################################################################################
#  SYNOPS from 67599, Mfuwe (Zambia) | 13-16S | 031-56E | 568 m
################################################################################
201512301200 AAXX 30124 67599 NIL=
201512291200 AAXX 29124 67599 NIL=
201512290900 AAXX 29094 67599 NIL=
201512290600 AAXX 29064 67599 NIL=
201512230900 AAXX 23094 67599 NIL=

################################################################################
#  SYNOPS from 67625, Kalabo (Zambia) | 14-51S | 022-42E | 1033 m
################################################################################
201512301200 AAXX 30124 67625 NIL=
201512291200 AAXX 29124 67625 NIL=
201512290900 AAXX 29094 67625 NIL=
201512290600 AAXX 29064 67625 NIL=
201512230900 AAXX 23094 67625 NIL=

################################################################################
#  SYNOPS from 67633, Mongu (Zambia) | 15-15S | 023-09E | 1052 m
################################################################################
201512310600 AAXX 31064 67633 32980 30000 10251 20214 48532 70122 83030
                   333 10336 20205 58003 83361
                   555 00/// 20000 91019=
201512301200 AAXX 30124 67633 NIL=
201512291200 AAXX 29124 67633 NIL=
201512290900 AAXX 29094 67633 NIL=
201512290600 AAXX 29064 67633 NIL=
201512280600 AAXX 28064 67633 12980 70903 10245 20211 48530 60054 70222 8707/
                   333 10294 20201 20201 58007 87460
                   555 00/// 20002 91019=
201512230900 AAXX 23094 67633 NIL=

################################################################################
#  SYNOPS from 67641, Kaoma (Zambia) | 14-48S | 024-48E | 1213 m
################################################################################
201512301200 AAXX 30124 67641 NIL=
201512291200 AAXX 29124 67641 NIL=
201512290900 AAXX 29094 67641 NIL=
201512290600 AAXX 29064 67641 NIL=
201512230900 AAXX 23094 67641 NIL=
201512210600 AAXX 21064 67641 12682 70000 10217 20198 48517 60384 81130
                   333 10282 20195 59002 81830 87360 91017=

################################################################################
#  SYNOPS from 67655, Mumbwa (Zambia) | 15-04S | 027-11E | 1216 m
################################################################################
201512310600 AAXX 31064 67655 32980 00809 10240 20173 48550
                   333 10310 20/// 59012
                   555 00/// 91021=
201512301200 AAXX 30124 67655 NIL=
201512291200 AAXX 29124 67655 NIL=
201512290900 AAXX 29094 67655 NIL=
201512290600 AAXX 29064 67655 32980 20905 10222 20198 48543 80001
                   333 10295 20//0 58002 82080
                   555 00/// 91022=
201512230900 AAXX 23094 67655 NIL=
201512230600 AAXX 23064 67655 32980 43604 10240 20201 48545 80001
                   333 10330 20/// 58008 84080 91020=
201512220600 AAXX 22064 67655 32980 23405 10235 20198 48518 80001
                   333 10301 20/// 59010 82080 91020=
201512010600 AAXX 01064 67655 12980 20905 10235 20177 48564 60044 81078
                   333 10261 20/// 59016 81360 81280 91023=

################################################################################
#  SYNOPS from 67659, Kafue Polder (Zambia) | 15-46S | 027-55E | 978 m
################################################################################
201512301200 AAXX 30124 67659 NIL=
201512291200 AAXX 29124 67659 NIL=
201512290900 AAXX 29094 67659 NIL=
201512290600 AAXX 29064 67659 NIL=
201512230900 AAXX 23094 67659 NIL=

################################################################################
#  SYNOPS from 67662, Kabwe Agric (Zambia) | 14-24S | 028-30E | 1165 m
################################################################################
201512301200 AAXX 30124 67662 NIL=
201512291200 AAXX 29124 67662 NIL=
201512290900 AAXX 29094 67662 NIL=
201512290600 AAXX 29064 67662 NIL=
201512230900 AAXX 23094 67662 NIL=
201512210600 AAXX 21064 67662 12480 72003 10216 20198 48/// 60084 85532
                   333 10255 20/// 85612 86360 83080
                   555 00/// 20015=

################################################################################
#  SYNOPS from 67663, Kabwe (Zambia) | 14-27S | 028-28E | 1206 m
################################################################################
201512301200 AAXX 30124 67663 NIL=
201512291200 AAXX 29124 67663 NIL=
201512290900 AAXX 29094 67663 NIL=
201512290600 AAXX 29064 67663 NIL=
201512230900 AAXX 23094 67663 NIL=

################################################################################
#  SYNOPS from 67665, Lusaka Internationalairport (Zambia) | 15-19S | 028-27E | 1152 m
################################################################################
201512301800 AAXX 30184 67665 42980 01903 10246 20161 48514 70102
                   333 59012=
201512301500 AAXX 30154 67665 42680 41004 10286 20182 48509 70122 84100
                   333 59014 84840=
201512301200 AAXX 30124 67665 NIL=
201512300900 AAXX 30094 67665 42680 50708 10261 20187 48558 85200
                   333 58015 85830=
201512300600 AAXX 30064 67665 32480 20810 10229 20167 48559 82500
                   333 10310 20//0 58005 82618=
201512300300 AAXX 30034 67665 42980 01405 10195 20164 48540 70200
                   333 5////=
201512300000 AAXX 30004 67665 42980 21303 10206 20161 48538 70200 82030
                   333 5//// 82360=
201512292100 AAXX 29214 67665 42980 21004 10215 20169 48545 70200 81030
                   333 5//// 81360=
201512291200 AAXX 29124 67665 NIL=
201512290900 AAXX 29094 67665 NIL=
201512290600 AAXX 29064 67665 NIL=
201512281800 AAXX 28184 67665 42980 31003 10226 20181 48535 70222 83031
                   333 58009 83360 83080=
201512281500 AAXX 28154 67665 42780 60912 10278 20175 48524 70322 86201
                   333 58013 86850 82080=
201512281200 AAXX 28124 67665 42680 50805 10275 20179 48542 70222 85201
                   333 58017 85835 81080=
201512280900 AAXX 28094 67665 42580 50908 10268 20182 48558 85201
                   333 58011 85825 81080=
201512280600 AAXX 28064 67665 32980 30910 10248 20192 48557 83231
                   333 10//0 20//0 58007 83812 81860 83080=
201512271800 AAXX 27184 67665 42680 31004 10231 20127 48526 70222 82231
                   333 59002 82845 82360 83080=
201512271500 AAXX 27154 67665 42680 50810 10271 20147 48510 70122 83231
                   333 59002 83850 83360 83080=
201512271200 AAXX 27124 67665 42670 60706 10279 20174 48527 70222 85231
                   333 58004 85835 83360 81080=
201512270900 AAXX 27094 67665 42570 60803 10250 20175 48545 70122 85832
                   333 59003 82622 85825 84360 82080=
201512270600 AAXX 27064 67665 12460 70605 10208 20184 48545 60024 70222 8553/
                   333 10305 20/// 58001 85612 86360=
201512261800 AAXX 26184 67665 42680 70902 10223 20189 48527 70392 81963
                   333 59002 81948 84359 85080=
201512261500 AAXX 26154 67665 41659 10215 20198 48515 79599 83963
                   333 59001 83942 81845 81359 84080=
201512261200 AAXX 26124 67665 42680 63006 10287 20169 48524 83901
                   333 59012 83935 83838 81080=
201512260900 AAXX 26094 67665 42680 53108 10266 20176 48550 70322 85231
                   333 59002 85835 81359 81080=
201512241200 AAXX 24124 67665 42680 70504 10279 20187 48528 70222 84202
                   333 58009 84830 85070=
201512240900 AAXX 24094 67665 42580 60310 10264 20182 48552 82900
                   333 58011 82925 86830=
201512240600 AAXX 24064 67665 32980 60504 10227 20168 48546 70222 81032
                   333 10287 58008 81360 85280
                   555 00///=
201512240300 AAXX 24034 67665 42980 11502 10196 20155 48527 70200 81030
                   333 58012 81360 91019=
201512240000 AAXX 24004 67665 42980 11102 10211 20164 48531 70200 81030
                   333 58018 81360=
201512232100 AAXX 23214 67665 42980 11002 10222 20159 48535 70200 81030
                   333 58006 81360 91020=
201512231800 AAXX 23184 67665 41680 21004 10237 20173 48516 71390
                   333 59001 81948 81359 82080=
201512231500 AAXX 23154 67665 42680 31407 10271 20213 48503 82803
                   333 58008 82845 82080=
201512231200 AAXX 23124 67665 42680 50905 10299 20224 48522 82900
                   333 58007 82935 84838=
201512230900 AAXX 23094 67665 NIL=
201512230600 AAXX 23064 67665 12980 30303 10236 20199 48539 82031
                   333 58008 82360 83080=
201512222100 AAXX 22214 67665 41760 41801 10215 20193 48539 71799 81902
                   333 58015 81956 84280=
201512221800 AAXX 22184 67665 41760 52203 10220 20190 48514 71799 81932
                   333 10325 58010 81956 82360 84280=
201512221500 AAXX 22154 67665 42680 50302 10296 20186 48498 70100 82131
                   333 59001 82845 81360 84080 91015=
201512221200 AAXX 22124 67665 42660 42903 10299 20190 48514 70122 84200
                   333 58001 84835=
201512220600 AAXX 22064 67665 32980 12804 10232 20186 48530 80001
                   333 10//0 20//0 59011 81080=
201512211800 AAXX 21184 67665 42660 32604 10225 20154 48506 82932
                   333 59016 82945 81360 82080=
201512211500 AAXX 21154 67665 42680 61504 10280 20192 48497 81932
                   333 59018 82938 83840 85360=
201512211200 AAXX 21124 67665 42680 40704 10286 20199 48513 84200
                   333 59010 84830=
201512210900 AAXX 21094 67665 42560 50903 10263 20195 48538 85200
                   333 59009 85820=
201512210600 AAXX 21064 67665 31358 72803 10201 20171 48537 75954 86600
                   333 59006 86706=
201512210300 AAXX 21034 67665 41/54 /3203 10190 20145 48520 74344 8////
                   333 59009=
201512202100 AAXX 20214 67665 42980 32803 10201 20162 48527 83030
                   333 59008 83360=
201512201500 AAXX 20154 67665 41559 73007 10224 20186 48508 79562 8533/
                   333 59022 85820 81925 84359=
201512191800 AAXX 19184 67665 41/59 80303 10190 20190 48528 76066 8297/
                   333 59008 829// 87459=
201512191500 AAXX 19154 67665 41358 82604 10193 20193 48525 76096 887//
                   333 58023 88708 829//=
201512191200 AAXX 19124 67665 42660 62704 10252 20208 48522 82930
                   333 58001 82935 83838 84360=
201512180900 AAXX 18094 67665 42580 70707 10239 20203 48542 86530
                   333 58012 86620 84360=
201512180600 AAXX 18064 67665 12360 70804 10210 20172 48546 60144 70222 81632
                   333 10278 20//0 58020 81709 83360 86280=
201512180300 AAXX 18034 67665 42360 61801 10192 20169 48536 70122 81630
                   333 58016 81706 85360 91021=
201512180000 AAXX 18004 67665 42360 71601 10191 20168 48529 70222 8263/
                   333 58019 82706 87360=
201512172100 AAXX 17214 67665 42360 61003 10194 20164 48528 83630
                   333 58007 83705 84360 91020=
201512170900 AAXX 17094 67665 41458 70502 10219 20204 48520 76062 8437/
                   333 58001 81920 84824 87459=
201512170600 AAXX 17064 67665 42560 70505 10215 20185 48528 70322 8453/ 84620 87360 Q1019=
201512162100 AAXX 16214 67665 41760 70302 10205 20179 48524 71322 8193/
                   333 58006 81950 87360 91019=
201512161800 AAXX 16184 67665 41760 70706 10216 20186 48510 71322 8193/
                   333 10286 58009 81950 87360=
201512161500 AAXX 16154 67665 41660 71003 10224 20194 48488 72196 81932
                   333 58011 81935 84360 86080=
201512161200 AAXX 16124 67665 42660 72102 10268 20194 48510 70322 86231
                   333 58013 86830 82360 81080=
201512160300 AAXX 16034 67665 42460 70202 10198 20140 48505 8453/
                   333 58000 84620 86359=
201512152100 AAXX 15214 67665 41980 71104 10213 20140 48518 71722 81938
                   333 58006 819// 86360 86280=
201512151800 AAXX 15184 67665 42660 63006 10228 20145 48504 70222 84238
                   333 59012 83835 85360 86280 91013=
201512151500 AAXX 15154 67665 42660 61405 10262 20171 48483 70122 84238
                   333 59006 85835 83360 86280 91013=
201512151200 AAXX 15124 67665 42560 63405 10285 20189 48498 70222 86201
                   333 59002 86830 83080 91015=
201512150900 AAXX 15094 67665 42560 63006 10257 20173 48521 70122 85230
                   333 58005 85820 81360 91018=
201512150600 AAXX 15064 67665 32580 83406 10220 20207 48520 60214 885//
                   333 10320 20//0 58009 88628=
201512150300 AAXX 15034 67665 42580 83303 10206 20167 48506 8657/
                   333 58000 86620 87459=
201512150000 AAXX 15004 67665 41960 80302 10214 20175 48500 75052 8807/
                   333 59004 87459=
201512142100 AAXX 14214 67665 42980 62703 10213 20166 48512 86030
                   333 58008 86360=
201512141800 AAXX 14184 67665 41960 70202 10212 20162 48490 71322 8197/
                   333 58008 819// 87459=
201512121800 AAXX 12184 67665 42980 42805 10267 20140 48497 70122 80001
                   333 59013 84080=
201512111500 AAXX 11154 67665 42780 63302 10330 20152 48496 70322 82131
                   333 59007 82860 84360 83080=
201512110600 AAXX 11064 67665 42980 33208 10265 20151 48546 70122 83031
                   333 58003 83360 82080 11021=
201512102100 AAXX 10214 67665 42980 11703 10232 20092 48521 70100 81030
                   333 59007 81360=
201512100900 AAXX 10094 67665 42980 10211 10313 20179 48547 80001
                   333 59007 81080=
201512100300 AAXX 10034 67665 42980 10000 10186 20136 48521 82030
                   333 59001 82360=
201512092100 AAXX 09214 67665 42980 02502 10231 20144 48533
                   333 58007=
201512091800 AAXX 09184 67665 41680 30000 10249 20175 48516 71390 81903
                   333 59001 819// 83080=
201512091500 AAXX 09154 67665 42680 41606 10287 20170 48503 72920 82202
                   333 58007 82845 83080=
201512091200 AAXX 09124 67665 42680 30404 10327 20156 48531 82200
                   333 58004 83838=
201512090900 AAXX 09094 67665 42680 20413 10308 20148 48554 82100
                   333 58005 82832=
201512090600 AAXX 09064 67665 32980 20204 10249 20118 48547 81032
                   333 59031 81360 81080=
201512090300 AAXX 09034 67665 42980 30502 10206 20111 48524 82032
                   333 59020 82360 81080=
201512082100 AAXX 08214 67665 42980 22302 10234 20127 48526 82030
                   333 59003 82360=
201512081200 AAXX 08124 67665 42780 42705 10324 20166 48526 83201
                   333 59002 83856 81080=
201512080900 AAXX 08094 67665 42680 23605 10296 20158 48548 70300 82101
                   333 59005 82850 81080 91020=
201512071800 AAXX 07184 67665 42980 10902 10264 20163 48517 81061
                   333 59006 81360 81080=
201512071500 AAXX 07154 67665 42680 11012 10335 20174 48509 81201
                   333 59004 81845 81080=
201512071200 AAXX 07124 67665 42680 42804 10317 20176 48528 84201
                   333 58010 84838 82080=
201512070600 AAXX 07064 67665 42980 10000 10256 20164 48553 70300 80001
                   333 58006 82080=
201512062100 AAXX 06214 67665 42980 23004 10216 20115 48532 70200 80001
                   333 58004 82080=
201512061800 AAXX 06184 67665 42980 30905 10250 20128 48514 70112 80001
                   333 59005 83080=
201512060900 AAXX 06094 67665 42680 31005 10292 20168 48545 70300 83100
                   333 59013 83830=
201512060600 AAXX 06064 67665 32980 13604 10242 20171 48545 81030
                   333 10320 20/// 59017 81360=
201512060300 AAXX 06034 67665 42980 51802 10204 20151 48521 85030
                   333 59003 85360=
201512060000 AAXX 06004 67665 42980 20000 10197 20144 48516 82030
                   333 59019 82360=
201512052100 AAXX 05214 67665 42980 11202 10215 20158 48529 81030
                   333 59011 81360=
201512051800 AAXX 05184 67665 42980 21204 10240 20171 48526 70100 82031
                   333 58004 82360 82080=
201512051200 AAXX 05124 67665 42680 61306 10281 20225 48524 70322 84201
                   333 58005 84840 85080=
201512050600 AAXX 05064 67665 42680 82505 10203 20128 48555 70262 8454/
                   333 58022 84640 88459 91023=
201512050300 AAXX 05034 67665 42980 41604 10201 20100 48557 70222 84030
                   333 58020 84360=
201512050000 AAXX 05004 67665 42980 41807 10207 20094 48536 70222 84030
                   333 58017 84360=
201512042100 AAXX 04214 67665 42980 42608 10201 20094 48537 70222 84030
                   333 58006 84360=
201512040900 AAXX 04094 67665 42680 30108 10294 20155 48539 70300 83200
                   333 58001 83830=
201512031800 AAXX 03184 67665 42980 52202 10271 20141 48518 70222 80030
                   333 59008 85360 91017=
201512030600 AAXX 03064 67665 12980 33205 10250 20157 48544 81032
                   333 10//0 20//0 59007 81360 83080=
201512030300 AAXX 03034 67665 42980 41203 10197 20110 48522 84030
                   333 59008 84360=
201512030000 AAXX 03004 67665 42980 22502 10208 20134 48517 82030
                   333 59010 82360=
201512022100 AAXX 02214 67665 42980 23004 10217 20144 48534 82030
                   333 59002 82360=
201512020900 AAXX 02094 67665 42680 40703 10292 20180 48550 70222 81131
                   333 59010 81830 82360 83080=
201512020600 AAXX 02064 67665 32980 70609 10244 20167 48542 70222 87030
                   333 10340 20//0 59012 87359=
201512020300 AAXX 02034 67665 42980 71002 10195 20128 48527 70222 8703/
                   333 59018 87360=
201512020000 AAXX 02004 67665 42980 72704 10197 20130 48518 70321 8703/
                   333 59019 87360=
201512011800 AAXX 01184 67665 42980 52103 10239 20153 48529 70222 84032
                   333 59012 84360 83080=
201512011200 AAXX 01124 67665 42680 61008 10291 20150 48532 70322 84230
                   333 59021 84835 83360=
201512010900 AAXX 01094 67665 42580 51105 10269 20157 48556 81131
                   333 59023 81828 84360 81080=
201512010600 AAXX 01064 67665 32980 40909 10230 20151 48560 83031
                   333 10302 20//0 59015 83360 82080=

################################################################################
#  SYNOPS from 67666, Lusaka City Airport (Zambia) | 15-25-00S | 028-28-00E | 1280 m
################################################################################
201512310600 AAXX 31064 67666 32980 01112 10237 20161 48543
                   333 10292 20/// 59011
                   555 00/// 91021=
201512301200 AAXX 30124 67666 NIL=
201512300600 AAXX 30064 67666 32680 20708 10228 20178 48551 82100
                   333 10275 20/// 58000 82830 91022=
201512291200 AAXX 29124 67666 NIL=
201512290900 AAXX 29094 67666 NIL=
201512290600 AAXX 29064 67666 32480 50907 10223 20194 48550 85500
                   333 10285 20//0 58002 85610
                   555 00/// 91022=
201512280600 AAXX 28064 67666 32480 40909 10225 20188 48546 70200 83500
                   333 10281 20/// 58005 83610 91021=
201512230900 AAXX 23094 67666 NIL=
201512230600 AAXX 23064 67666 32980 6//// 10243 20176 48534 70320 81036
                   333 10305 20/// 58008 81358 85080
                   555 00/// 20002 91020=
201512220600 AAXX 22064 67666 12980 23404 10232 20199 48523 60024 82070
                   333 10291 20/// 59009 82359 91019=
201512210600 AAXX 21064 67666 12480 50304 10212 20189 48533 60024 70222 85800
                   333 10265 20/// 59006 85615 81818 91020=
201512010600 AAXX 01064 67666 32980 50914 10230 20159 48554 83036
                   333 10283 20/// 59014 83359 83080 91022=

################################################################################
#  SYNOPS from 67667, Mount Makulu (Zambia) | 15-33S | 028-15E | 1213 m
################################################################################
201512301200 AAXX 30124 67667 NIL=
201512291200 AAXX 29124 67667 NIL=
201512290900 AAXX 29094 67667 NIL=
201512290600 AAXX 29064 67667 NIL=
201512230900 AAXX 23094 67667 NIL=

################################################################################
#  SYNOPS from 67673, Petauke (Zambia) | 14-15S | 031-17E | 1035 m
################################################################################
201512301200 AAXX 30124 67673 42684 31801 10300 20135 48550 83100
                   333 59003 83840=
201512300600 AAXX 30064 67673 32584 40904 10240 20168 48564 84100
                   333 10308 20200 59002 84830=
201512291200 AAXX 29124 67673 42684 60502 10295 20175 48547 86200
                   333 58006 86840=
201512290900 AAXX 29094 67673 NIL=
201512290600 AAXX 29064 67673 32584 50802 10245 20192 48568 85500
                   333 10310 20214 58010 85630
                   555 00/// 20000=
201512230900 AAXX 23094 67673 NIL=
201512221200 AAXX 22124 67673 42684 40202 10310 20175 48521 84201
                   333 59004 84840 82080=
201512220900 AAXX 22094 67673 42684 42701 10280 20215 48540 84201
                   333 59011 84832 82080=
201512220600 AAXX 22064 67673 12584 43001 10240 20212 48540 60314 84101
                   333 10300 20194 59009 84828 82080
                   555 00/// 20017=
201512211200 AAXX 21124 67673 42684 61801 10290 20192 48521 86230
                   333 59010 86840 84360=
201512210600 AAXX 21064 67673 12584 73601 10224 20198 48545 60174 8553/
                   333 10305 20190 59009 85628 87360=

################################################################################
#  SYNOPS from 67731, Senanga (Zambia) | 16-06S | 023-16E | 1027 m
################################################################################
201512301200 AAXX 30124 67731 NIL=
201512291200 AAXX 29124 67731 NIL=
201512290900 AAXX 29094 67731 NIL=
201512290600 AAXX 29064 67731 NIL=
201512230900 AAXX 23094 67731 NIL=
201512210600 AAXX 21064 67731 32480 635// 10241 20203 48/// 70322 84538
                   333 10319 20194 5//// 84615 84360 85280=

################################################################################
#  SYNOPS from 67741, Sesheke (Zambia) | 17-28S | 024-18E | 949 m
################################################################################
201512301200 AAXX 30124 67741 NIL=
201512291200 AAXX 29124 67741 NIL=
201512290900 AAXX 29094 67741 NIL=
201512290600 AAXX 29064 67741 NIL=
201512230900 AAXX 23094 67741 NIL=

################################################################################
#  SYNOPS from 67743, Livingstone (Zambia) | 17-49S | 025-49E | 985 m
################################################################################
201512301200 AAXX 30124 67743 NIL=
201512291200 AAXX 29124 67743 NIL=
201512290900 AAXX 29094 67743 NIL=
201512290600 AAXX 29064 67743 NIL=
201512230900 AAXX 23094 67743 NIL=

################################################################################
#  SYNOPS from 67751, Magoye (Zambia) | 16-00S | 027-36E | 1018 m
################################################################################
201512301200 AAXX 30124 67751 NIL=
201512291200 AAXX 29124 67751 NIL=
201512290900 AAXX 29094 67751 NIL=
201512290600 AAXX 29064 67751 NIL=
201512230900 AAXX 23094 67751 NIL=

################################################################################
#  SYNOPS from 67753, Choma (Zambia) | 16-50S | 027-04E | 1213 m
################################################################################
201512310600 AAXX 31064 67753 31960 00618 10246 20162 48533 70500
                   333 10322 20185 59015=
201512301200 AAXX 30124 67753 NIL=
201512291200 AAXX 29124 67753 NIL=
201512290900 AAXX 29094 67753 NIL=
201512290600 AAXX 29064 67753 11560 70508 10229 20197 48551 69904 76022 81130
                   333 10301 20184 5//// 81820 86380=
201512280600 AAXX 28064 67753 12560 40614 10237 20189 48/// 69904 82101
                   333 10305 20185 5//// 82825 82080=
201512230900 AAXX 23094 67753 NIL=
201512220600 AAXX 22064 67753 11960 10000 10240 20208 48513 69904 70500 81030
                   333 10301 20178 59001 81360
                   555 00///=
201512210600 AAXX 21064 67753 12560 33204 10220 20190 48/// 60044 83200
                   333 10267 20181 5//// 83825=

################################################################################
#  SYNOPS from 67855, Lupaki (Zambia) | 17-03-00S | 024-46-00E | 1000 m
################################################################################
201512310600 AAXX 31064 67855 32975 00303 10236 20158 3//// 48///
                   333 20155 5////=
201512301200 AAXX 30124 67855 42875 21803 10344 20104 3//// 48/// 82101
                   333 5//// 82857=
201512300600 AAXX 30064 67855 32980 10303 10248 20126 38/// 48/// 80001
                   333 20156 5//// 81080=
201512291200 AAXX 29124 67855 42875 52002 10340 20130 3//// 48/// 82102
                   333 5//// 82857 85080=
201512290600 AAXX 29064 67855 32975 61802 10252 20171 3//// 48/// 81038
                   333 20180 5//// 81360 86280=
201512280600 AAXX 28064 67855 32975 30402 10254 20173 3//// 48/// 81031
                   333 20203 5//// 81360 83080=
201512271200 AAXX 27124 67855 42775 50205 10336 20173 3//// 48/// 84202
                   333 5//// 84856 85080=
201512270600 AAXX 27064 67855 12975 70602 10252 20188 3//// 48/// 69904 80008
                   333 20192 5//// 87280=
201512261200 AAXX 26124 67855 42775 41004 10348 20168 3//// 48/// 85100
                   333 5//// 85850=
201512260600 AAXX 26064 67855 32575 30402 10226 20170 3//// 48/// 81501
                   333 20187 5//// 81625 83080=
201512251200 AAXX 25124 67855 NIL=
201512250600 AAXX 25064 67855 32980 03305 10264 20185 38/// 48///
                   333 20179 5////=
201512241200 AAXX 24124 67855 42775 50000 10340 20151 3//// 48/// 85200
                   333 5//// 85856=
201512240600 AAXX 24064 67855 32675 50302 10256 20155 3//// 48/// 81531
                   333 20154 5//// 81625 85080=
201512231200 AAXX 23124 67855 42875 40702 10364 20159 3//// 48/// 84200
                   333 5//// 84857=
201512230600 AAXX 23064 67855 32975 11105 10268 20163 3//// 48/// 80002
                   333 20175 5//// 81080=
201512221200 AAXX 22124 67855 NIL=
201512220600 AAXX 22064 67855 NIL=
201512211200 AAXX 21124 67855 42875 53401 10328 20165 3//// 48/// 85200
                   333 5//// 85857=
201512210600 AAXX 21064 67855 32675 20103 10252 20202 3//// 48/// 82500
                   333 20202 5//// 82630=
201512201200 AAXX 20124 67855 42775 50401 10326 20178 3//// 48/// 85200
                   333 5//// 85857=
201512200600 AAXX 20064 67855 12675 20101 10242 20195 3//// 48/// 60024 82500
                   333 20185 5//// 82625=
201512191200 AAXX 19124 67855 41675 53601 10264 20198 3//// 48/// 70198 82232
                   333 5//// 82840 85360=
201512190600 AAXX 19064 67855 12975 70000 10238 20198 3//// 48/// 69904 8707/
                   333 20196 5//// 87459=
201512181200 AAXX 18124 67855 42875 50203 10332 20188 3//// 48/// 85231
                   333 5//// 85857=
201512180600 AAXX 18064 67855 12575 30000 10238 20194 3//// 48/// 69954 81532
                   333 20192 5//// 81620 83080=
201512171200 AAXX 17124 67855 42875 60703 10354 20146 3//// 48/// 82232
                   333 5//// 82557 86080=
201512170600 AAXX 17064 67855 32975 63602 10246 20195 3//// 48/// 80008
                   333 20184 5//// 86280=
201512161200 AAXX 16124 67855 42875 73201 10330 20185 3//// 48/// 84208
                   333 5//// 84857 83280=
201512160600 AAXX 16064 67855 12675 70603 10238 20191 3//// 48/// 60054 81501
                   333 20181 5//// 81625 87080=
201512151200 AAXX 15124 67855 41670 72202 10234 20206 3//// 48/// 79598 85263
                   333 5//// 81930 84080=
201512150600 AAXX 15064 67855 12675 63601 10224 20204 3//// 48/// 60064 83571
                   333 20188 5//// 83620 86360=
201512090600 AAXX 09064 67855 32975 30303 10282 20167 3//// 48/// 80002
                   333 20192 5//// 83080=
201512081200 AAXX 08124 67855 41670 52703 10372 20159 3//// 48/// 79596 85233
                   333 81930 84080=
201512080600 AAXX 08064 67855 32975 00303 10284 20170 3//// 48///
                   333 20200 5////=
201512071200 AAXX 07124 67855 42875 50000 10374 20153 3//// 48/// 85200
                   333 5//// 85857=
201512070600 AAXX 07064 67855 32980 13401 10280 20155 38/// 48/// 80001
                   333 20190 5//// 81080=
201512061200 AAXX 06124 67855 NIL=
201512060600 AAXX 06064 67855 32975 10000 10262 20178 3//// 48/// 80002
                   333 20170 5//// 81080=
201512051200 AAXX 05124 67855 NIL=
201512050600 AAXX 05064 67855 32975 52701 10248 20189 3//// 48/// 83032
                   333 20186 5//// 83360 85080=
201512041200 AAXX 04124 67855 41675 60000 10322 20183 3//// 48/// 79596 84273
                   333 5//// 81930 83840 86080=
201512040600 AAXX 04064 67855 12975 60801 10230 20183 3//// 48/// 60234 86072
                   333 20188 5//// 86360 83080=
201512031200 AAXX 03124 67855 NIL=
201512030600 AAXX 03064 67855 32975 70601 10246 20194 3//// 48/// 8707/
                   333 20205 5//// 87459=
201512021200 AAXX 02124 67855 42775 70000 10306 20197 3//// 48/// 8227/
                   333 5//// 82850 87459=
201512010600 AAXX 01064 67855 NIL=
