################################################################################
# Query made at 04/15/2022 01:45:26 UTC
# Country like Zamb*
# Time interval: from 09/01/2011 05:30  to 10/01/2011 06:30  UTC
################################################################################

################################################################################
#  SYNOPS from 67413, Mbala (Zambia) | 08-51S | 031-20E | 1673 m
################################################################################
201109070600 AAXX 07064 67413 31975 01522 10165 20102 48560 70500
                   333 10270 20145 59001=
201109060600 AAXX 06064 67413 31970 01311 10175 20106 48516 70500
                   333 10295 20140 5////=

################################################################################
#  SYNOPS from 67441, Mwinilunga (Zambia) | 11-45S | 024-26E | 1361 m
################################################################################
201109280900 AAXX 28094 67441 41675 10406 10275 20123 48550 70500 81100
                   333 59011 81840=
201109280600 AAXX 28064 67441 31965 30604 10175 20094 48547 70500 83030
                   333 10330 20//0 59017 83360=
201109271200 AAXX 27124 67441 41675 13004 10334 20046 48528 70500 81100
                   333 59013 81840=
201109210600 AAXX 21064 67441 31960 10000 10160 20087 48556 70500 80008
                   333 10335 20//0 59006 81280=
201109190600 AAXX 19064 67441 31965 00000 10175 20083 48563 70500
                   333 10295 20/// 59003=
201109141200 AAXX 14124 67441 41665 60000 10300 20140 48528 71799 81933
                   333 58010 81935 84840 82362 81080=
201109140600 AAXX 14064 67441 31960 10000 10195 20050 48554 70500
                   333 10320 20//0 58011=
201109130900 AAXX 13094 67441 41965 00000 10270 20133 48549 70500
                   333 59003=
201109130600 AAXX 13064 67441 31960 10000 10140 20073 48544 70500 80001
                   333 10315 20/// 59008 81080=
201109120900 AAXX 12094 67441 41960 00607 10270 20048 48552 70500
                   333 5////=
201109120600 AAXX 12064 67441 31960 10000 10195 20074 48551 70500 80001
                   333 10320 20/// 59012 81080=
201109070600 AAXX 07064 67441 31960 01207 10192 20070 48578 70500
                   333 10310 20//0 59002=
201109060600 AAXX 06064 67441 31960 00000 10186 20066 48580 70500
                   333 10320 20//0 58014=
201109050600 AAXX 05064 67441 31960 00000 10172 20021 48566 70500
                   333 10323 2//// 58015=

################################################################################
#  SYNOPS from 67461, Mansa (Zambia) | 11-06S | 028-51E | 1382 m
################################################################################
201109280600 AAXX 28064 67461 31975 31106 10215 20137 48521 70500 80001
                   333 10307 20164 59012 83080=
201109210600 AAXX 21064 67461 31970 00902 10225 20135 48530 70500
                   333 10329 20144 58002=
201109191200 AAXX 19124 67461 41775 50802 10295 20112 48509 70510 85101
                   333 59007 85856 81080=
201109190900 AAXX 19094 67461 41975 11024 10275 20103 48540 70500 80001
                   333 58000 81080=
201109190600 AAXX 19064 67461 31975 11202 10214 20132 48533 70500 80001
                   333 10308 20136 59006 81080=
201109140600 AAXX 14064 67461 31960 51202 10194 20123 48523 70522 81038
                   333 10323 20162 58008 81360 85280=
201109130600 AAXX 13064 67461 31960 21004 10176 20110 48513 70500 80002
                   333 10294 20125 59014 82080=
201109120600 AAXX 12064 67461 31975 21104 10192 20100 48529 70500 80001
                   333 10306 20115 59007 82080=
201109060600 AAXX 06064 67461 31975 10905 10175 20095 48549 70500 80001
                   333 10310 20130 58007 81080=
201109050600 AAXX 05064 67461 31975 21202 10190 20115 48544 70500 80001
                   333 10328 20124 58027 82080=

################################################################################
#  SYNOPS from 67475, Kasama (Zambia) | 10-13S | 031-08E | 1382 m
################################################################################
201109210600 AAXX 21064 67475 31970 01206 10245 20134 48539 70500
                   333 10315 20154 58002=
201109190600 AAXX 19064 67475 31970 01205 10188 20145 48539 70500
                   333 10293 20138 59003=
201109120600 AAXX 12064 67475 31980 00906 10191 20077 48534 70500
                   333 10290 20145 59012=

################################################################################
#  SYNOPS from 67476, Misamfu (Zambia) | 10-06S | 031-15E | 1536 m
################################################################################
201109060600 AAXX 06064 67476 31974 00908 10198 20095 48/// 70500
                   333 10290 20144 58014=

################################################################################
#  SYNOPS from 67477, Mpika (Zambia) | 11-54S | 031-26E | 1400 m
################################################################################
201109291200 AAXX 29124 67477 41975 10905 10286 20906 48499 70500 81130
                   333 59002 81818 81362=
201109271200 AAXX 27124 67477 41870 11010 10275 20085 48508 70500 81100
                   333 59018 81857=
201109210600 AAXX 21064 67477 31975 01015 10235 20120 48533 70500
                   333 10304 20164 59007=
201109191200 AAXX 19124 67477 41875 30903 10280 20077 48508 70500 83100
                   333 5//// 83857=
201109190900 AAXX 19094 67477 41975 00908 10258 20076 48535 70500
                   333 5////=
201109190600 AAXX 19064 67477 31970 01208 10204 20095 48537 70500
                   333 10255 20125 59019=
201109141200 AAXX 14124 67477 41875 31802 10208 20087 48506 70500 83100
                   333 58001 83837=
201109130900 AAXX 13094 67477 41975 00605 10252 20079 48526 70500
                   333 5////=
201109120600 AAXX 12064 67477 31975 00910 10200 20054 48535 70500
                   333 10270 20135 59019=
201109071200 AAXX 07124 67477 41970 01208 10254 20021 48531 70500
                   333 59004=
201109070600 AAXX 07064 67477 31965 01207 10185 20060 48566 70500
                   333 10265 20073 59003=

################################################################################
#  SYNOPS from 67531, Zambezi (Zambia) | 13-32S | 023-07E | 1077 m
################################################################################
201109280900 AAXX 28094 67531 41970 01212 10300 20086 48/// 70500 333=
201109271200 AAXX 27124 67531 41975 02207 10320 20032 48/// 70500
                   333 59018=
201109261200 AAXX 26124 67531 41970 01504 10345 20045 48/// 70500
                   333 5////=
201109231200 AAXX 23124 67531 41965 01310 10348 20060 48/// 70500
                   333 59002=
201109210600 AAXX 21064 67531 31960 00906 10230 20050 48/// 70500
                   333 10360 20116 59004=
201109191200 AAXX 19124 67531 41975 12704 10328 20072 48/// 70500 81100
                   333 5//// 81859=
201109190900 AAXX 19094 67531 41975 00904 10303 20097 48/// 70500
                   333 5////=
201109190600 AAXX 19064 67531 31975 00907 10227 20015 48/// 70500
                   333 10333 20142 59002=
201109161200 AAXX 16124 67531 41960 11306 10341 20074 48/// 70500
                   333 58003 81859=
201109141200 AAXX 14124 67531 41860 13003 10320 20151 48/// 70500 81100
                   333 58005 81857=
201109140900 AAXX 14094 67531 41950 03007 10285 20161 48/// 70500
                   333 58007=
201109140600 AAXX 14064 67531 31960 03305 10223 20163 48/// 70500
                   333 10340 20142 58001=
201109130600 AAXX 13064 67531 31950 10906 10195 20063 48/// 70500 80001
                   333 10286 20128 5////=
201109120900 AAXX 12094 67531 41960 11114 10280 20063 48/// 70500 80001
                   333 5//// 81080=
201109120600 AAXX 12064 67531 31950 01004 10184 20052 48/// 70500
                   333 10332 20116 59011=
201109071200 AAXX 07124 67531 41975 01212 10319 20036 48/// 70500
                   333 59003=
201109070600 AAXX 07064 67531 31975 01111 10197 20053 48/// 70500
                   333 10331 20135 58004=
201109060600 AAXX 06064 67531 31960 00907 10186 20032 48/// 70500
                   333 10336 20130 58017=
201109050600 AAXX 05064 67531 31950 01207 10200 20030 48/// 70500
                   333 10346 20115 58014=

################################################################################
#  SYNOPS from 67551, Solwezi (Zambia) | 12-11S | 026-23E | 1386 m
################################################################################
201109210600 AAXX 21064 67551 31958 00000 10172 20094 48532 70500
                   333 10//0 20119 58004=

################################################################################
#  SYNOPS from 67561, Ndola (Zambia) | 13-00S | 028-39E | 1269 m
################################################################################
201109210600 AAXX 21064 67561 31956 00000 10204 20073 48537 70400
                   333 10327 20130 59000=
201109140600 AAXX 14064 67561 31956 50000 10125 20088 48528 70400 81038
                   333 10310 20125 58009 81360 85280=
201109130600 AAXX 13064 67561 31960 30807 10183 20036 48519 70500
                   333 10295 20115 59021 83080=
201109121500 AAXX 12154 67561 41960 00000 10280 20056 48490 70500
                   333 59020=
201109121200 AAXX 12124 67561 41960 01205 10290 20043 48510 70500
                   333 59012=

################################################################################
#  SYNOPS from 67563, Kafironda (Zambia) | 12-36S | 028-07E | 1243 m
################################################################################
201109190600 AAXX 19064 67563 31970 11502 10191 20110 48/// 70500 81030
                   333 10303 20080 59014 81360=
201109140600 AAXX 14064 67563 31965 00000 10160 20090 48/// 70500
                   333 10318 20086 58012=
201109130600 AAXX 13064 67563 31965 00807 10204 20100 48/// 70500
                   333 10301 20070 59023=
201109070600 AAXX 07064 67563 31965 00000 10164 20100 48/// 70500
                   333 10305 20076 59003=
201109060600 AAXX 06064 67563 31975 02303 10189 20097 48/// 70500
                   333 10312 20071 58015=

################################################################################
#  SYNOPS from 67571, Serenje (Zambia) | 13-14S | 030-13E | 1384 m
################################################################################
201109140600 AAXX 14064 67571 31960 01204 10226 20090 48523 70500 10314 20120 59001=
201109130900 AAXX 13094 67571 41970 70902 10265 20076 48525 70511 80008
                   333 59014 87280=

################################################################################
#  SYNOPS from 67580, Msekera (Zambia) | 13-39S | 032-34E | 1025 m
################################################################################
201109291200 AAXX 29124 67580 41875 70910 10234 20127 48/// 70522 84308
                   333 84857 87280=
201109190600 AAXX 19064 67580 31975 01204 10259 20107 48/// 70500
                   333 10295 20/// 59018=
201109140600 AAXX 14064 67580 31975 21502 10232 20137 48/// 70500 80001
                   333 10320 20//0 58002 82080=
201109130600 AAXX 13064 67580 31975 00909 10235 20096 48/// 70500
                   333 10297 20/// 59020=
201109120900 AAXX 12094 67580 41670 61210 10258 20102 48/// 70521 86848=
201109071200 AAXX 07124 67580 41870 61206 10287 20081 48/// 70522 86100
                   333 59004 86857=

################################################################################
#  SYNOPS from 67581, Chipata (Zambia) | 13-33S | 032-35E | 1028 m
################################################################################
201109190600 AAXX 19064 67581 32980 00408 10250 20099 48558
                   333 10315 20175 59019=
201109120600 AAXX 12064 67581 32680 10805 10231 20093 48561 81100
                   333 10315 20150 59016 81835=
201109060600 AAXX 06064 67581 31970 01603 10222 10112 48584 70500
                   333 10329 20168 58024=

################################################################################
#  SYNOPS from 67599, Mfuwe (Zambia) | 13-16S | 031-56E | 568 m
################################################################################
201109280900 AAXX 28094 67599 41857 21210 10337 20131 48570 70500 82100
                   333 59006 82857=
201109271200 AAXX 27124 67599 41658 21704 10340 20148 48532 70500 82200
                   333 59036 82850=
201109191200 AAXX 19124 67599 41959 03504 10350 20130 48540 70500
                   333 59032=
201109190600 AAXX 19064 67599 31958 00000 10234 20135 48549 70500
                   333 10325 20141 58006=
201109171200 AAXX 17124 67599 41758 11608 10345 20134 48553 70500 81200
                   333 58033 81850=
201109141200 AAXX 14124 67599 41560 10104 10349 20164 48533 70500 81200
                   333 58000 81825=
201109140900 AAXX 14094 67599 41960 00304 10314 20181 48558 70500
                   333 59013=
201109140600 AAXX 14064 67599 31958 00905 10246 20157 48544 70500
                   333 10360 20153 59015=
201109070600 AAXX 07064 67599 31970 00000 10217 20113 48588 70500
                   333 10349 20126 58011=
201109060600 AAXX 06064 67599 31958 00000 10237 20130 48584 70500
                   333 10354 20140 58030=
201109011200 AAXX 01124 67599 41970 00907 10347 20138 48557 70500
                   333 58000=
201109010600 AAXX 01064 67599 31959 01203 10244 20160 48560 70500
                   333 10352 20150 59016=

################################################################################
#  SYNOPS from 67633, Mongu (Zambia) | 15-15S | 023-09E | 1052 m
################################################################################
201109190600 AAXX 19064 67633 31975 00914 10216 20077 48528 70500
                   333 10327 20168 59006=
201109130900 AAXX 13094 67633 41970 00806 10297 20056 48524 70500
                   333 59015=
201109120600 AAXX 12064 67633 31970 00910 10200 20058 48522 70500
                   333 10345 20143 59017=
201109070600 AAXX 07064 67633 31960 00910 10190 20034 48553 70500
                   333 10336 20140 58002=
201109060600 AAXX 06064 67633 31960 01008 10208 20028 48544 70500
                   333 10345 20149 58023=
201109050600 AAXX 05064 67633 31960 00910 10196 20049 48530 70500
                   333 10360 20168 58001=
201109020600 AAXX 02064 67633 31960 10904 10214 20080 48537 70500 80001
                   333 10335 20160 59001 81080=

################################################################################
#  SYNOPS from 67655, Mumbwa (Zambia) | 15-04S | 027-11E | 1216 m
################################################################################
201109280600 AAXX 28064 67655 31975 00909 10221 20109 70500
                   333 10291 20//0 59022=
201109190600 AAXX 19064 67655 31975 00906 10210 20095 48550 70500
                   333 10294 20104 59012=
201109140600 AAXX 14064 67655 31960 00512 10220 20102 48524 70500
                   333 10315 20092 59007=
201109130900 AAXX 13094 67655 41960 00403 10262 20113 48540 70500
                   333 59012=
201109060600 AAXX 06064 67655 31980 00907 10189 20102 48581 70500
                   333 10310 20120 58028=

################################################################################
#  SYNOPS from 67659, Kafue Polder (Zambia) | 15-46S | 027-55E | 978 m
################################################################################
201109140600 AAXX 14064 67659 31950 00903 10191 20109 48/// 70500
                   333 10306 20092 59009=

################################################################################
#  SYNOPS from 67663, Kabwe (Zambia) | 14-27S | 028-28E | 1206 m
################################################################################
201109280900 AAXX 28094 67663 41970 00603 10281 20120 48/// 70500
                   333 59015=
201109190600 AAXX 19064 67663 31965 00702 10204 20116 48536 70500
                   333 10286 20131 59015=
201109120600 AAXX 12064 67663 31965 00804 10194 20092 48546 70500
                   333 10295 20143 59011=

################################################################################
#  SYNOPS from 67665, Lusaka Internationalairport (Zambia) | 15-19S | 028-27E | 1152 m
################################################################################
201110010600 AAXX 01064 67665 31959 41405 10227 20125 48543 70522 84030
                   333 10323 20165 58006 84360=
201110010400 AAXX 01044 67665 41960 52102 10186 20127 48525 70522 85030
                   333 58006 85360=
201110010300 AAXX 01034 67665 41960 22102 10195 20118 48519 70500 82030
                   333 58005 82360=
201110010000 AAXX 01004 67665 41960 21703 10186 20118 48514 70500 82030
                   333 59002 82360=
201109302100 AAXX 30214 67665 41960 21603 10203 20107 48521 70500 82030
                   333 58000 82360=
201109301800 AAXX 30184 67665 41970 11604 10222 20101 48512 70522 81030
                   333 10323 59004 81361=
201109301200 AAXX 30124 67665 41659 60505 10311 20092 48520 70522 85230
                   333 58001 85847 82360=
201109291800 AAXX 29184 67665 41675 30206 10243 20106 48519 71322 81930
                   333 10325 59001 81930 83360=
201109291500 AAXX 29154 67665 41775 31607 10297 20105 48558 70522 81230
                   333 10325=
201109291200 AAXX 29124 67665 41670 20605 10312 20104 48519 70500 82100
                   333 59003 82845 91017=
201109281500 AAXX 28154 67665 41960 10607 10303 20065 48510 70500 81030
                   333 59011 81360=
201109281200 AAXX 28124 67665 41759 10607 10317 20075 48524 70500 81100
                   333 59015 81857=
201109280900 AAXX 28094 67665 42680 10706 10292 20110 48546 70322 81100
                   333 59019 81830=
201109280600 AAXX 28064 67665 32980 01106 10212 20119 48545
                   333 10300 20134 59013
                   555 00///=
201109280400 AAXX 28044 67665 42980 01304 10145 20109 48527
                   333 5////=
201109272100 AAXX 27214 67665 42980 01404 10180 20090 48535
                   333 5////=
201109271200 AAXX 27124 67665 42780 20207 10287 20077 48535 82100
                   333 59024 82850=
201109261800 AAXX 26184 67665 42980 01305 10189 20076 48551
                   333 10281 59013=
201109261200 AAXX 26124 67665 42780 11007 10269 20074 48556 81100
                   333 59014 81850=
201109251200 AAXX 25124 67665 42680 10910 10269 20087 48570 81100
                   333 58019 81840=
201109250600 AAXX 25064 67665 32460 60907 10189 20149 48593 86500
                   333 10322 20150 58027 86615=
201109241200 AAXX 24124 67665 41759 11010 10312 20098 48556 70500 81100
                   333 58016 81858=
201109231800 AAXX 23184 67665 42980 01205 10234 20027 48542 70500
                   333 10340 58000=
201109231200 AAXX 23124 67665 42980 11204 10325 20045 48543 70500 80001
                   333 58003 81080=
201109220600 AAXX 22064 67665 31960 11403 10241 20094 48559 70500 81080
                   333 10345 20105 58010 81080
                   555 00///=
201109210900 AAXX 21094 67665 41970 00808 10313 20065 48554 70500
                   333 58000=
201109210600 AAXX 21064 67665 32980 01205 10246 20103 48551 70500
                   333 10330 20144 58001=
201109210000 AAXX 21004 67665 41970 01504 10154 20069 48515 70500
                   333 59017=
201109201800 AAXX 20184 67665 41970 01504 10233 20056 48527 70500
                   333 10330 59008=
201109191800 AAXX 19184 67665 42980 01204 10224 20069 48534
                   333 10305 59015=
201109191500 AAXX 19154 67665 42880 10505 10287 20076 48525 81100
                   333 59017 81857=
201109191200 AAXX 19124 67665 42680 20904 10285 20087 48534 82100
                   333 59020 82845=
201109190900 AAXX 19094 67665 42680 30606 10254 20111 48555 83200
                   333 59024 83830=
201109190600 AAXX 19064 67665 31960 01004 10206 20132 48557 70500
                   333 10283 20115 59018=
201109190300 AAXX 19034 67665 41970 01703 10134 20116 48527 70500
                   333 59020 91020=
201109190000 AAXX 19004 67665 41970 01703 10134 20107 48530 70500
                   333 59018=
201109182100 AAXX 18214 67665 42970 01303 10155 20100 48547 70500
                   333 59013=
201109181800 AAXX 18184 67665 42970 11206 10193 20091 48545 70500 81030
                   333 10283 59013 81360=
201109180900 AAXX 18094 67665 41970 00810 10227 20156 48576 70500
                   333 58001=
201109180600 AAXX 18064 67665 31458 70810 10165 20165 48569 70522 87500
                   333 10280 20112 58010 87615=
201109171800 AAXX 17184 67665 41960 01007 10193 20130 48557 70500
                   333 10280 58037=
201109171500 AAXX 17154 67665 41960 01111 10251 20109 48549 70500
                   333 58036 555 10280=
201109171200 AAXX 17124 67665 41959 01012 10259 20118 48557 70510
                   333 58004=
201109170600 AAXX 17064 67665 31958 70816 10203 20155 48563 70522 87030
                   333 10336 20187 58026 87358=
201109161800 AAXX 16184 67665 41960 01404 10224 20091 48524 70500
                   333 10330 58005=
201109161200 AAXX 16124 67665 41659 20709 10320 20080 48529 70500 82100
                   333 58005 82845 91018=
201109160400 AAXX 16044 67665 41960 31604 10171 20089 48525 70500 83030
                   333 58008 83360=
201109152100 AAXX 15214 67665 41960 01303 10170 20099 48529 70500
                   333 58006=
201109151200 AAXX 15124 67665 41958 00809 10312 20088 48522 70500
                   333 58001=
201109150600 AAXX 15064 67665 31958 01204 10208 20093 48534 70500
                   333 10323 20125 59002=
201109150300 AAXX 15034 67665 41960 01306 10158 20085 48511 70500
                   333 59004=
201109150000 AAXX 15004 67665 41960 10166 20096 48515 70500
                   333 59005=
201109142100 AAXX 14214 67665 41960 01705 10185 20085 48524 70500
                   333 59001=
201109141800 AAXX 14184 67665 41960 01303 10215 20091 48518 70500
                   333 10323 58009=
201109141500 AAXX 14154 67665 41959 01004 10308 20055 48512 70500
                   333 59001=
201109141200 AAXX 14124 67665 41959 00902 10306 20056 48527 70500
                   333 59006=
201109140900 AAXX 14094 67665 41958 00307 10281 20081 48545 70500
                   333 59003=
201109140600 AAXX 14064 67665 31958 01306 10200 20081 48535 70500
                   333 10305 20120 58000=
201109131200 AAXX 13124 67665 41960 12704 10288 20091 48525 70500 81030
                   333 59006 81360=
201109130900 AAXX 13094 67665 41960 00806 10267 20070 48546 70500
                   333 59014=
201109130600 AAXX 13064 67665 31959 11204 10198 20080 48535 70500 80002
                   333 10292 20120 59026 81080=
201109130400 AAXX 13044 67665 41959 51403 10126 20079 48518 70500 80002
                   333 59024 85280=
201109130300 AAXX 13034 67665 41959 01505 10137 20069 48514 70500
                   333 59027 91019=
201109130000 AAXX 13004 67665 41960 01603 10155 20069 48519 70500
                   333 59027 91019=
201109122100 AAXX 12214 67665 41960 01604 10159 20074 48525 70500
                   333 59029 91020=
201109121800 AAXX 12184 67665 41958 00403 10189 20078 48521 70500
                   333 10289 59026=
201109121500 AAXX 12154 67665 41958 00707 10268 20057 48520 70500
                   333 59022=
201109121200 AAXX 12124 67665 41958 00308 10282 20053 48530 70500
                   333 59012=
201109120900 AAXX 12094 67665 41658 10612 10256 20077 48559 70500 81100
                   333 59007 81845=
201109120600 AAXX 12064 67665 31958 00907 10200 20093 48560 70500
                   333 10294 20110 58011=
201109111800 AAXX 11184 67665 41960 01406 10192 20070 48547 70500
                   333 10294 59001=
201109111500 AAXX 11154 67665 41959 01008 10273 20056 48541 70500
                   333 59002 555 10294 91020=
201109111200 AAXX 11124 67665 41959 00908 10282 20055 48552 70500
                   333 58004 91021=
201109101800 AAXX 10184 67665 41960 01406 10186 20026 48548 70500
                   333 59003=
201109101200 AAXX 10124 67665 41959 01110 10294 20030 48549 70500
                   333 59003=
201109100900 AAXX 10094 67665 41959 00810 10273 20037 48575 70500
                   333 59006=
201109100400 AAXX 10044 67665 41960 01604 10130 20022 48541 70500
                   333 59009=
201109100300 AAXX 10034 67665 41960 01705 10129 20020 48536 70500
                   333 59007=
201109092100 AAXX 09214 67665 41959 01604 10121 20044 48546 70500
                   333 59006=
201109081200 AAXX 08124 67665 41960 00907 10271 20035 48555 70500
                   333 59008=
201109080900 AAXX 08094 67665 41960 00911 10242 20055 48583 70500
                   333 59007=
201109080600 AAXX 08064 67665 31965 01007 10173 20056 48574 70500
                   333 10282 20079 59010=
201109071800 AAXX 07184 67665 41970 01005 10168 20035 48560 70500
                   333 10282 59008=
201109071500 AAXX 07154 67665 41970 01210 10253 20032 48556 70500
                   333 59005=
201109071200 AAXX 07124 67665 41970 01109 10267 21005 48563 70500
                   333 59004=
201109070600 AAXX 07064 67665 32980 00908 10183 20070 48585
                   333 10295 20088 59002=
201109070400 AAXX 07044 67665 41970 01503 10090 20060 48561 70500
                   333 58000=
201109070300 AAXX 07034 67665 41970 01503 10101 20061 48557 70500
                   333 58003=
201109070000 AAXX 07004 67665 41970 01604 10116 20066 48557 70500
                   333 58003=
201109062100 AAXX 06214 67665 41970 01205 10145 20078 48571 70500
                   333 58014=
201109061800 AAXX 06184 67665 41960 01105 10170 20065 48569 70500
                   333 10295 58015=
201109061200 AAXX 06124 67665 41970 00809 10277 20073 48567 70500
                   333 58014=
201109060600 AAXX 06064 67665 31960 01111 10186 20123 48589 70500
                   333 10305 20114 58028=
201109051800 AAXX 05184 67665 41970 01005 10183 20054 48533 70500
                   333 10305 58019=
201109051500 AAXX 05154 67665 41970 01010 10280 20055 48549 70500
                   333 58012 555 10305=
201109051200 AAXX 05124 67665 41965 01112 10287 20057 48556 70500
                   333 59011 91021=
201109050600 AAXX 05064 67665 32970 01107 10197 20094 48563 70500
                   333 10309 20129 58010=
201109040900 AAXX 04094 67665 41958 00812 10264 20079 48566 70500
                   333 59016=
201109040600 AAXX 04064 67665 31958 01207 10191 20080 48552 70500
                   333 10332 20130 59016
                   555 00///=
201109040400 AAXX 04044 67665 41960 01107 10155 20069 48531 70500
                   333 59004=
201109032100 AAXX 03214 67665 41959 01804 10187 20088 48527 70500
                   333 59011=
201109031200 AAXX 03124 67665 41960 01311 10323 20056 48532 70500
                   333 59013 91018=
201109030600 AAXX 03064 67665 31960 00602 10220 20096 48541 70500
                   333 10315 20107 59014=
201109030400 AAXX 03044 67665 41960 01704 10125 20087 48518 70500
                   333 59015=
201109030300 AAXX 03034 67665 41960 01803 10123 20090 48513
                   333 58016=
201109030000 AAXX 03004 67665 41980 01904 10146 20090 48519 70500
                   333 59019=
201109022100 AAXX 02214 67665 41980 01503 10166 20092 48534 70500
                   333 59016=
201109021800 AAXX 02184 67665 41959 01802 10205 20064 48534 70500
                   333 10315 59012=
201109021500 AAXX 02154 67665 41960 01510 10290 20040 48533 70500
                   333 59011=
201109021200 AAXX 02124 67665 41970 01407 10306 2//96 48543 70500
                   333 59003=
201109020600 AAXX 02064 67665 31970 01403 10197 20120 48547 70500
                   333 10301 20116 59004=
201109011500 AAXX 01154 67665 41970 01408 10286 20113 48544 70500
                   333 58004=
201109011200 AAXX 01124 67665 41970 01105 10293 20113 48545 70500
                   333 59003=
201109010600 AAXX 01064 67665 31975 01106 10175 20124 48553 70500
                   333 10291 20076 59002=

################################################################################
#  SYNOPS from 67666, Lusaka City Airport (Zambia) | 15-25S | 028-19E | 1280 m
################################################################################
201109291200 AAXX 29124 67666 41780 40905 10306 20167 48510 70500 84100
                   333 59005 84860=
201109280900 AAXX 28094 67666 42980 00905 10282 20164 48535
                   333 59019=
201109280600 AAXX 28064 67666 32980 00912 10//0 20136 48589
                   333 10290 20175 59016=
201109271200 AAXX 27124 67666 42580 12003 10270 20134 48563 81100
                   333 59025 86840=
201109231200 AAXX 23124 67666 42980 01005 10319 20144 48535
                   333 58007=
201109190900 AAXX 19094 67666 42580 30905 10250 20137 48549 83100
                   333 59020 83830=
201109190600 AAXX 19064 67666 31978 01012 10202 20134 48581 70500
                   333 10270 20155 59015=
201109161200 AAXX 16124 67666 42980 50405 10303 20133 48518 85100
                   333 58003 85840=
201109141200 AAXX 14124 67666 42980 00000 10305 20106 48513
                   333 59004=
201109130900 AAXX 13094 67666 42980 00904 10250 20106 48536
                   333 59013=
201109130600 AAXX 13064 67666 31979 00904 10200 20083 48529 70500
                   333 10285 20/// 59025=
201109120900 AAXX 12094 67666 42980 10810 10250 20115 48449 81100
                   333 59015 81825=
201109120600 AAXX 12064 67666 31970 00907 10199 48553 70500
                   333 10//0 20130 59009=
201109071200 AAXX 07124 67666 42980 00912 10256 20041 48///
                   333 59005=
201109070600 AAXX 07064 67666 31970 00910 10170 20081 48576 70500
                   333 10280 20125 59001=
201109060600 AAXX 06064 67666 31978 00910 10180 20111 48581 70500
                   333 10295 20140 58030=
201109010600 AAXX 01064 67666 31970 00910 10190 20102 48546
                   333 10/// 20/// 58013=

################################################################################
#  SYNOPS from 67673, Petauke (Zambia) | 14-15S | 031-17E | 1035 m
################################################################################
201109280900 AAXX 28094 67673 41970 01606 10305 20069 48555 70500
                   333 59015=
201109280600 AAXX 28064 67673 31970 01307 10258 20100 48555 70500
                   333 10310 20200 59014=
201109271200 AAXX 27124 67673 41670 60904 10292 20092 48534 70500 86100
                   333 59028 86840=
201109210600 AAXX 21064 67673 31960 00205 10269 20116 48560 70500
                   333 10345 20205 58000=
201109191200 AAXX 19124 67673 41665 41802 10306 20072 48543 70500 84100
                   333 59036 84845=
201109190900 AAXX 19094 67673 41665 33604 10285 20087 48563 70500 83100
                   333 58037 83835=
201109141200 AAXX 14124 67673 41760 41004 10324 20104 48531 70500 84100
                   333 59006 84850=
201109140900 AAXX 14094 67673 41960 03602 10285 20132 48563 70500
                   333 58006=
201109140600 AAXX 14064 67673 31960 00504 10228 20116 48555 70500
                   333 10310 20170 58007=
201109130600 AAXX 13064 67673 31960 00506 10230 20066 48548 70500
                   333 10293 20164 59021=

################################################################################
#  SYNOPS from 67743, Livingstone (Zambia) | 17-49S | 025-49E | 985 m
################################################################################
201109220600 AAXX 22064 67743 31959 00202 10220 20056 48541 70500
                   333 10371 20176 58007=
201109191500 AAXX 19154 67743 41965 02703 10336 20035 48518 70500
                   333 59032=
201109141500 AAXX 14154 67743 41959 02004 10335 20064 48505 70500
                   333 58009=
201109141200 AAXX 14124 67743 41959 02603 10340 20070 48512 70500
                   333 58005=
201109140900 AAXX 14094 67743 41980 03004 10288 20087 48538 70500
                   333 58005=
201109140600 AAXX 14064 67743 31958 01606 10198 20025 48523 70500
                   333 10333 20143 58004=
201109130600 AAXX 13064 67743 31959 00906 10195 20060 48517 70500
                   333 10326 20151 59028=
201109121500 AAXX 12154 67743 41958 00809 10313 20060 48509 70500
                   333 59029=
201109120600 AAXX 12064 67743 31958 01604 10174 20045 48539 70500
                   333 10336 20131 59018=
201109111200 AAXX 11124 67743 41958 01610 10320 20049 48550 70500
                   333 59003=
201109060600 AAXX 06064 67743 31957 01205 10200 20067 48581 70500
                   333 10330 20//0 58029=
201109040600 AAXX 04064 67743 31958 01106 10202 20041 48547 70500
                   333 10355 2//// 58012
                   555 00///=
201109030600 AAXX 03064 67743 31960 01602 10220 20087 48539 70500
                   333 20345 59011=
201109021200 AAXX 02124 67743 41960 01505 10334 20048 48542 70500
                   333 59006=
201109020600 AAXX 02064 67743 31960 00000 10170 20099 48540 70500
                   333 10326 20//0 59001=
201109011200 AAXX 01124 67743 41960 01006 10317 20080 48546 70500
                   333 59010=
201109010600 AAXX 01064 67743 41960 00905 10175 20060 48541 70500
                   333 10302 2//// 59018=

################################################################################
#  SYNOPS from 67753, Choma (Zambia) | 16-50S | 027-04E | 1213 m
################################################################################
201109291200 AAXX 29124 67753 41960 10908 10299 20121 48/// 70500 81100
                   333 5//// 81858=
201109190600 AAXX 19064 67753 31960 03610 10229 20087 48/// 70500
                   333 10278 20093 5////=
201109161200 AAXX 16124 67753 41860 10907 10316 20116 48/// 70500 81100
                   333 5//// 81857=
201109140900 AAXX 14094 67753 41960 00614 10291 20097 48/// 70500
                   333 5////=
201109140600 AAXX 14064 67753 31960 03508 10198 20082 48/// 70500
                   333 10//0 20133 5////=
201109130600 AAXX 13064 67753 31960 03607 10207 20101 48/// 70500
                   333 10286 20128 5////=
201109120600 AAXX 12064 67753 31960 00905 10189 20105 48/// 70500
                   333 10287 20133 5////=
201109070600 AAXX 07064 67753 31960 00610 10182 20078 48/// 70500
                   333 10267 20102 5////=
201109060600 AAXX 06064 67753 31960 00610 10199 20110 48/// 70500
                   333 10297 20131 5////=
201109050600 AAXX 05064 67753 31960 00907 10184 20097 48/// 70500
                   333 10319 20114 5////=

################################################################################
#  SYNOPS from 67855, Lupaki (Zambia) | 17-03-00S | 024-46-00E | 1000 m
################################################################################
201110010600 AAXX 01064 67855 11970 60604 10232 20105 3//// 48/// 69904 70522 81032
                   333 20184 5//// 81360 86080=
201109301200 AAXX 30124 67855 41660 51103 10332 20096 3//// 48/// 72582 85200
                   333 5//// 85840=
201109300600 AAXX 30064 67855 31970 01202 10242 20085 38/// 48/// 70500
                   333 20157 5////=
201109291200 AAXX 29124 67855 41770 30602 10346 20065 38/// 48/// 70500 83100
                   333 5//// 83850=
201109290600 AAXX 29064 67855 31970 01002 10226 20073 38/// 48/// 70500
                   333 20168 5////=
201109281200 AAXX 28124 67855 NIL=
201109280600 AAXX 28064 67855 31970 00604 10216 21015 3//// 48/// 70500
                   333 20071 5////=
201109270600 AAXX 27064 67855 31970 01101 10190 20058 3//// 48/// 70500
                   333 20102 5////=
201109261200 AAXX 26124 67855 41970 02007 10304 20000 3//// 48/// 70500
                   333 5////=
201109260600 AAXX 26064 67855 31970 00806 10180 20064 38/// 48/// 70500
                   333 20084 5////=
201109251200 AAXX 25124 67855 NIL=
201109250600 AAXX 25064 67855 31970 01208 10182 20106 3//// 48/// 70500
                   333 20129 5////=
201109241200 AAXX 24124 67855 NIL=
201109240600 AAXX 24064 67855 31970 00707 10224 20134 38/// 48/// 70500
                   333 20192 5////=
201109231200 AAXX 23124 67855 41770 10503 10360 20098 38/// 48/// 70500 81400
                   333 5//// 81650=
201109230600 AAXX 23064 67855 31670 11201 10200 20131 3//// 48/// 70500 81500
                   333 20105 5//// 81640=
201109221200 AAXX 22124 67855 NIL=
201109220600 AAXX 22064 67855 31970 01001 10208 20084 3//// 48/// 70500
                   333 20128 5////=
201109211200 AAXX 21124 67855 NIL=
201109210600 AAXX 21064 67855 NIL=
201109201200 AAXX 20124 67855 41960 03601 10356 20065 38/// 48/// 70500
                   333 5////=
201109200600 AAXX 20064 67855 31970 00201 10210 20053 3//// 48/// 70500
                   333 20100 5////=
201109191200 AAXX 19124 67855 41950 03403 10340 20063 3//// 48/// 70500
                   333 5////=
201109190600 AAXX 19064 67855 31970 01301 10196 20078 38/// 48/// 70500
                   333 20108 5////=
201109181200 AAXX 18124 67855 NIL=
201109180600 AAXX 18064 67855 31970 00801 10170 20100 38/// 48/// 70500
                   333 20094 5////=
201109171200 AAXX 17124 67855 41770 11303 10287 20121 38/// 48/// 70500 81200
                   333 5//// 81850=
201109170600 AAXX 17064 67855 11660 21203 10186 20110 3//// 48/// 69904 70500 82500
                   333 20172 5//// 82630=
201109161200 AAXX 16124 67855 41660 20401 10344 20083 3//// 48/// 70500 82200
                   333 5//// 82830=
201109160600 AAXX 16064 67855 31660 11301 10170 20074 3//// 48/// 70500 81500
                   333 20117 5//// 81630=
201109151200 AAXX 15124 67855 41760 13003 10342 20071 3//// 48/// 70500 81100
                   333 5//// 81850=
201109150600 AAXX 15064 67855 31960 00801 10186 20041 3//// 48/// 70500
                   333 20099 5////=
201109141200 AAXX 14124 67855 41970 03303 10338 20075 3//// 48/// 70500
                   333 5////=
201109140600 AAXX 14064 67855 31970 03401 10200 20053 3//// 48/// 70500
                   333 20136 5////=
201109131200 AAXX 13124 67855 41970 03604 10312 20061 3//// 48/// 70500
                   333 5////=
201109130600 AAXX 13064 67855 31970 01101 10166 20046 3//// 4//// 70500
                   333 20094 59///=
201109121200 AAXX 12124 67855 NIL=
201109120600 AAXX 12064 67855 31970 02001 10158 20044 38/// 48/// 70500
                   333 20096 5////=
201109111200 AAXX 11124 67855 NIL=
201109110600 AAXX 11064 67855 31970 00802 10174 21017 38/// 48/// 70500
                   333 20063 5////=
201109101200 AAXX 10124 67855 41970 00704 10324 20023 3//// 48/// 70500
                   333 5////=
201109100600 AAXX 10064 67855 31970 01101 10112 21030 3//// 48/// 70500
                   333 20034 5////=
201109091200 AAXX 09124 67855 41970 01902 10302 20023 3//// 48/// 70500
                   333 5////=
201109090600 AAXX 09064 67855 31960 01302 10170 21004 3//// 48/// 70500
                   333 20063 5////=
201109081200 AAXX 08124 67855 41960 00201 10312 20039 3//// 48/// 70500
                   333 5////=
201109080600 AAXX 08064 67855 31970 00802 10140 21016 3//// 48/// 70500
                   333 20068 5////=
201109071200 AAXX 07124 67855 41960 00903 10322 21014 3//// 48/// 70500
                   333 5////=
201109070600 AAXX 07064 67855 31960 01801 10144 20001 38/// 48/// 70500
                   333 20059 5////=
201109061200 AAXX 06124 67855 41960 01802 10306 21005 38/// 48/// 70500
                   333 5////=
201109060600 AAXX 06064 67855 31970 01202 10170 20086 38/// 48/// 70500
                   333 20100 5////=
201109051200 AAXX 05124 67855 42980 01502 10328 20057 3//// 48///
                   333 5////=
201109050600 AAXX 05064 67855 31970 01104 10158 20083 3//// 48/// 70500
                   333 20085 5////=
201109041200 AAXX 04124 67855 41950 73203 10306 20125 3//// 48/// 70522 80008
                   333 5//// 87280=
201109040600 AAXX 04064 67855 31970 61601 10150 20095 3//// 48/// 70522 80008
                   333 20103 5//// 86280=
201109031200 AAXX 03124 67855 41960 02003 10356 21018 3//// 48/// 70500
                   333 5////=
201109021200 AAXX 02124 67855 41970 01402 10340 20075 3//// 48/// 70500
                   333 5////=
201109020600 AAXX 02064 67855 31970 01701 10140 20030 38/// 48/// 70500
                   333 20074 5////=
201109011200 AAXX 01124 67855 41970 02301 10318 20061 38/// 48/// 70500
                   333 5////=
201109010600 AAXX 01064 67855 31970 01601 10128 20039 3//// 48/// 70500
                   333 20065 5////=
