################################################################################
# Query made at 04/15/2022 01:46:35 UTC
# Country like Zamb*
# Time interval: from 10/01/2011 05:30  to 10/31/2011 06:30  UTC
################################################################################

################################################################################
#  SYNOPS from 67441, Mwinilunga (Zambia) | 11-45S | 024-26E | 1361 m
################################################################################
201110280600 AAXX 28064 67441 11975 70000 10180 20175 48544 69904 70522 8703/
                   333 10300 20/// 58016 87360=
201110270600 AAXX 27064 67441 11980 82116 10170 20145 48528 60224 72999 8807/
                   333 10310 20//0 58006 88460=
201110180900 AAXX 18094 67441 41670 12074 10289 20172 48556 70500 81100
                   333 59013 81835=
201110180600 AAXX 18064 67441 11965 60000 10120 20171 48535 60014 70522 81038
                   333 10322 20/// 58013 81362 86280=
201110131200 AAXX 13124 67441 41680 61127 10300 20111 48503 71792 81933
                   333 59004 81935 84840 82362 81080=
201110130900 AAXX 13094 67441 41975 10905 10275 20134 48532 70500 81030
                   333 59004 81362=
201110130600 AAXX 13064 67441 31970 11005 10213 20150 48539 70500 81030
                   333 10230 20/// 59003 81360=
201110120600 AAXX 12064 67441 31980 60000 10195 20146 48538 70522 86030
                   333 10300 20/// 59011 86360=
201110070600 AAXX 07064 67441 31970 60906 10200 20130 48585 70522 81130
                   333 10300 20/// 58020 81820 86360=
201110061200 AAXX 06124 67441 41680 71005 10295 20137 48531 70522 8323/
                   333 58012 83835 87360=
201110050600 AAXX 05064 67441 11975 40000 10210 20168 48549 69904 70500 84030
                   333 10250 20//0 59011 84360=

################################################################################
#  SYNOPS from 67461, Mansa (Zambia) | 11-06S | 028-51E | 1382 m
################################################################################
201110280600 AAXX 28064 67461 11975 60000 10197 20173 48509 60334 70522 83038
                   333 10317 20156 58012 83363 85280=
201110270600 AAXX 27064 67461 31975 73302 10212 20161 48493 70522 80008
                   333 10350 20175 58014 87280=
201110191200 AAXX 19124 67461 41870 60903 10334 20093 48477 70522 84208
                   333 58001 84857 86280 91012=
201110180600 AAXX 18064 67461 31965 71202 10242 20152 48511 70522 80008
                   333 10350 20183 58003 87280=
201110130600 AAXX 13064 67461 31975 40904 10206 20155 48511 70500 84030
                   333 10285 20163 59006 84361=
201110120600 AAXX 12064 67461 11975 71005 10188 20161 48515 60024 70522 8707/
                   333 10305 20165 59008 87461=
201110070600 AAXX 07064 67461 31575 71513 10190 20129 48553 70522 85508
                   333 10286 20170 58032 85624 87280=
201110050600 AAXX 05064 67461 31975 70904 10210 20176 48523 70522 8707/
                   333 10250 20167 59002 87462=

################################################################################
#  SYNOPS from 67475, Kasama (Zambia) | 10-13S | 031-08E | 1382 m
################################################################################
201110280600 AAXX 28064 67475 31970 63606 10218 20144 48518 70522 80002
                   333 10313 20135 58006 86280=
201110131200 AAXX 13124 67475 41670 70000 10214 20168 48492 72166 8217/
                   333 58001 82847 87461=
201110130600 AAXX 13064 67475 11980 80904 10173 20161 48/// 60054 76066 8807/
                   333 10252 20104 59010 88458=
201110120600 AAXX 12064 67475 11670 71808 10190 20158 48528 60044 70522 8357/
                   333 10317 20160 59003 83630 87460=

################################################################################
#  SYNOPS from 67476, Misamfu (Zambia) | 10-06S | 031-15E | 1536 m
################################################################################
201110180600 AAXX 18064 67476 32980 30903 10243 20009 48/// 80002
                   333 10330 20152 59012 83080=

################################################################################
#  SYNOPS from 67477, Mpika (Zambia) | 11-54S | 031-26E | 1400 m
################################################################################
201110281200 AAXX 28124 67477 41975 70907 10305 20052 48481 80001
                   333 58026 87280=
201110280600 AAXX 28064 67477 11972 20000 10231 20120 48512 69904 70511 80002
                   333 10340 20134 58007 82080=
201110270600 AAXX 27064 67477 31670 10249 20167 48505 70500 81100
                   333 10342 20139 58017 81835=
201110180900 AAXX 18094 67477 42980 20908 10294 20072 48497 80001
                   333 58012 82080=
201110131200 AAXX 13124 67477 42680 70706 10256 20137 48488 8123/
                   333 59018 81846 87361=
201110130600 AAXX 13064 67477 12980 51209 10186 20144 48516 60064 85030
                   333 10184 20142 59015 85361=
201110120600 AAXX 12064 67477 11960 80802 10165 20157 48530 60054 76366 8807/
                   333 10295 20144 58006 88459=
201110110900 AAXX 11094 67477 42580 21009 10258 20125 48524 81130
                   333 5//// 81850 81362=
201110071200 AAXX 07124 67477 42680 61408 10221 20105 48543 86101
                   333 58001 86845 81080=
201110070600 AAXX 07064 67477 12480 21216 10149 20115 48572 60094 885//
                   333 10195 20126 58028 88610=
201110051200 AAXX 05124 67477 41970 70603 10237 20159 48500 70521 8703/
                   333 58021 87361=
201110031200 AAXX 03124 67477 41970 31502 10320 20109 48474 70500 83200
                   333 5//// 83858=

################################################################################
#  SYNOPS from 67531, Zambezi (Zambia) | 13-32S | 023-07E | 1077 m
################################################################################
201110190900 AAXX 19094 67531 42980 73105 10282 20169 80008
                   333 58007 87280=
201110180600 AAXX 18064 67531 32980 13612 10235 20177 48/// 80001
                   333 10376 20204 58008 81082=
201110130600 AAXX 13064 67531 32980 20607 10249 20130 48/// 82030
                   333 10354 20164 5//// 82361=
201110121200 AAXX 12124 67531 42880 51808 10335 20096 48/// 85100
                   333 59013 85858=
201110120600 AAXX 12064 67531 32980 00907 10227 20149 48///
                   333 10340 20155 59014=
201110110900 AAXX 11094 67531 42880 11607 10310 20132 48/// 81100
                   333 59020 81857=
201110070600 AAXX 07064 67531 32980 01011 10221 20128 48///
                   333 10342 20181 58025=
201110061200 AAXX 06124 67531 42880 70907 10321 20120 48/// 87100
                   333 58011 87858=
201110051200 AAXX 05124 67531 41780 72202 10292 20147 48/// 79599 85232
                   333 5//// 81950 85850 83360 81080=
201110050600 AAXX 05064 67531 12980 20803 10217 20174 48/// 69924 81082
                   333 10276 20163 59009 81360 82080=

################################################################################
#  SYNOPS from 67541, Kasempa (Zambia) | 13-32S | 025-51E | 1234 m
################################################################################
201110120600 AAXX 12064 67541 NIL=

################################################################################
#  SYNOPS from 67561, Ndola (Zambia) | 13-00S | 028-39E | 1269 m
################################################################################
201110301200 AAXX 30124 67561 41760 40000 10330 20072 48482 70500 84200
                   333 59004 84850=
201110230900 AAXX 23094 67561 41960 61208 10301 20144 48511 70522 80008
                   333 58005 86280 555 91017=
201110230600 AAXX 23064 67561 31960 40000 10245 20123 48520 70500 80002
                   333 10334 20150 58006 84080
                   555 00///=
201110131200 AAXX 13124 67561 42780 61308 10294 20117 48477 86200
                   333 59005 81956 86856=
201110130600 AAXX 13064 67561 11975 60710 10206 20147 48518 60024 70522 86030
                   333 10302 20166 59003 86360=
201110120600 AAXX 12064 67561 11959 60709 10201 20146 48517 60014 70422 86030
                   333 10285 20150 59017 86360=
201110071200 AAXX 07124 67561 41760 51109 10240 20114 48542 70522 85200
                   333 58019 85845=
201110070600 AAXX 07064 67561 31460 71212 10190 20132 48573 70522 86532
                   333 10284 20165 5//// 85625 85360 83080=
201110031200 AAXX 03124 67561 41660 50000 10333 20144 48488 70522 85200
                   333 59008 81950 85850=

################################################################################
#  SYNOPS from 67563, Kafironda (Zambia) | 12-36S | 028-07E | 1243 m
################################################################################
201110281200 AAXX 28124 67563 41670 53004 10320 20140 48/// 70500 85200
                   333 58011 85856=
201110070600 AAXX 07064 67563 31478 51508 10191 20120 48/// 70500 82601
                   333 10282 20167 58023 83710 84080=
201110051200 AAXX 05124 67563 41675 61204 10284 20150 48/// 70522 8623/
                   333 59004 86856 83262 81080=

################################################################################
#  SYNOPS from 67571, Serenje (Zambia) | 13-14S | 030-13E | 1384 m
################################################################################
201110280600 AAXX 28064 67571 12982 72702 10222 20156 48513 60014 10344 20143 58009 87280=
201110190900 AAXX 19094 67571 42582 72703 10311 20074 48456 81108
                   333 59007 81825 87280=
201110131200 AAXX 13124 67571 42582 71802 10273 20137 48484 84231
                   333 59009 81925 84832 83360 84080=
201110110900 AAXX 11094 67571 42682 70907 10255 20140 48525 8517/
                   333 59009 85830 87461=
201110051200 AAXX 05124 67571 41758 83602 10218 20178 48543 71799 8407/
                   333 58005 81928 84835 88460=

################################################################################
#  SYNOPS from 67580, Msekera (Zambia) | 13-39S | 032-34E | 1025 m
################################################################################
201110280600 AAXX 28064 67580 31975 21103 10308 20107 48/// 70500 80001
                   333 10374 20/// 58017 82080=
201110180600 AAXX 18064 67580 12980 20000 10266 20157 48/// 60034 80001
                   333 10344 20/// 58008 82080=
201110130900 AAXX 13094 67580 41675 61105 10279 20162 48/// 70511 85231
                   333 59010 85833 82362 81080=
201110110900 AAXX 11094 67580 41670 70604 10284 20157 48/// 70522 84232
                   333 59020 84840 82362 85280=
201110070600 AAXX 07064 67580 31475 61409 10174 20121 48/// 70522 85530
                   333 10245 20/// 58029 85618 82360=

################################################################################
#  SYNOPS from 67581, Chipata (Zambia) | 13-33S | 032-35E | 1028 m
################################################################################
201110290600 AAXX 29064 67581 31970 41206 10288 20102 48540 70522 80002
                   333 10350 20227 58009 84080=
201110280600 AAXX 28064 67581 31970 03607 10289 20082 48531 70500
                   333 10381 20169 58017=
201110130600 AAXX 13064 67581 32680 51405 10236 20170 48537 81103
                   333 10292 20186 59005 81875 84360=
201110120600 AAXX 12064 67581 12980 70607 10206 20167 48536 60024 87070
                   333 10307 20179 59020 87460=

################################################################################
#  SYNOPS from 67599, Mfuwe (Zambia) | 13-16S | 031-56E | 568 m
################################################################################
201110190900 AAXX 19094 67599 41780 30905 10356 20171 48538
                   333 58006 83850=
201110131200 AAXX 13124 67599 42670 70904 10338 20195 48510 82231
                   333 59035 81930 82840 87362=
201110130900 AAXX 13094 67599 41670 61504 10308 20177 48538 70322 82230
                   333 59029 82830 86360=
201110091200 AAXX 09124 67599 42880 60806 10335 20161 8423/
                   333 58004 84858 86360=
201110071500 AAXX 07154 67599 41780 21704 10306 20142 48558 70500 81201
                   333 59029 81857 82080=
201110071200 AAXX 07124 67599 41680 61804 10295 20146 48569 70522 81231
                   333 59010 81850 82360 86080=
201110070600 AAXX 07064 67599 31470 71810 10213 20135 48589 70522 8127/
                   333 10/// 20/// 58022 81820 87460=

################################################################################
#  SYNOPS from 67633, Mongu (Zambia) | 15-15S | 023-09E | 1052 m
################################################################################
201110280600 AAXX 28064 67633 32980 63002 10215 20152 48497 10335 20180 59017 83360 86280=
201110270600 AAXX 27064 67633 32980 62708 10220 20145 48517 70222 84038=
201110131200 AAXX 13124 67633 41780 51503 10335 20089 48481 70522 85200
                   333 59011 81930 84850=
201110130600 AAXX 13064 67633 31980 11809 10239 20125 48548 70500 81030
                   333 10328 20186 59014 81360=
201110120600 AAXX 12064 67633 32980 00906 10248 20135 48513
                   333 10345 20184 59014=
201110070600 AAXX 07064 67633 32980 10916 10207 20112 48564 81030
                   333 10340 20185 58030 81361=

################################################################################
#  SYNOPS from 67641, Kaoma (Zambia) | 14-48S | 024-48E | 1213 m
################################################################################
201110120600 AAXX 12064 67641 31975 00803 10234 20136 48511 70500
                   333 10300 20161 59019=

################################################################################
#  SYNOPS from 67655, Mumbwa (Zambia) | 15-04S | 027-11E | 1216 m
################################################################################
201110280600 AAXX 28064 67655 31975 53004 10254 20141 48508 70510 80008
                   333 10335 20/// 59004 85277=
201110180600 AAXX 18064 67655 31975 40709 10255 20132 48510 70500 80008
                   333 10327 20/// 58015 84075=
201110131200 AAXX 13124 67655 42680 61003 10299 20135 48498 86200
                   333 58000 86835=

################################################################################
#  SYNOPS from 67663, Kabwe (Zambia) | 14-27S | 028-28E | 1206 m
################################################################################
201110280600 AAXX 28064 67663 31970 63404 10232 20136 48503 70522 80008
                   333 10332 20185 58008 86280=
201110180900 AAXX 18094 67663 41970 40609 10297 20152 48523 70500 80002
                   333 59008 84080=
201110120600 AAXX 12064 67663 11970 10905 10213 20146 48520 69904 70500 81030
                   333 10262 20163 59020 81360=

################################################################################
#  SYNOPS from 67665, Lusaka Internationalairport (Zambia) | 15-19S | 028-27E | 1152 m
################################################################################
201110310600 AAXX 31064 67665 31959 11002 19279 20103 48515 70500 81030
                   333 10351 20189 59019 81361=
201110301800 AAXX 30184 67665 41970 01101 10257 20034 48490 70500
                   333 10351 59010=
201110301200 AAXX 30124 67665 41970 00705 10351 20035 48499 70500
                   333 59008=
201110300900 AAXX 30094 67665 41970 00307 10332 20045 48525 70500
                   333 59003=
201110300600 AAXX 30064 67665 31960 10000 10258 20070 48534 70500 81030
                   333 10365 20154 58002 81360
                   555 91019=
201110300400 AAXX 30044 67665 41960 31801 10169 20075 48505 70500 81031
                   333 58002 81360 83080 91017=
201110300300 AAXX 30034 67665 41960 11201 10176 20074 48502 70500 81030
                   333 58002 81360 91017=
201110300000 AAXX 30004 67665 41960 11701 10185 20073 48496 70500 81030
                   333 58006 81360 91016=
201110292100 AAXX 29214 67665 41960 31901 10218 20084 48504 70500 83030
                   333 58000 83360 91016=
201110291800 AAXX 29184 67665 41960 30401 10266 20040 48496 70521 80002
                   333 58000 83080=
201110291500 AAXX 29154 67665 41960 50608 10335 20034 48490 70522 80002
                   333 58003 85080=
201110291200 AAXX 29124 67665 41960 10612 10349 20049 70500 81101
                   333 58005 81857 81080=
201110290600 AAXX 29064 67665 31958 10000 10265 20116 48528 70500 80001
                   333 10362 20174 58007 81080=
201110281800 AAXX 28184 67665 41960 30701 10274 20105 48496 70522 80002
                   333 10362 58010 83280=
201110281500 AAXX 28154 67665 41960 30703 10329 20119 48487 70522 81032
                   333 58012 81360 83280
                   555 10362=
201110281200 AAXX 28124 67665 41760 40405 10338 20124 48501 70522 81856
                   333 84080 91015=
201110280900 AAXX 28094 67665 41960 30303 10310 20148 48521 70500 80002
                   333 58010 83080=
201110280600 AAXX 28064 67665 31960 13502 10237 20167 48518 70522 80002
                   333 10346 20170 58015 81080=
201110270900 AAXX 27094 67665 41960 52609 10309 20145 70522 80002
                   333 58024 85080=
201110270600 AAXX 27064 67665 31958 22707 10278 20135 48508 70500 80001
                   333 10377 20195 58017 82080=
201110270300 AAXX 27034 67665 41960 02502 10228 20120 48476 70500
                   333 58010=
201110262100 AAXX 26214 67665 41956 00000 10243 20119 48472 70500
                   333 58100=
201110261200 AAXX 26124 67665 41760 53603 10371 20091 48465 70522 83202
                   333 59005 83858 85080=
201110260600 AAXX 26064 67665 31965 03204 10276 20106 48490 70500
                   333 10374 20176 59013=
201110260400 AAXX 26044 67665 41965 21802 10175 20084 48464 70500 80002
                   333 59015 82080=
201110251200 AAXX 25124 67665 41860 10603 10365 20094 48469 70500 81100
                   333 58020 81857=
201110250600 AAXX 25064 67665 31970 10303 10283 20120 48503 70500 80002
                   333 10378 20202 59014 81080=
201110250400 AAXX 25044 67665 41970 31702 10202 20116 48481 70500 80002
                   333 59017 83080=
201110242100 AAXX 24214 67665 42980 01302 10240 20091 48487
                   333 59019=
201110241800 AAXX 24184 67665 42980 10301 10275 20096 48487 70200 81080
                   333 10378 59017 81360 91014=
201110241200 AAXX 24124 67665 41760 21005 10361 20123 48489 70500 82100
                   333 59015 82857=
201110240600 AAXX 24064 67665 32980 00903 10287 20135 48518
                   333 10351 20187 59016=
201110231800 AAXX 23184 67665 41970 11402 10268 20120 48503 70500 81030
                   333 10351 58004 81360=
201110231500 AAXX 23154 67665 41870 21203 10338 20112 48494 70500 82200
                   333 59001 82857=
201110231200 AAXX 23124 67665 41760 30305 10338 20122 48501 70500 83200
                   333 59002 83850=
201110230900 AAXX 23094 67665 41960 10503 10308 20144 48528 70500 80001
                   333 59001 81080 91018=
201110230600 AAXX 23064 67665 41960 11103 10251 20167 48528 70500 80001
                   333 10323 20155 58000 81080
                   555 00/// 91019=
201110220900 AAXX 22094 67665 41660 40905 10284 20192 48526 70511 84800
                   333 58015 82835 82637=
201110211500 AAXX 21154 67665 41760 50904 10312 20138 48487 70522 81232
                   333 58006 81857 83360 84080
                   555 15836=
201110211200 AAXX 21124 67665 41760 60604 10317 20126 48494 70522 83232
                   333 58004 83856 84360 86080=
201110210600 AAXX 21064 67665 31960 50907 10276 20133 48510 83032
                   333 10340 20149 59008 83360 85280=
201110210400 AAXX 2104/ 67665 41960 51201 10194 20136 48477 70522 81032
                   333 59011 81360 85280=
201110210300 AAXX 21034 67665 41960 11501 10219 20126 48486 70500 80001
                   333 59009 81080 91014=
201110210000 AAXX 21004 67665 41960 11603 10230 20122 48584 70500 80002
                   333 59001 81080 91014=
201110202100 AAXX 20214 67665 41960 01901 10229 20110 48494 70500
                   333 59003 91015=
201110201500 AAXX 20154 67665 41960 50102 10325 20114 48483 70500 80002
                   333 58000 85280=
201110201200 AAXX 20124 67665 41860 50603 10331 20144 48499 70500 81132
                   333 58006 81857 81360 85080=
201110200900 AAXX 20094 67665 41960 50602 10309 20115 48517 70522 80002
                   333 58005 85080=
201110200600 AAXX 20064 67665 31957 51503 10270 20122 48518 70522 80002
                   333 10357 20187 59003 85080=
201110192100 AAXX 19214 67665 42980 02002 10219 20117 48496
                   333 58002=
201110191800 AAXX 19184 67665 42980 31103 10249 20126 48592 80001
                   333 10349 58008 83080=
201110191500 AAXX 19154 67665 42980 31203 10333 20062 48484 81032
                   333 59004 81360 83080
                   555 10349 91013=
201110191200 AAXX 19124 67665 42780 50703 10332 20074 48493 70500 81102
                   333 58003 81850 85280=
201110190900 AAXX 19094 67665 41980 03004 10315 20123 70500
                   333 59006=
201110190600 AAXX 19064 67665 32980 01001 10246 20132 48518 70500
                   333 10341 20160 59001=
201110181800 AAXX 18184 67665 42980 30402 10266 20139 48487 80002
                   333 10341 58001 83080=
201110181500 AAXX 18154 67665 41870 40504 10324 20135 48479 70511 81202
                   333 58004 81857 84080=
201110181200 AAXX 18124 67665 41770 40504 10331 20145 48490 70510 81102
                   333 58010 81850 84080=
201110180900 AAXX 18094 67665 41960 30605 10289 20163 48517 70500 80001
                   333 59015 81080 91017=
201110180600 AAXX 18064 67665 31959 60905 10245 20176 48519 70522 80002
                   333 10346 20174 58015 86080
                   555 00/// 91018=
201110171800 AAXX 17184 67665 42980 11202 10246 20133 48484 81030
                   333 59008 81360=
201110160900 AAXX 16094 67665 42680 10903 10308 20134 48524 70500 81100
                   333 59018 81840 91018=
201110151200 AAXX 15124 67665 42680 50704 10315 20122 48511 85200
                   333 59003 85849=
201110150400 AAXX 15044 67665 42980 41601 10164 20121 48516 80002
                   333 59001 84080=
201110150300 AAXX 15034 67665 42980 01501 10172 20110 48512
                   333 58002=
201110142100 AAXX 14214 67665 42980 01602 10194 20107 48516
                   333 58000=
201110141800 AAXX 14184 67665 42980 11302 10229 20100 48507 81030
                   333 10319 58000 81360=
201110141500 AAXX 14154 67665 42780 21303 10303 20104 48497 82200
                   333 59001 82856=
201110141200 AAXX 14124 67665 42680 51103 10305 20118 48513 85200
                   333 58005 85847=
201110140900 AAXX 14094 67665 42680 30704 10280 20146 48537 83100
                   333 58001 83835 91019=
201110140600 AAXX 14064 67665 32980 01107 10225 20136 48536
                   333 10305 20142 58001 91020=
201110131800 AAXX 13184 67665 42980 11603 10218 20126 48506 81030
                   333 58000 81360=
201110131200 AAXX 13124 67665 42680 50305 10277 20132 48505 85200
                   333 59006 85845=
201110130900 AAXX 13094 67665 42680 20506 10262 20179 48533 81100
                   333 59004 82830=
201110130600 AAXX 13064 67665 32980 01107 10200 20185 48531
                   333 10299 20130 59007=
201110130400 AAXX 13044 67665 41960 11403 10151 20143 48508 70500 81030
                   333 81360=
201110130300 AAXX 13034 67665 42980 01404 10150 20150 48502
                   333 59011=
201110130000 AAXX 13004 67665 42980 11202 10157 20157 48506 70200 81030
                   333 58002 81360=
201110122100 AAXX 12214 67665 42980 10603 10187 20123 48515 70200 81030
                   333 58015 81360=
201110121800 AAXX 12184 67665 42980 11303 10214 20149 48504 81030
                   333 10299 59024 81360=
201110121500 AAXX 12154 67665 42780 31407 10269 20142 48499 83131
                   333 59026 83850 82360 83080=
201110121200 AAXX 12124 67665 42660 50506 10279 20175 48511 85200
                   333 58005 85835=
201110120600 AAXX 12064 67665 11960 01108 10193 20190 48537 60134 70500
                   333 10280 20123 59014=
201110111800 AAXX 11184 67665 41760 70502 10178 20178 48524 71322 81930
                   333 10280 81957 85360=
201110111500 AAXX 11154 67665 41760 73202 10202 20194 48516 70599 8297/
                   333 59018 82950 87459
                   555 10280 91018=
201110111200 AAXX 11124 67665 41658 80209 10194 20194 48524 79596 8197/
                   333 58004 81945 85848 87459=
201110110900 AAXX 11094 67665 42670 70510 10259 20162 48549 70322 82230
                   333 59016 82840 86460=
201110110600 AAXX 11064 67665 32970 31009 10217 20147 48553 83030
                   333 10295 20139 49012 83360=
201110101200 AAXX 10124 67665 42680 61108 10275 20140 48540 85202
                   333 59008 85845 83080=
201110100400 AAXX 10044 67665 42980 61006 10158 20139 48548 86031
                   333 59011 86360 81080=
201110092100 AAXX 09214 67665 42980 21303 10174 20131 48551 80001
                   333 59008 82080=
201110091200 AAXX 09124 67665 42680 10274 20106 48546 84130
                   333 59006 84848 81360 91021=
201110090400 AAXX 09044 67665 42980 21004 10241 20094 48553 82030
                   333 59004 82360=
201110090300 AAXX 09034 67665 42980 21205 10144 20096 48546 82030
                   333 59006 82360=
201110090000 AAXX 09004 67665 42980 11305 10114 20089 48544 81030
                   333 59005 81080=
201110082100 AAXX 08214 67665 42980 11103 10142 20096 48554 80001
                   333 59007 81080=
201110081800 AAXX 08184 67665 42980 01207 10186 20086 48552
                   333 10271 59015=
201110081500 AAXX 08154 67665 41960 10910 10251 20065 48544 70500 81031
                   333 59016 81360 81080=
201110081200 AAXX 08124 67665 42680 51209 10256 20080 48551 81101
                   333 59019 81845 85080=
201110080600 AAXX 08064 67665 32980 31014 10175 20104 48578 81031
                   333 10250 20095 59020 81360 83080 91026=
201110071800 AAXX 07184 67665 42980 01105 10165 20085 48561
                   333 10250 59008=
201110071500 AAXX 07154 67665 42980 00911 10234 20084 48557
                   333 59016=
201110071200 AAXX 07124 67665 42980 10910 10246 20089 48568 80001
                   333 59050 81080=
201110070600 AAXX 07064 67665 32470 40915 10168 20135 48595 83502
                   333 10233 20124 58033 83610 82080=
201110070400 AAXX 07044 67665 42980 31010 10135 20126 48576 81032
                   333 58030 81360 83280=
201110070300 AAXX 07034 67665 42980 21011 10141 20133 48572 82030
                   333 58033 82360=
201110070000 AAXX 07004 67665 42980 41008 10149 20141 48568 84030
                   333 58038 84360=
201110062100 AAXX 06214 67665 42980 41204 10152 20152 48580 84030
                   333 59002 84360=
201110061800 AAXX 06184 67665 42970 20908 10174 20145 48571 70500 82030
                   333 10233 58041 82360=
201110061200 AAXX 06124 67665 42560 71214 10220 20166 48567 70522 875//
                   333 58053 87627=
201110060600 AAXX 06064 67665 11460 60911 10198 20170 48568 60044 70522 86500
                   333 10305 20150 58023 86610 91024=
201110051800 AAXX 05184 67665 42960 61804 10178 20178 48522 70522 83032
                   333 10305 58009 83360 83080=
201110051200 AAXX 05124 67665 41660 73406 10260 20194 48515 71622 81902
                   333 58017 81938 85839 83080 91018=
201110050600 AAXX 05064 67665 11959 10212 20210 48538 60034 70522 85032
                   333 10309 20161 58003 85360 83080=
201110041200 AAXX 04124 67665 41760 61206 10298 20160 48508 70522 85232
                   333 58003 85850 83360 84080=
201110040400 AAXX 04044 67665 42/80 72803 10177 20177 48515 8193/
                   333 58003 819// 87360=
201110032100 AAXX 03214 67665 42980 31902 10210 20179 48520 83030
                   333 58003 83360=
201110031200 AAXX 03124 67665 41670 63006 10307 20148 48506 70522 86300
                   333 59005 81945 85848 91016=
201110030400 AAXX 03044 67665 41970 11502 10168 20151 48511 70500 80001
                   333 59009 81080=
201110030300 AAXX 03034 67665 42980 01201 10175 20150 48506
                   333 59009=
201110030000 AAXX 03004 67665 42980 01403 10194 20135 48504
                   333 59015=
201110022100 AAXX 02214 67665 42980 01604 10207 20150 48517
                   333 59006=
201110021800 AAXX 02184 67665 41970 11603 10250 20144 48504 70500 81030
                   333 10319 59022 81360=
201110021500 AAXX 02154 67665 41770 30706 10310 20136 48493 70500 82230
                   333 59031 82856 81360=
201110021200 AAXX 02124 67665 41670 10109 10301 20145 48510 70500 81100
                   333 59007 81847=
201110011800 AAXX 01184 67665 41980 71204 10200 20161 48520 71322 81932
                   333 10316 58010 81958 86360 83080=
201110011500 AAXX 01154 67665 41770 71608 10225 20153 48513 79522 81932
                   333 59013 81950 85856 85360 84280=
201110011200 AAXX 01124 67665 41670 60407 10302 20124 48517 70511 85231
                   333 59002 85845 83360 82080=
201110010900 AAXX 01094 67665 41660 20706 10285 20133 48545 70500 81130
                   333 58004 81835 82360=
201110010600 AAXX 01064 67665 31959 41405 10227 20125 48543 70522 84030
                   333 10323 20165 58006 84360=

################################################################################
#  SYNOPS from 67666, Lusaka City Airport (Zambia) | 15-25S | 028-19E | 1280 m
################################################################################
201110281200 AAXX 28124 67666 42980 20910 10325 20203 48494 80001
                   333 58014 82080=
201110280600 AAXX 28064 67666 31975 03602 10235 20174 48512 70500
                   333 10351 20197 58006=
201110191200 AAXX 19124 67666 42580 31004 10330 20172 48458 81102
                   333 58004 81825 82080 91013=
201110190900 AAXX 19094 67666 42980 12006 10300 20174 48503 80001
                   333 59006 81080=
201110180600 AAXX 18064 67666 32979 10913 10245 20165 48513 80001
                   333 10334 20215 58016 81080=
201110131200 AAXX 13124 67666 42580 50904 10284 20169 48497 85200
                   333 59004 85830=
201110130900 AAXX 13094 67666 42580 20902 10250 20183 48525 82200
                   333 59006 82826=
201110111200 AAXX 11124 67666 41579 70000 10205 20175 48514 79599 8297/
                   333 59010 82925 84825 86460=
201110110900 AAXX 11094 67666 42580 70910 10250 20740 48541 8283/
                   333 59017 81622 81825 86360=
201110071200 AAXX 07124 67666 42980 00909 10230 20123 48554
                   333 59006=
201110070600 AAXX 07064 67666 32980 20922 10155 20120 48584 80002
                   333 10195 20125 58026 82080=
201110031200 AAXX 03124 67666 42680 51994 10295 20181 48496 85200
                   333 59010 82945 84846=

################################################################################
#  SYNOPS from 67743, Livingstone (Zambia) | 17-49S | 025-49E | 985 m
################################################################################
201110290600 AAXX 29064 67743 11965 20604 10293 20122 48520 60994 70500 80002
                   333 10389 20201 58012 82080=
201110280600 AAXX 28064 67743 31965 60802 10252 20152 48502 70500 83032
                   333 59006 83359 84080=
201110270600 AAXX 27064 67743 31965 81807 10278 20138 48513 70500 8807/
                   333 10413 20279 48045 88360=
201110230900 AAXX 23094 67743 41965 01109 10359 20128 48504 70500
                   333 59003 91015=
201110230600 AAXX 23064 67743 31965 00607 10275 20//0 48518 70500
                   333 10378 20214 58000
                   555 00///=
201110190900 AAXX 19094 67743 41959 71210 10267 20140 48505 70522 82130=
201110181200 AAXX 18124 67743 41465 53606 10366 20114 48476 70522 83230
                   333 58008 83850 82360=
201110180600 AAXX 18064 67743 31965 60704 10265 20131 48583 70500 86070
                   333 10370 20233 58010 86359=
201110131200 AAXX 13124 67743 41765 31107 10330 20024 48503 70500 83100
                   333 59007 83857=
201110130900 AAXX 13094 67743 41765 21208 10308 20113 48532 70500
                   333 59010 82856=
201110130600 AAXX 13064 67743 31965 01009 10243 20093 48524 70500
                   333 10340 20178 59009=
201110121200 AAXX 12124 67743 41765 42206 10324 20062 48509 70500 84100
                   333 59018 84856=
201110120600 AAXX 12064 67743 31965 00906 10240 20104 48533 70500
                   333 10331 20161 59023=
201110070600 AAXX 07064 67743 31965 01007 10195 20098 48589 70500
                   333 10286 20138 58022=
201110011200 AAXX 01124 67743 41965 20305 10323 20096 48517 58008 70500 82031=

################################################################################
#  SYNOPS from 67753, Choma (Zambia) | 16-50S | 027-04E | 1213 m
################################################################################
201110280600 AAXX 28064 67753 31960 40704 10271 20150 48/// 70500 80001
                   333 10381 20191 5//// 84080=
201110270600 AAXX 27064 67753 31960 62004 10256 20149 48/// 70500 82032
                   333 10381 20192 82360 85080=
201110191200 AAXX 19124 67753 41760 73501 10319 20134 70522 84208
                   333 5//// 84856 87280=
201110180600 AAXX 18064 67753 31660 10610 10225 20253 48/// 70500 81100
                   333 10340 20182 5//// 81830=
201110130900 AAXX 13094 67753 41760 10608 10275 20135 48/// 70500 81199
                   333 5//// 81850=
201110130600 AAXX 13064 67753 31960 00908 10219 20137 48/// 70500
                   333 10301 20144 5////=
201110120600 AAXX 12064 67753 31960 00908 10207 20144 48///
                   333 10292 20111 5////=
201110071200 AAXX 07124 67753 41960 00912 10244 20088 48/// 70500
                   333 5////=
201110070600 AAXX 07064 67753 31965 70913 10179 20121 48/// 70522 87500
                   333 10218 20126 5//// 87618=
201110051200 AAXX 05124 67753 41760 72705 10284 20157 70522 81108
                   333 81850 87282=

################################################################################
#  SYNOPS from 67855, Lupaki (Zambia) | 17-03-00S | 024-46-00E | 1000 m
################################################################################
201110310600 AAXX 31064 67855 31970 60103 10284 20098 3//// 48/// 70522 81031
                   333 20207 5//// 81360 86080=
201110301200 AAXX 30124 67855 NIL=
201110300600 AAXX 30064 67855 31970 60602 10272 20125 3//// 48/// 70522 81031
                   333 20208 5//// 81360 86080=
201110291200 AAXX 29124 67855 41670 73603 10378 20095 38/// 48/// 70522 84201
                   333 5//// 84840 87080=
201110290600 AAXX 29064 67855 11970 31001 10272 20166 3//// 48/// 69904 70511 83031
                   333 20197 5//// 83360=
201110281200 AAXX 28124 67855 NIL=
201110280600 AAXX 28064 67855 31970 70903 10270 20139 3//// 48/// 70522 82031
                   333 20210 5//// 82360 87080=
201110271200 AAXX 27124 67855 41670 71901 10362 20150 3//// 48/// 70522 81238
                   333 5//// 81840 87280=
201110270600 AAXX 27064 67855 31670 72102 10252 20165 3//// 48/// 70522 84508
                   333 20204 5//// 84860 87080=
201110261200 AAXX 26124 67855 41670 11303 10404 20100 3//// 48/// 70500 81100
                   333 5//// 81840=
201110260600 AAXX 26064 67855 31970 40301 10264 20123 38/// 48/// 70511 84030
                   333 20190 5//// 84360=
201110251200 AAXX 25124 67855 41670 21003 10398 20107 38/// 48/// 70500 82200
                   333 5//// 82840=
201110250600 AAXX 25064 67855 31970 03602 10290 20115 38/// 48/// 70500
                   333 20175 5////=
201110240600 AAXX 24064 67855 NIL=
201110231200 AAXX 23124 67855 NIL=
201110230600 AAXX 23064 67855 12980 03401 10278 20150 3//// 48/// 69904
                   333 20183 5////=
201110221200 AAXX 22124 67855 42680 52401 10356 20135 3//// 48/// 85200
                   333 5//// 85840=
201110220600 AAXX 22064 67855 12980 00401 10226 20168 38/// 48/// 60034
                   333 20163 5////=
201110211200 AAXX 21124 67855 NIL=
201110210600 AAXX 21064 67855 32980 41004 10240 20143 38/// 48/// 81031
                   333 20158 5//// 81360 84080=
201110201200 AAXX 20124 67855 42980 73401 10322 20134 3//// 48/// 81038
                   333 5//// 81360 87280=
201110200600 AAXX 20064 67855 11970 72401 10240 20155 3//// 48/// 69904 70522 81038
                   333 20205 5//// 81360 87280=
201110190600 AAXX 19064 67855 41670 73602 10282 20132 38/// 48/// 70511 82508
                   333 20231 5//// 82630 87280=
201110181200 AAXX 18124 67855 41670 13603 10366 20119 38/// 48/// 70500 81131
                   333 5//// 81840=
201110180600 AAXX 18064 67855 11970 30304 10240 20146 3//// 48/// 69904 70500 83030
                   333 20185 5//// 83360=
201110171200 AAXX 17124 67855 41670 52001 10362 20118 3//// 48/// 70511 85200
                   333 5//// 85840=
201110170600 AAXX 17064 67855 11970 10504 10264 20123 3//// 48/// 69904 70500 81030
                   333 20210 5//// 81360=
201110161200 AAXX 16124 67855 42680 41002 10362 20104 3//// 48/// 84200
                   333 5//// 84840=
201110160600 AAXX 16064 67855 32980 10503 10258 20103 38/// 48/// 80001
                   333 20155 5//// 81080=
201110151200 AAXX 15124 67855 42680 41903 10362 20081 38/// 48/// 84100
                   333 5//// 84840=
201110150600 AAXX 15064 67855 31970 61103 10240 20127 38/// 48/// 70522 80001
                   333 20137 5//// 86080=
201110141200 AAXX 14124 67855 41670 42003 10328 20083 38/// 48/// 70500 84101
                   333 5//// 84840=
201110140600 AAXX 14064 67855 31970 20000 10220 20089 38/// 48/// 70500 80001
                   333 20120 5//// 82080=
201110131200 AAXX 13124 67855 41670 10903 10332 20048 3//// 48/// 70500 81100
                   333 5//// 81840=
201110130600 AAXX 13064 67855 31970 01103 10230 20055 3//// 48/// 70500
                   333 20011 5////=
201110121200 AAXX 12124 67855 41670 31002 10316 20033 3//// 48/// 70500 83200
                   333 83840=
201110120600 AAXX 12064 67855 31970 10703 10210 20091 38/// 48/// 70500 81030
                   333 20120 5//// 81360=
201110111200 AAXX 11124 67855 42680 41001 10310 20086 38/// 48/// 84101
                   333 5//// 84840=
201110110600 AAXX 11064 67855 31970 11303 10200 20084 3//// 48/// 70500 81031
                   333 20118 5//// 81360=
201110101200 AAXX 10124 67855 42680 32302 10308 20074 3//// 48/// 83100
                   333 5//// 83840=
201110100600 AAXX 10064 67855 32980 71403 10214 20070 38/// 48/// 80008
                   333 20173 5//// 87280=
201110091200 AAXX 09124 67855 NIL=
201110090600 AAXX 09064 67855 32980 21303 10204 20070 3//// 48/// 82031
                   333 20120 5//// 82360=
201110081200 AAXX 08124 67855 42980 01303 10294 20020 3//// 48///
                   333 5////=
201110080600 AAXX 08064 67855 32980 00904 10186 20057 3//// 48///
                   333 20105 5////=
201110071200 AAXX 07124 67855 42980 00603 10288 20035 3//// 48///
                   333 5////=
201110070600 AAXX 07064 67855 31970 10803 10172 20058 38/// 48/// 70500 81030
                   333 20110 5//// 81360=
201110061200 AAXX 06124 67855 41670 70903 10244 20108 38/// 48/// 72052 8113/
                   333 5//// 81840 87360=
201110060600 AAXX 06064 67855 31370 51807 10190 20113 3//// 48/// 70511 82630
                   333 20160 5//// 82707 85360=
201110051200 AAXX 05124 67855 41670 42001 10296 20118 3//// 48/// 70500 84200
                   333 5//// 84840=
201110050600 AAXX 05064 67855 31970 11103 10220 20168 38/// 48/// 70500 81030
                   333 20165 5////=
201110041200 AAXX 04124 67855 NIL=
201110040600 AAXX 04064 67855 11970 13101 10196 20153 3//// 48/// 60174 72598 81030
                   333 20155 5//// 81360=
201110031200 AAXX 03124 67855 41610 71101 10220 20185 3//// 48/// 72598 83202
                   333 5//// 83840 87080=
201110030600 AAXX 03064 67855 11670 72403 10200 20154 38/// 48/// 60015 78098 81903
                   333 20193 5//// 81930 87080=
201110021200 AAXX 02124 67855 NIL=
201110020600 AAXX 02064 67855 31970 03601 10216 20128 3//// 48/// 70500
                   333 20120 5////=
201110011200 AAXX 01124 67855 NIL=
201110010600 AAXX 01064 67855 11970 60604 10232 20105 3//// 48/// 69904 70522 81032
                   333 20184 5//// 81360 86080=
