################################################################################
# Query made at 04/15/2022 01:40:13 UTC
# Country like Zamb*
# Time interval: from 04/01/2011 05:30  to 05/01/2011 06:30  UTC
################################################################################

################################################################################
#  SYNOPS from 67403, Kawambwa (Zambia) | 09-48S | 029-05E | 1323 m
################################################################################
201104290600 AAXX 29064 67403 32980 30903 10214 20162 48541 81031
                   333 10314 20140 58004 81362 82080=
201104210600 AAXX 21064 67403 32980 30904 10214 20174 48541 82032
                   333 10284 20146 58002 82362 82080=
201104180600 AAXX 18064 67403 32580 40901 10221 20184 48532 81132
                   333 10301 20146 58006 81820 81362 82080=

################################################################################
#  SYNOPS from 67413, Mbala (Zambia) | 08-51S | 031-20E | 1673 m
################################################################################
201104180600 AAXX 18064 67413 32580 31513 10195 20155 48520 81130
                   333 10268 20148 59016 81822 83359=
201104140600 AAXX 14064 67413 11480 61212 10175 20159 48532 60224 85530
                   333 10262 20140 59006 85615 81360=
201104120600 AAXX 12064 67413 32480 81411 10185 20161 48531 83557
                   333 10265 20155 59004 83615 81358 88280=
201104110600 AAXX 11064 67413 32480 51512 10185 20167 48535 81530
                   333 10259 20165 59015 81618 85359=

################################################################################
#  SYNOPS from 67441, Mwinilunga (Zambia) | 11-45S | 024-26E | 1361 m
################################################################################
201104290900 AAXX 29094 67441 42680 10406 10270 20153 48558 81104
                   333 58002 81830 81080=
201104290600 AAXX 29064 67441 32680 50000 10170 20154 48550 81101
                   333 10296 20/// 58003 81818 85080=
201104270900 AAXX 27094 67441 42680 50000 10270 20162 48556 81108
                   333 58017 81830 85080=
201104260600 AAXX 26064 67441 32980 60000 10151 20143 48541 80008
                   333 10296 20/// 58003 86280=
201104210900 AAXX 21094 67441 42682 50603 10257 20183 48554 85101
                   333 58017 85835 81080=
201104210600 AAXX 21064 67441 12980 60000 10175 20167 48550 60104 80008
                   333 10300 20/// 58017 86280=
201104200600 AAXX 20064 67441 12980 10902 10185 20164 48534 60024 81030
                   333 10295 20//0 59004 81360=
201104190900 AAXX 19094 67441 42680 10000 10272 20174 48548 81100
                   333 59009 81830=
201104180600 AAXX 18064 67441 32980 10000 10190 20166 48543 80001
                   333 10303 20/// 59006 81080=
201104151200 AAXX 15124 67441 42682 50000 10280 20151 48507 85100
                   333 59019 85840=
201104150600 AAXX 15064 67441 32980 20000 10165 20146 48530 80004
                   333 10290 20/// 59021 82080=
201104141200 AAXX 14124 67441 42680 40000 10280 20165 48526 84100
                   333 59004 84840=
201104140600 AAXX 14064 67441 32980 20000 10200 20179 48550 80001
                   333 10292 20/// 59003 82080=
201104130600 AAXX 13064 67441 32980 10000 10165 20154 48553 80001
                   333 10280 20/// 58007 81080=
201104120600 AAXX 12064 67441 32980 60000 10177 20160 48546 80008
                   333 10275 20//0 59009 86280=
201104110900 AAXX 11094 67441 42680 50000 10235 20199 48561 85130
                   333 5//// 85830 81360=
201104110600 AAXX 11064 67441 12980 10000 10175 20168 48555 60054 81040
                   333 10268 20/// 59010 81360=
201104080600 AAXX 08064 67441 12980 70000 10185 20180 48557 60024 72444 8703/
                   333 10270 20/// 58015 87360=
201104070900 AAXX 07094 67441 42680 50000 10926 20202 48543 85130
                   333 5//// 85830 81360=
201104050900 AAXX 05094 67441 42680 60000 10265 20183 48559 85130
                   333 58015 85830 81362=
201104050600 AAXX 05064 67441 12980 40000 10190 20182 48546 60044 83044
                   333 10305 20/// 58013 83360 81080=
201104040900 AAXX 04094 67441 42680 40000 10280 20192 48544 84130
                   333 5//// 84835 81360=
201104040600 AAXX 04064 67441 32980 70000 10176 20176 48540 87030
                   333 10285 20/// 59008 87360=
201104010600 AAXX 01064 67441 11/01 90000 10149 20149 48552 60034 74544 89///
                   333 10280 20/// 59003=

################################################################################
#  SYNOPS from 67461, Mansa (Zambia) | 11-06S | 028-51E | 1382 m
################################################################################
201104290900 AAXX 29094 67461 42680 31507 10267 20147 48538 83201
                   333 58005 83841 82080=
201104290600 AAXX 29064 67461 32480 20902 10226 20184 48537 81501
                   333 10304 20131 58012 81619 82080=
201104260600 AAXX 26064 67461 NIL=
201104210600 AAXX 21064 67461 32580 60903 10208 20181 48500 83531
                   333 10275 20146 58005 83620 83362 82080=
201104180600 AAXX 18064 67461 32980 51203 10207 20153 48528 82031
                   333 10290 20145 58006 82362 83080=
201104150600 AAXX 15064 67461 32980 60805 10190 20166 48503 80008
                   333 10280 20133 59018 86280=
201104140600 AAXX 14064 67461 32580 60704 10190 20175 48521 83508
                   333 10275 20134 59006 83620 86280=
201104130600 AAXX 13064 67461 32580 71204 10188 20168 48526 81508
                   333 10260 20124 58004 81620 87280=
201104110600 AAXX 11064 67461 32580 70805 10192 20176 48525 875//
                   333 10260 20145 59015 87620=
201104080600 AAXX 08064 67461 12580 70903 10200 20189 48514 60094 8257/
                   333 10285 20166 58005 82620 87461=
201104050600 AAXX 05064 67461 11580 71203 10200 20186 48516 60074 72166 82538
                   333 10298 20160 58007 82620 84362 86280=

################################################################################
#  SYNOPS from 67475, Kasama (Zambia) | 10-13S | 031-08E | 1382 m
################################################################################
201104290600 AAXX 29064 67475 31580 51204 10225 20165 48535 72844 81102
                   333 10298 20147 58012 81825 85080=
201104260600 AAXX 26064 67475 32580 40304 10220 20168 48523 83502
                   333 10276 20147 59008 83620 84080=
201104210600 AAXX 21064 67475 32580 51210 10212 20178 48527 85530
                   333 10262 20148 58009 85620 82360=
201104200600 AAXX 20064 67475 32580 51208 10180 20167 48517 85530
                   333 10272 20157 59005 85620 82360=
201104180600 AAXX 18064 67475 NIL=
201104150600 AAXX 15064 67475 31580 60806 10206 20165 48529 72862 81132
                   333 10270 20144 59008 81820 82360 86080=
201104140600 AAXX 14064 67475 31580 60806 10206 20165 48529 72862 81132
                   333 10270 20144 59008 81820 82360 86080=
201104130600 AAXX 13064 67475 32980 70912 10210 20160 48537 80002
                   333 10262 20140 58006 87280=
201104110600 AAXX 11064 67475 32480 70904 10202 20176 48538 875//
                   333 10265 20170 59012 87618=
201104050600 AAXX 05064 67475 12580 71208 10208 20193 48529 60154 72842 875//
                   333 10282 20161 58014 87620=
201104010600 AAXX 01064 67475 12580 61208 10185 20173 48533 60104 84530
                   333 10265 20160 58007 84620 86360=

################################################################################
#  SYNOPS from 67476, Misamfu (Zambia) | 10-06S | 031-15E | 1536 m
################################################################################
201104290600 AAXX 29064 67476 32580 30903 10203 20175 48/// 81530
                   333 10293 20140 58010 81620 82360=
201104180900 AAXX 18094 67476 42580 60905 10225 20176 48/// 86800
                   333 5//// 82625 84827=
201104180600 AAXX 18064 67476 12580 20909 10200 20168 48/// 69904 82130
                   333 10274 20159 59011 82820 81359=
201104140900 AAXX 14094 67476 42580 50902 10234 20160 48/// 84231
                   333 59011 84825 82360 81080=
201104140600 AAXX 14064 67476 32980 40805 10190 20163 48/// 84033
                   333 10273 20139 59007 84359 82280=
201104130900 AAXX 1309/ 67476 42580 50902 10234 20160 48/// 84231
                   333 59011 84825 82360 81080=
201104120600 AAXX 12064 67476 31460 70903 10180 20171 48/// 71040 87500
                   333 10265 20160 59005 81818 83360 82080=
201104050600 AAXX 05064 67476 12580 50703 10211 20187 48/// 60054 85500
                   333 10286 20/// 58011 85620=
201104040900 AAXX 04094 67476 42580 60805 10255 20180 48/// 86800
                   333 59017 81620 86823=
201104040600 AAXX 04064 67476 31478 61202 10198 20186 48/// 71040 86530
                   333 10277 20/// 59013 86615 81358=

################################################################################
#  SYNOPS from 67477, Mpika (Zambia) | 11-54S | 031-26E | 1400 m
################################################################################
201104290600 AAXX 29064 67477 NIL=
201104260600 AAXX 26064 67477 32480 21003 10195 20168 48520 82100
                   333 10261 20124 59001 82812=
201104250600 AAXX 25064 67477 32480 21503 10192 20159 48521 82101
                   333 10257 20110 59009 82813 81080=
201104220600 AAXX 22064 67477 32480 20905 10210 20163 48521 82100
                   333 10261 20144 58000 82819=
201104210900 AAXX 21094 67477 42580 50904 10234 20165 48530 85100
                   333 58002 85826=
201104210600 AAXX 21064 67477 32480 21504 10195 20164 48526 82100
                   333 10250 20135 58002 82814=
201104191200 AAXX 19124 67477 42680 61207 10235 20172 48507 86200
                   333 59006 86830=
201104180900 AAXX 18094 67477 42680 60906 10244 20169 48538 86100
                   333 5//// 86830=
201104180600 AAXX 18064 67477 32480 71007 10202 20159 48539 871//
                   333 10269 20154 58014 87817=
201104151200 AAXX 15124 67477 42680 41004 10243 20149 48480 84100
                   333 59018 84840=
201104150600 AAXX 15064 67477 32480 21005 10195 20146 48513 81101
                   333 10250 20124 59015 81818 82080=
201104141200 AAXX 14124 67477 42680 51103 10241 20160 48498 84101
                   333 59009 84836 82080=
201104140900 AAXX 14094 67477 42680 30804 10230 20149 48522 81101
                   333 5//// 81832 82080=
201104140600 AAXX 14064 67477 32480 31104 10188 20151 48528 81101
                   333 10248 20125 59010 81815 83080=
201104131200 AAXX 13124 67477 42680 41103 10240 20154 48507 82102
                   333 59010 82838 82080=
201104130900 AAXX 1309/ 67477 42680 30804 10230 20149 48522 81101
                   333 5//// 81832 82080=
201104130600 AAXX 13064 67477 32480 41305 10190 20147 48538 81101
                   333 10239 20116 58005 81818 83080=
201104110900 AAXX 11094 67477 41580 31107 10212 20153 48531 70515 83131
                   333 5//// 83823 81362 81080=
201104110600 AAXX 11064 67477 11280 81006 10160 20144 48542 69904 71522 887//
                   333 10220 20142 59007 88703=
201104080600 AAXX 08064 67477 11380 70902 10190 20182 48530 60174 72162 875//
                   333 10263 20163 58019 87608=
201104070900 AAXX 07094 67477 42580 70606 10230 20175 48520 86101
                   333 5//// 86823 81080=
201104050600 AAXX 05064 67477 12480 51004 10217 20176 48527 69904 82101
                   333 10270 20154 58013 82816 84080=
201104040600 AAXX 04064 67477 32480 51003 10216 20184 48513 81101
                   333 10273 20150 59014 81814 84080=
201104010600 AAXX 01064 67477 32480 70902 10185 20161 48533 8153/
                   333 10255 20162 58012 81610 87361=

################################################################################
#  SYNOPS from 67481, Isoka (Zambia) | 10-07S | 032-38E | 1360 m
################################################################################
201104290600 AAXX 29064 67481 32480 10902 10178 20153 48/// 81100
                   333 10296 20116 5//// 81814=
201104260600 AAXX 26064 67481 32980 20902 10208 20181 48/// 82501
                   333 10267 20125 5//// 82612 81080=
201104210600 AAXX 21064 67481 32480 10902 10202 20179 48/// 81502
                   333 10260 20144 5//// 81610 81080=
201104180600 AAXX 18064 67481 12480 50902 10200 20177 48/// 60034 83502
                   333 10292 20143 5//// 83610 83080=

################################################################################
#  SYNOPS from 67531, Zambezi (Zambia) | 13-32S | 023-07E | 1077 m
################################################################################
201104290900 AAXX 29094 67531 42680 30906 10285 20189 48/// 81180
                   333 58003 81849 83361=
201104290600 AAXX 29064 67531 32980 31403 10206 20180 48/// 83081
                   333 10321 20140 58005 83361 81082=
201104270900 AAXX 27094 67531 42980 61604 10276 20176 48/// 80008
                   333 58016 86281=
201104261200 AAXX 26124 67531 42780 12401 10305 20171 48/// 81101
                   333 5//// 81850 81082=
201104260900 AAXX 26094 67531 42980 10907 10281 20176 48/// 80001
                   333 5//// 81082=
201104260600 AAXX 26064 67531 32980 10901 10203 20169 48/// 80001
                   333 10309 20133 59005 81082=
201104250600 AAXX 25064 67531 32980 11203 10216 20181 48/// 80001
                   333 10300 20155 59013 81082=
201104210900 AAXX 21094 67531 42680 21105 10281 20183 48/// 81130
                   333 58010 81838 82363=
201104210600 AAXX 21064 67531 32480 51804 10216 20186 48/// 81130
                   333 10311 20155 5//// 81813 85363=
201104201200 AAXX 20124 67531 42780 51507 10301 20177 48/// 85100
                   333 59003 85850=
201104180900 AAXX 18094 67531 42980 00907 10282 20186 48/// 5////=
201104180600 AAXX 18064 67531 32980 10906 10208 20166 48/// 81031
                   333 10218 20125 58000 81363 81082=
201104151200 AAXX 15124 67531 42780 61805 10290 20150 48/// 86100
                   333 59017 86850=
201104150600 AAXX 15064 67531 32980 10905 10196 20154 48/// 80001
                   333 10296 20125 59002 81080=
201104141200 AAXX 14124 67531 42780 20000 10291 20150 48/// 82101
                   333 59006 82850 81080=
201104140900 AAXX 14094 67531 42980 11105 10268 20162 48/// 80001
                   333 5//// 81080=
201104140600 AAXX 14064 67531 32980 10905 10196 20154 48/// 80001
                   333 10296 20125 59002 81080=
201104131200 AAXX 13124 67531 42780 11807 10285 20155 48/// 81101
                   333 58008 81850 81082=
201104130900 AAXX 1309/ 67531 42980 11105 10268 20162 48/// 80001
                   333 5//// 81080=
201104130600 AAXX 13064 67531 32980 10906 10200 20152 48/// 80001
                   333 10295 20136 58005 81080=
201104120600 AAXX 12064 67531 32980 11205 10202 20166 48/// 80002
                   333 10298 20143 59008 81082=
201104110900 AAXX 11094 67531 42680 10904 10270 20176 48/// 81101
                   333 5//// 81840 81082=
201104110600 AAXX 11064 67531 32980 10907 10205 20171 48/// 80001
                   333 10289 20153 59015 81082=
201104081200 AAXX 08124 67531 42680 51206 10300 20187 48/// 85100
                   333 58019 85843=
201104080600 AAXX 08064 67531 12980 30000 10216 20197 48/// 69904 81032
                   333 10300 20172 58019 81362 83081=
201104070900 AAXX 07094 67531 42680 50904 10280 20200 48/// 85100
                   333 59016 85833=
201104050900 AAXX 05094 67531 42680 20705 10282 20201 48/// 81102
                   333 58013 81832 82081=
201104050600 AAXX 05064 67531 12980 40904 10225 20189 48/// 60014 81032
                   333 10315 20161 58048 81362 84081=
201104040900 AAXX 04094 67531 41980 61203 10269 20189 48/// 86030
                   333 5//// 86361=
201104040600 AAXX 04064 67531 32980 70000 10196 20179 48/// 87070
                   333 10316 20157 59044 87360=

################################################################################
#  SYNOPS from 67541, Kasempa (Zambia) | 13-32S | 025-51E | 1234 m
################################################################################
201104290600 AAXX 29064 67541 NIL=
201104260600 AAXX 26064 67541 NIL=
201104180600 AAXX 18064 67541 NIL=
201104050600 AAXX 05064 67541 NIL=

################################################################################
#  SYNOPS from 67551, Solwezi (Zambia) | 12-11S | 026-23E | 1386 m
################################################################################
201104290600 AAXX 29064 67551 32980 23204 10165 20161 48522 80002
                   333 10294 20125 59005 82080=
201104260600 AAXX 26064 67551 32980 20405 10188 20157 48517 80001
                   333 10291 20175 59002 82080=
201104180600 AAXX 18064 67551 32980 31004 10190 20164 48523 80001
                   333 10282 20186 58001 82080=

################################################################################
#  SYNOPS from 67561, Ndola (Zambia) | 13-00S | 028-39E | 1269 m
################################################################################
201104290900 AAXX 29094 67561 41575 40806 10273 20146 48536 70511 81102
                   333 58003 81830 83080=
201104290600 AAXX 29064 67561 31975 60000 10206 20163 48526 70522 80008
                   333 10306 20139 58000 86280=
201104260900 AAXX 26094 67561 41560 10506 10266 20138 48520 70500 81010
                   333 59003 81830=
201104260600 AAXX 26064 67561 31960 10606 10196 20154 48519 70500 80001
                   333 10300 20170 58000 81080=
201104250900 AAXX 25094 67561 41460 30605 10260 20150 48522 70500 81101
                   333 59012 81810=
201104250600 AAXX 25064 67561 31360 30000 10185 20163 48518 70500 82702
                   333 10285 20125 59008 82705 82080=
201104220600 AAXX 22064 67561 31975 40000 10211 20173 48521 70511 80001
                   333 10290 20150 59007 84080=
201104210600 AAXX 21064 67561 31960 10000 10190 20166 48526 70500 80001
                   333 10284 20140 58005 81080=
201104200600 AAXX 20064 67561 31975 10705 10196 20164 48522 70500 81030
                   333 10281 20142 58001 81360=
201104180900 AAXX 18094 67561 42580 60809 10255 20167 48540 86200
                   333 58006 86825=
201104180600 AAXX 18064 67561 32980 00809 10205 20166 48533
                   333 10295 20154 58006=
201104151200 AAXX 15124 67561 42780 60000 10274 20139 48483 86200
                   333 59020 86850=
201104150600 AAXX 15064 67561 31975 20804 10179 20149 48517 70511 82030
                   333 10282 20129 59021 82360=
201104141200 AAXX 14124 67561 41670 61404 10262 20143 48530 70511 86201
                   333 59001 86840 81080=
201104140600 AAXX 14064 67561 31960 30000 10181 20151 48529 70500 80001
                   333 10278 20128 58000 83080=
201104130600 AAXX 13064 67561 31960 20806 10184 20147 48539 70511 82031
                   333 10270 20130 58000 82360 81080=
201104110900 AAXX 11094 67561 41470 51105 10230 20160 48513 70522 85200
                   333 59008 85815=
201104110600 AAXX 11064 67561 31370 41310 10195 20160 48540 70500 84732
                   333 10265 20150 59004 84705 81361 82080=
201104061500 AAXX 06154 67561 41650 50000 10226 20174 48494 76122 85238
                   333 58003 81940 84840 84360 85280=
201104050900 AAXX 05094 67561 42580 70916 10263 20174 48540 86202
                   333 58018 86825 82080=
201104050600 AAXX 05064 67561 32980 60910 10214 20177 48531 80008
                   333 10249 20168 58011 86280=
201104040600 AAXX 04064 67561 31960 70000 10192 20197 48518 70522 82038
                   333 10285 20156 59002 82360 87280=
201104010600 AAXX 01064 67561 31960 30000 10170 20146 48530 70500 82031
                   333 10284 20130 58005 81361 82080=

################################################################################
#  SYNOPS from 67563, Kafironda (Zambia) | 12-36S | 028-07E | 1243 m
################################################################################
201104180600 AAXX 18064 67563 32380 11204 10223 20180 48/// 81600
                   333 10301 20130 58014 81704=

################################################################################
#  SYNOPS from 67571, Serenje (Zambia) | 13-14S | 030-13E | 1384 m
################################################################################
201104261200 AAXX 26124 67571 42682 40602 10299 20110 48496 83101
                   333 59007 83834 82082=
201104260900 AAXX 26094 67571 42582 10904 10274 20136 48515 81101
                   333 58000 81821 81081=
201104260600 AAXX 26064 67571 32984 10903 10223 20157 48513 80001
                   333 10289 20133 59004 81081=
201104250600 AAXX 25064 67571 32580 70905 10182 20161 48521 875//
                   333 10274 20142 59006 87622=
201104191200 AAXX 19124 67571 42680 60903 10238 20166 48503 86500
                   333 59003 86642=
201104190900 AAXX 19094 67571 42684 70909 10217 20157 48533 875//
                   333 59006 87632=
201104141200 AAXX 14124 67571 42684 71203 10249 20145 48494 85108
                   333 59015 85847 87280=
201104140900 AAXX 14094 67571 42684 71204 10229 20141 48524 81138
                   333 59009 81833 83360 87280=
201104131200 AAXX 13124 67571 42684 60903 10243 20154 48513 86100
                   333 58012 86845=
201104130900 AAXX 13094 67571 42580 20904 10226 20139 48533 82130
                   333 58012 82825 81360=
201104120600 AAXX 12064 67571 32480 71206 10175 20133 48531 81138
                   333 10226 20147 59005 81818 83360 82080=
201104110600 AAXX 11064 67571 11470 80907 10169 20153 48530 69924 75355 885//
                   333 10233 20155 59023 88617=
201104071200 AAXX 07124 67571 41580 70906 10264 20174 48494 70252 82681
                   333 59007 81926 86830 81359 82080=
201104050900 AAXX 05094 67571 42584 70908 10244 20176 48534 86801
                   333 58020 81922 85624 84828 84080=
201104050600 AAXX 05064 67571 32484 70904 10208 20181 48532 84538
                   333 10280 20166 58016 84617 81361 86280=

################################################################################
#  SYNOPS from 67575, Mkushi (Zambia) | 13-38S | 029-53E | 1237 m
################################################################################
201104180600 AAXX 18064 67575 32480 10904 10210 20172 48488 81131
                   333 10300 20155 58004 81815 81360 81080=

################################################################################
#  SYNOPS from 67580, Msekera (Zambia) | 13-39S | 032-34E | 1025 m
################################################################################
201104290900 AAXX 29094 67580 42680 61204 10283 20173 48/// 86101
                   333 58004 86845 81080=
201104290600 AAXX 29064 67580 32580 31203 10240 20182 48/// 81102
                   333 10319 20176 58010 81825 83080=
201104260600 AAXX 26064 67580 32980 01302 10244 20181 48///
                   333 10312 20166 59006=
201104210600 AAXX 21064 67580 32980 11004 10239 20180 48/// 81030
                   333 10294 20173 58004 81362=
201104201200 AAXX 20124 67580 42780 50904 10283 20168 48/// 85200
                   333 59004 85856=
201104191200 AAXX 19124 67580 42680 51203 10268 20176 48/// 85200
                   333 59007 85848=
201104180900 AAXX 18094 67580 42680 50905 10278 20182 48/// 85200
                   333 58007 85839=
201104180600 AAXX 18064 67580 32480 21206 10229 20177 48/// 81130
                   333 10310 20160 58007 81817 81361=
201104141200 AAXX 14124 67580 42782 51203 10274 20149 48/// 85200
                   333 59009 85850=
201104140900 AAXX 14094 67580 42682 32703 10250 20147 48/// 83100
                   333 59010 83840=
201104140600 AAXX 14064 67580 32980 01203 10210 20144 48///
                   333 10276 20143 59009=
201104130900 AAXX 13094 67580 42580 41103 10249 20139 48/// 84100
                   333 58008 84829=
201104120600 AAXX 12064 67580 32980 60907 10205 20137 48/// 84031
                   333 10267 20158 59008 84360 83080=
201104110600 AAXX 11064 67580 32980 61204 10202 20146 48/// 82038
                   333 10348 20167 59013 82361 86280=
201104050900 AAXX 05094 67580 42680 71805 10266 20202 48/// 86208
                   333 58017 86840 86280=
201104050600 AAXX 05064 67580 12480 71804 10233 20204 48/// 60014 83508
                   333 10320 20178 58017 83618 87280=
201104040900 AAXX 04094 67580 42680 71205 10282 20202 48/// 85208
                   333 59003 85835 87280=
201104040600 AAXX 04064 67580 12980 71202 10235 20201 48/// 60064 81038
                   333 10325 20174 59007 81362 87280=

################################################################################
#  SYNOPS from 67581, Chipata (Zambia) | 13-33S | 032-35E | 1028 m
################################################################################
201104290600 AAXX 29064 67581 32980 00607 10252 20179 48548 81030
                   333 10320 20195 58010 81360=
201104260900 AAXX 26094 67581 42982 00705 10285 20168 48539
                   333 59002=
201104260600 AAXX 26064 67581 32982 00305 10243 20150 48531
                   333 10307 20150 59005=
201104250600 AAXX 25064 67581 32982 01801 10219 20176 48531
                   333 10300 20167 59011=
201104210900 AAXX 21094 67581 42680 30903 10282 20171 48547 83100
                   333 58001 83838=
201104210600 AAXX 21064 67581 32980 10903 10242 20167 48545 81030
                   333 10295 20183 58005 81360=
201104180900 AAXX 18094 67581 42680 30905 10270 20154 48522 82130
                   333 59019 82830 81360=
201104180600 AAXX 18064 67581 32680 11204 10245 20163 48554 81130
                   333 10310 20178 58006 81830 81360=
201104151200 AAXX 15124 67581 42680 50000 10266 20159 48500 84260
                   333 59017 84835 81360=
201104150600 AAXX 15064 67581 32980 00000 10217 20141 48521
                   333 10280 20147 59020=
201104141200 AAXX 14124 67581 42680 41204 10270 20110 48523 84100
                   333 59012 84840=
201104140600 AAXX 14064 67581 32980 20904 10219 20154 48541 80002
                   333 10270 20146 59010 82080=
201104130600 AAXX 13064 67581 32980 21604 10211 20130 48547 82030
                   333 10270 20152 58006 82360=
201104110600 AAXX 11064 67581 32680 30901 10211 20143 48549 81130
                   333 10269 20172 5//// 81830 83360=
201104080600 AAXX 08064 67581 12580 61205 10230 20192 48552 69904 85632
                   333 10305 20203 58022 85825 81360 81280=
201104050600 AAXX 05064 67581 12680 31603 10234 20198 48545 60014 82102
                   333 10315 20188 58015 82830 81080=
201104040600 AAXX 04064 67581 12580 60802 10245 20195 48531 60154 81136
                   333 10313 20180 59008 81825 81360 86280=
201104010600 AAXX 01064 67581 12680 61601 10221 20193 48543 69904 81130
                   333 10290 20179 58010 81830 86360=

################################################################################
#  SYNOPS from 67583, Lundazi (Zambia) | 12-17S | 033-12E | 1143 m
################################################################################
201104290600 AAXX 29064 67583 32680 11201 10221 20183 48/// 81530
                   333 10315 20136 5//// 81635 81360=
201104260600 AAXX 26064 67583 32980 01602 10231 20177 48///
                   333 10305 20129 5////=
201104210600 AAXX 21064 67583 32580 11508 10229 20177 48/// 81630
                   333 10280 20155 5//// 81628 81360=
201104180600 AAXX 18064 67583 32680 11304 10222 20191 48/// 81100
                   333 10303 20153 5//// 81830=

################################################################################
#  SYNOPS from 67599, Mfuwe (Zambia) | 13-16S | 031-56E | 568 m
################################################################################
201104290900 AAXX 29094 67599 42580 21408 10314 20210 48566 70322 82201
                   333 58006 82825 81080=
201104290600 AAXX 29064 67599 32980 12005 10227 20194 48548 80001
                   333 10350 20180 58007 81080=
201104270600 AAXX 27064 67599 32980 00000 10220 20190 48539
                   333 10345 20165 58007=
201104261200 AAXX 26124 67599 42680 30000 10320 20198 48531 70222 83100
                   333 59005 83842=
201104260900 AAXX 26094 67599 42680 10000 10295 20201 48547 81100
                   333 59001 81830=
201104260600 AAXX 26064 67599 32980 00000 10230 20201 48537
                   333 10340 20172 59006=
201104250600 AAXX 25064 67599 32980 10000 10245 20202 48544 80001
                   333 10344 20180 59009 81080=
201104220600 AAXX 22064 67599 32980 10000 10245 20202 48544 80001
                   333 10344 20180 59009 81080=
201104201200 AAXX 20124 67599 42680 60708 10320 20206 48542 70222 862//
                   333 59004 86840=
201104190900 AAXX 19094 67599 42580 62106 10275 20202 48557 70122 862//
                   333 59008 86825=
201104180600 AAXX 18064 67599 12980 11905 10220 20198 48545 69904 81030
                   333 10335 20170 59010 81360=
201104141200 AAXX 14124 67599 42680 31507 10300 20171 48537 83200
                   333 59013 83845=
201104140900 AAXX 14094 67599 42680 22105 10260 20186 48557 70322 82132
                   333 59006 82830 81360 81080=
201104140600 AAXX 14064 67599 32980 11705 10200 20176 48543 81032
                   333 10311 20155 59010 81360 81080=
201104131200 AAXX 13124 67599 42780 30000 10295 20184 48547 83100
                   333 58014 83850=
201104130900 AAXX 1309/ 67599 42680 22105 10260 20186 48557 70322 82132
                   333 59006 82830 81360 81080=
201104110600 AAXX 11064 67599 12480 72305 10222 20182 48559 8127/
                   333 10269 20194 59012 81812 87460=
201104071200 AAXX 07124 67599 42680 51007 10322 20212 48525 84232
                   333 59017 81945 84845 82360 82080=
201104010600 AAXX 01064 67599 32580 51906 10224 20204 48546 81271
                   333 10316 20196 58000 81820 85460 84080=

################################################################################
#  SYNOPS from 67625, Kalabo (Zambia) | 14-51S | 022-42E | 1033 m
################################################################################
201104290600 AAXX 29064 67625 32682 10910 10237 20182 48/// 81100
                   333 10324 20147 58004 81832=

################################################################################
#  SYNOPS from 67633, Mongu (Zambia) | 15-15S | 023-09E | 1052 m
################################################################################
201104290900 AAXX 29094 67633 42882 62110 10258 20175 48546 83230
                   333 58012 83858 84362=
201104290600 AAXX 29064 67633 32982 40904 10234 20163 48529 84080
                   333 10340 20189 58003 84361=
201104260900 AAXX 26094 67633 42982 40405 10296 20145 48522 80002
                   333 58002 84080=
201104260600 AAXX 26064 67633 32982 00608 10227 20149 48504
                   333 10335 20176 59012=
201104250600 AAXX 25064 67633 12980 00905 10225 20172 48516 60014
                   333 10325 20174 59008=
201104210900 AAXX 21094 67633 42982 70000 10266 20182 48532 8703/
                   333 59013 87360=
201104210600 AAXX 21064 67633 32982 71803 10212 20186 48525 8703/
                   333 10314 20200 59018 87360=
201104180900 AAXX 18094 67633 42682 10606 10300 20169 48542 81100
                   333 59002 81830=
201104180600 AAXX 18064 67633 32982 00908 10210 20153 48521
                   333 10314 20175 59001=
201104151200 AAXX 15124 67633 42682 32604 10282 20154 48494 83100
                   333 59016 83856=
201104150600 AAXX 15064 67633 32982 00906 10203 20143 48503
                   333 10310 20163 59021=
201104131200 AAXX 13124 67633 42782 12707 10284 20150 48522 81100
                   333 58010 81856=
201104130900 AAXX 13094 67633 42780 10905 10275 20128 48542 81102
                   333 58009 81850 81080=
201104130600 AAXX 13064 67633 32980 10905 10206 20135 48528 80001
                   333 10295 20146 58003 81080=
201104120600 AAXX 12064 67633 32980 20908 10210 20146 48527 80002
                   333 10316 20166 59004 82080=
201104110900 AAXX 11094 67633 42982 50910 10274 20155 48545 80008
                   333 59001 85280=
201104110600 AAXX 11064 67633 32982 40806 10214 20167 48534 80002
                   333 10312 20177 59019 84080=
201104081200 AAXX 08124 67633 42682 50905 10292 20173 48525 84202
                   333 58019 84856 83080=
201104080600 AAXX 08064 67633 12980 60908 10224 20174 48538 69904 86050
                   333 10305 20189 58023 86360=
201104050900 AAXX 05094 67633 42682 60908 10268 20186 48540 81130
                   333 58025 81835 86360=
201104050600 AAXX 05064 67633 12982 70906 10223 20183 48532 60044 8703/
                   333 10320 20207 58005 87360=
201104040600 AAXX 04064 67633 32982 30000 10224 20188 48518 83030
                   333 10335 20175 59003 83362=
201104010600 AAXX 01064 67633 12982 40904 10230 20154 48527 60024 84030
                   333 10316 20187 58003 84361=

################################################################################
#  SYNOPS from 67641, Kaoma (Zambia) | 14-48S | 024-48E | 1213 m
################################################################################
201104290600 AAXX 29064 67641 31582 30901 10189 20168 48516 71792 81932
                   333 10326 20159 58001 81930 82360 81080=
201104260600 AAXX 26064 67641 32982 20402 10190 20162 48505 80002
                   333 10319 20139 59005 81080=
201104220600 AAXX 22064 67641 32982 10602 10218 20177 48509 81030
                   333 10321 20168 59008 81360=
201104210600 AAXX 21064 67641 32982 30802 10206 20175 48516 83030
                   333 10310 20156 58008 83060=
201104180600 AAXX 18064 67641 NIL=
201104150600 AAXX 15064 67641 32982 00802 10191 20151 48500
                   333 10299 20133 59021=
201104130600 AAXX 13064 67641 32980 00701 10179 20150 48518
                   333 10289 20131 59003=
201104110600 AAXX 11064 67641 32582 10602 10190 20174 48526 81502
                   333 10276 20156 59019 81640 81080=
201104050600 AAXX 05064 67641 32982 70902 10204 20184 48514 8703/
                   333 10312 20165 58008 87360=
201104010600 AAXX 01064 67641 32980 11001 10201 20170 48522 81030
                   333 10310 20155 58002 81360=

################################################################################
#  SYNOPS from 67655, Mumbwa (Zambia) | 15-04S | 027-11E | 1216 m
################################################################################
201104180600 AAXX 18064 67655 32980 00000 10184 20159 48531 81130
                   333 20142 59009=
201104110600 AAXX 11064 67655 32380 20910 10183 20162 48545 81631
                   333 10242 20145 59022 81709 81358 81077=
201104050600 AAXX 05064 67655 12480 70000 10191 20184 48539 60054 875//
                   333 10295 20156 58017 87612=

################################################################################
#  SYNOPS from 67659, Kafue Polder (Zambia) | 15-46S | 027-55E | 978 m
################################################################################
201104290600 AAXX 29064 67659 32980 30904 10240 20196 48/// 83030
                   333 10325 20154 58009 83362=
201104040600 AAXX 04064 67659 32980 30902 10241 20186 48/// 83030
                   333 10314 20148 59010 83361=

################################################################################
#  SYNOPS from 67663, Kabwe (Zambia) | 14-27S | 028-28E | 1206 m
################################################################################
201104290600 AAXX 29064 67663 32980 21003 10220 20174 48525 80002
                   333 10308 20177 58019 82080=
201104260600 AAXX 26064 67663 32980 20602 10215 20177 48524 80002
                   333 10299 20160 58005 81080=
201104210600 AAXX 21064 67663 32980 10902 10196 20172 48531 80002
                   333 10276 20152 58011 81080=
201104180600 AAXX 18064 67663 NIL=
201104150600 AAXX 15064 67663 32980 00905 10185 20147 48511
                   333 10267 20163 59015=
201104140600 AAXX 14064 67663 32980 10802 10179 20146 48506 80002
                   333 10268 20133 59017 81080=
201104130600 AAXX 13064 67663 32980 00901 10172 20141 48541
                   333 10253 20128 58006=
201104110600 AAXX 11064 67663 11480 70905 10176 20162 48548 69904 72162 875//
                   333 10233 20150 59010 87615=
201104050600 AAXX 05064 67663 12580 40604 10206 20182 48538 60014 82532
                   333 10283 20180 58022 82610 82360 81080=

################################################################################
#  SYNOPS from 67665, Lusaka Internationalairport (Zambia) | 15-19S | 028-27E | 1152 m
################################################################################
201105010600 AAXX 01064 67665 32380 71006 10186 20175 48563 70322 875//
                   333 10271 20140 59012 87609
                   555 00/// 91024=
201104301800 AAXX 30184 67665 42980 11505 10190 20190 48539 81030
                   333 10271 58010 81360=
201104301500 AAXX 30154 67665 42680 31207 10240 20212 48529 83130
                   333 58005 83848 83360=
201104301200 AAXX 30124 67665 42680 60409 10266 20208 48538 85230
                   333 58004 85830 83360=
201104300900 AAXX 30094 67665 42480 70908 10223 20194 48560 875//
                   333 58013 87618 91023=
201104300600 AAXX 30064 67665 32480 70808 10188 20176 48551 875//
                   333 10288 20145 58009 87610
                   555 00/// 91022=
201104300400 AAXX 30044 67665 41960 11304 10163 20163 48531 71000 81030
                   333 58006 81360=
201104291800 AAXX 29184 67665 42980 11403 10193 20193 48529 81030 81359=
201104290900 AAXX 29094 67665 42580 50809 10271 20206 48554 85100
                   333 58007 85825=
201104290600 AAXX 29064 67665 32980 11110 10214 20178 48547 81030
                   333 10310 20157 58012 81360=
201104281800 AAXX 28184 67665 41860 21902 10224 20213 48527 71300 81932
                   333 10310 58002 81957 81360=
201104281500 AAXX 28154 67665 41760 31408 10188 20209 48526 70500 82232
                   333 58006 81956 81856 81360 81080=
201104281200 AAXX 28124 67665 42780 40906 10306 20197 48531 84202
                   333 58005 84850 81080=
201104280400 AAXX 28044 67665 42980 21803 10160 20160 48520 70300 80002
                   333 58000 82080 91019=
201104280300 AAXX 28034 67665 42980 01803 10164 20164 48517 70200
                   333 58003=
201104280000 AAXX 28004 67665 42980 01902 10182 20182 48515
                   333 59001=
201104272100 AAXX 27214 67665 42980 01802 10193 20193 48521
                   333 58000=
201104271200 AAXX 27124 67665 42680 50305 10299 20198 48525 85200
                   333 59020 85845 91018=
201104270900 AAXX 27094 67665 42680 30504 10280 20200 48546 82101
                   333 58010 82835 81080=
201104270600 AAXX 27064 67665 32980 10503 10219 20204 48537 81030
                   333 10304 20140 58008 81360=
201104261800 AAXX 26184 67665 42980 11503 10205 20188 48518 81030
                   333 10304 59006 81360 91018=
201104261500 AAXX 26154 67665 42780 10106 10285 20139 48515 81130
                   333 58000 81856 81360
                   555 10304=
201104261200 AAXX 26124 67665 42680 20405 10289 20186 48514 70122 82100
                   333 59003 82840=
201104260900 AAXX 26094 67665 42580 30404 10269 20213 48534 83100
                   333 59005 83825=
201104260600 AAXX 26064 67665 32980 11303 10199 20166 48527 80001
                   333 10294 20133 58013 81080=
201104251200 AAXX 25124 67665 42680 20705 10281 20172 48516 82100
                   333 59018 82835 91017=
201104250900 AAXX 25094 67665 42480 10805 10250 20198 48537 81100
                   333 59013 81815=
201104250600 AAXX 25064 67665 32980 01105 10188 20179 48532
                   333 10294 20126 59009=
201104241200 AAXX 24124 67665 42680 40605 10279 20199 48532 84100
                   333 58004 84840=
201104240900 AAXX 24094 67665 42580 30708 10258 20196 48551 83100
                   333 58001 83825=
201104240400 AAXX 24044 67665 41960 11403 10143 20143 48527 71000 81030
                   333 58008 81360=
201104232100 AAXX 23214 67665 42980 01203 10162 20162 48527
                   333 58012=
201104231800 AAXX 23184 67665 42980 21504 10185 20185 48527 81031
                   333 58020 81360 82080=
201104231200 AAXX 23124 67665 42680 50609 10259 20193 48526 85200
                   333 58013 58013 85836=
201104221500 AAXX 22154 67665 42780 21006 10275 20209 48511 81130
                   333 59010 81850 81360=
201104221200 AAXX 22124 67665 42680 40807 10281 20201 48517 84100
                   333 59014 84840=
201104220900 AAXX 22094 67665 42580 30708 10262 20211 48540 83100
                   333 59014 83820=
201104220600 AAXX 22064 67665 32980 21205 10192 20167 48535 80001
                   333 10285 20136 59008 82080=
201104220400 AAXX 22044 67665 42980 11503 10151 20151 48521 81030
                   333 59004 81360 91019=
201104220300 AAXX 22034 67665 42980 11703 10159 20159 48522 81030
                   333 59003 81360=
201104220000 AAXX 22004 67665 42980 01603 10161 20161 48514
                   333 59002=
201104212100 AAXX 21214 67665 42980 01403 10170 20170 48524
                   333 58007=
201104211200 AAXX 21124 67665 42680 50607 10268 20199 48529 70222 85100
                   333 85835 91019=
201104210900 AAXX 21094 67665 42480 50607 10251 20208 48553 85100
                   333 58005 85815=
201104210600 AAXX 21064 67665 32980 11006 10189 20165 48543 80001
                   333 10272 20122 58010 81080=
201104201800 AAXX 20184 67665 42980 11303 10181 20181 48515 81030
                   333 10269 59007 81360 91018=
201104201200 AAXX 20124 67665 42680 40708 10258 20167 48525 84100
                   333 59004 84835 11018=
201104200600 AAXX 20064 67665 32980 01005 10176 20176 48532
                   333 10256 20156 59007=
201104191200 AAXX 19124 67665 42680 60709 10248 20180 48528 86800
                   333 59020 82630 84835 91019=
201104190900 AAXX 19094 67665 42580 50810 10230 20168 48548 70322 85500
                   333 59016 85620 91021=
201104190600 AAXX 19064 67665 32380 11206 10174 20161 48537 81500
                   333 10280 20125 59012 81609
                   555 00/// 91021=
201104181800 AAXX 18184 67665 42980 11203 10155 20142 48538 81030
                   333 59004 81360=
201104181200 AAXX 18124 67665 42680 60809 10266 20193 48540 86100
                   333 58008 86840=
201104180900 AAXX 18094 67665 42480 60710 10247 20198 48557 86500
                   333 58015 86615=
201104180600 AAXX 18064 67665 32380 11006 10190 20162 48551 81500
                   333 10289 20128 58012 81608=
201104180400 AAXX 18044 67665 42980 01304 10146 20146 48530
                   333 58010=
201104172100 AAXX 17214 67665 42980 01503 10169 20169 48533
                   333 58008=
201104171800 AAXX 17184 67665 42980 11403 10200 20200 48530 81030
                   333 10289 58010 81360=
201104171500 AAXX 17154 67665 42780 20904 10266 20184 48528 82100
                   333 58012 82850=
201104171200 AAXX 17124 67665 42680 51005 10276 20179 48534 85100
                   333 58012 85845=
201104161800 AAXX 16184 67665 42980 11004 10187 20187 48519 80002
                   333 10275 58014 81080=
201104161500 AAXX 16154 67665 42780 30905 10258 20166 48515 83201
                   333 58015 83850 81080=
201104161200 AAXX 16124 67665 42680 60304 10261 20161 48519 85201
                   333 58014 85835 81080=
201104160900 AAXX 16094 67665 42580 20708 10230 20149 48507 81101
                   333 59010 81822 81080=
201104160600 AAXX 16064 67665 32980 11204 10170 20136 48525 81030
                   333 10270 20150 58004 81360 555=
201104160400 AAXX 16044 67665 42980 11603 10128 20128 40503 81030
                   333 59003 81360=
201104160300 AAXX 16034 67665 42980 01503 10132 20132 40492
                   333 59011=
201104160000 AAXX 16004 67665 42980 01603 10140 20140 40496
                   333 59009=
201104152100 AAXX 15214 67665 42980 11703 10153 20153 48502 81030
                   333 59015 81360=
201104151800 AAXX 15184 67665 42980 11503 10181 20181 48505 81030
                   333 10265 59014 81360=
201104151500 AAXX 15154 67665 42680 31206 10248 20173 48499 83100
                   333 59018 83845=
201104151200 AAXX 15124 67665 42680 51105 10245 20168 48510
                   333 59018 85830=
201104150900 AAXX 15094 67665 42380 20709 10238 20185 48528 70300 81100
                   333 59021 82815 91019=
201104150600 AAXX 15064 67665 32980 10904 10172 20135 48541 81030
                   333 10252 20150 59005 81360=
201104141800 AAXX 14184 67665 42980 11303 10176 20168 48518 81030
                   333 10269 59012 81360=
201104141500 AAXX 14154 67665 42780 21409 10241 20181 48516 82100
                   333 59013 82850=
201104141200 AAXX 14124 67665 42680 50606 10262 20161 48523 85100
                   333 59014 85835=
201104140900 AAXX 14094 67665 42580 20708 10231 20186 48547 82100
                   333 59006 82822=
201104140600 AAXX 14064 67665 32980 10904 10175 20135 48541 81030
                   333 10252 20150 59005 81360=
201104131500 AAXX 13154 67665 42780 31407 10242 48529 83100
                   333 58007 83850=
201104131200 AAXX 13124 67665 42680 50906 10245 20150 48536 85100
                   333 59024 85835=
201104130900 AAXX 13094 67665 42580 30708 10225 20179 48553 83100
                   333 58003 83825=
201104130600 AAXX 13064 67665 32980 01005 10167 20138 48546
                   333 10261 20115 58001=
201104121200 AAXX 12124 67665 42680 41106 10243 20165 48526 84100
                   333 59013 84835=
201104120900 AAXX 12094 67665 42580 40909 10222 20167 48549 84100
                   333 59013 84822=
201104120600 AAXX 12064 67665 31480 21007 10175 20151 48546 72844 82100
                   333 10259 20130 59011 82818 91022=
201104120400 AAXX 12044 67665 41980 11403 10139 20139 48530 74100 81030
                   333 59003 81360=
201104120300 AAXX 12034 67665 42980 11402 10145 20145 48522 81030
                   333 59013 81360=
201104112100 AAXX 11214 67665 42980 41602 10167 20167 48535 84030
                   333 59014 84360=
201104111200 AAXX 11124 67665 42680 51104 10239 20193 48537 85100
                   333 59015 85833=
201104110900 AAXX 11094 67665 42580 60908 10217 20157 48561 86130
                   333 59014 86820 83360=
201104110600 AAXX 11064 67665 32380 61007 10178 20158 48557 84531
                   333 10242 20155 59019 84609 84360 81080=
201104101800 AAXX 10184 67665 42980 21202 10184 20184 48547 82030
                   333 59016 82360=
201104101500 AAXX 10154 67665 42680 71007 10223 20200 48544 87800
                   333 59011 81845 87650=
201104101200 AAXX 10124 67665 42680 71009 10228 20175 48552 87830
                   333 59006 83830 85632 81360=
201104100900 AAXX 10094 67665 42480 70909 10223 20167 48575 70322 87500
                   333 59006 87615=
201104100600 AAXX 10064 67665 12380 40909 10191 20169 48575 60014 70310 81630
                   333 10265 20159 58006 81707 82360=
201104100400 AAXX 10044 67665 42380 41006 10167 20167 48558 81730
                   333 59001 81705 83360=
201104100300 AAXX 10034 67665 42380 51004 10183 20183 48556 82730
                   333 59002 82705 83460=
201104100000 AAXX 10004 67665 42380 41205 10194 20194 48558 81730
                   333 59002 81704 83460=
201104092100 AAXX 09214 67665 42980 31105 10186 20186 48568 83030
                   333 58004 83360=
201104091200 AAXX 09124 67665 42460 71008 10237 20215 48559 87800
                   333 58018 82815 86617 91022=
201104090900 AAXX 09094 67665 41360 60910 10215 20215 48579 72052 83730
                   333 58020 83708 85359=
201104090600 AAXX 09064 67665 11360 71109 10191 20186 48571 60174 72055 84770
                   333 10273 20181 58022 84706 86358=
201104081500 AAXX 08154 67665 42780 31110 10265 20223 48532 83231
                   333 58019 83855 82360 81080=
201104081200 AAXX 08124 67665 42680 51312 10262 20233 48544 85231
                   333 58021 81935 85840 82080=
201104080900 AAXX 08094 67665 42580 61012 10255 20184 48564 70222 85202
                   333 58032 85820 83080 91023=
201104080600 AAXX 08064 67665 12480 71010 10204 20192 48551 69904 70322 875//
                   333 10280 20165 58026 87610=
201104071200 AAXX 07124 67665 42680 50808 10267 20208 48525 85201
                   333 59008 85840 81080 91018=
201104070900 AAXX 07094 67665 24580 61010 10241 20214 48531 70222 86800
                   333 59024 82622 84825 91019=
201104070600 AAXX 07064 67665 12380 51008 10190 20183 48524 69904 70322 81602
                   333 10270 20160 59026 81706 85280
                   555 00///=
201104061800 AAXX 06184 67665 42980 01402 10201 20201 48515
                   333 10270 59028=
201104061500 AAXX 06154 67665 42780 31006 10256 20220 48513 83230
                   333 59015 83850 82360=
201104061200 AAXX 06124 67665 42680 50506 10260 20233 48531 85230
                   333 59013 85835 81360=
201104060900 AAXX 06094 67665 42380 70810 10236 20221 48556 86830
                   333 59004 83618 85820 83360=
201104060600 AAXX 06064 67665 12380 60906 10198 20198 48551 60054 85630
                   333 10248 20165 58003 85708 83360=
201104060400 AAXX 06044 67665 42380 71004 10185 20185 48536 82630
                   333 58004 82707 86360=
201104060300 AAXX 06034 67665 42980 71204 10183 20183 48531 87030
                   333 58012 87360=
201104052100 AAXX 05214 67665 41960 11602 10183 20183 48539 74240 80002
                   333 59015 81080=
201104051800 AAXX 05184 67665 42680 71303 10206 20206 48530 81203
                   333 59005 81940 87080=
201104050900 AAXX 05094 67665 41580 70911 10239 20197 48560 72522 87200
                   333 58024 87820=
201104050600 AAXX 05064 67665 12480 71108 10205 20183 48549 60034 86530
                   333 10295 20171 58020 86610 81360=
201104041800 AAXX 04184 67665 41759 71312 10180 20180 48534 79599 8193/
                   333 10295 58019 81950 87359=
201104041500 AAXX 04154 67665 41780 70602 10230 20224 48513 71799 81932
                   333 59001 81950 81850 85360 83080=
201104041200 AAXX 04124 67665 41680 60707 10281 20232 48512 71792 86201
                   333 59007 81940 85840=
201104040900 AAXX 04094 67665 42580 60808 10268 20242 48540 86100
                   333 59003 86820=
201104040600 AAXX 04064 67665 32380 11004 10221 20199 48531 81531
                   333 10290 20175 59003 81509 81360 81080=
201104040400 AAXX 04044 67665 42980 51302 10193 20182 48515 84031
                   333 59010 84360 81080=
201104040300 AAXX 04034 67665 42980 31802 10187 20187 48512 83030
                   333 59012 83360=
201104040000 AAXX 04004 67665 42980 21601 10197 20197 48508 82030
                   333 59014 82360=
201104032100 AAXX 03214 67665 42980 21702 10203 20203 48522 82030
                   333 59008 82360=
201104031500 AAXX 03154 67665 42660 73403 10233 20225 48514 82230
                   333 58000 82850 86360 91017=
201104031200 AAXX 03124 67665 41660 60909 10252 20224 48515 71792 83330
                   333 59013 81937 83837 83360 91017=
201104030900 AAXX 03094 67665 42580 70807 10261 20218 48542 81130
                   333 59012 81825 87360=
201104030600 AAXX 03064 67665 32980 61205 10216 20192 48534 86030
                   333 10295 20180 59006 86360=
201104021500 AAXX 02154 67665 42680 31409 10276 20160 48520 70300 81131
                   333 59002 81840 82360 81080 555=
201104010900 AAXX 01094 67665 42980 10807 10254 20187 48553 81100
                   333 58000 81820=
201104010600 AAXX 01064 67665 32980 01305 10199 20150 48548
                   333 10290 20135 58006=

################################################################################
#  SYNOPS from 67666, Lusaka City Airport (Zambia) | 15-25S | 028-19E | 1280 m
################################################################################
201104290900 AAXX 29094 67666 42580 40908 10258 20164 48533 84200
                   333 58002 84830=
201104290600 AAXX 29064 67666 32480 30910 10220 20157 48542 81140
                   333 10297 20180 58011 81818 82360=
201104261200 AAXX 26124 67666 42680 20902 10274 20156 48496 82100
                   333 59004 82850=
201104260900 AAXX 26094 67666 42680 10904 10260 20159 48524 81100
                   333 59004 81845=
201104260600 AAXX 26064 67666 32980 00906 10211 20163 48522
                   333 10270 20134 59010=
201104210600 AAXX 21064 67666 32980 00910 10197 20163 48536 80001
                   333 10/// 20/// 58009 81079=
201104191200 AAXX 19124 67666 42680 50908 10240 20163 48516 85200
                   333 59013 85835=
201104190900 AAXX 19094 67666 42580 30912 10230 20159 48538 83800
                   333 59010 81620 83830=
201104180900 AAXX 18094 67666 42680 40914 10240 20162 48548 84200
                   333 58007 84830=
201104180600 AAXX 18064 67666 32980 00910 10195 20155 48540
                   333 10276 20154 58005=
201104140600 AAXX 14064 67666 32980 00910 10181 20129 48544
                   333 10255 20134 58004=
201104130900 AAXX 13094 67666 42580 20907 10218 20140 48543 82200
                   333 58007 82825=
201104120600 AAXX 12064 67666 32980 00903 10176 20132 48538
                   333 10250 20140 59010=
201104110600 AAXX 11064 67666 32480 50907 10170 20154 48489 85800
                   333 10230 20140 59017 85615 81818=
201104071200 AAXX 07124 67666 42680 51010 10260 20177 48516 85201
                   333 59009 85830 82080=
201104070900 AAXX 07094 67666 42480 40912 10232 20175 48526 84800
                   333 59022 82618 82820=
201104050900 AAXX 05094 67666 42580 50910 10240 20187 48534 85800
                   333 58021 83625 85830=
201104050600 AAXX 05064 67666 12480 40910 10205 20140 48543 60044 83531
                   333 10285 20165 58021 83615 81080=
201104040600 AAXX 04064 67666 32980 21004 10225 20188 48524 81031
                   333 10290 20160 59005 81360 82080=
201104010600 AAXX 01064 67666 32980 00912 10210 20126 48544
                   333 10265 20140 58008=

################################################################################
#  SYNOPS from 67667, Mount Makulu (Zambia) | 15-33S | 028-15E | 1213 m
################################################################################
201104210600 AAXX 21064 67667 32980 00911 10215 20160 48///
                   333 10280 20160 5////=

################################################################################
#  SYNOPS from 67673, Petauke (Zambia) | 14-15S | 031-17E | 1035 m
################################################################################
201104210600 AAXX 21064 67673 32984 00905 10235 20170 48550
                   333 10300 20167 58009=
201104180900 AAXX 18094 67673 42680 50803 10252 20174 48564 85230
                   333 58005 85830 83360=
201104180600 AAXX 18064 67673 32580 31504 10226 20178 48553 82130
                   333 10310 20175 58003 82820 83360=
201104050600 AAXX 05064 67673 12580 60904 10225 20194 48554 69904 85431
                   333 10314 20190 58020 85620 83360 84080=
201104040900 AAXX 04094 67673 42680 63602 10280 20207 48544 86201
                   333 59009 86835 85080=
201104040600 AAXX 04064 67673 12980 70502 10250 20205 48538 60074 80001
                   333 10315 20190 58006 87080=

################################################################################
#  SYNOPS from 67731, Senanga (Zambia) | 16-06S | 023-16E | 1027 m
################################################################################
201104210600 AAXX 21064 67731 12980 70901 10215 20197 48/// 60024 87030
                   333 10327 20166 5//// 87361=
201104180600 AAXX 18064 67731 32980 21302 10226 20139 48/// 80008
                   333 10325 20162 5//// 81830=

################################################################################
#  SYNOPS from 67743, Livingstone (Zambia) | 17-49S | 025-49E | 985 m
################################################################################
201104290900 AAXX 29094 67743 42980 20912 10278 20172 48562 82030
                   333 59006 82362=
201104290600 AAXX 29064 67743 32980 11506 10212 20167 48543 81041
                   333 10336 20/// 58009 81359 81080=
201104270600 AAXX 27064 67743 31860 20000 10190 20183 48524 60024 71000 82030
                   333 10343 20//0 58013 82360=
201104260900 AAXX 26094 67743 42980 51106 10296 20171 48530 81130
                   333 59013 81850 84360=
201104260600 AAXX 26064 67743 32980 31005 10209 20174 48497 83030
                   333 10321 20/// 59011 83362=
201104250600 AAXX 25064 67743 32980 70602 10218 20173 48528 87030
                   333 10326 20/// 59007 87360=
201104220600 AAXX 22064 67743 32980 31505 10205 20160 48534 83030
                   333 10310 20/// 58001 83360=
201104210900 AAXX 21094 67743 42980 70805 10270 20144 48546 82130
                   333 58002 82858 85360=
201104210600 AAXX 21064 67743 32980 71105 10207 20160 48542 82130
                   333 10319 20/// 58000 82850 85360=
201104200600 AAXX 20064 67743 32980 10000 20155 48524 81040
                   333 10318 20//0 59002 81360=
201104180900 AAXX 18094 67743 42780 40912 10280 20146 48557 70300 81102
                   333 58005 81856 83080=
201104180600 AAXX 18064 67743 32980 10904 10199 20133 48536 81030
                   333 10321 20/// 58004 81359=
201104151200 AAXX 15124 67743 42780 30707 10295 20109 48504 83100
                   333 59019 83856=
201104150600 AAXX 15064 67743 32980 00904 10180 20124 48514
                   333 10301 20/// 59023=
201104130600 AAXX 13064 67743 32980 00906 10183 20139 48523
                   333 10295 20/// 59001=
201104110600 AAXX 11064 67743 32980 00906 10180 20140 48547
                   333 10296 20/// 59020=
201104080600 AAXX 08064 67743 32480 31311 10223 20189 48554 81730
                   333 10320 20/// 58032 81610 82359=
201104061500 AAXX 06154 67743 42780 70907 10285 20187 48516 82432
                   333 59014 82656 84360 82080=
201104061200 AAXX 06124 67743 42680 60705 10288 20186 48531 85202
                   333 59024 85845 82080=
201104050900 AAXX 05094 67743 41450 81107 10200 20200 48564 76192 875//
                   333 58037 87610=
201104050600 AAXX 05064 67743 11358 80811 10198 20186 48553 60024 79592 8333/
                   333 10343 20/// 58043 83908 88359=
201104040900 AAXX 04094 67743 42980 00000 10290 20160 48546
                   333 58000=
201104040600 AAXX 04064 67743 32980 12004 10201 20158 48518 81040
                   333 10222 20/// 59010 81359=
201104010900 AAXX 01094 67743 42680 20000 10276 20184 48555 82100
                   333 58007 82838=
201104010600 AAXX 01064 67743 32980 20905 10189 20174 48536 82030
                   333 10310 2//// 59008 82360=

################################################################################
#  SYNOPS from 67751, Magoye (Zambia) | 16-00S | 027-36E | 1018 m
################################################################################
201104180600 AAXX 18064 67751 32980 01303 10210 20177 48///
                   333 10308 20110 5//// 59009=

################################################################################
#  SYNOPS from 67753, Choma (Zambia) | 16-50S | 027-04E | 1213 m
################################################################################
201104260600 AAXX 26064 67753 32980 10605 10214 20180 48/// 80001
                   333 10283 20134 5//// 81080=
201104210900 AAXX 21094 67753 42680 73405 10256 20167 48/// 86108
                   333 5//// 86830 85280=
201104210600 AAXX 21064 67753 32980 10906 10184 20263 48/// 80001
                   333 10271 20116 5//// 81080=
201104201200 AAXX 20124 67753 42680 10610 10266 20143 48/// 81100
                   333 5//// 81845=
201104200600 AAXX 20064 67753 32980 00908 10179 20162
                   333 10269 20107=
201104180600 AAXX 18064 67753 32980 00810 10193 20158 48///
                   333 10276 20166 5////=
201104110600 AAXX 11064 67753 NIL=
201104080600 AAXX 08064 67753 11350 80906 10185 20183 48/// 60074 79196 8777/
                   333 10274 20171 5//// 87708 81915 88459=
201104071200 AAXX 07124 67753 42680 70612 10259 20193 48/// 86208
                   333 5//// 86840 85280=
201104050900 AAXX 05094 67753 42480 81006 10201 20188 48/// 8757/
                   333 5//// 87612 88459=
201104050600 AAXX 05064 67753 11980 80906 10178 20175 48/// 60034 72162 8807/
                   333 10298 20166 5//// 88459=
201104040600 AAXX 04064 67753 32980 12704 10204 20179 48/// 80002
                   333 10294 20130 5//// 81080=

################################################################################
#  SYNOPS from 67855, Lupaki (Zambia) | 17-03-00S | 024-46-00E | 1000 m
################################################################################
201105010600 AAXX 01064 67855 12980 11202 10174 20170 3//// 48/// 69904 81030
                   333 20140 5//// 81360=
201104301200 AAXX 30124 67855 41670 73501 10232 20200 3//// 48/// 78198 82272
                   333 5//// 82840 85459 87080=
201104300600 AAXX 30064 67855 12980 41901 10182 20164 3//// 48/// 60014 84070
                   333 20150 5//// 84460=
201104291200 AAXX 29124 67855 41680 51402 10300 20184 3//// 48/// 72582 85232
                   333 5//// 85840=
201104290600 AAXX 29064 67855 32980 51901 10192 20177 38/// 48/// 85070
                   333 20105 5//// 85460=
201104281200 AAXX 28124 67855 42680 40502 10318 20148 38/// 48/// 84200
                   333 5//// 84840=
201104280600 AAXX 28064 67855 32980 00701 10188 20171 3//// 48///
                   333 20149 5////=
201104271200 AAXX 27124 67855 42680 42903 10304 20178 38/// 48/// 83202
                   333 5//// 83840=
201104270600 AAXX 27064 67855 12980 20402 10196 20189 3//// 48/// 60144 81630
                   333 20170 5//// 81708=
201104261200 AAXX 26124 67855 42680 53304 10320 20164 3//// 48/// 85200
                   333 5//// 85840=
201104260600 AAXX 26064 67855 12980 11301 10174 20168 3//// 48/// 60014 81030
                   333 20135 5//// 81360=
201104251200 AAXX 25124 67855 NIL=
201104250600 AAXX 25064 67855 32980 50602 10200 20161 3//// 48/// 85070
                   333 20140 5//// 85460=
201104241200 AAXX 24124 67855 NIL=
201104240600 AAXX 24064 67855 NIL=
201104230600 AAXX 23064 67855 32980 70601 10198 20171 38/// 48/// 8707/
                   333 20165 5//// 87460=
201104221200 AAXX 22124 67855 NIL=
201104200600 AAXX 20064 67855 32980 31801 10200 20170 3//// 48/// 83030
                   333 20150 5//// 83360=
201104190600 AAXX 19064 67855 32980 20603 10200 20164 3//// 48/// 82030
                   333 20145 5//// 82360=
201104181200 AAXX 18124 67855 NIL=
201104180600 AAXX 18064 67855 32880 11003 10210 20171 3//// 48/// 81500
                   333 20165 5//// 81657=
201104171200 AAXX 17124 67855 NIL=
201104170600 AAXX 17064 67855 NIL=
201104161200 AAXX 16124 67855 42680 43302 10306 20135 3//// 48/// 84100
                   333 5//// 84840=
201104160600 AAXX 16064 67855 32980 00402 10180 20151 3//// 48///
                   333 20120 5////=
201104151200 AAXX 15124 67855 NIL=
201104150600 AAXX 15064 67855 31970 01801 10140 20123 3//// 48/// 70500
                   333 20105 5////=
201104141200 AAXX 14124 67855 42680 23601 10294 20119 3//// 48/// 82100
                   333 5//// 82840=
201104140600 AAXX 14064 67855 32980 02001 10146 20119 3//// 48///
                   333 20085 5////=
201104130600 AAXX 13064 67855 32980 01701 10136 20108 3//// 48///
                   333 20085 5////=
201104111200 AAXX 11124 67855 42980 02202 10269 20078 3//// 48///
                   333 5////=
201104110600 AAXX 11064 67855 32980 02102 10126 20100 3//// 48///
                   333 20075 5////=
201104100600 AAXX 10064 67855 32980 51702 10160 20126 3//// 48/// 85070
                   333 20110 5//// 85460=
201104091200 AAXX 09124 67855 NIL=
201104090600 AAXX 09064 67855 32380 71301 10186 20158 3//// 48/// 82631
                   333 20115 5//// 82708 85360=
201104081200 AAXX 08124 67855 42380 71507 10262 20186 3//// 48/// 8367/
                   333 5//// 83708 85460=
201104080600 AAXX 08064 67855 32380 51409 10212 20176 3//// 48/// 82631
                   333 20183 5//// 82707 84360=
201104071200 AAXX 07124 67855 42680 41403 10304 20182 3//// 48/// 84230
                   333 5//// 84840=
201104070600 AAXX 07064 67855 12980 41801 10188 20183 3//// 48/// 60054 83031
                   333 20163 5//// 83360=
201104061200 AAXX 06124 67855 42680 70701 10284 20183 3//// 48/// 84231
                   333 5//// 84840 87080=
201104051200 AAXX 05124 67855 NIL=
201104050600 AAXX 05064 67855 NIL=
201104041200 AAXX 04124 67855 NIL=
201104040600 AAXX 04064 67855 NIL=
201104030600 AAXX 03064 67855 NIL=
201104021200 AAXX 02124 67855 NIL=
201104020600 AAXX 02064 67855 NIL=
201104011200 AAXX 01124 67855 NIL=
201104010600 AAXX 01064 67855 NIL=
