################################################################################
# Query made at 04/17/2022 11:44:22 UTC
# Country like Zamb*
# Time interval: from 04/01/2007 05:30  to 05/01/2007 05:30  UTC
################################################################################

################################################################################
#  SYNOPS from 67581, Chipata (Zambia) | 13-33S | 032-35E | 1028 m
################################################################################
200704271200 AAXX 27124 67581 42684 50803 10294 20170 48524 85100
                   333 58013 85845=

################################################################################
#  SYNOPS from 67599, Mfuwe (Zambia) | 13-16S | 031-56E | 568 m
################################################################################
200704280900 AAXX 28094 67599 42680 40000 10311 20211 48568 82131
                   333 59004 82830 81360 83080=
200704280600 AAXX 28064 67599 32980 30000 10230 20207 48551 83030
                   333 10345 20159 58001 83360=
200704271500 AAXX 27154 67599 42680 30000 10330 20209 48538 70122 81930
                   333 58004 81945 81360=
200704181500 AAXX 18154 67599 42680 60000 10304 20205 48536 8193/
                   333 59003 81954 86360=
200704121200 AAXX 12124 67599 41780 62208 10305 20198 48527 71792 85232
                   333 59021 81950 85850 83360 83080=
200704030900 AAXX 03094 67599 42680 51503 10300 20207 48556 84130
                   333 59009 84830 83360=
200704030600 AAXX 03064 67599 32480 30000 10255 20211 48552 81131
                   333 10340 20175 59006 81810 83360 82080=

################################################################################
#  SYNOPS from 67665, Lusaka Internationalairport (Zambia) | 15-19S | 028-27E | 1152 m
################################################################################
200705010400 AAXX 01044 67665 41980 20000 10112 20112 48539 74122 80002
                   333 58017 82080=
200704301800 AAXX 30184 67665 42980 01103 10167 20167 48537
                   333 10281 58011=
200704301500 AAXX 30154 67665 42780 11406 10251 20166 48528 81100
                   333 58009 81856 555 10281 91019=
200704291500 AAXX 29154 67665 42980 11409 10275 20150 48523 81030
                   333 58001 81360=
200704291200 AAXX 29124 67665 42780 11407 10299 20131 48531 81100
                   333 58001 81850=
200704290900 AAXX 29094 67665 2980/ 11604 10276 20141 48552 70500 80001
                   333 59003 81080 91021=
200704290600 AAXX 29064 67665 32978 00000 10200 20162 48531 70500
                   333 10323 20150 59019=
200704281800 AAXX 28184 67665 42980 02104 10226 20181 48537
                   333 10309 58011=
200704281500 AAXX 28154 67665 42780 12508 10297 20158 48524 81130
                   333 58004 81856 81360=
200704281200 AAXX 28124 67665 42680 33006 10305 20178 48530 83100
                   333 59003 83845=
200704280900 AAXX 28094 67665 42680 10000 10277 20161 48555 81101
                   333 59001 81830 81080=
200704280600 AAXX 28064 67665 32980 10000 10212 20196 48547 80001
                   333 10302 20140 59002 81080=
200704271200 AAXX 27124 67665 42780 10000 10285 20153 48531 81100
                   333 58009 81857=
200704270600 AAXX 27064 67665 32980 10000 10184 20156 48545 80001
                   333 10283 20104 58013 81080
                   555 00/// 91022=
200704261800 AAXX 26184 67665 42980 30000 10180 20147 48524 81032
                   333 58005 81360 83080=
200704261500 AAXX 26154 67665 42980 30706 10261 20151 48517 81032
                   333 59001 81360 82080=
200704260600 AAXX 26064 67665 32980 11204 10176 20170 48532 80001
                   333 10289 20124 59003 81080=
200704260400 AAXX 26044 67665 42980 00000 10120 20120 48511
                   333 59002=
200704260300 AAXX 26034 67665 42980 00000 10114 20114 48506
                   333 58001=
200704260000 AAXX 25244 67665 42980 00000 10132 20132 48516
                   333 59002=
200704252100 AAXX 25214 67665 42980 11601 10165 20149 48518 81030
                   333 58006 81360=
200704251200 AAXX 25124 67665 42680 41212 10271 20145 48522 84100
                   333 58004 84838=
200704250900 AAXX 25094 67665 42580 20706 10239 20172 48544 82100
                   333 58002 82820 91021=
200704250300 AAXX 25034 67665 42980 00000 10123 20123 48507
                   333 59003=
200704242100 AAXX 24214 67665 42980 10000 10161 20161 48516 81030
                   333 59001 81360=
200704241800 AAXX 24184 67665 42980 10000 10177 20162 48511 81030 81360=
200704241500 AAXX 24154 67665 42780 31506 10245 20176 48512 83200
                   333 59004 83857 555 10276 91017=
200704241200 AAXX 24124 67665 42680 41009 10266 20167 48523 84100
                   333 59007 84840=
200704231500 AAXX 23154 67665 42780 21507 10257 20175 48516 81230
                   333 59007 81850 82360=
200704231200 AAXX 23124 67665 42680 41005 10276 20160 48526 84200
                   333 59006 84840=
200704230900 AAXX 23094 67665 42580 50709 10254 20203 48551 85200
                   333 58007 85823=
200704230400 AAXX 23044 67665 41958 30000 10138 20138 48524 74022 83032
                   333 59002 83359 81080=
200704220600 AAXX 22064 67665 42980 00000 10199 20199 48549
                   333 10285=
200704220400 AAXX 22044 67665 42980 10000 10140 20140 48528 81030
                   333 59007 81360 91020=
200704220300 AAXX 22034 67665 42980 10000 10153 20153 48525 81030
                   333 58023 81360 91020=
200704212100 AAXX 21214 67665 42980 10000 10179 20179 48539 81030
                   333 58001 81360 91021=
200704211800 AAXX 21184 67665 42980 20000 10186 20186 45535 82030
                   333 10278 59004 82360 91020=
200704211200 AAXX 21124 67665 42680 51106 10272 20189 48545 85200
                   333 58003 85840=
200704210900 AAXX 21094 67665 42580 50610 10237 20210 48561 85800
                   333 58001 82825 83627=
200704210600 AAXX 21064 67665 32380 30809 10201 20201 48554 83501
                   333 59006 83609 81080=
200704210300 AAXX 21034 67665 42980 01405 10155 20155 48502
                   333 59006=
200704210000 AAXX 21004 67665 42980 01704 10161 20161 48533
                   333 59003=
200704202100 AAXX 20214 67665 42980 00000 10175 20175 48540
                   333 58003=
200704201800 AAXX 20184 67665 42980 30000 10204 20194 48540 82030
                   333 10286 58008 82359=
200704201500 AAXX 20154 67665 24780 41108 10267 20193 48536 70322 84200
                   333 58004 84850 555 10286=
200704200600 AAXX 20064 67665 32975 10909 10191 20191 48537 70500 81030
                   333 10292 20146 59011 81359=
200704191800 AAXX 19184 67665 42780 20000 10193 20193 48531 82200
                   333 10293 59001 82858
                   555 91019=
200704191500 AAXX 19154 67665 42780 20909 10263 20188 48532 82200
                   333 59004 82850 555 10293 91019=
200704191200 AAXX 19124 67665 42680 60506 10277 20222 48544 86200
                   333 59009 86835 91020=
200704181800 AAXX 18184 67665 42980 00000 10190 20190 48532
                   333 10290 58002=
200704181500 AAXX 18154 67665 42780 41007 10269 20179 48530 84200
                   333 58006 84850=
200704181200 AAXX 18124 67665 42680 60711 10275 20182 48547 86200
                   333 58006 86840 91020=
200704180900 AAXX 18094 67665 42580 10253 20209 48565 85200
                   333 58005 85825=
200704180600 AAXX 18064 67665 32380 10908 10191 20191 48554 81100
                   333 10298 20136 58007 81810
                   555 10/// 91023=
200704171800 AAXX 17184 67665 42980 11203 10200 20200 48533 81030
                   333 58004 81360 91020=
200704171200 AAXX 17124 67665 42680 51108 10284 20205 48542 84200
                   333 58006 84845=
200704170600 AAXX 17064 67665 32980 01006 10190 20190 48547
                   333 10301 20149 59003 Q1022.4=
200704170400 AAXX 17044 67665 42980 10000 10141 20141 48531 81030
                   333 58003 81360=
200704170300 AAXX 17034 67665 42980 10000 10140 20140 48529 81030
                   333 58006 81360=
200704162100 AAXX 16214 67665 42980 10000 10166 20166 48531 81030
                   333 59010 81360=
200704151800 AAXX 15184 67665 42980 41303 10196 20196 48534 84030
                   333 10277 59009 84360 91020=
200704151200 AAXX 15124 67665 42680 50908 10268 20214 48550 85200
                   333 85830=
200704150900 AAXX 15094 67665 42580 60812 10234 20212 48574 86500
                   333 58002 86620=
200704150600 AAXX 15064 67665 32380 41107 10198 20198 48544 82530
                   333 10262 20159 59005 82608 84360=
200704150400 AAXX 15044 67665 42980 50000 10161 20161 48544 84031
                   333 59005 84359 81080=
200704150300 AAXX 15034 67665 42980 11502 10164 20164 48541 80001
                   333 59002 81080=
200704142100 AAXX 14214 67665 42980 61602 10182 20182 48546 81032
                   333 59005 81360 85280=
200704140900 AAXX 14094 67665 42580 60715 10238 20209 48574 70222 86830
                   333 58023 84620 82360=
200704140600 AAXX 14064 67665 42480 71011 10194 20194 48565 69964 87500
                   333 10299 20154 58022 87610=
200704140400 AAXX 14044 67665 42380 71205 10181 20181 48552 87600
                   333 58025 87706=
200704140000 AAXX 14004 67665 42980 11404 10167 20167 48536 81031
                   333 59009 81380 81080=
200704130900 AAXX 13094 67665 42580 40715 10271 20224 48555 84100
                   333 58010 84825 91022=
200704130600 AAXX 13064 67665 42980 10905 10210 20210 48546 81030
                   333 10298 20215 58009 81360 91021=
200704130400 AAXX 13044 67665 42980 10000 10154 20154 48524 81030
                   333 58001 81360 91020=
200704121800 AAXX 12184 67665 42980 21403 10187 20187 48517 82030
                   333 10295 59007 82360 91018=
200704121200 AAXX 12124 67665 42680 41003 10274 20175 48522 84200
                   333 59012 84840=
200704120600 AAXX 12064 67665 32980 11105 10203 20203 48537 81030
                   333 10285 20150 59013 81360 91021=
200704111800 AAXX 11184 67665 42980 21404 10191 20191 48524 82030
                   333 58007 82360=
200704111500 AAXX 11154 67665 42780 41010 10253 20202 48525 82230
                   333 59007 82850 83360=
200704111200 AAXX 11124 67665 42680 50000 10261 20179 48532 85200
                   333 59009 85840=
200704110900 AAXX 11094 67665 42580 50309 10253 20203 48553 85200
                   333 59008 85825=
200704110600 AAXX 11064 67665 32980 11304 10204 20204 48555 81030
                   333 10280 20//0 58024 81359 81359 91022=
200704101500 AAXX 10154 67665 42780 31205 10247 20195 48532 83230
                   333 58000 83850 81359 555=
200704091500 AAXX 09154 67665 42680 61407 10236 20210 48532 81932
                   333 58007 81945 84360 85080=
200704091200 AAXX 09124 67665 42680 61309 10254 20211 48537 85202
                   333 59003 85830 81080=
200704090600 AAXX 09064 67665 32480 61205 10186 20186 48553 83531
                   333 10252 20148 59001 83610 85360 81080 91023=
200704080600 AAXX 08064 67665 12480 71107 10180 20180 48553 69924 875//
                   333 10290 20159 58001 87610=
200704080400 AAXX 08044 67665 42980 11205 10156 20156 48538 81030
                   333 5//// 81359=
200704080300 AAXX 08034 67665 42980 31403 10162 20162 48534 83030
                   333 5//// 83359=
200704071800 AAXX 07184 67665 41/80 51205 10202 20202 48544 71722 81932
                   333 58011 819// 85360 81080=
200704071500 AAXX 07154 67665 42780 51202 10271 20214 48529 70122 82232
                   333 58000 82856 82360 83080
                   555 10290=
200704061500 AAXX 06154 67665 42680 30804 10259 20208 48528 81232
                   333 58014 81847 83360 82080=
200704061200 AAXX 06124 67665 42680 60902 10254 20220 48545 82830
                   333 58018 82840 86360=
200704060900 AAXX 06094 67665 42580 71402 10247 20226 48556 8467/
                   333 58017 84625 87459=
200704060600 AAXX 06064 67665 32480 71102 10198 20198 48552 8357/
                   333 10289 20//0 58014 83610 87459=
200704060400 AAXX 06044 67665 42980 70000 10180 20180 48538 8707/
                   333 58011 87459=
200704051800 AAXX 05184 67665 42980 50000 10218 20218 48527 84032
                   333 10289 58018 84360 83080=
200704051500 AAXX 05154 67665 42880 31007 10262 20204 48514 83202
                   333 58004 83857 84080=
200704051200 AAXX 05124 67665 42680 51005 10268 20202 48529 85201
                   333 58012 85845 81080=
200704050600 AAXX 05064 67665 12480 21008 10203 20203 48540 81130
                   333 10278 20164 58009 81810 81360 91021=
200704041500 AAXX 04154 67665 42680 51109 10239 20225 48509 82932
                   333 59006 82948 84360 84080=
200704041200 AAXX 04124 67665 42680 60509 10269 20227 48516 81930
                   333 59012 81935 85838 81360=
200704040900 AAXX 04094 67665 42580 60509 10246 20216 48533 85230
                   333 59002 85825 82360=
200704040600 AAXX 04064 67665 12480 31007 10194 20194 48530 69904 70322 81131
                   333 10271 20//0 58000 81810 81360 81080=
200704031200 AAXX 03124 67665 41580 51009 10245 20216 48527 72122 85230
                   333 59002 85825 81360=
200704030900 AAXX 03094 67665 42580 60609 10254 20219 48555 86501
                   333 59008 86618 81080=
200704021200 AAXX 02124 67665 42580 60609 10259 20216 48530 86201
                   333 59003 86825 81080=
200704020900 AAXX 02094 67665 42480 70913 10223 20216 48549 875//
                   333 59002 87512=
200704011500 AAXX 01154 67665 42680 71107 10230 20223 48521 81932
                   333 58010 81930 83360 86080=
200704011200 AAXX 01124 67665 42480 70807 10239 20217 48529 85832
                   333 58010 84618 84820 84360 85080=
200704010600 AAXX 01064 67665 32370 71007 10196 20196 48544 75022 876//
                   333 10280 20174 58004 87608 91022=

################################################################################
#  SYNOPS from 67743, Livingstone (Zambia) | 17-49S | 025-49E | 985 m
################################################################################
200704280900 AAXX 28094 67743 42980 01208 10300 20124 48545
                   333 59006=
200704181500 AAXX 18154 67743 42780 31006 10300 20132 48531 82130
                   333 58006 82856 81360=
200704121200 AAXX 12124 67743 42880 31002 10312 20074 48519 83100
                   333 59020 83857=
200704051500 AAXX 05154 67743 41580 51405 10214 20190 48513 72999 83232
                   333 58022 81925 82825 83360 82080=
200704051200 AAXX 05124 67743 42680 50605 10290 20169 48521 84201
                   333 58002 83080=
200704030900 AAXX 03094 67743 42580 70809 10240 20179 48549 86631
                   333 59001 86620 83360=
200704021200 AAXX 02124 67743 42680 71107 10263 20175 48528 84530
                   333 58002 84630 84360=

################################################################################
#  SYNOPS from 67855, Lupaki (Zambia) | 17-03-00S | 024-46-00E | 1000 m
################################################################################
200705010000 AAXX 01004 67855 NIL=
200704301800 AAXX 30184 67855 NIL=
200704300600 AAXX 30064 67855 32980 00000 10092 20076 3//// 48///
                   333 20050 5////=
200704300000 AAXX 30004 67855 NIL=
200704291800 AAXX 29184 67855 NIL=
200704291200 AAXX 29124 67855 NIL=
200704290600 AAXX 29064 67855 NIL=
200704290000 AAXX 29004 67855 NIL=
200704281800 AAXX 28184 67855 NIL=
200704281200 AAXX 28124 67855 NIL=
200704280600 AAXX 28064 67855 NIL=
200704280000 AAXX 28004 67855 NIL=
200704271800 AAXX 27184 67855 NIL=
200704271200 AAXX 27124 67855 NIL=
200704270600 AAXX 27064 67855 NIL=
200704270000 AAXX 27004 67855 NIL=
200704261800 AAXX 26184 67855 NIL=
200704261200 AAXX 26124 67855 NIL=
200704260600 AAXX 26064 67855 32980 00000 10150 20093 3//// 48///
                   333 20095 5////=
200704260000 AAXX 26004 67855 NIL=
200704251800 AAXX 25184 67855 NIL=
200704251200 AAXX 25124 67855 NIL=
200704250600 AAXX 25064 67855 32980 00000 10138 20106 3//// 48///
                   333 20090 5////=
200704250000 AAXX 25004 67855 NIL=
200704241800 AAXX 24184 67855 NIL=
200704241200 AAXX 24124 67855 NIL=
200704240600 AAXX 24064 67855 NIL=
200704240000 AAXX 24004 67855 NIL=
200704231800 AAXX 23184 67855 NIL=
200704231200 AAXX 23124 67855 NIL=
200704230600 AAXX 23064 67855 32980 00901 10168 20121 3//// 48///
                   333 20101 5////=
200704230000 AAXX 23004 67855 NIL=
200704221800 AAXX 22184 67855 NIL=
200704221200 AAXX 22124 67855 NIL=
200704220600 AAXX 22064 67855 NIL=
200704220000 AAXX 22004 67855 NIL=
200704211800 AAXX 21184 67855 NIL=
200704211200 AAXX 21124 67855 NIL=
200704210600 AAXX 21064 67855 32980 00601 10160 20135 3//// 48///
                   333 20120 5////=
200704210000 AAXX 21004 67855 NIL=
200704201800 AAXX 20184 67855 NIL=
200704201200 AAXX 20124 67855 NIL=
200704200600 AAXX 20064 67855 NIL=
200704200000 AAXX 20004 67855 NIL=
200704191800 AAXX 19184 67855 NIL=
200704191200 AAXX 19124 67855 NIL=
200704190600 AAXX 19064 67855 32980 11401 10176 20147 3//// 48/// 81030
                   333 20134 5//// 81360=
200704190000 AAXX 19004 67855 NIL=
200704181800 AAXX 18184 67855 NIL=
200704181200 AAXX 18124 67855 NIL=
200704180600 AAXX 18064 67855 NIL=
200704180000 AAXX 18004 67855 NIL=
200704171800 AAXX 17184 67855 NIL=
200704171200 AAXX 17124 67855 NIL=
200704170600 AAXX 17064 67855 32980 00801 10186 20146 3//// 48///
                   333 20149 5////=
200704170000 AAXX 17004 67855 NIL=
200704161800 AAXX 16184 67855 NIL=
200704161200 AAXX 16124 67855 NIL=
200704160600 AAXX 16064 67855 12980 00000 10165 20154 3//// 48/// 69904
                   333 20138 5////=
200704160000 AAXX 16004 67855 NIL=
200704151800 AAXX 15184 67855 NIL=
200704151200 AAXX 15124 67855 NIL=
200704150600 AAXX 15064 67855 NIL=
200704150000 AAXX 15004 67855 NIL=
200704141800 AAXX 14184 67855 NIL=
200704141200 AAXX 14124 67855 NIL=
200704140600 AAXX 14064 67855 NIL=
200704140000 AAXX 14004 67855 NIL=
200704131800 AAXX 13184 67855 NIL=
200704131200 AAXX 13124 67855 NIL=
200704130600 AAXX 13064 67855 32980 30401 10183 20137 3//// 48/// 83030
                   333 20145 5//// 83360=
200704130000 AAXX 13004 67855 NIL=
200704121800 AAXX 12184 67855 NIL=
200704121200 AAXX 12124 67855 NIL=
200704120600 AAXX 12064 67855 NIL=
200704120000 AAXX 12004 67855 NIL=
200704111800 AAXX 11184 67855 NIL=
200704111200 AAXX 11124 67855 NIL=
200704110600 AAXX 11064 67855 32980 00501 10158 20137 3//// 48///
                   333 20110 5////=
200704110000 AAXX 11004 67855 NIL=
200704101800 AAXX 10184 67855 NIL=
200704101200 AAXX 10124 67855 NIL=
200704100600 AAXX 10064 67855 32980 00000 10148 20141 3//// 48///
                   333 20120 5////=
200704100000 AAXX 10004 67855 NIL=
200704091800 AAXX 09184 67855 NIL=
200704091200 AAXX 09124 67855 NIL=
200704090600 AAXX 09064 67855 NIL=
200704090000 AAXX 09004 67855 NIL=
200704081800 AAXX 08184 67855 NIL=
200704081200 AAXX 08124 67855 NIL=
200704080600 AAXX 08064 67855 NIL=
200704080000 AAXX 08004 67855 NIL=
200704071800 AAXX 07184 67855 NIL=
200704071200 AAXX 07124 67855 NIL=
200704070600 AAXX 07064 67855 NIL=
200704070000 AAXX 07004 67855 NIL=
200704061800 AAXX 06184 67855 NIL=
200704061200 AAXX 06124 67855 NIL=
200704060600 AAXX 06064 67855 NIL=
200704060000 AAXX 06004 67855 NIL=
200704051800 AAXX 05184 67855 NIL=
200704051200 AAXX 05124 67855 NIL=
200704050600 AAXX 05064 67855 12580 20000 10162 20155 3//// 48/// 60014 81230
                   333 20140 5//// 81820=
200704050000 AAXX 05004 67855 NIL=
200704041800 AAXX 04184 67855 NIL=
200704041200 AAXX 04124 67855 NIL=
200704040600 AAXX 04064 67855 11980 21501 10166 20163 3//// 48/// 60134 70342 82030
                   333 20145 5//// 82360=
200704040000 AAXX 04004 67855 NIL=
200704031800 AAXX 03184 67855 NIL=
200704031200 AAXX 03124 67855 NIL=
200704030600 AAXX 03064 67855 11570 71301 10175 20171 3//// 48/// 60064 76196 81273
                   333 20174 5//// 81920 81825 87460=
200704030000 AAXX 03004 67855 NIL=
200704021800 AAXX 02184 67855 NIL=
200704021200 AAXX 02124 67855 NIL=
200704020600 AAXX 02064 67855 NIL=
200704020000 AAXX 02004 67855 NIL=
200704011800 AAXX 01184 67855 NIL=
200704011200 AAXX 01124 67855 NIL=
200704010600 AAXX 01064 67855 NIL=
