################################################################################
# Query made at 04/15/2022 02:02:59 UTC
# Country like Zamb*
# Time interval: from 07/01/2009 05:30  to 07/31/2009 06:30  UTC
################################################################################

################################################################################
#  SYNOPS from 67413, Mbala (Zambia) | 08-51S | 031-20E | 1673 m
################################################################################
200907210900 AAXX 21094 67413 42980 01510 10203 20071 48572
                   333 59013=

################################################################################
#  SYNOPS from 67441, Mwinilunga (Zambia) | 11-45S | 024-26E | 1361 m
################################################################################
200907290600 AAXX 29064 67441 31965 00000 10110 20065 48576 70500
                   333 10260 20//0 59003=
200907280600 AAXX 28064 67441 31965 00000 10110 20071 48588 70500
                   333 10240 20/// 59006=
200907231200 AAXX 23124 67441 NIL=
200907230600 AAXX 23064 67441 31958 00000 10090 20066 48561 70500
                   333 10267 20065 59007=
200907220900 AAXX 22094 67441 42965 01504 10220 20062 48578 70500
                   333 59023=
200907220600 AAXX 22064 67441 31960 00000 10095 20065 48568 70500
                   333 10250 20/// 59026=
200907210600 AAXX 21064 67441 31970 01505 10100 20070 48594 70500
                   333 10255 20/// 59014=
200907200600 AAXX 20064 67441 31970 01506 10115 20076 48608 70500
                   333 10265 20085 58011=
200907150600 AAXX 15064 67441 31960 60000 10120 20092 48574 70522 86030
                   333 10288 20095 59002 86360=
200907140600 AAXX 14064 67441 31960 00000 10100 20080 48576 70500
                   333 10285 20065 58001=
200907130600 AAXX 13064 67441 31960 00000 10110 20090 48575 70500
                   333 10285 20056 59002=
200907100900 AAXX 10094 67441 416750037 10210 20085 48579 70500
                   333 59001=
200907100600 AAXX 10064 67441 31965 00000 10100 20070 48/// 70500
                   333 10250 20060 5////=
200907090600 AAXX 09064 67441 31965 01207 10110 20055 48572 70500
                   333 10240 20065 59012=
200907080900 AAXX 08094 67441 41575 10811 10200 20130 48613 70500 81100
                   333 50000 81825=

################################################################################
#  SYNOPS from 67461, Mansa (Zambia) | 11-06S | 028-51E | 1382 m
################################################################################
200907290600 AAXX 29064 67461 31975 01003 10107 20070 48555 70500
                   333 10240 20066 59017=
200907280600 AAXX 28064 67461 31975 00903 10121 20074 48568 70500
                   333 10224 20069 59005=
200907271200 AAXX 27124 67461 31975 00905 10121 20091 48573 70500
                   333 10189 20072 58014=
200907231200 AAXX 23124 67461 NIL=
200907230600 AAXX 23064 67461 31975 10902 10126 20101 48533 70500 80001
                   333 10255 20075 59019 81080=
200907220600 AAXX 22064 67461 31575 30902 10122 20095 48545 70500 83500
                   333 10216 20068 59027 83620=
200907210600 AAXX 21064 67461 31975 01506 10119 20091 48573 70500
                   333 10228 20069 59015=
200907200600 AAXX 20064 67461 31970 01005 10113 20081 48558 70500
                   333 10240 20065 58022=
200907150600 AAXX 15064 67461 31975 11101 10155 20119 48545 70500 80001
                   333 10289 20098 59006 81080=
200907140600 AAXX 14064 67461 31970 01602 10160 20097 48561 70500
                   333 10290 20100 58001=
200907130600 AAXX 13064 67461 31970 60902 10146 20118 48558 70522 85031
                   333 10285 20112 58003 85362 83080=
200907100600 AAXX 10064 67461 31575 30903 10127 20108 48549 70500 83501
                   333 10215 20081 58003 83620 81080=
200907090600 AAXX 09064 67461 31975 20908 10128 20096 48549 70500 80001
                   333 10240 20075 59006 82080 Q1023.7=

################################################################################
#  SYNOPS from 67475, Kasama (Zambia) | 10-13S | 031-08E | 1382 m
################################################################################
200907290600 AAXX 29064 67475 31970 01213 10154 20069 48560 70500
                   333 10240 20070 59011=
200907280600 AAXX 28064 67475 31970 01214 10126 20067 48580 70500
                   333 10211 20086 59010=
200907271200 AAXX 27124 67475 31978 01216 10167 20085 48577 70500
                   333 10200 20071 58014=
200907270600 AAXX 27064 67475 31978 01216 10167 20085 48577 70500
                   333 10220 20071 58014=
200907231200 AAXX 23124 67475 NIL=
200907230600 AAXX 23064 67475 31968 01205 10172 20092 48537 70500
                   333 10257 20089 59013=
200907220600 AAXX 22064 67475 31970 01208 10146 20091 48549 70500
                   333 10242 20068 59027=
200907210600 AAXX 21064 67475 31968 01209 10132 20072 48574 70500
                   333 10227 20095 59012=
200907200600 AAXX 20064 67475 31968 01415 10132 20073 48566 70500
                   333 10231 20068 58004=
200907160900 AAXX 16094 67475 41970 11010 10235 20128 48570 70500 80002
                   333 58017 81080=
200907150600 AAXX 15064 67475 31970 00807 10184 20128 48551 70520
                   333 10286 20106 59008=
200907140600 AAXX 14064 67475 31965 10205 10182 20116 48559 70520 81030
                   333 10275 20106 58001 81362=
200907130600 AAXX 13064 67475 31970 10308 10169 20127 48558 70510 81030
                   333 10275 20114 58000 81361=
200907100600 AAXX 10064 67475 31975 00909 10142 20093 48553 70500
                   333 10235 20085 58002=
200907090600 AAXX 09064 67475 31975 00916 10139 20092 48551 70500
                   333 10235 20095 59011 Q1024.3=

################################################################################
#  SYNOPS from 67477, Mpika (Zambia) | 11-54S | 031-26E | 1400 m
################################################################################
200907291200 AAXX 29124 67477 31975 00603 10206 20084 48541 70500
                   333 59017=
200907290600 AAXX 29064 67477 31575 11108 10134 20067 48565 70500
                   333 10240 20070 59011=
200907280600 AAXX 28064 67477 32980 00905 10118 20050 48578
                   333 10190 20064 59007=
200907271200 AAXX 27124 67477 32480 41115 10120 20069 48586 84500
                   333 10155 20085 58010 84618=
200907231200 AAXX 23124 67477 NIL=
200907230600 AAXX 23064 67477 32980 01105 10142 20071 48535
                   333 10235 20095 59019=
200907220600 AAXX 22064 67477 32480 10807 10131 20096 48551 81100
                   333 10201 20085 59026 81812=
200907210600 AAXX 21064 67477 32480 71009 10119 20091 48576 875//
                   333 10185 20081 59016 87612=
200907200600 AAXX 20064 67477 32480 21208 10114 20071 48591 82130
                   333 10180 20074 58001 82815 81362=
200907150600 AAXX 15064 67477 31975 00906 10175 20114 48553 70500
                   333 10268 20139 59008=
200907140600 AAXX 14064 67477 31975 00904 10186 20108 48562 70500
                   333 10275 20120 58001=
200907100600 AAXX 10064 67477 32480 10908 10128 20097 48562 81500
                   333 10206 20093 58000 81610=
200907091200 AAXX 09124 67477 42680 60914 10199 20061 48548 86500
                   333 59001 86645=
200907020900 AAXX 02094 67477 42680 40912 10178 20070 48597 84100
                   333 58002 84839=

################################################################################
#  SYNOPS from 67531, Zambezi (Zambia) | 13-32S | 023-07E | 1077 m
################################################################################
200907290600 AAXX 29064 67531 31975 01206 10124 20059 48/// 70500
                   333 10260 20035 5////=
200907280600 AAXX 28064 67531 31975 01304 10105 20056 48/// 70500
                   333 10256 20066 5////=
200907271200 AAXX 27124 67531 31975 01605 10124 20089 48/// 70500
                   333 10251 20091 5////=
200907231200 AAXX 23124 67531 NIL=
200907210600 AAXX 21064 67531 31975 01105 10115 20075 48/// 70500
                   333 10258 20085 5////=
200907200600 AAXX 20064 67531 31978 01206 10135 20081 48/// 70500
                   333 10251 20080 5////=
200907150600 AAXX 15064 67531 31960 02602 10120 20086 48/// 70500
                   333 10310 20064 5////=
200907140600 AAXX 14064 67531 31965 00000 10139 20098 48/// 70500
                   333 10316 20070 5////=
200907100600 AAXX 10064 67531 31978 01009 10153 20094 48/// 70500
                   333 10256 20060 5////=
200907090600 AAXX 09064 67531 31978 01209 10146 20070 48/// 70500
                   333 10246 20083 5////=

################################################################################
#  SYNOPS from 67541, Kasempa (Zambia) | 13-32S | 025-51E | 1234 m
################################################################################
200907280600 AAXX 28064 67541 31970 010// 10131 20060 48566 70500
                   333 10/// 20082 59007=
200907271200 AAXX 27124 67541 31970 006// 10129 20076 48571 70500
                   333 10/// 20080 58006=
200907231200 AAXX 23124 67541 NIL=
200907230600 AAXX 23064 67541 31970 00000 10088 20062 48518 70500
                   333 10/// 20039 59017=
200907220600 AAXX 22064 67541 31975 00000 10129 20074 48539 70500
                   333 10/// 20064 59020=
200907210600 AAXX 21064 67541 31975 00000 10134 20066 48559 70500
                   333 10/// 20093 59026=
200907200600 AAXX 20064 67541 31970 00000 10131 20069 48582 70500
                   333 10/// 20085 58007=
200907150600 AAXX 15064 67541 31970 10000 10116 20091 48548 70522 81030
                   333 10/// 20083 58003 81360=
200907011200 AAXX 01124 67541 41978 00000 10209 20061 48563 70500
                   333 58012=

################################################################################
#  SYNOPS from 67561, Ndola (Zambia) | 13-00S | 028-39E | 1269 m
################################################################################
200907291200 AAXX 29124 67561 41970 02203 10240 20047 48543 70500
                   333 59014=
200907281200 AAXX 28124 67561 41970 00000 10222 20034 48556 70500
                   333 59013=
200907280600 AAXX 28064 67561 31970 01005 10120 20056 48569 70500
                   333 10227 20076 59012=
200907271200 AAXX 27124 67561 31470 31207 10114 20077 48581 70500 81501
                   333 10218 20066 58014 81616 83080=
200907270900 AAXX 27094 67561 41570 10005 10176 20073 48589 70500 81100
                   333 81825=
200907241200 AAXX 24124 67561 41770 40000 10260 20064 48529 70051 81102
                   333 58011 81856 84080 Q1020=
200907231200 AAXX 23124 67561 41970 02105 10252 20036 48516 70500
                   333 59013=
200907230600 AAXX 23064 67561 31951 00000 10101 20071 48526 70400
                   333 10253 20060 59015=
200907220900 AAXX 22094 67561 41970 00000 10207 20064 48559 70500
                   333 59022=
200907220600 AAXX 22064 67561 31957 00000 10100 20081 48541 70400
                   333 10236 20055 59032=
200907210600 AAXX 21064 67561 31960 00000 10106 20073 48571 70500
                   333 10234 20059 59017=
200907200600 AAXX 20064 67561 32980 00804 10116 20070 48588
                   333 10230 20060 58006=
200907170600 AAXX 17064 67561 31960 01209 10160 20089 48570 70500
                   333 10286 20135 58004=
200907160900 AAXX 16094 67561 41960 01107 10254 20105 48577 70500
                   333 58015=
200907150600 AAXX 15064 67561 31930 00000 10148 20103 48549 70400
                   333 10283 20101 59004=
200907140600 AAXX 14064 67561 31956 20000 10134 20091 48552 70400 82030
                   333 10278 20091 5//// 82361=
200907130600 AAXX 13064 67561 31960 70000 10143 20099 48553 70522 87030
                   333 10279 20116 58001 87359=
200907101200 AAXX 10124 67561 42780 30204 10236 20073 48536 83100
                   333 59016 83850=
200907100600 AAXX 10064 67561 31965 00000 10129 20103 48552 70400
                   333 10223 20064 59005=
200907091200 AAXX 09124 67561 42680 60914 10199 20061 48548 86500
                   333 59001 86645=
200907090600 AAXX 09064 67561 31960 00903 10110 20068 48555 70500
                   333 10227 20066 59008=
200907071500 AAXX 07154 67561 42980 51009 10220 20070 48584 84200
                   333 58014 84850=

################################################################################
#  SYNOPS from 67580, Msekera (Zambia) | 13-39S | 032-34E | 1025 m
################################################################################
200907220900 AAXX 22094 67580 42580 72703 10204 20076 48/// 87100
                   333 59035 87830=
200907211200 AAXX 21124 67580 42680 70907 10200 20101 48/// 85130
                   333 59024 85835 83360=
200907160900 AAXX 16094 67580 41575 11207 10270 20106 48/// 70500 81100
                   333 58019 81848=
200907151200 AAXX 15124 67580 41765 42704 10290 20096 48/// 70511 81100
                   333 58004 84856=
200907141200 AAXX 14124 67580 41770 62704 10278 20071 48/// 70521 86100
                   333 58000 86856=
200907090600 AAXX 09064 67580 32480 41209 10164 20111 48/// 84530
                   333 10232 20108 59019 84613 81362=
200907080900 AAXX 08094 67580 42480 141110 10205 20081 48/// 82100
                   333 58012 82823=
200907020900 AAXX 02094 67580 42480 71203 10120 20095 48/// 84820
                   333 5//// 81820 82622 85360=

################################################################################
#  SYNOPS from 67581, Chipata (Zambia) | 13-33S | 032-35E | 1028 m
################################################################################
200907300900 AAXX 30094 67581 42980 01803 10232 20084 48570
                   333 59010=
200907300600 AAXX 30064 67581 32980 01405 10165 20076 48561
                   333 10255 20114 59011=
200907280600 AAXX 28064 67581 32680 11608 10144 20096 48582 81100
                   333 10210 20105 59017 81830=
200907271200 AAXX 27124 67581 32980 01412 10135 20080 48597
                   333 10254 20111 58007=
200907231200 AAXX 23124 67581 41675 11806 10258 20085 48526 70500 81100
                   333 59015 84840=
200907230600 AAXX 23064 67581 31960 01701 10164 20103 48540 70500
                   333 10251 20073 59014=
200907220600 AAXX 22064 67581 12680 60801 10149 20115 48559 69904 81130
                   333 10271 20100 59003 81830 86360=
200907210900 AAXX 21094 67581 41565 51608 10184 20115 48596 70255 84130
                   333 59014 84825 81360=
200907210600 AAXX 21064 67581 31465 71605 10144 20117 48588 70522 8557/
                   333 10196 20133 59016 85615 87459=
200907200600 AAXX 20064 67581 32582 71512 10149 20104 48605 8113/
                   333 10210 20104 58006 81825 87359=
200907150600 AAXX 15064 67581 32980 00905 10230 20124 48570
                   333 10270 20188 59006=
200907130600 AAXX 13064 67581 32980 30604 10227 20128 48573 83030
                   333 10275 20141 59003 83360=
200907100600 AAXX 10064 67581 32980 51804 1018-0 20111 48571 85030
                   333 1019-0 20174 59004 85360 Q1024.4=
200907090600 AAXX 09064 67581 32580 31509 10169 20114 48573 83500
                   333 10216 20120 59012 83625 Q1024.9=
200907070600 AAXX 07064 67581 32580 21313 10153 20101 48584 82530
                   333 10255 20106 58008 82625 83360 Q1025.5=

################################################################################
#  SYNOPS from 67583, Lundazi (Zambia) | 12-17S | 033-12E | 1143 m
################################################################################
200907090600 AAXX 09064 67583 31475 11304 10161 2116 70500 81500
                   333 10242 20113 5//// 81610=

################################################################################
#  SYNOPS from 67599, Mfuwe (Zambia) | 13-16S | 031-56E | 568 m
################################################################################
200907300900 AAXX 30094 67599 42980 02304 10242 20104 48587
                   333 59020=
200907291500 AAXX 29154 67599 41980 00000 10269 20124 48573 70500 80000
                   333 59018=
200907290600 AAXX 29064 67599 32980 00000 10153 20106 48567 70500 80000
                   333 10285 20//0 59015=
200907281200 AAXX 28124 67599 42980 01010 10270 20085 48614
                   333 59013=
200907271500 AAXX 27154 67599 41975 11809 10245 20088 48609 70500 81030
                   333 59022 81360=
200907270900 AAXX 27094 67599 42980 10906 10226 20080 48625 81030
                   333 58000 81360=
200907270600 AAXX 27064 67599 32980 31208 10180 20100 48562 83030
                   333 10230 20//0 58012 83360=
200907251500 AAXX 25154 67599 41970 71807 10260 20140 48576 70500 87071
                   333 58038 87460=
200907251200 AAXX 25124 67599 41770 11105 10285 20134 48583 70500 81100
                   333 58033 81857=
200907241200 AAXX 24124 67599 42970 80000 10300 20122 48566 70500 80001
                   333 58011 88080 Q1018.9=
200907231500 AAXX 23154 67599 42980 00000 10289 20121 48543 70500
                   333 59020=
200907231200 AAXX 23124 67599 42680 11703 10285 20114 48550 70500 81100
                   333 59026 81850=
200907230600 AAXX 23064 67599 32970 00000 10152 20098 48543 70500
                   333 10290 20//0 59023=
200907221200 AAXX 22124 67599 42680 10000 10270 20112 48570 81200
                   333 59029 81842=
200907220900 AAXX 22094 67599 42680 20000 10240 20134 48/// 82200
                   333 5//// 82835=
200907211500 AAXX 21154 67599 42680 60000 10240 20125 48572 86030
                   333 59021 86360=
200907210900 AAXX 21094 67599 42580 31608 10235 20136 48613 83130
                   333 59027 83825 82360=
200907210600 AAXX 21064 67599 32480 71704 10189 20131 48607 8113/
                   333 10265 20//0 59015 81810=
200907201500 AAXX 20154 67599 42980 60906 10250 20116 48616 70222 86070
                   333 59013 86362=
200907201200 AAXX 20124 67599 42780 51010 10253 20108 48613 70222 82170
                   333 59003 82856 85360=
200907170900 AAXX 17094 67599 41570 11210 10269 20129 49628 70500
                   333 58009 81830 81360=
200907161200 AAXX 16124 67599 41660 21808 10324 20148 48594 70500 82100
                   333 58020 82850=
200907160900 AAXX 16094 67599 41560 11206 10289 20154 48616 70500 81100
                   333 58021 81820=
200907151200 AAXX 15124 67599 42770 10000 10320 20151 48566 70500 81100
                   333 58000 81856=
200907150600 AAXX 15064 67599 31959 20000 10185 20126 48564 70500 82030
                   333 10340 20//0 58000 82360=
200907141200 AAXX 14124 67599 41770 31508 10315 20122 48576 70422 83200
                   333 59004 83856=
200907131500 AAXX 13154 67599 41970 20000 10305 20140 48565 70422 83030
                   333 58000 83360=
200907131200 AAXX 13124 67599 41770 21305 10310 20157 48576 70422 82200
                   333 58001 82850=
200907101200 AAXX 10124 67599 42680 30000 10285 20144 48579 83200
                   333 59011 83840=
200907100900 AAXX 10094 67599 42680 10000 10240 20144 48613 70211 81200
                   333 59005 81835 Q1024.9=
200907100600 AAXX 10064 67599 32980 20000 10150 20124 48573 82030
                   333 10280 20//0 59001 82360
                   555 Q1025.7=
200907091200 AAXX 09124 67599 42680 61208 10275 20134 48579 83130
                   333 59014 83840 85360=
200907080900 AAXX 08094 67599 42580 31815 10250 20116 48620 70222 83200
                   333 58010 83830 Q1027.1=
200907071500 AAXX 07154 67599 42880 51505 10255 20124 48575 81170
                   333 58017 81858 85360=
200907020900 AAXX 02094 67599 42680 31108 10246 20099 48636 83230
                   333 58002 83835 82360=
200907011200 AAXX 01124 67599 42580 81508 10232 20114 48611 8427/
                   333 58010 84825 88460=
200907010900 AAXX 01094 67599 42580 71212 10235 20108 48631 70322 872//
                   333 58005 87825 Q1029.0=
200907010600 AAXX 01064 67599 32980 20000 10150 20105 48610 70122 82030
                   333 10262 20/// 58003 82360
                   555 00/// Q1029.7=

################################################################################
#  SYNOPS from 67633, Mongu (Zambia) | 15-15S | 023-09E | 1052 m
################################################################################
200907291200 AAXX 29124 67633 41970 01203 10252 20022 48553 70500
                   333 59008=
200907290600 AAXX 29064 67633 31970 00606 10116 20061 48545 70500
                   333 10255 20093 59017=
200907280600 AAXX 28064 67633 31970 01006 10115 20036 48560 70500
                   333 10256 20090 59011=
200907271200 AAXX 27124 67633 31970 00904 10109 20078 48569 70500
                   333 10255 20090 58012=
200907270900 AAXX 27094 67633 41970 00916 10193 20060 48591 70500
                   333 58012=
200907241200 AAXX 24124 67633 41970 01806 10255 20000 48556 70500
                   333 58023 Q1021.9=
200907231200 AAXX 23124 67633 41870 32506 10255 20037 48533 70500 83100
                   333 59004 83857=
200907230600 AAXX 23064 67633 31970 51801 10173 20065 48535 70522 85030
                   333 10248 20093 59015 85360=
200907220600 AAXX 22064 67633 31970 00904 10112 20069 48539 70500
                   333 10260 20070 59030=
200907211200 AAXX 21124 67633 41970 01502 10245 20054 48558 70500
                   333 59021=
200907210600 AAXX 21064 67633 31970 00910 10115 20066 48566 70500
                   333 10256 20100 59010=
200907200600 AAXX 20064 67633 31970 00908 10122 20067 48577 70500
                   333 10256 20099 58006=
200907160900 AAXX 16094 67633 41970 01803 10239 20025 48590 70500
                   333 58032=
200907150600 AAXX 15064 67633 31970 01202 10152 20034 48544 70500
                   333 10306 20115 58006=
200907140600 AAXX 14064 67633 31975 02702 10145 20068 48537 70500
                   333 10300 20095 58003=
200907131200 AAXX 13124 67633 41870 12704 10284 20073 48546 70500 81100
                   333 58007 81857=
200907130600 AAXX 13064 67633 31970 60907 10159 20068 48535 70522 86030
                   333 10300 20137 59004 86361=
200907100600 AAXX 10064 67633 31970 00906 10118 20085 48545 70500
                   333 10257 20097 59006=
200907091200 AAXX 09124 67633 41770 10910 10243 20055 48554 70500 81100
                   333 59014 81856=
200907090600 AAXX 09064 67633 32580 31509 10103 20060 48548 70500
                   333 10245 20077 59009 Q1024.0=
200907080900 AAXX 08094 67633 41675 41010 10204 20068 48579 70500 84200
                   333 58002 84840 Q1025.5=
200907020900 AAXX 02094 67633 41975 00904 10162 20049 48599 70500
                   333 58054=

################################################################################
#  SYNOPS from 67641, Kaoma (Zambia) | 14-48S | 024-48E | 1213 m
################################################################################
200907231200 AAXX 23124 67641 NIL=
200907130600 AAXX 13064 67641 32982 00801 10126 20087 48529
                   333 10290 20093 59004=
200907100600 AAXX 10064 67641 32982 00801 10094 20079 48545
                   333 10251 20064 58002=
200907090600 AAXX 09064 67641 32982 00906 10117 20048 48545
                   333 10234 20053 59010=

################################################################################
#  SYNOPS from 67655, Mumbwa (Zambia) | 15-04S | 027-11E | 1216 m
################################################################################
200907100600 AAXX 10064 67655 32980 10905 10109 20089 48569 81030
                   333 10200 20087 59010 81359 Q1025.5=

################################################################################
#  SYNOPS from 67663, Kabwe (Zambia) | 14-27S | 028-28E | 1206 m
################################################################################
200907290600 AAXX 29064 67663 31970 00902 10108 20081 48553 70500
                   333 10230 20058 59025=
200907280600 AAXX 28064 67663 31970 00802 10108 20056 48569 70500
                   333 10200 20058 59011=
200907271200 AAXX 27124 67663 31370 20909 10108 20086 48579 70500 82600
                   333 10154 20058 58011 82707=
200907231200 AAXX 23124 67663 NIL=
200907230600 AAXX 23064 67663 31970 00702 10136 20084 48532 70500
                   333 10240 20077 59016=
200907220600 AAXX 22064 67663 31970 00701 10116 20082 48546 70500
                   333 10218 20056 59037=
200907210600 AAXX 21064 67663 31970 ///// 10118 20087 48553 70500
                   333 10202 20068 59008=
200907200600 AAXX 20064 67663 31470 20903 10102 20067 48580 70500 82500
                   333 10176 20060 58001 82615=
200907150600 AAXX 15064 67663 31970 00901 10170 20081 48549 70500
                   333 10289 20106 58016=
200907140600 AAXX 14064 67663 31970 30301 10156 20086 48533 70500 83030
                   333 10284 20111 59007 83360=
200907130600 AAXX 13064 67663 32980 50902 10155 20111 48531 85030
                   333 10265 20125 59009 85360=
200907100600 AAXX 10064 67663 32980 10901 10126 20095 48562 82030
                   333 10190 20064 59006 82359=
200907090600 AAXX 09064 67663 32980 20901 10104 20072 48564 82030
                   333 10200 20006 59010 82360=

################################################################################
#  SYNOPS from 67665, Lusaka Internationalairport (Zambia) | 15-19S | 028-27E | 1152 m
################################################################################
200907310600 AAXX 31064 67665 31970 31204 10127 20101 48551 70500 80001
                   333 10244 20086 59011 83080 Q1023.7=
200907310300 AAXX 31034 67665 42980 01002 10079 20069 48529
                   333 59015=
200907310000 AAXX 31004 67665 42980 01202 10108 20089 48534
                   333 59013=
200907302100 AAXX 30214 67665 42980 01203 10113 20096 48566
                   333 59013=
200907301800 AAXX 30184 67665 42980 01206 10137 20091 48546
                   333 10241 59012=
200907301500 AAXX 30154 67665 42980 03508 10226 20107 48537 70500
                   333 59021 Q1020.7=
200907301200 AAXX 30124 67665 42980 01104 10228 20086 48546 70500
                   333 59019 Q1021.6=
200907300900 AAXX 30094 67665 42980 00507 10192 20094 48565
                   333 59013=
200907300600 AAXX 30064 67665 32980 01105 10106 20102 48553
                   333 10212 20062 59013=
200907291800 AAXX 29184 67665 42980 01107 10140 20104 48557
                   333 10220 59023=
200907291500 AAXX 29154 67665 42980 00506 10201 20095 48555
                   333 59031=
200907291200 AAXX 29124 67665 42680 10408 10198 20202 58660 82200
                   444 69035 82850=
200907290600 AAXX 29064 67665 32460 40807 10107 20107 48571 70300 81100
                   333 10200 20059 59018 84610 Q1026.4=
200907290400 AAXX 29044 67665 42980 01304 10069 20069 48557 81030
                   333 59018 81360=
200907290300 AAXX 29034 67665 42980 01204 10061 20061 48554
                   333 58018=
200907282100 AAXX 28214 67665 42980 01205 10097 20097 48574
                   333 59013=
200907281500 AAXX 28154 67665 42680 70509 10165 20081 48580 87500
                   333 59002 87640=
200907281200 AAXX 28124 67665 42680 60710 10177 20085 48581 86500
                   333 59010 86630=
200907280600 AAXX 28064 67665 32380 10805 10103 20060 48586 81500
                   333 10201 20049 59019 81706=
200907271800 AAXX 27184 67665 42980 01005 10109 20070 48588
                   333 59009=
200907271500 AAXX 27154 67665 42980 00811 10184 20071 48583
                   333 59012=
200907271200 AAXX 27124 67665 32980 00808 10096 20096 48592 81100
                   333 59009 81830=
200907270900 AAXX 27094 67665 42580 10713 10165 20081 48614 81500
                   333 58002 81620=
200907270600 AAXX 27064 67665 32980 00808 10096 20096 48603
                   333 10164 20054 58014=
200907261200 AAXX 26124 67665 41460 70909 10148 20122 48594 70522 875//
                   333 58024 87616 Q1028.5=
200907260900 AAXX 26094 67665 42480 80511 10135 20116 48604 885//
                   333 58017 88612=
200907260600 AAXX 26064 67665 32380 80611 10116 20116 48591 885//
                   333 10212 20095 58011 88610=
200907260400 AAXX 26044 67665 42980 00711 10112 20112 48586
                   333 58022 Q1028.3=
200907260300 AAXX 26034 67665 42980 00808 10111 20111 48584
                   333 58027 Q1028.1=
200907251800 AAXX 25184 67665 42980 00606 10124 20115 48581
                   333 10212 58032=
200907251500 AAXX 25154 67665 42980 01107 10111 20111 48586
                   333 58038 Q1028.3=
200907251200 AAXX 25124 67665 42680 10611 10197 20130 48579 81100
                   333 58037 81835=
200907250900 AAXX 25094 67665 42480 20712 10177 20135 48598 82100
                   333 58037 82820 Q1028.4=
200907250600 AAXX 25064 67665 32980 00911 10130 20121 48584 70500
                   333 10257 20087 58038
                   555 00079 Q1027.7=
200907241800 AAXX 24184 67665 42980 00705 10144 20077 48554
                   333 10255 58023 Q1023.9=
200907241500 AAXX 24154 67665 42780 11308 10232 20059 48548 81100
                   333 58024 81855 Q1021.8=
200907241200 AAXX 24124 67665 42780 11506 10246 20050 48550 70300 81100
                   333 58019 81850 Q1021.7=
200907240600 AAXX 24064 67665 32980 11402 10134 20062 48549 70200 81030
                   333 10260 20078 58009 81360=
200907240400 AAXX 24044 67665 42980 01303 10080 20070 48531
                   333 58005=
200907240300 AAXX 24034 67665 42980 01403 10080 20070 48529
                   333 58007=
200907232100 AAXX 23214 67665 41930 11603 10117 20095 48540 70400 81030
                   333 59002 81360=
200907231800 AAXX 23184 67665 42980 10804 10150 20095 48533 81031
                   333 10260 59006 81360 81080=
200907231500 AAXX 23154 67665 42780 21007 10232 20091 48524 82100
                   333 59010=
200907231200 AAXX 23124 67665 42680 11705 10242 20070 48530 81100
                   333 59024 81835=
200907230900 AAXX 23094 67665 42980 00805 10209 20105 48551
                   333 59026 Q1022.5=
200907230600 AAXX 23064 67665 32980 01303 10105 20083 48538 70500
                   333 10222 20064 59012=
200907221800 AAXX 22184 67665 42980 01003 10132 20105 48537
                   333 10230 59031=
200907221500 AAXX 22154 67665 42980 09003 10213 20089 48532
                   333 59036=
200907221200 AAXX 22124 67665 42680 10706 10215 20091 48550 81100
                   333 59031 81835=
200907220900 AAXX 22094 67665 42580 10307 10180 20100 48572 81100
                   333 59027 81820=
200907220600 AAXX 22064 67665 32980 01203 10103 20103 48556
                   333 10211 20065 59028=
200907211800 AAXX 21184 67665 42980 20804 10128 20091 48565 82030
                   333 10211 59030 82360=
200907211500 AAXX 21154 67665 42780 10609 10193 20095 48564 81100
                   333 59030 81850=
200907211200 AAXX 21124 67665 42680 40609 10200 20104 48576 84100
                   333 59023 84830=
200907210900 AAXX 21094 67665 42480 60712 10169 20116 48496 86500
                   333 59029 86618=
200907210600 AAXX 21064 67665 32380 70909 10105 20103 48588 875//
                   333 10199 20054 59012 87608=
200907201800 AAXX 20184 67665 42680 50904 10135 20099 48595 85500
                   333 10199 59001 85645=
200907201500 AAXX 20154 67665 42680 30711 10166 20083 48590 83500
                   333 59004 83640=
200907201200 AAXX 20124 67665 42680 40612 10182 20092 48597 84500
                   333 59005 84630=
200907200600 AAXX 20064 67665 32380 10905 10108 20081 48598 81600
                   333 10194 20057 59001 81706=
200907200400 AAXX 20044 67665 42980 00906 10064 20064 48584
                   333 58006 Q1028.9=
200907200300 AAXX 20034 67665 42980 01005 10069 20069 48581
                   333 58004 Q1028.4=
200907191800 AAXX 19184 67665 42980 01105 10109 20090 48591
                   333 10194 58002 Q1028.9=
200907191500 AAXX 19154 67665 42680 20609 10173 20102 48593 82130
                   333 58009 82840 81360 Q1028.1=
200907191200 AAXX 19124 67665 42680 60612 10175 20104 48601 86100
                   3/3 58027 86830 Q1028.8=
200907190900 AAXX 19094 67665 42580 50610 10182 20113 48618 85100
                   333 58011 85820=
200907190400 AAXX 19044 67665 42980 10605 10059 20059 81030
                   333 58007 81359=
200907190300 AAXX 19034 67665 42980 01004 10067 20067 48577
                   333 58011=
200907182100 AAXX 18214 67665 42980 00804 10096 20086 48596
                   333 58012=
200907181800 AAXX 18184 67665 42980 70804 10136 20110 48598 87030
                   333 58015 87360=
200907181500 AAXX 18154 67665 42680 60307 10181 20120 48586 83530
                   333 58005 83635 84360=
200907181200 AAXX 18124 67665 41675 50609 10197 20110 48592 70522 85100
                   333 58994 85835=
200907180600 AAXX 18064 67665 31460 20706 10124 20093 48595 70500 82500
                   333 10241 20092 58010 82610=
200907171800 AAXX 17184 67665 41960 00807 10155 20138 48586 70500
                   333 10241 58006=
200907171500 AAXX 17154 67665 41760 40815 10202 20116 48585 70500 81130
                   333 58011 81850 84360=
200907171200 AAXX 17124 67665 41660 20712 10229 20110 48593 70500 82100
                   333 58010 82830=
200907170900 AAXX 17094 67665 41460 20915 10207 20114 48608 70511 82500
                   333 58008 82619 Q1029.1=
200907170600 AAXX 17064 67665 31460 30908 10145 20136 48590 70511
                   333 10272 20097 58005 83612
                   555 00084 Q1028.1=
200907170000 AAXX 17004 67665 42980 00906 10128 20110 48575
                   333 58008=
200907162100 AAXX 16214 67665 41959 01304 10145 20100 48583 70500
                   333 58014=
200907161200 AAXX 16124 67665 41660 20914 10260 20108 48587 70511 82100
                   333 5830 82845 Q1025.8=
200907160900 AAXX 16094 67665 41960 00609 10238 20147 48605 70500
                   333 58032=
200907160600 AAXX 16064 67665 31960 00603 10155 20120 48586 70500
                   333 10281 20111 58028=
200907160400 AAXX 16044 67665 42960 01206 10138 20102 48572
                   333 58025 Q1026.1=
200907160300 AAXX 16034 67665 42960 01205 10126 20089 48546
                   333 58022=
200907152100 AAXX 15214 67665 42960 01404 10135 20099 48568
                   333 58017 Q1025=
200907151800 AAXX 15184 67665 41959 01204 10170 20088 48564 70500
                   333 10281 58017=
200907151500 AAXX 15154 67665 41959 00506 10258 20069 48587 70500
                   333 58014=
200907151200 AAXX 15124 67665 41880 10908 10274 20069 48559 70500 81030
                   333 58010 81359=
200907150900 AAXX 15094 67665 41959 00411 10266 20068 48578 70500
                   333 58003 Q1024.6=
200907150600 AAXX 15064 67665 31959 01204 10152 20117 48559 70500
                   333 10290 20120 58001=
200907141500 AAXX 14154 67665 41960 03606 10258 20081 48543 70500
                   333 59009=
200907140600 AAXX 14064 67665 31960 01801 10141 20096 48557 70500
                   333 10280 20105 59001=
200907131800 AAXX 13184 67665 41958 01203 10163 20100 48546 70500
                   333 10280 59006=
200907131500 AAXX 13154 67665 41870 40805 10242 20105 48549 70522 84100
                   333 59001 84858=
200907131200 AAXX 13124 67665 42758 62705 10259 20096 48554 70522 86100
                   333 59019 86850=
200907130900 AAXX 13094 67665 41970 00204 10233 20130 48575 70500
                   333 59006=
200907130600 AAXX 13064 67665 31965 20902 10129 20129 48556 70500 82030
                   333 10255 20098 59007 82360=
200907130400 AAXX 13044 67665 42980 21203 10108 20108 48546 82030
                   333 59002 82359=
200907130300 AAXX 13034 67665 42980 01403 10110 20110 48544
                   333 58001=
200907122100 AAXX 12214 67665 42980 01003 10150 20133 48556
                   333 59001=
200907120600 AAXX 12064 67665 32980 11103 10139 20139 48564 81030
                   333 10240 20099 58007 81360=
200907111800 AAXX 11184 67665 41960 11004 10148 20144 498548 70500 81030
                   333 10240 59009 81360=
200907111500 AAXX 11154 67665 41760 20604 10215 20123 48542 70522 81230
                   333 59013 81850 82360=
200907111200 AAXX 11124 67665 42680 70406 10226 20116 48551 82230
                   333 59024 82830 86360=
200907110600 AAXX 11064 67665 32980 21105 10119 20101 48555 82030
                   333 10223 20072 59016 82360
                   555 00056 Q1024.4=
200907110400 AAXX 11044 67665 42980 01205 10087 20087 48543
                   333 59013 Q1023.7=
200907110300 AAXX 11034 67665 42980 01204 10077 20077 48540
                   333 59016 Q1023.2=
200907102100 AAXX 10214 67665 42980 01104 10096 20096 48552
                   333 59037 Q1024.4=
200907101800 AAXX 10184 67665 42980 01204 10127 20110 48554
                   333 10223 59017=
200907101500 AAXX 10154 67665 42780 30607 10194 20106 48552 83100
                   333 59021 83850=
200907101200 AAXX 10124 67665 42680 50309 10206 20101 48561 85100
                   333 59019 85835=
200907100900 AAXX 10094 67665 42580 40513 10191 20133 48582 70300 84200
                   333 59015 84820 Q1026.1=
200907100600 AAXX 10064 67665 32980 20906 10104 20092 48567 82030
                   333 10190 20064 59006 82359=
200907091800 AAXX 09184 67665 42980 01004 10112 20112 48569
                   333 10190 59005=
200907091500 AAXX 09154 67665 42680 50608 10178 20117 48571 83830
                   333 59005 82635 84845 83359=
200907091200 AAXX 09124 67665 42680 70610 10179 20119 48577 87500
                   333 59006 87635=
200907090900 AAXX 09094 67665 70711 10153 20136 48587 70222 87500
                   3/3 59016 87620 Q1027.7=
200907090600 AAXX 09064 67665 332480 71005 10104 20090 70222 87500
                   3/3 10212 20062 59017 87613
                   555 00056 Q1026.8=
200907081200 AAXX 08124 67665 42580 40510 10208 20104 48585 84200
                   333 58008 84830=
200907080900 AAXX 08094 67665 42580 40711 10168 20117 48606 70222 84500
                   333 58012 84615 Q1029.5=
200907080400 AAXX 08044 67665 42980 10903 10065 20065 48573 81030
                   333 58012 81360=
200907080300 AAXX 08034 67665 42980 00404 10072 20072 48570
                   333 58015=
200907072100 AAXX 07214 67665 42980 11204 10096 20096 48580 81030
                   333 58014 81360=
200907071800 AAXX 07184 67665 42980 11103 10121 20104 48576 81030
                   333 10215 58011 81360=
200907071500 AAXX 07154 67665 42680 40608 10184 20105 48574 84130
                   333 58015 84840 82360=
200907070600 AAXX 07064 67665 32380 10804 10105 20105 48589 81630
                   333 10215 20064 58013 81709 81360
                   555 00035 Q1028.3=
200907061500 AAXX 06154 67665 67665 42780 71107 10191 20094 48561 81230
                   333 59001 81850 87360=
200907061200 AAXX 06124 67665 41680 60405 10209 20094 48567 70522 86200
                   333 5//// 86830=
200907060900 AAXX 06094 67665 42480 60911 10177 20117 48587 86200
                   333 59008 86819 Q1027.2=
200907060600 AAXX 06064 67665 32480 60907 10118 20118 48571 86500
                   333 10198 20064 59020 86612
                   555 00055 Q1026.3=
200907060300 AAXX 06034 67665 42980 01203 10084 20084 48549
                   333 59022 Q1024.4=
200907052100 AAXX 05214 67665 42980 31304 10118 20109 48570 83030
                   333 59012 83360 Q1026.2=
200907050900 AAXX 05094 67665 42580 60611 10180 20129 48595 70322 86500
                   333 59008 86625 Q1028.1=
200907050600 AAXX 05064 67665 32480 61204 10096 20079 48587 70211 86500
                   333 10199 20067 58000 86613 Q1028.5=
200907041800 AAXX 04184 67665 42680 60705 10135 20117 48583 70222 86030
                   333 10199 59011 86360 Q1013.5=
200907041500 AAXX 04154 67665 42680 70710 10171 20120 48576 70222 87800
                   333 58010 87845 Q1026.1=
200907041200 AAXX 04124 67665 42680 600613 10177 20106 48582 70322 86500
                   3/3 59008 86633 Q1026.5=
200907040900 AAXX 04094 67665 42580 60512 10179 20128 48601 70322 86800
                   333 59005 83620 83825 Q1028.9=
200907040600 AAXX 04064 67665 32980 10906 10104 20104 48587 81030
                   333 10190 20062 59005 81360
                   555 00/// Q1028.5=
200907031800 AAXX 03184 67665 42780 70905 10140 20115 48594 8453/
                   333 10190 59006 84656 87360=
200907031500 AAXX 03154 67665 42680 80809 10157 20114 48584 885//
                   333 59011 88645=
200907031200 AAXX 03124 67665 42680 70811 10173 20111 48588 875//
                   333 59012 87635=
200907030900 AAXX 03094 67665 42680 50710 20116 48514 70322 85200
                   333 59012 82825 Q1029.5=
200907030600 AAXX 03064 67665 32980 01004 10090 20090 48589
                   333 10187 20053 59012=
200907030300 AAXX 03034 67665 42980 00903 10056 20056 48573
                   333 59013=
200907030000 AAXX 03004 67665 42980 01204 10090 20090 48582
                   333 59008=
200907022100 AAXX 02214 67665 42980 01203 10089 20089 48590
                   333 59008=
200907021800 AAXX 02184 67665 42980 50903 10115 20115 48585
                   333 10187 59007 85359=
200907021200 AAXX 02124 67665 42680 70608 10176 20102 48599 70222 87500
                   333 58001 87635=
200907020900 AAXX 02094 67665 42580 60811 10162 20119 48616 86500
                   333 58000 86620=
200907020600 AAXX 02064 67665 32480 60607 10117 20117 48607 83530
                   333 10200 20084 58002 83610 85360=
200907011800 AAXX 01184 67665 42780 70708 10140 20110 48605 875//
                   333 10200 58007 87656=
200907011500 AAXX 01154 67665 42680 70909 10157 20104 485989 875//
                   333 58015 87647=
200907011200 AAXX 01124 67665 42680 70610 10169 20094 48598 875//
                   333 58011 87640=
200907010900 AAXX 01094 67665 41675 60711 10165 20092 48617 70522 86500
                   333 59008 86630 Q1030.9=
200907010600 AAXX 01064 67665 32980 10905 10094 20089 48598 81030
                   333 10180 20052 59006 81360
                   555 00052 Q1030.4=

################################################################################
#  SYNOPS from 67666, Lusaka City Airport (Zambia) | 15-25S | 028-19E | 1280 m
################################################################################
200907300900 AAXX 30094 67666 42980 00910 10185 20085 48561
                   333 59013=
200907270900 AAXX 27094 67666 42580 10916 10150 20074 48603 81100
                   333 58005 81820=
200907270600 AAXX 27064 67666 31978 00914 10100 20070 48595 70500
                   333 10158 20075 50087=
200907241200 AAXX 24124 67666 42580 10704 10240 20070 48542 81100
                   333 58022 81825 Q1021.2=
200907230600 AAXX 23064 67666 31975 00904 10144 20070 48534 70500
                   333 10220 20070 59020=
200907220900 AAXX 22094 67666 42480 10907 10170 20088 48562 81100
                   333 59027 81820=
200907211200 AAXX 21124 67666 42580 40509 10189 20093 48565 84100
                   333 59024 83822=
200907210900 AAXX 21094 67666 42580 43014 10156 20095 48587 84800
                   333 59024 84615 83818=
200907161200 AAXX 16124 67666 42680 21409 10245 20111 48574 82100
                   333 58027 82840=
200907160900 AAXX 16094 67666 41978 00912 10229 20119 48593 70500
                   333 58031=
200907151200 AAXX 15124 67666 42680 10802 10270 20085 48549 81100
                   333 58010 81845=
200907141200 AAXX 14124 67666 42680 10903 10270 20092 48539 81100
                   333 59006 81835=
200907131200 AAXX 13124 67666 42680 50802 10255 20090 48544 85200
                   333 59006 85835=
200907100900 AAXX 10094 67666 42580 30908 10180 20120 48569 83100
                   333 59015 83822 Q1027.6=
200907100600 AAXX 10064 67666 32980 31306 10127 20167 48565 83030
                   333 10175 20095 59008 83360 Q1021.5=
200907090600 AAXX 09064 67666 32480 80907 10124 20104 48572 885//
                   333 10200 20085 59013 88615 Q1026.0=
200907080900 AAXX 08094 67666 42580 40816 10170 20096 48586 84100
                   333 58011 84825 Q1027=
200907070600 AAXX 07064 67666 32980 00989 10120 20092 48584
                   333 10199 20095 58009 Q1027.5=
200907020900 AAXX 02094 67666 42580 60910 10144 20101 48606 86800
                   333 58004 82624 85828=
200907011200 AAXX 01124 67666 42680 71210 10160 20086 48589 81130
                   333 58013 81840 86360=
200907010600 AAXX 01064 67666 31978 11012 10100 20070 48592 70500 81030
                   333 10183 20070 58007 81360 Q1028.7=

################################################################################
#  SYNOPS from 67673, Petauke (Zambia) | 14-15S | 031-17E | 1035 m
################################################################################
200907080900 AAXX 08094 67673 41980 00911 10197 20052 48610 70500
                   333 58016=

################################################################################
#  SYNOPS from 67743, Livingstone (Zambia) | 17-49S | 025-49E | 985 m
################################################################################
200907300600 AAXX 30064 67743 32980 00000 10115 20065 48544
                   333 10235 20070 59018=
200907281200 AAXX 28124 67743 41975 10405 10213 20048 48579 70500 81030
                   333 59020 81360=
200907280600 AAXX 28064 67743 31970 01003 10100 20030 48583 70500
                   333 10220 59018=
200907271500 AAXX 27154 67743 42980 01009 10205 20052 48585
                   333 58006=
200907271200 AAXX 27124 67743 31875 70912 10109 20079 48/// 70522 8703/
                   333 10188 20046 5//// 87360=
200907270900 AAXX 27094 67743 42680 31212 10175 20052 48618 83100
                   333 58006 83840=
200907270600 AAXX 27064 67743 31975 01109 10105 20069 48587 70500
                   333 10230 20085 58008=
200907251500 AAXX 25154 67743 41970 01009 10218 20072 48575 70500
                   333 58030=
200907241200 AAXX 24124 67743 41770 22005 10250 20010 48562 70500 82100
                   333 58027 82856 Q1022.4=
200907231200 AAXX 23124 67743 NIL=
200907230900 AAXX 23094 67743 42980 00805 10209 20105 48551
                   333 59026 Q1022.5=
200907230600 AAXX 23064 67743 31970 70000 10120 20081 48530 70500 87030
                   333 10255 20105 59021 87360=
200907221200 AAXX 22124 67743 41970 01404 10230 20065 48549 70500
                   333 59036=
200907220600 AAXX 22064 67743 31970 00000 10098 20073 48545 70500
                   333 10230 20066 59037=
200907211200 AAXX 21124 67743 41970 31208 10210 20068 48579 70500 83060
                   333 59020 83360=
200907210600 AAXX 21064 67743 31970 00803 10094 20055 48577 70500
                   333 10230 20065 59018=
200907200600 AAXX 20064 67743 31970 20903 10100 20081 48597 70500 82030
                   333 10235 20130 59003 82360=
200907170900 AAXX 17094 67743 42680 31015 10205 20121 48617 82130
                   333 59011 82835 81360=
200907170600 AAXX 17064 67743 32980 10606 10155 20121 48601 81030
                   333 10285 20125 58005 81360=
200907151200 AAXX 15124 67743 41975 03403 10285 20034 48578 70500
                   333 58020=
200907150600 AAXX 15064 67743 32880 60000 10124 20044 48545 86030
                   333 10305 20090 58016 86358=
200907141200 AAXX 14124 67743 42980 01807 10295 20036 48549
                   333 58004=
200907140600 AAXX 14064 67743 32980 03001 10135 20055 48539
                   333 10320 20102 59001=
200907131500 AAXX 13154 67743 41970 12204 10284 20059 48537 70500 81030
                   333 59014 81360=
200907131200 AAXX 13124 67743 41970 120505 10289 20040 48545 70500 81040
                   333 59014 81360=
200907130600 AAXX 13064 67743 31970 00000 10136 20066 48542 70500
                   333 10280 20106 59013=
200907101200 AAXX 10124 67743 42780 41011 10225 20094 48556 84100
                   333 59018 84856=
200907100600 AAXX 10064 67743 32980 01501 10110 20082 48560
                   333 10240 20070 59013=
200907091200 AAXX 09124 67743 41770 20813 10239 20093 48577 70500 82100
                   333 59024 82856=
200907090600 AAXX 09064 67743 32980 00902 10104 20055 48570
                   333 10228 20074 59020=
200907071500 AAXX 07154 67743 42780 57311 10210 20046 48547 85200
                   333 58014 85857=
200907070600 AAXX 07064 67743 32580 40804 10212 20026 48592 70300 81130
                   333 10231 20086 58015 81820 83359 Q1029.1=
200907011200 AAXX 01124 67743 42980 10807 10200 20058 48599 81030
                   333 58007 81360=
200907010900 AAXX 01094 67743 42680 30810 10172 20054 48612 83100
                   333 58008 81840 Q1031=

################################################################################
#  SYNOPS from 67753, Choma (Zambia) | 16-50S | 027-04E | 1213 m
################################################################################
200907290600 AAXX 29064 67753 31960 00907 10106 20082 48/// 70500
                   333 10/// 20/// 5////=
200907231200 AAXX 23124 67753 NIL=
200907230600 AAXX 23064 67753 31960 00904 10116 20084 48/// 70500 87030
                   333 10224 20034 5//// 87360=
200907220600 AAXX 22064 67753 31960 01007 10113 20072 48/// 70500
                   333 10198 20039 5////=
200907210600 AAXX 21064 67753 31960 00910 10107 20081 48/// 70500
                   333 10184 20054 5////=
200907200600 AAXX 20064 67753 31460 50906 10084 20068 48/// 70521 85500
                   333 10181 20027 5//// 85610=
200907150600 AAXX 15064 67753 31970 71804 10158 20059 48/// 70522 87030
                   333 10278 20099 5//// 87360=
200907130600 AAXX 13064 67753 31970 02705 10129 20067 48/// 70500
                   333 10257 20071=
200907090600 AAXX 09064 67753 32470 10906 10104 20081 48/// 70500 81500
                   333 10207 20029 5//// 81610=

################################################################################
#  SYNOPS from 67855, Lupaki (Zambia) | 17-03-00S | 024-46-00E | 1000 m
################################################################################
200907190000 AAXX 19004 67855 NIL=
200907181800 AAXX 18184 67855 NIL=
200907181200 AAXX 18124 67855 42980 71204 10213 20062 3//// 48/// 87030
                   333 5//// 87360=
200907180600 AAXX 18064 67855 32980 41603 10100 20042 3//// 48/// 84030
                   333 20050 5//// 84360=
200907180000 AAXX 18004 67855 NIL=
200907171800 AAXX 17184 67855 NIL=
200907171200 AAXX 17124 67855 NIL=
200907170600 AAXX 17064 67855 32980 71004 10152 20106 3//// 48/// 8707/
                   333 20104 5//// 87360=
200907170000 AAXX 17004 67855 NIL=
200907161800 AAXX 16184 67855 NIL=
200907161200 AAXX 16124 67855 NIL=
200907160600 AAXX 16064 67855 NIL=
200907160000 AAXX 16004 67855 NIL=
200907151200 AAXX 15124 67855 NIL=
200907150000 AAXX 15004 67855 NIL=
200907141800 AAXX 14184 67855 NIL=
200907141200 AAXX 14124 67855 NIL=
200907140000 AAXX 14004 67855 NIL=
200907131800 AAXX 13184 67855 NIL=
200907131200 AAXX 13124 67855 42980 72603 10283 20065 3//// 48/// 81160
                   333 5//// 81859 87360=
200907130600 AAXX 13064 67855 NIL=
200907130000 AAXX 13004 67855 NIL=
200907121800 AAXX 12184 67855 NIL=
200907121200 AAXX 12124 67855 NIL=
200907120600 AAXX 12064 67855 NIL=
200907120000 AAXX 12004 67855 NIL=
200907111800 AAXX 11184 67855 NIL=
200907111200 AAXX 11124 67855 NIL=
200907110600 AAXX 11064 67855 32980 01001 10060 20024 38/// 48///
                   333 20014 5////=
200907101800 AAXX 10184 67855 NIL=
200907101200 AAXX 10124 67855 42880 10901 10242 20069 3//// 48/// 81100
                   333 5//// 81857=
200907100600 AAXX 10064 67855 NIL=
200907091800 AAXX 09184 67855 NIL=
200907091200 AAXX 09124 67855 42880 10502 10236 20074 3//// 48/// 81100
                   333 5//// 81857=
200907090600 AAXX 09064 67855 NIL=
200907090000 AAXX 09004 67855 NIL=
200907081800 AAXX 08184 67855 NIL=
200907081200 AAXX 08124 67855 NIL=
200907080600 AAXX 08064 67855 32980 00903 10098 20061 3//// 48///
                   333 20049 5////=
200907080000 AAXX 08004 67855 NIL=
200907071800 AAXX 07184 67855 NIL=
200907071200 AAXX 07124 67855 NIL=
200907070600 AAXX 07064 67855 NIL=
200907070000 AAXX 07004 67855 NIL=
200907061800 AAXX 06184 67855 NIL=
200907061200 AAXX 06124 67855 NIL=
200907060000 AAXX 06004 67855 NIL=
200907051800 AAXX 05184 67855 NIL=
200907051200 AAXX 05124 67855 NIL=
200907050600 AAXX 05064 67855 NIL=
200907050000 AAXX 05004 67855 NIL=
200907041800 AAXX 04184 67855 NIL=
200907041200 AAXX 04124 67855 NIL=
200907040600 AAXX 04064 67855 NIL=
200907040000 AAXX 04004 67855 NIL=
200907031800 AAXX 03184 67855 NIL=
200907031200 AAXX 03124 67855 NIL=
200907030000 AAXX 03004 67855 NIL=
200907021800 AAXX 02184 67855 NIL=
200907021200 AAXX 02124 67855 NIL=
200907020600 AAXX 02064 67855 32980 50804 10114 20074 3//// 48/// 85030
                   333 20080 5//// 85360=
200907020000 AAXX 02004 67855 NIL=
200907011800 AAXX 01184 67855 NIL=
200907011200 AAXX 01124 67855 NIL=
200907010600 AAXX 01064 67855 32980 00801 10079 20039 38/// 48///
                   333 20014 5////=
