################################################################################
# Query made at 04/10/2022 06:15:10 UTC
# Country like Zamb*
# Time interval: from 07/31/2021 23:30  to 08/31/2021 23:30  UTC
################################################################################

################################################################################
#  SYNOPS from 67403, Kawambwa (Zambia) | 09-48S | 029-05E | 1323 m
################################################################################
202108311200 AAXX 31124 67403 41970 01802 10300 20052 48490 70500
                   333 58001=
202108230900 AAXX 23094 67403 NIL=
202108230600 AAXX 23064 67403 31975 70903 10204 20132 48513 70522 8703/
                   333 10319 20196 59003 87360
                   555 20///=
202108200900 AAXX 20094 67403 NIL=
202108200600 AAXX 20064 67403 31975 03001 10148 20097 48513 70500
                   333 10312 20134 58000
                   555 00///=
202108191200 AAXX 19124 67403 NIL=
202108190900 AAXX 19094 67403 NIL=
202108190600 AAXX 19064 67403 31975 02701 10167 20114 48515 70500
                   333 10316 20141 59015
                   555 00///=
202108171500 AAXX 17154 67403 41970 32201 10272 20110 48511 70522 83061
                   333 59005 83360 81080
                   555 10296=
202108171200 AAXX 17124 67403 41870 52501 10275 20130 48523 70522 85101
                   333 58003 85857 81080=
202108170900 AAXX 17094 67403 NIL=
202108170600 AAXX 17064 67403 31975 20903 10176 20117 48543 70500 82030
                   333 10291 20148 58004 82360
                   555 00///=
202108160900 AAXX 16094 67403 NIL=
202108160600 AAXX 16064 67403 31975 00905 10165 20114 48540 70500
                   333 10274 20134 59004
                   555 00///=
202108101200 AAXX 10124 67403 NIL=
202108100900 AAXX 10094 67403 41975 00902 10243 20093 48548 70500
                   333 59003=
202108100600 AAXX 10064 67403 31975 00901 10165 20086 48540 70500
                   333 10298 20136 59002
                   555 00///=
202108090900 AAXX 09094 67403 41975 00901 10250 20094 48552 70500
                   333 5////=
202108090600 AAXX 09064 67403 31975 00904 10165 20083 48542 70500
                   333 10290 20130 58000
                   555 00///=
202108050600 AAXX 05064 67403 31975 01202 10162 20090 48558 70500
                   333 10258 20136 59003
                   555 00///=
202108040600 AAXX 04064 67403 31975 11202 10151 20173 70500 80001
                   333 10292 20132 58006 81080=
202108030600 AAXX 03064 67403 31975 00905 10152 20070 48/// 70500
                   333 10276 20102=
202108020600 AAXX 02064 67403 31975 40903 10154 20115 48560 70500 84030
                   333 10279 20127 58011 84360
                   555 00///=

################################################################################
#  SYNOPS from 67413, Mbala (Zambia) | 08-51S | 031-20E | 1673 m
################################################################################
202108311200 AAXX 31124 67413 NIL=
202108230900 AAXX 23094 67413 NIL=
202108200900 AAXX 20094 67413 42975 01008 10236 20065 48534 70500
                   333 58006 91023=
202108200600 AAXX 20064 67413 32980 21006 10190 20113 48533 70500 82030
                   333 10280 20130 59004 82358
                   555 00222 91023=
202108191200 AAXX 19124 67413 NIL=
202108190900 AAXX 19094 67413 NIL=
202108171500 AAXX 17154 67413 NIL=
202108170900 AAXX 17094 67413 NIL=
202108160900 AAXX 16094 67413 NIL=
202108160600 AAXX 16064 67413 32980 10908 10164 20119 48560 81030
                   333 10270 20123 5//// 81030
                   555 00198 91026=
202108101200 AAXX 10124 67413 NIL=
202108100600 AAXX 10064 67413 32980 01008 1//// 20125 48559
                   333 10269 20125 58004
                   555 00194 91026=
202108090600 AAXX 09064 67413 32980 01208 10154 20147 48556
                   333 10275 20112 59007=
202108050600 AAXX 05064 67413 32680 20906 10150 20100 48570 82100
                   333 10250 20130 59004 82830
                   555 00115 91027=

################################################################################
#  SYNOPS from 67441, Mwinilunga (Zambia) | 11-45S | 024-26E | 1361 m
################################################################################
202108311200 AAXX 31124 67441 NIL=
202108300900 AAXX 30094 67441 41980 00904 10289 20137 48522 70544
                   333 5////=
202108250600 AAXX 25064 67441 31970 00000 10161 20138 48546 70500
                   333 10311 20132 59022
                   555 00/// 29914=
202108230900 AAXX 23094 67441 NIL=
202108200900 AAXX 20094 67441 NIL=
202108191200 AAXX 19124 67441 NIL=
202108190900 AAXX 19094 67441 NIL=
202108171500 AAXX 17154 67441 42980 01203 10280 20075 48497 70500
                   333 5//// 555 10300=
202108170900 AAXX 17094 67441 NIL=
202108170600 AAXX 17064 67441 31970 00000 10140 20097 48576 70500
                   333 10300 20088 59004
                   555 00///=
202108160900 AAXX 16094 67441 NIL=
202108101200 AAXX 10124 67441 42980 01205 10285 20065 48554 70500
                   333 5////=
202108100900 AAXX 10094 67441 41980 01605 10250 20063 48590 70500
                   333 58003=
202108100600 AAXX 10064 67441 31975 00000 10120 20083 48582 70500
                   333 10300 20083 58009
                   555 00///=
202108060600 AAXX 06064 67441 31975 00000 10110 20062 48585 70500
                   333 10271 20048 58012
                   555 00///=
202108050600 AAXX 05064 67441 NIL=
202108040600 AAXX 04064 67441 31975 01303 10140 20067 48597 70500
                   333 10285 20075 58003=

################################################################################
#  SYNOPS from 67461, Mansa (Zambia) | 11-06S | 028-51E | 1382 m
################################################################################
202108311200 AAXX 31124 67461 41965 11516 10289 20030 48503 70500 80001
                   333 58001 81080 91016=
202108310900 AAXX 31094 67461 41970 11220 10264 20069 48530 70500 80001
                   333 58002 81080 91019=
202108310600 AAXX 31064 67461 31960 00812 10170 20115 48522 70500
                   333 10298 20090 58004
                   555 00/// 91019=
202108300900 AAXX 30094 67461 41955 01721 10267 20095 48528 70500
                   333 58011 91019=
202108250600 AAXX 25064 67461 31975 01316 10182 20129 48502 70500
                   333 10310 20129 59001
                   555 00/// 91017=
202108230900 AAXX 23094 67461 41975 81615 10212 20145 48526 70522 807//
                   333 58010 88460 91020=
202108230600 AAXX 23064 67461 31975 81010 10196 20160 48527 70522 8807/
                   333 10304 20163 58006 88460
                   555 00/// 91020=
202108200900 AAXX 20094 67461 41975 02121 10270 20085 48528 70500
                   333 58002 91019=
202108200600 AAXX 20064 67461 31958 01607 10183 20115 48516 70500
                   333 10306 20103 59003
                   555 00/// 91019=
202108191200 AAXX 19124 67461 NIL=
202108190900 AAXX 19094 67461 41975 01308 10260 20105 48525 70500
                   333 59001 91019=
202108190600 AAXX 19064 67461 31975 01308 10187 20162 48519 70500
                   333 10300 20105 59014
                   555 00/// 91019=
202108171500 AAXX 17154 67461 NIL=
202108170900 AAXX 17094 67461 41975 01221 10240 20103 48543 70500
                   333 59001 91021=
202108170600 AAXX 17064 67461 31970 01319 10160 20130 48557 70500
                   333 10269 20092 58012 91023=
202108160900 AAXX 16094 67461 41675 10923 10230 20111 48544 70500 81500
                   333 58000 81645 91021=
202108160600 AAXX 16064 67461 31475 11116 10160 20116 48545 70500 81500
                   333 10260 20092 58000 81615 91021=
202108101200 AAXX 10124 67461 41970 01405 10274 20066 48531 70500
                   333 59004 91019=
202108100900 AAXX 10094 67461 41975 01210 10250 20075 48558 70500
                   333 59007 91023=
202108100600 AAXX 10064 67461 31970 01207 10170 20084 48551 70500
                   333 10278 20088 59002
                   555 00/// 91023=
202108090900 AAXX 09094 67461 41965 01216 10240 20080 48564 70500
                   333 58015 91023=
202108090600 AAXX 09064 67461 31965 00808 10148 20092 48549 70500
                   333 10275 20083 58001
                   555 00/// 91023=
202108050600 AAXX 05064 67461 31975 01212 10135 20066 48557 70500
                   333 10254 20080 59011
                   555 00/// 91023=
202108030900 AAXX 03094 67461 42780 11321 10233 20061 48554 81500
                   333 59013 81658 91023=
202108020600 AAXX 02064 67461 31978 61310 10135 20109 48556 70522 8603/
                   333 10252 20090 59014 86360 91023=

################################################################################
#  SYNOPS from 67469, Samfya (Zambia) | 11-22S | 029-54E | 1171 m
################################################################################
202108311200 AAXX 31124 67469 42980 00806 10263 20150 48///
                   333 5////=
202108310900 AAXX 31094 67469 42980 11208 10236 20120 48/// 81030
                   333 5//// 81360=
202108231200 AAXX 23124 67469 42980 70701 10222 20170 48/// 8703/
                   333 5//// 87360=
202108230900 AAXX 23094 67469 42980 71306 10209 20160 48/// 8703/
                   333 5//// 87360=
202108200900 AAXX 20094 67469 41975 00903 10226 20150 48/// 70500
                   333 5////=
202108200600 AAXX 20064 67469 32975 00905 10197 20140 48/// 70500
                   333 10255 20173 5////
                   555 00///=
202108191200 AAXX 19124 67469 41675 20502 10254 20170 48/// 70500 82200
                   333 5//// 82840=
202108190900 AAXX 19094 67469 41975 00905 10229 20150 48/// 70500
                   333 5////=
202108190600 AAXX 19064 67469 31975 00905 10197 20150 48/// 70500
                   333 10250 20179 5////
                   555 00///=
202108171500 AAXX 17154 67469 41975 00000 10230 20170 70500
                   333 5//// 555 10255=
202108171200 AAXX 17124 67469 41975 00903 10245 20170 48///
                   333 5////=
202108170900 AAXX 17094 67469 41975 00903 10206 20160 48/// 70500
                   333 5////=
202108170600 AAXX 17064 67469 31575 60910 10175 20150 48/// 70522 84530
                   333 10244 20153 5//// 84620 82360
                   555 00///=
202108160900 AAXX 16094 67469 42980 00910 10209 20150 48///
                   333 5////=
202108101200 AAXX 10124 67469 42980 00806 10238 20160 48///
                   333 5////=
202108100900 AAXX 10094 67469 42980 00805 10210 20120 48///
                   333 5////=
202108100600 AAXX 10064 67469 32980 01106 10173 20140 48///
                   333 10246 20120 5////
                   555 00///=
202108090900 AAXX 09094 67469 42980 01109 10224 20130 48///
                   333 5////=
202108090600 AAXX 09064 67469 32980 01506 10169 20120 48///
                   333 10243 20140 5////
                   555 00///=
202108050600 AAXX 05064 67469 NIL=

################################################################################
#  SYNOPS from 67475, Kasama (Zambia) | 10-13S | 031-08E | 1382 m
################################################################################
202108311200 AAXX 31124 67475 41960 00914 10288 20011 48503 70500
                   333 58004 91017=
202108310900 AAXX 31094 67475 41960 01013 10257 20061 48529 70500
                   333 58000 555 91020=
202108310600 AAXX 31064 67475 31960 01604 10176 20085 48529 70500
                   333 10//0 20136 58000
                   555 00/// 91021=
202108301200 AAXX 30124 67475 41060 01513 10283 20030 48507 70500
                   333 5//// 555 91018=
202108300900 AAXX 30094 67475 41960 01105 10259 20080 48529 70500
                   333 5//// 91020=
202108231200 AAXX 23124 67475 41960 70904 10283 20118 48508 70522 83058
                   333 5//// 83360 87280
                   555 91018=
202108230900 AAXX 23094 67475 41960 60713 10243 20127 48531 70522 85058
                   333 5//// 85360 84280
                   555 91021=
202108230600 AAXX 23064 67475 31960 10813 10124 48532 70522 8805/
                   333 10//0 20166 59001 88460
                   555 91021=
202108200900 AAXX 20094 67475 41981 01003 10260 20091 48527
                   333 58000 91021=
202108200600 AAXX 20064 67475 31980 00102 10180 20103 48525
                   333 10//0 20115 59004=
202108191200 AAXX 19124 67475 41680 21003 10290 20055 48500 82200
                   333 59010 82830 91017=
202108190900 AAXX 19094 67475 41980 00903 10254 20103 48527
                   333 59012 91021=
202108171500 AAXX 17154 67475 NIL=
202108170900 AAXX 17094 67475 NIL=
202108170600 AAXX 17064 67475 31560 10906 10172 20118 48565 70500 81100
                   333 1//// 20130 5//// 91025=
202108160900 AAXX 16094 67475 NIL=
202108101200 AAXX 10124 67475 41960 01408 10274 20066 48529 70500
                   333 59004 91020=
202108100900 AAXX 10094 67475 41960 01608 10238 20071 48557 70500
                   333 58002 91024=
202108100600 AAXX 10064 67475 31960 00704 10166 20085 48549 70500
                   333 10//0 20109 59005
                   555 00/// 91023=
202108091200 AAXX 09124 67475 41660 32004 10272 20073 48532 70500 83200
                   333 5//// 83840 91021=
202108090900 AAXX 09094 67475 41960 01508 10242 20082 48556 70500
                   333 59007 91024=
202108050600 AAXX 05064 67475 31960 01609 10158 20110 48569 70500
                   333 10//0 20094 59006
                   555 00/// 91026=
202108040600 AAXX 04064 67475 31960 01203 10150 20104 48575 70500
                   333 10//0 20103 58007 91026=
202108030900 AAXX 03094 67475 41980 01005 10225 20094 48572
                   333 59005 91026=
202108030600 AAXX 03064 67475 31980 00302 10155 20111 48568
                   333 10//0 20090 59005 91026=
202108020600 AAXX 02064 67475 31980 01203 10163 20102 48573
                   333 1//// 20100 59008 91026=

################################################################################
#  SYNOPS from 67476, Misamfu (Zambia) | 10-06S | 031-15E | 1536 m
################################################################################
202108311200 AAXX 31124 67476 NIL=
202108230900 AAXX 23094 67476 NIL=
202108200900 AAXX 20094 67476 NIL=
202108191200 AAXX 19124 67476 NIL=
202108190900 AAXX 19094 67476 NIL=
202108171500 AAXX 17154 67476 NIL=
202108170900 AAXX 17094 67476 NIL=
202108160900 AAXX 16094 67476 NIL=
202108101200 AAXX 10124 67476 NIL=
202108050600 AAXX 05064 67476 NIL=

################################################################################
#  SYNOPS from 67477, Mpika (Zambia) | 11-54S | 031-26E | 1400 m
################################################################################
202108311200 AAXX 31124 67477 41975 00609 10265 20//0 48517 70500
                   333 59011=
202108301200 AAXX 30124 67477 41675 21805 10240 20//0 48527 70500 82100
                   333 5//// 82847=
202108231200 AAXX 23124 67477 42680 31203 10252 20112 48520 81131
                   333 5//// 81830 82364 82080=
202108230900 AAXX 23094 67477 41578 50913 10242 20098 48532 70522 82131
                   333 5//// 82824 83364 82080=
202108230600 AAXX 23064 67477 32480 61212 10198 20131 48536 83530
                   333 10278 20168 58002 83612 84359
                   555 00///=
202108200900 AAXX 20094 67477 41975 00906 10252 20100 48535 70500
                   333 5////=
202108200600 AAXX 20064 67477 31975 00915 10196 20110 48530 70500
                   333 10290 20146 59007
                   555 00///=
202108191200 AAXX 19124 67477 NIL=
202108190900 AAXX 19094 67477 NIL=
202108190600 AAXX 19064 67477 31975 00909 10188 20113 48522 70500
                   333 10265 20132 59003
                   555 00///=
202108171500 AAXX 17154 67477 NIL=
202108171200 AAXX 17124 67477 41675 21207 10237 20115 48548 70500 82100
                   333 59009 82835=
202108170900 AAXX 17094 67477 41575 10911 10205 20120 48571 70500 81100
                   333 59001 81825=
202108170600 AAXX 17064 67477 31475 21214 10160 20127 48567 70500 82500
                   333 10230 20125 58002 82613
                   555 00///=
202108160900 AAXX 16094 67477 41575 21210 10196 20122 48571 70500 82500
                   333 5//// 82624=
202108160600 AAXX 16064 67477 31475 21214 10151 20101 48565 70500 82500
                   333 10235 20125 59003 82616
                   555 00///=
202108101200 AAXX 10124 67477 41975 00905 10244 20045 48543 70500
                   333 59003=
202108100900 AAXX 10094 67477 41975 01213 10232 20050 48561 70500
                   333 59007=
202108100600 AAXX 10064 67477 31975 01208 10170 20060 48559 70500
                   333 10251 20130 59004
                   555 00///=
202108090900 AAXX 09094 67477 41675 11211 10215 20100 48567 70500 81100
                   333 5//// 81830=
202108090600 AAXX 09064 67477 31975 01205 10150 20079 48562 70500
                   333 10250 20073 58000
                   555 00///=
202108050600 AAXX 05064 67477 31978 01210 10147 20080 48578 70500
                   333 10227 20104 59003
                   555 00///=
202108040600 AAXX 04064 67477 31978 01209 10142 20089 48583 70500
                   333 10242 20101 58003=
202108030900 AAXX 03094 67477 42980 00905 10211 20090 48584
                   333 5////=
202108030600 AAXX 03064 67477 31478 11206 10166 20101 48579 70500 81130
                   333 10237 20111 59003 81812 81359=
202108020600 AAXX 02064 67477 31978 41205 10153 20121 48582 70500 84030
                   333 10215 20102 59010 84359=

################################################################################
#  SYNOPS from 67481, Isoka (Zambia) | 10-07S | 032-38E | 1360 m
################################################################################
202108311200 AAXX 31124 67481 41960 03002 10282 20066 48/// 70500
                   333 59003=
202108310600 AAXX 31064 67481 31960 02001 10190 20091 48/// 70500
                   333 10282 20112 5////
                   555 00///=
202108301200 AAXX 30124 67481 41760 31002 10270 20105 48/// 70500 83100
                   333 5//// 83850=
202108231200 AAXX 23124 67481 41770 51003 10292 20080 48/// 70521 85100
                   333 5//// 85850=
202108230900 AAXX 23094 67481 41970 32003 10248 20117 48/// 70510 83030
                   333 5//// 83361=
202108230600 AAXX 23064 67481 31970 70000 10200 20140 48/// 70522 8703/
                   333 10300 20162 58000 87360
                   555 00///=
202108200900 AAXX 20094 67481 NIL=
202108200600 AAXX 20064 67481 31970 01003 10220 20127 48/// 70500
                   333 10292 20128 5////
                   555 00///=
202108191200 AAXX 19124 67481 41765 22403 10285 20086 48/// 70500 82100
                   333 5//// 82850=
202108190900 AAXX 19094 67481 41970 02102 10251 20094 48/// 70500
                   333 5////=
202108171500 AAXX 17154 67481 NIL=
202108171200 AAXX 17124 67481 41770 32003 10246 20110 48/// 70500 84200
                   333 59007 84850=
202108170900 AAXX 17094 67481 41670 10302 10228 20112 48/// 70500
                   333 59001 81830=
202108170600 AAXX 17064 67481 31970 02002 10180 20130 48/// 70500
                   333 10260 20118 58001
                   555 00///=
202108160900 AAXX 16094 67481 41670 31006 10224 20127 48/// 70500 83100
                   333 5//// 83833=
202108160600 AAXX 16064 67481 31470 12002 10170 20128 48/// 70500 81500
                   333 10268 20136 59001 81610
                   555 00///=
202108101200 AAXX 10124 67481 NIL=
202108100900 AAXX 10094 67481 41965 02202 10222 20111 48///
                   333 58001=
202108100600 AAXX 10064 67481 31965 01002 10190 20102 48/// 70500
                   333 10289 20115 5////
                   555 00///=
202108090900 AAXX 09094 67481 41970 01002 10230 20096 48/// 70500
                   333 5////=
202108090600 AAXX 09064 67481 31970 01602 10180 20117 48/// 70500
                   333 10267 20112 5////
                   555 00///=
202108050600 AAXX 05064 67481 NIL=
202108040600 AAXX 04064 67481 31970 03005 10160 20050 48/// 70500
                   333 10270 20121 5////=
202108030900 AAXX 03094 67481 41675 12004 10220 20113 48/// 70500 81100
                   333 5//// 81840=
202108030600 AAXX 03064 67481 31975 02002 10175 20124 48/// 70500
                   333 10260 20111 5////=
202108020600 AAXX 02064 67481 31975 12002 10168 20110 48/// 70500 81030
                   333 10248 20098 5//// 81360
                   555 00///=

################################################################################
#  SYNOPS from 67531, Zambezi (Zambia) | 13-32S | 023-07E | 1077 m
################################################################################
202108311200 AAXX 31124 67531 41975 01807 10325 20090 48/// 70500
                   333 58004=
202108310900 AAXX 31094 67531 41970 00907 10297 20096 48/// 70500
                   333 59004=
202108310600 AAXX 31064 67531 31960 00905 10200 20103 48/// 70500
                   333 10341 20150 59009
                   555 00///=
202108301200 AAXX 30124 67531 41775 11204 10330 20086 48/// 70500 81100
                   333 58005 81856=
202108231200 AAXX 23124 67531 41770 10905 10310 20140 48/// 70500 81100
                   333 58002 81856=
202108230900 AAXX 23094 67531 NIL=
202108230600 AAXX 23064 67531 31960 00903 10165 20100 48/// 70500
                   333 10326 20126 58004=
202108200900 AAXX 20094 67531 NIL=
202108200600 AAXX 20064 67531 31965 01004 10146 20082 48/// 70500
                   333 10333 20083 59005=
202108191200 AAXX 19124 67531 41975 02005 10318 20083 48/// 70500
                   333 59018=
202108190900 AAXX 19094 67531 41975 00000 10294 20079 48/// 70500
                   333 59023=
202108190600 AAXX 19064 67531 31975 00000 10140 20087 48/// 70500
                   333 10315 20071 59021
                   555 00///=
202108171500 AAXX 17154 67531 41975 00000 10300 20100 48/// 70500
                   333 59013 555 10310=
202108171200 AAXX 17124 67531 41975 01804 10296 20103 48/// 70500
                   333 58001=
202108170900 AAXX 17094 67531 41975 00907 10256 20123 48/// 70500
                   333 58001=
202108170600 AAXX 17064 67531 31975 01002 10152 20108 48/// 70500
                   333 10297 20095 58004
                   555 00///=
202108160900 AAXX 16094 67531 41975 00907 10246 20122 48/// 70500
                   333 58000=
202108160600 AAXX 16064 67531 31975 01003 10141 20105 48/// 70500
                   333 10283 20107 58004
                   555 00///=
202108101200 AAXX 10124 67531 41965 01303 10298 20073 48/// 70500
                   333 59001=
202108100900 AAXX 10094 67531 41965 00909 10266 20066 48/// 70500
                   333 59004=
202108100600 AAXX 10064 67531 31965 01203 10131 20064 48/// 70500
                   333 10312 20073 59003
                   555 00///=
202108090900 AAXX 09094 67531 41965 00908 10260 20084 48/// 70500
                   333 59003=
202108090600 AAXX 09064 67531 31965 00000 10125 20065 48/// 70500
                   333 10300 20079 59001
                   555 00///=
202108050600 AAXX 05064 67531 NIL=
202108040600 AAXX 04064 67531 31960 00803 10121 20063 48/// 70500
                   333 10286 20074 58009=
202108030900 AAXX 03094 67531 41970 01007 10250 20087 48/// 70500
                   333 59001=
202108030600 AAXX 03064 67531 31965 00905 10152 20070 48/// 70500
                   333 10276 20102 59007=
202108020600 AAXX 02064 67531 31965 01004 10157 20104 48/// 70500
                   333 10276 20081 59014
                   555 00///=

################################################################################
#  SYNOPS from 67541, Kasempa (Zambia) | 13-32S | 025-51E | 1234 m
################################################################################
202108311200 AAXX 31124 67541 NIL=
202108301200 AAXX 30124 67541 41975 005// 10320 20179 48473 70500
                   333 5////=
202108300900 AAXX 30094 67541 41975 005// 10280 20183 48490 70500
                   333 5////=
202108230900 AAXX 23094 67541 41975 705// 10265 20183 48499 70522 87030
                   333 5//// 87360=
202108200900 AAXX 20094 67541 41975 00000 10290 20175 48490 70500
                   333 58000=
202108200600 AAXX 20064 67541 31975 00000 10135 20099 48490 70500
                   333 10320 20064 58000
                   555 00///=
202108191200 AAXX 19124 67541 41975 00000 10310 20157 48464 70500
                   333 59018=
202108190900 AAXX 19094 67541 41975 00000 10278 20138 48490 70500
                   333 59018=
202108190600 AAXX 19064 67541 31970 00000 10130 20112 48490 70500
                   333 10302 20064 59027
                   555 00///=
202108171500 AAXX 17154 67541 41975 00000 10265 20183 48490 70500
                   333 59009 555 10298=
202108171200 AAXX 17124 67541 41975 00000 10280 20183 48499 70500
                   333 58000=
202108170900 AAXX 17094 67541 41975 00000 10250 20174 48525 70500
                   333 58000=
202108170600 AAXX 17064 67541 31975 00000 10165 20131 48525 70500
                   333 10282 20102 58000
                   555 00///=
202108161200 AAXX 16124 67541 41675 40000 10250 20156 48499 70522
                   333 5//// 84835=
202108160900 AAXX 16094 67541 41975 005// 10240 20125 48525 70500
                   333 5////=
202108160600 AAXX 16064 67541 31975 00000 10155 20115 48525 70500
                   333 10286 20100 58000
                   555 00///=
202108101200 AAXX 10124 67541 NIL=
202108100900 AAXX 10094 67541 41975 00000 10260 20130 48525 70500
                   333 59009=
202108100600 AAXX 10064 67541 31975 00000 10090 20070 48525 70500
                   333 10292 20020 58000
                   555 00///=
202108090900 AAXX 09094 67541 41975 00000 10255 20143 48534 70500
                   333 5////=
202108090600 AAXX 09064 67541 31970 00000 10125 20088 48525 70500
                   333 10290 20041 59009=
202108050600 AAXX 05064 67541 NIL=
202108040600 AAXX 04064 67541 31975 00000 10145 20079 48543 70500
                   333 10274 20090 58009=
202108030900 AAXX 03094 67541 41975 00505 10245 20140 48543 70500
                   333 5////=
202108030600 AAXX 03064 67541 31975 00000 10130 20103 48534 70500
                   333 10268 20036 59009=
202108020600 AAXX 02064 67541 31975 40000 10150 20124 48543 70522 84030
                   333 10269 20070 59009 84360
                   555 00///=

################################################################################
#  SYNOPS from 67543, Kabompo (Zambia) | 13-36S | 024-12E | 1075 m
################################################################################
202108311200 AAXX 31124 67543 41970 01504 10334 20064 48/// 70500
                   333 5////=
202108310900 AAXX 31094 67543 41970 00903 10308 20072 48/// 70500
                   333 5////=
202108310600 AAXX 31064 67543 31965 00000 10194 20119 48/// 70500
                   333 10338 20148 5////
                   555 00///=
202108301200 AAXX 30124 67543 41670 30000 10334 20079 48/// 70500 83100
                   333 5//// 83840=
202108230900 AAXX 23094 67543 NIL=
202108230600 AAXX 23064 67543 31970 40000 10186 20115 48/// 70522 84030
                   333 10330 20140 5//// 84360
                   555 00///=
202108200900 AAXX 20094 67543 41968 00000 10288 20084 48/// 70500
                   333 5////=
202108200600 AAXX 20064 67543 31965 00000 10120 20086 48/// 70500
                   333 10328 20082 5////
                   555 00///=
202108191200 AAXX 19124 67543 41970 00000 10320 20051 48/// 70500
                   333 5////=
202108190900 AAXX 19094 67543 41970 00000 10278 20105 48/// 70500
                   333 5////=
202108190600 AAXX 19064 67543 31965 00000 10138 20096 48/// 70500
                   333 10318 20078 5////
                   555 00///=
202108171500 AAXX 17154 67543 41970 00000 10300 20076 48/// 70500
                   333 5//// 555 10310=
202108171200 AAXX 17124 67543 41970 01001 10302 20097 48/// 70400
                   333 5////=
202108170900 AAXX 17094 67543 41970 00802 10268 20178 48/// 70500
                   333 5////=
202108170600 AAXX 17064 67543 31970 00602 10158 20108 48/// 70500
                   333 10316 20118 5////=
202108160900 AAXX 16094 67543 41970 00904 10250 20113 48/// 70500
                   333 5////=
202108160600 AAXX 16064 67543 31970 00601 10154 20109 48/// 70500
                   333 10308 20118 5////
                   555 00///=
202108101200 AAXX 10124 67543 NIL=
202108050600 AAXX 05064 67543 NIL=

################################################################################
#  SYNOPS from 67551, Solwezi (Zambia) | 12-11S | 026-23E | 1386 m
################################################################################
202108311200 AAXX 31124 67551 41970 01508 10285 20021 48498 70500
                   333 58003=
202108310900 AAXX 31094 67551 41970 00707 10263 20062 48523 70500
                   333 58003=
202108301200 AAXX 30124 67551 41970 21208 10300 20044 48496 70522 82100
                   333 58020 82850=
202108300900 AAXX 30094 67551 41970 00908 10270 20081 48520 70500
                   333 58010=
202108231200 AAXX 23124 67551 41670 40906 10275 20137 48497 70500 84100
                   333 58004 84840=
202108230900 AAXX 23094 67551 41965 00907 10258 20132 48529 70500
                   333 58003=
202108230600 AAXX 23064 67551 31965 10905 10183 20128 48522 70522 81030
                   333 10288 20174 59001 81362
                   555 00/// 91020=
202108201200 AAXX 20124 67551 41970 01205 10296 20056 48491 70500
                   333 58003=
202108200900 AAXX 20094 67551 41960 00806 10262 20070 48517 70500
                   333 58002=
202108200600 AAXX 20064 67551 31960 00905 10180 20079 48521 70500
                   333 10278 20125 59002
                   555 00/// 91019=
202108191200 AAXX 19124 67551 41970 02705 10295 20064 48488 70500
                   333 59013=
202108190900 AAXX 19094 67551 NIL=
202108190600 AAXX 19064 67551 31960 00905 10165 20095 48512 70500
                   333 10290 20115 59021
                   555 00/// 91020=
202108171500 AAXX 17154 67551 41970 20706 10271 20085 48515 70500 82030
                   333 59009 82360 555 10278 91019=
202108171200 AAXX 17124 67551 32470 41101 10258 20138 39219 48/// 84800
                   333 59009=
202108170900 AAXX 17094 67551 41970 01612 10227 20100 48560 70500
                   333 58000 555 91023=
202108170600 AAXX 17064 67551 31970 01305 10153 20100 48556 70500
                   333 10261 20132 58000
                   555 00/// 91023=
202108161200 AAXX 16124 67551 41770 50908 10240 20100 48532 70522 85200
                   333 58003 85856 91020=
202108160900 AAXX 16094 67551 41470 11512 10213 20108 48558 70500 81500
                   333 58005 81615 555 91023=
202108160600 AAXX 16064 67551 31970 00906 10132 20106 48555 70500
                   333 10265 20103 58002
                   555 00/// 91023=
202108101200 AAXX 10124 67551 41970 01805 10273 20011 48535 70500
                   333 59004=
202108100600 AAXX 10064 67551 31965 00903 10145 20065 48547 70500
                   333 10271 20100 59003
                   555 00/// 91024=
202108090900 AAXX 09094 67551 41970 03205 10232 20067 48560 70500
                   333 58001=
202108090600 AAXX 09064 67551 31965 03203 10106 20067 48541 70500
                   333 10270 20081 59002
                   555 00/// 91024=
202108050600 AAXX 05064 67551 31960 01206 10117 20042 48563 70500
                   333 10260 20092 59003
                   555 00/// 91025=
202108040600 AAXX 04064 67551 31960 01805 10120 20054 48568 70500
                   333 10263 20100 58006 91026=
202108030900 AAXX 03094 67551 41960 01006 10229 20068 48566 70500
                   333 58004=
202108030600 AAXX 03064 67551 31960 02803 10112 20085 48561 70500
                   333 10250 20083 59005 91025=
202108020600 AAXX 02064 67551 31960 31506 10133 20098 48565 70522 83030
                   333 10247 20097 59010 83362
                   555 00/// 91026=

################################################################################
#  SYNOPS from 67561, Ndola (Zambia) | 13-00S | 028-39E | 1269 m
################################################################################
202108311200 AAXX 31124 67561 NIL=
202108310600 AAXX 31064 67561 31956 00604 10179 20114 48530 70400
                   333 10305 20102 58005 91021=
202108301200 AAXX 30124 67561 41659 51008 10305 20095 48/// 70411 85200
                   333 58017 85850 555 91017=
202108300900 AAXX 30094 67561 41958 00910 10265 20105 48537 70400
                   333 58018 91021=
202108231500 AAXX 23154 67561 41970 58061 10275 20117 48506 70522 85200
                   333 58004 85856 555 10295 91019=
202108231200 AAXX 23124 67561 41770 50602 10295 20108 48513 70522 85200
                   333 58002 85856 555 91018=
202108230900 AAXX 23094 67561 NIL=
202108200900 AAXX 20094 67561 NIL=
202108191200 AAXX 19124 67561 NIL=
202108190900 AAXX 19094 67561 NIL=
202108190600 AAXX 19064 67561 31950 00000 10156 20102 48522 70400
                   333 10295 20103 59020
                   555 00/// 91020=
202108171500 AAXX 17154 67561 41970 33304 10272 20076 48530 70500 83400
                   333 59010 83659 555 10282 91020=
202108171200 AAXX 17124 67561 41770 20604 10277 20066 48542 70500 82100
                   333 59006 82856 91021=
202108170900 AAXX 17094 67561 41960 01008 10242 20099 48571 70500
                   333 59001 91025=
202108170600 AAXX 17064 67561 31959 01304 10173 20114 48562 70400
                   333 10273 20120 58000
                   555 91024=
202108160900 AAXX 16094 67561 NIL=
202108160600 AAXX 16064 67561 31959 01209 10150 20115 48549 70400
                   333 10275 20104 59002
                   555 00/// 91024=
202108101200 AAXX 10124 67561 NIL=
202108100600 AAXX 10064 67561 31957 01905 10189 20015 48546 70400
                   333 10278 20091 59005
                   555 00/// 91023=
202108090600 AAXX 09064 67561 31930 00000 10155 20091 48557 70400
                   333 10280 20090 59001 91024=
202108050600 AAXX 05064 67561 NIL=
202108040600 AAXX 04064 67561 31957 00904 10130 20024 48569 70400
                   333 10267 20088 58005 91026=
202108020600 AAXX 02064 67561 31959 70804 10158 20102 48579 70422 87030
                   333 10265 20118 59013 87360
                   555 00/// 91026=

################################################################################
#  SYNOPS from 67563, Kafironda (Zambia) | 12-36S | 028-07E | 1243 m
################################################################################
202108311200 AAXX 31124 67563 NIL=
202108230900 AAXX 23094 67563 NIL=
202108230600 AAXX 23064 67563 31960 30000 10186 20120 48/// 70500 80001
                   333 10311 20114 58002 83080
                   555 00103=
202108200900 AAXX 20094 67563 NIL=
202108191200 AAXX 19124 67563 NIL=
202108190900 AAXX 19094 67563 NIL=
202108171500 AAXX 17154 67563 NIL=
202108170900 AAXX 17094 67563 NIL=
202108160900 AAXX 16094 67563 NIL=
202108160600 AAXX 16064 67563 31965 01802 10136 20080 48/// 70500
                   333 10273 20069 58003
                   555 00053=
202108101200 AAXX 10124 67563 NIL=
202108090600 AAXX 09064 67563 31950 00702 10126 20070 48/// 70500
                   333 10284 20038 59001
                   555 00029=
202108050600 AAXX 05064 67563 NIL=
202108020600 AAXX 02064 67563 31570 61102 10142 20110 48/// 70520 86500
                   333 10260 20074 59012 86620
                   555 00062=

################################################################################
#  SYNOPS from 67571, Serenje (Zambia) | 13-14S | 030-13E | 1384 m
################################################################################
202108311200 AAXX 31124 67571 NIL=
202108310900 AAXX 31094 67571 42975 01206 10248 20044 48494 70500
                   333 59004=
202108300900 AAXX 30094 67571 42665 11206 10220 20109 48492 70500 81100
                   333 58017 81836=
202108231200 AAXX 23124 67571 42678 70902 10264 20133 48474 70522 83138
                   333 58004 83840 81360 87280=
202108230900 AAXX 23094 67571 42570 70903 10229 20141 48493 70511 81138
                   333 58008 81826 81360 87280=
202108230600 AAXX 23064 67571 32970 31204 10188 20142 48491 70500 83036
                   333 10274 20149 58011 83360
                   555 00///=
202108200900 AAXX 20094 67571 42970 01204 10260 20072 48484 70500
                   333 58008=
202108200600 AAXX 20064 67571 32970 01202 10296 20086 48482 70500
                   333 10296 20145 58017
                   555 00///=
202108191200 AAXX 19124 67571 NIL=
202108190900 AAXX 19094 67571 NIL=
202108171500 AAXX 17154 67571 42680 30903 10237 20099 48493 70500 83100
                   333 59014 83841=
202108171200 AAXX 17124 67571 42680 30903 10237 20099 48493 70500 83100
                   333 59014 83841=
202108170900 AAXX 17094 67571 42580 11205 10221 20104 48523 70500 81828=
202108170600 AAXX 17064 67571 32980 01202 10154 20113 48519 70500
                   333 10235 20112 58003
                   555 00///=
202108160900 AAXX 16094 67571 42675 51208 10195 20109 48522 85200
                   333 59001 85835=
202108160600 AAXX 16064 67571 32475 11212 10131 20102 48518 81500
                   333 10240 20102 59004 81615
                   555 00///=
202108101200 AAXX 10124 67571 42970 01204 10238 20012 48493 70500
                   333 59003=
202108100600 AAXX 10064 67571 31970 01802 10150 20050 48509 70500
                   333 10247 20110 59007
                   555 00///=
202108091200 AAXX 09124 67571 41970 01204 10227 20090 48493 70500
                   333 58005=
202108090600 AAXX 09064 67571 31970 71503 10167 20076 48510 70522 8703/
                   333 10251 20120 59004 87360
                   555 00///=
202108050600 AAXX 05064 67571 NIL=
202108040600 AAXX 04064 67571 32980 01213 10129 20032 48528 70500
                   333 10241 20099 58000=
202108030900 AAXX 03094 67571 42682 11205 10203 20054 48542 81100
                   333 59001 81830=
202108030600 AAXX 03064 67571 32980 01206 10151 20069 48529 70500
                   333 10238 20111 58001=
202108020600 AAXX 02064 67571 32980 71206 10152 20097 8703/
                   333 10198 20117 59001 87360
                   555 00///=

################################################################################
#  SYNOPS from 67575, Mkushi (Zambia) | 13-38-00S | 029-26-00E | 1237 m
################################################################################
202108311200 AAXX 31124 67575 41975 01204 10278 20047 48/// 70500
                   333 5////=
202108310600 AAXX 31064 67575 31975 00903 10172 20126 48/// 70500
                   333 10286 20122 5////
                   555 00100=
202108301200 AAXX 30124 67575 41670 11203 10274 20097 48/// 70500 81100
                   333 5////=
202108300900 AAXX 30094 67575 41970 01204 10239 20126 48/// 70500
                   333 5////=
202108250600 AAXX 25064 67575 31975 00902 10204 20139 48/// 70500
                   333 10296 20155 5////
                   555 00122=
202108231200 AAXX 23124 67575 41675 10907 10275 20155 48/// 70500 81200
                   333 5//// 81838=
202108230900 AAXX 23094 67575 41675 10906 10251 20147 48/// 70500 81100
                   333 5//// 81830=
202108230600 AAXX 23064 67575 31470 11201 10195 20155 48/// 70500 81130
                   333 10299 20416 5//// 81815 81360
                   555 00138=
202108200900 AAXX 20094 67575 41975 01303 10274 20046 48/// 70500
                   333 5////=
202108200600 AAXX 20064 67575 31975 01203 10104 20081 48/// 70500
                   333 10300 20146 5////
                   555 00127=
202108191200 AAXX 19124 67575 41675 11302 10288 20069 48/// 70500
                   333 5//// 81840=
202108190900 AAXX 19094 67575 41675 11203 10264 20082 48/// 70500 81100
                   333 5//// 81830=
202108171500 AAXX 17154 67575 41975 01302 10247 20088 48/// 70500
                   333 5//// 555 10279=
202108171200 AAXX 17124 67575 41675 11203 10269 20082 48/// 70500 81100
                   333 5//// 81837=
202108170900 AAXX 17094 67575 41675 11207 10234 20102 48/// 70500 81100
                   333 5//// 81830=
202108170600 AAXX 17064 67575 31475 10905 10157 20109 48/// 70500 81500
                   333 10262 20115 5//// 81615
                   555 00095=
202108160900 AAXX 16094 67575 NIL=
202108160600 AAXX 16064 67575 31475 11208 10149 20106 48/// 70500 81500
                   333 10256 20115 5//// 81612
                   555 00098=
202108101200 AAXX 10124 67575 NIL=
202108100600 AAXX 10064 67575 31975 00000 10109 20056 48/// 70500
                   333 10271 20047 5////
                   555 00027=
202108090900 AAXX 09094 67575 41675 11203 10234 20073 48/// 70500 81100
                   333 5//// 81830=
202108090600 AAXX 09064 67575 31970 00000 10132 20070 48/// 70500
                   333 10264 20066 5////
                   555 00039=
202108050600 AAXX 05064 67575 31975 00905 10150 20050 48/// 70500
                   333 10258 20100 555 00///=
202108040600 AAXX 04064 67575 31975 01008 10136 20042 48/// 70500
                   333 10255 20100 5////
                   555 00086=
202108030900 AAXX 03094 67575 41675 11207 10226 20055 48/// 70500 81100
                   333 5//// 81830=
202108030600 AAXX 03064 67575 31975 10903 10166 20067 48/// 70500 81030
                   333 10256 20104 5//// 81360
                   555 00088=
202108020600 AAXX 02064 67575 32980 11203 10153 20103 48/// 81030
                   333 10242 20118 5//// 81860
                   555 00104=

################################################################################
#  SYNOPS from 67580, Msekera (Zambia) | 13-39S | 032-34E | 1025 m
################################################################################
202108311200 AAXX 31124 67580 41775 10000 10314 20070 48/// 70500 81100
                   333 59008 81856=
202108310600 AAXX 31064 67580 31975 00905 10189 20139 48/// 70500
                   333 10306 20143 59002
                   555 00///=
202108301200 AAXX 30124 67580 41760 20904 10297 20110 48/// 70500 82100
                   333 58020 82850=
202108300900 AAXX 30094 67580 41660 11505 10252 20117 48/// 70500 81100
                   333 58027 81838=
202108231200 AAXX 23124 67580 41670 70604 10268 20147 48/// 72582 872//
                   333 58005 81940 87846=
202108230900 AAXX 23094 67580 41675 31207 10287 20146 48/// 70500 82130
                   333 58006 82845 81362=
202108230600 AAXX 23064 67580 31575 10906 10223 20153 48/// 70500 81130
                   333 10328 20170 58007 81820 81360
                   555 00///=
202108201200 AAXX 20124 67580 41765 71403 10299 20100 48/// 70500 87100
                   333 58006 87856=
202108200900 AAXX 20094 67580 41665 51502 10282 20093 48/// 70500 85100
                   333 59001 85842=
202108200600 AAXX 20064 67580 31965 01102 10239 20118 48/// 70500
                   333 10316 20167 59001
                   555 00///=
202108191200 AAXX 19124 67580 41770 21503 10303 20080 48/// 70500 82100
                   333 59015 82856=
202108190900 AAXX 19094 67580 41670 12402 10272 20105 48/// 70500 81100
                   333 59021 81834=
202108190600 AAXX 19064 67580 31970 00000 10208 20122 48/// 70500
                   333 10310 20117 59022
                   555 00///=
202108171500 AAXX 17154 67580 NIL=
202108171200 AAXX 17124 67580 41775 60000 10278 20124 48/// 70521 86200
                   333 59015 86850=
202108170900 AAXX 17094 67580 42675 51205 10256 20139 48/// 70511 85200
                   333 59006 85835=
202108170600 AAXX 17064 67580 11970 50000 10161 20124 48/// 69904 70510 85030
                   333 10250 20122 59001 85360
                   555 00///=
202108160900 AAXX 16094 67580 41675 61203 10229 20130 48/// 70511 85130
                   333 58007 85830 81360=
202108160600 AAXX 16064 67580 31475 51504 10165 20120 48/// 70522 81530
                   333 10272 20135 58007 81614 85360
                   555 00///=
202108101200 AAXX 10124 67580 NIL=
202108100600 AAXX 10064 67580 31975 01203 10197 20066 48/// 70500
                   333 10284 20118 59007
                   555 00///=
202108090900 AAXX 09094 67580 41675 30000 10254 20087 48/// 70500 83130
                   333 59012 83845 81362=
202108090600 AAXX 09064 67580 31975 11605 10196 20110 48/// 70500 81030
                   333 10293 20134 59010 81360
                   555 00///=
202108060600 AAXX 06064 67580 31970 00000 10168 20117 48/// 70500
                   333 10289 20099 59014
                   555 00///=
202108050600 AAXX 05064 67580 31976 00000 10165 20081 48/// 70500
                   333 10273 20108 59010
                   555 00///=
202108040600 AAXX 04064 67580 31975 01603 10150 20081 48/// 70500
                   333 10264 20102 58006=
202108030900 AAXX 03094 67580 41975 61810 10238 20035 48/// 70510 80008
                   333 58006 86281=
202108030600 AAXX 03064 67580 31970 00906 10185 20149 48/// 70500
                   333 10283 20143 58001=
202108020600 AAXX 02064 67580 31978 11203 10174 20134 48/// 70511 81030
                   333 10260 20114 59011 81360=

################################################################################
#  SYNOPS from 67581, Chipata (Zambia) | 13-33S | 032-35E | 1028 m
################################################################################
202108311200 AAXX 31124 67581 41680 10904 10304 20066 48536 70500 81100
                   333 59009 81830 91017=
202108310900 AAXX 31094 67581 42580 10000 10277 20101 48566 81100
                   333 59012 81825 91020=
202108310600 AAXX 31064 67581 32980 01604 10209 20135 48550
                   333 10//0 20155 59001
                   555 00/// 91021=
202108301200 AAXX 30124 67581 41680 21305 10284 20105 48551 70500 81100
                   333 58004 82832 91018=
202108231200 AAXX 23124 67581 41680 70905 10274 20139 48538 72582 872//
                   333 58005 81935 87840
                   555 91018=
202108230900 AAXX 23094 67581 42580 30911 10284 20148 48574 82130
                   333 58006 82822 81360 91021=
202108230600 AAXX 23064 67581 32980 10907 10244 20134 48558 81030
                   333 10//0 20213 58008 81360
                   555 00/// 91021=
202108200900 AAXX 20094 67581 42680 40905 10287 20085 48555 84100
                   333 59001 84840 91019=
202108200600 AAXX 20064 67581 32980 00907 10237 20105 48544
                   333 10//0 20180 59001
                   555 00/// 91019=
202108191200 AAXX 19124 67581 41780 20000 10299 20087 48529 70500 82100
                   333 59013 82860 91017=
202108190900 AAXX 19094 67581 42580 10905 10271 20097 48552 81100
                   333 59020 81820 91019=
202108190600 AAXX 19064 67581 32980 00906 10224 20108 48542
                   333 10//0 20127 59021
                   555 00/// 91019=
202108171500 AAXX 17154 67581 NIL=
202108171200 AAXX 17124 67581 42680 70607 10270 20114 48567 70222 872//
                   333 59012 87840 91022=
202108170900 AAXX 17094 67581 42680 63606 10260 20121 48592 70322 86200
                   333 59008 86835 91024=
202108170600 AAXX 17064 67581 12580 11707 10185 20128 48585 69904 70200 81130
                   333 10//0 20145 59002 81820 81360
                   555 00/// 91026=
202108160900 AAXX 16094 67581 42680 71709 10226 20125 48593 70200 872//
                   333 58007 87830 91026=
202108160600 AAXX 16064 67581 32980 61617 10170 20123 48586 86030
                   333 10/// 20142 58006 86360
                   555 00/// 91026=
202108101200 AAXX 10124 67581 41980 01806 10279 20044 48572 70500
                   333 58000 91021=
202108100900 AAXX 10094 67581 42980 00908 10260 20051 48579
                   333 59007 91023=
202108100600 AAXX 10064 67581 32980 00906 10205 20055 48564
                   333 10//0 20150 59009
                   555 00/// 91023=
202108091200 AAXX 09124 67581 42980 11205 10276 20065 48560 81030
                   333 59012 81360 91021=
202108090900 AAXX 09094 67581 42580 20905 10259 20058 48585 82100
                   333 59007 82828 91024=
202108090600 AAXX 09064 67581 31980 01205 10204 20099 48573 70500
                   333 10//0 20148 59007
                   555 00/// 91023=
202108060600 AAXX 06064 67581 31980 01602 10192 20109 48579 70500
                   333 10//0 20120 59014
                   555 00/// 91024=
202108050600 AAXX 05064 67581 NIL=
202108040600 AAXX 04064 67581 32980 01609 10163 20060 48595
                   333 10//0 20127 58006 91028=
202108030900 AAXX 03094 67581 42980 01418 10240 20016 48608
                   333 58006 91027=
202108030600 AAXX 03064 67581 32980 01215 10200 20035 48597
                   333 10//0 20153 58002 91027=
202108020600 AAXX 02064 67581 32980 11205 10175 20100 48589 81030
                   333 10//0 20135 59011 81360
                   555 00/// 91026=

################################################################################
#  SYNOPS from 67583, Lundazi (Zambia) | 12-17S | 033-12E | 1143 m
################################################################################
202108311200 AAXX 31124 67583 41858 10000 10300 20096 48/// 70500 81030
                   333 5//// 81358=
202108310600 AAXX 31064 67583 31957 00000 10182 20122 48/// 70500
                   333 10290 20//0 5////
                   555 00///=
202108301200 AAXX 30124 67583 41750 11802 10284 20101 48/// 70500 81100
                   333 5//// 81856=
202108250600 AAXX 25064 67583 31958 60902 10204 20124 48/// 70500 86030
                   333 10/// 20/// 5//// 86359
                   555 00///=
202108230900 AAXX 23094 67583 NIL=
202108200900 AAXX 20094 67583 NIL=
202108191200 AAXX 19124 67583 NIL=
202108190900 AAXX 19094 67583 NIL=
202108171500 AAXX 17154 67583 NIL=
202108171200 AAXX 17124 67583 41757 71502 10268 20114 48/// 70522 86130
                   333 5//// 86856 81358=
202108170900 AAXX 17094 67583 31457 11201 10188 20142 48/// 70500 81100
                   333 10252 20/// 5//// 81818
                   555 00///=
202108160900 AAXX 16094 67583 NIL=
202108160600 AAXX 16064 67583 31459 71702 10172 20130 48/// 70522 87500
                   333 10272 2//// 5//// 87615=
202108101200 AAXX 10124 67583 NIL=
202108100600 AAXX 10064 67583 31970 11702 10154 20102 48/// 70500 81032
                   333 10300 2//// 5//// 81359 81080=
202108090600 AAXX 09064 67583 31957 01003 10176 20108 48/// 70500
                   333 10278 20//0 5////
                   555 00///=
202108050600 AAXX 05064 67583 NIL=
202108040600 AAXX 04064 67583 31958 01802 10156 20079 48/// 70500
                   333 10274 20//0 5////=

################################################################################
#  SYNOPS from 67599, Mfuwe (Zambia) | 13-16S | 031-56E | 568 m
################################################################################
202108311200 AAXX 31124 67599 NIL=
202108230900 AAXX 23094 67599 NIL=
202108200900 AAXX 20094 67599 NIL=
202108200600 AAXX 20064 67599 31970 01403 10204 20087 48526 70500
                   333 10350 20125 91018=
202108191200 AAXX 19124 67599 NIL=
202108190900 AAXX 19094 67599 NIL=
202108190600 AAXX 19064 67599 31970 02102 10095 48527 70500
                   333 10340 20125 555 00100 91018=
202108171500 AAXX 17154 67599 NIL=
202108170900 AAXX 17094 67599 NIL=
202108170600 AAXX 17064 67599 31970 01402 10194 20106 48579 70500
                   333 10305 20130 59001
                   555 00110 91024=
202108160900 AAXX 16094 67599 NIL=
202108160600 AAXX 16064 67599 31970 31206 10207 20113 48588 70522 83030
                   333 10320 20155 58004 83359
                   555 00138 91024=
202108101200 AAXX 10124 67599 NIL=
202108050600 AAXX 05064 67599 NIL=

################################################################################
#  SYNOPS from 67625, Kalabo (Zambia) | 14-51S | 022-42E | 1033 m
################################################################################
202108311200 AAXX 31124 67625 NIL=
202108230900 AAXX 23094 67625 NIL=
202108200900 AAXX 20094 67625 NIL=
202108191200 AAXX 19124 67625 NIL=
202108190900 AAXX 19094 67625 NIL=
202108171500 AAXX 17154 67625 NIL=
202108170900 AAXX 17094 67625 NIL=
202108160900 AAXX 16094 67625 NIL=
202108101200 AAXX 10124 67625 NIL=
202108050600 AAXX 05064 67625 NIL=

################################################################################
#  SYNOPS from 67633, Mongu (Zambia) | 15-15S | 023-09E | 1052 m
################################################################################
202108311200 AAXX 31124 67633 NIL=
202108310900 AAXX 31094 67633 41975 06005 10287 20103 48541 70500
                   333 58003 555 91019=
202108310600 AAXX 31064 67633 31975 01103 10190 20125 48518 70500
                   333 10353 20154 59002
                   555 00113 91018=
202108301200 AAXX 30124 67633 41975 02002 10336 20076 48523 70500
                   333 59001 555 91017=
202108300900 AAXX 30094 67633 41975 00806 10282 20089 48536 70500
                   333 59007 555 91019=
202108231200 AAXX 23124 67633 41680 11205 10325 20107 48514 70500 81100
                   333 58004 91016=
202108230900 AAXX 23094 67633 NIL=
202108200900 AAXX 20094 67633 NIL=
202108200600 AAXX 20064 67633 31975 00603 10200 20078 48507 70500
                   333 10333 20132 59006
                   555 00084 91017=
202108191200 AAXX 19124 67633 41975 03306 10320 20063 48501 70500
                   333 59024 555 91014=
202108190900 AAXX 19094 67633 41975 00803 10305 20084 48530 70500
                   333 59023 91018=
202108171500 AAXX 17154 67633 42980 00000 10296 20112 48531
                   333 59014 555 10305 91018=
202108171200 AAXX 17124 67633 42980 01505 10285 20100 48540
                   333 59002 91020=
202108170900 AAXX 17094 67633 42980 00912 10250 20113 48572
                   333 58005 91024=
202108170600 AAXX 17064 67633 32980 00904 10170 20112 48554
                   333 10298 20135 58003
                   555 00115 91023=
202108160900 AAXX 16094 67633 41975 00912 10245 20117 48566 70500
                   333 58003 91023=
202108160600 AAXX 16064 67633 41975 00618 10183 20108 48553 70500
                   333 10300 20128 58002
                   555 00107 91022=
202108101200 AAXX 10124 67633 41975 00902 10285 20047 48568 70500
                   333 59009 555 91022=
202108100900 AAXX 10094 67633 41975 00902 10285 20047 48568 70500
                   333 59009 555 91022=
202108100600 AAXX 10064 67633 31975 00906 10170 20048 48544 70500
                   333 10319 20122 59006
                   555 00096 91022=
202108091200 AAXX 09124 67633 41975 00803 10305 20069 48549 70500
                   333 59007 555 91020=
202108090600 AAXX 09064 67633 31975 01004 10183 20075 48551 70500
                   333 10310 20143 59002
                   555 00115 91022=
202108050600 AAXX 05064 67633 NIL=
202108040600 AAXX 04064 67633 32980 00903 10144 20053 48564
                   333 10290 20114 58004
                   555 00076 91025=
202108030900 AAXX 03094 67633 42980 00912 10256 20075 48584
                   333 59004 91025=
202108030600 AAXX 03064 67633 32980 00902 10160 20076 48564
                   333 10277 20119 59007
                   555 00085 91024=
202108020900 AAXX 02094 67633 42980 10906 10240 20089 48577 70300 81030
                   333 59016 81360 91026=
202108020600 AAXX 02064 67633 32980 20903 10150 20102 48569 82030
                   333 10277 20115 59013 82360
                   555 00089 91025=

################################################################################
#  SYNOPS from 67641, Kaoma (Zambia) | 14-48S | 024-48E | 1213 m
################################################################################
202108311200 AAXX 31124 67641 NIL=
202108310900 AAXX 31094 67641 41960 00903 10294 20093 48529 70500
                   333 58009 91018=
202108310600 AAXX 31064 67641 31960 01202 10178 20119 48516 70500
                   333 10345 20151 58009
                   555 00/// 91018=
202108230900 AAXX 23094 67641 NIL=
202108200900 AAXX 20094 67641 41960 01402 10297 20100 48521 70500
                   333 59005 91017=
202108200600 AAXX 20064 67641 31958 00000 10136 20090 48502 70500
                   333 10328 20102 59007
                   555 00/// 91017=
202108191200 AAXX 19124 67641 NIL=
202108190900 AAXX 19094 67641 NIL=
202108190600 AAXX 19064 67641 31958 00000 10144 20087 48509 70500
                   333 10312 20122 59015
                   555 00/// 91017=
202108171500 AAXX 17154 67641 NIL=
202108170900 AAXX 17094 67641 NIL=
202108160900 AAXX 16094 67641 NIL=
202108160600 AAXX 16064 67641 31975 00000 10110 20101 48535 70500
                   333 10291 20100 59005
                   555 00/// 91022=
202108101200 AAXX 10124 67641 NIL=
202108100600 AAXX 10064 67641 31956 00000 10105 20053 48534 70500
                   333 10308 20080 59009
                   555 00/// 91022=
202108091200 AAXX 09124 67641 41970 01503 10297 20068 48539 70500
                   333 59009 91019=
202108090900 AAXX 09094 67641 41970 01305 10260 20064 48569 70500
                   333 59001 91023=
202108090600 AAXX 09064 67641 31956 00000 10102 20072 48542 70500
                   333 10293 20078 58000
                   555 00/// 91023=
202108050600 AAXX 05064 67641 31970 03601 10065 20045 48548 70500
                   333 10281 20052 58000
                   555 00/// 91024=
202108030600 AAXX 03064 67641 31978 21312 10150 20085 48557 70500 82031
                   333 10265 20072 58001 82360 81080 91021=
202108020600 AAXX 02064 67641 31960 00000 10123 20100 48559 70500
                   333 10273 20106 59012
                   555 00/// 92024=

################################################################################
#  SYNOPS from 67655, Mumbwa (Zambia) | 15-04S | 027-11E | 1216 m
################################################################################
202108311200 AAXX 31124 67655 NIL=
202108250600 AAXX 25064 67655 31980 00908 10186 20117 48541 70500
                   333 10300 20169 58005
                   555 00/// 91020=
202108230900 AAXX 23094 67655 NIL=
202108230600 AAXX 23064 67655 32980 41008 10193 20150 48542
                   333 10297 20113 58004
                   555 00/// 91021=
202108200900 AAXX 20094 67655 NIL=
202108200600 AAXX 20064 67655 31980 01005 10208 20089 48528 70500
                   333 10313 20151 59004
                   555 00/// 91019=
202108191200 AAXX 19124 67655 NIL=
202108190900 AAXX 19094 67655 NIL=
202108190600 AAXX 19064 67655 32980 00417 10202 20093 48532
                   333 10285 20070 59022
                   555 00/// 91019=
202108171500 AAXX 17154 67655 NIL=
202108170900 AAXX 17094 67655 41980 01005 10216 20104 48581 70500
                   333 58013 91025=
202108170600 AAXX 17064 67655 31980 01012 10132 20107 48566 70500
                   333 10260 20110 58002
                   555 00/// 91024=
202108160900 AAXX 16094 67655 NIL=
202108160600 AAXX 16064 67655 31980 01005 10135 20099 48567 70500
                   333 10273 20104 58003
                   555 00/// 91024=
202108101200 AAXX 10124 67655 NIL=
202108100600 AAXX 10064 67655 32980 00000 10195 20079 48560
                   333 10275 20042 59008
                   555 00/// 91023=
202108090900 AAXX 09094 67655 42980 01512 10245 20055 48578
                   333 59007 91024=
202108090600 AAXX 09064 67655 32980 00000 10144 20062 48561
                   333 10240 20010 59003
                   555 00/// 91024=
202108060600 AAXX 06064 67655 31980 01005 10109 20051 48562 70500
                   333 10262 20061 59020
                   555 00/// 91024=
202108050600 AAXX 05064 67655 32980 00000 10142 20065 48585
                   333 10260 21013 58002
                   555 00///=
202108040600 AAXX 04064 67655 32980 00914 10130 20026 48582
                   333 10245 20082 58008 91026=
202108030900 AAXX 03094 67655 41980 00905 10215 20040 48590 70500
                   333 59001 91026=
202108030600 AAXX 03064 67655 32980 01108 10140 20062 48590
                   333 10254 20//0 58001 91028=
202108020900 AAXX 02094 67655 41980 00905 10225 20115 48592 70500
                   333 59012 91026=
202108020600 AAXX 02064 67655 31980 01005 10140 20101 48581 70500
                   333 10246 20083 59019 91026=

################################################################################
#  SYNOPS from 67659, Kafue Polder (Zambia) | 15-46S | 027-55E | 978 m
################################################################################
202108311200 AAXX 31124 67659 NIL=
202108230900 AAXX 23094 67659 41975 01306 10273 20165 48/// 70500
                   333 5////=
202108200900 AAXX 20094 67659 NIL=
202108191200 AAXX 19124 67659 NIL=
202108190900 AAXX 19094 67659 NIL=
202108171500 AAXX 17154 67659 NIL=
202108170900 AAXX 17094 67659 NIL=
202108160900 AAXX 16094 67659 NIL=
202108101200 AAXX 10124 67659 NIL=
202108050600 AAXX 05064 67659 NIL=

################################################################################
#  SYNOPS from 67662, Kabwe Agric (Zambia) | 14-24S | 028-30E | 1165 m
################################################################################
202108311200 AAXX 31124 67662 NIL=
202108230900 AAXX 23094 67662 NIL=
202108200900 AAXX 20094 67662 NIL=
202108191200 AAXX 19124 67662 NIL=
202108190900 AAXX 19094 67662 NIL=
202108171500 AAXX 17154 67662 NIL=
202108170900 AAXX 17094 67662 NIL=
202108160900 AAXX 16094 67662 NIL=
202108101200 AAXX 10124 67662 NIL=
202108050600 AAXX 05064 67662 NIL=

################################################################################
#  SYNOPS from 67663, Kabwe (Zambia) | 14-27S | 028-28E | 1206 m
################################################################################
202108311200 AAXX 31124 67663 42980 00813 10283 20066 48505
                   333 58008=
202108310900 AAXX 31094 67663 42980 00906 10247 20122 48517
                   333 58009=
202108310600 AAXX 31064 67663 32980 00807 10152 20126 48504
                   333 10272 20112 59004
                   555 00209=
202108301200 AAXX 30124 67663 42980 00810 10248 20142 48495
                   333 59008=
202108300900 AAXX 30094 67663 42580 11313 10200 20142 48503 81500
                   333 59003 81620=
202108250600 AAXX 25064 67663 32980 00907 10204 20133 48532
                   333 10299 20167 58002
                   555 00239=
202108230900 AAXX 23094 67663 42480 20915 10253 20146 48541 82530
                   333 59017 82619 81360=
202108230600 AAXX 23064 67663 32980 00917 10205 20157 48543
                   333 10290 20178 59023
                   555 00224=
202108200900 AAXX 20094 67663 NIL=
202108200600 AAXX 20064 67663 32980 00905 10196 20091 48577
                   333 10293 20140 59007
                   555 00209=
202108191200 AAXX 19124 67663 42580 11811 10279 20096 48582 81100
                   333 59003 81827=
202108190900 AAXX 19094 67663 42580 10908 10255 20111 48595 81100 99004
                   333 81825=
202108171500 AAXX 17154 67663 NIL=
202108170900 AAXX 17094 67663 NIL=
202108170600 AAXX 17064 67663 32980 00910 10142 20107 48576
                   333 10252 20122 58009
                   555 00158=
202108160900 AAXX 16094 67663 42680 10613 10205 20107 48578 81100
                   333 58016 81832=
202108160600 AAXX 16064 67663 42680 61206 10232 20110 48552 86200
                   333 1//// 2//// 59008 86845=
202108101200 AAXX 10124 67663 42980 00908 10267 20073 48547
                   333 59016=
202108100900 AAXX 10094 67663 42980 00904 10250 20062 48564
                   333 59011=
202108100600 AAXX 10064 67663 32980 00903 10165 20065 48551
                   333 10260 20094 59008
                   555 00162=
202108090900 AAXX 09094 67663 42980 00908 10226 20083 48572
                   333 59012=
202108050600 AAXX 05064 67663 NIL=
202108040600 AAXX 04064 67663 32980 00906 10127 20045 48573
                   333 10250 20089 59017
                   555 00138=
202108030600 AAXX 03064 67663 32980 00906 10164 20066 48594
                   333 10252 20092 58001
                   555 00162=
202108020600 AAXX 02064 67663 32980 20907 10146 20104 48591 83030
                   333 10232 20099 58002 82360
                   555 00152=

################################################################################
#  SYNOPS from 67665, Lusaka Internationalairport (Zambia) | 15-19S | 028-27E | 1152 m
################################################################################
202108311500 AAXX 31154 67665 42980 01009 10280 20036 48527 70200
                   333 59014=
202108311200 AAXX 31124 67665 42980 09905 10278 20032 48532
                   333 59016 91019=
202108310900 AAXX 31094 67665 42980 00608 10235 20096 48553 70200
                   333 59007=
202108310600 AAXX 31064 67665 31960 01006 10145 20128 48541 70500
                   333 10246 20//0 59002
                   555 00/// 91022=
202108310300 AAXX 31034 67665 42980 01303 10106 20097 48524
                   333 58006 555 91020=
202108302100 AAXX 30214 67665 42980 01204 10141 20112 48542
                   333 58021 555 91022=
202108300900 AAXX 30094 67665 41459 70815 10186 20134 48555 70500 876//
                   333 58023 87715 91023=
202108300600 AAXX 30064 67665 31359 51012 10168 20136 48546 70500 85600
                   333 10226 20//0 58023 85708=
202108292100 AAXX 29214 67665 41970 01303 10201 20059 48529 70500
                   333 58006=
202108291800 AAXX 29184 67665 41970 01205 10225 20053 48521 70500
                   333 58008 555 91018=
202108291500 AAXX 29154 67665 41959 01010 10300 20035 48513 70500
                   333 58008 555 91016=
202108291200 AAXX 29124 67665 41959 01109 10312 20051 48521 70500
                   333 58004 555 91017=
202108290600 AAXX 29064 67665 31959 01507 10219 20045 48530 70500
                   333 10332 20//0 59006
                   555 00/// 59006=
202108282100 AAXX 28214 67665 42980 01404 10181 20042 48519 70200
                   333 59007=
202108281800 AAXX 28184 67665 41970 01404 10225 20042 48515 70500
                   333 10332 59007=
202108281500 AAXX 28154 67665 41959 51304 10307 21040 48506 70500 80006
                   333 59013 85080 555 10332=
202108281200 AAXX 28124 67665 41959 19902 10325 20010 48520 70500 80001
                   333 59009 81080=
202108280900 AAXX 28094 67665 41959 00404 10285 20046 48546 70500
                   333 59007 555 91020=
202108280600 AAXX 28064 67665 31975 01302 10195 20086 48533 70500
                   333 10300 20//0 59013
                   555 00///=
202108280300 AAXX 28034 67665 42980 01603 10147 20071 48515 70200
                   333 59009=
202108280000 AAXX 28004 67665 42980 00703 10166 20084 48518 70200
                   333 59013=
202108272100 AAXX 27214 67665 41970 01406 10181 20091 48526 70500
                   333 59013=
202108270900 AAXX 27094 67665 41959 00908 10260 20064 48549 70500
                   333 59008=
202108270000 AAXX 27004 67665 42980 00703 10166 20084 48518 70200
                   333 59013=
202108261200 AAXX 26124 67665 41970 00713 10280 20036 48530 70500
                   333 58005=
202108260900 AAXX 26094 67665 41970 00816 10259 20028 48557 70500
                   333 59001=
202108250900 AAXX 25094 67665 41970 00612 10268 20084 48559 70500
                   333 58005=
202108250600 AAXX 25064 67665 31970 01103 10189 20109 48545 70500
                   333 10286 20//0 58002
                   555 00/// 91022=
202108250300 AAXX 25034 67665 42980 01404 10155 20101 48529
                   333 58001 555 91020=
202108250000 AAXX 25004 67665 42980 01303 10159 20114 48528
                   333 59005 91020=
202108242100 AAXX 24214 67665 42980 01304 10178 20124 48539
                   333 58004 555 91021=
202108241500 AAXX 24154 67665 41759 20712 10276 20101 48527 70500 82100
                   333 59004 82857 91018=
202108240600 AAXX 24064 67665 32980 01008 10172 20129 48541
                   333 10290 20//0 59007=
202108240300 AAXX 24034 67665 42980 01204 10142 20127 48526
                   333 59002=
202108232100 AAXX 23214 67665 42980 01105 10176 20143 48543
                   333 59001=
202108231800 AAXX 23184 67665 42980 11107 10206 20141 48536 81030
                   333 58002 81360 555 91020=
202108231500 AAXX 23154 67665 41759 31013 10259 20119 48528 70500 83100
                   333 58003 83850 555 10290 91019=
202108231200 AAXX 23124 67665 41659 40914 10279 20125 48533 70500 84100
                   333 58004 84840 555 91019=
202108230900 AAXX 23094 67665 41680 40915 10251 20137 48564 70500 84101
                   333 58012 83830 83080 91023=
202108230600 AAXX 23064 67665 31959 01205 10180 20157 48549 70500
                   333 10291 20//0 58016
                   555 00///=
202108230300 AAXX 23034 67665 42980 09902 10158 20134 48530
                   333 58005=
202108222100 AAXX 22214 67665 42980 21105 10179 20137 48544 82030
                   333 59001 82360=
202108221800 AAXX 22184 67665 41965 21306 10212 20144 48534 70500 82030
                   333 10291 59002 82360=
202108221500 AAXX 22154 67665 41659 41308 10258 20128 48525 81130
                   333 59003 81845 84360
                   555 10291=
202108221200 AAXX 22124 67665 41659 40712 10288 20111 48530 84200
                   333 59007 84835=
202108220600 AAXX 22064 67665 31959 31208 10188 20119 48543 70500 83030
                   333 10280 20//0 58002 83360=
202108220300 AAXX 22034 67665 41975 61406 10166 20094 48527 70522 86030
                   333 59004 86360=
202108220000 AAXX 22004 67665 41975 01502 10139 20082 48526 70500
                   333 59001=
202108212100 AAXX 21214 67665 41975 01503 10159 20074 48542 70500
                   333 58015=
202108210900 AAXX 21094 67665 41959 00715 10263 20052 48560 70500
                   333 58016=
202108210600 AAXX 21064 67665 31959 01304 10194 20049 48542 70500
                   333 10301 58008=
202108210000 AAXX 21004 67665 41975 01502 10139 20082 48526 70500
                   333 59001=
202108201800 AAXX 20184 67665 41970 01303 10215 20010 48567 70500
                   333 10306 58005=
202108201500 AAXX 20154 67665 41970 00809 10283 20028 48515 70500
                   333 58006 555 10306=
202108201200 AAXX 20124 67665 42980 01706 10292 20005 48526 70500
                   333 58009=
202108200900 AAXX 20094 67665 41959 00807 10280 20000 48557
                   333 58001 91020=
202108200600 AAXX 20064 67665 32980 00000 10193 20063 48535
                   333 10305 20//0 59002 91020=
202108191200 AAXX 19124 67665 NIL=
202108190900 AAXX 19094 67665 41980 09902 10264 20053 48545 70500
                   333 59026 555 91021=
202108190600 AAXX 19064 67665 32980 03502 10173 20096 48534
                   333 10277 20/// 59023
                   555 00/// 91021=
202108190300 AAXX 19034 67665 42980 00000 10112 20084 48514
                   333 59023 555 91019=
202108190000 AAXX 19004 67665 42980 09902 10145 20090 48521
                   333 59027 555 91019=
202108182100 AAXX 18214 67665 42980 01503 10157 20093 48534
                   333 59027 555 91021=
202108180600 AAXX 18064 67665 32980 01207 10154 20116 48549
                   333 10261 20//0 59030=
202108172100 AAXX 17214 67665 42980 01404 10144 20106 48557
                   333 59023=
202108171800 AAXX 17184 67665 42980 01304 10178 20108 48556
                   333 59023 555 91023=
202108171500 AAXX 17154 67665 42780 10807 10245 20061 48552 81100
                   333 59017 81850 555 10261 91022=
202108171200 AAXX 17124 67665 41680 41506 10248 20079 48565 70500 84500
                   333 59008 84635 555 91023=
202108170900 AAXX 17094 67665 42680 10810 10216 20104 48592 81500
                   333 58004 81635 91027=
202108170600 AAXX 17064 67665 31980 01106 10125 20106 48580 70200
                   333 10241 20//0 58003
                   555 00/// 91027=
202108161800 AAXX 16184 67665 42980 01110 10167 20093 48578
                   333 10241 58006=
202108161500 AAXX 16154 67665 42680 21012 10228 20087 48565 82500
                   333 59004 82640 555 10241=
202108161200 AAXX 16124 67665 42680 10909 10229 20088 48570 81500
                   333 59003 81632=
202108160900 AAXX 16094 67665 42580 50815 10181 20091 48590 85500
                   333 58000 85620 91027=
202108160600 AAXX 16064 67665 32480 41109 10132 20105 48576 70300 84500
                   333 10220 20/// 58004 84610
                   555 00/// 91026=
202108160300 AAXX 16034 67665 42980 01104 10108 20088 48558
                   333 58001=
202108160000 AAXX 16004 67665 42980 01306 10128 20101 48562
                   333 58006=
202108152100 AAXX 15214 67665 42980 01105 10125 20098 48569
                   333 58000=
202108151200 AAXX 15124 67665 41670 51012 10211 20086 48570 70520 85500
                   333 59030 85635 91024=
202108150900 AAXX 15094 67665 41560 31014 10191 20093 48592 70520 83500
                   333 59005 83620=
202108141800 AAXX 14184 67665 41959 00909 10175 20071 48573 70500
                   333 10267 58016=
202108141500 AAXX 14154 67665 41995 11114 10233 20057 48568 70500 81030
                   333 59006 81360 555 10267=
202108141200 AAXX 14124 67665 41970 01017 10247 20051 48579 70500
                   333 59002=
202108140900 AAXX 14094 67665 41959 00919 10223 20040 48601 70500
                   333 58030 91028=
202108131200 AAXX 13124 67665 41980 09908 10267 20010 48550 70500
                   333 59016 555 00/// 91021=
202108130900 AAXX 13094 67665 41980 00909 10244 20030 48575 70500
                   333 58001=
202108130600 AAXX 13064 67665 31980 01502 10155 20057 48562 70500
                   333 10276 20111 58003
                   555 00/// 91024=
202108130300 AAXX 13034 67665 42980 01603 10088 20038 48538
                   333 58002 555 91022=
202108122100 AAXX 12214 67665 42980 01802 10125 20031 48547
                   333 59010 555 91023=
202108120900 AAXX 12094 67665 42980 00614 10221 20022 48571
                   333 59022=
202108120600 AAXX 12064 67665 31959 01403 10140 20050 48557 70500
                   333 10257 20//0 555 00///=
202108120300 AAXX 12034 67665 42980 01604 10087 20044 48536
                   333 59022=
202108112100 AAXX 11214 67665 42980 09901 10125 20055 48556
                   333 59004=
202108111800 AAXX 11184 67665 42980 01205 10162 20055 48550
                   333 59005 555 91023=
202108111500 AAXX 11154 67665 42980 01110 10234 20031 48550
                   333 59004 555 91022=
202108111200 AAXX 11124 67665 41980 00813 10237 20001 48562 70500
                   333 58008 555 91023=
202108101800 AAXX 10184 67665 41970 00909 10185 21015 48558 70500
                   333 10280 58003=
202108101500 AAXX 10154 67665 41980 01210 10249 21020 48556 70500
                   333 58003 555 10280=
202108101200 AAXX 10124 67665 41970 01013 10276 21032 48559 70500
                   333 59003 555 91022=
202108100900 AAXX 10094 67665 41980 01106 10250 20026 48577 70500
                   333 59014 555 91024=
202108100600 AAXX 10064 67665 32980 01502 10160 20051 48562
                   333 10278 20//0 59009
                   555 91024=
202108100300 AAXX 10034 67665 42980 01002 10098 20034 48538 70200
                   333 59006=
202108100000 AAXX 10004 67665 42980 00000 10103 20040 48546 70200
                   333 59005=
202108092100 AAXX 09214 67665 42980 00000 10115 20030 48556 70200
                   333 59006=
202108091800 AAXX 09184 67665 42980 09902 10179 20010 48555
                   333 59010=
202108091500 AAXX 09154 67665 42980 01507 10251 20030 48553
                   333 59007 555 10248=
202108091200 AAXX 09124 67665 42980 09903 10261 20015 48559
                   333 59010=
202108090900 AAXX 09094 67665 42980 01010 10236 21003 48589
                   333 59002 555 91026=
202108090600 AAXX 09064 67665 32980 01405 10170 20025 48572
                   333 10272 20//0 59007
                   555 00/// 91025=
202108081800 AAXX 08184 67665 42980 01302 10170 20025 48563 70200
                   333 10272 58001=
202108081500 AAXX 08154 67665 42980 01111 10252 21010 48560 70200
                   333 58006 555 10272=
202108081200 AAXX 08124 67665 42980 01312 10260 20012 48569 70200
                   333 58011=
202108071800 AAXX 07184 67665 42980 09901 10181 20030 48573
                   333 59003 555 91023=
202108070900 AAXX 07094 67665 42980 01012 10249 20006 48582 70200
                   333 59007=
202108070600 AAXX 07064 67665 32980 09902 10140 20061 48559
                   333 10266 20//0 59013
                   555 00/// 91024=
202108070300 AAXX 07034 67665 42980 00000 10108 20031 48542
                   333 59012 555 91023=
202108070000 AAXX 07004 67665 42980 00000 10112 20026 48550
                   333 59009 555 91023=
202108062100 AAXX 06214 67665 42980 01603 10125 20031 48559
                   333 59008 555 91024=
202108060600 AAXX 06064 67665 32980 09902 10141 20058 48572
                   333 10256 20/// 59014=
202108052100 AAXX 05214 67665 42980 01503 10122 20039 49570
                   333 59012=
202108051800 AAXX 05184 67665 42980 01403 10164 20033 48569
                   333 59013 555 10256 91025=
202108051500 AAXX 05154 67665 41980 01103 10243 21019 48566 70500
                   333 59012 555 91023=
202108051200 AAXX 05124 67665 41980 00604 10238 21016 48574 70500
                   333 59015 555 91024=
202108050600 AAXX 05064 67665 NIL=
202108041800 AAXX 04184 67665 42980 01503 10141 20002 48578
                   333 10242 59002=
202108041500 AAXX 04154 67665 42980 01308 10223 20010 48575
                   333 59008 555 10242=
202108041200 AAXX 04124 67665 42680 11010 10233 21009 48587 81100
                   333 58004 81835=
202108040600 AAXX 04064 67665 32980 01112 10133 20052 48589 70200
                   333 10250 20/// 58001
                   555 00///=
202108040000 AAXX 04004 67665 42980 01505 10099 21004 48573 70200
                   333 5////=
202108032100 AAXX 03214 67665 42980 01304 10101 20011 48578
                   333 58009=
202108031800 AAXX 03184 67665 42980 01107 10150 20009 48582
                   333 58011=
202108031200 AAXX 03124 67665 42980 00711 10243 20005 48584
                   333 58007=
202108030900 AAXX 03094 67665 42980 00918 10217 20028 48602
                   333 58002=
202108030600 AAXX 03064 67665 32980 01108 10140 20062 48590
                   333 10254 20//0 58001=
202108021800 AAXX 02184 67665 42980 01402 10162 20040 48573 70200
                   333 10254 59017=
202108021500 AAXX 02154 67665 42980 11108 10241 20025 48570 81030
                   333 59021 81360 555 10254=
202108021200 AAXX 02124 67665 42680 21005 10245 20005 48579 82100
                   333 59021 82840=
202108020900 AAXX 02094 67665 42980 01010 10210 20071 48600
                   333 59021=
202108020600 AAXX 02064 67665 32980 01105 10130 20098 48587
                   333 59022=
202108010600 AAXX 01064 67665 32480 31008 10155 20115 48609 83500
                   333 10226 20//0 59002 83612
                   555 00/// 91030=
202108010300 AAXX 01034 67665 42980 31205 10132 20101 48592 83030
                   333 59002 83360 555 91028=

################################################################################
#  SYNOPS from 67666, Lusaka City Airport (Zambia) | 15-25-00S | 028-28-00E | 1280 m
################################################################################
202108311200 AAXX 31124 67666 NIL=
202108310600 AAXX 31064 67666 31970 01208 10150 20126 48534 70500
                   333 10240 20130 58002 91021=
202108300900 AAXX 30094 67666 41975 01215 10190 20122 48546 70522
                   333 59012 91022=
202108230900 AAXX 23094 67666 NIL=
202108230600 AAXX 23064 67666 32980 00911 10190 20153 48538
                   333 10278 20175 58006
                   555 00/// 91022=
202108200900 AAXX 20094 67666 NIL=
202108200600 AAXX 20064 67666 31978 00904 10214 20056 48530 70522
                   333 10274 20146 59014
                   555 91020=
202108191200 AAXX 19124 67666 NIL=
202108190900 AAXX 19094 67666 NIL=
202108190600 AAXX 19064 67666 32980 00904 10182 20091 48528
                   333 10206 20132 58021 91020=
202108171500 AAXX 17154 67666 42980 30812 10238 20080 48542 83030
                   333 59016 83360 555 10250 91021=
202108170900 AAXX 17094 67666 42680 10713 10202 20112 48579 81100
                   333 59003 81830 91026=
202108170600 AAXX 17064 67666 32980 00915 10140 20097 48573
                   333 10230 20112 59025
                   555 00/// 91025=
202108160900 AAXX 16094 67666 42480 41015 10170 20098 48580 84200
                   333 59003 84818 91026=
202108160600 AAXX 16064 67666 32480 60916 10131 20107 48570 86500
                   333 10220 20120 58003 86610
                   555 00/// 91025=
202108101200 AAXX 10124 67666 42980 01808 10250 20040 48548
                   333 59004 91021=
202108100900 AAXX 10094 67666 41975 01802 10230 20065 48565 70500
                   333 59014 91024=
202108100600 AAXX 10064 67666 32980 01802 10180 20055 48559
                   333 10252 20100 59010
                   555 91023=
202108090600 AAXX 09064 67666 32980 00903 10154 20070 48563
                   333 10260 20100 59005
                   555 00/// 91025=
202108060600 AAXX 06064 67666 32980 01005 10160 20064 48564
                   333 10250 20110 59012
                   555 00/// 91025=
202108050600 AAXX 05064 67666 32980 01208 10148 20053 48572
                   333 10230 20110 59007
                   555 00/// 91026=
202108040600 AAXX 04064 67666 32980 01220 10132 20062 48586
                   333 10224 20098 58004 91027=
202108030600 AAXX 03064 67666 32980 00910 10152 20050 48584
                   333 10250 20110 58002 91027=
202108020600 AAXX 02064 67666 32980 00905 10144 20092 48566
                   333 10208 20110 59015
                   555 00/// 91026=

################################################################################
#  SYNOPS from 67667, Mount Makulu (Zambia) | 15-33S | 028-15E | 1213 m
################################################################################
202108311200 AAXX 31124 67667 NIL=
202108310600 AAXX 31064 67667 31970 00901 10160 20131 48587 70500
                   333 10308 20120 58004
                   555 00///=
202108230900 AAXX 23094 67667 NIL=
202108230600 AAXX 23064 67667 31970 00906 10202 20172 48600 70500
                   333 10296 20172 58004
                   555 00///=
202108200900 AAXX 20094 67667 NIL=
202108200600 AAXX 20064 67667 31970 00905 10228 20083 48586 70500
                   333 10301 20140 59005
                   555 00///=
202108191200 AAXX 19124 67667 NIL=
202108190900 AAXX 19094 67667 NIL=
202108171500 AAXX 17154 67667 NIL=
202108170900 AAXX 17094 67667 NIL=
202108170600 AAXX 17064 67667 31970 00908 10150 20120 48628 70500
                   333 10255 20110 58002
                   555 00///=
202108160900 AAXX 16094 67667 NIL=
202108160600 AAXX 16064 67667 31970 00904 10144 20129 48626 70500
                   333 10245 20112 5////
                   555 00///=
202108101200 AAXX 10124 67667 NIL=
202108100600 AAXX 10064 67667 31970 00901 10192 20089 48615 70500
                   333 10282 20058 58003
                   555 00///=
202108090600 AAXX 09064 67667 31970 00901 10180 20072 48618 70500
                   333 10280 20050 5////=
202108050600 AAXX 05064 67667 NIL=
202108040600 AAXX 04064 67667 31970 00904 10142 20092 48644 70500
                   333 10260 20080 58003=
202108030600 AAXX 03064 67667 31970 00904 10164 20072 48641 70500
                   333 10259 20058 58000=

################################################################################
#  SYNOPS from 67673, Petauke (Zambia) | 14-15S | 031-17E | 1035 m
################################################################################
202108311200 AAXX 31124 67673 41975 01002 10300 20050 48/// 70500
                   333 5////=
202108310600 AAXX 31064 67673 31975 01001 10190 20140 48/// 70500
                   333 10290 2//// 5////=
202108301200 AAXX 30124 67673 41975 00603 10280 20098 48/// 70500
                   333 5////=
202108300900 AAXX 30094 67673 41575 40903 10220 20120 48/// 70500 84100
                   333 5//// 84830=
202108250600 AAXX 25064 67673 31975 03604 10240 20165 48/// 70500
                   333 10280 20//0 5////
                   555 00///=
202108230900 AAXX 23094 67673 NIL=
202108200900 AAXX 20094 67673 NIL=
202108191200 AAXX 19124 67673 NIL=
202108190900 AAXX 19094 67673 NIL=
202108171500 AAXX 17154 67673 NIL=
202108171200 AAXX 17124 67673 41675 40000 10260 20170 48/// 70500 84200
                   333 5//// 84835=
202108170900 AAXX 17094 67673 41675 30904 10238 20162 48/// 70500
                   333 5//// 83830=
202108170600 AAXX 17064 67673 31575 20901 10180 20145 48/// 70500 82100
                   333 10250 2//// 5//// 82825
                   555 00///=
202108160900 AAXX 16094 67673 41575 50402 10224 20155 48/// 70522
                   333 5//// 85830 83360=
202108160600 AAXX 16064 67673 31575 40902 10170 20133 48/// 70500
                   333 10230 2//// 5//// 83825 84360=
202108101200 AAXX 10124 67673 NIL=
202108090900 AAXX 09094 67673 41675 10901 10250 20120 48/// 70500 81130
                   333 5//// 81835 81360=
202108090600 AAXX 09064 67673 31975 30903 10196 20120 48/// 70500 83030
                   333 10277 2//// 83360=
202108060600 AAXX 06064 67673 31975 00502 10208 20130 48/// 70500
                   333 10270 20//0 5////
                   555 00///=
202108050600 AAXX 05064 67673 NIL=
202108040600 AAXX 04064 67673 31975 00902 10170 20132 48/// 70500
                   333 10260 20//0 5////=
202108030900 AAXX 03094 67673 41975 00808 10230 20115 48/// 70500
                   333 5////=
202108030600 AAXX 03064 67673 31975 00906 10188 20110 48/// 70500
                   333 10276 20//0 5////=

################################################################################
#  SYNOPS from 67731, Senanga (Zambia) | 16-06S | 023-16E | 1027 m
################################################################################
202108311200 AAXX 31124 67731 42980 009// 10344 20069 48///
                   333 5////=
202108310900 AAXX 31094 67731 42980 010// 10304 20109 48///
                   333 5////=
202108310600 AAXX 31064 67731 31970 012// 10195 20115 48/// 70500
                   333 10349 20174 5////
                   555 00063=
202108301200 AAXX 30124 67731 41978 017// 10330 20110 48/// 70500
                   333 5////=
202108300900 AAXX 30094 67731 41978 034// 10260 20095 48/// 70500
                   333 5////=
202108231200 AAXX 23124 67731 42980 027// 10330 20103 48///
                   333 5////=
202108230900 AAXX 23094 67731 42980 033// 10281 20122 48///
                   333 5////=
202108230600 AAXX 23064 67731 32980 012// 10204 20099 48///
                   333 10340 20119 5////
                   555 00055=
202108201200 AAXX 20124 67731 42980 010// 10337 20072 48///
                   333 5////=
202108200900 AAXX 20094 67731 42980 009// 10297 20093 48///
                   333 5////=
202108200600 AAXX 20064 67731 32975 020// 10164 20079 48/// 70500
                   333 10327 20135 5////
                   555 00083=
202108191200 AAXX 19124 67731 NIL=
202108190900 AAXX 19094 67731 42980 029// 10294 20091 48///
                   333 5////=
202108171500 AAXX 17154 67731 42980 034// 10306 20098 48///
                   333 5////=
202108170900 AAXX 17094 67731 42980 008// 10265 20113 48///
                   333 5////=
202108170600 AAXX 17064 67731 32980 015// 10171 20103 48///
                   333 10292 20123 5////
                   555 00065=
202108160900 AAXX 16094 67731 NIL=
202108160600 AAXX 16064 67731 32980 010// 10153 20092 48///
                   333 10295 20106 5////
                   555 00032=
202108101200 AAXX 10124 67731 NIL=
202108100900 AAXX 10094 67731 42980 019// 10249 20107 48///
                   333 5////=
202108100600 AAXX 10064 67731 32980 012// 10182 20099 48///
                   333 10321 20088 5////
                   555 00055=
202108090900 AAXX 09094 67731 42980 003// 10239 20009 48///
                   333 5////=
202108090600 AAXX 09064 67731 31975 018// 10161 20055 48/// 70500
                   333 10315 20100 5////
                   555 00041=
202108050600 AAXX 05064 67731 32980 018// 10152 20040 48///
                   333 10290 20115 5////
                   555 00035=
202108040600 AAXX 04064 67731 31970 017// 10154 20040 48///
                   333 10291 20120 5////
                   555 00038=
202108030900 AAXX 03094 67731 42980 021// 10254 20067 48///
                   333 5////=
202108030600 AAXX 03064 67731 32980 013// 10142 20062 48///
                   333 10276 20100 5////
                   555 00027=
202108020600 AAXX 02064 67731 32980 131// 10136 20084 48/// 81030
                   333 10278 20117 5//// 81360
                   555 00037=

################################################################################
#  SYNOPS from 67741, Sesheke (Zambia) | 17-28S | 024-18E | 949 m
################################################################################
202108311200 AAXX 31124 67741 NIL=
202108300900 AAXX 30094 67741 41980 00904 10289 20137 48522 70544
                   333 5////=
202108230900 AAXX 23094 67741 NIL=
202108200900 AAXX 20094 67741 NIL=
202108191200 AAXX 19124 67741 NIL=
202108190900 AAXX 19094 67741 NIL=
202108171500 AAXX 17154 67741 NIL=
202108170900 AAXX 17094 67741 NIL=
202108160900 AAXX 16094 67741 NIL=
202108101200 AAXX 10124 67741 NIL=
202108050600 AAXX 05064 67741 NIL=

################################################################################
#  SYNOPS from 67743, Livingstone (Zambia) | 17-49S | 025-49E | 985 m
################################################################################
202108311200 AAXX 31124 67743 NIL=
202108310900 AAXX 31094 67743 41960 01105 10272 20115 48545 70500
                   333 59004 91019=
202108301200 AAXX 30124 67743 41975 01110 10295 20128 48523 70500
                   333 58000 91016=
202108300900 AAXX 30094 67743 41975 00809 10236 20124 48543 70500
                   333 59002 91020=
202108230900 AAXX 23094 67743 NIL=
202108200900 AAXX 20094 67743 NIL=
202108191200 AAXX 19124 67743 NIL=
202108190900 AAXX 19094 67743 NIL=
202108171500 AAXX 17154 67743 NIL=
202108170900 AAXX 17094 67743 41975 01009 10238 20102 48584 70500
                   333 59005 91025=
202108170600 AAXX 17064 67743 31975 01008 10154 20098 48570 70500
                   333 10272 20097 59005
                   555 00/// 91025=
202108161200 AAXX 16124 67743 42980 01012 10260 20074 48564
                   333 58000 91022=
202108160900 AAXX 16094 67743 NIL=
202108160600 AAXX 16064 67743 31975 10907 10170 20108 48579 70500 81030
                   333 10275 20110 58000 81360
                   555 00/// 91026=
202108101200 AAXX 10124 67743 NIL=
202108100600 AAXX 10064 67743 31970 01202 10155 20045 48445 70500
                   333 10301 20075 59018
                   555 00/// 91022=
202108091200 AAXX 09124 67743 41975 00802 10286 20056 48560 70500
                   333 59014 91021=
202108090900 AAXX 09094 67743 41975 01206 10258 20072 48580 70500
                   333 59012 91024=
202108090600 AAXX 09064 67743 31975 00603 10166 20069 48565 70500
                   333 10294 20034 59003 91024=
202108050600 AAXX 05064 67743 NIL=
202108030900 AAXX 03094 67743 41975 01307 10223 20064 48592 70500
                   333 59005 91026=
202108030600 AAXX 03064 67743 31975 00603 10138 20058 48577 70500
                   333 10272 20066 59008 91026=
202108020900 AAXX 02094 67743 41675 21607 10238 20080 48600 70500 82100
                   333 59020 82830 91027=
202108020600 AAXX 02064 67743 31975 11403 10132 20081 48582 70500 81030
                   333 10256 20059 59014 81360
                   555 00/// 91027=

################################################################################
#  SYNOPS from 67751, Magoye (Zambia) | 16-00S | 027-36E | 1018 m
################################################################################
202108311200 AAXX 31124 67751 NIL=
202108310900 AAXX 31094 67751 41978 01005 10272 20108 48/// 70500
                   333 5////=
202108301200 AAXX 30124 67751 41978 00709 10284 20070 48/// 70500
                   333 5////=
202108300900 AAXX 30094 67751 41978 00906 10245 20125 48/// 70500
                   333 5////=
202108231200 AAXX 23124 67751 42780 41107 10285 20131 48/// 84200
                   333 5//// 84856=
202108230900 AAXX 23094 67751 42980 10311 10273 20149 48/// 81100
                   333 5//// 81849=
202108230600 AAXX 23064 67751 31978 00903 10220 20153 48/// 70500
                   333 10//0 20150 5////
                   555 00///=
202108200900 AAXX 20094 67751 42980 01902 10295 20080 48///
                   333 5////=
202108200600 AAXX 20064 67751 32980 00000 10191 20061 48///
                   333 10//0 20097 5////
                   555 00///=
202108191200 AAXX 19124 67751 NIL=
202108190900 AAXX 19094 67751 NIL=
202108171500 AAXX 17154 67751 NIL=
202108170900 AAXX 17094 67751 NIL=
202108170600 AAXX 17064 67751 32980 00806 10176 20112 48///
                   333 1//// 2//// 5//// 10097 5////
                   555 00///=
202108160900 AAXX 16094 67751 NIL=
202108160600 AAXX 16064 67751 32980 01109 10179 20115
                   333 10/// 20103 5////
                   555 00///=
202108101200 AAXX 10124 67751 NIL=
202108050600 AAXX 05064 67751 NIL=
202108040600 AAXX 04064 67751 32980 00908 10172 20080 48///
                   333 10//0 20077 5////=
202108030900 AAXX 03094 67751 42980 01008 10244 20062 48///
                   333 5////=
202108030600 AAXX 03064 67751 32980 00000 10134 20087 48///
                   333 10//0 20065 5////=
202108020600 AAXX 02064 67751 32980 10000 10181 20095 48/// 81030
                   333 10//0 20051 5//// 81360
                   555 00///=

################################################################################
#  SYNOPS from 67753, Choma (Zambia) | 16-50S | 027-04E | 1213 m
################################################################################
202108311200 AAXX 31124 67753 NIL=
202108310600 AAXX 31064 67753 32980 00000 10193 20120 48528
                   333 10284 20092 59007
                   555 00///=
202108230900 AAXX 23094 67753 NIL=
202108230600 AAXX 23064 67753 31980 00000 10200 20154 48549 70500
                   333 10281 20145 58010
                   555 00///=
202108201200 AAXX 20124 67753 41980 01008 10291 20071 48514 70500
                   333 58008 91016=
202108200900 AAXX 20094 67753 41980 00602 10281 20091 48536 70500
                   333 58004=
202108200600 AAXX 20064 67753 31980 00000 10196 20076 48529 70500
                   333 10299 20086 58000
                   555 00///=
202108191200 AAXX 19124 67753 41980 00612 10289 20074 48508 70500
                   333 59021=
202108190900 AAXX 19094 67753 41980 02104 10264 20100 48534 70500
                   333 59027=
202108171500 AAXX 17154 67753 42980 00000 10234 20105 48542
                   333 59022 555 10250=
202108170900 AAXX 17094 67753 41980 02603 10206 20112 48578 70500
                   333 58012=
202108170600 AAXX 17064 67753 31980 00000 10131 20103 48571 70500
                   333 10234 20074 58002=
202108161200 AAXX 16124 67753 40308 4//// 10219 20104 48559 70500 84100
                   333 59004 84845=
202108160900 AAXX 16094 67753 NIL=
202108160600 AAXX 16064 67753 31980 00602 10148 20109 48578 70500
                   333 10229 20086 59004
                   555 00///=
202108101200 AAXX 10124 67753 41980 00812 10264 20020 48553 70500
                   333 58000=
202108100900 AAXX 10094 67753 41980 01006 10254 20033 48573 70500
                   333 59006=
202108100600 AAXX 10064 67753 31980 00000 10139 20066 48552 70500
                   333 10274 20058 59010
                   555 00///=
202108090900 AAXX 09094 67753 41980 00804 10242 20080 48581 70500
                   333 59010=
202108090600 AAXX 09064 67753 31980 00000 10110 20069 48559 70500
                   333 10264 20060 59005=
202108050600 AAXX 05064 67753 31980 00000 10085 20034 48576 70500
                   333 10234 20038 59005
                   555 00///=
202108040600 AAXX 04064 67753 31980 00000 10112 20049 48578 70500
                   333 10249 20056 58011=
202108030900 AAXX 03094 67753 42680 11806 10221 20101 48589 81100
                   333 59001 81845=
202108030600 AAXX 03064 67753 31980 00000 10129 20075 48571 70500
                   333 10241 20048 59008=
202108020600 AAXX 02064 67753 31980 30000 10101 20082 48577 70500 83030
                   333 10224 20074 59018 83360
                   555 00///=

################################################################################
#  SYNOPS from 67855, Lupaki (Zambia) | 17-03-00S | 024-46-00E | 1000 m
################################################################################
202108310900 AAXX 31094 67855 42980 03203 10267 20123 3//// 48///
                   333 5////=
202108300900 AAXX 30094 67855 42980 03104 10234 20123 3//// 48///
                   333 5////=
202108280900 AAXX 28094 67855 41970 03204 10295 20127 3//// 48/// 70500
                   333 5////=
202108260900 AAXX 26094 67855 42980 03106 10284 20052 3//// 48///
                   333 5////=
202108251500 AAXX 25154 67855 42780 10902 10320 20123 3//// 48/// 81100
                   333 5//// 81850=
202108241500 AAXX 24154 67855 42780 32602 10302 20134 3//// 48/// 83100
                   333 5//// 83850=
202108240900 AAXX 24094 67855 42980 03504 10282 20066 3//// 48///
                   333 5////=
202108191500 AAXX 19154 67855 42980 03202 10301 20054 3//// 48///
                   333 5////=
202108190900 AAXX 19094 67855 42980 03501 10268 20086 3//// 48///
                   333 5////=
202108180900 AAXX 18094 67855 42980 03501 10224 20094 3//// 48///
                   333 5////=
202108171500 AAXX 17154 67855 42980 00701 10265 20098 3//// 48///
                   333 5////=
202108170900 AAXX 17094 67855 42980 00902 10217 20107 3//// 48///
                   333 5////=
202108131500 AAXX 13154 67855 42980 03201 10301 20054 3//// 48///
                   333 5////=
202108130900 AAXX 13094 67855 42980 03103 10250 20095 3//// 48///
                   333 5////=
202108121500 AAXX 12154 67855 42980 00902 10273 20091 3//// 48///
                   333 5////=
202108120900 AAXX 12094 67855 42980 03104 10250 20056 3//// 48///
                   333 5////=
202108110900 AAXX 11094 67855 42980 01304 10216 20091 3//// 48///
                   333 5////=
202108071500 AAXX 07154 67855 42980 00902 10292 20028 3//// 48///
                   333 5////=
202108070900 AAXX 07094 67855 42980 03203 10234 20040 3//// 48///
                   333 5////=
202108050900 AAXX 05094 67855 42980 03202 10214 20072 3//// 48///
                   333 5////=
202108040900 AAXX 04094 67855 42980 01503 10216 20071 3//// 48///
                   333 5////=
