################################################################################
# Query made at 04/14/2022 02:51:42 UTC
# Country like Zamb*
# Time interval: from 06/01/2018 05:30  to 07/01/2018 06:30  UTC
################################################################################

################################################################################
#  SYNOPS from 67403, Kawambwa (Zambia) | 09-48S | 029-05E | 1323 m
################################################################################
201806261200 AAXX 26124 67403 NIL=
201806260900 AAXX 26094 67403 NIL=
201806260600 AAXX 26064 67403 31975 21403 10171 20123 48536 70500 82031
                   333 10278 20140 58000 82360 81080=
201806080600 AAXX 08064 67403 32980 20908 10142 20067 48560 80001
                   333 10250 20099 58000 82080
                   555 00094=
201806060600 AAXX 06064 67403 31375 70910 10124 20103 48552 70520 875//
                   333 10240 20100 58008 87608
                   555 00096=
201806050600 AAXX 05064 67403 31975 10905 10137 20067 48546 70500 80001
                   333 10261 20094 58003 81080
                   555 00087=
201806040600 AAXX 04064 67403 31975 00903 10165 20057 48546 70500
                   333 10230 20102 5////
                   555 00098=
201806010900 AAXX 01094 67403 NIL=
201806010600 AAXX 01064 67403 31975 00903 10187 20116 48540 70500
                   333 10294 20152 59004
                   555 00125=

################################################################################
#  SYNOPS from 67413, Mbala (Zambia) | 08-51S | 031-20E | 1673 m
################################################################################
201806261200 AAXX 26124 67413 NIL=
201806260900 AAXX 26094 67413 NIL=
201806080600 AAXX 08064 67413 NIL=
201806060600 AAXX 06064 67413 NIL=
201806010900 AAXX 01094 67413 NIL=
201806010600 AAXX 01064 67413 NIL=

################################################################################
#  SYNOPS from 67441, Mwinilunga (Zambia) | 11-45S | 024-26E | 1361 m
################################################################################
201806261200 AAXX 26124 67441 NIL=
201806260900 AAXX 26094 67441 NIL=
201806260600 AAXX 26064 67441 32960 41402 10120 20086 48/// 84010
                   333 10260 20050=
201806080600 AAXX 08064 67441 32960 01303 10090 20038 48///
                   333 10240 20070 5////=
201806070600 AAXX 07064 67441 32960 01302 10100 20049 48///
                   333 10250 20070 5////=
201806060600 AAXX 06064 67441 NIL=
201806050600 AAXX 05064 67441 32960 01403 10100 20065 48///
                   333 10230 20090 5////=
201806010900 AAXX 01094 67441 NIL=
201806010600 AAXX 01064 67441 NIL=

################################################################################
#  SYNOPS from 67461, Mansa (Zambia) | 11-06S | 028-51E | 1382 m
################################################################################
201806261200 AAXX 26124 67461 NIL=
201806260900 AAXX 26094 67461 NIL=
201806260600 AAXX 26064 67461 32980 11011 10164 20132 48540 81030
                   333 10260 20118 59001 81360 91021=
201806080600 AAXX 08064 67461 32980 11005 10123 20074 48528 80001
                   333 10227 20059 59002 81080 91025=
201806070600 AAXX 07064 67461 32980 00805 10119 20076 48567
                   333 10228 20058 58007 91025=
201806060600 AAXX 06064 67461 32480 21010 10131 20103 48562 82500
                   333 10238 20065 58005 82616 91024=
201806040600 AAXX 04064 67461 32980 01209 10145 20098 48550
                   333 10268 20099 58002 91023=
201806010900 AAXX 01094 67461 NIL=
201806010600 AAXX 01064 67461 31980 00603 10170 20140 48551 72844
                   333 10272 20107 58011 91023=

################################################################################
#  SYNOPS from 67469, Samfya (Zambia) | 11-22S | 029-54E | 1171 m
################################################################################
201806261200 AAXX 26124 67469 NIL=
201806260900 AAXX 26094 67469 NIL=
201806260600 AAXX 26064 67469 32480 11108 10185 20130 48/// 81100
                   333 10232 20143 5//// 81818=
201806080600 AAXX 08064 67469 32980 11609 10165 20100 48/// 81030
                   333 10211 20110 5//// 81360=
201806070600 AAXX 07064 67469 32980 01410 10160 20110 48///
                   333 10205 20120 5////=
201806060600 AAXX 06064 67469 NIL=
201806050600 AAXX 05064 67469 32980 11408 10170 20120 48/// 81030
                   333 10260 20130 5//// 81360=
201806010900 AAXX 01094 67469 NIL=
201806010600 AAXX 01064 67469 32980 01105 10205 20160 48///
                   333 10250 20148 5////=

################################################################################
#  SYNOPS from 67475, Kasama (Zambia) | 10-13S | 031-08E | 1382 m
################################################################################
201806261200 AAXX 26124 67475 NIL=
201806260900 AAXX 26094 67475 NIL=
201806260600 AAXX 26064 67475 31960 60807 10167 20104 48555 70522 85071
                   333 10260 20114 58006 85360 81080 91024=
201806080600 AAXX 08064 67475 31960 40504 10146 20060 48573 70510 80008
                   333 10232 20071 58000 84280 91026=
201806060600 AAXX 06064 67475 31360 31315 10131 20100 48567 70500 83600
                   333 10236 20089 58011 83708 91026=
201806050600 AAXX 05064 67475 31960 11413 10140 20066 48557 70521 80001
                   333 10248 20081 58001 81080 91024=
201806040600 AAXX 04064 67475 31960 01608 10152 20035 48557 70500
                   333 10264 20073 59003 91024=
201806010900 AAXX 01094 67475 NIL=
201806010600 AAXX 01064 67475 32960 0//05 10180 20130 48555 70200
                   333 10280 20110 59004 91024=

################################################################################
#  SYNOPS from 67476, Misamfu (Zambia) | 10-06S | 031-15E | 1536 m
################################################################################
201806261200 AAXX 26124 67476 42780 21806 10241 20102 48/// 70321 81230
                   333 5//// 81850 82360=
201806260900 AAXX 26094 67476 NIL=
201806260600 AAXX 26064 67476 32980 21308 10165 20154 48/// 70200 82030
                   333 10257 20095 5//// 82360=
201806080600 AAXX 08064 67476 32980 00905 10170 20141 48///
                   333 10266 20061 58002=
201806060600 AAXX 06064 67476 32980 01002 10167 20132 48///
                   333 10267 20095 58002=
201806010900 AAXX 01094 67476 NIL=
201806010600 AAXX 01064 67476 NIL=

################################################################################
#  SYNOPS from 67477, Mpika (Zambia) | 11-54S | 031-26E | 1400 m
################################################################################
201806261200 AAXX 26124 67477 NIL=
201806260900 AAXX 26094 67477 NIL=
201806260600 AAXX 26064 67477 32480 41206 10152 20130 48559 82501
                   333 10238 20123 59003 82610 82359
                   555 00114=
201806080600 AAXX 08064 67477 32480 11203 10139 20080 48577 81100
                   333 10203 20043 59005 81810
                   555 00047=
201806060600 AAXX 06064 67477 32480 50902 10118 20090 48579 85500
                   333 10201 20087 58012=
201806040600 AAXX 04064 67477 32980 00902 10149 20100 48560
                   333 10250 20071 58002
                   555 00062=
201806010900 AAXX 01094 67477 NIL=
201806010600 AAXX 01064 67477 32980 00604 10188 20130 48564
                   333 10254 20136 59001
                   555 00139=

################################################################################
#  SYNOPS from 67481, Isoka (Zambia) | 10-07S | 032-38E | 1360 m
################################################################################
201806261200 AAXX 26124 67481 NIL=
201806260900 AAXX 26094 67481 NIL=
201806260600 AAXX 26064 67481 31978 63002 10156 20121 48/// 70522 86030
                   333 10258 20116 58002 86360=
201806080600 AAXX 08064 67481 32980 13003 10142 20102 48/// 80001
                   333 10212 20072 58006 81080=
201806060600 AAXX 06064 67481 32380 82403 10132 20100 48/// 88500
                   333 10210 20088 58001 88607=
201806050600 AAXX 05064 67481 32480 53004 10150 20072 48/// 85500
                   333 10240 20090 58002 85610=
201806040600 AAXX 04064 67481 32980 00306 10168 20082 48///
                   333 10268 20100 59003=
201806010900 AAXX 01094 67481 NIL=
201806010600 AAXX 01064 67481 31978 02702 10200 20150 48/// 70500
                   333 10264 20116 59003=

################################################################################
#  SYNOPS from 67531, Zambezi (Zambia) | 13-32S | 023-07E | 1077 m
################################################################################
201806261200 AAXX 26124 67531 NIL=
201806260900 AAXX 26094 67531 NIL=
201806260600 AAXX 26064 67531 32980 30000 10140 20106 48/// 70200 83030
                   333 10281 20080 58003 83362
                   555 00090=
201806080600 AAXX 08064 67531 32980 01202 10096 20066 48///
                   333 10250 20017 58000
                   555 00025=
201806060600 AAXX 06064 67531 32980 21304 10121 20069 48/// 70200 80001
                   333 10250 20061 58014 82080
                   555 00050=
201806050600 AAXX 05064 67531 32980 01106 10122 20064 48/// 70200
                   333 10265 20051 58012
                   555 00042=
201806040600 AAXX 04064 67531 32980 10000 10136 20100 48/// 81030
                   333 10290 20065 59006 81362
                   555 00072=
201806010900 AAXX 01094 67531 NIL=
201806010600 AAXX 01064 67531 32980 10902 10142 20106 48/// 81030
                   333 10291 20088 58003 81362
                   555 00080=

################################################################################
#  SYNOPS from 67541, Kasempa (Zambia) | 13-32S | 025-51E | 1234 m
################################################################################
201806261200 AAXX 26124 67541 NIL=
201806260900 AAXX 26094 67541 NIL=
201806260600 AAXX 26064 67541 32980 70000 10165 20121 48539 70222 87030
                   333 10270 20098 58004 87360=
201806080600 AAXX 08064 67541 32980 00000 10085 20061 48548
                   333 10238 20010 58004=
201806060600 AAXX 06064 67541 32980 10000 10115 20086 48546 70222 80001
                   333 10240 20070 59001 81080=
201806050600 AAXX 05064 67541 32980 10803 10145 20071 48547 70222 80001
                   333 10270 20088 58010 81080=
201806040600 AAXX 04064 67541 32980 10000 10105 20086 48537 70222 80001
                   333 10270 20052 58005 81080=
201806010900 AAXX 01094 67541 NIL=
201806010600 AAXX 01064 67541 32980 70000 10120 20111 48536 70222 87030
                   333 10286 20060 59001 87360=

################################################################################
#  SYNOPS from 67543, Kabompo (Zambia) | 13-36S | 024-12E | 1075 m
################################################################################
201806261200 AAXX 26124 67543 NIL=
201806260900 AAXX 26094 67543 NIL=
201806260600 AAXX 26064 67543 31965 70000 10152 20114 48/// 70522 87030
                   333 10278 20138 58004 87360=
201806080600 AAXX 08064 67543 31970 00000 10096 20064 48/// 70500
                   333 10252 20060 59003=
201806070600 AAXX 07064 67543 31970 00000 10088 20065 48/// 70500
                   333 10250 20058 58002=
201806060600 AAXX 06064 67543 31968 20000 10090 20061 48/// 70512 80001
                   333 10268 20050 58013 82080=
201806050600 AAXX 05064 67543 31965 00000 10100 20049 48/// 70500
                   333 10300 20064 58011=
201806040600 AAXX 04064 67543 31965 00000 10114 20095 48/// 70500
                   333 10296 20090 59006=
201806010900 AAXX 01094 67543 NIL=
201806010600 AAXX 01064 67543 31968 70000 10152 20094 48/// 70222 87030
                   333 10294 20118 58006 87360
                   555 00094=

################################################################################
#  SYNOPS from 67551, Solwezi (Zambia) | 12-11S | 026-23E | 1386 m
################################################################################
201806261200 AAXX 26124 67551 NIL=
201806260900 AAXX 26094 67551 NIL=
201806080600 AAXX 08064 67551 32965 00903 10098 20059 48566
                   333 10229 2//// 59006
                   555 00100 91026=
201806070600 AAXX 07064 67551 32980 00906 10109 20054 48570
                   333 10235 20//0 58009
                   555 00114 91025=
201806060600 AAXX 06064 67551 32975 11007 10107 20076 48561 80001
                   333 10226 20//0 58006 81080
                   555 00113 91024=
201806050600 AAXX 05064 67551 32970 00805 10118 20050 48557
                   333 10240 20//0 58003
                   555 00118 91024=
201806040600 AAXX 04064 67551 32980 00000 10111 20109 48553
                   333 10279 20/// 59008
                   555 00120 91024=
201806010900 AAXX 01094 67551 NIL=
201806010600 AAXX 01064 67551 31957 01004 10132 20110 48550 71010
                   333 10279 20//0 58002
                   555 00139 91023=

################################################################################
#  SYNOPS from 67561, Ndola (Zambia) | 13-00S | 028-39E | 1269 m
################################################################################
201806261200 AAXX 26124 67561 NIL=
201806260900 AAXX 26094 67561 NIL=
201806260600 AAXX 26064 67561 31970 20000 10151 20118 48551 70500 82030
                   333 10257 20101 58005 82360 91023=
201806080600 AAXX 08064 67561 31958 00000 10113 20074 48573 70400
                   333 10225 20040 59002 91026=
201806070600 AAXX 07064 67561 31975 00605 10112 20060 48576 70500
                   333 10222 20145 58004 91027=
201806060600 AAXX 06064 67561 31975 11308 10143 20084 48574 70500 81030
                   333 10216 20101 59001 81360 91026=
201806050600 AAXX 05064 67561 31965 21410 10146 20057 48571 70500 80001
                   333 10246 20080 58011 82080 91026=
201806040600 AAXX 04064 67561 31960 00000 10139 20087 48560 70500
                   333 10256 20076 59001 91025=
201806010900 AAXX 01094 67561 NIL=
201806010600 AAXX 01064 67561 NIL=

################################################################################
#  SYNOPS from 67563, Kafironda (Zambia) | 12-36S | 028-07E | 1243 m
################################################################################
201806261200 AAXX 26124 67563 NIL=
201806260900 AAXX 26094 67563 NIL=
201806260600 AAXX 26064 67563 31970 20808 10150 20110 48/// 70500 82030
                   333 10275 20080 58011 82360
                   555 00076=
201806080600 AAXX 08064 67563 31960 00302 10080 20060 48/// 70500
                   333 10240 20000 58004
                   555 00000=
201806070600 AAXX 07064 67563 31950 01202 10074 20050 48/// 70500
                   333 10240 20011 58001
                   555 00007=
201806060600 AAXX 06064 67563 NIL=
201806050600 AAXX 05064 67563 31960 10802 10100 20080 48/// 70500 81030
                   333 10250 20020 58015 81362
                   555 00020=
201806040600 AAXX 04064 67563 31850 00402 10142 20110 48/// 70540
                   333 10273 20050 59008
                   555 00049=
201806010900 AAXX 01094 67563 NIL=
201806010600 AAXX 01064 67563 NIL=

################################################################################
#  SYNOPS from 67571, Serenje (Zambia) | 13-14S | 030-13E | 1384 m
################################################################################
201806261200 AAXX 26124 67571 42678 10910 10228 20086 48/// 70500 81100
                   333 5//// 81835=
201806260900 AAXX 26094 67571 42578 10905 10210 20114 48/// 70500 81130
                   333 5//// 81820 81360=
201806260600 AAXX 26064 67571 31375 21207 10155 20119 48/// 70500 81630
                   333 10242 20126 5//// 81708 82360
                   555 00170=
201806251200 AAXX 25124 67571 42677 11203 10234 20094 48/// 70500 81130
                   333 5//// 81845 81360=
201806080900 AAXX 08094 67571 42982 01207 10185 20049 48///
                   333 5////=
201806080600 AAXX 08064 67571 NIL=
201806060900 AAXX 06094 67571 42682 11506 10157 20061 48/// 70100 81500
                   333 5//// 81632=
201806060600 AAXX 06064 67571 32582 70904 10114 20074 48/// 70222 875//
                   333 10194 20082 5//// 87620
                   555 00137=
201806051200 AAXX 05124 67571 42782 51208 10184 20059 48/// 70122 85500
                   333 5//// 85650=
201806050900 AAXX 05094 67571 41575 61512 10171 20049 48/// 70733 86500
                   333 5//// 86628=
201806041200 AAXX 04124 67571 42682 11509 10209 20050 48/// 70200 81100
                   333 5//// 81830=
201806040900 AAXX 04094 67571 42982 00908 10207 20049 48///
                   333 5////=
201806011200 AAXX 01124 67571 42778 21503 10259 20099 48/// 70500 82100
                   333 5//// 82856=
201806010900 AAXX 01094 67571 NIL=
201806010600 AAXX 01064 67571 31975 01204 10196 20101 48/// 70500
                   333 10264 20151 5////
                   555 00236=

################################################################################
#  SYNOPS from 67575, Mkushi (Zambia) | 13-38-00S | 029-26-00E | 1237 m
################################################################################
201806261200 AAXX 26124 67575 NIL=
201806260900 AAXX 26094 67575 NIL=
201806260600 AAXX 26064 67575 32480 10905 10154 20120 48514 81500
                   333 10262 20114 58005 81615
                   555 00088=
201806080600 AAXX 08064 67575 31975 11203 10113 20061 48533 70500 80001
                   333 10227 20032 58000 81080
                   555 00008=
201806060600 AAXX 06064 67575 31475 41202 10120 20092 48538 70510 84530
                   333 10211 20070 58012 84613 81360
                   555 00032=
201806050600 AAXX 05064 67575 31475 51103 10146 20069 48530 70521 81508
                   333 10245 20047 58011 81612 85280
                   555 00026=
201806040600 AAXX 04064 67575 31975 00901 10137 20084 48519 70500
                   333 10254 20050 58007
                   555 00040=
201806010900 AAXX 01094 67575 NIL=
201806010600 AAXX 01064 67575 31975 10901 10165 20112 48516 70500 81030
                   333 10284 20073 58000 81360
                   555 00066=

################################################################################
#  SYNOPS from 67580, Msekera (Zambia) | 13-39S | 032-34E | 1025 m
################################################################################
201806261200 AAXX 26124 67580 NIL=
201806260900 AAXX 26094 67580 42980 40902 10226 20131 48/// 84030
                   333 58012 84361=
201806260600 AAXX 26064 67580 32980 71603 10158 20127 48/// 87030
                   333 10270 20132 58004 87360=
201806250900 AAXX 25094 67580 42680 61203 10240 20136 48/// 86100
                   333 5//// 86840=
201806080600 AAXX 08064 67580 NIL=
201806060900 AAXX 06094 67580 42680 11509 10177 20066 48/// 81100
                   333 58015 81830=
201806060600 AAXX 06064 67580 32580 11509 10137 20065 48/// 81100
                   333 10230 20090 58013 81820=
201806050900 AAXX 05094 67580 42680 71506 10190 20099 48/// 87100
                   333 5//// 87836=
201806050600 AAXX 05064 67580 32580 11305 10158 20109 48/// 81800
                   333 10298 20072 5//// 81820 81622=
201806010900 AAXX 01094 67580 42680 11202 10258 20125 48/// 81100
                   333 59006 81848=
201806010600 AAXX 01064 67580 32980 01203 10192 20124 48///
                   333 10300 20136 58005=

################################################################################
#  SYNOPS from 67581, Chipata (Zambia) | 13-33S | 032-35E | 1028 m
################################################################################
201806261200 AAXX 26124 67581 NIL=
201806260900 AAXX 26094 67581 NIL=
201806260600 AAXX 26064 67581 31958 71503 10179 20119 48572 70522 87030
                   333 10268 20139 58005 87360 91024=
201806080600 AAXX 08064 67581 NIL=
201806070600 AAXX 07064 67581 32980 01203 10152 20109 48591
                   333 10239 20095 58003 91027=
201806060600 AAXX 06064 67581 NIL=
201806050600 AAXX 05064 67581 31660 11608 10168 20062 48580
                   333 10261 20079 58016 91021=
201806040600 AAXX 04064 67581 31960 01605 10177 20101 48568 70500
                   333 10287 20076 59005 91023=
201806010900 AAXX 01094 67581 NIL=
201806010600 AAXX 01064 67581 32980 01203 10201 20100 48573
                   333 10286 20104 58000 91023=

################################################################################
#  SYNOPS from 67583, Lundazi (Zambia) | 12-17S | 033-12E | 1143 m
################################################################################
201806261200 AAXX 26124 67583 NIL=
201806260900 AAXX 26094 67583 NIL=
201806260600 AAXX 26064 67583 31959 60000 10168 20155 48/// 70521 86030
                   333 10292 2//// 5//// 86360=
201806080600 AAXX 08064 67583 31959 01201 10122 20100 48/// 70500
                   333 10244 2//// 5////=
201806070600 AAXX 07064 67583 31959 01702 10116 20085 48/// 70500
                   333 10236 2//// 5////=
201806060600 AAXX 06064 67583 31970 11202 10126 20077 48/// 70500 81030
                   333 10260 20//0 5//// 81360=
201806050600 AAXX 05064 67583 31959 11803 10144 20098 48/// 70500 80001
                   333 10300 20//0 5//// 81080=
201806040600 AAXX 04064 67583 31975 00000 10104 20090 48/// 70500
                   333 10282 20//0 5////=
201806010900 AAXX 01094 67583 NIL=
201806010600 AAXX 01064 67583 31975 00000 10150 20142 48/// 70500
                   333 10306 2//// 5////=

################################################################################
#  SYNOPS from 67599, Mfuwe (Zambia) | 13-16S | 031-56E | 568 m
################################################################################
201806261200 AAXX 26124 67599 NIL=
201806260900 AAXX 26094 67599 NIL=
201806260600 AAXX 26064 67599 32980 50000 10170 20136 48561 85030
                   333 10315 20140 58009 85360
                   555 00135 91023=
201806080600 AAXX 08064 67599 NIL=
201806060600 AAXX 06064 67599 32980 01306 10170 20098 48582
                   333 10285 20092 58025
                   555 00095 91026=
201806050600 AAXX 05064 67599 32980 01406 10199 20094 48578
                   333 10293 20125 58011 91024=
201806040600 AAXX 04064 67599 32980 00000 10136 20079 48544
                   333 10306 20069 59001
                   555 00060 91023=
201806010900 AAXX 01094 67599 NIL=
201806010600 AAXX 01064 67599 31980 00000 10184 20124 48556
                   333 10330 20122 59002
                   555 00116 91022=

################################################################################
#  SYNOPS from 67625, Kalabo (Zambia) | 14-51S | 022-42E | 1033 m
################################################################################
201806261200 AAXX 26124 67625 NIL=
201806260900 AAXX 26094 67625 NIL=
201806260600 AAXX 26064 67625 32982 41503 10165 20115 48/// 84030
                   333 10271 20150 59003 84360=
201806080600 AAXX 08064 67625 32982 01207 10125 20085 48///
                   333 10235 20095 59002=
201806060600 AAXX 06064 67625 NIL=
201806050600 AAXX 05064 67625 32982 01209 10145 20083 48///
                   333 10285 20105 58024=
201806010900 AAXX 01094 67625 NIL=
201806010600 AAXX 01064 67625 NIL=

################################################################################
#  SYNOPS from 67633, Mongu (Zambia) | 15-15S | 023-09E | 1052 m
################################################################################
201806261200 AAXX 26124 67633 NIL=
201806260900 AAXX 26094 67633 NIL=
201806260600 AAXX 26064 67633 32980 70903 10175 20110 48545 70222 87030
                   333 10283 20163 59002 87360 91022=
201806080600 AAXX 08064 67633 32980 00902 10123 20069 48572 70200
                   333 10252 20075 59003 91026=
201806070600 AAXX 07064 67633 32980 00904 10125 20064 48574 70200
                   333 10255 20163 59006 91026=
201806060600 AAXX 06064 67633 32980 00902 10120 20068 48581 70200
                   333 10264 20070 5//// 91027=
201806050600 AAXX 05064 67633 32980 00905 10143 20061 48563
                   333 10294 20089 58011 91025=
201806040600 AAXX 04064 67633 32980 00902 10170 20104 48558 70200
                   333 10305 20129 5//// 91023=
201806010900 AAXX 01094 67633 NIL=
201806010600 AAXX 01064 67633 32980 00803 10183 20084 48547
                   333 10311 20099 58002 91022=

################################################################################
#  SYNOPS from 67641, Kaoma (Zambia) | 14-48S | 024-48E | 1213 m
################################################################################
201806261200 AAXX 26124 67641 NIL=
201806260900 AAXX 26094 67641 NIL=
201806260600 AAXX 26064 67641 32980 60901 10160 20111 48531 86030
                   333 10281 20152 58003 86360 91022=
201806080600 AAXX 08064 67641 32980 00202 10102 20074 48570
                   333 10241 20045 59004 91025=
201806070600 AAXX 07064 67641 32980 00602 10076 20056 48477
                   333 10241 20044 58001 91015=
201806060600 AAXX 06064 67641 32980 01211 10114 20073 48574 70100
                   333 10243 20073 58008 91026=
201806050600 AAXX 05064 67641 32980 01406 10140 20079 48571 70200
                   333 10277 20064 58018 91025=
201806040600 AAXX 04064 67641 31960 00000 10117 20103 48548 70500
                   333 10286 20084 59005 91023=
201806010900 AAXX 01094 67641 NIL=
201806010600 AAXX 01064 67641 32980 00000 10120 20093 48550 70200
                   333 10298 20082 58004 91023=

################################################################################
#  SYNOPS from 67655, Mumbwa (Zambia) | 15-04S | 027-11E | 1216 m
################################################################################
201806261200 AAXX 26124 67655 NIL=
201806260900 AAXX 26094 67655 NIL=
201806080600 AAXX 08064 67655 32980 00000 10137 20092 48584
                   333 10222 20//0 59003 91028=
201806070600 AAXX 07064 67655 32980 00000 10111 20083 48583 70200
                   333 10219 20//0 59008 91027=
201806060600 AAXX 06064 67655 NIL=
201806050600 AAXX 05064 67655 32980 00000 10096 20049 48483
                   333 10242 20//0 58020 91028=
201806010900 AAXX 01094 67655 NIL=
201806010600 AAXX 01064 67655 NIL=

################################################################################
#  SYNOPS from 67659, Kafue Polder (Zambia) | 15-46S | 027-55E | 978 m
################################################################################
201806261200 AAXX 26124 67659 NIL=
201806260900 AAXX 26094 67659 NIL=
201806260600 AAXX 26064 67659 32980 81407 10161 20121 48/// 70222 88070
                   333 10261 20099 59003 88460=
201806080600 AAXX 08064 67659 32980 00903 10145 20094 48/// 70522
                   333 10212 20041 59001=
201806060600 AAXX 06064 67659 32480 10906 10148 20090 48/// 70322 81100
                   333 10220 20090 58011 81820=
201806050600 AAXX 05064 67659 32980 01506 10158 20088 48/// 70222
                   333 10262 20095 58012=
201806040600 AAXX 04064 67659 32980 01005 10163 20167 48/// 70222
                   333 10302 20092 59011=
201806010900 AAXX 01094 67659 NIL=
201806010600 AAXX 01064 67659 NIL=

################################################################################
#  SYNOPS from 67662, Kabwe Agric (Zambia) | 14-24S | 028-30E | 1165 m
################################################################################
201806261200 AAXX 26124 67662 NIL=
201806260900 AAXX 26094 67662 NIL=
201806260600 AAXX 26064 67662 31975 70000 10140 20115 48/// 70522 87030
                   333 10252 20101 5//// 87360
                   555 00066=
201806080600 AAXX 08064 67662 NIL=
201806060600 AAXX 06064 67662 NIL=
201806050600 AAXX 05064 67662 31975 11003 10145 20070 48/// 70500 80001
                   333 10245 20131 5//// 81080
                   555 00082=
201806040600 AAXX 04064 67662 31975 00000 10155 20082 48/// 70500
                   333 10276 20122 555 00084=
201806010900 AAXX 01094 67662 NIL=
201806010600 AAXX 01064 67662 32980 00000 10162 20115 48///
                   333 10275 20071 5////
                   555 00063=

################################################################################
#  SYNOPS from 67663, Kabwe (Zambia) | 14-27S | 028-28E | 1206 m
################################################################################
201806261200 AAXX 26124 67663 NIL=
201806260900 AAXX 26094 67663 NIL=
201806260600 AAXX 26064 67663 32980 70712 10144 20115 48558 8707/
                   333 10250 20100 58011 87460
                   555 00170=
201806080600 AAXX 08064 67663 32980 00804 10123 20069 48548
                   333 10215 20069 58011
                   555 00142=
201806070600 AAXX 07064 67663 32980 01004 10131 20068 48536
                   333 10210 20060 59007=
201806060600 AAXX 06064 67663 32980 11309 10130 20080 48543 80002
                   333 10222 20124 59026 81080
                   555 00170=
201806050600 AAXX 05064 67663 32980 11109 10148 20069 48571 80002
                   333 10255 20106 58010 81080
                   555 00190=
201806040600 AAXX 04064 67663 32980 00904 10161 20084 48562
                   333 10252 20109 59013
                   555 00209=
201806010900 AAXX 01094 67663 NIL=
201806010600 AAXX 01064 67663 NIL=

################################################################################
#  SYNOPS from 67665, Lusaka Internationalairport (Zambia) | 15-19S | 028-27E | 1152 m
################################################################################
201806301500 AAXX 30154 67665 42980 01107 10221 20056 48540 70200
                   333 59010=
201806300600 AAXX 30064 67665 32980 11404 10135 20070 48555 80001
                   333 10232 20//0 59009 81080=
201806292100 AAXX 29214 67665 42980 21402 10131 20080 70200 83030
                   333 59001 83360=
201806291800 AAXX 29184 67665 42980 51303 10168 20085 48552 84031
                   333 59004 84360 83080=
201806290900 AAXX 29094 67665 42580 20812 10206 20098 48572 82101
                   333 59006 82820 81080=
201806290600 AAXX 29064 67665 32980 01203 10115 20086 48561
                   333 10239 20//0 58003=
201806270900 AAXX 27094 67665 42980 11008 10204 20099 48586 81030
                   333 58009 81360=
201806261800 AAXX 26184 67665 42980 01104 10155 20100 48555
                   333 58002=
201806261200 AAXX 26124 67665 NIL=
201806260900 AAXX 26094 67665 NIL=
201806251800 AAXX 25184 67665 42980 11405 10163 20094 48553 81030
                   333 59004 81360=
201806251500 AAXX 25154 67665 42780 21311 10219 20083 48544 82400
                   333 59009 82656=
201806251200 AAXX 25124 67665 42680 20909 10243 20086 48565 82100
                   333 59010 82833=
201806250900 AAXX 25094 67665 42980 40912 10211 20096 48570 84030
                   333 59004 84360=
201806240900 AAXX 24094 67665 42980 01009 10210 20107 48574 70200
                   333 59009 91025=
201806231500 AAXX 23154 67665 42680 11006 10217 20102 48554 81130
                   333 59008 81845 81360=
201806231200 AAXX 23124 67665 42680 10907 10235 20096 48561 81130
                   333 59005 81840 81360=
201806230300 AAXX 23034 67665 42980 01503 10105 20085 58555 70200
                   333 59009=
201806222100 AAXX 22214 67665 42980 01403 10133 20103 48568 70200
                   333 59004=
201806221800 AAXX 22184 67665 42980 01204 10165 20092 48570
                   333 59011 555 10263=
201806221200 AAXX 22124 67665 42680 40806 10249 20094 48566 70200 84100
                   333 84830=
201806211800 AAXX 21184 67665 42980 21404 10152 20114 48574 70100 82030
                   333 10245 58007 82360=
201806211500 AAXX 21154 67665 42780 51409 10228 20086 48576 70122 85230
                   333 58012 85850 82360=
201806210900 AAXX 21094 67665 42580 61006 10209 20105 48599 83130
                   333 58016 83825 86360=
201806200900 AAXX 20094 67665 42580 20914 10236 20049 48587 70200 82100
                   333 59009 82825=
201806190900 AAXX 19094 67665 42680 10607 10227 20045 48578 81100
                   333 59010 81830=
201806190600 AAXX 19064 67665 32980 01401 10148 20105 48567
                   333 10253 20//0 59007=
201806180900 AAXX 18094 67665 42580 30907 10214 20111 48579 83100
                   333 58005 83830=
201806141800 AAXX 14184 67665 42980 11404 10153 20100 48554 70200 81030
                   333 10250 59019 81360=
201806141500 AAXX 14154 67665 42780 22402 10241 20081 48552 70200 82100
                   333 59022 82850=
201806141200 AAXX 14124 67665 42680 42302 10244 20087 48566 70200 84100
                   333 59019 84838=
201806130900 AAXX 13094 67665 42580 11009 10199 20081 48604 70300 81100
                   333 59007 81825=
201806090600 AAXX 09064 67665 32980 01603 10118 20065 48578 70200
                   333 10230 20//0 59009=
201806090300 AAXX 09034 67665 42980 01702 10049 20025 48557 70200
                   333 59007=
201806090000 AAXX 09004 67665 42980 01802 10070 20037 48560 70200
                   333 59004=
201806081800 AAXX 08184 67665 42980 01404 10128 20060 48577
                   333 59008=
201806080600 AAXX 08064 67665 NIL=
201806071800 AAXX 07184 67665 42980 01802 10131 20064 48584 70200
                   333 10219 58000=
201806071500 AAXX 07154 67665 42980 01106 10204 20050 48578 70200
                   333 59008=
201806071200 AAXX 07124 67665 42980 01407 10204 20050 48584 70100
                   333 59008=
201806070600 AAXX 07064 67665 32980 01105 10110 20071 48586
                   333 10216 20//0 59005
                   555 00///=
201806060600 AAXX 06064 67665 NIL=
201806060300 AAXX 06034 67665 42980 61105 10113 20080 48578 86030
                   333 58013 86358=
201806051800 AAXX 05184 67665 42980 11502 10127 20072 48584 81030
                   333 58019 81360=
201806051500 AAXX 05154 67665 42980 20911 10198 20048 48585 82100
                   333 58023 82648=
201806051200 AAXX 05124 67665 42680 20912 10220 20049 58590 82100
                   333 58034 82845=
201806042100 AAXX 04214 67665 42980 01502 10111 20065 48570
                   333 58013=
201806040600 AAXX 04064 67665 32980 01504 10165 20092 48574
                   333 10263 20//0 59007=
201806020900 AAXX 02094 67665 42980 00710 10259 20057 48587
                   333 58006=
201806020600 AAXX 02064 67665 32980 01402 10164 20101 48562 70200
                   333 10272 20//0 59004=
201806020300 AAXX 02034 67665 42980 00000 10102 20066 48543 70200
                   333 59002=
201806012100 AAXX 01214 67665 42980 01202 10133 20052 48554 70200
                   333 59001=
201806011800 AAXX 01184 67665 42980 01203 10172 20068 48553
                   333 59001=
201806011500 AAXX 01154 67665 42980 01109 10248 20037 48549
                   333 59002=
201806010900 AAXX 01094 67665 NIL=
201806010600 AAXX 01064 67665 NIL=

################################################################################
#  SYNOPS from 67666, Lusaka City Airport (Zambia) | 15-25-00S | 028-28-00E | 1280 m
################################################################################
201806261200 AAXX 26124 67666 NIL=
201806260900 AAXX 26094 67666 NIL=
201806260600 AAXX 26064 67666 32980 70910 10141 20103 48562 8703/
                   333 10248 20134 58006 87360 91024=
201806080600 AAXX 08064 67666 32980 00905 10150 20072 48585
                   333 10210 20123 58001 91027=
201806060600 AAXX 06064 67666 32980 10917 10112 20086 48587 80001
                   333 10211 20100 58011 91028=
201806050600 AAXX 05064 67666 32980 01208 10140 20070 48581
                   333 10244 20102 58018 91026=
201806040600 AAXX 04064 67666 32980 00804 10164 20083 48565
                   333 10250 20124 5//// 91024=
201806010900 AAXX 01094 67666 NIL=
201806010600 AAXX 01064 67666 32980 00908 10175 20100 48555
                   333 10258 20130 58001 91024=

################################################################################
#  SYNOPS from 67667, Mount Makulu (Zambia) | 15-33S | 028-15E | 1213 m
################################################################################
201806261200 AAXX 26124 67667 NIL=
201806260900 AAXX 26094 67667 NIL=
201806260600 AAXX 26064 67667 32980 80905 10150 20107 48599 88030
                   333 10242 20140 58005 88360=
201806080600 AAXX 08064 67667 32980 00901 10150 20080 48628
                   333 10225 20034 58002=
201806070600 AAXX 07064 67667 32980 01403 10134 20076 48626
                   333 10224 20028 58001=
201806060600 AAXX 06064 67667 32980 11801 10138 20108 48650 70200 80001
                   333 10238 20064 58014 81080=
201806050600 AAXX 05064 67667 32980 01801 10141 20088 48516 70200
                   333 10274 20094 5////=
201806010900 AAXX 01094 67667 NIL=
201806010600 AAXX 01064 67667 32980 00905 10185 20123 48599
                   333 10278 20145 58000=

################################################################################
#  SYNOPS from 67673, Petauke (Zambia) | 14-15S | 031-17E | 1035 m
################################################################################
201806261200 AAXX 26124 67673 NIL=
201806260900 AAXX 26094 67673 NIL=
201806080600 AAXX 08064 67673 32980 00000 10180 20115 48586
                   333 10235 20075 58000=
201806070600 AAXX 07064 67673 32980 00806 10150 20100 48580
                   333 10224 20075 59024=
201806061200 AAXX 06124 67673 42580 10902 10214 20110 48593 81100
                   333 58005 81830=
201806060900 AAXX 06094 67673 42580 20908 10190 20110 48610 82100
                   333 58019 82825=
201806060600 AAXX 06064 67673 32580 20906 10160 20102 48604 82100
                   333 10220 20100 58022 82820=
201806050600 AAXX 05064 67673 32580 40906 10168 20118 48585 84101
                   333 10300 20110 58010 84820 82080=
201806040600 AAXX 04064 67673 32980 00000 10170 20123 48559
                   333 10300 20115 58021=
201806010900 AAXX 01094 67673 NIL=
201806010600 AAXX 01064 67673 32980 20501 10230 20148 48572 82030
                   333 10295 20140 59015 82360=

################################################################################
#  SYNOPS from 67731, Senanga (Zambia) | 16-06S | 023-16E | 1027 m
################################################################################
201806261200 AAXX 26124 67731 NIL=
201806260900 AAXX 26094 67731 NIL=
201806080600 AAXX 08064 67731 32980 010// 10110 20050 48///
                   333 10222 20080 59003
                   555 00051=
201806070600 AAXX 07064 67731 32980 009// 10129 20074 48///
                   333 10292 20101 58007
                   555 00079=
201806060600 AAXX 06064 67731 32980 009// 10139 20069 48///
                   333 10282 20109 59003
                   555 00079=
201806050600 AAXX 05064 67731 32980 012// 10148 20058 48///
                   333 10267 20111 58019
                   555 00077=
201806040600 AAXX 04064 67731 32980 010// 10185 20098 48///
                   333 10302 20111 58010
                   555 00103=
201806010900 AAXX 01094 67731 NIL=
201806010600 AAXX 01064 67731 32980 014// 10219 20107 48///
                   333 10307 20146 59002
                   555 00147=

################################################################################
#  SYNOPS from 67741, Sesheke (Zambia) | 17-28S | 024-18E | 949 m
################################################################################
201806261200 AAXX 26124 67741 NIL=
201806260900 AAXX 26094 67741 NIL=
201806260600 AAXX 26064 67741 32980 50000 10138 20109 48550 85030
                   333 10264 20131 59003 85362
                   555 00116=
201806080600 AAXX 08064 67741 32980 10000 10077 20061 48573 81500
                   333 10225 20009 59011 81647=
201806060600 AAXX 06064 67741 32980 00801 10113 20076 48589
                   333 10258 20075 58017
                   555 00064=
201806050600 AAXX 05064 67741 32980 00906 10144 20083 48587
                   333 10271 20065 58022 58055=
201806040600 AAXX 04064 67741 32980 00000 10139 20101 48565
                   333 10296 20075 58010=
201806010900 AAXX 01094 67741 NIL=
201806010600 AAXX 01064 67741 32980 10000 10160 20090 48545 81030
                   333 10310 20097 59002 81362
                   555 00042=

################################################################################
#  SYNOPS from 67743, Livingstone (Zambia) | 17-49S | 025-49E | 985 m
################################################################################
201806261200 AAXX 26124 67743 NIL=
201806260900 AAXX 26094 67743 NIL=
201806080600 AAXX 08064 67743 32980 01701 10124 20031 48571 70200
                   333 10222 20026 59012 91027=
201806070600 AAXX 07064 67743 32980 01302 10097 20027 48583 70200
                   333 10222 20048 59008 91028=
201806060600 AAXX 06064 67743 32980 01303 10101 20038 48592
                   333 10234 20061 58035 91029=
201806050900 AAXX 05094 67743 42580 31215 10179 20062 48567 70211 83200
                   333 58018 83830 91029=
201806050600 AAXX 05064 67743 32980 01308 10126 20063 48581 70200
                   333 10276 20090 58022 91027=
201806040600 AAXX 04064 67743 32980 01302 10160 20101 48560 70200
                   333 10300 20080 58006 91025=
201806010900 AAXX 01094 67743 NIL=
201806010600 AAXX 01064 67743 32980 02702 10162 20101 48534 70100
                   333 10305 20098 59006 91022=

################################################################################
#  SYNOPS from 67751, Magoye (Zambia) | 16-00S | 027-36E | 1018 m
################################################################################
201806261200 AAXX 26124 67751 NIL=
201806260900 AAXX 26094 67751 NIL=
201806080600 AAXX 08064 67751 32980 01503 10135 20095 48/// 70200
                   333 10238 20046 58002=
201806060600 AAXX 06064 67751 32980 21302 10147 20115 48/// 70200 82040
                   333 10234 20060 59013 82360=
201806040900 AAXX 04094 67751 42982 00908 10207 20049 48///
                   333 5////=
201806040600 AAXX 04064 67751 32980 01301 10175 20100 48/// 70200
                   333 10292 20050 58005=
201806010900 AAXX 01094 67751 NIL=
201806010600 AAXX 01064 67751 32980 00401 10155 20125 48///
                   333 10300 20074 58000=

################################################################################
#  SYNOPS from 67753, Choma (Zambia) | 16-50S | 027-04E | 1213 m
################################################################################
201806261200 AAXX 26124 67753 NIL=
201806260900 AAXX 26094 67753 NIL=
201806260600 AAXX 26064 67753 32960 82703 10144 20114 48552 88030
                   333 10239 20078 58003 88360=
201806080600 AAXX 08064 67753 32960 00000 10111 20070 48578
                   333 10211 20010 59006=
201806060600 AAXX 06064 67753 32960 02805 10100 20070 48586
                   333 10196 20042 58005=
201806050600 AAXX 05064 67753 31560 72806 10131 20104 48590 70522 87200
                   333 10237 20080 58025 87820=
201806040600 AAXX 04064 67753 32960 00000 10134 20112 48561
                   333 10267 20082 59002=
201806010900 AAXX 01094 67753 NIL=
201806010600 AAXX 01064 67753 32960 03204 10166 20110 48555
                   333 10265 20082 59001=

################################################################################
#  SYNOPS from 67855, Lupaki (Zambia) | 17-03-00S | 024-46-00E | 1000 m
################################################################################
201807010600 AAXX 01064 67855 31970 00000 10056 20008 3//// 48/// 70500
                   333 20015 5////=
201806300900 AAXX 30094 67855 41970 02001 10216 20058 3//// 48/// 70500
                   333 5////=
201806300600 AAXX 30064 67855 31970 00000 10046 20005 3//// 48/// 70500
                   333 20015 5////=
201806291200 AAXX 29124 67855 41970 00000 10248 20038 3//// 48/// 70500
                   333 5////=
201806290900 AAXX 29094 67855 41970 00303 10220 20041 3//// 48/// 70500
                   333 5////=
201806290600 AAXX 29064 67855 31970 00000 10060 20010 3//// 48/// 70500
                   333 20015 5////=
201806281500 AAXX 28154 67855 41970 00000 10230 20093 3//// 48/// 70500
                   333 5////=
201806281200 AAXX 28124 67855 41970 00702 10256 20025 3//// 48/// 70500
                   333 5////=
201806280900 AAXX 28094 67855 41970 01806 10212 20038 3//// 48/// 70500
                   333 5////=
201806280600 AAXX 28064 67855 31970 01801 10060 20036 3//// 48/// 70500
                   333 20023 5////=
201806271200 AAXX 27124 67855 41670 52801 10244 20055 3//// 48/// 70511 85100
                   333 5//// 85845=
201806270900 AAXX 27094 67855 41970 10303 10226 20086 3//// 48/// 70500 81030
                   333 5//// 81360=
201806270600 AAXX 27064 67855 31971 10000 10106 20065 3//// 48/// 70500 81030
                   333 20056 5//// 81360=
201806261500 AAXX 26154 67855 41970 70000 10222 20143 3//// 48/// 70522 8707/
                   333 5//// 87360=
201806260900 AAXX 26094 67855 41970 00603 10222 20091 3//// 48/// 70500
                   333 5////=
201806251200 AAXX 25124 67855 41670 43607 10256 20078 3//// 48/// 70511 84100
                   333 5//// 84845=
201806250600 AAXX 25064 67855 31970 00000 10070 20043 3//// 48/// 70500
                   333 20040 5////=
201806240600 AAXX 24064 67855 31970 00000 10080 20063 3//// 48/// 70500
                   333 20052 5////=
201806230900 AAXX 23094 67855 41970 20702 10220 20113 3//// 48/// 70500 82030
                   333 5//// 82360=
201806230600 AAXX 23064 67855 31970 40000 10078 20064 3//// 48/// 70500 84030
                   333 20045 5//// 84360=
201806220900 AAXX 22094 67855 41970 20301 10228 20115 3//// 48/// 70511 82030
                   333 5//// 82360=
201806220600 AAXX 22064 67855 31970 61801 10106 20090 3//// 48/// 70511 86030
                   333 20058 5//// 86360=
201806211200 AAXX 21124 67855 41770 33201 10274 20080 3//// 48/// 70511 85100
                   333 5//// 85856=
201806210900 AAXX 21094 67855 41970 00302 10248 20090 3//// 48/// 70500
                   333 5////=
201806210600 AAXX 21064 67855 31970 01801 10100 20063 3//// 48/// 70500
                   333 20116 5////=
201806201500 AAXX 20154 67855 41970 00000 10252 20113 3//// 48/// 70500
                   333 5////=
201806201200 AAXX 20124 67855 41970 00201 10286 20079 3//// 48/// 70500
                   333 5////=
201806200600 AAXX 20064 67855 31970 00000 10082 20058 3//// 48/// 70500
                   333 20060 5////=
201806191200 AAXX 19124 67855 41970 00602 10278 20090 3//// 48/// 70500
                   333 5////=
201806190900 AAXX 19094 67855 41970 03301 10246 20091 3//// 48/// 70500
                   333 5////=
201806181500 AAXX 18154 67855 41970 00000 10248 20108 3//// 48/// 70500
                   333 5////=
201806180900 AAXX 18094 67855 41970 03202 10244 20099 3//// 48/// 70500
                   333 5////=
201806180600 AAXX 18064 67855 31970 00000 10084 20073 3//// 48/// 70500
                   333 20046 5////=
201806171200 AAXX 17124 67855 41970 00303 10282 20055 3//// 48/// 70500
                   333 5////=
201806170600 AAXX 17064 67855 31970 00000 10062 20025 3//// 48/// 70500
                   333 20025 5////=
201806161500 AAXX 16154 67855 41970 00000 10246 20078 3//// 48/// 70500
                   333 5////=
201806161200 AAXX 16124 67855 41970 00401 10268 20048 3//// 48/// 70500
                   333 5////=
201806160900 AAXX 16094 67855 41970 02201 10236 20050 3//// 48/// 70500
                   333 5////=
201806160600 AAXX 16064 67855 31970 00000 10064 20045 3//// 48/// 70500
                   333 20030 5////=
201806160300 AAXX 16034 67855 41970 00000 10226 20108 3//// 48/// 70500
                   333 5////=
201806150600 AAXX 15064 67855 31970 00000 10062 20045 3//// 48/// 70500
                   333 20038 5////=
201806141500 AAXX 14154 67855 41970 00000 10222 20008 3//// 48/// 70500
                   333 5////=
201806140600 AAXX 14064 67855 31970 00000 10056 20038 3//// 48/// 70500
                   333 20026 5////=
201806130600 AAXX 13064 67855 31970 00000 10070 20055 3//// 48/// 70500
                   333 20045 5////=
201806120600 AAXX 12064 67855 31970 00301 10092 20058 3//// 48/// 70500
                   333 20055 5////=
201806110600 AAXX 11064 67855 31970 00000 10058 20005 3//// 48/// 70500
                   333 20006 5////=
201806101200 AAXX 10124 67855 41970 03601 10246 20025 3//// 48/// 70500
                   333 5////=
201806100600 AAXX 10064 67855 31970 01101 10066 20015 3//// 48/// 70500
                   333 20022 5////=
201806090900 AAXX 09094 67855 41970 00201 10222 20045 38/// 48/// 70500
                   333 5////=
201806090600 AAXX 09064 67855 31970 00000 10050 20000 3//// 48/// 70500
                   333 20005 5////=
201806081200 AAXX 08124 67855 41970 02203 10250 20040 3//// 48/// 70500
                   333 5////=
201806080900 AAXX 08094 67855 41970 01505 10214 20045 3//// 48/// 70500
                   333 5////=
201806080600 AAXX 08064 67855 31970 00701 10050 20018 3//// 48/// 70500
                   333 20004 5////=
201806071500 AAXX 07154 67855 41970 00000 10210 20063 3//// 48/// 70500
                   333 5////=
201806071200 AAXX 07124 67855 41970 01101 10234 20058 3//// 48/// 70500
                   333 5////=
201806070600 AAXX 07064 67855 31970 01701 10046 20030 3//// 48/// 70500
                   333 20005 5////=
201806061500 AAXX 06154 67855 41970 00000 10196 20058 3//// 48/// 70500
                   333 5////=
201806061200 AAXX 06124 67855 41970 01804 10200 20033 3//// 48/// 70500
                   333 5////=
201806060900 AAXX 06094 67855 41970 01307 10186 20041 3//// 48/// 70500
                   333 5////=
201806060600 AAXX 06064 67855 31970 00000 10058 20040 3//// 48/// 70500
                   333 20010 5////=
201806051200 AAXX 05124 67855 41670 21605 10222 20066 3//// 48/// 70511 82100
                   333 5//// 82830=
201806050600 AAXX 05064 67855 31970 00000 10094 20079 3//// 48/// 70500
                   333 20045 5////=
201806041500 AAXX 04154 67855 41970 11302 10248 20050 3//// 48/// 70500 81060
                   333 5//// 81630=
201806041200 AAXX 04124 67855 41670 11604 10260 20070 3//// 48/// 70500 81100
                   333 5//// 81845=
201806040900 AAXX 04094 67855 41970 01904 10240 20059 3//// 48/// 70500
                   333 5////=
201806040600 AAXX 04064 67855 31970 01801 10088 20068 3//// 48/// 70500
                   333 20048 5////=
201806030600 AAXX 03064 67855 31970 70000 10154 20124 3//// 48/// 70522 8707/
                   333 20135 5//// 87360=
201806021200 AAXX 02124 67855 41770 71601 10268 20128 3//// 48/// 70522 8527/
                   333 5//// 85850 87360=
201806010600 AAXX 01064 67855 31970 00000 10110 20043 3//// 48/// 70500
                   333 20078 5////=
