################################################################################
# Query made at 04/17/2022 11:28:25 UTC
# Country like Zamb*
# Time interval: from 07/01/2008 05:30  to 07/31/2008 05:30  UTC
################################################################################

################################################################################
#  SYNOPS from 67413, Mbala (Zambia) | 08-51S | 031-20E | 1673 m
################################################################################
200807230600 AAXX 23064 67413 32580 11611 10145 20109 48550 81500
                   333 10240 20115 58008 81620=
200807090600 AAXX 09064 67413 32980 31412 10150 20115 48559 80001
                   333 10260 20100 5//// 83080=

################################################################################
#  SYNOPS from 67441, Mwinilunga (Zambia) | 11-45S | 024-26E | 1361 m
################################################################################
200807230600 AAXX 23064 67441 31970 01204 10125 20077 48/// 70500
                   333 10252 20090 5////=
200807180600 AAXX 18064 67441 31965 01504 10115 20065 48586 70500
                   333 10255 20075 58002=
200807160600 AAXX 16064 67441 31970 01104 10110 20059 48580 70500
                   333 10245 20070 59007=
200807100900 AAXX 10094 67441 41960 00703 10245 20075 48559 70500
                   333 58013=
200807090900 AAXX 09094 67441 41960 02503 10240 20067 48575 70500
                   333 5////=
200807090600 AAXX 09064 67441 31960 00303 10105 20065 48/// 70500
                   333 10295 20048 5////=

################################################################################
#  SYNOPS from 67461, Mansa (Zambia) | 11-06S | 028-51E | 1382 m
################################################################################
200807291200 AAXX 29124 67461 41770 30905 10262 20041 48542 70500 83200
                   333 59001 83857=
200807240600 AAXX 24064 67461 31965 21204 10135 20108 48548 70500 82030
                   333 10250 20100 58009 82363=
200807230600 AAXX 23064 67461 31965 61004 10125 20098 48546 70522 86030
                   333 10250 20094 59003 86363=
200807180600 AAXX 18064 67461 31965 00903 10120 20093 48546 70500
                   333 10250 20091 58007=
200807041200 AAXX 04124 67461 41970 02803 10285 20051 48566 70500
                   333 58006=

################################################################################
#  SYNOPS from 67475, Kasama (Zambia) | 10-13S | 031-08E | 1382 m
################################################################################
200807291200 AAXX 29124 67475 41670 61220 10243 20072 48532 70522 86100
                   333 58002 86846=
200807230600 AAXX 23064 67475 31970 50109 10148 20110 48548 70522 85030
                   333 10247 20112 59003 85360=
200807220600 AAXX 22064 67475 31960 61011 10154 20103 48551 70522 86030
                   333 10249 20087 59008 86361=
200807101200 AAXX 10124 67475 41970 01315 10258 20043 48535 70500
                   333 58000=
200807090600 AAXX 09064 67475 31970 50304 10166 20098 48553 70522 80002
                   333 10276 20085 58012 84080=
200807040900 AAXX 04094 67475 41970 00905 10260 20120 48545 70500
                   333 5////=

################################################################################
#  SYNOPS from 67476, Misamfu (Zambia) | 10-06S | 031-15E | 1536 m
################################################################################
200807250900 AAXX 25094 67476 41770 11701 10126 20073 48/// 81100
                   333 59001 81850=
200807240600 AAXX 24064 67476 31975 11507 10160 20106 48/// 70500 81030
                   333 10245 20092 5//// 81362=
200807090600 AAXX 09064 67476 31975 30804 10165 20097 70500 80001
                   333 10295 20087 5//// 83080=

################################################################################
#  SYNOPS from 67477, Mpika (Zambia) | 11-54S | 031-26E | 1400 m
################################################################################
200807230600 AAXX 23064 67477 32480 71104 10167 20106 48548 8153/
                   333 10215 20108 59006 81610 87360=
200807220600 AAXX 22064 67477 32480 21215 10140 20100 48554 82500
                   333 10220 20102 59008 82615=
200807180600 AAXX 18064 67477 32580 20912 10153 20093 48567 82500
                   333 10220 20080 58007 82620=
200807090900 AAXX 09094 67477 41976 00806 10217 20067 48533 70500
                   333 5////=
200807041200 AAXX 04124 67477 41965 02405 10285 21008 48518 70500
                   333 58006=

################################################################################
#  SYNOPS from 67531, Zambezi (Zambia) | 13-32S | 023-07E | 1077 m
################################################################################
200807240900 AAXX 24094 67531 41978 01312 10225 20102 48/// 70500
                   333 58010=
200807240600 AAXX 24064 67531 31978 01301 10109 20085 48/// 70500
                   333 10264 20087 58012=
200807230600 AAXX 23064 67531 31975 01302 10116 20078 48/// 70500
                   333 10265 20071 59004=
200807220600 AAXX 22064 67531 31978 00000 10133 20088 48/// 70500
                   333 10269 20081 59005=
200807180600 AAXX 18064 67531 31970 01105 10098 20060 48/// 70500
                   333 10266 20042 58005=
200807170900 AAXX 17094 67531 41965 01310 10211 20075 48/// 70500
                   333 58002=
200807160600 AAXX 16064 67531 31970 01403 10122 20070 48/// 70500
                   333 10255 20053 5////=
200807101200 AAXX 10124 67531 41975 01504 10304 20055 48/// 70500
                   333 5////=
200807040900 AAXX 04094 67531 41970 00903 10256 20080 48/// 70500
                   333 58006=

################################################################################
#  SYNOPS from 67551, Solwezi (Zambia) | 12-11S | 026-23E | 1386 m
################################################################################
200807240900 AAXX 24094 67551 41960 00906 10197 20089 48561 70500
                   333 58017=
200807240600 AAXX 24064 67551 31960 01205 10118 20092 48556 70500
                   333 10250 20089 58015=

################################################################################
#  SYNOPS from 67561, Ndola (Zambia) | 13-00S | 028-39E | 1269 m
################################################################################
200807300400 AAXX 30044 67561 41975 00000 10100 20073 48548 70500
                   333 58002=
200807291200 AAXX 29124 67561 41775 71311 10233 20077 48549 70522 8323/
                   333 58008 82850 87362
                   555 91022=
200807271200 AAXX 27124 67561 41875 60903 10255 20053 48542 70511 86200
                   333 59003 86857=
200807270600 AAXX 27064 67561 31970 00806 10171 20083 48563 70511
                   333 10260 20125 58003=
200807270400 AAXX 27044 67561 41970 70000 10136 20086 48550 70511 87030
                   333 58001 87360=
200807261200 AAXX 26124 67561 41775 70000 10234 20068 48543 70511 87200
                   333 58000 87856=
200807260600 AAXX 26064 67561 31970 41010 10158 20092 48557 70511 84030
                   333 10261 20114 59010 83360=
200807250600 AAXX 25064 67561 32980 50804 10135 20096 48565 85030
                   333 10258 20114 58004 85360=
200807240900 AAXX 24094 67561 41975 01109 10226 20096 48570 70500
                   333 58015=
200807230600 AAXX 23064 67561 32980 21211 10155 20095 48548 82030
                   333 10246 20133 59003 82361=
200807230500 AAXX 23054 67561 42680 20710 10225 20095 48555 82200
                   333 59006 82840=
200807220900 AAXX 22094 67561 41675 21210 10206 20086 48559 70511 82200
                   333 59008 82835=
200807220600 AAXX 22064 67561 31875 61111 10158 20084 48551 70522 86030
                   333 10256 20112 59010 86360=
200807211500 AAXX 21154 67561 41970 71306 10230 20070 48534 70522 87400
                   333 59005 87658=
200807191200 AAXX 19124 67561 41770 71407 10229 20047 48546 70511 87200
                   333 59004 87850 555 91022=
200807181200 AAXX 18124 67561 41770 71110 10219 20071 48549 70511 87800
                   333 58010 81856 86656=
200807180600 AAXX 18064 67561 31970 11212 10155 20091 48564 70500 81030
                   333 10250 20093 58004 81360=
200807171200 AAXX 17124 67561 42780 10405 20065 48541 81100
                   333 59002 81856 91021=
200807161200 AAXX 16124 67561 42780 10000 10224 20064 48542 81100
                   333 59017 81856=
200807160900 AAXX 16094 67561 42580 10703 10204 20062 48563 81100
                   333 59016 81830=
200807160600 AAXX 16064 67561 31975 00000 10131 20080 48559 70500
                   333 10216 20069 59012=
200807150600 AAXX 15064 67561 31970 01114 10141 20081 48571 70511
                   333 10240 20080 59001=
200807121200 AAXX 12124 67561 41975 21402 10251 20058 48538 70500 82060
                   333 59006 82359 555 91021=
200807110600 AAXX 11064 67561 31920 00000 10131 20074 48560 70400
                   333 10290 20081 58005=
200807091200 AAXX 09124 67561 41965 01208 10285 20052 48533 70500
                   333 59004=
200807090900 AAXX 09094 67561 41965 00407 10251 20096 48556 70500
                   333 59002=
200807090600 AAXX 09064 67561 31930 00000 10133 20080 48543 70400
                   333 10286 20088 58000=
200807081200 AAXX 08124 67561 42980 00909 10277 20042 48537
                   333 58005=
200807080600 AAXX 08064 67561 31965 00000 10148 20067 48544 70500
                   333 10301 20060 59001=
200807070600 AAXX 07064 67561 31958 00802 10149 20093 48545 70400
                   333 10305 20094 58018=
200807061200 AAXX 06124 67561 41956 01605 10291 20025 48519 70400
                   333 58010=
200807041200 AAXX 04124 67561 41956 00000 10286 20051 48522 70400
                   333 58006=
200807040900 AAXX 04094 67561 41940 00000 10249 20075 48546 70400
                   333 58005=
200807030600 AAXX 03064 67561 31965 00000 10105 20067 48528 70500
                   333 10250 20036 59006=
200807020600 AAXX 02064 67561 31956 00000 10095 20055 48540 70400
                   333 10246 20040 59017=
200807010600 AAXX 01064 67561 32980 00000 10105 20030 48557
                   333 10256 20045 59002=

################################################################################
#  SYNOPS from 67571, Serenje (Zambia) | 13-14S | 030-13E | 1384 m
################################################################################
200807160600 AAXX 16064 67571 11970 10906 10132 20082 48557 69904 70500 81030
                   333 10179 20064 59010 81360=
200807090600 AAXX 09064 67571 31970 20906 10177 20081 48541 70511 80001
                   333 10272 20099 58001 82080=

################################################################################
#  SYNOPS from 67580, Msekera (Zambia) | 13-39S | 032-34E | 1025 m
################################################################################
200807291200 AAXX 29124 67580 41680 70906 10252 20098 48/// 70521 82130
                   333 58014 82845 86360=
200807250900 AAXX 25094 67580 41678 50000 10123 20096 48/// 70510 85100
                   333 58010 85835=
200807230600 AAXX 23064 67580 31978 70000 10156 20120 48/// 70522 8703/
                   333 10250 20099 5//// 87360=
200807180600 AAXX 18064 67580 31480 21810 10167 20105 48/// 70510 81130
                   333 10259 20143 58004 81818 81360=
200807170900 AAXX 17094 67580 41680 50908 10210 20100 48/// 70510 85200
                   333 58001 85830=
200807170600 AAXX 17064 67580 31980 11506 10175 20107 48/// 70510 81130
                   333 10253 20122 59007 81810 81360=
200807160600 AAXX 16064 67580 31975 71606 10160 20106 48/// 70520 87030
                   333 10212 20094 5//// 87360=
200807101200 AAXX 10124 67580 41975 00000 10295 20059 48/// 70500
                   333 58006=
200807090900 AAXX 09094 67580 41975 10000 10262 20102 48/// 70500
                   333 5////=
200807090600 AAXX 09064 67580 31975 31603 10192 20111 48/// 70510 80001
                   333 10298 20111 58006 83080=
200807040900 AAXX 04094 67580 41970 03603 10270 20101 48/// 70500
                   333 59003=

################################################################################
#  SYNOPS from 67581, Chipata (Zambia) | 13-33S | 032-35E | 1028 m
################################################################################
200807230600 AAXX 23064 67581 32980 71406 10172 20112 48588 8703/
                   333 10237 20135 58004 87360=
200807220600 AAXX 22064 67581 32680 61203 10185 20100 48566 81130
                   333 10255 20134 59013 81835 86360=
200807180600 AAXX 18064 67581 32480 11208 10165 20102 48575 81130
                   333 10247 20145 58001 81818 81362=
200807160600 AAXX 16064 67581 32982 71706 10169 20097 48578 87030
                   333 10230 20115 59006 87360=
200807090600 AAXX 09064 67581 32982 10603 10204 20108 48559 80001
                   333 10295 20116 58003 81080=

################################################################################
#  SYNOPS from 67583, Lundazi (Zambia) | 12-17S | 033-12E | 1143 m
################################################################################
200807230600 AAXX 23064 67583 31967 70105 10175 20124 48/// 70522 81530
                   333 10215 20115 59001 81630 87360=
200807160600 AAXX 16064 67583 31980 50906 10160 20123 70522 85030
                   333 10200 20069 59016 85360=
200807090600 AAXX 09064 67583 31975 21505 10156 20110 70500 80001
                   333 10250 20090 58014 82080=

################################################################################
#  SYNOPS from 67599, Mfuwe (Zambia) | 13-16S | 031-56E | 568 m
################################################################################
200807270600 AAXX 27064 67599 32980 50000 10180 20120 48592 85030
                   333 10350 20/// 59002 85360=
200807250900 AAXX 25094 67599 42580 22305 10255 20134 48610 82100
                   333 59003 82826=
200807240900 AAXX 24094 67599 42680 31508 10245 20141 48600 82230
                   333 58017 82832 82360=
200807240600 AAXX 24064 67599 32980 70000 10180 20129 48591 8703/
                   333 10280 20/// 58017 87360=
200807231200 AAXX 23124 67599 42680 60000 10265 20137 48573 82330
                   333 58007 83840 85360 91021=
200807230600 AAXX 23064 67599 32980 70000 10165 20132 48518 69904 8703/
                   333 10290 20/// 5//// 87360=
200807220600 AAXX 22064 67599 32980 41605 10200 20121 48584 84030
                   333 10305 20/// 59008 84360=
200807191200 AAXX 19124 67599 42680 72703 10260 20109 48589 70222 8323/
                   333 58001 83840 87360 91023=
200807181500 AAXX 18154 67599 42/80 80000 10240 20114 48571 70322 8197/
                   333 58014 819// 88460=
200807181200 AAXX 18124 67599 42780 71206 10260 20120 48589 70322 8423/
                   333 58019 84850 86360=
200807180600 AAXX 18064 67599 32980 70000 10180 20131 48590 8703/
                   333 10300 20/// 58007 87360=
200807171200 AAXX 17124 67599 42680 40000 10280 20116 48578 84200
                   333 59008 84845 91021=
200807170600 AAXX 17064 67599 32980 50000 10160 20107 48573 85030
                   333 10310 20/// 59008 85360=
200807161500 AAXX 16154 67599 42980 40000 10265 20105 48569 84030
                   333 59019 84360=
200807161200 AAXX 16124 67599 42680 50000 10280 20116 48578 82230
                   333 59014 82845=
200807160900 AAXX 16094 67599 42680 30000 10250 20117 48604 83200
                   333 59012 83835=
200807160600 AAXX 16064 67599 32980 30000 10170 20117 48583 83030
                   333 10280 20//0 59007 83360=
200807150600 AAXX 15064 67599 32980 31806 10185 20126 48594 83030
                   333 10310 20//0 59007 83360=
200807141500 AAXX 14154 67599 42980 61806 10250 20095 48591 86030
                   333 58029 86360=
200807101500 AAXX 10154 67599 41975 00000 10310 20133 48567 70500
                   333 58009 555 10330 91018=
200807100900 AAXX 10094 67599 41975 00000 10175 20137 48596 70500
                   333 58010=
200807091200 AAXX 09124 67599 41975 00306 10315 20144 48567 70500
                   333 58006=
200807090600 AAXX 09064 67599 31970 00000 10160 20106 48553 70500
                   333 10335 20/// 58008=
200807081500 AAXX 08154 67599 41959 00000 10305 20140 48554 70500
                   333 59003=
200807080600 AAXX 08064 67599 31950 00000 10150 20085 48542 70500
                   333 10350 20//0 59005=
200807071500 AAXX 07154 67599 41970 00000 10319 20126 48562 70500
                   333 58012=
200807060600 AAXX 06064 67599 31965 00000 10155 20110 48538 70500
                   333 10325 20//0 58011=
200807041200 AAXX 04124 67599 41959 02005 10310 20111 48551 70500
                   333 59005=
200807040900 AAXX 04094 67599 41970 00000 10270 20144 48572 70500
                   333 59006=
200807030600 AAXX 03064 67599 31975 01805 10135 20089 48535 70500
                   333 10270 20//0 59021=
200807020600 AAXX 02064 67599 31959 00000 10125 20076 48553 70500
                   333 10284 20//0 59006=
200807011200 AAXX 01124 67599 41975 02406 10266 20082 48574 70500
                   333 59005 91021=
200807010600 AAXX 01064 67599 31958 00000 10110 20060 48570 70500
                   333 10290 20//0 58000=

################################################################################
#  SYNOPS from 67625, Kalabo (Zambia) | 14-51S | 022-42E | 1033 m
################################################################################
200807180600 AAXX 18064 67625 31975 01310 10130 20072 48/// 70500
                   333 10255 20087 58012=

################################################################################
#  SYNOPS from 67633, Mongu (Zambia) | 15-15S | 023-09E | 1052 m
################################################################################
200807291200 AAXX 29124 67633 41980 00910 10275 20080 48549 70500
                   333 58000=
200807250900 AAXX 25094 67633 41979 00908 10225 20070 48576 70500
                   333 59004=
200807240900 AAXX 24094 67633 41975 01208 10222 20086 48579 70500
                   333 58013=
200807240600 AAXX 24064 67633 31975 00908 10130 20071 48558 70500
                   333 10105 58014=
200807230600 AAXX 23064 67633 31975 00906 10140 20072 48547 70500
                   333 10270 20095 58000=
200807220600 AAXX 22064 67633 31975 00903 10132 20074 48545 70500
                   333 10265 20100 59012=
200807180600 AAXX 18064 67633 31975 01606 10125 20049 48556 70500
                   333 10265 20094 58008=
200807170900 AAXX 17094 67633 41970 01006 10221 20063 48576 70500
                   333 58007=
200807160600 AAXX 16064 67633 31975 00908 10120 20060 48554 70500
                   333 10251 20085 59010=
200807101200 AAXX 10124 67633 41975 00304 10310 20063 48556 70500
                   333 58009=
200807041200 AAXX 04124 67633 41980 02706 10280 20092 48515 70500
                   333 59004=

################################################################################
#  SYNOPS from 67641, Kaoma (Zambia) | 14-48S | 024-48E | 1213 m
################################################################################
200807230600 AAXX 23064 67641 32982 00000 10117 20070 48535
                   333 10257 20080 5////=

################################################################################
#  SYNOPS from 67655, Mumbwa (Zambia) | 15-04S | 027-11E | 1216 m
################################################################################
200807240600 AAXX 24064 67655 31975 21006 10128 20100 48572 70500 80001
                   333 10232 20085 58014 82078=
200807160600 AAXX 16064 67655 32480 50802 10122 20071 48591 85100
                   333 10192 20071 59008 85818=

################################################################################
#  SYNOPS from 67659, Kafue Polder (Zambia) | 15-46S | 027-55E | 978 m
################################################################################
200807240600 AAXX 24064 67659 31960 00904 10156 20106 48/// 70500
                   333 10240 20/// 5////=
200807090600 AAXX 09064 67659 31960 00000 10146 20097 70500
                   333 10300 20/// 5////=

################################################################################
#  SYNOPS from 67663, Kabwe (Zambia) | 14-27S | 028-28E | 1206 m
################################################################################
200807220600 AAXX 22064 67663 31970 50906 10134 20086 48549 70522 85030
                   333 10218 20106 59007 85360=

################################################################################
#  SYNOPS from 67665, Lusaka Internationalairport (Zambia) | 15-19S | 028-27E | 1152 m
################################################################################
200807310400 AAXX 31044 67665 42980 00000 10080 20//0 48548
                   333 59016=
200807310300 AAXX 31034 67665 42980 00000 10083 20//0 48545
                   333 59013=
200807310000 AAXX 31004 67665 42980 01504 10087 20//0 48548
                   333 59006=
200807302100 AAXX 30214 67665 42980 01603 10106 20//0 48565
                   333 59001=
200807301800 AAXX 30184 67665 42980 00000 10137 20//0 48562
                   333 59007=
200807301200 AAXX 30124 67665 41675 21008 10232 20063 48569 70500 82100
                   333 59004 82845 91024=
200807300400 AAXX 30044 67665 42980 00000 10083 20//0 48562
                   333 58005=
200807300000 AAXX 30004 67665 42980 00000 10108 20//0 48557
                   333 58004=
200807292100 AAXX 29214 67665 42980 00602 10138 20//0 48570
                   333 58003=
200807291800 AAXX 29184 67665 42980 00000 10153 20//0 48570
                   333 10248 58005=
200807291200 AAXX 29124 67665 42680 51011 10227 20079 48573 85200
                   333 58013 85840 91024=
200807290900 AAXX 29094 67665 42680 20713 10209 20096 48595 82100
                   333 58010 82825 555 91027=
200807290600 AAXX 29064 67665 32480 11303 10129 20078 48577 81100
                   333 10252 20090 58007 81810
                   555 91026=
200807281800 AAXX 28184 67665 42980 21504 10157 20//0 48559 83030
                   333 10252 59013 83360=
200807281500 AAXX 28154 67665 4980 21311 10236 20040 48557 82030
                   333 59012 82360 555 10252=
200807281200 AAXX 28124 67665 42780 41606 10237 20046 48562 83030
                   333 59007 83360 91023=
200807271500 AAXX 27154 67665 42880 40503 10221 20054 48560 84100
                   333 59006 84857=
200807271200 AAXX 27124 67665 42680 51105 10224 20038 48563 85100
                   333 59002 85840=
200807270900 AAXX 27094 67665 42680 30905 10219 20063 48587 83100
                   333 58002 83825=
200807270600 AAXX 27064 67665 32980 01005 10143 20085 48576
                   333 10218 20074 58005=
200807270400 AAXX 27044 67665 42980 10000 10086 20/// 48552 81030
                   333 59008 81360=
200807261200 AAXX 26124 67665 42575 60806 10217 20081 48565 70322 86200
                   333 59007 86838=
200807260600 AAXX 26064 67665 32980 41104 10131 20102 48579 70222 84030
                   333 10239 20078 59001 84360=
200807251500 AAXX 25154 67665 42780 61406 10195 20099 48564 81130
                   333 59002 81856 86360=
200807251200 AAXX 25124 67665 42680 61206 10201 20095 48570 86200
                   333 58003 86838=
200807250900 AAXX 25094 67665 42580 60810 10189 20082 48589 86500
                   333 58000 86625=
200807250600 AAXX 25064 67665 32380 11004 10126 20099 48578 81500
                   333 10237 20069 59004 81610=
200807250300 AAXX 25034 67665 42980 01406 10085 20/// 48558
                   333 59001=
200807242100 AAXX 24214 67665 42980 01504 10119 20//0 48570
                   333 58005=
200807241800 AAXX 24184 67665 42980 00000 10139 20//0 48558
                   333 58001=
200807241200 AAXX 24124 67665 42680 60711 10224 20098 48570 86200
                   333 58007 86840 91024=
200807240900 AAXX 24094 67665 42580 50708 10199 20084 48587 85500
                   333 58012 85625=
200807240600 AAXX 24064 67665 32980 11106 10124 20103 48580 81130
                   333 10226 20072 58014 81808 81359=
200807240400 AAXX 24044 67665 42980 11505 10087 20//0 48569 81030
                   333 58014 81359=
200807240300 AAXX 24034 67665 42980 11404 10088 20//0 48561 81030
                   333 59004 81359=
200807240000 AAXX 24004 67665 42980 11504 10092 20//0 48563 580015 81030 81360=
200807232100 AAXX 23214 67665 42980 11403 10112 20//0 48568 81030
                   333 58007 81360=
200807231800 AAXX 23184 67665 42980 21304 10132 20//0 48565 82030
                   333 10226 58003 82360=
200807231500 AAXX 23154 67665 42780 50809 10204 20095 48559 84230
                   333 59002 82850 83360
                   555 10226=
200807231200 AAXX 23124 67665 42680 60912 10215 20093 48562 86800
                   333 59001 83835 83632 91023=
200807230600 AAXX 23064 67665 32980 11104 10126 20089 48568 81030
                   333 10234 20074 58000 81360=
200807230500 AAXX 23054 67665 42580 50812 10198 20089 48582 85500
                   333 59003 85620=
200807221500 AAXX 22154 67665 42980 20810 10212 20045 48557 82030
                   333 59005 82360 555 10234=
200807221200 AAXX 22124 67665 42580 51102 10210 20058 48563 85800
                   333 59003 82532 84630=
200807220900 AAXX 22094 67665 42580 30814 10200 20090 48584 83800
                   333 59003 82820 81622=
200807220600 AAXX 22064 67665 32980 51204 10123 20097 48569 85030
                   333 10234 20084 59003 85360=
200807211500 AAXX 21154 67665 42780 31204 10219 20078 48562 83100
                   333 59004 83850=
200807211200 AAXX 21124 67665 42680 41109 10223 20081 48567 84200
                   333 59007 84842=
200807201200 AAXX 20124 67665 42680 51008 10204 20094 48571 83130
                   333 59008 83830 81360=
200807200900 AAXX 20094 67665 42580 60912 10167 20101 48592 84530
                   333 59004 84620 84360=
200807200600 AAXX 20064 67665 42380 51111 10126 20106 48578 81630
                   333 10201 20061 59006 81709 85359=
200807191200 AAXX 19124 67665 42680 51106 10201 20145 48578 85200
                   333 58002 85840 91025=
200807190600 AAXX 19064 67665 31975 01103 10105 20075 48581 70500
                   333 10219 20061=
200807190400 AAXX 19044 67665 42980 00000 10071 20//0 48559 70200
                   333 59002=
200807190300 AAXX 19034 67665 42980 00000 10064 20/// 48564 70200
                   333 59003=
200807190000 AAXX 19004 67665 42980 00000 10095 20//0 48564 70200
                   333 59001=
200807182100 AAXX 18214 67665 42980 01503 10088 20/// 48571
                   333 58004=
200807181200 AAXX 18124 67665 42680 41011 10206 20077 48578 84100
                   333 58010 84845 91025=
200807180600 AAXX 18064 67665 32980 11105 10124 20075 48579 81030
                   333 10225 20071 58006 81360=
200807180400 AAXX 18044 67665 42980 11106 10097 20//0 48566 81030
                   333 58008 81359=
200807180300 AAXX 18034 67665 42980 11204 10094 48562 81030
                   333 58009 81359=
200807180000 AAXX 18004 67665 42980 51404 10092 20/// 48563 85030
                   333 58004 85360=
200807172100 AAXX 17214 67665 42980 70303 10124 20//0 48573 87030
                   333 58001=
200807171800 AAXX 17184 67665 42980 60704 10138 20//0 48571 86030
                   333 10225 58007 86359=
200807171500 AAXX 17154 67665 42980 61011 10193 20073 48517 86030
                   333 58003 86359 555 10225=
200807171200 AAXX 17124 67665 42780 60711 10201 20057 48567 86500
                   333 58001 86645 91024=
200807170900 AAXX 17094 67665 42580 60708 10193 20068 48587 86100
                   333 59001 86830=
200807170600 AAXX 17064 67665 32980 01004 10109 20070 48572
                   333 10211 20059 59003=
200807170300 AAXX 17034 67665 42980 00000 10054 20/// 48548
                   333 59004=
200807162100 AAXX 16214 67665 42980 00000 10094 20//0 48569
                   333 59005=
200807161800 AAXX 16184 67665 42980 10000 10114 20//0 48566 81030
                   333 10211 59006 81360=
200807161500 AAXX 16154 67665 42980 11004 10184 20078 48562 81030
                   333 59015 81360=
200807161200 AAXX 16124 67665 42670 60905 10200 20070 48568 82130
                   333 59014 82840 85360=
200807160900 AAXX 16094 67665 42570 60708 10174 20076 48575 85230
                   333 59014 85825 86360=
200807160600 AAXX 16064 67665 32970 60000 10104 20064 48573 85030
                   333 10191 20074 59011 86360=
200807160000 AAXX 16004 67665 42980 00000 10090 20/// 48558
                   333 59016=
200807151800 AAXX 15184 67665 42960 71103 10132 20124 48564 87030
                   333 59010 87360=
200807151200 AAXX 15124 67665 42980 60806 10175 20083 48576 86030
                   333 59006 86360 555 10190 91025=
200807150900 AAXX 15094 67665 41560 61009 10160 20089 48598 70522 86500
                   333 58001 86618=
200807150600 AAXX 15064 67665 31960 70905 10101 20090 48586 70522 875//
                   333 10219 20065 58002 87610=
200807141800 AAXX 14184 67665 42980 00000 10115 20//0 48582
                   333 10219 58016=
200807141500 AAXX 14154 67665 41660 40910 10189 20071 48583 70522 84500
                   333 58027 84640=
200807141200 AAXX 14124 67665 41960 51112 10210 20076 48587 70522 85500
                   333 58023 85625=
200807140900 AAXX 14094 67665 41459 50809 10190 20089 48602 70521 85500
                   333 58019 85615=
200807140600 AAXX 14064 67665 31965 00906 10122 20076 48587 70500
                   333 10244 20066 58017=
200807131500 AAXX 13154 67665 42980 10909 10213 20070 48560 81030
                   333 58003 81360=
200807131200 AAXX 13124 67665 42680 20709 10224 20080 48563 82100
                   333 58004 81830=
200807130900 AAXX 13094 67665 41960 51009 10189 20095 48584 70522 85500
                   333 59002 85618=
200807130600 AAXX 13064 67665 31960 71204 10125 20116 48572 70500 875//
                   333 10237 20084 59005 87610=
200807121800 AAXX 12184 67665 42965 11003 10128 20109 48559 81030
                   333 59001 81359=
200807121200 AAXX 12124 67665 41660 51112 10225 20092 48563 70522 85100
                   333 59001 85835 91023=
200807120600 AAXX 12064 67665 31960 00910 10149 20118 48580 70500
                   333 10274 20094 58010=
200807120400 AAXX 12044 67665 42980 01302 10100 20//0 48563
                   333 58013=
200807120300 AAXX 12034 67665 42980 01004 10104 20//0 48561
                   333 58014=
200807120000 AAXX 12004 67665 42980 00000 10122 20//0 48563
                   333 58011=
200807112100 AAXX 11214 67665 42980 01105 10132 20/// 48571
                   333 58003=
200807111800 AAXX 11184 67665 42980 00000 10159 20//0 48564
                   333 58009=
200807111200 AAXX 11124 67665 41760 10906 10267 20051 48570 70500 81100
                   333 58006 81856=
200807110600 AAXX 11064 67665 31960 00000 10124 20072 48564 70500
                   333 10286 20090 58006=
200807110400 AAXX 11044 67665 42980 00000 10100 20//0 48554
                   333 58005=
200807110300 AAXX 11034 67665 42980 10097 20//0 48548
                   333 58004=
200807110000 AAXX 11004 67665 42980 00000 10121 20//0 48552
                   333 58010=
200807102100 AAXX 10214 67665 42980 00000 10130 20//0 48559
                   333 58013=
200807101800 AAXX 10184 67665 41960 00000 10166 20/// 48558 70500
                   333 10286 5////=
200807101200 AAXX 10124 67665 41960 00507 10282 20056 48565 70500
                   333 58013 91023=
200807100900 AAXX 10094 67665 31960 00604 10243 20076 48580 70500
                   333 58016=
200807100400 AAXX 10044 67665 41960 01604 10102 20//0 48547 70500
                   333 58007=
200807100300 AAXX 10034 67665 41960 01505 10099 20//0 48544 70500
                   333 58005=
200807100000 AAXX 10004 67665 41960 01803 10118 20//0 48543 70500
                   333 58001=
200807092100 AAXX 09214 67665 41960 01503 10134 20//0 48547 70500
                   333 58002=
200807091500 AAXX 09154 67665 41959 01004 10278 20084 48547 70500
                   333 59003=
200807091200 AAXX 09124 67665 41959 01204 10281 20068 48553 70500
                   333 59003=
200807090900 AAXX 09094 67665 41959 00805 10242 20102 48564 70500
                   333 59008=
200807090600 AAXX 09064 67665 31960 01502 10137 20103 48550 70500
                   333 10279 20103 59002=
200807081800 AAXX 08184 67665 41959 00000 10173 20//0 48549 70500
                   333 10279 58006=
200807081500 AAXX 08154 67665 41959 00903 10257 20062 48547 70500
                   333 58000=
200807081200 AAXX 08124 67665 41959 00805 10271 20077 48554 70500
                   333 58001=
200807080900 AAXX 08094 67665 41960 00410 10235 20096 48572 70500
                   333 58004=
200807080600 AAXX 08064 67665 31959 01503 10135 20090 48553 70500
                   333 10275 20096 59003=
200807071800 AAXX 07184 67665 41980 00000 10156 20//0 48541 70500
                   333 10275 59001=
200807071500 AAXX 07154 67665 41959 00607 10258 20069 48547 70500
                   333 58005=
200807071200 AAXX 07124 67665 41960 00808 10266 20070 48553
                   333 58017=
200807070600 AAXX 07064 67665 31965 01103 10147 20044 48557 70500
                   333 10286 20100 58019=
200807061200 AAXX 06124 67665 41959 00902 10278 20076 48536 70500
                   333 58020=
200807060900 AAXX 06094 67665 41959 01208 10250 20091 48556 70500
                   333 58021=
200807060600 AAXX 06064 67665 31960 50702 10156 20095 48541 70500 85030
                   333 10295 20110 58021 85360=
200807051200 AAXX 05124 67665 41959 00403 10292 20069 48519 70500
                   333 59016=
200807050600 AAXX 05064 67665 31958 00000 10132 20084 48518 70500
                   333 10295 20098 59023=
200807041200 AAXX 04124 67665 41959 02103 10282 20068 48534 70500
                   333 59002 91019=
200807040900 AAXX 04094 67665 41970 00000 10242 20077 48530 70500
                   333 59001=
200807040400 AAXX 04044 67665 42980 00000 10080 20//0 48524
                   333 58000=
200807040300 AAXX 04034 67665 42980 00000 10080 20//0 48521
                   333 59001=
200807040000 AAXX 04004 67665 42980 00000 10083 20/// 48530
                   333 59003=
200807032100 AAXX 03214 67665 42980 00000 10112 20//0 48567
                   333 59010=
200807031800 AAXX 03184 67665 42980 15003 10148 20//0 48518
                   333 10238 59010=
200807031500 AAXX 03154 67665 41959 02102 10250 20076 48522 70400
                   333 59021 555 10238=
200807031200 AAXX 03124 67665 41959 02104 10252 20034 48532 70400
                   333 59020=
200807030600 AAXX 03064 67665 31970 01503 10120 20078 48537 70500
                   333 10231 20057 59016=
200807030400 AAXX 03044 67665 42980 01303 10064 20//0 48522
                   333 59014=
200807030300 AAXX 03034 67665 42980 01703 10064 20//0 48520
                   333 59012=
200807022100 AAXX 02214 67665 42980 01504 10093 20//0 48535
                   333 59023=
200807020600 AAXX 02064 67665 32980 01202 10102 20050 48550
                   333 10224 20046 59016=
200807011800 AAXX 01184 67665 42980 01202 10118 20//0 48533
                   333 10224 59013=
200807011500 AAXX 01154 67665 41959 00807 10209 20033 48549 70500
                   333 59011 555 10224=
200807011200 AAXX 01124 67665 41959 01006 10208 20052 48559 70500
                   333 59009=
200807010900 AAXX 01094 67665 41960 00711 10172 20075 48580 70500
                   333 59010=
200807010600 AAXX 01064 67665 32980 01105 10075 20030 48563
                   333 10229 20050 59004=

################################################################################
#  SYNOPS from 67666, Lusaka City Airport (Zambia) | 15-25S | 028-19E | 1280 m
################################################################################
200807291200 AAXX 29124 67666 42780 50908 10213 20089 48558 85200
                   333 58016 85850=
200807250900 AAXX 25094 67666 42480 30912 10183 20096 48579 83800
                   333 59004 81618 83820=
200807240600 AAXX 24064 67666 32480 11014 10134 20108 48572 81100
                   333 10210 20111 58013 81820=
200807230600 AAXX 23064 67666 32980 20912 10134 20095 48560 82030
                   333 10210 20110 59002 82360=
200807220600 AAXX 22064 67666 32980 60912 10140 20095 48562 86030
                   333 10220 20105 58000 86360=
200807180600 AAXX 18064 67666 32980 00913 10133 20078 48574
                   333 10210 20104 58003=
200807170900 AAXX 17094 67666 42580 30908 10186 20060 48582 83100
                   333 58001 83825=
200807170600 AAXX 17064 67666 32980 01210 10135 20072 48572
                   333 10200 20100 59005=
200807160600 AAXX 16064 67666 60904 10170 20071 48580 86030
                   333 10180 20055 59001 86360=
200807100900 AAXX 10094 67666 41975 00910 10242 20080 48566 70500
                   333 58006=
200807090900 AAXX 09094 67666 42980 00706 10235 20108 48560
                   333 59004=
200807040900 AAXX 04094 67666 42980 00000 10240 20080 48545
                   333 58004=

################################################################################
#  SYNOPS from 67667, Mount Makulu (Zambia) | 15-33S | 028-15E | 1213 m
################################################################################
200807240900 AAXX 24094 67667 42680 20920 10200 20087 48/// 82100
                   333 5//// 82830=
200807240600 AAXX 24064 67667 32680 10914 10148 20103 48/// 81100
                   333 10215 20111 5//// 81830=
200807230600 AAXX 23064 67667 32680 10109 10141 20083 48/// 81100
                   333 10222 20144 5//// 81820=
200807090600 AAXX 09064 67667 31970 00703 10182 20090 70500
                   333 10280 20128 5////=

################################################################################
#  SYNOPS from 67673, Petauke (Zambia) | 14-15S | 031-17E | 1035 m
################################################################################
200807291200 AAXX 29124 67673 42680 61208 10263 20070 48573 86200
                   333 58012 86840=
200807240900 AAXX 24094 67673 41675 31307 10217 20121 48597 70510 83100
                   333 58013 83830=
200807240600 AAXX 24064 67673 31575 41206 10160 20120 48590 70522 81530
                   333 10230 20126 58014 81620 84362=
200807230600 AAXX 23064 67673 31575 71406 10167 20120 48577 70522 8153/
                   333 10225 20147 58000 81620 87362=
200807220600 AAXX 22064 67673 32580 71606 10150 20110 48574 84530
                   333 10254 20136 59003 84620 87362=
200807180600 AAXX 18064 67673 31575 21408 10164 20104 48585 70522 82500
                   333 10250 20142 58014 82620=
200807170600 AAXX 17064 67673 32980 71607 10186 20110 48576 87030
                   333 10230 20129 59013 87362=
200807090600 AAXX 09064 67673 31970 00902 10214 20131 48568 70500
                   333 10290 20144 58006=
200807040900 AAXX 04094 67673 41970 03603 10262 20116 48557 70500
                   333 59002=

################################################################################
#  SYNOPS from 67741, Sesheke (Zambia) | 17-28S | 024-18E | 949 m
################################################################################
200807240600 AAXX 24064 67741 31975 10000 10096 20071 48571 70500 81030
                   333 10255 20055 58018 81362=
200807180600 AAXX 18064 67741 31975 00902 10093 20068 48574 70500
                   333 10252 20055 59015=
200807170600 AAXX 17064 67741 31975 00000 10074 20050 48555 70500
                   333 10244 20027 59001=

################################################################################
#  SYNOPS from 67743, Livingstone (Zambia) | 17-49S | 025-49E | 985 m
################################################################################
200807301500 AAXX 30154 67743 41975 01007 10245 20055 48563 70500
                   333 59004 555 10260 91022=
200807291200 AAXX 29124 67743 41975 01208 10260 20030 48574 70500
                   333 58008 555 91023=
200807271200 AAXX 27124 67743 41875 23102 10250 20042 48567 70500 82100
                   333 59013 82857=
200807270900 AAXX 27094 67743 41775 11105 10219 48585 70500 81130
                   333 59009 81850 81361=
200807270600 AAXX 27064 67743 31975 21302 10141 20087 48570 70500 82030
                   333 10257 20096 59002 82360=
200807260600 AAXX 26064 67743 31970 51204 10138 20086 48572 70500 85030
                   333 10232 20096 59006 85359=
200807250900 AAXX 25094 67743 41975 60710 10200 20085 48594 87030
                   333 58000 87360=
200807250600 AAXX 25064 67743 32980 71305 10140 20075 48577 87030
                   333 10235 20125 59002 87360=
200807240900 AAXX 24094 67743 41975 31006 10215 20086 48600 70500 83300
                   333 58012 83850=
200807240600 AAXX 24064 67743 31975 00804 10135 20067 48575 70500
                   333 10241 20088 58013=
200807231200 AAXX 23124 67743 41770 40710 10225 20072 48567 70500 84160
                   333 58001 84856 83360 91023=
200807230600 AAXX 23064 67743 31975 11303 10132 20056 48565 70500 81030
                   333 10249 20105 59002 81360=
200807220900 AAXX 22094 67743 41970 01008 10204 20063 48585 70500
                   333 59006=
200807220600 AAXX 22064 67743 31970 01303 10132 20056 48567 70500
                   333 10257 20105 59002=
200807211500 AAXX 21154 67743 41870 31008 10241 20058 48565 70500 83100
                   333 59007 83857=
200807191200 AAXX 19124 67743 42780 20708 10215 20066 48580 82100
                   333 59001 82856 555 91025=
200807181500 AAXX 18154 67743 41870 01106 10215 20055 48575 70500
                   333 58013 555 10235 91024=
200807181200 AAXX 18124 67743 41870 11108 10215 20054 48583 70500 81100
                   333 58014 81857=
200807180600 AAXX 18064 67743 32970 31204 10120 20046 48585 83030
                   333 10240 20094 58017 83360=
200807171200 AAXX 17124 67743 41970 10907 10123 20066 48567 70500 81030
                   333 58008 81360 91024=
200807170600 AAXX 17064 67743 31970 00505 10110 20049 48562 70500
                   333 10241 20075 59001=
200807161500 AAXX 16154 67743 41970 00609 10226 20048 48556 70500
                   333 59019=
200807161200 AAXX 16124 67743 41970 11206 10223 20059 48564 70500 81100
                   333 59015 81858=
200807150900 AAXX 15094 67743 41970 41005 10200 20095 48599 70500 84100
                   333 59001=
200807150600 AAXX 15064 67743 31970 00802 10122 20085 48582 70500
                   333 10250 20080 58007=
200807141500 AAXX 14154 67743 42780 11012 10225 20075 48578 81100
                   333 58030 81857=
200807111500 AAXX 11154 67743 41775 01111 10276 20076 48555 70500
                   333 59009 555 10300 91020=
200807101200 AAXX 10124 67743 41970 00803 10297 20063 48561 70500
                   333 58025=
200807100900 AAXX 10094 67743 42970 01503 10245 20075 48569
                   333 58014=
200807091500 AAXX 09154 67743 42975 01702 10290 20070 48536
                   333 58001=
200807091200 AAXX 09124 67743 42975 01704 10300 20086 48535
                   333 59012=
200807090600 AAXX 09064 67743 32975 00000 10124 20103 48532
                   333 10306 20102 59005=
200807081500 AAXX 08154 67743 42970 01005 10284 20094 48535
                   333 5////=
200807081200 AAXX 08124 67743 42970 00304 10300 20044 48549
                   333 59005=
200807080600 AAXX 08064 67743 32970 00706 10165 20065 48550
                   333 10298 20124 59004=
200807071500 AAXX 07154 67743 41970 00907 10269 20030 48537 70500
                   333 59017=
200807051200 AAXX 05124 67743 42970 01302 10285 20014 48517
                   333 58001=
200807050600 AAXX 05064 67743 32970 50000 10135 20088 48499 85030
                   333 10300 20111 59016 85360=
200807041200 AAXX 04124 67743 42980 03108 10292 20042 48514
                   333 59005=
200807030600 AAXX 03064 67743 31975 01203 10105 20074 48519
                   333 10264 20073 59023=
200807020600 AAXX 02064 67743 31975 00401 10099 20071 70500
                   333 10260 20062 58016=
200807011200 AAXX 01124 67743 41970 00906 10426 20015 58558 70500
                   333 59011 91021=
200807010600 AAXX 01064 67743 32980 00605 10115 20042 48556
                   333 10255 20073 59010=

################################################################################
#  SYNOPS from 67751, Magoye (Zambia) | 16-00S | 027-36E | 1018 m
################################################################################
200807180600 AAXX 18064 67751 31978 01608 10146 20080 48/// 70500
                   333 10234 20069 59004=

################################################################################
#  SYNOPS from 67753, Choma (Zambia) | 16-50S | 027-04E | 1213 m
################################################################################
200807240600 AAXX 24064 67753 32980 70000 10180 20129 48591 8703/
                   333 10280 20/// 58017 87360=
200807230600 AAXX 23064 67753 31965 70904 10124 20080 48/// 70522 8703/
                   333 10204 20085 5//// 87360=
200807220600 AAXX 22064 67753 31960 00904 10134 20088 48/// 70500 81030
                   333 10/// 20/// 5//// 81360=
200807180600 AAXX 18064 67753 31960 00912 10118 20089 48/// 70500
                   333 10207 20063 5////=
200807170900 AAXX 17094 67753 41560 50910 10193 20062 70521 85100
                   333 5//// 85825=
200807101200 AAXX 10124 67753 41960 00905 10284 20047 48/// 70500
                   333 5////=
200807090600 AAXX 09064 67753 31960 00000 10121 20085 70500
                   333 10282 20052 5////=
200807041200 AAXX 04124 67753 41960 03608 10277 20071 48/// 70500 333=
200807040900 AAXX 04094 67753 41970 03605 10244 20076 48/// 70500 333=

################################################################################
#  SYNOPS from 67855, Lupaki (Zambia) | 17-03-00S | 024-46-00E | 1000 m
################################################################################
200807310000 AAXX 31004 67855 NIL=
200807301800 AAXX 30184 67855 NIL=
200807301200 AAXX 30124 67855 NIL=
200807300600 AAXX 30064 67855 NIL=
200807300000 AAXX 30004 67855 NIL=
200807291800 AAXX 29184 67855 NIL=
200807291200 AAXX 29124 67855 NIL=
200807290600 AAXX 29064 67855 NIL=
200807281800 AAXX 28184 67855 NIL=
200807281200 AAXX 28124 67855 NIL=
200807280600 AAXX 28064 67855 32980 20000 10080 20047 3//// 48/// 82030
                   333 20033 5//// 82360=
200807271800 AAXX 27184 67855 NIL=
200807271200 AAXX 27124 67855 NIL=
200807270600 AAXX 27064 67855 NIL=
200807270000 AAXX 27004 67855 NIL=
200807261800 AAXX 26184 67855 NIL=
200807261200 AAXX 26124 67855 NIL=
200807260600 AAXX 26064 67855 NIL=
200807260000 AAXX 26004 67855 NIL=
200807251800 AAXX 25184 67855 NIL=
200807251200 AAXX 25124 67855 NIL=
200807250600 AAXX 25064 67855 NIL=
200807250000 AAXX 25004 67855 NIL=
200807241800 AAXX 24184 67855 NIL=
200807240600 AAXX 24064 67855 32980 71201 10148 20081 3//// 48/// 8707/
                   333 20095 5//// 87360=
200807240000 AAXX 24004 67855 NIL=
200807231800 AAXX 23184 67855 NIL=
200807230600 AAXX 23064 67855 NIL=
200807230000 AAXX 23004 67855 NIL=
200807221800 AAXX 22184 67855 NIL=
200807221200 AAXX 22124 67855 NIL=
200807220600 AAXX 22064 67855 NIL=
200807220000 AAXX 22004 67855 NIL=
200807211800 AAXX 21184 67855 NIL=
200807211200 AAXX 21124 67855 NIL=
200807210600 AAXX 21064 67855 NIL=
200807210000 AAXX 21004 67855 NIL=
200807201800 AAXX 20184 67855 NIL=
200807201200 AAXX 20124 67855 NIL=
200807200600 AAXX 20064 67855 NIL=
200807200000 AAXX 20004 67855 NIL=
200807191800 AAXX 19184 67855 NIL=
200807191200 AAXX 19124 67855 NIL=
200807190600 AAXX 19064 67855 NIL=
200807190000 AAXX 19004 67855 NIL=
200807181800 AAXX 18184 67855 NIL=
200807181200 AAXX 18124 67855 NIL=
200807180600 AAXX 18064 67855 NIL=
200807180000 AAXX 18004 67855 NIL=
200807171800 AAXX 17184 67855 NIL=
200807170600 AAXX 17064 67855 NIL=
200807170000 AAXX 17004 67855 NIL=
200807161800 AAXX 16184 67855 NIL=
200807161200 AAXX 16124 67855 NIL=
200807160600 AAXX 16064 67855 NIL=
200807160000 AAXX 16004 67855 NIL=
200807151800 AAXX 15184 67855 NIL=
200807151200 AAXX 15124 67855 NIL=
200807150000 AAXX 15004 67855 NIL=
200807141800 AAXX 14184 67855 NIL=
200807141200 AAXX 14124 67855 NIL=
200807140600 AAXX 14064 67855 NIL=
200807140000 AAXX 14004 67855 NIL=
200807131800 AAXX 13184 67855 NIL=
200807131200 AAXX 13124 67855 NIL=
200807121200 AAXX 12124 67855 NIL=
200807120000 AAXX 12004 67855 NIL=
200807111800 AAXX 11184 67855 NIL=
200807111200 AAXX 11124 67855 NIL=
200807110600 AAXX 11064 67855 NIL=
200807110000 AAXX 11004 67855 NIL=
200807101200 AAXX 10124 67855 NIL=
200807100600 AAXX 10064 67855 NIL=
200807100000 AAXX 10004 67855 NIL=
200807091800 AAXX 09184 67855 NIL=
200807091200 AAXX 09124 67855 NIL=
200807090600 AAXX 09064 67855 NIL=
200807090000 AAXX 09004 67855 NIL=
200807081800 AAXX 08184 67855 NIL=
200807081200 AAXX 08124 67855 NIL=
200807080600 AAXX 08064 67855 NIL=
200807080000 AAXX 08004 67855 NIL=
200807071800 AAXX 07184 67855 NIL=
200807071200 AAXX 07124 67855 NIL=
200807070600 AAXX 07064 67855 NIL=
200807070000 AAXX 07004 67855 NIL=
200807061800 AAXX 06184 67855 NIL=
200807061200 AAXX 06124 67855 NIL=
200807060600 AAXX 06064 67855 NIL=
200807060000 AAXX 06004 67855 NIL=
200807051800 AAXX 05184 67855 NIL=
200807051200 AAXX 05124 67855 NIL=
200807050600 AAXX 05064 67855 NIL=
200807050000 AAXX 05004 67855 NIL=
200807041800 AAXX 04184 67855 NIL=
200807041200 AAXX 04124 67855 NIL=
200807040600 AAXX 04064 67855 NIL=
200807040000 AAXX 04004 67855 NIL=
200807031800 AAXX 03184 67855 NIL=
200807031200 AAXX 03124 67855 NIL=
200807030600 AAXX 03064 67855 NIL=
200807030000 AAXX 03004 67855 NIL=
200807021800 AAXX 02184 67855 NIL=
200807021200 AAXX 02124 67855 NIL=
200807020600 AAXX 02064 67855 NIL=
200807020000 AAXX 02004 67855 NIL=
200807011800 AAXX 01184 67855 NIL=
200807011200 AAXX 01124 67855 NIL=
200807010600 AAXX 01064 67855 NIL=
