################################################################################
# Query made at 04/14/2022 02:45:44 UTC
# Country like Zamb*
# Time interval: from 01/01/2018 05:30  to 01/31/2018 06:30  UTC
################################################################################

################################################################################
#  SYNOPS from 67403, Kawambwa (Zambia) | 09-48S | 029-05E | 1323 m
################################################################################
201801170600 AAXX 17064 67403 11356 72701 10192 20187 48521 60084 76166 8557/
                   333 10278 20176 58007 85608 87360
                   555 00176=
201801160600 AAXX 16064 67403 11356 72701 10192 20187 48521 60084 76166 8557/
                   333 10278 20176 58007 85608 87360
                   555 00176=
201801151500 AAXX 15154 67403 NIL=
201801151200 AAXX 15124 67403 NIL=
201801150900 AAXX 15094 67403 NIL=
201801100900 AAXX 10094 67403 NIL=
201801090600 AAXX 09064 67403 11975 43002 10215 20180 48515 69924 70522 84031
                   333 10250 20172 59002 84360 81080
                   555 00164=
201801080600 AAXX 08064 67403 11960 83001 10185 20178 48515 69974 70566 8703/
                   333 10256 20180 58007 87360
                   555 00180=
201801051200 AAXX 05124 67403 NIL=
201801050600 AAXX 05064 67403 11480 62701 10198 20181 48508 60224 70362 83530
                   333 10270 20172 59008 83610 86360
                   555 00176=
201801040600 AAXX 04064 67403 11480 60903 10203 20183 48516 60324 70322 82530
                   333 10300 20178 58014 82610 86360
                   555 00174=
201801030600 AAXX 03064 67403 31480 52702 10223 20188 48504 70300 84531
                   333 10280 20188 59003 84610 82360 81080
                   555 00184=
201801020600 AAXX 02064 67403 11480 63002 10213 20188 48506 69924 70322 84530
                   333 10256 20178 59018 84610 84360
                   555 00176=

################################################################################
#  SYNOPS from 67413, Mbala (Zambia) | 08-51S | 031-20E | 1673 m
################################################################################
201801170600 AAXX 17064 67413 11/10 /3005 10160 20153 48527 60184 74544 89///
                   333 10230 20090 59016
                   555 00090 91022=
201801151500 AAXX 15154 67413 NIL=
201801151200 AAXX 15124 67413 NIL=
201801150900 AAXX 15094 67413 NIL=
201801100900 AAXX 10094 67413 NIL=
201801080600 AAXX 08064 67413 NIL=
201801051200 AAXX 05124 67413 NIL=
201801040600 AAXX 04064 67413 NIL=

################################################################################
#  SYNOPS from 67441, Mwinilunga (Zambia) | 11-45S | 024-26E | 1361 m
################################################################################
201801151500 AAXX 15154 67441 NIL=
201801151200 AAXX 15124 67441 NIL=
201801150900 AAXX 15094 67441 NIL=
201801100900 AAXX 10094 67441 NIL=
201801080600 AAXX 08064 67441 NIL=
201801051200 AAXX 05124 67441 NIL=
201801040600 AAXX 04064 67441 NIL=

################################################################################
#  SYNOPS from 67461, Mansa (Zambia) | 11-06S | 028-51E | 1382 m
################################################################################
201801170900 AAXX 17094 67461 42580 71204 10235 20197 48514 8417/
                   333 58000 84828 87360 91017=
201801170600 AAXX 17064 67461 12980 70000 10202 20184 48517 60084 8707/
                   333 10282 20164 58000 87360
                   555 00160 91018=
201801160900 AAXX 16094 67461 42580 73506 10240 20180 48515 84537
                   333 58000 83625 81830 83360 87280 91017=
201801160600 AAXX 16064 67461 12980 70000 10202 20184 48517 60084 8707/
                   333 10282 20164 58000 87360
                   555 00160 91018=
201801151500 AAXX 15154 67461 NIL=
201801151200 AAXX 15124 67461 NIL=
201801150900 AAXX 15094 67461 42680 62304 10252 20176 48516 84230
                   333 58000 84830 82360 91017=
201801100900 AAXX 10094 67461 42580 71003 10242 20178 48515 8113/
                   333 58002 81828 87360 91017=
201801090600 AAXX 09064 67461 32980 63306 10220 20190 48514 81038
                   333 10290 20160 58000 81360 85280
                   555 00150 91017=
201801080900 AAXX 08094 67461 42680 62609 10254 20187 48504 84130
                   333 58000 84830 82360 91016=
201801080600 AAXX 08064 67461 12580 62703 10212 20181 48513 69904 81137
                   333 10269 20160 58000 81825 81360 86280
                   555 00160 91017=
201801051200 AAXX 05124 67461 NIL=
201801050900 AAXX 05094 67461 42580 71509 10239 20166 48501 8653/
                   333 59011 84625 82830 83360 91016=
201801050600 AAXX 05064 67461 12580 70806 10220 20172 48513 69904 83130
                   333 10269 20169 59007 83825 86360
                   555 00165 91017=
201801040900 AAXX 04094 67461 42580 71509 10245 20180 48514 86530
                   333 5//// 86628 81830 83360 91017=
201801040600 AAXX 04064 67461 12580 71510 10209 20178 48518 60184 875//
                   333 10290 20160 58008 87620
                   555 00160 91019=
201801030600 AAXX 03064 67461 32580 72405 10228 20184 48512 8323/
                   333 10290 20165 58010 83823 86360
                   555 00162=
201801020600 AAXX 02064 67461 12580 73406 10202 20190 48510 69904 8153/
                   333 10280 20159 81620 87360 91016=

################################################################################
#  SYNOPS from 67469, Samfya (Zambia) | 11-22S | 029-54E | 1171 m
################################################################################
201801170600 AAXX 17064 67469 12380 61602 10214 20190 48/// 60114 83632
                   333 10279 20170 5//// 83706 82815 84360 82080=
201801151500 AAXX 15154 67469 NIL=
201801151200 AAXX 15124 67469 NIL=
201801150900 AAXX 15094 67469 NIL=
201801100900 AAXX 10094 67469 NIL=
201801090600 AAXX 09064 67469 32980 23006 10245 20190 48/// 81032
                   333 10310 20170 5//// 81360 81080=
201801080600 AAXX 08064 67469 12980 20634 10220 20190 48/// 60514 82032
                   333 10289 20173 5//// 82360 81080=
201801051200 AAXX 05124 67469 NIL=
201801040600 AAXX 04064 67469 NIL=

################################################################################
#  SYNOPS from 67475, Kasama (Zambia) | 10-13S | 031-08E | 1382 m
################################################################################
201801170900 AAXX 17094 67475 42560 71806 10233 20179 48513 70322 8527/
                   333 59007 85820 86360 91019=
201801170600 AAXX 17064 67475 12360 63208 10191 20182 48521 69904 70222 8167/
                   333 10277 20165 58004 81707 86360 91020=
201801161200 AAXX 16124 67475 41459 72610 10221 20182 48/// 71799 8177/
                   333 5//// 81710 81925 83830 87460=
201801160600 AAXX 16064 67475 12360 63208 10191 20182 48521 69904 70222 8167/
                   333 10277 20165 58004 81707 86360 91020=
201801151500 AAXX 15154 67475 NIL=
201801151200 AAXX 15124 67475 NIL=
201801150900 AAXX 15094 67475 42560 72004 10230 20177 48518 70322 8687/
                   333 58006 86820 84460 91020=
201801100900 AAXX 10094 67475 42560 80501 10235 20174 48519 70322 82277
                   333 58005 82825 81360 88280 91020=
201801090600 AAXX 09064 67475 12960 72807 10176 20176 48519 60014 70322 81038
                   333 10268 20155 59004 81360 86280 91020=
201801080600 AAXX 08064 67475 11360 83107 10180 20172 48522 60054 76055 8277/
                   333 10250 20175 58006 88460 91020=
201801051200 AAXX 05124 67475 41660 71002 10256 20171 48484 71522 8427/
                   333 59010 84840 86362 91015=
201801050900 AAXX 05094 67475 42560 71404 10222 20170 48512 70322 8427/
                   333 59009 84825 86360 91019=
201801040900 AAXX 04094 67475 42560 61412 10232 20167 48521 70122 84232
                   333 58015 84825 81361 82080 91020=
201801040600 AAXX 04064 67475 31360 72010 10180 20178 48526 72844 877//
                   333 10288 20166 58015 87706 91021=
201801030600 AAXX 03064 67475 12560 63407 10198 20178 48512 60024 70299 8227/
                   333 10285 20165 58002 81920 81820 86360 91019=
201801020600 AAXX 02064 67475 12960 43504 10240 20154 48511 60064 70322 84031
                   333 10234 20155 59022 84360 83080 91019=

################################################################################
#  SYNOPS from 67476, Misamfu (Zambia) | 10-06S | 031-15E | 1536 m
################################################################################
201801170600 AAXX 17064 67476 32980 63201 10190 20177 48/// 86031
                   333 10268 20170 58002 86360 81080
                   555 00162=
201801160600 AAXX 16064 67476 32980 63201 10190 20177 48/// 86031
                   333 10268 20170 58002 86360 81080
                   555 00162=
201801151500 AAXX 15154 67476 NIL=
201801151200 AAXX 15124 67476 NIL=
201801150900 AAXX 15094 67476 NIL=
201801100900 AAXX 10094 67476 NIL=
201801080600 AAXX 08064 67476 NIL=
201801051200 AAXX 05124 67476 NIL=
201801050600 AAXX 05064 67476 12580 81501 10195 20175 48/// 60054 8657/
                   333 10268 20172 5//// 86620 88460
                   555 00170=
201801040600 AAXX 04064 67476 12580 71303 10200 20177 48/// 69904 87530
                   333 10270 20168 5//// 87625 84360
                   555 00162=
201801030600 AAXX 03064 67476 12980 63501 10198 20175 48/// 60044 86071
                   333 10283 20165 5//// 86459 81080
                   555 00161=

################################################################################
#  SYNOPS from 67477, Mpika (Zambia) | 11-54S | 031-26E | 1400 m
################################################################################
201801170600 AAXX 17064 67477 11480 80000 10187 20170 48530 60104 76022 8557/
                   333 10269 20162 58005 85610 84459
                   555 00128=
201801160600 AAXX 16064 67477 11480 80000 10187 20170 48530 60104 76022 8557/
                   333 10269 20162 58005 85610 84459
                   555 00128=
201801151500 AAXX 15154 67477 NIL=
201801151200 AAXX 15124 67477 NIL=
201801150900 AAXX 15094 67477 NIL=
201801100900 AAXX 10094 67477 NIL=
201801090600 AAXX 09064 67477 31478 73302 10201 20170 48524 74042 84570
                   333 10289 20162 58004 84610 85459
                   555 00153=
201801080600 AAXX 08064 67477 11475 83302 10199 20180 48520 69904 74042 886//
                   333 10292 20172 58010 88610
                   555 00136=
201801051200 AAXX 05124 67477 NIL=
201801040600 AAXX 04064 67477 12480 81203 10187 20160 48530 60014 8457/
                   333 10232 20172 58010 84612 86459
                   555 00164=
201801030600 AAXX 03064 67477 32480 81203 10183 20170 48520 8657/
                   333 10300 20172 58004 86610 84459
                   555 00168=
201801020600 AAXX 02064 67477 32480 83302 10193 20180 48515 8567/
                   333 10262 20151 58000 84610 84459
                   555 00143=

################################################################################
#  SYNOPS from 67481, Isoka (Zambia) | 10-07S | 032-38E | 1360 m
################################################################################
201801170600 AAXX 17064 67481 12380 72201 10184 20178 48/// 60544 8267/
                   333 10270 20165 59009 82707 87460=
201801160600 AAXX 16064 67481 12360 62202 10196 20186 48/// 69904 82670
                   333 10250 20176 58004 82708 86360=
201801151500 AAXX 15154 67481 NIL=
201801151200 AAXX 15124 67481 NIL=
201801150900 AAXX 15094 67481 42480 70000 10222 20187 48/// 84230
                   333 5//// 84815 87361=
201801100900 AAXX 10094 67481 42480 80000 10226 20177 48/// 8429/
                   333 58019 82817 83617 88361=
201801090600 AAXX 09064 67481 12980 13002 10217 20185 48/// 60024 80001
                   333 10244 20165 58002 81080=
201801080900 AAXX 08094 67481 42480 73003 10217 20175 48/// 8427/
                   333 5//// 83819 82619 87459=
201801080600 AAXX 08064 67481 12480 73005 10200 20170 48/// 60054 8457/
                   333 10250 20170 58006 84610 87459=
201801051200 AAXX 05124 67481 41580 72703 10233 20183 48/// 71722 8497/
                   333 5//// 81922 82822 82625 87361=
201801050900 AAXX 05094 67481 42580 70304 10235 20182 48/// 8657/
                   333 59007 86625 87360=
201801040900 AAXX 04094 67481 42580 60304 10235 20182 48/// 86201
                   333 58012 86825 83080=
201801040600 AAXX 04064 67481 32480 60000 10198 20182 48/// 83531
                   333 10252 20180 58014 83610 84360 83080=
201801020900 AAXX 02094 67481 42680 50302 10258 20170 48/// 84130
                   333 5//// 84830 84360=
201801020600 AAXX 02064 67481 32980 73003 10192 20182 48/// 8707/
                   333 10280 20158 5//// 87460=

################################################################################
#  SYNOPS from 67531, Zambezi (Zambia) | 13-32S | 023-07E | 1077 m
################################################################################
201801170600 AAXX 17064 67531 12980 60302 10216 20187 48/// 69904 70222 8607/
                   333 10321 20182 5//// 86362
                   555 00192=
201801160600 AAXX 16064 67531 32980 43303 10200 20179 48/// 70200 84030
                   333 10305 20166 5//// 84362
                   555 00170=
201801151500 AAXX 15154 67531 NIL=
201801151200 AAXX 15124 67531 NIL=
201801150900 AAXX 15094 67531 NIL=
201801100900 AAXX 10094 67531 NIL=
201801100600 AAXX 10064 67531 32980 63302 10205 20176 48/// 70222 8607/
                   333 10321 20174 5//// 86361
                   555 00181=
201801090600 AAXX 09064 67531 12980 63604 10209 20178 48/// 60044 70222 8607/
                   333 10327 20172 5//// 86361
                   555 00181=
201801080600 AAXX 08064 67531 32480 43607 10217 20186 48/// 70200 84500
                   333 10315 20182 5//// 84618
                   555 00183=
201801051200 AAXX 05124 67531 NIL=
201801040600 AAXX 04064 67531 12980 70903 10221 20192 48/// 60034 8707/
                   333 10291 20175 5//// 87360
                   555 00190=
201801020600 AAXX 02064 67531 12980 73602 10192 20176 48/// 60234 70222 8707/
                   333 10314 20174 5//// 87361=

################################################################################
#  SYNOPS from 67541, Kasempa (Zambia) | 13-32S | 025-51E | 1234 m
################################################################################
201801170600 AAXX 17064 67541 12980 70000 10185 20177 48497 60454 70222 8703/
                   333 10300 20166 59003 87360=
201801160600 AAXX 16064 67541 32980 70902 10196 20184 48500 70222 87030
                   333 10316 20160 59014 87360=
201801151500 AAXX 15154 67541 NIL=
201801151200 AAXX 15124 67541 NIL=
201801150900 AAXX 15094 67541 NIL=
201801100900 AAXX 10094 67541 NIL=
201801100600 AAXX 10064 67541 32980 70000 10195 20178 48496 70222 87030
                   333 10340 20160 59010 87360=
201801090600 AAXX 09064 67541 32980 70602 10204 20174 48506 70222 87030
                   333 10326 20162 59001 87360=
201801080600 AAXX 08064 67541 32380 50703 10200 20183 48507 70222 85500
                   333 10310 20150 58010 85606=
201801051200 AAXX 05124 67541 NIL=
201801040600 AAXX 04064 67541 12480 10605 10210 20179 48508 60044 70222 81100
                   333 10284 20168 58011 81810=
201801020600 AAXX 02064 67541 32980 10000 10220 20185 48498 70222 81030
                   333 10280 20164 58000 81360=

################################################################################
#  SYNOPS from 67543, Kabompo (Zambia) | 13-36S | 024-12E | 1075 m
################################################################################
201801170600 AAXX 17064 67543 12383 70000 10200 20182 48/// 60044 8263/
                   333 10326 20186 59006 82707 87360
                   555 00180=
201801160600 AAXX 16064 67543 32983 70000 10204 20176 48/// 80007
                   333 10332 20178 59018 87280
                   555 00170=
201801151500 AAXX 15154 67543 NIL=
201801151200 AAXX 15124 67543 NIL=
201801150900 AAXX 15094 67543 NIL=
201801100900 AAXX 10094 67543 NIL=
201801080600 AAXX 08064 67543 NIL=
201801051200 AAXX 05124 67543 NIL=
201801040600 AAXX 04064 67543 NIL=
201801030600 AAXX 03064 67543 11980 70000 10204 20189 48/// 60014 72122 8707/
                   333 10308 20194 59015 87360
                   555 00174=
201801020600 AAXX 02064 67543 32383 70000 10192 20182 48/// 8267/
                   333 10308 20178 58007 82727 87360
                   555 00158=

################################################################################
#  SYNOPS from 67551, Solwezi (Zambia) | 12-11S | 026-23E | 1386 m
################################################################################
201801170600 AAXX 17064 67551 11275 70603 10177 20172 48507 60994 76766 8277/
                   333 10288 20//0 59013 82703 87362
                   555 00184 91017=
201801160600 AAXX 16064 67551 32980 73503 10193 20174 48516 87030
                   333 10314 2//// 58001 87362
                   555 00219 91019=
201801151500 AAXX 15154 67551 NIL=
201801151200 AAXX 15124 67551 NIL=
201801150900 AAXX 15094 67551 NIL=
201801100900 AAXX 10094 67551 NIL=
201801100600 AAXX 10064 67551 12375 73404 10190 20174 48528 60174 76062 8177/
                   333 10304 20//0 58006 81706 87362
                   555 00224 91019=
201801090600 AAXX 09064 67551 32980 43204 10204 20176 48514 82030
                   333 10321 20//0 58014 82362
                   555 00222 91019=
201801080600 AAXX 08064 67551 32480 73505 10199 20174 48512 86530
                   333 10266 2//// 58009 86610 88362 91019=
201801051200 AAXX 05124 67551 NIL=
201801040600 AAXX 04064 67551 NIL=
201801030600 AAXX 03064 67551 12380 73403 10185 20179 48512 60084 82530
                   333 10291 20//0 58005 82708 87362
                   555 00220 91018=
201801020600 AAXX 02064 67551 32980 73003 10189 20172 48507 87030
                   333 10258 20//0 59010 87362
                   555 00220 91017=

################################################################################
#  SYNOPS from 67561, Ndola (Zambia) | 13-00S | 028-39E | 1269 m
################################################################################
201801170600 AAXX 17064 67561 11259 70000 10191 20181 48515 60044 74222 876//
                   333 10286 20165 59002 87705 91019=
201801160600 AAXX 16064 67561 11360 70807 10202 20184 48518 60064 70522 84638
                   333 10302 20158 59003 84708 84360 87280 91019=
201801151500 AAXX 15154 67561 42680 62108 10300 20153 48478 70122 84268=
201801151200 AAXX 15124 67561 42680 60903 10278 20168 48491 70322 86201
                   333 58001 81930 86835 81080
                   555 66054 77/// 8877/ 98021 91015=
201801150900 AAXX 15094 67561 42480 69903 10263 20189 48517 70322 85232
                   333 58002 85820 81360 84080 91018=
201801100900 AAXX 10094 67561 41470 79902 10212 20176 48529 70522 83538
                   333 58024 85615 86360 87280
                   555 91020=
201801090600 AAXX 09064 67561 31960 22908 10223 20182 48513 70511 80002
                   333 10312 20167 59001 82080 91018=
201801082100 AAXX 08214 67561 41975 52703 10221 20153 48506 70522 80008
                   333 58013 85280 555 91017=
201801081800 AAXX 08184 67561 41975 50000 10230 20150 48490 70522 80008
                   333 10311 58007 85280
                   555 91015=
201801080600 AAXX 08064 67561 31360 60203 10206 20182 48513 70522 82608
                   333 10301 20158 58007 82709 86280 91018=
201801051200 AAXX 05124 67561 42680 63303 10262 20157 48498 70222 86200
                   333 59017 86840 555 66040 77/// 8880/ 98039
                   91016=
201801050900 AAXX 05094 67561 42580 10007 10239 20169 48521 70322 84200
                   333 59010 85825 91018=
201801040600 AAXX 04064 67561 32480 71308 10202 20164 48528 87530
                   333 10271 20178 58017 87610 84360 91020=
201801030600 AAXX 03064 67561 11370 70000 10194 20174 48503 60024 70562 8267/
                   333 10293 20173 58011 82706 87459=
201801020600 AAXX 02064 67561 31975 70000 10197 20176 48500 70522 84038
                   333 10274 20153 59015 84360 86280 91017=

################################################################################
#  SYNOPS from 67563, Kafironda (Zambia) | 12-36S | 028-07E | 1243 m
################################################################################
201801170600 AAXX 17064 67563 11360 82101 10190 20180 48/// 60134 71044 887//
                   333 10290 20164 58002 88708
                   555 00170=
201801160600 AAXX 16064 67563 11378 73602 10213 20190 48/// 60074 70522 81620
                   333 10316 20167 59004 81708 87459
                   555 00169=
201801151500 AAXX 15154 67563 NIL=
201801151200 AAXX 15124 67563 NIL=
201801150900 AAXX 15094 67563 NIL=
201801100900 AAXX 10094 67563 NIL=
201801100600 AAXX 10064 67563 11978 70302 10198 20180 48/// 60104 72162 8707/
                   333 10310 20175 58014 87358
                   555 00175=
201801090600 AAXX 09064 67563 31978 13004 10237 20180 48/// 70500 80002
                   333 10329 20157 59003 81080
                   555 00157=
201801080600 AAXX 08064 67563 31378 52802 10201 20180 48/// 70522 85600
                   333 10304 20150 5//// 85709
                   555 00161=
201801051200 AAXX 05124 67563 NIL=
201801050600 AAXX 05064 67563 11878 71604 10210 20170 48/// 69904 70522 87030
                   333 10275 20176 59006 87357
                   555 00176=
201801040600 AAXX 04064 67563 31578 70806 10206 20170 48/// 70522 86520
                   333 10286 20166 58019 86620 85458
                   555 00166=
201801030600 AAXX 03064 67563 31578 61501 10211 20180 48/// 70522 84570
                   333 10309 20166 58005 84620 83358
                   555 00172=

################################################################################
#  SYNOPS from 67571, Serenje (Zambia) | 13-14S | 030-13E | 1384 m
################################################################################
201801170600 AAXX 17064 67571 12482 70908 10199 20166 48/// 60024 70222 875//
                   333 10257 20171 5//// 87618
                   555 00213=
201801160900 AAXX 16094 67571 42682 63302 10252 20165 48/// 70311 85233
                   333 5//// 81937 85837 81360 83080=
201801160600 AAXX 16064 67571 32982 73302 10211 20171 48/// 85088
                   333 10286 20166 5//// 85360 87280
                   555 00280=
201801151500 AAXX 15154 67571 NIL=
201801151200 AAXX 15124 67571 NIL=
201801150900 AAXX 15094 67571 42682 52702 10247 20177 48/// 70122 84231
                   333 5//// 81930 84830 81360 84080=
201801100900 AAXX 10094 67571 42582 61506 10242 20172 48/// 70222 86200
                   333 5//// 81927 86827=
201801090600 AAXX 09064 67571 12982 32706 10215 20180 48/// 69904 70300 83500
                   333 10306 20151 5//// 83620
                   555 00245=
201801081200 AAXX 08124 67571 42682 73003 10288 20139 48/// 70311 83108
                   333 5//// 83842 86280=
201801080900 AAXX 08094 67571 42682 73603 10251 20177 48/// 70111 82101
                   333 5//// 82830 83080=
201801080600 AAXX 08064 67571 32378 72703 10213 20179 48/// 70222 86608
                   333 10288 20157 5//// 86710 87280
                   555 00262=
201801051200 AAXX 05124 67571 42682 71203 10242 20143 48/// 70222 85101
                   333 5//// 85843 83080=
201801050900 AAXX 05094 67571 42682 71203 10216 20147 48/// 70222 875//
                   333 5//// 87632=
201801050600 AAXX 05064 67571 32482 71203 10179 20151 48/// 70222 875//
                   333 10248 20149 5//// 87618
                   555 00201=
201801040600 AAXX 04064 67571 NIL=
201801031200 AAXX 03124 67571 42682 71203 10249 20164 48/// 70222 82938
                   333 5//// 87280=
201801021200 AAXX 02124 67571 42682 32704 10285 20163 48/// 70100 83200
                   333 5//// 81940 83840=

################################################################################
#  SYNOPS from 67575, Mkushi (Zambia) | 13-38-00S | 029-26-00E | 1237 m
################################################################################
201801170600 AAXX 17064 67575 12480 61205 10212 20178 48477 60064 82578
                   333 10293 20170 59002 82613 81360 85278
                   555 00180=
201801160600 AAXX 16064 67575 32980 20603 10210 20187 48479 81031
                   333 10320 20161 59001 81360 82080
                   555 00160=
201801151500 AAXX 15154 67575 NIL=
201801151200 AAXX 15124 67575 NIL=
201801150900 AAXX 15094 67575 NIL=
201801100900 AAXX 10094 67575 NIL=
201801090600 AAXX 09064 67575 32480 23403 10216 20184 48/// 81181
                   333 10331 20156 59001 81815 82360 81080
                   555 00152=
201801080600 AAXX 08064 67575 32480 33603 10198 20178 48/// 82501
                   333 10300 20165 58006 82612 83080
                   555 00150=
201801051200 AAXX 05124 67575 NIL=
201801040600 AAXX 04064 67575 32480 51206 10212 20162 48/// 85531
                   333 10251 20176 58016 85615 81360 81080
                   555 00168=
201801030600 AAXX 03064 67575 32480 61204 10210 20163 48/// 70322 81570
                   333 10316 20175 5//// 81615 86360=

################################################################################
#  SYNOPS from 67580, Msekera (Zambia) | 13-39S | 032-34E | 1025 m
################################################################################
201801170900 AAXX 17094 67580 42680 71203 10250 20198 48/// 87231
                   333 59006 87846 81361 81080=
201801170600 AAXX 17064 67580 12680 62403 10243 20200 48/// 69944 82131
                   333 10328 20195 59004 82832 82361 83080=
201801160600 AAXX 16064 67580 12680 62403 10243 20200 48/// 69944 82131
                   333 10328 20195 59004 82832 82361 83080=
201801151500 AAXX 15154 67580 NIL=
201801151200 AAXX 15124 67580 42780 71502 10308 20205 48/// 86231
                   333 5//// 83856 82361 82080=
201801150900 AAXX 15094 67580 42680 61802 10281 20194 48/// 85201
                   333 5//// 85846 82080=
201801100900 AAXX 10094 67580 NIL=
201801090600 AAXX 09064 67580 32980 43305 10247 20184 48/// 80001
                   333 10327 20205 59003 84080=
201801080900 AAXX 08094 67580 42780 62704 10280 20192 48/// 84101
                   333 5//// 84850 82080=
201801080600 AAXX 08064 67580 32980 43603 10230 20198 48/// 80001
                   333 10308 20199 5//// 84080=
201801051200 AAXX 05124 67580 NIL=
201801040900 AAXX 04094 67580 42680 71505 10254 20160 48/// 85101
                   333 58012 85844 83080=
201801040600 AAXX 04064 67580 32580 61506 10219 20172 48/// 82101
                   333 10284 20179 58017 82826 85080=
201801030600 AAXX 03064 67580 12580 70302 10235 20186 48/// 60054 82131
                   333 10338 20200 5//// 82832 85360 83080=
201801020900 AAXX 02094 67580 42780 43004 10278 20201 48/// 82101
                   333 5//// 82850 82080=
201801020600 AAXX 02064 67580 32980 20602 10248 20191 48/// 80001
                   333 10319 20191 5//// 82080=

################################################################################
#  SYNOPS from 67581, Chipata (Zambia) | 13-33S | 032-35E | 1028 m
################################################################################
201801151500 AAXX 15154 67581 NIL=
201801151200 AAXX 15124 67581 NIL=
201801150900 AAXX 15094 67581 NIL=
201801100900 AAXX 10094 67581 NIL=
201801100600 AAXX 10064 67581 12380 61204 10244 20179 48538 60244 83132
                   333 10321 20171 58023 83830 82360 82080 91018=
201801090600 AAXX 09064 67581 32980 53003 10252 20183 48516 80008
                   333 10310 20188 59001 85280 91016=
201801080600 AAXX 08064 67581 32980 51204 10242 20185 48516 82032
                   333 10327 20138 5//// 82360 84080 91016=
201801051200 AAXX 05124 67581 NIL=
201801040600 AAXX 04064 67581 32680 51005 10222 20154 48539
                   333 10288 20183 58018 82832 83360 82080 91019=
201801030600 AAXX 03064 67581 32980 61206 10246 20169 48526 70222 84032
                   333 10314 20170 58014 84360 82080 91017=
201801020900 AAXX 02094 67581 42680 42503 10280 20180 48510 83102
                   333 59009 83837 82080 91015=

################################################################################
#  SYNOPS from 67583, Lundazi (Zambia) | 12-17S | 033-12E | 1143 m
################################################################################
201801170600 AAXX 17064 67583 12580 73602 10224 20193 48/// 60134 81130
                   333 10282 20170 5//// 81820 87360=
201801160600 AAXX 16064 67583 12580 73602 10224 20193 48/// 60134 81130
                   333 10282 20170 5//// 81820 87360=
201801151500 AAXX 15154 67583 NIL=
201801151200 AAXX 15124 67583 NIL=
201801150900 AAXX 15094 67583 NIL=
201801100900 AAXX 10094 67583 NIL=
201801100600 AAXX 10064 67583 32580 71801 10239 20183 48/// 81137
                   333 10308 20180 5//// 82360 87280=
201801090600 AAXX 09064 67583 32980 70000 10220 20183 48/// 70200 80008
                   333 10308 20168 5//// 87280=
201801080600 AAXX 08064 67583 32980 60000 10230 20188 48/// 70200 80006
                   333 10296 20170 5//// 86280=
201801051200 AAXX 05124 67583 NIL=
201801050600 AAXX 05064 67583 12480 70000 10212 20182 48/// 60054 83208
                   333 10284 20164 5//// 83810 87280=
201801040600 AAXX 04064 67583 12480 72102 10210 20182 48/// 60134 70200 81638
                   333 10292 20168 5//// 81710 82359 87280=
201801020600 AAXX 02064 67583 32980 51201 10232 20195 48/// 83031
                   333 10284 20160 5//// 83360 82080=

################################################################################
#  SYNOPS from 67599, Mfuwe (Zambia) | 13-16S | 031-56E | 568 m
################################################################################
201801160600 AAXX 16064 67599 12770 71702 10228 20206 48522 69904 8323/
                   333 10342 20200 58004 83850 87358
                   555 00202 91016=
201801151500 AAXX 15154 67599 NIL=
201801151200 AAXX 15124 67599 NIL=
201801150900 AAXX 15094 67599 NIL=
201801100900 AAXX 10094 67599 NIL=
201801100600 AAXX 10064 67599 32980 72103 10229 20207 48525 60024 82037
                   333 10359 20204 58027 82360 87280
                   555 00214 91016=
201801090600 AAXX 09064 67599 32980 70000 10252 20198 48507 80002
                   333 10365 20203 58001 87080
                   555 00214 91013=
201801080600 AAXX 08064 67599 32980 50000 10260 20217 48510 80001
                   333 10335 20205 58005 85080
                   555 00210 91013=
201801051200 AAXX 05124 67599 NIL=
201801040600 AAXX 04064 67599 12680 51706 10254 20187 48539 60014 81130
                   333 10304 20212 58009 81830 85360
                   555 00217 91017=
201801020600 AAXX 02064 67599 32980 20000 10265 20206 48508 80001
                   333 10350 20200 59013 83080
                   555 00205 91013=

################################################################################
#  SYNOPS from 67625, Kalabo (Zambia) | 14-51S | 022-42E | 1033 m
################################################################################
201801170600 AAXX 17064 67625 12982 80903 10219 20194 48/// 60064 82033
                   333 10332 20200 59002 82360 88075=
201801160900 AAXX 16094 67625 42982 72905 10289 20186 48/// 80003
                   333 58001 87075=
201801160600 AAXX 16064 67625 32982 62705 10219 20191 48/// 82033
                   333 10321 20185 58004 82361 86075
                   555 00182=
201801151500 AAXX 15154 67625 NIL=
201801151200 AAXX 15124 67625 NIL=
201801150900 AAXX 15094 67625 NIL=
201801100900 AAXX 10094 67625 NIL=
201801090600 AAXX 09064 67625 12982 42703 10219 20182 48/// 69954 82033
                   333 10334 20179 58011 82361 84075
                   555 00168=
201801081200 AAXX 08124 67625 42782 22705 10329 20180 48/// 82101
                   333 5//// 82850 81075=
201801080900 AAXX 08094 67625 42982 13311 10285 20194 48/// 80001
                   333 81075=
201801080600 AAXX 08064 67625 32982 33305 10221 20198 48/// 80004
                   333 10333 20183 58000 83075
                   555 00178=
201801051200 AAXX 05124 67625 NIL=
201801040600 AAXX 04064 67625 12982 30911 10223 20194 48/// 60014 83030
                   333 10282 20180 58029 83361
                   555 00178=
201801020600 AAXX 02064 67625 11982 81605 10181 20181 48/// 60024 75055 8802/
                   333 10311 20176 58000 88460
                   555 00173=

################################################################################
#  SYNOPS from 67633, Mongu (Zambia) | 15-15S | 023-09E | 1052 m
################################################################################
201801160600 AAXX 16064 67633 32980 43302 10238 20204 48515 70200 80001
                   333 10319 20205 59071 84080 91017=
201801151500 AAXX 15154 67633 NIL=
201801151200 AAXX 15124 67633 NIL=
201801150900 AAXX 15094 67633 NIL=
201801100900 AAXX 10094 67633 NIL=
201801090600 AAXX 09064 67633 32980 23604 10240 20204 48519 70222 82030
                   333 10342 20182 59022 82360 91017=
201801080600 AAXX 08064 67633 32980 03603 10231 20201 48498 70200
                   333 10333 20204 58002 91016=
201801051200 AAXX 05124 67633 NIL=
201801040600 AAXX 04064 67633 32980 10906 10237 20179 48529 70200 80001
                   333 10268 20180 58023 81080 91019=
201801030600 AAXX 03064 67633 32980 33603 10250 20201 48511 70222 83030
                   333 10296 20180 59004 83360 91016=
201801020600 AAXX 02064 67633 12680 83602 10195 20177 48503 69914 70222 8137/
                   333 10//0 20186 58000 81945 87460
                   555 00/// 91017=

################################################################################
#  SYNOPS from 67641, Kaoma (Zambia) | 14-48S | 024-48E | 1213 m
################################################################################
201801170600 AAXX 17064 67641 12980 30402 10220 20197 48499 60164 82031
                   333 10306 20186 59005 82360 81080 91015=
201801160600 AAXX 16064 67641 12980 73205 10240 20191 48508 69924 70222 80001
                   333 10316 20168 59013 87080 91016=
201801151500 AAXX 15154 67641 NIL=
201801151200 AAXX 15124 67641 NIL=
201801150900 AAXX 15094 67641 NIL=
201801100900 AAXX 10094 67641 NIL=
201801090600 AAXX 09064 67641 12980 73203 10201 20165 48499 60014 70322 8703/
                   333 10350 20184 59017 87360 91016=
201801080600 AAXX 08064 67641 32580 13406 10221 20188 48518 70200 81501
                   333 10330 20182 58028 81620 81080 91017=
201801051200 AAXX 05124 67641 NIL=
201801040600 AAXX 04064 67641 NIL=

################################################################################
#  SYNOPS from 67655, Mumbwa (Zambia) | 15-04S | 027-11E | 1216 m
################################################################################
201801151500 AAXX 15154 67655 NIL=
201801151200 AAXX 15124 67655 NIL=
201801150900 AAXX 15094 67655 NIL=
201801100900 AAXX 10094 67655 NIL=
201801080600 AAXX 08064 67655 NIL=
201801051200 AAXX 05124 67655 NIL=
201801040600 AAXX 04064 67655 NIL=

################################################################################
#  SYNOPS from 67659, Kafue Polder (Zambia) | 15-46S | 027-55E | 978 m
################################################################################
201801170600 AAXX 17064 67659 12580 70906 10225 20192 48/// 60034 70322 82230
                   333 10330 20185 58004 82825 85360=
201801160600 AAXX 16064 67659 32980 50704 10245 20199 48/// 70222 85030
                   333 10348 20160 58002 85360=
201801151500 AAXX 15154 67659 NIL=
201801151200 AAXX 15124 67659 NIL=
201801150900 AAXX 15094 67659 NIL=
201801100900 AAXX 10094 67659 NIL=
201801100600 AAXX 10064 67659 32980 70803 10233 20188 48/// 70222 87030
                   333 10309 20202 58029 87360=
201801080600 AAXX 08064 67659 32980 00703 10232 20170 48/// 70500
                   333 10330 20130 59010=
201801051200 AAXX 05124 67659 NIL=
201801050600 AAXX 05064 67659 12480 40904 10230 20191 48/// 60024 70222 84500
                   333 10230 20170 59008 84615=
201801040600 AAXX 04064 67659 NIL=
201801030600 AAXX 03064 67659 12980 70904 10215 20186 48/// 69984 70222 87030
                   333 10330 20185 58032 87360=

################################################################################
#  SYNOPS from 67662, Kabwe Agric (Zambia) | 14-24S | 028-30E | 1165 m
################################################################################
201801160600 AAXX 16064 67662 32980 50902 10227 20176 48/// 80001
                   333 10315 20166 5//// 85080
                   555 00158=
201801151500 AAXX 15154 67662 NIL=
201801151200 AAXX 15124 67662 NIL=
201801150900 AAXX 15094 67662 NIL=
201801100900 AAXX 10094 67662 NIL=
201801100600 AAXX 10064 67662 32980 71202 10211 20176 48/// 87030
                   333 10320 20174 5//// 87360
                   555 00171=
201801080600 AAXX 08064 67662 32980 23406 10225 20171 48/// 80001
                   333 10311 20184 5//// 82080
                   555 00151=
201801051200 AAXX 05124 67662 NIL=
201801040600 AAXX 04064 67662 32480 71506 10210 20175 48/// 875//
                   333 10266 20174 87616
                   555 00162=
201801020600 AAXX 02064 67662 32980 63604 10239 20189 48/// 84031
                   333 10303 20168 5//// 84360 82080
                   555 00163=

################################################################################
#  SYNOPS from 67663, Kabwe (Zambia) | 14-27S | 028-28E | 1206 m
################################################################################
201801151500 AAXX 15154 67663 NIL=
201801151200 AAXX 15124 67663 NIL=
201801150900 AAXX 15094 67663 NIL=
201801100900 AAXX 10094 67663 NIL=
201801090600 AAXX 09064 67663 32980 12906 10229 20139 48535 80002
                   333 10317 20186 59005 81080
                   555 00294=
201801080600 AAXX 08064 67663 32980 12708 10216 20172 48538 80002
                   333 10302 20169 58016 81080
                   555 00274=
201801051200 AAXX 05124 67663 NIL=
201801050600 AAXX 05064 67663 32580 50904 10202 20194 48518 86500
                   333 10263 20159 59006 86623
                   555 00264=
201801040600 AAXX 04064 67663 12580 50912 10206 20172 48525 69904 85530
                   333 10269 20174 58012 85622 81360
                   555 00252=
201801030600 AAXX 03064 67663 11980 73603 10194 20180 48511 60034 76066 87070
                   333 10311 20181 58022 87460
                   555 00222=

################################################################################
#  SYNOPS from 67665, Lusaka Internationalairport (Zambia) | 15-19S | 028-27E | 1152 m
################################################################################
201801310600 AAXX 31064 67665 12980 50302 10232 20192 48516 69904 70122 82038
                   333 59016 82360 85280 91018=
201801300900 AAXX 30094 67665 42560 70307 10249 20190 48533 86532
                   333 58003 86620 83360 81080=
201801300000 AAXX 30004 67665 42980 61702 10199 20187 48506 8193/
                   333 58004 819// 85360=
201801292100 AAXX 29214 67665 42980 61303 10204 20190 48523 8193/
                   333 58013 819// 85360=
201801291500 AAXX 29154 67665 42680 61306 10240 20187 48489 70122 81338
                   333 58009 81932 82840 84360 85280=
201801291200 AAXX 29124 67665 41557 71015 10243 20194 48503 71666 8137/
                   333 58009 81920 85825 87459 91016=
201801290600 AAXX 29064 67665 42460 61303 10221 20193 48524 70322 8653/
                   333 59002 86615 84360=
201801280900 AAXX 28094 67665 42680 50506 10276 20166 48530 85201
                   333 59006 85830 81080=
201801271500 AAXX 27154 67665 42680 31509 10285 20153 48492 83200
                   333 59001 83848=
201801271200 AAXX 27124 67665 42680 50907 10286 20145 48517 85201
                   333 58010 85838=
201801270900 AAXX 27094 67665 42980 50507 10270 20174 48534 85201
                   333 58004 85825 81080=
201801270600 AAXX 27064 67665 32980 21803 10211 20174 48526 70200 80001
                   333 10285 20//0 59002 82080=
201801270300 AAXX 27034 67665 42980 00000 10166 20160 48504 70200
                   333 59004=
201801270000 AAXX 27004 67665 42980 10000 10183 20167 48499 70200 81030
                   333 58012 81360=
201801262100 AAXX 26214 67665 42980 10000 10201 20170 48515 70100 81030
                   333 58016 81360=
201801260900 AAXX 26094 67665 42580 70608 10255 20180 48528 70222 85531
                   333 58002 85620 82360 83080=
201801260300 AAXX 26034 67665 41/58 81305 10183 20183 48509 79590 8297/
                   333 58006 829// 84759=
201801260000 AAXX 26004 67665 42980 00000 10186 20149 48489
                   333 59001=
201801252100 AAXX 25214 67665 41/80 11602 10198 20154 48499 71399 813//
                   333 59004 819//=
201801251800 AAXX 25184 67665 42780 31704 10237 20159 48494 70200 81930
                   333 10334 58004 81956 83360=
201801251500 AAXX 25154 67665 42780 41404 10290 20140 48478 70200 84230
                   333 58002 84850 81360=
201801251200 AAXX 25124 67665 42680 51702 10278 20134 48503 70222 84230
                   333 58001 84835 82360=
201801250000 AAXX 25004 67665 42960 42708 10193 20115 48489 84303
                   333 58007=
201801241800 AAXX 24184 67665 41760 31503 10256 20154 48493 71300 81930
                   333 10325 59004 81957 83360=
201801241200 AAXX 24124 67665 42680 63005 10308 20194 48505 86200
                   333 58000 86840=
201801240900 AAXX 24094 67665 42580 33205 10282 20149 48524 70300 83101
                   333 58002 83825 81080=
201801240600 AAXX 24064 67665 32980 13004 10218 20162 48523 70100 80001
                   333 59002 80001 91019=
201801231800 AAXX 23184 67665 42780 11104 10237 20106 48494 81200
                   333 58000 81856=
201801231500 AAXX 23154 67665 42780 21305 10302 20133 48584 82200
                   333 59001 84840 91013=
201801230900 AAXX 23094 67665 42580 40410 10266 20138 48522 84100
                   333 59005 84825 91018=
201801230600 AAXX 23064 67665 32980 11006 10226 20151 48526 80001
                   333 10309 20//0 59002 81080=
201801222100 AAXX 22214 67665 42980 01502 10207 20165 48503
                   333 59005=
201801221800 AAXX 22184 67665 42/80 11206 10240 20175 48495 70200 81301
                   333 59001 819// 81080 91015=
201801221500 AAXX 22154 67665 42680 31209 10291 20161 48484 70212 83201
                   333 59001 83850 81080=
201801221200 AAXX 22124 67665 42680 40606 10296 20165 48508 70122 84200
                   333 59004 84845=
201801220000 AAXX 22004 67665 42980 21905 10224 20142 48506 82030
                   333 59001 82360=
201801211800 AAXX 21184 67665 42980 21203 10242 20148 48495 82030
                   333 59004 82360=
201801211500 AAXX 21154 67665 42780 31311 10316 20124 48488 81230
                   333 59002 81856 83360=
201801211200 AAXX 21124 67665 42780 53204 10320 20134 48514 85200
                   333 58010 85850=
201801201800 AAXX 20184 67665 42980 21004 10237 20158 48499 82030
                   333 58001 82360=
201801201200 AAXX 20124 67665 42680 60000 10299 20120 48502 86200
                   333 58009 86845=
201801200900 AAXX 20094 67665 42680 52604 10278 20158 48525 85200
                   333 58003 85835=
201801200600 AAXX 20064 67665 32580 32904 10219 20171 48521 7030/ 83100
                   333 10305 20//0 58002 83820=
201801200300 AAXX 20034 67665 42980 12904 10186 20161 48507 70200 81030
                   333 58002 81360=
201801200000 AAXX 20004 67665 42980 12001 10196 20165 48498 70200 82030
                   333 59008 81360=
201801192100 AAXX 19214 67665 42980 21601 10218 20171 48508 70200 82030
                   333 59007 82360=
201801190600 AAXX 19064 67665 32980 20808 10236 20156 48521 82030
                   333 10305 58002 82360
                   555 00///=
201801190300 AAXX 19034 67665 42980 10000 10160 20134 48502 81030
                   333 58002 81360 91017=
201801190000 AAXX 19004 67665 42980 11702 10171 20138 48501 81030
                   333 59015 81360=
201801182100 AAXX 18214 67665 42980 10000 10190 20140 48511 81030
                   333 59001 81360 91018=
201801181800 AAXX 18184 67665 42980 11203 10228 20145 48504 70100 81030
                   333 10305 59011 81360=
201801181500 AAXX 18154 67665 42780 41110 10276 20141 48496 70200 84200
                   333 58003 84850=
201801181200 AAXX 18124 67665 42680 51009 10270 20130 48514 70222 85201
                   333 59001 85835 82080=
201801171800 AAXX 17184 67665 42780 31203 10225 20162 48501 81931
                   333 10270 59012 81957 81360 82080=
201801171500 AAXX 17154 67665 41660 61110 10263 20164 48491 72582 81932
                   333 81945 83848 81360 81080
                   555 10290 91014=
201801171200 AAXX 17124 67665 42660 61007 10271 20155 48515 85202
                   333 58009 85838 83080=
201801170900 AAXX 17094 67665 42580 50815 10246 20161 48533 70222 85501
                   333 58000 85628 83080=
201801170600 AAXX 17064 67665 32480 50912 10221 20173 48531 70322 83531
                   333 58004 83615 82360 83080 91020=
201801161200 AAXX 16124 67665 42680 70903 10290 20196 48508 85231
                   333 58005 85845 82360 81080=
201801160900 AAXX 16094 67665 42680 71005 10276 20168 48537 86230
                   333 58020 86830 82360 91019=
201801160600 AAXX 16064 67665 32980 41004 10250 20190 48531 83031
                   333 10325 20//0 58000 83360 81080=
201801151800 AAXX 15184 67665 42680 40706 10246 20176 48506 70122 81330
                   333 58007 819// 84360 91016=
201801151500 AAXX 15154 67665 NIL=
201801151200 AAXX 15124 67665 NIL=
201801150900 AAXX 15094 67665 NIL=
201801141800 AAXX 14184 67665 42980 31304 10243 20159 48498 83030
                   333 59011 83360=
201801141500 AAXX 14154 67665 42780 41002 10294 20116 48487 83261
                   333 59011 83850 81359 81080=
201801141200 AAXX 14124 67665 42680 50605 10296 20134 48506 85202
                   333 59011 85845 81080=
201801140900 AAXX 14094 67665 42680 30402 10279 20153 48526 70300 83101
                   333 59012 83835 82080 91018=
201801131800 AAXX 13184 67665 42980 21204 10224 20179 48506 82030
                   333 59016 82360=
201801131500 AAXX 13154 67665 42680 31310 10289 20116 70100 83100
                   333 59020 83140=
201801131200 AAXX 13124 67665 42680 61404 10289 20116 48516 86100
                   333 59020 86840=
201801130900 AAXX 13094 67665 42580 31405 10260 20147 48535 83100
                   333 59013 83825=
201801130600 AAXX 13064 67665 32980 00902 10212 20134 48537 70200
                   333 10278 20//0 59012=
201801130300 AAXX 13034 67665 42980 01801 10149 20131 48513 70200
                   333 59013=
201801130000 AAXX 13004 67665 42980 01401 10163 20141 48516 70200
                   333 59013=
201801122100 AAXX 12214 67665 42980 01403 10183 20146 48530 70200
                   333 59007=
201801120600 AAXX 12064 67665 42480 40912 10198 20148 48547 81132
                   333 10276 20//0 59002 81815 81360 83080
                   555 00///=
201801120300 AAXX 12034 67665 42980 31103 10156 20139 48527 83030
                   333 58000 83360 91020=
201801120000 AAXX 12004 67665 42980 40000 10163 20145 48528 84030
                   333 58004 84360=
201801111800 AAXX 11184 67665 42980 10909 10201 20153 48524 70100 81030
                   333 10276 58001 81360=
201801111500 AAXX 11154 67665 42680 40914 10248 20148 48522 70122 84201
                   333 58014 84845 82080=
201801111200 AAXX 11124 67665 42680 50911 10247 20147 48539 70322 85201
                   333 58010 85830 82080=
201801110000 AAXX 11004 67665 42960 41303 10187 20144 48530 84030
                   333 58042 84360=
201801102100 AAXX 10214 67665 42960 40000 10196 20155 48537 84030
                   333 58031 84360=
201801101800 AAXX 10184 67665 42760 61406 10224 20177 48525 81932
                   333 10270 58032 81956 84360=
201801101500 AAXX 10154 67665 42680 40904 10268 20161 48511 82930
                   333 58029 82948 82360
                   555 10270 91017=
201801101200 AAXX 10124 67665 42660 10242 20146 48526 83230
                   333 58038 83835 86360=
201801100900 AAXX 10094 67665 42560 70609 10231 20143 48537 70222 83230
                   333 59028 83825 85360=
201801091800 AAXX 09184 67665 42980 19003 10245 20106 48497 80002
                   333 10336 58003 84080=
201801090900 AAXX 09094 67665 42980 32807 10289 20139 48517 81032
                   333 58003 81360 82080 91017=
201801090600 AAXX 09064 67665 32980 23003 10233 20152 48510 80002
                   333 10308 59003 82080=
201801090000 AAXX 09004 67665 42980 02806 10195 20158 48490
                   333 58006=
201801081800 AAXX 08184 67665 42980 02603 10250 20172 48494 70100
                   333 58010=
201801081500 AAXX 08154 67665 42680 12704 10308 20138 48484 70200 81100
                   333 58006 81845 91013=
201801081200 AAXX 08124 67665 42680 23006 10210 20166 48499 70200 82100
                   333 58008 82835 91015=
201801080900 AAXX 08094 67665 42980 13008 10290 20168 48514 70200 80001
                   333 58009 81080=
201801080600 AAXX 08064 67665 NIL=
201801071500 AAXX 07154 67665 42980 11805 10320 20047 48479 81030
                   333 59001 81360=
201801071200 AAXX 07124 67665 42780 10503 10316 20076 48491 81100
                   333 59003 81856=
201801070900 AAXX 07094 67665 42980 03003 10287 20153 48500 70200
                   333 59002=
201801070600 AAXX 07064 67665 32980 02806 10210 20107 48503
                   333 10304 20//0 58002=
201801070300 AAXX 07034 67665 42980 02502 10146 20107 48480
                   333 59007=
201801070000 AAXX 07004 67665 42980 00302 10150 20103 48477
                   333 59013=
201801062100 AAXX 06214 67665 42980 00407 10170 20098 48487
                   333 59018=
201801061200 AAXX 06124 67665 42680 30604 10271 20127 48505 81300
                   333 59032 81830=
201801060900 AAXX 06094 67665 42680 10503 10271 20127 48505 81100
                   333 59032 81830=
201801060600 AAXX 06064 67665 32980 22903 10214 20168 48501 70200 80001
                   333 10292 59033 82080=
201801060300 AAXX 06034 67665 42980 02502 10148 20130 48487 70200
                   333 59032=
201801060000 AAXX 06004 67665 42980 02502 10155 20139 48491 70200
                   333 59034=
201801052100 AAXX 05214 67665 42980 22602 10178 20154 48507 70222 82030
                   333 59029 82360=
201801051200 AAXX 05124 67665 NIL=
201801050600 AAXX 05064 67665 32360 60910 10195 20155 48532 82632
                   333 10290 20//0 59011 82709 85360 81080 555=
201801050300 AAXX 05034 67665 42360 71105 10183 20166 48521 8463/
                   333 58001 84705 87360=
201801050000 AAXX 05004 67665 42980 30000 10174 20147 48486 83030
                   333 59008 83360=
201801041800 AAXX 04184 67665 42780 51504 10199 20165 48527 71322 81931
                   333 10290 58013 81956 84360 82080=
201801041500 AAXX 04154 67665 42680 51010 10239 20165 48522 70222 84230
                   333 58018 84845 82360=
201801041200 AAXX 04124 67665 42680 60807 10233 20164 48537 70222 85230
                   333 58020 85830 85360=
201801040600 AAXX 04064 67665 NIL=
201801040000 AAXX 04004 67665 42980 30000 10174 20147 48486 83030
                   333 59008 83360=
201801031800 AAXX 03184 67665 41780 21203 10218 20173 48517 71300 81930
                   333 10275 58025 81957 81360=
201801030900 AAXX 03094 67665 42580 70910 10230 20169 48536 70322 84530
                   333 58036 84620 85360=
201801030600 AAXX 03064 67665 32980 40910 10204 20174 48525 70300 84030
                   333 58027 84360 91019=
201801021800 AAXX 02184 67665 42780 73204 10214 20130 48452 81932
                   333 58001 81935 81840 82360 86080=
201801021200 AAXX 02124 67665 42680 60000 10263 20164 48494 82901
                   333 58001 82935 84840 81080=
201801012100 AAXX 01214 67665 42980 31709 10217 20165 48512 81930
                   333 58003 819// 83360=
201801011800 AAXX 01184 67665 42780 23404 10228 20159 48497 71300 81901
                   333 10310 59001 81956 82080=
201801011500 AAXX 01154 67665 42780 23304 10304 20139 48474 70100 82101
                   333 59020 82850 81080=
201801011200 AAXX 01124 67665 42680 43204 10299 20132 48497 70300 84200
                   333 59018 84835=
201801010900 AAXX 01094 67665 32380 23505 10284 20204 48517 82131
                   333 59013 81828 81360 81080=
201801010600 AAXX 01064 67665 32980 13603 10229 20168 48520 81031
                   333 10308 20//0 59013 81360 81080=

################################################################################
#  SYNOPS from 67666, Lusaka City Airport (Zambia) | 15-25-00S | 028-28-00E | 1280 m
################################################################################
201801160600 AAXX 16064 67666 32980 20806 10230 20171 48513 70100 81031
                   333 10314 20180 58000 81359 82080 91018=
201801151500 AAXX 15154 67666 NIL=
201801151200 AAXX 15124 67666 NIL=
201801150900 AAXX 15094 67666 NIL=
201801100900 AAXX 10094 67666 NIL=
201801090600 AAXX 09064 67666 32980 53002 10243 20143 48503 81038
                   333 10314 20200 59004 81360 85280 91016=
201801080600 AAXX 08064 67666 32980 02704 10234 20134 48503
                   333 10315 20148 58006 91017=
201801051200 AAXX 05124 67666 NIL=
201801050600 AAXX 05064 67666 12480 70907 10192 20153 48525 69904 81130
                   333 10246 20176 59012 81818 86360 91019=
201801040600 AAXX 04064 67666 12380 80909 10185 20165 48527 60034 887//
                   333 10256 20169 58019 88708 91020=
201801020900 AAXX 02094 67666 42480 53209 10269 20163 48/// 70300 83230
                   333 5//// 83812 82360=
201801020600 AAXX 02064 67666 32980 60000 10228 20152 48/// 70300 85031
                   333 10300 20180 5//// 85360 81080=

################################################################################
#  SYNOPS from 67667, Mount Makulu (Zambia) | 15-33S | 028-15E | 1213 m
################################################################################
201801170600 AAXX 17064 67667 12680 70904 10181 20181 48578 60064 70222 82101
                   333 10308 20182 58003 82830 86080=
201801160600 AAXX 16064 67667 32980 20901 10250 20179 48581 70200 81031
                   333 10328 20190 58004 81360 81080=
201801151500 AAXX 15154 67667 NIL=
201801151200 AAXX 15124 67667 NIL=
201801150900 AAXX 15094 67667 NIL=
201801100900 AAXX 10094 67667 NIL=
201801100600 AAXX 10064 67667 12580 71206 10200 20171 48584 60474 70222 81108
                   333 10342 20166 59026 81825 87280=
201801090600 AAXX 09064 67667 32980 11801 10254 20181 48558 70200 80001
                   333 10346 20174 58003 81080=
201801080600 AAXX 08064 67667 32980 01802 10247 20142 48561
                   333 10342 20108 59033=
201801051200 AAXX 05124 67667 NIL=
201801050600 AAXX 05064 67667 12580 40903 10206 20175 48560 60014 84102
                   333 10262 20169 59001 84825 83080=
201801040600 AAXX 04064 67667 12580 70907 10200 20171 48572 60034 87502
                   333 10314 20165 58001 87625 85080=
201801030600 AAXX 03064 67667 32680 70901 10193 20179 48577 70222 87530
                   333 10334 20166 58005 85620 82825 83360=

################################################################################
#  SYNOPS from 67673, Petauke (Zambia) | 14-15S | 031-17E | 1035 m
################################################################################
201801170900 AAXX 17094 67673 42584 71002 10240 20196 48526 875//
                   333 58000 87630=
201801170600 AAXX 17064 67673 12584 30901 10240 20202 48538 69904 82131
                   333 10295 20186 58022 82828 82360 83080=
201801161200 AAXX 16124 67673 41680 60901 10230 20200 48514 79562 85271
                   333 58006 81930 85830 86459 84080=
201801160600 AAXX 16064 67673 12584 30901 10240 20202 48538 69904 82131
                   333 10295 20186 58022 82828 82360 83080=
201801151500 AAXX 15154 67673 NIL=
201801151200 AAXX 15124 67673 NIL=
201801150900 AAXX 15094 67673 NIL=
201801100900 AAXX 10094 67673 NIL=
201801090600 AAXX 09064 67673 32584 43601 10250 20197 48510 81131
                   333 10340 20204 59001 81828 82360=
201801080600 AAXX 08064 67673 32984 23001 10258 20193 48513 81031
                   333 10332 20196 59039 81360 82080=
201801051200 AAXX 05124 67673 NIL=
201801050900 AAXX 05094 67673 42684 60000 10238 20175 48517 86200
                   333 59030 86830=
201801050600 AAXX 05064 67673 32584 60901 10200 20172 48531 86500
                   333 10264 20160 59014 86628=
201801041200 AAXX 04124 67673 42584 50903 10250 20167 48532 84131
                   333 58008 84832 85360 83080=
201801040900 AAXX 04094 67673 42584 60803 10234 20168 48545 86530
                   333 58012 86630 85360=
201801040600 AAXX 04064 67673 32584 60904 10210 20177 48546 86531
                   333 10360 20186 58021 86628 84360 82080=

################################################################################
#  SYNOPS from 67731, Senanga (Zambia) | 16-06S | 023-16E | 1027 m
################################################################################
201801171200 AAXX 17124 67731 41580 821// 10213 20190 48/// 71799 82982
                   333 59020 82925 81827 85360 83080=
201801170900 AAXX 17094 67731 42580 525// 10294 20200 48/// 70322 85200
                   333 59016 85826=
201801170600 AAXX 17064 67731 12980 117// 10235 20202 48/// 69964 70200 81010
                   333 10253 20207 58005 81460
                   555 00207=
201801160600 AAXX 16064 67731 32980 410// 10238 20181 48/// 70222 84030
                   333 10334 20209 59014 84361
                   555 00189=
201801151500 AAXX 15154 67731 NIL=
201801151200 AAXX 15124 67731 NIL=
201801150900 AAXX 15094 67731 NIL=
201801100900 AAXX 10094 67731 42580 421// 10300 20161 48/// 70300 82230
                   333 58006 82827 82362=
201801090600 AAXX 09064 67731 12980 115// 10244 20189 48/// 60014 70100 81010
                   333 10346 20193 58008 81462
                   555 00182=
201801081200 AAXX 08124 67731 42680 127// 10338 20161 48/// 70200 81100
                   333 59014 81835=
201801080900 AAXX 08094 67731 42980 031// 10301 20170 48///
                   333 59007=
201801080600 AAXX 08064 67731 32980 023// 10258 20186 48///
                   333 10357 20205 59013
                   555 00189=
201801051200 AAXX 05124 67731 NIL=
201801050600 AAXX 05064 67731 32480 209// 10240 20157 48/// 70322 82100
                   333 10320 20164 59011 82815
                   555 00159=
201801040900 AAXX 04094 67731 42980 010// 10285 20169 48///
                   333 58022=
201801040600 AAXX 04064 67731 12980 008// 10239 20176 48/// 69904
                   333 10265 20188 58029
                   555 00178=
201801031200 AAXX 03124 67731 42680 718// 10262 20206 48/// 70222 81230
                   333 58005 81831 87360=
201801030600 AAXX 03064 67731 32980 127// 10252 20202 48/// 70100 81010
                   333 10308 20193 58008 81460
                   555 00183=

################################################################################
#  SYNOPS from 67741, Sesheke (Zambia) | 17-28S | 024-18E | 949 m
################################################################################
201801170600 AAXX 17064 67741 12980 10000 10253 20196 48506 60034 81031
                   333 10361 20183 59009 81362 81080
                   555 00160=
201801160600 AAXX 16064 67741 12980 10000 10253 20196 48506 60034 81031
                   333 10361 20183 59009 81362 81080
                   555 00160=
201801151500 AAXX 15154 67741 NIL=
201801151200 AAXX 15124 67741 NIL=
201801150900 AAXX 15094 67741 NIL=
201801100900 AAXX 10094 67741 NIL=
201801090600 AAXX 09064 67741 32980 22701 10251 20192 48506 82030
                   333 10378 20218 58008 82362
                   555 00174=
201801080600 AAXX 08064 67741 32980 12701 10260 20188 48498 81030
                   333 10327 20206 58006 81362=
201801051200 AAXX 05124 67741 NIL=
201801040600 AAXX 04064 67741 32680 10902 10228 20186 48550 81500
                   333 10328 20193 58023 81645
                   555 00157=
201801020600 AAXX 02064 67741 12980 63201 10224 20192 48491 60234 85071
                   333 10318 20106 5//// 85362 82080=

################################################################################
#  SYNOPS from 67743, Livingstone (Zambia) | 17-49S | 025-49E | 985 m
################################################################################
201801160600 AAXX 16064 67743 32980 10807 10255 20153 48516 81030
                   333 10371 20190 58010 81360 91017=
201801151500 AAXX 15154 67743 NIL=
201801151200 AAXX 15124 67743 NIL=
201801150900 AAXX 15094 67743 NIL=
201801100900 AAXX 10094 67743 NIL=
201801090600 AAXX 09064 67743 12980 53008 10235 20163 48491 69904 70122 85030
                   333 10370 20200 58009 85360 91015=
201801080600 AAXX 08064 67743 32980 03009 10256 20130 48496
                   333 10370 20205 59001 91014=
201801051200 AAXX 05124 67743 NIL=
201801040600 AAXX 04064 67743 12980 11214 10215 20151 48542 69904 81030
                   333 10320 20185 58035 81359 91021=
201801030600 AAXX 03064 67743 32980 40707 10246 20129 48508 84030
                   333 10340 20202 58027 84360 91017=
201801020900 AAXX 02094 67743 42980 32505 10275 20156 48503 70221 83030
                   333 58007 83360 91015=

################################################################################
#  SYNOPS from 67751, Magoye (Zambia) | 16-00S | 027-36E | 1018 m
################################################################################
201801170600 AAXX 17064 67751 32980 40405 10253 20171 48/// 70222 84070
                   333 10332 20182 59004 84360=
201801160600 AAXX 16064 67751 32980 40405 10253 20171 48/// 70222 84070
                   333 10332 20182 59004 84360=
201801151500 AAXX 15154 67751 NIL=
201801151200 AAXX 15124 67751 NIL=
201801150900 AAXX 15094 67751 NIL=
201801100900 AAXX 10094 67751 NIL=
201801090600 AAXX 09064 67751 32980 50102 10250 20178 48/// 70222 84070
                   333 10362 20184 58003 84360=
201801080600 AAXX 08064 67751 32980 03005 10248 20152 48/// 70200
                   333 10340 20150 59006=
201801051200 AAXX 05124 67751 NIL=
201801040600 AAXX 04064 67751 12480 50906 10222 20181 48/// 60024 84230
                   333 10289 20183 59005 84818 81360=

################################################################################
#  SYNOPS from 67753, Choma (Zambia) | 16-50S | 027-04E | 1213 m
################################################################################
201801151500 AAXX 15154 67753 NIL=
201801151200 AAXX 15124 67753 NIL=
201801150900 AAXX 15094 67753 NIL=
201801100900 AAXX 10094 67753 NIL=
201801090600 AAXX 09064 67753 12960 70000 10216 20166 48502 69904 72022 87030
                   333 10332 20190 58001 87360=
201801080600 AAXX 08064 67753 32960 01703 10228 20144 48493
                   333 10324 20166 58006=
201801051200 AAXX 05124 67753 NIL=
201801040600 AAXX 04064 67753 12560 81212 10183 20171 48537 60034 8255/
                   333 10266 20170 58027 82625 86360=
201801020600 AAXX 02064 67753 12960 70000 10223 20173 48492 69904 8703/
                   333 10300 20160 59012 87360=

################################################################################
#  SYNOPS from 67855, Lupaki (Zambia) | 17-03-00S | 024-46-00E | 1000 m
################################################################################
201801310600 AAXX 31064 67855 11970 70601 10224 20198 3//// 48/// 69904 70522 8707/
                   333 20188 5//// 87360=
201801300600 AAXX 30064 67855 31970 50000 10228 20181 3//// 48/// 70522 83038
                   333 20186 5//// 83360=
201801290600 AAXX 29064 67855 11975 81802 10212 20191 3//// 48/// 60014 70362 8807/
                   333 20200 5//// 88360=
201801271500 AAXX 2715/ 67855 41770 72401 10302 20183 3//// 48/// 70282 81232
                   333 5//// 81850 83360 87080=
201801271200 AAXX 2712/ 67855 41770 71803 10280 20170 3//// 48/// 78182 85238
                   333 5//// 85850 87280=
201801270600 AAXX 27064 67855 12975 50703 10230 20169 3//// 48/// 60014 81031
                   333 20180 5//// 81360 85080=
201801261500 AAXX 26154 67855 41675 50000 10272 20219 3//// 48/// 72582 83232
                   333 5//// 83840 85360=
201801261200 AAXX 26124 67855 42775 50303 10320 20165 3//// 48/// 85232
                   333 5//// 85850 83360=
201801260600 AAXX 26064 67855 32975 70607 10240 20164 3//// 48/// 8707/
                   333 20214 5//// 87360=
201801251500 AAXX 25154 67855 41670 30000 10338 20123 3//// 48/// 71792 84233
                   333 5//// 81940 83845=
201801251200 AAXX 25124 67855 41770 50402 10348 20153 3//// 48/// 70522 85238
                   333 5//// 85856 83360=
201801250900 AAXX 25094 67855 42975 70000 10284 20185 3//// 48/// 8707/
                   333 5//// 87360=
201801250600 AAXX 25064 67855 12975 71801 10224 20198 3//// 48/// 69904 8707/
                   333 20194 5//// 87360=
201801241500 AAXX 24154 67855 41670 72705 10270 20165 3//// 48/// 70398 84232
                   333 5//// 84840 87360=
201801241200 AAXX 24124 67855 41670 50301 10364 20158 3//// 48/// 71791 85232
                   333 5//// 81940 84845=
201801240900 AAXX 24094 67855 41770 43203 10336 20178 3//// 48/// 70500 84130
                   333 5//// 84856=
