################################################################################
# Query made at 04/14/2022 06:31:37 UTC
# Country like Zamb*
# Time interval: from 06/01/2014 05:30  to 07/01/2014 06:30  UTC
################################################################################

################################################################################
#  SYNOPS from 67403, Kawambwa (Zambia) | 09-48S | 029-05E | 1323 m
################################################################################
201406291500 AAXX 29154 67403 NIL=
201406290600 AAXX 29064 67403 NIL=
201406281500 AAXX 28154 67403 NIL=
201406201200 AAXX 20124 67403 NIL=
201406200600 AAXX 20064 67403 NIL=
201406160900 AAXX 16094 67403 NIL=
201406160600 AAXX 16064 67403 NIL=
201406150600 AAXX 15064 67403 NIL=
201406141200 AAXX 14124 67403 NIL=
201406131500 AAXX 13154 67403 NIL=
201406130900 AAXX 13094 67403 NIL=
201406130600 AAXX 13064 67403 NIL=
201406120900 AAXX 12094 67403 NIL=
201406120600 AAXX 12064 67403 NIL=
201406110900 AAXX 11094 67403 NIL=
201406110600 AAXX 11064 67403 NIL=
201406101200 AAXX 10124 67403 NIL=
201406100900 AAXX 10094 67403 NIL=
201406091500 AAXX 09154 67403 NIL=
201406091200 AAXX 09124 67403 NIL=
201406090600 AAXX 09064 67403 NIL=
201406081200 AAXX 08124 67403 NIL=
201406080600 AAXX 08064 67403 NIL=
201406071200 AAXX 07124 67403 NIL=
201406070600 AAXX 07064 67403 NIL=
201406061200 AAXX 06124 67403 NIL=
201406060900 AAXX 06094 67403 NIL=
201406060600 AAXX 06064 67403 NIL=
201406051200 AAXX 05124 67403 NIL=
201406050900 AAXX 05094 67403 NIL=
201406050600 AAXX 05064 67403 NIL=
201406041200 AAXX 04124 67403 NIL=
201406040900 AAXX 04094 67403 NIL=
201406040600 AAXX 04064 67403 NIL=
201406031200 AAXX 03124 67403 NIL=
201406030900 AAXX 03094 67403 NIL=
201406030600 AAXX 03064 67403 NIL=
201406021200 AAXX 02124 67403 NIL=
201406020900 AAXX 02094 67403 NIL=
201406020600 AAXX 02064 67403 NIL=
201406011200 AAXX 01121 67403 NIL=
201406010600 AAXX 01064 67403 NIL=

################################################################################
#  SYNOPS from 67413, Mbala (Zambia) | 08-51S | 031-20E | 1673 m
################################################################################
201407010600 AAXX 01064 67413 32980 11310 10155 20091 48572 80001
                   333 10245 20/// 58002 81080
                   555 00/// 91027=
201406291500 AAXX 29154 67413 NIL=
201406290600 AAXX 29064 67413 NIL=
201406281500 AAXX 28154 67413 NIL=
201406250600 AAXX 25064 67413 32980 01009 10175 20120 48523
                   333 10260 20/// 58010
                   555 00/// 91027=
201406201200 AAXX 20124 67413 NIL=
201406200600 AAXX 20064 67413 NIL=
201406160900 AAXX 16094 67413 NIL=
201406160600 AAXX 16064 67413 NIL=
201406150600 AAXX 15064 67413 NIL=
201406141200 AAXX 14124 67413 NIL=
201406131500 AAXX 13154 67413 NIL=
201406130900 AAXX 13094 67413 NIL=
201406130600 AAXX 13064 67413 NIL=
201406120900 AAXX 12094 67413 NIL=
201406120600 AAXX 12064 67413 NIL=
201406110900 AAXX 11094 67413 NIL=
201406110600 AAXX 11064 67413 NIL=
201406101200 AAXX 10124 67413 42580 50000 10240 20094 48523 85200
                   333 58025 85830 91023=
201406100900 AAXX 10094 67413 42580 41410 10230 20102 48541 83201
                   333 58022 83820 81080 91026=
201406100600 AAXX 10064 67413 32980 51410 10160 20115 48531 80001
                   333 10260 20/// 58021 85080 91026=
201406091500 AAXX 09154 67413 NIL=
201406091200 AAXX 09124 67413 NIL=
201406090600 AAXX 09064 67413 32480 61010 10140 20124 48531 85580
                   333 10210 20/// 58013 85614 83359
                   555 00/// 91025=
201406081200 AAXX 08124 67413 NIL=
201406080600 AAXX 08064 67413 NIL=
201406071200 AAXX 07124 67413 NIL=
201406070600 AAXX 07064 67413 NIL=
201406061200 AAXX 06124 67413 NIL=
201406060900 AAXX 06094 67413 NIL=
201406060600 AAXX 06064 67413 NIL=
201406051200 AAXX 05124 67413 NIL=
201406050900 AAXX 05094 67413 NIL=
201406050600 AAXX 05064 67413 NIL=
201406041200 AAXX 04124 67413 NIL=
201406040900 AAXX 04094 67413 NIL=
201406040600 AAXX 04064 67413 NIL=
201406031200 AAXX 03124 67413 NIL=
201406030900 AAXX 03094 67413 NIL=
201406030600 AAXX 03064 67413 NIL=
201406021200 AAXX 02124 67413 NIL=
201406020900 AAXX 02094 67413 NIL=
201406020600 AAXX 02064 67413 NIL=
201406011200 AAXX 01121 67413 NIL=
201406010600 AAXX 01064 67413 NIL=

################################################################################
#  SYNOPS from 67441, Mwinilunga (Zambia) | 11-45S | 024-26E | 1361 m
################################################################################
201407010600 AAXX 01064 67441 31970 018// 10115 20078 48582 70500
                   333 10255 20/// 5////
                   555 00///=
201406291500 AAXX 29154 67441 NIL=
201406290600 AAXX 29064 67441 NIL=
201406281500 AAXX 28154 67441 NIL=
201406270600 AAXX 27064 67441 31960 033// 10085 20060 48572 70500
                   333 10275 20/// 58001
                   555 00///=
201406201200 AAXX 20124 67441 NIL=
201406200600 AAXX 20064 67441 NIL=
201406190600 AAXX 19064 67441 31965 00000 10085 20076 48585 70500
                   333 10285 20/// 58004=
201406160900 AAXX 16094 67441 NIL=
201406160600 AAXX 16064 67441 32980 20000 10106 20095 48574 82030
                   333 10275 20/// 58000 82360=
201406150600 AAXX 15064 67441 NIL=
201406141200 AAXX 14124 67441 NIL=
201406131500 AAXX 13154 67441 NIL=
201406130900 AAXX 13094 67441 NIL=
201406130600 AAXX 13064 67441 NIL=
201406120900 AAXX 12094 67441 NIL=
201406120600 AAXX 12064 67441 32982 118// 10135 20100 48581
                   333 10260 20/// 59007=
201406110900 AAXX 11094 67441 NIL=
201406110600 AAXX 11064 67441 32980 00000 10135 20099 48587
                   333 10270 20/// 58008=
201406101200 AAXX 10124 67441 NIL=
201406100900 AAXX 10094 67441 NIL=
201406100600 AAXX 10064 67441 32982 00000 10120 20103 48580
                   333 10275 20/// 58016=
201406091500 AAXX 09154 67441 NIL=
201406091200 AAXX 09124 67441 NIL=
201406090600 AAXX 09064 67441 NIL=
201406081200 AAXX 08124 67441 NIL=
201406080600 AAXX 08064 67441 NIL=
201406071200 AAXX 07124 67441 NIL=
201406070600 AAXX 07064 67441 NIL=
201406061200 AAXX 06124 67441 NIL=
201406060900 AAXX 06094 67441 NIL=
201406060600 AAXX 06064 67441 NIL=
201406051200 AAXX 05124 67441 NIL=
201406050900 AAXX 05094 67441 NIL=
201406050600 AAXX 05064 67441 32980 20000 10135 20118 48553 80001
                   333 10305 20/// 58007 82080
                   555 00///=
201406041200 AAXX 04124 67441 NIL=
201406040900 AAXX 04094 67441 NIL=
201406040600 AAXX 04064 67441 32980 40000 10135 20115 48547 80005
                   333 10295 20/// 59005 84280=
201406031200 AAXX 03124 67441 NIL=
201406030900 AAXX 03094 67441 NIL=
201406030600 AAXX 03064 67441 NIL=
201406021200 AAXX 02124 67441 NIL=
201406020900 AAXX 02094 67441 NIL=
201406020600 AAXX 02064 67441 NIL=
201406011200 AAXX 01121 67441 NIL=
201406010600 AAXX 01064 67441 NIL=

################################################################################
#  SYNOPS from 67461, Mansa (Zambia) | 11-06S | 028-51E | 1382 m
################################################################################
201406291500 AAXX 29154 67461 NIL=
201406290600 AAXX 29064 67461 NIL=
201406281500 AAXX 28154 67461 NIL=
201406201200 AAXX 20124 67461 NIL=
201406200600 AAXX 20064 67461 NIL=
201406160900 AAXX 16094 67461 NIL=
201406160600 AAXX 16064 67461 NIL=
201406150600 AAXX 15064 67461 NIL=
201406141200 AAXX 14124 67461 NIL=
201406131500 AAXX 13154 67461 NIL=
201406130900 AAXX 13094 67461 NIL=
201406130600 AAXX 13064 67461 NIL=
201406120900 AAXX 12094 67461 NIL=
201406120600 AAXX 12064 67461 NIL=
201406110900 AAXX 11094 67461 NIL=
201406110600 AAXX 11064 67461 32980 00905 10150 20124 48556
                   333 10265 20100 58004 91023=
201406101200 AAXX 10124 67461 NIL=
201406100900 AAXX 10094 67461 NIL=
201406100600 AAXX 10064 67461 32980 30802 10145 20120 48551 70200 80001
                   333 10248 20100 58011 83080 91023=
201406091500 AAXX 09154 67461 NIL=
201406091200 AAXX 09124 67461 NIL=
201406090600 AAXX 09064 67461 32980 20903 10137 20129 48540 70100 80001
                   333 10236 20092 59003 82080
                   555 00/// 91021=
201406081200 AAXX 08124 67461 NIL=
201406080600 AAXX 08064 67461 NIL=
201406071200 AAXX 07124 67461 NIL=
201406070600 AAXX 07064 67461 NIL=
201406061200 AAXX 06124 67461 NIL=
201406060900 AAXX 06094 67461 NIL=
201406060600 AAXX 06064 67461 32980 20904 10175 20124 48527 70200 80001
                   333 10297 20075 58015 82080 91020=
201406051200 AAXX 05124 67461 NIL=
201406050900 AAXX 05094 67461 NIL=
201406050600 AAXX 05064 67461 32980 30802 10158 20127 48518 80001
                   333 10296 20088 58001 83080 91019=
201406041200 AAXX 04124 67461 NIL=
201406040900 AAXX 04094 67461 NIL=
201406040600 AAXX 04064 67461 32980 00802 10165 20131 48517
                   333 10287 20095 59002 91019=
201406031200 AAXX 03124 67461 NIL=
201406030900 AAXX 03094 67461 NIL=
201406030600 AAXX 03064 67461 32980 00802 10160 20135 48517
                   333 10287 20095 59010 91019=
201406021200 AAXX 02124 67461 NIL=
201406020900 AAXX 02094 67461 NIL=
201406020600 AAXX 02064 67461 32980 00000 10170 20127 48520
                   333 10282 20185 59008 91019=
201406011200 AAXX 01121 67461 NIL=
201406010600 AAXX 01064 67461 NIL=

################################################################################
#  SYNOPS from 67469, Samfya (Zambia) | 11-22S | 029-54E | 1171 m
################################################################################
201406160600 AAXX 16064 67469 NIL=
201406150600 AAXX 15064 67469 NIL=
201406141200 AAXX 14124 67469 NIL=
201406131500 AAXX 13154 67469 NIL=
201406130900 AAXX 13094 67469 NIL=
201406130600 AAXX 13064 67469 NIL=

################################################################################
#  SYNOPS from 67475, Kasama (Zambia) | 10-13S | 031-08E | 1382 m
################################################################################
201406291500 AAXX 29154 67475 42880 21409 10230 20087 48535 70110 82100
                   333 59004 82857 555 10251 91021=
201406290600 AAXX 29064 67475 32980 01006 10160 20113 48559 70200
                   333 10270 20105 59003
                   555 00/// 91025=
201406281500 AAXX 28154 67475 NIL=
201406201200 AAXX 20124 67475 NIL=
201406200600 AAXX 20064 67475 32980 01007 10158 20076 48564 70200
                   333 10258 20082 58005
                   555 91025=
201406170600 AAXX 17064 67475 31975 01409 10184 20095 48551 70500
                   333 10271 20110 58000
                   555 00/// 91024=
201406160900 AAXX 16094 67475 41975 00811 10239 20095 48557 70500
                   333 58002 91024=
201406160600 AAXX 16064 67475 31975 00206 10156 20114 48550 70500
                   333 10261 20104 58001 91024=
201406150600 AAXX 15064 67475 NIL=
201406141200 AAXX 14124 67475 NIL=
201406131500 AAXX 13154 67475 NIL=
201406131200 AAXX 13124 67475 42780 31708 10224 20091 48523 83200
                   333 59016 83856 91020=
201406130900 AAXX 13094 67475 42780 10809 10201 20110 48550 81100
                   333 59014 81850 91023=
201406130600 AAXX 13064 67475 32680 10406 10152 20110 48552 81130
                   333 10244 20098 59007 81835 81361 91024=
201406121200 AAXX 12124 67475 42780 51412 10220 20105 48539 85231
                   333 59004 85856 82363 81080 91022=
201406120900 AAXX 12094 67475 42780 41014 10221 20112 48565 84131
                   333 59003 84850 81361 81080 91025=
201406120600 AAXX 12064 67475 32980 31013 10164 20101 48559 70121 83030
                   333 10258 20127 59005 83360
                   555 00/// 91025=
201406110900 AAXX 11094 67475 42680 31610 10221 20113 48568 70211 83200
                   333 58008 83835 91025=
201406110600 AAXX 11064 67475 32980 61010 10173 20112 48565 70322 86030
                   333 10257 20127 58007 86360 91025=
201406101200 AAXX 10124 67475 42780 51810 10245 20113 48536 70321 85200
                   333 58012 85856 91021=
201406100900 AAXX 10094 67475 42680 10408 10225 20113 48560 70300 81101
                   333 58013 81845 81080 91024=
201406100600 AAXX 10064 67475 32980 40906 10164 20117 48557 70222 84061
                   333 10249 20106 58011 84360 81080 91024=
201406091500 AAXX 09154 67475 NIL=
201406091200 AAXX 09124 67475 42780 41213 10236 20105 48530 84201
                   333 59011 84856 82080 91020=
201406090900 AAXX 09094 67475 42680 50910 10216 20115 48547 83101
                   333 59008 83845 84080 91023=
201406090600 AAXX 09064 67475 32980 51114 10150 20116 48546 80001
                   333 10225 20089 59005 85080
                   555 91023=
201406081200 AAXX 08124 67475 NIL=
201406080600 AAXX 08064 67475 NIL=
201406071200 AAXX 07124 67475 NIL=
201406070600 AAXX 07064 67475 NIL=
201406061200 AAXX 06124 67475 NIL=
201406060900 AAXX 06094 67475 NIL=
201406060600 AAXX 06064 67475 NIL=
201406051200 AAXX 05124 67475 NIL=
201406050900 AAXX 05094 67475 NIL=
201406050600 AAXX 05064 67475 32980 00701 10188 20142 48529 80000
                   333 10287 20101 58007 555=
201406041200 AAXX 04124 67475 NIL=
201406040900 AAXX 04094 67475 NIL=
201406040600 AAXX 04064 67475 32980 00501 10176 20142 48522 80000
                   333 10284 20097 59004
                   555 00/// 91020=
201406031200 AAXX 03124 67475 42980 01005 10274 20088 48507 70200
                   333 59003 91018=
201406030900 AAXX 03094 67475 42980 01010 10252 20124 48527 70200
                   333 59007 91021=
201406030600 AAXX 03064 67475 32980 00505 10177 20129 48526 70200
                   333 10279 20101 59010
                   555 00/// 91021=
201406021200 AAXX 02124 67475 42980 01007 10275 20113 48510 70100
                   333 59003 91018=
201406020900 AAXX 02094 67475 42980 00907 10250 20117 48534 70200
                   333 59005 91021=
201406020600 AAXX 02064 67475 32980 00207 10170 20125 48535 70200
                   333 10275 20106 59002
                   555 00/// 91022=
201406011200 AAXX 01121 67475 NIL=
201406010600 AAXX 01064 67475 NIL=

################################################################################
#  SYNOPS from 67476, Misamfu (Zambia) | 10-06S | 031-15E | 1536 m
################################################################################
201406291500 AAXX 29154 67476 NIL=
201406290600 AAXX 29064 67476 NIL=
201406281500 AAXX 28154 67476 NIL=
201406201200 AAXX 20124 67476 NIL=
201406200600 AAXX 20064 67476 NIL=
201406160900 AAXX 16094 67476 NIL=
201406160600 AAXX 16064 67476 NIL=
201406150600 AAXX 15064 67476 NIL=
201406141200 AAXX 14124 67476 NIL=
201406131500 AAXX 13154 67476 NIL=
201406130900 AAXX 13094 67476 NIL=
201406130600 AAXX 13064 67476 NIL=
201406120900 AAXX 12094 67476 NIL=
201406120600 AAXX 12064 67476 NIL=
201406110900 AAXX 11094 67476 NIL=
201406110600 AAXX 11064 67476 NIL=
201406101200 AAXX 10124 67476 NIL=
201406100900 AAXX 10094 67476 NIL=
201406091500 AAXX 09154 67476 NIL=
201406091200 AAXX 09124 67476 NIL=
201406090600 AAXX 09064 67476 NIL=
201406081200 AAXX 08124 67476 NIL=
201406080600 AAXX 08064 67476 NIL=
201406071200 AAXX 07124 67476 NIL=
201406070600 AAXX 07064 67476 NIL=
201406061200 AAXX 06124 67476 NIL=
201406060900 AAXX 06094 67476 NIL=
201406060600 AAXX 06064 67476 NIL=
201406051200 AAXX 05124 67476 NIL=
201406050900 AAXX 05094 67476 NIL=
201406050600 AAXX 05064 67476 NIL=
201406041200 AAXX 04124 67476 NIL=
201406040900 AAXX 04094 67476 NIL=
201406040600 AAXX 04064 67476 NIL=
201406031200 AAXX 03124 67476 NIL=
201406030900 AAXX 03094 67476 NIL=
201406030600 AAXX 03064 67476 NIL=
201406021200 AAXX 02124 67476 NIL=
201406020900 AAXX 02094 67476 NIL=
201406020600 AAXX 02064 67476 NIL=
201406011200 AAXX 01121 67476 NIL=
201406010600 AAXX 01064 67476 NIL=

################################################################################
#  SYNOPS from 67477, Mpika (Zambia) | 11-54S | 031-26E | 1400 m
################################################################################
201407010600 AAXX 01064 67477 32380 31502 10138 20091 48574 81501
                   333 10248 20081 58005 81609 83080
                   555 00///=
201406300600 AAXX 30064 67477 32980 01202 10142 20078 48569
                   333 10225 20079 58006=
201406291500 AAXX 29154 67477 NIL=
201406290600 AAXX 29064 67477 NIL=
201406281500 AAXX 28154 67477 NIL=
201406230600 AAXX 23064 67477 31380 51512 10136 20121 48594 75052 85500
                   333 10208 20114 5//// 85608
                   555 00///=
201406201200 AAXX 20124 67477 NIL=
201406200600 AAXX 20064 67477 NIL=
201406190600 AAXX 19064 67477 32980 01202 10152 20107 48562
                   333 10250 20113 58003=
201406170600 AAXX 17064 67477 32980 01201 10165 20104 48554
                   333 10255 20129 58002=
201406160900 AAXX 16094 67477 NIL=
201406160600 AAXX 16064 67477 32980 01201 10160 20091 48552
                   333 10252 20111 58000=
201406150600 AAXX 15064 67477 NIL=
201406141200 AAXX 14124 67477 NIL=
201406131500 AAXX 13154 67477 NIL=
201406130900 AAXX 13094 67477 NIL=
201406130600 AAXX 13064 67477 31378 70000 10137 20111 48557 70500 87500
                   333 10215 20102 59009 87609=
201406120900 AAXX 12094 67477 NIL=
201406120600 AAXX 12064 67477 32380 71209 10140 20111 48546 875//
                   333 10235 20124 59011 87608=
201406110900 AAXX 11094 67477 NIL=
201406110600 AAXX 11064 67477 32380 70904 10168 20128 48578 87500
                   333 10239 20122 58014 87609=
201406101200 AAXX 10124 67477 NIL=
201406100900 AAXX 10094 67477 NIL=
201406100600 AAXX 10064 67477 32480 31202 10156 20124 48563 82530
                   333 10220 20112 5//// 82609 85358=
201406091500 AAXX 09154 67477 NIL=
201406091200 AAXX 09124 67477 NIL=
201406090600 AAXX 09064 67477 NIL=
201406081200 AAXX 08124 67477 NIL=
201406080600 AAXX 08064 67477 NIL=
201406071200 AAXX 07124 67477 NIL=
201406070600 AAXX 07064 67477 NIL=
201406061200 AAXX 06124 67477 NIL=
201406060900 AAXX 06094 67477 NIL=
201406060600 AAXX 06064 67477 32980 11201 10194 20123 48537 80001
                   333 10278 20125 58007 81080=
201406051200 AAXX 05124 67477 NIL=
201406050900 AAXX 05094 67477 NIL=
201406050600 AAXX 05064 67477 32980 00902 10200 20115 48529
                   333 10268 20108 58005
                   555 00///=
201406041200 AAXX 04124 67477 NIL=
201406040900 AAXX 04094 67477 NIL=
201406040600 AAXX 04064 67477 32980 01204 10189 20124 48523
                   333 10261 20099 59005=
201406031200 AAXX 03124 67477 NIL=
201406030900 AAXX 03094 67477 NIL=
201406030600 AAXX 03064 67477 32980 01202 10182 20126 48528
                   333 10258 20109 59007=
201406021200 AAXX 02124 67477 NIL=
201406020900 AAXX 02094 67477 NIL=
201406020600 AAXX 02064 67477 NIL=
201406011200 AAXX 01121 67477 NIL=
201406010600 AAXX 01064 67477 NIL=

################################################################################
#  SYNOPS from 67481, Isoka (Zambia) | 10-07S | 032-38E | 1360 m
################################################################################
201406301200 AAXX 30124 67481 41675 31202 10220 20090 70500 83800
                   333 58004 81847 82648=
201406300900 AAXX 30094 67481 41675 21802 10202 20095 70500 82500
                   333 58007 82637=
201406300600 AAXX 30064 67481 31975 02102 10158 20084 70500
                   333 10249 20093 58007
                   555 00///=
201406291500 AAXX 29154 67481 NIL=
201406290600 AAXX 29064 67481 31975 00902 10174 20123 70500
                   333 10261 20113 59006
                   555 00///=
201406281500 AAXX 28154 67481 NIL=
201406280600 AAXX 28064 67481 31975 01501 10191 20125 70500
                   333 10273 20113 58016
                   555 00///=
201406201200 AAXX 20124 67481 42680 60302 10234 20106 86100
                   333 58006 85849 81650=
201406200600 AAXX 20064 67481 31975 01204 10170 20117 70500
                   333 10253 20112 58008
                   555 00///=
201406171200 AAXX 17124 67481 41675 12001 10254 20134 70500 81500
                   333 5//// 81645=
201406170600 AAXX 17064 67481 32980 00401 10188 20124 70500
                   333 10260 20124 58000
                   555 00///=
201406160900 AAXX 16094 67481 42675 00801 10233 20120 48/// 70500
                   333 58001=
201406160600 AAXX 16064 67481 32975 01201 10187 20121 70500
                   333 10260 20105 58000
                   555 00///=
201406150600 AAXX 15064 67481 NIL=
201406141200 AAXX 14124 67481 NIL=
201406131500 AAXX 13154 67481 NIL=
201406131200 AAXX 13124 67481 42680 11506 10224 20115 81500
                   333 5//// 81640=
201406130900 AAXX 13094 67481 42480 51303 10181 20126 48/// 85500
                   333 5//// 85620=
201406130600 AAXX 13064 67481 32380 71202 10137 20119 87600
                   333 10327 20115 59009 87706
                   555 00///=
201406121200 AAXX 12124 67481 42680 53101 10215 20117 85800
                   333 5//// 83839 83640=
201406120900 AAXX 12094 67481 42680 51202 10202 20121 82530
                   333 59003 82631 84361=
201406120600 AAXX 12064 67481 32980 62504 10171 20121 86030
                   333 10254 20137 58005 86360
                   555 00///=
201406110900 AAXX 11094 67481 42680 31903 10219 20132 48/// 83530
                   333 58008 83632 82361=
201406110600 AAXX 11064 67481 32980 30602 10182 20133 83030
                   333 10249 20115 58010 83360
                   555 00///=
201406101200 AAXX 10124 67481 42680 30701 10239 20108 82201
                   333 58013 82846 82080=
201406100900 AAXX 10094 67481 42980 51102 10205 20128 48/// 85030
                   333 5//// 85361=
201406100600 AAXX 10064 67481 32980 41403 10169 20128 84030
                   333 10244 20114 58011 84360
                   555 00///=
201406091500 AAXX 09154 67481 NIL=
201406091200 AAXX 09124 67481 42680 40902 10235 20130 48/// 83201
                   333 59013 83840 82080=
201406090900 AAXX 09094 67481 42580 21102 10207 20129 48/// 82501
                   333 59010 82626 82080=
201406090600 AAXX 09064 67481 32380 22101 10152 20129 48/// 82601
                   333 10205 20115 59004 82707 81080
                   555 00///=
201406081200 AAXX 08124 67481 NIL=
201406080600 AAXX 08064 67481 NIL=
201406071200 AAXX 07124 67481 NIL=
201406070600 AAXX 07064 67481 NIL=
201406061200 AAXX 06124 67481 NIL=
201406060900 AAXX 06094 67481 42680 41402 10249 20156 81501
                   333 58011 81637 83080=
201406060600 AAXX 06064 67481 32980 62801 10212 20160 86004
                   333 10284 20125 58012 86080
                   555 00///=
201406051200 AAXX 05124 67481 NIL=
201406050900 AAXX 05094 67481 41675 10701 10259 20149 48/// 70500 82500
                   333 58006 82639=
201406050600 AAXX 05064 67481 31975 00201 10199 20151 48/// 70500
                   333 10273 20124 58005
                   555 00///=
201406041200 AAXX 04124 67481 42680 22703 10261 20133 48/// 81201
                   333 59006 81846 81080=
201406040900 AAXX 04094 67481 42980 11303 10242 20153 48/// 81001
                   333 59004 81080=
201406040600 AAXX 04064 67481 32980 02901 10189 20150 80000
                   333 10274 20115 59006
                   555 00///=
201406031200 AAXX 03124 67481 NIL=
201406030900 AAXX 03094 67481 42980 00802 10244 20128 48/// 80000
                   333 59010=
201406030600 AAXX 03064 67481 31975 03301 10188 20135 70500 80000
                   333 10264 20113 59011
                   555 00///=
201406021200 AAXX 02124 67481 42680 11301 10255 20134 48/// 81200
                   333 58000 81845=
201406020900 AAXX 02094 67481 42980 00402 10240 20135 48/// 80000
                   333 59005=
201406020600 AAXX 02064 67481 32980 00201 10188 20143 48/// 80000
                   333 10262 20120 59001
                   555 00///=
201406011200 AAXX 01121 67481 NIL=
201406010600 AAXX 01064 67481 NIL=

################################################################################
#  SYNOPS from 67531, Zambezi (Zambia) | 13-32S | 023-07E | 1077 m
################################################################################
201407010600 AAXX 01064 67531 31975 00904 10120 20082 48/// 70500
                   333 10267 20087 58002
                   555 00080=
201406300600 AAXX 30064 67531 31975 00905 10129 20094 48/// 70500
                   333 10264 20098 58002
                   555 00086=
201406291500 AAXX 29154 67531 NIL=
201406290600 AAXX 29064 67531 NIL=
201406281500 AAXX 28154 67531 NIL=
201406270600 AAXX 27064 67531 31975 00000 10105 20087 48/// 70500
                   333 10274 20060 58002
                   555 00054=
201406250600 AAXX 25064 67531 31970 00902 10112 20098 48/// 70500
                   333 10265 20073 59010
                   555 00058=
201406240600 AAXX 24064 67531 31975 00901 10125 20108 48/// 70500
                   333 10264 20088 59004
                   555 00063=
201406201200 AAXX 20124 67531 41975 01507 10266 20088 48/// 70500
                   333 58002=
201406200600 AAXX 20064 67531 31975 01301 10113 20082 48/// 70500
                   333 10286 20115 58001=
201406190600 AAXX 19064 67531 31975 01501 10112 20098 48/// 70500
                   333 10290 20115 58007
                   555 00070=
201406170600 AAXX 17064 67531 31970 00000 10110 20103 48/// 70500
                   333 10283 20083 58003
                   555 00075=
201406160900 AAXX 16094 67531 NIL=
201406160600 AAXX 16064 67531 31975 70000 10156 20120 48/// 70500 87070
                   333 10276 20135 59003 87360
                   555 00136=
201406150600 AAXX 15064 67531 NIL=
201406141200 AAXX 14124 67531 NIL=
201406131500 AAXX 13154 67531 NIL=
201406130900 AAXX 13094 67531 NIL=
201406130600 AAXX 13064 67531 NIL=
201406120900 AAXX 12094 67531 NIL=
201406120600 AAXX 12064 67531 31975 01101 10115 20097 48/// 70500
                   333 10273 20105 59003
                   555 00077=
201406110900 AAXX 11094 67531 NIL=
201406110600 AAXX 11064 67531 31975 01201 10134 20101 48/// 70500
                   333 10273 20112 58014
                   555 00095=
201406101200 AAXX 10124 67531 NIL=
201406100900 AAXX 10094 67531 NIL=
201406100600 AAXX 10064 67531 31975 01001 10146 20110 48/// 70500
                   333 10271 20103 58012
                   555 00085=
201406091500 AAXX 09154 67531 NIL=
201406091200 AAXX 09124 67531 NIL=
201406090600 AAXX 09064 67531 NIL=
201406081200 AAXX 08124 67531 NIL=
201406080600 AAXX 08064 67531 NIL=
201406071200 AAXX 07124 67531 NIL=
201406070600 AAXX 07064 67531 NIL=
201406061200 AAXX 06124 67531 NIL=
201406060900 AAXX 06094 67531 NIL=
201406060600 AAXX 06064 67531 NIL=
201406051200 AAXX 05124 67531 NIL=
201406050900 AAXX 05094 67531 NIL=
201406050600 AAXX 05064 67531 31975 21301 10164 20147 48/// 70500 80001
                   333 10305 20126 58004 82082
                   555 00122=
201406041200 AAXX 04124 67531 NIL=
201406040900 AAXX 04094 67531 NIL=
201406040600 AAXX 04064 67531 31975 21201 10157 20138 48/// 70500 82030
                   333 10296 20105 59009 82362
                   555 00103=
201406031200 AAXX 03124 67531 NIL=
201406030900 AAXX 03094 67531 NIL=
201406030600 AAXX 03064 67531 31975 30000 10138 20114 48/// 70500 83030
                   333 10296 20092 59008 83362
                   555 00088=
201406021200 AAXX 02124 67531 NIL=
201406020900 AAXX 02094 67531 NIL=
201406020600 AAXX 02064 67531 31975 10000 10112 20100 48/// 70500 80001
                   333 10260 20077 59014 81080
                   555 00075=
201406011200 AAXX 01121 67531 NIL=
201406010600 AAXX 01064 67531 NIL=

################################################################################
#  SYNOPS from 67541, Kasempa (Zambia) | 13-32S | 025-51E | 1234 m
################################################################################
201406291500 AAXX 29154 67541 NIL=
201406290600 AAXX 29064 67541 NIL=
201406281500 AAXX 28154 67541 NIL=
201406201200 AAXX 20124 67541 NIL=
201406200600 AAXX 20064 67541 NIL=
201406160900 AAXX 16094 67541 NIL=
201406160600 AAXX 16064 67541 NIL=
201406150600 AAXX 15064 67541 NIL=
201406141200 AAXX 14124 67541 NIL=
201406131500 AAXX 13154 67541 NIL=
201406130900 AAXX 13094 67541 NIL=
201406130600 AAXX 13064 67541 NIL=
201406120900 AAXX 12094 67541 NIL=
201406120600 AAXX 12064 67541 NIL=
201406110900 AAXX 11094 67541 NIL=
201406110600 AAXX 11064 67541 NIL=
201406101200 AAXX 10124 67541 NIL=
201406100900 AAXX 10094 67541 NIL=
201406091500 AAXX 09154 67541 NIL=
201406091200 AAXX 09124 67541 NIL=
201406090600 AAXX 09064 67541 NIL=
201406081200 AAXX 08124 67541 NIL=
201406080600 AAXX 08064 67541 NIL=
201406071200 AAXX 07124 67541 NIL=
201406070600 AAXX 07064 67541 NIL=
201406061200 AAXX 06124 67541 NIL=
201406060900 AAXX 06094 67541 NIL=
201406060600 AAXX 06064 67541 NIL=
201406051200 AAXX 05124 67541 NIL=
201406050900 AAXX 05094 67541 NIL=
201406050600 AAXX 05064 67541 NIL=
201406041200 AAXX 04124 67541 NIL=
201406040900 AAXX 04094 67541 NIL=
201406040600 AAXX 04064 67541 NIL=
201406031200 AAXX 03124 67541 NIL=
201406030900 AAXX 03094 67541 NIL=
201406030600 AAXX 03064 67541 NIL=
201406021200 AAXX 02124 67541 NIL=
201406020900 AAXX 02094 67541 NIL=
201406020600 AAXX 02064 67541 NIL=
201406011200 AAXX 01121 67541 NIL=
201406010600 AAXX 01064 67541 NIL=

################################################################################
#  SYNOPS from 67543, Kabompo (Zambia) | 13-36S | 024-12E | 1075 m
################################################################################
201406291500 AAXX 29154 67543 NIL=
201406290600 AAXX 29064 67543 NIL=
201406281500 AAXX 28154 67543 NIL=
201406201200 AAXX 20124 67543 NIL=
201406200600 AAXX 20064 67543 NIL=
201406160900 AAXX 16094 67543 NIL=
201406160600 AAXX 16064 67543 NIL=
201406150600 AAXX 15064 67543 NIL=
201406141200 AAXX 14124 67543 NIL=
201406131500 AAXX 13154 67543 NIL=
201406130900 AAXX 13094 67543 NIL=
201406130600 AAXX 13064 67543 NIL=
201406120900 AAXX 12094 67543 NIL=
201406120600 AAXX 12064 67543 NIL=
201406110900 AAXX 11094 67543 NIL=
201406110600 AAXX 11064 67543 NIL=
201406101200 AAXX 10124 67543 NIL=
201406100900 AAXX 10094 67543 NIL=
201406091500 AAXX 09154 67543 NIL=
201406091200 AAXX 09124 67543 NIL=
201406090600 AAXX 09064 67543 NIL=
201406081200 AAXX 08124 67543 NIL=
201406080600 AAXX 08064 67543 NIL=
201406071200 AAXX 07124 67543 NIL=
201406070600 AAXX 07064 67543 NIL=
201406061200 AAXX 06124 67543 NIL=
201406060900 AAXX 06094 67543 NIL=
201406060600 AAXX 06064 67543 NIL=
201406051200 AAXX 05124 67543 NIL=
201406050900 AAXX 05094 67543 NIL=
201406050600 AAXX 05064 67543 NIL=
201406041200 AAXX 04124 67543 NIL=
201406040900 AAXX 04094 67543 NIL=
201406040600 AAXX 04064 67543 NIL=
201406031200 AAXX 03124 67543 NIL=
201406030900 AAXX 03094 67543 NIL=
201406030600 AAXX 03064 67543 NIL=
201406021200 AAXX 02124 67543 NIL=
201406020900 AAXX 02094 67543 NIL=
201406020600 AAXX 02064 67543 NIL=
201406011200 AAXX 01121 67543 NIL=
201406010600 AAXX 01064 67543 NIL=

################################################################################
#  SYNOPS from 67551, Solwezi (Zambia) | 12-11S | 026-23E | 1386 m
################################################################################
201406300600 AAXX 30064 67551 11958 01504 10140 20096 48566 70500 80000
                   333 10256 20106 58010
                   555 00/// 91024=
201406291500 AAXX 29154 67551 NIL=
201406290600 AAXX 29064 67551 NIL=
201406281500 AAXX 28154 67551 NIL=
201406201200 AAXX 20124 67551 NIL=
201406200600 AAXX 20064 67551 NIL=
201406160900 AAXX 16094 67551 NIL=
201406160600 AAXX 16064 67551 32980 00000 10128 20118 48544 80000
                   333 10268 20106 58010 91022=
201406150600 AAXX 15064 67551 NIL=
201406141200 AAXX 14124 67551 NIL=
201406131500 AAXX 13154 67551 NIL=
201406130900 AAXX 13094 67551 NIL=
201406130600 AAXX 13064 67551 NIL=
201406120900 AAXX 12094 67551 NIL=
201406120600 AAXX 12064 67551 NIL=
201406110900 AAXX 11094 67551 NIL=
201406110600 AAXX 11064 67551 NIL=
201406101200 AAXX 10124 67551 NIL=
201406100900 AAXX 10094 67551 NIL=
201406091500 AAXX 09154 67551 NIL=
201406091200 AAXX 09124 67551 NIL=
201406090600 AAXX 09064 67551 NIL=
201406081200 AAXX 08124 67551 NIL=
201406080600 AAXX 08064 67551 NIL=
201406071200 AAXX 07124 67551 NIL=
201406070600 AAXX 07064 67551 NIL=
201406061200 AAXX 06124 67551 NIL=
201406060900 AAXX 06094 67551 NIL=
201406060600 AAXX 06064 67551 NIL=
201406051200 AAXX 05124 67551 NIL=
201406050900 AAXX 05094 67551 NIL=
201406050600 AAXX 05064 67551 NIL=
201406041200 AAXX 04124 67551 NIL=
201406040900 AAXX 04094 67551 NIL=
201406040600 AAXX 04064 67551 NIL=
201406031200 AAXX 03124 67551 NIL=
201406030900 AAXX 03094 67551 NIL=
201406030600 AAXX 03064 67551 NIL=
201406021200 AAXX 02124 67551 NIL=
201406020900 AAXX 02094 67551 NIL=
201406020600 AAXX 02064 67551 NIL=
201406011200 AAXX 01121 67551 NIL=
201406010600 AAXX 01064 67551 NIL=

################################################################################
#  SYNOPS from 67561, Ndola (Zambia) | 13-00S | 028-39E | 1269 m
################################################################################
201407010600 AAXX 01064 67561 31965 10000 10142 20090 48567 70500 81006
                   333 10236 20104 58010 81080
                   555 91025=
201406300600 AAXX 30064 67561 32970 11012 10160 20087 48563 70500 81030
                   333 10264 20116 58002 81360
                   555 91024=
201406291500 AAXX 29154 67561 NIL=
201406290600 AAXX 29064 67561 NIL=
201406281500 AAXX 28154 67561 NIL=
201406280600 AAXX 28064 67561 31958 00000 10140 20104 48557 70400
                   333 10//0 20095 58005
                   555 00/// 91024=
201406270600 AAXX 27064 67561 31910 00000 10130 20092 48551 70400
                   333 10252 20070 59002
                   555 00/// 91024=
201406261200 AAXX 26124 67561 41960 00105 10239 20061 48542 70500
                   333 59006 555 91021=
201406260900 AAXX 26094 67561 41960 00505 10215 20052 48568 70500
                   333 59007=
201406260600 AAXX 26064 67561 31960 00000 10118 20063 48550 70400
                   333 10258 20075 59007
                   555 00/// 91024=
201406250600 AAXX 25064 67561 31965 10000 10135 20101 48561 70500 81030
                   333 10261 20092 59018 81360 91025=
201406241200 AAXX 24124 67561 42780 50104 10244 20106 48556 85200
                   333 59015 85850 91023=
201406240600 AAXX 24064 67561 31970 00000 10141 20110 48579 70500
                   333 59011 555 00/// 91027=
201406210600 AAXX 2106/ 67561 31970 01105 10143 20057 48578 70500
                   333 10248 20100 58010
                   555 00/// 91027=
201406201200 AAXX 20124 67561 NIL=
201406200600 AAXX 20064 67561 NIL=
201406160900 AAXX 16094 67561 NIL=
201406160600 AAXX 16064 67561 NIL=
201406150600 AAXX 15064 67561 NIL=
201406141200 AAXX 14124 67561 NIL=
201406131500 AAXX 13154 67561 NIL=
201406130900 AAXX 13094 67561 NIL=
201406130600 AAXX 13064 67561 NIL=
201406120900 AAXX 12094 67561 NIL=
201406120600 AAXX 12064 67561 NIL=
201406110900 AAXX 11094 67561 NIL=
201406110600 AAXX 11064 67561 NIL=
201406101200 AAXX 10124 67561 NIL=
201406100900 AAXX 10094 67561 41560 31005 10241 20101 48567 70522 83200
                   333 58011 83835 91024=
201406091500 AAXX 09154 67561 NIL=
201406091200 AAXX 09124 67561 NIL=
201406090600 AAXX 09064 67561 NIL=
201406081200 AAXX 08124 67561 NIL=
201406080900 AAXX 08094 67561 41570 30806 10206 20098 48561 70500 83100
                   333 58008 83825 91024=
201406080600 AAXX 08064 67561 31960 30805 10132 20077 48550 70511 80002
                   333 10260 20075 58010 83080
                   555 00/// 91024=
201406071200 AAXX 07124 67561 NIL=
201406070900 AAXX 07094 67561 41975 21506 10243 20101 48556 70500 80001
                   333 58022 82080 91023=
201406070600 AAXX 07064 67561 NIL=
201406061200 AAXX 06124 67561 NIL=
201406060900 AAXX 06094 67561 NIL=
201406060600 AAXX 06064 67561 NIL=
201406051200 AAXX 05124 67561 NIL=
201406050900 AAXX 05094 67561 NIL=
201406050600 AAXX 05064 67561 NIL=
201406041200 AAXX 04124 67561 NIL=
201406040900 AAXX 04094 67561 NIL=
201406040600 AAXX 04064 67561 NIL=
201406031200 AAXX 03124 67561 NIL=
201406030900 AAXX 03094 67561 NIL=
201406030600 AAXX 03064 67561 NIL=
201406021200 AAXX 02124 67561 NIL=
201406020900 AAXX 02094 67561 NIL=
201406020600 AAXX 02064 67561 NIL=
201406011200 AAXX 01121 67561 NIL=
201406010600 AAXX 01064 67561 NIL=

################################################################################
#  SYNOPS from 67563, Kafironda (Zambia) | 12-36S | 028-07E | 1243 m
################################################################################
201406291500 AAXX 29154 67563 NIL=
201406290600 AAXX 29064 67563 NIL=
201406281500 AAXX 28154 67563 NIL=
201406270600 AAXX 27064 67563 31920 00000 10101 20070 48/// 70500
                   333 10261 20021 59005
                   555 00023=
201406230600 AAXX 23064 67563 31970 60602 10136 20100 48/// 70520 86030
                   333 10254 20072 58008 86360
                   555 00069=
201406201200 AAXX 20124 67563 NIL=
201406200600 AAXX 20064 67563 31980 01602 10080 20050 48/// 70500
                   333 10261 20002 58000=
201406180600 AAXX 18064 67563 31980 01801 10100 20090 48/// 70500
                   333 10291 20034 58012
                   555 00034=
201406170600 AAXX 17064 67563 31930 00000 10106 20090 48/// 70540
                   333 10290 20052 58001
                   555 00053=
201406160900 AAXX 16094 67563 NIL=
201406160600 AAXX 16064 67563 NIL=
201406150600 AAXX 15064 67563 NIL=
201406141200 AAXX 14124 67563 NIL=
201406131500 AAXX 13154 67563 NIL=
201406130900 AAXX 13094 67563 NIL=
201406130600 AAXX 13064 67563 31978 10301 10128 20080 48/// 70500 81030
                   333 10254 20067 59016 81359
                   555 00067=
201406120900 AAXX 12094 67563 NIL=
201406120600 AAXX 12064 67563 31975 70000 10100 20090 48/// 70510 87070
                   333 10263 20057 59003 87358
                   555 00057=
201406110900 AAXX 11094 67563 NIL=
201406110600 AAXX 11064 67563 NIL=
201406101200 AAXX 10124 67563 NIL=
201406100900 AAXX 10094 67563 NIL=
201406100600 AAXX 10064 67563 31960 30000 10108 20080 48/// 70500 83030
                   333 10237 20046 58000 83360=
201406091500 AAXX 09154 67563 NIL=
201406091200 AAXX 09124 67563 NIL=
201406090600 AAXX 09064 67563 NIL=
201406081200 AAXX 08124 67563 NIL=
201406080600 AAXX 08064 67563 NIL=
201406071200 AAXX 07124 67563 NIL=
201406070600 AAXX 07064 67563 NIL=
201406061200 AAXX 06124 67563 NIL=
201406060900 AAXX 06094 67563 NIL=
201406060600 AAXX 06064 67563 NIL=
201406051200 AAXX 05124 67563 NIL=
201406050900 AAXX 05094 67563 NIL=
201406050600 AAXX 05064 67563 NIL=
201406041200 AAXX 04124 67563 NIL=
201406040900 AAXX 04094 67563 NIL=
201406040600 AAXX 04064 67563 NIL=
201406031200 AAXX 03124 67563 NIL=
201406030900 AAXX 03094 67563 NIL=
201406030600 AAXX 03064 67563 NIL=
201406021200 AAXX 02124 67563 NIL=
201406020900 AAXX 02094 67563 NIL=
201406020600 AAXX 02064 67563 31940 00000 10152 20120 48/// 70500
                   333 10285 20054 5////
                   555 00054=
201406011200 AAXX 01121 67563 NIL=
201406010600 AAXX 01064 67563 NIL=

################################################################################
#  SYNOPS from 67571, Serenje (Zambia) | 13-14S | 030-13E | 1384 m
################################################################################
201406291500 AAXX 29154 67571 NIL=
201406290600 AAXX 29064 67571 NIL=
201406281500 AAXX 28154 67571 NIL=
201406210600 AAXX 21064 67571 32475 11212 10151 20091 48588 70500 81500
                   333 10225 20094 58022 81618
                   555 00///=
201406201200 AAXX 20124 67571 NIL=
201406200600 AAXX 20064 67571 32980 01205 10152 20038 48558 70500
                   333 10238 20101 58007
                   555 00///=
201406170600 AAXX 17064 67571 32975 01204 10181 20056 48550 70500
                   333 10260 20147 58007
                   555 00///=
201406160900 AAXX 16094 67571 42970 01204 10231 20073 48563 70500
                   333 58014=
201406160600 AAXX 16064 67571 31965 01502 10181 20071 48550 70500
                   333 10267 20122 58005
                   555 00///=
201406150600 AAXX 15064 67571 NIL=
201406141200 AAXX 14124 67571 NIL=
201406131500 AAXX 13154 67571 NIL=
201406131200 AAXX 13124 67571 42682 21208 10216 20076 48523 70300 82200
                   333 59017 82830=
201406130900 AAXX 13094 67571 42582 11208 10180 20101 48550 70100 81500
                   333 59016 81620=
201406130600 AAXX 13064 67571 32381 71206 10120 20102 48547 70522 876//
                   333 10220 20109 59006 87709
                   555 00///=
201406120900 AAXX 12094 67571 42480 11205 10179 20093 48570 70500 81530
                   333 59006 81619 81360=
201406120600 AAXX 12064 67571 32480 21210 10146 20099 48558 70511 81530
                   333 10235 20120 59015 81615 82360
                   555 00///=
201406110900 AAXX 11094 67571 42582 61206 10199 20111 48581 70222 86530
                   333 58018 86627 81359=
201406110600 AAXX 11064 67571 32482 11504 10176 20114 48580 70200 81500
                   333 10241 20129 58016 81616
                   555 00///=
201406101200 AAXX 10124 67571 NIL=
201406100900 AAXX 10094 67571 NIL=
201406100600 AAXX 10064 67571 32982 30905 10161 20114 48559 70200 81031
                   333 10229 20119 58014 81360 83080
                   555 00///=
201406091500 AAXX 09154 67571 NIL=
201406091200 AAXX 09124 67571 42682 31203 10217 20092 48523 70300 83100
                   333 59019 83836=
201406090900 AAXX 09094 67571 42582 11204 10203 20096 48552 70200 81101
                   333 59014 81821 81080=
201406090600 AAXX 09064 67571 32382 11504 10144 20103 48548 70200 81600
                   333 10210 20111 59012 81707
                   555 00///=
201406081200 AAXX 08124 67571 NIL=
201406080600 AAXX 08064 67571 NIL=
201406071200 AAXX 07124 67571 NIL=
201406070600 AAXX 07064 67571 NIL=
201406061200 AAXX 06124 67571 42180 10903 10267 20091 48515 70500 81101
                   333 58008 81835 81081=
201406060900 AAXX 06094 67571 42980 00903 10265 20078 48525 70500
                   333 58006=
201406060600 AAXX 06064 67571 32970 00000 10166 20110 48520 70500
                   333 10286 20137 58000
                   555 00///=
201406051200 AAXX 05124 67571 42980 31503 10279 20048 48505 70500 80001
                   333 58004 83080=
201406050900 AAXX 05094 67571 NIL=
201406050600 AAXX 05064 67571 32980 00000 10161 20096 48530 70500
                   333 10282 20104 58006
                   555 00///=
201406041200 AAXX 04124 67571 NIL=
201406040900 AAXX 04094 67571 42982 01205 10251 20091 48524
                   333 58001=
201406040600 AAXX 04064 67571 32982 00000 10140 20091 48519
                   333 10281 20071 59006
                   555 00///=
201406031200 AAXX 03124 67571 42982 00000 10269 20099 48505
                   333 59005=
201406030900 AAXX 03094 67571 42980 01204 10249 20099 48524 70500
                   333 59008=
201406030600 AAXX 03064 67571 32980 01203 10203 20117 48532 70500
                   333 10275 20121 59008
                   555 00///=
201406021200 AAXX 02124 67571 42982 01204 10266 20104 48505
                   333 58002=
201406020900 AAXX 02094 67571 42982 00605 10254 20105 48534
                   333 59003=
201406020600 AAXX 02064 67571 32982 01204 10184 20107 48531
                   333 10277 20137 59004
                   555 00///=
201406011200 AAXX 01121 67571 NIL=
201406010600 AAXX 01064 67571 NIL=

################################################################################
#  SYNOPS from 67575, Mkushi (Zambia) | 13-38S | 029-53E | 1237 m
################################################################################
201407010600 AAXX 01064 67575 32980 11202 10143 20081 48/// 81031
                   333 10232 20105 5//// 81360 81080
                   555 00///=
201406300600 AAXX 30064 67575 32980 11305 10175 20101 48/// 81030
                   333 10277 20125 5//// 81360
                   555 00///=
201406291500 AAXX 29154 67575 NIL=
201406290600 AAXX 29064 67575 NIL=
201406281500 AAXX 28154 67575 NIL=
201406270600 AAXX 27064 67575 31975 00000 10105 20073 48/// 70500
                   333 20265 5//// 555 00///=
201406250600 AAXX 25064 67575 42980 01206 10145 20090 48///
                   333 10259 20105 5////
                   555 00///=
201406201200 AAXX 20124 67575 NIL=
201406200600 AAXX 20064 67575 31975 00000 10100 20049 48/// 70500
                   333 10260 20025 5////=
201406190600 AAXX 19064 67575 31975 00000 10115 20066 48/// 70500
                   333 10260 20040 5////
                   555 00///=
201406180600 AAXX 18064 67575 31975 01202 10147 20053 48/// 70500
                   333 10277 20108 5////
                   555 00///=
201406170600 AAXX 17064 67575 31975 01301 10166 20069 48/// 70500
                   333 10288 20115 5////
                   555 00///=
201406160900 AAXX 16094 67575 NIL=
201406160600 AAXX 16064 67575 32980 01302 10162 20077 48///
                   333 10270 20080 5////
                   555 00///=
201406150600 AAXX 15064 67575 NIL=
201406141200 AAXX 14124 67575 NIL=
201406131500 AAXX 13154 67575 NIL=
201406130900 AAXX 13094 67575 NIL=
201406130600 AAXX 13064 67575 32475 31402 10132 20102 48/// 70500 83500
                   333 10250 20105 5//// 83619
                   555 00///=
201406120900 AAXX 12094 67575 NIL=
201406120600 AAXX 12064 67575 32480 21004 10160 20097 48/// 81530
                   333 10260 20125 5//// 81616 82360=
201406110900 AAXX 11094 67575 NIL=
201406110600 AAXX 11064 67575 32980 21402 10170 20118 48/// 82070
                   333 10260 20115 5//// 82360
                   555 00///=
201406101200 AAXX 10124 67575 NIL=
201406100900 AAXX 10094 67575 NIL=
201406100600 AAXX 10064 67575 31980 31403 10150 20111 48/// 83070
                   333 10260 20110 5//// 83360
                   555 00///=
201406091500 AAXX 09154 67575 NIL=
201406091200 AAXX 09124 67575 NIL=
201406090600 AAXX 09064 67575 31575 10000 10135 20075 48/// 70300 81200
                   333 10240 20080 5//// 81820
                   555 00///=
201406081200 AAXX 08124 67575 NIL=
201406080600 AAXX 08064 67575 NIL=
201406071200 AAXX 07124 67575 NIL=
201406070600 AAXX 07064 67575 NIL=
201406061200 AAXX 06124 67575 NIL=
201406060900 AAXX 06094 67575 NIL=
201406060600 AAXX 06064 67575 32980 00000 10148 20106 48///
                   333 10308 20070 5////
                   555 00///=
201406051200 AAXX 05124 67575 NIL=
201406050900 AAXX 05094 67575 NIL=
201406050600 AAXX 05064 67575 32980 10000 10130 20076 48/// 80001
                   333 10303 20060 5//// 81080
                   555 00////=
201406041200 AAXX 04124 67575 NIL=
201406040900 AAXX 04094 67575 NIL=
201406040600 AAXX 04064 67575 32980 00000 10160 20107 48///
                   333 10299 20075 5////
                   555 00///=
201406031200 AAXX 03124 67575 NIL=
201406030900 AAXX 03094 67575 NIL=
201406030600 AAXX 03064 67575 32980 00000 10170 20106 48///
                   333 10300 20110 5////
                   555 00///=
201406021200 AAXX 02124 67575 NIL=
201406020900 AAXX 02094 67575 NIL=
201406020600 AAXX 02064 67575 32980 01002 10180 20120 48///
                   333 5//// 555 00///=
201406011200 AAXX 01121 67575 NIL=
201406010600 AAXX 01064 67575 NIL=

################################################################################
#  SYNOPS from 67580, Msekera (Zambia) | 13-39S | 032-34E | 1025 m
################################################################################
201406300600 AAXX 30064 67580 31480 11202 10175 20126 48/// 70500 81100
                   333 10274 20/// 58005 81812
                   555 00///=
201406291500 AAXX 29154 67580 NIL=
201406290600 AAXX 29064 67580 NIL=
201406281500 AAXX 28154 67580 NIL=
201406250600 AAXX 25064 67580 31975 00000 10164 20104 48/// 70500
                   333 10269 20/// 59015
                   555 00///=
201406201200 AAXX 20124 67580 NIL=
201406200600 AAXX 20064 67580 31975 01203 10179 20067 48/// 70500
                   333 10276 20/// 58007
                   555 00///=
201406170600 AAXX 17064 67580 31980 01203 10200 20108 48/// 70500
                   333 10294 20/// 58006
                   555 00///=
201406160900 AAXX 16094 67580 NIL=
201406160600 AAXX 16064 67580 31980 00902 10184 20129 48/// 70500
                   333 10282 20/// 59003
                   555 00///=
201406150600 AAXX 15064 67580 NIL=
201406141200 AAXX 14124 67580 NIL=
201406131500 AAXX 13154 67580 NIL=
201406130900 AAXX 13094 67580 41678 20904 10228 20120 48/// 70500 82200
                   333 59022 82835=
201406130600 AAXX 13064 67580 31478 11603 10158 20116 48/// 70500 81100
                   333 10238 20/// 59015 81815
                   555 00///=
201406121200 AAXX 12124 67580 41678 61807 10228 20120 48/// 70510 85101
                   333 58003 85845 81080=
201406120900 AAXX 12094 67580 41678 31808 10204 20111 48/// 70500 83101
                   333 58004 83835 81080=
201406120600 AAXX 12064 67580 31478 51808 10160 20107 48/// 70511 82531
                   333 10249 20/// 58006 82618 83360 81080
                   555 00///=
201406110900 AAXX 11094 67580 42580 61205 10229 20124 48/// 83130
                   333 58013 83828 84361=
201406110600 AAXX 11064 67580 32980 61204 10205 20125 48/// 86030
                   333 10272 20/// 58008 86360
                   555 00///=
201406101200 AAXX 10124 67580 NIL=
201406100900 AAXX 10094 67580 42680 70602 10260 20131 48/// 87200
                   333 5//// 87834=
201406100600 AAXX 10064 67580 32480 21203 10183 20144 48/// 81130
                   333 10271 20/// 58007 81812 81361
                   555 00///=
201406091500 AAXX 09154 67580 NIL=
201406091200 AAXX 09124 67580 41675 71504 10237 20121 48/// 70521 86208
                   333 5//// 86848 87280=
201406090900 AAXX 09094 67580 41675 50000 10228 20126 48/// 70510
                   333 5//// 85100=
201406090600 AAXX 09064 67580 31475 11203 10157 20125 48/// 70500 81101
                   333 10227 20/// 59011 81815 81080
                   555 00///=
201406081200 AAXX 08124 67580 NIL=
201406080600 AAXX 08064 67580 NIL=
201406071200 AAXX 07124 67580 NIL=
201406070600 AAXX 07064 67580 NIL=
201406061200 AAXX 06124 67580 41880 21205 10309 20091 48/// 70500 82100
                   333 58001 82857=
201406060900 AAXX 06094 67580 NIL=
201406060600 AAXX 06064 67580 31980 10802 10222 20158 48/// 70500 80001
                   333 10309 20/// 58009 81080
                   555 00///=
201406051200 AAXX 05124 67580 42780 23002 10296 20136 48/// 82100
                   333 58003 82856=
201406050900 AAXX 05094 67580 42680 30303 10271 20147 48/// 83100
                   333 58005 83840=
201406050600 AAXX 05064 67580 32980 01103 10222 20164 48///
                   333 10303 20/// 59002
                   555 00///=
201406041200 AAXX 04124 67580 41978 00903 10291 20109 48/// 70500
                   333 59005=
201406040900 AAXX 04094 67580 41978 00000 10274 20116 48/// 70500
                   333 59004=
201406040600 AAXX 04064 67580 31978 01203 10212 20135 48/// 70500
                   333 10310 20/// 59006
                   555 00///=
201406031200 AAXX 03124 67580 41978 01204 10294 20089 48/// 70500
                   333 59007=
201406030900 AAXX 03094 67580 NIL=
201406030600 AAXX 03064 67580 31978 01203 10220 20146 48/// 70500
                   333 10305 20/// 59008
                   555 00///=
201406021200 AAXX 02124 67580 NIL=
201406020900 AAXX 02094 67580 NIL=
201406020600 AAXX 02064 67580 32980 01002 10200 20144 48///
                   333 10295 20/// 59007
                   555 00///=
201406011200 AAXX 01121 67580 NIL=
201406010600 AAXX 01064 67580 NIL=

################################################################################
#  SYNOPS from 67581, Chipata (Zambia) | 13-33S | 032-35E | 1028 m
################################################################################
201406300600 AAXX 30064 67581 32980 01203 10171 20112 48583
                   333 10260 20111 58010
                   555 00098 91026=
201406291500 AAXX 29154 67581 NIL=
201406290600 AAXX 29064 67581 NIL=
201406281500 AAXX 28154 67581 NIL=
201406230600 AAXX 23064 67581 32580 51806 10172 20121 48513 70222 82130
                   333 10247 20132 59009 82825 84360
                   555 00132 91018=
201406220600 AAXX 22064 67581 32680 51409 10171 20110 48526 82130
                   333 10255 20104 59075 82830 85360
                   555 00136 91019=
201406201200 AAXX 20124 67581 41570 11205 10250 20056 48581 70500 81100
                   333 58023 81830 91024=
201406200600 AAXX 20064 67581 31980 01004 10194 20023 48582 70500
                   333 10271 20076 58007
                   555 00054 91025=
201406190600 AAXX 19064 67581 31960 01204 10193 20092 48567 70500
                   333 10270 20106 58007
                   555 00089 91024=
201406160900 AAXX 16094 67581 42580 11802 10255 20104 48575 81100
                   333 59003 81820 91023=
201406160600 AAXX 16064 67581 32980 00000 10167 20118 48555
                   333 10276 20084 59003
                   555 00080 91022=
201406150600 AAXX 15064 67581 NIL=
201406141200 AAXX 14124 67581 NIL=
201406131500 AAXX 13154 67581 NIL=
201406130900 AAXX 13094 67581 NIL=
201406130600 AAXX 13064 67581 NIL=
201406121200 AAXX 12124 67581 42580 51503 10239 20113 48565 85200
                   333 59002 85820 91022=
201406120900 AAXX 12094 67581 42580 41505 10207 20104 48590 84130
                   333 58003 84820 81365 91026=
201406120600 AAXX 12064 67581 32580 40904 10164 20112 48581 83131
                   333 10274 20108 58007 81820 83360 81080
                   555 00098 91026=
201406110900 AAXX 11094 67581 NIL=
201406110600 AAXX 11064 67581 32980 31203 10215 20104 48580 70200 83030
                   333 10271 20149 58004 83360
                   555 00135 91024=
201406101200 AAXX 10124 67581 NIL=
201406100900 AAXX 10094 67581 42680 50905 10241 20122 48581 85200
                   333 58012 85835 91024=
201406100600 AAXX 10064 67581 32980 00803 10204 20139 48578
                   333 10255 20099 59009
                   555 00112 91024=
201406091500 AAXX 09154 67581 NIL=
201406091200 AAXX 09124 67581 NIL=
201406090600 AAXX 09064 67581 NIL=
201406081200 AAXX 08124 67581 NIL=
201406080600 AAXX 08064 67581 NIL=
201406071200 AAXX 07124 67581 NIL=
201406070600 AAXX 07064 67581 NIL=
201406061200 AAXX 06124 67581 42580 31804 10305 20063 48531 83100
                   333 83830 91017=
201406060900 AAXX 06094 67581 42580 13503 10275 20113 48550 81100
                   333 58001 81830 91019=
201406060600 AAXX 06064 67581 32980 00000 10199 20148 48541
                   333 10300 20105 58009
                   555 00110 91020=
201406051200 AAXX 05124 67581 NIL=
201406050900 AAXX 05094 67581 42680 20302 10268 20148 48547 82100
                   333 58003 82830 91019=
201406050600 AAXX 05064 67581 NIL=
201406041200 AAXX 04124 67581 42980 01002 10290 20110 48538
                   333 58001 91017=
201406040900 AAXX 04094 67581 42980 03604 10265 20114 48545
                   333 58000 91019=
201406040600 AAXX 04064 67581 NIL=
201406031200 AAXX 03124 67581 NIL=
201406030900 AAXX 03094 67581 NIL=
201406030600 AAXX 03064 67581 42980 00903 10221 20142 48545 70200
                   333 59009 555 00112 91020=
201406021200 AAXX 02124 67581 NIL=
201406020900 AAXX 02094 67581 42980 00803 10252 20118 48551
                   333 59012 91020=
201406020600 AAXX 02064 67581 32980 00703 10216 20129 48552
                   333 10283 20109 59005
                   555 00105 91021=
201406011200 AAXX 01121 67581 NIL=
201406010600 AAXX 01064 67581 NIL=

################################################################################
#  SYNOPS from 67583, Lundazi (Zambia) | 12-17S | 033-12E | 1143 m
################################################################################
201406291500 AAXX 29154 67583 NIL=
201406290600 AAXX 29064 67583 NIL=
201406281500 AAXX 28154 67583 NIL=
201406230600 AAXX 23064 67583 12580 71204 10165 20140 69904 70222 82530
                   333 10265 20/// 5//// 82625 87360
                   555 00///=
201406210600 AAXX 21064 67583 31575 41204 10140 20084 70500 84180
                   333 10265 20/// 5//// 84827=
201406201200 AAXX 20124 67583 41975 20901 10247 20099 70500 82030
                   333 5//// 82360=
201406200600 AAXX 20064 67583 32980 01601 10143 20091
                   333 10289 20/// 5////
                   555 00///=
201406170600 AAXX 17064 67583 32980 01401 10165 20122 70200
                   333 10290 20/// 5////
                   555 00///=
201406160900 AAXX 16094 67583 NIL=
201406160600 AAXX 16064 67583 NIL=
201406150600 AAXX 15064 67583 NIL=
201406141200 AAXX 14124 67583 NIL=
201406131500 AAXX 13154 67583 NIL=
201406130900 AAXX 13094 67583 42680 11202 10225 20125 70300 81100
                   333 5//// 81829=
201406130600 AAXX 13064 67583 32580 20904 10150 20131 70200 81530
                   333 10260 20/// 81620 81360
                   555 00///=
201406120900 AAXX 12094 67583 NIL=
201406120600 AAXX 12064 67583 12980 71503 10164 20123 69904 87030
                   333 10230 20/// 5//// 87360
                   555 00///=
201406110900 AAXX 11094 67583 NIL=
201406110600 AAXX 11064 67583 32580 71504 10190 20150 81530
                   333 10272 20/// 5//// 81625 87360=
201406101200 AAXX 10124 67583 NIL=
201406100900 AAXX 10094 67583 NIL=
201406091500 AAXX 09154 67583 NIL=
201406091200 AAXX 09124 67583 NIL=
201406090600 AAXX 09064 67583 NIL=
201406081200 AAXX 08124 67583 NIL=
201406080600 AAXX 08064 67583 NIL=
201406071200 AAXX 07124 67583 NIL=
201406070600 AAXX 07064 67583 NIL=
201406061200 AAXX 06124 67583 NIL=
201406060900 AAXX 06094 67583 NIL=
201406060600 AAXX 06064 67583 NIL=
201406051200 AAXX 05124 67583 NIL=
201406050900 AAXX 05094 67583 NIL=
201406050600 AAXX 05064 67583 NIL=
201406041200 AAXX 04124 67583 NIL=
201406040900 AAXX 04094 67583 NIL=
201406040600 AAXX 04064 67583 NIL=
201406031200 AAXX 03124 67583 NIL=
201406030900 AAXX 03094 67583 NIL=
201406030600 AAXX 03064 67583 NIL=
201406021200 AAXX 02124 67583 NIL=
201406020900 AAXX 02094 67583 NIL=
201406020600 AAXX 02064 67583 NIL=
201406011200 AAXX 01121 67583 NIL=
201406010600 AAXX 01064 67583 NIL=

################################################################################
#  SYNOPS from 67599, Mfuwe (Zambia) | 13-16S | 031-56E | 568 m
################################################################################
201406300900 AAXX 30094 67599 42680 30806 10261 20116 48617 70322 83200
                   333 58006 83840 91024=
201406300600 AAXX 30064 67599 32980 10000 10170 20109 48573 81030
                   333 10310 20095 58006 81360
                   555 00095 91024=
201406291500 AAXX 29154 67599 42880 61804 10280 20116 48564 85130
                   333 58005 85857 83360=
201406290600 AAXX 29064 67599 NIL=
201406281500 AAXX 28154 67599 NIL=
201406280600 AAXX 28064 67599 32980 20902 10190 20132 48570 82030
                   333 10322 20130 58012 82359
                   555 00120 91023=
201406271200 AAXX 27124 67599 42780 10000 10310 20147 48567 81200
                   333 59008 81860 91018=
201406270900 AAXX 27094 67599 42980 00000 10270 20147 48578
                   333 59010 91022=
201406270600 AAXX 27064 67599 32980 00902 10160 20111 48550
                   333 10303 20110 59012
                   555 00100 91022=
201406260600 AAXX 26064 67599 32980 01505 10162 20084 48560
                   333 10301 20089 59013
                   555 00090 91023=
201406240600 AAXX 24064 67599 32980 01803 10186 20134 48598
                   333 10304 20120 59010
                   555 00110 91027=
201406201200 AAXX 20124 67599 NIL=
201406200600 AAXX 20064 67599 32970 01802 10160 20080 48567 70500
                   333 10307 20092 59008
                   555 00070 91024=
201406170600 AAXX 17064 67599 31959 00000 10160 20106 48549 70500
                   333 10324 20109 58008
                   555 00100 91022=
201406160900 AAXX 16094 67599 NIL=
201406160600 AAXX 16064 67599 31960 01803 10167 20112 48545 70500
                   333 10310 20125 59006
                   555 00115 91021=
201406150600 AAXX 15064 67599 NIL=
201406141200 AAXX 14124 67599 NIL=
201406131500 AAXX 13154 67599 NIL=
201406130900 AAXX 13094 67599 NIL=
201406130600 AAXX 13064 67599 NIL=
201406120900 AAXX 12094 67599 NIL=
201406120600 AAXX 12064 67599 NIL=
201406110900 AAXX 11094 67599 NIL=
201406110600 AAXX 11064 67599 NIL=
201406101200 AAXX 10124 67599 NIL=
201406100900 AAXX 10094 67599 NIL=
201406091500 AAXX 09154 67599 NIL=
201406091200 AAXX 09124 67599 NIL=
201406090600 AAXX 09064 67599 NIL=
201406081200 AAXX 08124 67599 NIL=
201406080600 AAXX 08064 67599 NIL=
201406071200 AAXX 07124 67599 NIL=
201406070600 AAXX 07064 67599 NIL=
201406061200 AAXX 06124 67599 NIL=
201406060900 AAXX 06094 67599 NIL=
201406060600 AAXX 06064 67599 NIL=
201406051200 AAXX 05124 67599 NIL=
201406050900 AAXX 05094 67599 NIL=
201406050600 AAXX 05064 67599 NIL=
201406041200 AAXX 04124 67599 NIL=
201406040900 AAXX 04094 67599 NIL=
201406040600 AAXX 04064 67599 NIL=
201406031200 AAXX 03124 67599 NIL=
201406030900 AAXX 03094 67599 NIL=
201406030600 AAXX 03064 67599 NIL=
201406021200 AAXX 02124 67599 NIL=
201406020900 AAXX 02094 67599 NIL=
201406020600 AAXX 02064 67599 NIL=
201406011200 AAXX 01121 67599 NIL=
201406010600 AAXX 01064 67599 NIL=

################################################################################
#  SYNOPS from 67625, Kalabo (Zambia) | 14-51S | 022-42E | 1033 m
################################################################################
201406291500 AAXX 29154 67625 NIL=
201406290600 AAXX 29064 67625 32982 01205 10152 20112 48/// 80000
                   333 10289 20113 59006
                   555 00/// 20000=
201406281500 AAXX 28154 67625 NIL=
201406220600 AAXX 22064 67625 32982 01006 10150 20117 48/// 80000
                   333 10250 20100 58004
                   555 00/// 20000=
201406201200 AAXX 20124 67625 NIL=
201406200600 AAXX 20064 67625 NIL=
201406160900 AAXX 16094 67625 NIL=
201406160600 AAXX 16064 67625 NIL=
201406150600 AAXX 15064 67625 NIL=
201406141200 AAXX 14124 67625 NIL=
201406131500 AAXX 13154 67625 NIL=
201406130900 AAXX 13094 67625 NIL=
201406130600 AAXX 13064 67625 NIL=
201406120900 AAXX 12094 67625 NIL=
201406120600 AAXX 12064 67625 NIL=
201406110900 AAXX 11094 67625 NIL=
201406110600 AAXX 11064 67625 NIL=
201406101200 AAXX 10124 67625 NIL=
201406100900 AAXX 10094 67625 NIL=
201406091500 AAXX 09154 67625 NIL=
201406091200 AAXX 09124 67625 NIL=
201406090600 AAXX 09064 67625 NIL=
201406081200 AAXX 08124 67625 NIL=
201406080600 AAXX 08064 67625 NIL=
201406071200 AAXX 07124 67625 NIL=
201406070600 AAXX 07064 67625 NIL=
201406061200 AAXX 06124 67625 NIL=
201406060900 AAXX 06094 67625 NIL=
201406060600 AAXX 06064 67625 NIL=
201406051200 AAXX 05124 67625 NIL=
201406050900 AAXX 05094 67625 NIL=
201406050600 AAXX 05064 67625 NIL=
201406041200 AAXX 04124 67625 NIL=
201406040900 AAXX 04094 67625 NIL=
201406040600 AAXX 04064 67625 NIL=
201406031200 AAXX 03124 67625 NIL=
201406030900 AAXX 03094 67625 NIL=
201406030600 AAXX 03064 67625 NIL=
201406021200 AAXX 02124 67625 NIL=
201406020900 AAXX 02094 67625 NIL=
201406020600 AAXX 02064 67625 NIL=
201406011200 AAXX 01121 67625 NIL=
201406010600 AAXX 01064 67625 NIL=

################################################################################
#  SYNOPS from 67633, Mongu (Zambia) | 15-15S | 023-09E | 1052 m
################################################################################
201406291500 AAXX 29154 67633 NIL=
201406290600 AAXX 29064 67633 NIL=
201406281500 AAXX 28154 67633 NIL=
201406260600 AAXX 26064 67633 32980 00907 10149 20091 48539 70200
                   333 10280 20114 59027
                   555 00/// 91021=
201406250600 AAXX 25064 67633 32980 00906 10159 20114 48563
                   333 10280 20123 59002
                   555 00/// 91024=
201406201200 AAXX 20124 67633 NIL=
201406200600 AAXX 20064 67633 NIL=
201406160900 AAXX 16094 67633 NIL=
201406160600 AAXX 16064 67633 NIL=
201406150600 AAXX 15064 67633 NIL=
201406141200 AAXX 14124 67633 NIL=
201406131500 AAXX 13154 67633 NIL=
201406130900 AAXX 13094 67633 NIL=
201406130600 AAXX 13064 67633 NIL=
201406120900 AAXX 12094 67633 NIL=
201406120600 AAXX 12064 67633 NIL=
201406110900 AAXX 11094 67633 NIL=
201406110600 AAXX 11064 67633 NIL=
201406101200 AAXX 10124 67633 NIL=
201406100900 AAXX 10094 67633 NIL=
201406091500 AAXX 09154 67633 NIL=
201406091200 AAXX 09124 67633 NIL=
201406090600 AAXX 09064 67633 NIL=
201406081200 AAXX 08124 67633 NIL=
201406080600 AAXX 08064 67633 NIL=
201406071200 AAXX 07124 67633 NIL=
201406070600 AAXX 07064 67633 NIL=
201406061200 AAXX 06124 67633 NIL=
201406060900 AAXX 06094 67633 NIL=
201406060600 AAXX 06064 67633 NIL=
201406051200 AAXX 05124 67633 NIL=
201406050900 AAXX 05094 67633 NIL=
201406050600 AAXX 05064 67633 NIL=
201406041200 AAXX 04124 67633 NIL=
201406040900 AAXX 04094 67633 NIL=
201406040600 AAXX 04064 67633 NIL=
201406031200 AAXX 03124 67633 NIL=
201406030900 AAXX 03094 67633 NIL=
201406030600 AAXX 03064 67633 NIL=
201406021200 AAXX 02124 67633 NIL=
201406020900 AAXX 02094 67633 NIL=
201406020600 AAXX 02064 67633 NIL=
201406011200 AAXX 01121 67633 NIL=
201406010600 AAXX 01064 67633 NIL=

################################################################################
#  SYNOPS from 67641, Kaoma (Zambia) | 14-48S | 024-48E | 1213 m
################################################################################
201406291500 AAXX 29154 67641 NIL=
201406290600 AAXX 29064 67641 NIL=
201406281500 AAXX 28154 67641 NIL=
201406260600 AAXX 26064 67641 32982 00000 10084 20064 48541
                   333 10275 20074 59001
                   555 00/// 91023=
201406250600 AAXX 25064 67641 32982 01002 10105 20086 48545
                   333 10254 20080 59016
                   555 00/// 91023=
201406240600 AAXX 24064 67641 32982 30802 10137 20110 48564 83030
                   333 10239 20110 59010 83360
                   555 00/// 91024=
201406230600 AAXX 23064 67641 32982 70904 10137 20091 48579 87030
                   333 10262 20106 58009 87360
                   555 00/// 91025=
201406201200 AAXX 20124 67641 NIL=
201406200600 AAXX 20064 67641 32982 00000 10090 20063 48547
                   333 10277 20064 58009
                   555 00/// 91023=
201406180600 AAXX 18064 67641 32982 00602 10119 20089 48538
                   333 10300 20076 58009
                   555 00/// 91022=
201406170600 AAXX 17064 67641 32982 00802 10135 20089 48533
                   333 10290 20089 58006
                   555 00/// 91021=
201406160900 AAXX 16094 67641 NIL=
201406160600 AAXX 16064 67641 32982 31004 10130 20083 48528 83030
                   333 10284 20096 59001 83360 91020=
201406150600 AAXX 15064 67641 NIL=
201406141200 AAXX 14124 67641 NIL=
201406131500 AAXX 13154 67641 NIL=
201406130900 AAXX 13094 67641 NIL=
201406130600 AAXX 13064 67641 32982 20701 10101 20082 48536 82030
                   333 10255 20087 59010 82360
                   555 00/// 91022=
201406120900 AAXX 12094 67641 NIL=
201406120600 AAXX 12064 67641 32982 20904 10121 20101 48549 80001
                   333 10274 20089 58000 82080
                   555 00/// 91023=
201406110900 AAXX 11094 67641 NIL=
201406110600 AAXX 11064 67641 32982 00901 10101 20082 48546
                   333 10270 20078 58015
                   555 00/// 91023=
201406101200 AAXX 10124 67641 NIL=
201406100900 AAXX 10094 67641 NIL=
201406100600 AAXX 10064 67641 32982 00601 10105 20086 48532
                   333 10269 20088 58008
                   555 91021=
201406091500 AAXX 09154 67641 NIL=
201406091200 AAXX 09124 67641 NIL=
201406090600 AAXX 09064 67641 32982 21202 10100 20081 48523 82030
                   333 10261 20089 59014 82360
                   555 91021=
201406081200 AAXX 08124 67641 NIL=
201406080600 AAXX 08064 67641 NIL=
201406071200 AAXX 07124 67641 NIL=
201406070600 AAXX 07064 67641 NIL=
201406061200 AAXX 06124 67641 NIL=
201406060900 AAXX 06094 67641 NIL=
201406060600 AAXX 06064 67641 32982 61709 10171 20060 48534 86030
                   333 10321 20149 58032 86360
                   555 00/// 91021=
201406051200 AAXX 05124 67641 NIL=
201406050900 AAXX 05094 67641 NIL=
201406050600 AAXX 05064 67641 32982 00000 10147 20131 48501
                   333 10320 20124 59005
                   555 00/// 10169=
201406041200 AAXX 04124 67641 NIL=
201406040900 AAXX 04094 67641 NIL=
201406040600 AAXX 04064 67641 32982 00000 10125 20107 48502
                   333 10310 20105 59009
                   555 00/// 91017=
201406031200 AAXX 03124 67641 NIL=
201406030900 AAXX 03094 67641 NIL=
201406030600 AAXX 03064 67641 32982 01802 10116 20098 48510
                   333 10305 20099 59003
                   555 00/// 91018=
201406021200 AAXX 02124 67641 NIL=
201406020900 AAXX 02094 67641 NIL=
201406020600 AAXX 02064 67641 32982 70801 10156 20121 48518 87030
                   333 10286 20140 59007 87360
                   555 00/// 91018=
201406011200 AAXX 01121 67641 NIL=
201406010600 AAXX 01064 67641 NIL=

################################################################################
#  SYNOPS from 67655, Mumbwa (Zambia) | 15-04S | 027-11E | 1216 m
################################################################################
201406291500 AAXX 29154 67655 NIL=
201406290600 AAXX 29064 67655 NIL=
201406281500 AAXX 28154 67655 NIL=
201406250600 AAXX 25064 67655 32980 10904 10140 20090 48578 81040
                   333 10233 20/// 59020 81360
                   555 00/// 91026=
201406201200 AAXX 20124 67655 NIL=
201406200600 AAXX 20064 67655 NIL=
201406160900 AAXX 16094 67655 NIL=
201406160600 AAXX 16064 67655 32980 00000 10128 20100 48561
                   333 10266 20/// 58006 91024=
201406150600 AAXX 15064 67655 NIL=
201406141200 AAXX 14124 67655 NIL=
201406131500 AAXX 13154 67655 NIL=
201406130900 AAXX 13094 67655 NIL=
201406130600 AAXX 13064 67655 NIL=
201406120900 AAXX 12094 67655 NIL=
201406120600 AAXX 12064 67655 NIL=
201406110900 AAXX 11094 67655 NIL=
201406110600 AAXX 11064 67655 NIL=
201406101200 AAXX 10124 67655 NIL=
201406100900 AAXX 10094 67655 42680 21006 10215 20110 48589 82100
                   333 58019 82830 91026=
201406100600 AAXX 10064 67655 32980 10905 10140 20120 48571 80001
                   333 10252 20/// 58008 81080
                   555 00/// QNH 1025.3=
201406091500 AAXX 09154 67655 NIL=
201406091200 AAXX 09124 67655 NIL=
201406090600 AAXX 09064 67655 NIL=
201406081200 AAXX 08124 67655 NIL=
201406080600 AAXX 08064 67655 NIL=
201406071200 AAXX 07124 67655 NIL=
201406070600 AAXX 07064 67655 NIL=
201406061200 AAXX 06124 67655 NIL=
201406060900 AAXX 06094 67655 NIL=
201406060600 AAXX 06064 67655 NIL=
201406051200 AAXX 05124 67655 NIL=
201406050900 AAXX 05094 67655 NIL=
201406050600 AAXX 05064 67655 NIL=
201406041200 AAXX 04124 67655 NIL=
201406040900 AAXX 04094 67655 NIL=
201406040600 AAXX 04064 67655 NIL=
201406031200 AAXX 03124 67655 NIL=
201406030900 AAXX 03094 67655 NIL=
201406030600 AAXX 03064 67655 NIL=
201406021200 AAXX 02124 67655 NIL=
201406020900 AAXX 02094 67655 NIL=
201406020600 AAXX 02064 67655 NIL=
201406011200 AAXX 01121 67655 NIL=
201406010600 AAXX 01064 67655 NIL=

################################################################################
#  SYNOPS from 67659, Kafue Polder (Zambia) | 15-46S | 027-55E | 978 m
################################################################################
201406291500 AAXX 29154 67659 NIL=
201406290600 AAXX 29064 67659 NIL=
201406281500 AAXX 28154 67659 NIL=
201406201200 AAXX 20124 67659 NIL=
201406200600 AAXX 20064 67659 NIL=
201406160900 AAXX 16094 67659 NIL=
201406160600 AAXX 16064 67659 NIL=
201406150600 AAXX 15064 67659 NIL=
201406141200 AAXX 14124 67659 NIL=
201406131500 AAXX 13154 67659 NIL=
201406130900 AAXX 13094 67659 NIL=
201406130600 AAXX 13064 67659 NIL=
201406120900 AAXX 12094 67659 NIL=
201406120600 AAXX 12064 67659 NIL=
201406110900 AAXX 11094 67659 NIL=
201406110600 AAXX 11064 67659 NIL=
201406101200 AAXX 10124 67659 NIL=
201406100900 AAXX 10094 67659 NIL=
201406091500 AAXX 09154 67659 NIL=
201406091200 AAXX 09124 67659 NIL=
201406090600 AAXX 09064 67659 NIL=
201406081200 AAXX 08124 67659 NIL=
201406080600 AAXX 08064 67659 NIL=
201406071200 AAXX 07124 67659 NIL=
201406070600 AAXX 07064 67659 NIL=
201406061200 AAXX 06124 67659 NIL=
201406060900 AAXX 06094 67659 NIL=
201406060600 AAXX 06064 67659 NIL=
201406051200 AAXX 05124 67659 NIL=
201406050900 AAXX 05094 67659 NIL=
201406050600 AAXX 05064 67659 NIL=
201406041200 AAXX 04124 67659 NIL=
201406040900 AAXX 04094 67659 NIL=
201406040600 AAXX 04064 67659 NIL=
201406031200 AAXX 03124 67659 NIL=
201406030900 AAXX 03094 67659 NIL=
201406030600 AAXX 03064 67659 NIL=
201406021200 AAXX 02124 67659 NIL=
201406020900 AAXX 02094 67659 NIL=
201406020600 AAXX 02064 67659 NIL=
201406011200 AAXX 01121 67659 NIL=
201406010600 AAXX 01064 67659 NIL=

################################################################################
#  SYNOPS from 67662, Kabwe Agric (Zambia) | 14-24S | 028-30E | 1165 m
################################################################################
201406291500 AAXX 29154 67662 NIL=
201406290600 AAXX 29064 67662 NIL=
201406281500 AAXX 28154 67662 NIL=
201406201200 AAXX 20124 67662 NIL=
201406200600 AAXX 20064 67662 NIL=
201406160900 AAXX 16094 67662 NIL=
201406160600 AAXX 16064 67662 NIL=
201406150600 AAXX 15064 67662 NIL=
201406141200 AAXX 14124 67662 NIL=
201406131500 AAXX 13154 67662 NIL=
201406130900 AAXX 13094 67662 NIL=
201406130600 AAXX 13064 67662 NIL=
201406120900 AAXX 12094 67662 NIL=
201406120600 AAXX 12064 67662 NIL=
201406110900 AAXX 11094 67662 NIL=
201406110600 AAXX 11064 67662 NIL=
201406101200 AAXX 10124 67662 NIL=
201406100900 AAXX 10094 67662 NIL=
201406091500 AAXX 09154 67662 NIL=
201406091200 AAXX 09124 67662 NIL=
201406090600 AAXX 09064 67662 NIL=
201406081200 AAXX 08124 67662 NIL=
201406080600 AAXX 08064 67662 NIL=
201406071200 AAXX 07124 67662 NIL=
201406070600 AAXX 07064 67662 NIL=
201406061200 AAXX 06124 67662 NIL=
201406060900 AAXX 06094 67662 NIL=
201406060600 AAXX 06064 67662 NIL=
201406051200 AAXX 05124 67662 NIL=
201406050900 AAXX 05094 67662 NIL=
201406050600 AAXX 05064 67662 NIL=
201406041200 AAXX 04124 67662 NIL=
201406040900 AAXX 04094 67662 NIL=
201406040600 AAXX 04064 67662 NIL=
201406031200 AAXX 03124 67662 NIL=
201406030900 AAXX 03094 67662 NIL=
201406030600 AAXX 03064 67662 NIL=
201406021200 AAXX 02124 67662 NIL=
201406020900 AAXX 02094 67662 NIL=
201406020600 AAXX 02064 67662 NIL=
201406011200 AAXX 01121 67662 NIL=
201406010600 AAXX 01064 67662 NIL=

################################################################################
#  SYNOPS from 67663, Kabwe (Zambia) | 14-27S | 028-28E | 1206 m
################################################################################
201407010600 AAXX 01064 67663 32980 20806 10147 20086 48573 82030
                   333 10235 20115 58010 82360
                   555 00///=
201406291500 AAXX 29154 67663 NIL=
201406290600 AAXX 29064 67663 NIL=
201406281500 AAXX 28154 67663 NIL=
201406260600 AAXX 26064 67663 32980 01003 10122 20081 48551
                   333 10252 20085 59010
                   555 00/// 20000=
201406201200 AAXX 20124 67663 NIL=
201406200600 AAXX 20064 67663 32980 00903 10137 20066 48561
                   333 10264 20093 58006
                   555 00/// 20000=
201406170600 AAXX 17064 67663 32980 00903 10168 20083 48551
                   333 10280 20111 58005
                   555 00///=
201406160900 AAXX 16094 67663 NIL=
201406160600 AAXX 16064 67663 32980 10903 10162 20088 48545 81030
                   333 10272 20108 58006 58006 81360
                   555 00///=
201406150600 AAXX 15064 67663 NIL=
201406141200 AAXX 14124 67663 NIL=
201406131500 AAXX 13154 67663 NIL=
201406130900 AAXX 13094 67663 NIL=
201406130600 AAXX 13064 67663 NIL=
201406120900 AAXX 12094 67663 NIL=
201406120600 AAXX 12064 67663 NIL=
201406110900 AAXX 11094 67663 NIL=
201406110600 AAXX 11064 67663 NIL=
201406101200 AAXX 10124 67663 NIL=
201406100900 AAXX 10094 67663 NIL=
201406091500 AAXX 09154 67663 NIL=
201406091200 AAXX 09124 67663 NIL=
201406090600 AAXX 09064 67663 32980 00905 10129 20097 48548
                   333 10223 20088 59044
                   555 00///=
201406081200 AAXX 08124 67663 NIL=
201406080600 AAXX 08064 67663 NIL=
201406071200 AAXX 07124 67663 NIL=
201406070600 AAXX 07064 67663 NIL=
201406061200 AAXX 06124 67663 NIL=
201406060900 AAXX 06094 67663 NIL=
201406060600 AAXX 06064 67663 32980 40000 10168 20096 48556 84030
                   333 10326 20116 58011 84360
                   555 00/// 20000=
201406051200 AAXX 05124 67663 NIL=
201406050900 AAXX 05094 67663 NIL=
201406050600 AAXX 05064 67663 32980 33603 10177 20094 48547 80002
                   333 10304 20110 58021 83080
                   555 00/// 20000=
201406041200 AAXX 04124 67663 NIL=
201406040900 AAXX 04094 67663 NIL=
201406040600 AAXX 04064 67663 32980 01804 10182 20090 48529
                   333 10309 20135 59002
                   555 00/// 20000=
201406031200 AAXX 03124 67663 NIL=
201406030900 AAXX 03094 67663 NIL=
201406030600 AAXX 03064 67663 32980 00803 10177 20101 48529
                   333 10289 20108 59008
                   555 00///=
201406021200 AAXX 02124 67663 NIL=
201406020900 AAXX 02094 67663 NIL=
201406020600 AAXX 02064 67663 32980 00907 10178 20119 48538
                   333 10286 20130 59008
                   555 00///=
201406011200 AAXX 01121 67663 NIL=
201406010600 AAXX 01064 67663 NIL=

################################################################################
#  SYNOPS from 67665, Lusaka Internationalairport (Zambia) | 15-19S | 028-27E | 1152 m
################################################################################
201407010600 AAXX 01064 67665 31960 01308 10128 20090 48576 70500
                   333 10//0 20//0 58003=
201407010000 AAXX 01004 67665 42980 00000 10093 20073 48564
                   333 58011=
201406301800 AAXX 30184 67665 42980 41404 10151 20124 48575 84030
                   333 58011 84360=
201406301500 AAXX 30154 67665 42780 50904 10194 20136 48564
                   333 58002 85856 82360=
201406301200 AAXX 30124 67665 42680 71006 10207 20127 48573 87800
                   333 58007 85840 84645=
201406300900 AAXX 30094 67665 42580 50612 10208 20134 48593 85500
                   333 58004 85625=
201406300600 AAXX 30064 67665 32480 11107 10134 20100 48573 81530
                   333 10/// 20/// 59002 81610 81360=
201406300300 AAXX 30034 67665 42980 01204 10099 20089 48554
                   333 59001=
201406300000 AAXX 30004 67665 42980 01206 10103 20093 48555
                   333 58003=
201406292100 AAXX 29214 67665 42980 01403 10112 20084 48565
                   333 58002=
201406291800 AAXX 29184 67665 42980 21304 10148 20094 48565 82030
                   333 58002 82360=
201406291500 AAXX 29154 67665 NIL=
201406291200 AAXX 29124 67665 42680 10227 20085 48569 85500
                   333 58003 85640=
201406290900 AAXX 29094 67665 42680 40906 10211 20098 48589 84500
                   333 59001 84630=
201406290600 AAXX 29064 67665 32980 11007 10164 20112 48579 81030
                   333 58003 81360=
201406290300 AAXX 29034 67665 42980 61102 10131 20114 48559 70211
                   333 58004 86360=
201406282100 AAXX 28214 67665 42980 01304 10140 20095 48567 70200
                   333 58004=
201406281800 AAXX 28184 67665 42980 01304 10159 20095 48564
                   333 58004=
201406281500 AAXX 28154 67665 NIL=
201406281200 AAXX 28124 67665 42680 51012 10238 20111 48574 85200
                   333 58017 85838=
201406280900 AAXX 28094 67665 42580 30813 10231 20134 48593 70300 83100
                   333 58015 83825=
201406280000 AAXX 28004 67665 42980 01702 10105 20075 48558
                   333 58010=
201406272100 AAXX 27214 67665 42980 01304 10143 20087 48563
                   333 58006=
201406271800 AAXX 27184 67665 42980 01304 10162 20089 48560
                   333 58008=
201406271500 AAXX 27154 67665 42980 11307 10240 20104 48555 81030
                   333 58006 81360=
201406271200 AAXX 27124 67665 42680 11604 10244 20090 48557 81100
                   333 58002 81845=
201406270900 AAXX 27094 67665 42580 11009 10225 20094 48580 81100
                   333 59001 81830=
201406270600 AAXX 27064 67665 32980 01104 10135 20091 48564
                   333 10//0 20//0 59002=
201406262100 AAXX 26214 67665 42980 01004 10116 20076 48555
                   333 59004=
201406261800 AAXX 26184 67665 42980 01005 10148 20092 48551
                   333 59006=
201406261200 AAXX 26124 67665 42980 03405 10228 20114 48554
                   333 59011=
201406260600 AAXX 26064 67665 32980 01105 10120 20082 48564
                   333 10//0 20//0 59011=
201406260300 AAXX 26034 67665 42980 00000 10087 20052 48543
                   333 59013=
201406251800 AAXX 25184 67665 42980 01408 10141 20106 48557
                   333 59020=
201406251500 AAXX 25154 67665 42980 00708 10219 20107 48554
                   333 59022=
201406251200 AAXX 25124 67665 42680 10605 10226 20115 48564 81100
                   333 59019 81845=
201406250900 AAXX 25094 67665 42580 10810 10200 20114 48590 81100
                   333 59016 81825=
201406250600 AAXX 25064 67665 32980 00907 10125 20098 48575
                   333 10//0 20//0 59017=
201406250300 AAXX 25034 67665 42980 01003 10104 20064 48557
                   333 59022 91024=
201406250000 AAXX 25004 67665 42980 01104 10098 20068 48558
                   333 59023=
201406242100 AAXX 24214 67665 42980 00804 10117 20079 48572
                   333 59023 91026=
201406241800 AAXX 24184 67665 42980 21103 10137 20091 48586 82303
                   333 59023 82360=
201406241500 AAXX 24154 67665 42780 31009 10203 20118 48573 83200
                   333 59027 83856=
201406241200 AAXX 24124 67665 42680 51009 10217 20115 48581 85200
                   333 59026 85840=
201406240900 AAXX 24094 67665 42580 60814 10185 20115 48604 86800
                   333 59020 85625 82828=
201406240600 AAXX 24064 67665 32480 11007 10130 20112 48561 81500
                   333 10//0 20//0 59016 81612=
201406240300 AAXX 24034 67665 42980 01204 10095 20075 48577
                   333 59012=
201406240000 AAXX 24004 67665 42980 01504 10097 20088 48579
                   333 59004=
201406232100 AAXX 23214 67665 42980 01204 10100 20090 48591
                   333 59008=
201406231800 AAXX 23184 67665 42980 11005 10119 20081 48594 81030
                   333 59008 81360=
201406231500 AAXX 23154 67665 42680 41010 10166 20114 48594 84800
                   333 59001 83640 81842 91028=
201406231200 AAXX 23124 67665 42680 71113 10171 20140 48599 878//
                   333 59002 86630 83832=
201406230900 AAXX 23094 67665 42580 70912 10173 20132 48620 875//
                   333 58002 87622=
201406230600 AAXX 23064 67665 32480 61007 10123 20111 48603 865//
                   333 10//0 20//0 58001 86610=
201406221800 AAXX 22184 67665 42980 01110 10124 20085 48601
                   333 58004=
201406221500 AAXX 22154 67665 42680 40815 10174 20113 48595 84800
                   333 58002 83638 81840=
201406221200 AAXX 22124 67665 42680 60920 10170 20076 48601 86800
                   333 58011 85630 82832=
201406220900 AAXX 22094 67665 42580 50915 10165 20081 48615 85500
                   333 58006 85620 91032=
201406220600 AAXX 22064 67665 32480 50913 10148 20102 48608 70222 84530
                   333 10//0 20//0 58004 84610 81360=
201406220300 AAXX 22034 67665 42980 60910 10141 20096 48598 86030
                   333 58009 86360=
201406220000 AAXX 22004 67665 42980 61006 10133 20090 48597 86030
                   333 58016 86360=
201406212100 AAXX 21214 67665 42980 61005 10134 20095 48607 86030
                   333 58022 86360=
201406211500 AAXX 21154 67665 42680 40920 10176 20106 48595 70122 84800
                   333 58015 82645 84848=
201406211200 AAXX 21124 67665 42680 70817 10194 20096 48593 70222 86800
                   333 58016 86640 85843=
201406210900 AAXX 21094 67665 42580 61015 10189 20111 48614 86800
                   333 58018 85630 84832=
201406210600 AAXX 21064 67665 31480 31011 10135 20095 48603 70500 82530
                   333 58022 82615 83360=
201406202100 AAXX 20214 67665 42980 01006 10095 20055 48580
                   333 58025=
201406201800 AAXX 20184 67665 42980 00908 10144 20094 48584
                   333 58020=
201406201500 AAXX 20154 67665 42980 00910 10213 20089 48585
                   333 58029=
201406201200 AAXX 20124 67665 NIL=
201406200900 AAXX 20094 67665 42480 06003 10219 20128 48603
                   333 58016=
201406200600 AAXX 20064 67665 NIL=
201406200300 AAXX 20034 67665 42980 00000 10088 20068 48559
                   333 58006=
201406192100 AAXX 19214 67665 42980 02002 10123 20064 48562
                   333 58002=
201406191800 AAXX 19184 67665 42980 01703 10153 20054 48567
                   333 58007=
201406191500 AAXX 19154 67665 42980 01205 10229 20063 48560
                   333 58001=
201406191200 AAXX 19124 67665 42980 00905 10245 20086 48564
                   333 59003=
201406190900 AAXX 19094 67665 42980 01107 10225 20084 48589
                   333 58004=
201406190600 AAXX 19064 67665 32980 32980 00903 10137 20091 48570
                   333 10//0 20//0 58002=
201406190300 AAXX 19034 67665 42980 00602 10075 20020 48552 70200
                   333 58007 91024=
201406190000 AAXX 19004 67665 42980 01103 10098 20045 48554
                   333 58005=
201406181800 AAXX 18184 67665 42980 01203 10152 20088 48560
                   333 58002=
201406181500 AAXX 18154 67665 42980 00904 10230 20089 48559
                   333 58001=
201406181200 AAXX 18124 67665 42980 01104 10238 20075 48566
                   333 58003=
201406180900 AAXX 18094 67665 42980 00910 10226 20064 48585
                   333 58006=
201406180600 AAXX 18064 67665 32980 00904 10135 20088 48568
                   333 10//0 20//0 58006=
201406180000 AAXX 18004 67665 42980 01303 10105 20095 48553
                   333 58013=
201406172100 AAXX 17214 67665 42980 01304 10131 20094 48559
                   333 58008=
201406171800 AAXX 17184 67665 42980 01204 10156 20081 48560 70200
                   333 58012=
201406171500 AAXX 17154 67665 42980 00808 10239 20079 48560 70200
                   333 58015 91022=
201406171200 AAXX 17124 67665 42980 00905 10254 20089 48564 70200
                   333 58013=
201406170900 AAXX 17094 67665 42580 10910 10237 20083 48579 81100
                   333 58007 81820=
201406170600 AAXX 17064 67665 32980 01102 10150 20105 48564
                   333 10//0 20//0 58009=
201406161800 AAXX 16184 67665 42980 01004 10159 20105 48548
                   333 58006=
201406161500 AAXX 16154 67665 42980 01004 10242 20106 48544
                   333 59005=
201406161200 AAXX 16124 67665 42680 12303 10263 20102 48553 81100
                   333 58007 81835=
201406160900 AAXX 16094 67665 42980 01005 10237 20110 48574 70200
                   333 58002 91024=
201406160600 AAXX 16064 67665 32980 00704 10150 20099 48557 70200
                   333 58002 555 00///=
201406160300 AAXX 16034 67665 42980 02003 10103 20056 48537
                   333 58008=
201406160000 AAXX 16004 67665 42980 00802 10101 20083 48537
                   333 58004=
201406152100 AAXX 15214 67665 42980 00903 10133 20096 48544
                   333 58002=
201406151800 AAXX 15184 67665 42980 01604 10159 20124 48542 70200
                   333 59001=
201406151500 AAXX 15154 67665 42980 20000 10245 20185 48541 70200 82030
                   333 59002 82359=
201406151200 AAXX 15124 67665 42580 22203 10251 20157 48545 70200 82100
                   333 59002 82825=
201406150900 AAXX 15094 67665 42980 00706 10222 20168 48569
                   333 58004=
201406150600 AAXX 15064 67665 32980 01503 10134 20096 48552 333=
201406142100 AAXX 14214 67665 42980 00903 10120 20084 48541
                   333 59003=
201406141800 AAXX 14184 67665 42980 01006 10144 20088 48541
                   333 59004=
201406141500 AAXX 14154 67665 42980 41007 10223 20123 48539 84030
                   333 59004 84359=
201406141200 AAXX 14124 67665 42680 40912 10235 20147 48545 84200
                   333 59008 84835=
201406140900 AAXX 14094 67665 42480 20803 10207 20143 48564 70200 82100
                   333 59030 82820=
201406140600 AAXX 14064 67665 32980 71202 10127 20100 48550 70222 87030
                   333 59020 87560=
201406140300 AAXX 14034 67665 42980 00000 10083 20063 48532
                   333 59018=
201406132100 AAXX 13214 67665 42980 01702 10224 20075 48543
                   333 59020=
201406131800 AAXX 13184 67665 42980 11203 10139 20071 48545 81030
                   333 59020 81360=
201406131500 AAXX 13154 67665 42980 40910 10213 20088 48541 84030
                   333 59014 84360=
201406131200 AAXX 13124 67665 42680 50911 10220 20120 48550 85200
                   333 59014 85838=
201406130900 AAXX 13094 67665 42559 51009 10179 20114 48575 70420 85500
                   333 59014 85625=
201406130600 AAXX 13064 67665 32480 11008 10125 20113 48569
                   333 10/// 20/// 59013 81612 81360=
201406130300 AAXX 13034 67665 42980 00504 10087 20033 48550
                   333 58013 91024=
201406130000 AAXX 13004 67665 42980 00504 10102 20064 48556
                   333 58011=
201406122100 AAXX 12214 67665 42980 00803 10119 20070 48563
                   333 58016 91025=
201406121800 AAXX 12184 67665 42980 21103 10138 20091 48563 82030
                   333 59014 82360=
201406121500 AAXX 12154 67665 42780 31007 10208 20101 48555 82130
                   333 59018 82850 82360=
201406121200 AAXX 12124 67665 42680 41110 10231 20091 48564 84100
                   333 59012 84835=
201406120900 AAXX 12094 67665 42580 10910 10202 20102 48591 81100
                   333 59007 81822=
201406120600 AAXX 12064 67665 32980 01108 10140 20103 48581
                   333 10//0 20//0 59003=
201406120300 AAXX 12034 67665 42980 31304 10108 20099 48564 83030
                   333 58003 83360=
201406120000 AAXX 12004 67665 42980 31204 10109 20090 48568 83030
                   333 58011 83360=
201406112100 AAXX 11214 67665 42980 70304 10135 20089 48580 87030
                   333 58008 87360=
201406111800 AAXX 11184 67665 42980 71204 10154 20078 48578 8703/
                   333 58008 87360=
201406111200 AAXX 11124 67665 42680 61012 10221 20121 48571 70322 86800
                   333 58009 82638 84840=
201406110900 AAXX 11094 67665 NIL=
201406110600 AAXX 11064 67665 32980 31304 10141 20064 48680 83030
                   333 10//0 20//0 58020 83360=
201406101800 AAXX 10184 67665 42980 21304 20085 48569 82030
                   333 58019 82360=
201406101200 AAXX 10124 67665 42680 51006 10211 20109 48595 85800
                   333 58019 83635 83838=
201406100900 AAXX 10094 67665 42580 40907 10178 20148 48581 70100 84130
                   333 58031 84820 81360 91026=
201406100600 AAXX 10064 67665 32480 21003 10122 20064 48563 70300 81630 58002 81610 81360
                   5/5 00///=
201406100300 AAXX 10034 67665 42980 01303 10082 20062 48545
                   333 58003=
201406100000 AAXX 10004 67665 42980 41202 10119 20073 48547 84030
                   333 58001 84360=
201406092100 AAXX 09214 67665 42980 31203 10116 20075 48553 83030
                   333 59004 83360=
201406091800 AAXX 09184 67665 42980 01207 10133 20086 48550
                   333 59011=
201406091500 AAXX 09154 67665 42680 30807 10211 20103 48542 83200
                   333 59019 83842=
201406091200 AAXX 09124 67665 NIL=
201406090600 AAXX 09064 67665 32480 11008 10120 20098 48561 81530
                   333 10//0 20//0 59013 81615 81360=
201406082100 AAXX 08214 67665 42980 00903 10097 20056 48554
                   333 59014=
201406081800 AAXX 08184 67665 42980 10903 10028 20080 48560 80001
                   333 10/// 59012 81080=
201406081500 AAXX 08154 67665 42980 10805 10201 20105 48556 80001
                   333 59009 81080=
201406081200 AAXX 08124 67665 42980 01020 10211 20129 48561
                   333 59002=
201406080900 AAXX 08094 67665 42980 00615 10180 20120 48580 70200
                   333 58000=
201406080600 AAXX 08064 67665 32980 01005 10110 20091 48572 70200
                   333 10/// 20/// 58006=
201406080300 AAXX 08034 67665 42980 01202 10073 20063 48550
                   333 58011=
201406072100 AAXX 07214 67665 42980 01203 10102 20073 48567
                   333 58024=
201406071800 AAXX 07184 67665 42980 01004 10122 20074 48570
                   333 58025=
201406071500 AAXX 07154 67665 42980 01014 10214 20075 48565
                   333 58022=
201406071200 AAXX 07124 67665 42980 00515 10215 20009 48564 70200
                   333 58041=
201406070600 AAXX 07064 67665 32980 01011 10133 20040 48568
                   333 10/// 20/// 58035=
201406070300 AAXX 07034 67665 42980 00705 10109 20035 48545
                   333 58031 91023=
201406062100 AAXX 06214 67665 42980 21403 10135 20078 48550 70200 82030
                   333 58030 82360 91023=
201406061200 AAXX 06124 67665 42980 01412 10249 20081 48543
                   333 58020=
201406060900 AAXX 06094 67665 42980 01313 10252 20086 48560
                   333 58020=
201406060600 AAXX 06064 67665 32980 11204 10185 20098 48542 81030
                   333 10305 20//0 58010 81360=
201406060300 AAXX 06034 67665 42980 11403 10137 20128 48520 81030
                   333 58006 81360=
201406060000 AAXX 06004 67665 42980 22004 10158 20132 48519 82330
                   333 58001 82360=
201406051800 AAXX 05184 67665 42980 01203 10181 20091 48521 70200
                   333 58002=
201406051500 AAXX 05154 67665 42980 00902 10288 20100 48517 70200
                   333 58002 91017=
201406051200 AAXX 05124 67665 42980 02705 10286 20106 48520 70100
                   333 58002=
201406050900 AAXX 05094 67665 42980 42980 10604 20106 48542 80001
                   333 58000 81080=
201406050600 AAXX 05064 67665 32980 11409 10175 20109 48533 80001
                   333 10/// 20/// 58002 81080=
201406050300 AAXX 05034 67665 42980 01902 10116 20108 48512 70200
                   333 58002=
201406042100 AAXX 04214 67665 42980 01502 10146 20111 48517 70200
                   333 59002=
201406041800 AAXX 04184 67665 42980 01504 10190 20142 48520
                   333 59002=
201406041500 AAXX 04154 67665 42980 00804 10268 20119 48517
                   333 58001=
201406041200 AAXX 04124 67665 42980 01003 10286 20116 48523
                   333 59004=
201406040900 AAXX 04094 67665 42980 00511 10254 20184 48541
                   333 59002 91020=
201406040600 AAXX 04064 67665 32980 01203 10170 20118 48530
                   333 59003=
201406040300 AAXX 04034 67665 42980 01402 10117 20089 48510
                   333 59004=
201406040000 AAXX 04004 67665 42980 01402 10118 20100 48507
                   333 59007=
201406032100 AAXX 03214 67665 42980 01303 10138 20111 48518
                   333 59008=
201406031200 AAXX 03124 67665 42980 00804 10126 48526
                   333 59006=
201406030900 AAXX 03094 67665 NIL=
201406030600 AAXX 03064 67665 32980 01103 10171 20129 48533 70200
                   333 59010=
201406022100 AAXX 02214 67665 42980 01104 10144 20116 48526
                   333 59007=
201406021800 AAXX 02184 67665 42980 01203 10173 20131 48527
                   333 59008=
201406021500 AAXX 02154 67665 42980 01004 10263 20129 48523
                   333 59007=
201406021200 AAXX 02124 67665 NIL=
201406020900 AAXX 02094 67665 NIL=
201406020600 AAXX 02064 67665 NIL=
201406012100 AAXX 01214 67665 42980 01003 10139 20121 48532
                   333 59009=
201406011800 AAXX 01184 67665 42980 01204 10170 20145 48534
                   333 59010=
201406011500 AAXX 01154 67665 42980 30803 10251 20167 48529 83030
                   333 59013 83360=
201406011200 AAXX 01124 67665 42680 40208 10247 20162 48535 84200
                   333 59011 84840=
201406010900 AAXX 01094 67665 42580 10913 10229 20163 48562 81100
                   333 59007 81825=
201406010600 AAXX 01064 67665 31960 51004 10167 20134 48553 70500 85030
                   333 10//0 20//0 59005 85360=

################################################################################
#  SYNOPS from 67666, Lusaka City Airport (Zambia) | 15-25S | 028-19E | 1280 m
################################################################################
201407010600 AAXX 01064 67666 32980 10513 10140 20073 48580 84030
                   333 10225 20115 58011 81360
                   555 00/// 91026=
201406301200 AAXX 30124 67666 42680 70910 10201 20082 48558 87800
                   333 58006 83635 84840 91024=
201406300600 AAXX 30064 67666 32980 00211 10141 20103 48562
                   333 10231 20115 58002=
201406291500 AAXX 29154 67666 NIL=
201406290600 AAXX 29064 67666 NIL=
201406281500 AAXX 28154 67666 NIL=
201406250600 AAXX 25064 67666 32980 00910 10135 20089 48570
                   333 10235 20106 59017
                   555 00/// 91025=
201406201200 AAXX 20124 67666 42980 01010 10225 20056 48577
                   333 58022 91025=
201406200600 AAXX 20064 67666 32980 00905 10165 20081 48581
                   333 10252 20110 58014
                   555 00/// 91026=
201406181200 AAXX 18124 67666 42980 01104 10239 20063 48551
                   333 5//// 91022=
201406180900 AAXX 18094 67666 42980 01006 10213 20058 48569
                   333 58005 91025=
201406180600 AAXX 18064 67666 32980 00303 10160 20069 48554
                   333 10255 20110 59007 91023=
201406160900 AAXX 16094 67666 42980 01007 10235 20070 48563
                   333 59001 91023=
201406160600 AAXX 16064 67666 32980 00905 10175 20092 48553
                   333 10250 20110 59017 91023=
201406150600 AAXX 15064 67666 NIL=
201406141200 AAXX 14124 67666 NIL=
201406131500 AAXX 13154 67666 NIL=
201406130900 AAXX 13094 67666 NIL=
201406130600 AAXX 13064 67666 32980 10912 10135 20099 48561 81030
                   333 10230 20089 59017 81359
                   555 00/// 91024=
201406120900 AAXX 12094 67666 NIL=
201406120600 AAXX 12064 67666 32980 00710 10140 20103 48578
                   333 10231 20105 58004 91026=
201406110900 AAXX 11094 67666 42580 50912 10195 20119 48591 85200
                   333 58016 85830 91027=
201406110600 AAXX 11064 67666 32980 21205 10156 20121 48583 82030
                   333 10222 20081 58020 82359 91026=
201406101200 AAXX 10124 67666 42680 60905 10211 20104 48558 84230
                   333 58018 84830 84360 91023=
201406100900 AAXX 10094 67666 42480 30907 10190 20122 48576 82130
                   333 58015 82818 81360 91025=
201406100600 AAXX 10064 67666 32980 10907 10145 20120 48563 81030
                   333 10220 20110 58008 81360 91024=
201406091500 AAXX 09154 67666 NIL=
201406091200 AAXX 09124 67666 NIL=
201406090600 AAXX 09064 67666 NIL=
201406081200 AAXX 08124 67666 NIL=
201406080600 AAXX 08064 67666 NIL=
201406071200 AAXX 07124 67666 NIL=
201406070600 AAXX 07064 67666 NIL=
201406061200 AAXX 06124 67666 NIL=
201406060900 AAXX 06094 67666 42980 00210 10235 20065 48551
                   333 58019 91022=
201406060600 AAXX 06064 67666 32980 01604 10194 20099 48541 82030
                   333 10289 20137 58015 82360 91021=
201406051200 AAXX 05124 67666 NIL=
201406050900 AAXX 05094 67666 NIL=
201406050600 AAXX 05064 67666 32980 10000 10195 20095 48520 80001
                   333 10285 20129 58002 81080
                   555 00/// 10199=
201406041200 AAXX 04124 67666 NIL=
201406040900 AAXX 04094 67666 NIL=
201406040600 AAXX 04064 67666 32980 01207 10193 20091 48520
                   333 10279 20165 59007
                   555 910194=
201406031200 AAXX 03124 67666 42980 00905 10265 20109 48516
                   333 59009 91017=
201406030900 AAXX 03094 67666 42980 00907 10249 20110 48534
                   333 59009 91020=
201406030600 AAXX 03064 67666 32980 00904 10201 20136 48532
                   333 10275 20165 59009 91020=
201406021200 AAXX 02124 67666 NIL=
201406020900 AAXX 02094 67666 NIL=
201406020600 AAXX 02064 67666 32980 00904 10190 20122 48540
                   333 10260 20140 58008
                   555 00/// 91021=
201406011200 AAXX 01121 67666 NIL=
201406010600 AAXX 01064 67666 NIL=

################################################################################
#  SYNOPS from 67667, Mount Makulu (Zambia) | 15-33S | 028-15E | 1213 m
################################################################################
201406291500 AAXX 29154 67667 NIL=
201406290600 AAXX 29064 67667 NIL=
201406281500 AAXX 28154 67667 NIL=
201406201200 AAXX 20124 67667 NIL=
201406200600 AAXX 20064 67667 NIL=
201406160900 AAXX 16094 67667 NIL=
201406160600 AAXX 16064 67667 NIL=
201406150600 AAXX 15064 67667 NIL=
201406141200 AAXX 14124 67667 NIL=
201406131500 AAXX 13154 67667 NIL=
201406130900 AAXX 13094 67667 NIL=
201406130600 AAXX 13064 67667 NIL=
201406120900 AAXX 12094 67667 NIL=
201406120600 AAXX 12064 67667 NIL=
201406110900 AAXX 11094 67667 NIL=
201406110600 AAXX 11064 67667 NIL=
201406101200 AAXX 10124 67667 NIL=
201406100900 AAXX 10094 67667 NIL=
201406091500 AAXX 09154 67667 NIL=
201406091200 AAXX 09124 67667 NIL=
201406090600 AAXX 09064 67667 NIL=
201406081200 AAXX 08124 67667 NIL=
201406080600 AAXX 08064 67667 NIL=
201406071200 AAXX 07124 67667 NIL=
201406070600 AAXX 07064 67667 NIL=
201406061200 AAXX 06124 67667 NIL=
201406060900 AAXX 06094 67667 NIL=
201406060600 AAXX 06064 67667 NIL=
201406051200 AAXX 05124 67667 NIL=
201406050900 AAXX 05094 67667 NIL=
201406050600 AAXX 05064 67667 NIL=
201406041200 AAXX 04124 67667 NIL=
201406040900 AAXX 04094 67667 NIL=
201406040600 AAXX 04064 67667 NIL=
201406031200 AAXX 03124 67667 NIL=
201406030900 AAXX 03094 67667 NIL=
201406030600 AAXX 03064 67667 NIL=
201406021200 AAXX 02124 67667 NIL=
201406020900 AAXX 02094 67667 NIL=
201406020600 AAXX 02064 67667 NIL=
201406011200 AAXX 01121 67667 NIL=
201406010600 AAXX 01064 67667 NIL=

################################################################################
#  SYNOPS from 67673, Petauke (Zambia) | 14-15S | 031-17E | 1035 m
################################################################################
201407010600 AAXX 01064 67673 42980 61001 10170 20107 48598 70222 85031
                   333 10226 20142 58006 85360 84080
                   555 00///=
201406300600 AAXX 30064 67673 31575 40902 10180 20118 48594 70500 84100
                   333 10262 20129 59001 84820
                   555 00///=
201406291500 AAXX 29154 67673 NIL=
201406290600 AAXX 29064 67673 NIL=
201406281500 AAXX 28154 67673 41575 31004 10245 20088 48580 70500 83100
                   333 58012 83830 555 10280=
201406271200 AAXX 27124 67673 41675 40701 10275 20096 48576 70500 84100
                   333 58002 84832=
201406270600 AAXX 27064 67673 31975 00901 10200 20115 48581 70500
                   333 10256 20130 59009
                   555 00///=
201406260900 AAXX 26094 67673 42584 30903 10226 20084 48590 83100
                   333 59015 83828=
201406241200 AAXX 24124 67673 41275 50902 10255 20102 48599 70522 85100
                   333 58011 85830=
201406240600 AAXX 24064 67673 41575 40902 10178 20120 48615 70500 84500
                   333 10228 20130 59004 84620
                   555 00///=
201406231200 AAXX 23124 67673 41575 60901 10220 20107 48535 70522 86130
                   333 59016 86825 84360=
201406230600 AAXX 23064 67673 41575 60902 10170 20134 48617 70522 86500
                   333 10207 20128 59006 86620
                   555 00///=
201406201500 AAXX 20154 67673 41975 01406 10214 20033 48600 70500
                   333 58037 555 10246=
201406201200 AAXX 20124 67673 41975 01307 10242 20020 48597 70500
                   333 58027=
201406200600 AAXX 20064 67673 32980 01102 10171 20057 48595
                   333 10242 20136 58013
                   555 00///=
201406180600 AAXX 18064 67673 31975 01001 10180 20076 48581 70500
                   333 10278 20123 58006
                   555 00///=
201406170600 AAXX 17064 67673 32984 00601 10197 20078 48578
                   333 10256 20157 58008=
201406160900 AAXX 16094 67673 42984 01601 10267 20066 48585
                   333 59004=
201406160600 AAXX 16064 67673 32980 01701 10203 20083 48571
                   333 10238 20146 59003
                   555 00///=
201406150600 AAXX 15064 67673 NIL=
201406141200 AAXX 14124 67673 NIL=
201406131500 AAXX 13154 67673 42584 31203 10227 20086 48550 83200
                   333 59034 83835=
201406131200 AAXX 13124 67673 42584 51202 10240 20094 48563 85200
                   333 59026 85829=
201406130900 AAXX 13094 67673 42584 11303 10216 20104 48589 81500
                   333 59005 81626=
201406130600 AAXX 13064 67673 32484 21401 10146 20111 48581 81530
                   333 10182 20108 58000 81619 82360
                   555 00///=
201406120900 AAXX 12094 67673 NIL=
201406120600 AAXX 12064 67673 NIL=
201406110900 AAXX 11094 67673 NIL=
201406110600 AAXX 11064 67673 NIL=
201406101200 AAXX 10124 67673 NIL=
201406100900 AAXX 10094 67673 42684 50102 10230 20122 48595 85200
                   333 58005 85832=
201406100600 AAXX 10064 67673 32584 30902 10195 20134 48592 82130
                   333 10243 20130 58013 82825 83360
                   555 00///=
201406091500 AAXX 09154 67673 NIL=
201406091200 AAXX 09124 67673 42584 61303 10237 20158 48562 86100
                   333 59018 86829=
201406090600 AAXX 09064 67673 32584 31502 10172 20118 48576 83530
                   333 10211 20128 59013 83622 81360
                   555 00///=
201406081200 AAXX 08124 67673 NIL=
201406080600 AAXX 08064 67673 NIL=
201406071200 AAXX 07124 67673 NIL=
201406070600 AAXX 07064 67673 NIL=
201406061200 AAXX 06124 67673 42680 41801 10297 20098 48542 83100
                   333 58008 83836=
201406060900 AAXX 06094 67673 NIL=
201406060600 AAXX 06064 67673 NIL=
201406051200 AAXX 05124 67673 42984 00102 10269 20122 48557
                   333 58000=
201406050900 AAXX 05094 67673 NIL=
201406050600 AAXX 05064 67673 32984 03501 10218 20117 48549
                   333 10273 20164 59004
                   555 00///=
201406041200 AAXX 04124 67673 NIL=
201406040900 AAXX 04094 67673 NIL=
201406040600 AAXX 04064 67673 32984 00102 10210 20073 48552
                   333 10310 20160 59001
                   555 00///=
201406031200 AAXX 03124 67673 NIL=
201406030900 AAXX 03094 67673 42984 00904 10270 20119 48559
                   333 59008=
201406030600 AAXX 03064 67673 32984 00502 10220 20098 48554
                   333 10302 20154 59009
                   555 00///=
201406021200 AAXX 02124 67673 42984 00401 10297 20116 48543
                   333 59008=
201406020900 AAXX 02094 67673 42984 00501 10264 20128 48565
                   333 59008=
201406020600 AAXX 02064 67673 32984 00902 10220 20119 48563
                   333 10286 20150 59007
                   555 00///=
201406011200 AAXX 01121 67673 NIL=
201406010600 AAXX 01064 67673 NIL=

################################################################################
#  SYNOPS from 67731, Senanga (Zambia) | 16-06S | 023-16E | 1027 m
################################################################################
201406291500 AAXX 29154 67731 NIL=
201406290600 AAXX 29064 67731 NIL=
201406281500 AAXX 28154 67731 NIL=
201406201200 AAXX 20124 67731 NIL=
201406200600 AAXX 20064 67731 NIL=
201406160900 AAXX 16094 67731 NIL=
201406160600 AAXX 16064 67731 32980 007// 10160 20099 48///
                   333 10278 20077 5////
                   555 00///=
201406150600 AAXX 15064 67731 NIL=
201406141200 AAXX 14124 67731 NIL=
201406131500 AAXX 13154 67731 NIL=
201406130900 AAXX 13094 67731 NIL=
201406130600 AAXX 13064 67731 NIL=
201406120900 AAXX 12094 67731 NIL=
201406120600 AAXX 12064 67731 NIL=
201406110900 AAXX 11094 67731 NIL=
201406110600 AAXX 11064 67731 NIL=
201406101200 AAXX 10124 67731 NIL=
201406100900 AAXX 10094 67731 NIL=
201406091500 AAXX 09154 67731 NIL=
201406091200 AAXX 09124 67731 NIL=
201406090600 AAXX 09064 67731 NIL=
201406081200 AAXX 08124 67731 NIL=
201406080600 AAXX 08064 67731 NIL=
201406071200 AAXX 07124 67731 NIL=
201406070600 AAXX 07064 67731 NIL=
201406061200 AAXX 06124 67731 NIL=
201406060900 AAXX 06094 67731 NIL=
201406060600 AAXX 06064 67731 NIL=
201406051200 AAXX 05124 67731 NIL=
201406050900 AAXX 05094 67731 NIL=
201406050600 AAXX 05064 67731 NIL=
201406041200 AAXX 04124 67731 NIL=
201406040900 AAXX 04094 67731 NIL=
201406040600 AAXX 04064 67731 NIL=
201406031200 AAXX 03124 67731 NIL=
201406030900 AAXX 03094 67731 NIL=
201406030600 AAXX 03064 67731 NIL=
201406021200 AAXX 02124 67731 NIL=
201406020900 AAXX 02094 67731 NIL=
201406020600 AAXX 02064 67731 NIL=
201406011200 AAXX 01121 67731 NIL=
201406010600 AAXX 01064 67731 NIL=

################################################################################
#  SYNOPS from 67741, Sesheke (Zambia) | 17-28S | 024-18E | 949 m
################################################################################
201406301200 AAXX 30124 67741 42680 50902 10250 20105 48573 83202
                   333 58002 83846 82080=
201406291500 AAXX 29154 67741 NIL=
201406290600 AAXX 29064 67741 32980 10000 10128 20098 48566 81031
                   333 10279 20060 58001 81362 81080
                   555 00///=
201406281500 AAXX 28154 67741 NIL=
201406201200 AAXX 20124 67741 NIL=
201406200600 AAXX 20064 67741 NIL=
201406170600 AAXX 17064 67741 32980 00000 10104 20078 48542
                   333 10282 20040 58002
                   555 00///=
201406160900 AAXX 16094 67741 NIL=
201406160600 AAXX 16064 67741 32980 00000 10099 20088 48533
                   333 10287 20065 58010
                   555 00///=
201406150600 AAXX 15064 67741 NIL=
201406141200 AAXX 14124 67741 NIL=
201406131500 AAXX 13154 67741 NIL=
201406130900 AAXX 13094 67741 NIL=
201406130600 AAXX 13064 67741 32975 22801 10103 20092 48551 82030
                   333 10250 20052 59022 82362
                   555 00///=
201406120900 AAXX 12094 67741 NIL=
201406120600 AAXX 12064 67741 32980 10901 10135 20102 48573 81030
                   333 10259 20065 59004 81362
                   555 00///=
201406110900 AAXX 11094 67741 NIL=
201406110600 AAXX 11064 67741 32980 00000 10106 20090 48571
                   333 10260 20042 58027
                   555 00///=
201406101200 AAXX 10124 67741 NIL=
201406100900 AAXX 10094 67741 NIL=
201406100600 AAXX 10064 67741 32980 20901 10122 20088 48546 81031
                   333 10266 20075 58013 81362 82080
                   555 00///=
201406091500 AAXX 09154 67741 NIL=
201406091200 AAXX 09124 67741 NIL=
201406090600 AAXX 09064 67741 32980 00000 10105 20071 48534
                   333 10248 20032 59025
                   555 00///=
201406081200 AAXX 08124 67741 NIL=
201406080600 AAXX 08064 67741 NIL=
201406071200 AAXX 07124 67741 NIL=
201406070600 AAXX 07064 67741 NIL=
201406061200 AAXX 06124 67741 NIL=
201406060900 AAXX 06094 67741 NIL=
201406060600 AAXX 06064 67741 32980 01202 10115 20037 48562 70200
                   333 10309 20109 58072
                   555 00///=
201406051200 AAXX 05124 67741 NIL=
201406050900 AAXX 05094 67741 NIL=
201406050600 AAXX 05064 67741 32980 00000 10151 20138 48506
                   333 10315 20105 59003
                   555 00///=
201406041200 AAXX 04124 67741 NIL=
201406040900 AAXX 04094 67741 NIL=
201406040600 AAXX 04064 67741 NIL=
201406031200 AAXX 03124 67741 NIL=
201406030900 AAXX 03094 67741 NIL=
201406030600 AAXX 03064 67741 NIL=
201406021200 AAXX 02124 67741 NIL=
201406020900 AAXX 02094 67741 NIL=
201406020600 AAXX 02064 67741 32980 60000 10127 20108 48529 86030
                   333 10279 20077 59002 86362
                   555 00///=
201406011200 AAXX 01121 67741 NIL=
201406010600 AAXX 01064 67741 NIL=

################################################################################
#  SYNOPS from 67743, Livingstone (Zambia) | 17-49S | 025-49E | 985 m
################################################################################
201406300600 AAXX 30064 67743 32980 40805 10131 20089 48573 84030
                   333 10265 20100 58000 84360
                   555 91026=
201406291500 AAXX 29154 67743 NIL=
201406290600 AAXX 29064 67743 NIL=
201406281500 AAXX 28154 67743 NIL=
201406240600 AAXX 24064 67743 42980 10907 10138 20103 48595 81030
                   333 10244 20078 59022 81360
                   555 00/// 91029=
201406201200 AAXX 20124 67743 NIL=
201406200600 AAXX 20064 67743 32980 01203 10133 20042 48593
                   333 10275 20075 58030
                   555 00/// 91028=
201406180600 AAXX 18064 67743 32980 00000 10131 20063 48565
                   333 10299 20067 58018
                   555 91025=
201406160900 AAXX 16094 67743 NIL=
201406160600 AAXX 16064 67743 32980 00000 10146 20081 48558
                   333 10272 20070 58008
                   555 00/// 91024=
201406150600 AAXX 15064 67743 32980 00000 10139 20071 48552
                   333 10270 20060 58///
                   555 00/// 91023=
201406141200 AAXX 14124 67743 42980 12303 10260 20056 48551 70300 81030
                   333 59011 81360 555 91020=
201406140900 AAXX 14094 67743 42980 22303 10236 20071 48573 70300 82030
                   333 59006 82359=
201406131500 AAXX 13154 67743 NIL=
201406130900 AAXX 13094 67743 NIL=
201406130600 AAXX 13064 67743 32980 20000 10099 20059 48562 82030
                   333 10245 20064 59032 82359
                   555 00/// 910260=
201406121500 AAXX 12154 67743 42980 11206 10224 20055 48564 81030
                   333 59015 81360=
201406121200 AAXX 12124 67743 42780 20909 10235 20030 48578 82100
                   333 59007 82860 91024=
201406120900 AAXX 12094 67743 NIL=
201406120600 AAXX 12064 67743 32980 71307 10128 20070 48592 8703/
                   333 10280 20105 59001 87360
                   555 00/// 91028=
201406110900 AAXX 11094 67743 NIL=
201406110600 AAXX 11064 67743 NIL=
201406101200 AAXX 10124 67743 NIL=
201406100900 AAXX 10094 67743 NIL=
201406091500 AAXX 09154 67743 NIL=
201406091200 AAXX 09124 67743 NIL=
201406090600 AAXX 09064 67743 32980 10803 10131 20054 48559 81030
                   333 10250 20068 59025 81360
                   555 91024=
201406081200 AAXX 08124 67743 42980 01007 10230 20047 48570
                   333 59014 91023=
201406080600 AAXX 08064 67743 32980 01208 10098 20033 48577
                   333 10220 20065 59009
                   555 00/// 91027=
201406071200 AAXX 07124 67743 42980 01110 10200 21043 48570
                   333 58005 91025=
201406070600 AAXX 07064 67743 32980 01207 10073 21068 48574 70200
                   333 10210 20020 58009
                   555 91028=
201406061200 AAXX 06124 67743 NIL=
201406060900 AAXX 06094 67743 NIL=
201406060600 AAXX 06064 67743 NIL=
201406051200 AAXX 05124 67743 NIL=
201406050900 AAXX 05094 67743 NIL=
201406050600 AAXX 05064 67743 NIL=
201406041200 AAXX 04124 67743 NIL=
201406040900 AAXX 04094 67743 NIL=
201406040600 AAXX 04064 67743 32980 00000 10167 20115 48528
                   333 10290 20103 59008
                   555 00/// 91020=
201406031200 AAXX 03124 67743 NIL=
201406030900 AAXX 03094 67743 NIL=
201406030600 AAXX 03064 67743 32980 00000 10169 20109 48536
                   333 10281 20100 58005
                   555 91021=
201406021200 AAXX 02124 67743 NIL=
201406020900 AAXX 02094 67743 NIL=
201406020600 AAXX 02064 67743 NIL=
201406011500 AAXX 01154 67743 42980 31205 10274 20066 48530 70300 83030
                   333 59015 83359=
201406011200 AAXX 01124 67743 42680 30207 10281 20062 48538 70300 83100
                   333 59017 83840 555 91019=
201406010600 AAXX 01064 67743 32980 01101 10146 20074 48550 70200
                   333 10290 20082 59013
                   555 00/// 91023=

################################################################################
#  SYNOPS from 67751, Magoye (Zambia) | 16-00S | 027-36E | 1018 m
################################################################################
201406291500 AAXX 29154 67751 NIL=
201406290600 AAXX 29064 67751 NIL=
201406281500 AAXX 28154 67751 NIL=
201406201200 AAXX 20124 67751 NIL=
201406200600 AAXX 20064 67751 NIL=
201406160900 AAXX 16094 67751 NIL=
201406160600 AAXX 16064 67751 NIL=
201406150600 AAXX 15064 67751 NIL=
201406141200 AAXX 14124 67751 NIL=
201406131500 AAXX 13154 67751 NIL=
201406130900 AAXX 13094 67751 NIL=
201406130600 AAXX 13064 67751 NIL=
201406120900 AAXX 12094 67751 NIL=
201406120600 AAXX 12064 67751 NIL=
201406110900 AAXX 11094 67751 NIL=
201406110600 AAXX 11064 67751 NIL=
201406101200 AAXX 10124 67751 NIL=
201406100900 AAXX 10094 67751 NIL=
201406091500 AAXX 09154 67751 NIL=
201406091200 AAXX 09124 67751 NIL=
201406090600 AAXX 09064 67751 NIL=
201406081200 AAXX 08124 67751 NIL=
201406080600 AAXX 08064 67751 NIL=
201406071200 AAXX 07124 67751 NIL=
201406070600 AAXX 07064 67751 NIL=
201406061200 AAXX 06124 67751 NIL=
201406060900 AAXX 06094 67751 NIL=
201406060600 AAXX 06064 67751 NIL=
201406051200 AAXX 05124 67751 NIL=
201406050900 AAXX 05094 67751 NIL=
201406050600 AAXX 05064 67751 NIL=
201406041200 AAXX 04124 67751 NIL=
201406040900 AAXX 04094 67751 NIL=
201406040600 AAXX 04064 67751 NIL=
201406031200 AAXX 03124 67751 NIL=
201406030900 AAXX 03094 67751 NIL=
201406030600 AAXX 03064 67751 NIL=
201406021200 AAXX 02124 67751 NIL=
201406020900 AAXX 02094 67751 NIL=
201406020600 AAXX 02064 67751 NIL=
201406011200 AAXX 01121 67751 NIL=
201406010600 AAXX 01064 67751 NIL=

################################################################################
#  SYNOPS from 67753, Choma (Zambia) | 16-50S | 027-04E | 1213 m
################################################################################
201406291500 AAXX 29154 67753 NIL=
201406290600 AAXX 29064 67753 NIL=
201406281500 AAXX 28154 67753 NIL=
201406270600 AAXX 27064 67753 32960 00000 10158 20074 48564
                   333 10250 20085 58002
                   555 00///=
201406240600 AAXX 24064 67753 32560 11014 10142 20115 48581 81100
                   333 10199 20070 59015 81825=
201406201200 AAXX 20124 67753 NIL=
201406200600 AAXX 20064 67753 31960 01506 10134 20079 48580 70500
                   333 10244 20046 58017=
201406190600 AAXX 19064 67753 31960 01808 10146 20104 48536 70500
                   333 10255 20061 58007=
201406170600 AAXX 17064 67753 31960 00000 10145 20088 48563 70500
                   333 10256 20082 58006=
201406160900 AAXX 16094 67753 NIL=
201406160600 AAXX 16064 67753 31960 00000 10155 20091 48554 70500
                   333 10258 20060 58008
                   555 00///=
201406150600 AAXX 15064 67753 NIL=
201406141200 AAXX 14124 67753 NIL=
201406131500 AAXX 13154 67753 NIL=
201406130900 AAXX 13094 67753 NIL=
201406130600 AAXX 13064 67753 31960 70810 10152 20115 48563 70500 87050
                   333 10212 20075 59025 87360=
201406120900 AAXX 12094 67753 NIL=
201406120600 AAXX 12064 67753 32960 10915 10143 20101 48581 81040
                   333 10226 20109 58007 81360
                   555 00///=
201406110900 AAXX 11094 67753 NIL=
201406110600 AAXX 11064 67753 31960 10908 10132 20099 48580 70500 81030
                   333 10226 20061 58014 83360=
201406101200 AAXX 10124 67753 NIL=
201406100900 AAXX 10094 67753 NIL=
201406100600 AAXX 10064 67753 32960 01309 10153 20113 48563
                   333 10230 20048 58011
                   555 00///=
201406091500 AAXX 09154 67753 NIL=
201406091200 AAXX 09124 67753 NIL=
201406090600 AAXX 09064 67753 NIL=
201406081200 AAXX 08124 67753 NIL=
201406080600 AAXX 08064 67753 NIL=
201406071200 AAXX 07124 67753 NIL=
201406070600 AAXX 07064 67753 NIL=
201406061200 AAXX 06124 67753 NIL=
201406060900 AAXX 06094 67753 NIL=
201406060600 AAXX 06064 67753 31960 11816 10142 20042 48552 70500 80001
                   333 10296 20120 58036 81080
                   555 00///=
201406051200 AAXX 05124 67753 NIL=
201406050900 AAXX 05094 67753 NIL=
201406050600 AAXX 05064 67753 31960 10808 10185 20112 48519 70500 80001
                   333 10289 20137 59002 81080
                   555 00///=
201406041200 AAXX 04124 67753 NIL=
201406040900 AAXX 04094 67753 NIL=
201406040600 AAXX 04064 67753 31960 00000 10191 20109 48519 70500
                   333 10279 20099 59008
                   555 00///=
201406031200 AAXX 03124 67753 NIL=
201406030900 AAXX 03094 67753 NIL=
201406030600 AAXX 03064 67753 31560 10000 10192 20139 48528 70500 81100
                   333 10266 20092 59013 81825=
201406021200 AAXX 02124 67753 NIL=
201406020900 AAXX 02094 67753 NIL=
201406020600 AAXX 02064 67753 NIL=
201406011200 AAXX 01121 67753 NIL=
201406010600 AAXX 01064 67753 NIL=

################################################################################
#  SYNOPS from 67855, Lupaki (Zambia) | 17-03-00S | 024-46-00E | 1000 m
################################################################################
201406250600 AAXX 25064 67855 31970 00000 10066 20040 3//// 48/// 70500
                   333 20022 5////=
201406241200 AAXX 24124 67855 41670 20803 10256 20128 3//// 48/// 70500 82500
                   333 5//// 82635=
201406240600 AAXX 24064 67855 31970 30000 10082 20069 3//// 48/// 70511 83030
                   333 20052=
201406231200 AAXX 23124 67855 41670 30604 10245 20067 3//// 48/// 70500 83100
                   333 5//// 83857=
201406230600 AAXX 23064 67855 NIL=
201406221200 AAXX 22124 67855 41670 30802 10234 20075 3//// 48/// 70511 81160
                   333 5//// 81635 83359=
201406220600 AAXX 22064 67855 NIL=
201406211200 AAXX 21124 67855 41670 50807 10238 20097 3//// 48/// 70511 85500
                   333 5//// 85640=
201406210600 AAXX 21064 67855 31970 00907 10120 20094 3//// 48/// 70500
                   333 20070 5////=
201406201200 AAXX 20124 67855 41670 10708 10246 20073 3//// 48/// 70500 81100
                   333 5//// 81856=
201406200600 AAXX 20064 67855 31970 00000 10072 20015 3//// 48/// 70500
                   333 20032 5////=
201406191200 AAXX 19124 67855 41970 01803 10272 20015 3//// 48///
                   333 5////=
201406190600 AAXX 19064 67855 NIL=
201406181200 AAXX 18124 67855 41970 03602 10262 20089 3//// 48/// 70500
                   333 5////=
201406180600 AAXX 18064 67855 31970 00000 10070 20048 3//// 48/// 70500
                   333 20034 5////=
201406171200 AAXX 17124 67855 41970 00803 10276 20061 3//// 48/// 70500
                   333 5////=
201406170600 AAXX 17064 67855 31970 00000 10072 20042 3//// 48/// 70500
                   333 20038 5////=
201406161200 AAXX 16124 67855 41970 02002 10280 20133 3//// 48/// 70500
                   333 5////=
201406160600 AAXX 16064 67855 31970 00000 10094 20065 3//// 48/// 70500
                   333 20048 5////=
201406151200 AAXX 15124 67855 41970 03101 10258 20088 3//// 48/// 70500
                   333 5////=
201406150600 AAXX 15064 67855 31970 00000 10080 20071 3//// 48/// 70500
                   333 20049 5////=
201406141200 AAXX 14124 67855 41970 10000 10256 20093 3//// 48/// 70500 81030
                   333 5//// 81360=
201406140600 AAXX 14064 67855 31970 00000 10088 20075 3//// 48/// 70500
                   333 20059 5////=
201406140000 AAXX 14004 67855 NIL=
201406131200 AAXX 13124 67855 41670 70000 10238 20105 3//// 48/// 70511 8213/
                   333 5//// 82835 87360=
201406130600 AAXX 13064 67855 31970 30000 10132 20093 3//// 48/// 70511 83030
                   333 20075 5//// 83360=
201406121200 AAXX 12124 67855 NIL=
201406120600 AAXX 12064 67855 31970 01801 10074 20065 3//// 48/// 72841
                   333 20039 5////=
201406111200 AAXX 11124 67855 41670 40804 10244 20085 3//// 48/// 70500 84500
                   333 5//// 84635=
201406110600 AAXX 11064 67855 31970 00603 10096 20035 3//// 48/// 70500
                   333 20062 5////=
201406101200 AAXX 10124 67855 41970 00903 10262 20080 3//// 48/// 70500
                   333 5////=
201406100600 AAXX 10064 67855 31970 00000 10084 20059 38/// 48/// 70500
                   333 20039 5////=
201406091200 AAXX 09124 67855 41970 03604 10250 20074 3//// 48/// 70500
                   333 5////=
201406090600 AAXX 09064 67855 31970 00000 10066 20040 3//// 48/// 70500
                   333 20024 5////=
201406081200 AAXX 08124 67855 41970 03401 10224 20065 3//// 48/// 70500
                   333 5////=
201406080600 AAXX 08064 67855 31970 00000 10060 20054 3//// 48/// 70500
                   333 20023 5////=
201406071200 AAXX 07124 67855 41970 01005 10218 20000 3//// 48/// 70500
                   333 5////=
201406070600 AAXX 07064 67855 31970 00000 11010 21043 3//// 48/// 70500
                   333 21038 5////=
201406061200 AAXX 06124 67855 41970 02004 10194 21060 3//// 48/// 70500
                   333 5////=
201406060900 AAXX 06094 67855 41970 02104 10156 21055 3//// 48/// 70500
                   333 5////=
201406060600 AAXX 06064 67855 31970 01904 10102 20006 3//// 48/// 70500
                   333 20069 5////=
201406051200 AAXX 05124 67855 41670 52807 10296 20111 3//// 48/// 70511 85500
                   333 5//// 81640=
201406050600 AAXX 05064 67855 31970 00000 10122 20100 3//// 48/// 70500
                   333 20095 5////=
201406041200 AAXX 04124 67855 41970 03601 10296 20118 3//// 48/// 70500
                   333 5////=
201406040600 AAXX 04064 67855 31970 00000 10102 20090 3//// 48/// 70500
                   333 20086 5////=
201406031200 AAXX 03124 67855 41670 23302 10286 20103 3//// 48/// 70511 82130
                   333 5//// 82840=
201406030600 AAXX 03064 67855 31970 20000 10102 20082 3//// 48/// 70500 82030
                   333 20068 5//// 82360=
201406021200 AAXX 02124 67855 41970 03601 10276 20100 3//// 48/// 70500
                   333 5////=
201406020600 AAXX 02064 67855 31970 00000 10092 20080 3//// 48/// 70500
                   333 20061 5////=
201406011200 AAXX 01124 67855 NIL=
201406010600 AAXX 01064 67855 31970 00000 10086 20051 3//// 48/// 70500
                   333 20048 5////=
