################################################################################
# Query made at 04/10/2022 06:24:47 UTC
# Country like Zamb*
# Time interval: from 12/31/2019 23:30  to 01/31/2020 23:30  UTC
################################################################################

################################################################################
#  SYNOPS from 67403, Kawambwa (Zambia) | 09-48S | 029-05E | 1323 m
################################################################################
202001300600 AAXX 30064 67403 11970 80601 10199 20197 48528 60054 70522 8803/
                   333 10254 20180 58006 88360=
202001281200 AAXX 28124 67403 NIL=
202001280600 AAXX 28064 67403 11475 70901 10205 20189 48519 60184 82531
                   333 10282 20182 59004 82610 86360 82080
                   555 00///=
202001220900 AAXX 22094 67403 NIL=
202001220600 AAXX 22064 67403 11370 62701 10207 20203 48501 60194 70522 82531
                   333 10284 20190 59002 82608 84360 83080=
202001170900 AAXX 17094 67403 NIL=
202001170600 AAXX 17064 67403 31975 60801 10240 20207 48510 70500 81031
                   333 10325 20188 59003 81360 83080=
202001160900 AAXX 16094 67403 NIL=
202001150900 AAXX 15094 67403 NIL=
202001141200 AAXX 14124 67403 NIL=
202001100900 AAXX 10094 67403 NIL=
202001090900 AAXX 09094 67403 NIL=
202001081200 AAXX 08124 67403 NIL=
202001021200 AAXX 02124 67403 NIL=

################################################################################
#  SYNOPS from 67413, Mbala (Zambia) | 08-51S | 031-20E | 1673 m
################################################################################
202001300600 AAXX 30064 67413 11480 82002 10180 20172 48556 60034 76166 8472/
                   333 10254 20168 58017 84710 88456 91026=
202001281200 AAXX 28124 67413 NIL=
202001230600 AAXX 23064 67413 11475 82704 10165 20164 48540 60484 78066 887//
                   333 10218 20162 58006 88710 91023=
202001220900 AAXX 22094 67413 NIL=
202001210600 AAXX 21064 67413 12480 82706 10195 20187 48527 60014 876//
                   333 10264 20182 58003 87710 91022=
202001170900 AAXX 17094 67413 NIL=
202001160900 AAXX 16094 67413 NIL=
202001150900 AAXX 15094 67413 NIL=
202001150600 AAXX 15064 67413 32980 70000 10186 20169 48534 8703/
                   333 10257 20088 58004 87359 87359
                   555 00194 91023=
202001141200 AAXX 14124 67413 NIL=
202001140600 AAXX 14064 67413 11080 83406 10170 20170 48541 60634 72844 8////
                   333 10235 20158 59009 91023=
202001130600 AAXX 13064 67413 12480 80000 10172 20162 48539 60594 886//
                   333 1//// 20154 5//// 88710 91024=
202001100900 AAXX 10094 67413 NIL=
202001090900 AAXX 09094 67413 NIL=
202001081200 AAXX 08124 67413 NIL=
202001070600 AAXX 07064 67413 12480 50000 10191 20165 48539 60274 83132
                   333 10262 20090 59001 83818 83360 84080 91024=
202001030600 AAXX 03064 67413 12480 82402 10196 20185 48548 60014 8567/
                   333 10254 20104 58016 85712 88456 91025=
202001021200 AAXX 02124 67413 NIL=
202001020600 AAXX 02064 67413 32480 80000 10204 20152 48532 8213/
                   333 1//// 20100 5//// 82818 87360 91023=

################################################################################
#  SYNOPS from 67441, Mwinilunga (Zambia) | 11-45S | 024-26E | 1361 m
################################################################################
202001310900 AAXX 31094 67441 42680 70000 10235 20175 48561 8413/
                   333 59007 84840 87360=
202001300600 AAXX 30064 67441 11309 80000 10195 20186 48/// 60314 74244 887//
                   333 10270 20//0 5//// 88707=
202001281200 AAXX 28124 67441 NIL=
202001280600 AAXX 28064 67441 12380 80000 10190 20190 48548 60064 886//
                   333 10260 20//0 59002 88707
                   555 00///=
202001230900 AAXX 23094 67441 42680 60000 10230 20170 48543 83130
                   333 5//// 83840 86360=
202001230600 AAXX 23064 67441 12380 80000 10190 20182 48542 69954 887//
                   333 10286 2//// 5//// 88708=
202001220900 AAXX 22094 67441 NIL=
202001220600 AAXX 22064 67441 12980 80000 10185 20172 48/// 60064 8802/
                   333 10260 2//// 5//// 88460=
202001171200 AAXX 17124 67441 42680 73103 10235 20175 48/// 8423/
                   333 5//// 84840 86360=
202001170900 AAXX 17094 67441 NIL=
202001170600 AAXX 17064 67441 11360 80000 10190 20182 48535 60104 76166 887//
                   333 10284 2//// 5//// 88708=
202001161200 AAXX 16124 67441 42680 63103 10260 20183 48522 84210
                   333 5//// 84840 85461=
202001160900 AAXX 16094 67441 NIL=
202001160600 AAXX 16064 67441 11360 80000 10175 20175 48/// 60264 76166 8472/
                   333 10274 2//// 5//// 84707 88460=
202001150900 AAXX 15094 67441 42680 62703 10245 20177 48540 85201
                   333 5//// 85840 83075=
202001150600 AAXX 15064 67441 11309 80000 10185 20185 48535 60144 74244 887//
                   333 10210 2//// 58888 88707=
202001141200 AAXX 14124 67441 NIL=
202001140600 AAXX 14064 67441 11365 80000 10185 20185 48/// 60244 76166 887//
                   333 10210 2//// 5//// 88707=
202001130900 AAXX 13094 67441 41360 80000 10175 20175 48553 76366 887//
                   333 5//// 88708=
202001101200 AAXX 10124 67441 42680 60000 10255 20162 48529 84210
                   333 5//// 84840 85462=
202001100900 AAXX 10094 67441 41580 73503 10220 20203 48/// 72166 875//
                   333 5//// 87630=
202001100600 AAXX 10064 67441 32980 70000 10195 20186 48/// 8703/
                   333 10296 2//// 5//// 87360=
202001090900 AAXX 09094 67441 NIL=
202001090600 AAXX 09064 67441 32380 70000 10190 20173 48557 876//
                   333 10250 20//0 5//// 87709=
202001081200 AAXX 08124 67441 42680 72703 10230 20171 48552 875//
                   333 5//// 87630=
202001080900 AAXX 08094 67441 42580 80000 10210 20176 48/// 885//
                   333 5//// 88625=
202001080600 AAXX 08064 67441 32380 83303 10195 20183 48/// 886//
                   333 10300 2//// 5//// 88708=
202001070600 AAXX 07064 67441 12980 70000 10185 20168 48542 60474 8703/
                   333 10290 2//// 5//// 87360=
202001060600 AAXX 06064 67441 12380 70000 10195 20183 48/// 69944 8363/
                   333 10280 2//// 5//// 83707 87360=
202001021200 AAXX 02124 67441 NIL=
202001020900 AAXX 02094 67441 42680 60000 10255 20178 48/// 83230
                   333 5//// 83840 86360=
202001020600 AAXX 02064 67441 12980 70000 10200 20191 48/// 60014 8703/
                   333 10280 2//// 5//// 87360=

################################################################################
#  SYNOPS from 67461, Mansa (Zambia) | 11-06S | 028-51E | 1382 m
################################################################################
202001310900 AAXX 31094 67461 42480 73508 10220 20190 48514 8157/
                   333 58001 81613 87360 91027=
202001300900 AAXX 30094 67461 42580 72709 10256 20203 48516 8587/
                   333 58000 84625 81828 87360 91017=
202001300600 AAXX 30064 67461 11375 72403 10200 20193 48512 60084 76162 84671
                   333 10275 20172 58000 84708 87460 91017=
202001281200 AAXX 28124 67461 NIL=
202001280900 AAXX 28094 67461 42480 72703 10222 20189 48514 8657/
                   333 58003 86618 87360 91018=
202001280600 AAXX 28064 67461 12380 80000 10200 20193 48512 69954 886//
                   333 10278 20170 58000 88708
                   555 00/// 91018=
202001230900 AAXX 23094 67461 42580 72709 10240 20195 48487 8387/
                   333 58000 82620 81824 87360 91015=
202001230600 AAXX 23064 67461 12480 72406 10205 20190 48486 60034 8557/
                   333 10279 20162 58002 85610 87360 91015=
202001220900 AAXX 22094 67461 42480 72701 10235 20197 48486 8583/
                   333 59002 84618 82820 86360 91015=
202001220600 AAXX 22064 67461 11368 82709 10202 20195 48485 60014 76122 8667/
                   333 10255 20180 59002 86708 88460 91015=
202001210600 AAXX 21064 67461 11358 73606 10190 20190 48486 60584 79599 8152/
                   333 10292 20164 59001 82609 87460 91015=
202001200900 AAXX 20094 67461 42580 72711 10260 20201 48488 83138
                   333 58000 83828 82360 83280 91014=
202001170900 AAXX 17094 67461 42680 73212 10275 20202 48487 84831
                   333 59002 83630 81832 83360 82080 91014=
202001170600 AAXX 17064 67461 12380 73603 10215 20192 48486 60284 8467/
                   333 10304 20162 58001 84709 87360 91015=
202001160900 AAXX 16094 67461 NIL=
202001150900 AAXX 15094 67461 42680 73208 10275 20194 48494 83135
                   333 58016 83836 85360 82080 91016=
202001150600 AAXX 15064 67461 12980 70000 10210 20187 48502 69984 8707/
                   333 10285 20172 58017 87360 91016=
202001141200 AAXX 14124 67461 NIL=
202001100900 AAXX 10094 67461 41480 72709 10238 20204 48500 79592 8197/
                   333 59019 81912 84824 87460 91016=
202001090900 AAXX 09094 67461 NIL=
202001090600 AAXX 09064 67461 12380 73009 10196 20187 48518 60204 8657/
                   333 10310 20162 58008 86609 87360 91019=
202001081200 AAXX 08124 67461 NIL=
202001080900 AAXX 08094 67461 42680 61209 10275 20197 48503 84231
                   333 5//// 84835 83360 81080 91016=
202001070600 AAXX 07064 67461 12380 73609 10199 20185 48500 60014 8667/
                   333 10310 20169 58000 86707 87360 91016=
202001030600 AAXX 03064 67461 12480 70205 10215 20200 48502 69904 8357/
                   333 10278 20189 58000 83612 87360 91016=
202001021200 AAXX 02124 67461 NIL=
202001020900 AAXX 02094 67461 42580 71411 10235 20189 48502 8117/
                   333 5//// 81822 87360 91016=
202001020600 AAXX 02064 67461 12480 71311 10205 20182 48501 60034 8357/
                   333 10268 20178 5//// 83610 87360 91016=

################################################################################
#  SYNOPS from 67469, Samfya (Zambia) | 11-22S | 029-54E | 1171 m
################################################################################
202001281200 AAXX 28124 67469 NIL=
202001231200 AAXX 23124 67469 42580 60502 10261 20210 48/// 85230
                   333 5//// 81920 84822 86360 84080=
202001221200 AAXX 22124 67469 41580 70502 10223 20210 48/// 78088 85232
                   333 5//// 81920 85825 85360 84080=
202001220900 AAXX 22094 67469 42480 72901 10248 20190 48/// 85832
                   333 5//// 82615 83820 86360 83080=
202001220600 AAXX 22064 67469 12380 72703 10216 20220 48/// 60034 83632
                   333 10289 2//// 5//// 83606 86360 84080=
202001200900 AAXX 20094 67469 42580 72907 10267 20190 48/// 83838
                   333 5//// 83520 83825 83360 86280=
202001170900 AAXX 17094 67469 42980 60906 10259 20220 48/// 82138
                   333 5//// 82830 83360 86280=
202001170600 AAXX 17064 67469 12980 70605 10221 20200 48/// 60064 86038
                   333 10273 20220 5//// 86360 86280=
202001160900 AAXX 16094 67469 NIL=
202001150900 AAXX 15094 67469 NIL=
202001141200 AAXX 14124 67469 NIL=
202001101200 AAXX 10124 67469 42680 52602 10274 20200 48/// 81932
                   333 5//// 81930 85832 82360 81080=
202001100900 AAXX 10094 67469 42480 60805 10256 20220 48/// 82532
                   333 5//// 82613 82818 83360 81080=
202001090900 AAXX 09094 67469 42680 53202 10252 20190 48/// 82532
                   333 5//// 82630 84835 85360 81080=
202001090600 AAXX 09064 67469 32380 72603 10200 20190 48/// 8363/
                   333 10281 20183 5//// 83706 83610 87360=
202001081200 AAXX 08124 67469 42580 41004 10275 20210 48/// 81932
                   333 5//// 81924 82824 82360 81080=
202001030900 AAXX 03094 67469 42480 60905 10252 20210 48/// 81932
                   333 5//// 81918 84618 83820 86360=
202001030600 AAXX 03064 67469 12380 70604 10216 20200 48/// 60044 8263/
                   333 10272 20209 5//// 82706 82610 87360=
202001021200 AAXX 02124 67469 NIL=

################################################################################
#  SYNOPS from 67475, Kasama (Zambia) | 10-13S | 031-08E | 1382 m
################################################################################
202001300900 AAXX 30094 67475 42560 73004 10241 20186 48541 8427/
                   333 5//// 84825 86460 91022=
202001300600 AAXX 30064 67475 12960 72705 10190 20190 48543 60234 8707/
                   333 20281 5//// 87460 91022=
202001281200 AAXX 28124 67475 42580 72503 10250 20162 48501 85231
                   333 58005 85627 82360 83080 91017=
202001280600 AAXX 28064 67475 12570 83305 10185 20182 48524 60134 887//
                   333 10310 20176 59006 88722
                   555 00/// 91020=
202001221200 AAXX 22124 67475 42580 82507 10204 20197 48487 78062 8687/
                   333 59003 81924 83624 83830 91016=
202001220900 AAXX 22094 67475 42680 80000 10225 20196 48506 882//
                   333 59005 88827 91018=
202001220600 AAXX 22064 67475 12570 80000 10190 20190 48508 60074 78066 876//
                   333 10284 20180 58001 87723 91018=
202001170900 AAXX 17094 67475 42680 73605 10253 20194 48510 86231
                   333 59009 86833 83360 83080 91018=
202001170600 AAXX 17064 67475 12570 61105 10190 20186 48522 60024 85701
                   333 10292 20170 59002 85722 83080 91020=
202001161200 AAXX 16124 67475 41660 82308 10139 20180 48494 79562 8327/
                   333 58003 81940 82840 87460 91017=
202001160900 AAXX 16094 67475 NIL=
202001150900 AAXX 15094 67475 42680 80000 10250 20192 48518 8427/
                   333 58017 84830 86460 91019=
202001150600 AAXX 15064 67475 32960 81606 10195 20188 48524 74044 8807/
                   333 10302 20180 58017 87459 91020=
202001141200 AAXX 14124 67475 NIL=
202001140600 AAXX 14064 67475 12960 83503 10196 20184 48508 60034 8634/
                   333 10279 20172 59011 83709 87460 91018=
202001101200 AAXX 10124 67475 42680 61103 10264 20174 48499 84231
                   333 59018 81935 84835 82360 84080 91017=
202001100900 AAXX 10094 67475 42680 83607 10228 20174 48525 86401
                   333 59014 86630 84080 91020=
202001090900 AAXX 09094 67475 42680 82805 10211 20186 48538 882//
                   333 58015 88827 91022=
202001090600 AAXX 09064 67475 12580 83105 10189 20182 48535 60204 8762/
                   333 10310 20167 58008 87720 83360 91022=
202001081200 AAXX 08124 67475 NIL=
202001080600 AAXX 08064 67475 12560 53005 10209 20193 48529 60204 82131
                   333 10321 20170 58000 82820 83360 82080 91021=
202001070900 AAXX 07094 67475 42660 61102 10262 20178 48525 84201
                   333 58004 84830 82080 91020=
202001070600 AAXX 07064 67475 12580 61405 10195 20187 48528 60054 83531
                   333 10301 20162 58005 83820 83360 81080 91021=
202001030900 AAXX 03094 67475 42660 83006 10226 20195 48524 8227/
                   333 58015 82830 87460 91020=
202001030600 AAXX 03064 67475 12560 82706 10201 20192 48538 60194 8217/
                   333 10192 20182 58019 82019 82820 87460 91022=
202001021200 AAXX 02124 67475 NIL=
202001020600 AAXX 02064 67475 32960 72005 10187 20187 48519 8707/
                   333 10311 20175 58005 87460 91020=

################################################################################
#  SYNOPS from 67476, Misamfu (Zambia) | 10-06S | 031-15E | 1536 m
################################################################################
202001310900 AAXX 31094 67476 42680 73602 10234 20198 48/// 70322 8423/
                   333 5//// 84835 87360=
202001300900 AAXX 30094 67476 41670 70000 10240 20193 48/// 71522 84232
                   333 5//// 84835 85360 83080=
202001300600 AAXX 30064 67476 12980 80601 10195 20187 48/// 60074 8801/
                   333 10249 20122 5//// 88460=
202001281200 AAXX 28124 67476 NIL=
202001280900 AAXX 28094 67476 42580 73303 10220 20187 48/// 8223/
                   333 5//// 82828 82628 87360=
202001280600 AAXX 28064 67476 11359 82903 10192 20186 48/// 60114 75866 8577/
                   333 10274 20139 5//// 85707 81613 88459
                   555 00///=
202001230900 AAXX 23094 67476 42680 72904 10242 20193 48/// 8227/
                   333 5//// 82830 83630 86360=
202001221200 AAXX 22124 67476 41435 82701 10202 20190 48/// 78192 8477/
                   333 5//// 84712 81940 82842 88460=
202001220900 AAXX 22094 67476 41678 72701 10227 20199 48/// 71522 8127/
                   333 5//// 81830 82630 87360=
202001220600 AAXX 22064 67476 12680 70000 10197 20190 48/// 60374 79162 8177/
                   333 10260 20148 5//// 81705 81613 87460=
202001201200 AAXX 20124 67476 41670 62704 10278 20179 48/// 71522 81302
                   333 5//// 81940 84842 82080=
202001200900 AAXX 20094 67476 42680 62905 10260 20189 48/// 82208
                   333 5//// 82835 85280=
202001171200 AAXX 17124 67476 42780 42703 10290 20164 48/// 82232
                   333 5//// 82850 81360 83080=
202001170900 AAXX 17094 67476 42680 63603 10266 20197 48/// 81278
                   333 5//// 81833 82360 85280=
202001170600 AAXX 17064 67476 11472 61202 10196 20189 48/// 69924 71522 81478
                   333 10275 20134 59003 81615 83459 84280=
202001161200 AAXX 16124 67476 41660 52404 10255 20191 48/// 71722 81973
                   333 58003 81942 82845 83460 82080=
202001160900 AAXX 16094 67476 41680 73202 10232 20192 48/// 72052 81278
                   333 58003 81833 85360 87280=
202001150900 AAXX 15094 67476 42680 83601 10237 20198 48/// 85207
                   333 5//// 85833 88280=
202001150600 AAXX 15064 67476 12380 80000 10200 20188 48/// 60014 8167/
                   333 10296 20146 5//// 81709 81615 88360=
202001141200 AAXX 14124 67476 NIL=
202001140600 AAXX 14064 67476 12380 73603 10195 20182 48/// 60104 8267/
                   333 10260 20139 59010 82708 87360=
202001131200 AAXX 13124 67476 41680 62203 10240 20183 48/// 72586 81973
                   333 5//// 81947 82850 85360 82080=
202001100900 AAXX 10094 67476 41680 73601 10231 20186 48/// 75062 8127/
                   333 5//// 81830 82460 85360=
202001100600 AAXX 10064 67476 11978 73601 10181 20170 48/// 60324 76166 8707/
                   333 10231 20131 59015 87459=
202001090900 AAXX 09094 67476 41480 72903 10215 20188 48/// 72162 8373/
                   333 5//// 8373/ 83710 84619 87360=
202001090600 AAXX 09064 67476 12380 82801 10190 20180 48/// 60334 8667/
                   333 10291 20132 58008 86708 88460=
202001081200 AAXX 08124 67476 41660 63603 10285 20170 48/// 71522 81378
                   333 5//// 81947 82850 82360 85280=
202001080900 AAXX 08094 67476 42680 60703 10260 20185 48/// 82272
                   333 58004 82835 84360 82080=
202001070900 AAXX 07094 67476 42680 50402 10256 20185 48/// 84232
                   333 5//// 84835 81360 83080=
202001070600 AAXX 07064 67476 31480 53203 10191 20180 48/// 72845 81638
                   333 10277 20126 5//// 81712 82615 81360 85280=
202001060600 AAXX 06064 67476 12480 50000 10204 20195 48/// 60414 81671
                   333 10279 20122 5//// 81712 81847 83360 82080=
202001030900 AAXX 03094 67476 41680 70501 10220 20190 48/// 72999 81978
                   333 5//// 81935 81835 85360 87280=
202001030600 AAXX 03064 67476 11675 83501 10205 20195 48/// 60174 71562 8227/
                   333 10262 20149 5//// 82845 88460=
202001021200 AAXX 02124 67476 41670 82703 10205 20194 48/// 79599 81977
                   333 5//// 81845 81847 84460 88280=
202001020900 AAXX 02094 67476 41660 72502 10256 20191 48/// 71722 819//
                   333 5//// 81932 86835=
202001020600 AAXX 02064 67476 12980 80000 10210 20191 48/// 85077
                   333 10270 20145 58005 85360 88280=

################################################################################
#  SYNOPS from 67477, Mpika (Zambia) | 11-54S | 031-26E | 1400 m
################################################################################
202001300900 AAXX 30094 67477 41170 83302 10205 20188 48/// 76166 8557/
                   333 5//// 85616 88459=
202001281200 AAXX 28124 67477 NIL=
202001280600 AAXX 28064 67477 12980 82702 10195 20185 48/// 60024 8807/
                   333 10262 20178 5//// 88459
                   555 00166=
202001231200 AAXX 23124 67477 41680 53002 10264 20160 48/// 71722 84231
                   333 5//// 81936 84836 81364 82080=
202001230900 AAXX 23094 67477 42580 53301 10242 20170 48/// 85201
                   333 5//// 85822 82080=
202001221200 AAXX 22124 67477 42680 63301 10237 20170 48/// 85231
                   333 5//// 85836 82365 81080=
202001220900 AAXX 22094 67477 41578 72701 10216 20190 48/// 71522 85570
                   333 5//// 85620 86462=
202001220600 AAXX 22064 67477 11480 80000 10188 20180 48/// 60184 72162 8357/
                   333 10243 20176 5//// 83612 87459
                   555 00172=
202001200900 AAXX 20094 67477 42580 72702 10236 20180 48/// 85130
                   333 5//// 85820 84361=
202001170900 AAXX 17094 67477 42580 62403 10248 20191 48/// 81531
                   333 5//// 81627 85361 82080=
202001170600 AAXX 17064 67477 12980 73307 10185 20175 48/// 60174 87070
                   333 10272 20170 5//// 87359
                   555 00166=
202001161200 AAXX 16124 67477 42580 62404 10251 20194 48/// 86530
                   333 5//// 86625 83361=
202001160900 AAXX 16094 67477 42480 73003 10222 20190 48/// 85570
                   333 5//// 85616 87460=
202001150900 AAXX 15094 67477 42580 62702 10236 20180 48/// 82532
                   333 5//// 82626 83361 86280=
202001150600 AAXX 15064 67477 11975 80000 10182 20179 48/// 60184 78066 8807/
                   333 10280 20170 5//// 88459
                   555 00168=
202001141200 AAXX 14124 67477 NIL=
202001131200 AAXX 13124 67477 41570 80000 10201 20199 48/// 76266 8257/
                   333 5//// 82627 88459=
202001100900 AAXX 10094 67477 NIL=
202001090900 AAXX 09094 67477 42580 63202 10243 20150 48/// 85130
                   333 5//// 85820 83362=
202001090600 AAXX 09064 67477 12480 82702 10198 20180 48/// 69904 8557/
                   333 10278 20154 5//// 85612 86459
                   555 00154=
202001081200 AAXX 08124 67477 41680 72702 10238 20150 48/// 71799 85231
                   333 5//// 81936 85836 83363 83080=
202001070600 AAXX 07064 67477 12980 50000 10208 20140 48/// 69904 83031
                   333 10285 20167 5//// 83359 83080
                   555 00162=
202001030900 AAXX 03094 67477 41580 33605 10243 20180 48/// 71799 86503
                   333 5//// 81926 86626 82080=
202001030600 AAXX 03064 67477 12380 73305 10210 20195 48/// 60024 85670
                   333 10258 20192 5//// 85706 87460
                   555 00184=
202001021200 AAXX 02124 67477 42580 72403 10251 20190 48/// 84507
                   333 5//// 84629 87261=
202001020900 AAXX 02094 67477 41975 71803 10212 20183 48/// 76066 87070
                   333 5//// 87460=

################################################################################
#  SYNOPS from 67481, Isoka (Zambia) | 10-07S | 032-38E | 1360 m
################################################################################
202001281200 AAXX 28124 67481 NIL=
202001230600 AAXX 23064 67481 11378 83002 10200 20192 48/// 60624 76066 887//
                   333 10241 20188 58001 88706=
202001221200 AAXX 22124 67481 41378 80302 10228 20202 48/// 71662 887//
                   333 5//// 88708=
202001220900 AAXX 22094 67481 NIL=
202001220600 AAXX 22064 67481 11350 83002 10200 20192 48/// 60054 76062 887//
                   333 10282 20189 59005 88706=
202001200900 AAXX 20094 67481 42680 63002 10264 20183 48/// 85101
                   333 5//// 85830 82080=
202001171200 AAXX 17124 67481 41675 63002 10243 20210 48/// 78022 83270
                   333 59011 81935 83835 86361=
202001170900 AAXX 17094 67481 42580 63002 10240 20182 48/// 81330
                   333 5//// 81925 86361=
202001170600 AAXX 17064 67481 12480 72002 10230 20178 48/// 69904 8157/
                   333 10281 20175 5//// 81610 87460=
202001160900 AAXX 16094 67481 NIL=
202001160600 AAXX 16064 67481 11480 83002 10198 20186 48/// 60094 72162 8157/
                   333 10238 20174 5//// 81610 88460=
202001150900 AAXX 15094 67481 NIL=
202001150600 AAXX 15064 67481 11478 83002 10208 20192 48/// 60084 76062 8357/
                   333 10268 20190 58020 82610 88460=
202001141200 AAXX 14124 67481 NIL=
202001140600 AAXX 14064 67481 11478 83002 10189 20175 48/// 69924 75022 8157/
                   333 10252 20182 5//// 81610 88460=
202001130600 AAXX 13064 67481 12480 53002 10202 20186 48/// 60104 82130
                   333 10246 20175 5//// 82810 85360=
202001100900 AAXX 10094 67481 NIL=
202001100600 AAXX 10064 67481 12380 80000 10200 20178 48/// 60224 8167/
                   333 10231 20178 59009 81706 88460=
202001090900 AAXX 09094 67481 41680 73002 10228 20187 48/// 71722 8627/
                   333 5//// 81930 86830 87461=
202001081200 AAXX 08124 67481 NIL=
202001080600 AAXX 08064 67481 12980 63002 10222 20186 48/// 69904 81032
                   333 10285 20180 58004 81360 86080=
202001070600 AAXX 07064 67481 32480 53002 10212 20195 48/// 81131
                   333 10288 20170 5//// 81810 84360 84080=
202001060900 AAXX 06094 67481 42580 63002 10252 20186 48/// 83231
                   333 5//// 83825 85360 84080=
202001060600 AAXX 06064 67481 32980 63002 10223 20193 48/// 83031
                   333 10285 20170 5//// 83360 86080=
202001030900 AAXX 03094 67481 42580 63002 10240 20196 48/// 81170
                   333 5//// 81820 86360=
202001030600 AAXX 03064 67481 11480 83003 10215 20186 48/// 60354 72162 8157/
                   333 10256 20187 5//// 81610 88460=
202001021200 AAXX 02124 67481 NIL=
202001020900 AAXX 02094 67481 42580 73002 10252 20206 48/// 8657/
                   333 5//// 86620 87360=
202001020600 AAXX 02064 67481 32480 73002 10212 20197 48/// 875//
                   333 10298 20190 5//// 87610=

################################################################################
#  SYNOPS from 67531, Zambezi (Zambia) | 13-32S | 023-07E | 1077 m
################################################################################
202001310900 AAXX 31094 67531 42480 70000 10236 20199 48/// 8553/
                   333 59005 85618 87361=
202001300900 AAXX 30094 67531 42480 70000 10240 20202 48/// 8413/
                   333 58013 84818 86361=
202001300600 AAXX 30064 67531 11380 70000 10208 20193 48/// 60154 70262 8353/
                   333 10324 20184 58011 83608 87361=
202001281200 AAXX 28124 67531 NIL=
202001231200 AAXX 23124 67531 42980 62705 10248 20186 48/// 84038
                   333 58010 84362 84280=
202001230900 AAXX 23094 67531 42480 73603 10201 20180 48/// 8317/
                   333 59001 83819 87360=
202001220900 AAXX 22094 67531 42580 52004 10266 20209 48/// 83131
                   333 59003 83825 82362 81081=
202001220600 AAXX 22064 67531 12480 63605 10210 20197 48/// 60204 8353/
                   333 10312 20186 58002 83610 85362=
202001200900 AAXX 20094 67531 42980 63609 10282 20202 48/// 8603/
                   333 58004 86362=
202001170900 AAXX 17094 67531 42680 62705 10255 20206 48/// 85171
                   333 59003 85831 81360 81080=
202001170600 AAXX 17064 67531 12380 82902 10220 20206 48/// 60044 8657/
                   333 10299 20198 59004 86608 88460=
202001160900 AAXX 16094 67531 NIL=
202001150900 AAXX 15094 67531 NIL=
202001141200 AAXX 14124 67531 NIL=
202001130600 AAXX 13064 67531 11360 73603 10193 20189 48/// 60504 76166 8577/
                   333 10305 20184 59017 85706 87460=
202001101200 AAXX 10124 67531 42680 63007 10292 20205 48/// 85201
                   333 59008 85848 82081=
202001100900 AAXX 10094 67531 42580 63609 10259 20207 48/// 8423/
                   333 59008 81828 85362=
202001100600 AAXX 10064 67531 32380 62005 10223 20206 48/// 8267/
                   333 10306 20195 59014 82708 86362=
202001090900 AAXX 09094 67531 42680 42709 10265 20195 48/// 83130
                   333 59027 83839 82362=
202001081200 AAXX 08124 67531 NIL=
202001080600 AAXX 08064 67531 32380 73605 10210 20197 48/// 8367/
                   333 10316 20190 58014 83706 87361
                   555 00316=
202001070900 AAXX 07094 67531 42680 51806 10249 20185 48/// 82130
                   333 59005 82830 84362=
202001060600 AAXX 06064 67531 11680 70000 10195 20184 48/// 60364 71799 8197/
                   333 10301 20171 5//// 81939 87460
                   555 00213=
202001030900 AAXX 03094 67531 41480 80000 10217 20213 48/// 79599 8427/
                   333 58015 81815 84815 87460=
202001030600 AAXX 03064 67531 32980 70000 10215 20208 48/// 8707/
                   333 10300 20189 58012 87360
                   555 00225=
202001021200 AAXX 02124 67531 NIL=
202001020900 AAXX 02094 67531 42580 70000 10264 20209 48/// 81138
                   333 58009 81823 81361 87280=
202001020600 AAXX 02064 67531 12380 70000 10220 20203 48/// 60524 81638
                   333 10302 20189 58010 81707 83361 87280
                   555 00227=

################################################################################
#  SYNOPS from 67541, Kasempa (Zambia) | 13-32S | 025-51E | 1234 m
################################################################################
202001310900 AAXX 31094 67541 42480 70000 10230 20200 48/// 8213/
                   333 5//// 82812 87360=
202001300900 AAXX 30094 67541 42580 70000 10245 20201 48/// 8323/
                   333 5//// 83820 87360=
202001300600 AAXX 30064 67541 12980 70000 10200 20200 48/// 60094 8703/=
202001281200 AAXX 28124 67541 NIL=
202001231200 AAXX 23124 67541 42680 50000 10295 20193 48/// 70222 85200
                   333 5//// 85835=
202001230900 AAXX 23094 67541 42480 70304 10250 20214 48/// 70222 82230
                   333 5//// 82817 86360=
202001220900 AAXX 22094 67541 42580 70602 10265 20215 48/// 83230
                   333 5//// 83822 84360=
202001220600 AAXX 22064 67541 12380 70000 10200 20197 48/// 60394 8253/
                   333 10290 20164 5//// 82608 87360=
202001171200 AAXX 17124 67541 42580 70403 10260 20209 48/// 83230
                   333 5//// 83820 84360=
202001170900 AAXX 17094 67541 41460 80000 10220 20205 48/// 76062 8223/
                   333 5//// 82810 87360=
202001160900 AAXX 16094 67541 42480 70406 10250 20206 48/// 82130
                   333 5//// 82818 85360=
202001150900 AAXX 15094 67541 42580 70603 10265 20207 48/// 86201
                   333 5//// 86823 81080=
202001150600 AAXX 15064 67541 12980 70000 10200 20193 48/// 60204 80007
                   333 10286 20152 5//// 87080=
202001141200 AAXX 14124 67541 NIL=
202001101200 AAXX 10124 67541 42680 70403 10283 20206 48/// 83204
                   333 5//// 83832 84080=
202001100900 AAXX 10094 67541 42580 70603 10265 20200 48/// 84231
                   333 5//// 84825 82360 81080=
202001090900 AAXX 09094 67541 NIL=
202001081200 AAXX 08124 67541 42580 40904 10267 20198 48/// 84200
                   333 5//// 84827=
202001070900 AAXX 07094 67541 42980 70804 10240 20196 48/// 8703/
                   333 5//// 87360=
202001070600 AAXX 07064 67541 12980 70903 10193 20188 48/// 60054 8703/
                   333 10290 20158 5//// 87360=
202001030900 AAXX 03094 67541 42580 70603 10275 20211 48/// 82105
                   333 5//// 82827 85080=
202001030600 AAXX 03064 67541 12980 70000 10220 20201 48/// 60024 82035
                   333 10290 20162 5//// 82360 85080=
202001021200 AAXX 02124 67541 NIL=
202001020900 AAXX 02094 67541 42680 70403 10275 20196 48/// 84203
                   333 5//// 84832 83080=

################################################################################
#  SYNOPS from 67543, Kabompo (Zambia) | 13-36S | 024-12E | 1075 m
################################################################################
202001300600 AAXX 30064 67543 32980 70000 10220 20190 48/// 8708/
                   333 10328 20128 5//// 87360=
202001281200 AAXX 28124 67543 NIL=
202001280600 AAXX 28064 67543 11375 70000 10204 20191 48/// 69904 72844 83635
                   333 10336 20186 5//// 83707 84360 85280
                   555 00///=
202001220900 AAXX 22094 67543 42580 70000 10264 20206 48/// 84230
                   333 5//// 84825 86362=
202001220600 AAXX 22064 67543 12380 70000 10206 20196 48/// 60124 8467/
                   333 10278 20190 5//// 84707 87360=
202001170900 AAXX 17094 67543 NIL=
202001170600 AAXX 17064 67543 11375 83201 10212 20202 48/// 60034 76162 887//
                   333 10310 20200 5//// 88707=
202001160900 AAXX 16094 67543 NIL=
202001160600 AAXX 16064 67543 12380 70000 10208 20188 48/// 60034 8267/
                   333 10306 20196 5//// 82708 87460=
202001150900 AAXX 15094 67543 NIL=
202001141200 AAXX 14124 67543 NIL=
202001100900 AAXX 10094 67543 42480 70000 10246 20201 48/// 875//
                   333 5//// 87360=
202001090900 AAXX 09094 67543 42582 73401 10276 20188 48/// 86230
                   333 5//// 86820 83361=
202001090600 AAXX 09064 67543 12980 53601 10230 20199 48/// 60074 85030
                   333 10278 20200 5//// 85360=
202001081200 AAXX 08124 67543 41480 73004 10230 20192 48/// 72162 875//
                   333 5//// 87615=
202001080600 AAXX 08064 67543 11360 80000 10200 20194 48/// 60124 76366 887//
                   333 10312 20196 5//// 88708=
202001070600 AAXX 07064 67543 12980 70301 10208 20182 48/// 69904 8703/
                   333 10286 20186 5//// 87360=
202001060600 AAXX 06064 67543 12978 80000 10196 20185 48/// 60144 8801/
                   333 10302 20194 5//// 88461=
202001030900 AAXX 03094 67543 42582 73402 10280 20200 48/// 8313/
                   333 5//// 83820 87361=
202001030600 AAXX 03064 67543 32480 70000 10228 20197 48/// 8223/
                   333 10306 20200 5//// 82816 87360=
202001021200 AAXX 02124 67543 42682 70000 10310 20204 48/// 84235
                   333 5//// 84830 85362=
202001020900 AAXX 02094 67543 42482 70000 10278 20204 48/// 8523/
                   333 5//// 85818 87361=

################################################################################
#  SYNOPS from 67551, Solwezi (Zambia) | 12-11S | 026-23E | 1386 m
################################################################################
202001281200 AAXX 28124 67551 NIL=
202001230600 AAXX 23064 67551 12365 70000 10199 20190 48503 60204 86630
                   333 10238 20179 59005 86706 86362 91018=
202001220900 AAXX 22094 67551 NIL=
202001220600 AAXX 22064 67551 11365 80000 10190 20182 48513 60294 76166 887//
                   333 10197 20176 58006 88706 91018=
202001210600 AAXX 21064 67551 31380 70000 10206 20195 48503 75059 8197/
                   333 10299 20189 58003 81706 81840 87360=
202001170900 AAXX 17094 67551 NIL=
202001170600 AAXX 17064 67551 12975 73004 10195 20183 48499 69934 86030
                   333 10291 20178 59011 86362 91017=
202001160900 AAXX 16094 67551 NIL=
202001160600 AAXX 16064 67551 12370 73005 10199 20174 48520 60054 84637
                   333 10214 20171 58015 84706 85362 86280 91018=
202001150900 AAXX 15094 67551 NIL=
202001150600 AAXX 15064 67551 12980 60000 10194 20182 48491 60194 86030
                   333 10225 20179 58005 86360 91017=
202001141200 AAXX 14124 67551 NIL=
202001131200 AAXX 13124 67551 41358 72409 10194 20187 48499 76166 8477/
                   333 59010 84707 87362 91017=
202001130600 AAXX 13064 67551 32370 72905 10203 20186 48515 8267/
                   333 10272 20180 59020 82606 87362 91019=
202001100900 AAXX 10094 67551 NIL=
202001090900 AAXX 09094 67551 NIL=
202001081200 AAXX 08124 67551 NIL=
202001070900 AAXX 07094 67551 42480 73005 10225 20189 48516 72166 81537
                   333 58007 81610 85362 87280 91019=
202001070600 AAXX 07064 67551 11380 71205 10185 20179 48523 60134 76066 8177/
                   333 10241 20169 58014 81706 87460 91019=
202001060900 AAXX 06094 67551 42480 73505 10248 20176 48511 82232
                   333 59016 82820 87362 82080 91018=
202001030600 AAXX 03064 67551 12980 73405 10214 20192 48523 69904 87030
                   333 10260 20190 58006 87362 91020=
202001021200 AAXX 02124 67551 42680 60905 10259 20184 48494 76062 85230
                   333 58006 85835 82362 91016=
202001020900 AAXX 02094 67551 42480 63005 10245 20199 48516 84230
                   333 58006 84825 83362 91018=
202001020600 AAXX 02064 67551 12270 71205 10202 20193 48515 60014 8267/
                   333 10245 20182 58005 82705 81820 87362 91019=

################################################################################
#  SYNOPS from 67561, Ndola (Zambia) | 13-00S | 028-39E | 1269 m
################################################################################
202001300600 AAXX 30064 67561 11259 71103 10218 20174 48529 60144 70462 8267/
                   333 10271 20177 58006 82704 87459 91020=
202001281200 AAXX 28124 67561 NIL=
202001230600 AAXX 23064 67561 11359 50705 10212 20193 48517 70422 82738
                   333 10287 20170 58003 82706 84360 85280 91018=
202001221200 AAXX 22124 67561 41670 62004 10267 20181 48483 70562 85202
                   333 58001 81930 85835 85280 91014=
202001220900 AAXX 22094 67561 41470 71205 10245 20196 48509 70562 86200
                   333 58000 81915 86820 91018=
202001220600 AAXX 22064 67561 11360 71203 10205 20190 48507 60294 70522 8667/
                   333 10270 20192 58005 85706 81610 87459 91018=
202001170900 AAXX 17094 67561 NIL=
202001170600 AAXX 17064 67561 11459 71203 10199 20183 48509 69904 70422 84538
                   333 10287 20180 59010 84610 81925 86360 87280
                   91018=
202001160900 AAXX 16094 67561 NIL=
202001160600 AAXX 16064 67561 11260 70000 10186 20180 48516 60204 76096 8377/
                   333 10275 20180 58010 83704 819// 87359 91019=
202001150900 AAXX 15094 67561 NIL=
202001150600 AAXX 15064 67561 11240 80904 10196 20184 48507 60094 74442 8667/
                   333 10263 20190 58013 86704 87360 91018=
202001141200 AAXX 14124 67561 NIL=
202001140900 AAXX 14094 67561 41459 63306 10240 20189 48495 70422 8523/
                   333 59019 85815 86360 91016=
202001140600 AAXX 14064 67561 11258 70304 10205 20190 48495 60084 70466 8667/
                   333 10259 20190 59018 86705 87460 91016=
202001130600 AAXX 13064 67561 41356 70000 10202 20184 48512 60044 76162 8477/
                   333 10204 20194 59033 84708 87459 91018=
202001101200 AAXX 10124 67561 41360 72906 10212 20193 48498 71792 81608
                   333 59008 81706 81930 86635 87280 91017=
202001100900 AAXX 10094 67561 NIL=
202001090900 AAXX 09094 67561 41570 60000 10239 20182 48531 70522 84238
                   333 58006 84620 84360 86380 91020=
202001081200 AAXX 08124 67561 41658 71211 10243 20194 48493 79592 86202
                   333 59006 81935 86840 84080 91016=
202001080600 AAXX 08064 67561 31959 60000 10222 20193 48529 72844 84038
                   333 10290 20183 58014 84360 86280 91020=
202001060900 AAXX 06094 67561 41460 73603 10232 20187 48510 70552 81138
                   333 59007 81812 86360 86280 91018=
202001030600 AAXX 03064 67561 11240 60000 10210 20195 48529 69904 74242 83630
                   333 10251 20185 58007 83705 86360 91020=
202001021200 AAXX 02124 67561 41459 79903 10236 20184 48504 72152 8177/
                   333 58012 81707 84818 86460 91017=
202001020900 AAXX 02094 67561 41459 70503 10226 20188 48520 72055 8563/
                   333 58006 85612 87360 91019=
202001020600 AAXX 02064 67561 11359 89903 10199 20184 48522 60104 72052 8367/
                   333 10265 20190 58012 83707 88459 91019=

################################################################################
#  SYNOPS from 67563, Kafironda (Zambia) | 12-36S | 028-07E | 1243 m
################################################################################
202001300600 AAXX 30064 67563 11880 70000 10190 20182 48/// 60234 76066 8707/
                   333 10280 20170 5//// 87458
                   555 00170=
202001281200 AAXX 28124 67563 NIL=
202001230600 AAXX 23064 67563 31380 72102 10205 20197 48/// 70222 8677/
                   333 10290 20185 5//// 86808 81360
                   555 00190=
202001220900 AAXX 22094 67563 NIL=
202001220600 AAXX 22064 67563 11380 80000 10215 20201 48/// 60184 887//
                   333 10280 20195 5//// 88708
                   555 00200=
202001210600 AAXX 21064 67563 11980 82503 10218 20190 48/// 60184 72162 8807/
                   333 10318 20182 58002 88358
                   555 00185=
202001170900 AAXX 17094 67563 NIL=
202001160900 AAXX 16094 67563 NIL=
202001160600 AAXX 16064 67563 11380 70402 10215 20201 48/// 60024 8677/
                   333 10290 20195 5//// 86609 81360
                   555 00200=
202001150900 AAXX 15094 67563 NIL=
202001150600 AAXX 15064 67563 11380 70000 10220 20205 48/// 60044 72162 8677/
                   333 10273 20185 5//// 86609 81359
                   555 00192=
202001141200 AAXX 14124 67563 NIL=
202001130600 AAXX 13064 67563 11378 82101 10192 20180 48/// 69904 75052 8477/
                   333 10254 20178 5//// 84708 88358
                   555 00178=
202001100900 AAXX 10094 67563 NIL=
202001100600 AAXX 10064 67563 11980 70602 10210 20195 48/// 60174 82078
                   333 10285 20180 5//// 82360 85270
                   555 00190=
202001090900 AAXX 09094 67563 NIL=
202001081200 AAXX 08124 67563 NIL=
202001080600 AAXX 08064 67563 31980 71801 10220 20198 48/// 81038
                   333 10305 20180 5//// 81360 86270
                   555 00184=
202001070600 AAXX 07064 67563 11880 72901 10200 20185 48/// 60014 8707/
                   333 10300 20176 5//// 87458
                   555 00180=
202001060600 AAXX 06064 67563 11380 70901 10205 20190 48/// 60084 81770
                   333 10293 20175 5//// 81708 87358
                   555 00170=
202001030600 AAXX 03064 67563 12980 33601 10223 20200 48/// 69904 80001
                   333 10280 20184 5//// 83080
                   555 00182=
202001021200 AAXX 02124 67563 NIL=
202001020600 AAXX 02064 67563 11375 80202 10204 20190 48/// 60214 72166 8277/
                   333 10278 20172 5//// 82708 88358
                   555 00170=

################################################################################
#  SYNOPS from 67571, Serenje (Zambia) | 13-14S | 030-13E | 1384 m
################################################################################
202001310900 AAXX 31094 67571 41378 83603 10190 20179 48491 75156 887//
                   333 59001 88709 8/9//=
202001281200 AAXX 28124 67571 NIL=
202001231200 AAXX 23124 67571 42682 71202 10270 20152 48/// 70222 82508
                   333 5//// 82640 87280=
202001230900 AAXX 23094 67571 42582 73102 10229 20159 48/// 70222 83508
                   333 5//// 83626 87280=
202001220900 AAXX 22094 67571 NIL=
202001200900 AAXX 20094 67571 42582 83305 10228 20194 48452 885//
                   333 58000 88620=
202001170900 AAXX 17094 67571 NIL=
202001170600 AAXX 17064 67571 12982 73302 10205 20183 48462 60014 82088
                   333 10257 20177 59012 82360 87280 8/9//=
202001161200 AAXX 16124 67571 41580 72703 10246 20182 48443 83238
                   333 58000 81926 83826 84360 87280=
202001160900 AAXX 16094 67571 41480 73602 10202 20179 48472 76066 84548
                   333 58010 84615 85460 87280=
202001160600 AAXX 16064 67571 11275 83302 10192 20182 48471 60034 76166 8477/
                   333 10252 20174 58008 84703 88460=
202001150900 AAXX 15094 67571 41480 83002 10217 20184 48462 72052 885//
                   333 58018 88618=
202001141200 AAXX 14124 67571 NIL=
202001131200 AAXX 13124 67571 41682 73304 10222 20189 48442 71799 83238
                   333 59021 81930 83830 82360 87280=
202001130600 AAXX 13064 67571 11378 83303 10187 20176 48461 60224 72162 887//
                   333 10232 20169 59018 88706=
202001101200 AAXX 10124 67571 42682 70903 10256 20183 48443 72998 83238
                   333 59010 81934 83834 81360 86280=
202001100900 AAXX 10094 67571 NIL=
202001090900 AAXX 09094 67571 NIL=
202001090600 AAXX 09064 67571 12378 73302 10194 20173 48481 69924 8167/
                   333 10299 20174 58002 81708 87460=
202001081200 AAXX 08124 67571 NIL=
202001071200 AAXX 07124 67571 42682 73302 10260 20169 48463 86238
                   333 58020 81936 86836 81360 87280=
202001070600 AAXX 07064 67571 12982 73004 10221 20154 48473 60054 84038
                   333 10264 20163 58006 84360 87280=
202001060600 AAXX 06064 67571 12982 70000 10203 20171 48462 60054 84048
                   333 10213 20163 59005 84460 87280=
202001030900 AAXX 03094 67571 41480 72704 10230 20188 48473 76166 85548
                   333 58004 81915 85615 81360 87280=
202001030600 AAXX 03064 67571 11278 80000 10199 20184 48482 69974 76166 81747
                   333 10256 20186 58010 81705 83360 88280=
202001021200 AAXX 02124 67571 NIL=
202001020900 AAXX 02094 67571 42582 70904 10216 20184 48472 8257/
                   333 58012 82620 87360=
202001020600 AAXX 02064 67571 11378 80904 10192 20181 48471 60084 75355 887//
                   333 10256 20173 58012 88708=

################################################################################
#  SYNOPS from 67575, Mkushi (Zambia) | 13-38-00S | 029-26-00E | 1237 m
################################################################################
202001281200 AAXX 28124 67575 NIL=
202001230600 AAXX 23064 67575 32980 60301 10194 20174 48468 80008
                   333 10272 20140 58005 86278
                   555 00154=
202001221200 AAXX 22124 67575 42680 61203 10252 20176 48446 84208
                   333 58006 84835 83280=
202001220900 AAXX 22094 67575 NIL=
202001220600 AAXX 22064 67575 12480 71004 10218 20182 48466 60114 82538
                   333 10273 20175 58003 82613 81360 86278
                   555 00187=
202001170900 AAXX 17094 67575 NIL=
202001160900 AAXX 16094 67575 41580 83601 10212 20188 48/// 72162 8157/
                   333 5//// 81615 88460=
202001160600 AAXX 16064 67575 11370 70602 10180 20175 48/// 60434 76162 81770
                   333 10251 20167 5//// 81706 87460
                   555 00181=
202001150900 AAXX 15094 67575 42580 70301 10242 20202 48/// 84570
                   333 5//// 84620 84461=
202001150600 AAXX 15064 67575 12380 73501 10202 20194 48/// 60314 81670
                   333 10252 20170 5//// 81706 87460
                   555 00184=
202001141200 AAXX 14124 67575 NIL=
202001131200 AAXX 13124 67575 41660 63002 10236 20207 48438 79598 84273
                   333 5//// 81935 84835 82460 81080=
202001101200 AAXX 10124 67575 41670 70802 10246 20185 48/// 71792 83273
                   333 5//// 81935 83835 84460 81080=
202001100900 AAXX 10094 67575 42680 73403 10267 20205 48477 84273
                   333 59014 81930 84830 81361 83080=
202001090900 AAXX 09094 67575 42480 72701 10225 20188 48488 81571
                   333 58006 81618 87460 81078=
202001090600 AAXX 09064 67575 11370 83601 10194 20188 48486 60064 76062 8177/
                   333 10306 20175 58005 81708 88460=
202001081200 AAXX 08124 67575 NIL=
202001070600 AAXX 07064 67575 12380 70000 10194 20183 48476 60164 81670
                   333 10284 20166 58007 81709 87460
                   555 00176=
202001060600 AAXX 06064 67575 12380 82602 10207 20187 48471 60224 81678
                   333 10275 20160 58004 81708 84460 85278
                   555 00167=
202001030600 AAXX 03064 67575 12480 71002 10218 20205 48/// 60154 81571
                   333 10260 20180 5//// 81615 85360 83078
                   555 00176=
202001021200 AAXX 02124 67575 41480 72402 10244 20203 48460 72162 85572
                   333 5//// 85619 81361 82078=
202001020900 AAXX 02094 67575 41480 83602 10211 20194 48/// 72162 8757/
                   333 5//// 87615 82460=
202001020600 AAXX 02064 67575 11370 82602 10204 20197 48/// 69974 76162 8677/
                   333 10299 20189 5//// 86708 83460
                   555 00194=

################################################################################
#  SYNOPS from 67580, Msekera (Zambia) | 13-39S | 032-34E | 1025 m
################################################################################
202001300600 AAXX 30064 67580 12480 70000 10220 20205 48/// 60054 8117/
                   333 20259 58010 81815 87460=
202001281200 AAXX 28124 67580 NIL=
202001230900 AAXX 23094 67580 42680 62403 10268 20144 48/// 82101
                   333 59003 82844 84080=
202001230600 AAXX 23064 67580 32980 72702 10209 20203 48/// 80008
                   333 10268 20168 59002 87280=
202001221200 AAXX 22124 67580 42680 72102 10248 20175 48/// 875//
                   333 58002 87646=
202001220900 AAXX 22094 67580 42680 72102 10249 20173 48/// 87131
                   333 58002 87840 81361 82080=
202001220600 AAXX 22064 67580 12580 71204 10205 20164 48/// 69934 8257/
                   333 10255 20189 58011 82626 87360=
202001201200 AAXX 20124 67580 42680 71204 10276 20215 48/// 85207
                   333 5//// 85845 87280=
202001170900 AAXX 17094 67580 NIL=
202001160900 AAXX 16094 67580 NIL=
202001160600 AAXX 16064 67580 12580 72703 10216 20200 48/// 60024 71722 8197/
                   333 10256 20193 5//// 81920 82820 83622 87360=
202001150900 AAXX 15094 67580 41480 80302 10214 20204 48/// 76152 8257/
                   333 5//// 82614 88460=
202001141200 AAXX 14124 67580 NIL=
202001140600 AAXX 14064 67580 12680 70000 10234 20199 48/// 60024 81130
                   333 10285 20198 59019 81830 87360=
202001131200 AAXX 13124 67580 41680 70000 10244 20197 48/// 71582 85238
                   333 59022 81935 84840 81360 86280=
202001130600 AAXX 13064 67580 12480 72704 10210 20200 48/// 60034 8657/
                   333 10274 20194 59019 86614 87460=
202001101200 AAXX 10124 67580 41680 70000 10288 20208 48/// 72992 81938
                   333 59002 81940 83845 86280=
202001100900 AAXX 10094 67580 42680 73304 10272 20207 48/// 86238
                   333 58001 86835 81362 85280=
202001100600 AAXX 10064 67580 12580 72703 10240 20203 48/// 69974 81132
                   333 10315 20198 59002 81820 84362 83080=
202001090900 AAXX 09094 67580 NIL=
202001081200 AAXX 08124 67580 NIL=
202001080600 AAXX 08064 67580 12980 70000 10240 20192 48/// 69904 86038
                   333 10288 20194 58012 86360 87280=
202001070600 AAXX 07064 67580 12480 70000 10244 20210 48/// 81238
                   333 10296 20199 5//// 81818 83360 87280=
202001060900 AAXX 06094 67580 42680 73603 10256 20210 48/// 8527/
                   333 85835 87360=
202001030900 AAXX 03094 67580 42680 73604 10259 20210 48/// 87238
                   333 5//// 87842 82361 84280=
202001021200 AAXX 02124 67580 NIL=
202001020600 AAXX 02064 67580 11980 80000 10200 20200 48/// 60564 79562 8807/
                   333 10242 20199 5//// 88460=

################################################################################
#  SYNOPS from 67581, Chipata (Zambia) | 13-33S | 032-35E | 1028 m
################################################################################
202001300600 AAXX 30064 67581 12480 80503 10219 20196 48548 60164 8357/
                   333 10//0 20186 58013 83612 87459 91020=
202001281200 AAXX 28124 67581 NIL=
202001230900 AAXX 23094 67581 42680 72708 10275 20158 48521 70322 82102
                   333 59001 82830 87080 91016=
202001220900 AAXX 22094 67581 42580 60903 10250 20175 48518 83132
                   333 5//// 83820 84360 82080 91016=
202001220600 AAXX 22064 67581 12480 81604 10202 20164 48516 69904 8457/
                   333 10208 20189 58010 84615 88459 91017=
202001201200 AAXX 20124 67581 42680 81106 10270 20204 48488 8527/
                   333 59001 85830 88460 91012=
202001200900 AAXX 20094 67581 42580 81206 10242 20207 48505 8457/
                   333 5//// 84620 88459 91015=
202001170900 AAXX 17094 67581 NIL=
202001161200 AAXX 16124 67581 41480 81807 10227 20189 48525 75066 8487/
                   333 5//// 82608 84810 87459 91017=
202001160900 AAXX 16094 67581 NIL=
202001150900 AAXX 15094 67581 41375 80000 10210 20195 48/// 76166 875//
                   333 5//// 87606=
202001150600 AAXX 15064 67581 11280 80000 10200 20190 48/// 60174 72166 8477/
                   333 1//// 20190 5//// 84704 87458=
202001141200 AAXX 14124 67581 NIL=
202001140600 AAXX 14064 67581 12580 61604 10228 20201 48508 60304 82132
                   333 1//// 20199 59018 82820 84360 83080 91016=
202001130600 AAXX 13064 67581 12480 61205 10218 20201 48543 60014 84532
                   333 1//// 20199 58002 84615 83360 82080 91019=
202001100900 AAXX 10094 67581 42680 51605 10266 20198 48536 83230
                   333 5//// 83826 82360 91018=
202001090900 AAXX 09094 67581 42580 72706 10270 20204 48538 862//
                   333 59001 86825 91018=
202001090600 AAXX 09064 67581 12480 81606 10232 20212 48538 60124 83632
                   333 10//0 20200 58000 83815 83360 87280 91019=
202001081200 AAXX 08124 67581 NIL=
202001070900 AAXX 07094 67581 41480 72805 10262 20204 48529 71792 81902
                   333 5//// 81815 84820 87280 91017=
202001030900 AAXX 03094 67581 41480 72712 10250 20209 48/// 819//
                   333 5//// 81912 87815=
202001030600 AAXX 03064 67581 11280 80000 10210 20201 48/// 60684 70566 8457/
                   333 1//// 20198 5//// 84603 88458=
202001021200 AAXX 02124 67581 NIL=
202001020600 AAXX 02064 67581 11360 81206 10202 20198 48519 60824 76166 887//
                   333 1//// 20204 58011 88706 91017=

################################################################################
#  SYNOPS from 67583, Lundazi (Zambia) | 12-17S | 033-12E | 1143 m
################################################################################
202001300600 AAXX 30064 67583 11860 80000 10200 20196 48/// 60154 76166 8807/
                   333 10270 2//// 5//// 88358=
202001281200 AAXX 28124 67583 NIL=
202001231200 AAXX 23124 67583 42680 70000 10276 20193 48/// 85237
                   333 5//// 85840 82358 87280=
202001220900 AAXX 22094 67583 NIL=
202001220600 AAXX 22064 67583 12480 80000 10196 20170 48/// 60294 8173/
                   333 10260 2//// 5//// 81710 88359=
202001200900 AAXX 20094 67583 42680 82703 10260 20203 48/// 882//
                   333 5//// 88835=
202001170900 AAXX 17094 67583 NIL=
202001160900 AAXX 16094 67583 NIL=
202001150900 AAXX 15094 67583 41970 80000 10200 20193 48/// 72162 8802/
                   333 5//// 88459=
202001141200 AAXX 14124 67583 NIL=
202001131200 AAXX 13124 67583 42580 60000 10254 20192 48/// 86200
                   333 5//// 86828=
202001130600 AAXX 13064 67583 12380 70000 10206 20190 48/// 60174 875//
                   333 10240 2//// 5//// 87610=
202001100900 AAXX 10094 67583 NIL=
202001100600 AAXX 10064 67583 12980 80000 10208 20198 48/// 60024 8807/
                   333 10262 2//// 5//// 88359=
202001090900 AAXX 09094 67583 42480 70000 10222 20203 48/// 8192/
                   333 5//// 81910 81812 87459=
202001081200 AAXX 08124 67583 NIL=
202001080600 AAXX 08064 67583 12980 60000 10212 20204 48/// 60454 82036
                   333 10290 2//// 5//// 82359 86280=
202001060900 AAXX 06094 67583 42680 72702 10270 20192 48/// 81236
                   333 5//// 81832 82360 86280=
202001030900 AAXX 03094 67583 42580 70000 10256 20205 48/// 85231
                   333 5//// 85822 81360 82080=
202001030600 AAXX 03064 67583 12380 80000 10216 20206 48/// 60154 8173/
                   333 10278 2//// 5//// 81708 88358=
202001021200 AAXX 02124 67583 42580 73002 10264 20203 48/// 84208
                   333 5//// 84822 87280=
202001020900 AAXX 02094 67583 42480 80302 10248 20208 48/// 83237
                   333 5//// 83818 81360 88280=

################################################################################
#  SYNOPS from 67599, Mfuwe (Zambia) | 13-16S | 031-56E | 568 m
################################################################################
202001300600 AAXX 30064 67599 11380 81403 10223 20223 48532 60034 72162 8177/
                   333 10321 20204 58010 81706 88459
                   555 00213=
202001281200 AAXX 28124 67599 NIL=
202001220900 AAXX 22094 67599 NIL=
202001220600 AAXX 22064 67599 12580 71205 10253 20176 48520 60034 8257/
                   333 10291 20210 58018 82620 87459
                   555 00216 91015=
202001210600 AAXX 21064 67599 12480 71702 10252 20232 48504 60124 81530
                   333 10330 20215 59001 81610 87360
                   555 00228 91013=
202001170900 AAXX 17094 67599 NIL=
202001160900 AAXX 16094 67599 NIL=
202001160600 AAXX 16064 67599 12380 71504 10241 20234 48520 60014 8177/
                   333 10305 20213 59005 81706 87459
                   555 00220 91015=
202001150900 AAXX 15094 67599 NIL=
202001150600 AAXX 15064 67599 11959 80302 10218 20218 48519 60344 76162 8807/
                   333 10325 20200 58029 88459
                   555 00212 91016=
202001141200 AAXX 14124 67599 NIL=
202001140600 AAXX 14064 67599 32480 70102 10252 20223 48504 872//
                   333 10321 20218 59023 87518
                   555 00218 91013=
202001100900 AAXX 10094 67599 NIL=
202001090900 AAXX 09094 67599 NIL=
202001090600 AAXX 09064 67599 12580 71002 10256 20205 48529 69904 82331
                   333 10355 20212 59004 81920 81825 83360 85280
                   555 00028 91016=
202001081200 AAXX 08124 67599 NIL=
202001080600 AAXX 08064 67599 12580 50102 10260 20202 48536 82130
                   333 10339 20210 58017 82828 85360
                   555 00222 91016=
202001070600 AAXX 07064 67599 32580 70504 10268 20217 48524 81937
                   333 10346 20215 59007 81920 81825 81360 87280
                   555 00228 91015=
202001030600 AAXX 03064 67599 11280 83602 10229 20224 48530 60084 76162 8277/
                   333 10274 20208 58012 82703 88458
                   555 00218 91017=
202001021200 AAXX 02124 67599 NIL=
202001020600 AAXX 02064 67599 11975 80000 10220 20220 48515 60304 76262 8807/
                   333 10268 20208 58012 88458
                   555 00217 91016=

################################################################################
#  SYNOPS from 67625, Kalabo (Zambia) | 14-51S | 022-42E | 1033 m
################################################################################
202001310900 AAXX 31094 67625 41482 71602 10240 20212 48/// 72052 81233
                   333 58001 81818 85360 87075=
202001281200 AAXX 28124 67625 NIL=
202001220900 AAXX 22094 67625 NIL=
202001170900 AAXX 17094 67625 NIL=
202001170600 AAXX 17064 67625 12482 71804 10205 20197 48/// 60134 87603
                   333 10280 20189 58007 87710 87075=
202001160900 AAXX 16094 67625 NIL=
202001150900 AAXX 15094 67625 NIL=
202001150600 AAXX 15064 67625 11482 71307 10195 20195 48/// 60304 75065 81623
                   333 10260 20192 59002 81710 86460 87075=
202001141200 AAXX 14124 67625 NIL=
202001100900 AAXX 10094 67625 NIL=
202001090900 AAXX 09094 67625 41982 83006 10239 20204 48/// 72052 8807/
                   333 59001 88360=
202001090600 AAXX 09064 67625 12982 82704 10205 20205 48/// 60204 8807/
                   333 10280 20190 59005 88360=
202001081200 AAXX 08124 67625 NIL=
202001070600 AAXX 07064 67625 11582 72705 10205 20202 48/// 69954 75055 8772/
                   333 10300 20199 58025 87710 87460=
202001060600 AAXX 06064 67625 11982 73606 10205 20197 48/// 60084 72062 87073
                   333 10290 20185 59025 87360 87075=
202001030600 AAXX 03064 67625 32982 71402 10230 20208 48/// 83033
                   333 10320 20203 58001 83360 87075=
202001021200 AAXX 02124 67625 NIL=

################################################################################
#  SYNOPS from 67633, Mongu (Zambia) | 15-15S | 023-09E | 1052 m
################################################################################
202001281200 AAXX 28124 67633 NIL=
202001231200 AAXX 23124 67633 42680 73504 10281 20210 48499 70222 85208
                   333 58002 85830 87280 91014=
202001220900 AAXX 22094 67633 42680 50000 10274 20213 48515 84201
                   333 58006 84835 83080 91016=
202001220600 AAXX 22064 67633 32980 70702 10224 20205 48508 8707/
                   333 10337 20204 58004 87460
                   555 00217 91016=
202001200900 AAXX 20094 67633 42580 70902 10200 20185 48508 76162 8457/
                   333 58007 83620 87460 91017=
202001170900 AAXX 17094 67633 NIL=
202001160900 AAXX 16094 67633 NIL=
202001160600 AAXX 16064 67633 12480 71503 10215 20202 48493 60314 85838
                   333 10272 20200 59009 83615 83820 85360 87280
                   555 00205 91015=
202001150900 AAXX 15094 67633 NIL=
202001141200 AAXX 14124 67633 NIL=
202001131200 AAXX 13124 67633 42680 63002 10277 20199 48488 85202
                   333 59021 81940 84840 83080 91013=
202001101200 AAXX 10124 67633 41680 63604 10292 20218 48/// 78082 84202
                   333 59031 81940 83040 85080 91012=
202001100900 AAXX 10094 67633 42680 63002 10275 20212 48506 83202
                   333 59020 83830 85080 91015=
202001100600 AAXX 10064 67633 12980 63304 10235 20207 48507 69904 83038
                   333 10310 20200 59010 83360 86280
                   555 00215 91016=
202001090900 AAXX 09094 67633 NIL=
202001081200 AAXX 08124 67633 NIL=
202001070600 AAXX 07064 67633 12980 73610 10220 20197 48512 60084 8707/
                   333 10288 20205 58003 87460
                   555 00205 91017=
202001060600 AAXX 06064 67633 12980 53604 10225 20204 48508 69904 85030
                   333 10309 20195 59009 85360
                   555 00200 91017=
202001030600 AAXX 03064 67633 12980 70602 10245 20191 48516 69904 85038
                   333 10325 20215 58013 85360 87280 91017=
202001021200 AAXX 02124 67633 NIL=

################################################################################
#  SYNOPS from 67641, Kaoma (Zambia) | 14-48S | 024-48E | 1213 m
################################################################################
202001300600 AAXX 30064 67641 32980 70202 10220 20196 48523 87030
                   333 10328 20188 58011 87360 91018=
202001281200 AAXX 28124 67641 NIL=
202001230900 AAXX 23094 67641 42580 61104 10281 20205 48504 86201
                   333 59003 86836 81080 91015=
202001230600 AAXX 23064 67641 12980 73404 10230 20196 48500 69934 85031
                   333 10330 20194 59005 85361 83080 91015=
202001221200 AAXX 22124 67641 42580 71403 10299 20202 48485 85231
                   333 59001 85838 81362 82080 91013=
202001220900 AAXX 22094 67641 NIL=
202001220600 AAXX 22064 67641 32580 70000 10241 20212 48506 85501
                   333 10319 20212 58009 85636 83080 91016=
202001171200 AAXX 17124 67641 41570 73208 10260 20201 48480 79082 872//
                   333 59005 87830 91013=
202001170900 AAXX 17094 67641 NIL=
202001170600 AAXX 17064 67641 12580 70000 10212 20199 48485 60154 875//
                   333 10245 20200 59011 87628 91014=
202001160900 AAXX 16094 67641 41560 80204 10210 20204 48494 76166 8357/
                   333 58008 83626 88460 91015=
202001160600 AAXX 16064 67641 11358 80000 10202 20199 48495 60244 76162 8672/
                   333 10286 20193 58007 86708 88460 91015=
202001150900 AAXX 15094 67641 NIL=
202001150600 AAXX 15064 67641 12680 60000 10216 20208 48487 60104 82130
                   333 10286 20206 58010 82830 86360 91014=
202001141200 AAXX 14124 67641 NIL=
202001140600 AAXX 14064 67641 12680 60000 10223 20206 48478 60114 82530
                   333 10293 20200 59027 82630 86360 91013=
202001100900 AAXX 10094 67641 42580 70705 10273 20207 48507 82207
                   333 59017 82832 87280 91016=
202001090900 AAXX 09094 67641 42580 72709 10244 20194 48521 8457/
                   333 58020 84623 87360 91018=
202001090600 AAXX 09064 67641 12980 73602 10216 20194 48517 60074 87030
                   333 10264 20195 59010 87360 91018=
202001081200 AAXX 08124 67641 NIL=
202001080900 AAXX 08094 67641 41680 83601 10201 20194 48533 76166 8257/
                   333 58033 82645 87460 91020=
202001060900 AAXX 06094 67641 42980 72704 10250 20192 48501 8707/
                   333 59025 87360 91015=
202001060600 AAXX 06064 67641 12980 72802 10210 20182 48501 86031
                   333 10290 20183 59017 86361 82080 91016=
202001030600 AAXX 03064 67641 32980 73602 10234 20207 48505 83032
                   333 10304 20205 58010 83360 84080 91015=
202001021200 AAXX 02124 67641 NIL=
202001020600 AAXX 02064 67641 12980 72801 10220 20203 48495 60044 82038
                   333 10287 20200 58008 82360 87280 91015=

################################################################################
#  SYNOPS from 67655, Mumbwa (Zambia) | 15-04S | 027-11E | 1216 m
################################################################################
202001281200 AAXX 28124 67655 NIL=
202001220900 AAXX 22094 67655 NIL=
202001210600 AAXX 21064 67655 12480 80906 10211 20204 48518 60154 8577/
                   333 10311 20150 58013 85610 87458 91017=
202001170900 AAXX 17094 67655 NIL=
202001170600 AAXX 17064 67655 12380 80606 10196 20189 48507 60284 8277/
                   333 10247 20139 59010 84820 87458 91015=
202001160900 AAXX 16094 67655 NIL=
202001160600 AAXX 16064 67655 12480 70000 10200 20189 48506 60264 8467/
                   333 10260 20180 58001 84610 87358 91016=
202001150900 AAXX 15094 67655 NIL=
202001150600 AAXX 15064 67655 12380 80000 10216 20202 48506 60054 8367/
                   333 10240 20182 58010 83610 87459 91016=
202001141200 AAXX 14124 67655 NIL=
202001140600 AAXX 14064 67655 12380 30909 10210 20195 48507 60064 8477/
                   333 10294 20139 59028 84610 87358 91015=
202001100900 AAXX 10094 67655 NIL=
202001090900 AAXX 09094 67655 NIL=
202001081200 AAXX 08124 67655 NIL=
202001021200 AAXX 02124 67655 NIL=
202001020600 AAXX 02064 67655 32480 70000 10214 20196 48513 81178
                   333 10311 20189 59001 81820 83360 87280 91017=

################################################################################
#  SYNOPS from 67659, Kafue Polder (Zambia) | 15-46S | 027-55E | 978 m
################################################################################
202001281200 AAXX 28124 67659 NIL=
202001220900 AAXX 22094 67659 NIL=
202001210600 AAXX 21064 67659 32980 71405 10236 20206 48/// 8553/
                   333 10305 20205 58016 85615 82360=
202001170900 AAXX 17094 67659 NIL=
202001170600 AAXX 17064 67659 12580 70904 10205 20167 48/// 60284 875//
                   333 10285 20200 5//// 87620=
202001160900 AAXX 16094 67659 NIL=
202001150900 AAXX 15094 67659 NIL=
202001141200 AAXX 14124 67659 NIL=
202001140600 AAXX 14064 67659 12480 60905 10224 20204 48/// 60104 82530
                   333 10260 20200 5//// 82610 85360=
202001100900 AAXX 10094 67659 NIL=
202001100600 AAXX 10064 67659 11970 71803 10228 20213 48/// 60044 70522 85032
                   333 10307 20198 5//// 85359 82080=
202001090900 AAXX 09094 67659 NIL=
202001081200 AAXX 08124 67659 NIL=
202001070600 AAXX 07064 67659 12480 73604 10227 20203 48/// 60014 8257/
                   333 10325 20204 5//// 82615 85459=
202001060900 AAXX 06094 67659 42580 72503 10280 20207 48/// 83832
                   333 5//// 81625 82830 81360 82080=
202001060600 AAXX 06064 67659 12480 42004 10238 20205 48/// 60014 83530
                   333 10325 20198 5//// 83615 81360=
202001030900 AAXX 03094 67659 42580 80505 10254 20221 48/// 8357/
                   333 5//// 83625 85459=
202001030600 AAXX 03064 67659 11475 73602 10214 20212 48/// 60074 72622 8257/
                   333 10335 20201 5//// 82615 85459=
202001021200 AAXX 02124 67659 42680 60505 10325 20195 48/// 84233
                   333 5//// 84840 82360 81080=
202001020900 AAXX 02094 67659 42680 60905 10302 20181 48/// 81233
                   333 5//// 81830 82360 83080=
202001020600 AAXX 02064 67659 32480 70303 10250 20207 48/// 81230
                   333 10350 20201 5//// 81820 86360=

################################################################################
#  SYNOPS from 67662, Kabwe Agric (Zambia) | 14-24S | 028-30E | 1165 m
################################################################################
202001300600 AAXX 30064 67662 32480 81902 10210 20136 48/// 70322 8657/
                   333 10290 20150 5//// 86610 82359=
202001281200 AAXX 28124 67662 NIL=
202001230900 AAXX 23094 67662 41680 50602 10266 20182 48/// 70300 82272
                   333 5//// 82830 82360 81080=
202001221200 AAXX 22124 67662 41680 40903 10262 20204 48/// 84200
                   333 5//// 84830=
202001220900 AAXX 22094 67662 41580 50903 10250 20198 48/// 85200
                   333 5//// 85820=
202001220600 AAXX 22064 67662 11480 81802 10215 20185 48/// 60064 82572
                   333 10273 20148 5//// 82612 81358 81070=
202001171200 AAXX 17124 67662 41480 70901 10242 20210 48/// 84572
                   333 5//// 84613 82358 81070=
202001170900 AAXX 17094 67662 41380 80000 10211 20196 48/// 72162 8577/
                   333 5//// 83706 85358=
202001170600 AAXX 17064 67662 11380 80902 10183 20178 48/// 60394 75162 8577/
                   333 10295 20140 5//// 85706 83358=
202001160900 AAXX 16094 67662 NIL=
202001150900 AAXX 15094 67662 41580 62702 10258 20203 48/// 84270
                   333 5//// 84825 82360=
202001150600 AAXX 15064 67662 11480 60000 10218 20202 48/// 60374 83570
                   333 10270 20150 5//// 83611 83359=
202001141200 AAXX 14124 67662 NIL=
202001140600 AAXX 14064 67662 11480 70000 10210 20199 48/// 60104 85672
                   333 10260 20150 5//// 85614 81358 81070=
202001131200 AAXX 13124 67662 41580 70000 10238 20215 48/// 71662 85272
                   333 5//// 85820 81360 81080=
202001130900 AAXX 13094 67662 41580 73606 10241 20207 48/// 72122 85272
                   333 5//// 85820 81360 81080=
202001130600 AAXX 13064 67662 11480 70000 10210 20192 48/// 60034 83572
                   333 10277 20140 5//// 83614 82358 82020=
202001100900 AAXX 10094 67662 NIL=
202001090900 AAXX 09094 67662 NIL=
202001081200 AAXX 08124 67662 41680 73603 10275 20197 48/// 84272
                   333 5//// 84835 82360 81080=
202001080600 AAXX 08064 67662 31980 70000 10220 20198 48/// 85072
                   333 10276 20156 5//// 85360 82080=
202001070900 AAXX 07094 67662 41480 72806 10246 20193 48/// 85072
                   333 5//// 85360 82080=
202001070600 AAXX 07064 67662 11480 73606 10210 20183 48/// 60144 76161 81772
                   333 10306 20142 5//// 81714 84458 81080=
202001061200 AAXX 06124 67662 41580 60000 10298 20201 48/// 83272
                   333 5//// 83840 81360 82080=
202001030900 AAXX 03094 67662 41580 70000 10260 20202 48/// 84272
                   333 5//// 84825 82360 81080=
202001030600 AAXX 03064 67662 11480 70000 10230 20199 48/// 69904 81572
                   333 10318 20152 5//// 81615 83360 82080=
202001021200 AAXX 02124 67662 NIL=

################################################################################
#  SYNOPS from 67663, Kabwe (Zambia) | 14-27S | 028-28E | 1206 m
################################################################################
202001281200 AAXX 28124 67663 42680 61309 10285 20175 48511 85201
                   333 58000 85842 82080=
202001280900 AAXX 28094 67663 42680 60411 10263 20192 48513 85501
                   333 58009 85630 82080=
202001280600 AAXX 28064 67663 32580 63607 10229 20194 48509 83530
                   333 10311 20184 58002 83620 86360
                   555 00246=
202001260600 AAXX 26064 67663 29/80 11104 10211 20166 48537 70200 80001
                   333 10//0 20//0 59008 81080=
202001220900 AAXX 22094 67663 NIL=
202001170900 AAXX 17094 67663 NIL=
202001170600 AAXX 17064 67663 11580 80504 10184 20181 48497 60444 79199 8347/
                   333 10299 20171 58003 81925 83625 88460
                   555 00200=
202001161200 AAXX 16124 67663 46280 72707 10263 20203 48486 85270
                   333 59011 81930 85830 87360=
202001160900 AAXX 16094 67663 41465 73509 10226 20190 48512 76062 8457/
                   333 58001 84615 87360=
202001150900 AAXX 15094 67663 41580 73307 10252 20203 48501 8653/
                   333 59017 86628 87360=
202001150600 AAXX 15064 67663 11378 70000 10213 20194 48504 60374 72844 84630
                   333 10272 20184 84708 87360
                   555 00244=
202001141200 AAXX 14124 67663 NIL=
202001140600 AAXX 14064 67663 11480 71303 10203 20196 48524 60054 72162 875//
                   333 10218 20184 58018 87618
                   555 00240=
202001100900 AAXX 10094 67663 42580 73304 10268 20201 48514 85270
                   333 59009 81925 84825 85460=
202001100600 AAXX 10064 67663 12480 73203 10222 20203 48513 60174 8357/
                   333 10292 20190 59006 83619 87460
                   555 00246=
202001090900 AAXX 09094 67663 NIL=
202001081200 AAXX 08124 67663 NIL=
202001080600 AAXX 08064 67663 32980 71304 10219 20186 48519 8707/
                   333 10283 20193 58017 87360=
202001070600 AAXX 07064 67663 12980 83503 10210 20181 48500 60424 72166 8807/
                   333 10315 20172 58004 88460=
202001060900 AAXX 06094 67663 42580 72005 10264 20200 48492 82132
                   333 59009 82826 84360 85080=
202001060600 AAXX 06064 67663 12980 72803 10208 20179 48496 60284 87070
                   333 10319 20178 59006 87460
                   555 00240=
202001021200 AAXX 02124 67663 NIL=
202001020600 AAXX 02064 67663 32380 73503 10226 20204 48504 8267/
                   333 10331 20200 58006 82709 87360
                   555 00264=

################################################################################
#  SYNOPS from 67665, Lusaka Internationalairport (Zambia) | 15-19S | 028-27E | 1152 m
################################################################################
202001312100 AAXX 31214 67665 42980 40604 10192 20176 48535 70122 84030
                   333 59010 84360=
202001302100 AAXX 30214 67665 41459 70909 10196 20196 48545 75022 81930
                   333 58008 85606 81950 86459=
202001301800 AAXX 30184 67665 42760 71107 10202 20186 48531 70222 83530
                   333 58007 83650 81950 86459=
202001301500 AAXX 30154 67665 42660 81109 10215 20193 48515 70222 84530
                   333 58009 84635 81940 86459=
202001301200 AAXX 30124 67665 41459 81009 10199 20191 48528 76088 8667/
                   333 58009 86710 81922 87459=
202001300900 AAXX 30094 67665 42480 71211 10245 20185 48547 86530
                   333 58002 86615 84360=
202001300600 AAXX 30064 67665 32358 80910 10215 20193 48542 70222 8663/
                   333 10//0 20//0 58007 86609 87360=
202001292100 AAXX 29214 67665 42780 61105 10216 20179 48541 81930
                   333 58003 81950 85360=
202001291800 AAXX 29184 67665 42780 61012 10233 20170 48528 81930
                   333 5//// 81950 85360=
202001291500 AAXX 29154 67665 42680 51210 10273 20150 48513 81931
                   333 58005 81945 84360 81080=
202001291200 AAXX 29124 67665 42680 61101 10290 20140 48531 85230
                   333 58006 85840 82360=
202001290900 AAXX 29094 67665 42580 60713 10254 20171 48547 70322 85502
                   333 58003 85625 83080=
202001290600 AAXX 29064 67665 32480 51109 10204 20164 48536 83532
                   333 10//0 20//0 58007 83612 82360 81080
                   555 00///=
202001290300 AAXX 29034 67665 42380 31004 10179 20141 48518 81630
                   333 59004 81705 82360=
202001282100 AAXX 28214 67665 42/80 20903 10207 20150 48529 80001
                   333 5//// 819// 81080=
202001281500 AAXX 28154 67665 42680 31110 10288 20135 48509 81231
                   333 58009 82848 82360 83080=
202001281200 AAXX 28124 67665 NIL=
202001271800 AAXX 27184 67665 42980 11403 10251 20158 48510 81030
                   333 5//// 81360=
202001271500 AAXX 27154 67665 42780 51307 10306 20161 48504 81930
                   333 5//// 81950 83856 81360=
202001271200 AAXX 27124 67665 42680 50705 10204 20158 48522 85200
                   333 59017 85840=
202001270900 AAXX 27094 67665 42980 21303 10282 20176 48543 70300 82100
                   333 59003 82825 91020=
202001260900 AAXX 26094 67665 42580 40606 10261 20160 48543 84200
                   333 59008 84825=
202001260300 AAXX 26034 67665 42980 01501 10172 20156 48523 70200
                   333 59007=
202001260000 AAXX 26004 67665 42980 01503 10177 20161 48524 70200
                   333 59011=
202001252100 AAXX 25214 67665 42980 01502 10194 20173 48535 70200
                   333 58000=
202001250600 AAXX 25064 67665 32489 31210 10207 20161 48544 82101
                   333 10//0 20//0 59007 82815 82080=
202001242100 AAXX 24214 67665 42980 09902 10189 20169 48535 70200
                   333 58014 91020=
202001241800 AAXX 24184 67665 42980 31107 10216 20161 48525 70200 82031
                   333 58020 82360 81080=
202001241500 AAXX 24154 67665 42680 31010 10270 20144 48523 70100 82101
                   333 58029 92845=
202001241200 AAXX 24124 67665 42580 40811 10275 20159 48532 70300 83101
                   333 58026 83830 82080=
202001240600 AAXX 24064 67665 32980 11008 10214 20167 48538 70200 81030
                   333 10//0 20//0 58025 81360
                   555 00/// 91020=
202001232100 AAXX 23214 67665 42980 11303 10205 20174 48524 70201 81030
                   333 58013 81360 91019=
202001231800 AAXX 23184 67665 42980 41306 10235 20198 70100 82031
                   333 58008 83860 84080=
202001231500 AAXX 23154 67665 42680 61103 10274 20158 48501 70122 83202
                   333 58010 83845 85080=
202001231200 AAXX 23124 67665 42580 60605 10275 20177 48506 70322 84102
                   333 58003 84830 85080=
202001230900 AAXX 23094 67665 42580 50404 10264 20181 48521 70220 85502
                   333 59004 85620 82080=
202001230600 AAXX 23064 67665 31380 40602 10198 20190 48512 72842 82602
                   333 10//0 20//0 59004 82705 83080
                   555 00///=
202001230300 AAXX 23034 67665 42980 20902 10173 20164 48499 82030
                   333 59008 82360=
202001222100 AAXX 22214 67665 42/80 31702 10202 20186 48510 83030
                   333 59012 819// 83360=
202001220900 AAXX 22094 67665 42560 60604 10248 20188 48524 70222 86100
                   333 58003 86830 91018=
202001211500 AAXX 21154 67665 41460 70908 10221 20206 48491 70322 84532
                   333 58025 84620 819// 87459=
202001210900 AAXX 21094 67665 42480 71006 10247 20188 48521 70322 872//
                   333 58015 81910 87815 91018=
202001210600 AAXX 21064 67665 12380 5//// 10221 20197 48514 69904 8563/
                   333 1//// 2//// 58012 85707 85360 91018=
202001200900 AAXX 20094 67665 42580 52412 10271 20190 48509 81502
                   333 59008 81620 85280=
202001200600 AAXX 20064 67665 12980 73403 10218 20196 40503 60134 70222 84032
                   333 10//0 20//0 58008 84360 86080=
202001200300 AAXX 20034 67665 42980 32703 10193 20184 48483 70100 83030
                   333 58005 83360=
202001200000 AAXX 20004 67665 41/60 62903 10201 20186 48483 71792 81930
                   333 58006 819// 86359=
202001192100 AAXX 19214 67665 41960 62703 10212 20197 48490 71322 81930
                   333 58001 81956 85360=
202001182100 AAXX 18214 67665 42960 79902 10204 20196 48489 70222 81930
                   333 59004 819// 86359=
202001181800 AAXX 18184 67665 41960 63503 10197 20191 48469 71799 81930
                   333 59012 819// 86359=
202001181500 AAXX 18154 67665 41680 73206 10240 20211 48461 71792 81930
                   333 59014 81930 85830 86360=
202001181200 AAXX 18124 67665 42480 73006 10253 20209 48472 70222 84530
                   333 59018 84618 86359=
202001180600 AAXX 18064 67665 11256 83503 10208 20201 48496 60094 75965 8677/
                   333 10//0 20//0 59019 86705 88459
                   555 00/// 91016=
202001180300 AAXX 18034 67665 41359 89902 10208 20208 48481 72165 8567/
                   333 59018 85706 819// 88459=
202001171800 AAXX 17184 67665 42/60 79902 10229 20199 48486 71722 8193/
                   333 59012 819// 87360=
202001171200 AAXX 17124 67665 42560 80407 10242 20189 48488 70222 8453/
                   333 58000 84625 87360=
202001170900 AAXX 17094 67665 41460 80408 10212 20202 48516 76166 8477/
                   333 59012 84710 88459=
202001170600 AAXX 17064 67665 11460 80703 10186 20186 48512 60364 76162 8377/
                   333 10//0 20//0 59003 83709 88459 91018=
202001170300 AAXX 17034 67665 41/58 80803 10185 20185 48506 79596 8197/
                   333 59004 819// 85707 88459=
202001170000 AAXX 17004 67665 41/59 80704 10207 20198 48501 79562 8577/
                   333 59006 819// 85708 87459=
202001162100 AAXX 16214 67665 42/60 51104 10207 20198 48511 82530
                   333 59013 819// 82645 85360=
202001161800 AAXX 16184 67665 41660 12703 10211 20204 48499 79196 8247/
                   333 10//0 59006 81935 82640 87459 91016=
202001161500 AAXX 16154 67665 41680 71006 10230 20208 48491 72582 85238
                   333 58006 81930 85835 83360 87280
                   555 10/// 91015=
202001161200 AAXX 16124 67665 42480 70405 10222 20192 48504 85238
                   333 59008 81915 85820 86360 87280 91016=
202001160900 AAXX 16094 67665 41459 83406 10236 20192 48522 76022 8557/
                   333 58001 85615 87359=
202001160600 AAXX 16064 67665 11360 61311 10195 20193 48516 60314 70122 83630
                   333 59018 83704 86360=
202001151800 AAXX 15184 67665 42/60 71302 10198 20190 48506 70122 8193/
                   333 59002 819// 87360=
202001151500 AAXX 15154 67665 42660 71303 10202 20186 48482 70222 8193/
                   333 58003 81940 87359=
202001151200 AAXX 15124 67665 41558 82003 10197 20188 48509 79552 8197/
                   333 58015 81928 85830 87459=
202001150900 AAXX 15094 67665 42580 70103 10245 20186 48522 8623/
                   333 58016 86820 87360 91018=
202001141200 AAXX 14124 67665 NIL=
202001140900 AAXX 14094 67665 41460 70108 10222 20191 48499 75022 8577/
                   333 59010 85618 87459=
202001140600 AAXX 14064 67665 31470 60908 10205 20198 48513 60124 70222 84630
                   333 10//0 20//0 59011 84710 86360=
202001140300 AAXX 14034 67665 42980 61106 10200 20194 48486 70300 86030
                   333 59023 86360=
202001140000 AAXX 14004 67665 42980 41203 10207 20196 48495 70200 84030
                   333 59021 84360=
202001130900 AAXX 13094 67665 42460 72805 10239 20203 48515 70122 82830
                   333 59032 82630 83820 86360=
202001130600 AAXX 13064 67665 11360 89902 10207 20192 48514 72844 8563/
                   333 59027 85706 87360=
202001122100 AAXX 12214 67665 41780 41203 10208 20193 48512 71300 81930
                   333 59024 81956 83360=
202001121800 AAXX 12184 67665 42760 62803 10227 20190 48515 70222 81930=
202001121500 AAXX 12154 67665 42660 62508 10257 20183 48509 70122 83530
                   333 59009 83630 86360=
202001121200 AAXX 12124 67665 41459 72905 10239 20203 48527 76166 8457/
                   333 58000 84710 86459=
202001120900 AAXX 12094 67665 42460 82610 10223 20183 48544 72022 8667/
                   333 59007 86710 87459=
202001120600 AAXX 12064 67665 11360 82508 10198 20174 48539 60224 70562 8367/
                   333 10//0 20//0 58005 83708 88459
                   555 00/// 91021=
202001111200 AAXX 11124 67665 42580 72814 10223 20195 48524 8653/
                   333 58022 86625 84360=
202001110900 AAXX 11094 67665 41359 83308 10202 20202 48548 76166 8577/
                   333 5//// 85709 88459=
202001110600 AAXX 11064 67665 11358 80402 10197 20197 48534 60064 79596 8577/
                   333 20//0 58012 85705 819// 88759=
202001110300 AAXX 11034 67665 41/60 73505 10209 20191 48511 71799 8193/
                   333 58006 819// 87360=
202001110000 AAXX 11004 67665 41760 70303 10216 20193 48512 71392 8193/
                   333 58006 819// 87359=
202001102100 AAXX 10214 67665 41760 72802 10221 20191 48523 71322 8193/
                   333 58005 81957 87359=
202001101800 AAXX 10184 67665 42780 63105 10236 20198 48506 70192 81938
                   333 10//0 58003 81956 85360 85280 91016=
202001101200 AAXX 10124 67665 42680 70608 10241 20196 48505 71322 86238
                   333 59006 81936 86842 85360 87280 91016=
202001100900 AAXX 10094 67665 NIL=
202001100600 AAXX 10064 67665 31960 60602 10216 20195 48525 70200 82032
                   333 59013 82360 86080=
202001100000 AAXX 10004 67665 41760 70303 10216 20193 48512 71392 8193/
                   333 58006 819// 87359=
202001091800 AAXX 09184 67665 41760 60802 10208 20193 48499 71322 81932
                   333 59021 81957 83360 86080=
202001091500 AAXX 09154 67665 41659 71803 10204 20197 48498 79596 8197/
                   333 59011 81945 87459=
202001090900 AAXX 09094 67665 42580 72904 10255 20188 48536 86230
                   333 58001 86825 87360 91020=
202001081200 AAXX 08124 67665 NIL=
202001080900 AAXX 08094 67665 42580 63008 10263 20197 48535 82532
                   333 58002 82625 84360 82080=
202001080600 AAXX 08064 67665 32980 53205 10226 20191 48535 70222 85032
                   333 10//0 20//0 58006 85360 83080=
202001080300 AAXX 08034 67665 42980 40801 10215 20195 48511 70300 84030
                   333 58000 84360=
202001080000 AAXX 08004 67665 42980 30903 10218 20188 48509 70200 83030
                   333 59004 83360=
202001072100 AAXX 07214 67665 42980 40104 10241 20181 48524 70200 84030
                   333 58008 84360=
202001070900 AAXX 07094 67665 42580 63011 10250 20191 48532 82131
                   333 58017 82820 84360 82080=
202001070600 AAXX 07064 67665 12460 73008 10204 20181 48516 70322 8567/
                   333 58008 83712 87360=
202001062100 AAXX 06214 67665 42959 72805 10199 20199 48511 79599 8293/
                   333 59005 829// 87359=
202001061500 AAXX 06154 67665 42680 60207 10285 20163 48480 70222 85230
                   333 59031 85840 84360=
202001061200 AAXX 06124 67665 42580 62004 10305 20170 48502 70222 84230
                   333 59008 84828 85360=
202001060600 AAXX 06064 67665 12480 72907 10221 20191 48520 69904 70322 84508
                   333 10//0 20//0 59008 84610 87280
                   555 00/// 91018=
202001051800 AAXX 05184 67665 42960 62805 10212 20181 48509 70122 85031
                   333 58026 85360 84080=
202001051500 AAXX 05154 67665 42660 72810 10239 20187 48505 70222 82831
                   333 58026 85620 86359=
202001050900 AAXX 05094 67665 41559 72705 10226 20197 48529 75022 85530
                   333 59010 85620 86359=
202001050600 AAXX 05064 67665 12460 72103 10229 20194 48529 60024 81532
                   333 10//0 20//0 59019 81618 85359 83080=
202001050300 AAXX 05034 67665 42360 72703 10214 20184 48507 8363/
                   333 59019 83706 86359=
202001050000 AAXX 05004 67665 42/60 72806 10231 20194 48513 8197/
                   333 59012 819// 87459=
202001042100 AAXX 04214 67665 41759 73503 10240 20218 48526 78522 8197/
                   333 58000 81956 87459=
202001041800 AAXX 04184 67665 41775 71503 10232 20216 48516 70192 84238
                   333 10//0 59003 81950 84850 86060 87280 91018=
202001041500 AAXX 04154 67665 41560 71403 10228 20193 48502 86238
                   333 58005 81935 86840 84360 87280 555=
202001040900 AAXX 04094 67665 42580 50000 10268 20186 48544 85202
                   333 58000 85830 84080=
202001040600 AAXX 04064 67665 32980 41201 10241 20184 48541 80002
                   333 58017 84080=
202001040000 AAXX 04004 67665 42/60 72806 10231 20194 48513 8197/
                   333 59012 819// 87459=
202001031800 AAXX 03184 67665 42780 72902 10242 20204 48520 82032
                   333 58017 81956 82360 85280=
202001031500 AAXX 03154 67665 42680 61406 10280 20192 48503 81032
                   333 58003 81940 81360 86280=
202001031200 AAXX 03124 67665 42680 62303 10285 20189 48523 85232
                   333 58011 85830 83360 82080=
202001030900 AAXX 03094 67665 42480 70608 10254 20196 48542 83438
                   333 58014 83615 86360=
202001030600 AAXX 03064 67665 12959 80403 10201 20191 48543 60104 76066 8807/
                   333 1//// 2//// 58021 88459 91021=
202001021200 AAXX 02124 67665 NIL=
202001020900 AAXX 02090 67665 42660 70507 10263 20171 48529 8453/
                   333 5//// 84630 87360=
202001020600 AAXX 02064 67665 32480 71204 10234 20173 48526 70222 84530
                   333 10//0 20//0 5//// 84618 86360=
202001020300 AAXX 02034 67665 42980 41702 10209 20179 48507 70200 84030
                   333 5//// 84360=
202001020000 AAXX 02004 67665 41/80 52502 10234 20185 48507 71322 81930
                   333 5//// 819// 85360=
202001012100 AAXX 01214 67665 42/80 32404 10255 20163 48517 71300 81930
                   333 58010 819// 83360=
202001011500 AAXX 01154 67665 42880 31305 10311 20140 48490 81932
                   333 58006 81957 81360 83080=
202001010600 AAXX 01064 67665 32975 70603 10252 20192 48524 70521 84038
                   333 10//0 20//0 58004 84360 85280
                   555 00/// 91018=

################################################################################
#  SYNOPS from 67666, Lusaka City Airport (Zambia) | 15-25-00S | 028-28-00E | 1280 m
################################################################################
202001300600 AAXX 30064 67666 32480 80910 10208 20180 48537 885//
                   333 10282 20//0 58009 88612 91020=
202001281200 AAXX 28124 67666 NIL=
202001230600 AAXX 23064 67666 32580 50805 10214 20176 48506 81101
                   333 10280 2//// 59006 81820 81080=
202001220900 AAXX 22094 67666 NIL=
202001210600 AAXX 21064 67666 12380 81810 10210 20193 48507 60014 886//
                   333 10279 2//// 5//// 88708 91017=
202001171200 AAXX 17124 67666 42580 70908 10230 20185 48480 8457/
                   333 59015 81620 83825 87460 91014=
202001170900 AAXX 17094 67666 41480 80912 10205 20190 48498 72166 8567/
                   333 59014 85612 88459 91016=
202001170600 AAXX 17064 67666 11375 80802 10185 20183 48505 60234 76266 887//
                   333 10240 2//// 59003 88718 91017=
202001160900 AAXX 16094 67666 41465 71009 10209 20196 48506 76266 877//
                   333 58000 87615 91016=
202001160600 AAXX 16064 67666 12380 80505 10198 20173 48508 60344 82670
                   333 10254 2//// 59003 82708 86460 91017=
202001150900 AAXX 15094 67666 NIL=
202001150600 AAXX 15064 67666 12480 83601 10202 20186 48512 60294 888//
                   333 10240 2//// 58016 88612 81815 91018=
202001141200 AAXX 14124 67666 NIL=
202001140600 AAXX 14064 67666 12380 70908 10200 20185 48496 60044 876//
                   333 10250 2//// 59010 87708 91016=
202001130600 AAXX 13064 67666 11358 70000 10206 20194 48506 69904 74344 875//
                   333 10248 2//// 59026 87708 91017=
202001101200 AAXX 10124 67666 41480 70510 10240 20178 48496 72991 819//
                   333 59007 81912 86825 91015=
202001100900 AAXX 10094 67666 42480 70206 10260 20190 48519 81970
                   333 59007 81910 86818 91018=
202001090900 AAXX 09094 67666 NIL=
202001090600 AAXX 09064 67666 32480 83404 10202 20186 48527 886//
                   333 10240 20//0 58001 88710 91019=
202001081200 AAXX 08124 67666 42480 70510 10252 20176 48511 81970
                   333 58007 81918 82820 84360 91017=
202001070600 AAXX 07064 67666 12480 82005 10196 20174 48520 60264 8563/
                   333 10299 2//// 59002 85710 88356 91019=
202001030600 AAXX 03064 67666 12480 81005 10198 20170 48537 60264 8552/
                   333 10277 2//// 58021 84615 88458 91021=
202001021200 AAXX 02124 67666 42780 70805 10270 20172 48505 84208
                   333 58011 81950 83850 87280 91016=
202001020900 AAXX 02094 67666 42680 70906 10255 20162 48518 85208
                   333 58007 85835 87280 91018=

################################################################################
#  SYNOPS from 67667, Mount Makulu (Zambia) | 15-33S | 028-15E | 1213 m
################################################################################
202001300600 AAXX 30064 67667 32580 81904 10198 20202 48559 85108
                   333 10310 20174 59024 85825 87280=
202001281200 AAXX 28124 67667 NIL=
202001231200 AAXX 23124 67667 42680 61903 10286 20188 48527 85201
                   333 59002 85830 83080=
202001230600 AAXX 23064 67667 32980 33605 10222 20176 48/// 80002
                   333 10308 20175 5//// 83080=
202001221200 AAXX 22124 67667 42680 01204 10280 20191 48530 86202
                   333 58003 86830 82080=
202001220900 AAXX 22094 67667 42680 60503 10261 20202 48551 86202
                   333 5//// 83830 82080=
202001220600 AAXX 22064 67667 32580 51503 10224 20199 48555 85202
                   333 10290 20188 5//// 85825 82080=
202001210600 AAXX 21064 67667 33580 80901 10205 20200 48/// 60104 75022 885//
                   333 10295 20195 5//// 88620=
202001201200 AAXX 20124 67667 41680 72704 10265 20231 48514 72962 85203
                   333 5//// 81950 85830 86070=
202001171200 AAXX 17124 67667 42580 73603 10250 20208 48514 82108
                   333 59016 82825 87280=
202001170900 AAXX 17094 67667 42580 70907 10218 20191 48534 81108
                   333 59018 81820 87280=
202001170600 AAXX 17064 67667 11480 83602 10191 20190 48/// 60294 75062 85608
                   333 10282 20185 5//// 85715 88280=
202001160900 AAXX 16094 67667 NIL=
202001160600 AAXX 16064 67667 12580 71401 10206 20199 48565 60174 85101
                   333 10290 20178 5//// 85825 85080=
202001150900 AAXX 15094 67667 NIL=
202001150600 AAXX 15064 67667 12580 70901 10208 20199 48/// 60054 85508
                   333 10290 20190 5//// 85625=
202001141200 AAXX 14124 67667 NIL=
202001130600 AAXX 13064 67667 12980 20902 10227 20202 48562 60044 80001
                   333 10264 20186 58011 82080=
202001101200 AAXX 10124 67667 41680 80901 10260 20210 48530 79522 86508
                   333 59006 81950 86635 87280=
202001100900 AAXX 10094 67667 NIL=
202001100600 AAXX 10064 67667 12980 70602 10234 20192 48/// 69944 80008
                   333 10303 20187 5//// 87280=
202001090900 AAXX 09094 67667 42680 72705 10253 20191 48/// 84203
                   333 5//// 84830 87280=
202001081200 AAXX 08124 67667 41680 82802 10260 20202 48545 71522 85508
                   333 5//// 85830 88280=
202001080600 AAXX 08064 67667 32980 73610 10242 20198 48563 80008
                   333 10314 20202 5//// 87280=
202001070600 AAXX 07064 67667 12580 83604 10202 20188 48/// 60014 82508
                   333 10322 20190 5//// 82625 88280=
202001060600 AAXX 06064 67667 12980 50903 10228 20202 48/// 60034 80001
                   333 10268 20184 5//// 85080=
202001030900 AAXX 03094 67667 42680 73607 10260 20192 48/// 83208
                   333 5//// 83830 87280=
202001030600 AAXX 03064 67667 12980 80505 10204 20200 48/// 60204 80008
                   333 10314 20187 5//// 88280=
202001021200 AAXX 02124 67667 42680 70904 10282 20192 48534 84208
                   333 5//// 84835 87280=
202001020600 AAXX 02064 67667 32980 71402 10250 20190 48556 82038
                   333 10326 20190 59003 82362 87280=

################################################################################
#  SYNOPS from 67673, Petauke (Zambia) | 14-15S | 031-17E | 1035 m
################################################################################
202001281200 AAXX 28124 67673 42680 60902 10288 20202 48541 85231
                   333 59008 85832 86360 84080=
202001280900 AAXX 28094 67673 42680 60804 10268 20195 48555 86231
                   333 58002 86830 85360 84080=
202001280600 AAXX 28064 67673 32580 51001 10240 20195 48548 84131
                   333 10290 20188 59019 84828 85360 82080
                   555 00///=
202001231200 AAXX 23124 67673 42680 60000 10290 20188 48536 85231
                   333 58006 85837 81360 81080=
202001221200 AAXX 22124 67673 42580 60000 10256 20178 48525 86231
                   333 59017 86830 84360 82080=
202001220900 AAXX 22094 67673 42580 60502 10244 20187 48533 86800
                   333 59020 83828 83630=
202001220600 AAXX 22064 67673 32580 61002 10210 20180 48527 86531
                   333 10295 20149 59016 86625 84360 82080=
202001170900 AAXX 17094 67673 42680 71801 10260 20215 48535 85235
                   333 59003 85835 82360 82080=
202001160900 AAXX 16094 67673 41575 70000 10214 20201 48529 76066 8417/
                   333 59006 84825 87459=
202001160600 AAXX 16064 67673 11960 80000 10198 20194 48528 60204 76166 8807/
                   333 10290 20166 59016 88459=
202001150900 AAXX 15094 67673 NIL=
202001150600 AAXX 15064 67673 11465 80000 10205 20205 48545 60174 75022 8367/
                   333 10284 20167 58057 83710 88458=
202001141200 AAXX 14124 67673 NIL=
202001130600 AAXX 13064 67673 12580 60000 10210 20195 48528 60394 86530
                   333 10280 20164 59048 84360=
202001100900 AAXX 10094 67673 42584 52501 10278 20222 48528 85201
                   333 59034 85830 82080=
202001100600 AAXX 10064 67673 32584 43501 10234 20200 48523 83131
                   333 10315 20176 59016 83825 82360 84080=
202001090900 AAXX 09094 67673 NIL=
202001081200 AAXX 08124 67673 42680 40701 10302 20210 48599 83201
                   333 5//// 82836 81080=
202001080600 AAXX 08064 67673 32980 61802 10220 20205 48593 85031
                   333 10290 20176 5//// 85360 81080=
202001070600 AAXX 07064 67673 12580 42001 10250 20190 48/// 60124 83131
                   333 10315 20175 5//// 83828 82360 84080=
202001030900 AAXX 03094 67673 42675 70000 10248 20214 48/// 8427/
                   333 5//// 84829 84360=
202001030600 AAXX 03064 67673 12570 80000 10210 20210 48/// 60124 8217/
                   333 10268 20175 5//// 82825 86459=
202001021200 AAXX 02124 67673 42675 70902 10250 20213 48/// 8317/
                   333 5//// 83827 87360=
202001020900 AAXX 02094 67673 41570 80000 10199 20195 48/// 76062 8217/
                   333 5//// 82825 87460=
202001020600 AAXX 02064 67673 11570 80000 10200 20200 48/// 60044 76062 8217/
                   333 10294 20175 5//// 82825 87459=

################################################################################
#  SYNOPS from 67731, Senanga (Zambia) | 16-06S | 023-16E | 1027 m
################################################################################
202001281200 AAXX 28124 67731 NIL=
202001280600 AAXX 28064 67731 32980 609// 10241 20174 48/// 84038
                   333 10358 20191 5//// 84360 85280
                   555 00093=
202001230900 AAXX 23094 67731 42580 420// 10312 20216 48/// 70300 82202
                   333 59004 82825 83080=
202001221200 AAXX 22124 67731 42680 509// 10324 20183 48/// 84202
                   333 59004 84835 85080=
202001220900 AAXX 22094 67731 42580 735// 10288 20169 48/// 84132
                   333 58000 84825 84362 85080=
202001220600 AAXX 22064 67731 32480 706// 10231 20170 48/// 83538
                   333 10338 20190 58000 83615 84360 86280
                   555 00089=
202001210600 AAXX 21064 67731 32480 631// 10239 20172 48/// 83518
                   333 10333 20199 59012 83617 84460 85280
                   555 00097=
202001201200 AAXX 20124 67731 42980 322// 10308 20222 48/// 81051
                   333 58011 81365 82080=
202001200900 AAXX 20094 67731 42980 809// 10248 20210 48/// 87032
                   333 58014 87362 86080=
202001170900 AAXX 17094 67731 42580 709// 10259 20190 48/// 81902
                   333 58004 81925 84826 87080=
202001170600 AAXX 17064 67731 12480 616// 10226 20177 48/// 60034 83138
                   333 10301 20194 59008 83817 85360 86280
                   555 00077=
202001160900 AAXX 16094 67731 42580 710// 10264 20199 48/// 82330
                   333 59003 82923 83825 87363=
202001150900 AAXX 15094 67731 42480 811// 10228 20196 48/// 86539
                   333 58018 86615 87362 88180=
202001150600 AAXX 15064 67731 12580 810// 10197 20188 48/// 60204 82539
                   333 10326 20195 58012 82623 87360 88180
                   555 00052=
202001141200 AAXX 14124 67731 41680 709// 10315 20219 48/// 71799 81902
                   333 58001 81930 84830 84080=
202001140600 AAXX 14064 67731 12480 717// 10231 20163 48/// 60014 83518
                   333 10319 20171 59012 83615 84460 87280
                   555 00086=
202001131200 AAXX 13124 67731 42680 503// 10309 20193 48/// 84102
                   333 59029 84826 83080=
202001130600 AAXX 13064 67731 12480 706// 10223 20177 48/// 60084 83518
                   333 10317 20194 5//// 83617 85460 87280
                   555 00074=
202001101200 AAXX 10124 67731 41680 601// 10299 20215 48/// 71399 81902
                   333 5//// 81930 84835 85080=
202001100900 AAXX 10094 67731 NIL=
202001100600 AAXX 10064 67731 12480 327// 10242 20208 48/// 60104 82210
                   333 10324 20200 5//// 82815 81460
                   555 00085=
202001090900 AAXX 09094 67731 42580 601// 10264 20186 48/// 84132
                   333 5//// 84825 84361 84080=
202001090600 AAXX 09064 67731 12480 818// 10221 20178 48/// 60064 83528
                   333 10317 20169 5//// 83615 86460 88280=
202001081200 AAXX 08124 67731 42580 710// 10286 20220 48/// 71528 82961
                   333 58016 82923 84825 82360 82080=
202001070600 AAXX 07064 67731 12480 819// 10218 20196 48/// 60014 84589
                   333 10305 20207 5//// 84613 87362 88180
                   555 00082=
202001061200 AAXX 06124 67731 42480 625// 10278 20194 48/// 81950
                   333 59002 81916 82820 83365=
202001030900 AAXX 03094 67731 41580 708// 10288 20214 48/// 71799 81902
                   333 58007 81925 84829 86080=
202001030600 AAXX 03064 67731 32480 601// 10243 20180 48/// 83538
                   333 10325 20197 59002 83616 84360 85280
                   555 00103=
202001021200 AAXX 02124 67731 NIL=
202001020900 AAXX 02094 67731 42580 510// 10274 20210 48/// 81231
                   333 58002 81826 82362 84080=
202001020600 AAXX 02064 67731 12480 611// 10240 20203 48/// 60014 81539
                   333 10297 20217 58013 81615 83360 85180
                   555 00075=

################################################################################
#  SYNOPS from 67741, Sesheke (Zambia) | 17-28S | 024-18E | 949 m
################################################################################
202001310900 AAXX 31094 67741 42680 51201 10260 20207 48546 85530
                   333 59008 85635 81362=
202001300900 AAXX 30094 67741 42680 71301 10261 20208 48556 875//
                   333 5//// 87610=
202001300600 AAXX 30064 67741 32980 60901 10224 20206 48538 86040
                   333 10322 20189 58015 86362=
202001281200 AAXX 28124 67741 42680 70901 10268 20197 48529 8157/
                   333 58028 81645 87461=
202001280600 AAXX 28064 67741 11680 71201 10212 20203 48529 60154 76062 8157/
                   333 10358 20196 58010 81625 87458
                   555 00///=
202001220900 AAXX 22094 67741 NIL=
202001210600 AAXX 21064 67741 32980 20802 10235 20192 48521 80001
                   333 10328 20209 58020 82080=
202001201200 AAXX 20124 67741 42680 60000 10314 20188 48497 81108
                   333 5//// 81850 86280=
202001200900 AAXX 20094 67741 42680 61901 10278 20197 48512 81108
                   333 5//// 81850 85280=
202001170900 AAXX 17094 67741 42680 61901 10258 20209 48498 86530
                   333 59015 86640 81362=
202001170600 AAXX 17064 67741 12680 70901 10218 20201 48500 60354 875//
                   333 10284 20193 59012 87640=
202001160900 AAXX 16094 67741 NIL=
202001150900 AAXX 15094 67741 42680 70902 10254 20199 48516 875//
                   333 58016 87645=
202001150600 AAXX 15064 67741 12680 50000 10221 20204 48510 69914 81530
                   333 10299 20208 58015 81645 85362=
202001141200 AAXX 14124 67741 NIL=
202001130600 AAXX 13064 67741 12680 70000 10248 20218 48516 69924 875//
                   333 10301 20210 59023 87640=
202001100900 AAXX 10094 67741 NIL=
202001090900 AAXX 09094 67741 NIL=
202001090600 AAXX 09064 67741 32980 62801 10235 20202 48512 82038
                   333 10316 20204 58005 82362 85280=
202001081200 AAXX 08124 67741 NIL=
202001080600 AAXX 08064 67741 32980 73501 10242 20190 48514 8707/
                   333 10360 20206 58001 81362=
202001070600 AAXX 07064 67741 12980 70401 10226 20203 48512 60024 8707/
                   333 10321 20196 59001 87460=
202001060600 AAXX 06064 67741 12680 50000 10230 20203 48512 60304 81530
                   333 10286 20170 59007 81640 85362=
202001030600 AAXX 03064 67741 32980 71801 10246 20201 48525 8107/
                   333 10331 20222 58011 87461=
202001021200 AAXX 02124 67741 NIL=
202001020600 AAXX 02064 67741 12980 70000 10238 20208 48514 60174 8707/
                   333 10342 20196 58013 87362=

################################################################################
#  SYNOPS from 67743, Livingstone (Zambia) | 17-49S | 025-49E | 985 m
################################################################################
202001281200 AAXX 28124 67743 NIL=
202001231200 AAXX 23124 67743 42680 71608 10331 20165 48498 70322 83208
                   333 58006 83845 84280 91013=
202001220900 AAXX 22094 67743 42580 30703 10275 20190 48517 82101
                   333 59009 82825 83080 91016=
202001220600 AAXX 22064 67743 32480 30910 10225 20188 48511 81501
                   333 10310 20175 59004 81615 83080 91017=
202001170900 AAXX 17094 67743 NIL=
202001161200 AAXX 16124 67743 42580 71611 10280 20195 48498 70122 8553/
                   333 59006 85630 81833 86360 91014=
202001160900 AAXX 16094 67743 NIL=
202001160600 AAXX 16064 67743 43480 81006 10220 20197 48512 8577/
                   333 1//// 20189 59002 85709 88358 91017=
202001150900 AAXX 15094 67743 NIL=
202001150600 AAXX 15064 67743 31480 71105 10219 20193 48513 70222 82671
                   333 10305 20207 58018 82712 86360 82080 91017=
202001141200 AAXX 14124 67743 NIL=
202001140900 AAXX 14094 67743 42580 70608 1//// 20194 48571 84271
                   333 59005 84820 86360 83080 91015=
202001130600 AAXX 13064 67743 32580 50902 10248 20216 48510 85530
                   333 10295 20202 59022 83520 83360 91016=
202001101200 AAXX 10124 67743 42580 50709 10323 20187 48497 70222 84201
                   333 58018 84840 82080 91013=
202001100900 AAXX 10094 67743 42580 70807 10296 20196 48521 70222 82131
                   333 58000 82830 84360 81080 91016=
202001090900 AAXX 09094 67743 NIL=
202001081200 AAXX 08124 67743 NIL=
202001080600 AAXX 08064 67743 32980 63205 10240 20211 48514 70222 83031
                   333 10303 20245 58000 83358 85080 91016=
202001061200 AAXX 06124 67743 42580 42904 10303 20190 48499 82131
                   333 59016 82850 82360 81080 91014=
202001030600 AAXX 03064 67743 43280 63403 10242 20207 48522 70322 83231
                   333 10340 20212 58008 83540 84360 82080 91017=
202001021200 AAXX 02124 67743 NIL=
202001020900 AAXX 02094 67743 42680 61308 19288 20204 48520 70200 81138
                   333 58017 81840 81359 86280 91016=

################################################################################
#  SYNOPS from 67751, Magoye (Zambia) | 16-00S | 027-36E | 1018 m
################################################################################
202001310900 AAXX 31094 67751 41980 81003 10220 20190 76066 8807/
                   333 59016 88368=
202001300900 AAXX 30094 67751 42680 60705 10262 20187 82230
                   333 5//// 82836 85360=
202001281200 AAXX 28124 67751 NIL=
202001280600 AAXX 28064 67751 32980 40000 10235 20203 48/// 84070
                   333 10329 20222 59002 84360
                   555 00///=
202001230900 AAXX 23094 67751 42680 23603 10271 20199 48/// 82200
                   333 5//// 82826=
202001220900 AAXX 22094 67751 NIL=
202001220600 AAXX 22064 67751 32980 40000 10225 20202 48/// 84501
                   333 10277 20189 5//// 84608 81080=
202001170900 AAXX 17094 67751 NIL=
202001170600 AAXX 17064 67751 11980 80702 10202 20194 48/// 60354 76066 8801/
                   333 10260 20199 5//// 88460=
202001160900 AAXX 16094 67751 NIL=
202001150900 AAXX 15094 67751 42480 71703 10218 20203 48/// 86547
                   333 59027 86610 82360=
202001150600 AAXX 15064 67751 11980 80501 10211 20204 48/// 60264 76266 8801/
                   333 10280 20197 59017 88460=
202001141200 AAXX 14124 67751 NIL=
202001100900 AAXX 10094 67751 42580 73605 10275 20224 48/// 78222 81208
                   333 58005 81825 87280=
202001100600 AAXX 10064 67751 12980 71601 10231 20215 48/// 60014 81048
                   333 10285 20197 58014 81360 87280=
202001090900 AAXX 09094 67751 42680 73503 10265 20199 83230
                   333 58003 83830 85360=
202001090600 AAXX 09064 67751 12980 70000 10228 20202 60414 8707/
                   333 10306 20213 58000 87360=
202001081200 AAXX 08124 67751 NIL=
202001030600 AAXX 03064 67751 11980 81001 10205 20198 48/// 60034 72166 8807/
                   333 10345 20200 59022 88360=
202001021200 AAXX 02124 67751 NIL=
202001020600 AAXX 02064 67751 12980 60102 10250 20206 48/// 69974 82038
                   333 10334 20209 59003 82360 86280=

################################################################################
#  SYNOPS from 67753, Choma (Zambia) | 16-50S | 027-04E | 1213 m
################################################################################
202001281200 AAXX 28124 67753 NIL=
202001220900 AAXX 22094 67753 NIL=
202001170900 AAXX 17094 67753 NIL=
202001170600 AAXX 17064 67753 11375 82603 10201 20192 48/// 60034 75655 886//
                   333 10251 20190 5//// 88708=
202001160900 AAXX 16094 67753 NIL=
202001160600 AAXX 16064 67753 12380 72906 10199 20187 48/// 60024 72452 876//
                   333 10255 20182 5//// 87709=
202001150900 AAXX 15094 67753 NIL=
202001150600 AAXX 15064 67753 11359 82705 10186 20182 48/// 60142 76766 887//
                   333 10279 20178 5//// 88709=
202001141200 AAXX 14124 67753 NIL=
202001130600 AAXX 13064 67753 11580 20000 10220 20194 48/// 60084 81130
                   333 10256 20190 5//// 81820 81360=
202001100900 AAXX 10094 67753 NIL=
202001090900 AAXX 09094 67753 NIL=
202001090600 AAXX 09064 67753 32980 80000 10211 20196 48521 8803/
                   333 10284 20196 58001 88360=
202001081200 AAXX 08124 67753 NIL=
202001080600 AAXX 08064 67753 11980 81703 10211 20196 48521 60034 71622 8803/
                   333 10300 20196 58006 83360=
202001070600 AAXX 07064 67753 12380 80000 10211 20196 48511 69904 72452 886//
                   333 10314 20192 58007 88708=
202001060600 AAXX 06064 67753 32580 41603 10220 20190 48512 69914 81132
                   333 10280 20180 59015 81820 82360 81080=
202001030600 AAXX 03064 67753 11580 80108 10195 20188 48/// 60114 72162 8255/
                   333 10314 20189 5//// 82618 88360=
202001021200 AAXX 02124 67753 NIL=
202001020600 AAXX 02064 67753 31580 50000 10236 20208 48/// 81102
                   333 10312 20192 5//// 81820 84080=

################################################################################
#  SYNOPS from 67855, Lupaki (Zambia) | 17-03-00S | 024-46-00E | 1000 m
################################################################################
202001311200 AAXX 31124 67855 41670 72001 10324 20141 3//// 48/// 71582 8527/
                   333 5//// 85845 87360=
202001310600 AAXX 31064 67855 32975 51601 10220 20162 3//// 48/// 85031
                   333 20172 5//// 85360 83080=
202001301200 AAXX 30124 67855 42675 70501 10310 20155 3//// 48/// 85232
                   333 5//// 85840 87080=
202001300600 AAXX 30064 67855 12975 60000 10236 20197 38/// 48/// 69904 86072
                   333 20205 5//// 86459 83080=
202001290600 AAXX 29064 67855 12975 00503 10224 20183 3//// 48/// 60034
                   333 20185 5////=
202001281200 AAXX 28124 67855 41670 70303 10276 20217 3//// 48/// 79598 85233
                   333 5//// 81940 84845 87080=
202001270600 AAXX 27064 67855 12975 21801 10252 20178 3//// 48/// 69904 82030
                   333 20198 5//// 82360=
202001260600 AAXX 26064 67855 32975 00303 10250 20175 3//// 48///
                   333 20185 5////=
202001251200 AAXX 25124 67855 42775 53601 10332 20166 3//// 48/// 85201
                   333 5//// 85850=
202001250600 AAXX 25064 67855 32975 00402 10232 20160 3//// 48///
                   333 20200 5////=
202001241200 AAXX 24124 67855 42775 53402 10336 20133 3//// 48/// 85231
                   333 5//// 85850=
202001240600 AAXX 24064 67855 32975 10702 10228 20183 3//// 48/// 82031
                   333 20200 5//// 82360=
202001231200 AAXX 23124 67855 42775 41802 10348 20138 3//// 48/// 84232
                   333 5//// 84850=
202001230600 AAXX 23064 67855 32975 20803 10226 20154 3//// 48/// 82030
                   333 20180 5//// 82360=
202001221200 AAXX 22124 67855 42675 11803 10316 20128 3//// 48/// 81100
                   333 5//// 81845=
202001211200 AAXX 21124 67855 42675 71602 10282 20156 3//// 48/// 83172
                   333 5//// 83845 85360 87080=
202001210600 AAXX 21064 67855 12575 72004 10212 20149 3//// 48/// 69904 83501
                   333 20195 5//// 83625 87080=
202001201200 AAXX 20124 67855 41675 71703 10278 20184 3//// 48/// 72052 875//
                   333 5//// 87640=
202001181200 AAXX 18124 67855 41675 70102 10276 20205 3//// 48/// 70262 8327/
                   333 5//// 83840 87459=
202001170600 AAXX 17064 67855 12975 70704 10234 20193 3//// 48/// 60014 87071
                   333 20192 5//// 87459=
202001161200 AAXX 16124 67855 42675 41606 10270 20175 3//// 48/// 8327/
                   333 5//// 83840 87459=
202001160600 AAXX 16064 67855 12975 70000 10206 20183 3//// 48/// 60054 8707/
                   333 20194 5//// 87459=
202001151200 AAXX 15124 67855 41670 71602 10246 20211 3//// 48/// 79598 85233
                   333 5//// 81835 84840 87080=
202001150600 AAXX 15064 67855 12975 70000 10216 20199 3//// 48/// 60334 85072
                   333 20196 5//// 85360 87080=
202001140600 AAXX 14064 67855 12675 70403 10238 20185 3//// 48/// 60034 81532
                   333 20190 5//// 81630 83360=
202001131200 AAXX 13124 67855 41670 50102 10318 20169 3//// 48/// 71798 85233
                   333 5//// 81940 84845=
202001130600 AAXX 13064 67855 12575 70701 10224 20195 3//// 48/// 69904 875//
                   333 20185 5//// 87625=
202001111200 AAXX 11124 67855 42775 70405 10302 20179 3//// 48/// 83232
                   333 5//// 83830 85360 87080=
202001101200 AAXX 10124 67855 42775 73602 10328 20194 3//// 48/// 85272
                   333 5//// 85850 87080=
202001100600 AAXX 10064 67855 12975 71801 10220 20195 3//// 48/// 60044 81032
                   333 20190 5//// 81360 87080=
202001091200 AAXX 09124 67855 41975 80301 10244 20204 3//// 48/// 70298 8807/
                   333 5//// 88360=
202001090600 AAXX 09064 67855 11570 80000 10216 20204 3//// 48/// 60024 79596 84273
                   333 20215 5//// 81920 83825 88458=
202001080600 AAXX 08064 67855 12975 70101 10238 20193 3//// 48/// 60064 85072
                   333 20200 5//// 85360 87080=
202001070600 AAXX 07064 67855 11670 70303 10238 20191 3//// 48/// 69904 8557/
                   333 20212 5//// 85630 87459=
202001061200 AAXX 06124 67855 42775 72402 20164 3//// 48/// 85231
                   333 5//// 85856 87080=
202001051200 AAXX 05124 67855 42775 73401 10330 20168 3//// 48/// 83232
                   333 5//// 83850 87080=
202001040600 AAXX 04064 67855 32975 70102 10268 20148 3//// 48/// 80002
                   333 20210 5//// 87080=
202001030600 AAXX 03064 67855 32975 53602 10276 20173 3//// 48/// 80001
                   333 20225 5//// 85080=
202001020600 AAXX 02064 67855 32975 70303 10280 20165 3//// 48/// 82032
                   333 20240 5//// 82360 87080=
202001010600 AAXX 01064 67855 32975 50402 10282 20140 3//// 48/// 81031
                   333 20243 5//// 81360 85080=
