################################################################################
# Query made at 04/14/2022 12:13:48 UTC
# Country like Zamb*
# Time interval: from 05/01/2013 05:30  to 05/31/2013 06:30  UTC
################################################################################

################################################################################
#  SYNOPS from 67403, Kawambwa (Zambia) | 09-48S | 029-05E | 1323 m
################################################################################
201305301800 AAXX 30184 67403 NIL=
201305301500 AAXX 30154 67403 NIL=
201305301200 AAXX 30124 67403 NIL=
201305300900 AAXX 30094 67403 NIL=
201305300600 AAXX 30061 67403 32980 20000 10177 20128 48548 80001
                   333 10295 20//0 58002 82080=
201305291800 AAXX 29184 67403 NIL=
201305290900 AAXX 29094 67403 NIL=
201305281800 AAXX 28184 67403 NIL=
201305272100 AAXX 27214 67403 NIL=
201305270600 AAXX 27064 67403 32980 11202 10183 20127 48558 80001
                   333 10280 20//0 59006 81080=
201305260900 AAXX 26094 67403 NIL=
201305260000 AAXX 26004 67403 NIL=
201305252100 AAXX 25214 67403 NIL=
201305240900 AAXX 24094 67403 NIL=
201305240300 AAXX 24034 67403 NIL=
201305240000 AAXX 24004 67403 NIL=
201305231800 AAXX 23184 67403 NIL=
201305231500 AAXX 23154 67403 NIL=
201305220600 AAXX 22064 67403 32980 70901 10168 20145 48546 87030
                   333 10270 20//0 58003 87362=
201305211500 AAXX 21154 67403 NIL=
201305210900 AAXX 21094 67403 NIL=
201305210600 AAXX 21064 67403 32980 30000 10175 20142 48558 83030
                   333 10270 20//0 58000 83362=
201305210000 AAXX 21004 67403 NIL=
201305200600 AAXX 20061 67403 32980 21002 10165 20140 48558 81031
                   333 10285 20//0 59007 81362 81080=
201305190900 AAXX 19094 67403 NIL=
201305190600 AAXX 19061 67403 NIL=
201305180600 AAXX 18060 67403 NIL=
201305171200 AAXX 17121 67403 NIL=
201305170600 AAXX 17061 67403 32980 01002 10190 20142 48549
                   333 10300 20//0 58004=
201305160900 AAXX 16094 67403 NIL=
201305160600 AAXX 16064 67403 NIL=
201305160000 AAXX 16004 67403 NIL=
201305152100 AAXX 15214 67403 NIL=
201305150300 AAXX 15034 67403 NIL=
201305141200 AAXX 14121 67403 NIL=
201305140900 AAXX 14094 67403 NIL=
201305140300 AAXX 14034 67403 NIL=
201305132100 AAXX 13214 67403 NIL=
201305131800 AAXX 13184 67403 NIL=
201305130900 AAXX 13094 67403 NIL=
201305130600 AAXX 13064 67403 NIL=
201305130300 AAXX 13034 67403 NIL=
201305121500 AAXX 12154 67403 NIL=
201305110900 AAXX 11094 67403 NIL=
201305110300 AAXX 11034 67403 NIL=
201305110000 AAXX 11004 67403 NIL=
201305102100 AAXX 10214 67403 NIL=
201305101800 AAXX 10184 67403 NIL=
201305101500 AAXX 10154 67403 NIL=
201305101200 AAXX 10124 67403 NIL=
201305100900 AAXX 10094 67403 NIL=
201305100600 AAXX 10064 67403 32980 20000 10188 20133 48559 80001
                   333 10292 20//0 58006 82080=
201305100300 AAXX 10034 67403 NIL=
201305100000 AAXX 10004 67403 NIL=
201305091500 AAXX 09154 67403 NIL=
201305090900 AAXX 09094 67403 NIL=
201305090300 AAXX 09034 67403 NIL=
201305090000 AAXX 09004 67403 NIL=
201305082100 AAXX 08214 67403 NIL=
201305081500 AAXX 08154 67403 NIL=
201305081200 AAXX 08124 67403 NIL=
201305080300 AAXX 08034 67403 NIL=
201305071500 AAXX 07154 67403 NIL=
201305070900 AAXX 07094 67403 NIL=
201305070300 AAXX 07034 67403 NIL=
201305070000 AAXX 07004 67403 NIL=
201305061800 AAXX 06184 67403 NIL=
201305061500 AAXX 06154 67403 NIL=
201305060900 AAXX 06094 67403 NIL=
201305060000 AAXX 06004 67403 NIL=
201305051800 AAXX 05184 67403 NIL=
201305051200 AAXX 05121 67403 NIL=
201305050900 AAXX 05094 67403 NIL=
201305050000 AAXX 05004 67403 NIL=
201305041500 AAXX 04154 67403 NIL=
201305040900 AAXX 04094 67403 NIL=
201305040600 AAXX 04060 67403 NIL=
201305040300 AAXX 04034 67403 NIL=
201305040000 AAXX 04004 67403 NIL=
201305031800 AAXX 03184 67403 NIL=
201305031500 AAXX 03154 67403 NIL=
201305031200 AAXX 03120 67403 NIL=
201305030900 AAXX 03094 67403 NIL=
201305030000 AAXX 03004 67403 NIL=
201305021800 AAXX 02184 67403 NIL=
201305021500 AAXX 02154 67403 NIL=
201305021200 AAXX 02124 67403 NIL=
201305020900 AAXX 02094 67403 NIL=
201305020300 AAXX 02034 67403 NIL=
201305020000 AAXX 02004 67403 NIL=
201305012100 AAXX 01214 67403 NIL=
201305010900 AAXX 01094 67403 NIL=
201305010600 AAXX 01064 67403 NIL=

################################################################################
#  SYNOPS from 67413, Mbala (Zambia) | 08-51S | 031-20E | 1673 m
################################################################################
201305310600 AAXX 31064 67413 32980 20805 10185 20135 48548 80001
                   333 10280 20/// 58002 82079 91025=
201305301800 AAXX 30184 67413 NIL=
201305301500 AAXX 30154 67413 NIL=
201305301200 AAXX 30124 67413 NIL=
201305300900 AAXX 30094 67413 NIL=
201305300600 AAXX 30061 67413 NIL=
201305291800 AAXX 29184 67413 NIL=
201305290900 AAXX 29094 67413 NIL=
201305281800 AAXX 28184 67413 NIL=
201305272100 AAXX 27214 67413 NIL=
201305270600 AAXX 27064 67413 NIL=
201305260900 AAXX 26094 67413 NIL=
201305260000 AAXX 26004 67413 NIL=
201305252100 AAXX 25214 67413 NIL=
201305240900 AAXX 24094 67413 NIL=
201305240300 AAXX 24034 67413 NIL=
201305240000 AAXX 24004 67413 NIL=
201305231800 AAXX 23184 67413 NIL=
201305231500 AAXX 23154 67413 NIL=
201305220600 AAXX 22064 67413 31480 10905 10170 20142 48556 70500 81500
                   333 10265 20/// 59003 81615 91026=
201305211500 AAXX 21154 67413 NIL=
201305210900 AAXX 21094 67413 NIL=
201305210600 AAXX 21064 67413 NIL=
201305210000 AAXX 21004 67413 NIL=
201305200600 AAXX 20064 67413 32380 50413 10155 20128 48592 85600
                   333 10256 20106 59007 85709 91019=
201305190900 AAXX 19094 67413 NIL=
201305190600 AAXX 19061 67413 NIL=
201305180600 AAXX 18060 67413 NIL=
201305171200 AAXX 17121 67413 NIL=
201305170600 AAXX 17064 67413 31980 01115 10200 20134 48564 70500
                   333 10270 20/// 58009=
201305160900 AAXX 16094 67413 NIL=
201305160600 AAXX 16064 67413 NIL=
201305160000 AAXX 16004 67413 NIL=
201305152100 AAXX 15214 67413 NIL=
201305150300 AAXX 15034 67413 NIL=
201305141200 AAXX 14121 67413 NIL=
201305140900 AAXX 14094 67413 NIL=
201305140600 AAXX 14064 67413 12380 30210 10162 20132 48560 69904 83602
                   333 10250 20/// 58003 83709 81359 91027=
201305140300 AAXX 14034 67413 NIL=
201305132100 AAXX 13214 67413 NIL=
201305131800 AAXX 13184 67413 NIL=
201305130900 AAXX 13094 67413 NIL=
201305130600 AAXX 13064 67413 NIL=
201305130300 AAXX 13034 67413 NIL=
201305121500 AAXX 12154 67413 NIL=
201305110900 AAXX 11094 67413 NIL=
201305110300 AAXX 11034 67413 NIL=
201305110000 AAXX 11004 67413 NIL=
201305102100 AAXX 10214 67413 NIL=
201305101800 AAXX 10184 67413 NIL=
201305101500 AAXX 10154 67413 NIL=
201305101200 AAXX 10124 67413 NIL=
201305100900 AAXX 10094 67413 NIL=
201305100600 AAXX 10064 67413 NIL=
201305100300 AAXX 10034 67413 NIL=
201305100000 AAXX 10004 67413 NIL=
201305091500 AAXX 09154 67413 NIL=
201305090900 AAXX 09094 67413 NIL=
201305090300 AAXX 09034 67413 NIL=
201305090000 AAXX 09004 67413 NIL=
201305082100 AAXX 08214 67413 NIL=
201305081500 AAXX 08154 67413 NIL=
201305081200 AAXX 08124 67413 NIL=
201305080300 AAXX 08034 67413 NIL=
201305071500 AAXX 07154 67413 NIL=
201305070900 AAXX 07094 67413 NIL=
201305070600 AAXX 07064 67413 32480 61020 10160 20135 48560 84540
                   333 10250 20/// 58007 84610 84357=
201305070300 AAXX 07034 67413 NIL=
201305070000 AAXX 07004 67413 NIL=
201305061800 AAXX 06184 67413 NIL=
201305061500 AAXX 06154 67413 NIL=
201305060900 AAXX 06094 67413 NIL=
201305060600 AAXX 06064 67413 32478 40920 10185 20153 48552 84540
                   333 10260 20/// 58002 84610 83357=
201305060000 AAXX 06004 67413 NIL=
201305051800 AAXX 05184 67413 NIL=
201305051200 AAXX 05121 67413 NIL=
201305050900 AAXX 05094 67413 NIL=
201305050000 AAXX 05004 67413 NIL=
201305041500 AAXX 04154 67413 NIL=
201305040900 AAXX 04094 67413 NIL=
201305040600 AAXX 04060 67413 NIL=
201305040300 AAXX 04034 67413 NIL=
201305040000 AAXX 04004 67413 NIL=
201305031800 AAXX 03184 67413 NIL=
201305031500 AAXX 03154 67413 NIL=
201305031200 AAXX 03120 67413 NIL=
201305030900 AAXX 03094 67413 NIL=
201305030000 AAXX 03004 67413 NIL=
201305021800 AAXX 02184 67413 NIL=
201305021500 AAXX 02154 67413 NIL=
201305021200 AAXX 02124 67413 NIL=
201305020900 AAXX 02094 67413 NIL=
201305020300 AAXX 02034 67413 NIL=
201305020000 AAXX 02004 67413 NIL=
201305012100 AAXX 01214 67413 NIL=
201305010900 AAXX 01094 67413 NIL=
201305010600 AAXX 01064 67413 NIL=

################################################################################
#  SYNOPS from 67441, Mwinilunga (Zambia) | 11-45S | 024-26E | 1361 m
################################################################################
201305301800 AAXX 30184 67441 NIL=
201305301500 AAXX 30154 67441 NIL=
201305301200 AAXX 30124 67441 NIL=
201305300900 AAXX 30094 67441 NIL=
201305300600 AAXX 30061 67441 NIL=
201305291800 AAXX 29184 67441 NIL=
201305290900 AAXX 29094 67441 NIL=
201305281800 AAXX 28184 67441 NIL=
201305272100 AAXX 27214 67441 NIL=
201305270900 AAXX 27094 67441 42982 015// 10250 20127 48569
                   333 5////=
201305270600 AAXX 27064 67441 NIL=
201305260900 AAXX 26094 67441 NIL=
201305260000 AAXX 26004 67441 NIL=
201305252100 AAXX 25214 67441 NIL=
201305240900 AAXX 24094 67441 NIL=
201305240600 AAXX 24064 67441 32980 00000 10117 20095 48577
                   333 10275 20/// 59001
                   555 00///=
201305240300 AAXX 24034 67441 NIL=
201305240000 AAXX 24004 67441 NIL=
201305231800 AAXX 23184 67441 NIL=
201305231500 AAXX 23154 67441 NIL=
201305220600 AAXX 22064 67441 32980 100// 10145 20110 48574 81030
                   333 10270 20/// 58002 81360=
201305211500 AAXX 21154 67441 NIL=
201305210900 AAXX 21094 67441 NIL=
201305210600 AAXX 21064 67441 NIL=
201305210000 AAXX 21004 67441 NIL=
201305200600 AAXX 20064 67441 32980 60000 10150 20125 48569 81041
                   333 10295 20/// 59002 81360 85080=
201305190900 AAXX 19094 67441 NIL=
201305190600 AAXX 19061 67441 NIL=
201305180600 AAXX 18060 67441 NIL=
201305171200 AAXX 17121 67441 NIL=
201305170600 AAXX 17064 67441 32980 100// 10162 20133 48566 80001
                   333 10285 20/// 58009 81080=
201305160900 AAXX 16094 67441 NIL=
201305160600 AAXX 16064 67441 32980 00000 10155 20130 48557
                   333 10275 20/// 59010
                   555 00///=
201305160000 AAXX 16004 67441 NIL=
201305152100 AAXX 15214 67441 NIL=
201305150300 AAXX 15034 67441 NIL=
201305141200 AAXX 14121 67441 NIL=
201305140900 AAXX 14094 67441 42980 010// 10245 20106 48567
                   333 59001=
201305140600 AAXX 14064 67441 32980 000// 10165 20115 48584
                   333 10285 20/// 58002=
201305140300 AAXX 14034 67441 NIL=
201305132100 AAXX 13214 67441 NIL=
201305131800 AAXX 13184 67441 NIL=
201305131200 AAXX 13124 67441 42682 506// 10265 20139 48562 85100
                   333 5//// 85840=
201305130900 AAXX 13094 67441 42682 109// 10220 20132 48566 81101
                   333 5//// 81830 81080=
201305130600 AAXX 13064 67441 NIL=
201305130300 AAXX 13034 67441 NIL=
201305121500 AAXX 12154 67441 NIL=
201305110900 AAXX 11094 67441 NIL=
201305110300 AAXX 11034 67441 NIL=
201305110000 AAXX 11004 67441 NIL=
201305102100 AAXX 10214 67441 NIL=
201305101800 AAXX 10184 67441 NIL=
201305101500 AAXX 10154 67441 NIL=
201305101200 AAXX 10124 67441 NIL=
201305100900 AAXX 10094 67441 NIL=
201305100600 AAXX 10064 67441 32980 600// 10125 20125 48577 81035
                   333 10285 20/// 58015 81360 86280=
201305100300 AAXX 10034 67441 NIL=
201305100000 AAXX 10004 67441 NIL=
201305091500 AAXX 09154 67441 NIL=
201305090900 AAXX 09094 67441 NIL=
201305090600 AAXX 09064 67441 32980 100// 10156 20146 48/// 81030
                   333 10280 20/// 59016 81360=
201305090300 AAXX 09034 67441 NIL=
201305090000 AAXX 09004 67441 NIL=
201305082100 AAXX 08214 67441 NIL=
201305081500 AAXX 08154 67441 NIL=
201305081200 AAXX 08124 67441 42682 427// 10272 20132 48556 84100
                   333 59012 84840=
201305080600 AAXX 08064 67441 12980 00000 10145 20128 48578 60064
                   333 10276 20/// 59007=
201305080300 AAXX 08034 67441 NIL=
201305071500 AAXX 07154 67441 NIL=
201305071200 AAXX 07124 67441 42682 206// 10272 20144 48568 82131
                   333 58009 82835 81361 81080=
201305070900 AAXX 07094 67441 42682 109// 10235 20137 48554 81131
                   333 58009 81830 81361 81080=
201305070300 AAXX 07034 67441 NIL=
201305070000 AAXX 07004 67441 NIL=
201305061800 AAXX 06184 67441 NIL=
201305061500 AAXX 06154 67441 NIL=
201305061200 AAXX 06124 67441 42682 512// 10268 20150 48569 85100
                   333 5//// 85835=
201305060900 AAXX 06094 67441 NIL=
201305060600 AAXX 06064 67441 32980 110// 10165 20122 48574 80001
                   333 10285 20/// 59003 81080=
201305060000 AAXX 06004 67441 NIL=
201305051800 AAXX 05184 67441 NIL=
201305051200 AAXX 05121 67441 NIL=
201305050900 AAXX 05094 67441 NIL=
201305050000 AAXX 05004 67441 NIL=
201305041500 AAXX 04154 67441 NIL=
201305040900 AAXX 04094 67441 NIL=
201305040600 AAXX 04060 67441 NIL=
201305040300 AAXX 04034 67441 NIL=
201305040000 AAXX 04004 67441 NIL=
201305031800 AAXX 03184 67441 NIL=
201305031500 AAXX 03154 67441 NIL=
201305031200 AAXX 03124 67441 42682 512// 10256 20131 48/// 85100
                   333 59004 85835=
201305030900 AAXX 03094 67441 NIL=
201305030000 AAXX 03004 67441 NIL=
201305021800 AAXX 02184 67441 NIL=
201305021500 AAXX 02154 67441 NIL=
201305021200 AAXX 02124 67441 NIL=
201305020900 AAXX 02094 67441 42682 109// 10236 20113 48569 81100
                   333 5//// 81830=
201305020300 AAXX 02034 67441 NIL=
201305020000 AAXX 02004 67441 NIL=
201305012100 AAXX 01214 67441 NIL=
201305010900 AAXX 01094 67441 NIL=
201305010600 AAXX 01064 67441 NIL=

################################################################################
#  SYNOPS from 67461, Mansa (Zambia) | 11-06S | 028-51E | 1382 m
################################################################################
201305301800 AAXX 30184 67461 NIL=
201305301500 AAXX 30154 67461 NIL=
201305301200 AAXX 30124 67461 NIL=
201305300900 AAXX 30094 67461 NIL=
201305300600 AAXX 30061 67461 NIL=
201305291800 AAXX 29184 67461 NIL=
201305290900 AAXX 29094 67461 NIL=
201305281800 AAXX 28184 67461 NIL=
201305272100 AAXX 27214 67461 NIL=
201305270600 AAXX 27064 67461 32980 01202 10155 20139 48527
                   333 10274 20/// 59019 91020=
201305260900 AAXX 26094 67461 NIL=
201305260000 AAXX 26004 67461 NIL=
201305252100 AAXX 25214 67461 NIL=
201305240900 AAXX 24094 67461 NIL=
201305240600 AAXX 24064 67461 32980 01004 10181 20150 48547
                   333 10284 20143 58006 91022=
201305240300 AAXX 24034 67461 NIL=
201305240000 AAXX 24004 67461 NIL=
201305231800 AAXX 23184 67461 NIL=
201305231500 AAXX 23154 67461 NIL=
201305220600 AAXX 22064 67461 NIL=
201305211500 AAXX 21154 67461 NIL=
201305210900 AAXX 21094 67461 NIL=
201305210600 AAXX 21064 67461 32980 10910 10175 20147 48532 81030
                   333 10265 20182 59002 81361
                   555 00/// 91021=
201305210000 AAXX 21004 67461 NIL=
201305200600 AAXX 20060 67461 32580 61105 10165 20145 48543 70322 81538
                   333 10269 20110 59008 81622 83363 85280=
201305190900 AAXX 19094 67461 NIL=
201305190600 AAXX 19061 67461 NIL=
201305180600 AAXX 18060 67461 NIL=
201305171200 AAXX 17121 67461 NIL=
201305170600 AAXX 17060 67461 NIL=
201305160900 AAXX 16094 67461 NIL=
201305160600 AAXX 16064 67461 32980 01104 10175 20142 48530
                   333 10275 20166 59016 91020=
201305160000 AAXX 16004 67461 NIL=
201305152100 AAXX 15214 67461 NIL=
201305150300 AAXX 15034 67461 NIL=
201305141200 AAXX 14121 67461 NIL=
201305140900 AAXX 14094 67461 NIL=
201305140300 AAXX 14034 67461 NIL=
201305132100 AAXX 13214 67461 NIL=
201305131800 AAXX 13184 67461 NIL=
201305130900 AAXX 13094 67461 NIL=
201305130600 AAXX 13064 67461 NIL=
201305130300 AAXX 13034 67461 NIL=
201305121500 AAXX 12154 67461 NIL=
201305110900 AAXX 11094 67461 NIL=
201305110300 AAXX 11034 67461 NIL=
201305110000 AAXX 11004 67461 NIL=
201305102100 AAXX 10214 67461 NIL=
201305101800 AAXX 10184 67461 NIL=
201305101500 AAXX 10154 67461 NIL=
201305101200 AAXX 10124 67461 NIL=
201305100900 AAXX 10094 67461 NIL=
201305100600 AAXX 10064 67461 NIL=
201305100300 AAXX 10034 67461 NIL=
201305100000 AAXX 10004 67461 NIL=
201305091500 AAXX 09154 67461 NIL=
201305090900 AAXX 09094 67461 NIL=
201305090300 AAXX 09034 67461 NIL=
201305090000 AAXX 09004 67461 NIL=
201305082100 AAXX 08214 67461 NIL=
201305081500 AAXX 08154 67461 NIL=
201305081200 AAXX 08124 67461 NIL=
201305080300 AAXX 08034 67461 NIL=
201305071500 AAXX 07154 67461 NIL=
201305070900 AAXX 07094 67461 NIL=
201305070300 AAXX 07034 67461 NIL=
201305070000 AAXX 07004 67461 NIL=
201305061800 AAXX 06184 67461 NIL=
201305061500 AAXX 06154 67461 NIL=
201305060900 AAXX 06094 67461 NIL=
201305060600 AAXX 06064 67461 32380 40915 10198 20170 48534 81531
                   333 10290 20135 5//// 81608 84361 82080 91022=
201305060000 AAXX 06004 67461 NIL=
201305051800 AAXX 05184 67461 NIL=
201305051200 AAXX 05121 67461 NIL=
201305050900 AAXX 05094 67461 NIL=
201305050000 AAXX 05004 67461 NIL=
201305041500 AAXX 04154 67461 NIL=
201305040900 AAXX 04094 67461 NIL=
201305040600 AAXX 04060 67461 NIL=
201305040300 AAXX 04034 67461 NIL=
201305040000 AAXX 04004 67461 NIL=
201305031800 AAXX 03184 67461 NIL=
201305031500 AAXX 03154 67461 NIL=
201305031200 AAXX 03120 67461 NIL=
201305030900 AAXX 03094 67461 NIL=
201305030000 AAXX 03004 67461 NIL=
201305021800 AAXX 02184 67461 NIL=
201305021500 AAXX 02154 67461 NIL=
201305021200 AAXX 02124 67461 NIL=
201305020900 AAXX 02094 67461 NIL=
201305020600 AAXX 02064 67461 32980 31708 10160 20131 48520 83030
                   333 10265 20112 59001 83361 555=
201305020300 AAXX 02034 67461 NIL=
201305020000 AAXX 02004 67461 NIL=
201305012100 AAXX 01214 67461 NIL=
201305010900 AAXX 01094 67461 NIL=
201305010600 AAXX 01064 67461 NIL=

################################################################################
#  SYNOPS from 67475, Kasama (Zambia) | 10-13S | 031-08E | 1382 m
################################################################################
201305301800 AAXX 30184 67475 NIL=
201305301500 AAXX 30154 67475 41970 61203 10260 20108 48523 70522 82038
                   333 58001 82360 86280=
201305301200 AAXX 30124 67475 41770 51604 10265 20116 48525 70522 85101
                   333 58004 85850 83080=
201305300900 AAXX 30094 67475 41770 31608 10245 20113 48548 70500 81101
                   333 58009 81850 83080=
201305300600 AAXX 30061 67475 31970 31004 10192 20130 48542 70500 80001
                   333 10278 20117 58006 83080
                   555 00/// 91022=
201305291800 AAXX 29184 67475 NIL=
201305290900 AAXX 29094 67475 41770 21610 10250 20122 48540 70500 82100
                   333 58002 82850=
201305281800 AAXX 28184 67475 NIL=
201305272100 AAXX 27214 67475 NIL=
201305270600 AAXX 27064 67475 31973 00703 10185 20126 48533 70500
                   333 10260 20112 59009
                   555 00/// 91021=
201305260900 AAXX 26094 67475 NIL=
201305260000 AAXX 26004 67475 NIL=
201305252100 AAXX 25214 67475 NIL=
201305240900 AAXX 24094 67475 NIL=
201305240300 AAXX 24034 67475 NIL=
201305240000 AAXX 24004 67475 NIL=
201305231800 AAXX 23184 67475 NIL=
201305231500 AAXX 23154 67475 NIL=
201305220600 AAXX 22064 67475 11675 50704 10175 20151 48551 60014 70522 81580
                   333 10267 20136 58002 81610 85360
                   555 00/// 91024=
201305211500 AAXX 21154 67475 NIL=
201305210900 AAXX 21094 67475 41675 31206 10242 20140 48549 70511 83130
                   333 59004 83840 82361=
201305210600 AAXX 21064 67475 31975 70404 10160 20135 48549 70522 8707/
                   333 10250 20122 59002 87360
                   555 00/// QNH 1023.9=
201305210000 AAXX 21004 67475 NIL=
201305200600 AAXX 20060 67475 31475 51206 10170 20135 48552 70522 85500
                   333 10267 20107 5//// 85612 555=
201305190900 AAXX 19094 67475 NIL=
201305190600 AAXX 19061 67475 NIL=
201305180600 AAXX 18060 67475 NIL=
201305171200 AAXX 17121 67475 NIL=
201305170600 AAXX 17060 67475 31973 30603 10180 20156 48550 70500 80001
                   333 10276 20123 58012 83080
                   555 00/// 91023=
201305160900 AAXX 16094 67475 41673 20306 10238 20136 48540 70500 82100
                   333 59010 82835=
201305160600 AAXX 16064 67475 31973 00603 10171 20139 48538 70500
                   333 10268 20112 59012
                   555 00/// 91022=
201305160000 AAXX 16004 67475 NIL=
201305152100 AAXX 15214 67475 NIL=
201305150300 AAXX 15034 67475 NIL=
201305141200 AAXX 14121 67475 NIL=
201305140900 AAXX 14094 67475 NIL=
201305140300 AAXX 14034 67475 NIL=
201305132100 AAXX 13214 67475 NIL=
201305131800 AAXX 13184 67475 NIL=
201305130900 AAXX 13094 67475 NIL=
201305130600 AAXX 13064 67475 NIL=
201305130300 AAXX 13034 67475 NIL=
201305121500 AAXX 12154 67475 NIL=
201305110900 AAXX 11094 67475 NIL=
201305110300 AAXX 11034 67475 NIL=
201305110000 AAXX 11004 67475 NIL=
201305102100 AAXX 10214 67475 NIL=
201305101800 AAXX 10184 67475 NIL=
201305101500 AAXX 10154 67475 NIL=
201305101200 AAXX 10124 67475 41775 40904 10287 20112 48532 70522 82101
                   333 58006 84080 91021=
201305100900 AAXX 10094 67475 41975 21606 10255 20139 48557 70500 80001
                   333 58007 82080=
201305100600 AAXX 10064 67475 31975 00203 10188 20133 48555 70500
                   333 10283 20115 58008
                   555 00/// 91024=
201305100300 AAXX 10034 67475 NIL=
201305100000 AAXX 10004 67475 NIL=
201305091500 AAXX 09154 67475 41975 00902 10265 20110 48515 70500
                   333 59008 555 10283 91019=
201305090900 AAXX 09094 67475 41975 01303 10245 20112 48549 70500
                   333 59010=
201305090300 AAXX 09034 67475 NIL=
201305090000 AAXX 09004 67475 NIL=
201305082100 AAXX 08214 67475 NIL=
201305081500 AAXX 08154 67475 NIL=
201305081200 AAXX 08124 67475 41775 50806 10252 20118 48/// 70522 85100
                   333 5//// 85850=
201305080300 AAXX 08034 67475 NIL=
201305071500 AAXX 07154 67475 NIL=
201305070900 AAXX 07094 67475 41675 61607 10207 20134 48570 70522 86500
                   333 58015 86630=
201305070300 AAXX 07034 67475 NIL=
201305070000 AAXX 07004 67475 NIL=
201305061800 AAXX 06184 67475 NIL=
201305061500 AAXX 06154 67475 NIL=
201305060900 AAXX 06094 67475 42678 61008 10245 20158 48557 85201
                   333 5//// 85835 86080=
201305060000 AAXX 06004 67475 NIL=
201305051800 AAXX 05184 67475 NIL=
201305051200 AAXX 05121 67475 NIL=
201305050900 AAXX 05094 67475 NIL=
201305050000 AAXX 05004 67475 NIL=
201305041500 AAXX 04154 67475 NIL=
201305040900 AAXX 04094 67475 NIL=
201305040600 AAXX 04060 67475 32978 50904 10178 20148 48541 85030
                   333 10263 20127 59004 85360
                   555 00///=
201305040300 AAXX 04034 67475 NIL=
201305040000 AAXX 04004 67475 NIL=
201305031800 AAXX 03184 67475 NIL=
201305031500 AAXX 03154 67475 NIL=
201305031200 AAXX 03120 67475 42778 60804 10245 20140 48516 86500
                   333 5//// 86650 91020=
201305030900 AAXX 03094 67475 42678 51604 10217 20141 48540 85500
                   333 5//// 85630=
201305030000 AAXX 03004 67475 NIL=
201305021800 AAXX 02184 67475 NIL=
201305021500 AAXX 02154 67475 NIL=
201305021200 AAXX 02124 67475 42680 71010 10230 20132 48/// 875//
                   333 5//// 87645=
201305020900 AAXX 02094 67475 42680 51607 10220 20129 48/// 85200
                   333 5//// 85830=
201305020300 AAXX 02034 67475 NIL=
201305020000 AAXX 02004 67475 NIL=
201305012100 AAXX 01214 67475 NIL=
201305010900 AAXX 01094 67475 NIL=
201305010600 AAXX 01064 67475 32478 61214 10177 20122 48556 82501
                   333 10261 20144 58009 82610 86080
                   555 00/// 91024=

################################################################################
#  SYNOPS from 67476, Misamfu (Zambia) | 10-06S | 031-15E | 1536 m
################################################################################
201305301800 AAXX 30184 67476 NIL=
201305301500 AAXX 30154 67476 NIL=
201305301200 AAXX 30124 67476 NIL=
201305300900 AAXX 30094 67476 NIL=
201305300600 AAXX 30064 67476 31978 01202 10171 20136 48/// 70500
                   333 10280 20088 5////
                   555 00///=
201305291800 AAXX 29184 67476 NIL=
201305290900 AAXX 29094 67476 NIL=
201305281800 AAXX 28184 67476 NIL=
201305272100 AAXX 27214 67476 NIL=
201305270600 AAXX 27064 67476 NIL=
201305260900 AAXX 26094 67476 NIL=
201305260000 AAXX 26004 67476 NIL=
201305252100 AAXX 25214 67476 NIL=
201305240900 AAXX 24094 67476 NIL=
201305240300 AAXX 24034 67476 NIL=
201305240000 AAXX 24004 67476 NIL=
201305231800 AAXX 23184 67476 NIL=
201305231500 AAXX 23154 67476 NIL=
201305220600 AAXX 22064 67476 NIL=
201305211500 AAXX 21154 67476 NIL=
201305210900 AAXX 21094 67476 NIL=
201305210600 AAXX 21064 67476 31977 30903 10175 20142 48/// 70540 83030
                   333 10264 20086 5//// 83359=
201305210000 AAXX 21004 67476 NIL=
201305200600 AAXX 20060 67476 NIL=
201305190900 AAXX 19094 67476 NIL=
201305190600 AAXX 19061 67476 NIL=
201305180600 AAXX 18060 67476 NIL=
201305171200 AAXX 17121 67476 NIL=
201305170600 AAXX 17064 67476 31976 00903 10189 20157 48/// 70500
                   333 10278 20131 5////
                   555 00/// 20000=
201305160900 AAXX 16094 67476 NIL=
201305160600 AAXX 16064 67476 NIL=
201305160000 AAXX 16004 67476 NIL=
201305152100 AAXX 15214 67476 NIL=
201305150300 AAXX 15034 67476 NIL=
201305141200 AAXX 14121 67476 NIL=
201305140900 AAXX 14094 67476 NIL=
201305140300 AAXX 14034 67476 NIL=
201305132100 AAXX 13214 67476 NIL=
201305131800 AAXX 13184 67476 NIL=
201305130900 AAXX 13094 67476 NIL=
201305130600 AAXX 13064 67476 NIL=
201305130300 AAXX 13034 67476 NIL=
201305121500 AAXX 12154 67476 NIL=
201305110900 AAXX 11094 67476 NIL=
201305110300 AAXX 11034 67476 NIL=
201305110000 AAXX 11004 67476 NIL=
201305102100 AAXX 10214 67476 NIL=
201305101800 AAXX 10184 67476 NIL=
201305101500 AAXX 10154 67476 NIL=
201305101200 AAXX 10124 67476 NIL=
201305100900 AAXX 10094 67476 NIL=
201305100600 AAXX 10064 67476 NIL=
201305100300 AAXX 10034 67476 NIL=
201305100000 AAXX 10004 67476 NIL=
201305091500 AAXX 09154 67476 NIL=
201305090900 AAXX 09094 67476 NIL=
201305090300 AAXX 09034 67476 NIL=
201305090000 AAXX 09004 67476 NIL=
201305082100 AAXX 08214 67476 NIL=
201305081500 AAXX 08154 67476 NIL=
201305081200 AAXX 08124 67476 NIL=
201305080300 AAXX 08034 67476 NIL=
201305071500 AAXX 07154 67476 NIL=
201305070900 AAXX 07094 67476 NIL=
201305070300 AAXX 07034 67476 NIL=
201305070000 AAXX 07004 67476 NIL=
201305061800 AAXX 06184 67476 NIL=
201305061500 AAXX 06154 67476 NIL=
201305060900 AAXX 06094 67476 NIL=
201305060000 AAXX 06004 67476 NIL=
201305051800 AAXX 05184 67476 NIL=
201305051200 AAXX 05121 67476 NIL=
201305050900 AAXX 05094 67476 NIL=
201305050000 AAXX 05004 67476 NIL=
201305041500 AAXX 04154 67476 NIL=
201305040900 AAXX 04094 67476 NIL=
201305040600 AAXX 04060 67476 NIL=
201305040300 AAXX 04034 67476 NIL=
201305040000 AAXX 04004 67476 NIL=
201305031800 AAXX 03184 67476 NIL=
201305031500 AAXX 03154 67476 NIL=
201305031200 AAXX 03120 67476 NIL=
201305030900 AAXX 03094 67476 NIL=
201305030600 AAXX 03064 67476 31580 21203 10185 20156 48/// 70500 82500
                   333 10291 20126 5//// 82620
                   555 00///=
201305030000 AAXX 03004 67476 NIL=
201305021800 AAXX 02184 67476 NIL=
201305021500 AAXX 02154 67476 NIL=
201305021200 AAXX 02124 67476 NIL=
201305020900 AAXX 02094 67476 NIL=
201305020300 AAXX 02034 67476 NIL=
201305020000 AAXX 02004 67476 NIL=
201305012100 AAXX 01214 67476 NIL=
201305010900 AAXX 01094 67476 NIL=
201305010600 AAXX 01064 67476 NIL=

################################################################################
#  SYNOPS from 67477, Mpika (Zambia) | 11-54S | 031-26E | 1400 m
################################################################################
201305301800 AAXX 30184 67477 NIL=
201305301500 AAXX 30154 67477 NIL=
201305301200 AAXX 30124 67477 NIL=
201305300900 AAXX 30094 67477 NIL=
201305300600 AAXX 30064 67477 32980 21406 10192 20120 48546 80001
                   333 10255 20110 58007 82080
                   555 00///=
201305291800 AAXX 29184 67477 NIL=
201305290900 AAXX 29094 67477 NIL=
201305290600 AAXX 29064 67477 32980 01206 10180 20110 48539
                   333 10269 20126 58000=
201305281800 AAXX 28184 67477 NIL=
201305280600 AAXX 28064 67477 32980 01106 10210 20122 48540
                   333 10253 20125 58000=
201305272100 AAXX 27214 67477 NIL=
201305270600 AAXX 27064 67477 32980 00907 10195 20107 48539
                   333 10240 20115 59007=
201305260900 AAXX 26094 67477 NIL=
201305260000 AAXX 26004 67477 NIL=
201305252100 AAXX 25214 67477 NIL=
201305240900 AAXX 24094 67477 NIL=
201305240600 AAXX 24064 67477 32480 11111 10180 20138 48551 81500
                   333 10250 20136 58006 81612=
201305240300 AAXX 24034 67477 NIL=
201305240000 AAXX 24004 67477 NIL=
201305231800 AAXX 23184 67477 NIL=
201305231500 AAXX 23154 67477 NIL=
201305230600 AAXX 23064 67477 32480 11207 10195 20141 48545 81500
                   333 10245 20/// 59008 81612=
201305220600 AAXX 22064 67477 12480 20908 10183 20136 48553 69904 81130
                   333 10237 20130 58007 81814 81360
                   555 00///=
201305211500 AAXX 21154 67477 NIL=
201305210900 AAXX 21094 67477 NIL=
201305210600 AAXX 21064 67477 32480 61206 10173 20135 48545 84530
                   333 10230 20135 59006 84610 85360=
201305210000 AAXX 21004 67477 NIL=
201305200600 AAXX 20060 67477 NIL=
201305190900 AAXX 19094 67477 NIL=
201305190600 AAXX 19061 67477 NIL=
201305180600 AAXX 18060 67477 NIL=
201305171200 AAXX 17121 67477 NIL=
201305170600 AAXX 17064 67477 32480 10910 10191 20142 48540 81501
                   333 10255 20150 58008 81614 81080=
201305160900 AAXX 16094 67477 NIL=
201305160600 AAXX 16064 67477 NIL=
201305160000 AAXX 16004 67477 NIL=
201305152100 AAXX 15214 67477 NIL=
201305150300 AAXX 15034 67477 NIL=
201305141200 AAXX 14121 67477 NIL=
201305140900 AAXX 14094 67477 NIL=
201305140300 AAXX 14034 67477 NIL=
201305132100 AAXX 13214 67477 NIL=
201305131800 AAXX 13184 67477 NIL=
201305130900 AAXX 13094 67477 NIL=
201305130600 AAXX 13064 67477 NIL=
201305130300 AAXX 13034 67477 NIL=
201305121500 AAXX 12154 67477 NIL=
201305110900 AAXX 11094 67477 NIL=
201305110300 AAXX 11034 67477 NIL=
201305110000 AAXX 11004 67477 NIL=
201305102100 AAXX 10214 67477 NIL=
201305101800 AAXX 10184 67477 NIL=
201305101500 AAXX 10154 67477 NIL=
201305101200 AAXX 10124 67477 NIL=
201305100900 AAXX 10094 67477 NIL=
201305100600 AAXX 10064 67477 NIL=
201305100300 AAXX 10034 67477 NIL=
201305100000 AAXX 10004 67477 NIL=
201305091500 AAXX 09154 67477 NIL=
201305090900 AAXX 09094 67477 NIL=
201305090300 AAXX 09034 67477 NIL=
201305090000 AAXX 09004 67477 NIL=
201305082100 AAXX 08214 67477 NIL=
201305081500 AAXX 08154 67477 NIL=
201305081200 AAXX 08124 67477 NIL=
201305080300 AAXX 08034 67477 NIL=
201305071500 AAXX 07154 67477 NIL=
201305070900 AAXX 07094 67477 NIL=
201305070300 AAXX 07034 67477 NIL=
201305070000 AAXX 07004 67477 NIL=
201305061800 AAXX 06184 67477 NIL=
201305061500 AAXX 06154 67477 NIL=
201305060900 AAXX 06094 67477 NIL=
201305060600 AAXX 06064 67477 11480 71224 10171 20136 48561 69904 72052 875//
                   333 10252 20168 58010 87611
                   555 00///=
201305060000 AAXX 06004 67477 NIL=
201305051800 AAXX 05184 67477 NIL=
201305051200 AAXX 05121 67477 NIL=
201305050900 AAXX 05094 67477 NIL=
201305050000 AAXX 05004 67477 NIL=
201305041500 AAXX 04154 67477 NIL=
201305040900 AAXX 04094 67477 NIL=
201305040600 AAXX 04060 67477 NIL=
201305040300 AAXX 04034 67477 NIL=
201305040000 AAXX 04004 67477 NIL=
201305031800 AAXX 03184 67477 NIL=
201305031500 AAXX 03154 67477 NIL=
201305031200 AAXX 03120 67477 NIL=
201305030900 AAXX 03094 67477 NIL=
201305030000 AAXX 03004 67477 NIL=
201305021800 AAXX 02184 67477 NIL=
201305021500 AAXX 02154 67477 NIL=
201305021200 AAXX 02124 67477 NIL=
201305020900 AAXX 02094 67477 NIL=
201305020300 AAXX 02034 67477 NIL=
201305020000 AAXX 02004 67477 NIL=
201305012100 AAXX 01214 67477 NIL=
201305010900 AAXX 01094 67477 NIL=
201305010600 AAXX 01064 67477 NIL=

################################################################################
#  SYNOPS from 67481, Isoka (Zambia) | 10-07S | 032-38E | 1360 m
################################################################################
201305310600 AAXX 31064 67481 31975 10401 10209 20153 70500 80001
                   333 10280 20095 5//// 81080
                   555 00107=
201305301800 AAXX 30184 67481 NIL=
201305301500 AAXX 30154 67481 NIL=
201305301200 AAXX 30124 67481 NIL=
201305300900 AAXX 30094 67481 NIL=
201305300600 AAXX 30064 67481 31975 20204 10210 20135 48/// 70500 80001
                   333 10275 20081 58000 82080
                   555 00101=
201305291800 AAXX 29184 67481 NIL=
201305290900 AAXX 29094 67481 NIL=
201305290600 AAXX 29064 67481 31975 11702 10206 20148 70500 81030
                   333 10280 20074 5////=
201305281800 AAXX 28184 67481 NIL=
201305280600 AAXX 28064 67481 31975 00304 10206 20162 48/// 70500
                   333 10275 20090 5////=
201305272100 AAXX 27214 67481 NIL=
201305270600 AAXX 27064 67481 31475 10303 10196 20150 70500 81100
                   333 10260 20150 5//// 81816
                   555 00116=
201305260900 AAXX 26094 67481 NIL=
201305260000 AAXX 26004 67481 NIL=
201305252100 AAXX 25214 67481 NIL=
201305240900 AAXX 24094 67481 NIL=
201305240600 AAXX 24064 67481 31475 31703 10198 20150 70510 81131
                   333 10270 20124 5//// 81818 83361 81080
                   555 00138=
201305240300 AAXX 24034 67481 NIL=
201305240000 AAXX 24004 67481 NIL=
201305231800 AAXX 23184 67481 NIL=
201305231500 AAXX 23154 67481 NIL=
201305220600 AAXX 22064 67481 32480 10302 10190 20149 81100
                   333 10265 20101 5//// 81818
                   555 00125=
201305211500 AAXX 21154 67481 NIL=
201305210900 AAXX 21094 67481 NIL=
201305210600 AAXX 21064 67481 32980 10402 10197 20142 81081
                   333 10255 20105 5//// 81361 81080
                   555 00113=
201305210000 AAXX 21004 67481 NIL=
201305200600 AAXX 20060 67481 NIL=
201305190900 AAXX 19094 67481 NIL=
201305190600 AAXX 19061 67481 NIL=
201305180600 AAXX 18060 67481 NIL=
201305171200 AAXX 17121 67481 NIL=
201305170600 AAXX 17064 67481 32580 13602 10204 20155 48/// 81100
                   333 10280 20096 5//// 81820=
201305160900 AAXX 16094 67481 NIL=
201305160600 AAXX 16064 67481 NIL=
201305160000 AAXX 16004 67481 NIL=
201305152100 AAXX 15214 67481 NIL=
201305150300 AAXX 15034 67481 NIL=
201305141200 AAXX 14121 67481 NIL=
201305140900 AAXX 14094 67481 NIL=
201305140300 AAXX 14034 67481 NIL=
201305132100 AAXX 13214 67481 NIL=
201305131800 AAXX 13184 67481 NIL=
201305130900 AAXX 13094 67481 NIL=
201305130600 AAXX 13064 67481 NIL=
201305130300 AAXX 13034 67481 NIL=
201305121500 AAXX 12154 67481 NIL=
201305110900 AAXX 11094 67481 NIL=
201305110300 AAXX 11034 67481 NIL=
201305110000 AAXX 11004 67481 NIL=
201305102100 AAXX 10214 67481 NIL=
201305101800 AAXX 10184 67481 NIL=
201305101500 AAXX 10154 67481 NIL=
201305101200 AAXX 10124 67481 NIL=
201305100900 AAXX 10094 67481 NIL=
201305100600 AAXX 10064 67481 32980 10402 10210 20126 80001
                   333 10278 20096 5//// 81080
                   555 00114=
201305100300 AAXX 10034 67481 NIL=
201305100000 AAXX 10004 67481 NIL=
201305091500 AAXX 09154 67481 NIL=
201305091200 AAXX 09124 67481 42780 10302 10269 20114 81100
                   333 5//// 81856=
201305090900 AAXX 09094 67481 42580 13602 10230 20134 81100
                   333 5//// 81826=
201305090600 AAXX 09064 67481 32480 10502 10178 20151 81100
                   333 10244 20085 5//// 81812
                   555 00106=
201305090300 AAXX 09034 67481 NIL=
201305090000 AAXX 09004 67481 NIL=
201305082100 AAXX 08214 67481 NIL=
201305081500 AAXX 08154 67481 NIL=
201305081200 AAXX 08124 67481 NIL=
201305080300 AAXX 08034 67481 NIL=
201305071500 AAXX 07154 67481 NIL=
201305070900 AAXX 07094 67481 NIL=
201305070300 AAXX 07034 67481 NIL=
201305070000 AAXX 07004 67481 NIL=
201305061800 AAXX 06184 67481 NIL=
201305061500 AAXX 06154 67481 NIL=
201305060900 AAXX 06094 67481 NIL=
201305060600 AAXX 06064 67481 32480 62712 10190 20166 81572
                   333 10276 20115 5//// 81611 86360 81080
                   555 00121=
201305060000 AAXX 06004 67481 NIL=
201305051800 AAXX 05184 67481 NIL=
201305051200 AAXX 05121 67481 NIL=
201305050900 AAXX 05094 67481 NIL=
201305050000 AAXX 05004 67481 NIL=
201305041500 AAXX 04154 67481 NIL=
201305040900 AAXX 04094 67481 NIL=
201305040600 AAXX 04060 67481 NIL=
201305040300 AAXX 04034 67481 NIL=
201305040000 AAXX 04004 67481 NIL=
201305031800 AAXX 03184 67481 NIL=
201305031500 AAXX 03154 67481 NIL=
201305031200 AAXX 03120 67481 NIL=
201305030900 AAXX 03094 67481 NIL=
201305030000 AAXX 03004 67481 NIL=
201305021800 AAXX 02184 67481 NIL=
201305021500 AAXX 02154 67481 NIL=
201305021200 AAXX 02124 67481 NIL=
201305020900 AAXX 02094 67481 NIL=
201305020300 AAXX 02034 67481 NIL=
201305020000 AAXX 02004 67481 NIL=
201305012100 AAXX 01214 67481 NIL=
201305010900 AAXX 01094 67481 NIL=
201305010600 AAXX 01064 67481 NIL=

################################################################################
#  SYNOPS from 67531, Zambezi (Zambia) | 13-32S | 023-07E | 1077 m
################################################################################
201305310600 AAXX 31064 67531 31960 11104 10151 20109 48/// 70500 80001
                   333 10301 20071 58001 81082=
201305301800 AAXX 30184 67531 NIL=
201305301500 AAXX 30154 67531 NIL=
201305301200 AAXX 30124 67531 NIL=
201305300900 AAXX 30094 67531 NIL=
201305300600 AAXX 30064 67531 31950 10901 10151 20109 48/// 70500 80001
                   333 10301 20085 58007 81082
                   555 00071=
201305291800 AAXX 29184 67531 NIL=
201305291200 AAXX 29124 67531 41965 02402 10290 20099 48/// 70500
                   333 58005=
201305290900 AAXX 29094 67531 41960 00904 10256 20103 48/// 70500
                   333 59002=
201305290600 AAXX 29064 67531 31960 01002 10136 20094 48/// 70500
                   333 10294 20065 59003=
201305281800 AAXX 28184 67531 NIL=
201305280600 AAXX 28064 67531 31960 00802 10151 20095 48/// 70500
                   333 10280 20065 59006=
201305272100 AAXX 27214 67531 NIL=
201305270900 AAXX 27094 67531 41970 01307 10245 20100 48/// 70500
                   333 5////=
201305270600 AAXX 27064 67531 31965 01102 10136 20078 48/// 70500
                   333 10270 20053 5////
                   555 00///=
201305260900 AAXX 26094 67531 NIL=
201305260000 AAXX 26004 67531 NIL=
201305252100 AAXX 25214 67531 NIL=
201305240900 AAXX 24094 67531 NIL=
201305240600 AAXX 24064 67531 32980 01205 10180 20110 48///
                   333 10291 20071 5////
                   555 00///=
201305240300 AAXX 24034 67531 NIL=
201305240000 AAXX 24004 67531 NIL=
201305231800 AAXX 23184 67531 NIL=
201305231500 AAXX 23154 67531 NIL=
201305230600 AAXX 23064 67531 32980 11204 10175 20114 48/// 80001
                   333 10283 20116 5//// 81082=
201305220600 AAXX 22064 67531 32980 01204 10152 20115 48///
                   333 10286 20083 5////
                   555 00082=
201305211500 AAXX 21154 67531 NIL=
201305211200 AAXX 21124 67531 42880 21806 10276 20102 48/// 82100
                   333 58003 82857=
201305210900 AAXX 21094 67531 NIL=
201305210600 AAXX 21064 67531 32980 10907 10160 20127 48/// 81030
                   333 10290 20095 5//// 81362=
201305210000 AAXX 21004 67531 NIL=
201305200600 AAXX 20064 67531 32980 51105 10176 20134 48/// 80008
                   333 10296 20126 59011 85282=
201305190900 AAXX 19094 67531 NIL=
201305190600 AAXX 19061 67531 NIL=
201305180600 AAXX 18060 67531 NIL=
201305171200 AAXX 17121 67531 NIL=
201305170600 AAXX 17064 67531 32980 11003 10171 20132 48/// 81030
                   333 10300 20110 58011 81362=
201305160900 AAXX 16094 67531 NIL=
201305160600 AAXX 16064 67531 32980 11301 10153 20118 48/// 81030
                   333 10285 20085 59012 81362
                   555 00089=
201305160000 AAXX 16004 67531 NIL=
201305152100 AAXX 15214 67531 NIL=
201305150300 AAXX 15034 67531 NIL=
201305141200 AAXX 14121 67531 NIL=
201305140900 AAXX 14094 67531 42980 01007 10259 20117 48///
                   333 58004=
201305140600 AAXX 14064 67531 32980 01008 10170 20108 48///
                   333 10300 20110 58001=
201305140300 AAXX 14034 67531 NIL=
201305132100 AAXX 13214 67531 NIL=
201305131800 AAXX 13184 67531 NIL=
201305130900 AAXX 13094 67531 42980 00908 10272 20114 48///
                   333 5////=
201305130600 AAXX 13064 67531 NIL=
201305130300 AAXX 13034 67531 NIL=
201305121500 AAXX 12154 67531 NIL=
201305110900 AAXX 11094 67531 NIL=
201305110300 AAXX 11034 67531 NIL=
201305110000 AAXX 11004 67531 NIL=
201305102100 AAXX 10214 67531 NIL=
201305101800 AAXX 10184 67531 NIL=
201305101500 AAXX 10154 67531 NIL=
201305101200 AAXX 10124 67531 NIL=
201305100900 AAXX 10094 67531 NIL=
201305100600 AAXX 10064 67531 NIL=
201305100300 AAXX 10034 67531 NIL=
201305100000 AAXX 10004 67531 NIL=
201305091500 AAXX 09154 67531 NIL=
201305090900 AAXX 09094 67531 NIL=
201305090600 AAXX 09064 67531 32980 10000 10185 20130 48/// 81030
                   333 10295 20110 59007 81362=
201305090300 AAXX 09034 67531 NIL=
201305090000 AAXX 09004 67531 NIL=
201305082100 AAXX 08214 67531 NIL=
201305081500 AAXX 08154 67531 NIL=
201305081200 AAXX 08124 67531 42780 10301 10289 20139 48/// 81100
                   333 59018 81856=
201305080600 AAXX 08064 67531 32980 11207 10182 20114 48/// 81030
                   333 10286 20132 59009 81362=
201305080300 AAXX 08034 67531 NIL=
201305071500 AAXX 07154 67531 NIL=
201305071200 AAXX 07124 67531 42980 11506 10276 20145 48/// 80001
                   333 58012 81080=
201305070900 AAXX 07094 67531 42980 01007 10249 20126 48///
                   333 58007=
201305070300 AAXX 07034 67531 NIL=
201305070000 AAXX 07004 67531 NIL=
201305061800 AAXX 06184 67531 NIL=
201305061500 AAXX 06154 67531 NIL=
201305060900 AAXX 06094 67531 42980 10905 10272 20144 48/// 81030
                   333 5//// 81362=
201305060600 AAXX 06064 67531 32980 11105 10162 20097 48/// 81030
                   333 10295 20112 58002 81362=
201305060000 AAXX 06004 67531 NIL=
201305051800 AAXX 05184 67531 NIL=
201305051200 AAXX 05121 67531 NIL=
201305050900 AAXX 05094 67531 NIL=
201305050000 AAXX 05004 67531 NIL=
201305041500 AAXX 04154 67531 NIL=
201305040900 AAXX 04094 67531 NIL=
201305040600 AAXX 04060 67531 NIL=
201305040300 AAXX 04034 67531 NIL=
201305040000 AAXX 04004 67531 NIL=
201305031800 AAXX 03184 67531 NIL=
201305031500 AAXX 03154 67531 NIL=
201305031200 AAXX 03120 67531 NIL=
201305030900 AAXX 03094 67531 42780 11207 10247 20113 48/// 81100
                   333 5//// 81850=
201305030600 AAXX 03064 67531 32980 01008 10179 20122 48///
                   333 10282 20110 59004=
201305030000 AAXX 03004 67531 NIL=
201305021800 AAXX 02184 67531 NIL=
201305021500 AAXX 02154 67531 NIL=
201305021200 AAXX 02124 67531 NIL=
201305020900 AAXX 02094 67531 NIL=
201305020300 AAXX 02034 67531 NIL=
201305020000 AAXX 02004 67531 NIL=
201305012100 AAXX 01214 67531 NIL=
201305010900 AAXX 01094 67531 NIL=
201305010600 AAXX 01064 67531 NIL=

################################################################################
#  SYNOPS from 67541, Kasempa (Zambia) | 13-32S | 025-51E | 1234 m
################################################################################
201305310600 AAXX 31064 67541 31960 00000 10145 20109 48534 70500
                   333 10/// 20055 58007=
201305301800 AAXX 30184 67541 NIL=
201305301500 AAXX 30154 67541 NIL=
201305301200 AAXX 30124 67541 NIL=
201305300900 AAXX 30094 67541 NIL=
201305300600 AAXX 30061 67541 31960 00000 10110 20089 48527 70500
                   333 10//0 20049 58002=
201305291800 AAXX 29184 67541 NIL=
201305290900 AAXX 29094 67541 41960 00000 10255 20098 48537 70500
                   333 58001=
201305281800 AAXX 28184 67541 NIL=
201305272100 AAXX 27214 67541 NIL=
201305270600 AAXX 27064 67541 31960 00000 10111 20088 48531 70500
                   333 10//0 20038 59016=
201305260900 AAXX 26094 67541 NIL=
201305260000 AAXX 26004 67541 NIL=
201305252100 AAXX 25214 67541 NIL=
201305240900 AAXX 24094 67541 NIL=
201305240300 AAXX 24034 67541 NIL=
201305240000 AAXX 24004 67541 NIL=
201305231800 AAXX 23184 67541 NIL=
201305231500 AAXX 23154 67541 NIL=
201305220600 AAXX 22064 67541 31960 00000 10148 20122 48540 70500
                   333 10/// 20062 58007=
201305211500 AAXX 21154 67541 NIL=
201305210900 AAXX 21094 67541 NIL=
201305210600 AAXX 21064 67541 31960 00000 10144 20119 48533 70500
                   333 10/// 20068 59009=
201305210000 AAXX 21004 67541 NIL=
201305200600 AAXX 20064 67541 32980 70000 10164 20135 48542 70222 87030
                   333 10/// 20137 59005 87362=
201305190900 AAXX 19094 67541 NIL=
201305190600 AAXX 19061 67541 NIL=
201305180600 AAXX 18064 67541 32980 10000 10189 20143 48539 70222 81030
                   333 10/// 20091 58001 81362=
201305171200 AAXX 17121 67541 NIL=
201305170600 AAXX 17064 67541 32980 40000 10179 20143 48538 70222 84030
                   333 10/// 20114 58016 84360=
201305160900 AAXX 16094 67541 NIL=
201305160600 AAXX 16064 67541 NIL=
201305160000 AAXX 16004 67541 NIL=
201305152100 AAXX 15214 67541 NIL=
201305151200 AAXX 15124 67541 42680 10000 10264 20144 48521 70222 81100
                   333 59026 81840=
201305150300 AAXX 15034 67541 NIL=
201305141200 AAXX 14121 67541 NIL=
201305140900 AAXX 14094 67541 NIL=
201305140300 AAXX 14034 67541 NIL=
201305132100 AAXX 13214 67541 NIL=
201305131800 AAXX 13184 67541 NIL=
201305130900 AAXX 13094 67541 NIL=
201305130600 AAXX 13064 67541 NIL=
201305130300 AAXX 13034 67541 NIL=
201305121500 AAXX 12154 67541 NIL=
201305110900 AAXX 11094 67541 NIL=
201305110600 AAXX 11064 67541 32980 10000 10156 20123 48540 70222 81030
                   333 10/// 20069 5//// 81362=
201305110300 AAXX 11034 67541 NIL=
201305110000 AAXX 11004 67541 NIL=
201305102100 AAXX 10214 67541 NIL=
201305101800 AAXX 10184 67541 NIL=
201305101500 AAXX 10154 67541 NIL=
201305101200 AAXX 10124 67541 NIL=
201305100900 AAXX 10094 67541 NIL=
201305100600 AAXX 10064 67541 NIL=
201305100300 AAXX 10034 67541 NIL=
201305100000 AAXX 10004 67541 NIL=
201305091500 AAXX 09154 67541 NIL=
201305090900 AAXX 09094 67541 NIL=
201305090300 AAXX 09034 67541 NIL=
201305090000 AAXX 09004 67541 NIL=
201305082100 AAXX 08214 67541 NIL=
201305081500 AAXX 08154 67541 NIL=
201305081200 AAXX 08124 67541 41970 00000 10260 20133 48541 70500
                   333 59010=
201305080300 AAXX 08034 67541 NIL=
201305071500 AAXX 07154 67541 NIL=
201305070900 AAXX 07094 67541 NIL=
201305070600 AAXX 07064 67541 32980 10000 10165 20120 48552 70222 80001
                   333 10/// 20113 58001 81082=
201305070300 AAXX 07034 67541 NIL=
201305070000 AAXX 07004 67541 NIL=
201305061800 AAXX 06184 67541 NIL=
201305061500 AAXX 06154 67541 NIL=
201305060900 AAXX 06094 67541 42680 40803 10244 20152 48563 70222 84100
                   333 5//// 84835=
201305060000 AAXX 06004 67541 NIL=
201305051800 AAXX 05184 67541 NIL=
201305051200 AAXX 05121 67541 NIL=
201305050900 AAXX 05094 67541 NIL=
201305050000 AAXX 05004 67541 NIL=
201305041500 AAXX 04154 67541 NIL=
201305040900 AAXX 04094 67541 NIL=
201305040600 AAXX 04060 67541 NIL=
201305040300 AAXX 04034 67541 NIL=
201305040000 AAXX 04004 67541 NIL=
201305031800 AAXX 03184 67541 NIL=
201305031500 AAXX 03154 67541 NIL=
201305031200 AAXX 03120 67541 NIL=
201305030900 AAXX 03094 67541 NIL=
201305030000 AAXX 03004 67541 NIL=
201305021800 AAXX 02184 67541 NIL=
201305021500 AAXX 02154 67541 NIL=
201305021200 AAXX 02124 67541 NIL=
201305020900 AAXX 02094 67541 NIL=
201305020300 AAXX 02034 67541 NIL=
201305020000 AAXX 02004 67541 NIL=
201305012100 AAXX 01214 67541 NIL=
201305010900 AAXX 01094 67541 NIL=
201305010600 AAXX 01064 67541 NIL=

################################################################################
#  SYNOPS from 67543, Kabompo (Zambia) | 13-36S | 024-12E | 1075 m
################################################################################
201305301800 AAXX 30184 67543 NIL=
201305301500 AAXX 30154 67543 NIL=
201305301200 AAXX 30124 67543 NIL=
201305300900 AAXX 30094 67543 NIL=
201305300600 AAXX 30061 67543 NIL=
201305291800 AAXX 29184 67543 NIL=
201305290900 AAXX 29094 67543 NIL=
201305281800 AAXX 28184 67543 NIL=
201305272100 AAXX 27214 67543 NIL=
201305270600 AAXX 27064 67543 NIL=
201305260900 AAXX 26094 67543 NIL=
201305260000 AAXX 26004 67543 NIL=
201305252100 AAXX 25214 67543 NIL=
201305240900 AAXX 24094 67543 NIL=
201305240300 AAXX 24034 67543 NIL=
201305240000 AAXX 24004 67543 NIL=
201305231800 AAXX 23184 67543 NIL=
201305231500 AAXX 23154 67543 NIL=
201305220600 AAXX 22064 67543 NIL=
201305211500 AAXX 21154 67543 NIL=
201305210900 AAXX 21094 67543 NIL=
201305210600 AAXX 21061 67543 NIL=
201305210000 AAXX 21004 67543 NIL=
201305200600 AAXX 20060 67543 NIL=
201305190900 AAXX 19094 67543 NIL=
201305190600 AAXX 19061 67543 NIL=
201305180600 AAXX 18060 67543 NIL=
201305171200 AAXX 17121 67543 NIL=
201305170600 AAXX 17060 67543 NIL=
201305160900 AAXX 16094 67543 NIL=
201305160600 AAXX 16064 67543 NIL=
201305160000 AAXX 16004 67543 NIL=
201305152100 AAXX 15214 67543 NIL=
201305150300 AAXX 15034 67543 NIL=
201305141200 AAXX 14121 67543 NIL=
201305140900 AAXX 14094 67543 NIL=
201305140300 AAXX 14034 67543 NIL=
201305132100 AAXX 13214 67543 NIL=
201305131800 AAXX 13184 67543 NIL=
201305130900 AAXX 13094 67543 NIL=
201305130600 AAXX 13064 67543 NIL=
201305130300 AAXX 13034 67543 NIL=
201305121500 AAXX 12154 67543 NIL=
201305110900 AAXX 11094 67543 NIL=
201305110300 AAXX 11034 67543 NIL=
201305110000 AAXX 11004 67543 NIL=
201305102100 AAXX 10214 67543 NIL=
201305101800 AAXX 10184 67543 NIL=
201305101500 AAXX 10154 67543 NIL=
201305101200 AAXX 10124 67543 NIL=
201305100900 AAXX 10094 67543 NIL=
201305100600 AAXX 10064 67543 NIL=
201305100300 AAXX 10034 67543 NIL=
201305100000 AAXX 10004 67543 NIL=
201305091500 AAXX 09154 67543 NIL=
201305090900 AAXX 09094 67543 NIL=
201305090300 AAXX 09034 67543 NIL=
201305090000 AAXX 09004 67543 NIL=
201305082100 AAXX 08214 67543 NIL=
201305081500 AAXX 08154 67543 NIL=
201305081200 AAXX 08124 67543 NIL=
201305080300 AAXX 08034 67543 NIL=
201305071500 AAXX 07154 67543 NIL=
201305070900 AAXX 07094 67543 NIL=
201305070300 AAXX 07034 67543 NIL=
201305070000 AAXX 07004 67543 NIL=
201305061800 AAXX 06184 67543 NIL=
201305061500 AAXX 06154 67543 NIL=
201305060900 AAXX 06094 67543 NIL=
201305060000 AAXX 06004 67543 NIL=
201305051800 AAXX 05184 67543 NIL=
201305051200 AAXX 05121 67543 NIL=
201305050900 AAXX 05094 67543 NIL=
201305050000 AAXX 05004 67543 NIL=
201305041500 AAXX 04154 67543 NIL=
201305040900 AAXX 04094 67543 NIL=
201305040600 AAXX 04060 67543 NIL=
201305040300 AAXX 04034 67543 NIL=
201305040000 AAXX 04004 67543 NIL=
201305031800 AAXX 03184 67543 NIL=
201305031500 AAXX 03154 67543 NIL=
201305031200 AAXX 03120 67543 NIL=
201305030900 AAXX 03094 67543 NIL=
201305030000 AAXX 03004 67543 NIL=
201305021800 AAXX 02184 67543 NIL=
201305021500 AAXX 02154 67543 NIL=
201305021200 AAXX 02124 67543 NIL=
201305020900 AAXX 02094 67543 NIL=
201305020300 AAXX 02034 67543 NIL=
201305020000 AAXX 02004 67543 NIL=
201305012100 AAXX 01214 67543 NIL=
201305010900 AAXX 01094 67543 NIL=
201305010600 AAXX 01064 67543 NIL=

################################################################################
#  SYNOPS from 67551, Solwezi (Zambia) | 12-11S | 026-23E | 1386 m
################################################################################
201305310600 AAXX 31064 67551 31956 01303 10145 20109 48541 70500
                   333 10282 20063 58002 91022=
201305301800 AAXX 30184 67551 NIL=
201305301500 AAXX 30154 67551 NIL=
201305301200 AAXX 30124 67551 NIL=
201305300900 AAXX 30094 67551 NIL=
201305300600 AAXX 30064 67551 31956 00000 10125 20107 48537 70500
                   333 10285 20066 59002=
201305291800 AAXX 29184 67551 NIL=
201305290900 AAXX 29094 67551 NIL=
201305281800 AAXX 28184 67551 NIL=
201305280600 AAXX 28064 67551 31960 00000 10139 20101 48535 70500
                   333 10249 20065 59008=
201305272100 AAXX 27214 67551 NIL=
201305270600 AAXX 27064 67551 31956 00000 10114 20089 48541 70500
                   333 10256 20065 59010 91022=
201305260900 AAXX 26094 67551 NIL=
201305260000 AAXX 26004 67551 NIL=
201305252100 AAXX 25214 67551 NIL=
201305240900 AAXX 24094 67551 NIL=
201305240600 AAXX 24064 67551 31965 01205 10144 20119 48548 70500
                   333 10246 20174 59003 91023=
201305240300 AAXX 24034 67551 NIL=
201305240000 AAXX 24004 67551 NIL=
201305231800 AAXX 23184 67551 NIL=
201305231500 AAXX 23154 67551 NIL=
201305230600 AAXX 23064 67551 31958 20000 10144 20122 48551 70500 82030
                   333 10270 20082 58000 82362 91023=
201305220600 AAXX 22064 67551 31965 01003 10162 20134 48552 70544 80000
                   333 10250 20095 58005=
201305211500 AAXX 21154 67551 NIL=
201305210900 AAXX 21094 67551 NIL=
201305210600 AAXX 21064 67551 31965 00000 10137 20133 48545 70544
                   333 10235 20101 58000
                   555 00/// 91022=
201305210000 AAXX 21004 67551 NIL=
201305200600 AAXX 20060 67551 31970 51306 10167 20138 48568 70522 85030
                   333 10240 20135 59002 85362=
201305190900 AAXX 19094 67551 NIL=
201305190600 AAXX 19064 67551 31970 51306 10167 20138 48568 70522 85030
                   333 10240 20135 59002 85362=
201305180600 AAXX 18060 67551 NIL=
201305171200 AAXX 17121 67551 NIL=
201305170600 AAXX 17064 67551 31956 01205 10179 20133 48549 70500 80000
                   333 10276 20105 58014=
201305160900 AAXX 16094 67551 NIL=
201305160600 AAXX 16064 67551 NIL=
201305160000 AAXX 16004 67551 NIL=
201305152100 AAXX 15214 67551 NIL=
201305150300 AAXX 15034 67551 NIL=
201305141200 AAXX 14121 67551 NIL=
201305140900 AAXX 14094 67551 NIL=
201305140300 AAXX 14034 67551 NIL=
201305132100 AAXX 13214 67551 NIL=
201305131800 AAXX 13184 67551 NIL=
201305130900 AAXX 13094 67551 NIL=
201305130600 AAXX 13064 67551 NIL=
201305130300 AAXX 13034 67551 NIL=
201305121500 AAXX 12154 67551 NIL=
201305110900 AAXX 11094 67551 NIL=
201305110300 AAXX 11034 67551 NIL=
201305110000 AAXX 11004 67551 NIL=
201305102100 AAXX 10214 67551 NIL=
201305101800 AAXX 10184 67551 NIL=
201305101500 AAXX 10154 67551 NIL=
201305101200 AAXX 10124 67551 NIL=
201305100900 AAXX 10094 67551 NIL=
201305100600 AAXX 10064 67551 NIL=
201305100300 AAXX 10034 67551 NIL=
201305100000 AAXX 10004 67551 NIL=
201305091500 AAXX 09154 67551 NIL=
201305090900 AAXX 09094 67551 NIL=
201305090300 AAXX 09034 67551 NIL=
201305090000 AAXX 09004 67551 NIL=
201305082100 AAXX 08214 67551 NIL=
201305081500 AAXX 08154 67551 NIL=
201305081200 AAXX 08124 67551 NIL=
201305080300 AAXX 08034 67551 NIL=
201305071500 AAXX 07154 67551 NIL=
201305070900 AAXX 07094 67551 NIL=
201305070300 AAXX 07034 67551 NIL=
201305070000 AAXX 07004 67551 NIL=
201305061800 AAXX 06184 67551 NIL=
201305061500 AAXX 06154 67551 NIL=
201305060900 AAXX 06094 67551 NIL=
201305060600 AAXX 06064 67551 32975 11206 10173 20134 48562 80001
                   333 10276 20140 59001 81080=
201305060000 AAXX 06004 67551 NIL=
201305051800 AAXX 05184 67551 NIL=
201305051200 AAXX 05121 67551 NIL=
201305050900 AAXX 05094 67551 NIL=
201305050000 AAXX 05004 67551 NIL=
201305041500 AAXX 04154 67551 NIL=
201305040900 AAXX 04094 67551 NIL=
201305040600 AAXX 04060 67551 NIL=
201305040300 AAXX 04034 67551 NIL=
201305040000 AAXX 04004 67551 NIL=
201305031800 AAXX 03184 67551 NIL=
201305031500 AAXX 03154 67551 NIL=
201305031200 AAXX 03120 67551 NIL=
201305030900 AAXX 03094 67551 NIL=
201305030000 AAXX 03004 67551 NIL=
201305021800 AAXX 02184 67551 NIL=
201305021500 AAXX 02154 67551 NIL=
201305021200 AAXX 02124 67551 NIL=
201305020900 AAXX 02094 67551 NIL=
201305020300 AAXX 02034 67551 NIL=
201305020000 AAXX 02004 67551 NIL=
201305012100 AAXX 01214 67551 NIL=
201305010900 AAXX 01094 67551 NIL=
201305010600 AAXX 01064 67551 NIL=

################################################################################
#  SYNOPS from 67561, Ndola (Zambia) | 13-00S | 028-39E | 1269 m
################################################################################
201305301800 AAXX 30184 67561 NIL=
201305301500 AAXX 30154 67561 41975 31204 10264 20087 48529 70500 80002
                   333 58010 83080 555 10285 91020=
201305301200 AAXX 30124 67561 NIL=
201305300900 AAXX 30094 67561 NIL=
201305300600 AAXX 30064 67561 31958 00000 10166 20110 48541 70400
                   333 10291 20094 58006
                   555 00///=
201305291800 AAXX 29184 67561 NIL=
201305290900 AAXX 29094 67561 41970 00706 10255 20085 48546 70500
                   333 58004 91022=
201305281800 AAXX 28184 67561 NIL=
201305272100 AAXX 27214 67561 NIL=
201305270600 AAXX 27064 67561 31930 00000 10140 20100 48546 70440
                   333 10265 20079 59008 91022=
201305260900 AAXX 26094 67561 NIL=
201305260000 AAXX 26004 67561 NIL=
201305252100 AAXX 25214 67561 NIL=
201305240900 AAXX 24094 67561 42680 11506 10244 20113 48564 81100
                   333 58003 81835 91024=
201305240600 AAXX 24064 67561 31970 00000 10166 20132 48550 70500
                   333 10270 20100 58001 91023=
201305240300 AAXX 24034 67561 NIL=
201305240000 AAXX 24004 67561 NIL=
201305231800 AAXX 23184 67561 NIL=
201305231500 AAXX 23154 67561 NIL=
201305220600 AAXX 22064 67561 31959 10000 10147 20130 48548 70400 81030
                   333 10254 20102 58004 81360
                   555 00/// 91024=
201305211500 AAXX 21154 67561 NIL=
201305210900 AAXX 21094 67561 41560 60000 10240 20144 48554 70522 83230
                   333 59003 83830 86360
                   555 91023=
201305210600 AAXX 21064 67561 11960 60000 10150 20137 48553 60024 70522 86030
                   333 10260 20130 59003 86360
                   555 00188 91023=
201305210000 AAXX 21004 67561 NIL=
201305201200 AAXX 20124 67561 41570 50905 10260 20120 48526 70522 85232
                   333 59016 85845 84360 84080
                   555 66/// 77089 8869/ 98002 91019=
201305200600 AAXX 20064 67561 32970 70000 10153 20127 48517 70522 87030
                   333 10262 20135 59013 87360=
201305190900 AAXX 19094 67561 NIL=
201305190600 AAXX 19061 67561 NIL=
201305180600 AAXX 18060 67561 NIL=
201305171200 AAXX 17121 67561 NIL=
201305170600 AAXX 17064 67561 31960 40000 10165 20112 48547 70500 80002
                   333 10286 20110 58012 84080=
201305160900 AAXX 16094 67561 NIL=
201305160600 AAXX 16064 67561 NIL=
201305160000 AAXX 16004 67561 NIL=
201305152100 AAXX 15214 67561 NIL=
201305150300 AAXX 15034 67561 NIL=
201305141200 AAXX 14121 67561 NIL=
201305140900 AAXX 14094 67561 NIL=
201305140300 AAXX 14034 67561 NIL=
201305132100 AAXX 13214 67561 NIL=
201305131800 AAXX 13184 67561 NIL=
201305130900 AAXX 13094 67561 NIL=
201305130600 AAXX 13064 67561 NIL=
201305130300 AAXX 13034 67561 NIL=
201305121500 AAXX 12154 67561 NIL=
201305110900 AAXX 11094 67561 NIL=
201305110300 AAXX 11034 67561 NIL=
201305110000 AAXX 11004 67561 NIL=
201305102100 AAXX 10214 67561 NIL=
201305101800 AAXX 10184 67561 NIL=
201305101500 AAXX 10154 67561 NIL=
201305101200 AAXX 10124 67561 42880 70000 10278 20123 48530 86202
                   333 58007 86857 82080 91020=
201305100900 AAXX 10094 67561 NIL=
201305100600 AAXX 10064 67561 31959 30000 10152 20123 48550 70500 82032
                   333 10281 20105 58010 82360 82080 91023=
201305100300 AAXX 10034 67561 NIL=
201305100000 AAXX 10004 67561 NIL=
201305091500 AAXX 09154 67561 NIL=
201305090900 AAXX 09094 67561 41975 00306 10242 20104 48549 70500
                   333 59016 91022=
201305090600 AAXX 09064 67561 31960 00000 10146 20122 48540 70500
                   333 10276 20099 59024=
201305090300 AAXX 09034 67561 NIL=
201305090000 AAXX 09004 67561 NIL=
201305082100 AAXX 08214 67561 NIL=
201305081500 AAXX 08154 67561 NIL=
201305081200 AAXX 08124 67561 NIL=
201305080300 AAXX 08034 67561 NIL=
201305071500 AAXX 07154 67561 NIL=
201305070900 AAXX 07094 67561 41970 01008 10216 20079 48578 70500
                   333 58011 91026=
201305070600 AAXX 07064 67561 31970 01208 10156 20086 48565 70500
                   333 10255 20115 58009 91025=
201305070300 AAXX 07034 67561 NIL=
201305070000 AAXX 07004 67561 NIL=
201305061800 AAXX 06184 67561 NIL=
201305061500 AAXX 06154 67561 NIL=
201305060900 AAXX 06094 67561 42580 71010 10241 20141 48570 87200
                   333 58012 87830 91024=
201305060600 AAXX 06064 67561 32980 21004 10187 20139 48559 82030
                   333 10285 20134 58013 82360
                   555 00211 91024=
201305060000 AAXX 06004 67561 NIL=
201305051800 AAXX 05184 67561 NIL=
201305051200 AAXX 05121 67561 NIL=
201305050900 AAXX 05094 67561 NIL=
201305050000 AAXX 05004 67561 NIL=
201305041500 AAXX 04154 67561 NIL=
201305040900 AAXX 04094 67561 NIL=
201305040600 AAXX 04060 67561 NIL=
201305040300 AAXX 04034 67561 NIL=
201305040000 AAXX 04004 67561 NIL=
201305031800 AAXX 03184 67561 NIL=
201305031500 AAXX 03154 67561 NIL=
201305031200 AAXX 03120 67561 NIL=
201305030900 AAXX 03094 67561 41560 50000 10235 20118 48541 70511 84230
                   333 59001 84830 85630
                   555 91022=
201305030000 AAXX 03004 67561 NIL=
201305021800 AAXX 02184 67561 NIL=
201305021500 AAXX 02154 67561 NIL=
201305021200 AAXX 02124 67561 42680 70000 10235 20117 48530 70322 87200
                   333 59012 87850 555 66/// 77047 8867/ 98004
                   91020=
201305020900 AAXX 02094 67561 NIL=
201305020600 AAXX 02064 67561 31975 01008 10170 20115 48546 70500
                   333 10255 20102 59016
                   555 91023=
201305020300 AAXX 02034 67561 NIL=
201305020000 AAXX 02004 67561 NIL=
201305012100 AAXX 01214 67561 NIL=
201305010900 AAXX 01094 67561 42980 71306 10227 20110 48569 86032
                   333 58008 86360 83080 91025=
201305010600 AAXX 01064 67561 NIL=

################################################################################
#  SYNOPS from 67563, Kafironda (Zambia) | 12-36S | 028-07E | 1243 m
################################################################################
201305301800 AAXX 30184 67563 NIL=
201305301500 AAXX 30154 67563 NIL=
201305301200 AAXX 30124 67563 NIL=
201305300900 AAXX 30094 67563 NIL=
201305300600 AAXX 30064 67563 31970 00000 10142 20120 48/// 70500
                   333 10276 20057 58007
                   555 00054=
201305291800 AAXX 29184 67563 NIL=
201305290900 AAXX 29094 67563 NIL=
201305281800 AAXX 28184 67563 NIL=
201305280600 AAXX 28064 67563 31965 00702 10112 20090 48/// 72840
                   333 10287 20046 59006=
201305272100 AAXX 27214 67563 NIL=
201305270600 AAXX 27064 67563 31970 01602 10114 20090 48/// 70500
                   333 10270 20040 59013=
201305260900 AAXX 26094 67563 NIL=
201305260000 AAXX 26004 67563 NIL=
201305252100 AAXX 25214 67563 NIL=
201305240900 AAXX 24094 67563 NIL=
201305240600 AAXX 24064 67563 31970 11902 10150 20130 48/// 70500 80001
                   333 10278 20070 59003 81080
                   555 00070=
201305240300 AAXX 24034 67563 NIL=
201305240000 AAXX 24004 67563 NIL=
201305231800 AAXX 23184 67563 NIL=
201305231500 AAXX 23154 67563 NIL=
201305230600 AAXX 23064 67563 31970 13201 10151 20130 48/// 70500 80001
                   333 10278 20072 58000 81080=
201305220600 AAXX 22064 67563 31970 10302 10174 20140 48/// 70500 80001
                   333 10281 20081 58005 81080
                   555 00080 20002=
201305211500 AAXX 21154 67563 NIL=
201305210900 AAXX 21094 67563 NIL=
201305210600 AAXX 21064 67563 11950 60000 10152 20150 48/// 60024 72842 86070
                   333 10266 20112 58001 86359=
201305210000 AAXX 21004 67563 NIL=
201305200600 AAXX 20064 67563 11970 71002 10195 20140 48/// 69904 70520 87070
                   333 10274 20094 59011 87359=
201305190900 AAXX 19094 67563 NIL=
201305190600 AAXX 19061 67563 NIL=
201305180600 AAXX 18060 67563 NIL=
201305171200 AAXX 17121 67563 NIL=
201305170600 AAXX 17064 67563 31970 00402 10194 20160 48/// 70500
                   333 10294 20082 5////=
201305160900 AAXX 16094 67563 NIL=
201305160600 AAXX 16064 67563 NIL=
201305160000 AAXX 16004 67563 NIL=
201305152100 AAXX 15214 67563 NIL=
201305150300 AAXX 15034 67563 NIL=
201305141200 AAXX 14121 67563 NIL=
201305140900 AAXX 14094 67563 NIL=
201305140600 AAXX 14064 67563 31970 01802 10151 20120 48/// 70500
                   333 10291 20062 58009=
201305140300 AAXX 14034 67563 NIL=
201305132100 AAXX 13214 67563 NIL=
201305131800 AAXX 13184 67563 NIL=
201305131200 AAXX 13124 67563 41670 11604 10277 20130 48/// 70500 81100
                   333 5//// 81840=
201305130900 AAXX 13094 67563 NIL=
201305130600 AAXX 13064 67563 NIL=
201305130300 AAXX 13034 67563 NIL=
201305121500 AAXX 12154 67563 NIL=
201305110900 AAXX 11094 67563 NIL=
201305110300 AAXX 11034 67563 NIL=
201305110000 AAXX 11004 67563 NIL=
201305102100 AAXX 10214 67563 NIL=
201305101800 AAXX 10184 67563 NIL=
201305101500 AAXX 10154 67563 NIL=
201305101200 AAXX 10124 67563 NIL=
201305100900 AAXX 10094 67563 NIL=
201305100600 AAXX 10064 67563 NIL=
201305100300 AAXX 10034 67563 NIL=
201305100000 AAXX 10004 67563 NIL=
201305091500 AAXX 09154 67563 NIL=
201305090900 AAXX 09094 67563 41970 01202 10255 20140 48/// 70500
                   333 59015=
201305090600 AAXX 09064 67563 31970 00601 10186 20140 48/// 70500
                   333 10278 20075 59024=
201305090300 AAXX 09034 67563 NIL=
201305090000 AAXX 09004 67563 NIL=
201305082100 AAXX 08214 67563 NIL=
201305081500 AAXX 08154 67563 NIL=
201305081200 AAXX 08124 67563 NIL=
201305080600 AAXX 08064 67563 31970 01103 10167 20120 48/// 70500
                   333 10272 20059 59008=
201305080300 AAXX 08034 67563 NIL=
201305071500 AAXX 07154 67563 NIL=
201305070900 AAXX 07094 67563 NIL=
201305070300 AAXX 07034 67563 NIL=
201305070000 AAXX 07004 67563 NIL=
201305061800 AAXX 06184 67563 NIL=
201305061500 AAXX 06154 67563 NIL=
201305060900 AAXX 06094 67563 NIL=
201305060600 AAXX 06064 67563 31970 11902 10194 20150 48/// 70500 81030
                   333 10293 20104 58000 81360 55101=
201305060000 AAXX 06004 67563 NIL=
201305051800 AAXX 05184 67563 NIL=
201305051200 AAXX 05121 67563 NIL=
201305050900 AAXX 05094 67563 NIL=
201305050000 AAXX 05004 67563 NIL=
201305041500 AAXX 04154 67563 NIL=
201305040900 AAXX 04094 67563 NIL=
201305040600 AAXX 04060 67563 NIL=
201305040300 AAXX 04034 67563 NIL=
201305040000 AAXX 04004 67563 NIL=
201305031800 AAXX 03184 67563 NIL=
201305031500 AAXX 03154 67563 NIL=
201305031200 AAXX 03120 67563 NIL=
201305030900 AAXX 03094 67563 41670 31603 10230 20140 48/// 70500 83100
                   333 58002 83835=
201305030000 AAXX 03004 67563 NIL=
201305021800 AAXX 02184 67563 NIL=
201305021500 AAXX 02154 67563 NIL=
201305021200 AAXX 02124 67563 NIL=
201305020900 AAXX 02094 67563 NIL=
201305020300 AAXX 02034 67563 NIL=
201305020000 AAXX 02004 67563 NIL=
201305012100 AAXX 01214 67563 NIL=
201305010900 AAXX 01094 67563 NIL=
201305010600 AAXX 01064 67563 NIL=

################################################################################
#  SYNOPS from 67571, Serenje (Zambia) | 13-14S | 030-13E | 1384 m
################################################################################
201305310600 AAXX 31064 67571 32980 00905 10201 20109 48542 70500
                   333 10259 20029 58002
                   555 00/// 20000=
201305301800 AAXX 30184 67571 NIL=
201305301500 AAXX 30154 67571 NIL=
201305301200 AAXX 30124 67571 NIL=
201305300900 AAXX 30094 67571 42980 11203 10236 20106 48554 70500 80001
                   333 58015 81080=
201305300600 AAXX 30064 67571 32980 21202 10187 20104 48541 70500 80001
                   333 10275 20045 58008 82080
                   555 00///=
201305291800 AAXX 29184 67571 NIL=
201305290900 AAXX 29094 67571 42980 00904 10245 20111 48534 70500
                   333 58002=
201305290600 AAXX 29064 67571 32980 00904 10201 20117 48532 70500
                   333 10269 20055 58002
                   555 00/// 20000=
201305281800 AAXX 28184 67571 NIL=
201305280600 AAXX 28064 67571 32980 01203 10193 48531 70500
                   333 10264 20142 59003=
201305272100 AAXX 27214 67571 NIL=
201305270600 AAXX 27064 67571 NIL=
201305260900 AAXX 26094 67571 NIL=
201305260000 AAXX 26004 67571 NIL=
201305252100 AAXX 25214 67571 NIL=
201305240900 AAXX 24094 67571 NIL=
201305240600 AAXX 24064 67571 12979 70903 10176 20131 48550 69904 70522 86038
                   333 10256 20141 58001 86360 85280=
201305240300 AAXX 24034 67571 NIL=
201305240000 AAXX 24004 67571 NIL=
201305231800 AAXX 23184 67571 NIL=
201305231500 AAXX 23154 67571 NIL=
201305230900 AAXX 23094 67571 42680 31204 10235 20134 48554 70500 82131
                   333 58001 82832 81360 82080=
201305220600 AAXX 22064 67571 32480 10904 10187 20130 48551 70500 81100
                   333 10245 20132 58007 81818
                   555 00/// 20001=
201305211500 AAXX 21154 67571 NIL=
201305210900 AAXX 21094 67571 42682 30905 10221 20134 48553 70300 83130
                   333 59001 83834 81360=
201305210600 AAXX 21064 67571 12982 60903 10183 20131 48541 60014 70222 84031
                   333 10238 20129 59003 84360 83080
                   555 00/// 20000=
201305210000 AAXX 21004 67571 NIL=
201305200900 AAXX 20094 67571 42682 70907 10206 20122 48552 70222 84538
                   333 59012 84632 81360 87280=
201305200600 AAXX 20064 67571 32482 70903 10179 20126 48550 70222 85538
                   333 10233 20125 59017 85618 84360 87280
                   555 00/// 20990=
201305190900 AAXX 19094 67571 NIL=
201305190600 AAXX 19061 67571 NIL=
201305180600 AAXX 18060 67571 NIL=
201305171200 AAXX 17121 67571 NIL=
201305170900 AAXX 17094 67571 42582 10904 10261 20126 48555 70300 81100
                   333 58012 81824=
201305170600 AAXX 17064 67571 32980 00903 10203 20116 48552 70500
                   333 10286 20134 58013
                   555 00/// 20000=
201305160900 AAXX 16094 67571 NIL=
201305160600 AAXX 16064 67571 32980 00904 10185 20114 48531 70500
                   333 10256 20114 59015
                   555 00///=
201305160000 AAXX 16004 67571 NIL=
201305152100 AAXX 15214 67571 NIL=
201305150300 AAXX 15034 67571 NIL=
201305141200 AAXX 14121 67571 NIL=
201305140900 AAXX 14094 67571 NIL=
201305140300 AAXX 14034 67571 NIL=
201305132100 AAXX 13214 67571 NIL=
201305131800 AAXX 13184 67571 NIL=
201305130900 AAXX 13094 67571 NIL=
201305130600 AAXX 13064 67571 NIL=
201305130300 AAXX 13034 67571 NIL=
201305121500 AAXX 12154 67571 NIL=
201305110900 AAXX 11094 67571 NIL=
201305110300 AAXX 11034 67571 NIL=
201305110000 AAXX 11004 67571 NIL=
201305102100 AAXX 10214 67571 NIL=
201305101800 AAXX 10184 67571 NIL=
201305101500 AAXX 10154 67571 NIL=
201305101200 AAXX 10124 67571 NIL=
201305100900 AAXX 10094 67571 NIL=
201305100600 AAXX 10064 67571 32982 00902 10217 20114 48553
                   333 10278 20144 58013
                   555 00/// 20000=
201305100300 AAXX 10034 67571 NIL=
201305100000 AAXX 10004 67571 NIL=
201305091500 AAXX 09154 67571 NIL=
201305090900 AAXX 09094 67571 42982 01202 10237 20111 48544
                   333 59032=
201305090300 AAXX 09034 67571 NIL=
201305090000 AAXX 09004 67571 NIL=
201305082100 AAXX 08214 67571 NIL=
201305081500 AAXX 08154 67571 NIL=
201305081200 AAXX 08124 67571 42582 10903 10224 20108 48533 70300 81100
                   333 59018 81825=
201305080600 AAXX 08064 67571 32482 80904 10150 20120 48568 70222 885//
                   333 10230 20097 59001 88616
                   555 00/// 20990=
201305080300 AAXX 08034 67571 NIL=
201305071500 AAXX 07154 67571 NIL=
201305070900 AAXX 07094 67571 42982 00903 10202 20049 48571 70100
                   333 58001=
201305070600 AAXX 07064 67571 12982 11207 10145 20056 48568 69904 70200 81030
                   333 10226 20108 58004 81360
                   555 00/// 20000=
201305070300 AAXX 07034 67571 NIL=
201305070000 AAXX 07004 67571 NIL=
201305061800 AAXX 06184 67571 NIL=
201305061500 AAXX 06154 67571 NIL=
201305060900 AAXX 06094 67571 42582 20910 10202 20118 48571 70200 82500
                   333 58016 82626=
201305060600 AAXX 06064 67571 32482 20904 10183 20112 48570 70200 81130
                   333 10267 20154 58012 81817 82360
                   555 00/// 20000=
201305060000 AAXX 06004 67571 NIL=
201305051800 AAXX 05184 67571 NIL=
201305051200 AAXX 05121 67571 NIL=
201305050900 AAXX 05094 67571 NIL=
201305050000 AAXX 05004 67571 NIL=
201305041500 AAXX 04154 67571 NIL=
201305040900 AAXX 04094 67571 NIL=
201305040600 AAXX 04060 67571 NIL=
201305040300 AAXX 04034 67571 NIL=
201305040000 AAXX 04004 67571 NIL=
201305031800 AAXX 03184 67571 NIL=
201305031500 AAXX 03154 67571 NIL=
201305031200 AAXX 03120 67571 42682 50904 10237 20125 48524 70122 85100
                   333 59006 85846=
201305030900 AAXX 03094 67571 42682 50906 10214 20124 48542 70222 81530
                   333 59011 81637 85360=
201305030000 AAXX 03004 67571 NIL=
201305021800 AAXX 02184 67571 NIL=
201305021500 AAXX 02154 67571 NIL=
201305021200 AAXX 02124 67571 42682 60904 10209 20117 48532 70122 86500
                   333 59022 86638=
201305020900 AAXX 02094 67571 42682 71206 10204 20116 48552 70222 875//
                   333 59010 87631=
201305020600 AAXX 02064 67571 32482 51206 10162 20121 48549 70311 85500
                   333 10227 20127 59016 85618
                   555 00/// 20000=
201305020300 AAXX 02034 67571 NIL=
201305020000 AAXX 02004 67571 NIL=
201305012100 AAXX 01214 67571 NIL=
201305010900 AAXX 01094 67571 NIL=
201305010600 AAXX 01064 67571 NIL=

################################################################################
#  SYNOPS from 67575, Mkushi (Zambia) | 13-38S | 029-53E | 1237 m
################################################################################
201305310600 AAXX 31064 67575 31975 10000 10132 20103 48/// 70500 80001
                   333 10287 20065 5//// 81080=
201305301800 AAXX 30184 67575 NIL=
201305301500 AAXX 30154 67575 NIL=
201305301200 AAXX 30124 67575 NIL=
201305300900 AAXX 30094 67575 NIL=
201305300600 AAXX 30064 67575 31975 01303 10169 20088 48/// 70500
                   333 10298 20070 5////
                   555 00///=
201305291800 AAXX 29184 67575 NIL=
201305290900 AAXX 29094 67575 NIL=
201305290600 AAXX 29064 67575 31975 01301 10179 20088 48/// 70500
                   333 10289 20111 5////=
201305281800 AAXX 28184 67575 NIL=
201305280600 AAXX 28064 67575 32980 00901 10136 20098 48///
                   333 10279 20060 5////=
201305272100 AAXX 27214 67575 NIL=
201305270600 AAXX 27064 67575 32980 01303 10170 20090 48///
                   333 10274 20106 5////=
201305260900 AAXX 26094 67575 NIL=
201305260000 AAXX 26004 67575 NIL=
201305252100 AAXX 25214 67575 NIL=
201305240900 AAXX 24094 67575 NIL=
201305240600 AAXX 24064 67575 12980 10901 10180 20131 48/// 69904 81030
                   333 10275 20104 5//// 81360=
201305240300 AAXX 24034 67575 NIL=
201305240000 AAXX 24004 67575 NIL=
201305231800 AAXX 23184 67575 NIL=
201305231500 AAXX 23154 67575 NIL=
201305220600 AAXX 22064 67575 32980 01303 10179 20133 48///
                   333 10267 20122 5////
                   555 00///=
201305211500 AAXX 21154 67575 NIL=
201305210900 AAXX 21094 67575 NIL=
201305210600 AAXX 21064 67575 32980 51301 10170 20129 48/// 85030
                   333 10255 20135 5//// 85360=
201305210000 AAXX 21004 67575 NIL=
201305200600 AAXX 20060 67575 NIL=
201305190900 AAXX 19094 67575 NIL=
201305190600 AAXX 19061 67575 NIL=
201305180600 AAXX 18060 67575 NIL=
201305171200 AAXX 17121 67575 NIL=
201305170600 AAXX 17064 67575 32980 01304 10199 20122 48///
                   333 10288 20130 5////=
201305160900 AAXX 16094 67575 NIL=
201305160600 AAXX 16064 67575 NIL=
201305160000 AAXX 16004 67575 NIL=
201305152100 AAXX 15214 67575 NIL=
201305150300 AAXX 15034 67575 NIL=
201305141200 AAXX 14121 67575 NIL=
201305140900 AAXX 14094 67575 NIL=
201305140300 AAXX 14034 67575 NIL=
201305132100 AAXX 13214 67575 NIL=
201305131800 AAXX 13184 67575 NIL=
201305130900 AAXX 13094 67575 NIL=
201305130600 AAXX 13064 67575 NIL=
201305130300 AAXX 13034 67575 NIL=
201305121500 AAXX 12154 67575 NIL=
201305110900 AAXX 11094 67575 NIL=
201305110300 AAXX 11034 67575 NIL=
201305110000 AAXX 11004 67575 NIL=
201305102100 AAXX 10214 67575 NIL=
201305101800 AAXX 10184 67575 NIL=
201305101500 AAXX 10154 67575 NIL=
201305101200 AAXX 10124 67575 NIL=
201305100900 AAXX 10094 67575 NIL=
201305100600 AAXX 10064 67575 NIL=
201305100300 AAXX 10034 67575 NIL=
201305100000 AAXX 10004 67575 NIL=
201305091500 AAXX 09154 67575 NIL=
201305090900 AAXX 09094 67575 NIL=
201305090300 AAXX 09034 67575 NIL=
201305090000 AAXX 09004 67575 NIL=
201305082100 AAXX 08214 67575 NIL=
201305081500 AAXX 08154 67575 NIL=
201305081200 AAXX 08124 67575 NIL=
201305080300 AAXX 08034 67575 NIL=
201305071500 AAXX 07154 67575 NIL=
201305070900 AAXX 07094 67575 NIL=
201305070300 AAXX 07034 67575 NIL=
201305070000 AAXX 07004 67575 NIL=
201305061800 AAXX 06184 67575 NIL=
201305061500 AAXX 06154 67575 NIL=
201305060900 AAXX 06094 67575 NIL=
201305060600 AAXX 06064 67575 32480 11307 10190 20122 48/// 81530
                   333 10287 20158 5//// 81615 81360
                   555 00///=
201305060000 AAXX 06004 67575 NIL=
201305051800 AAXX 05184 67575 NIL=
201305051200 AAXX 05121 67575 NIL=
201305050900 AAXX 05094 67575 NIL=
201305050000 AAXX 05004 67575 NIL=
201305041500 AAXX 04154 67575 NIL=
201305040900 AAXX 04094 67575 NIL=
201305040600 AAXX 04060 67575 NIL=
201305040300 AAXX 04034 67575 NIL=
201305040000 AAXX 04004 67575 NIL=
201305031800 AAXX 03184 67575 NIL=
201305031500 AAXX 03154 67575 NIL=
201305031200 AAXX 03120 67575 NIL=
201305030900 AAXX 03094 67575 NIL=
201305030000 AAXX 03004 67575 NIL=
201305021800 AAXX 02184 67575 NIL=
201305021500 AAXX 02154 67575 NIL=
201305021200 AAXX 02124 67575 NIL=
201305020900 AAXX 02094 67575 NIL=
201305020300 AAXX 02034 67575 NIL=
201305020000 AAXX 02004 67575 NIL=
201305012100 AAXX 01214 67575 NIL=
201305010900 AAXX 01094 67575 NIL=
201305010600 AAXX 01064 67575 NIL=

################################################################################
#  SYNOPS from 67580, Msekera (Zambia) | 13-39S | 032-34E | 1025 m
################################################################################
201305301800 AAXX 30184 67580 NIL=
201305301500 AAXX 30154 67580 NIL=
201305301200 AAXX 30124 67580 41780 50904 10288 20131 48/// 70511 85100
                   333 58013 85856=
201305300900 AAXX 30094 67580 41680 61503 10248 20133 48/// 70510 86100
                   333 58015 86835=
201305300600 AAXX 30061 67580 31980 11203 10218 20144 48/// 70500 80001
                   333 10304 20//0 58011 81080
                   555 00///=
201305291800 AAXX 29184 67580 NIL=
201305290900 AAXX 29094 67580 42680 41103 10265 20130 48/// 84100
                   333 58002 84838=
201305281800 AAXX 28184 67580 NIL=
201305280600 AAXX 28064 67580 32980 00000 10200 20158 48///
                   333 10295 20/// 59002
                   555 00///=
201305272100 AAXX 27214 67580 NIL=
201305270600 AAXX 27064 67580 32980 02003 10202 20116 48///
                   333 10274 20//0 59016
                   555 00///=
201305260900 AAXX 26094 67580 NIL=
201305260000 AAXX 26004 67580 NIL=
201305252100 AAXX 25214 67580 NIL=
201305240900 AAXX 24094 67580 NIL=
201305240600 AAXX 24064 67580 32980 51203 10199 20159 48/// 85030
                   333 10286 20/// 5//// 85360
                   555 00///=
201305240300 AAXX 24034 67580 NIL=
201305240000 AAXX 24004 67580 NIL=
201305231800 AAXX 23184 67580 NIL=
201305231500 AAXX 23154 67580 NIL=
201305220600 AAXX 22064 67580 12980 11604 10197 20146 48/// 69904 81030
                   333 10266 20//0 58001 81362
                   555 00///=
201305211500 AAXX 21154 67580 NIL=
201305210900 AAXX 21094 67580 42680 71603 10257 20140 48/// 8523/
                   333 59005 85840 87362=
201305210600 AAXX 21064 67580 42980 21803 10188 20138 48/// 82030
                   333 10271 20//0 59002 82361
                   555 00///=
201305210000 AAXX 21004 67580 NIL=
201305200600 AAXX 20061 67580 32480 71205 10194 20140 48/// 84531
                   333 10260 20//0 59012 84616 83361 82080=
201305190900 AAXX 19094 67580 NIL=
201305190600 AAXX 19061 67580 NIL=
201305180600 AAXX 18060 67580 NIL=
201305171200 AAXX 17121 67580 41780 51802 10297 20136 48/// 70510 85100
                   333 58006 85856=
201305170600 AAXX 17061 67580 31980 00604 10235 20151 48/// 70500
                   333 10296 20//0 58011
                   555 00///=
201305160900 AAXX 16094 67580 41680 10903 10268 20139 48/// 70500 81100
                   333 59012 81840=
201305160600 AAXX 16064 67580 31980 00903 10230 20147 48/// 70500
                   333 10292 20//0 59016
                   555 00///=
201305160000 AAXX 16004 67580 NIL=
201305152100 AAXX 15214 67580 NIL=
201305150300 AAXX 15034 67580 NIL=
201305141200 AAXX 14121 67580 NIL=
201305140900 AAXX 14094 67580 NIL=
201305140300 AAXX 14034 67580 NIL=
201305132100 AAXX 13214 67580 NIL=
201305131800 AAXX 13184 67580 NIL=
201305130900 AAXX 13094 67580 NIL=
201305130600 AAXX 13064 67580 NIL=
201305130300 AAXX 13034 67580 NIL=
201305121500 AAXX 12154 67580 NIL=
201305110900 AAXX 11094 67580 NIL=
201305110300 AAXX 11034 67580 NIL=
201305110000 AAXX 11004 67580 NIL=
201305102100 AAXX 10214 67580 NIL=
201305101800 AAXX 10184 67580 NIL=
201305101500 AAXX 10154 67580 NIL=
201305101200 AAXX 10124 67580 42880 50902 10300 20147 48/// 85100
                   333 58007 85857=
201305100900 AAXX 10094 67580 42680 11002 10283 20126 48/// 81100
                   333 58013 81844=
201305100600 AAXX 10064 67580 32980 01402 10215 20145 48///
                   333 10290 20//0 58011
                   555 00///=
201305100300 AAXX 10034 67580 NIL=
201305100000 AAXX 10004 67580 NIL=
201305091500 AAXX 09154 67580 NIL=
201305090900 AAXX 09094 67580 42980 00602 10255 20131 48///
                   333 59027=
201305090300 AAXX 09034 67580 NIL=
201305090000 AAXX 09004 67580 NIL=
201305082100 AAXX 08214 67580 NIL=
201305081500 AAXX 08154 67580 NIL=
201305081200 AAXX 08124 67580 42780 11604 10250 20116 48/// 81100
                   333 59018 81850=
201305080300 AAXX 08034 67580 NIL=
201305071500 AAXX 07154 67580 NIL=
201305070900 AAXX 07094 67580 42680 11808 10217 20115 48/// 81100
                   333 58008 81840=
201305070300 AAXX 07034 67580 NIL=
201305070000 AAXX 07004 67580 NIL=
201305061800 AAXX 06184 67580 NIL=
201305061500 AAXX 06154 67580 NIL=
201305060900 AAXX 06094 67580 42980 51110 10230 20125 48/// 85030
                   333 58023 85361=
201305060000 AAXX 06004 67580 NIL=
201305051800 AAXX 05184 67580 NIL=
201305051200 AAXX 05121 67580 NIL=
201305050900 AAXX 05094 67580 NIL=
201305050000 AAXX 05004 67580 NIL=
201305041500 AAXX 04154 67580 NIL=
201305040900 AAXX 04094 67580 NIL=
201305040600 AAXX 04060 67580 NIL=
201305040300 AAXX 04034 67580 NIL=
201305040000 AAXX 04004 67580 NIL=
201305031800 AAXX 03184 67580 NIL=
201305031500 AAXX 03154 67580 NIL=
201305031200 AAXX 03120 67580 42580 50000 10255 20142 48/// 85200
                   333 59008 85850=
201305030900 AAXX 03094 67580 42680 51603 10246 20132 48/// 85200
                   333 59010 85840=
201305030000 AAXX 03004 67580 NIL=
201305021800 AAXX 02184 67580 NIL=
201305021500 AAXX 02154 67580 NIL=
201305021200 AAXX 02124 67580 42780 51504 10245 20127 48/// 85200
                   333 59025 85850=
201305020900 AAXX 02094 67580 42680 11206 10236 20121 48/// 81100
                   333 59029 81835=
201305020300 AAXX 02034 67580 NIL=
201305020000 AAXX 02004 67580 NIL=
201305012100 AAXX 01214 67580 NIL=
201305010900 AAXX 01094 67580 NIL=
201305010600 AAXX 01064 67580 32480 31610 10188 20120 48/// 81131
                   333 10274 20//0 58018 81818 81360 82080
                   555 00///=

################################################################################
#  SYNOPS from 67581, Chipata (Zambia) | 13-33S | 032-35E | 1028 m
################################################################################
201305310600 AAXX 31064 67581 32980 00904 10227 20136 48562 70200
                   333 10290 20140 59002
                   555 00135 91022=
201305301800 AAXX 30184 67581 NIL=
201305301500 AAXX 30154 67581 NIL=
201305301200 AAXX 30124 67581 NIL=
201305300900 AAXX 30094 67581 42680 41204 10253 20111 48553 84100
                   333 58014 84832 91023=
201305300600 AAXX 30064 67581 31970 11604 10232 20134 48564 70500 80002
                   333 10293 20159 58009 81080
                   555 00146 91022=
201305291800 AAXX 29184 67581 NIL=
201305290900 AAXX 29094 67581 NIL=
201305290600 AAXX 29064 67581 32980 01206 10230 20154 48555 70200
                   333 10294 20200 58001
                   555 00142=
201305281800 AAXX 28184 67581 NIL=
201305272100 AAXX 27214 67581 NIL=
201305270600 AAXX 27064 67581 32980 01604 10222 20122 48557 70200
                   333 10276 20122 59012
                   555 00000 91021=
201305260900 AAXX 26094 67581 NIL=
201305260000 AAXX 26004 67581 NIL=
201305252100 AAXX 25214 67581 NIL=
201305240900 AAXX 24094 67581 NIL=
201305240600 AAXX 24064 67581 12980 41206 10210 20153 48569 69904 70221 84030
                   333 10281 20153 58004 84360
                   555 00149 20000 91023=
201305240300 AAXX 24034 67581 NIL=
201305240000 AAXX 24004 67581 NIL=
201305231800 AAXX 23184 67581 NIL=
201305231500 AAXX 23154 67581 NIL=
201305230600 AAXX 23064 67581 32980 20906 10221 20149 48567 70200 82030
                   333 10279 20151 59004 82360
                   555 00154 91022=
201305220600 AAXX 22064 67581 32980 20406 10216 20142 48569 70200 82030
                   333 10270 20136 58001 82360
                   555 00142 91023=
201305211500 AAXX 21154 67581 NIL=
201305210900 AAXX 21094 67581 NIL=
201305210600 AAXX 21064 67581 12970 21406 10198 20133 48566 70500 82030
                   333 10269 20148 59002 82360
                   555 00131 91023=
201305210000 AAXX 21004 67581 NIL=
201305200600 AAXX 20060 67581 32680 41604 10184 20138 48564 70321 82132
                   333 10256 20151 59015 82830 81360 82080
                   555 00123 91023=
201305190900 AAXX 19094 67581 NIL=
201305190600 AAXX 19064 67581 32680 20409 10199 20137 48580 70300 82100
                   333 10292 20166 58008 82830
                   555 00113 91024=
201305180600 AAXX 18064 67581 32980 01204 10245 20135 48582 70200
                   333 10299 20176 58011
                   555 00125 91024=
201305171200 AAXX 17121 67581 NIL=
201305170600 AAXX 17064 67581 32980 00406 10236 20135 48570 70200
                   333 10288 20170 58012
                   555 00143 91023=
201305160900 AAXX 16094 67581 42680 51804 10264 20131 48562 70200 82100
                   333 59012 82835 91021=
201305160600 AAXX 16064 67581 NIL=
201305160000 AAXX 16004 67581 NIL=
201305152100 AAXX 15214 67581 NIL=
201305150300 AAXX 15034 67581 NIL=
201305141200 AAXX 14121 67581 NIL=
201305140900 AAXX 14094 67581 NIL=
201305140300 AAXX 14034 67581 NIL=
201305132100 AAXX 13214 67581 NIL=
201305131800 AAXX 13184 67581 NIL=
201305130900 AAXX 13094 67581 NIL=
201305130600 AAXX 13064 67581 NIL=
201305130300 AAXX 13034 67581 NIL=
201305121500 AAXX 12154 67581 NIL=
201305110900 AAXX 11094 67581 NIL=
201305110300 AAXX 11034 67581 NIL=
201305110000 AAXX 11004 67581 NIL=
201305102100 AAXX 10214 67581 NIL=
201305101800 AAXX 10184 67581 NIL=
201305101500 AAXX 10154 67581 NIL=
201305101200 AAXX 10124 67581 NIL=
201305100900 AAXX 10094 67581 42680 00904 10274 20124 48572 70300 81100
                   333 58009 81835 91022=
201305100600 AAXX 10064 67581 NIL=
201305100300 AAXX 10034 67581 NIL=
201305100000 AAXX 10004 67581 NIL=
201305091500 AAXX 09154 67581 NIL=
201305090900 AAXX 09094 67581 42680 11907 10246 20124 48558 70300 81100
                   333 59024 81830 91021=
201305090300 AAXX 09034 67581 NIL=
201305090000 AAXX 09004 67581 NIL=
201305082100 AAXX 08214 67581 NIL=
201305081500 AAXX 08154 67581 NIL=
201305081200 AAXX 08124 67581 NIL=
201305080600 AAXX 08064 67581 32680 21206 10179 20126 48580 70200 82100
                   333 10255 20139 59007 82830
                   555 00135 20000 91024=
201305080300 AAXX 08034 67581 NIL=
201305071500 AAXX 07154 67581 NIL=
201305070900 AAXX 07094 67581 42980 01204 10220 20102 48591 70100
                   333 58005 91026=
201305070300 AAXX 07034 67581 NIL=
201305070000 AAXX 07004 67581 NIL=
201305061800 AAXX 06184 67581 NIL=
201305061500 AAXX 06154 67581 NIL=
201305061200 AAXX 06124 67581 42680 51612 10242 20131 48574 70222 82130
                   333 58020 82840 84360 91023=
201305060900 AAXX 06094 67581 42680 21015 10235 20121 48590 81130
                   333 58030 81832 82360 91025=
201305060000 AAXX 06004 67581 NIL=
201305051800 AAXX 05184 67581 NIL=
201305051200 AAXX 05121 67581 NIL=
201305050900 AAXX 05094 67581 NIL=
201305050000 AAXX 05004 67581 NIL=
201305041500 AAXX 04154 67581 NIL=
201305040900 AAXX 04094 67581 NIL=
201305040600 AAXX 04064 67581 32680 30406 10229 20149 48564 70200 82130
                   333 10272 20138 59005 82830 82360
                   555 00202 20000 91022=
201305040300 AAXX 04034 67581 NIL=
201305040000 AAXX 04004 67581 NIL=
201305031800 AAXX 03184 67581 NIL=
201305031500 AAXX 03154 67581 NIL=
201305031200 AAXX 03120 67581 NIL=
201305030900 AAXX 03094 67581 NIL=
201305030600 AAXX 03064 67581 32980 31904 10206 20129 48565 70200 83030
                   333 10263 20152 59002 83360
                   555 00126 20000 91023=
201305030000 AAXX 03004 67581 NIL=
201305021800 AAXX 02184 67581 NIL=
201305021500 AAXX 02154 67581 NIL=
201305021200 AAXX 02124 67581 NIL=
201305020900 AAXX 02094 67581 NIL=
201305020300 AAXX 02034 67581 NIL=
201305020000 AAXX 02004 67581 NIL=
201305012100 AAXX 01214 67581 NIL=
201305010900 AAXX 01094 67581 NIL=
201305010600 AAXX 01064 67581 NIL=

################################################################################
#  SYNOPS from 67583, Lundazi (Zambia) | 12-17S | 033-12E | 1143 m
################################################################################
201305301800 AAXX 30184 67583 NIL=
201305301500 AAXX 30154 67583 NIL=
201305301200 AAXX 30124 67583 42680 11801 10290 20130 81101
                   333 5//// 81840 81080=
201305300900 AAXX 30094 67583 42680 10901 10275 20130 81101
                   333 5//// 81835 81080=
201305300600 AAXX 30061 67583 32980 11501 10171 20136 80001
                   333 10305 20109 5//// 81080
                   555 00/// 20000=
201305291800 AAXX 29184 67583 NIL=
201305290900 AAXX 29094 67583 NIL=
201305281800 AAXX 28184 67583 NIL=
201305280600 AAXX 28064 67583 32580 11801 10175 20150 48/// 81030
                   333 10300 20115 5//// 81360
                   555 00///=
201305272100 AAXX 27214 67583 NIL=
201305271200 AAXX 27124 67583 42680 41801 10285 20109 84100
                   333 5//// 84840=
201305270600 AAXX 27064 67583 32980 01801 10180 20139
                   333 10275 20110 5////
                   555 00/// 20000=
201305260900 AAXX 26094 67583 NIL=
201305260000 AAXX 26004 67583 NIL=
201305252100 AAXX 25214 67583 NIL=
201305240900 AAXX 24094 67583 NIL=
201305240300 AAXX 24034 67583 NIL=
201305240000 AAXX 24004 67583 NIL=
201305231800 AAXX 23184 67583 NIL=
201305231500 AAXX 23154 67583 NIL=
201305221200 AAXX 22124 67583 41680 62701 10265 20146 71522 82132
                   333 5//// 82835 85360 83080=
201305220600 AAXX 22064 67583 12980 51201 10185 20169 69904 85030
                   333 10280 20142 5//// 85360
                   555 00/// 20000=
201305211500 AAXX 21154 67583 NIL=
201305210900 AAXX 21094 67583 NIL=
201305210600 AAXX 21064 67583 32980 70901 10180 20165 87030
                   333 10280 20138 5//// 87360
                   555 00/// 20016=
201305210000 AAXX 21004 67583 NIL=
201305200600 AAXX 20060 67583 NIL=
201305190900 AAXX 19094 67583 NIL=
201305190600 AAXX 19061 67583 NIL=
201305180600 AAXX 18060 67583 NIL=
201305171200 AAXX 17121 67583 42680 21801 10290 20149 82100
                   333 5//// 82840=
201305170600 AAXX 17064 67583 32980 00901 10190 20155
                   333 10300 20120 5////
                   555 00/// 20000=
201305160900 AAXX 16094 67583 NIL=
201305160600 AAXX 16064 67583 NIL=
201305160000 AAXX 16004 67583 NIL=
201305152100 AAXX 15214 67583 NIL=
201305150300 AAXX 15034 67583 NIL=
201305141200 AAXX 14121 67583 NIL=
201305140900 AAXX 14094 67583 NIL=
201305140300 AAXX 14034 67583 NIL=
201305132100 AAXX 13214 67583 NIL=
201305131800 AAXX 13184 67583 NIL=
201305130900 AAXX 13094 67583 NIL=
201305130600 AAXX 13064 67583 NIL=
201305130300 AAXX 13034 67583 NIL=
201305121500 AAXX 12154 67583 NIL=
201305110900 AAXX 11094 67583 NIL=
201305110300 AAXX 11034 67583 NIL=
201305110000 AAXX 11004 67583 NIL=
201305102100 AAXX 10214 67583 NIL=
201305101800 AAXX 10184 67583 NIL=
201305101500 AAXX 10154 67583 NIL=
201305101200 AAXX 10124 67583 NIL=
201305100900 AAXX 10094 67583 NIL=
201305100600 AAXX 10064 67583 32980 00901 10199 20161
                   333 10300 20120 5////
                   555 00/// 20000=
201305100300 AAXX 10034 67583 NIL=
201305100000 AAXX 10004 67583 NIL=
201305091500 AAXX 09154 67583 NIL=
201305090900 AAXX 09094 67583 NIL=
201305090300 AAXX 09034 67583 NIL=
201305090000 AAXX 09004 67583 NIL=
201305082100 AAXX 08214 67583 NIL=
201305081500 AAXX 08154 67583 NIL=
201305081200 AAXX 08124 67583 NIL=
201305080300 AAXX 08034 67583 NIL=
201305071500 AAXX 07154 67583 NIL=
201305070900 AAXX 07094 67583 NIL=
201305070300 AAXX 07034 67583 NIL=
201305070000 AAXX 07004 67583 NIL=
201305061800 AAXX 06184 67583 NIL=
201305061500 AAXX 06154 67583 NIL=
201305060900 AAXX 06094 67583 NIL=
201305060000 AAXX 06004 67583 NIL=
201305051800 AAXX 05184 67583 NIL=
201305051200 AAXX 05121 67583 NIL=
201305050900 AAXX 05094 67583 NIL=
201305050000 AAXX 05004 67583 NIL=
201305041500 AAXX 04154 67583 NIL=
201305040900 AAXX 04094 67583 NIL=
201305040600 AAXX 04060 67583 NIL=
201305040300 AAXX 04034 67583 NIL=
201305040000 AAXX 04004 67583 NIL=
201305031800 AAXX 03184 67583 NIL=
201305031500 AAXX 03154 67583 NIL=
201305031200 AAXX 03120 67583 NIL=
201305030900 AAXX 03094 67583 NIL=
201305030000 AAXX 03004 67583 NIL=
201305021800 AAXX 02184 67583 NIL=
201305021500 AAXX 02154 67583 NIL=
201305021200 AAXX 02124 67583 NIL=
201305020900 AAXX 02094 67583 NIL=
201305020600 AAXX 02064 67583 32580 51704 10185 20134 85501
                   333 10265 20135 5//// 85625 81080
                   555 00/// 20000=
201305020300 AAXX 02034 67583 NIL=
201305020000 AAXX 02004 67583 NIL=
201305012100 AAXX 01214 67583 NIL=
201305010900 AAXX 01094 67583 NIL=
201305010600 AAXX 01064 67583 NIL=

################################################################################
#  SYNOPS from 67599, Mfuwe (Zambia) | 13-16S | 031-56E | 568 m
################################################################################
201305310600 AAXX 31064 67599 31975 00000 10202 20141 48562 70500
                   333 10346 20138 59004 91022=
201305301800 AAXX 30184 67599 NIL=
201305301500 AAXX 30154 67599 42980 20000 10320 20172 48563 82030
                   333 58005 82360 555 10346 91018=
201305301200 AAXX 30124 67599 42880 40000 10320 20154 48568 84100
                   333 58010 84846 91018=
201305300900 AAXX 30094 67599 42680 21006 10292 20164 48582 82100
                   333 58013 82848 91022=
201305300600 AAXX 30064 67599 32980 00000 10205 20134 48566
                   333 10349 20142 58008
                   555 10135 91023=
201305291800 AAXX 29184 67599 NIL=
201305290900 AAXX 29094 67599 42680 20000 10297 20173 48581 82100
                   333 58004 82845 91021=
201305290600 AAXX 29064 67599 32980 00000 10202 20136 48558
                   333 10348 20135 58007
                   555 00135 91022=
201305281800 AAXX 28184 67599 NIL=
201305281200 AAXX 28124 67599 42780 32706 10310 20156 48561 83200
                   333 59011 83850=
201305280900 AAXX 28094 67599 42680 10906 10288 20173 48574 70200 81100
                   333 59012 81835 91020=
201305280600 AAXX 28064 67599 32980 00000 10195 20195 48548
                   333 10330 20135 59009 91021=
201305272100 AAXX 27214 67599 NIL=
201305270600 AAXX 27064 67599 32980 00000 10175 20114 48550
                   333 10330 20110 59016=
201305260900 AAXX 26094 67599 NIL=
201305260000 AAXX 26004 67599 NIL=
201305252100 AAXX 25214 67599 NIL=
201305241500 AAXX 24154 67599 42680 41806 10290 20150 48549 70122 82230
                   333 58009 82845 83360 91018=
201305240900 AAXX 24094 67599 42680 21805 10280 20174 48585 70222 82200
                   333 58002 82835 91022=
201305240600 AAXX 24064 67599 32980 40000 10220 20206 48575 70100 84030
                   333 10335 20180 58003 84360 91023=
201305240300 AAXX 24034 67599 NIL=
201305240000 AAXX 24004 67599 NIL=
201305231800 AAXX 23184 67599 NIL=
201305231500 AAXX 23154 67599 NIL=
201305230600 AAXX 23064 67599 32980 10000 10226 20169 48572 70300 81030
                   333 10335 20150 59003 81360 91023=
201305220600 AAXX 22064 67599 32980 11806 10200 20151 48570 81030
                   333 10315 20150 59008 81360
                   555 00145 91023=
201305211500 AAXX 21154 67599 42680 60000 10300 20181 48554 70122 8223/
                   333 59008 82840 86460 91017=
201305210900 AAXX 21094 67599 42680 31306 10262 20171 48580 70200 82200
                   333 59009 82830 82360 91022=
201305210600 AAXX 21064 67599 12980 20000 10200 20162 48577 69924 82030
                   333 10315 20145 59001 82360
                   555 00135 91024=
201305210000 AAXX 21004 67599 NIL=
201305200600 AAXX 20064 67599 11970 50000 10195 20164 48577 60014 70522 83031
                   333 10300 20140 59006 83360 84080
                   555 00140 91024=
201305190900 AAXX 19094 67599 NIL=
201305190600 AAXX 19061 67599 NIL=
201305180600 AAXX 18064 67599 32980 01805 10205 20149 48575
                   333 10358 20145 58003 91023=
201305171200 AAXX 17121 67599 NIL=
201305170600 AAXX 17064 67599 32980 00000 10231 20169 48582
                   333 10337 20151 58007=
201305160900 AAXX 16094 67599 NIL=
201305160600 AAXX 16064 67599 NIL=
201305160000 AAXX 16004 67599 NIL=
201305152100 AAXX 15214 67599 NIL=
201305151200 AAXX 15124 67599 41869 23603 10308 20154 48575 70422 82100
                   333 59016 82856=
201305150300 AAXX 15034 67599 NIL=
201305141200 AAXX 14121 67599 NIL=
201305140900 AAXX 14094 67599 NIL=
201305140300 AAXX 14034 67599 NIL=
201305132100 AAXX 13214 67599 NIL=
201305131800 AAXX 13184 67599 NIL=
201305130900 AAXX 13094 67599 NIL=
201305130600 AAXX 13064 67599 NIL=
201305130300 AAXX 13034 67599 NIL=
201305121500 AAXX 12154 67599 NIL=
201305110900 AAXX 11094 67599 NIL=
201305110300 AAXX 11034 67599 NIL=
201305110000 AAXX 11004 67599 NIL=
201305102100 AAXX 10214 67599 NIL=
201305101800 AAXX 10184 67599 NIL=
201305101500 AAXX 10154 67599 NIL=
201305101200 AAXX 10124 67599 NIL=
201305100900 AAXX 10094 67599 NIL=
201305100600 AAXX 10064 67599 NIL=
201305100300 AAXX 10034 67599 NIL=
201305100000 AAXX 10004 67599 NIL=
201305091500 AAXX 09154 67599 NIL=
201305090900 AAXX 09094 67599 NIL=
201305090300 AAXX 09034 67599 NIL=
201305090000 AAXX 09004 67599 NIL=
201305082100 AAXX 08214 67599 NIL=
201305081500 AAXX 08154 67599 NIL=
201305081200 AAXX 08124 67599 NIL=
201305080300 AAXX 08034 67599 NIL=
201305071500 AAXX 07154 67599 NIL=
201305071200 AAXX 07124 67599 42880 10000 10294 20136 48589 81100
                   333 58007 81856 91022=
201305070900 AAXX 07094 67599 NIL=
201305070600 AAXX 07064 67599 32980 01808 10192 20104 48608
                   333 10300 20137 58027
                   555 00124 91028=
201305070300 AAXX 07034 67599 NIL=
201305070000 AAXX 07004 67599 NIL=
201305061800 AAXX 06184 67599 NIL=
201305061500 AAXX 06154 67599 NIL=
201305060900 AAXX 06094 67599 NIL=
201305060600 AAXX 06064 67599 12680 31608 10238 20146 48598 69904 70200 81130
                   333 10345 20210 58022 81830 83360
                   555 00/// 91025=
201305060000 AAXX 06004 67599 NIL=
201305051800 AAXX 05184 67599 NIL=
201305051200 AAXX 05121 67599 NIL=
201305050900 AAXX 05094 67599 NIL=
201305050000 AAXX 05004 67599 NIL=
201305041500 AAXX 04154 67599 NIL=
201305040900 AAXX 04094 67599 NIL=
201305040600 AAXX 04064 67599 32980 10000 10227 20162 48585 81030
                   333 10328 20150 59003 81360
                   555 00150 91023=
201305040300 AAXX 04034 67599 NIL=
201305040000 AAXX 04004 67599 NIL=
201305031800 AAXX 03184 67599 NIL=
201305031500 AAXX 03154 67599 42880 40000 10306 20151 48561 83230
                   333 59003 83856 81360
                   555 10328 91018=
201305031200 AAXX 03124 67599 42680 50205 10308 20154 48518 85200
                   333 59003 91018=
201305030900 AAXX 03094 67599 NIL=
201305030000 AAXX 03004 67599 NIL=
201305021800 AAXX 02184 67599 NIL=
201305021500 AAXX 02154 67599 NIL=
201305021200 AAXX 02124 67599 NIL=
201305020900 AAXX 02094 67599 NIL=
201305020300 AAXX 02034 67599 NIL=
201305020000 AAXX 02004 67599 NIL=
201305012100 AAXX 01214 67599 NIL=
201305010900 AAXX 01094 67599 42680 61610 10270 20144 48621 70322 84202
                   333 58009 84835 86080 91024=
201305010600 AAXX 01064 67599 32980 41806 10220 20149 48596 70200 84030
                   333 10318 20185 58015 84360 91025=

################################################################################
#  SYNOPS from 67625, Kalabo (Zambia) | 14-51S | 022-42E | 1033 m
################################################################################
201305310600 AAXX 31064 67625 31980 00000 10172 2//// 48/// 70500
                   333 10318 20102 5////=
201305301800 AAXX 30184 67625 NIL=
201305301500 AAXX 30154 67625 NIL=
201305301200 AAXX 30124 67625 NIL=
201305300900 AAXX 30094 67625 NIL=
201305300600 AAXX 30061 67625 NIL=
201305291800 AAXX 29184 67625 NIL=
201305290900 AAXX 29094 67625 NIL=
201305281800 AAXX 28184 67625 NIL=
201305272100 AAXX 27214 67625 NIL=
201305270600 AAXX 27064 67625 NIL=
201305260900 AAXX 26094 67625 NIL=
201305260000 AAXX 26004 67625 NIL=
201305252100 AAXX 25214 67625 NIL=
201305240900 AAXX 24094 67625 NIL=
201305240300 AAXX 24034 67625 NIL=
201305240000 AAXX 24004 67625 NIL=
201305231800 AAXX 23184 67625 NIL=
201305231500 AAXX 23154 67625 NIL=
201305220600 AAXX 22064 67625 NIL=
201305211500 AAXX 21154 67625 NIL=
201305210900 AAXX 21094 67625 NIL=
201305210600 AAXX 21060 67625 NIL=
201305210000 AAXX 21004 67625 NIL=
201305200600 AAXX 20060 67625 NIL=
201305190900 AAXX 19094 67625 NIL=
201305190600 AAXX 19061 67625 NIL=
201305180600 AAXX 18060 67625 NIL=
201305171200 AAXX 17121 67625 NIL=
201305170600 AAXX 17060 67625 NIL=
201305160900 AAXX 16094 67625 NIL=
201305160600 AAXX 16064 67625 NIL=
201305160000 AAXX 16004 67625 NIL=
201305152100 AAXX 15214 67625 NIL=
201305150300 AAXX 15034 67625 NIL=
201305141200 AAXX 14121 67625 NIL=
201305140900 AAXX 14094 67625 NIL=
201305140300 AAXX 14034 67625 NIL=
201305132100 AAXX 13214 67625 NIL=
201305131800 AAXX 13184 67625 NIL=
201305130900 AAXX 13094 67625 NIL=
201305130600 AAXX 13064 67625 NIL=
201305130300 AAXX 13034 67625 NIL=
201305121500 AAXX 12154 67625 NIL=
201305110900 AAXX 11094 67625 NIL=
201305110300 AAXX 11034 67625 NIL=
201305110000 AAXX 11004 67625 NIL=
201305102100 AAXX 10214 67625 NIL=
201305101800 AAXX 10184 67625 NIL=
201305101500 AAXX 10154 67625 NIL=
201305101200 AAXX 10124 67625 NIL=
201305100900 AAXX 10094 67625 NIL=
201305100600 AAXX 10064 67625 NIL=
201305100300 AAXX 10034 67625 NIL=
201305100000 AAXX 10004 67625 NIL=
201305091500 AAXX 09154 67625 NIL=
201305090900 AAXX 09094 67625 NIL=
201305090300 AAXX 09034 67625 NIL=
201305090000 AAXX 09004 67625 NIL=
201305082100 AAXX 08214 67625 NIL=
201305081500 AAXX 08154 67625 NIL=
201305081200 AAXX 08124 67625 NIL=
201305080300 AAXX 08034 67625 NIL=
201305071500 AAXX 07154 67625 NIL=
201305070900 AAXX 07094 67625 NIL=
201305070300 AAXX 07034 67625 NIL=
201305070000 AAXX 07004 67625 NIL=
201305061800 AAXX 06184 67625 NIL=
201305061500 AAXX 06154 67625 NIL=
201305060900 AAXX 06094 67625 NIL=
201305060000 AAXX 06004 67625 NIL=
201305051800 AAXX 05184 67625 NIL=
201305051200 AAXX 05121 67625 NIL=
201305050900 AAXX 05094 67625 NIL=
201305050000 AAXX 05004 67625 NIL=
201305041500 AAXX 04154 67625 NIL=
201305040900 AAXX 04094 67625 NIL=
201305040600 AAXX 04060 67625 NIL=
201305040300 AAXX 04034 67625 NIL=
201305040000 AAXX 04004 67625 NIL=
201305031800 AAXX 03184 67625 NIL=
201305031500 AAXX 03154 67625 NIL=
201305031200 AAXX 03120 67625 NIL=
201305030900 AAXX 03094 67625 NIL=
201305030000 AAXX 03004 67625 NIL=
201305021800 AAXX 02184 67625 NIL=
201305021500 AAXX 02154 67625 NIL=
201305021200 AAXX 02124 67625 NIL=
201305020900 AAXX 02094 67625 NIL=
201305020300 AAXX 02034 67625 NIL=
201305020000 AAXX 02004 67625 NIL=
201305012100 AAXX 01214 67625 NIL=
201305010900 AAXX 01094 67625 NIL=
201305010600 AAXX 01064 67625 NIL=

################################################################################
#  SYNOPS from 67633, Mongu (Zambia) | 15-15S | 023-09E | 1052 m
################################################################################
201305301800 AAXX 30184 67633 NIL=
201305301500 AAXX 30154 67633 NIL=
201305301200 AAXX 30124 67633 42980 00904 10302 20072 48501 70200
                   333 58016 91020=
201305300900 AAXX 30094 67633 NIL=
201305300600 AAXX 30061 67633 32980 00904 10156 20068 48537 70200
                   333 10306 20106 58011
                   555 00/// 91021=
201305291800 AAXX 29184 67633 NIL=
201305290900 AAXX 29094 67633 42980 00603 10273 20094 48553
                   333 58008 91021=
201305281800 AAXX 28184 67633 NIL=
201305272100 AAXX 27214 67633 NIL=
201305271200 AAXX 27124 67633 42980 02703 10269 20073 48536 70200
                   333 59010 91019=
201305270600 AAXX 27064 67633 32980 00904 10138 20061 48533 70200
                   333 10284 20078 59012
                   555 00/// 91021=
201305260900 AAXX 26094 67633 NIL=
201305260000 AAXX 26004 67633 NIL=
201305252100 AAXX 25214 67633 NIL=
201305240900 AAXX 24094 67633 42980 00904 10264 20116 48557 70200
                   333 59012 91022=
201305240600 AAXX 24064 67633 32980 00904 10182 20101 48551 70200
                   333 10290 20107 58003
                   555 00/// 91022=
201305240300 AAXX 24034 67633 NIL=
201305240000 AAXX 24004 67633 NIL=
201305231800 AAXX 23184 67633 NIL=
201305231500 AAXX 23154 67633 NIL=
201305231200 AAXX 23124 67633 42882 32304 10288 20089 48542 83100
                   333 58006 83857 91019=
201305230600 AAXX 23064 67633 32982 11001 10183 20119 48548 81030
                   333 10290 20130 58008 81361
                   555 00/// 91022=
201305220600 AAXX 22064 67633 32980 00000 10160 20109 48537 70200
                   333 10297 20116 59005
                   555 00/// 91021=
201305211500 AAXX 21154 67633 NIL=
201305210900 AAXX 21094 67633 NIL=
201305210600 AAXX 21064 67633 32980 40904 10167 20127 48544 70200 84030
                   333 10295 20135 58011
                   555 00/// 91022=
201305210000 AAXX 21004 67633 NIL=
201305200600 AAXX 20060 67633 NIL=
201305190900 AAXX 19094 67633 NIL=
201305190600 AAXX 19061 67633 NIL=
201305180600 AAXX 18060 67633 NIL=
201305171200 AAXX 17121 67633 NIL=
201305170600 AAXX 17064 67633 32980 60903 10186 20128 48535 85032
                   333 10/// 20/// 58016 85360 83080=
201305160900 AAXX 16094 67633 42980 00702 10260 20126 48540 70200
                   333 59021 555 91019=
201305160600 AAXX 16064 67633 32980 10902 10165 20096 48518 70200 81030
                   333 10295 20131 59021
                   555 00/// 91018=
201305160000 AAXX 16004 67633 NIL=
201305152100 AAXX 15214 67633 NIL=
201305150300 AAXX 15034 67633 NIL=
201305141200 AAXX 14121 67633 NIL=
201305140900 AAXX 14094 67633 NIL=
201305140300 AAXX 14034 67633 NIL=
201305132100 AAXX 13214 67633 NIL=
201305131800 AAXX 13184 67633 NIL=
201305130900 AAXX 13094 67633 42980 00802 10267 20132 48573 70200
                   333 58005 91023=
201305130600 AAXX 13064 67633 NIL=
201305130300 AAXX 13034 67633 NIL=
201305121500 AAXX 12154 67633 NIL=
201305110900 AAXX 11094 67633 42980 10980 10903 20057 48567 81030
                   333 58002 81361 91022=
201305110300 AAXX 11034 67633 NIL=
201305110000 AAXX 11004 67633 NIL=
201305102100 AAXX 10214 67633 NIL=
201305101800 AAXX 10184 67633 NIL=
201305101500 AAXX 10154 67633 NIL=
201305101200 AAXX 10124 67633 42980 02703 10285 20016 48545 70200
                   333 58003 91019=
201305100900 AAXX 10094 67633 NIL=
201305100600 AAXX 10064 67633 NIL=
201305100300 AAXX 10034 67633 NIL=
201305100000 AAXX 10004 67633 NIL=
201305091500 AAXX 09154 67633 NIL=
201305090900 AAXX 09094 67633 NIL=
201305090600 AAXX 09064 67633 32980 60905 10182 20101 48540 70222 86030
                   333 10288 20137 59014 86360 91021=
201305090300 AAXX 09034 67633 NIL=
201305090000 AAXX 09004 67633 NIL=
201305082100 AAXX 08214 67633 NIL=
201305081500 AAXX 08154 67633 NIL=
201305081200 AAXX 08124 67633 NIL=
201305080300 AAXX 08034 67633 NIL=
201305071500 AAXX 07154 67633 NIL=
201305070900 AAXX 07094 67633 NIL=
201305070600 AAXX 07064 67633 32980 10908 10174 20134 48551 70200 81030
                   333 10315 20145 58001 81360=
201305070300 AAXX 07034 67633 NIL=
201305070000 AAXX 07004 67633 NIL=
201305061800 AAXX 06184 67633 NIL=
201305061500 AAXX 06154 67633 NIL=
201305060900 AAXX 06094 67633 42980 00906 10272 20108 48575 70200
                   333 59002=
201305060000 AAXX 06004 67633 NIL=
201305051800 AAXX 05184 67633 NIL=
201305051200 AAXX 05121 67633 NIL=
201305050900 AAXX 05094 67633 NIL=
201305050000 AAXX 05004 67633 NIL=
201305041500 AAXX 04154 67633 NIL=
201305040900 AAXX 04094 67633 NIL=
201305040600 AAXX 04060 67633 NIL=
201305040300 AAXX 04034 67633 NIL=
201305040000 AAXX 04004 67633 NIL=
201305031800 AAXX 03184 67633 NIL=
201305031500 AAXX 03154 67633 NIL=
201305031200 AAXX 03120 67633 NIL=
201305030900 AAXX 03094 67633 NIL=
201305030000 AAXX 03004 67633 NIL=
201305021800 AAXX 02184 67633 NIL=
201305021500 AAXX 02154 67633 NIL=
201305021200 AAXX 02124 67633 NIL=
201305020900 AAXX 02094 67633 NIL=
201305020300 AAXX 02034 67633 NIL=
201305020000 AAXX 02004 67633 NIL=
201305012100 AAXX 01214 67633 NIL=
201305010900 AAXX 01094 67633 NIL=
201305010600 AAXX 01064 67633 32980 00000 10155 20094 48556 70200
                   333 10310 20106 58006
                   555 00/// 91023=

################################################################################
#  SYNOPS from 67641, Kaoma (Zambia) | 14-48S | 024-48E | 1213 m
################################################################################
201305301800 AAXX 30184 67641 NIL=
201305301500 AAXX 30154 67641 NIL=
201305301200 AAXX 30124 67641 NIL=
201305300900 AAXX 30094 67641 NIL=
201305300600 AAXX 30061 67641 32982 00000 10092 20063 48523
                   333 58011 555 00/// 91020=
201305291800 AAXX 29184 67641 NIL=
201305290900 AAXX 29094 67641 NIL=
201305281800 AAXX 28184 67641 NIL=
201305272100 AAXX 27214 67641 NIL=
201305270600 AAXX 27064 67641 32982 00904 10095 20064 48523
                   333 10272 20056 59010
                   555 00/// 91020=
201305260900 AAXX 26094 67641 NIL=
201305260000 AAXX 26004 67641 NIL=
201305252100 AAXX 25214 67641 NIL=
201305240900 AAXX 24094 67641 NIL=
201305240300 AAXX 24034 67641 NIL=
201305240000 AAXX 24004 67641 NIL=
201305231800 AAXX 23184 67641 NIL=
201305231500 AAXX 23154 67641 NIL=
201305220600 AAXX 22064 67641 NIL=
201305211500 AAXX 21154 67641 NIL=
201305210900 AAXX 21094 67641 NIL=
201305210600 AAXX 21060 67641 NIL=
201305210000 AAXX 21004 67641 NIL=
201305200600 AAXX 20060 67641 NIL=
201305190900 AAXX 19094 67641 NIL=
201305190600 AAXX 19061 67641 NIL=
201305180600 AAXX 18060 67641 NIL=
201305171200 AAXX 17121 67641 NIL=
201305170600 AAXX 17060 67641 NIL=
201305160900 AAXX 16094 67641 NIL=
201305160600 AAXX 16064 67641 NIL=
201305160000 AAXX 16004 67641 NIL=
201305152100 AAXX 15214 67641 NIL=
201305150300 AAXX 15034 67641 NIL=
201305141200 AAXX 14121 67641 NIL=
201305140900 AAXX 14094 67641 NIL=
201305140300 AAXX 14034 67641 NIL=
201305132100 AAXX 13214 67641 NIL=
201305131800 AAXX 13184 67641 NIL=
201305130900 AAXX 13094 67641 NIL=
201305130600 AAXX 13064 67641 NIL=
201305130300 AAXX 13034 67641 NIL=
201305121500 AAXX 12154 67641 NIL=
201305110900 AAXX 11094 67641 NIL=
201305110300 AAXX 11034 67641 NIL=
201305110000 AAXX 11004 67641 NIL=
201305102100 AAXX 10214 67641 NIL=
201305101800 AAXX 10184 67641 NIL=
201305101500 AAXX 10154 67641 NIL=
201305101200 AAXX 10124 67641 NIL=
201305100900 AAXX 10094 67641 NIL=
201305100600 AAXX 10064 67641 NIL=
201305100300 AAXX 10034 67641 NIL=
201305100000 AAXX 10004 67641 NIL=
201305091500 AAXX 09154 67641 NIL=
201305090900 AAXX 09094 67641 NIL=
201305090300 AAXX 09034 67641 NIL=
201305090000 AAXX 09004 67641 NIL=
201305082100 AAXX 08214 67641 NIL=
201305081500 AAXX 08154 67641 NIL=
201305081200 AAXX 08124 67641 NIL=
201305080300 AAXX 08034 67641 NIL=
201305071500 AAXX 07154 67641 NIL=
201305070900 AAXX 07094 67641 NIL=
201305070300 AAXX 07034 67641 NIL=
201305070000 AAXX 07004 67641 NIL=
201305061800 AAXX 06184 67641 NIL=
201305061500 AAXX 06154 67641 NIL=
201305060900 AAXX 06094 67641 NIL=
201305060000 AAXX 06004 67641 NIL=
201305051800 AAXX 05184 67641 NIL=
201305051200 AAXX 05121 67641 NIL=
201305050900 AAXX 05094 67641 NIL=
201305050000 AAXX 05004 67641 NIL=
201305041500 AAXX 04154 67641 NIL=
201305040900 AAXX 04094 67641 NIL=
201305040600 AAXX 04060 67641 NIL=
201305040300 AAXX 04034 67641 NIL=
201305040000 AAXX 04004 67641 NIL=
201305031800 AAXX 03184 67641 NIL=
201305031500 AAXX 03154 67641 NIL=
201305031200 AAXX 03120 67641 NIL=
201305030900 AAXX 03094 67641 NIL=
201305030000 AAXX 03004 67641 NIL=
201305021800 AAXX 02184 67641 NIL=
201305021500 AAXX 02154 67641 NIL=
201305021200 AAXX 02124 67641 NIL=
201305020900 AAXX 02094 67641 NIL=
201305020300 AAXX 02034 67641 NIL=
201305020000 AAXX 02004 67641 NIL=
201305012100 AAXX 01214 67641 NIL=
201305010900 AAXX 01094 67641 NIL=
201305010600 AAXX 01064 67641 NIL=

################################################################################
#  SYNOPS from 67655, Mumbwa (Zambia) | 15-04S | 027-11E | 1216 m
################################################################################
201305301800 AAXX 30184 67655 NIL=
201305301500 AAXX 30154 67655 NIL=
201305301200 AAXX 30124 67655 NIL=
201305300900 AAXX 30094 67655 NIL=
201305300600 AAXX 30061 67655 NIL=
201305291800 AAXX 29184 67655 NIL=
201305290900 AAXX 29094 67655 NIL=
201305290600 AAXX 29064 67655 32980 00000 10196 20076 48553
                   333 10273 20/// 59004 91022=
201305281800 AAXX 28184 67655 NIL=
201305280600 AAXX 28064 67655 32980 00000 10188 20100 48556
                   333 10266 20/// 59004 91022=
201305272100 AAXX 27214 67655 NIL=
201305270600 AAXX 27064 67655 NIL=
201305260900 AAXX 26094 67655 NIL=
201305260000 AAXX 26004 67655 NIL=
201305252100 AAXX 25214 67655 NIL=
201305240900 AAXX 24094 67655 NIL=
201305240600 AAXX 24064 67655 32980 00906 10175 20116 48570
                   333 10275 20/// 58001
                   555 00/// 91024=
201305240300 AAXX 24034 67655 NIL=
201305240000 AAXX 24004 67655 NIL=
201305231800 AAXX 23184 67655 NIL=
201305231500 AAXX 23154 67655 NIL=
201305220600 AAXX 22064 67655 NIL=
201305211500 AAXX 21154 67655 NIL=
201305210900 AAXX 21094 67655 NIL=
201305210600 AAXX 21064 67655 32980 00000 10151 20134 48559
                   333 10228 20/// 59007=
201305210000 AAXX 21004 67655 NIL=
201305200600 AAXX 20064 67655 32980 70903 10150 20122 48559 8707/
                   333 10295 20/// 59010 87360 91025=
201305190900 AAXX 19094 67655 NIL=
201305190600 AAXX 19061 67655 NIL=
201305180600 AAXX 18060 67655 NIL=
201305171200 AAXX 17121 67655 NIL=
201305170600 AAXX 17064 67655 32980 60904 10192 20127 48568 86031
                   333 10281 20/// 58010 86360 81080=
201305160900 AAXX 16094 67655 NIL=
201305160600 AAXX 16064 67655 32980 00906 10170 20099 48556
                   333 10278 20/// 59016
                   555 00/// 91023=
201305160000 AAXX 16004 67655 NIL=
201305152100 AAXX 15214 67655 NIL=
201305150300 AAXX 15034 67655 NIL=
201305141200 AAXX 14121 67655 NIL=
201305140900 AAXX 14094 67655 NIL=
201305140300 AAXX 14034 67655 NIL=
201305132100 AAXX 13214 67655 NIL=
201305131800 AAXX 13184 67655 NIL=
201305130900 AAXX 13094 67655 42980 00906 10235 20096 48590
                   333 58015 91028=
201305130600 AAXX 13064 67655 NIL=
201305130300 AAXX 13034 67655 NIL=
201305121500 AAXX 12154 67655 NIL=
201305110900 AAXX 11094 67655 NIL=
201305110300 AAXX 11034 67655 NIL=
201305110000 AAXX 11004 67655 NIL=
201305102100 AAXX 10214 67655 NIL=
201305101800 AAXX 10184 67655 NIL=
201305101500 AAXX 10154 67655 NIL=
201305101200 AAXX 10124 67655 NIL=
201305100900 AAXX 10094 67655 NIL=
201305100600 AAXX 10064 67655 NIL=
201305100300 AAXX 10034 67655 NIL=
201305100000 AAXX 10004 67655 NIL=
201305091500 AAXX 09154 67655 NIL=
201305090900 AAXX 09094 67655 42680 60000 10250 20113 48565 82130
                   333 59024 82840 85362 91023=
201305090600 AAXX 09064 67655 32980 10806 10167 20116 48551 80001
                   333 10265 20/// 59023 81080=
201305090300 AAXX 09034 67655 NIL=
201305090000 AAXX 09004 67655 NIL=
201305082100 AAXX 08214 67655 NIL=
201305081500 AAXX 08154 67655 NIL=
201305081200 AAXX 08124 67655 NIL=
201305080600 AAXX 08064 67655 32980 00906 10150 20105 48571
                   333 10250 20/// 59018=
201305080300 AAXX 08034 67655 NIL=
201305071500 AAXX 07154 67655 NIL=
201305070900 AAXX 07094 67655 NIL=
201305070300 AAXX 07034 67655 NIL=
201305070000 AAXX 07004 67655 NIL=
201305061800 AAXX 06184 67655 NIL=
201305061500 AAXX 06154 67655 NIL=
201305060900 AAXX 06094 67655 NIL=
201305060600 AAXX 06064 67655 32980 21109 10168 20129 48573 82030
                   333 10283 20/// 58009 82360=
201305060000 AAXX 06004 67655 NIL=
201305051800 AAXX 05184 67655 NIL=
201305051200 AAXX 05121 67655 NIL=
201305050900 AAXX 05094 67655 NIL=
201305050000 AAXX 05004 67655 NIL=
201305041500 AAXX 04154 67655 NIL=
201305040900 AAXX 04094 67655 NIL=
201305040600 AAXX 04060 67655 NIL=
201305040300 AAXX 04034 67655 NIL=
201305040000 AAXX 04004 67655 NIL=
201305031800 AAXX 03184 67655 NIL=
201305031500 AAXX 03154 67655 NIL=
201305031200 AAXX 03120 67655 NIL=
201305030900 AAXX 03094 67655 NIL=
201305030000 AAXX 03004 67655 NIL=
201305021800 AAXX 02184 67655 NIL=
201305021500 AAXX 02154 67655 NIL=
201305021200 AAXX 02124 67655 NIL=
201305020900 AAXX 02094 67655 NIL=
201305020300 AAXX 02034 67655 NIL=
201305020000 AAXX 02004 67655 NIL=
201305012100 AAXX 01214 67655 NIL=
201305010900 AAXX 01094 67655 NIL=
201305010600 AAXX 01064 67655 NIL=

################################################################################
#  SYNOPS from 67659, Kafue Polder (Zambia) | 15-46S | 027-55E | 978 m
################################################################################
201305301800 AAXX 30184 67659 NIL=
201305301500 AAXX 30154 67659 NIL=
201305301200 AAXX 30124 67659 NIL=
201305300900 AAXX 30094 67659 NIL=
201305300600 AAXX 30061 67659 NIL=
201305291800 AAXX 29184 67659 NIL=
201305290900 AAXX 29094 67659 NIL=
201305281800 AAXX 28184 67659 NIL=
201305272100 AAXX 27214 67659 NIL=
201305270600 AAXX 27064 67659 NIL=
201305260900 AAXX 26094 67659 NIL=
201305260000 AAXX 26004 67659 NIL=
201305252100 AAXX 25214 67659 NIL=
201305240900 AAXX 24094 67659 NIL=
201305240300 AAXX 24034 67659 NIL=
201305240000 AAXX 24004 67659 NIL=
201305231800 AAXX 23184 67659 NIL=
201305231500 AAXX 23154 67659 NIL=
201305220600 AAXX 22064 67659 NIL=
201305211500 AAXX 21154 67659 NIL=
201305210900 AAXX 21094 67659 NIL=
201305210600 AAXX 21060 67659 NIL=
201305210000 AAXX 21004 67659 NIL=
201305200600 AAXX 20060 67659 NIL=
201305190900 AAXX 19094 67659 NIL=
201305190600 AAXX 19061 67659 NIL=
201305180600 AAXX 18060 67659 NIL=
201305171200 AAXX 17121 67659 NIL=
201305170600 AAXX 17060 67659 NIL=
201305160900 AAXX 16094 67659 NIL=
201305160600 AAXX 16064 67659 NIL=
201305160000 AAXX 16004 67659 NIL=
201305152100 AAXX 15214 67659 NIL=
201305150300 AAXX 15034 67659 NIL=
201305141200 AAXX 14121 67659 NIL=
201305140900 AAXX 14094 67659 NIL=
201305140300 AAXX 14034 67659 NIL=
201305132100 AAXX 13214 67659 NIL=
201305131800 AAXX 13184 67659 NIL=
201305130900 AAXX 13094 67659 NIL=
201305130600 AAXX 13064 67659 NIL=
201305130300 AAXX 13034 67659 NIL=
201305121500 AAXX 12154 67659 NIL=
201305110900 AAXX 11094 67659 NIL=
201305110300 AAXX 11034 67659 NIL=
201305110000 AAXX 11004 67659 NIL=
201305102100 AAXX 10214 67659 NIL=
201305101800 AAXX 10184 67659 NIL=
201305101500 AAXX 10154 67659 NIL=
201305101200 AAXX 10124 67659 NIL=
201305100900 AAXX 10094 67659 NIL=
201305100600 AAXX 10064 67659 NIL=
201305100300 AAXX 10034 67659 NIL=
201305100000 AAXX 10004 67659 NIL=
201305091500 AAXX 09154 67659 NIL=
201305090900 AAXX 09094 67659 NIL=
201305090300 AAXX 09034 67659 NIL=
201305090000 AAXX 09004 67659 NIL=
201305082100 AAXX 08214 67659 NIL=
201305081500 AAXX 08154 67659 NIL=
201305081200 AAXX 08124 67659 NIL=
201305080300 AAXX 08034 67659 NIL=
201305071500 AAXX 07154 67659 NIL=
201305070900 AAXX 07094 67659 NIL=
201305070300 AAXX 07034 67659 NIL=
201305070000 AAXX 07004 67659 NIL=
201305061800 AAXX 06184 67659 NIL=
201305061500 AAXX 06154 67659 NIL=
201305060900 AAXX 06094 67659 NIL=
201305060000 AAXX 06004 67659 NIL=
201305051800 AAXX 05184 67659 NIL=
201305051200 AAXX 05121 67659 NIL=
201305050900 AAXX 05094 67659 NIL=
201305050000 AAXX 05004 67659 NIL=
201305041500 AAXX 04154 67659 NIL=
201305040900 AAXX 04094 67659 NIL=
201305040600 AAXX 04060 67659 NIL=
201305040300 AAXX 04034 67659 NIL=
201305040000 AAXX 04004 67659 NIL=
201305031800 AAXX 03184 67659 NIL=
201305031500 AAXX 03154 67659 NIL=
201305031200 AAXX 03120 67659 NIL=
201305030900 AAXX 03094 67659 NIL=
201305030000 AAXX 03004 67659 NIL=
201305021800 AAXX 02184 67659 NIL=
201305021500 AAXX 02154 67659 NIL=
201305021200 AAXX 02124 67659 NIL=
201305020900 AAXX 02094 67659 NIL=
201305020300 AAXX 02034 67659 NIL=
201305020000 AAXX 02004 67659 NIL=
201305012100 AAXX 01214 67659 NIL=
201305010900 AAXX 01094 67659 NIL=
201305010600 AAXX 01064 67659 NIL=

################################################################################
#  SYNOPS from 67662, Kabwe Agric (Zambia) | 14-24S | 028-30E | 1165 m
################################################################################
201305301800 AAXX 30184 67662 NIL=
201305301500 AAXX 30154 67662 NIL=
201305301200 AAXX 30124 67662 NIL=
201305300900 AAXX 30094 67662 NIL=
201305300600 AAXX 30061 67662 NIL=
201305291800 AAXX 29184 67662 NIL=
201305290900 AAXX 29094 67662 NIL=
201305281800 AAXX 28184 67662 NIL=
201305272100 AAXX 27214 67662 NIL=
201305270600 AAXX 27064 67662 NIL=
201305260900 AAXX 26094 67662 NIL=
201305260000 AAXX 26004 67662 NIL=
201305252100 AAXX 25214 67662 NIL=
201305240900 AAXX 24094 67662 NIL=
201305240300 AAXX 24034 67662 NIL=
201305240000 AAXX 24004 67662 NIL=
201305231800 AAXX 23184 67662 NIL=
201305231500 AAXX 23154 67662 NIL=
201305220600 AAXX 22064 67662 NIL=
201305211500 AAXX 21154 67662 NIL=
201305210900 AAXX 21094 67662 NIL=
201305210600 AAXX 21060 67662 NIL=
201305210000 AAXX 21004 67662 NIL=
201305200600 AAXX 20060 67662 NIL=
201305190900 AAXX 19094 67662 NIL=
201305190600 AAXX 19061 67662 NIL=
201305180600 AAXX 18060 67662 NIL=
201305171200 AAXX 17121 67662 NIL=
201305170600 AAXX 17060 67662 NIL=
201305160900 AAXX 16094 67662 NIL=
201305160600 AAXX 16064 67662 NIL=
201305160000 AAXX 16004 67662 NIL=
201305152100 AAXX 15214 67662 NIL=
201305150300 AAXX 15034 67662 NIL=
201305141200 AAXX 14121 67662 NIL=
201305140900 AAXX 14094 67662 NIL=
201305140300 AAXX 14034 67662 NIL=
201305132100 AAXX 13214 67662 NIL=
201305131800 AAXX 13184 67662 NIL=
201305130900 AAXX 13094 67662 NIL=
201305130600 AAXX 13064 67662 NIL=
201305130300 AAXX 13034 67662 NIL=
201305121500 AAXX 12154 67662 NIL=
201305110900 AAXX 11094 67662 NIL=
201305110300 AAXX 11034 67662 NIL=
201305110000 AAXX 11004 67662 NIL=
201305102100 AAXX 10214 67662 NIL=
201305101800 AAXX 10184 67662 NIL=
201305101500 AAXX 10154 67662 NIL=
201305101200 AAXX 10124 67662 NIL=
201305100900 AAXX 10094 67662 NIL=
201305100600 AAXX 10064 67662 NIL=
201305100300 AAXX 10034 67662 NIL=
201305100000 AAXX 10004 67662 NIL=
201305091500 AAXX 09154 67662 NIL=
201305090900 AAXX 09094 67662 NIL=
201305090300 AAXX 09034 67662 NIL=
201305090000 AAXX 09004 67662 NIL=
201305082100 AAXX 08214 67662 NIL=
201305081500 AAXX 08154 67662 NIL=
201305081200 AAXX 08124 67662 NIL=
201305080300 AAXX 08034 67662 NIL=
201305071500 AAXX 07154 67662 NIL=
201305070900 AAXX 07094 67662 NIL=
201305070300 AAXX 07034 67662 NIL=
201305070000 AAXX 07004 67662 NIL=
201305061800 AAXX 06184 67662 NIL=
201305061500 AAXX 06154 67662 NIL=
201305060900 AAXX 06094 67662 NIL=
201305060000 AAXX 06004 67662 NIL=
201305051800 AAXX 05184 67662 NIL=
201305051200 AAXX 05121 67662 NIL=
201305050900 AAXX 05094 67662 NIL=
201305050000 AAXX 05004 67662 NIL=
201305041500 AAXX 04154 67662 NIL=
201305040900 AAXX 04094 67662 NIL=
201305040600 AAXX 04060 67662 NIL=
201305040300 AAXX 04034 67662 NIL=
201305040000 AAXX 04004 67662 NIL=
201305031800 AAXX 03184 67662 NIL=
201305031500 AAXX 03154 67662 NIL=
201305031200 AAXX 03120 67662 NIL=
201305030900 AAXX 03094 67662 NIL=
201305030000 AAXX 03004 67662 NIL=
201305021800 AAXX 02184 67662 NIL=
201305021500 AAXX 02154 67662 NIL=
201305021200 AAXX 02124 67662 NIL=
201305020900 AAXX 02094 67662 NIL=
201305020300 AAXX 02034 67662 NIL=
201305020000 AAXX 02004 67662 NIL=
201305012100 AAXX 01214 67662 NIL=
201305010900 AAXX 01094 67662 NIL=
201305010600 AAXX 01064 67662 NIL=

################################################################################
#  SYNOPS from 67663, Kabwe (Zambia) | 14-27S | 028-28E | 1206 m
################################################################################
201305310600 AAXX 31064 67663 32980 00903 10194 20106 48541
                   333 10296 20102 59013
                   555 00///=
201305301800 AAXX 30184 67663 NIL=
201305301500 AAXX 30154 67663 NIL=
201305301200 AAXX 30124 67663 NIL=
201305300900 AAXX 30094 67663 NIL=
201305300600 AAXX 30061 67663 32980 00903 10176 20082 48552
                   333 10292 20102 58009
                   555 00///=
201305291800 AAXX 29184 67663 NIL=
201305290900 AAXX 29094 67663 NIL=
201305281800 AAXX 28184 67663 NIL=
201305280600 AAXX 28064 67663 32980 00907 10195 20091 48547
                   333 10276 20096 58011=
201305272100 AAXX 27214 67663 NIL=
201305270600 AAXX 27064 67663 32980 00903 10166 20096 48535
                   333 10259 20104 59015=
201305260900 AAXX 26094 67663 NIL=
201305260000 AAXX 26004 67663 NIL=
201305252100 AAXX 25214 67663 NIL=
201305240900 AAXX 24094 67663 NIL=
201305240600 AAXX 24064 67663 32980 00903 10181 20129 48572
                   333 10267 20123 58008=
201305240300 AAXX 24034 67663 NIL=
201305240000 AAXX 24004 67663 NIL=
201305231800 AAXX 23184 67663 NIL=
201305231500 AAXX 23154 67663 NIL=
201305230600 AAXX 23064 67663 32980 10904 10166 20126 48561 81030
                   333 10269 20119 58004 81360=
201305220600 AAXX 22064 67663 NIL=
201305211500 AAXX 21154 67663 NIL=
201305210900 AAXX 21094 67663 NIL=
201305210600 AAXX 21060 67663 NIL=
201305210000 AAXX 21004 67663 NIL=
201305200600 AAXX 20060 67663 NIL=
201305190900 AAXX 19094 67663 NIL=
201305190600 AAXX 19061 67663 32480 51213 10167 20142 48556 84508
                   333 10279 20138 59008 84619 85280
                   555 00///=
201305180600 AAXX 18060 67663 32980 00907 10188 20136 48568
                   333 10298 20146 58009
                   555 00///=
201305171200 AAXX 17121 67663 NIL=
201305170600 AAXX 17064 67663 32980 10908 10196 20141 48560 81030
                   333 10292 20137 58009 81360=
201305160900 AAXX 16094 67663 NIL=
201305160600 AAXX 16064 67663 NIL=
201305160000 AAXX 16004 67663 NIL=
201305152100 AAXX 15214 67663 NIL=
201305150300 AAXX 15034 67663 NIL=
201305141200 AAXX 14121 67663 NIL=
201305140900 AAXX 14094 67663 NIL=
201305140300 AAXX 14034 67663 NIL=
201305132100 AAXX 13214 67663 NIL=
201305131800 AAXX 13184 67663 NIL=
201305130900 AAXX 13094 67663 NIL=
201305130600 AAXX 13064 67663 NIL=
201305130300 AAXX 13034 67663 NIL=
201305121500 AAXX 12154 67663 NIL=
201305110900 AAXX 11094 67663 NIL=
201305110300 AAXX 11034 67663 NIL=
201305110000 AAXX 11004 67663 NIL=
201305102100 AAXX 10214 67663 NIL=
201305101800 AAXX 10184 67663 NIL=
201305101500 AAXX 10154 67663 NIL=
201305101200 AAXX 10124 67663 NIL=
201305100900 AAXX 10094 67663 NIL=
201305100600 AAXX 10064 67663 32980 60305 10194 20123 48542 80008
                   333 10283 20124 58013 86280
                   555 00///=
201305100300 AAXX 10034 67663 NIL=
201305100000 AAXX 10004 67663 NIL=
201305091500 AAXX 09154 67663 NIL=
201305090900 AAXX 09094 67663 NIL=
201305090300 AAXX 09034 67663 NIL=
201305090000 AAXX 09004 67663 NIL=
201305082100 AAXX 08214 67663 NIL=
201305081500 AAXX 08154 67663 NIL=
201305081200 AAXX 08124 67663 NIL=
201305080300 AAXX 08034 67663 NIL=
201305071500 AAXX 07154 67663 NIL=
201305070900 AAXX 07094 67663 NIL=
201305070300 AAXX 07034 67663 NIL=
201305070000 AAXX 07004 67663 NIL=
201305061800 AAXX 06184 67663 NIL=
201305061500 AAXX 06154 67663 NIL=
201305060900 AAXX 06094 67663 NIL=
201305060000 AAXX 06004 67663 NIL=
201305051800 AAXX 05184 67663 NIL=
201305051200 AAXX 05121 67663 NIL=
201305050900 AAXX 05094 67663 NIL=
201305050000 AAXX 05004 67663 NIL=
201305041500 AAXX 04154 67663 NIL=
201305040900 AAXX 04094 67663 NIL=
201305040600 AAXX 04060 67663 NIL=
201305040300 AAXX 04034 67663 NIL=
201305040000 AAXX 04004 67663 NIL=
201305031800 AAXX 03184 67663 NIL=
201305031500 AAXX 03154 67663 NIL=
201305031200 AAXX 03120 67663 NIL=
201305030900 AAXX 03094 67663 NIL=
201305030000 AAXX 03004 67663 NIL=
201305021800 AAXX 02184 67663 NIL=
201305021500 AAXX 02154 67663 NIL=
201305021200 AAXX 02124 67663 NIL=
201305020900 AAXX 02094 67663 NIL=
201305020300 AAXX 02034 67663 NIL=
201305020000 AAXX 02004 67663 NIL=
201305012100 AAXX 01214 67663 NIL=
201305010900 AAXX 01094 67663 NIL=
201305010600 AAXX 01064 67663 NIL=

################################################################################
#  SYNOPS from 67665, Lusaka Internationalairport (Zambia) | 15-19S | 028-27E | 1152 m
################################################################################
201305310600 AAXX 31064 67665 32980 10000 10159 20159 48522 80001
                   333 10121 20290 59005 81080=
201305301800 AAXX 30184 67665 NIL=
201305301500 AAXX 30154 67665 42980 00903 10264 20156 48541 70200
                   333 58004 91020=
201305301200 AAXX 30124 67665 42980 01504 10272 20214 48597 70200
                   333 59010=
201305300900 AAXX 30094 67665 NIL=
201305300600 AAXX 30061 67665 NIL=
201305300300 AAXX 30034 67665 42980 01204 10119 20109 49535
                   333 58009=
201305292100 AAXX 29214 67665 42980 01304 10149 20122 48545
                   333 58012=
201305291800 AAXX 29184 67665 42980 01003 10174 20131 48541
                   333 10295 58009=
201305291500 AAXX 29154 67665 42980 01408 10249 20146 48536
                   333 58007=
201305291200 AAXX 29124 67665 42980 00708 10275 20085 48539
                   333 58005=
201305290900 AAXX 29094 67665 42980 00707 10256 20085 48560 70200
                   333 59001=
201305290600 AAXX 29064 67665 42980 01501 10150 20065 48540 70200
                   333 10279 20184 59004=
201305290300 AAXX 29034 67665 42980 01504 10092 20082 48523 70200
                   333 58000=
201305282100 AAXX 28214 67665 42980 01404 10140 20131 48531 70200
                   333 59011=
201305281800 AAXX 28184 67665 NIL=
201305281500 AAXX 28154 67665 42980 01105 10273 20098 48531
                   333 59009=
201305281200 AAXX 28124 67665 42980 00000 10265 20093 48534
                   333 59013=
201305280900 AAXX 28094 67665 42980 00904 10245 20075 48556
                   333 59014=
201305280600 AAXX 28064 67665 31960 01503 10135 20099 48541 70500
                   333 10270 20//0 59003=
201305272100 AAXX 27214 67665 NIL=
201305271800 AAXX 27184 67665 42980 01702 10161 20145 48540 70200
                   333 10270 59006=
201305271500 AAXX 27154 67665 42980 01103 10244 20176 48536 70200
                   333 59006=
201305271200 AAXX 27124 67665 42780 11803 10246 20063 48545 70200 81100
                   333 59007 81856=
201305270900 AAXX 27094 67665 42980 01005 10230 20101 48567
                   333 59007=
201305270600 AAXX 27064 67665 32980 00000 10134 20108 48545
                   333 10249 20175 59013=
201305270300 AAXX 27034 67665 42980 01504 10110 20091 48531 70200
                   333 59013 91021=
201305261800 AAXX 26184 67665 42980 00903 10151 20134 48544 70200
                   333 59008=
201305261500 AAXX 26154 67665 42680 11103 10226 20181 48541 70200 81130
                   333 59013 81850 81360=
201305261200 AAXX 26124 67665 42580 11306 10233 20198 48549 70200 81100
                   333 59015 81835=
201305260900 AAXX 26094 67665 42580 31007 10218 20179 48573 70300 81100
                   333 59018 83820=
201305260600 AAXX 26064 67665 32980 01303 10128 20110 48556 70200
                   333 10240 20//0 59019=
201305260000 AAXX 26004 67665 NIL=
201305252100 AAXX 25214 67665 42980 01503 10143 20134 48562
                   333 58004=
201305251500 AAXX 25154 67665 42980 11509 10232 20179 48554 70100 81030
                   333 10256 58001 81360 91022=
201305251200 AAXX 25124 67665 42680 30905 10226 20146 48563 70100 83100
                   333 58006 83830=
201305250600 AAXX 25064 67665 32980 01105 10142 20116 48576
                   333 10261 20174 58014=
201305250300 AAXX 25034 67665 42980 01406 10144 20133 48553
                   333 58012=
201305242100 AAXX 24214 67665 42980 01303 10157 20123 48560
                   333 58005=
201305241800 AAXX 24184 67665 42980 11405 10160 20118 48558 81030
                   333 10261 58008 81360=
201305241500 AAXX 24154 67665 42780 21307 10231 20131 48554 70200 81130
                   333 58014 81850 81360=
201305241200 AAXX 24124 67665 42680 30909 10241 20181 48559 83200
                   333 58010 83835=
201305240900 AAXX 24094 67665 NIL=
201305240600 AAXX 24064 67665 42980 01206 10150 20119 48564 70200
                   333 10267 20119 58001=
201305240300 AAXX 24034 67665 NIL=
201305240000 AAXX 24004 67665 NIL=
201305232100 AAXX 23214 67665 42980 11604 10144 20135 48554 70200 81030
                   333 58006 81360=
201305231800 AAXX 23184 67665 NIL=
201305231500 AAXX 23154 67665 NIL=
201305230900 AAXX 23094 67665 42580 20913 10230 20141 48576 82100
                   333 58001 82825=
201305230600 AAXX 23064 67665 32980 31105 10146 20130 48561 83030
                   333 10265 20//0 59001 83360=
201305221800 AAXX 22184 67665 42980 21503 10170 20154 48547 70200 82030
                   333 10265 58002 82360=
201305221500 AAXX 22154 67665 42780 40804 10224 20162 48544 70222 82230
                   333 58006 82856 83360=
201305221200 AAXX 22124 67665 50807 10230 20159 48550 70200 85200
                   333 58005 85840=
201305220900 AAXX 22094 67665 42580 30807 10226 20145 48575 83800
                   333 58001 82825 81625=
201305220600 AAXX 22064 67665 32480 10906 10145 20133 48564 81500
                   333 10273 20//0 58003 81610=
201305220300 AAXX 22034 67665 42980 11503 10124 20114 48539 70200 81030
                   333 59002 81360 91022=
201305211800 AAXX 21184 67665 42980 11404 10168 20151 48544 70200 81030
                   333 59011 81360=
201305211500 AAXX 21154 67665 NIL=
201305211200 AAXX 21124 67665 42680 51108 10234 20155 48545 70200 85800
                   333 59007 82533 85835=
201305210900 AAXX 21094 67665 42580 50909 10210 20154 48571 70200 85500
                   333 59003 85620=
201305210600 AAXX 21064 67665 32980 11304 10142 20124 48559 70200 81030
                   333 10220 20/// 59003 81360=
201305210000 AAXX 21004 67665 NIL=
201305201800 AAXX 20184 67665 42680 71304 10174 20142 48556 70222 83530
                   333 10220 59008 83648 86360=
201305201500 AAXX 20154 67665 42680 71006 10201 20143 48545 70100 81130
                   333 59013 81835 86360=
201305201200 AAXX 20124 67665 42580 71006 10215 20160 48550 70222 85530
                   333 59012 85625 86360=
201305200900 AAXX 20094 67665 42580 70911 10189 20141 48572 85530
                   333 59015 85610 86360=
201305200600 AAXX 20064 67665 32380 70909 10153 20134 48564 82630
                   333 10249 20/// 59017 82708 87360=
201305200300 AAXX 20034 67665 42980 41305 10142 20136 48537 84030
                   333 59018 84360=
201305192100 AAXX 19214 67665 42980 11306 10140 20118 48557 81030
                   333 59008 81360=
201305191800 AAXX 19184 67665 41960 10903 10163 20129 48562 70500 80001
                   333 10249 59004 81080=
201305191500 AAXX 19154 67665 42780 30809 10220 20165 48560 82160
                   333 58002 82850 81360=
201305191200 AAXX 19124 67665 42680 40909 10228 20156 48563 84100
                   333 58001 84835=
201305190900 AAXX 19094 67665 42580 30914 10206 20150 48589 83101
                   333 58008 83825 81080=
201305190600 AAXX 19064 67665 32480 41013 10172 20132 48583 83131
                   333 10295 20/// 58016 83815 81360 84080=
201305190300 AAXX 19034 67665 42980 31209 10140 20132 48563 70300 83030
                   333 58020 83360=
201305180600 AAXX 18060 67665 NIL=
201305171500 AAXX 17154 67665 42780 31309 10256 20213 48548 70100 83200
                   333 58012 83850=
201305171200 AAXX 17121 67665 NIL=
201305170900 AAXX 17094 67665 42980 11010 10241 20163 48575 70100 80001
                   333 58012 81080 91024=
201305170600 AAXX 17064 67665 32980 21204 10196 20129 48563 70200 82030
                   333 10275 20211 58007 82360=
201305170300 AAXX 17034 67665 42980 21703 10169 20144 48544 70100 82030
                   333 58005 82360 91022=
201305162100 AAXX 16214 67665 42980 21503 10169 20161 48541 70300 82030
                   333 59001 82360 91022=
201305161800 AAXX 16184 67665 42980 0//// 10181 20165 48542 70200
                   333 58001=
201305161200 AAXX 16124 67665 42680 40804 10254 20187 48537 70300 84500
                   333 59011 84635=
201305160900 AAXX 16094 67665 NIL=
201305160600 AAXX 16064 67665 32980 11204 10165 20116 48552 81030
                   333 10271 20180 59013 81360=
201305160300 AAXX 16034 67665 42980 01404 10126 20119 48532
                   333 59017=
201305160000 AAXX 16004 67665 NIL=
201305152100 AAXX 15214 67665 NIL=
201305151800 AAXX 15184 67665 42980 01404 10160 20144 48539 70200
                   333 10260 59027=
201305151500 AAXX 15154 67665 42980 00907 10236 20175 48528
                   333 59025 555 10260 91020=
201305151200 AAXX 15124 67665 42680 10809 10235 20174 48550 81100
                   333 59027 81840=
201305150900 AAXX 15094 67665 42580 10609 10210 20162 48569 81100
                   333 59025 81825=
201305150600 AAXX 15064 67665 32980 01005 10145 20115 48562
                   333 59023=
201305150300 AAXX 15034 67665 NIL=
201305150000 AAXX 15004 67665 42980 01303 10142 20125 48548
                   333 59022=
201305142100 AAXX 14214 67665 42980 01004 10146 20120 48563
                   333 59013=
201305141800 AAXX 14184 67665 42980 01205 10165 20136 48566
                   333 10255 59011=
201305141500 AAXX 14154 67665 42980 11108 10225 20164 48560 81030
                   333 59002 81360=
201305141200 AAXX 14121 67665 42680 31111 10234 20180 48572 83100
                   333 58001 83840=
201305140900 AAXX 14094 67665 NIL=
201305140300 AAXX 14034 67665 42980 01603 10120 20111 48561
                   333 58004=
201305132100 AAXX 13214 67665 42980 01604 10135 20126 48574
                   333 58011=
201305131800 AAXX 13184 67665 NIL=
201305131200 AAXX 13124 67665 42680 10812 10245 20186 48574 81100
                   333 58009 81835=
201305130900 AAXX 13094 67665 42980 00912 10216 20179 48594
                   333 58009=
201305130600 AAXX 13064 67665 NIL=
201305130300 AAXX 13034 67665 NIL=
201305121800 AAXX 12184 67665 42980 11204 10180 20164 48571 81030
                   333 10284 58008 81360=
201305121500 AAXX 12154 67665 42780 31006 10245 20177 48561 83200
                   333 58004 83857=
201305121200 AAXX 12124 67665 42680 51407 10260 20185 48567 85200
                   333 58011 85845=
201305120900 AAXX 12094 67665 42680 10811 10226 20172 48587 81100
                   333 58011 81830=
201305120600 AAXX 12064 67665 32980 01204 10165 20125 48571
                   333 10300 20/// 58008=
201305120300 AAXX 12034 67665 42980 11403 10142 20134 48553 81030
                   333 58026 81360 91023=
201305120000 AAXX 12004 67665 42980 11506 10160 20152 48558 81030
                   333 58014 81360=
201305112100 AAXX 11214 67665 42980 11103 10171 20150 48567 81030
                   333 58017 81360 91024=
201305111500 AAXX 11154 67665 42980 61810 10244 20194 48556 81031
                   333 58017=
201305111200 AAXX 11124 67665 42680 41008 10261 20195 48556 70300 83501
                   333 58011 83635 82080=
201305110900 AAXX 11094 67665 42980 20808 10234 20190 48576 80001
                   333 58007 82080=
201305110600 AAXX 11064 67665 32980 21205 10184 20160 48564 82030
                   333 10285 20203 58004 82360=
201305110300 AAXX 11034 67665 NIL=
201305110000 AAXX 11004 67665 NIL=
201305102100 AAXX 10214 67665 NIL=
201305101800 AAXX 10184 67665 42980 21803 10195 20172 48549 82030
                   333 10285 58013 82360=
201305101500 AAXX 10154 67665 42780 30902 10245 20132 48541 81132
                   333 58010 81850 81360 82080=
201305101200 AAXX 10124 67665 42680 60704 10265 20212 48545 85202
                   333 58008 85830 82080 91021=
201305100900 AAXX 10094 67665 42480 40403 10238 20194 48571 70300 81101
                   333 58010 81815 84080=
201305100600 AAXX 10064 67665 32980 11406 10181 20158 48561 80001
                   333 10279 20115 58009 81080=
201305100300 AAXX 10034 67665 NIL=
201305100000 AAXX 10004 67665 NIL=
201305092100 AAXX 09214 67665 42980 01102 10165 20140 48538
                   333 59012=
201305091800 AAXX 09184 67665 42980 01304 10181 20158 48535
                   333 10279 59014=
201305091500 AAXX 09154 67665 42980 22405 10250 20199 48531 82030
                   333 59016 82360=
201305091200 AAXX 09124 67665 42680 42709 10251 20192 48536 84100
                   333 59017 84840=
201305090900 AAXX 09094 67665 42580 20907 10215 20169 48558 81530
                   333 59027 81625 81360 91023=
201305090600 AAXX 09064 67665 42980 01405 10145 20119 48548 70200
                   333 10254 20185 59031
                   555 00/// 91023=
201305090300 AAXX 09034 67665 42980 01509 10125 20116 48524
                   333 59044=
201305090000 AAXX 09004 67665 NIL=
201305082100 AAXX 08214 67665 42980 01507 10142 20134 48546
                   333 59030=
201305081800 AAXX 08184 67665 42980 11007 10172 20155 48548 81030
                   333 10254 59025 81360=
201305081500 AAXX 08154 67665 42980 21207 10228 20174 48544 82030
                   333 59026 82360=
201305081200 AAXX 08124 67665 NIL=
201305080900 AAXX 08094 67665 42580 10713 10196 20148 48582 81500
                   333 59013 81625=
201305080600 AAXX 08064 67665 32480 10910 10138 20105 48576 81500
                   333 10240 20123 59010 81610=
201305080300 AAXX 08034 67665 NIL=
201305071800 AAXX 07184 67665 42980 11205 10150 20141 48568 81030
                   333 10240 59013 81360=
201305071500 AAXX 07154 67665 42980 10808 10214 20159 48567 81030
                   333 59009 81360=
201305071200 AAXX 07124 67665 42980 01110 10216 20161 48576
                   333 59005=
201305070900 AAXX 07094 67665 NIL=
201305070300 AAXX 07034 67665 NIL=
201305070000 AAXX 07004 67665 42980 11209 10133 20114 48568 81030
                   333 58011 81360=
201305062100 AAXX 06214 67665 42980 11206 10142 20125 48576 81030
                   333 58010 81360 91026=
201305061800 AAXX 06184 67665 NIL=
201305061500 AAXX 06154 67665 NIL=
201305061200 AAXX 06124 67665 42580 70913 10216 20170 48584 70200 87500
                   333 58028 87625=
201305060900 AAXX 06094 67665 42480 60914 10204 20173 48596 70300 86530
                   333 58020 86620 81360=
201305060600 AAXX 06064 67665 32980 11010 10166 20150 48585 81030
                   333 10279 20150 58013 81360=
201305060000 AAXX 06004 67665 NIL=
201305051800 AAXX 05184 67665 42980 11408 10199 20184 48565 81030
                   333 10279 58017 81360=
201305051500 AAXX 05154 67665 42680 31309 10254 20176 48559 81130
                   333 58015 81845 82360
                   555 10279=
201305051200 AAXX 05124 67665 42680 51110 10254 20187 48560 85200
                   333 58015 85830 91022=
201305050900 AAXX 05094 67665 NIL=
201305050000 AAXX 05004 67665 NIL=
201305041800 AAXX 04184 67665 42980 11207 10180 20165 48546 81030
                   333 10271 58001 81360=
201305041500 AAXX 04154 67665 42980 21107 10229 20166 48542 82030
                   333 58007 82360=
201305041200 AAXX 04124 67665 42680 51110 10236 20167 48545 85100
                   333 58002 85842=
201305040900 AAXX 04094 67665 42580 10713 10216 20177 48568 70300 81100
                   333 59001 81825 91024=
201305040600 AAXX 04064 67665 42980 11409 10136 20109 48554 81030
                   333 10250 20110 59006 81360
                   555 00/// 91023=
201305040300 AAXX 04034 67665 NIL=
201305040000 AAXX 04004 67665 NIL=
201305031800 AAXX 03184 67665 NIL=
201305031500 AAXX 03154 67665 NIL=
201305031200 AAXX 03120 67665 NIL=
201305030900 AAXX 03094 67665 42480 10810 10202 20154 48566 82500
                   333 59005 82618=
201305030600 AAXX 03064 67665 32480 11109 10135 20112 48559 81500
                   333 10248 20100 59003 81610=
201305030300 AAXX 03034 67665 42980 01507 10106 20106 48542 70200
                   333 59011 91022=
201305030000 AAXX 03004 67665 42980 01506 10136 20109 48543 70200
                   333 59008 91022=
201305022100 AAXX 02214 67665 42980 01705 10143 20126 48554
                   333 59005 91023=
201305021800 AAXX 02184 67665 NIL=
201305021500 AAXX 02154 67665 NIL=
201305021200 AAXX 02124 67665 NIL=
201305020900 AAXX 02094 67665 42480 50916 10210 20176 48575 85500
                   333 59020 85618=
201305020600 AAXX 02064 67665 32480 30912 10160 20144 48565 83500
                   333 10250 20118 59020 83610=
201305020300 AAXX 02034 67665 NIL=
201305020000 AAXX 02004 67665 NIL=
201305012100 AAXX 01214 67665 NIL=
201305011800 AAXX 01184 67665 42980 01109 10160 20152 48567
                   333 59002=
201305011200 AAXX 01124 67665 42680 50916 10222 20168 48573 85200
                   333 58010 85835=
201305010900 AAXX 01094 67665 NIL=
201305010600 AAXX 01064 67665 NIL=

################################################################################
#  SYNOPS from 67666, Lusaka City Airport (Zambia) | 15-25S | 028-19E | 1280 m
################################################################################
201305310600 AAXX 31064 67666 32980 00000 10190 20102 48552
                   333 10270 20110 58002 91022=
201305301800 AAXX 30184 67666 NIL=
201305301500 AAXX 30154 67666 NIL=
201305301200 AAXX 30124 67666 NIL=
201305300900 AAXX 30094 67666 NIL=
201305300600 AAXX 30064 67666 32980 00705 10190 20080 48554
                   333 10274 20142 58013
                   555 00/// 91023=
201305291800 AAXX 29184 67666 NIL=
201305290900 AAXX 29094 67666 42980 00906 10245 20076 48548
                   333 58000 91022=
201305290600 AAXX 29064 67666 32980 00901 10200 20065 48542
                   333 10269 20105 59001 91021=
201305281800 AAXX 28184 67666 NIL=
201305280600 AAXX 28064 67666 32980 00902 10180 20100 48541
                   333 10255 20099 5//// 91021=
201305272100 AAXX 27214 67666 NIL=
201305271200 AAXX 27124 67666 42980 00000 10240 20066 48534
                   333 59009 91020=
201305270600 AAXX 27064 67666 32980 00000 10170 20088 48547
                   333 10239 20100 59015
                   555 00/// 91022=
201305260900 AAXX 26094 67666 NIL=
201305260000 AAXX 26004 67666 NIL=
201305252100 AAXX 25214 67666 NIL=
201305240900 AAXX 24094 67666 42680 10908 10215 20134 48572 81100
                   333 58004 81835 91025=
201305240600 AAXX 24064 67666 31975 00905 10165 20112 48561 70500
                   333 10250 20135 58004
                   555 00/// 91024=
201305240300 AAXX 24034 67666 NIL=
201305240000 AAXX 24004 67666 NIL=
201305231800 AAXX 23184 67666 NIL=
201305231500 AAXX 23154 67666 NIL=
201305230600 AAXX 23064 67666 32980 10908 10160 20126 48556 81030
                   333 10250 20120 58002 81360 91023=
201305220600 AAXX 22064 67666 32980 00906 10153 20136 48557
                   333 10242 20120 58002 91023=
201305211500 AAXX 21154 67666 NIL=
201305210900 AAXX 21094 67666 42580 40907 10195 20134 48564 84200
                   333 58001 84825 91024=
201305210600 AAXX 21064 67666 32980 00907 10154 20128 48555
                   333 10204 20115 59001 91023=
201305210000 AAXX 21004 67666 NIL=
201305201200 AAXX 20124 67666 42580 80906 10200 20129 48540 8483/
                   333 59013 83625 81830 87358 91021=
201305200600 AAXX 20064 67666 32480 70912 10151 20132 48556 8363/
                   333 10240 20134 59017 83610 87357 91023=
201305190900 AAXX 19094 67666 NIL=
201305190600 AAXX 19061 67666 NIL=
201305180600 AAXX 18060 67666 NIL=
201305171200 AAXX 17121 67666 NIL=
201305170900 AAXX 17094 67666 42980 30812 10243 20138 48563 81031
                   333 58018 81360 83080 91023=
201305170600 AAXX 17064 67666 32980 30912 10195 20122 48557 83080
                   333 10273 20168 58008 83360=
201305160900 AAXX 16094 67666 NIL=
201305160600 AAXX 16064 67666 NIL=
201305160000 AAXX 16004 67666 NIL=
201305152100 AAXX 15214 67666 NIL=
201305150300 AAXX 15034 67666 NIL=
201305141200 AAXX 14121 67666 42680 40908 10235 20108 48562 84200
                   333 59002 84842 91023=
201305140900 AAXX 14094 67666 42680 11010 10210 20126 48586 81100
                   333 58003 81830 91026=
201305140600 AAXX 14064 67666 31975 00911 10160 20116 48580 70500
                   333 10256 20130 58004 91020=
201305140300 AAXX 14034 67666 NIL=
201305132100 AAXX 13214 67666 NIL=
201305131800 AAXX 13184 67666 NIL=
201305130900 AAXX 13094 67666 42980 00910 10225 20113 48585
                   333 58006 91026=
201305130600 AAXX 13064 67666 NIL=
201305130300 AAXX 13034 67666 NIL=
201305121500 AAXX 12154 67666 NIL=
201305110900 AAXX 11094 67666 NIL=
201305110300 AAXX 11034 67666 NIL=
201305110000 AAXX 11004 67666 NIL=
201305102100 AAXX 10214 67666 NIL=
201305101800 AAXX 10184 67666 NIL=
201305101500 AAXX 10154 67666 NIL=
201305101200 AAXX 10124 67666 42580 40000 10265 20115 48534 83201
                   333 59005 83830 82080 91020=
201305100900 AAXX 10094 67666 NIL=
201305100600 AAXX 10064 67666 NIL=
201305100300 AAXX 10034 67666 NIL=
201305100000 AAXX 10004 67666 NIL=
201305091500 AAXX 09154 67666 NIL=
201305090900 AAXX 09094 67666 42980 40000 10230 20111 48551 84030
                   333 59025 84360 91022=
201305090600 AAXX 09064 67666 31980 00904 10170 20135 48537 70500
                   333 10250 20118 59027 91022=
201305090300 AAXX 09034 67666 NIL=
201305090000 AAXX 09004 67666 NIL=
201305082100 AAXX 08214 67666 NIL=
201305081500 AAXX 08154 67666 NIL=
201305081200 AAXX 08124 67666 NIL=
201305080600 AAXX 08064 67666 32980 00907 10149 20104 48568
                   333 10230 20120 59010=
201305080300 AAXX 08034 67666 NIL=
201305071500 AAXX 07154 67666 NIL=
201305071200 AAXX 07124 67666 42980 00908 10225 20095 48566
                   333 59006 91024=
201305070900 AAXX 07094 67666 42980 00918 10195 20087 48585
                   333 59001 555 91026=
201305070600 AAXX 07064 67666 32980 00914 10140 20073 48577
                   333 10224 20115 58003=
201305070300 AAXX 07034 67666 NIL=
201305070000 AAXX 07004 67666 NIL=
201305061800 AAXX 06184 67666 NIL=
201305061500 AAXX 06154 67666 NIL=
201305060900 AAXX 06094 67666 NIL=
201305060600 AAXX 06064 67666 32580 11007 10169 20119 48677 81100
                   333 10265 20131 58010 81825=
201305060000 AAXX 06004 67666 NIL=
201305051800 AAXX 05184 67666 NIL=
201305051200 AAXX 05121 67666 NIL=
201305050900 AAXX 05094 67666 NIL=
201305050000 AAXX 05004 67666 NIL=
201305041500 AAXX 04154 67666 NIL=
201305040900 AAXX 04094 67666 NIL=
201305040600 AAXX 04060 67666 NIL=
201305040300 AAXX 04034 67666 NIL=
201305040000 AAXX 04004 67666 NIL=
201305031800 AAXX 03184 67666 NIL=
201305031500 AAXX 03154 67666 NIL=
201305031200 AAXX 03120 67666 NIL=
201305030900 AAXX 03094 67666 NIL=
201305030000 AAXX 03004 67666 NIL=
201305021800 AAXX 02184 67666 NIL=
201305021500 AAXX 02154 67666 NIL=
201305021200 AAXX 02124 67666 NIL=
201305020900 AAXX 02094 67666 NIL=
201305020300 AAXX 02034 67666 NIL=
201305020000 AAXX 02004 67666 NIL=
201305012100 AAXX 01214 67666 NIL=
201305010900 AAXX 01094 67666 NIL=
201305010600 AAXX 01064 67666 NIL=

################################################################################
#  SYNOPS from 67667, Mount Makulu (Zambia) | 15-33S | 028-15E | 1213 m
################################################################################
201305310600 AAXX 31064 67667 32980 00000 10185 20095 48/// 70200
                   333 10295 20085 5////=
201305301800 AAXX 30184 67667 NIL=
201305301500 AAXX 30154 67667 NIL=
201305301200 AAXX 30124 67667 NIL=
201305300900 AAXX 30094 67667 NIL=
201305300600 AAXX 30061 67667 NIL=
201305291800 AAXX 29184 67667 NIL=
201305290900 AAXX 29094 67667 NIL=
201305290600 AAXX 29064 67667 32980 00902 10200 20085 48///
                   333 10275 20049 59002=
201305281800 AAXX 28184 67667 NIL=
201305280600 AAXX 28064 67667 32980 00901 10190 20100 48///
                   333 10270 20070 59005=
201305272100 AAXX 27214 67667 NIL=
201305270600 AAXX 27064 67667 32980 00903 10180 20079 48///
                   333 10245 20045 59012=
201305260900 AAXX 26094 67667 NIL=
201305260000 AAXX 26004 67667 NIL=
201305252100 AAXX 25214 67667 NIL=
201305240900 AAXX 24094 67667 NIL=
201305240600 AAXX 24064 67667 32980 00903 10180 20121 48/// 70200
                   333 10270 20095 5////=
201305240300 AAXX 24034 67667 NIL=
201305240000 AAXX 24004 67667 NIL=
201305231800 AAXX 23184 67667 NIL=
201305231500 AAXX 23154 67667 NIL=
201305220600 AAXX 22064 67667 NIL=
201305211500 AAXX 21154 67667 NIL=
201305210900 AAXX 21094 67667 NIL=
201305210600 AAXX 21064 67667 32680 10902 10166 20126 48/// 81100
                   333 10230 20089 58000 81830=
201305210000 AAXX 21004 67667 NIL=
201305200600 AAXX 20060 67667 NIL=
201305190900 AAXX 19094 67667 NIL=
201305190600 AAXX 19061 67667 NIL=
201305180600 AAXX 18060 67667 NIL=
201305171200 AAXX 17121 67667 NIL=
201305170600 AAXX 17060 67667 NIL=
201305160900 AAXX 16094 67667 NIL=
201305160600 AAXX 16064 67667 NIL=
201305160000 AAXX 16004 67667 NIL=
201305152100 AAXX 15214 67667 NIL=
201305150300 AAXX 15034 67667 NIL=
201305141200 AAXX 14121 67667 NIL=
201305140900 AAXX 14094 67667 NIL=
201305140300 AAXX 14034 67667 NIL=
201305132100 AAXX 13214 67667 NIL=
201305131800 AAXX 13184 67667 NIL=
201305130900 AAXX 13094 67667 NIL=
201305130600 AAXX 13064 67667 NIL=
201305130300 AAXX 13034 67667 NIL=
201305121500 AAXX 12154 67667 NIL=
201305110900 AAXX 11094 67667 NIL=
201305110300 AAXX 11034 67667 NIL=
201305110000 AAXX 11004 67667 NIL=
201305102100 AAXX 10214 67667 NIL=
201305101800 AAXX 10184 67667 NIL=
201305101500 AAXX 10154 67667 NIL=
201305101200 AAXX 10124 67667 NIL=
201305100900 AAXX 10094 67667 NIL=
201305100600 AAXX 10064 67667 NIL=
201305100300 AAXX 10034 67667 NIL=
201305100000 AAXX 10004 67667 NIL=
201305091500 AAXX 09154 67667 NIL=
201305090900 AAXX 09094 67667 NIL=
201305090300 AAXX 09034 67667 NIL=
201305090000 AAXX 09004 67667 NIL=
201305082100 AAXX 08214 67667 NIL=
201305081500 AAXX 08154 67667 NIL=
201305081200 AAXX 08124 67667 NIL=
201305080300 AAXX 08034 67667 NIL=
201305071500 AAXX 07154 67667 NIL=
201305070900 AAXX 07094 67667 NIL=
201305070300 AAXX 07034 67667 NIL=
201305070000 AAXX 07004 67667 NIL=
201305061800 AAXX 06184 67667 NIL=
201305061500 AAXX 06154 67667 NIL=
201305060900 AAXX 06094 67667 NIL=
201305060600 AAXX 06064 67667 32680 10905 10181 20129 48/// 81101
                   333 10267 20057 58008 81830 81080=
201305060000 AAXX 06004 67667 NIL=
201305051800 AAXX 05184 67667 NIL=
201305051200 AAXX 05121 67667 NIL=
201305050900 AAXX 05094 67667 NIL=
201305050000 AAXX 05004 67667 NIL=
201305041500 AAXX 04154 67667 NIL=
201305040900 AAXX 04094 67667 NIL=
201305040600 AAXX 04060 67667 NIL=
201305040300 AAXX 04034 67667 NIL=
201305040000 AAXX 04004 67667 NIL=
201305031800 AAXX 03184 67667 NIL=
201305031500 AAXX 03154 67667 NIL=
201305031200 AAXX 03120 67667 NIL=
201305030900 AAXX 03094 67667 NIL=
201305030000 AAXX 03004 67667 NIL=
201305021800 AAXX 02184 67667 NIL=
201305021500 AAXX 02154 67667 NIL=
201305021200 AAXX 02124 67667 NIL=
201305020900 AAXX 02094 67667 NIL=
201305020300 AAXX 02034 67667 NIL=
201305020000 AAXX 02004 67667 NIL=
201305012100 AAXX 01214 67667 NIL=
201305010900 AAXX 01094 67667 NIL=
201305010600 AAXX 01064 67667 NIL=

################################################################################
#  SYNOPS from 67673, Petauke (Zambia) | 14-15S | 031-17E | 1035 m
################################################################################
201305310600 AAXX 31064 67673 31975 00701 10230 20123 48574 70500
                   333 10274 20160 59022
                   555 00///=
201305301800 AAXX 30184 67673 NIL=
201305301500 AAXX 30154 67673 41975 20000 10260 20118 48556 70500 80001
                   333 58013 82080 555 10294=
201305301200 AAXX 30124 67673 41975 01502 10290 20107 48561 70500
                   333 58013=
201305300900 AAXX 30094 67673 41675 31802 10278 20115 48585 70500 83100
                   333 58014 83835=
201305300600 AAXX 30064 67673 31975 01002 10220 20119 48572 70500
                   333 10305 20152 58010
                   555 00///=
201305291800 AAXX 29184 67673 NIL=
201305291200 AAXX 29124 67673 41975 03602 10300 20100 48550 70500
                   333 59004=
201305290900 AAXX 29094 67673 41975 02901 10280 20092 48572 70500
                   333 58001=
201305290600 AAXX 29064 67673 31975 00902 10240 20006 48566 70500
                   333 10295 20150 59003
                   555 00///=
201305281800 AAXX 28184 67673 NIL=
201305280600 AAXX 28064 67673 31975 00000 10205 20089 48564 70500
                   333 10290 20150 59013
                   555 00///=
201305272100 AAXX 27214 67673 NIL=
201305271200 AAXX 27124 67673 41675 32601 10280 20105 48557 70500 83100
                   333 59011 83840=
201305270600 AAXX 27064 67673 31975 00901 10200 48574 70500
                   333 10270 20130 59001
                   555 00///=
201305260900 AAXX 26094 67673 41975 01502 10238 20092 48584 70500
                   333 59003=
201305260000 AAXX 26004 67673 NIL=
201305252100 AAXX 25214 67673 NIL=
201305240900 AAXX 24094 67673 42580 21204 10249 20134 48580 82200
                   333 58002 82825=
201305240300 AAXX 24034 67673 NIL=
201305240000 AAXX 24004 67673 NIL=
201305231800 AAXX 23184 67673 NIL=
201305231500 AAXX 23154 67673 42980 41705 10226 20151 48545 84030
                   333 58002 84360 555 10272=
201305220600 AAXX 22064 67673 32980 01605 10177 20141 48566
                   333 10262 20143 59015
                   555 00///=
201305211500 AAXX 21154 67673 41575 61902 10220 20144 48552 76022 86231
                   333 59011 86830 85360 83080
                   555 10262=
201305211200 AAXX 21124 67673 42680 60502 10248 20150 48558 86230
                   333 59005 86835 82360=
201305210900 AAXX 21094 67673 42680 50902 10235 20136 48588 85131
                   333 59002 85830 82360 81080=
201305210600 AAXX 21064 67673 32580 60903 10184 20134 48581 85131
                   333 10244 20150 58000 85820 86360 81080
                   555 00///=
201305210000 AAXX 21004 67673 NIL=
201305200600 AAXX 20064 67673 12580 71202 10180 20134 48581 69904 8553/
                   333 10250 20150 59013 85620 87360
                   555 00/// 20000=
201305190900 AAXX 19094 67673 NIL=
201305190600 AAXX 19064 67673 32580 50909 10/// 20137 48597 85531
                   333 10290 20170 5////
                   555 00/// 20000=
201305180600 AAXX 18060 67673 NIL=
201305171200 AAXX 17121 67673 NIL=
201305170600 AAXX 17064 67673 32980 00404 10227 20148 48573
                   333 10294 20166 58015
                   555 00///=
201305160900 AAXX 16094 67673 42580 13505 10263 20130 48565 81100
                   333 59025 81826=
201305160600 AAXX 16064 67673 32980 01203 10197 20141 48553
                   333 10275 20146 59026
                   555 00///=
201305160000 AAXX 16004 67673 NIL=
201305152100 AAXX 15214 67673 NIL=
201305150300 AAXX 15034 67673 NIL=
201305141200 AAXX 14121 67673 NIL=
201305140900 AAXX 14094 67673 NIL=
201305140300 AAXX 14034 67673 NIL=
201305132100 AAXX 13214 67673 NIL=
201305131800 AAXX 13184 67673 NIL=
201305130900 AAXX 13094 67673 NIL=
201305130600 AAXX 13064 67673 NIL=
201305130300 AAXX 13034 67673 NIL=
201305121500 AAXX 12154 67673 NIL=
201305110900 AAXX 11094 67673 NIL=
201305110300 AAXX 11034 67673 NIL=
201305110000 AAXX 11004 67673 NIL=
201305102100 AAXX 10214 67673 NIL=
201305101800 AAXX 10184 67673 NIL=
201305101500 AAXX 10154 67673 NIL=
201305101200 AAXX 10124 67673 42680 20603 10300 20120 48550 82100
                   333 59008 82830=
201305100900 AAXX 10094 67673 42980 00905 10282 20121 48578
                   333 58003=
201305100600 AAXX 10064 67673 32980 03604 10230 20120 48571
                   333 10285 20170 58001
                   555 00///=
201305100300 AAXX 10034 67673 NIL=
201305100000 AAXX 10004 67673 NIL=
201305091500 AAXX 09154 67673 42684 40000 10258 20123 48551 84100
                   333 59013 84840 555 10285=
201305090900 AAXX 09094 67673 42984 03401 10250 20127 48570
                   333 59034=
201305090600 AAXX 09064 67673 32984 00701 10210 20135 48567
                   333 10258 20120 59032=
201305090300 AAXX 09034 67673 NIL=
201305090000 AAXX 09004 67673 NIL=
201305082100 AAXX 08214 67673 NIL=
201305081500 AAXX 08154 67673 42584 21801 10234 20117 48558 82100
                   333 59028 82838 555 10258=
201305081200 AAXX 08124 67673 42684 51501 10248 20124 48571 85100
                   333 59016 85840=
201305080600 AAXX 08064 67673 32584 41006 10188 20123 48593 83130
                   333 10250 20120 59016 83825 84360
                   555 00/// 20000=
201305080300 AAXX 08034 67673 NIL=
201305071500 AAXX 07154 67673 42584 21802 10213 20122 48581 82100
                   333 59005 82830 555 10250=
201305070900 AAXX 07094 67673 42684 30904 10220 20102 48615 83100
                   333 58018 83832=
201305070600 AAXX 07064 67673 32584 11406 10174 20092 48604 81100
                   333 10232 20110 58018 81825
                   555 00/// 20000=
201305070300 AAXX 07034 67673 NIL=
201305070000 AAXX 07004 67673 NIL=
201305061800 AAXX 06184 67673 NIL=
201305061500 AAXX 06154 67673 42680 31205 10197 20130 48583 82530
                   333 58042 82630 81362
                   555 10232=
201305060900 AAXX 06094 67673 42980 71207 10220 20126 48598 87030
                   333 58026 87362=
201305060600 AAXX 06064 67673 32980 71507 10188 20124 48591 8707/
                   333 10301 20174 58026 87362
                   555 00///=
201305060000 AAXX 06004 67673 NIL=
201305051800 AAXX 05184 67673 NIL=
201305051200 AAXX 05121 67673 NIL=
201305050900 AAXX 05094 67673 42580 51005 10279 20156 48584 85230
                   333 58011 85825 81362=
201305050000 AAXX 05004 67673 NIL=
201305041500 AAXX 04154 67673 NIL=
201305040900 AAXX 04094 67673 42580 70406 10264 20140 48571 87200
                   333 59019 87828=
201305040600 AAXX 04060 67673 NIL=
201305040300 AAXX 04034 67673 NIL=
201305040000 AAXX 04004 67673 NIL=
201305031800 AAXX 03184 67673 NIL=
201305031500 AAXX 03154 67673 42684 40000 10248 20126 48552 84230
                   333 59013 84838 82360
                   555 10280=
201305031200 AAXX 03120 67673 42684 61002 10260 20127 48554 84230
                   333 59008 85840 86360=
201305030900 AAXX 03094 67673 42684 50902 10250 20126 48586 85130
                   333 59006 85838 82360=
201305030000 AAXX 03004 67673 NIL=
201305021800 AAXX 02184 67673 NIL=
201305021500 AAXX 02154 67673 42684 51002 10220 20120 48559 85100
                   333 59015 85830 555 10255=
201305021200 AAXX 02124 67673 42684 6//// 10248 20118 48561 86100
                   333 59029 86835=
201305020900 AAXX 02094 67673 42684 50908 10224 20107 48586 85100
                   333 59013 85830=
201305020600 AAXX 02064 67673 32584 60905 10180 20137 48578 86530
                   333 10264 20140 59014 86620 82360
                   555 00/// 20000=
201305020300 AAXX 02034 67673 NIL=
201305020000 AAXX 02004 67673 NIL=
201305012100 AAXX 01214 67673 NIL=
201305010900 AAXX 01094 67673 NIL=
201305010600 AAXX 01064 67673 32584 41509 10185 20126 48593 84531
                   333 10280 20149 58024 84625 82360 81080
                   555 00/// 20000=

################################################################################
#  SYNOPS from 67731, Senanga (Zambia) | 16-06S | 023-16E | 1027 m
################################################################################
201305301800 AAXX 30184 67731 NIL=
201305301500 AAXX 30154 67731 NIL=
201305301200 AAXX 30124 67731 NIL=
201305300900 AAXX 30094 67731 NIL=
201305300600 AAXX 30061 67731 NIL=
201305291800 AAXX 29184 67731 NIL=
201305290900 AAXX 29094 67731 NIL=
201305281800 AAXX 28184 67731 NIL=
201305272100 AAXX 27214 67731 NIL=
201305270600 AAXX 27064 67731 32980 033// 10182 20123 48///
                   333 10275 20097 5////=
201305260900 AAXX 26094 67731 NIL=
201305260000 AAXX 26004 67731 NIL=
201305252100 AAXX 25214 67731 NIL=
201305240900 AAXX 24094 67731 NIL=
201305240600 AAXX 24064 67731 32980 011// 10170 20100 48///
                   333 10300 20113 5//// 555=
201305240300 AAXX 24034 67731 NIL=
201305240000 AAXX 24004 67731 NIL=
201305231800 AAXX 23184 67731 NIL=
201305231500 AAXX 23154 67731 NIL=
201305230600 AAXX 23064 67731 32980 009// 10175 20108 48///
                   333 10295 20114 5////=
201305220600 AAXX 22064 67731 32980 009// 10180 20103 48///
                   333 10290 20125 5////
                   555 00///=
201305211500 AAXX 21154 67731 NIL=
201305210900 AAXX 21094 67731 NIL=
201305210600 AAXX 21064 67731 12980 612// 10150 20103 48/// 69904 86030
                   333 10295 20131 5//// 86361
                   555 00///=
201305210000 AAXX 21004 67731 NIL=
201305200600 AAXX 20064 67731 32980 027// 10191 20124 48///
                   333 10290 20151 5////
                   555 00///=
201305190900 AAXX 19094 67731 NIL=
201305190600 AAXX 19061 67731 NIL=
201305180600 AAXX 18060 67731 NIL=
201305171200 AAXX 17121 67731 NIL=
201305170600 AAXX 17064 67731 32980 010// 10194 20133 48///
                   333 10296 20149 5////=
201305160900 AAXX 16094 67731 NIL=
201305160600 AAXX 16064 67731 NIL=
201305160000 AAXX 16004 67731 NIL=
201305152100 AAXX 15214 67731 NIL=
201305150300 AAXX 15034 67731 NIL=
201305141200 AAXX 14121 67731 NIL=
201305140900 AAXX 14094 67731 NIL=
201305140300 AAXX 14034 67731 NIL=
201305132100 AAXX 13214 67731 NIL=
201305131800 AAXX 13184 67731 NIL=
201305130900 AAXX 13094 67731 NIL=
201305130600 AAXX 13064 67731 NIL=
201305130300 AAXX 13034 67731 NIL=
201305121500 AAXX 12154 67731 NIL=
201305110900 AAXX 11094 67731 NIL=
201305110300 AAXX 11034 67731 NIL=
201305110000 AAXX 11004 67731 NIL=
201305102100 AAXX 10214 67731 NIL=
201305101800 AAXX 10184 67731 NIL=
201305101500 AAXX 10154 67731 NIL=
201305101200 AAXX 10124 67731 NIL=
201305100900 AAXX 10094 67731 NIL=
201305100600 AAXX 10064 67731 NIL=
201305100300 AAXX 10034 67731 NIL=
201305100000 AAXX 10004 67731 NIL=
201305091500 AAXX 09154 67731 NIL=
201305090900 AAXX 09094 67731 NIL=
201305090600 AAXX 09064 67731 32980 009// 10229 20149 48///
                   333 10293 20115 5////
                   555 00///=
201305090300 AAXX 09034 67731 NIL=
201305090000 AAXX 09004 67731 NIL=
201305082100 AAXX 08214 67731 NIL=
201305081500 AAXX 08154 67731 NIL=
201305081200 AAXX 08124 67731 NIL=
201305080300 AAXX 08034 67731 NIL=
201305071500 AAXX 07154 67731 NIL=
201305070900 AAXX 07094 67731 NIL=
201305070300 AAXX 07034 67731 NIL=
201305070000 AAXX 07004 67731 NIL=
201305061800 AAXX 06184 67731 NIL=
201305061500 AAXX 06154 67731 NIL=
201305060900 AAXX 06094 67731 42980 009// 10267 20124 48///
                   333 5////=
201305060000 AAXX 06004 67731 NIL=
201305051800 AAXX 05184 67731 NIL=
201305051200 AAXX 05121 67731 NIL=
201305050900 AAXX 05094 67731 NIL=
201305050000 AAXX 05004 67731 NIL=
201305041500 AAXX 04154 67731 NIL=
201305040900 AAXX 04094 67731 NIL=
201305040600 AAXX 04060 67731 NIL=
201305040300 AAXX 04034 67731 NIL=
201305040000 AAXX 04004 67731 NIL=
201305031800 AAXX 03184 67731 NIL=
201305031500 AAXX 03154 67731 NIL=
201305031200 AAXX 03120 67731 NIL=
201305030900 AAXX 03094 67731 42480 218// 10254 20127 48/// 82100
                   333 5//// 82824=
201305030000 AAXX 03004 67731 NIL=
201305021800 AAXX 02184 67731 NIL=
201305021500 AAXX 02154 67731 NIL=
201305021200 AAXX 02124 67731 NIL=
201305020900 AAXX 02094 67731 NIL=
201305020300 AAXX 02034 67731 NIL=
201305020000 AAXX 02004 67731 NIL=
201305012100 AAXX 01214 67731 NIL=
201305010900 AAXX 01094 67731 NIL=
201305010600 AAXX 01064 67731 NIL=

################################################################################
#  SYNOPS from 67741, Sesheke (Zambia) | 17-28S | 024-18E | 949 m
################################################################################
201305301800 AAXX 30184 67741 NIL=
201305301500 AAXX 30154 67741 NIL=
201305301200 AAXX 30124 67741 NIL=
201305300900 AAXX 30094 67741 NIL=
201305300600 AAXX 30061 67741 NIL=
201305291800 AAXX 29184 67741 NIL=
201305290900 AAXX 29094 67741 NIL=
201305281800 AAXX 28184 67741 NIL=
201305272100 AAXX 27214 67741 NIL=
201305270600 AAXX 27064 67741 NIL=
201305260900 AAXX 26094 67741 NIL=
201305260000 AAXX 26004 67741 NIL=
201305252100 AAXX 25214 67741 NIL=
201305240900 AAXX 24094 67741 NIL=
201305240300 AAXX 24034 67741 NIL=
201305240000 AAXX 24004 67741 NIL=
201305231800 AAXX 23184 67741 NIL=
201305231500 AAXX 23154 67741 NIL=
201305220600 AAXX 22064 67741 NIL=
201305211500 AAXX 21154 67741 NIL=
201305210900 AAXX 21094 67741 NIL=
201305210600 AAXX 21060 67741 NIL=
201305210000 AAXX 21004 67741 NIL=
201305200600 AAXX 20060 67741 NIL=
201305190900 AAXX 19094 67741 NIL=
201305190600 AAXX 19061 67741 NIL=
201305180600 AAXX 18060 67741 NIL=
201305171200 AAXX 17121 67741 NIL=
201305170600 AAXX 17060 67741 NIL=
201305160900 AAXX 16094 67741 NIL=
201305160600 AAXX 16064 67741 NIL=
201305160000 AAXX 16004 67741 NIL=
201305152100 AAXX 15214 67741 NIL=
201305150300 AAXX 15034 67741 NIL=
201305141200 AAXX 14121 67741 NIL=
201305140900 AAXX 14094 67741 NIL=
201305140300 AAXX 14034 67741 NIL=
201305132100 AAXX 13214 67741 NIL=
201305131800 AAXX 13184 67741 NIL=
201305130900 AAXX 13094 67741 NIL=
201305130600 AAXX 13064 67741 NIL=
201305130300 AAXX 13034 67741 NIL=
201305121500 AAXX 12154 67741 NIL=
201305110900 AAXX 11094 67741 NIL=
201305110300 AAXX 11034 67741 NIL=
201305110000 AAXX 11004 67741 NIL=
201305102100 AAXX 10214 67741 NIL=
201305101800 AAXX 10184 67741 NIL=
201305101500 AAXX 10154 67741 NIL=
201305101200 AAXX 10124 67741 NIL=
201305100900 AAXX 10094 67741 NIL=
201305100600 AAXX 10064 67741 32980 00000 10129 20062 48539
                   333 10290 20040 59006
                   555 00///=
201305100300 AAXX 10034 67741 NIL=
201305100000 AAXX 10004 67741 NIL=
201305091500 AAXX 09154 67741 42980 00000 10280 20080 48531
                   333 10290 20134 59014=
201305090900 AAXX 09094 67741 NIL=
201305090300 AAXX 09034 67741 NIL=
201305090000 AAXX 09004 67741 NIL=
201305082100 AAXX 08214 67741 NIL=
201305081500 AAXX 08154 67741 NIL=
201305081200 AAXX 08124 67741 NIL=
201305080300 AAXX 08034 67741 NIL=
201305071500 AAXX 07154 67741 42680 10902 10240 20088 48561 81502
                   333 10272 20167 58005 81638 81080=
201305070900 AAXX 07094 67741 42980 00906 10227 20101 48596
                   333 58003=
201305070300 AAXX 07034 67741 NIL=
201305070000 AAXX 07004 67741 NIL=
201305061800 AAXX 06184 67741 NIL=
201305061500 AAXX 06154 67741 42680 20903 10267 20100 48568 82500
                   333 10280 20178 5//// 82638=
201305060900 AAXX 06094 67741 42980 00905 10231 20100 48597
                   333 5////=
201305060000 AAXX 06004 67741 NIL=
201305051800 AAXX 05184 67741 NIL=
201305051200 AAXX 05121 67741 NIL=
201305050900 AAXX 05094 67741 NIL=
201305050000 AAXX 05004 67741 NIL=
201305041500 AAXX 04154 67741 NIL=
201305040900 AAXX 04094 67741 NIL=
201305040600 AAXX 04060 67741 32980 00000 10142 20096 48550
                   333 10275 20094 58003
                   555 00///=
201305040300 AAXX 04034 67741 NIL=
201305040000 AAXX 04004 67741 NIL=
201305031800 AAXX 03184 67741 NIL=
201305031500 AAXX 03154 67741 42980 01202 10266 20084 48538
                   333 10275 20152 59015=
201305031200 AAXX 03120 67741 NIL=
201305030900 AAXX 03094 67741 42980 00902 10226 20105 48568
                   333 59011=
201305030000 AAXX 03004 67741 NIL=
201305021800 AAXX 02184 67741 NIL=
201305021500 AAXX 02154 67741 42680 10903 10260 20108 48546 81500
                   333 10269 20182 5//// 81635=
201305021200 AAXX 02124 67741 42680 20903 10257 20123 48556 82500
                   333 5////=
201305020900 AAXX 02094 67741 NIL=
201305020300 AAXX 02034 67741 NIL=
201305020000 AAXX 02004 67741 NIL=
201305012100 AAXX 01214 67741 NIL=
201305010900 AAXX 01094 67741 NIL=
201305010600 AAXX 01064 67741 32980 00902 10175 20105 48576
                   333 10285 20090 58017
                   555 00///=

################################################################################
#  SYNOPS from 67743, Livingstone (Zambia) | 17-49S | 025-49E | 985 m
################################################################################
201305301800 AAXX 30184 67743 NIL=
201305301500 AAXX 30154 67743 NIL=
201305301200 AAXX 30124 67743 42980 00808 10302 20057 48548
                   333 58005 91019=
201305300900 AAXX 30094 67743 NIL=
201305300600 AAXX 30061 67743 NIL=
201305291800 AAXX 29184 67743 NIL=
201305291200 AAXX 29124 67743 42980 01205 10292 20027 48538
                   333 58006 91019=
201305291021 AAXX 29104 67743 42980 01305 10285 20024 48543 70200 91021=
201305290900 AAXX 29094 67743 42980 00405 10209 20114 48560
                   333 58003 91020=
201305290600 AAXX 29064 67743 32980 00000 10111 20045 48523
                   333 10278 20060 59007=
201305281800 AAXX 28184 67743 NIL=
201305281200 AAXX 28124 67743 42980 00704 10280 20036 48540
                   333 59012 91018=
201305281018 AAXX 28104 67743 42980 01002 10281 20047 48531 70200 91018=
201305280600 AAXX 28064 67743 32980 00501 10125 20074 48532 70200
                   333 10279 20061 58006 91021=
201305272100 AAXX 27214 67743 NIL=
201305271500 AAXX 27154 67743 42980 01603 10266 20037 48541
                   333 59014 555 10279=
201305271200 AAXX 27124 67743 42980 00803 10268 20025 48548
                   333 59016=
201305270900 AAXX 27094 67743 42980 00803 10239 20072 48569
                   333 59017=
201305270600 AAXX 27064 67743 32980 00000 10110 20071 48537
                   333 10260 20045 59016 91022=
201305261500 AAXX 26154 67743 42980 00907 10250 20040 48526
                   333 59041 555 91017=
201305261200 AAXX 26124 67743 42980 00907 10250 20026 48561
                   333 59014 91022=
201305260900 AAXX 26094 67743 42980 01206 10220 20040 48574
                   333 59007 555 91024=
201305260600 AAXX 26064 67743 32980 00901 10120 20062 48554
                   333 10264 20555 59024
                   555 91024=
201305260000 AAXX 26004 67743 NIL=
201305252100 AAXX 25214 67743 NIL=
201305251500 AAXX 25154 67743 42980 01404 10252 20033 48563
                   333 58010=
201305251200 AAXX 25124 67743 42980 01011 10261 20025 48575
                   333 58011 91023=
201305250600 AAXX 25064 67743 32980 00000 10149 20061 48576
                   333 10300 20103 58017
                   555 00/// 91026=
201305241200 AAXX 24124 67743 42980 21009 10270 20084 48566 70300 81130=
201305240900 AAXX 24094 67743 NIL=
201305240600 AAXX 24064 67743 32980 21102 10148 20118 48559 70300 82030
                   333 10286 20117 58006 91024=
201305240300 AAXX 24034 67743 NIL=
201305240000 AAXX 24004 67743 NIL=
201305231800 AAXX 23184 67743 NIL=
201305231500 AAXX 23154 67743 42980 21604 10274 20114 48545 81130
                   333 58002 81858 82360=
201305231200 AAXX 23124 67743 41280 31701 10266 20105 48552 83100
                   333 59003 83857 91020=
201305230900 AAXX 23094 67743 42780 10907 10251 20121 48575 81100
                   333 59003 81850 91023=
201305230600 AAXX 23064 67743 32780 21502 10173 20117 48558 81530
                   333 59002 81650 82360=
201305221200 AAXX 22124 67743 42780 40908 10280 20106 48556 84100
                   333 58002 84856 555 91021=
201305220900 AAXX 22094 67743 42980 00804 10240 20125 48578
                   333 58001 91024=
201305220600 AAXX 22064 67743 32980 10904 10148 20125 48554 81030
                   333 10282 20106 58004 81360 91024=
201305211500 AAXX 21154 67743 42780 31403 10262 20089 48541 82130
                   333 59001 82856 81360
                   555 10282 91019=
201305211200 AAXX 21124 67743 42780 32005 10260 20118 48551 83100
                   333 59002 83850=
201305210900 AAXX 21094 67743 42680 11007 10235 20132 48573 81100
                   333 59001 81840 91024=
201305210600 AAXX 21064 67743 32980 10404 10156 20122 48554 81030
                   333 10275 20109 59004 81360 91023=
201305210000 AAXX 21004 67743 NIL=
201305201500 AAXX 20154 67743 42780 21804 10260 20098 48544 82260
                   333 59018 82856 81358 91019=
201305200600 AAXX 20060 67743 NIL=
201305191200 AAXX 19124 67743 42780 31110 10260 20132 48566 81131
                   333 59004 81850 82360 81080
                   555 91022=
201305190900 AAXX 19094 67743 42980 21007 10225 20133 48592 82031
                   333 58005 82360 81080
                   555 91026=
201305190600 AAXX 19064 67743 32980 11007 10174 20123 48580 81031
                   333 10290 20155 58016 81360 81080
                   555 00/// 91026=
201305180600 AAXX 18060 67743 NIL=
201305171500 AAXX 17154 67743 42980 20905 10294 20110 48546 82101
                   333 58017 82858 81080
                   555 10302 91019=
201305171200 AAXX 17124 67743 42880 31604 10284 20115 48549 83101
                   333 58014 83857 81080 91020=
201305170900 AAXX 17094 67743 42780 10908 10275 20142 48575 81101
                   333 58011 81850 81080 91023=
201305170600 AAXX 17064 67743 42980 20000 10169 20125 48551 82030
                   333 10296 20119 58008 82360
                   555 00/// 91022=
201305161500 AAXX 16154 67743 42780 10202 10292 48529 70100
                   333 59009 81857 91017=
201305161200 AAXX 16124 67743 42780 10103 10285 20087 48537 81000
                   333 59012 81856 91018=
201305161022 AAXX 16104 67743 42980 03501 10252 20096 48560 70200 91022=
201305160900 AAXX 16094 67743 NIL=
201305160600 AAXX 16064 67743 42980 11702 10153 20099 48540 70200 81030
                   333 10280 20101 59007 81360 91022=
201305160000 AAXX 16004 67743 NIL=
201305152100 AAXX 15214 67743 NIL=
201305150900 AAXX 15094 67743 42780 10907 10252 20113 48573 81100
                   333 59024 81856=
201305150600 AAXX 15064 67743 32980 01105 10155 20101 48547
                   333 10295 20110 59029
                   555 00/// 91022=
201305150300 AAXX 15034 67743 NIL=
201305141500 AAXX 14154 67743 42980 21407 10270 20112 48561 82060
                   333 59008 82358 555 10295 91021=
201305141200 AAXX 14124 67743 42780 20904 10/// 20104 48577 82200
                   333 58001 82850=
201305140900 AAXX 14094 67743 42980 00000 10255 20116 48598
                   333 58000=
201305140600 AAXX 14064 67743 32980 70905 10185 20106 48582 8703/
                   333 10308 20146 58001 87358
                   555 91026=
201305140300 AAXX 14034 67743 NIL=
201305132100 AAXX 13214 67743 NIL=
201305131800 AAXX 13184 67743 NIL=
201305131200 AAXX 13124 67743 42880 31211 10300 20097 48578 83100
                   333 58008 83856 91023=
201305130900 AAXX 13094 67743 42980 00806 10264 20117 48598
                   333 58009 91026=
201305130600 AAXX 13064 67743 32980 00905 10190 20103 48583
                   333 10308 20126 58014
                   555 91026=
201305130300 AAXX 13034 67743 NIL=
201305121500 AAXX 12154 67743 NIL=
201305121021 AAXX 12104 67743 42980 11004 10295 20084 48565 70100 81100 91021=
201305120900 AAXX 12094 67743 42780 00504 1//// 20110 48591 70200
                   333 5//// 91025=
201305120600 AAXX 12064 67743 32980 00101 10048 20105 48559 70200
                   333 58012 91024=
201305110900 AAXX 11094 67743 NIL=
201305110300 AAXX 11034 67743 NIL=
201305110000 AAXX 11004 67743 NIL=
201305102100 AAXX 10214 67743 NIL=
201305101800 AAXX 10184 67743 NIL=
201305101500 AAXX 10154 67743 NIL=
201305101200 AAXX 10124 67743 42880 20703 10290 20085 48553 81130
                   333 58014 81857 81360
                   555 91020=
201305100900 AAXX 10094 67743 42980 10903 10260 20120 48574 81030
                   333 58035 81360=
201305100600 AAXX 10064 67743 32980 01802 10145 20090 48547
                   333 10290 20080 59010
                   555 91022=
201305100300 AAXX 10034 67743 NIL=
201305100000 AAXX 10004 67743 NIL=
201305091500 AAXX 09154 67743 42780 10204 10279 20065 48526
                   333 59017 81856 555 10290 91017=
201305091200 AAXX 09124 67743 42780 12906 10277 20056 48535 81100
                   333 59017 81856 91018=
201305090900 AAXX 09094 67743 42980 00303 10240 20104 48557
                   333 59027 91021=
201305090600 AAXX 09064 67743 32980 00000 10149 20104 48538
                   333 10288 20096 59026 91021=
201305090300 AAXX 09034 67743 NIL=
201305090000 AAXX 09004 67743 NIL=
201305082100 AAXX 08214 67743 NIL=
201305081500 AAXX 08154 67743 NIL=
201305081200 AAXX 08124 67743 NIL=
201305080900 AAXX 08094 67743 42980 10802 10225 20105 48580 70300 81030
                   333 59027 81360 91025=
201305080300 AAXX 08034 67743 NIL=
201305071500 AAXX 07154 67743 42980 11104 10243 20081 48572 81041
                   333 58002 81459 81080=
201305070900 AAXX 07094 67743 42980 00907 10205 20068 48600
                   333 58002 555 91028=
201305070600 AAXX 07064 67743 32980 00906 10148 20062 48588 70200
                   333 10280 20125 58004
                   555 00/// 91027=
201305070300 AAXX 07034 67743 NIL=
201305070000 AAXX 07004 67743 NIL=
201305061800 AAXX 06184 67743 NIL=
201305061500 AAXX 06154 67743 NIL=
201305061200 AAXX 06124 67743 42780 30904 10260 20120 48585 81130
                   333 59015 81856 555 91024=
201305060900 AAXX 06094 67743 NIL=
201305060600 AAXX 06064 67743 32980 01205 10172 20055 48578 70200
                   333 10297 20104 58042
                   555 00/// 91027=
201305060000 AAXX 06004 67743 NIL=
201305051800 AAXX 05184 67743 NIL=
201305051500 AAXX 05154 67743 42980 01406 10289 20059
                   333 58015 555 10297 91021=
201305051200 AAXX 05121 67743 42980 00408 10291 20051 48576
                   333 58017 91022=
201305050900 AAXX 05094 67743 42980 01804 10256 20069 48589
                   333 58009 91025=
201305050600 AAXX 05064 67743 32980 00000 10141 20080 48561
                   333 10286 20071 58006
                   555 00/// 91024=
201305050000 AAXX 05004 67743 NIL=
201305041500 AAXX 0415/ 67743 42980 00902 10282 20050 48549 70200
                   333 58010 91020=
201305041200 AAXX 04124 67743 42980 02006 10274 20055 48554 70200
                   333 58009=
201305040900 AAXX 0409/ 67743 42980 00504 10252 20042 48578 70200
                   333 58007=
201305040600 AAXX 0406/ 67743 32980 03601 10143 20066 48547 70200
                   333 10286 20081 59005=
201305040300 AAXX 04034 67743 NIL=
201305040000 AAXX 04004 67743 NIL=
201305031800 AAXX 03184 67743 NIL=
201305031500 AAXX 03154 67743 42980 01007 10270 20086 48545
                   333 59018=
201305031200 AAXX 03124 67743 42880 11002 10275 20071 48548 81100
                   333 59018 81857 91020=
201305030900 AAXX 03094 67743 42780 20909 10255 20090 48574 82100
                   333 59021 555 91023=
201305030600 AAXX 03064 67743 32980 00208 10165 20103 48557
                   333 10275 20090 59015
                   555 91023=
201305030000 AAXX 03004 67743 NIL=
201305021800 AAXX 02184 67743 NIL=
201305021500 AAXX 02154 67743 42780 11211 10250 20095 48553 81100
                   333 59011 81857 91021=
201305021200 AAXX 02124 67743 42780 11511 10260 20085 48563 81100
                   333 59013 81857 555 91022=
201305020900 AAXX 02094 67743 42780 20907 10230 20101 48590 82100
                   333 59016 81856 555 91026=
201305020600 AAXX 02064 67743 32980 11205 10155 20072 48569 81030
                   333 10276 20110 59021 81360
                   555 91025=
201305020300 AAXX 02034 67743 NIL=
201305020000 AAXX 02004 67743 NIL=
201305012100 AAXX 01214 67743 NIL=
201305010900 AAXX 01094 67743 42680 10812 10231 20102 48603 81100
                   333 58012 81845 91027=
201305010600 AAXX 01064 67743 NIL=

################################################################################
#  SYNOPS from 67751, Magoye (Zambia) | 16-00S | 027-36E | 1018 m
################################################################################
201305310600 AAXX 31064 67751 32980 01202 10150 20063 48///
                   333 10295 20074 58003=
201305301800 AAXX 30184 67751 NIL=
201305301500 AAXX 30154 67751 NIL=
201305301200 AAXX 30124 67751 NIL=
201305300900 AAXX 30094 67751 NIL=
201305300600 AAXX 30061 67751 NIL=
201305291800 AAXX 29184 67751 NIL=
201305290900 AAXX 29094 67751 NIL=
201305290600 AAXX 29064 67751 32980 03603 10150 20065 48///
                   333 10290 20054 58009=
201305281800 AAXX 28184 67751 NIL=
201305280600 AAXX 28064 67751 32980 00000 10148 20090 48///
                   333 10278 20056 58004=
201305272100 AAXX 27214 67751 NIL=
201305270600 AAXX 27064 67751 NIL=
201305260900 AAXX 26094 67751 NIL=
201305260000 AAXX 26004 67751 NIL=
201305252100 AAXX 25214 67751 NIL=
201305240900 AAXX 24094 67751 NIL=
201305240600 AAXX 24064 67751 32980 01501 10178 20134
                   333 10278 20090 59003
                   555 00///=
201305240300 AAXX 24034 67751 NIL=
201305240000 AAXX 24004 67751 NIL=
201305231800 AAXX 23184 67751 NIL=
201305231500 AAXX 23154 67751 NIL=
201305230600 AAXX 23064 67751 32980 00000 10176 20127 48///
                   333 10275 20095 59001
                   555 00///=
201305220600 AAXX 22064 67751 NIL=
201305211500 AAXX 21154 67751 NIL=
201305210900 AAXX 21094 67751 NIL=
201305210600 AAXX 21064 67751 32980 01204 10152 20142 48///
                   333 10260 20100 58007
                   555 00///=
201305210000 AAXX 21004 67751 NIL=
201305200600 AAXX 20064 67751 32980 71204 10170 20135 87030
                   333 10288 20110 59004 87360
                   555 00/// 20990=
201305190900 AAXX 19094 67751 NIL=
201305190600 AAXX 19061 67751 NIL=
201305180600 AAXX 18060 67751 NIL=
201305171200 AAXX 17121 67751 NIL=
201305170600 AAXX 17064 67751 32980 00000 10186 20134
                   333 10286 20115 59011
                   555 00///=
201305160900 AAXX 16094 67751 NIL=
201305160600 AAXX 16064 67751 32980 00000 10163 20103
                   333 10275 20093 58013
                   555 00///=
201305160000 AAXX 16004 67751 NIL=
201305152100 AAXX 15214 67751 NIL=
201305150600 AAXX 15064 67751 32980 01504 10167 20113 48///
                   333 10271 20093 58023
                   555 00///=
201305150300 AAXX 15034 67751 NIL=
201305141200 AAXX 14121 67751 NIL=
201305140900 AAXX 14094 67751 NIL=
201305140600 AAXX 14064 67751 32980 00902 10190 20124
                   333 10290 20089 50007
                   555 00///=
201305140300 AAXX 14034 67751 NIL=
201305132100 AAXX 13214 67751 NIL=
201305131800 AAXX 13184 67751 NIL=
201305130900 AAXX 13094 67751 NIL=
201305130600 AAXX 13064 67751 NIL=
201305130300 AAXX 13034 67751 NIL=
201305121500 AAXX 12154 67751 NIL=
201305110900 AAXX 11094 67751 NIL=
201305110300 AAXX 11034 67751 NIL=
201305110000 AAXX 11004 67751 NIL=
201305102100 AAXX 10214 67751 NIL=
201305101800 AAXX 10184 67751 NIL=
201305101500 AAXX 10154 67751 NIL=
201305101200 AAXX 10124 67751 NIL=
201305100900 AAXX 10094 67751 NIL=
201305100600 AAXX 10064 67751 NIL=
201305100300 AAXX 10034 67751 NIL=
201305100000 AAXX 10004 67751 NIL=
201305091500 AAXX 09154 67751 NIL=
201305090900 AAXX 09094 67751 NIL=
201305090300 AAXX 09034 67751 NIL=
201305090000 AAXX 09004 67751 NIL=
201305082100 AAXX 08214 67751 NIL=
201305081500 AAXX 08154 67751 NIL=
201305081200 AAXX 08124 67751 NIL=
201305080300 AAXX 08034 67751 NIL=
201305071500 AAXX 07154 67751 NIL=
201305070900 AAXX 07094 67751 NIL=
201305070300 AAXX 07034 67751 NIL=
201305070000 AAXX 07004 67751 NIL=
201305061800 AAXX 06184 67751 NIL=
201305061500 AAXX 06154 67751 NIL=
201305060900 AAXX 06094 67751 NIL=
201305060600 AAXX 06064 67751 32980 01011 10200 20120 48///
                   333 10298 20/// 555 00///=
201305060000 AAXX 06004 67751 NIL=
201305051800 AAXX 05184 67751 NIL=
201305051200 AAXX 05121 67751 NIL=
201305050900 AAXX 05094 67751 NIL=
201305050000 AAXX 05004 67751 NIL=
201305041500 AAXX 04154 67751 NIL=
201305040900 AAXX 04094 67751 NIL=
201305040600 AAXX 04060 67751 NIL=
201305040300 AAXX 04034 67751 NIL=
201305040000 AAXX 04004 67751 NIL=
201305031800 AAXX 03184 67751 NIL=
201305031500 AAXX 03154 67751 NIL=
201305031200 AAXX 03120 67751 NIL=
201305030900 AAXX 03094 67751 NIL=
201305030000 AAXX 03004 67751 NIL=
201305021800 AAXX 02184 67751 NIL=
201305021500 AAXX 02154 67751 NIL=
201305021200 AAXX 02124 67751 NIL=
201305020900 AAXX 02094 67751 NIL=
201305020300 AAXX 02034 67751 NIL=
201305020000 AAXX 02004 67751 NIL=
201305012100 AAXX 01214 67751 NIL=
201305010900 AAXX 01094 67751 NIL=
201305010600 AAXX 01064 67751 NIL=

################################################################################
#  SYNOPS from 67753, Choma (Zambia) | 16-50S | 027-04E | 1213 m
################################################################################
201305310600 AAXX 31064 67753 31960 10000 10159 20090 48/// 70500 80001
                   333 10284 20055 5//// 81080
                   555 00///=
201305301800 AAXX 30184 67753 NIL=
201305301500 AAXX 30154 67753 NIL=
201305301200 AAXX 30124 67753 NIL=
201305300900 AAXX 30094 67753 NIL=
201305300600 AAXX 30064 67753 32960 01104 10186 20081 48///
                   333 10275 20071 5////=
201305291800 AAXX 29184 67753 NIL=
201305290900 AAXX 29094 67753 NIL=
201305290600 AAXX 29064 67753 32960 01002 10187 20087 48///
                   333 10269 20052 5////=
201305281800 AAXX 28184 67753 NIL=
201305280600 AAXX 28064 67753 32960 01304 10146 20091 48///
                   333 10264 20052 5////
                   555 00///=
201305272100 AAXX 27214 67753 NIL=
201305270600 AAXX 27064 67753 32960 01204 10155 20086 48///
                   333 10236 20040 5////
                   555 00///=
201305260900 AAXX 26094 67753 NIL=
201305260000 AAXX 26004 67753 NIL=
201305252100 AAXX 25214 67753 NIL=
201305240900 AAXX 24094 67753 NIL=
201305240600 AAXX 24064 67753 32560 11204 10165 20135 48/// 81100
                   333 10258 20091 5//// 81825
                   555 00///=
201305240300 AAXX 24034 67753 NIL=
201305240000 AAXX 24004 67753 NIL=
201305231800 AAXX 23184 67753 NIL=
201305231500 AAXX 23154 67753 NIL=
201305230600 AAXX 23064 67753 32960 01504 10151 20124 48///
                   333 10255 20081 5////=
201305220600 AAXX 22064 67753 32560 10908 10156 20131 48/// 81100
                   333 10246 20080 5//// 81825
                   555 00///=
201305211500 AAXX 21154 67753 NIL=
201305210900 AAXX 21094 67753 NIL=
201305210600 AAXX 21064 67753 NIL=
201305210000 AAXX 21004 67753 NIL=
201305200600 AAXX 20060 67753 NIL=
201305190900 AAXX 19094 67753 NIL=
201305190600 AAXX 19061 67753 NIL=
201305180600 AAXX 18060 67753 NIL=
201305171200 AAXX 17121 67753 NIL=
201305170600 AAXX 17064 67753 32960 10906 10204 20139 48/// 81030
                   333 10260 20111 5//// 81360=
201305160900 AAXX 16094 67753 NIL=
201305160600 AAXX 16064 67753 NIL=
201305160000 AAXX 16004 67753 NIL=
201305152100 AAXX 15214 67753 NIL=
201305150600 AAXX 15064 67753 32960 40808 10165 20124 48/// 84030
                   333 10261 20091 5//// 84360
                   555 00///=
201305150300 AAXX 15034 67753 NIL=
201305141200 AAXX 14121 67753 NIL=
201305140900 AAXX 14094 67753 NIL=
201305140600 AAXX 14064 67753 32960 50508 10167 20126 48/// 85030
                   333 10266 20106 5//// 85360
                   555 00///=
201305140300 AAXX 14034 67753 NIL=
201305132100 AAXX 13214 67753 NIL=
201305131800 AAXX 13184 67753 NIL=
201305130900 AAXX 13094 67753 NIL=
201305130600 AAXX 13064 67753 32960 10808 10180 20128 48/// 81030
                   333 10281 20087 5//// 81360
                   555 00///=
201305130300 AAXX 13034 67753 NIL=
201305121500 AAXX 12154 67753 NIL=
201305110900 AAXX 11094 67753 NIL=
201305110300 AAXX 11034 67753 NIL=
201305110000 AAXX 11004 67753 NIL=
201305102100 AAXX 10214 67753 NIL=
201305101800 AAXX 10184 67753 NIL=
201305101500 AAXX 10154 67753 NIL=
201305101200 AAXX 10124 67753 NIL=
201305100900 AAXX 10094 67753 NIL=
201305100600 AAXX 10064 67753 NIL=
201305100300 AAXX 10034 67753 NIL=
201305100000 AAXX 10004 67753 NIL=
201305091500 AAXX 09154 67753 NIL=
201305090900 AAXX 09094 67753 NIL=
201305090300 AAXX 09034 67753 NIL=
201305090000 AAXX 09004 67753 NIL=
201305082100 AAXX 08214 67753 NIL=
201305081500 AAXX 08154 67753 NIL=
201305081200 AAXX 08124 67753 NIL=
201305080600 AAXX 08064 67753 32960 00508 10159 20105 48///
                   333 10226 20076 5////
                   555 00///=
201305080300 AAXX 08034 67753 NIL=
201305071500 AAXX 07154 67753 NIL=
201305070900 AAXX 07094 67753 NIL=
201305070600 AAXX 07064 67753 32960 00908 10148 20079 48///
                   333 10268 20096 5////
                   555 00///=
201305070300 AAXX 07034 67753 NIL=
201305070000 AAXX 07004 67753 NIL=
201305061800 AAXX 06184 67753 NIL=
201305061500 AAXX 06154 67753 NIL=
201305060900 AAXX 06094 67753 NIL=
201305060600 AAXX 06064 67753 32960 10910 10180 20123 48/// 81031
                   333 10271 20091 5//// 81360 81080
                   555 00///=
201305060000 AAXX 06004 67753 NIL=
201305051800 AAXX 05184 67753 NIL=
201305051200 AAXX 05121 67753 NIL=
201305050900 AAXX 05094 67753 NIL=
201305050000 AAXX 05004 67753 NIL=
201305041500 AAXX 04154 67753 NIL=
201305040900 AAXX 04094 67753 NIL=
201305040600 AAXX 04060 67753 NIL=
201305040300 AAXX 04034 67753 NIL=
201305040000 AAXX 04004 67753 NIL=
201305031800 AAXX 03184 67753 NIL=
201305031500 AAXX 03154 67753 NIL=
201305031200 AAXX 03120 67753 NIL=
201305030900 AAXX 03094 67753 NIL=
201305030000 AAXX 03004 67753 NIL=
201305021800 AAXX 02184 67753 NIL=
201305021500 AAXX 02154 67753 NIL=
201305021200 AAXX 02124 67753 NIL=
201305020900 AAXX 02094 67753 NIL=
201305020300 AAXX 02034 67753 NIL=
201305020000 AAXX 02004 67753 NIL=
201305012100 AAXX 01214 67753 NIL=
201305010900 AAXX 01094 67753 NIL=
201305010600 AAXX 01064 67753 NIL=

################################################################################
#  SYNOPS from 67855, Lupaki (Zambia) | 17-03-00S | 024-46-00E | 1000 m
################################################################################
201305310600 AAXX 31064 67855 32975 00000 10096 20040 3//// 48///
                   333 20052 5////=
201305301800 AAXX 30184 67855 NIL=
201305301200 AAXX 30124 67855 NIL=
201305291800 AAXX 29184 67855 NIL=
201305291200 AAXX 29124 67855 42975 01402 10300 20073 3//// 48///
                   333 5////=
201305290600 AAXX 29064 67855 32975 01601 10076 21008 3//// 48///
                   333 20020 5////=
201305281800 AAXX 28184 67855 NIL=
201305281200 AAXX 28124 67855 42975 02703 10284 20084 3//// 48///
                   333 5////=
201305280600 AAXX 28064 67855 32975 01802 10070 21015 38/// 48///
                   333 20012 5////=
201305271200 AAXX 27124 67855 NIL=
201305270600 AAXX 27064 67855 32975 00000 10075 20010 3//// 48///
                   333 20020 5////=
201305261800 AAXX 26184 67855 NIL=
201305261200 AAXX 26124 67855 42975 01102 10266 20043 3//// 48///
                   333 5////=
201305260600 AAXX 26064 67855 32975 02001 10066 20003 3//// 48///
                   333 20006 5////=
201305251800 AAXX 25184 67855 NIL=
201305250600 AAXX 25064 67855 NIL=
201305241200 AAXX 24124 67855 NIL=
201305240600 AAXX 24064 67855 NIL=
201305231800 AAXX 23184 67855 NIL=
201305231200 AAXX 23124 67855 42675 30301 10272 20085 3//// 48/// 83130
                   333 5//// 83845=
201305221200 AAXX 22124 67855 42775 31703 10274 20113 38/// 48/// 83200
                   333 5//// 83845=
201305220600 AAXX 22064 67855 32975 00000 10128 20104 38/// 48///
                   333 20086 5////=
201305211200 AAXX 21124 67855 41675 40602 10254 20138 38/// 48/// 72992 84262
                   333 5//// 84840=
201305210600 AAXX 21064 67855 11975 30702 10148 20125 3//// 48/// 69904 70281 83030
                   333 20114 5//// 83360=
201305201800 AAXX 20184 67855 NIL=
201305201200 AAXX 20124 67855 42675 50402 10268 20129 3//// 48/// 85230
                   333 5//// 85845=
201305200600 AAXX 20064 67855 32975 10602 10150 20120 3//// 48/// 81030
                   333 20111 5//// 81360=
201305191800 AAXX 19184 67855 NIL=
201305191200 AAXX 19124 67855 NIL=
201305190600 AAXX 19064 67855 32975 50000 10116 20108 3//// 48/// 83031
                   333 20106 5//// 83360 85080=
201305181800 AAXX 18184 67855 NIL=
201305181200 AAXX 18124 67855 42675 71407 10278 20145 3//// 48/// 83202
                   333 5//// 83840 87080=
201305180600 AAXX 18064 67855 NIL=
201305171200 AAXX 17124 67855 42775 10303 10302 20090 38/// 48/// 81101
                   333 5//// 81850=
201305170600 AAXX 17064 67855 32975 00000 10122 20075 3//// 48///
                   333 20060 5////=
201305161800 AAXX 16184 67855 NIL=
201305161200 AAXX 16124 67855 42775 30203 10268 20071 3//// 48/// 83100
                   333 5//// 83850=
201305160600 AAXX 16064 67855 32975 20000 10116 20074 38/// 48/// 82030
                   333 20060 5//// 82360=
201305151800 AAXX 15184 67855 NIL=
201305151200 AAXX 15124 67855 42675 41002 10270 20105 38/// 48/// 84100
                   333 5//// 84840=
201305150600 AAXX 15064 67855 32975 00000 10096 20066 3//// 48///
                   333 20060 5////=
201305141800 AAXX 14184 67855 NIL=
201305141200 AAXX 14124 67855 42675 50000 10264 20105 3//// 48/// 85100
                   333 5//// 85840=
201305140600 AAXX 14064 67855 32980 10602 10164 20105 38/// 48/// 81030
                   333 20120 5//// 81360=
201305131800 AAXX 13184 67855 NIL=
201305131200 AAXX 13124 67855 42680 40601 10283 20113 38/// 48/// 84100
                   333 5//// 84840=
201305130600 AAXX 13064 67855 32975 00502 10160 20120 3//// 48///
                   333 20100 5////=
201305121800 AAXX 12184 67855 NIL=
201305121200 AAXX 12124 67855 NIL=
201305120600 AAXX 12064 67855 NIL=
201305111800 AAXX 11184 67855 NIL=
201305111200 AAXX 11124 67855 42675 30302 10284 20108 3//// 48/// 83100
                   333 5//// 83840=
201305110600 AAXX 11064 67855 32975 11801 10118 20067 3//// 48/// 81030
                   333 20055 5//// 81360=
201305101800 AAXX 10184 67855 NIL=
201305101200 AAXX 10124 67855 NIL=
201305100600 AAXX 10064 67855 NIL=
201305091800 AAXX 09184 67855 NIL=
201305091200 AAXX 09124 67855 NIL=
201305090600 AAXX 09064 67855 32975 50000 10139 20096 3//// 48/// 85050
                   333 20080 5//// 85360=
201305081800 AAXX 08184 67855 NIL=
201305081200 AAXX 08124 67855 42675 40000 10263 20086 3//// 48/// 84100
                   333 5//// 84845=
201305071200 AAXX 07124 67855 42980 00000 10254 20056 38/// 48///
                   333 5////=
201305070600 AAXX 07064 67855 32975 00000 10095 20053 3//// 48///
                   333 20031 5////=
201305061200 AAXX 06124 67855 42675 10701 10278 20074 3//// 48/// 81100
                   333 5//// 81845=
201305051800 AAXX 05184 67855 NIL=
201305051200 AAXX 05124 67855 NIL=
201305050600 AAXX 05064 67855 32975 00000 10188 20060 3//// 48///
                   333 20038 5////=
201305041200 AAXX 04124 67855 42975 00000 10276 20050 3//// 48///
                   333 5////=
201305040600 AAXX 04064 67855 32975 00000 10102 20038 38/// 48///
                   333 20039 5////=
201305031800 AAXX 03184 67855 NIL=
201305031200 AAXX 03124 67855 42980 00601 10280 20073 38/// 48///
                   333 5////=
201305030600 AAXX 03064 67855 32975 00000 10110 20045 3//// 48///
                   333 20036 5////=
201305021800 AAXX 02184 67855 NIL=
201305021200 AAXX 02124 67855 42675 12301 10257 20063 3//// 48/// 81100
                   333 5//// 81845=
201305020600 AAXX 02064 67855 32975 00000 10112 20066 3//// 48///
                   333 20049 5////=
201305011200 AAXX 01124 67855 42675 50406 10263 20117 3//// 48/// 85800
                   333 5//// 83840=
201305010600 AAXX 01064 67855 NIL=
