################################################################################
# Query made at 04/15/2022 01:37:12 UTC
# Country like Zamb*
# Time interval: from 01/01/2011 05:30  to 01/31/2011 06:30  UTC
################################################################################

################################################################################
#  SYNOPS from 67413, Mbala (Zambia) | 08-51S | 031-20E | 1673 m
################################################################################
201101130600 AAXX 13064 67413 11150 82805 10160 20160 48526 60304 74044 887//
                   333 10230 20145 58001 88703=

################################################################################
#  SYNOPS from 67441, Mwinilunga (Zambia) | 11-45S | 024-26E | 1361 m
################################################################################
201101250600 AAXX 25064 67441 11980 70000 10175 20172 48523 60124 72844 8707/
                   333 10280 20/// 59002 87360=
201101070900 AAXX 07094 67441 42680 73307 10220 20174 48548 8413/
                   333 59009 84830 87360=
201101070600 AAXX 07064 67441 12580 83303 10184 20170 48526 60024 885//
                   333 10255 20/// 58007 88460=
201101060600 AAXX 06064 67441 12980 11000 10193 20183 48519 69904 8707/
                   333 10275 20//0 59009 87360=
201101040600 AAXX 04064 67441 11980 50000 10175 20163 48533 60064 72844
                   333 10275 20//0 59011 85360=

################################################################################
#  SYNOPS from 67461, Mansa (Zambia) | 11-06S | 028-51E | 1382 m
################################################################################
201101130900 AAXX 13094 67461 41560 83603 10196 20181 48496 76066 8357/
                   333 59004 83620 88460=
201101070900 AAXX 07094 67461 42575 72703 10236 20188 48494 71522 8457/
                   333 58002 84620 87462=
201101070600 AAXX 07064 67461 12580 83502 10201 20188 48496 60174 8557/
                   333 10300 20165 58007 85620 88462=
201101060600 AAXX 06064 67461 12580 73604 10198 20177 48499 6054/ 70222 84531
                   333 10290 20156 59004 84618 85362 82080=
201101040900 AAXX 04094 67461 42580 41115 10266 20166 48514 83230
                   333 58011 83830 82360=
201101040600 AAXX 04064 67461 32980 30804 10209 20184 48512 83030
                   333 10300 20151 58007 83362=

################################################################################
#  SYNOPS from 67477, Mpika (Zambia) | 11-54S | 031-26E | 1400 m
################################################################################
201101250600 AAXX 25064 67477 11980 80000 10198 20177 48497 69904 70292 8802/
                   333 10295 20152 59013 88460=
201101070900 AAXX 07094 67477 41580 72805 10222 20176 48489 70166 8823/
                   333 58007 85820 87361=
201101070600 AAXX 07064 67477 12380 83403 10176 20171 48493 60084 8367/
                   333 10266 20141 58006 83706 88360=
201101060600 AAXX 06064 67477 32480 61002 10220 20172 48489 81180
                   333 10270 20162 59010 81819 86361=

################################################################################
#  SYNOPS from 67531, Zambezi (Zambia) | 13-32S | 023-07E | 1077 m
################################################################################
201101280900 AAXX 28094 67531 42480 73605 10218 20182 48/// 8157/
                   333 58030 81518=
201101250900 AAXX 25094 67531 42580 73303 10265 20199 47/// 83838
                   333 5//// 82828 81628 82361 85280=
201101250600 AAXX 25064 67531 12380 73101 10202 20192 48/// 69914 8662/
                   333 10271 20179 59005 86708 87459=
201101241200 AAXX 24124 67531 41580 70000 10228 20198 48/// 72162 83872
                   333 5//// 82824 81624 85360 81080=
201101190900 AAXX 19094 67531 41480 80305 10217 20193 48/// 76065 8652/
                   333 58006 86610 88459=
201101190600 AAXX 19064 67531 11380 80107 10207 20204 48/// 60854 75052 8772/
                   333 10299 20189 58001 87707 88459=
201101171200 AAXX 17124 67531 41580 33609 10256 20201 48/// 70265 82132
                   333 5//// 82824 81360 82080=
201101170900 AAXX 17094 67531 41380 83603 10199 20190 48/// 76362 8573/
                   333 85707 87460=
201101141200 AAXX 14124 67531 42680 53607 10274 20191 48/// 85202
                   333 59005 85833 81080=
201101130900 AAXX 13094 67531 41480 70303 10237 20196 48/// 71622 8687/
                   333 59010 84814 82618 87360=
201101070900 AAXX 07094 67531 42580 73604 10250 20194 48/// 878//
                   333 58007 85823 83623=
201101070600 AAXX 07064 67531 12480 43604 10210 20172 48/// 60044 81138
                   333 10295 20166 59003 81815 81362 84281=
201101060600 AAXX 06064 67531 32980 43007 10205 20160 48/// 84030
                   333 10318 20173 84362=
201101040900 AAXX 04094 67531 42680 60906 10278 20199 48/// 85131
                   333 59005 85840 82360 82080=
201101040600 AAXX 04064 67531 11980 51203 10218 20210 48/// 60014 70242 83034
                   333 10129 20165 58001 84362 83081=

################################################################################
#  SYNOPS from 67561, Ndola (Zambia) | 13-00S | 028-39E | 1269 m
################################################################################
201101120600 AAXX 12064 67561 11358 80000 10177 20174 48507 60794 76162 8177/
                   333 10280 20176 59007 81767 88458 91018=
201101100600 AAXX 10064 67561 31456 40205 10201 20178 48505 70400 81132
                   333 10281 20170 58001 81810 81360 84080=
201101070900 AAXX 07094 67561 41480 73006 10214 20191 48496 70522 85238
                   333 58004 85815 86360 87280=
201101070600 AAXX 07064 67561 31360 70000 10194 20173 48499 70522 84638
                   333 10285 20176 59001 84706 86360 87280=
201101050600 AAXX 05064 67561 12980 61002 10221 20186 48506 60014 81038
                   333 10281 59013 81361 86280=

################################################################################
#  SYNOPS from 67571, Serenje (Zambia) | 13-14S | 030-13E | 1384 m
################################################################################
201101190900 AAXX 19094 67571 41480 83304 10201 20188 48482 72162 885//
                   333 59002 81918 88620=
201101190600 AAXX 19064 67571 12484 83603 10204 20188 48482 60024 885//
                   333 10267 20172 58002 88615=
201101171200 AAXX 17124 67571 41465 81805 10225 20159 48562 79796 885//
                   333 59018 81918 88620=
201101170900 AAXX 17094 67571 42482 73603 20182 48483 84238
                   333 59018 81917 84723 82361 87282=
201101141200 AAXX 14124 67571 41484 72701 10215 20184 48462 71562 875//
                   333 59017 81919 87623=
201101070600 AAXX 07064 67571 11480 72704 10199 20171 48482 60124 70242 8557/
                   333 10279 20170 59003 85615 87460=
201101051200 AAXX 05124 67571 42584 70904 10260 20161 48474 84238
                   333 59029 81923 84827 84360 86280=

################################################################################
#  SYNOPS from 67580, Msekera (Zambia) | 13-39S | 032-34E | 1025 m
################################################################################
201101250900 AAXX 25094 67580 41580 72002 10214 20191 48/// 70262 81131
                   333 58000 81820 86360=
201101190600 AAXX 19064 67580 12480 60904 10240 20218 48/// 60104 81331
                   333 10279 20190 59001 81617 83361 84080=
201101170900 AAXX 17094 67580 42680 60903 10274 20208 48/// 86200
                   333 5//// 86834=
201101130900 AAXX 13094 67580 42680 70304 10270 20212 48/// 85201
                   333 59003 85840 83080=
201101130600 AAXX 13064 67580 12980 72702 10239 20202 48/// 69904 86031
                   333 10276 20199 59007 86360 81080=
201101070600 AAXX 07064 67580 12980 70000 10227 20168 48/// 69904 8707/
                   333 10278 20193 59002 87460=
201101060600 AAXX 06064 67580 11970 70000 10232 20205 48/// 60194 72162 8707/
                   333 10270 20185 59021 87460=
201101040900 AAXX 04094 67580 42680 71506 10278 20201 48/// 85232
                   333 5//// 85835 81360 84080=
201101040600 AAXX 04064 67580 12580 60000 10240 20201 48/// 60064 81132
                   333 10289 20181 58011 81820 85360 83080=

################################################################################
#  SYNOPS from 67581, Chipata (Zambia) | 13-33S | 032-35E | 1028 m
################################################################################
201101250600 AAXX 25064 67581 11460 82604 10205 20198 48512 60034 76066 8777/
                   333 10295 20199 58000 87720 88460=

################################################################################
#  SYNOPS from 67599, Mfuwe (Zambia) | 13-16S | 031-56E | 568 m
################################################################################
201101280900 AAXX 28094 67599 42680 80000 10290 20219 48547 83137
                   333 58033 83830 83360 88280=
201101171200 AAXX 17124 67599 41580 50000 10320 20221 48485 71722 81900
                   333 59026 81925 85828=
201101130900 AAXX 13094 67599 41580 83308 10279 20239 48521 71722 8427/
                   333 59013 819// 84825 88460=
201101130600 AAXX 13064 67599 12380 80000 10235 20221 48517 69904 8357/
                   333 10295 20210 58001 83610 88460=
201101100600 AAXX 10064 67599 12980 20000 10244 20218 48518 69904 82031
                   333 10272 20200 59008 82360 82080=
201101070900 AAXX 07094 67599 42480 80606 10256 20213 48506 8227/
                   333 58010 82820 88460=
201101070600 AAXX 07064 67599 32480 70000 10235 20206 48597 8113/
                   333 10324 20206 59002 81812 87360=
201101040900 AAXX 04094 67599 41680 70000 10297 20227 48545 71792 8327/
                   333 58005 81930 83830 86460=

################################################################################
#  SYNOPS from 67633, Mongu (Zambia) | 15-15S | 023-09E | 1052 m
################################################################################
201101250600 AAXX 25064 67633 32982 73603 10240 20197 48491 81938
                   333 10300 20202 59008 81959 84360 84280=
201101060600 AAXX 06064 67633 32982 30904 10245 20194 48489 70200 83030
                   333 10300 20200 59022 83362=

################################################################################
#  SYNOPS from 67663, Kabwe (Zambia) | 14-27S | 028-28E | 1206 m
################################################################################
201101070600 AAXX 07064 67663 11980 70902 10194 20157 48469 60374 70262 8707/
                   333 10300 20165 59017 87460=
201101060600 AAXX 06064 67663 12980 30603 10228 20188 48492 60074 82032
                   333 10275 20180 59018 82360 82080=
201101051200 AAXX 05124 67663 41782 52905 10299 20193 48497 71799 85902
                   333 59006 81950 84850 83080=

################################################################################
#  SYNOPS from 67665, Lusaka Internationalairport (Zambia) | 15-19S | 028-27E | 1152 m
################################################################################
201101310600 AAXX 31064 67665 12360 70205 10186 20179 48516 60134 8377/
                   333 10255 20180 58012 83707 87460=
201101301800 AAXX 30184 67665 41480 71305 10198 20198 48488 71322 81932
                   333 10255 59013 83612 81940 85360 81080 91015=
201101301500 AAXX 30154 67665 61206 10235 20192 48477 71522 81932
                   333 59024 81925 82830 83360 84080
                   555 10255 91013=
201101301200 AAXX 30124 67665 42460 70404 10221 20214 48490 70322 8587/
                   333 59008 86318 87460=
201101300900 AAXX 30094 67665 41359 83507 10202 48498 72166 8667/
                   333 59023 86706 10498=
201101300600 AAXX 30064 67665 12360 80304 10210 20210 48507 60104 72162 8667/
                   333 10290 20177 59018 86707 88459=
201101291200 AAXX 29124 67665 42680 72505 10276 20209 48505 85232
                   333 59012 81930 84830 82360 84080=
201101290900 AAXX 29094 67665 42480 60103 10261 20202 48528 70222 83830
                   333 58001 81615 83820 86360 91019=
201101290600 AAXX 29064 67665 12380 70703 10216 20202 48525 60024 81630
                   333 10286 20189 58008 81709 87360=
201101281200 AAXX 28124 67665 41680 72705 10236 20221 48512 72162 85230
                   333 58039 81935 85835 84360=
201101280900 AAXX 28094 67665 42480 62710 10235 20186 48525 84830
                   333 58026 81615 83818 85360=
201101280600 AAXX 28064 67665 12360 82908 10196 20186 48516 60134 8573/
                   333 10270 20183 58034 85706 87359=
201101280400 AAXX 28044 67665 41360 82908 10187 20187 48502 76066 8573/
                   333 58029 85705 88359=
201101272100 AAXX 27214 67665 41360 73106 10198 20198 48503 76066 8573/
                   333 58027 85707 87359=
201101271800 AAXX 27184 67665 41360 73204 10198 20198 48486 71392 8263/
                   333 58032 82708 87360 819//=
201101271500 AAXX 27154 67665 41658 72608 10245 20194 48469 79522 8197/
                   333 10270 58026 81940 84845 87459=
201101270600 AAXX 27064 67665 12380 83309 10201 20201 48483 69904 8663/
                   333 10291 20178 59004 86708 88360=
201101261800 AAXX 26184 67665 41780 72905 10211 20211 48457 71322 8193/
                   333 10291 59024 81950 87360=
201101261500 AAXX 26154 67665 41660 72506 10258 20231 48445 72582 82232
                   333 59023 81945 81845 86360 81080=
201101261200 AAXX 26124 67665 42680 62806 10270 20212 48459 85232
                   333 59032 85835 81360 81080=
201101260600 AAXX 26064 67665 32480 72904 10199 20193 48497 69904 70222 81632
                   333 10267 20180 59018 81610 86360 85080
                   555 00/// 91015=
201101260400 AAXX 26044 67665 42380 72904 10180 20180 48487 71522 83532
                   333 59023 83609 85360 86280=
201101260300 AAXX 26034 67665 42/80 52907 10182 20182 48504 70222 85030
                   333 59025 819// 85360=
201101260000 AAXX 26004 67665 42980 52502 10193 20193 48473 85031
                   333 59017 85360 81080=
201101252100 AAXX 25214 67665 42380 72507 10207 20207 48488 70322 8373/
                   333 59020 83703 87360=
201101251500 AAXX 25154 67665 42680 72302 10220 20212 48464 8533/
                   333 59015 81940 82845 86360 91012=
201101251200 AAXX 25124 67665 42580 73507 10248 20234 48488 8583/
                   333 58000 84830 82630 86360=
201101250900 AAXX 25094 67665 42460 73504 10225 20210 48511 8557/
                   333 58001 85615 87459=
201101250600 AAXX 25064 67665 11360 81104 10199 20193 48504 60384 71044 8577/
                   333 10265 20186 59002 85706 88459=
201101241800 AAXX 24184 67665 42/80 72801 10216 20216 48495 70222 81932
                   333 10265 58004 819// 84360 86280 91015=
201101241500 AAXX 24154 67665 42680 71602 10224 20201 48527 70292 81938
                   333 58007 81940 84360 86280
                   555 10265 91013=
201101241200 AAXX 24124 67665 41558 71007 10249 20249 48486 79562 81932
                   333 58004 81930 85830 81360 86080 91014=
201101240900 AAXX 24094 67665 42560 70504 10237 20229 48511 70222 85532
                   333 58004 85620 86460 83080 91017=
201101240600 AAXX 24064 67665 11457 70602 10202 20202 48506 69904 76222 83572
                   333 10280 20178 59001 83610 86459 82080=
201101220400 AAXX 22044 67665 42980 73002 10192 20192 48499 87030
                   333 58010 87360=
201101220300 AAXX 22034 67665 42980 72904 10194 20194 48494 87030
                   333 58010 87360=
201101212100 AAXX 21214 67665 42680 70205 10190 20190 48512 84530
                   333 58016 84640 87360=
201101211800 AAXX 21184 67665 42780 70203 10207 20207 48500 81230
                   333 10268 81856 87360=
201101211200 AAXX 21124 67665 42575 63210 10257 20207 48487 71622 85230
                   333 58019 81926 84827 85360=
201101210900 AAXX 21094 67665 42480 63308 10234 20193 48511 86830
                   333 58021 82618 84820 84360 91017=
201101201800 AAXX 20184 67665 41756 73104 10212 20212 48481 76322 8193/
                   333 58003 81950 87360=
201101201500 AAXX 20154 67665 41660 63506 10222 20197 48456 78028 81932
                   333 59002 81940 81840 83360 83080=
201101201200 AAXX 20124 67665 41520 73204 10239 20234 48468 78182 84230
                   333 58011 81925 84825 82360=
201101200600 AAXX 20064 67665 12380 73106 10201 20184 48491 60014 70322 8553/
                   333 10275 20185 58001 85608 87360
                   555 00///=
201101200400 AAXX 20044 67665 42380 83304 10192 20192 48478 70222 8573/
                   333 58002 87505 88360=
201101200300 AAXX 20034 67665 42280 73503 10193 20193 48473 70322 877//
                   333 58003 87705 91013=
201101200000 AAXX 20004 67665 42380 73304 10192 20192 48475 70166 8573/
                   333 59003 85706 87360=
201101192100 AAXX 19214 67665 42280 80204 10200 20200 48490 70222 8573/
                   333 58000 85705 87360=
201101191800 AAXX 19184 67665 42780 70204 10201 20201 48477 70222 81932
                   333 58002 81950 85360 86080=
201101191500 AAXX 19154 67665 42680 70608 10235 20228 48460 86332
                   333 58002 81940 86845 85360 83080 91011=
201101191200 AAXX 19124 67665 42580 60508 10262 48459 86232
                   333 59014 86830 81360 81080 91011=
201101190900 AAXX 19094 67665 42480 70707 10229 20207 48486 86830
                   333 59009 82812 84615 81360=
201101190600 AAXX 19064 67665 12380 80707 10206 20197 48491 60024 887//
                   333 10275 20180 59004 88706=
201101181800 AAXX 18184 67665 41680 61105 10214 20214 48474 72992 81932
                   333 10270 59010 81935 83360 84080=
201101181500 AAXX 18154 67665 42680 70803 10265 20201 48490 70222 81932
                   333 59008 81940 82845 81360 86080
                   555 10294 91011=
201101181200 AAXX 18124 67665 41560 71603 10234 20921 48523 72992 81932
                   333 58005 81925 82830 81632 84360 87280 91013=
201101180900 AAXX 18094 67665 42480 70704 10250 20236 48497 70322 8683/
                   333 59006 82820 84360 91015=
201101180600 AAXX 18064 67665 12480 70000 10206 20206 48495 60154 8653/
                   333 10294 20185 59006 86612 84360=
201101171200 AAXX 17124 67665 42680 63607 10281 20223 48475 81902
                   333 59020 81935 85835 83080 91012=
201101170900 AAXX 17094 67665 42680 60105 10259 20193 48509 70222 85230
                   333 59019 85830 81360 91016=
201101160300 AAXX 16034 67665 41360 73103 10201 20201 48506 76062 8173/ 81706 87359=
201101152100 AAXX 15214 67665 42980 73202 10194 20194 48516 8707/
                   333 58012 87360=
201101141800 AAXX 14184 67665 42780 73602 10204 20204 48490 8193/
                   333 10260 58004 81950 87360=
201101141500 AAXX 14154 67665 41660 73111 10226 20212 48478 76122 8223/
                   333 58005 81940 87360=
201101141200 AAXX 14124 67665 42580 73506 10242 20205 48483 82232
                   333 58000 82825 84360 83080=
201101140600 AAXX 14064 67665 11370 73504 10199 20194 48505 60184 76062 8372/
                   333 10280 20185 58002 83707 87459=
201101140400 AAXX 14044 67665 41359 83502 10188 20188 48494 74022 83772
                   333 59001 83705 86459 87280=
201101140300 AAXX 14034 67665 42980 40102 10190 20190 48540 70222 84032
                   333 58000 84360 82080=
201101140000 AAXX 14004 67665 42980 63501 10191 20191 48485 70222 85032
                   333 59001 85360 83080=
201101132100 AAXX 13214 67665 42980 61202 10210 20210 48496 70222 85032
                   333 59005 85360 82080=
201101131800 AAXX 13184 67665 42860 83203 10198 20198 48486 70266 81972
                   333 59001 819// 86360 88280 91015=
201101130900 AAXX 13094 67665 41360 73107 10214 20204 48502 76155 8577/
                   333 59008 85708 87459=
201101130600 AAXX 13064 67665 12360 70604 10210 20203 48505 60024 70244 877//
                   333 10255 20190 59005 87707=
201101121800 AAXX 12184 67665 42760 71402 10202 48487 70222 81932
                   333 10252 59013 81950 85360 86080=
201101121500 AAXX 1215/ 67665 41657 70205 10245 20196 48479 79592 81932
                   333 81940 83845 82360 85080
                   555 10252 91013=
201101121200 AAXX 12124 67665 42680 70903 10240 20193 48488 70122 85232
                   333 58003 85835 83360 84080 91014=
201101120900 AAXX 12094 67665 42465 70405 10229 20214 48507 70222 8657/
                   333 58003 86620 87460 91017=
201101120600 AAXX 12064 67665 12465 73303 10196 20196 48509 60024 8557/
                   333 10285 20136 58000 85612 87460=
201101110900 AAXX 11094 67665 42480 70604 10225 20188 48500 70322 82132
                   333 59001 82812 84360 85080 91016=
201101100600 AAXX 10064 67665 11460 72704 10202 20191 48509 60164 75022 8253/
                   333 10289 20186 58010 82610 87360=
201101100400 AAXX 10044 67665 41360 73602 10200 20200 48498 75822 8473/
                   333 58008 84706 87359=
201101100300 AAXX 10034 67665 42360 73503 10201 20201 48494 8273/
                   333 58010 82705 87359=
201101100000 AAXX 10004 67665 42/60 73302 10200 20200 48482 8193/
                   333 58002 819// 87359=
201101092100 AAXX 09214 67665 41760 73302 10195 20195 48494 72166 8193/
                   333 58004 81950 87359=
201101091200 AAXX 09124 67665 41665 72805 10273 20209 48473 71522 862//
                   333 58003 81935 87836=
201101081800 AAXX 08184 67665 41680 73002 10198 20198 48480 8193/
                   333 10261 59008 81940 87359=
201101081500 AAXX 08154 67665 41360 72406 10202 20189 48466 71796 8373/
                   333 59017 83706 82930 87359=
201101081200 AAXX 08124 67665 41360 72606 10238 20224 48467 71722 81932
                   333 59005 81709 81925 84360 83080=
201101080600 AAXX 08064 67665 11470 63305 10213 20201 48494 60074 83532
                   333 10290 20183 59007 83612 84360 85080=
201101080400 AAXX 08044 67665 41230 73501 10183 20183 48482 71022 81732
                   333 58009 81704 83360 86080=
201101080300 AAXX 08034 67665 42280 63301 10185 20185 48479 70222 82732
                   333 58007 82704 85360 82080=
201101080000 AAXX 08004 67665 41260 70000 10186 20186 48578 70322 81930
                   333 58014 83703 81950 85360=
201101072100 AAXX 07214 67665 41760 70000 10199 20199 48593 79566 8197/
                   333 58007 81950 87459=
201101071800 AAXX 07184 67665 41859 70901 10207 20207 48473 71396 82332
                   333 58008 829// 86360 84080 91013=
201101070900 AAXX 07094 67665 42580 72809 10234 20212 48493 84830
                   333 59002 81827 83628 85360=
201101070600 AAXX 07064 67665 12480 73106 10207 20170 48487 69964 81232
                   333 10300 20176 59011 81815 83360 85080=
201101061800 AAXX 06184 67665 41760 60903 10228 20230 48568 71799 82932
                   333 10300 59016 82957 83360 85080=
201101061500 AAXX 06154 67665 42780 61003 10281 20194 48449 81932
                   333 59031 81950 82856 81360 86080
                   555 10300=
201101061200 AAXX 06124 67665 42680 63301 10282 48477 85202
                   333 59037 81940 85840 83080 91013=
201101060600 AAXX 06064 67665 32960 40102 10239 20217 48501 81082
                   333 59023 82360 83080 91016=
201101051800 AAXX 05184 67665 42780 51402 10230 20216 48483 81932
                   333 10289 59028 81956 81360 85080=
201101051500 AAXX 05154 67665 42780 31108 10278 20184 48485 81931
                   333 59028 81950 82856 81360 83080
                   555 10289=
201101051200 AAXX 05124 67665 41680 60906 10279 20174 48504 71522 85202
                   333 59018 85842 82080 91016=
201101050600 AAXX 05064 67665 32380 41109 10218 20213 48520 84531
                   333 10235 20170 59002 83608 81360 81080=
201101041200 AAXX 04124 67665 42680 50809 10279 20199 48522 85200
                   333 58005 85842=
201101040900 AAXX 04094 67665 42580 50810 10262 20216 48541 85200
                   333 58011 85825=
201101040600 AAXX 04064 67665 12480 50909 10226 20194 48539 60034 84132
                   333 10289 20165 58015 85818 81360=
201101040300 AAXX 04034 67665 42980 11403 10179 20179 48516 80002
                   333 58012 81080=
201101040000 AAXX 04004 67665 42980 11404 10181 20181 48512 80002
                   333 58007 81080=
201101032100 AAXX 03214 67665 41780 21304 10189 20189 48521 71300 81932
                   333 58017 81956 81360 81080=
201101031200 AAXX 03124 67665 41680 60812 10218 20203 48510 78092 86930
                   333 58014 82930 86832 81360=
201101020900 AAXX 02094 67665 42680 60609 10264 20221 48524 86802
                   333 58001 84830 82632 81080=
201101020600 AAXX 02064 67665 32480 50708 10221 20192 48522 81232
                   333 10272 20170 59005 81815 82360 83080=
201101020400 AAXX 02044 67665 42980 51404 10177 20177 48515 82032
                   333 59010 82360 85080=
201101011800 AAXX 01184 67665 41780 71005 10213 20213 48506 71322 81932
                   333 10272 58006 81956 83360 86080=
201101011500 AAXX 01154 67665 42780 71006 10242 20228 48489 81932
                   333 58009 81950 81859 81360 86080=
201101011200 AAXX 01124 67665 42680 70808 10262 20226 48498 83232
                   333 58003 83840 81360 85080=
201101010900 AAXX 01094 67665 42460 60407 10259 20231 48523 85700
                   333 58003 85720=

################################################################################
#  SYNOPS from 67666, Lusaka City Airport (Zambia) | 15-25S | 028-19E | 1280 m
################################################################################
201101280900 AAXX 28094 67666 42580 72910 10215 20177 48517 8687/
                   333 58037 84815 86620 85360=
201101250900 AAXX 25094 67666 42480 80704 10220 20190 48502 8582/
                   333 5//// 82618 83820 87460=
201101250600 AAXX 25064 67666 12480 80904 10192 20184 48499 60124 8657/
                   333 10250 20165 59001 86610 85360=
201101241200 AAXX 24124 67666 41680 60908 10235 20205 48482 79666 81973
                   333 58003 81032 84832 86460 81080=
201101190900 AAXX 19094 67666 42480 61305 10230 20193 48501 85801
                   333 59008 85618 82820 81080=
201101190600 AAXX 19064 67666 12380 80907 10200 20185 48483 60214 886//
                   333 10260 20170 59008 88708=
201101171200 AAXX 17124 67666 42680 50903 10270 20180 48467 85201
                   333 59028 85830 81080=
201101170900 AAXX 17094 67666 42580 40504 10250 20191 48497 84230
                   333 59019 84825 81360=
201101141200 AAXX 14124 67666 41679 80505 10229 20186 48479 76066 8197/
                   333 58003 81931 85831 88460=
201101130900 AAXX 13094 67666 41480 83603 10200 20185 48494 72166 885//
                   333 59003 88612=
201101130600 AAXX 13064 67666 11470 80807 10205 20195 48500 69994 78021 885//
                   333 10240 20170 59004 88610=
201101120600 AAXX 12064 67666 11478 80704 10186 20183 48502 60014 76066 888//
                   333 10270 20167 59002 88610 81812 91017=
201101070900 AAXX 07094 67666 42580 63008 10225 20172 48486 86831
                   333 59004 82825 86832 81360 84280=
201101070600 AAXX 07064 67666 12480 73605 10210 20161 48483 60074 84288
                   333 10290 20155 59010 84816 82359 86280=
201101060600 AAXX 06064 67666 32980 40804 10228 20179 48496 82081
                   333 10280 20156 59020 82361 83080=
201101051200 AAXX 05124 67666 42680 40905 10270 20180 48495 84201
                   333 59026 84840 81080=
201101040600 AAXX 04064 67666 12480 51010 10220 20154 48531 60034 85531
                   333 10260 20170 58015 85615 81360 82080=

################################################################################
#  SYNOPS from 67673, Petauke (Zambia) | 14-15S | 031-17E | 1035 m
################################################################################
201101250600 AAXX 25064 67673 11480 82006 10198 20184 48509 69934 72992 8257/
                   333 10300 20196 59008 82615 88460=
201101241200 AAXX 24124 67673 42680 60202 10290 20203 48493 84238
                   333 58021 84840 86280=
201101190900 AAXX 19094 67673 42580 70406 10247 20208 48494 84532
                   333 59008 84625 86364 82080=
201101190600 AAXX 19064 67673 11580 83602 10210 20195 48497 60124 71562 8157/
                   333 10290 20194 59006 81620 88462=
201101171200 AAXX 17124 67673 41680 70602 10248 20205 48586 71592 8523/
                   333 59002 81935 85835 85360 87080=
201101170900 AAXX 17094 67673 42680 60202 10270 20198 48511 86201
                   333 59018 86832 82080=
201101130900 AAXX 13094 67673 42684 83505 10250 20208 48524 85207
                   333 59008 85832 88275=
201101130600 AAXX 13064 67673 12984 83604 10227 20207 48512 60134 82177
                   333 10250 20193 59013 82825 84364 88280=
201101070900 AAXX 07094 67673 42684 73605 10275 20174 48498 83238
                   333 59008 83830 81362 87280=
201101070600 AAXX 07064 67673 32984 73004 10233 20184 48494 82088
                   333 10315 20200 59012 82362 87280=
201101060600 AAXX 06064 67673 12980 50203 10238 20197 48507 60014 83031
                   333 10299 20200 59021 83360 85080=
201101040900 AAXX 04094 67673 42680 60906 10282 20188 48543 86232
                   333 58014 81935 86835 82360 81080=
201101040600 AAXX 04064 67673 12580 41503 10227 20194 48543 69904 83831
                   333 10312 20195 58017 83820 81622 84360 81080=

################################################################################
#  SYNOPS from 67743, Livingstone (Zambia) | 17-49S | 025-49E | 985 m
################################################################################
201101280900 AAXX 28094 67743 41459 83208 10221 20206 48513 75822 8657/
                   333 58047 86620 87460=
201101250900 AAXX 25094 67743 42680 70000 10263 20205 48500 8427/
                   333 59002 84830 87360=
201101201500 AAXX 20154 67743 41780 70908 10237 20197 48444 71792 8291/
                   333 58001 81950 82850 87360=
201101201200 AAXX 20124 67743 42680 70906 10244 20212 48453 83220
                   333 59008 81645 83845 87360=
201101190600 AAXX 19064 67743 11359 81005 10215 20215 48483 60184 76122 8477/
                   333 10278 2//// 59003 84706 88460=
201101170900 AAXX 17094 67743 42580 50305 10272 20205 48493 84101
                   333 59024 84826 81360=
201101141200 AAXX 14124 67743 42680 73605 10278 20192 48468 85238
                   333 59005 85840 81360 85080=
201101120600 AAXX 12064 67743 32380 712// 10220 20198 48503 8567/
                   333 10316 2//// 58010 85708 86360 91016=
201101100600 AAXX 10064 67743 32980 43406 10240 20192 48495 82031
                   333 10299 20//0 58015 82360 84080=
201101081500 AAXX 08154 67743 41680 72707 10276 20203 48444 71722 83270
                   333 59019 81930 83830 85460=
201101081200 AAXX 08124 67743 41680 63506 10245 20202 48453 72552 83260
                   333 59012 83840 85360=
201101070900 AAXX 07094 67743 42680 81602 10245 20200 48478 8427/
                   333 59006 84830 87460=
201101070600 AAXX 07064 67743 12380 80906 10206 20194 48476 60034 85670
                   333 10352 20/// 59010 85070 88759=
201101051200 AAXX 05124 67743 42780 31103 10315 20178 48505 83100
                   333 59019 83856=
201101050600 AAXX 05064 67743 32980 41209 10235 20181 48518 80001
                   333 10330 2//// 59014 84080=
201101040900 AAXX 04094 67743 42680 40908 10286 20194 48539 82131
                   333 58004 82840 81360 83080=
201101040600 AAXX 04064 67743 12980 60905 10232 20194 48532 69904 84032
                   333 10306 20//0 58010 84360 84080=

################################################################################
#  SYNOPS from 67753, Choma (Zambia) | 16-50S | 027-04E | 1213 m
################################################################################
201101250900 AAXX 25094 67753 42480 72710 10234 20193 48/// 85508
                   333 5//// 85615 87280=
201101190600 AAXX 19064 67753 12380 80905 10209 20203 48/// 60054 8757/
                   333 10274 20187 5//// 87609 88459=
201101171200 AAXX 17124 67753 41580 73605 10245 20205 48/// 71792 83208
                   333 5//// 81925 83825 87250=
201101170900 AAXX 17094 67753 42580 73608 10254 20206 48/// 87108
                   333 87830 82780=
201101070900 AAXX 07094 67753 42580 73508 10241 20193 48/// 82108
                   333 5//// 82820 87280=
201101070600 AAXX 07064 67753 32980 73507 10201 20182 48/// 8707/
                   333 10305 20172 5//// 87459=
201101060600 AAXX 06064 67753 32980 70605 10214 20183 80001
                   333 10281 20152 87280=
201101040900 AAXX 04094 67753 42580 70614 10251 20194 48/// 87208
                   333 5//// 87825 85280=
201101040600 AAXX 04064 67753 32980 71006 10218 20189 48/// 87030
                   333 10281 20172 5//// 87360=

################################################################################
#  SYNOPS from 67855, Lupaki (Zambia) | 17-03-00S | 024-46-00E | 1000 m
################################################################################
201101290600 AAXX 29064 67855 12380 71803 10198 20187 3//// 48/// 60124 8663/
                   333 20185 5//// 86708 87359=
201101281200 AAXX 28124 67855 NIL=
201101271200 AAXX 27124 67855 42680 53602 10292 20206 3//// 48/// 85200
                   333 5//// 85840=
201101270600 AAXX 27064 67855 12380 71201 10216 20210 3//// 48/// 60204 8663/
                   333 20200 5//// 86707 87359=
201101260600 AAXX 26064 67855 12980 50000 10218 20201 3//// 48/// 60454 85030
                   333 20190 5//// 85359=
201101251200 AAXX 25124 67855 41670 72701 10208 20199 3//// 48/// 78198 84203
                   333 5//// 81930 84830 87080=
201101250600 AAXX 25064 67855 12980 70000 10212 20204 3//// 48/// 60044 72582 8703/
                   333 20190 5//// 87359=
201101241200 AAXX 24124 67855 42680 72101 10284 20194 3//// 48/// 85231
                   333 5//// 85840 86080=
201101240600 AAXX 24064 67855 12980 71801 10226 20178 3//// 48/// 60124 83031
                   333 20178 5//// 83359 85080=
201101230600 AAXX 23064 67855 32980 63401 10216 20201 3//// 48/// 82032
                   333 20185 5//// 82359 84080=
201101220600 AAXX 22064 67855 12980 73301 10216 20188 3//// 48/// 60134 8703/
                   333 20/// 5//// 87359=
201101211200 AAXX 21124 67855 NIL=
201101210600 AAXX 21064 67855 NIL=
201101201200 AAXX 20124 67855 NIL=
201101191200 AAXX 19124 67855 41680 72102 10242 20213 3//// 48/// 72598 82232
                   333 5//// 82840 83359 85080=
201101190600 AAXX 19064 67855 12980 71201 10230 20197 3//// 48/// 60024 8703/
                   333 20203 5//// 87359=
201101181200 AAXX 18124 67855 41680 61203 10266 20201 3//// 48/// 72598 83202
                   333 5//// 83840 85080=
201101180600 AAXX 18064 67855 NIL=
201101171200 AAXX 17124 67855 42680 70703 10302 20195 3//// 48/// 85201
                   333 5//// 85840 87080=
201101170600 AAXX 17064 67855 12380 70802 10216 20203 3//// 48/// 69904 85601
                   333 20185 5//// 85707 87080=
201101160600 AAXX 16064 67855 11380 70000 10214 20203 38/// 48/// 60054 72582 82632
                   333 20198 5//// 83707 83360 87080=
201101151200 AAXX 15124 67855 41680 73002 10250 20208 38/// 48/// 72598 83232
                   333 5//// 83840 85359 87080=
201101150600 AAXX 15064 67855 NIL=
201101141200 AAXX 14124 67855 41380 70301 10220 20214 3//// 48/// 72585 85602
                   333 5//// 85707 87080=
201101140600 AAXX 14064 67855 NIL=
201101131200 AAXX 13124 67855 42680 73304 10304 20180 3//// 48/// 8523/
                   333 5//// 85840 86360=
201101130600 AAXX 13064 67855 12380 71602 10222 20188 3//// 48/// 60034 8563/
                   333 20190 5//// 85707 86360=
201101121200 AAXX 12124 67855 41670 71804 10268 20200 3//// 48/// 72585 8523/
                   333 5//// 85840 87359=
201101120600 AAXX 12064 67855 11380 70901 10202 20194 3//// 48/// 60084 72582 8363/
                   333 20185 5//// 83707 87359=
201101111200 AAXX 11124 67855 NIL=
201101110600 AAXX 11064 67855 12580 71203 10224 20200 3//// 48/// 69904 82232
                   333 20175 5//// 82830 83360 87080=
201101101200 AAXX 10124 67855 NIL=
201101100600 AAXX 10064 67855 12980 50000 10224 20210 3//// 48/// 60124 81031
                   333 20175 5//// 81360 85080=
201101090600 AAXX 09064 67855 12380 73302 10210 20190 3//// 48/// 60024 876//
                   333 20189 5//// 87708=
201101081200 AAXX 08124 67855 NIL=
201101080600 AAXX 08064 67855 12380 73601 10192 20180 3//// 48/// 60044 8563/
                   333 20180 5//// 85708 87360=
201101071200 AAXX 07124 67855 41670 72001 10206 20198 3//// 48/// 76166 8227/
                   333 5//// 82840 87458=
201101070600 AAXX 07064 67855 NIL=
201101061200 AAXX 06124 67855 42680 63601 10320 20174 3//// 48/// 85202
                   333 5//// 85840 84080=
201101060600 AAXX 06064 67855 32980 70301 10208 20165 3//// 48/// 82031
                   333 20155 5//// 82360 87080=
201101051200 AAXX 05124 67855 42680 50801 10318 20156 3//// 48/// 85201
                   333 5//// 85840=
201101050600 AAXX 05064 67855 32980 41401 10228 20165 38/// 48/// 80001
                   333 20165 5//// 84080=
201101041200 AAXX 04124 67855 42680 51003 10328 20165 38/// 48/// 85200
                   333 5//// 85840=
201101040600 AAXX 04064 67855 12980 41502 10226 20203 38/// 48/// 69904 80001
                   333 20175 5//// 84080=
201101031200 AAXX 03124 67855 42780 53601 10324 20179 3//// 48/// 85203
                   333 5//// 85850=
201101030600 AAXX 03064 67855 12980 41501 10224 20200 3//// 48/// 60104 84030
                   333 20190 5//// 84360=
201101021200 AAXX 02124 67855 NIL=
201101020600 AAXX 02064 67855 12980 70000 10210 20198 3//// 48/// 60324 8703/
                   333 20180 5//// 87360=
201101011200 AAXX 01124 67855 NIL=
201101010600 AAXX 01064 67855 12980 60501 10230 20198 3//// 48/// 60064 86030
                   333 20195 5//// 86360=
