################################################################################
# Query made at 04/06/2022 02:44:09 UTC
# Country like Zamb*
# Time interval: from 01/01/2021 01:30  to 01/31/2021 02:30  UTC
################################################################################

################################################################################
#  SYNOPS from 67403, Kawambwa (Zambia) | 09-48S | 029-05E | 1323 m
################################################################################
202101290600 AAXX 29064 67403 12980 71201 10186 20172 48525 60104 8703/
                   333 10288 20164 58016 87360=
202101280600 AAXX 28064 67403 11975 80901 10198 20177 48510 60154 8803/
                   333 10296 20175 59005 88360=
202101260600 AAXX 26064 67403 31975 71201 10204 20181 48524 70522 8703/
                   333 10262 20180 59001 87360=
202101250600 AAXX 25064 67403 11475 80901 10191 20183 48524 60284 70362 8453/
                   333 10286 20175 58038 84615 88360=
202101120600 AAXX 12064 67403 11975 82701 10188 20183 48503 60134 70562 8803/
                   333 10250 20174 58004 88360=
202101060600 AAXX 06064 67403 11975 53601 10212 20187 48509 69944 70522 83031
                   333 10272 20181 59012 83360 83080=
202101050600 AAXX 05064 67403 11975 70501 10194 20184 48520 60014 70566 8703/
                   333 10280 20180 59009 87360=

################################################################################
#  SYNOPS from 67413, Mbala (Zambia) | 08-51S | 031-20E | 1673 m
################################################################################
202101280600 AAXX 28064 67413 12580 50205 10205 20164 48532 60014 73171
                   333 10258 20156 58000 83820 83358 84076=

################################################################################
#  SYNOPS from 67441, Mwinilunga (Zambia) | 11-45S | 024-26E | 1361 m
################################################################################
202101290600 AAXX 29064 67441 12580 80000 10190 20153 48538 60224 885//
                   333 10264 20//0 58009 88620=
202101260600 AAXX 26064 67441 32380 80000 10180 20169 48544 887//
                   333 10250 20//0 58003 88709=
202101250600 AAXX 25064 67441 12380 80000 10195 20178 48541 60054 887//
                   333 10234 20//0 5//// 88710=
202101120600 AAXX 12064 67441 12980 70000 10195 20187 48/// 60244 8703/
                   333 10270 20//0 5//// 87360=
202101060600 AAXX 06064 67441 32680 40000 10205 20179 48/// 82101
                   333 10297 20//0 5//// 82835 84070=

################################################################################
#  SYNOPS from 67461, Mansa (Zambia) | 11-06S | 028-51E | 1382 m
################################################################################
202101060600 AAXX 06064 67461 32580 72910 10224 20199 48512 8453/
                   333 10278 20180 59010 84620 86360=
202101050600 AAXX 05064 67461 12480 83402 10195 20185 48519 69904 8357/
                   333 10282 20175 58006 83612 88460=

################################################################################
#  SYNOPS from 67469, Samfya (Zambia) | 11-22S | 029-54E | 1171 m
################################################################################
202101300600 AAXX 30064 67469 12280 72904 10202 20200 48/// 60144 83638
                   333 10265 20181 5//// 83703 83360 87280=
202101291200 AAXX 29124 67469 42480 50805 10258 20200 48/// 81932
                   333 5//// 81918 85818 82360 82280=
202101290900 AAXX 29094 67469 42480 61404 10247 20190 48/// 82132
                   333 5//// 82817 86360 83280=
202101290600 AAXX 29064 67469 32380 72706 10196 20180 48/// 8367/
                   333 10273 20181 5//// 83706 87360=
202101280600 AAXX 28064 67469 32980 60401 10224 20210 48/// 86030
                   333 10263 20196 5//// 86360=
202101260600 AAXX 26064 67469 12980 51007 10217 20200 48/// 60014 85032
                   333 10238 20202 5//// 85360 83280=
202101251200 AAXX 25124 67469 41380 80812 10210 20200 48/// 8377/
                   333 5//// 83706 83810 88460=
202101250600 AAXX 25064 67469 11380 73602 10200 20200 48/// 60334 8477/
                   333 10261 20186 5//// 84706 87460=
202101181200 AAXX 18124 67469 42680 72310 10234 20220 48/// 85230
                   333 5//// 85840 87360=
202101120600 AAXX 12064 67469 11380 82701 10192 20170 48/// 60604 76162 83670
                   333 10263 20180 5//// 83706 88460=
202101060600 AAXX 06064 67469 12380 70401 10210 20200 48/// 60014 82638
                   333 10280 20190 5//// 82706 82810 82360=
202101050600 AAXX 05064 67469 11270 80000 10201 20200 48/// 60554 8374/
                   333 10265 20170 5//// 83703 83609 88460=

################################################################################
#  SYNOPS from 67475, Kasama (Zambia) | 10-13S | 031-08E | 1382 m
################################################################################
202101300600 AAXX 30064 67475 12460 80304 10184 20181 48530 60024 8257/
                   333 10//0 20160 59008 82615 87460 91021=
202101290600 AAXX 29064 67475 12460 81807 10185 20185 48538 60064 8423/
                   333 10//0 20166 58020 84615 87460=
202101280600 AAXX 28064 67475 12960 73504 10209 20182 48519 60014 8707/
                   333 10/// 20159 59005 87460=
202101251200 AAXX 25124 67475 42560 82707 10217 20177 48515 84237
                   333 58034 81925 84825 84360 88280 91019=
202101250600 AAXX 25064 67475 11940 82703 10164 20164 48535 60104 76366 8807/
                   333 10//0 20158 58020 88460=
202101230600 AAXX 23064 67475 11560 80000 10185 20185 48512 60204 72844 882//
                   333 10//0 20170 59009 88825 91019=
202101120600 AAXX 12064 67475 11450 83002 10187 20176 48510 60024 75082 8567/
                   333 10/// 20166 58003 85615 87460=
202101060600 AAXX 06064 67475 31980 73305 10211 20190 48522 83231
                   333 10//0 20174 59015 83830 84360=
202101050600 AAXX 05064 67475 11345 83107 10172 20172 48526 60614 76166 887//
                   333 10//0 20164 58007 88706=

################################################################################
#  SYNOPS from 67476, Misamfu (Zambia) | 10-06S | 031-15E | 1536 m
################################################################################
202101300600 AAXX 30064 67476 11380 70601 10186 20180 48/// 69914 79152 8267/
                   333 10250 20114 59006 82707 87460=
202101290600 AAXX 29064 67476 11275 70000 10190 20177 48/// 69924 71542 8167/
                   333 10285 20118 5//// 81704 81845 87460=
202101280600 AAXX 28064 67476 12980 20501 10214 20189 48/// 60064 82032
                   333 10290 20104 5//// 82360 81080=
202101260600 AAXX 26064 67476 12480 70602 10189 20177 48/// 60014 8357/
                   333 10225 20112 5//// 83615 87360=
202101250600 AAXX 25064 67476 11960 82701 10166 20163 48/// 60224 76186 8807/
                   333 10234 20110 5//// 88460=
202101230600 AAXX 23064 67476 11380 70000 10192 20186 48/// 60104 75022 8167/
                   333 10276 20126 5//// 81708 87460=

################################################################################
#  SYNOPS from 67477, Mpika (Zambia) | 11-54S | 031-26E | 1400 m
################################################################################
202101300600 AAXX 30064 67477 32480 41201 10212 20170 48/// 82131
                   333 10256 20153 5//// 82814 82359 82080=
202101290600 AAXX 29064 67477 12980 72402 10185 20168 48/// 60024 87070
                   333 10279 20148 5//// 87359=
202101280600 AAXX 28064 67477 32980 60902 10231 20188 48/// 86030
                   333 10288 20160 5//// 86360=
202101260600 AAXX 26064 67477 12980 50903 10199 20165 48/// 60084 85030
                   333 10250 20177 5//// 85359=
202101250600 AAXX 25064 67477 11975 83304 10175 20168 48/// 60074 76366 8807/
                   333 10263 20170 5//// 88459=
202101230600 AAXX 23064 67477 11480 32201 10189 20170 48/// 60064 72162 8657/
                   333 10264 20168 5//// 86611 88459=
202101191200 AAXX 19124 67477 41680 73001 10254 20180 48/// 71799 84231
                   333 5//// 81940 84840 83364 83080=
202101190900 AAXX 19094 67477 42580 62201 10243 20180 48/// 83231
                   333 5//// 83826 84362 83080=
202101120600 AAXX 12064 67477 11975 73002 10180 20169 48/// 60174 76066 87070
                   333 10245 20165 5//// 87459=
202101060600 AAXX 06064 67477 12980 73304 10202 20182 48/// 60024 84037
                   333 10285 20175 5//// 84359 86280=
202101050600 AAXX 05064 67477 12980 73002 10195 20176 48/// 60454 87070
                   333 10256 20171 5//// 87359=

################################################################################
#  SYNOPS from 67481, Isoka (Zambia) | 10-07S | 032-38E | 1360 m
################################################################################
202101290600 AAXX 29064 67481 32380 80302 10190 20182 48/// 886//
                   333 10302 20170 5//// 88707=
202101280600 AAXX 28064 67481 32980 53603 10208 20186 48/// 80001
                   333 10274 20170 5//// 85080=
202101260600 AAXX 26064 67481 11980 70000 10200 20173 48/// 60054 72162 8707/
                   333 10248 20172 5//// 87460=
202101250600 AAXX 25064 67481 12480 83002 10208 20180 48/// 69904 8357/
                   333 10270 20187 5//// 83610 88460=
202101121200 AAXX 12124 67481 42680 73002 10244 20187 48/// 8627/
                   333 5//// 86830 87361=
202101120600 AAXX 12064 67481 11378 83302 10192 20186 48/// 60144 76022 887//
                   333 10232 20191 5//// 88707=
202101060600 AAXX 06064 67481 12480 70302 10204 20176 48/// 69904 8707/
                   333 10257 20190 5//// 87460=
202101050600 AAXX 05064 67481 32480 83002 10200 20185 48/// 8157/
                   333 10270 20180 58003 81610 88460=

################################################################################
#  SYNOPS from 67531, Zambezi (Zambia) | 13-32S | 023-07E | 1077 m
################################################################################
202101300600 AAXX 30064 67531 32980 70000 10211 20195 48///
                   333 10310 20180 59005 87360=
202101290900 AAXX 29094 67531 42680 33306 10269 20195 48/// 83131
                   333 58007 83830 81363 81081=
202101290600 AAXX 29064 67531 12380 70000 10195 20188 48/// 60104 8163/
                   333 10276 20170 58015 81708 87361=
202101280600 AAXX 28064 67531 12380 73602 10195 20183 48/// 69904 8167/
                   333 10273 20170 58002 81707 87360=
202101251200 AAXX 25124 67531 41480 73603 10217 20201 48/// 72166 8587/
                   333 58004 82616 83817 87362=
202101250600 AAXX 25064 67531 11370 73102 10189 20183 48/// 60324 76166 8477/
                   333 10260 20182 58010 84707 87360=
202101230600 AAXX 23064 67531 11380 80000 10205 20201 48/// 60014 76066 8277/
                   333 10295 20196 59001 81707 81610 88460=
202101190900 AAXX 19094 67531 41475 73608 10213 20190 48/// 75155 8457/
                   333 58014 84616 87362=
202101181200 AAXX 18124 67531 42680 63507 10300 20187 48/// 85230
                   333 59011 85845 82362=
202101121200 AAXX 12124 67531 41580 70000 10231 20205 48/// 70599 8327/
                   333 58006 81928 83828 87460=
202101050600 AAXX 05064 67531 32380 80303 10202 20193 48/// 8562/
                   333 10282 20185 58002 85707 88460=

################################################################################
#  SYNOPS from 67541, Kasempa (Zambia) | 13-32S | 025-51E | 1234 m
################################################################################
202101290900 AAXX 29094 67541 42980 70000 10255 20196 48/// 8703/
                   333 5//// 87360=
202101290600 AAXX 29064 67541 12980 70000 10195 20187 48/// 60334 8703/
                   333 10300 20158 5//// 87360=
202101280600 AAXX 28064 67541 11370 70000 10185 20185 48/// 60134 76066 8253/
                   333 10288 20160 5//// 82706 87360=
202101260600 AAXX 26064 67541 12980 70000 10180 20180 48/// 60124 8703/
                   333 10270 20158 5//// 87360=
202101250600 AAXX 25064 67541 11360 80000 10180 20180 48/// 76066 8353/
                   333 10278 20155 5//// 83706 87360=
202101190900 AAXX 19094 67541 42980 70000 10230 20201 48/// 8703/
                   333 5//// 87360=
202101120600 AAXX 12064 67541 12980 70000 10190 20190 48/// 60084 8703/
                   333 10263 20154 5//// 87360=
202101060600 AAXX 06064 67541 32980 70000 10200 20193 48/// 87030
                   333 10290 20152 5//// 87360=
202101050600 AAXX 05064 67541 12380 80000 10185 20185 48/// 60054 70222 8253/
                   333 10280 20142 5//// 82606 87360=

################################################################################
#  SYNOPS from 67543, Kabompo (Zambia) | 13-36S | 024-12E | 1075 m
################################################################################
202101290600 AAXX 29064 67543 12980 70000 10204 20186 48/// 69904 8707/
                   333 10282 20192 5//// 87360=
202101260600 AAXX 26064 67543 11375 80000 10192 20186 48/// 72122 8461/
                   333 10260 20180 5//// 84707 87460=
202101251200 AAXX 25124 67543 42580 70000 10250 20185 48/// 878//
                   333 5//// 87825=
202101250600 AAXX 25064 67543 11379 80000 10188 20181 48/// 60114 76166 887//
                   333 10284 20184 5//// 88706=
202101120600 AAXX 12064 67543 12380 70000 10208 20196 48/// 69904 8567/
                   333 10320 20194 5//// 85707 86360=
202101050600 AAXX 05064 67543 12480 80000 10192 20183 48/// 60344 885//
                   333 10308 20164 5//// 88612=

################################################################################
#  SYNOPS from 67551, Solwezi (Zambia) | 12-11S | 026-23E | 1386 m
################################################################################
202101291200 AAXX 29124 67551 41680 73008 10269 20172 48519 71799 81930
                   333 58028 81935 85840 85392 91019=
202101290900 AAXX 29094 67551 42480 73405 10242 20176 48527 81130
                   333 58012 81820 87362 91020=
202101290600 AAXX 29064 67551 12970 72703 10179 20175 48531 60484 72703
                   333 10270 20171 58012 87362=
202101280600 AAXX 28064 67551 12380 72703 10186 20182 48516 60094 85630
                   333 10266 20178 59002 85708 86362=
202101260600 AAXX 26064 67551 12970 80204 10178 20167 48519 60064 8807/
                   333 10229 20174 58004 88362=
202101251200 AAXX 25124 67551 42680 73405 10245 20176 48494 86230
                   333 58012 86830 87362 91016=
202101250900 AAXX 25094 67551 42580 73605 10212 20168 48512 85230
                   333 58011 85820 87362 91019=
202101250600 AAXX 25064 67551 12380 73405 10185 20176 48516 60034 8377/
                   333 10264 20176 58008 83707 87362=
202101230600 AAXX 23064 67551 11360 82704 10183 20180 48506 60124 76166 8677/
                   333 10263 20182 59006 86704 88362 91017=
202101181200 AAXX 18124 67551 42680 63005 10260 20185 48475 84202
                   333 58002 84830 84080 91014=
202101120600 AAXX 12064 67551 12480 73003 10199 20187 48500 8258/
                   333 10214 20179 58009 82610 87362=
202101060600 AAXX 06064 67551 12980 33003 10184 20176 48512 69934 83030
                   333 10266 20169 59009 83362=
202101050600 AAXX 05064 67551 12980 62605 10179 20168 48520 60114 86030
                   333 10243 20159 58006 86362=

################################################################################
#  SYNOPS from 67561, Ndola (Zambia) | 13-00S | 028-39E | 1269 m
################################################################################
202101291200 AAXX 29124 67561 42580 62505 10266 20181 48519 83238
                   333 58018 83825 84360 86280 91018=
202101290900 AAXX 29094 67561 41375 72604 10223 20184 48537 70522 81630
                   333 58023 81708 87360 91021=
202101290600 AAXX 29064 67561 11360 72505 10194 20180 48507 60014 70522 81630
                   333 10276 20177 58012 81704 87360=
202101280600 AAXX 28064 67561 11459 70000 10209 20191 48517 60034 70422 8253/
                   333 10283 20182 58003 82610 87360=
202101260600 AAXX 26064 67561 31259 80303 10190 20183 48532 75855 8377/
                   333 10235 20184 58006 83708 82610 88459=
202101250600 AAXX 25064 67561 11257 89902 10180 20180 48522 60334 76166 8577/
                   333 10268 20170 58017 85704 88459=
202101191200 AAXX 19124 67561 41575 73105 10276 20186 48482 70522 85238
                   333 59003 81930 85835 84360 85280 91018=
202101190900 AAXX 19094 67561 41460 73104 10251 20194 48507 70522 83230
                   333 58003 83817 87360 91017=
202101121200 AAXX 12124 67561 41470 63504 10237 20199 48479 72196 83538
                   333 58004 83615 81360 86280 91014=
202101060600 AAXX 06064 67561 11358 70000 10204 20193 48513 60074 74662 83638
                   333 10270 20194 59004 83708 85360 87280=
202101050600 AAXX 05064 67561 11259 80000 10185 20185 60364 76166 8677/
                   333 10283 20185 58001 86703 88459=

################################################################################
#  SYNOPS from 67563, Kafironda (Zambia) | 12-36S | 028-07E | 1243 m
################################################################################
202101060600 AAXX 06064 67563 11378 70000 10199 20190 48/// 60164 76062 81770
                   333 10295 20178 59010 81707 87359=
202101050600 AAXX 05064 67563 11370 80202 10196 20190 48/// 60204 75052 8577/
                   333 10298 20179 58004 85707 88358=

################################################################################
#  SYNOPS from 67571, Serenje (Zambia) | 13-14S | 030-13E | 1384 m
################################################################################
202101291200 AAXX 29124 67571 41682 73302 10247 20169 48463 71799 83208
                   333 58018 81933 83833 87280=
202101290900 AAXX 29094 67571 42582 73303 10245 20161 48483 8123/
                   333 58024 81826 87360=
202101290600 AAXX 29064 67571 12982 73002 10299 20169 48482 69914 8703/
                   333 10268 20165 58015 87360=
202101280600 AAXX 28064 67571 32982 70000 10207 20176 48472 8703/
                   333 10262 20170 59003 87360=
202101260600 AAXX 26064 67571 12962 70000 10205 20176 48482 60024 8703/
                   333 10256 20166 58002 87360=
202101250600 AAXX 25064 67571 11278 83303 10171 20166 48481 60224 76169 877//
                   333 10256 20155 58027 88704=
202101191200 AAXX 19124 67571 41582 72704 10229 20176 48442 71799 84238
                   333 58009 81925 84825 81360 87280=
202101190900 AAXX 19094 67571 41580 73304 10227 20184 48452 75155 84238
                   333 58005 84821 83360 87280=
202101060600 AAXX 06064 67571 32378 73602 10207 20190 48462 8463/
                   333 10256 20173 59001 84710 87360=
202101050600 AAXX 05064 67571 12378 73603 10195 20172 48462 69904 876//
                   333 10264 20177 58018 87710=

################################################################################
#  SYNOPS from 67580, Msekera (Zambia) | 13-39S | 032-34E | 1025 m
################################################################################
202101300600 AAXX 30064 67580 12580 73303 10208 20194 48/// 60024 87801
                   333 10280 20183 59003 83824 85626 82080=
202101290900 AAXX 29094 67580 42680 73003 10262 20204 48/// 85231
                   333 5//// 85834 82360 84080=
202101290600 AAXX 29064 67580 12980 70000 10222 20195 48/// 60024 84031
                   333 10324 20179 58015 84360 86280=
202101280600 AAXX 28064 67580 32980 70000 10249 20185 48/// 82031
                   333 10318 20194 5//// 82360 87080=
202101260600 AAXX 26064 67580 12980 70603 10216 20203 48/// 60144 8707/
                   333 10222 20186 5//// 87460=
202101251200 AAXX 25124 67580 41570 82705 10204 20198 48/// 72162 8657/
                   333 5//// 86625 88458=
202101250600 AAXX 25064 67580 11470 82706 10192 20186 48/// 60024 76062 885//
                   333 10294 20192 5//// 88610=
202101230600 AAXX 23064 67580 11980 70000 10219 20196 48/// 69904 70262 8707/
                   333 10264 20200 59006 87460=
202101190900 AAXX 19094 67580 42580 73003 10248 20207 48/// 87238
                   333 5//// 87834 83360 85280=
202101181200 AAXX 18124 67580 42780 73005 10276 20216 48/// 84238
                   333 5//// 84850 81360 87280=
202101121200 AAXX 12124 67580 42680 70000 10276 20197 48/// 86208
                   333 58005 81940 85840 87280=
202101060600 AAXX 06064 67580 12980 73604 10238 20191 48/// 60014 83031
                   333 10314 20210 59006 83360 85080=
202101050600 AAXX 05064 67580 12580 70803 10228 20200 48/// 60114 81130
                   333 10309 20202 58002 81820 87360=

################################################################################
#  SYNOPS from 67581, Chipata (Zambia) | 13-33S | 032-35E | 1028 m
################################################################################
202101300600 AAXX 30064 67581 12280 82704 10200 20192 48535 60034 70144 875//
                   333 10//0 20187 59001 87603 91019=
202101290600 AAXX 29064 67581 12980 60000 10224 20186 48539 60184 83037
                   333 10//0 20171 58013 83360 86280=
202101280600 AAXX 28064 67581 32980 30705 10250 20180 48531 83030
                   333 10//0 20184 59009 83360=
202101250600 AAXX 25064 67581 11275 82707 10200 20191 48541 60024 76062 877//
                   333 10//0 20202 58023 87702=
202101230600 AAXX 23064 67581 11380 82812 10214 20192 48513 69904 875//
                   333 10//0 20200 59007 87606 91016=
202101060600 AAXX 06064 67581 12980 53605 10240 20194 48526 60034 82032
                   333 10//0 20208 59005 82360 85080=
202101050600 AAXX 05064 67581 32480 70707 10235 20193 48529 70322 8357/
                   333 10/// 20204 58002 83615 87460=

################################################################################
#  SYNOPS from 67583, Lundazi (Zambia) | 12-17S | 033-12E | 1143 m
################################################################################
202101290600 AAXX 29064 67583 32980 80000 10208 20196 48/// 8803/
                   333 10306 20//0 5//// 88359=
202101280600 AAXX 28064 67583 32980 70000 10206 20189 48/// 80008
                   333 10294 20//0 5//// 87280=
202101260600 AAXX 26064 67583 12980 80000 10212 20194 48/// 60544 8803/
                   333 10254 20//0 5//// 88358=
202101250600 AAXX 25064 67583 12980 80000 10212 20202 48/// 60054 84037
                   333 10282 20/// 5//// 84359 88280=
202101230600 AAXX 23064 67583 11950 80000 10196 20184 48/// 60014 72162 8807/
                   333 10286 2//// 5//// 88458=
202101190900 AAXX 19094 67583 41680 70000 10246 20192 48/// 70262 81130
                   333 5//// 81835 87360=
202101060600 AAXX 06064 67583 12980 70000 10212 20198 48/// 60234 8703/
                   333 10282 20//0 5//// 87359=

################################################################################
#  SYNOPS from 67599, Mfuwe (Zambia) | 13-16S | 031-56E | 568 m
################################################################################
202101300600 AAXX 30064 67599 12380 72302 10224 20224 48495 60034 875//
                   333 10331 20199 59003 87606 91017=
202101280600 AAXX 28064 67599 32680 51201 10273 20199 48527 82131
                   333 10344 20200 59011 82835 83360 83080=
202101060600 AAXX 06064 67599 32580 40000 10278 20231 48522 81132
                   333 10345 20220 59011 81822 82360 84080=

################################################################################
#  SYNOPS from 67625, Kalabo (Zambia) | 14-51S | 022-42E | 1033 m
################################################################################
202101300600 AAXX 30064 67625 12980 33609 10225 20203 48/// 60014 81033
                   333 10303 20210 59017 81360 83075=
202101291200 AAXX 29124 67625 42682 23217 10285 20181 48/// 81103
                   333 5//// 81842 82075=
202101290900 AAXX 29094 67625 42682 73021 10260 20185 48/// 82103
                   333 5//// 82830 82360 82080=
202101260600 AAXX 26064 67625 12482 73609 10205 20198 48/// 69904 81623
                   333 10260 20200 59002 81710 82460 87075=
202101250600 AAXX 25064 67625 12982 70613 10200 20193 48/// 60034 85023
                   333 10290 20180 58003 85460 87075=
202101230600 AAXX 23064 67625 11982 72703 10215 20208 48/// 60044 72052 8702/
                   333 10299 20205 59001 87460=
202101191200 AAXX 19124 67625 42682 73609 10275 20202 48/// 81133
                   333 58010 81830 82360 87075=
202101190900 AAXX 19094 67625 42580 73406 10255 20206 48/// 83133
                   333 59005 83820 85360 87075=
202101120600 AAXX 12064 67625 12982 73602 10220 20213 48/// 69934 8707/
                   333 10268 20215 58012 87460=
202101050600 AAXX 05064 67625 12982 73607 10199 20185 48/// 60024 8702/
                   333 10289 20180 58011 87460=

################################################################################
#  SYNOPS from 67633, Mongu (Zambia) | 15-15S | 023-09E | 1052 m
################################################################################
202101291200 AAXX 29124 67633 41680 63404 10266 20193 48510 71799 85208
                   333 58017 81940 84840 86280 91016=
202101290900 AAXX 29094 67633 42580 63603 10257 20202 48521 86232
                   333 58017 81930 85830 81360 81080 91018=
202101290600 AAXX 29064 67633 12380 70306 10216 20203 48517 69954 8468/
                   333 10276 20195 84707 87360=
202101280600 AAXX 28064 67633 12380 60305 10206 20185 48496 60114 83638
                   333 10265 20189 59002 81706 83509 82460 86280=
202101260600 AAXX 26064 67633 12980 70204 10208 20189 48505 60054 85032
                   333 10275 20186 58007 85360 84080=
202101250900 AAXX 25094 67633 42480 83603 10240 20189 48490 81132
                   333 58011 81810 86360 81080 91015=
202101250600 AAXX 25064 67633 11280 80322 10193 20193 48495 60274 79199 8277/
                   333 10301 20194 58009 82703 81920 88460=
202101230600 AAXX 23064 67633 12980 70501 10213 20196 48496 60024 8707/
                   333 10298 20188 58002 87460
                   555 00198 91015=
202101121200 AAXX 12124 67633 41680 63606 10234 20220 48479 79599 85202
                   333 58009 81945 84845 84080 91013=
202101060600 AAXX 06064 67633 12980 70902 10221 20205 48497 60024 87030
                   333 10313 20191 59006 87360=
202101050600 AAXX 05064 67633 32980 33501 10210 20180 48505 83030
                   333 10301 20180 59004 83360=

################################################################################
#  SYNOPS from 67641, Kaoma (Zambia) | 14-48S | 024-48E | 1213 m
################################################################################
202101290600 AAXX 29064 67641 32680 70202 10213 20194 48514 82530
                   333 10320 20192 58024 82630 87360=
202101280600 AAXX 28064 67641 12680 63601 10211 20192 48491 60024 82130
                   333 10285 20193 59006 82840 86360=
202101250900 AAXX 25094 67641 42680 70604 10254 20206 48492 8623/
                   333 58006 86838 83361 91014=
202101250600 AAXX 25064 67641 32980 70703 10195 20180 48490 8703/
                   333 10300 20183 58014 87361=
202101190900 AAXX 19094 67641 42580 73404 10225 20204 48484 70262 8157/
                   333 58006 81620 87460 91014=
202101120600 AAXX 12064 67641 12980 73502 10206 20205 48488 60554 85530
                   333 10298 20189 58013 85630 87360=

################################################################################
#  SYNOPS from 67655, Mumbwa (Zambia) | 15-04S | 027-11E | 1216 m
################################################################################
202101280600 AAXX 28064 67655 12580 73408 10210 20195 48511 60024 8457/
                   333 10273 20132 59001 84620 86360=
202101250600 AAXX 25064 67655 12480 82909 10202 20184 48517 60024 8557/
                   333 10279 20144 49002 85616 87459=
202101050600 AAXX 05064 67655 12580 80000 10200 20200 48520 69164 8457/
                   333 10262 20130 59002 84620 87458=

################################################################################
#  SYNOPS from 67659, Kafue Polder (Zambia) | 15-46S | 027-55E | 978 m
################################################################################
202101050600 AAXX 05064 67659 12580 70506 10242 20197 48/// 60114 81230
                   333 10289 20179 5//// 81825 87360=

################################################################################
#  SYNOPS from 67662, Kabwe Agric (Zambia) | 14-24S | 028-30E | 1165 m
################################################################################
202101291200 AAXX 29124 67662 41580 60000 10267 20193 48/// 82270
                   333 5//// 82825 84760=
202101290900 AAXX 29094 67662 41980 72902 10237 20189 48/// 72122 87070
                   333 5//// 87360=
202101260600 AAXX 26064 67662 11380 80000 10193 20188 48/// 60074 8707/
                   333 10262 20140 5//// 88707=
202101191200 AAXX 19124 67662 41680 62702 10273 20195 48/// 84230
                   333 5//// 84830 82360=
202101190900 AAXX 19094 67662 41680 70000 10257 20195 48/// 84272
                   333 5//// 84830 82360 81080=
202101181200 AAXX 18124 67662 41580 73010 10240 20191 48/// 84272
                   333 5//// 84820 82360 82080=
202101060600 AAXX 06064 67662 11980 43004 10235 20206 60024 70200 82072
                   333 10275 20150 5//// 82360 82080=

################################################################################
#  SYNOPS from 67663, Kabwe (Zambia) | 14-27S | 028-28E | 1206 m
################################################################################
202101290900 AAXX 29094 67663 42580 63505 10233 20179 48522 82130
                   333 58024 81826 87360=
202101290600 AAXX 29064 67663 12980 53204 10196 20176 48521 60014 85030
                   333 10275 20//0 58010 85360=
202101251200 AAXX 25124 67663 41580 70706 10251 20184 48494 84238
                   333 58005 84824 83360 85280=
202101250900 AAXX 25094 67663 41480 70504 10221 20175 48511 76066 8257/
                   333 59009 82619 87460=
202101250600 AAXX 25064 67663 11480 80308 10184 20177 48508 60554 76166 83571
                   333 10262 20//0 83617 88460=
202101060600 AAXX 06064 67663 12980 33604 10238 20203 48502 69904 82032
                   333 10263 20186 59003 82360 81080=

################################################################################
#  SYNOPS from 67665, Lusaka Internationalairport (Zambia) | 15-19S | 028-27E | 1152 m
################################################################################
202101302100 AAXX 30214 67665 41/80 49901 10216 20202 48515 72999 81930
                   333 59029 819// 84360=
202101301800 AAXX 30184 67665 41480 60903 10227 20198 48502 71322 81932
                   333 10285 20//0 59020 81950 83360 84080=
202101300900 AAXX 30094 67665 42580 63504 10237 20164 48536 84530
                   333 59009 84620 85360
                   555 91020=
202101300600 AAXX 30064 67665 12480 73203 10194 20184 48530 60024 8257/
                   333 10285 20/// 59006 82612 87360=
202101291800 AAXX 29184 67665 41/80 80705 10198 20193 48518 72166 8197/
                   333 10285 20//0 58008 819// 87360=
202101291500 AAXX 29154 67665 41660 80202 10201 20193 48506 79599 8196/
                   333 58015 81940 87360=
202101291200 AAXX 29124 67665 41580 72710 10284 20180 48530 71722 8193/
                   333 58017 81925 84825 86360 91019=
202101290900 AAXX 29094 67665 42480 72612 10256 20173 48548 8313/
                   333 58038 83812 87360=
202101290600 AAXX 29064 67665 12380 72910 10209 20186 48538 69904 70222 82638
                   333 10270 20/// 58018 82706 86360 87280
                   555 00/// 20001 BB/// CC/// DD/// Q1021/0=
202101280900 AAXX 28094 67665 42480 43406 10265 20183 48528 81300
                   333 59004 81918 83818=
202101280600 AAXX 28064 67665 12980 63202 10213 20193 48521 60014 86030
                   333 10286 20/// 59007 86360=
202101280300 AAXX 28034 67665 42380 62302 10191 20185 48499 81630
                   333 59013 81705 86360=
202101272100 AAXX 27214 67665 42760 51402 10210 20195 48512 85030
                   333 59015 81956 85360=
202101271500 AAXX 27154 67665 42680 63404 10278 20156 48487 70322 86202
                   333 59024 86845 81080
                   555 10286 91014=
202101271200 AAXX 27124 67665 42680 63307 10270 20172 48500 70322 86200
                   333 59029 81930 86835 91015=
202101270900 AAXX 27094 67665 42580 53208 10240 20173 48529 70222 855//
                   333 59013 85620 91019=
202101270600 AAXX 27064 67665 12360 60303 10188 20178 48525 60054 83632
                   333 10224 20//0 59008 83708 84360 84280
                   555 00/// 91019=
202101261800 AAXX 26184 67665 42/60 70602 10208 20192 48513 83032
                   333 10224 58003 819// 83360 86280=
202101261500 AAXX 26154 67665 42460 70305 10217 20194 48503 83538
                   333 58012 83610 82360 87280=
202101261200 AAXX 26124 67665 41460 83403 10201 20193 48518 78182 8557/
                   333 58019 85610 88459=
202101260600 AAXX 26064 67665 11359 83407 10194 20186 48533 60234 76262 8567/
                   333 10260 20//0 58010 85705 88459=
202101251800 AAXX 25184 67665 42660 70303 10191 20176 48508 81932
                   333 10260 58012 81940 85359 85080
                   555 91017=
202101251200 AAXX 25124 67665 42460 73209 10255 20174 48507 85830
                   333 58018 83618 85820 86459
                   555 91016=
202101250900 AAXX 25094 67665 41460 83307 10192 20184 48522 76162 8457/
                   333 58021 84612 88459=
202101250600 AAXX 25064 67665 11359 83409 10195 20182 48518 60044 75822 886//
                   333 10270 20/// 58010 88708=
202101250300 AAXX 25034 67665 41359 70108 10199 20193 48503 76122 8667/
                   333 58007 86706 87460=
202101250000 AAXX 25004 67665 42380 70203 10199 20193 48497 8663/
                   333 58012 86706 87360=
202101242100 AAXX 24214 67665 42980 70103 10213 20192 48508 8703/
                   333 58009 87360=
202101241500 AAXX 24154 67665 41680 70106 10252 20186 48482 71792 84232
                   333 58013 84835 83360 84080
                   555 91013=
202101241200 AAXX 24124 67665 32580 63307 10266 20182 48490 70222 85232
                   333 58012 85828 82360 83080 91014=
202101240900 AAXX 24094 67665 42580 73107 10252 20189 48509 85532
                   333 58008 85620 83360 84080
                   555 91017=
202101240600 AAXX 24064 67665 32480 73107 10207 20202 48516 70222 876//
                   333 10275 20//0 58006 87710 91017=
202101231800 AAXX 23184 67665 41/80 70000 10196 20188 48479 71399 81933
                   333 10275 20//0 59015 819// 82358 86080=
202101231500 AAXX 23154 67665 42680 83308 10245 20208 48469 81933
                   333 59021 81945 84360 87080=
202101231200 AAXX 23124 67665 41680 63110 10231 20177 48473 71722 81902
                   333 59017 81935 85835 85080=
202101230900 AAXX 23094 67665 42580 62004 10252 20186 48501 70200 85230
                   333 59014 85820 82360 91016=
202101230600 AAXX 23064 67665 11459 73006 10227 20198 48506 60024 70542 8553/
                   333 10292 20//0 59019 81610 86360 91017=
202101230300 AAXX 23034 67665 42980 22702 10194 20186 48494 70200 82031
                   333 59014 82360 81080 91015=
202101222100 AAXX 22214 67665 42980 52702 10201 20186 48499 70222 81932
                   333 59010 81956 83360 84080 91016=
202101221800 AAXX 22184 67665 42780 51603 10208 20195 48495 70228 81332
                   333 59013 81950 82360 84080 91016=
202101221500 AAXX 22154 67665 41680 40810 10244 20186 48486 71699 81372
                   333 59006 81940 82840 82360 83080 91014=
202101220900 AAXX 22094 67665 42480 50506 10259 20184 48516 84232
                   333 59006 84818 83360 84080=
202101220600 AAXX 22064 67665 12380 61104 10207 20200 48522 69904 85630
                   333 10263 20/// 58006 85708 84360=
202101220300 AAXX 22034 67665 42360 71303 10192 20192 48503 8363/
                   333 59002 87359=
202101220000 AAXX 22004 67665 42/80 50502 10197 20189 48505 85030
                   333 59002 819// 85360=
202101212100 AAXX 21214 67665 41780 31502 10198 20190 48518 71300 83030
                   333 58000 81957 83360=
202101211500 AAXX 21154 67665 42680 71110 10262 20203 48496 70382 85438
                   333 59003 81940 85645 82360 87280
                   555 10271 91015=
202101211200 AAXX 21124 67665 42680 70605 10252 20186 48495 70362 86238
                   333 59019 81935 86840 82360 87280 91015=
202101210600 AAXX 21064 67665 12380 51007 10226 20194 48517 69904 85530
                   333 10265 20//0 59012 85620 83360=
202101201800 AAXX 20184 67665 42680 31002 10216 20186 48506 81932
                   333 10265 81950 81360 83080=
202101201500 AAXX 20154 67665 42680 62503 10253 20171 48496 81908
                   333 58008 81940 81360 85280=
202101201200 AAXX 20124 67665 42680 72706 10261 20177 48515 84532
                   333 58018 84630 85360 86280=
202101200900 AAXX 20094 67665 41459 89902 10218 20188 48528 70552 8557/
                   333 58018 85615 88459 91019=
202101200600 AAXX 20064 67665 11359 80902 10196 20188 48527 60114 75065 8557/
                   333 10268 58021 85708 88459
                   555 91019=
202101191500 AAXX 19154 67665 41660 83607 10231 20181 48488 71792 8293/
                   333 58007 82940 85842 87360
                   555 91014=
202101191200 AAXX 19124 67665 42680 72509 10261 20185 48496 84532
                   333 58013 84630 85360 82080 91015=
202101190900 AAXX 19094 67665 42480 73105 10250 20190 48514 83532
                   333 58013 83618 85360 82080=
202101190600 AAXX 19064 67665 12380 73004 10213 20192 48509 60094 81632
                   333 10273 20//0 58007 81707 85360 85080=
202101190300 AAXX 19033 67665 42980 79901 10199 20193 48489 8703/
                   333 58004 87360=
202101190000 AAXX 19004 67665 42380 72702 10195 20190 48496 72162 8277/
                   333 58005 81707 87360=
202101182100 AAXX 18214 67665 42980 79901 10200 20188 48499 8703/
                   333 58002 87360=
202101181500 AAXX 18154 67665 42459 73103 10205 20190 48477 70322 84530
                   333 58008 84835 87360 91013=
202101181200 AAXX 18124 67665 41559 83308 10248 20197 48503 76262 8527/
                   333 58004 85825 87459=
202101180900 AAXX 18094 67665 42470 73304 10235 20199 48499 84530
                   333 58003 84615 86360
                   555 91016=
202101180600 AAXX 18064 67665 31980 82803 10205 20190 48500 60014 70222 8807/
                   333 10272 20//0 58003 88360 91016=
202101171800 AAXX 17184 67665 42/80 80702 10220 20206 48489 81933
                   333 10273 20//0 58009 819// 83360 87080=
202101171500 AAXX 17154 67665 42680 82302 10236 20198 48473 81903
                   333 58009 81945 81845 87080=
202101171200 AAXX 17124 67665 42680 62912 10270 20188 48481 72196 81933
                   333 59001 81935 82835 82360 86080=
202101170900 AAXX 17094 67665 42480 62411 10258 20192 48498 71792 85232
                   333 58000 85828 83360 82080 91015=
202101160900 AAXX 16094 67665 42480 53011 10245 20186 48497 84230
                   333 59005 84818 83358=
202101160600 AAXX 16064 67665 12380 63306 10211 20188 48502 69904 81632
                   333 10280 20//0 58006 81707 84360 86080=
202101160300 AAXX 16034 67665 42360 73402 10204 20190 48486 8463/
                   333 58004 84606 87459=
202101152100 AAXX 15214 67665 41760 73003 10216 20186 48496 71322 8703/
                   333 58000 81956 87459=
202101151800 AAXX 15184 67665 42680 22505 10224 20192 48479 70201 81332
                   333 59007 81950 82360 81080 91014=
202101151500 AAXX 15154 67665 42680 63208 10265 20174 48470 70122 85538
                   333 58001 81945 85650 84360 86280
                   555 10284 91012=
202101151200 AAXX 15124 67665 42680 73211 10264 20183 48484 70362 85538
                   333 59001 85635 86359 87280 91013=
202101150300 AAXX 15034 67665 42960 73303 10195 20189 48482 87030
                   333 59009 87459 555 91014=
202101141800 AAXX 14184 67665 41758 80602 10212 20196 48418 79592 8297/
                   333 10262 59018 82950 88459=
202101141500 AAXX 14154 67665 41660 72705 10257 20173 48467 71522 8197/
                   333 59014 81940 87459
                   555 10262=
202101141200 AAXX 14124 67665 41660 70505 10244 20204 48482 72582 81932
                   333 59010 81930 84835 85360 81080=
202101140900 AAXX 14094 67665 41560 70106 10237 20198 48501 72582 8197/
                   333 59014 81918 85820 87459=
202101140600 AAXX 14064 67665 11380 70505 10207 20193 48504 60174 70200 8567/
                   333 10270 20//0 59017 85709 87459
                   555 91016=
202101131800 AAXX 13184 67665 41759 71203 10204 20204 48498 79599 8197/
                   333 10270 59003 81950 87459
                   555 91016=
202101131200 AAXX 13124 67665 42660 52204 10249 20205 49492 72582 81930
                   333 59001 81928 85832 82360
                   555 91015=
202101130900 AAXX 13094 67665 42560 60506 10242 20190 48515 86500
                   333 59001 86620=
202101130600 AAXX 13064 67665 12380 80909 10206 20200 48519 70362 8567/
                   333 10272 20//0 58002 85708 88360=
202101130300 AAXX 13034 67665 42380 71003 10201 20199 48504 8563/
                   333 59002 85707 87360=
202101130000 AAXX 13004 67665 42980 71304 10203 20200 48506 8703/
                   333 58004 87360=
202101122100 AAXX 12214 67665 42980 31006 10205 20198 48516 83030
                   333 58001 83360=
202101121200 AAXX 12124 67665 41680 60710 10238 20193 48502 71792 81932
                   333 58007 81932 85835 82360 83080=
202101120900 AAXX 12094 67665 42580 61104 10263 20180 48518 86532
                   333 58004 86625 83360 83080 91018=
202101120600 AAXX 12064 67665 32480 51005 10228 20199 48520 84530
                   333 10275 20/// 58010 84615 85360
                   555 00/// 91018=
202101111800 AAXX 11184 67665 42/80 13603 10214 20189 48493 81300
                   333 10275 20//0 58001 819//=
202101111500 AAXX 11154 67665 41660 61706 10235 20198 48478 71522 81962
                   333 58009 81940 83840 86358 84080=
202101111200 AAXX 11124 67665 42580 60107 10267 20184 48489 81902
                   333 58003 81925 85825 86080=
202101110600 AAXX 11064 67665 31359 10216 20201 48509 70502 83638
                   333 10272 20//0 58008 83706 85360 87280
                   555 00/// 20003=
202101110000 AAXX 11004 67665 42980 19901 10190 20185 48585 70200 80001
                   333 59004 81080 91015=
202101102100 AAXX 10214 67665 41780 19903 10207 20193 48501 71300 81901
                   333 59003 81956 81080 91016=
202101101800 AAXX 10184 67665 41680 20304 10229 20193 48494 71301 81932
                   333 59002 81950 81360 82080 91015=
202101101500 AAXX 10154 67665 42680 40903 10251 20190 48470 70122 81332
                   333 59006 81940 81360 84080 91012=
202101100900 AAXX 10094 67665 42480 63302 10251 20191 48513 86802
                   333 59007 83818 83618 82080=
202101100600 AAXX 10064 67665 12380 73004 10209 20203 48499 60034 84632
                   333 10272 20//0 59014 84707 82360 87080=
202101100300 AAXX 10034 67665 42360 72704 10189 20181 48488 8163/
                   333 59010 81706 87459=
202101100000 AAXX 10004 67665 42/80 72804 10193 20185 48487 8703/
                   333 59002 819// 87359=
202101092100 AAXX 09214 67665 41758 81904 10203 20186 48501 79596 8197/
                   333 59003 81950 88458=
202101091800 AAXX 09184 67665 42780 71204 10234 20206 48497 70122 83438
                   333 10272 59011 81950 83656 85360 86280 91015=
202101091500 AAXX 09154 67665 42680 79903 10275 20168 48480 70222 85238
                   333 59011 81940 85845 82360 87280
                   555 10272 91013=
202101091200 AAXX 09124 67665 42680 72804 10261 20178 48494 70322 85238
                   333 59004 81930 85232 83360 87280 91015=
202101090900 AAXX 09094 67665 42680 62909 10253 20177 48514 70222 85202
                   333 59006 85830 85080 91017=
202101090600 AAXX 09064 67665 11458 73204 10207 20207 48513 69904 72822 8367/
                   333 10284 20//0 58002 83708 86360=
202101090300 AAXX 09034 67665 41956 63005 10192 20191 49498 74422 85032
                   333 59004 85359 84080 91016=
202101090000 AAXX 09004 67665 42980 69901 10194 20184 48489 82032
                   333 58005 82360 83080 91015=
202101082100 AAXX 08214 67665 41780 61302 10202 20186 48504 71322 81932
                   333 58001 81956 85360 82080 91017=
202101081800 AAXX 08184 67665 41780 79902 10218 20180 48506 71322 81938
                   333 10284 58004 81950 84360 87280 91017=
202101081500 AAXX 08154 67665 42680 72607 10240 20172 48486 58009 83360
                   555 10284 91014=
202101081200 AAXX 08124 67665 42680 70906 10254 20178 48496 70322 85238
                   333 58000 81930 85835 84361 87280 91015=
202101080900 AAXX 08094 67665 42580 70704 10250 20191 48521 70222 85538
                   333 58004 85620 84361 87280 91018=
202101071800 AAXX 07184 67665 41980 41704 10225 20196 48502 71322 81932
                   333 59005 81956 82360 83080 91016=
202101071500 AAXX 07154 67665 42780 50908 10269 20188 48480 71322 81902
                   333 59006 81950 83850 83080 91013=
202101071200 AAXX 07124 67665 42680 50704 10287 20195 48500 85202
                   333 58005 85835 82080 91015=
202101070900 AAXX 07094 67665 42580 60603 10268 20194 48519 86200
                   333 58001 86820=
202101070600 AAXX 07064 67665 12380 42102 10226 20197 48517 69904 81632
                   333 10281 20//0 59009 81707 81360 84080=
202101070300 AAXX 07034 67665 42980 62802 10198 20191 48502 81032
                   333 59001 81360 86080=
202101070000 AAXX 07004 67665 42980 60000 10210 20197 48504 84032
                   333 58000 84360 86080=
202101062100 AAXX 06214 67665 42980 60000 10207 20202 48509 84032
                   333 59001 84360 85080=
202101060900 AAXX 06094 67665 42580 60405 10261 20203 48416 85230
                   333 59006 85825 84360 91017=
202101060600 AAXX 06064 67665 32980 61204 10216 20202 48524 70221 86030
                   333 10270 20/// 59006 86360 91019=
202101051800 AAXX 05184 67665 42/80 29901 10214 20200 48498 81902
                   333 10270 20/// 59006 819// 82080=
202101051500 AAXX 05154 67665 42680 51404 10234 20183 48495 70192 81963
                   333 58003 81940 81840 82359 85080=
202101051200 AAXX 05124 67665 42680 60506 10257 20189 48499 81962
                   333 59004 81930 82830 84359 83080=
202101050600 AAXX 05064 67665 32480 70906 10215 20185 48529 70321 81532
                   333 10280 20/// 58000 81610 86360 82080
                   555 00///=
202101041800 AAXX 04184 67665 42780 11304 10211 20181 48503 70200 81301
                   333 59016 81950 81080 91017=
202101040900 AAXX 04094 67665 42480 40712 10246 20168 48525 84200
                   333 59016 84818=
202101040300 AAXX 04034 67665 42380 41502 10172 20164 48514 81630
                   333 59013 81707 84360=
202101040000 AAXX 04004 67665 42/80 41902 10178 20170 48513 84030
                   333 59012 819// 84360=
202101032100 AAXX 03214 67665 42780 43602 10199 20184 48527 84030
                   333 59005 81957 84360=
202101031800 AAXX 03184 67665 42780 40603 10211 20180 48520 70122 82431
                   333 10263 59003 81956 82656 84360 82080 91018=
202101031500 AAXX 03154 67665 42680 60806 10244 20176 48508 70122 86200
                   333 59005 81945 85850=
202101031200 AAXX 03124 67665 42680 70908 10251 20166 48514 70322 87200
                   333 59005 81930 87835 91017=
202101030900 AAXX 03094 67665 42580 61010 10238 20178 48539 70222 86500
                   333 58008 86625 91020=
202101030600 AAXX 03064 67665 12460 71409 10199 20186 48538 60334 70222 8653/
                   333 10246 20//0 58021 86610 87360
                   555 00/// 91021=
202101030000 AAXX 03004 67665 42980 61602 10179 20174 48524 85030
                   333 58031 85360=
202101021800 AAXX 02184 67665 42760 50203 10178 20154 48518 81932
                   333 10246 58034 81950 85360 82080=
202101021500 AAXX 02154 67665 42680 63308 10224 20186 48509 83532
                   333 58032 83632 82360 85280
                   555 10246=
202101021200 AAXX 02124 67665 42560 73607 10229 20184 48516 8553/
                   333 58020 85620 87459=
202101020900 AAXX 02094 67665 41458 10187 20187 48527 76166 8557/
                   333 58020 85610 88459 91019=
202101020600 AAXX 02064 67665 42359 30202 10192 20186 48516 60134 78022 8367/
                   333 10250 87459=
202101010900 AAXX 01094 67665 41458 83105 10210 20195 48508 76166 8457/
                   333 58002 84612 88459=
202101010600 AAXX 01064 67665 11360 83106 10199 20192 48511 60444 76166 8272/
                   333 10240 20//0 58005 82707 88460=
202101010300 AAXX 01034 67665 41359 83105 10192 20190 48515 76166 8172/
                   333 59002 81707 88459=

################################################################################
#  SYNOPS from 67666, Lusaka City Airport (Zambia) | 15-25-00S | 028-28-00E | 1280 m
################################################################################
202101290900 AAXX 29094 67666 42580 62810 10248 20160 48535 83270
                   333 58021 83820 84360 91020=
202101280600 AAXX 28064 67666 12980 63202 10213 20193 48521 60014 86030
                   333 10296 20//0 59007 86360=
202101260600 AAXX 26064 67666 11380 80509 10180 20166 48523 60114 75021 887//
                   333 10222 20179 58015 88707=
202101250600 AAXX 25064 67666 11480 80607 10190 20175 48509 60524 72162 8657/
                   333 10275 20180 58008 86612 88459=
202101050600 AAXX 05064 67666 12980 71007 10208 20188 48520 69904 87030
                   333 10262 20190 59001 87359=

################################################################################
#  SYNOPS from 67667, Mount Makulu (Zambia) | 15-33S | 028-15E | 1213 m
################################################################################
202101300600 AAXX 30064 67667 32980 70901 10198 20182 48580 80008
                   333 10293 20175 59007 87280=
202101060600 AAXX 06064 67667 12980 50901 10238 20212 48570 60024 85030
                   333 10302 20164 58006 85360=
202101050600 AAXX 05064 67667 32980 60902 10220 20192 48576 86030
                   333 10304 20184 58001 86360=

################################################################################
#  SYNOPS from 67673, Petauke (Zambia) | 14-15S | 031-17E | 1035 m
################################################################################
202101300600 AAXX 30064 67673 12960 73601 10202 20200 48/// 60084 8707/
                   333 10292 20//0 5//// 87360=
202101290600 AAXX 29064 67673 12980 60000 10224 20200 48/// 60214 85031
                   333 10310 20//0 5//// 85360 81080=
202101280600 AAXX 28064 67673 32584 43001 10256 20200 48/// 81131
                   333 10308 20//0 5//// 81828 84360 82080=
202101260600 AAXX 26064 67673 32980 61802 10221 20200 48/// 85031
                   333 10290 20//0 5//// 85360 81080=
202101251200 AAXX 25124 67673 42680 81801 10224 20200 48/// 82137
                   333 5//// 82827 81360 88280=
202101250900 AAXX 25094 67673 41970 80000 10202 20190 76066 8807/
                   333 5//// 88460=
202101250600 AAXX 25064 67673 12975 81801 10190 20190 48/// 60444 82037
                   333 10290 20/// 5//// 82360 88280=
202101190900 AAXX 19094 67673 42680 70000 10240 20210 48/// 8413/
                   333 5//// 84830 87360=
202101060600 AAXX 06064 67673 32980 32802 10242 20210 48/// 83203
                   333 10332 20//0 5//// 83360=
202101050600 AAXX 05064 67673 12680 52702 10232 20202 48/// 60144 83131
                   333 10286 20//0 5//// 83827 81360 81080=

################################################################################
#  SYNOPS from 67731, Senanga (Zambia) | 16-06S | 023-16E | 1027 m
################################################################################
202101280600 AAXX 28064 67731 11378 829// 10219 20191 48/// 69904 75055 82727
                   333 10285 20194 59009 83709 86460 88280=
202101230600 AAXX 23064 67731 12480 811// 10221 20200 48/// 60034 70266 83570
                   333 10279 20167 58006 83613 88460
                   555 00061=
202101190900 AAXX 19094 67731 42580 512// 10268 20213 48/// 83102
                   333 58007 84827 82080=

################################################################################
#  SYNOPS from 67741, Sesheke (Zambia) | 17-28S | 024-18E | 949 m
################################################################################
202101291200 AAXX 29124 67741 42680 73601 10274 20210 48510 8657/
                   333 58025 86640 83362=
202101290900 AAXX 29094 67741 42680 70000 10265 20208 48527 8257/
                   333 58022 82640 87362=
202101290600 AAXX 29064 67741 12680 73601 10209 20200 48517 60154 8157/
                   333 10304 20184 58018 81640 87362=
202101280600 AAXX 28064 67741 12980 60000 10233 20199 48502 60014 86030
                   333 10290 20194 86362=
202101260600 AAXX 26064 67741 12980 63401 10226 20194 48502 60204 86070
                   333 10313 20191 58010 86362=
202101250600 AAXX 25064 67741 32980 22701 10228 20183 48493 82030
                   333 10338 20189 58010 82362=
202101230600 AAXX 23064 67741 12980 20000 10239 20215 48504 60044 82030
                   333 10302 20196 59012 82362=
202101191200 AAXX 19124 67741 42680 63501 10290 20202 48474 86530
                   333 58006 86645 81362=
202101190900 AAXX 19094 67741 42680 63602 10262 20201 48488 86530
                   333 58005 86640 81362=
202101181200 AAXX 18124 67741 42680 53401 10270 20208 48465 83530
                   333 5//// 83645 84362=
202101121200 AAXX 12124 67741 42680 70901 10212 20206 48481 875//
                   333 58025 87645=
202101060600 AAXX 06064 67741 32980 30000 10258 20207 48508 83030
                   333 10350 20195 59006 83362=
202101050600 AAXX 05064 67741 32980 13401 10253 20201 48516 81030
                   333 10317 20183 59008 81362=

################################################################################
#  SYNOPS from 67751, Magoye (Zambia) | 16-00S | 027-36E | 1018 m
################################################################################
202101290600 AAXX 29064 67751 12360 72903 10212 20196 48/// 69934 8457/
                   333 10//0 20203 59025 84360 86360=
202101280600 AAXX 28064 67751 12980 60000 10225 20205 48/// 69944 86070
                   333 10//0 20188 58003 86360=
202101260600 AAXX 26064 67751 12380 83609 10201 20192 60144 885//
                   333 10//0 20196 59013 88607=

################################################################################
#  SYNOPS from 67753, Choma (Zambia) | 16-50S | 027-04E | 1213 m
################################################################################
202101300600 AAXX 30064 67753 11580 70000 10205 20190 48521 60074 8115/
                   333 10264 20180 59003 81820 87360=
202101290600 AAXX 29064 67753 11380 80000 10185 20185 48519 60024 76061 8165/
                   333 10260 20178 58017 81709 88360=
202101280600 AAXX 28064 67753 11580 70000 10209 20200 48511 60054 8155/
                   333 10260 20178 59002 81620 87360=
202101260600 AAXX 26064 67753 12380 81803 10196 20192 48500 69934 886//
                   333 10261 20190 58010 88706=
202101250600 AAXX 25064 67753 12380 80000 10200 20187 48490 60124 75822 886//
                   333 10270 20//0 88708=
202101060600 AAXX 06064 67753 31980 10000 10224 20191 48512 81030
                   333 10284 20164 59005 81360=
202101050600 AAXX 05064 67753 31580 70000 10214 20187 48521 81130
                   333 10270 20176 59003 81820 97360=

################################################################################
#  SYNOPS from 67855, Lupaki (Zambia) | 17-03-00S | 024-46-00E | 1000 m
################################################################################
202101270900 AAXX 27094 67855 41575 63005 10265 20199 3//// 48/// 78082 86230
                   333 5//// 86820=
202101230900 AAXX 23094 67855 42680 21302 10275 20176 3//// 48/// 82100
                   333 5//// 82830=
202101210900 AAXX 21094 67855 42680 73202 10272 20201 3//// 48/// 83230
                   333 5//// 83830 85360=
