################################################################################
# Query made at 04/14/2022 03:34:40 UTC
# Country like Zamb*
# Time interval: from 05/01/2016 05:30  to 05/31/2016 06:30  UTC
################################################################################

################################################################################
#  SYNOPS from 67403, Kawambwa (Zambia) | 09-48S | 029-05E | 1323 m
################################################################################
201605310600 AAXX 31064 67403 32980 01405 10172 20106 48549
                   333 10/// 20133 58005=
201605300600 AAXX 30064 67403 32980 20902 10171 20125 48545 70200 82030
                   333 10/// 20142 59002 82360=
201605260600 AAXX 26064 67403 32980 00907 10175 20114 48539
                   333 10/// 20141 59012=
201605231200 AAXX 23124 67403 NIL=
201605230600 AAXX 23064 67403 32980 10905 10152 20103 48543 81030
                   333 10/// 20109 59015 81360=
201605200600 AAXX 20064 67403 32980 01207 10153 20112 48551
                   333 10/// 20108 58000=
201605190600 AAXX 19064 67403 32980 01406 10158 20109 48551
                   333 10/// 20116 59001=
201605180600 AAXX 18064 67403 32980 11205 10170 20112 48554 81030
                   333 10/// 20128 58002 81360=
201605161200 AAXX 16124 67403 NIL=
201605160900 AAXX 16094 67403 NIL=
201605120600 AAXX 12064 67403 32980 10903 10166 20121 48539 81030
                   333 10/// 20124 59006 81360=
201605100900 AAXX 10094 67403 NIL=
201605100600 AAXX 10064 67403 32980 10905 10156 20114 48561 81030
                   333 10/// 20108 58014 81361=
201605090900 AAXX 09094 67403 NIL=
201605090600 AAXX 09064 67403 32980 00908 10148 20102 48547
                   333 10/// 20109 58004=
201605060600 AAXX 06064 67403 32980 31205 10167 20114 48543 81031
                   333 10/// 20128 58015 81360 83080=
201605051200 AAXX 05124 67403 NIL=
201605050600 AAXX 05064 67403 12980 10912 10195 20141 48530 60044 81030
                   333 10/// 20161 58001 81360=
201605030600 AAXX 03064 67403 12980 71405 10194 20176 48528 69984 8703/
                   333 10/// 20172 58007 87360=

################################################################################
#  SYNOPS from 67413, Mbala (Zambia) | 08-51S | 031-20E | 1673 m
################################################################################
201605310600 AAXX 31064 67413 32980 30905 10165 20113 48568 83040
                   333 10250 20/// 58003 83358 91027=
201605300600 AAXX 30064 67413 32380 41408 10180 20129 48561 81530
                   333 10250 20/// 59001 81606=
201605270600 AAXX 27064 67413 32980 00906 10190 20101 48561
                   333 10280 20//0 59005 91026=
201605260600 AAXX 26064 67413 32980 00909 10195 20109 48566
                   333 10280 20/// 59008 91027=
201605240600 AAXX 24064 67413 32380 10907 10175 20114 48580 81500
                   333 10270 20/// 59004 81606 91028=
201605231200 AAXX 23124 67413 NIL=
201605230600 AAXX 23064 67413 32380 10905 10165 20122 48584 81500
                   333 10245 20//0 59001 81606 91029=
201605200600 AAXX 20064 67413 32380 11512 10145 20118 48569 81600
                   333 10/// 20/// 58001 81706 91021=
201605190600 AAXX 19064 67413 32480 41005 10160 20116 48569 81100
                   333 10270 20/// 59001 81815 91027=
201605180600 AAXX 18064 67413 32980 21006 10170 20128 48569 80001
                   333 10275 20/// 59004 82080=
201605170600 AAXX 17064 67413 32980 40903 10175 20115 48573 80005
                   333 10275 20/// 58002 84280=
201605161200 AAXX 16124 67413 NIL=
201605160900 AAXX 16094 67413 NIL=
201605160600 AAXX 16064 67413 32980 11210 10185 20105 48571 80001
                   333 10290 20/// 58001 81080=
201605120600 AAXX 12064 67413 32380 11308 10180 20129 48560 81500
                   333 10270 20/// 59005 81606=
201605110600 AAXX 11064 67413 32480 10908 10180 20130 48565 81500
                   333 10265 20/// 59010 81608=
201605100900 AAXX 10094 67413 NIL=
201605090900 AAXX 09094 67413 NIL=
201605090600 AAXX 09064 67413 32480 11008 10150 20095 48565 81100
                   333 10280 20//0 58004 81815 91027=
201605060600 AAXX 06064 67413 31380 20822 10170 20118 48554 70500 81501
                   333 10260 20/// 58008=
201605051200 AAXX 05124 67413 NIL=
201605050600 AAXX 05064 67413 32380 69020 10180 20156 48546 86500
                   333 10280 20//0 59002 86606=
201605040600 AAXX 04064 67413 32980 21005 10225 20163 48548 81041
                   333 10270 20/// 58004 81359=
201605030600 AAXX 03064 67413 32480 41008 10178 20154 48546 82540
                   333 10270 20/// 58002 82610 82359 91024=

################################################################################
#  SYNOPS from 67441, Mwinilunga (Zambia) | 11-45S | 024-26E | 1361 m
################################################################################
201605310600 AAXX 31064 67441 NIL=
201605300600 AAXX 30064 67441 31975 100// 10130 20103 48582 70500 81040
                   333 10265 20///=
201605270600 AAXX 27064 67441 31965 200// 10125 20106 48/// 70500 82040
                   333 10270 20/// 5//// 82360=
201605240600 AAXX 24064 67441 31975 018// 10120 20102 48/// 70500
                   333 10260 20/// 5////=
201605231200 AAXX 23124 67441 NIL=
201605230600 AAXX 23064 67441 31975 012// 10130 20094 48604 70500
                   333 10255 20//0 58004=
201605200600 AAXX 20064 67441 31975 021// 10145 20109 48/// 70500
                   333 10265 20/// 5////=
201605190600 AAXX 19064 67441 31980 015// 10115 20087 48587 70500
                   333 10255 20/// 59005=
201605180600 AAXX 18064 67441 31980 019// 10120 20081 48592 70500
                   333 10250 20/// 59004=
201605170600 AAXX 17064 67441 31975 000// 10135 20108 48596 70500
                   333 10275 20/// 58007=
201605161200 AAXX 16124 67441 NIL=
201605160900 AAXX 16094 67441 NIL=
201605160600 AAXX 16064 67441 31970 100// 10145 20110 48589 70500 80001
                   333 10285 20/// 5////=
201605100900 AAXX 10094 67441 NIL=
201605090900 AAXX 09094 67441 NIL=
201605051200 AAXX 05124 67441 NIL=

################################################################################
#  SYNOPS from 67461, Mansa (Zambia) | 11-06S | 028-51E | 1382 m
################################################################################
201605310600 AAXX 31064 67461 NIL=
201605231200 AAXX 23124 67461 NIL=
201605200600 AAXX 20064 67461 NIL=
201605190600 AAXX 19064 67461 NIL=
201605161200 AAXX 16124 67461 NIL=
201605160900 AAXX 16094 67461 NIL=
201605100900 AAXX 10094 67461 NIL=
201605090900 AAXX 09094 67461 NIL=
201605051200 AAXX 05124 67461 NIL=
201605030600 AAXX 03064 67461 32580 70930 10207 20177 48540 81530
                   333 10277 20160 58010 81620=

################################################################################
#  SYNOPS from 67475, Kasama (Zambia) | 10-13S | 031-08E | 1382 m
################################################################################
201605310600 AAXX 31064 67475 32960 31408 10162 20098 48560 70122 83038
                   333 10260 20109 59003 83360 84280 91025=
201605300600 AAXX 30064 67475 32960 51211 10166 20109 48564 70222 85038
                   333 10255 20136 58003=
201605260900 AAXX 26094 67475 41760 01112 10237 20101 48558 70500 81100
                   333 59010 81856 91024=
201605260600 AAXX 26064 67475 31960 00412 10171 20125 48556 70500
                   333 10268 20098 59011 91024=
201605231200 AAXX 23124 67475 NIL=
201605230600 AAXX 23064 67475 32960 00914 10158 20120 48584 70200
                   333 10234 20086 58010 91027=
201605200600 AAXX 20064 67475 32960 21014 10152 20111 48566 70222
                   333 10249 20099 58000 91026=
201605190600 AAXX 19064 67475 32960 01417 10159 20105 48567 70222
                   333 10261 20126 58002 91026=
201605180600 AAXX 18064 67475 32960 11317 10171 20121 48566 70222 80001
                   333 10264 20126 58003=
201605161200 AAXX 16124 67475 NIL=
201605160900 AAXX 16094 67475 NIL=
201605160600 AAXX 16064 67475 32960 50208 10162 20124 48561 70322 80008
                   333 10272 20092 59006 85280 91025=
201605121200 AAXX 12124 67475 41760 40910 10260 20132 48534 70400 84100
                   333 59003 84856 91021=
201605120600 AAXX 12064 67475 32960 01210 10173 20121 48558 70200
                   333 10260 20096 59006 91024=
201605111200 AAXX 11124 67475 42760 21511 10246 20126 48536 82100
                   333 59017 82850 91021=
201605110900 AAXX 11094 67475 42660 31311 10217 20127 48561 83100
                   333 59015 83840 91024=
201605100900 AAXX 10094 67475 NIL=
201605100600 AAXX 10064 67475 32460 11614 10164 20112 48574 70300 81101
                   333 10243 20101 58005 81820 81080 91026=
201605090900 AAXX 09094 67475 NIL=
201605090600 AAXX 09064 67475 32960 01417 10152 20119 48568 70200
                   333 10249 20102 91026=
201605060600 AAXX 06064 67475 32960 21011 10162 20123 48555 70222 80001
                   333 10251 20119 58009 82080 91024=
201605051200 AAXX 05124 67475 NIL=
201605030600 AAXX 03064 67475 32460 70806 10189 20171 48543 70322 876//
                   333 10279 20172 59007 87710 91022=

################################################################################
#  SYNOPS from 67476, Misamfu (Zambia) | 10-06S | 031-15E | 1536 m
################################################################################
201605310600 AAXX 31064 67476 32980 01403 10183 20135 48///
                   333 10261 20094 59003=
201605260600 AAXX 26064 67476 32980 00504 10157 20124 48///
                   333 10260 20092 5////=
201605240600 AAXX 24064 67476 32980 01501 10152 20119 48///
                   333 10248 20085 59006=
201605231200 AAXX 23124 67476 NIL=
201605230600 AAXX 23064 67476 32980 01503 10155 20102 48///
                   333 10240 20080 5////=
201605200600 AAXX 20064 67476 32980 00703 10170 20109 48///
                   333 10251 20068 59019=
201605190600 AAXX 19064 67476 32980 01505 10178 20099 48///
                   333 10270 20086 58007=
201605180600 AAXX 18064 67476 32980 00904 10221 20182 48///
                   333 10268 20076 59008=
201605170600 AAXX 17064 67476 31978 00904 10183 20176 48/// 70500
                   333 10263 20151 59006=
201605161200 AAXX 16124 67476 NIL=
201605160900 AAXX 16094 67476 NIL=
201605120600 AAXX 12064 67476 32980 01701 10155 20126 48///
                   333 10262 20095 59006=
201605100900 AAXX 10094 67476 NIL=
201605090900 AAXX 09094 67476 NIL=
201605090600 AAXX 09064 67476 32980 01607 10163 20108 48///
                   333 10281 20097 5////=
201605051200 AAXX 05124 67476 NIL=
201605040600 AAXX 04064 67476 31979 70904 10161 20092 48/// 71040
                   333 10260 20105 59002=

################################################################################
#  SYNOPS from 67477, Mpika (Zambia) | 11-54S | 031-26E | 1400 m
################################################################################
201605310600 AAXX 31064 67477 NIL=
201605240600 AAXX 24064 67477 32980 00903 10166 20/// 48584
                   333 10216 20096 59008=
201605231200 AAXX 23124 67477 NIL=
201605230600 AAXX 23064 67477 32480 30904 10162 20/// 48591 83100
                   333 10211 20088 58008 83812=
201605200600 AAXX 20064 67477 32480 80910 10142 20/// 48576 885//
                   333 10239 20113 59004 88610=
201605190600 AAXX 19064 67477 NIL=
201605161200 AAXX 16124 67477 NIL=
201605160900 AAXX 16094 67477 NIL=
201605100900 AAXX 10094 67477 NIL=
201605090900 AAXX 09094 67477 NIL=
201605060600 AAXX 06064 67477 31470 30906 10173 20/// 48668 70500 83500
                   333 10232 20106 58010 83611=
201605051200 AAXX 05124 67477 NIL=
201605050600 AAXX 05064 67477 31978 00910 10173 20/// 48558 70500
                   333 10259 20147 5////=
201605030600 AAXX 03064 67477 31465 60903 10196 20/// 48545 70522 83531
                   333 10212 20162 58001 83612 84359 82080=

################################################################################
#  SYNOPS from 67481, Isoka (Zambia) | 10-07S | 032-38E | 1360 m
################################################################################
201605310600 AAXX 31064 67481 31977 23304 10160 20106 48/// 70510 82030
                   333 10245 20132 59001 82360=
201605270600 AAXX 27064 67481 31975 03003 10188 20120 48/// 70510
                   333 10257 20123 59003=
201605260600 AAXX 26064 67481 31976 03302 10185 20126 48/// 70500
                   333 10253 20106 59008=
201605231200 AAXX 23124 67481 NIL=
201605230600 AAXX 23064 67481 31976 10604 10158 20112 48/// 70500 80001
                   333 10219 20108 58010 81080=
201605200600 AAXX 20064 67481 31977 33004 10185 20127 48/// 70510 80001
                   333 10310 20120 59003 83080=
201605190600 AAXX 19064 67481 31475 22706 10172 20126 48/// 70500 82100
                   333 10252 20127 58003 82815=
201605180600 AAXX 18064 67481 31477 10603 10175 20133 48/// 70500 81100
                   333 10262 20121 58001 81815=
201605170600 AAXX 17064 67481 31975 12602 10192 20120 48/// 70500 80001
                   333 10265 20120 58000 81080=
201605161200 AAXX 16124 67481 NIL=
201605160900 AAXX 16094 67481 NIL=
201605120600 AAXX 12064 67481 32980 03304 10176 20132 48///
                   333 10250 20115 59007=
201605100900 AAXX 10094 67481 NIL=
201605100600 AAXX 10064 67481 32480 21202 10165 20127 48/// 82500
                   333 10232 20105 58005=
201605090900 AAXX 09094 67481 NIL=
201605090600 AAXX 09064 67481 32480 30306 10158 20114 48/// 81130
                   333 10255 20105 58000 81818 83360=
201605060600 AAXX 06064 67481 31375 53603 10161 20141 48/// 70522 85500
                   333 10229 20133 58011 85608=
201605051200 AAXX 05124 67481 NIL=
201605050600 AAXX 05064 67481 31370 60203 10180 20156 48/// 70522 86500
                   333 10275 20173 58004=
201605030600 AAXX 03064 67481 32375 60305 10196 20177 48/// 70522 84530
                   333 10266 20160 58002 84607 84360=

################################################################################
#  SYNOPS from 67531, Zambezi (Zambia) | 13-32S | 023-07E | 1077 m
################################################################################
201605310600 AAXX 31064 67531 32980 01004 10132 20110 48///
                   333 10290 20064 5////=
201605300600 AAXX 30064 67531 32980 20901 10143 20111 48/// 70200 82030
                   333 10277 20070 5//// 82362=
201605270600 AAXX 27064 67531 32980 60000 10153 20116 48/// 70222 86070
                   333 10288 20085 5////=
201605260600 AAXX 26064 67531 32980 61202 10140 20114 48/// 70222 86030
                   333 10289 20076 5//// 86361=
201605240600 AAXX 24064 67531 32980 11007 10165 20106 48/// 80001
                   333 10270 20064 5////=
201605231200 AAXX 23124 67531 NIL=
201605230600 AAXX 23064 67531 32980 40904 10151 20100 48/// 84030
                   333 10266 20086 5////=
201605200600 AAXX 20064 67531 32980 51004 10175 20119 48/// 70222 85030
                   333 10273 20120 5////=
201605190600 AAXX 19064 67531 32980 01004 10133 20098 48///
                   333 10290 20086 5////=
201605180600 AAXX 18064 67531 32980 60902 10146 20110 48/// 70222 86030
                   333 10297 20080 5//// 86361=
201605170600 AAXX 17064 67531 32980 00903 10156 20115 48///
                   333 10300 20066 5////=
201605161200 AAXX 16124 67531 NIL=
201605160900 AAXX 16094 67531 NIL=
201605160600 AAXX 16064 67531 32980 00902 10136 20112 48///
                   333 10306 20072 5////=
201605120600 AAXX 12064 67531 32980 00906 10147 20112 48///
                   333 10276 20071 5////=
201605110600 AAXX 11064 67531 32980 01004 10151 20116 48///
                   333 10272 20085 5////=
201605100900 AAXX 10094 67531 NIL=
201605100600 AAXX 10064 67531 32980 00705 10160 20117 48///
                   333 10275 20099 5////=
201605090900 AAXX 09094 67531 NIL=
201605090600 AAXX 09064 67531 32980 20904 10137 20097 48/// 70200 80001
                   333 10295 20082 5////=
201605060600 AAXX 06064 67531 32980 11205 10178 20124 48/// 70200 80001
                   333 10305 20113 5////=
201605051200 AAXX 05124 67531 NIL=
201605050600 AAXX 05064 67531 32980 11204 10176 20136 48/// 70200 80001
                   333 10310 20097 5//// 81081=
201605040600 AAXX 04064 67531 32980 00903 10181 20140 48///
                   333 10315 20121 5////=
201605030600 AAXX 03064 67531 32978 41202 10177 20166 48/// 70510 84030
                   333 10318 20146 5//// 84361=

################################################################################
#  SYNOPS from 67541, Kasempa (Zambia) | 13-32S | 025-51E | 1234 m
################################################################################
201605310600 AAXX 31064 67541 NIL=
201605300600 AAXX 30064 67541 32980 10000 10158 20104 48551 70222 81030
                   333 10/// 20/// 59006=
201605270600 AAXX 27064 67541 32980 10000 10156 20123 48553 70222 81030
                   333 10/// 20/// 59003=
201605231200 AAXX 23124 67541 NIL=
201605230600 AAXX 23064 67541 31980 00802 10145 20139 48573 70500
                   333 10//0 20//0 58003=
201605200600 AAXX 20064 67541 32980 11205 10169 20128 48567 70222 81030
                   333 10/// 20/// 58002 81360=
201605190600 AAXX 19064 67541 32980 11002 10170 20111 48565 70222 80001
                   333 10/// 20/// 58006=
201605180600 AAXX 18064 67541 32980 00000 10169 20119 48559
                   333 10//0 20//0 58000=
201605161200 AAXX 16124 67541 NIL=
201605160900 AAXX 16094 67541 NIL=
201605160600 AAXX 16064 67541 32980 10000 10164 20116 48556 70222 80001
                   333 10/// 20/// 58012 81080=
201605120600 AAXX 12064 67541 32980 00000 10164 20122 48548
                   333 10/// 20/// 59004=
201605110600 AAXX 11064 67541 32980 10803 10161 20113 48552 70222 80001
                   333 10/// 20/// 59010=
201605100900 AAXX 10094 67541 NIL=
201605090900 AAXX 09094 67541 NIL=
201605090600 AAXX 09064 67541 32980 10610 10169 20131 48558 70222 80001
                   333 10/// 20/// 58013=
201605060600 AAXX 06064 67541 32980 10705 10185 20126 48549 70222 80001
                   333 10/// 20/// 5////=
201605051200 AAXX 05124 67541 NIL=

################################################################################
#  SYNOPS from 67543, Kabompo (Zambia) | 13-36S | 024-12E | 1075 m
################################################################################
201605310600 AAXX 31064 67543 NIL=
201605231200 AAXX 23124 67543 NIL=
201605200600 AAXX 20064 67543 NIL=
201605190600 AAXX 19064 67543 NIL=
201605161200 AAXX 16124 67543 NIL=
201605160900 AAXX 16094 67543 NIL=
201605100900 AAXX 10094 67543 NIL=
201605090900 AAXX 09094 67543 NIL=
201605051200 AAXX 05124 67543 NIL=

################################################################################
#  SYNOPS from 67551, Solwezi (Zambia) | 12-11S | 026-23E | 1386 m
################################################################################
201605310600 AAXX 31064 67551 32980 00805 10146 20094 48563
                   333 10254 20//0 58003 91024=
201605300600 AAXX 30064 67551 32975 01204 10149 20100 48551
                   333 10241 20//0 58004 91024=
201605260600 AAXX 26064 67551 32975 30000 10131 20122 48548 83030
                   333 10238 20/// 58002 83362=
201605240600 AAXX 24064 67551 32980 03604 10126 20103 48569
                   333 10228 20//0 58008 91025=
201605231200 AAXX 23124 67551 NIL=
201605230600 AAXX 23064 67551 32980 01806 10133 20088 48577
                   333 10238 20//0 58003 91026=
201605200600 AAXX 20064 67551 32980 01206 10144 20115 48558
                   333 10241 20//0 59007 91024=
201605190600 AAXX 19064 67551 32975 10905 10144 20092 48565 80001
                   333 10250 20/// 59005 81080 91024=
201605180600 AAXX 18064 67551 32980 01304 10146 20101 48569
                   333 10264 20//0 58003 91024=
201605170600 AAXX 17064 67551 32750 00000 10152 20099 48566
                   333 10261 2//// 58001 91024=
201605161200 AAXX 16124 67551 NIL=
201605160900 AAXX 16094 67551 NIL=
201605160600 AAXX 16064 67551 32980 00905 10172 20102 48532
                   333 10276 20//0 58002 91024=
201605120600 AAXX 12064 67551 32980 00505 10161 20112 48539 80000
                   333 10260 20/// 58012=
201605110600 AAXX 11064 67551 32980 01503 10135 20108 48556
                   333 10250 20/// 59040 91021=
201605100900 AAXX 10094 67551 NIL=
201605100600 AAXX 10064 67551 32980 21505 10141 20111 48669 80001
                   333 10241 20/// 58005 82080 91024=
201605090900 AAXX 09094 67551 NIL=
201605090600 AAXX 09064 67551 32985 01504 10136 20096 48674
                   333 10262 20//0 58017 91024=
201605060600 AAXX 06064 67551 32960 11306 10154 20116 48553 80001
                   333 10241 20/// 58014 81080 91023=
201605051200 AAXX 05124 67551 NIL=
201605040600 AAXX 04064 67551 32975 01304 10187 20147 48544
                   333 10281 20/// 59004=
201605030600 AAXX 03064 67551 32980 70904 10186 20154 48548 87030
                   333 10289 20/// 59010 87362=

################################################################################
#  SYNOPS from 67561, Ndola (Zambia) | 13-00S | 028-39E | 1269 m
################################################################################
201605310600 AAXX 31064 67561 31960 10000 10142 20103 48564 70500 81030
                   333 10266 20085 58010=
201605300600 AAXX 30064 67561 31960 00902 10140 20103 48553 70500
                   333 10260 20090 59006 91024=
201605270600 AAXX 27064 67561 31960 60000 10154 20113 48554 70522 86030
                   333 10263 20125 58003=
201605240600 AAXX 24064 67561 31960 00000 10136 20096 48536 70500
                   333 10251 20078 59007=
201605231200 AAXX 23124 67561 NIL=
201605230600 AAXX 23064 67561 31965 01007 10150 20095 48584 70500
                   333 10249 20085 58008=
201605200600 AAXX 20064 67561 31975 51217 10168 20108 48575 70522 85030
                   333 10253 20142 58003=
201605190600 AAXX 19064 67561 31960 01016 10170 20117 48527 70500
                   333 10256 20126 59002=
201605180600 AAXX 18064 67561 31960 00000 10165 20103 48476 70500
                   333 10203 20265 58008=
201605170600 AAXX 17064 67561 31959 00000 10157 20097 48566 70400
                   333 10263 20090 58001 91025=
201605161200 AAXX 16124 67561 NIL=
201605160900 AAXX 16094 67561 NIL=
201605160600 AAXX 16064 67561 31960 50806 10192 20101 48559 70511 81038
                   333 10289 20101 58000 81360 85280 91025=
201605120600 AAXX 12064 67561 31970 00702 10150 20118 48552 70500
                   333 10291 20094 59016=
201605110600 AAXX 11064 67561 31960 00000 10150 20112 48562 70500
                   333 10245 20/// 59017 91025=
201605100900 AAXX 10094 67561 NIL=
201605090900 AAXX 09094 67561 NIL=
201605090600 AAXX 09064 67561 31470 31109 10160 20116 48574 70500 83500
                   333 10285 20090 58009 83610 91026=
201605060600 AAXX 06064 67561 31970 61104 10141 20104 48556 70522 80008
                   333 10265 20090 58009 86280 91024=
201605051200 AAXX 05124 67561 NIL=
201605040600 AAXX 04064 67561 31957 60000 10186 20163 48543 70422 86030
                   333 10280 20135 59001=

################################################################################
#  SYNOPS from 67563, Kafironda (Zambia) | 12-36S | 028-07E | 1243 m
################################################################################
201605310600 AAXX 31064 67563 32970 00000 10145 20115 48/// 70100
                   333 10280 20060 5////=
201605270600 AAXX 27064 67563 32970 20000 10160 20135 48/// 70211 82030
                   333 10270 20080 59005=
201605260600 AAXX 26064 67563 32960 70000 10145 20128 48/// 70222 87030
                   333 10280 20090 59010 87358=
201605240600 AAXX 24064 67563 32970 00000 10140 20112 48/// 70100
                   333 10260 20040 59003=
201605231200 AAXX 23124 67563 NIL=
201605200600 AAXX 20064 67563 NIL=
201605190600 AAXX 19064 67563 NIL=
201605161200 AAXX 16124 67563 NIL=
201605160900 AAXX 16094 67563 NIL=
201605160600 AAXX 16064 67563 32970 21502 10170 20158 48/// 70100 80002
                   333 10290 20060 5////=
201605120600 AAXX 12064 67563 32980 00000 10140 20110 48/// 70100
                   333 10265 20055 59007=
201605110600 AAXX 11064 67563 32970 01501 10140 20116 48/// 70100
                   333 10260 20060 5////=
201605100900 AAXX 10094 67563 NIL=
201605100600 AAXX 10064 67563 32980 00000 10135 20118 48/// 70100
                   333 10250 20070 5////=
201605090900 AAXX 09094 67563 NIL=
201605090600 AAXX 09064 67563 32970 00000 10145 20120 48/// 70100
                   333 10260 20065 5////=
201605060600 AAXX 06064 67563 32970 20000 10135 20118 48/// 70100 80002
                   333 10280 20065 5////=
201605051200 AAXX 05124 67563 NIL=
201605050600 AAXX 05064 67563 32970 01002 10180 20160 48/// 70100
                   333 10295 20100 5////=

################################################################################
#  SYNOPS from 67571, Serenje (Zambia) | 13-14S | 030-13E | 1384 m
################################################################################
201605310600 AAXX 31064 67571 32982 01208 10151 20092 48558
                   333 10232 20124 58004
                   555 00176=
201605300600 AAXX 30064 67571 32982 11208 10155 20080 48559 70200 81030
                   333 10223 20122 58003 81360
                   555 00180=
201605260600 AAXX 26064 67571 32982 70910 10160 20090 48549 70222 8703/
                   333 10240 20143 58018 87360
                   555 00170=
201605231200 AAXX 23124 67571 NIL=
201605230600 AAXX 23064 67571 32482 11208 10/// 20095 48577 70300 81500
                   333 10209 20080 58007 81618
                   555 00170=
201605200600 AAXX 20064 67571 12482 71506 10144 20114 48568 69904 70222 875//
                   333 10235 20100 59001 87618
                   555 00166=
201605190600 AAXX 19064 67571 11482 71208 10150 20124 48568 69904 72162 875//
                   333 10230 20110 58002 87617
                   555 00160=
201605180600 AAXX 18064 67571 32582 11206 10159 20100 48569 70300 81500
                   333 10253 20106 58007 81625
                   555 00188=
201605161200 AAXX 16124 67571 NIL=
201605160900 AAXX 16094 67571 NIL=
201605120600 AAXX 12064 67571 32982 01206 10164 20114 48///
                   333 10240 20101 5////
                   555 00195=
201605100900 AAXX 10094 67571 NIL=
201605090900 AAXX 09094 67571 NIL=
201605090600 AAXX 09064 67571 32480 60912 10156 20108 48569 70311 86500
                   333 10235 20120 58010 86618=
201605061200 AAXX 06124 67571 42680 71203 10224 20104 48543 70522 81108
                   333 59008 81845 87280=
201605060900 AAXX 06094 67571 42980 71203 10201 20100 48561 70522 81108
                   333 58002 81831=
201605060600 AAXX 06064 67571 32980 71202 10148 20109 48558 70522 80008
                   333 10244 20131 58005 87280=
201605051200 AAXX 05124 67571 42780 21205 10221 20106 48543 70500 82100
                   333 58020 82850=
201605050900 AAXX 05094 67571 42580 11208 10203 20098 48561 70500 81100
                   333 58021 81823=
201605050600 AAXX 05064 67571 32980 01210 10178 20086 48560 70500
                   333 10268 20135 58016=
201605030600 AAXX 03064 67571 12982 70905 10190 20150 48541 69904 70222 86038
                   333 10246 20154 58001 86360 87281=

################################################################################
#  SYNOPS from 67575, Mkushi (Zambia) | 13-38-00S | 029-26-00E | 1237 m
################################################################################
201605310600 AAXX 31064 67575 32980 00902 10165 20095 48/// 70200
                   333 10250 20095 5////=
201605270600 AAXX 27064 67575 32980 70902 10180 20106 48/// 70222 87070
                   333 10268 20090 5//// 87360=
201605240600 AAXX 24064 67575 32980 00602 10165 20090 48/// 70200
                   333 10245 20080 5////=
201605231200 AAXX 23124 67575 NIL=
201605200600 AAXX 20064 67575 32580 81205 10171 20112 48/// 70222 88200
                   333 10250 20100 5////=
201605190600 AAXX 19064 67575 NIL=
201605180600 AAXX 18064 67575 32580 11405 10180 20110 48/// 70200 81200
                   333 10274 20090 5////=
201605170600 AAXX 17064 67575 32980 00000 10191 20111 48/// 70200
                   333 10270 20075 5////=
201605161200 AAXX 16124 67575 NIL=
201605160900 AAXX 16094 67575 NIL=
201605160600 AAXX 16064 67575 32980 20902 10200 20094 48/// 70200 81032
                   333 10282 20105 5////=
201605130600 AAXX 13064 67575 32980 00904 10182 20109 48/// 70200
                   333 10270 20065 5////=
201605120600 AAXX 12064 67575 32980 01402 10162 20115 48/// 70200
                   333 10250 20095 5////=
201605110600 AAXX 11064 67575 32980 00901 10155 20101 48/// 70200
                   333 10250 20090 5////=
201605100900 AAXX 10094 67575 NIL=
201605100600 AAXX 10064 67575 32480 50000 10148 20116 48/// 85500
                   333 10236 20092 5//// 85615=
201605090900 AAXX 09094 67575 NIL=
201605090600 AAXX 09064 67575 32480 21205 10164 20115 48/// 82500
                   333 10250 20100 5//// 82615=
201605060600 AAXX 06064 67575 32980 20904 10163 20104 48/// 80001
                   333 10265 20140 5//// 82080=
201605051200 AAXX 05124 67575 NIL=
201605050600 AAXX 05064 67575 32480 11106 10180 20124 48/// 81100
                   333 10287 20143 5////=
201605030600 AAXX 03064 67575 32480 60000 10175 20159 48/// 81270
                   333 10292 20135 5//// 81816=

################################################################################
#  SYNOPS from 67580, Msekera (Zambia) | 13-39S | 032-34E | 1025 m
################################################################################
201605310600 AAXX 31064 67580 32980 01503 10179 20115 48///
                   333 10269 20/// 58000=
201605300600 AAXX 30064 67580 32980 01205 10174 20115 48///
                   333 10260 20/// 59003=
201605260900 AAXX 26094 67580 42980 71203 10246 20113 48/// 87030
                   333 5//// 87361=
201605260600 AAXX 26064 67580 32980 70902 10204 20119 48/// 87030
                   333 10284 20/// 59014 87360=
201605231200 AAXX 23124 67580 NIL=
201605230600 AAXX 23064 67580 32980 01204 10170 20119 48///
                   333 10264 20/// 58008=
201605200600 AAXX 20064 67580 32480 21507 10174 20121 48/// 81130
                   333 10270 20/// 58003 81818 81361=
201605190600 AAXX 19064 67580 12480 21307 10189 20135 48/// 69904 82830
                   333 10266 20/// 58005 81816 81618 81360=
201605180900 AAXX 18094 67580 42980 01205 10235 20108 48///
                   333 5////=
201605180600 AAXX 18064 67580 32980 01207 10193 20100 48///
                   333 10274 20/// 5////=
201605161200 AAXX 16124 67580 NIL=
201605160900 AAXX 16094 67580 NIL=
201605120600 AAXX 12064 67580 32980 01205 10189 20124 48///
                   333 10290 20/// 59016=
201605110900 AAXX 11094 67580 42680 40902 10242 20124 48/// 84100
                   333 5//// 84830=
201605100900 AAXX 10094 67580 NIL=
201605100600 AAXX 10064 67580 32680 41506 10220 20136 48/// 84800
                   333 10277 20/// 59029 81820=
201605090900 AAXX 09094 67580 42680 71505 10220 48/// 87800
                   333 5//// 86834 81636=
201605090600 AAXX 09064 67580 32580 51504 10191 20144 48/// 85800
                   333 10269 20/// 58005 82820 83622=
201605051200 AAXX 05124 67580 NIL=
201605030600 AAXX 03064 67580 32980 51203 10230 20169 48/// 85030
                   333 10286 20/// 59001 85360=

################################################################################
#  SYNOPS from 67581, Chipata (Zambia) | 13-33S | 032-35E | 1028 m
################################################################################
201605310600 AAXX 31064 67581 NIL=
201605270600 AAXX 27064 67581 32675 31602 10190 20120 48570 81130
                   333 10267 20100 58001 81835=
201605260900 AAXX 26094 67581 42980 70805 10232 20109 48577 87030
                   333 59007 87360 91024=
201605260600 AAXX 26064 67581 32980 60603 10208 20106 48573 86030
                   333 10275 20176 59013 86360
                   555 00103 91024=
201605240600 AAXX 24064 67581 32978 01008 10190 20112 48593
                   333 10249 20180 59011
                   555 00190 91027=
201605231200 AAXX 23124 67581 NIL=
201605230600 AAXX 23064 67581 32980 01203 10184 20099 48603
                   333 10260 20095 58007
                   555 00110 91028=
201605200600 AAXX 20064 67581 32980 01409 10173 20098 48587
                   333 10270 20104 59002 91026=
201605190600 AAXX 19064 67581 NIL=
201605170600 AAXX 17064 67581 31960 01604 10213 20136 48582 70500
                   333 10280 20120 5//// 91024=
201605161200 AAXX 16124 67581 NIL=
201605160900 AAXX 16094 67581 NIL=
201605160600 AAXX 16064 67581 32980 21206 10219 20110 48/// 82030
                   333 10260 20114 5////=
201605120600 AAXX 12064 67581 32980 01703 10196 20117 48571
                   333 10276 20099 59014 91024=
201605110600 AAXX 11064 67581 32980 01503 10197 20129 48584
                   333 10266 20097 59012 91025=
201605100900 AAXX 10094 67581 NIL=
201605090900 AAXX 09094 67581 NIL=
201605090600 AAXX 09064 67581 32680 41703 10185 20135 48593 83230
                   333 10267 20095 58006 83830=
201605051200 AAXX 05124 67581 NIL=
201605050600 AAXX 05064 67581 32980 01408 10187 20109 48570 70222
                   333 10297 20169 58016=
201605030600 AAXX 03064 67581 32980 61702 10216 20162 48560 86030
                   333 10280 20120 59002 86360=

################################################################################
#  SYNOPS from 67583, Lundazi (Zambia) | 12-17S | 033-12E | 1143 m
################################################################################
201605310600 AAXX 31064 67583 NIL=
201605270600 AAXX 27064 67583 32980 71201 10185 20135 48/// 70220 8703/
                   333 10/// 20/// 58003=
201605240600 AAXX 24064 67583 32480 11801 10175 20133 48/// 70200 81100
                   333 10/// 20/// 59002=
201605231200 AAXX 23124 67583 NIL=
201605230600 AAXX 23064 67583 32480 10901 10174 20134 48/// 81100
                   333 10/// 20/// 5//// 81812=
201605200600 AAXX 20064 67583 NIL=
201605190600 AAXX 19064 67583 32980 12405 10187 20134 48/// 81030
                   333 10/// 20/// 59008 81360=
201605180600 AAXX 18064 67583 32980 61704 10180 20130 48/// 86030
                   333 10/// 20/// 59001 86360=
201605170600 AAXX 17064 67583 32980 01201 10197 20116 48///
                   333 10//0 20//0 58001=
201605161200 AAXX 16124 67583 NIL=
201605160900 AAXX 16094 67583 NIL=
201605120600 AAXX 12064 67583 32980 11302 10190 20141 48/// 70200 81030
                   333 10/// 20/// 59012=
201605110600 AAXX 11064 67583 32980 01503 10185 20135 48/// 70100
                   333 10//0 20//0 59009=
201605100900 AAXX 10094 67583 NIL=
201605090900 AAXX 09094 67583 NIL=
201605090600 AAXX 09064 67583 32480 20905 10180 20133 48/// 70120 82130
                   333 10/// 20/// 5////=
201605060600 AAXX 06064 67583 32580 71501 10175 20140 48/// 81537
                   333 10/// 20/// 58006 81625=
201605051200 AAXX 05124 67583 NIL=
201605050600 AAXX 05064 67583 32980 10905 10183 20126 48/// 81030
                   333 10/// 20/// 58013 81360=

################################################################################
#  SYNOPS from 67599, Mfuwe (Zambia) | 13-16S | 031-56E | 568 m
################################################################################
201605310600 AAXX 31064 67599 NIL=
201605301500 AAXX 30154 67599 42780 10000 10275 20116 48554 81100 333=
201605300600 AAXX 30064 67599 32980 00000 10165 20119 48562
                   333 10305 20107 59004 91024=
201605280600 AAXX 28064 67599 32980 71707 10210 20136 48580 8703/
                   333 10315 20160 58008 87360 91024=
201605270600 AAXX 27064 67599 32980 70000 10170 20127 48599 8703/
                   333 10318 20130 82359
                   555 00/// 91023=
201605260600 AAXX 26064 67599 32980 70000 10175 20124 48557 87030
                   333 10315 20115 59014 87360=
201605240600 AAXX 24064 67599 32980 00000 10159 20133 48579
                   333 10300 20098 59010 91025=
201605231200 AAXX 23124 67599 NIL=
201605230600 AAXX 23064 67599 32980 10000 10163 20113 48588 81030
                   333 10300 20087 58006 81359=
201605220600 AAXX 22064 67599 32980 10000 10175 20135 48575 81031
                   333 10301 20115 58003 81359 81080 91026=
201605210600 AAXX 21064 67599 32980 11407 10195 20121 48590 81030
                   333 10295 58010 81858
                   555 00/// 91026=
201605200600 AAXX 20064 67599 32980 01804 10196 20127 48580
                   333 10315 20145 59003 91024=
201605190600 AAXX 19064 67599 32980 10000 10196 20154 48583 81030
                   333 10311 20140 58013 81360 91025=
201605181500 AAXX 18154 67599 42880 11805 10284 20113 48571 81100=
201605180900 AAXX 18094 67599 42880 21803 10270 20124 48618 82100=
201605180600 AAXX 18064 67599 32980 00000 10195 20137 48578 333=
201605170600 AAXX 17064 67599 32980 21804 10225 20145 48572=
201605161200 AAXX 16124 67599 NIL=
201605160900 AAXX 16094 67599 NIL=
201605160600 AAXX 16064 67599 32980 10000 10174 20123 48561 80001
                   333 10343 20107 59003 81080=
201605151500 AAXX 15154 67599 42980 11503 10312 20114 48566 81030
                   333 58014 81360=
201605151200 AAXX 15124 67599 42680 50903 10304 20135 48572 85100
                   333 58015 85845 91019=
201605150600 AAXX 15064 67599 32980 00000 10182 20137 48567
                   333 10333 20130 58020
                   555 91023=
201605120600 AAXX 12064 67599 42980 00000 10190 20141 48562
                   333 20133=
201605110600 AAXX 11064 67599 32980 01705 10190 20141 48574
                   333 10311 20111 59011 91024=
201605100900 AAXX 10094 67599 NIL=
201605090900 AAXX 09094 67599 NIL=
201605060600 AAXX 06064 67599 32980 20000 10189 20142 48569 80001
                   333 10317 20120 58009 82080=
201605051200 AAXX 05124 67599 NIL=
201605050600 AAXX 05064 67599 32980 20000 10225 20126 48571 82030
                   333 10349 20170 58023 82360=
201605040600 AAXX 04064 67599 42980 70000 10210 20171 48547 8703/ 333=
201605030600 AAXX 03064 67599 32980 70000 10229 20178 48554 8703/
                   333 10310 20180 59004 87360 91020=
201605010600 AAXX 01064 67599 32980 10000 10242 20206 48526 81030 333=

################################################################################
#  SYNOPS from 67625, Kalabo (Zambia) | 14-51S | 022-42E | 1033 m
################################################################################
201605310600 AAXX 31064 67625 NIL=
201605300600 AAXX 30064 67625 32982 51502 10159 20113 48/// 85030
                   333 10259 20110 5//// 85360=
201605260600 AAXX 26064 67625 32982 61804 10154 20100 48/// 86030
                   333 10273 20125 59001 86360=
201605231200 AAXX 23124 67625 NIL=
201605200600 AAXX 20064 67625 32982 31006 10180 20122 48/// 83030
                   333 10275 20125 5////=
201605190600 AAXX 19064 67625 NIL=
201605180600 AAXX 18064 67625 32982 70906 10196 20124 48/// 87030
                   333 10291 20130 5//// 87360=
201605161200 AAXX 16124 67625 NIL=
201605160900 AAXX 16094 67625 NIL=
201605120600 AAXX 12064 67625 32982 00705 10166 20117 48///
                   333 10265 20125=
201605100900 AAXX 10094 67625 NIL=
201605090900 AAXX 09094 67625 NIL=
201605060600 AAXX 06064 67625 32982 00909 10185 20134 48///
                   333 10302 20165 58018=
201605051200 AAXX 05124 67625 NIL=

################################################################################
#  SYNOPS from 67633, Mongu (Zambia) | 15-15S | 023-09E | 1052 m
################################################################################
201605310600 AAXX 31064 67633 32980 20910 10161 20118 48544 70200 82030
                   333 10279 20139 58001 82361 91021=
201605270600 AAXX 27064 67633 32980 51003 10132 20084 48556 70222 85030
                   333 10285 20122 58008=
201605260600 AAXX 26064 67633 32980 60903 10166 20114 48555 70222 86030
                   333 10270 20120 59008=
201605240600 AAXX 24064 67633 32980 70910 10164 20107 48563 70222 87030
                   333 10268 20136 59006 87360 91024=
201605231200 AAXX 23124 67633 NIL=
201605230600 AAXX 23064 67633 32980 00910 10150 20109 48561 70200
                   333 10261 20120 58003=
201605200600 AAXX 20064 67633 32980 31604 10155 20120 48526 70200 83030
                   333 10286 20120 58000=
201605190600 AAXX 19064 67633 NIL=
201605180600 AAXX 18064 67633 32980 50903 10182 20123 48568 70222 85030
                   333 10298 20152 58002 85360 91024=
201605161200 AAXX 16124 67633 NIL=
201605160900 AAXX 16094 67633 NIL=
201605160600 AAXX 16064 67633 32980 00903 10196 20132 48569 70200
                   333 10327 20161 58037=
201605130600 AAXX 13064 67633 32980 10905 10185 20137 48511 70100 81030
                   333 10283 20120 59032=
201605110600 AAXX 11064 67633 32980 00000 10165 20124 48561 70200
                   333 10284 20140 59013=
201605100900 AAXX 10094 67633 NIL=
201605100600 AAXX 10064 67633 32980 00910 10174 20118 48574 70200
                   333 10291 20115 58017 91025=
201605090900 AAXX 09094 67633 NIL=
201605090600 AAXX 09064 67633 32980 00904 10154 20104 48552 70200
                   333 10308 20119 58022 91023=
201605051200 AAXX 05124 67633 NIL=
201605050600 AAXX 05064 67633 32980 00904 10201 20142 48544 70200
                   333 10328 20159 58014 91021=
201605030600 AAXX 03064 67633 32980 00904 10210 20159 48534 70200
                   333 10326 20180 58024=

################################################################################
#  SYNOPS from 67641, Kaoma (Zambia) | 14-48S | 024-48E | 1213 m
################################################################################
201605310600 AAXX 31064 67641 32982 33601 10119 20098 48541 83030
                   333 10/// 20111 58001 83360=
201605300600 AAXX 30064 67641 32982 60000 10126 20107 48542 86030
                   333 10/// 20115 58019 86360 91022=
201605270600 AAXX 27064 67641 32680 71201 10160 20131 48551 84530
                   333 10/// 20088 58015 84640=
201605260600 AAXX 26064 67641 32980 70000 10143 20113 48537 87030
                   333 10/// 20122 59012 87360 91021=
201605231200 AAXX 23124 67641 NIL=
201605230600 AAXX 23064 67641 32980 00401 10133 20102 48547
                   333 10/// 20076 59002 91023=
201605200600 AAXX 20064 67641 32982 20902 10145 20111 48555 82030
                   333 10/// 20105 59003 82360=
201605190600 AAXX 19064 67641 32982 00000 10109 20093 48552
                   333 10//0 20085 58004 91023=
201605180600 AAXX 18064 67641 32982 10601 10146 20119 48554 81030
                   333 10/// 20098 58010 81360 91023=
201605170600 AAXX 17064 67641 32980 00000 10160 20120 48541
                   333 10/// 20096 58010 91022=
201605161200 AAXX 16124 67641 NIL=
201605160900 AAXX 16094 67641 NIL=
201605160600 AAXX 16064 67641 32980 00901 10162 20119 48532
                   333 10/// 20104 58000 91021=
201605130600 AAXX 13064 67641 32982 10402 10147 20120 48517 81030
                   333 10/// 20100 59022 81360 91018=
201605120600 AAXX 12064 67641 32982 00702 10129 20103 48540
                   333 10/// 20085 58013 91021=
201605100900 AAXX 10094 67641 NIL=
201605100600 AAXX 10064 67641 32980 00401 10161 20127 48484
                   333 10//0 20091 59007 91021=
201605090900 AAXX 09094 67641 NIL=
201605090600 AAXX 09064 67641 32980 01401 10184 20141 48544
                   333 10/// 20125 59004 91022=
201605060600 AAXX 06064 67641 32982 00802 10180 20123 48536
                   333 10//0 20106 59031 91021=
201605051200 AAXX 05124 67641 NIL=
201605050600 AAXX 05064 67641 32980 10801 10186 20142 48505 81030
                   333 10/// 20137 59002 81360=
201605040600 AAXX 04064 67641 32980 00000 10172 20140 48504
                   333 10//0 20120 59008 91017=
201605030600 AAXX 03064 67641 32980 50401 10191 48517 85360
                   333 10/// 20150 58001 85360 91018=

################################################################################
#  SYNOPS from 67655, Mumbwa (Zambia) | 15-04S | 027-11E | 1216 m
################################################################################
201605310600 AAXX 31064 67655 NIL=
201605231200 AAXX 23124 67655 NIL=
201605200600 AAXX 20064 67655 NIL=
201605190600 AAXX 19064 67655 NIL=
201605161200 AAXX 16124 67655 NIL=
201605160900 AAXX 16094 67655 NIL=
201605100900 AAXX 10094 67655 NIL=
201605090900 AAXX 09094 67655 NIL=
201605051200 AAXX 05124 67655 NIL=

################################################################################
#  SYNOPS from 67659, Kafue Polder (Zambia) | 15-46S | 027-55E | 978 m
################################################################################
201605310600 AAXX 31064 67659 NIL=
201605231200 AAXX 23124 67659 NIL=
201605200600 AAXX 20064 67659 NIL=
201605190600 AAXX 19064 67659 NIL=
201605161200 AAXX 16124 67659 NIL=
201605160900 AAXX 16094 67659 NIL=
201605100900 AAXX 10094 67659 NIL=
201605090900 AAXX 09094 67659 NIL=
201605051200 AAXX 05124 67659 NIL=
201605050600 AAXX 05064 67659 32980 01806 10192 20135 48/// 70500
                   333 10302 20//0 5////=

################################################################################
#  SYNOPS from 67662, Kabwe Agric (Zambia) | 14-24S | 028-30E | 1165 m
################################################################################
201605310600 AAXX 31064 67662 NIL=
201605231200 AAXX 23124 67662 NIL=
201605200600 AAXX 20064 67662 NIL=
201605190600 AAXX 19064 67662 NIL=
201605161200 AAXX 16124 67662 NIL=
201605160900 AAXX 16094 67662 NIL=
201605100900 AAXX 10094 67662 NIL=
201605090900 AAXX 09094 67662 NIL=
201605051200 AAXX 05124 67662 NIL=
201605050600 AAXX 05064 67662 32980 01003 10173 20125 48///
                   333 10284 20//0 5////=
201605030600 AAXX 03064 67662 32980 70000 10174 20152 48/// 87030
                   333 10296 20/// 5////=

################################################################################
#  SYNOPS from 67663, Kabwe (Zambia) | 14-27S | 028-28E | 1206 m
################################################################################
201605310600 AAXX 31064 67663 32980 11809 10143 20089 48579 80002
                   333 10243 20100 58009=
201605300600 AAXX 30064 67663 32980 01809 10144 20096 48571
                   333 10237 20108 59005=
201605270600 AAXX 27064 67663 32980 21004 10157 20120 48565 70200 82030
                   333 10251 20115 58003=
201605260600 AAXX 26064 67663 32980 50913 10167 20109 48564 85030
                   333 10252 20145 59016 85360=
201605240600 AAXX 24064 67663 32980 11808 10138 20090 48582 80002
                   333 10242 20100 59010=
201605231200 AAXX 23124 67663 NIL=
201605230600 AAXX 23064 67663 32980 01807 10134 20113 48561
                   333 10233 20//0 5////=
201605200600 AAXX 20064 67663 31480 71810 10147 20135 48586 75055 87500
                   333 10237 20120 58002=
201605190600 AAXX 19064 67663 32480 80903 10142 20121 48582 885//
                   333 10268 20111 58010=
201605180600 AAXX 18064 67663 32980 01606 10165 20113 48577
                   333 10266 20128 58005=
201605161200 AAXX 16124 67663 NIL=
201605160900 AAXX 16094 67663 NIL=
201605160600 AAXX 16064 67663 32980 20905 10179 20101 48569 70200 80002
                   333 10281 20138 58001 82080=
201605130600 AAXX 13064 67663 32980 00712 10174 20119 48537
                   333 10186 20113 59010=
201605120600 AAXX 12064 67663 32980 01609 10162 20122 48545
                   333 10242 20115 59004=
201605110600 AAXX 11064 67663 32980 01608 10153 20106 48548
                   333 10240 20101 58016=
201605100900 AAXX 10094 67663 NIL=
201605100600 AAXX 10064 67663 32480 10805 10148 20114 48562 70300 81500
                   333 10229 20100 59002=
201605090900 AAXX 09094 67663 NIL=
201605090600 AAXX 09064 67663 32480 30905 10147 20128 48564 70300 83530
                   333 10243 20108 58012=
201605060600 AAXX 06064 67663 32980 10709 10162 20113 48547 80002
                   333 10247 20095 58011 81080=
201605051200 AAXX 05124 67663 NIL=
201605050600 AAXX 05064 67663 32980 01014 10176 20121 48538
                   333 10286 20142 58016=
201605030600 AAXX 03064 67663 32980 51807 10177 20154 48512 85030
                   333 10308 20145 59037=

################################################################################
#  SYNOPS from 67665, Lusaka Internationalairport (Zambia) | 15-19S | 028-27E | 1152 m
################################################################################
201605310600 AAXX 31064 67665 NIL=
201605301800 AAXX 30184 67665 42980 21305 10145 20095 48560 82030
                   333 10270 20//0 59001 82360=
201605301500 AAXX 30154 67665 42780 31406 10215 20151 48554 83100
                   333 59002 83856=
201605300900 AAXX 30094 67665 42980 00813 10209 20126 48583
                   333 58000=
201605291800 AAXX 29184 67665 42980 11103 10138 20096 48559 81030
                   333 59013 81360=
201605291500 AAXX 29154 67665 42680 10907 10214 20152 48563 81100
                   333 59006 81342=
201605291200 AAXX 29124 67665 42680 10910 10223 20154 48559 81100
                   333 59009 81835=
201605290900 AAXX 29094 67665 42580 20812 10204 20156 48582 82100
                   333 59007 82820=
201605290600 AAXX 29064 67665 32980 11005 10123 20095 48575 81030
                   333 10190 20//0 58002 81360=
201605290300 AAXX 29034 67665 42980 11403 10102 20083 48563 81030
                   333 58002 81360=
201605290000 AAXX 29004 67665 42980 21103 10108 20088 48563 82030
                   333 58004 82360=
201605282100 AAXX 28214 67665 42980 21404 10128 20100 48571 82030
                   333 58007 82360=
201605281200 AAXX 28124 67665 42680 10220 20160 48559 70221 85100
                   333 58005 85835=
201605280600 AAXX 28064 67665 32980 41103 10151 20115 48578 70122 84030
                   333 10233 20//0 58006 84360=
201605280300 AAXX 28034 67665 42980 51003 10127 20110 48564 70222 85030
                   333 58014 85360=
201605272100 AAXX 27214 67665 42980 51004 10147 20120 48568 70122 85030
                   333 58005 85360=
201605271800 AAXX 27184 67665 42980 71304 10155 20126 48565 70222 87030
                   333 58011 87360=
201605271500 AAXX 27154 67665 42680 61308 10185 20144 48562 70222 81130
                   333 58014 81840 86360=
201605271200 AAXX 27124 67665 42680 61107 10223 20163 48563 70222 85130
                   333 58009=
201605270900 AAXX 27094 67665 42480 51107 10198 20157 48585 83530
                   333 58009 83620 85360=
201605270600 AAXX 27064 67665 32980 31120 10153 20126 48572 83030
                   333 10190 20/// 58009 83360=
201605270300 AAXX 27034 67665 42980 11304 10114 20094 48548 81030
                   333 58003 81360=
201605270000 AAXX 27004 67665 42980 21504 10113 20094 48550 82030
                   333 58003 82360=
201605262100 AAXX 26214 67665 42980 31405 10137 20101 48561 83030
                   333 58002 83360=
201605261800 AAXX 26184 67665 42980 21105 10161 20127 48558 70200 82030
                   333 10260 59001 82360=
201605261500 AAXX 26154 67665 42680 51008 10219 20175 48552 70122 82130
                   333 58000 82845 83360=
201605261200 AAXX 26124 67665 42680 60807 10232 20184 48556 70222 82130
                   333 59004 82830 85360=
201605260900 AAXX 26094 67665 42980 60812 10207 20151 48578 70222 86030
                   333 59004=
201605260300 AAXX 26034 67665 42980 60902 10144 20126 48549 86030
                   333 59019 86360=
201605260000 AAXX 26004 67665 42980 61804 10156 20120 48554 86030
                   333 59015 86360=
201605252100 AAXX 25214 67665 42980 51004 10166 20123 48562 85030
                   333 59015 85360=
201605251800 AAXX 25184 67665 43980 61303 10177 20128 48562 86030
                   333 59017 86360=
201605251500 AAXX 25154 67665 42680 61410 10216 20114 48552 83530
                   333 59014 83640 84360=
201605251200 AAXX 25124 67665 42680 40206 10238 20121 48561 82130
                   333 59016 82832 83360=
201605250900 AAXX 25094 67665 42980 30610 10214 20120 48582 83030
                   333 59018 83360=
201605250600 AAXX 25064 67665 32980 30807 10138 20091 48567 70300 83030
                   333 59016 83360=
201605241200 AAXX 24124 67665 42680 10305 10228 20140 48575 81502
                   333 59022 81635 81080=
201605240600 AAXX 24064 67665 32980 21206 10132 20105 48588 80002
                   333 59017=
201605240300 AAXX 24034 67665 42980 01502 10073 20051 48516 70200
                   333 59010 91026=
201605240000 AAXX 24004 67665 42980 01503 10105 20064 48577 70200
                   333 59005 91027=
201605232100 AAXX 23214 67665 42980 01403 10110 20060 48584 70200
                   333 59005 91028=
201605231800 AAXX 23184 67665 42980 01204 10131 20081 48585 70200
                   333 10233 59003=
201605231200 AAXX 23124 67665 NIL=
201605230900 AAXX 23094 67665 42480 60711 10201 20135 48611 70222=
201605230600 AAXX 23064 67665 42480 40913 10143 20112=
201605220600 AAXX 22064 67665 32480 11005 10127 20095 48595 70200 81500
                   333 10202 20//0 58000 81612=
201605220300 AAXX 22034 67665 42980 00901 10076 20067 48567 70200
                   333 59005=
201605220000 AAXX 22004 67665 42980 01302 10087 20079 48569 70200
                   333 59003=
201605212100 AAXX 21214 67665 42980 01304 10103 20084 48580 70200
                   333 58004=
201605211800 AAXX 21184 67665 42980 01504 10125 20097 48584
                   333 10204 20//0 58006=
201605211500 AAXX 21154 67665 42680 61007 10179 20138 48583 86500
                   333 58011 86630=
201605211200 AAXX 21124 67665 42680 70512 10193 20144 48591 87500
                   333 58012 87630=
201605210600 AAXX 21064 67665 32980 01008 10116 20095 48593
                   333 10235 20//0 58009=
201605210300 AAXX 21034 67665 42980 01009 10074 20074 48575
                   333 58008=
201605210000 AAXX 21004 67665 42980 01205 10092 20071 48572
                   333 58007=
201605202100 AAXX 20214 67665 42980 01305 10110 20071 48578
                   333 58001=
201605201800 AAXX 20184 67665 42980 01204 10141 20097 48579
                   333 10238 20//0 58002=
201605201500 AAXX 20154 67665 42980 11009 10213 20138 48577 70200 81060
                   333 58000 81360=
201605201200 AAXX 20124 67665 42680 41010 10230 20141 48585 70222 84500
                   333 59002 84635=
201605200900 AAXX 20094 67665 42580 50914 10196 20123=
201605200600 AAXX 20064 67665 NIL=
201605191800 AAXX 19184 67665 42980 01205 10151 20104 48579
                   333 10257 20//0 59001=
201605191500 AAXX 19154 67665 42680 31012 10206 20118 48577 83200
                   333 58004 83835=
201605191200 AAXX 19124 67665 42580 61012 10216 20135 48585 86500
                   333 58009 86620=
201605190900 AAXX 19094 67665 42480 70916 10203 20141 48602 70222 87500
                   333 59001 97609=
201605190600 AAXX 19064 67665 NIL=
201605190300 AAXX 19034 67665 42980 01004 10117 20055 48571 70200
                   333 58005 91026=
201605190000 AAXX 19004 67665 42980 01404 10112 20064 48569 70200
                   333 58012 91026=
201605181800 AAXX 18184 67665 42980 11204 10153 20065 48580 81030
                   333 10251 58010 81360=
201605181500 AAXX 18154 67665 42980 10910 10232 20099 48576 81030=
201605181200 AAXX 18124 67665 42680 41111 10241 20099 48578 70322 84200
                   333 58009 84845=
201605180900 AAXX 18094 67665 42680 30713 10212 20290 48604 83100
                   333 58013 83835=
201605180600 AAXX 18064 67665 32980 01006 10153 20099 48589
                   333 58009=
201605170900 AAXX 17094 67665 42980 10807 10229 20141 48595 81030
                   333 58002 81360 91027=
201605170600 AAXX 17064 67665 42980 10904 10152 20128=
201605170300 AAXX 17034 67665 42980 00000 10123 20094 48560 70200
                   333 58007=
201605162100 AAXX 16214 67665 42980 00000 10142 20106 48567 70200
                   333 58001=
201605161200 AAXX 16124 67665 NIL=
201605160900 AAXX 16094 67665 NIL=
201605160600 AAXX 16064 67665 32980 31202 10158 20109 48575 70300 80001
                   333 10278 20//0 58001 83080=
201605160300 AAXX 16034 67665 42980 01303 10110 20101 48552 70200
                   333 58001=
201605160000 AAXX 16004 67665 42980 00000 10122 20104 48553 70200
                   333 58004=
201605152100 AAXX 15214 67665 42980 01301 10154 20124 48568 70200
                   333 58102=
201605151800 AAXX 15184 67665 42980 01205 10173 20135 48567 70200
                   333 58013=
201605151500 AAXX 15154 67665 42680 11309 10256 20178 48564 70200 81100
                   333 58014 81840=
201605151200 AAXX 15124 67665 42680 14008 10265 20183 48568 70300 81100
                   333 58013 81830=
201605150600 AAXX 15064 67665 32980 01105 10160 20110 48574
                   333 10284 20//0 58019=
201605150300 AAXX 15034 67665 42980 01603 10102 20083 48550
                   333 58019=
201605150000 AAXX 15004 67665 42980 01503 10121 48549
                   333 58012=
201605142100 AAXX 14214 67665 42980 01402 10153 20116 48556
                   333 58019=
201605141800 AAXX 14184 67665 42980 31303 10167 20124 48554 70200 82030
                   333 10284 58021 82360=
201605141500 AAXX 14154 67665 42780 30904 10255 20166 48550 70122 83100
                   333 58018 83856=
201605141200 AAXX 14124 67665 42680 41005 10264 20166 48554 70300 84200
                   333 58012 84845=
201605140900 AAXX 14094 67665 42980 00610 10241 20155 48572
                   333 58006=
201605140600 AAXX 14064 67665 32980 01104 10159 20121 48556
                   333 10274 20//0 58006=
201605140000 AAXX 14004 67665 42980 01202 10115 20050 48528
                   333 58002=
201605132100 AAXX 13214 67665 42980 01603 10144 20071 48537
                   333 59002=
201605131800 AAXX 13184 67665 42980 01206 10148 20071 48531
                   333 10274 20//0 59013=
201605131500 AAXX 13154 67665 42980 00507 10248 20125 48531
                   333 59018=
201605131200 AAXX 13124 67665 42980 00107 10253 20151 48541
                   333 59018=
201605130900 AAXX 13094 67665 42980 00905 10232 20153 48564 70200
                   333 59017=
201605130600 AAXX 13064 67665 32980 01104 10155 20111 48541 70200
                   333 59016=
201605121800 AAXX 12184 67665 42980 01203 10168 20113 48547
                   333 59017=
201605121500 AAXX 12154 67665 42980 00408 10235 20147 48547
                   333 59013=
201605121200 AAXX 12124 67665 42980 00309 10242 20146 48557
                   333 59010=
201605120900 AAXX 12094 67665 42680 10610 10217 20144 48579 81100
                   333 59011 81830=
201605120600 AAXX 12064 67665 32980 01002 10142 20106 48562
                   333 10243 20//0 59022=
201605111200 AAXX 11124 67665 42680 40911 10224 20144 48559 70222 84100
                   333 59021 84835=
201605110900 AAXX 11094 67665 42580 50812 10196 20130 48587 85100
                   333 59018 85825=
201605110600 AAXX 11064 67665 42980 00906 10135 20108 48578 70200
                   333 59015=
201605110000 AAXX 11004 67665 42980 01203 10094 20076 48560 70200
                   333 59018=
201605102100 AAXX 10214 67665 42980 01504 10116=
201605100900 AAXX 10094 67665 NIL=
201605100600 AAXX 10064 67665 32480 50906 10148 20116 48594 70300 85530
                   333 10240 20//0 58006 85615 81360=
201605100300 AAXX 10034 67665 42980 01006 10104 20092 48575 70200
                   333 58007=
201605092100 AAXX 09214 67665 42980 01202 10116 20098 48589 70200
                   333 58009=
201605091800 AAXX 09184 67665 42960 11207 10142 20110 48584 70200 80001
                   333 58008 81080=
201605091500 AAXX 09154 67665 42960 10913 10215 20162 48578 70101 81030
                   333 58003 81358=
201605091200 AAXX 09124 67665 42560 40815 10220 20165 48585 70222 84500
                   333 58007 84620=
201605090900 AAXX 09094 67665 NIL=
201605090600 AAXX 09064 67665 42359 70815 10151 20142 48588 75652 876//
                   333 10250 20//0 58007 87707=
201605090300 AAXX 09034 67665 42980 11106 10114 20095 48572
                   333 58018=
201605090000 AAXX 09004 67665 42980 01307 10119 20091 48572
                   333 58021=
201605082100 AAXX 08214 67665 42980 01006 10126 20099 48582
                   333 58027=
201605081800 AAXX 08184 67665 42980 01007 10154 20120 48578 70200
                   333 10250 58030=
201605081500 AAXX 08154 67665 42980 00912 10220 20157 48576 70200
                   333 58029=
201605081200 AAXX 08124 67665 42980 00912 10235 20156 48581 70200
                   333 58027=
201605080900 AAXX 08094 67665 42580 10918 10209 20141=
201605080600 AAXX 08064 67665 32980 01111 10145 20085 48582
                   333 10263 20//0 58021=
201605072100 AAXX 07214 67665 42980 01104 10126 20052 48556
                   333 58001=
201605071800 AAXX 07184 67665 42980 01105 10169 20086 48552
                   333 10263 20//0 58002=
201605071500 AAXX 07154 67665 42980 01009 10237 20099 48550
                   333 58002=
201605071200 AAXX 07124 67665 42980 00811 10242 20126 48555
                   333 59004=
201605070900 AAXX 07094 67665 42980 00711 10223 20134 48575 70200
                   333 58008=
201605070600 AAXX 07064 67665 32980 00905 10146 20090 48559 70200
                   333 10255 20//0 59008=
201605070300 AAXX 07034 67665 42980 01602 10085 20057 48541 70200
                   333 59007=
201605061800 AAXX 06184 67665 42980 01403 10151 20075 48548
                   333 59016=
201605061500 AAXX 06154 67665 42980 00609 10225 20134 48547
                   333 59016=
201605061200 AAXX 06124 67665 42980 00910 10238 20139 48559
                   333 59010=
201605060600 AAXX 06064 67665 42980 11007 10150 20115 48569 80001
                   333 10246 20//0 58002 81080=
201605060300 AAXX 06034 67665 42980 00000 10099 20076 48561
                   333 58007=
201605060000 AAXX 06004 67665 42980 00000 10115 20090 48559
                   333 58014=
201605052100 AAXX 05214 67665 42980 01204 10127 20092 48563
                   333 58020=
201605051800 AAXX 05184 67665 42980 01004 10153 20095 48559 70221
                   333 58021=
201605051500 AAXX 05154 67665 42980 41011 10217 20144 48559 70221 83061
                   333 58020 83358 81080=
201605051200 AAXX 05124 67665 NIL=
201605050900 AAXX 05094 67665 42559 10816 10218 20145 48582 81100
                   333 58021 81825=
201605050600 AAXX 05064 67665 42980 00911 10163 20133=
201605042100 AAXX 04214 67665 42980 01103 10166 20137 48552 70100
                   333 58007=
201605041800 AAXX 04184 67665 42980 11204 10180 20216 48548 81030
                   333 58004 81360=
201605041500 AAXX 04154 67665 42980 11110 10255 20162 48547 81030
                   333 58005 81360=
201605041200 AAXX 04124 67665 42680 31008 10271 20166 48548 81130
                   333 58004 81840 83360=
201605040900 AAXX 04094 67665 42580 20809 10251 20176 48566 70300 81130
                   333 59004 81825 82360=
201605040600 AAXX 04064 67665 32980 21102 10170 20128 48553 70100 82030
                   333 10280 20//0 58001 82360=
201605040300 AAXX 04034 67665 42980 31602 10126 20119 48528 70300 83030
                   333 59002 83360=
201605032100 AAXX 03214 67665 42980 21502 10168 20143 48545 70200 82030
                   333 59003 82360=
201605031800 AAXX 03184 67665 42980 41204 10186 20151 48545 70222 84030
                   333 59002 84360=
201605031500 AAXX 03154 67665 42680 41309 10237 20167 48539 70222 81131=
201605031200 AAXX 03124 67665 42680 50705 10263 20181 48543 70222 84131 333=
201605030900 AAXX 03094 67665 42980 50907 10219 20148 48566 70122 85030
                   333 58004 85360 91024=
201605030600 AAXX 03064 67665 32980 71405 10163 20146 48551 87030
                   333 10300 20//0 59002 87360=
201605030300 AAXX 03034 67665 42980 41404 10152 20135 48532 84030
                   333 59003 84360=
201605022100 AAXX 02214 67665 42980 31504 10160 20144 48546 83030
                   333 58011 83360=
201605021800 AAXX 02184 67665 42980 31104 10183 20167 48545 70122 83030
                   333 10300 58020 83360=
201605021500 AAXX 02154 67665 42980 41006 10232 20184 48538 70122 84030
                   333 58022 84360=
201605021200 AAXX 02124 67665 42680 51009 10242 20181 48544 70222 85501
                   333 58026 85630 81080=
201605020000 AAXX 02004 67665 42980 01203 10169 20114 48533
                   333 58019=
201605012100 AAXX 01214 67665 42980 01104 10187 20128 48538
                   333 58015=
201605011800 AAXX 01184 67665 42980 41503 10202 20135 48528 84030
                   333 10290 20//0 58010 84360=
201605011500 AAXX 01154 67665 42980 40907 10268 20176 48522 82031
                   333 58010 82360 82080=
201605010900 AAXX 01094 67665 42580 41011 10275 20176 48540 82131 333=

################################################################################
#  SYNOPS from 67666, Lusaka City Airport (Zambia) | 15-25-00S | 028-28-00E | 1280 m
################################################################################
201605310600 AAXX 31064 67666 42980 00908 10151 20109 48565
                   333 10239 20/// 58008 91025=
201605300600 AAXX 30064 67666 32980 00906 10153 20095 48565
                   333 10232 20/// 59008 91025=
201605270600 AAXX 27064 67666 32980 71807 10153 20113 48565 877//
                   333 10236 20/// 58011 87359 91025=
201605260600 AAXX 26064 67666 32980 71309 10165 20102 48558 70222 8703/
                   333 10241 20/// 59015 87359 91023=
201605231200 AAXX 23124 67666 42480 50911 10200 20115 48584 70222 84800
                   333 58000 84820 82625 91026=
201605230600 AAXX 23064 67666 32380 71214 10132 20116 48594 70300 876//
                   333 10210 20/// 5//// 87706 91028=
201605200900 AAXX 20094 67666 42480 70808 10181 20115 48585 878//
                   333 58005 83610 84815 91027=
201605200600 AAXX 20064 67666 32980 00907 10147 20125 48584
                   333 10223 20/// 5//// 91027=
201605190900 AAXX 19094 67666 42480 70910 10185 20156 48558 875//
                   333 58009 87618 91027=
201605190600 AAXX 19064 67666 32380 60909 10153 20117 48/// 865//
                   333 10240 20/// 5////=
201605180600 AAXX 18064 67666 32980 01012 10162 20115 48583
                   333 10251 20/// 58009 91026=
201605161200 AAXX 16124 67666 43680 30000 10245 20110 48561 82102
                   333 58006 81842 81080 91023=
201605160900 AAXX 16094 67666 43980 30908 10215 20110 48584 80002
                   333 58007 83080 91026=
201605120600 AAXX 12064 67666 32980 00909 10162 20113 48561
                   333 10230 20//0 59012 91024=
201605110600 AAXX 11064 67666 32480 40907 10150 20113 48563 84700
                   333 10210 20/// 59008 84709 91025=
201605100900 AAXX 10094 67666 NIL=
201605100600 AAXX 10064 67666 12380 71013 10140 20126 48586 69904 877//
                   333 10215 20/// 59004 87708 91027=
201605090900 AAXX 09094 67666 NIL=
201605090600 AAXX 09064 67666 32480 70912 10141 20136 48583 70222 875//
                   333 10232 20/// 58009 87610 91027=
201605060600 AAXX 06064 67666 32980 00908 10159 20109 48565
                   333 10230 20//0 58006 91025=
201605051200 AAXX 05124 67666 NIL=
201605050600 AAXX 05064 67666 32980 00908 10160 20113 48558
                   333 10270 20//0 58013 91023=
201605040600 AAXX 04064 67666 32980 20905 10205 20148 48450 82030
                   333 10265 20/// 59003 82360 91022=
201605030600 AAXX 03064 67666 32980 71006 10188 20142 48552 70322 8703/
                   333 10249 20/// 58003 87360 91022=

################################################################################
#  SYNOPS from 67667, Mount Makulu (Zambia) | 15-33S | 028-15E | 1213 m
################################################################################
201605310600 AAXX 31064 67667 32980 01005 10164 20098 48///
                   333 10240 20116 58010=
201605270600 AAXX 27064 67667 32980 70905 10150 20108 48/// 80008
                   333 10240 20108 58012 87280=
201605260600 AAXX 26064 67667 31980 60905 10173 20091 48/// 80002
                   333 10235 20148 59008=
201605240600 AAXX 24064 67667 32980 10906 10155 20096 48/// 80001
                   333 10220 20106 59014 81080=
201605231200 AAXX 23124 67667 NIL=
201605230600 AAXX 23064 67667 32580 50906 10147 20112 48/// 85500
                   333 10210 20175 58005=
201605200600 AAXX 20064 67667 NIL=
201605190600 AAXX 19064 67667 32580 50908 10155 20121 48/// 85500
                   333 10249 20124 58003 85625=
201605180600 AAXX 18064 67667 32980 00915 10179 20096 48///
                   333 10255 20110 58009=
201605161200 AAXX 16124 67667 NIL=
201605160900 AAXX 16094 67667 NIL=
201605160600 AAXX 16064 67667 32980 70906 10185 20099 48/// 80008
                   333 10275 20115 58004=
201605130600 AAXX 13064 67667 32980 00907 10175 48///
                   333 10255 20110 59008=
201605120600 AAXX 12064 67667 32980 00915 10180 20110 48///
                   333 10235 20100 59015=
201605110600 AAXX 11064 67667 32580 10907 10163 20112 48/// 81100
                   333 10252 20180 59016=
201605100900 AAXX 10094 67667 NIL=
201605090900 AAXX 09094 67667 NIL=
201605090600 AAXX 09064 67667 32580 71807 10150 20134 48/// 87500
                   333 10240 20120 58917 87620=
201605060600 AAXX 06064 67667 32980 00905 10180 20090 48///
                   333 10295 20066 58001=
201605051200 AAXX 05124 67667 NIL=
201605050600 AAXX 05064 67667 32980 10907 10210 20077 48/// 80001
                   333 10280 20116 58021=
201605040600 AAXX 04064 67667 32980 20902 10200 20152 48/// 80002
                   333 10265 20090 59004=
201605030600 AAXX 03064 67667 32980 70903 10180 20130 48/// 80007
                   333 10261 20135 58003 87280=

################################################################################
#  SYNOPS from 67673, Petauke (Zambia) | 14-15S | 031-17E | 1035 m
################################################################################
201605310600 AAXX 31064 67673 32980 01004 10170 20122 48578
                   333 10//0 20115 59011=
201605300600 AAXX 30064 67673 32584 20504 10170 20122 48588 82100
                   333 10/// 20120 59001=
201605270600 AAXX 27064 67673 32980 20903 10190 20111 48581 82030
                   333 10/// 20145 59005=
201605260600 AAXX 26064 67673 32984 60802 10194 20104 48586 86030
                   333 10/// 20128 58000=
201605240600 AAXX 24064 67673 32680 11002 10180 20128 48584 81100
                   333 10/// 20115 59003 81830=
201605231200 AAXX 23124 67673 NIL=
201605230600 AAXX 23064 67673 32680 11006 10176 20115 48584 81100
                   333 10/// 20125 59033=
201605200600 AAXX 20064 67673 32680 11208 10180 20172 48584 81100
                   333 10/// 20134 58001 81830=
201605190600 AAXX 19064 67673 32680 11203 10190 20122 48585 81100
                   333 10/// 20148 59014=
201605180600 AAXX 18064 67673 32984 00904 10104 20100 48600
                   333 10//0 20148 58008=
201605170600 AAXX 17064 67673 32984 00701 10206 20132 48594
                   333 10//0 20148 58011=
201605161200 AAXX 16124 67673 NIL=
201605160900 AAXX 16094 67673 NIL=
201605160600 AAXX 16064 67673 32980 11202 10212 20108 48584 80001
                   333 10/// 20150 58015=
201605121200 AAXX 12124 67673 42684 20501 10270 20086 48570 82100
                   333 59008 82835=
201605120600 AAXX 12064 67673 32984 03602 10216 20140 48587
                   333 10//0 20128 59015=
201605110900 AAXX 11094 67673 42684 40503 10246 20120 48598 84100
                   333 59019 84832=
201605110600 AAXX 11064 67673 32584 30902 10190 20132 48596 83100
                   333 10/// 20123 59012=
201605100900 AAXX 10094 67673 42684 30903 10220 20115 48610 83100
                   333 58021 83830=
201605100600 AAXX 10064 67673 32584 20902 10185 20120 48607 82100
                   333 10/// 20132 58025=
201605090900 AAXX 09094 67673 NIL=
201605090600 AAXX 09064 67673 31580 70000 10170 20145 48580 75022 8457/
                   333 10/// 20132 58005=
201605061200 AAXX 06124 67673 42684 40000 10250 20105 48567 84100
                   333 59007 84840=
201605060900 AAXX 06094 67673 42684 40903 10236 20108 48594 84101
                   333 58022 84835 81080=
201605060600 AAXX 06064 67673 32584 30503 10200 20115 48593 81101
                   333 10/// 20130 58030 81825=
201605051200 AAXX 05124 67673 NIL=
201605040600 AAXX 04064 67673 32980 60000 10236 20149 48560 86030
                   333 10/// 20170 59012=
201605030900 AAXX 03094 67673 42684 53602 10260 20153 48569 85131
                   333 59001 85830 84360=
201605030600 AAXX 03064 67673 32984 43601 10240 20126 48573 84030
                   333 10/// 20164 59010=

################################################################################
#  SYNOPS from 67731, Senanga (Zambia) | 16-06S | 023-16E | 1027 m
################################################################################
201605310600 AAXX 31064 67731 32980 011// 10161 20093 48///
                   333 10278 20093 59016=
201605300600 AAXX 30064 67731 32980 015// 10156 20097 48///
                   333 10255 20088 59004=
201605270600 AAXX 27064 67731 32980 029// 10157 20100 48///
                   333 10276 20111 58027=
201605260600 AAXX 26064 67731 32480 420// 10196 20127 48/// 70322 82130
                   333 10291 20127 59001=
201605240600 AAXX 24064 67731 32980 416// 10157 20099 48/// 70222 80008
                   333 10245 20103 59011 84080=
201605231200 AAXX 23124 67731 NIL=
201605230600 AAXX 23064 67731 32980 014// 10168 20088 48///
                   333 10251 20083 58038=
201605200600 AAXX 20064 67731 32980 713// 10162 20114 48/// 70322 87020
                   333 10265 20106 58006 87460=
201605190600 AAXX 19064 67731 32980 014// 10153 20105 48///
                   333 10252 20120 58006=
201605180600 AAXX 18064 67731 32980 511// 10178 20128 48/// 70300 85030
                   333 10293 20132 58005 85360=
201605170600 AAXX 17064 67731 32980 018// 10222 20105 48///
                   333 10289 20119 58002=
201605161200 AAXX 16124 67731 NIL=
201605160900 AAXX 16094 67731 NIL=
201605160600 AAXX 16064 67731 32980 027// 10210 20095 48///
                   333 10301 20149 58035=
201605130600 AAXX 13064 67731 32980 019// 10193 20127 48///
                   333 10293 20138 58025=
201605120600 AAXX 12064 67731 32980 009// 10189 20137 48///
                   333 10290 20106 59019=
201605100900 AAXX 10094 67731 NIL=
201605100600 AAXX 10064 67731 32980 001// 10198 20119 48///
                   333 10290 20111 58010=
201605090900 AAXX 09094 67731 NIL=
201605060600 AAXX 06064 67731 32980 025// 10223 20133 48/// 70000
                   333 10316 20147 58004=
201605051200 AAXX 05124 67731 NIL=
201605050600 AAXX 05064 67731 32980 005// 10225 20131 48///
                   333 10313 20152 58001=
201605040600 AAXX 04064 67731 32980 110// 10207 20130 48/// 70200 81010
                   333 10307 20133 59002=
201605030600 AAXX 03064 67731 32980 003// 10232 20//0 48///
                   333 10294 20163 58014=

################################################################################
#  SYNOPS from 67741, Sesheke (Zambia) | 17-28S | 024-18E | 949 m
################################################################################
201605310600 AAXX 31064 67741 NIL=
201605300600 AAXX 30064 67741 32980 00000 10123 20098 48555
                   333 10253 20049 59012=
201605260600 AAXX 26064 67741 32980 50000 10155 20117 48561 85040
                   333 10267 20104 59012 85362=
201605240600 AAXX 24064 67741 32980 10000 10163 20107 48582 80001
                   333 10257 20052 58009 81080=
201605231200 AAXX 23124 67741 NIL=
201605230600 AAXX 23064 67741 32980 00000 10142 20099 48587
                   333 10247 20049 59004=
201605200600 AAXX 20064 67741 32980 00802 10182 20120 48586
                   333 10273 20088 58000=
201605190600 AAXX 19064 67741 32980 00000 10137 20115 48578
                   333 10285 20062 58013=
201605180600 AAXX 18064 67741 32980 00801 10166 20132 48575
                   333 10299 20109 58006=
201605161200 AAXX 16124 67741 NIL=
201605160900 AAXX 16094 67741 NIL=
201605160600 AAXX 16064 67741 32980 00000 10169 20132 48575
                   333 10329 20083 5////=
201605110600 AAXX 11064 67741 32980 03601 10193 20129 48570
                   333 10281 20072 59021=
201605100900 AAXX 10094 67741 NIL=
201605090900 AAXX 09094 67741 NIL=
201605090600 AAXX 09064 67741 32980 00901 10151 20103 48580
                   333 10298 20065 58025=
201605060600 AAXX 06064 67741 32980 00901 10170 20130 48565
                   333 10293 20108 58007=
201605051200 AAXX 05124 67741 NIL=
201605030600 AAXX 03064 67741 32980 10000 10188 20154 48551 81030
                   333 10315 20113 58012=

################################################################################
#  SYNOPS from 67743, Livingstone (Zambia) | 17-49S | 025-49E | 985 m
################################################################################
201605310600 AAXX 31064 67743 NIL=
201605231200 AAXX 23124 67743 NIL=
201605200600 AAXX 20064 67743 NIL=
201605190600 AAXX 19064 67743 NIL=
201605161200 AAXX 16124 67743 NIL=
201605160900 AAXX 16094 67743 NIL=
201605100900 AAXX 10094 67743 NIL=
201605090900 AAXX 09094 67743 NIL=
201605051200 AAXX 05124 67743 NIL=

################################################################################
#  SYNOPS from 67751, Magoye (Zambia) | 16-00S | 027-36E | 1018 m
################################################################################
201605310600 AAXX 31064 67751 32980 01802 10166 20119 48///
                   333 10//0 20080 5////=
201605300600 AAXX 30064 67751 32980 01604 10150 20102 48///
                   333 10//0 20076 5////=
201605240600 AAXX 24064 67751 32980 10902 10137 20092 48/// 80001
                   333 10//0 20063 81080=
201605231200 AAXX 23124 67751 NIL=
201605200600 AAXX 20064 67751 32980 11105 10196 20139 48/// 70200 81070
                   333 10/// 20118 5////=
201605190600 AAXX 19064 67751 32980 01202 10166 20145 48///
                   333 10//0 20100 5////=
201605180600 AAXX 18064 67751 32980 01205 10195 20160 48///
                   333 10/// 20109 5////=
201605161200 AAXX 16124 67751 NIL=
201605160900 AAXX 16094 67751 NIL=
201605160600 AAXX 16064 67751 32980 11302 10187 20108 48/// 70200 80001
                   333 10/// 20079 5//// 81080=
201605100900 AAXX 10094 67751 NIL=
201605090900 AAXX 09094 67751 NIL=
201605051200 AAXX 05124 67751 NIL=
201605050600 AAXX 05064 67751 32980 01105 10201 20132 48///
                   333 10//0 20135 5////=

################################################################################
#  SYNOPS from 67753, Choma (Zambia) | 16-50S | 027-04E | 1213 m
################################################################################
201605310600 AAXX 31064 67753 31760 00000 10140 20114 48572 70500
                   333 10280 20066 5////=
201605300600 AAXX 30064 67753 31960 00000 10142 20102 48/// 70500
                   333 10220 20072 5////=
201605270600 AAXX 27064 67753 32560 41004 10142 20113 48572 82830
                   333 10236 20108 5//// 81620=
201605260600 AAXX 26064 67753 32960 72004 10154 20109 48/// 87070
                   333 10237 20111 5//// 87360=
201605240600 AAXX 24064 67753 32960 11106 10144 20084 48581 80001
                   333 10210 20046 59008 81080=
201605231200 AAXX 23124 67753 NIL=
201605230600 AAXX 23064 67753 32560 10514 10151 20112 48582 81100
                   333 10210 20052 58002=
201605200600 AAXX 20064 67753 11960 80000 10140 20134 48581 78082 8803/
                   333 10240 20080 5//// 88360=
201605190600 AAXX 19064 67753 31960 10000 10162 20122 48/// 70500 81030
                   333 10238 20072 5////=
201605180600 AAXX 18064 67753 32560 11001 10168 20114 48584 81100
                   333 10260 20112 59013=
201605170600 AAXX 17064 67753 31560 20000 10192 20131 48577 70500 82130
                   333 10280 20095 5////=
201605161200 AAXX 16124 67753 NIL=
201605160900 AAXX 16094 67753 NIL=
201605160600 AAXX 16064 67753 32960 10000 10178 20101 48/// 81040
                   333 10280 20105 5//// 81360=
201605110600 AAXX 11064 67753 31960 00000 10152 20106 48573 70500
                   333 10239 20065 59019=
201605100900 AAXX 10094 67753 NIL=
201605090900 AAXX 09094 67753 NIL=
201605090600 AAXX 09064 67753 31560 30816 10157 20132 48583 70500 83500
                   333 10237 20095 58013=
201605051200 AAXX 05124 67753 NIL=
201605050600 AAXX 05064 67753 31960 00907 10170 20127 48556 70500
                   333 10279 20117 58017=
201605040600 AAXX 04064 67753 32960 10000 10203 20131 48549 81030
                   333 10271 20106 59004 81360=
201605030600 AAXX 03064 67753 32960 10904 10187 20147 48548 81030
                   333 10270 20115 58004 81360=

################################################################################
#  SYNOPS from 67855, Lupaki (Zambia) | 17-03-00S | 024-46-00E | 1000 m
################################################################################
201605310600 AAXX 31064 67855 31970 01201 10106 20082 3//// 48/// 70500
                   333 20050 5////=
201605301800 AAXX 30184 67855 NIL=
201605301200 AAXX 30124 67855 NIL=
201605300600 AAXX 30064 67855 NIL=
201605291800 AAXX 29184 67855 NIL=
201605291200 AAXX 29124 67855 42675 21802 10244 20085 3//// 48/// 82100
                   333 5//// 82835=
201605290600 AAXX 29064 67855 32975 00000 10094 20060 3//// 48///
                   333 20056 5////=
201605281800 AAXX 28184 67855 NIL=
201605281200 AAXX 28124 67855 42675 41802 10214 20088 3//// 48/// 84100
                   333 5//// 84835=
201605280600 AAXX 28064 67855 31970 01801 10092 20080 3//// 48/// 70500
                   333 20063 5////=
201605271800 AAXX 27184 67855 NIL=
201605271200 AAXX 27124 67855 42675 50000 10210 20113 3//// 48/// 85232
                   333 5//// 85835=
201605270600 AAXX 27064 67855 12975 02001 10110 20102 3//// 48/// 60084
                   333 20080 5////=
201605261800 AAXX 26184 67855 NIL=
201605261200 AAXX 26124 67855 41670 70000 10202 20149 3//// 48/// 76161 8327/
                   333 5//// 83830 87458=
201605260600 AAXX 26064 67855 32975 61402 10150 20090 3//// 48/// 86030
                   333 20093 5//// 86360=
201605251800 AAXX 25184 67855 NIL=
201605251200 AAXX 25124 67855 42975 73603 10232 20073 38/// 48/// 8707/
                   333 5//// 87360=
201605250600 AAXX 25064 67855 31970 00000 10086 20046 3//// 48/// 70500
                   333 20044 5////=
201605241800 AAXX 24184 67855 NIL=
201605241200 AAXX 24124 67855 42675 23401 10246 20083 3//// 48/// 82100
                   333 5//// 82840=
201605240600 AAXX 24064 67855 31970 00000 10082 20056 3//// 48/// 70500
                   333 20040 5////=
201605231800 AAXX 23184 67855 NIL=
201605231200 AAXX 23124 67855 42675 23601 10256 20085 3//// 48/// 82130
                   333 5//// 82840=
201605230600 AAXX 23064 67855 31970 10601 10100 20079 3//// 48/// 70500 81030
                   333 20048 5//// 81360=
201605221800 AAXX 22184 67855 NIL=
201605221200 AAXX 22124 67855 42675 21201 10244 20081 3//// 48/// 82130
                   333 5//// 82840=
201605220600 AAXX 22064 67855 31970 50000 10100 20088 3//// 48/// 70522 85030
                   333 20067 5//// 85360=
201605211800 AAXX 21184 67855 NIL=
201605211200 AAXX 21124 67855 42675 30903 10228 20099 3//// 48/// 83500
                   333 5//// 83640=
201605210600 AAXX 21064 67855 31970 02001 10110 20083 38/// 48/// 70500
                   333 20064 5////=
201605201800 AAXX 20184 67855 NIL=
201605201200 AAXX 20124 67855 42975 01403 10286 20066 3//// 48///
                   333 5////=
201605200600 AAXX 20064 67855 31970 00603 10114 20096 3//// 48/// 70500
                   333 20070 5////=
201605191800 AAXX 19184 67855 NIL=
201605191200 AAXX 19124 67855 41670 50000 10262 20106 3//// 48/// 70500 85100
                   333 5//// 85840=
201605190600 AAXX 19064 67855 31970 01502 10140 20104 3//// 48/// 70500
                   333 20105 5////=
201605181800 AAXX 18184 67855 NIL=
201605181200 AAXX 18124 67855 42975 00801 10276 20053 3//// 48///
                   333 5////=
201605180600 AAXX 18064 67855 31970 00901 10132 20100 3//// 48///
                   333 20080 5////=
201605171800 AAXX 17184 67855 NIL=
201605171200 AAXX 17124 67855 41770 40000 10282 20100 3//// 48/// 70500 84130
                   333 5//// 84850=
201605170600 AAXX 17064 67855 31670 11601 10152 20103 3//// 48/// 70500 81530
                   333 20115 5//// 81625=
201605161800 AAXX 16184 67855 NIL=
201605161200 AAXX 16124 67855 41770 50602 10296 20111 3//// 48/// 70511 85200
                   333 5//// 85856=
201605160600 AAXX 16064 67855 31970 13601 10154 20108 3//// 48/// 70500 81030
                   333 20105 5//// 81360=
201605151800 AAXX 15184 67855 NIL=
201605151200 AAXX 15124 67855 42775 20203 10308 20093 3//// 48/// 82100
                   333 5//// 82850=
201605150600 AAXX 15064 67855 32975 40000 10150 20088 3//// 48/// 84030
                   333 20102 5//// 84360=
201605141800 AAXX 14184 67855 NIL=
201605141200 AAXX 14124 67855 42975 00805 10296 20094 3//// 48///
                   333 5////=
201605140600 AAXX 14064 67855 32975 00603 10174 20088 3//// 48///
                   333 20090 5////=
201605131800 AAXX 13184 67855 NIL=
201605131200 AAXX 13124 67855 NIL=
201605130600 AAXX 13064 67855 32975 00302 10124 20060 3//// 48///
                   333 20068 5////=
201605121200 AAXX 12124 67855 42775 10503 10294 20070 3//// 48/// 81100
                   333 5//// 81850=
201605120600 AAXX 12064 67855 32975 00000 10126 20075 3//// 48///
                   333 20069 5////=
201605111800 AAXX 11184 67855 NIL=
201605111200 AAXX 11124 67855 42975 01802 10286 20092 3//// 48///
                   333 5////=
201605110600 AAXX 11064 67855 32975 00000 10110 20090 3//// 48///
                   333 20070 5////=
201605101800 AAXX 10184 67855 NIL=
201605101200 AAXX 10124 67855 42675 31601 10266 20118 3//// 48/// 83100
                   333 5//// 83840=
201605100600 AAXX 10064 67855 32975 01401 10136 20120 3//// 48///
                   333 20099 5////=
201605091800 AAXX 09184 67855 NIL=
201605091200 AAXX 09124 67855 42775 10904 10282 20099 3//// 48/// 81500
                   333 5//// 81656=
201605090600 AAXX 09064 67855 32975 01801 10124 20092 3//// 48///
                   333 20089 5////=
201605081800 AAXX 08184 67855 NIL=
201605081200 AAXX 08124 67855 42975 00602 10276 20095 3//// 48///
                   333 5////=
201605080600 AAXX 08064 67855 32975 00302 10162 20090 3//// 48///
                   333 20102 5////=
201605071800 AAXX 07184 67855 NIL=
201605071200 AAXX 07124 67855 42975 00000 10290 20093 3//// 48///
                   333 5////=
201605070600 AAXX 07064 67855 32975 01801 10116 20068 3//// 48///
                   333 20065 5////=
201605061200 AAXX 06124 67855 42975 00303 10278 20117 3//// 48///
                   333 5////=
201605060600 AAXX 06064 67855 32975 00603 10144 20080 3//// 48///
                   333 20074 5////=
201605051800 AAXX 05184 67855 NIL=
201605051200 AAXX 05124 67855 42975 00702 10290 20103 3//// 48///
                   333 5////=
201605050600 AAXX 05064 67855 31970 02003 10146 20118 3//// 48///
                   333 20105 5////=
201605041800 AAXX 04184 67855 NIL=
201605041200 AAXX 04124 67855 42975 01802 10316 20095 3//// 48///
                   333 5////=
201605040600 AAXX 04064 67855 32975 00000 10146 20108 3//// 48///
                   333 20084 5////=
201605031800 AAXX 03184 67855 NIL=
201605031200 AAXX 03124 67855 42975 03303 10296 20118 3//// 48///
                   333 5////=
201605030600 AAXX 03064 67855 32975 01801 10132 20119 3//// 48///
                   333 20099 5////=
201605021800 AAXX 02184 67855 NIL=
201605021200 AAXX 02124 67855 NIL=
201605020600 AAXX 02064 67855 31970 00000 10136 20125 3//// 48/// 70500
                   333 20192 5////=
201605011800 AAXX 01184 67855 NIL=
201605011200 AAXX 01124 67855 42775 33603 10310 20108 3//// 48/// 83130
                   333 5//// 83856=
201605010600 AAXX 01064 67855 32975 00604 10174 20116 3//// 48///
                   333 20090 5////=
