################################################################################
# Query made at 04/17/2022 11:22:06 UTC
# Country like Zamb*
# Time interval: from 01/01/2008 05:30  to 01/31/2008 05:30  UTC
################################################################################

################################################################################
#  SYNOPS from 67403, Kawambwa (Zambia) | 09-48S | 029-05E | 1323 m
################################################################################
200801180600 AAXX 18064 67403 11980 70901 10186 20180 48545 60414 72162 87030
                   333 10289 20//0 58002 87362=
200801110600 AAXX 11064 67403 12980 70902 10207 20176 48537 60034 87030
                   333 10293 20/// 58002 87362=
200801020600 AAXX 02064 67403 12980 70803 10207 20184 48543 69904 87030
                   333 10275 20/// 58001 87362=

################################################################################
#  SYNOPS from 67413, Mbala (Zambia) | 08-51S | 031-20E | 1673 m
################################################################################
200801240600 AAXX 24064 67413 11480 80000 10170 20164 48532 60014 75022 885//
                   333 10220 20159 58016 88620=
200801230600 AAXX 23064 67413 12380 80000 10175 20151 48514 60574 8257/
                   333 10220 20159 59008 82610 88459=
200801221200 AAXX 22124 67413 41480 70000 10185 20177 48486 79599 8587/
                   333 5//// 81920 82610 82820 87459=

################################################################################
#  SYNOPS from 67441, Mwinilunga (Zambia) | 11-45S | 024-26E | 1361 m
################################################################################
200801300900 AAXX 30094 67441 42580 60000 10255 20188 48547 86310
                   333 58016 86325 81360=
200801290900 AAXX 29094 67441 42580 72809 10295 20185 48520 86130
                   333 58520 86130=
200801280900 AAXX 28094 67441 41380 82903 10190 20182 48520 70466 8657/
                   333 5//// 86609 88460=
200801280600 AAXX 28064 67441 11960 80000 10170 20170 48519 60374 76196 8802/
                   333 10240 20152 59001 88458=
200801251200 AAXX 25124 67441 42580 72910 10255 20180 48514 84230
                   333 58006 84825 84360=
200801250900 AAXX 25094 67441 42580 70000 10225 20180 48540
                   333 58006 82920 87360=
200801250600 AAXX 25064 67441 12480 80000 10190 20182 48537 60114 885//
                   333 10250 20165 58010 88618=
200801241200 AAXX 24124 67441 42680 73304 10285 20171 48506 86134
                   333 59002 86835 81362 81080=
200801240600 AAXX 24064 67441 12980 70602 10195 20188 48527 60064 8707/
                   333 10235 20168 58008 87360=
200801230900 AAXX 23094 67441 42580 71408 10200 20190 48522 8117/
                   333 59016 81825 87360=
200801230600 AAXX 23064 67441 32380 73004 10185 20172 48519 8663/
                   333 10285 20165 59016 86709 87360=
200801221200 AAXX 22124 67441 42680 73604 10281 20174 48497 82235
                   333 59024 82835 82362 84080=
200801210600 AAXX 21064 67441 12480 72905 10195 20187 48543 60034 8117/
                   333 10280 20168 5//// 81815 87360=
200801180600 AAXX 18064 67441 12980 60000 10184 20174 48540 69904 86030
                   333 10272 20160 59009 86360=
200801170900 AAXX 17094 67441 41680 70000 10235 20191 48552 8413/
                   333 58013 84830 87360=
200801160600 AAXX 16064 67441 12980 70000 10185 20170 48536 60064 8703/
                   333 10275 20185 58001 87360=
200801151200 AAXX 15124 67441 42680 41804 10256 20172 48508 83230
                   333 59025 83835 82362=
200801150600 AAXX 15064 67441 12980 70000 10185 20172 48535 69904 8703/
                   333 10270 20158 59010 87360=
200801111200 AAXX 11124 67441 42680 73304 10266 20193 48506 84230
                   333 59005 84845 85362=
200801110600 AAXX 11064 67441 12380 80000 10185 20177 48524 60064 887//
                   333 10285 20158 5//// 88709=
200801100900 AAXX 10094 67441 42580 70000 10230 20193 48525 86130
                   333 5//// 85825 82360=
200801040900 AAXX 04094 67441 42580 73601 10245 20185 48547 8613/
                   333 58007 86825 87360=
200801021200 AAXX 02124 67441 41680 72707 10275 20181 48509 72992 84252
                   333 5//// 81940 84840 85362 81080=
200801020900 AAXX 02094 67441 41680 63403 10255 20188 48536 84134
                   333 5//// 84830 81362 81080=
200801020600 AAXX 02064 67441 12580 70000 10180 20172 48539 69904 8113/
                   333 10295 20150 58009 81820 87360=

################################################################################
#  SYNOPS from 67461, Mansa (Zambia) | 11-06S | 028-51E | 1382 m
################################################################################
200801290900 AAXX 29094 67461 41575 73304 10252 20171 48506 70422 82538
                   333 58020 83824 81624 84360=
200801280600 AAXX 28064 67461 12580 70000 10188 20179 48497 60244 8257/
                   333 10255 20160 59004 82620 87461=
200801241200 AAXX 24124 67461 41575 73602 10235 20182 48484 71792 8197/
                   333 59001 81930 84830 87462=
200801240600 AAXX 24064 67461 32380 10195 20180 48509 8357/
                   333 10255 20165 58016 83606 87461=
200801190600 AAXX 19064 67461 12480 80801 10201 20173 48496 60024 8152/
                   333 10280 20166 59018 81620 88460=
200801161200 AAXX 16124 67461 41680 62702 10244 20183 48506 71592 85238
                   333 58021 81930 85830 81362 86280=
200801160600 AAXX 16064 67461 11465 80901 10182 20175 48523 60074 76262 8357/
                   333 10280 20167 58008 83610 88461=
200801151200 AAXX 15124 67461 41575 73502 10241 20171 48480 71796 84232
                   333 59019 81930 83830 87360 82080=
200801150600 AAXX 15064 67461 12480 70801 10198 20178 48512 60044 85131
                   333 10276 20187 59011 85812 86360 82080=
200801110600 AAXX 11064 67461 12480 70000 10198 20182 48505 60054 8157/
                   333 10270 20165 58007 81618 87362=
200801100900 AAXX 10094 67461 41478 81806 10176 20166 48513 71795 885//
                   333 58008 819// 88610=
200801040900 AAXX 04094 67461 42680 70000 10256 20181 48523 8373/
                   333 58012 83830 87462=
200801020900 AAXX 02094 67461 42680 70801 485// 8327/
                   333 59006 83830 87362=
200801020600 AAXX 02064 67461 70000 10215 20192 48507 60024 8157/
                   333 10260 20158 59011 81620 87362=

################################################################################
#  SYNOPS from 67475, Kasama (Zambia) | 10-13S | 031-08E | 1382 m
################################################################################
200801300900 AAXX 30094 67475 41475 81405 10176 20168 48521 8257/
                   333 58023 88460=
200801280600 AAXX 28064 67475 12480 80304 10180 20172 48510 60284 8157/
                   333 10252 20159 5//// 81610 88460=
200801250900 AAXX 25094 67475 42580 72410 10246 20190 48512 85230
                   333 58002 85820 87360=
200801250600 AAXX 25064 67475 11475 70000 10200 20188 48513 60044 72842 8157/
                   333 10265 20171 58000 81610 87460=
200801240600 AAXX 24064 67475 12480 73406 10192 20182 48512 60054 8257/
                   333 10256 20172 82610 87460=
200801230600 AAXX 23064 67475 12480 73312 10187 20176 48501 60294 8357/
                   333 10288 20164 5//// 83618 87460=
200801210600 AAXX 21064 67475 12480 71207 10198 20178 48515 60034 81632
                   333 10274 20159 5//// 81610 84360 87080=
200801160600 AAXX 16064 67475 11475 71806 10185 20172 48522 60314 72584 8257/
                   333 10282 20167 58005 82610 87460=
200801150600 AAXX 15064 67475 12480 71404 10188 20173 48517 69914 875//
                   333 10278 20160 59010 87610=
200801110600 AAXX 11064 67475 12480 70403 10198 20183 48513 60154 84532
                   333 10257 20164 58008 84612 87280=
200801100900 AAXX 10094 67475 42580 71503 10218 20184 48510 8457/
                   333 58006 84620 87360=
200801090900 AAXX 0909/ 67475 42580 60409 10250 20182 48505 82130
                   333 59012 82820 86361=
200801040900 AAXX 04094 67475 42680 83601 10270 20182 48541 8557/
                   333 58032=
200801020900 AAXX 02094 67475 42680 60904 10255 20183 48516 83130
                   333 59007 83840 86361=
200801020600 AAXX 02064 67475 12480 70904 10210 20177 48521 69904 8217/
                   333 10250 20166 59009 81810 87460=

################################################################################
#  SYNOPS from 67476, Misamfu (Zambia) | 10-06S | 031-15E | 1536 m
################################################################################
200801240600 AAXX 24064 67476 11379 83502 10195 20186 48/// 60064 72166 8267/
                   333 10264 20175 58011 82706 88460=
200801180600 AAXX 18064 67476 12980 70000 10202 20176 60074 8707/
                   333 10271 20162 59005 87360=
200801110600 AAXX 11064 67476 12480 70000 10194 20180 60054 86530
                   333 10261 20164 58009 86619 87360=

################################################################################
#  SYNOPS from 67477, Mpika (Zambia) | 11-54S | 031-26E | 1400 m
################################################################################
200801160600 AAXX 16064 67477 11380 72404 10170 20170 48524 60264 72162 8567/
                   333 10265 20154 59005 85707 87460=

################################################################################
#  SYNOPS from 67481, Isoka (Zambia) | 10-07S | 032-38E | 1360 m
################################################################################
200801240600 AAXX 24064 67481 11980 80000 10168 20166 60314 72162 8807/
                   333 10280 20154 58024 88360=
200801230600 AAXX 23064 67481 12380 60602 10196 20184 60034 83632
                   333 10290 20173 59020 83709 84360 85080=
200801151200 AAXX 15124 67481 41680 42101 10257 20177 48/// 71521 84202
                   333 5//// 81933 84833 81080=

################################################################################
#  SYNOPS from 67531, Zambezi (Zambia) | 13-32S | 023-07E | 1077 m
################################################################################
200801300900 AAXX 30094 67531 42580 73603 10264 20192 48/// 86107
                   333 59015 86829 85281=
200801280900 AAXX 28094 67531 42580 73604 10251 20198 48/// 878//
                   333 5//// 85822 83622=
200801280600 AAXX 28064 67531 11380 70903 10190 20184 48/// 60274 72996 8362/
                   333 10228 20171 59013 83706 87460=
200801250900 AAXX 25094 67531 42580 70306 10252 20183 48/// 8253/
                   333 58012 82628 87362=
200801240600 AAXX 24064 67531 12380 70301 10209 20199 48/// 60074 83638
                   333 10256 20189 58006 83707 82361 87380=
200801230900 AAXX 23094 67531 42480 83605 10230 20195 48/// 8252/
                   333 5//// 82615 88460=
200801230600 AAXX 23064 67531 11380 73604 10196 20184 48/// 60014 70362 8162/
                   333 10308 20181 59019 81706 87460=
200801210600 AAXX 21064 67531 11380 70601 10195 20189 48/// 60064 70262 8367/
                   333 10304 20181 58004 83706 87360=
200801190600 AAXX 19064 67531 12380 70000 10196 20187 48/// 60024 8567/
                   333 10220 20171 59013 85707 97360=
200801180600 AAXX 18064 67531 11380 70000 10201 20194 48/// 60024 72162 8267/
                   333 10297 20180 58000 82707 87360=
200801170900 AAXX 17094 67531 42680 33603 10275 20187 48/// 83102
                   333 58014 83837 81082=
200801160600 AAXX 16064 67531 11480 70903 10206 20185 48/// 60064 70362 8117/
                   333 10280 20177 59002 81810 87360=
200801150600 AAXX 15064 67531 11365 80601 10190 20188 48/// 60014 76265 8672/
                   333 10270 20185 59010 86707 88460=
200801110600 AAXX 11064 67531 12980 20402 10225 20196 48/// 69904 8107/
                   333 10300 20183 58013 81362 82082=
200801100900 AAXX 10094 67531 42680 60604 10266 20194 48/// 86200
                   333 59001 86830=
200801040900 AAXX 04094 67531 41480 70603 10215 20193 48/// 8252/
                   333 58009 82610 87460=
200801020600 AAXX 02064 67531 12980 73404 10205 20192 48/// 60064 8702/
                   333 10272 20186 58000 87460=

################################################################################
#  SYNOPS from 67551, Solwezi (Zambia) | 12-11S | 026-23E | 1386 m
################################################################################
200801251200 AAXX 25124 67551 41580 73104 10228 20189 48495 71796 84238
                   333 58011 81922 84822 86362 85282=
200801240600 AAXX 24064 67551 12380 70000 10183 20177 48502 60014 8467/
                   333 10250 20171 58019 84608 87362=
200801230600 AAXX 23064 67551 11365 70000 10176 20174 48495 60134 76166 8477/
                   333 10286 20170 59016 84709 87362=
200801110600 AAXX 11064 67551 12982 70000 10175 20173 48510 60254 8707/
                   333 10257 20164 58011 87362=

################################################################################
#  SYNOPS from 67561, Ndola (Zambia) | 13-00S | 028-39E | 1269 m
################################################################################
200801300900 AAXX 30094 67561 42480 71106 10227 20165 48518 70362 8123/
                   333 58018 81818 87360=
200801280600 AAXX 28064 67561 11370 70000 10181 20173 48495 60184 72162 8477/
                   333 10233 20166 58000 84706 87459=
200801250900 AAXX 25094 67561 42680 73504 10250 20190 48510 86230
                   333 58012 86830 83361=
200801241200 AAXX 24124 67561 41680 70000 10214 20191 48474 72582 85238
                   333 58000 81930 85830 86361 86280=
200801240600 AAXX 24064 67561 12380 70000 10200 20186 48502 60384 82630
                   333 10268 20178 58008 82708 87361=
200801230600 AAXX 23064 67561 32472 60000 10195 20187 48493 86500
                   333 10275 20171 59020 86610=
200801210600 AAXX 21064 67561 12780 70000 10198 20187 48520 69904 72162 8267/
                   333 10259 20171 58004 82705 87459=
200801190600 AAXX 19064 67561 12480 70000 10186 20174 48513 60014 875//
                   333 10279 20170 59011 87510=
200801181200 AAXX 18124 67561 42680 70000 10255 20171 48491 84238
                   333 59010 84830 83361 86280=
200801160600 AAXX 16064 67561 11265 80503 10180 20173 48523 60084 76162 8577/
                   333 10282 20173 58012 85703 88459=
200801151200 AAXX 15124 67561 42680 60102 10254 20183 48485 86231
                   333 59015 81935 86361 81080=
200801110600 AAXX 11064 67561 11257 81906 10184 20178 48519 69944 76162 8777/
                   333 10275 20181 58010 87703 88459=
200801040600 AAXX 04064 67561 11365 70605 10191 20185 48521 60184 70522 8667/
                   333 10235 20178 58007 87461=
200801031200 AAXX 03124 67561 41570 72603 10221 20189 48499 70562 8427/
                   333 58013 84825 87461=
200801030600 AAXX 03064 67561 11220 82707 10196 20193 48515 60054 76022 8567/
                   333 10264 20182 59005 85703 88460=
200801020600 AAXX 02064 67561 11460 70000 10212 20188 48520 69904 70522 86230
                   333 10270 20180 58002 86810 87360=

################################################################################
#  SYNOPS from 67563, Kafironda (Zambia) | 12-36S | 028-07E | 1243 m
################################################################################
200801241200 AAXX 24124 67563 41580 73506 10201 20212 48490 72522 86238
                   333 58024 86835 83362 87280=
200801240600 AAXX 24064 67563 12380 83002 10205 20190 48/// 60014 8357/
                   333 10245 20182 58009 83703 87358=
200801230900 AAXX 23094 67563 42580 71813 10235 20170 48/// 87201
                   333 59014 87825 81080=
200801230600 AAXX 23064 67563 11480 72703 10213 20190 48/// 60054 72166 875//
                   333 10268 20188 59018 87612=
200801221200 AAXX 22124 67563 41580 72104 10222 20170 48/// 71792 84933
                   333 5//// 81928 84828 84360 82080=
200801180600 AAXX 18064 67563 11350 80601 10184 20180 48/// 60294 76162 8472/
                   333 10280 20187 84709 85360=
200801161200 AAXX 16124 67563 42580 70702 10252 20190 48/// 84331
                   333 58013 81925 84825 83360 83080=
200801151200 AAXX 15124 67563 41680 62701 10222 20190 48/// 71522 84330
                   333 59015 81932 84832 84362=
200801110600 AAXX 11064 67563 12480 71802 10203 20190 48/// 60014 84530
                   333 10247 20180 58010 84612 85358=
200801090900 AAXX 09094 67563 42580 70702 10259 20190 48/// 83130
                   333 59005 83828 86360=

################################################################################
#  SYNOPS from 67571, Serenje (Zambia) | 13-14S | 030-13E | 1384 m
################################################################################
200801300900 AAXX 30094 67571 41470 80602 10189 20179 48521 76366 885//
                   333 58022 88619=
200801240600 AAXX 24064 67571 12482 82708 10190 20179 48501 60024 885//
                   333 10250 20177 58009 88618=
200801180600 AAXX 18064 67571 12484 73204 10205 20181 48522 60104 83241
                   333 10278 20172 59007 83818 86360 85080=
200801170900 AAXX 17094 67571 41484 62706 10241 20179 48513 71799 86200
                   333 59007 81917 86820=
200801161200 AAXX 16124 67571 42484 71803 10260 20171 48494 85231
                   333 58016 81920 85825 83360 84080=
200801151200 AAXX 15124 67571 41884 72703 10237 20174 48473 71799 82938
                   333 59027 819// 82820 82360 87280=
200801090900 AAXX 09094 67571 41580 83602 10185 20169 48501 885//
                   333 59014 88623=

################################################################################
#  SYNOPS from 67580, Msekera (Zambia) | 13-39S | 032-34E | 1025 m
################################################################################
200801300900 AAXX 30094 67580 41960 82703 10201 20195 48/// 76166 8807/
                   333 58009 88459=
200801251200 AAXX 25124 67580 41680 71804 10243 20199 48/// 71522 81978
                   333 59004 81935 86362 87280=
200801241200 AAXX 24124 67580 41570 83604 10210 20203 48/// 79596 8297/
                   333 58024 82920 87260=
200801240600 AAXX 24064 67580 12984 70000 10231 20199 48/// 60014 8707/
                   333 10287 20183 58012 87460=
200801230900 AAXX 23094 67580 41682 73604 19274 29292 48/// 71522 85237
                   333 59024 81935 84840 87280=
200801230600 AAXX 23064 67580 12480 70000 10249 20213 48/// 60074 81138
                   333 10257 20198 59028 81815 81360 87280=
200801221200 AAXX 22124 67580 41680 71203 10218 20201 48/// 72996 8197/
                   333 59008 81930 87460=
200801190600 AAXX 19064 67580 12480 81804 10213 20199 48/// 60044 8117/
                   333 10263 20191 59001 82815 88460=
200801180600 AAXX 18064 67580 11584 70000 10225 20203 48///
                   333 10//0 20//0 60174=
200801161200 AAXX 16124 67580 42684 50000 10274 20178 48/// 82138
                   333 58012 82840 81362 85280=
200801151200 AAXX 15124 67580 41684 61204 10281 20186 48/// 71902 82208
                   333 59022 82840 86280=
200801090900 AAXX 09094 67580 42682 73603 10263 20194 48/// 82238
                   333 59007 82832 81362 87280=
200801040900 AAXX 04094 67580 41680 73603 10237 20192 48/// 8127/
                   333 58022 81830 87460=
200801021200 AAXX 02124 67580 41680 72707 10273 20197 48/// 872//
                   333 5//// 81935 87840=
200801020900 AAXX 02094 67580 42682 61802 10277 20191 48/// 85231
                   333 5//// 85835 83362 81080=
200801020600 AAXX 02064 67580 32582 70000 10230 10264 20173 59008 81825 85362 82080=

################################################################################
#  SYNOPS from 67581, Chipata (Zambia) | 13-33S | 032-35E | 1028 m
################################################################################
200801300900 AAXX 30094 67581 41460 83006 10202 48522 76062 8757/
                   333 58012 87610 88460=
200801300600 AAXX 30064 67581 11380 73003 10217 20203 48525 60024 71522 8677/
                   333 10275 20189 59001 86706 87460=
200801280600 AAXX 28064 67581 11580 80502 10205 20192 48502 60164 72166 8357/
                   333 10237 20182 58004 83625 88460=
200801250900 AAXX 25094 67581 42480 72708 10246 20198 48502 8153/
                   333 58009 81612 87461=
200801241200 AAXX 24124 67581 41360 83105 10205 20201 48491 76166 8777/
                   333 58030 87706 88460=
200801240600 AAXX 24064 67581 12584 73603 10227 20202 48507 60024 8113/
                   333 10285 20180 58014 81820 87360=
200801230900 AAXX 23094 67581 42684 73605 10280 20202 48497 86232
                   333 59024 86840 81362 83080=
200801230600 AAXX 23064 67581 32684 70903 10250 20204 48498 81138
                   333 10260 20182 59025 81830 84362 85280=
200801221200 AAXX 22124 67581 42682 71105 10235 20204 48484 81238
                   333 59013 81830 81362 87280=
200801210600 AAXX 21064 67581 11480 70000 10210 20202 48525 60034 76062 8157/
                   333 10295 20195 59001 81612 87461=
200801190600 AAXX 19064 67581 11480 71202 10214 20200 48522 60044 76062 8157/
                   333 10283 20195 58001 81614 87461=
200801170900 AAXX 17094 67581 42684 70203 10270 20170 48528 84238
                   333 59003 81360 84835 81362 87280=
200801150600 AAXX 15064 67581 12584 70703 10235 20198 48524 60104 86130
                   333 10275 20191 59010 86823 84361=
200801110600 AAXX 11064 67581 12484 70803 10224 20196 48523 60034 8117/
                   333 10295 20200 58012 81818 87460=
200801020600 AAXX 02064 67581 11580 60000 10209 20196 48520 60044 72844 81132
                   333 10252 20174 59010 81820 83360 83080=

################################################################################
#  SYNOPS from 67583, Lundazi (Zambia) | 12-17S | 033-12E | 1143 m
################################################################################
200801300900 AAXX 30094 67583 42680 70904 10229 20189 48/// 8557/
                   333 85635 87460=
200801251200 AAXX 25124 67583 42680 70902 10272 20191 48/// 85402
                   333 59006 87845 84080=
200801241200 AAXX 24124 67583 41675 80201 10211 20188 48/// 76062 81537
                   333 58019 81635 81360 87280=
200801240600 AAXX 24064 67583 11670 83602 10195 20189 60234 76362 8557/
                   333 10250 20190 58020 85630 87460=
200801230900 AAXX 23094 67583 41680 71804 10260 20202 72162 87830
                   333 59011 86638 81840 81360=
200801230600 AAXX 23064 67583 12980 73001 10215 20193 48/// 69904 83038
                   333 10280 20195 59012 83360 86280=
200801221200 AAXX 22124 67583 42680 40304 10277 20189 48/// 82132
                   333 59017 82840 81361 83080=
200801170900 AAXX 17094 67583 42680 72101 10252 20183 82138 48///
                   333 58005 82840 81360 86280=
200801151200 AAXX 15124 67583 42680 43603 10232 20181 48/// 82831
                   333 59018 82840 81360 82080=
200801040900 AAXX 04094 67583 41675 80104 10211 20195 48/// 78086 8457/
                   333 58032 84040 87460=
200801021200 AAXX 02124 67583 41680 52404 10282 20184 48/// 71522 84232
                   333 5//// 81945 83845 82360 82080=
200801020900 AAXX 02094 67583 42680 61702 10275 20189 48/// 85231
                   333 5//// 85840 84360 81080=

################################################################################
#  SYNOPS from 67599, Mfuwe (Zambia) | 13-16S | 031-56E | 568 m
################################################################################
200801300900 AAXX 30094 67599 41480 73304 10265 20207 48544 76122 8287/
                   333 58014 82615 819// 86460=
200801280900 AAXX 28094 67599 42480 80000 10244 20215 48508 8457/
                   333 58002 84615 88460=
200801280600 AAXX 28064 67599 12380 80000 10225 20212 48510 60034 8777/
                   333 10275 20161 58000 83709 88460=
200801251500 AAXX 25154 67599 41680 71805 10269 20221 48487 71722 82938
                   333 59004 82935 85360 87280=
200801251200 AAXX 25124 67599 42680 70000 10303 20220 48511 82938
                   333 59008 82932 82832 85360 87280=
200801250600 AAXX 25064 67599 12380 70000 10230 20216 48524 60164 8377/
                   333 10290 20170 58013 83709 87460=
200801241200 AAXX 24124 67599 42480 83303 10270 20213 48509 8457/
                   333 58030 84615 829// 87460=
200801240600 AAXX 24064 67599 12380 70000 10240 20226 48516 70322 875//
                   333 10330 20170 58012 87608=
200801230900 AAXX 23094 67599 12480 60000 10235 20225 48512 83232
                   333 59025 83825 84360 82080=
200801230600 AAXX 23064 67599 12480 60000 10240 20217 48505 60014 82130
                   333 10299 20165 59024 82810 86360=
200801190600 AAXX 19064 67599 12380 70000 10225 20210 48523 60074 877//
                   333 10320 20170 59003 87707=
200801181200 AAXX 18124 67599 41580 73004 10315 20216 48514 71722 819//
                   333 59008 81925 87830=
200801180900 AAXX 18094 67599 42580 43603 10300 20222 48540 70322 84200
                   333 59006 84825=
200801180600 AAXX 18064 67599 32980 40000 10240 20211 48500 82037
                   333 10340 20160 59007 82360 84280=
200801170600 AAXX 17064 67599 32480 60000 10245 20216 48539 81132
                   333 10325 20180 59002 81810 83360 85080=
200801161200 AAXX 16124 67599 42680 50000 10290 20222 48507 83132
                   333 58014 81935 83835 83360 82080=
200801160600 AAXX 16064 67599 32480 71004 10239 20211 48541 8353/
                   333 10334 20179 58009 83610 87360=
200801151200 AAXX 15124 67599 42680 50000 10315 20224 48510 83132
                   333 59025 82937 83838 83080=
200801110600 AAXX 11064 67599 12480 70000 10235 20214 48530 60014 81132
                   333 10256 20171 58008 81810 85360 86080=
200801101200 AAXX 10124 67599 42580 70000 10240 20212 48512 72162 8527/
                   333 58027 85820 87460=
200801100900 AAXX 10094 67599 41459 80000 10220 20213 48523 76166 8557/
                   333 58012 85612 88460=
200801030900 AAXX 03094 67599 42580 60000 10296 20228 48530 81932
                   333 59013 819// 82825 83360 84080=
200801021200 AAXX 02124 67599 42680 60000 10320 20214 48516 81930
                   333 59017 81930 83830 82360=
200801020900 AAXX 02094 67599 42580 50000 10295 20225 48542 83230
                   333 59015 83825 83360=
200801020600 AAXX 02064 67599 12480 60000 10240 20217 48531 69904 70322 81130
                   333 10302 20175 59012 81812 85360=

################################################################################
#  SYNOPS from 67633, Mongu (Zambia) | 15-15S | 023-09E | 1052 m
################################################################################
200801300900 AAXX 30094 67633 42682 70802 10272 20178 48506 81132
                   333 58015 81840 83360 87280=
200801290900 AAXX 29094 67633 42582 73310 10262 20189 48490 84238
                   333 58014 84820 83361 86280=
200801280900 AAXX 28094 67633 42582 73607 10224 20193 48471 88532
                   333 58000 83620=
200801280600 AAXX 28064 67633 11380 83601 10194 20188 48470 60134 76066 8277/
                   333 10235 20183 59001 82707 88360=
200801251200 AAXX 25124 67633 42682 63610 10286 20190 48475 84238
                   333 58010 81930 83830 81360 85280=
200801250900 AAXX 25094 67633 42582 73014 10258 20193 48500 85832
                   333 58019 82825 83630 86361 82080=
200801241200 AAXX 24124 67633 42682 63310 10275 20192 48464 84202
                   333 59023 81940 83840 86280=
200801240600 AAXX 24064 67633 12582 63608 10240 20191 48482 60034 82130
                   333 10280 20200 59011 82820 85360=
200801230600 AAXX 23064 67633 32482 70906 10230 20204 48487 70322 84538
                   333 10308 20215 59011 84615 86360 87280=
200801221200 AAXX 22124 67633 42682 63607 10286 20196 48490 86238
                   333 59011 81930 82835 81361 86280=
200801210600 AAXX 21064 67633 12980 73601 10206 20189 48501 60054 8707/
                   333 10279 20188 59005 87460=
200801180600 AAXX 18064 67633 12582 73601 10217 20198 48515 60064 84532
                   333 10312 20188 58013 84620 85360 83080=
200801170900 AAXX 17094 67633 42682 53011 10275 20188 48514 85230
                   333 58003 85830 84360=
200801161200 AAXX 16124 67633 42682 43607 10285 20179 48485 84232
                   333 59020 81940 83840 81361 82080=
200801160600 AAXX 16064 67633 11382 70804 10206 20197 48502 60024 72166 86778
                   333 10250 20194 58001 86709 87460 86280=
200801150600 AAXX 15064 67633 12980 70904 10205 20190 48495 60074 8708/
                   333 10288 20185 59017 87360=
200801110600 AAXX 11064 67633 12982 70809 10195 20193 48489 60014 8708/
                   333 10320 20195 58009 87360=
200801021200 AAXX 02124 67633 42582 80707 10235 20206 48488 8482/
                   333 58020 84820 83625 88460=
200801020600 AAXX 02064 67633 11980 83604 10197 20193 48595 60364 76366 8803/
                   333 10272 20193 58011 88460=

################################################################################
#  SYNOPS from 67641, Kaoma (Zambia) | 14-48S | 024-48E | 1213 m
################################################################################
200801251200 AAXX 25124 67641 42682 82708 10279 20191 48480 84202
                   333 58005 81940 83845 82080=
200801250900 AAXX 25094 67641 42682 72701 10238 20190 48495 85530
                   333 58018 82830 83635 84361=
200801230600 AAXX 23064 67641 11582 80401 10185 20177 48484 60044 76066 8257/
                   333 10307 20184 58014 82620 87460=
200801210600 AAXX 21064 67641 12582 70701 10196 20188 48503 6//// 83530
                   333 10299 20180 5//// 83620 86360=
200801160600 AAXX 16064 67641 12982 53601 10199 20179 48497 60044 83032
                   333 10257 20185 59001 83360 82080=
200801110600 AAXX 11064 67641 12582 70401 10195 20187 48488 60104 84530
                   333 10270 20186 58011 84620 86360=
200801020600 AAXX 02064 67641 12582 70401 10200 20185 48490 60224 82532
                   333 10258 20185 58006 82620 86360 82080=

################################################################################
#  SYNOPS from 67655, Mumbwa (Zambia) | 15-04S | 027-11E | 1216 m
################################################################################
200801040900 AAXX 04094 67655 42480 83001 10251 20194 48523 85174
                   333 59004 85817 84257 84077=

################################################################################
#  SYNOPS from 67659, Kafue Polder (Zambia) | 15-46S | 027-55E | 978 m
################################################################################
200801241200 AAXX 24124 67659 42580 80000 10249 20205 48/// 875//
                   333 5//// 87620=
200801240600 AAXX 24064 67659 12580 80000 10225 20205 48/// 69904 8557/
                   333 19331 20//0 58003 85630 87460=
200801190600 AAXX 19064 67659 12480 80000 10216 20192 48/// 60084 877//
                   333 10273 20//0 59002 87615=
200801151200 AAXX 15124 67659 42580 70504 10256 20194 48/// 83238
                   333 59023 83825 83361 87280=
200801110600 AAXX 11064 67659 12480 70603 10228 20204 48/// 60444 8213/
                   333 10270 20/// 58010 82812 87361=
200801090900 AAXX 09094 67659 42480 83504 10242 20191 48/// 8113/
                   333 58008 81818 87361=

################################################################################
#  SYNOPS from 67663, Kabwe (Zambia) | 14-27S | 028-28E | 1206 m
################################################################################
200801240600 AAXX 24064 67663 11380 83505 10203 20189 48478 50204 72162 8468/
                   333 10286 20189 58002 84707 88460=

################################################################################
#  SYNOPS from 67665, Lusaka Internationalairport (Zambia) | 15-19S | 028-27E | 1152 m
################################################################################
200801301200 AAXX 30124 67665 42580 70000 10277 20200 48510 83231
                   333 58014 83835 85360 84080=
200801300900 AAXX 30094 67665 42570 70202 10219 20184 48525 70262 8587/
                   333 58023 81820 85620 87459=
200801300600 AAXX 30064 67665 11470 80000 10189 20181 48523 60144 76022 8777/
                   333 10281 20179 58016 87710 88459=
200801291500 AAXX 29154 67665 41680 70000 10242 20203 48481 71752 81932
                   333 58020 81950 84850 84360 85280=
200801291200 AAXX 29124 67665 42680 62403 10263 20176 48494 85232
                   333 58018 81935 84835 83360 81080=
200801281200 AAXX 28124 67665 42680 62905 10255 20189 48476 86201
                   333 59003 86835 82080=
200801280900 AAXX 28094 67665 42580 53011 10230 20183 48491 82132
                   333 59005 82820 83360 83080=
200801280600 AAXX 28064 67665 12480 70000 10198 20186 48493 60064 83530
                   333 10252 20181 59010 83612 85360=
200801280400 AAXX 28044 67665 42480 70000 10184 20//0 48484 8153/
                   333 59010 81610 87360=
200801280300 AAXX 28034 67665 42480 70000 10182 20//0 48479 82530
                   333 59003 82610 86360=
200801272100 AAXX 27214 67665 42680 60000 10196 20//0 48496 81930
                   333 59005 81940 86360=
200801271800 AAXX 27184 67665 42680 72203 10205 20//0 48485 70122 8197/
                   333 10250 59010 81930 85360 87080=
200801271500 AAXX 27154 67665 42580 72605 10246 20182 48469 71522 8197/
                   333 59010 81925 84625 82826 87460
                   555 10250=
200801270600 AAXX 27064 67665 11356 80000 10182 20179 48500 60044 76166 8677/
                   333 10247 20180 59014 86707 88459=
200801270300 AAXX 27034 67665 42160 70000 10189 20189 48433 70262 8477/
                   333 59020 84702 87359=
200801262100 AAXX 26214 67665 42680 60000 10200 20/// 48498 8197/
                   333 59015 81945 86360=
200801261200 AAXX 26124 67665 42570 72914 10231 20186 48498 8687/
                   333 59005 83620 83825 81925 87459=
200801260900 AAXX 26094 67665 41460 83303 10201 20176 48516 76166 8557/
                   333 58002 85615 88459=
200801260600 AAXX 26064 67665 11459 80000 10176 20171 48514 60174 76166 8557/
                   333 10240 20171 58002 85610 88459=
200801251800 AAXX 25184 67665 41358 80000 10200 20200 48507 70622 82637
                   333 10240 58004 82607 84360 87280=
200801251200 AAXX 25124 67665 41358 72705 10203 20203 48499 76066 8267/
                   333 58020 82710 82825 87359=
200801250600 AAXX 25064 67665 12470 70000 10203 20191 48512 71542 8577/
                   333 10251 20184 58014 85710 81815 87359=
200801241500 AAXX 24154 67665 42670 70000 10240 20203 48479 83232
                   333 58016 83845 83360 87280=
200801241200 AAXX 24124 67665 42670 70000 10235 20202 48484 85232
                   333 58004 85830 84360 86280=
200801240900 AAXX 24094 67665 41460 70000 10213 20203 48495 76162 8377/=
200801240600 AAXX 24064 67665 13609 72708 10209 20209 48499 60034 71552 8677/
                   333 10284 20192 58001 86708 81915 87359=
200801231800 AAXX 23184 67665 41770 70702 10212 20212 48484 79596 8293/
                   333 10284 59004 82950 87459=
200801231200 AAXX 23124 67665 42670 70402 10272 20190 48474 86232
                   333 59028 86840 82359 85080=
200801230900 AAXX 23094 67665 42670 70304 10251 20207 48500 87830=
200801230600 AAXX 23064 67665 32460 50000 10207 20194 48499 70342 84532
                   333 10275 20172 59021 84615 82360 85080=
200801221500 AAXX 22154 67665 42680 60806 10261 20176 48483 82232
                   333 59022 81945 81845 82360 85080=
200801221200 AAXX 22124 67665 42680 60606 10263 20175 48500 84232
                   333 59023 84830 81360 83080=
200801211800 AAXX 21184 67665 41580 60000 10214 20//0 48506 71322 81932
                   333 10286 58002 81930 82360 85080=
200801211500 AAXX 21154 67665 42580 70000 10246 20176 48501 81930
                   333 58005 81930 85830 82360=
200801211200 AAXX 21124 67665 42680 70000 10237 20193 48521 8523/
                   333 58016 81930 84832 86360=
200801210900 AAXX 21094 67665 42580 70102 10246 20192 48535 8583/
                   333 58003 83618 85822 85361=
200801201800 AAXX 20184 67665 41675 71901 10205 20203 48504 71392 81933
                   333 58001 81950 85360 83080=
200801201500 AAXX 20154 67665 41770 70709 10262 20196 48499 71792 82932
                   333 58014 82950 82850 85360 84080=
200801201200 AAXX 20124 67665 42680 71005 10271 20189 48509 86232
                   333 58004 86840 83360 82080=
200801200900 AAXX 20094 67665 42680 50000 10245 20178 47535 85231
                   333 58003 85828 81360 81080=
200801200600 AAXX 20064 67665 32480 60000 10201 20178 48532 84830
                   333 10279 20188 58009 82612 84815 85360=
200801191200 AAXX 19124 67665 42680 63401 10264 20184 48503 85232
                   333 59008 85840 83360 84080=
200801190600 AAXX 19064 67665 11360 70606 10200 20185 48524 60084 71662 85731
                   333 10252 20179 59007 85708 85359 83080
                   555 00/// 20120 91019=
200801190400 AAXX 19044 67665 41360 80705 10187 20//0 48513 75044 8473/
                   333 58001 84706 88359=
200801190300 AAXX 19034 67665 41359 70000 10186 20//0 48513 74144 8193/
                   333 59004 84705 87359=
200801182100 AAXX 18214 67665 42680 50000 10189 20//0 48513 81930
                   333 59013 81945 84360=
200801181200 AAXX 18124 67665 42570 60000 10230 20180 48508 81932
                   333 59005 81925 82825 84360 83080=
200801180900 AAXX 18094 67665 41359 83002 10193 20193 48528 79592 8197/
                   333 58009 83707 81920 83822 87359=
200801180600 AAXX 18064 67665 12370 70000 10198 20192 48528 60124 70322 8573/
                   333 10268 20174 58001 83706 81815 85620 86360=
200801180400 AAXX 18044 67665 41360 70000 10172 20156 48510 71022 81932
                   333 59011 82705 81930 85360 86080=
200801180300 AAXX 18034 67665 42660 60000 10196 20/// 48505 71322 8293/
                   333 59010 82930 86360=
200801180000 AAXX 18004 67665 42680 60000 10185 20//0 48510 70142 81930
                   333 58006 81930 85360=
200801171500 AAXX 17154 67665 41660 70000 10185 20182 48507 71796 8297/
                   333 59002 82930 87359=
200801171200 AAXX 17124 67665 41560 72503 10233 20198 48513 71796 8297/
                   333 58011 82925 84830 86359=
200801170900 AAXX 17094 67665 41560 70303 10258 20184 48528 71592 8197/
                   333 58002 81920 86825=
200801170600 AAXX 17064 67665 12670 70000 10212 20188 48521 69954 8197/
                   333 10266 20181 58005 81940 87360=
200801161200 AAXX 16124 67665 41680 60000 10242 20207 48503 71629 81932
                   333 58002 81935 84835 82080=
200801160900 AAXX 16094 67665 41570 63303 10238 20194 48524 71522 8193/
                   333 58009 81920 84825 85360=
200801160600 AAXX 16064 67665 12470 70000 10201 20186 48523 60044 875//
                   333 10258 20186 58012 87610=
200801151500 AAXX 15154 67665 41658 70000 10211 20187 48489 72192 81931
                   333 59019 81935 82835 87360 81080=
200801151200 AAXX 15124 67665 41556 72303 10199 20193 48497 76362 8583/
                   333 59028 82925 83627 86359=
200801150600 AAXX 15064 67665 12365 73402 10201 20191 48513 60244 8273/
                   333 10262 20176 59023 82707 86360=
200801141200 AAXX 14124 67665 41456 82103 10203 20195 48524 79596 8697/
                   333 58012 85618 81930 87459=
200801140900 AAXX 14094 67665 42480 73504 10251 20199 48524 70222 8653/
                   333 59001 86610 81360=
200801140600 AAXX 14064 67665 11301 80000 10191 20196 48534 60244 74544 8773/
                   333 10257 20199 58011 85710 87360=
200801121200 AAXX 12124 67665 42580 63404 10240 20187 48504 84232
                   333 58001 83828 81928 85360 82080 91016=
200801120900 AAXX 12094 67665 42580 70607 10234 20193 48522 8623/
                   333 59006 86820 87360=
200801120600 AAXX 12064 67665 11380 70804 10199 20188 48523 60034 72166 8567/
                   333 10263 20187 59001 89578 87459=
200801120400 AAXX 12044 67665 42380 80000 10191 20//0 48514 8563/
                   333 59004 85707 88360=
200801112100 AAXX 11214 67665 42780 30000 10192 20//0 48518 81930
                   333 59001 81950 83360=
200801111200 AAXX 11124 67665 42660 61403 10256 20174 48504 71666 8297/
                   333 59001 82930 93832=
200801110600 AAXX 11064 67665 12480 70904 10200 20187 48524 60214 70262 876//
                   333 10266 20184 58009 87610=
200801101200 AAXX 10124 67665 41330 70413 10198 20198 48499 76022 819//
                   333 58017 81930 87635=
200801100900 AAXX 10094 67665 42580 70808 10220 20186 48516 875//
                   333 58010 87625=
200801100600 AAXX 10064 67665 12480 80909 10195 20185 48514 60024 8557/
                   333 10279 20180 58012 85610 88360=
200801092100 AAXX 09214 67665 42680 61004 10207 20/// 48513 81932
                   333 58010 81940 83360 84080=
200801091800 AAXX 09184 67665 42680 60000 10212 20/// 48496 81932
                   333 58009 81940 84360 85080=
200801091500 AAXX 09154 67665 42680 60905 10243 20194 48480 81932
                   333 58007 81940 84360 85080=
200801091200 AAXX 09124 67665 42680 70000 10267 20182 48490 8427/
                   333 59006 91935=
200801090900 AAXX 09094 67665 42480 70000 10234 20205 48508 8117/
                   333 58001 81815 87459=
200801081800 AAXX 08184 67665 42780 70000 10208 20200 48487 83032
                   333 10259 5//// 85258 87280=
200801081500 AAXX 08154 67665 42480 70403 10230 20199 48472 83932
                   333 59005 83610 81935 83835 83360=
200801081200 AAXX 08124 67665 42580 80413 10239 20194 48553/
                   333 59002 84620 81930 86360=
200801040900 AAXX 04094 67665 42480 73508 10246 20199 48520 8657/
                   333 59005 85620 87359=
200801040600 AAXX 04064 67665 11480 70000 10201 20199 48515 60024 72122 875//
                   333 10231 20//0 59002 87610=
200801031200 AAXX 03124 67665 41560 83107 10223 20196 48506 76066 8557/
                   333 58009 85625 87460=
200801030900 AAXX 03094 67665 41460 80000 10205 20190 48519 76166
                   333 59001 82709 86459 88280=
200801030600 AAXX 03064 67665 11357 80703 10179 20179 48515 60354 76166 8377/
                   333 10282 20//0 59009 83706 88458=
200801021500 AAXX 02154 67665 42780 50000 10267 20192 48486 83201
                   333 59004 83850 84080=
200801021200 AAXX 02124 67665 42680 70000 10255 20182 48501 84232
                   333 59016 84830 83360 86280=
200801020900 AAXX 02094 67665 42460 72603 10230 20186 48521 83832
                   333 59004 82815 81616 86360 82080=
200801020600 AAXX 02064 67665 11360 70000 10189 20184 48526 60224 76066 8577/
                   333 10260 20175 58005 85706 87460 91019=
200801011500 AAXX 01154 67665 42680 70000 10243 20193 48486 81932
                   333 59002 81930 84835 81360 84080=
200801011200 AAXX 01124 67665 41480 73005 10256 20177 48502 72055 85272
                   333 58005 85815 84460 83080=
200801010900 AAXX 01094 67665 41480 80000 10202 20190 48526 70262 8567/
                   333 58015 85610 87459=

################################################################################
#  SYNOPS from 67666, Lusaka City Airport (Zambia) | 15-25S | 028-19E | 1280 m
################################################################################
200801300900 AAXX 30094 67666 42480 70604 10210 20163 48517 84570
                   333 58021 84612 83460=
200801251200 AAXX 25124 67666 41460 82703 10195 20185 48491 76162 8452/
                   333 58022 84613 82816 88460=
200801241200 AAXX 24124 67666 42580 70000 10230 20185 48473 8287/
                   333 59005 82620 84825 86460=
200801240600 AAXX 24064 67666 11360 82905 10195 20174 48492 60024 76122 887//
                   333 10270 20180 59006 88708=
200801230600 AAXX 23064 67666 32480 40807 10215 20186 48591 82531
                   333 10265 20165 59026 82610 81360 82080=
200801221200 AAXX 22124 67666 42680 60906 10255 20180 48482 85231
                   333 59038 81932 85832 81360 81080=
200801190600 AAXX 19064 67666 11470 70315 10203 20186 48512 60064 76022 85537
                   333 59005 85612 82360 87280=
200801180600 AAXX 18064 67666 11358 80908 10205 20188 48518 60064 75122 885//
                   333 10255 20174 59001 88609=
200801170900 AAXX 17094 67666 42580 70703 10245 20188 48515 85231
                   333 59001 81922 85822 81360 82080=
200801161200 AAXX 16124 67666 41680 60307 10244 20183 48491 70266 83238
                   333 58004 81935 83835 85360 86280=
200801151200 AAXX 15124 67666 41580 71904 10184 20178 48481 78082 81972
                   333 59038 81922 82822 85460 87280=
200801110600 AAXX 11064 67666 12380 70913 10190 20158 48513 60354 8777/
                   333 10241 20170 58009 86708 81460=
200801090900 AAXX 09094 67666 42480 73008 10225 20172 48501 8157/
                   333 58003 81615 87460=
200801021200 AAXX 02124 67666 42680 62807 10250 20169 48491 85231
                   333 59002 81093 85830 81360 81080=
200801020900 AAXX 02094 67666 42480 63007 10215 20169 48513 84832
                   333 59002 81617 83820 86360 82080=
200801020600 AAXX 02064 67666 11480 83404 10185 20169 48520 60314 76062 8252/
                   333 10247 20160 58006 82610 88459=

################################################################################
#  SYNOPS from 67667, Mount Makulu (Zambia) | 15-33S | 028-15E | 1213 m
################################################################################
200801300900 AAXX 30094 67667 42580 80810 10225 20186 48/// 84138
                   333 5//// 84825 83360 88280=
200801240600 AAXX 24064 67667 11480 82702 10195 20187 60344 76362 886//
                   333 10290 20//0 88715=
200801161200 AAXX 16124 67667 42680 73502 10254 20185 48/// 84203
                   333 5//// 81930 84835 86280=
200801151200 AAXX 15124 67667 41580 80000 10190 20182 48/// 76022 885//
                   333 5//// 88620=
200801110600 AAXX 11064 67667 12480 60904 10201 20174 60254 83502
                   333 10256 20/// 83618 86280=

################################################################################
#  SYNOPS from 67673, Petauke (Zambia) | 14-15S | 031-17E | 1035 m
################################################################################
200801300900 AAXX 30094 67673 42684 82804 10227 20195 48527 885//
                   333 58014 88630=
200801241200 AAXX 24124 67673 41680 73506 10201 20212 48490 72522 86238
                   333 58024 86835 83362 87280=
200801240600 AAXX 24064 67673 11570 83602 10200 20194 48505 60074 76062 8657/
                   333 10282 20196 58009 86620 88459=
200801230900 AAXX 23094 67673 42684 70204 10258 20205 48497 86232
                   333 59012 86835 81364 82080=
200801230600 AAXX 23064 67673 12584 70402 10222 20204 48499 69934 83532
                   333 10281 20186 59020 83620 84362 82080=
200801190600 AAXX 19061 67673 12480 72402 10227 20217 39267 48518 60084 82938
                   333 20204 50661 55/// 58001 70080 83710 81915
                   85358 87280 555 10263 7//96=
200801161200 AAXX 16124 67673 41682 73603 10278 20190 48507 71522 84238
                   333 58007 81945 83845 82364 86280=
200801151200 AAXX 15124 67673 41682 73504 10270 20205 48499 71522 83902
                   333 59022 83940 84840 83080=
200801110600 AAXX 11064 67673 12584 70904 10210 20189 48526 60044 8257/
                   333 10248 20186 58007 82620 87362=
200801090900 AAXX 09094 67673 42684 63406 10252 20197 48519 83232
                   333 59010 83835 83364 81080=
200801021200 AAXX 02124 67673 41682 61704 10260 20214 85232
                   333 5//// 85840 81364 81080=
200801020900 AAXX 02094 67673 41365 72006 10197 20189 48522 76162 8477/
                   333 5//// 84706 87459=
200801020600 AAXX 02064 67673 12584 73603 10232 20200 48531 69934 85532
                   333 10250 20196 58000 85626 83362 81080=

################################################################################
#  SYNOPS from 67741, Sesheke (Zambia) | 17-28S | 024-18E | 949 m
################################################################################
200801230900 AAXX 23094 67741 42680 70904 10268 20222 48/// 875//
                   333 59022 87635=

################################################################################
#  SYNOPS from 67743, Livingstone (Zambia) | 17-49S | 025-49E | 985 m
################################################################################
200801301200 AAXX 30124 67743 42675 61007 10246 20205 48507 84130
                   333 58033 84835 86360=
200801300900 AAXX 30094 67743 42575 80605 10225 20203 48517 8457/
                   333 58031 84620 88360=
200801300600 AAXX 30064 67743 11359 80000 10191 20189 48501 76166 8187/
                   333 10270 20194 58024 81707 88459=
200801291500 AAXX 29154 67743 42670 72204 10260 20194 48469 83230
                   333 58835 87361=
200801290900 AAXX 29094 67743 42560 83207 10229 20194 48475 84577
                   333 58022 84620 85460 87280=
200801280600 AAXX 28064 67743 12465 80706 10107 20198 48472 60144 75020 8557/
                   333 10220 20185 59015 85612 88460=
200801260600 AAXX 26064 67743 11359 80604 10202 20199 48503 60034 75022 8377/
                   333 10256 20195 58007 83706 87460=
200801250600 AAXX 25064 67743 11365 80907 10200 20200 48499 60254 75066 8377/
                   333 10283 20189 58014 83706 88460=
200801240600 AAXX 24064 67743 12470 83403 10208 20196 48507 69904 8487/
                   333 10284 20200 58004 82615 82845 87460=
200801231200 AAXX 23124 67743 42680 61503 10255 20212 48463 8327/
                   333 59025 83830 85460=
200801230900 AAXX 23094 67743 41570 60207 10276 20199 48491 71522 84272
                   333 59027 84825 83360 85080=
200801230600 AAXX 23064 67743 12480 51103 10233 20216 48485 60024 81582
                   333 10305 20210 59031 81615 83360 85080=
200801190600 AAXX 19064 67743 12375 70910 10213 20203 48508 69904 82638
                   333 10283 20203 59012 82710 85280=
200801181200 AAXX 18124 67743 42680 70909 10254 20198 48505 8327/
                   333 59003 83830 87461=
200801180600 AAXX 18064 67743 12370 70907 10213 20209 48520 60204 8467/
                   333 10295 20/// 58006 84709 85360=
200801170600 AAXX 17064 67743 12580 50804 10230 20216 48519 60064 82370
                   333 10271 20193 58003 82925 84360=
200801161200 AAXX 16124 67743 41570 61903 10260 20211 48497 71799 85932
                   333 59004 81930 84830 82360 83080=
200801160600 AAXX 16064 67743 12370 70804 10212 20210 48507 81630
                   333 10280 20199 59011 81708 87360=
200801151500 AAXX 15154 67743 41680 73204 10220 20205 48474 82973
                   333 59006 82940 84845 86360 82080=
200801150600 AAXX 15064 67743 11358 81011 10209 20204 48518 60014 75062 88611
                   333 10305 20190=
200801111200 AAXX 11124 67743 42680 70806 10260 20201 48497 71622 86230
                   333 58007 86835 82360=
200801110600 AAXX 11064 67743 12380 70807 10208 20199 48513 60034 8367/
                   333 10288 20195 58015 83709 87360=
200801101200 AAXX 10124 67743 42680 70203 10262 20192 48490 8527/
                   333 5//// 85835 86360=
200801100900 AAXX 10094 67743 42480 71107 10240 20202 48509 8657/
                   333 59023 86615 86360=
200801090900 AAXX 09094 67743 41559 82406 10214 20/// 48492 76022 8237/
                   333 58010 82930 83620 84830 87460=
200801081500 AAXX 08154 67743 41680 73403 10259 20196 48450 71792 84202
                   333 59021 81935 84840 85080=
200801040900 AAXX 04094 67743 41458 83110 10215 20205 48492 75822 8787/
                   333 5//// 83625 85840 87460=
200801040600 AAXX 04064 67743 12370 70503 10215 20207 48493 60074 8267/
                   333 10251 20195 82708 84840 87460=
200801031200 AAXX 03124 67743 42380 81902 10235 20221 48482 8376/
                   333 59010 83706 84615 84820 86360=
200801030900 AAXX 03094 67743 41458 80805 10232 20215 48499 75522 84571
                   333 59010 84615 87460=
200801030600 AAXX 03064 67743 11359 80905 10204 20188 48494 60214 71025 886//
                   333 10265 20191 59010 88709=
200801021200 AAXX 02124 67743 41556 80708 10207 20204 48488 79552 8293/
                   333 58021 82920 84825 86459=
200801020600 AAXX 02064 67743 12375 80505 10210 20195 48507 60204 8363/
                   333 10211 20194 59001 83708 87360=

################################################################################
#  SYNOPS from 67751, Magoye (Zambia) | 16-00S | 027-36E | 1018 m
################################################################################
200801300900 AAXX 30094 67751 42580 73609 10254 20188 48/// 8223/
                   333 59021 82825 84360 82080=
200801240600 AAXX 24064 67751 12980 80204 10201 20192 48/// 60214 8807/
                   333 10330 20186 58000 88360=
200801230900 AAXX 23094 67751 42680 70106 10265 20193 48/// 82107
                   333 5//// 72724 86280=
200801230600 AAXX 23064 67751 12980 60000 10229 20195 60174 81038
                   333 10288 20181 58027 81360 86280=
200801221200 AAXX 22124 67751 41680 71804 10226 20210 48/// 72998 84261
                   333 59005 81930 83830 83360 81080=
200801180600 AAXX 18064 67751 12980 70000 10218 20206 48/// 69964 8707/
                   333 10285 20185 59002 87360=
200801161200 AAXX 16124 67751 42680 73003 10260 20195 48/// 8121/
                   333 58009 81930 87460=
200801110600 AAXX 11064 67751 12980 70403 10227 20193 60114 84530
                   333 10269 20190 59011 84610 85360=

################################################################################
#  SYNOPS from 67753, Choma (Zambia) | 16-50S | 027-04E | 1213 m
################################################################################
200801300900 AAXX 30094 67753 41302 83607 10182 20176 48/// 76162 8577/
                   333 5//// 85708 88459=
200801280900 AAXX 28094 67753 41480 73607 10207 20190 48/// 72162 8757/
                   333 5//// 87612 87459=
200801280600 AAXX 28064 67753 11380 83605 10189 20184 48/// 60204 71522 8777/
                   333 10231 20167 5//// 87709 88459=
200801251200 AAXX 25124 67753 41480 72708 10218 20200 48/// 72162 8757/
                   333 5//// 87612 87459=
200801250900 AAXX 25094 67753 41380 83607 10201 20195 48/// 72162 8777/
                   333 5//// 87709 88459=
200801250600 AAXX 25064 67753 11305 80605 10193 20188 48/// 60324 71662 8777/
                   333 10259 20179 5//// 87708 88459=
200801241200 AAXX 24124 67753 42580 73505 10247 20186 48/// 83207
                   333 5//// 83825 87280=
200801240600 AAXX 24064 67753 32380 83604 10199 20197 48/// 8777/
                   333 20171 87708 88459=
200801230900 AAXX 23094 67753 42580 73608 10256 20194 82108
                   333 82825 87280=
200801230600 AAXX 23064 67753 12980 73806 10216 20184 60054 84038
                   333 10256 20177 84360 87280=
200801221200 AAXX 22124 67753 41556 60806 10245 20202 48/// 76062 8227/
                   333 5//// 82820 86459=
200801210600 AAXX 21064 67753 32460 50000 10210 20195 48/// 83530
                   333 10280 20180 5//// 83618 85360=
200801190600 AAXX 19064 67753 12380 80605 10191 20189 48/// 60174 8777/
                   333 10238 20167 5//// 87708 88459=
200801180600 AAXX 18064 67753 11301 83505 10198 20195 48/// 60064 79594 8777/
                   333 10266 20173 5//// 87708 88459=
200801170900 AAXX 17094 67753 41480 70605 10252 20196 71522 87208
                   333 81914 87814 85280=
200801161200 AAXX 16124 67753 41680 83605 10261 20192 48/// 70282 84202
                   333 5//// 84835 83080=
200801160600 AAXX 16064 67753 12480 33605 10197 20197 48/// 69904 83532
                   333 10264 20165 5//// 83618 82360 82080=
200801151200 AAXX 15124 67753 42680 42005 10240 20169 48/// 84222
                   333 5//// 84830 82360 83080=
200801110600 AAXX 11064 67753 11350 80605 10188 20177 48/// 69904 75852 8777/
                   333 10259 20179 87708 88459=
200801021200 AAXX 02124 67753 42580 73606 10239 20194 48/// 8787/
                   333 5//// 85620 83825 87459=
200801020900 AAXX 02094 67753 41380 83605 10199 20188 48/// 72162 8777/
                   333 5//// 87708 88459=
200801020600 AAXX 02064 67753 11360 83608 10186 20183 48/// 60234 76162 8777/
                   333 10244 20168 5//// 87708 88459=

################################################################################
#  SYNOPS from 67855, Lupaki (Zambia) | 17-03-00S | 024-46-00E | 1000 m
################################################################################
200801270600 AAXX 27064 67855 NIL=
200801270000 AAXX 27004 67855 NIL=
200801261800 AAXX 26184 67855 NIL=
200801261200 AAXX 26124 67855 NIL=
200801251200 AAXX 25124 67855 NIL=
200801250600 AAXX 25064 67855 NIL=
200801250000 AAXX 25004 67855 NIL=
200801241800 AAXX 24184 67855 NIL=
200801241200 AAXX 24124 67855 NIL=
200801240600 AAXX 24064 67855 NIL=
200801240000 AAXX 24004 67855 NIL=
200801231800 AAXX 23184 67855 NIL=
200801231200 AAXX 23124 67855 NIL=
200801230600 AAXX 23064 67855 NIL=
200801230000 AAXX 23004 67855 NIL=
200801221800 AAXX 22184 67855 NIL=
200801221200 AAXX 22124 67855 NIL=
200801220600 AAXX 22064 67855 NIL=
200801220000 AAXX 22004 67855 NIL=
200801211800 AAXX 21184 67855 NIL=
200801211200 AAXX 21124 67855 NIL=
200801200000 AAXX 20004 67855 NIL=
200801191800 AAXX 19184 67855 NIL=
200801191200 AAXX 19124 67855 NIL=
200801190600 AAXX 19064 67855 NIL=
200801190000 AAXX 19004 67855 NIL=
200801181800 AAXX 18184 67855 NIL=
200801181200 AAXX 18124 67855 NIL=
200801180600 AAXX 18064 67855 NIL=
200801180000 AAXX 18004 67855 NIL=
200801171800 AAXX 17184 67855 NIL=
200801171200 AAXX 17124 67855 NIL=
200801170600 AAXX 17064 67855 NIL=
200801170000 AAXX 17004 67855 NIL=
200801161800 AAXX 16184 67855 NIL=
200801161200 AAXX 16124 67855 NIL=
200801160600 AAXX 16064 67855 NIL=
200801151800 AAXX 15184 67855 NIL=
200801151200 AAXX 15124 67855 NIL=
200801150600 AAXX 15064 67855 NIL=
200801150000 AAXX 15004 67855 NIL=
200801141800 AAXX 14184 67855 NIL=
200801141200 AAXX 14124 67855 NIL=
200801140600 AAXX 14064 67855 NIL=
200801140000 AAXX 14004 67855 NIL=
200801131800 AAXX 13184 67855 NIL=
200801130600 AAXX 13064 67855 NIL=
200801080600 AAXX 08064 67855 NIL=
200801080000 AAXX 08004 67855 NIL=
200801071800 AAXX 07184 67855 NIL=
200801071200 AAXX 07124 67855 NIL=
200801070600 AAXX 07064 67855 NIL=
200801070000 AAXX 07004 67855 NIL=
200801061800 AAXX 06184 67855 NIL=
200801061200 AAXX 06124 67855 NIL=
200801060600 AAXX 06064 67855 NIL=
200801060000 AAXX 06004 67855 NIL=
200801051800 AAXX 05184 67855 NIL=
200801051200 AAXX 05124 67855 NIL=
200801050600 AAXX 05064 67855 NIL=
200801050000 AAXX 05004 67855 NIL=
200801041200 AAXX 04124 67855 NIL=
200801040600 AAXX 04064 67855 NIL=
200801040000 AAXX 04004 67855 NIL=
200801031800 AAXX 03184 67855 NIL=
200801031200 AAXX 03124 67855 NIL=
200801030600 AAXX 03064 67855 NIL=
200801030000 AAXX 03004 67855 NIL=
200801021800 AAXX 02184 67855 NIL=
200801021200 AAXX 02124 67855 NIL=
200801020600 AAXX 02064 67855 NIL=
200801020000 AAXX 02004 67855 NIL=
200801011800 AAXX 01184 67855 NIL=
200801011200 AAXX 01124 67855 NIL=
200801010600 AAXX 01064 67855 NIL=
