################################################################################
# Query made at 04/14/2022 03:38:31 UTC
# Country like Zamb*
# Time interval: from 10/01/2016 05:30  to 10/31/2016 06:30  UTC
################################################################################

################################################################################
#  SYNOPS from 67403, Kawambwa (Zambia) | 09-48S | 029-05E | 1323 m
################################################################################
201610280600 AAXX 28064 67403 NIL=
201610210600 AAXX 21064 67403 31975 11408 10232 20092 48530 70500 80001
                   333 10329 20176 58002 81080
                   555 00158=
201610200600 AAXX 20064 67403 31975 21206 10227 20098 48528 70500 82031
                   333 10333 20178 58003 82360 81080
                   555 00178=

################################################################################
#  SYNOPS from 67413, Mbala (Zambia) | 08-51S | 031-20E | 1673 m
################################################################################
201610280600 AAXX 28064 67413 NIL=
201610210600 AAXX 21064 67413 NIL=

################################################################################
#  SYNOPS from 67441, Mwinilunga (Zambia) | 11-45S | 024-26E | 1361 m
################################################################################
201610310600 AAXX 31064 67441 11970 32801 10195 20154 48546 60014 70511 83030
                   333 10340 20195 58005 83360
                   555 00145=
201610280600 AAXX 28064 67441 31965 50000 10210 20176 48556 70522 8503/
                   333 10330 20200 58031 85360
                   555 00150=
201610270600 AAXX 27064 67441 31970 20301 10205 20158 48527 70511 82030
                   333 10330 20190 58009 82360
                   555 00140=
201610260600 AAXX 26064 67441 11965 42901 10190 20158 48517 60094 70511 84001
                   333 10325 20165 59008 84280
                   555 00145=
201610210600 AAXX 21064 67441 31965 33201 10210 20094 48556 70511 80001
                   333 10330 20140 58001 83280
                   555 00140=
201610200600 AAXX 20064 67441 31960 40301 10195 20164 48556 70511 80001
                   333 10335 20200 58008 84280
                   555 00150=

################################################################################
#  SYNOPS from 67461, Mansa (Zambia) | 11-06S | 028-51E | 1382 m
################################################################################
201610280600 AAXX 28064 67461 NIL=
201610250600 AAXX 25064 67461 31940 71603 10246 20103 48496 70522 80008
                   333 10356 20170 59024 87280
                   555 00/// 91016=
201610210600 AAXX 21064 67461 NIL=
201610200600 AAXX 20064 67461 31958 01507 10230 20084 48508 70500
                   333 10328 20175 59010
                   555 00150 91077=

################################################################################
#  SYNOPS from 67475, Kasama (Zambia) | 10-13S | 031-08E | 1382 m
################################################################################
201610310600 AAXX 31064 67475 11960 50000 10242 20133 48525 69914 70522 85070
                   333 10322 20175 59000 85360
                   555 00122 91020=
201610280600 AAXX 28064 67475 31960 00414 10246 20114 48534 70500
                   333 10336 20173 58016
                   555 00/// 91021=
201610250900 AAXX 25094 67475 41680 80511 10302 20093 48501 70522 80008
                   333 59013 88280 91017=
201610250600 AAXX 25064 67475 31959 80114 10246 20128 48506 70522 80008
                   333 10346 20176 59018 88280
                   555 00106 91018=
201610210600 AAXX 21064 67475 31960 00812 10240 20084 48543 70500
                   333 10328 20151 59004
                   555 00146 91022=
201610200600 AAXX 20064 67475 31960 01014 10223 20091 48546 70500
                   333 10323 20170 58005
                   555 00149 91023=
201610190900 AAXX 19094 67475 41760 30914 10286 20073 48531 70500 83100
                   333 58013 83856 91021=

################################################################################
#  SYNOPS from 67476, Misamfu (Zambia) | 10-06S | 031-15E | 1536 m
################################################################################
201610280600 AAXX 28064 67476 31978 00604 10240 20110 48/// 70500
                   333 10334 20190 58016
                   555 00149=
201610210600 AAXX 21064 67476 NIL=

################################################################################
#  SYNOPS from 67477, Mpika (Zambia) | 11-54S | 031-26E | 1400 m
################################################################################
201610310600 AAXX 31064 67477 12980 40902 10242 20110 48530 69904 83071
                   333 10329 20142 58003 83360 82080
                   555 00169=
201610280600 AAXX 28064 67477 32980 00906 10250 20160 48542
                   333 10318 20193 58027
                   555 00180=
201610270600 AAXX 27064 67477 32980 01210 10247 20130 48520
                   333 10322 20171 58010
                   555 00162=
201610260600 AAXX 26064 67477 31970 30903 10243 20140 48511 70500 80001
                   333 10340 20172 5//// 83080
                   555 00156=
201610250600 AAXX 25064 67477 32980 01206 10258 20090 48///
                   333 10334 20192 555 00169=
201610210600 AAXX 21064 67477 32980 00910 10258 20090 48///
                   333 10312 20112 5////
                   555 00129=
201610200600 AAXX 20064 67477 31970 11208 10242 20070 48551 70500 80001
                   333 10314 20149 58007 81080
                   555 00132=

################################################################################
#  SYNOPS from 67481, Isoka (Zambia) | 10-07S | 032-38E | 1360 m
################################################################################
201610280600 AAXX 28064 67481 31978 03604 10232 20128 48/// 70500
                   333 10335 20160 58015
                   555 00150=
201610270600 AAXX 27064 67481 32980 10301 10247 20130 48/// 80001
                   333 10340 20150 58016 81080
                   555 00145=
201610250600 AAXX 25064 67481 31978 43305 10246 20112 48/// 70522 80004
                   333 10320 20166 59015 84080
                   555 00130=
201610210600 AAXX 21064 67481 32980 00904 10248 20114 48///
                   333 10330 20160 5////
                   555 00135=

################################################################################
#  SYNOPS from 67531, Zambezi (Zambia) | 13-32S | 023-07E | 1077 m
################################################################################
201610280600 AAXX 28064 67531 31978 13203 10236 20166 48/// 70500 80002
                   333 10377 20196 58030 81080
                   555 00185=
201610270600 AAXX 27064 67531 11978 11302 10243 20176 48/// 60014 70500 80002
                   333 10363 20186 59002 81080
                   555 00179=
201610250600 AAXX 25064 67531 11978 30000 10250 20167 48/// 69904 70500 80002
                   333 10359 20187 59014 83081
                   555 00177=
201610210600 AAXX 21064 67531 31975 30904 10232 20099 48/// 70500 80002
                   333 10361 20161 59001 83081
                   555 00140=

################################################################################
#  SYNOPS from 67541, Kasempa (Zambia) | 13-32S | 025-51E | 1234 m
################################################################################
201610280600 AAXX 28064 67541 31970 00203 10256 20127 48522 70500
                   333 10410 20180 58025
                   555 00///=
201610270600 AAXX 27064 67541 31970 00604 10264 20103 48497 70500
                   333 10402 20214 58002
                   555 00///=
201610250600 AAXX 25064 67541 31965 70000 10217 20156 48490 70522 87030
                   333 10298 20160 59049 87360
                   555 00///=
201610210600 AAXX 21064 67541 NIL=
201610200600 AAXX 20064 67541 31965 00305 10254 20096 48535 70500
                   333 10370 20194 58016
                   555 00///=

################################################################################
#  SYNOPS from 67543, Kabompo (Zambia) | 13-36S | 024-12E | 1075 m
################################################################################
201610280600 AAXX 28064 67543 31970 10501 10234 20180 48/// 70500 80001
                   333 10382 20182 5//// 81080
                   555 00152=
201610210600 AAXX 21064 67543 31970 50000 10220 20104 48/// 70522 80007
                   333 10398 20162 5//// 85280
                   555 00110=
201610200600 AAXX 20064 67543 31970 2//// 10192 20146 48/// 70500 80005
                   333 10396 20150 5//// 82080
                   555 00120=

################################################################################
#  SYNOPS from 67551, Solwezi (Zambia) | 12-11S | 026-23E | 1386 m
################################################################################
201610280600 AAXX 28064 67551 31957 02804 10226 20188 48523 70500
                   333 10336 20175 58007
                   555 00/// 91020=
201610270600 AAXX 27064 67551 31959 00405 10241 20116 48507 70500
                   333 10338 20182 58008
                   555 00282 91019=
201610250600 AAXX 25064 67551 11958 70504 10200 20161 48497 69904 70522 87030
                   333 10348 20164 59025 87362
                   555 00241 91017=
201610210600 AAXX 21064 67551 31959 00906 10228 20098 48533 70500
                   333 10306 20153 59011 91021=
201610200600 AAXX 20064 67551 31959 01502 10221 20102 48543 70500
                   333 10333 20172 58012
                   555 00/// 91022=

################################################################################
#  SYNOPS from 67561, Ndola (Zambia) | 13-00S | 028-39E | 1269 m
################################################################################
201610280600 AAXX 28064 67561 31960 00605 10245 20100 48534 70500
                   333 10349 20190 58023
                   555 00/// 91020=
201610270600 AAXX 27064 67561 31959 30613 10248 20118 48512 70400 80002
                   333 10355 20166 58011 83080
                   555 00/// 91018=
201610210600 AAXX 21064 67561 31959 00000 10234 20088 48549 70400
                   333 10325 20141 58001
                   555 00293 91022=
201610200600 AAXX 20064 67561 31960 01212 10243 20092 48549
                   333 10331 20160 58006
                   555 00160 91022=
201610120600 AAXX 12064 67561 31960 10807 10241 20101 48548 70511 80001
                   333 10346 20159 58003 81080
                   555 00292 91022=
201610070600 AAXX 07064 67561 31959 30000 10227 20073 48511 70411 80002
                   333 10337 20143 59012 83080
                   555 00277=
201610060600 AAXX 06064 67561 31960 21009 10226 20102 48523 70500 82031
                   333 10305 20149 59010 82360 81080=
201610031200 AAXX 03124 67561 41960 71109 10310 20087 48508 70522 80008
                   333 58035 87280 555 66/// 77/// 88036 98008
                   91017=

################################################################################
#  SYNOPS from 67563, Kafironda (Zambia) | 12-36S | 028-07E | 1243 m
################################################################################
201610280600 AAXX 28064 67563 NIL=
201610210600 AAXX 21064 67563 NIL=

################################################################################
#  SYNOPS from 67571, Serenje (Zambia) | 13-14S | 030-13E | 1384 m
################################################################################
201610280600 AAXX 28064 67571 32980 00608 10256 20092 48535 70500
                   333 10330 20178 58023
                   555 00///=
201610251200 AAXX 25124 67571 42675 41208 10330 20061 48465 70500 83201
                   333 59011 83845 82081=
201610250900 AAXX 25094 67571 42675 11206 10320 20091 48496 70500 81200
                   333 59018 81837=
201610210600 AAXX 21064 67571 32960 10906 10245 20087 48514 70500 81030
                   333 10308 20170 59003 81360
                   555 00294=
201610200600 AAXX 20064 67571 32975 00908 10226 20081 48543 70500
                   333 10304 20161 5////
                   555 020273=

################################################################################
#  SYNOPS from 67575, Mkushi (Zambia) | 13-38-00S | 029-26-00E | 1237 m
################################################################################
201610310600 AAXX 31064 67575 32970 40000 10250 20128 48479 70521 81072
                   333 10350 20160 58006 81360 83080
                   555 00130=
201610280600 AAXX 28064 67575 NIL=
201610210600 AAXX 21064 67575 NIL=

################################################################################
#  SYNOPS from 67580, Msekera (Zambia) | 13-39S | 032-34E | 1025 m
################################################################################
201610280600 AAXX 28064 67580 NIL=
201610270600 AAXX 27064 67580 31980 01110 10284 20174 48/// 70500
                   333 10363 20202 58015
                   555 00192=
201610260600 AAXX 26064 67580 31975 11107 10280 20169 48/// 70500 80001
                   333 10368 20200 59003 81080
                   555 00182=
201610250600 AAXX 25064 67580 31975 70905 10285 20163 48/// 70511 80008
                   333 10356 20194 59015 87280
                   555 00182=
201610210600 AAXX 21064 67580 31975 01107 10277 20160 48/// 70500
                   333 10337 20188 59012
                   555 00181=
201610200600 AAXX 20064 67580 31975 11008 10262 20158 48/// 70500 81100
                   333 10336 20169 58003 81832
                   555 00161=
201610190900 AAXX 19094 67580 41675 61007 10272 20149 48/// 70500 83130
                   333 5//// 83844 83361=

################################################################################
#  SYNOPS from 67581, Chipata (Zambia) | 13-33S | 032-35E | 1028 m
################################################################################
201610280600 AAXX 28064 67581 NIL=
201610270600 AAXX 27064 67581 31960 00308 10272 20145 48541 70500
                   333 10306 20180 58020
                   555 00210 91019=
201610250600 AAXX 25064 67581 31960 50305 10272 20142 48526 70522 80001
                   333 10360 20176 59016 85080
                   555 00216 91017=
201610210600 AAXX 21064 67581 NIL=

################################################################################
#  SYNOPS from 67583, Lundazi (Zambia) | 12-17S | 033-12E | 1143 m
################################################################################
201610280600 AAXX 28064 67583 NIL=
201610210600 AAXX 21064 67583 NIL=

################################################################################
#  SYNOPS from 67599, Mfuwe (Zambia) | 13-16S | 031-56E | 568 m
################################################################################
201610280600 AAXX 28064 67599 32980 20806 10312 20129 48558 82030
                   333 10288 20208 58016 82360
                   555 00200 91017=
201610250600 AAXX 25064 67599 31959 40903 10308 20126 48530 70512 80008
                   333 10410 20218 59017 86080
                   555 00200 91014=
201610210600 AAXX 21064 67599 NIL=

################################################################################
#  SYNOPS from 67625, Kalabo (Zambia) | 14-51S | 022-42E | 1033 m
################################################################################
201610280600 AAXX 28064 67625 32982 53403 10239 20174 48/// 80004
                   333 10377 20194 58028 85075
                   555 00182=
201610210600 AAXX 21064 67625 32982 30305 10255 20099 48/// 80004
                   333 10365 20185 58007 83075
                   555 00163=
201610200600 AAXX 20064 67625 32982 33604 10265 20133 48/// 80004
                   333 10368 20200 58009 83075
                   555 00162=

################################################################################
#  SYNOPS from 67633, Mongu (Zambia) | 15-15S | 023-09E | 1052 m
################################################################################
201610280600 AAXX 28064 67633 32980 03604 10248 20171 48529 70100
                   333 10375 20222 58029
                   555 00204 91018=
201610270600 AAXX 27064 67633 12080 20902 10294 20146 48497 60014 70100 80002
                   333 10381 20230 59001 82080
                   555 00194 91015=
201610250600 AAXX 25064 67633 32980 63604 10265 20161 48494 70222 84038
                   333 10382 20221 59022 84360 86280
                   555 00256 91015=
201610210600 AAXX 21064 67633 32980 00903 10243 20108 48529 70200
                   333 10368 20191 58020
                   555 00182 91019=
201610200600 AAXX 20064 67633 32980 00904 10260 20136 48513 70200
                   333 10388 20201 59005
                   555 00/// 91017=

################################################################################
#  SYNOPS from 67641, Kaoma (Zambia) | 14-48S | 024-48E | 1213 m
################################################################################
201610280600 AAXX 28064 67641 NIL=
201610270600 AAXX 27064 67641 32980 10000 10250 20151 48495 80001
                   333 10//0 20200 59004 81080
                   555 00/// 91015=
201610250600 AAXX 25064 67641 32980 10000 10252 20167 48495 80001
                   333 10//0 20185 59013 81080
                   555 00/// 91015=
201610210600 AAXX 21064 67641 NIL=

################################################################################
#  SYNOPS from 67655, Mumbwa (Zambia) | 15-04S | 027-11E | 1216 m
################################################################################
201610280600 AAXX 28064 67655 NIL=
201610210600 AAXX 21064 67655 NIL=

################################################################################
#  SYNOPS from 67659, Kafue Polder (Zambia) | 15-46S | 027-55E | 978 m
################################################################################
201610280600 AAXX 28064 67659 NIL=
201610210600 AAXX 21064 67659 NIL=
201610200600 AAXX 20064 67659 32980 02209 10277 20152 48/// 70500
                   333 10352 20150 58019=

################################################################################
#  SYNOPS from 67662, Kabwe Agric (Zambia) | 14-24S | 028-30E | 1165 m
################################################################################
201610280600 AAXX 28064 67662 NIL=
201610250600 AAXX 25064 67662 31975 50902 10267 20134 48/// 70522 80002
                   333 10372 20168 5////=
201610210600 AAXX 21064 67662 31975 00903 10262 20152 48/// 70500
                   333 10332 20188 5////
                   555 00130=
201610200600 AAXX 20064 67662 31975 00906 10259 20173 48/// 70500
                   333 10330 20186 5////
                   555 00144=

################################################################################
#  SYNOPS from 67663, Kabwe (Zambia) | 14-27S | 028-28E | 1206 m
################################################################################
201610280600 AAXX 28064 67663 NIL=
201610250600 AAXX 25064 67663 31965 10407 10270 20104 48505 70500 80002
                   333 10362 20224 59023=
201610210600 AAXX 21064 67663 NIL=

################################################################################
#  SYNOPS from 67665, Lusaka Internationalairport (Zambia) | 15-19S | 028-27E | 1152 m
################################################################################
201610310600 AAXX 31064 67665 42980 03508 10276 20140 48540 70200
                   333 58005=
201610302100 AAXX 30214 67665 42980 01303 10245 20141 48516 70200
                   333 59004=
201610301500 AAXX 30154 67665 42780 30809 10354 20145 48489 83100
                   333 59015 83850=
201610300600 AAXX 30064 67665 32980 00708 10262 20131 48532
                   333 10//0 20//0 59018=
201610300300 AAXX 30034 67665 42980 01103 10192 20139 48499
                   333 59019=
201610300000 AAXX 30004 67665 42980 01003 10183 20132 48497
                   333 59019=
201610292100 AAXX 29214 67665 42980 01103 10210 20132 48515
                   333 59005=
201610291800 AAXX 29184 67665 42980 11005 10270 20104 48510 81030
                   333 59016 81359=
201610291500 AAXX 29154 67665 42680 10905 10330 20065 48502 81100
                   333 59015 81848=
201610291200 AAXX 29124 67665 42680 30909 10345 20060 48522 81100
                   333 58003 83840=
201610290600 AAXX 29064 67665 32980 01010 10276 20098 48553
                   333 58003=
201610290000 AAXX 29004 67665 42980 00000 10203 20055 48527
                   333 58009=
201610282100 AAXX 28214 67665 42980 01403 10225 20070 48532
                   333 58010=
201610281800 AAXX 28184 67665 42980 01205 10262 20075 48524
                   333 58013=
201610280600 AAXX 28064 67665 NIL=
201610271800 AAXX 27184 67665 42980 01305 10265 20080 48513
                   333 58022=
201610271200 AAXX 27124 67665 42880 31112 10347 20070 48502 83100
                   333 58011 83858=
201610270900 AAXX 27094 67665 41959 20513 10315 20099 48526 70500 82100
                   333 58011 82857=
201610270600 AAXX 27064 67665 32980 01010 10264 20104 48527
                   333 58014=
201610270300 AAXX 27034 67665 42980 01403 10210 20114 48503 70200
                   333 58012=
201610261800 AAXX 26184 67665 42980 01304 10268 20085 48491
                   333 58004=
201610261500 AAXX 26154 67665 41959 11014 10339 20060 48481 70500 81060
                   333 58003 81360=
201610261200 AAXX 26124 67665 41959 20812 10362 20071 48491 70500 82100
                   333 58002 82859=
201610260600 AAXX 26064 67665 32980 01010 10270 20145 48507 70200
                   333 58000=
201610260300 AAXX 26034 67665 42980 01304 10220 20095 48491 70200
                   333 58002=
201610251800 AAXX 25184 67665 42980 01305 10286 20152 48489 70200
                   333 59013=
201610251500 AAXX 25154 67665 42680 10910 10350 20119 48479 70100 81101
                   333 59010 81847 81080=
201610250000 AAXX 25004 67665 42980 41302 10271 20101 48595
                   333 59020 91015=
201610241500 AAXX 24154 67665 42780 40000 10356 20150 48492 84130
                   333 59018 83850 81360=
201610240900 AAXX 24094 67665 42980 10714 10323 20084 48533 80001
                   333 59007 81080=
201610240600 AAXX 24064 67665 32980 10713 10290 20093 48521 80001
                   333 10//0 20//0 59001 81080=
201610231500 AAXX 23154 67665 42980 50611 10338 20085 48512 85030
                   333 59012 85360=
201610230600 AAXX 23064 67665 32980 10403 10273 20078 48536 70300 80001
                   333 10355 20181 59017 81080=
201610221800 AAXX 22184 67665 42980 00903 10270 20074 48527
                   333 10355 59009=
201610221200 AAXX 22124 67665 42680 10810 10326 20031 48526 81100
                   333 58015 81840=
201610220600 AAXX 22064 67665 32980 01004 10259 20096 48554
                   333 59007=
201610220000 AAXX 22004 67665 42980 01101 10200 20092 48530
                   333 58008=
201610212100 AAXX 21214 67665 42980 01603 10221 20089 48539
                   333 58003=
201610210900 AAXX 21094 67665 42680 50309 10290 20116 48548 70322 85200
                   333 58002 85835 91022=
201610210600 AAXX 21064 67665 NIL=
201610202100 AAXX 20214 67665 42980 01205 10221 20086 48536 70200
                   333 59013=
201610201800 AAXX 20184 67665 42980 31104 10250 20069 48533 83030
                   333 10326 20//0 59011 83360=
201610201500 AAXX 20154 67665 42880 20810 10311 20078 48524 82100
                   333 59005 82858=
201610201200 AAXX 20124 67665 42680 30610 10312 20084 48536 83100
                   333 58006 83845=
201610200900 AAXX 20094 67665 42580 30612 10291 20095 48560 83100
                   333 58006 83830=
201610200600 AAXX 20064 67665 32980 00710 10244 20145 48566 70200
                   333 58016=
201610200300 AAXX 20034 67665 42980 00000 10198 20121 48544 70200
                   333 58013=
201610191800 AAXX 19184 67665 42980 01109 10257 20146 48545 70200
                   333 58024=
201610191500 AAXX 19154 67665 42780 10714 10305 20140 48529 70100 81100
                   333 58026 81852=
201610191200 AAXX 19124 67665 42680 30815 10316 20123 48532 70200 83100
                   333 58019 83840=
201610181500 AAXX 18154 67665 42980 00613 10336 20032 48510 70200=
201610180900 AAXX 18094 67665 42980 00614 10325 20089 48546 70200
                   333 58019 91020=
201610172100 AAXX 17214 67665 42980 00000 10224 20025 48506 70200
                   333 59009=
201610171800 AAXX 17184 67665 42980 01306 10268 20011 48505
                   333 59007=
201610171500 AAXX 17154 67665 41959 01013 10352 20055 48493 70500
                   333 59008=
201610161800 AAXX 16184 67665 42980 01304 10261 20075 48510 70200
                   333 59013=
201610161500 AAXX 16154 67665 42980 01107 10312 20066 48497 70200
                   333 59016=
201610161200 AAXX 16124 67665 42980 01007 10337 20055 48517 70200
                   333 59012=
201610160900 AAXX 16094 67665 42980 00710 10312 20105 48543
                   333 59012=
201610160300 AAXX 16034 67665 42980 01003 10172 20090 48513
                   333 59014=
201610160000 AAXX 16004 67665 42980 01002 10178 20081 48509
                   333 59003=
201610152100 AAXX 15214 67665 42980 00508 10232 20067 48527
                   333 59020=
201610150300 AAXX 15034 67665 42980 01404 10169 20090 48541
                   333 59016=
201610141800 AAXX 14184 67665 42980 01106 10240 20104 48541
                   333 59002=
201610141500 AAXX 14154 67665 42980 01114 10317 20114 48535
                   333 59003=
201610141200 AAXX 14124 67665 41859 30912 10324 20125 48542 70500 83100
                   333 58003 83857=
201610140900 AAXX 14094 67665 41559 10813 10293 20123 48569 70500 81100
                   333 58007 81828=
201610140600 AAXX 14064 67665 32980 00814 10243 20166 48570 70200
                   333 58014=
201610140300 AAXX 14034 67665 42980 01108 10200 20139 48546 70200
                   333 58014=
201610132100 AAXX 13214 67665 42980 01003 10235 20132 48556 70200
                   333 58024=
201610131500 AAXX 13154 67665 41959 01012 10322 20141 48535 70500
                   333 58008=
201610130900 AAXX 13094 67665 41959 00613 10323 20133 48566 70500
                   333 58001=
201610130600 AAXX 13064 67665 31959 00908 10268 20086 48562 70500
                   333 59001=
201610122100 AAXX 12214 67665 42980 01603 10228 20046 48531
                   333 59012=
201610111800 AAXX 11184 67665 42980 01305 10257 20152 48547 70200
                   333 5////=
201610111500 AAXX 11154 67665 42980 01015 10329 20109 48538 70200
                   333 58020=
201610110600 AAXX 11064 67665 32980 21010 10250 20117 48562 70200 80001
                   333 10365 20//0 58023 82080=
201610110300 AAXX 11034 67665 42980 01006 10213 20070 48536 70200
                   333 58024=
201610102100 AAXX 10214 67665 42980 01303 10232 20065 48539 70200
                   333 58021=
201610101200 AAXX 10124 67665 41959 00611 10345 20145 70500
                   333 58015=
201610100600 AAXX 10064 67665 31959 31008 10252 20138 48540 70500 80001
                   333 58015 83080=
201610100300 AAXX 10034 67665 42980 01203 10175 20073 48509
                   333 58011=
201610100000 AAXX 10004 67665 42980 01702 10201 20084 48508 70100
                   333 59002=
201610092100 AAXX 09214 67665 41959 31603 10227 20062 48519 70500 80001
                   333 59005 83080=
201610091800 AAXX 09184 67665 41965 11305 10270 20057 48510 70500 80001
                   333 58000 81080=
201610091500 AAXX 09154 67665 41965 11207 10340 20064 48501 70500 80001
                   333 59003 81080=
201610090600 AAXX 09064 67665 31980 11006 10247 20112 48530 70500 80001
                   333 59009 81080=
201610090300 AAXX 09034 67665 42980 01403 10205 20055 48503
                   333 59004=
201610082100 AAXX 08214 67665 42980 01403 10235 20080 48521 70200
                   333 58014=
201610081800 AAXX 08184 67665 42980 01804 10278 20099 48516 70200
                   333 10355 58009=
201610081200 AAXX 08124 67665 42980 00305 10334 20101 48512 70200
                   333 58009=
201610080900 AAXX 08094 67665 42980 00713 10315 20059 48539
                   333 58011=
201610080600 AAXX 08064 67665 32980 11107 10260 20070 48535 81030
                   333 10//0 20//0 58011 81360=
201610080000 AAXX 08004 67665 42980 01604 10182 20045 48495
                   333 58002=
201610072100 AAXX 07214 67665 42980 01202 10212 20050 48507
                   333 59001=
201610071500 AAXX 07154 67665 42980 30707 10325 20040 48497 80001
                   333 59021 83080=
201610070900 AAXX 07094 67665 41959 20907 10312 20115 48536 70500 80001
                   333 59007 82030 81080 91018=
201610070600 AAXX 07064 67665 31959 10903 10247 20183 48523 70500 80001
                   333 59009 81080=
201610070000 AAXX 07004 67665 42980 01604 10204 20129 48496 70200
                   333 59015=
201610061800 AAXX 06184 67665 42980 01105 10241 20136 48496
                   333 59020=
201610061500 AAXX 06154 67665 42980 01104 10325 20186 48491
                   333 59021=
201610061200 AAXX 06124 67665 42980 11004 10317 20184 48508 80002
                   333 59025 81080=
201610060900 AAXX 06094 67665 42980 10304 10278 20154 48534 80002
                   333 59024 81080=
201610060600 AAXX 06064 67665 32980 10905 10229 20140 48529 80002
                   333 59025 81080=
201610060300 AAXX 06034 67665 42980 01402 10157 20079 48507
                   333 59022=
201610060000 AAXX 06004 67665 42980 01704 10168 20098 48508
                   333 59018=
201610052100 AAXX 05214 67665 42980 01503 10180 20089 48518
                   333 59020=
201610051500 AAXX 05154 67665 42780 10905 10280 20114 48507 81100
                   333 59017 81856=
201610051200 AAXX 05124 67665 42680 20906 10290 20116 48518 82100
                   333 59021 82845=
201610041800 AAXX 04184 67665 42980 01205 10221 20140 48534
                   333 58007=
201610041500 AAXX 04154 67665 42680 20906 10283 20168 48526 82100
                   333 58008 82848=
201610041200 AAXX 04124 67665 42680 20909 10282 20167 48538 82100
                   333 58016 82840=
201610040600 AAXX 04064 67665 12480 40913 10179 20129 48556 60034 70300 84530
                   333 10350 20//0 58022 84615 82360=
201610040300 AAXX 04034 67665 42980 0//// 10174 20132 48523 70200
                   333 58009=
201610040000 AAXX 04004 67665 42970 3//// 10190 20139 48523 70200 83030
                   333 58029 83360=
201610032100 AAXX 03214 67665 42960 5//// 10200 20134 48535 70222 84030
                   333 58044 84360=
201610030600 AAXX 03064 67665 31980 0//// 10216 20135 48511 70300 84030
                   333 59029 84360=
201610030300 AAXX 03034 67665 42980 0//// 10210 20105 4//// 70200
                   333 58034=
201610021800 AAXX 02184 67665 42980 0//// 10264 20113 48489 70200
                   333 59004=
201610021500 AAXX 02154 67665 42980 10803 10330 20032 48484 70200 80001
                   333 59004 81080=
201610021200 AAXX 02124 67665 42980 20607 10336 20036 48492 70200 80001
                   333 59008 82080=
201610020600 AAXX 02064 67665 31980 01002 10224 20055 48511
                   333 59013=
201610020000 AAXX 02004 67665 42980 0//// 10211 20049 48492
                   333 59017=
201610011800 AAXX 01184 67665 42980 0//// 10263 20045 48489 70100
                   333 59040=
201610011500 AAXX 01154 67665 41979 5//// 10322 20035 48484 70500 80001
                   333 59023 85080=
201610010900 AAXX 01094 67665 42980 10609 10300 20086 48524 70200 80001
                   333 59026 81080=
201610010600 AAXX 01064 67665 42980 11006 10231 20152 48525 70200 80001
                   333 59022 81080=

################################################################################
#  SYNOPS from 67666, Lusaka City Airport (Zambia) | 15-25-00S | 028-28-00E | 1280 m
################################################################################
201610280600 AAXX 28064 67666 31970 00915 10265 20107 48541 70500
                   333 10340 20221 58019
                   555 00209 91020=
201610270600 AAXX 27064 67666 32980 00906 10260 20108 48522
                   333 10339 20220 5////
                   555 00204 91018=
201610210600 AAXX 21064 67666 31980 00908 10251 20129 48533 70500
                   333 10310 20199 59008
                   555 00183 91022=
201610200600 AAXX 20064 67666 32980 00909 10234 20128 48560
                   333 10312 20196 58018
                   555 00174 91023=

################################################################################
#  SYNOPS from 67667, Mount Makulu (Zambia) | 15-33S | 028-15E | 1213 m
################################################################################
201610280600 AAXX 28064 67667 NIL=
201610210600 AAXX 21064 67667 31970 10000 10260 20125 48/// 70500 80002
                   333 10320 20200 59006 81082
                   555 00155=
201610200600 AAXX 20064 67667 31970 00901 10241 20137 48/// 70500
                   333 10320 20190 58019
                   555 00132=

################################################################################
#  SYNOPS from 67673, Petauke (Zambia) | 14-15S | 031-17E | 1035 m
################################################################################
201610280600 AAXX 28064 67673 NIL=
201610270600 AAXX 27064 67673 31975 00901 10282 20159 48545 70500
                   333 10360 20220 58030
                   555 00180=
201610210600 AAXX 21064 67673 NIL=
201610200600 AAXX 20064 67673 31975 00903 10260 20170 48577 70500
                   333 10338 20210 40210 58018 58018
                   555 00182=

################################################################################
#  SYNOPS from 67731, Senanga (Zambia) | 16-06S | 023-16E | 1027 m
################################################################################
201610280600 AAXX 28064 67731 NIL=
201610250600 AAXX 25064 67731 32980 107// 10265 20154 48/// 70300 80001
                   333 10384 20194 59026 81080
                   555 00198=
201610210600 AAXX 21064 67731 32980 018// 10267 20082 70500
                   333 10377 20219 59006
                   555 00213=

################################################################################
#  SYNOPS from 67741, Sesheke (Zambia) | 17-28S | 024-18E | 949 m
################################################################################
201610280600 AAXX 28064 67741 NIL=
201610250600 AAXX 25064 67741 32980 00701 10319 20//0 48509
                   333 10389 20191 5////=
201610210600 AAXX 21064 67741 32980 10701 10287 20119 48543 81030
                   333 10381 20224 59008 81362
                   555 00194=
201610200600 AAXX 20064 67741 32980 00801 10276 20116 48541
                   333 10386 20249 58013
                   555 00224=

################################################################################
#  SYNOPS from 67743, Livingstone (Zambia) | 17-49S | 025-49E | 985 m
################################################################################
201610280600 AAXX 28064 67743 NIL=
201610210600 AAXX 21064 67743 NIL=

################################################################################
#  SYNOPS from 67751, Magoye (Zambia) | 16-00S | 027-36E | 1018 m
################################################################################
201610280600 AAXX 28064 67751 NIL=
201610250600 AAXX 25064 67751 31978 01005 10322 20115 48/// 70500
                   333 10378 20212 5////
                   555 00///=
201610210600 AAXX 21064 67751 31980 00315 10277 20194 48/// 70500
                   333 10384 20194 58006
                   555 00180=
201610200600 AAXX 20064 67751 31975 00912 10271 20132 48/// 70500
                   333 10394 20227 59043
                   555 00217=

################################################################################
#  SYNOPS from 67753, Choma (Zambia) | 16-50S | 027-04E | 1213 m
################################################################################
201610280600 AAXX 28064 67753 31960 00729 10270 20127 48/// 70500
                   333 10343 20206 5////
                   555 00162=
201610270600 AAXX 27064 67753 31960 00617 10266 20126 48///
                   333 10364 20200 5////
                   555 00160=
201610260600 AAXX 26064 67753 31960 10614 10281 20127 48526 70500 81030
                   333 10369 20186 58000 81360
                   555 00161=
201610250600 AAXX 25064 67753 31960 00614 10299 20123 48529 70500
                   333 10356 20209 59020
                   555 00170=
201610210600 AAXX 21064 67753 31960 03627 10//0 20132 48/// 70500
                   333 10326 20200 5////
                   555 00172=
201610200600 AAXX 20064 67753 31960 00715 10245 20123 48/// 70500
                   333 10335 20202 5////
                   555 00172=

################################################################################
#  SYNOPS from 67855, Lupaki (Zambia) | 17-03-00S | 024-46-00E | 1000 m
################################################################################
201610310600 AAXX 31064 67855 NIL=
201610301800 AAXX 30184 67855 NIL=
201610301200 AAXX 30124 67855 41970 00907 10378 20048 3//// 48/// 70500
                   333 5////=
201610300600 AAXX 30064 67855 31970 00401 10274 20044 3//// 48/// 70500
                   333 20712 5////=
201610291800 AAXX 29184 67855 NIL=
201610291200 AAXX 29124 67855 41870 50604 10370 20093 3//// 48/// 70511 85200
                   333 5//// 85857=
201610290600 AAXX 29064 67855 NIL=
201610281800 AAXX 28184 67855 NIL=
201610281200 AAXX 28124 67855 41870 33604 10372 20073 3//// 48/// 70500 83100
                   333 5//// 83857=
201610280600 AAXX 28064 67855 31970 20307 10280 20093 3//// 48/// 70500 80002
                   333 20175 5//// 82080=
201610271800 AAXX 27184 67855 NIL=
201610271200 AAXX 27124 67855 41870 40705 10370 20101 3//// 48/// 70500 84200
                   333 5//// 84857=
201610270600 AAXX 27064 67855 11970 00510 10266 20130 3//// 48/// 69904 70500
                   333 20184 5////=
201610261800 AAXX 26184 67855 NIL=
201610261200 AAXX 26124 67855 NIL=
201610260600 AAXX 26064 67855 11970 01103 10254 20152 3//// 48/// 60034 70500
                   333 20198 5////=
201610251800 AAXX 25184 67855 NIL=
201610251200 AAXX 25124 67855 41670 70000 10370 20111 3//// 48/// 71791 84233
                   333 5//// 81940 83845 87080=
201610250600 AAXX 25064 67855 12675 40302 10296 20098 3//// 48/// 69904 84531
                   333 20162 5//// 84630=
201610241800 AAXX 24184 67855 NIL=
201610241200 AAXX 24124 67855 42875 40601 10388 20083 3//// 48/// 84232
                   333 5//// 84857=
201610240600 AAXX 24064 67855 NIL=
201610231800 AAXX 23184 67855 NIL=
201610231200 AAXX 23124 67855 NIL=
201610230600 AAXX 23064 67855 31970 50301 10296 20103 3//// 48/// 70511 85030
                   333 20235 5//// 85360=
201610221800 AAXX 22184 67855 NIL=
201610221200 AAXX 22124 67855 41870 53603 10380 20093 3//// 48/// 70511 83230
                   333 5//// 83857 85360=
201610220600 AAXX 22064 67855 31970 70304 10292 20124 3//// 48/// 70511 8703/
                   333 20180 5//// 87360=
201610211800 AAXX 21184 67855 NIL=
201610211200 AAXX 21124 67855 NIL=
201610210600 AAXX 21064 67855 31970 00403 10266 20111 3//// 48/// 70500
                   333 20160 5////=
201610201200 AAXX 20124 67855 41870 10605 10354 20097 3//// 48/// 70500 81100
                   333 5//// 81857=
201610200600 AAXX 20064 67855 31970 00510 10244 20136 3//// 48/// 70500
                   333 20172 5////=
201610191800 AAXX 19184 67855 NIL=
201610191200 AAXX 19124 67855 41870 40609 10352 20115 3//// 48/// 70500 84100
                   333 5//// 84857=
201610190600 AAXX 19064 67855 NIL=
201610181800 AAXX 18184 67855 NIL=
201610181200 AAXX 18124 67855 41870 10609 10362 20123 3//// 48/// 70500 81100
                   333 5//// 81857=
201610180600 AAXX 18064 67855 NIL=
201610171800 AAXX 17184 67855 NIL=
201610171200 AAXX 17124 67855 41870 41604 10386 20085 3//// 48/// 70500 84200
                   333 5//// 84857=
201610170600 AAXX 17064 67855 31970 00605 10284 20088 3//// 48/// 70500
                   333 20157 5////=
201610161800 AAXX 16184 67855 NIL=
201610161200 AAXX 16124 67855 41970 00000 10370 20073 3//// 48/// 70500
                   333 5////=
201610160600 AAXX 16064 67855 31970 00403 10264 20105 3//// 48/// 70500
                   333 20160 5////=
201610151800 AAXX 15184 67855 NIL=
201610151200 AAXX 15124 67855 41870 10602 10372 20083 3//// 48/// 70500 81100
                   333 5//// 81857=
201610150600 AAXX 15064 67855 31970 00502 10236 20141 3//// 48/// 70500
                   333 20154 5////=
201610141200 AAXX 14124 67855 41970 00602 10362 20080 3//// 48/// 70500
                   333 5////=
201610140600 AAXX 14064 67855 31970 00907 10236 20123 3//// 48/// 70500
                   333 20160 5////=
201610131800 AAXX 13184 67855 NIL=
201610131200 AAXX 13124 67855 41970 00703 10364 20080 3//// 48/// 70500
                   333 5////=
201610130600 AAXX 13064 67855 31970 00609 10270 20075 3//// 48/// 70500
                   333 20192 5////=
201610121800 AAXX 12184 67855 NIL=
201610121200 AAXX 12124 67855 41870 11605 10378 20095 3//// 48/// 70500 81100
                   333 5//// 81857=
201610120600 AAXX 12064 67855 31970 00302 10256 20110 3//// 48/// 70500
                   333 20189 5////=
201610111800 AAXX 11184 67855 NIL=
201610110600 AAXX 11064 67855 31970 00702 10232 20154 3//// 48/// 70500
                   333 20202 5////=
201610101800 AAXX 10184 67855 NIL=
201610101200 AAXX 10124 67855 NIL=
201610100600 AAXX 10064 67855 NIL=
201610090600 AAXX 09064 67855 31970 61801 10260 20054 3//// 48/// 70522 80002
                   333 20170 5//// 86080=
201610081800 AAXX 08184 67855 NIL=
201610081200 AAXX 08124 67855 NIL=
201610071800 AAXX 07184 67855 NIL=
201610071200 AAXX 07124 67855 41970 11403 10382 20043 3//// 48/// 70500 81032
                   333 5//// 81360=
201610070600 AAXX 07064 67855 31970 22001 10240 20043 3//// 48/// 70500 82030
                   333 20128 5//// 82360=
201610061800 AAXX 06184 67855 NIL=
201610061200 AAXX 06124 67855 41970 02703 20028 3//// 48/// 70500
                   333 5////=
201610060600 AAXX 06064 67855 32975 00302 10224 20049 3//// 48///
                   333 20099 5//// 67857 00900 10207 20054 3////
                   48/// 333 20123 5////=
201610051800 AAXX 05184 67855 NIL=
201610051200 AAXX 05124 67855 42675 22003 10298 20053 3//// 48/// 82100
                   333 5//// 82845=
201610050600 AAXX 05064 67855 32975 00304 10196 20040 3//// 48///
                   333 20118 5////=
201610041800 AAXX 04184 67855 NIL=
201610041200 AAXX 04124 67855 42675 42801 10300 20117 3//// 48/// 84100
                   333 5//// 84845=
201610040600 AAXX 04064 67855 32575 61002 10176 20066 3//// 48/// 82500
                   333 20111 5//// 81080=
201610031800 AAXX 03184 67855 NIL=
201610031200 AAXX 03124 67855 42775 51802 10286 20128 3//// 48/// 81102
                   333 5//// 81850 85080=
201610021800 AAXX 02184 67855 NIL=
201610021200 AAXX 02124 67855 41965 32502 10332 20091 3//// 48/// 70511 81130
                   333 5//// 81858 83360=
201610020600 AAXX 02064 67855 11970 51703 10240 20123 3//// 48/// 69904 70522 85070
                   333 20195 5//// 85459=
201610011800 AAXX 01184 67855 NIL=
201610011200 AAXX 01124 67855 41960 40307 10358 20073 3//// 48/// 70500 80001
                   333 5//// 84080=
201610010600 AAXX 01064 67855 NIL=
