################################################################################
# Query made at 04/14/2022 03:23:01 UTC
# Country like Zamb*
# Time interval: from 02/01/2016 05:30  to 03/02/2016 06:30  UTC
################################################################################

################################################################################
#  SYNOPS from 67403, Kawambwa (Zambia) | 09-48S | 029-05E | 1323 m
################################################################################
201603010600 AAXX 01064 67403 12380 20905 10217 20198 48538 60074 70360 81681
                   333 10/// 20174 58008 81708 82360 81080=
201602290600 AAXX 29064 67403 12980 70906 10214 20192 48530 69904 81931
                   333 1//// 20187 58015 81958 87360 82080=
201602260600 AAXX 26064 67403 32975 12802 10230 20195 48519 81031
                   333 1//// 20184 59004 81360 81080=
201602241200 AAXX 24124 67403 NIL=
201602240600 AAXX 24064 67403 12980 31205 10224 20188 48520 60014 81081
                   333 1//// 20175 58003 81360 83080=
201602230900 AAXX 23094 67403 NIL=
201602221200 AAXX 22124 67403 NIL=
201602161200 AAXX 16124 67403 NIL=
201602160600 AAXX 16064 67403 32980 40000 10202 20190 48524 70120 84031
                   333 10/// 20175 59003 84360 81080=
201602150600 AAXX 15064 67403 11880 73002 10202 20191 48527 60054 72166 8193/
                   333 10/// 20176 58009 81958 87360=
201602120600 AAXX 12064 67403 12375 50906 10200 20185 48516 60064 70320 81537
                   333 10/// 20175 59010 81612 81360 85280=
201602120300 AAXX 12034 67403 NIL=
201602110600 AAXX 11064 67403 11970 70000 10200 20196 48526 60534 72162 8707/
                   333 10/// 20175 59001 87360=
201602090600 AAXX 09064 67403 12980 60000 10212 20194 48532 69924 86031
                   333 10/// 20179 58005 86360 81080=
201602040600 AAXX 04064 67403 11870 80000 10180 20174 48519 60084 76196 8197/
                   333 10/// 20169 59007 81958 88460=
201602020600 AAXX 02064 67403 11970 80000 10184 20178 48521 60084 70562 8803/
                   333 10/// 20165 58007 87360=

################################################################################
#  SYNOPS from 67413, Mbala (Zambia) | 08-51S | 031-20E | 1673 m
################################################################################
201602290600 AAXX 29064 67413 32480 31708 10215 20177 48560 81140
                   333 10280 2//// 58015 81815 82359 91026=
201602260600 AAXX 26064 67413 32980 30000 10220 20165 48540 82041
                   333 10290 2//// 59002 82360 82080 91024=
201602241200 AAXX 24124 67413 NIL=
201602230900 AAXX 23094 67413 NIL=
201602221200 AAXX 22124 67413 NIL=
201602190600 AAXX 19064 67413 12980 70000 10180 20172 48525 60524 8707/
                   333 10255 2//// 59010 87360 91022=
201602161200 AAXX 16124 67413 NIL=
201602120600 AAXX 12064 67413 12980 70000 10190 20166 48540 60054 8707/
                   333 10255 20/// 59010 87359 91024=
201602120300 AAXX 12034 67413 NIL=
201602110600 AAXX 11064 67413 11/10 93308 10175 20175 48522 60044 74564 8////
                   333 10245 20/// 58003 91025=
201602100600 AAXX 10064 67413 12480 80000 10180 20173 48549 60124 885//
                   333 10270 20/// 59007 88612 91025=
201602090600 AAXX 09064 67413 12380 70000 10185 20178 48555 60154 8153/
                   333 10205 20/// 58010 81608 87359 91026=
201602080600 AAXX 08064 67413 11378 82803 10180 20173 48546 60074 74042 886//
                   333 10260 20/// 59003 88707 91024=
201602030600 AAXX 03064 67413 12980 30000 10205 20174 48549 60044 83040
                   333 10235 20/// 59009 83359 91025=
201602010600 AAXX 01064 67413 12480 83005 10185 20161 48538 60024 8457/
                   333 10250 20/// 59005 84315 87359 91024=

################################################################################
#  SYNOPS from 67441, Mwinilunga (Zambia) | 11-45S | 024-26E | 1361 m
################################################################################
201603010600 AAXX 01064 67441 12958 700// 10193 20188 48566 60774 74044 8707/
                   333 10300 20/// 5//// 87360=
201602290600 AAXX 29064 67441 12982 700// 10195 20188 48/// 60044 8703/
                   333 10295 2//// 5//// 87360=
201602260600 AAXX 26064 67441 11/01 900// 10200 20200 48550 60034 89///
                   333 10285 2//// 58004=
201602241200 AAXX 24124 67441 NIL=
201602240600 AAXX 24064 67441 12982 700// 10190 20179 48558 60274 82035
                   333 10290 20/// 58002 82360 86280=
201602230900 AAXX 23094 67441 NIL=
201602230600 AAXX 23064 67441 12382 718// 10190 20182 48559 60054 877//
                   333 10295 2//// 58020 87709=
201602221200 AAXX 22124 67441 NIL=
201602190600 AAXX 19064 67441 12582 600// 10220 20198 48527 60144 81130
                   333 10290 2//// 59013 81820 86360=
201602170600 AAXX 17064 67441 12980 700// 10185 20177 48564 60024 8703/
                   333 10280 20/// 58001 87360=
201602161200 AAXX 16124 67441 NIL=
201602120600 AAXX 12064 67441 11458 700// 10195 20188 48547 69904 74744 8113/
                   333 10275 20/// 59003 81818 87360=
201602120300 AAXX 12034 67441 NIL=
201602110600 AAXX 11064 67441 12982 729// 10200 20185 48549 60014 8707/
                   333 10260 20/// 59003 87360=
201602100600 AAXX 10064 67441 12382 833// 10197 20187 48552 60554 8777/
                   333 10305 20/// 59001 87709 88360=
201602040600 AAXX 04064 67441 11382 700// 10185 20177 48547 60084 72166 8463/
                   333 10285 20/// 59017 84709 87360=
201602030600 AAXX 03064 67441 12382 734// 10200 20193 48564 69904 8677/
                   333 10260 20/// 58004 86709 87360=
201602020600 AAXX 02064 67441 11960 700// 10195 20180 48560 60044 76166 8707/
                   333 10275 20/// 58015 87460=

################################################################################
#  SYNOPS from 67461, Mansa (Zambia) | 11-06S | 028-51E | 1382 m
################################################################################
201603010600 AAXX 01064 67461 12480 82703 10188 20184 48544 60294 8357/
                   333 10285 20185 58008 83612 87460 87280 91021=
201602290600 AAXX 29064 67461 12980 60903 10215 20202 48539 69904 86038
                   333 10305 20185 59004 86360 87280 91021=
201602260600 AAXX 26064 67461 12980 62704 10204 20192 48521 60464 86030
                   333 10318 20182 59001 86360 91019=
201602250600 AAXX 25064 67461 32980 70905 10230 20209 48525 81038
                   333 10306 20190 59002 81360 87280 91019=
201602241200 AAXX 24124 67461 NIL=
201602240600 AAXX 24064 67461 32980 70903 10230 20209 48527 83088
                   333 10310 20182 58002 83360 87280 91019=
201602230900 AAXX 23094 67461 NIL=
201602221200 AAXX 22124 67461 NIL=
201602161200 AAXX 16124 67461 NIL=
201602120300 AAXX 12034 67461 NIL=
201602050600 AAXX 05064 67461 12980 80000 10175 20173 48516 60374 8807/
                   333 10288 20164 59002 88460 91019=

################################################################################
#  SYNOPS from 67475, Kasama (Zambia) | 10-13S | 031-08E | 1382 m
################################################################################
201603010600 AAXX 01064 67475 32480 40804 10229 20195 48551 70322 82201
                   333 10301 20174 58000 82820 83080 91023=
201602290600 AAXX 29064 67475 12480 50711 10277 20191 48551 60034 70222 82271
                   333 10289 20180 58033 82820 85460 82080 91023=
201602260600 AAXX 26064 67475 32560 31102 10225 20196 48526 70322 82201
                   333 10307 20175 59010 82820 83080 91020=
201602250600 AAXX 25064 67475 32480 50503 10230 20200 48536 70322 81671
                   333 10296 20170 5//// 81620 84460 82080 91021=
201602241200 AAXX 24124 67475 NIL=
201602240600 AAXX 24064 67475 12460 41304 10224 20204 48533 60114 70322 84501
                   333 10289 20171 58000 84615 81080 91021=
201602230900 AAXX 23094 67475 NIL=
201602230600 AAXX 23064 67475 12660 71901 10209 20197 48532 69904 70222 82238
                   333 10319 20177 58011 82830 84360 86280 91021=
201602221200 AAXX 22124 67475 NIL=
201602190600 AAXX 19064 67475 12460 70207 10202 20194 48515 60054 70322 875//
                   333 10290 20170 59007 87610 91019=
201602170600 AAXX 17064 67475 32860 53503 10192 20184 48542 70222 84034
                   333 10283 20153 58000 84359 84080 91022=
201602161200 AAXX 16124 67475 41660 71210 10273 20188 48511 71722 85272
                   333 58002 81940 84840 83460 82080 91018=
201602160600 AAXX 16064 67475 11960 53607 10192 20192 48542 60054 70242 82038
                   333 10266 20165 58007 82360 85280 91022=
201602150600 AAXX 15064 67475 11960 73602 10195 20171 48535 60234 72052 8707/
                   333 10247 20165 58010 87360 91022=
201602120600 AAXX 12064 67475 12480 73004 10200 20185 48526 60064 70340 8667/
                   333 10243 20164 5//// 86620 85460 91020=
201602120300 AAXX 12034 67475 NIL=
201602110600 AAXX 11064 67475 12970 80102 10190 20184 48528 60204 70108 86078
                   333 10257 20170 59009 86459 86280 91021=
201602080600 AAXX 08064 67475 12460 62610 10214 20192 48529 69904 70322 85508
                   333 10290 20178 59009 85615 86280 91021=
201602051200 AAXX 05124 67475 41659 8//// 10252 20180 48500 71522 8427/
                   333 58008 81947 83847 86362 91017=
201602040600 AAXX 04064 67475 12660 72809 10194 20184 48522 60284 70222 8227/
                   333 10274 20163 59015 81930 91020=
201602030600 AAXX 03064 67475 12460 72209 10196 20185 48438 60014 70322 8457/
                   333 10241 20173 58004 84610 87360 91022=
201602020600 AAXX 02064 67475 11460 82809 10185 20176 48533 60134 72162 875//
                   333 10271 20174 58012 876// 91021=

################################################################################
#  SYNOPS from 67476, Misamfu (Zambia) | 10-06S | 031-15E | 1536 m
################################################################################
201602260600 AAXX 26064 67476 12980 11101 10211 20195 48/// 69904 81001
                   333 10298 20176 59008 81080=
201602241200 AAXX 24124 67476 NIL=
201602240600 AAXX 24064 67476 12680 12003 10215 20201 48/// 60094 81501
                   333 10302 20170 58003 81630 81050=
201602230900 AAXX 23094 67476 NIL=
201602221200 AAXX 22124 67476 NIL=
201602161200 AAXX 16124 67476 NIL=
201602120600 AAXX 12064 67476 12980 33001 10191 20183 48/// 60024 83030
                   333 10253 20168 59003 83360=
201602120300 AAXX 12034 67476 NIL=
201602110600 AAXX 11064 67476 11480 73301 10194 20180 48/// 60174 72166 81671
                   333 10267 20177 59010 81715 87459 82080=
201602090600 AAXX 09064 67476 12980 80000 10189 20181 48/// 60354 87062
                   333 10242 20166 58005 87359 82080=
201602080600 AAXX 08064 67476 32480 43001 10200 20188 48/// 81662
                   333 10293 20188 5//// 81715 83360 83080=
201602050600 AAXX 05064 67476 12480 82502 10196 20179 48/// 60014 8367/
                   333 10277 20183 5//// 83715 88459=
201602040600 AAXX 04064 67476 12980 43002 10198 20186 48/// 60314 73062
                   333 10275 20169 5//// 83360 83080=
201602020600 AAXX 02064 67476 12480 73305 10185 20176 48/// 60164 86671
                   333 10273 20178 58012 86713 87459 81080=

################################################################################
#  SYNOPS from 67477, Mpika (Zambia) | 11-54S | 031-26E | 1400 m
################################################################################
201603010600 AAXX 01064 67477 31480 61208 10216 20/// 48554 72842 85530
                   333 10262 20189 58001 85612 82359=
201602290600 AAXX 29064 67477 11476 71506 10215 20/// 48/// 69904 72842 85530
                   333 10280 20192 58012 85620 84360=
201602260600 AAXX 26064 67477 31480 40000 10230 2//// 48529 72842 81130
                   333 10266 20176 58004 81816 84359=
201602250600 AAXX 25064 67477 32480 30707 10246 2//// 48536 72842 83501
                   333 10285 20185 58001 83614 81080=
201602241200 AAXX 24124 67477 NIL=
201602240600 AAXX 24064 67477 31478 50905 10225 2//// 48535 72842 83501
                   333 10295 20185 58008 83612 85080=
201602230900 AAXX 23094 67477 NIL=
201602221200 AAXX 22124 67477 NIL=
201602190600 AAXX 19064 67477 12480 70000 10206 2//// 48512 69904 8557/
                   333 10265 20176 59017 85614 84459=
201602170600 AAXX 17064 67477 11478 70000 10218 20/// 48548 60054 72842 82570
                   333 10285 20180 59009 82612 85459=
201602161200 AAXX 16124 67477 NIL=
201602150600 AAXX 15064 67477 11480 80000 10190 20/// 48538 60034 72842 8557/
                   333 10260 20170 59016 85612 84459=
201602120600 AAXX 12064 67477 11480 70000 10200 20/// 48/// 60044 72822 8457/
                   333 10245 20172 58003 84612 85360=
201602120300 AAXX 12034 67477 NIL=
201602110600 AAXX 11064 67477 12480 80000 10200 20/// 48529 69904 8457/
                   333 10227 20176 58003 84612 86459=
201602030600 AAXX 03064 67477 11480 80000 10187 20/// 48538 60024 72842 8457/
                   333 10210 20170 58004 84612 86459=
201602010600 AAXX 01064 67477 11480 70000 10205 20//0 48517 60334 72842 84571
                   333 10240 20165 59008 84612 84459 82080=

################################################################################
#  SYNOPS from 67481, Isoka (Zambia) | 10-07S | 032-38E | 1360 m
################################################################################
201603010600 AAXX 01064 67481 32480 50000 10210 20195 48/// 83101
                   333 10314 20175 58000 83810 84080=
201602290600 AAXX 29064 67481 12480 50302 10215 20188 48/// 60074 81130
                   333 10282 20197 58015 81810 85360=
201602260600 AAXX 26064 67481 32480 10000 10232 20189 48/// 81150
                   333 10308 20183 59004 81816=
201602241200 AAXX 24124 67481 NIL=
201602240600 AAXX 24064 67481 32980 31201 10230 20191 48/// 80001
                   333 10305 20179 58007=
201602230900 AAXX 23094 67481 NIL=
201602230600 AAXX 23064 67481 12480 31602 10230 20200 48/// 69944 81530
                   333 10320 20185 58003=
201602221200 AAXX 22124 67481 NIL=
201602161200 AAXX 16124 67481 NIL=
201602120600 AAXX 12064 67481 12980 50000 10210 20193 48/// 69904 85040
                   333 10271 20189 59003 85361=
201602120300 AAXX 12034 67481 NIL=
201602110600 AAXX 11064 67481 11980 60302 10205 20182 48/// 60194 72162 86070
                   333 10263 20182 59006 86360=
201602090600 AAXX 09064 67481 11980 52002 10212 20189 48/// 69984 72842 83031
                   333 10250 20175 58011 83360 85080=
201602050600 AAXX 05064 67481 11978 72002 10195 20185 48/// 60074 76166 8707/
                   333 10266 20175 58008 87460=
201602020600 AAXX 02064 67481 11260 80000 10190 20188 48/// 60134 76166 8377/
                   333 10274 20189 58013 83703 88459=

################################################################################
#  SYNOPS from 67531, Zambezi (Zambia) | 13-32S | 023-07E | 1077 m
################################################################################
201603010600 AAXX 01064 67531 12380 71502 10216 20200 48/// 69924 8167/
                   333 10285 20186 5////=
201602290600 AAXX 29064 67531 11980 73002 10200 20196 48/// 60114 76066 8707/
                   333 10321 20189 5//// 87460=
201602260600 AAXX 26064 67531 12980 60802 10210 20203 48/// 60084 70222 82038
                   333 10349 20176=
201602250600 AAXX 25064 67531 32380 71203 10218 20194 48/// 70222 81638
                   333 10335 20190 5//// 81707 82360 85280=
201602241200 AAXX 24124 67531 NIL=
201602240600 AAXX 24064 67531 12980 60501 10215 20194 48/// 69904 70222 81038
                   333 10305 20161 5//// 81362 85281
                   555 00/// 20000=
201602230900 AAXX 23094 67531 NIL=
201602221200 AAXX 22124 67531 NIL=
201602161200 AAXX 16124 67531 NIL=
201602120600 AAXX 12064 67531 32980 50000 10229 20211 48/// 70222 83032
                   333 10317 20175 5//// 83362 82080=
201602120300 AAXX 12034 67531 NIL=
201602110600 AAXX 11064 67531 32380 73502 10215 20205 48/// 70222 8367/
                   333 10305 20187 5//// 83707 87360=
201602050600 AAXX 05064 67531 32380 70302 10206 20200 48/// 70222 8367/
                   333 10325 20175 58001 83707 87460=
201602040600 AAXX 04064 67531 12980 60000 10212 20204 48/// 60074 70222 86070
                   333 10291 20180 59012 86361=
201602020600 AAXX 02064 67531 11380 80000 10201 20192 48/// 60044 76066 8577/
                   333 10275 20180 58020 85707 88460=

################################################################################
#  SYNOPS from 67541, Kasempa (Zambia) | 13-32S | 025-51E | 1234 m
################################################################################
201602260600 AAXX 26064 67541 NIL=
201602241200 AAXX 24124 67541 NIL=
201602230900 AAXX 23094 67541 NIL=
201602221200 AAXX 22124 67541 NIL=
201602161200 AAXX 16124 67541 NIL=
201602120600 AAXX 12064 67541 12980 50000 10213 20202 48508 69904 70222 85030
                   333 10/// 20/// 58001 85360=
201602120300 AAXX 12034 67541 NIL=
201602110600 AAXX 11064 67541 12380 70000 10199 20197 48507 60044 70222 8253/
                   333 10/// 20/// 59008 82606 87360=
201602050600 AAXX 05064 67541 32980 60000 10194 20194 48504 70222 84032
                   333 10/// 20/// 59005 84360 82080=
201602040600 AAXX 04064 67541 32380 70102 10204 20198 48509 70222 8353/
                   333 10//0 20//0 59007 83608 87360=
201602020600 AAXX 02064 67541 12380 70000 10204 20191 48523 60034 70222 8253/
                   333 10/// 20/// 58010 82607 87360=
201602010600 AAXX 01064 67541 12380 70000 10207 20202 48514 60134 70222 8353/
                   333 10/// 20/// 59012 83607 87360=

################################################################################
#  SYNOPS from 67543, Kabompo (Zambia) | 13-36S | 024-12E | 1075 m
################################################################################
201602290600 AAXX 29064 67543 12375 7//00 10208 20201 48/// 60034 876//
                   333 10318 20184 5//// 87707=
201602260600 AAXX 26064 67543 11/07 1//00 10195 20195 48/// 60014 74744 8////
                   333 10334 20165=
201602250600 AAXX 25064 67543 32375 7//00 10222 20208 48/// 81675
                   333 10330 20186 5//// 81707=
201602241200 AAXX 24124 67543 NIL=
201602240600 AAXX 24064 67543 12380 7//00 10210 20200 48/// 60064 70244 876//
                   333 10300 20168=
201602230900 AAXX 23094 67543 NIL=
201602230600 AAXX 23064 67543 11983 7//00 10197 20195 48/// 60174 72196 8707/
                   333 10353 20169=
201602221200 AAXX 22124 67543 NIL=
201602190600 AAXX 19064 67543 12975 1//00 10210 20197 48/// 60014 81040
                   333 10304 20170 5//// 81860=
201602180600 AAXX 18064 67543 11960 7//00 10200 20200 48/// 60034 76062 8702/
                   333 10294 20182 5//// 87460=
201602161200 AAXX 16124 67543 NIL=
201602160600 AAXX 16064 67543 12978 7//00 10206 20203 48/// 60064 8707/
                   333 10310 20184 5//// 87360=
201602120300 AAXX 12034 67543 NIL=
201602100600 AAXX 10064 67543 12375 7//// 10215 20202 48/// 60014 8265/
                   333 10318 20185 5//// 82707 87360=
201602090600 AAXX 09064 67543 12975 7//00 10200 20193 48/// 60454 8703/
                   333 10334 20170 5//// 87360=
201602080600 AAXX 08064 67543 32970 7//00 10223 20187 48/// 82075
                   333 10321 20165 5//// 82360 87280=
201602040600 AAXX 04064 67543 12375 7//00 10205 20201 48/// 60014 8363/
                   333 10302 20176 5//// 83707 87360=
201602020600 AAXX 02064 67543 12370 8//00 10196 20189 48/// 60054 8367/
                   333 10293 20170 5//// 83708 88360=
201602010600 AAXX 01064 67543 11360 8//00 10200 20194 48/// 60314 887//
                   333 10292 20172 5//// 88707=

################################################################################
#  SYNOPS from 67551, Solwezi (Zambia) | 12-11S | 026-23E | 1386 m
################################################################################
201602290600 AAXX 29064 67551 12375 70903 10219 20197 48545 60074 84530
                   333 10303 20181 58018 84612 87362 91022=
201602260600 AAXX 26064 67551 12980 73203 10210 20191 48520 61374 8707/
                   333 10306 20171 59007 87362 91019=
201602250600 AAXX 25064 67551 32970 40402 10217 20199 48528 80002
                   333 10311 20189 59003 84080 91020=
201602241200 AAXX 24124 67551 NIL=
201602240600 AAXX 24064 67551 31358 70903 10194 20192 48526 74042 83730
                   333 10267 20162 59005=
201602230900 AAXX 23094 67551 NIL=
201602221200 AAXX 22124 67551 NIL=
201602161200 AAXX 16124 67551 NIL=
201602120300 AAXX 12034 67551 NIL=
201602020600 AAXX 02064 67551 12375 72703 10190 20182 48528 60514 84630
                   333 10273 20171 58012 84705 87362 91020=

################################################################################
#  SYNOPS from 67561, Ndola (Zambia) | 13-00S | 028-39E | 1269 m
################################################################################
201603010600 AAXX 01064 67561 11360 72305 10210 20195 48556 60294 72842 8667/
                   333 10296 20186=
201602260600 AAXX 26064 67561 NIL=
201602241200 AAXX 24124 67561 NIL=
201602230900 AAXX 23094 67561 NIL=
201602230600 AAXX 23064 67561 31365 72303 10228 20203 48531 70592 81688
                   333 10310 20203 58017 81708 85360 87280 91020=
201602221200 AAXX 22124 67561 NIL=
201602170600 AAXX 17064 67561 31960 70000 10219 20197 48548 70522 84038
                   333 10290 20189 58008 84360 87280 91022=
201602161200 AAXX 16124 67561 NIL=
201602120300 AAXX 12034 67561 NIL=
201602110600 AAXX 11064 67561 11358 70000 10194 20186 48524 60064 70422 8567/
                   333 10270 20184 59001 86707 87459 91020=
201602090600 AAXX 09064 67561 31960 70503 10206 20191 48531 72842 82038
                   333 10300 20172 58000 82360 86280 91020=
201602030600 AAXX 03064 67561 11260 70000 10189 20184 48529 60344 76166 8677/
                   333 10265 20178 58003 86704 87459 91020=
201602020600 AAXX 02064 67561 31370 82404 10208 20187 48527 70522 8767/
                   333 10296 20189 58010 87709 88459 91020=

################################################################################
#  SYNOPS from 67563, Kafironda (Zambia) | 12-36S | 028-07E | 1243 m
################################################################################
201602290600 AAXX 29064 67563 11970 71001 10210 20195 48/// 69964 70222 81038
                   333 10310 20185 58016 81360 86275=
201602260600 AAXX 26064 67563 NIL=
201602241200 AAXX 24124 67563 NIL=
201602240600 AAXX 24064 67563 11470 72101 10220 20205 48/// 60064 70222 87500
                   333 10260 20175=
201602230900 AAXX 23094 67563 NIL=
201602230600 AAXX 23064 67563 11960 83302 10205 20198 48/// 60104 72996 8197/
                   333 10320 20185 58025 81957 87458=
201602221200 AAXX 22124 67563 NIL=
201602190600 AAXX 19064 67563 32970 11501 10225 20188 48/// 70200 81030
                   333 10300 20175 59017 81360=
201602180600 AAXX 18064 67563 32970 71501 10220 20205 48/// 70222 87030
                   333 10310 20185 59020 87360=
201602170600 AAXX 17064 67563 32970 70801 10210 20180 48/// 70222 80008
                   333 10295 20175 59002 87280=
201602161200 AAXX 16124 67563 NIL=
201602120600 AAXX 12064 67563 11860 80000 10215 20198 48/// 60024 70222 8807/
                   333 10270 20180 59010 88458=
201602120300 AAXX 12034 67563 NIL=
201602110600 AAXX 11064 67563 11360 80000 10200 20192 48/// 60114 72166 887//
                   333 10280 20190 58000 88706=

################################################################################
#  SYNOPS from 67571, Serenje (Zambia) | 13-14S | 030-13E | 1384 m
################################################################################
201603011200 AAXX 01124 67571 41682 73602 10270 20190 48515 71799 86208
                   333 58001 81935 86835 87280=
201603010600 AAXX 01064 67571 12482 71208 10211 20191 48542 60114 70222 875//
                   333 10275 20190 58002 87615=
201602290600 AAXX 29064 67571 32482 70908 10211 20185 48542 70222 8153/
                   333 10282 20200 58018 81615 87360=
201602260600 AAXX 26064 67571 12982 70602 10206 20197 48522 60324 70222 82038
                   333 10296 20185 59007 82360 87280=
201602250600 AAXX 25064 67571 32982 40905 10230 20187 48523 70100 81031
                   333 10303 20177 58006=
201602241200 AAXX 24124 67571 NIL=
201602240600 AAXX 24064 67571 32482 71206 10223 20196 48533 70222 84508
                   333 10298 20196 58015 84618 87280=
201602230900 AAXX 23094 67571 41582 71206 10266 20185 48525 71799 83208
                   333 58016 81920 83820 87280=
201602221200 AAXX 22124 67571 NIL=
201602220900 AAXX 22094 67571 42682 72705 10275 20204 48515 70222 84208
                   333 59004 81930 84830 87280=
201602190900 AAXX 19094 67571 42682 40908 10270 20180 48505 70111 84200
                   333 59017 81930 84830=
201602161200 AAXX 16124 67571 42682 72705 10265 20191 48505 70222 85238
                   333 58006 81930 85830 81360 87280=
201602160600 AAXX 16064 67571 12582 72704 10205 20187 48542 69944 70222 8153/
                   333 10250 20174 58019 81620 87360=
201602150600 AAXX 15064 67571 11380 82705 10190 20182 48521 60104 76166 887//
                   333 10270 20175 5//// 88706=
201602120600 AAXX 12064 67571 12280 82706 10197 20188 48512 60044 70222 886//
                   333 10270 20185 59002 88705=
201602120300 AAXX 12034 67571 NIL=
201602111200 AAXX 11124 67571 41682 63304 10220 20198 48492 72162 84230
                   333 59005 81930 84830 85360=
201602110600 AAXX 11064 67571 12480 72703 10199 20184 48512 60244 70222 8167/
                   333 10274 20176 59004 81710 87360=
201602100900 AAXX 10094 67571 42682 72703 10255 20171 48514 70222 84238
                   333 59004 81935 84835 83360 87280=
201602090600 AAXX 09064 67571 32982 71202 10215 20189 48523 70222 80008
                   333 10301 20160 59005 87280=
201602080600 AAXX 08064 67571 32982 71206 10240 20187 48524 70222 81038
                   333 10290 20166 59009 81360 87280=
201602051200 AAXX 05124 67571 41620 71215 10231 20182 48483 79796 872//
                   333 58015 81930 87830=
201602040600 AAXX 04064 67571 11280 73603 10195 20187 48512 69924 72842 876//
                   333 10267 20166 59013 87705=
201602020600 AAXX 02064 67571 11382 80000 10172 20169 48520 60314 72162 81737
                   333 10280 20167 58016 81706 81360 88280=

################################################################################
#  SYNOPS from 67575, Mkushi (Zambia) | 13-38-00S | 029-26-00E | 1237 m
################################################################################
201602260600 AAXX 26064 67575 NIL=
201602241200 AAXX 24124 67575 NIL=
201602230900 AAXX 23094 67575 NIL=
201602221200 AAXX 22124 67575 NIL=
201602161200 AAXX 16124 67575 NIL=
201602160600 AAXX 16064 67575 12980 50000 10217 20195 48/// 60044 70322 81272
                   333 10245 20175 5//// 81820 82360 82080=
201602120300 AAXX 12034 67575 NIL=
201602030600 AAXX 03064 67575 11480 70000 10200 20193 48/// 60044 72162 84572
                   333 10275 20180 5//// 84615 83360 81080=
201602020600 AAXX 02064 67575 11480 70604 10200 20185 48/// 60034 72162 85670
                   333 10295 20190 5//// 85612 82360=

################################################################################
#  SYNOPS from 67580, Msekera (Zambia) | 13-39S | 032-34E | 1025 m
################################################################################
201603011200 AAXX 01124 67580 41675 70000 10235 20214 48/// 71796 8197/
                   333 5//// 81945 83845 87459=
201603010600 AAXX 01064 67580 12580 70905 10240 20210 48/// 69934 8483/
                   333 10304 20/// 5//// 82820 82623 87360=
201602290600 AAXX 29064 67580 12980 71602 10232 20193 48/// 60034 8707/
                   333 10277 2//// 5//// 87360=
201602260600 AAXX 26064 67580 12980 60000 10250 20222 48/// 60374 86031
                   333 10251 2//// 59015=
201602250600 AAXX 25064 67580 12680 51604 10252 20213 48/// 60074 82101
                   333 10325 2//// 59003=
201602241200 AAXX 24124 67580 41675 70000 10282 20211 48/// 71782 872//
                   333 59005 81945=
201602240600 AAXX 24064 67580 32975 51703 10260 20224 48/// 85201
                   333 10325 2//// 58011 85825 81080=
201602230900 AAXX 23094 67580 NIL=
201602230600 AAXX 23064 67580 32580 51603 10265 20215 48/// 81501
                   333 10360 2//// 58010 81625 85080=
201602221200 AAXX 22124 67580 NIL=
201602190600 AAXX 19064 67580 11575 50000 10237 20220 48/// 60234 70162 82531
                   333 10286 2//// 5//// 82625 85360 81080=
201602161200 AAXX 16124 67580 NIL=
201602150600 AAXX 15064 67580 11475 80000 10207 20194 48/// 60124 72162 8257/
                   333 10287 20/// 5//// 825// 87460=
201602120600 AAXX 12064 67580 32980 70000 10254 20199 48/// 87031
                   333 10326 20/// 59006 87361 82080=
201602120300 AAXX 12034 67580 NIL=
201602110600 AAXX 11064 67580 32980 20000 10250 20206 48/// 80001
                   333 10319 20/// 59004 82080=
201602100600 AAXX 10064 67580 12980 60000 10244 20179 48/// 69964 81038
                   333 10301 20/// 59007 81362 86280=
201602090600 AAXX 09064 67580 32980 70000 10241 20178 48/// 86038
                   333 10322 20/// 58011 86362 87280=
201602080600 AAXX 08064 67580 32980 10000 10235 20198 48/// 80001
                   333 10295 20/// 59014 81080=
201602040600 AAXX 04064 67580 31580 40000 10231 20209 48/// 72841 82132
                   333 10272 20/// 59019 82825 81362 83080=
201602020600 AAXX 02064 67580 12580 70000 10230 20201 48/// 60034 8313/
                   333 10305 20/// 58012 83820 87360=

################################################################################
#  SYNOPS from 67581, Chipata (Zambia) | 13-33S | 032-35E | 1028 m
################################################################################
201603010600 AAXX 01064 67581 32680 71204 10236 20204 48561 8217/
                   333 10270 20176 58001 82840 87360 91022=
201602290600 AAXX 29064 67581 12980 71302 10240 20195 48560 60034 8707/
                   333 10260 20169 58010 87360 91022=
201602260600 AAXX 26064 67581 12980 60305 10255 20190 48532 60334 86070
                   333 10257 20174 59014 86360 91018=
201602241200 AAXX 24124 67581 NIL=
201602240600 AAXX 24064 67581 32680 50904 10262 20217 48549 84101
                   333 10294 20174 58009 84845 85080 91021=
201602230900 AAXX 23094 67581 NIL=
201602230600 AAXX 23064 67581 32680 60903 10270 20215 48541 81102
                   333 10318 20183 58013 81849=
201602221200 AAXX 22124 67581 NIL=
201602190600 AAXX 19064 67581 12680 60604 10245 20176 48525 60454 82130
                   333 10265 20160 5//// 82830 86360 91018=
201602170600 AAXX 17064 67581 32980 51204 10252 20201 48559 85030
                   333 10276 20171 59001 85360 91022=
201602161200 AAXX 16124 67581 NIL=
201602160600 AAXX 16064 67581 12980 70602 10230 20202 48555 60024 8707/
                   333 10274 20176 58012 87460 91022=
201602120300 AAXX 12034 67581 NIL=
201602110600 AAXX 11064 67581 32680 10906 10243 20203 48534 81100
                   333 10291 20187 59004 81830 91018=

################################################################################
#  SYNOPS from 67583, Lundazi (Zambia) | 12-17S | 033-12E | 1143 m
################################################################################
201603010600 AAXX 01064 67583 12480 10000 10242 20214 60014 70120 81231
                   333 1//// 2//// 59002 81812 81360 81080=
201602290600 AAXX 29064 67583 32980 71801 10220 20190 48/// 87030
                   333 1//// 2//// 58023 87360=
201602260600 AAXX 26064 67583 12980 70000 10226 20203 48/// 60294 87031
                   333 1//// 2//// 59011 87360 81080=
201602241200 AAXX 24124 67583 NIL=
201602240600 AAXX 24064 67583 32980 71202 10245 20201 80007
                   333 1//// 2//// 58012 87280=
201602230900 AAXX 23094 67583 NIL=
201602221200 AAXX 22124 67583 NIL=
201602161200 AAXX 16124 67583 NIL=
201602160600 AAXX 16064 67583 12980 70000 10215 20200 48/// 60104 70320 8703/
                   333 10/// 20/// 58014 87360=
201602120600 AAXX 12064 67583 12980 23601 10242 20194 48/// 60104 81031
                   333 10/// 20/// 5//// 81360 81080=
201602120300 AAXX 12034 67583 NIL=
201602100600 AAXX 10064 67583 32680 31501 10257 20196 48/// 81131
                   333 10/// 20/// 59011 81829 81360 81080=
201602040600 AAXX 04064 67583 11359 70000 10220 20206 48/// 60024 75120 877//
                   333 10/// 20/// 59021 87707=
201602020600 AAXX 02064 67583 12380 80102 10212 20196 48/// 60054 70220 8572/
                   333 10/// 20/// 58016 85706 88458=

################################################################################
#  SYNOPS from 67599, Mfuwe (Zambia) | 13-16S | 031-56E | 568 m
################################################################################
201603011500 AAXX 01154 67599 41680 70000 10243 20232 48506 72992 8297/
                   333 59002 81938 81845 87460 91014=
201603011200 AAXX 01124 67599 42680 63604 10332 20225 48537 85231 333=
201603010900 AAXX 01094 67599 42580 70000 10295 20223 48560 83230
                   333 10343=
201603010600 AAXX 01064 67599 32380 70000 10250 20229 48577 81530
                   333 10343 20230 59002 81606 87360 91019=
201602291200 AAXX 29124 67599 42680 71505 10317 20231 48546 86230
                   333 58004 86835 81360 91015=
201602290900 AAXX 29094 67599 42580 71803 10226 48567 86230
                   333 58016 86820 86820 81360 91019=
201602290600 AAXX 29064 67599 32980 72104 10243 20213 48553 87030
                   333 10295 20221=
201602261200 AAXX 26124 67599 42880 53604 10350 20218 48513 85201 333=
201602261014 AAXX 26104 67599 42680 43603 10325 20227 48534 83132 91014=
201602260600 AAXX 26064 67599 32980 30000 10265 20227 48526 83030
                   333 10345 20220 59015 83360 91015=
201602251500 AAXX 25154 67599 41680 70904 10315 20284 48500 71799
                   333 59020 81935 87459=
201602251200 AAXX 25124 67599 41680 63604 10315 20224 48517 85902
                   333 58000 85835 81945 84848 84080 91012=
201602250600 AAXX 25064 67599 12980 51803 10256 20234 48536 60044 82032 333=
201602241200 AAXX 24124 67599 NIL=
201602240600 AAXX 24064 67599 32980 41804 10275 20218 48542 80001
                   333 10370 20225 58013 84080 91017=
201602230900 AAXX 23094 67599 NIL=
201602230600 AAXX 23064 67599 32980 50905 10275 20218 48530 80001
                   333 10360 20225 58007 85080 91015=
201602221200 AAXX 22124 67599 NIL=
201602190600 AAXX 19064 67599 12480 40000 10255 20231 48514 60034 81231
                   333 10327 20221 59023 81810 82360 82080 91014=
201602181500 AAXX 18154 67599 42680 70000 10268 20251 48493 82931
                   333 59019 81930 81835 84360 81080=
201602181200 AAXX 18124 67599 42680 51203 10317 20231 48516 84930
                   333 59010 84820 83835 82360 91012=
201602180600 AAXX 18064 67599 12180 70000 10235 20224 48529 60054 8177/
                   333 10336 20214 59015 81702 87460
                   555 00/// 20000 91017=
201602171500 AAXX 17154 67599 41680 70000 10246 20223 48500 72992 8297/
                   333 59005 81930 81835 86460=
201602171200 AAXX 17124 67599 41680 52405 10329 20234 48528 71722 84932
                   333 59014 81932 83835 81360 81080 91013=
201602170600 AAXX 17064 67599 32980 60000 10243 20224 48545 86030
                   333 10335 20220 58000 86360
                   555 00/// 20004 91018=
201602161200 AAXX 16124 67599 NIL=
201602160600 AAXX 16064 67599 12380 60000 10250 20229 48549 60044 70240 82532
                   333 10302 20220 58013 82606 83360 84080
                   555 00/// 20001 91018=
201602150600 AAXX 15064 67599 11270 80000 10230 20219 48531 60014 76066 8477/
                   333 10330 20225 58020 84703 88459 91017=
201602141500 AAXX 14154 67599 42680 60000 10280 20223 48488 81932
                   333 58016 81930 81360 86080=
201602141200 AAXX 14124 67599 41680 60000 10310 20224 48501 72722 86932
                   333 58010 81940 85842 81360 83080 91011=
201602140900 AAXX 14094 67599 42580 70000 10274 20234 48523 86230
                   333 58013 86820 84360 91015=
201602140600 AAXX 14064 67599 12380 73603 10247 20230 48519 60194 86730
                   333 10350 20220 59002 86708 84360
                   555 00/// 91015=
201602120300 AAXX 12034 67599 NIL=
201602111500 AAXX 11154 67599 42880 73504 10322 20203 48502 81230
                   333 58004 81857 87360=
201602111200 AAXX 11124 67599 42680 73505 10336 20223 48517 58513 83230
                   333 58000 83850 86360 91012=
201602110600 AAXX 11064 67599 32980 20000 10258 20213 48528 82030
                   333 10350 20209 59006 82360 91015=
201602100600 AAXX 10064 67599 32980 31205 10260 20207 48533 83030
                   333 10335 20215 59008 83360 91016=
201602081500 AAXX 08154 67599 42880 13505 10325 20213 48513 81200
                   333 58006 81856=
201602081200 AAXX 08124 67599 42780 43603 10328 20212 48527 84200
                   333 58004 84850 91013=
201602080900 AAXX 08094 67599 42680 43604 10304 20218 48544 84100
                   333 59001 84840 91016=
201602080600 AAXX 08064 67599 32980 10000 10262 20224 48533 81030
                   333 10345 20214 59012 81360
                   555 00/// 20000 91016=
201602051500 AAXX 05154 67599 42680 70000 10333 20226 48501 82307
                   333 58001 81940 81845 87280=
201602051200 AAXX 05124 67599 42680 71204 10231 20231 48512 83207
                   333 58012 83835 87280 91012=
201602050600 AAXX 05064 67599 32380 73403 10247 20226 48522 85531
                   333 10330 20207 58005 85606 81360 82080
                   555 20000 91015=
201602021500 AAXX 02154 67599 41480 70000 10254 20223 48503 8263/
                   333 58028 82617 81925 87359=
201602021200 AAXX 02124 67599 41460 70000 10240 20221 48509 76062 8767/
                   333 58031 84610 87459 91014=
201602020600 AAXX 02064 67599 32380 70000 10250 20228 48532 8373/
                   333 10320 20230 58013 83707 87359
                   555 00/// 20200 91016=

################################################################################
#  SYNOPS from 67625, Kalabo (Zambia) | 14-51S | 022-42E | 1033 m
################################################################################
201602260600 AAXX 26064 67625 32982 70601 10233 20218 48/// 85033
                   333 10324 20200 5//// 85360=
201602241200 AAXX 24124 67625 NIL=
201602240600 AAXX 24064 67625 12982 70302 10230 20207 48/// 69904 81034
                   333 10303 20170 5////=
201602230900 AAXX 23094 67625 NIL=
201602221200 AAXX 22124 67625 NIL=
201602161200 AAXX 16124 67625 NIL=
201602160600 AAXX 16064 67625 12382 70301 10209 20203 48/// 60174 84673
                   333 10335 20183 5//// 84706 86460=
201602120300 AAXX 12034 67625 NIL=
201602040600 AAXX 04064 67625 12382 53502 10225 20217 48/// 60064 81630
                   333 10296 20193 5//// 81706 85361=

################################################################################
#  SYNOPS from 67633, Mongu (Zambia) | 15-15S | 023-09E | 1052 m
################################################################################
201603010600 AAXX 01064 67633 12980 73605 10213 20198 48524 60284 70222 8707/
                   333 10297 20198=
201602290600 AAXX 29064 67633 12380 70804 10220 20203 48526 60214 70222 82738
                   333 10307 20200 58026 82707 85360 87280 91019=
201602260600 AAXX 26064 67633 12980 70000 10232 20212 48513 60014 70222 8707/
                   333 10310 20200=
201602250600 AAXX 25064 67633 32980 30903 10251 20207 48525 70200 81032
                   333 10332 20210 59008 81360 83080 91018=
201602241200 AAXX 24124 67633 NIL=
201602240600 AAXX 24064 67633 32980 40902 10227 20192 48529 70222 80002
                   333 10319 20195 58006 84080 91019=
201602230900 AAXX 23094 67633 NIL=
201602221200 AAXX 22124 67633 NIL=
201602180600 AAXX 18064 67633 12980 61505 10242 20201 48519 69904 70222 82038
                   333 10305 20202 59002 82361 86280 91018=
201602170600 AAXX 17064 67633 12980 63605 10222 20193 48513 60284 70162 86038
                   333 10313 20194 59017 86360 86280 91018=
201602161200 AAXX 16124 67633 NIL=
201602150600 AAXX 15064 67633 32980 73604 10224 20202 48506 70222 84038
                   333 10320 20195 58006 84360 87280 91017=
201602120300 AAXX 12034 67633 NIL=
201602090600 AAXX 09064 67633 32980 30904 10235 20205 48522 70200 80002
                   333 10338 20191 58009 83080 91018=
201602020600 AAXX 02064 67633 12980 73603 10216 20200 48531 60024 70222 8707/
                   333 10291 20200 58019 87460 91019=
201602011200 AAXX 01124 67633 42680 60906 10275 20204 48509 70222 83232
                   333 59013 83850 83361 82280 91016=

################################################################################
#  SYNOPS from 67641, Kaoma (Zambia) | 14-48S | 024-48E | 1213 m
################################################################################
201603010600 AAXX 01064 67641 11680 70000 10205 20198 48536 60104 72055 8553/
                   333 10/// 20199=
201602290600 AAXX 29064 67641 11680 80802 10210 20204 48528 60314 75055 8357/
                   333 10/// 20200 58023 82620 87460 91018=
201602260600 AAXX 26064 67641 32680 42601 10220 20201 48491 60034 84131
                   333 1//// 20206 59012=
201602250600 AAXX 25064 67641 32980 40000 10234 20210 48503 85030
                   333 1//// 20203 59001 85360 91016=
201602241200 AAXX 24124 67641 NIL=
201602230900 AAXX 23094 67641 NIL=
201602230600 AAXX 23064 67641 11680 61702 10215 20205 48510 60024 72052 81530
                   333 1//// 20192=
201602221200 AAXX 22124 67641 NIL=
201602190600 AAXX 19064 67641 32980 08001 10226 20196 48472
                   333 1//// 20185 59031 91013=
201602161200 AAXX 16124 67641 NIL=
201602120300 AAXX 12034 67641 42580 61805 10254 20200 40123 54000 86200
                   333 94324=
201602110600 AAXX 11064 67641 12982 73501 10218 20199 48501 69914 85530
                   333 10/// 20190 59005 85630 82360 91016=
201602090600 AAXX 09064 67641 12682 70301 10211 20204 48510 60034 81530
                   333 10/// 20206 58005 81630 87360 91017=
201602030600 AAXX 03064 67641 12682 72802 10200 20188 48512 60014 81530
                   333 10/// 20193 58006 81630 87360 91017=

################################################################################
#  SYNOPS from 67655, Mumbwa (Zambia) | 15-04S | 027-11E | 1216 m
################################################################################
201602260600 AAXX 26064 67655 NIL=
201602241200 AAXX 24124 67655 NIL=
201602230900 AAXX 23094 67655 NIL=
201602221200 AAXX 22124 67655 NIL=
201602161200 AAXX 16124 67655 NIL=
201602120300 AAXX 12034 67655 NIL=
201602010600 AAXX 01064 67655 12380 70000 10208 20198 48533 60374 8277/
                   333 10269 20/// 59015 82706 86358 91019=

################################################################################
#  SYNOPS from 67659, Kafue Polder (Zambia) | 15-46S | 027-55E | 978 m
################################################################################
201602260600 AAXX 26064 67659 32980 7//// 10235 2//// 48/// 70222 85032
                   333 10305 2//// 5////=
201602250600 AAXX 25064 67659 12380 41002 10230 20223 48/// 69904 70322 83202
                   333 10308 2//// 59005 83825 81080=
201602241200 AAXX 24124 67659 NIL=
201602230900 AAXX 23094 67659 NIL=
201602230600 AAXX 23064 67659 12380 71402 10234 20211 48/// 60024 70222 81532
                   333 10355 2////=
201602221200 AAXX 22124 67659 NIL=
201602161200 AAXX 16124 67659 NIL=
201602120300 AAXX 12034 67659 NIL=
201602100600 AAXX 10064 67659 32980 00902 10220 20/// 48/// 70222
                   333 10239 20/// 5////=

################################################################################
#  SYNOPS from 67662, Kabwe Agric (Zambia) | 14-24S | 028-30E | 1165 m
################################################################################
201603010600 AAXX 01064 67662 12380 80000 10198 20186 48/// 60064 8567/
                   333 10294 20/// 5////=
201602290600 AAXX 29064 67662 11960 80000 10188 20178 60404 76566 8807/
                   333 10292 2////=
201602260600 AAXX 26064 67662 NIL=
201602250600 AAXX 25064 67662 31370 60000 10225 20212 48/// 74144 82638
                   333 10313 20/// 5////=
201602241200 AAXX 24124 67662 NIL=
201602230900 AAXX 23094 67662 NIL=
201602230600 AAXX 23064 67662 32980 71203 10240 20203 48/// 84037
                   333 10325 2//// 84360=
201602221200 AAXX 22124 67662 NIL=
201602161200 AAXX 16124 67662 NIL=
201602120300 AAXX 12034 67662 NIL=
201602110600 AAXX 11064 67662 12980 73607 10214 20201 48/// 60044 87030
                   333 10303 20/// 5//// 87360=
201602080600 AAXX 08064 67662 32980 70502 10221 20202 48/// 83037
                   333 10303 20/// 5//// 83360 87280=
201602030600 AAXX 03064 67662 12480 70000 10194 20180 48/// 61294 875//
                   333 10275 20/// 5//// 87612=

################################################################################
#  SYNOPS from 67663, Kabwe (Zambia) | 14-27S | 028-28E | 1206 m
################################################################################
201603010600 AAXX 01064 67663 11380 81807 10193 20184 48552 60244 70262 8577/
                   333 10297 20181 58003 85707 88460=
201602290600 AAXX 29064 67663 11475 82907 10178 20177 48547 60194 76166 8357/
                   333 10273 20175 58038 83618 88460=
201602260600 AAXX 26064 67663 NIL=
201602250600 AAXX 25064 67663 32980 41307 10223 20207 48533 81032
                   333 10305 20191 59001 81360=
201602241200 AAXX 24124 67663 NIL=
201602240600 AAXX 24064 67663 12980 60906 10227 20202 48534 60014 80008
                   333 10293 20193 58010 86280=
201602230900 AAXX 23094 67663 NIL=
201602230600 AAXX 23064 67663 12980 51803 10243 20210 48526 60014 81038
                   333 10334 20203 58006 81360 85280=
201602221200 AAXX 22124 67663 NIL=
201602190600 AAXX 19064 67663 32480 40408 10222 20192 48509 81360
                   333 10288 20187 59016 81617 83360=
201602161200 AAXX 16124 67663 NIL=
201602120300 AAXX 12034 67663 NIL=
201602110600 AAXX 11064 67663 32980 63406 10212 20191 48517 86030
                   333 10304 20190 58003 86360=
201602090600 AAXX 09064 67663 32980 60403 10216 20200 48515 85072
                   333 10318 20188 58004 85460 83080=
201602050600 AAXX 05064 67663 32980 73603 10199 20190 48513 87080
                   333 10304 20199 58012 87460=

################################################################################
#  SYNOPS from 67665, Lusaka Internationalairport (Zambia) | 15-19S | 028-27E | 1152 m
################################################################################
201603020300 AAXX 02034 67665 42980 61202 10194 20177 48518 86070
                   333 59026 86459=
201603020000 AAXX 02004 67665 42980 31102 10195 20180 48523 83070
                   333 59/// 83459=
201603012100 AAXX 01214 67665 42980 40903 10202 20187 48541 84030
                   333 59013 84360=
201603010900 AAXX 01094 67665 42460 82902 10225 20198 48560 70266=
201603010600 AAXX 01064 67665 11354 82406 10189 20189 48564 76366 887//
                   333 58009 88707=
201603010300 AAXX 01034 67665 42980 40304 10209 20186 48546 84031
                   333 58001 83360 82080=
201602292100 AAXX 29214 67665 42980 41004 10214 20175 48555 84031
                   333 58006 84360 83080=
201602291800 AAXX 29184 67665 42680 41203 10220 20182 48541 81930
                   333 58013 81945 83360=
201602291500 AAXX 29154 67665 42680 51007 10269 20234 48527 81902
                   333 58015 81938 84640 81080=
201602290900 AAXX 29094 67665 42360 70205 10211 20204 48561 72162 85630 333=
201602281800 AAXX 28184 67665 42980 41008 10210 20155 48527 70222 84031
                   333 58027 84360 83080=
201602281500 AAXX 28154 67665 42560 70906 10246 20161 48510 70222 85571 333=
201602281200 AAXX 28124 67665 42560 70507 10239 20178 48525 70222 8557/
                   333 58029 85630 87459=
201602280900 AAXX 28094 67665 41460 71003 10216 20184 48540 76162 8557/ 333=
201602280600 AAXX 28064 67665 11359 72605 10205 20205 48529 76162 8277/ 333=
201602280300 AAXX 28034 67665 42960 72903 10212 20180 48512 70322 8703/ 333=
201602280000 AAXX 28004 67665 42980 51601 10212 20180 48509 70222 85030
                   333 58000 85360=
201602272100 AAXX 27214 67665 42980 60803 10218 20178 48525 70322 86030 333=
201602271800 AAXX 27184 67665 42980 81303 10227 20185 48503 82063
                   333 59007 82360 88080=
201602271500 AAXX 27154 67665 42580 81305 10224 20186 48490 82963
                   333 59007 82945 81848 82359 88080=
201602271200 AAXX 27124 67665 42580 73605 10268 20199 48500 84903
                   333 59014 84938 82840 85080=
201602270900 AAXX 27094 67665 42580 60000 10250 20183 48522 70222 8623/
                   333 59006=
201602270000 AAXX 27004 67665 42760 72604 10192 20150 48507 70122 8703/
                   333 59002 87360=
201602261800 AAXX 26184 67665 42760 72401 10213 20166 48506 70222 8193/
                   333 10299 59004 81950 87360=
201602261500 AAXX 26154 67665 41660 71704 10216 20189 48495 72992 8193/
                   333 58000 81940 87359=
201602261200 AAXX 26124 67665 41659 73504 10229 20214 48503 79592 8197/
                   333 59035 81930 85830 87459=
201602260600 AAXX 26064 67665 NIL=
201602252100 AAXX 25214 67665 42980 20601 10213 20148 48514 81030
                   333 59021 81360=
201602251800 AAXX 25184 67665 42680 31522 10244 20167 48515=
201602251500 AAXX 25154 67665 42680 51507 10275 20188 48502=
201602250900 AAXX 25094 67665 42580 50609 10267 20194 48545 70122 85200
                   333 59004 85825 91020=
201602250600 AAXX 25064 67665 32480 50604 10235 20183 48540 81202
                   333 10328 20//0 59006 81820 84080=
201602250300 AAXX 25034 67665 42980 40000 10198 20166 48527 82032
                   333 59003 82360 82080=
201602250000 AAXX 25004 67665 42980 41305 10201 20178 48520 81032
                   333 59020 81360 83080=
201602242100 AAXX 24214 67665 42980 51306 10216 20186 83032
                   333 59012 83360 82080=
201602241200 AAXX 24124 67665 NIL=
201602231800 AAXX 23184 67665 42780 71404 10224 20161 48531
                   333 58028 82956 83360 86080=
201602231500 AAXX 23154 67665 42680 71502 10268 20194 48514 82932
                   333 58024 82942 82845 82360 85080=
201602231200 AAXX 23124 67665 42680 60109 10277 20213 48529 82902
                   333 58015 82935 83838 83080=
201602230900 AAXX 23094 67665 NIL=
201602221200 AAXX 22124 67665 NIL=
201602220900 AAXX 22094 67665 42580 70000 10236 20214 48527 8253/
                   333 58001 82625 86360=
201602220600 AAXX 22064 67665 11459 71807 10189 20174 48535 79592 8297/
                   333 59021 82915 87459
                   555 00///=
201602220300 AAXX 22034 67665 42/80 23303 10228 20167 48502 71399 81930
                   333 59008 819// 82360 91016=
201602220000 AAXX 22004 67665 41780 30000 10223 20158 48494 71322 81930
                   333 59014 81956 82360=
201602212100 AAXX 21214 67665 42980 10000 10237 20154 48513 70200 81030
                   333 59001 81360 91017=
201602211500 AAXX 21154 67665 42580 13604 10314 20207 48489 81201
                   333 59004 81845 81080=
201602211200 AAXX 21124 67665 42580 40405 10316 20221 48511 84200
                   333 59001 84840=
201602210900 AAXX 21094 67665 42580 32803 10287 20208 48532 70200
                   333 58002=
201602210600 AAXX 21064 67665 32980 02605 10250 20191 48522 70200
                   333 10335 20//0 59014=
201602210300 AAXX 21034 67665 42980 00000 10192 20140 48505 70200
                   333 58001=
201602210000 AAXX 21004 67665 42980 01604 10201 20150 48505 70200
                   333 58003=
201602201800 AAXX 20184 67665 42980 11202 10258 20184 48504 70200 81030
                   333 10336 58003 81360=
201602201500 AAXX 20154 67665 42780 31302 10306 20155 48493 70100 82130
                   333 58002 82850 81360=
201602201200 AAXX 20124 67665 42680 40306 10306 20184 48511 70300 84200
                   333 58006 84835=
201602200000 AAXX 20004 67665 42980 10000 10203 20162 48502 81030
                   333 59004 81360=
201602192100 AAXX 19214 67665 42980 01002 10215 20168 48511
                   333 59007=
201602191800 AAXX 19184 67665 42680 20903 10246 20166 48500 70212 81230
                   333 59009 81845 82360=
201602191500 AAXX 19154 67665 42680 61206 10283 20196 48488 70222 86200
                   333 59012 86837 81080=
201602191200 AAXX 19124 67665 42680 60809 10281 20194 48504 70222 86200
                   333 59019 86835=
201602190900 AAXX 19094 67665 42580 50410 10268 20185 48533 70222 85100
                   333 59020 85825 91018=
201602190600 AAXX 19064 67665 32980 21006 10206 20187 48518 81032
                   333 10314 20//0 59024 81360 81080=
201602190300 AAXX 19034 67665 42980 01302 10180 20138 48504
                   333 59015=
201602190000 AAXX 19004 67665 42980 01402 10180 20138 48504
                   333 59019=
201602182100 AAXX 18214 67665 42980 01602 10200 20151 48517
                   333 59012=
201602180300 AAXX 18034 67665 42980 01305 10195 20178 48521
                   333 59018=
201602171800 AAXX 17184 67665 42980 23504 10237 20193 48536 80002
                   333 59013 82080=
201602171500 AAXX 17154 67665 42680 40908 10278 20222 48519 81902
                   333 59004 81940 83842 81080=
201602171200 AAXX 17124 67665 42680 60910 10276 20227 48538 81902
                   333 58006 81932 84838 82080=
201602170900 AAXX 17094 67665 42580 50809 10257 20206 48561 85800
                   333 58012 83620 82825=
201602170600 AAXX 17064 67665 11358 70502 10266 20199 48555 71022 876//
                   333 58010 87707=
201602161200 AAXX 16124 67665 NIL=
201602160600 AAXX 16064 67665 41358 83002 10207 20191 48542 71042 886//
                   333 10230 20//0 58013 88708=
201602160300 AAXX 16034 67665 42980 53003 10194 20169 48523 85030
                   333 58018 85360=
201602160000 AAXX 16004 67665 41350 43103 10196 20171 48518 71000 83630
                   333 58013 83706 83360=
201602150900 AAXX 15094 67665 42580 73303 10239 20170 48540 70222 8553/
                   333 58018 85630 87360=
201602150600 AAXX 15064 67665 32980 62903 10213 20174 48528 70222 81031
                   333 58008 82360 86080=
201602150300 AAXX 15034 67665 42980 62603 10193 20170 48506 70222 85031
                   333 58004 85360 84080=
201602142100 AAXX 14214 67665 42970 70000 10201 20179 48507 70222 86031
                   333 58003 86360 84080=
201602141800 AAXX 14184 67665 42970 71303 10212 20190 48498 70222 86032
                   333 10300 58005 86360 84080=
201602141500 AAXX 14154 67665 42670 61009 10226 20190 48484 70322 81930
                   333 58009 81940 84840 85360=
201602141200 AAXX 14124 67665 41560 61205 10257 20221 48496 76092 81330
                   333 58005 81925 85825 83360=
201602140600 AAXX 14064 67665 12380 62804 10219 20191 48520 60044 86631
                   333 10305 20//0 58003 86709 84360 81080=
201602131500 AAXX 13154 67665 42580 61207 10268 20191 48480 70222 85331
                   333 59008 81925 84830 83360 84080=
201602131200 AAXX 13124 67665 42680 60906 10282 20194 48497 70222 85230
                   333 59012 85835 83360=
201602130900 AAXX 13094 67665 42580 50405 10276 20194 48518 70222 84230
                   333 59011 84825 82360=
201602130600 AAXX 13064 67665 42580 32804 10226 20195 48520 81130
                   333 10324 20//0 59004 81825 83360=
201602130300 AAXX 13034 67665 42980 22802 10199 20167 48498 81031
                   333 59002 81360 81080=
201602130000 AAXX 13004 67665 42980 22702 10210 20115 48502 82030
                   333 58000 82360=
201602122100 AAXX 12214 67665 42980 33502 10234 20181 48516 83030
                   333 59005 83360=
201602120600 AAXX 12064 67665 32980 12902 10223 20169 48522 70100 81031
                   333 59006 81360 81080=
201602120300 AAXX 12034 67665 42980 32403 10188 20156 48507 83030
                   333 59006 83360=
201602112100 AAXX 11214 67665 42480 53303 10220 20174 48519 85030
                   333 58001 85360=
201602111800 AAXX 11184 67665 42480 70708 10226 20181 48509 875//
                   333 58004 819// 87615=
201602111500 AAXX 11154 67665 42680 33406 10283 20211 48488 81902
                   333 59003 81935 83840 81080=
201602111200 AAXX 11124 67665 42680 50504 10285 20214 48512 85200
                   333 59001 85830=
201602100600 AAXX 10064 67665 32980 21202 10217 20184 48535 70100 82030
                   333 10300 20/// 59002 82360=
201602100300 AAXX 10034 67665 42980 20000 10176 20169 48514 70200 82030
                   333 59006 82360=
201602100000 AAXX 10004 67665 42980 40000 10193 20180 48516 70222 84030
                   333 59004 84360=
201602092100 AAXX 09214 67665 42980 41904 10192 20176 48527 70222 84030
                   333 59007 84360=
201602090900 AAXX 09094 67665 42580 60508 10256 20214 48542 70322 83232
                   333 58002 83825 85360 82080=
201602090000 AAXX 09004 67665 42980 42605 10201 20183 48522 70122 84030
                   333 58009 84360=
201602082100 AAXX 08214 67665 42780 51802 10212 20190 48537 71322 81930
                   333 58010 81956 84360=
201602081800 AAXX 08184 67665 42780 52005 10212 20189 48531 71322 81930
                   333 10318 58021 81956 84360=
201602081500 AAXX 08154 67665 42680 61503 10242 20179 48513 70222 85230
                   333 58011 85840 84460=
201602081200 AAXX 08124 67665 42580 50207 10290 20187 48522 70322 85230
                   333 59003 81925 85825 83360=
201602071500 AAXX 07154 67665 42680 42506 10257 20148 48504 70122 84231
                   333 59018 84840 82360 82080=
201602071200 AAXX 07124 67665 42680 53406 10288 20167 48525 70222 85231
                   333 59008 85840 82360 81080=
201602070900 AAXX 07094 67665 42580 40302 10257 20180 48546 70322 84230
                   333 59001 84825 82360=
201602062100 AAXX 06214 67665 42980 42702 10195 20172 48535 84030
                   333 58012 84360=
201602060300 AAXX 06034 67665 42980 60902 10185 20161 48516 70222 80008
                   333 58022 86280=
201602060000 AAXX 06004 67665 42980 61202 10189 20159 48516 70321 80008
                   333 58019 86280=
201602051800 AAXX 05184 67665 42680 61602 10212 20182 48509 82932
                   333 58011 82948 83360 83080=
201602051500 AAXX 05154 67665 41559 71906 10224 20202 48492 71798 82932
                   333 58006 82928 84830 82080=
201602051200 AAXX 05124 67665 42680 63405 10283 20212 48512 85202
                   333 58007 85830 82080=
201602050900 AAXX 05094 67665 42480 53004 10246 20203 48531 82131
                   333 58008 82815 82360 83080=
201602040900 AAXX 04094 67665 42580 43004 10272 20164 48526 84200
                   333 59013 84828=
201602040300 AAXX 04034 67665 42980 02701 20171 48501 70200
                   333 59014=
201602032100 AAXX 03214 67665 42980 31202 10191 20184 48513 70200 83030
                   333 59014 83360=
201602030600 AAXX 03064 67665 12360 73303 10197 20184 48532 70122 8463/
                   333 58001 84703 87350
                   555 00///=
201602030300 AAXX 03034 67665 42360 52802 10181 20155 48515 70200 81630
                   333 58000 81708 84360 91018=
201602030000 AAXX 03004 67665 42360 52602 10184 20167 48514 70200 82630
                   333 58005 82707 83360=
201602021800 AAXX 02184 67665 42359 71002 10195 20188 48522 72166 84670
                   333 10290 58014 84709 85459=
201602021500 AAXX 02154 67665 41458 71503 10195 20195 48507 76166 8557/
                   333 58014 85625 87459=
201602021200 AAXX 02124 67665 42480 61004 10257 20179 48510 71522 81930
                   333 59001 81925 85825 83359=
201602011800 AAXX 01184 67665 41760 60000 10211 20172 48509 71322 81932
                   333 10284 59026 81950 83360 85280=
201602010900 AAXX 01094 67665 42580 61109 10245 20185 48528 70222 86830
                   333 59010 82622 85825 84360=
201602010600 AAXX 01064 67665 32480 70807 10215 20196 48525 84530
                   333 59013 84612 85359=

################################################################################
#  SYNOPS from 67666, Lusaka City Airport (Zambia) | 15-25-00S | 028-28-00E | 1280 m
################################################################################
201603010600 AAXX 01064 67666 11380 81205 10187 20167 48556 60274 76122 887//
                   333 10270 20/// 58005 88707 91023=
201602290600 AAXX 29064 67666 11379 80406 10185 20177 48555 60104 76162 887//
                   333 10252 2//// 58028 88707 91023=
201602260600 AAXX 26064 67666 32980 60000 10235 20205 48523 83031
                   333 10299 2//// 59008 83359 83080 91019=
201602250600 AAXX 25064 67666 32480 40907 10239 20205 48532 82501
                   333 10290 2//// 5//// 82610=
201602241200 AAXX 24124 67666 NIL=
201602240600 AAXX 24064 67666 12980 30912 10226 20195 48/// 60034 70211 80001
                   333 10295 2//// 5//// 83080=
201602230900 AAXX 23094 67666 NIL=
201602230600 AAXX 23064 67666 32980 71403 10240 20185 48527 82031
                   333 10300 2//// 5//// 82360=
201602221200 AAXX 22124 67666 NIL=
201602161200 AAXX 16124 67666 NIL=
201602160600 AAXX 16064 67666 32380 73404 10215 20201 48531 876//
                   333 10265 20/// 58016 87710 91021=
201602150600 AAXX 15064 67666 12980 50000 10207 20187 48520 60034 80001
                   333 10280 20/// 58006 85080 91019=
201602120600 AAXX 12064 67666 32980 00402 10221 20182 48512
                   333 10293 20//0 59009 91018=
201602120300 AAXX 12034 67666 NIL=
201602110600 AAXX 11064 67666 32980 40804 10211 20187 48522 70222 84031
                   333 10290 20/// 59006 84359 82080 91019=
201602090600 AAXX 09064 67666 12980 71305 10229 20185 48532 60014 70220 85088
                   333 10285 20/// 58005 85358 87275 91020=
201602080600 AAXX 08064 67666 12980 30806 10229 20202 48523 60194 80001
                   333 10285 20/// 59013 83080 91019=
201602040600 AAXX 04064 67666 12980 43002 10215 20196 48511 60034 80001
                   333 10264 20/// 59010 84080 91018=
201602020600 AAXX 02064 67666 32380 80909 10205 20190 48528 885//
                   333 10267 20/// 59007 88609 91019=
201602010600 AAXX 01064 67666 12380 80914 10203 20183 48521 60034 70222 887//
                   333 10266 20/// 58012 88709 91019=

################################################################################
#  SYNOPS from 67667, Mount Makulu (Zambia) | 15-33S | 028-15E | 1213 m
################################################################################
201603010600 AAXX 01064 67667 11580 83002 10185 20179 48/// 60204 76162 86508
                   333 10266 20175 58004 86625 88280=
201602290600 AAXX 29064 67667 11580 83602 10191 20182 48/// 60054 76022 885//
                   333 10243 20168 58008 88625=
201602260600 AAXX 26064 67667 32980 72702 10234 20182 48/// 80008
                   333 10302 20190 59010=
201602250600 AAXX 25064 67667 12680 50904 10220 20212 48/// 60054 81102
                   333 10286 20185 59004 81830 85080=
201602241200 AAXX 24124 67667 NIL=
201602240600 AAXX 24064 67667 32580 50912 10230 20185 48/// 82102
                   333 10295 20183 58007 82625=
201602230900 AAXX 23094 67667 NIL=
201602230600 AAXX 23064 67667 32680 70903 10238 20192 48/// 82032
                   333 10295 20176 58013 82360=
201602221200 AAXX 22124 67667 NIL=
201602190600 AAXX 19064 67667 32980 20908 10245 20155 48/// 80002
                   333 10290 20180 59010 82080=
201602180600 AAXX 18064 67667 12580 30910 10220 20175 48/// 60064 81102
                   333 10282 20190 5//// 81825 83080=
201602170600 AAXX 17064 67667 12980 71802 10235 20198 48/// 60104 80008
                   333 10310 20180 5//// 87280=
201602161200 AAXX 16124 67667 NIL=
201602160600 AAXX 16064 67667 12580 63001 10215 20203 48/// 60354 81502
                   333 10270 20175 58018 81625 86080=
201602150600 AAXX 15064 67667 12980 70901 10225 20196 48/// 60134 80008
                   333 10295 20180 58006 87280=
201602120600 AAXX 12064 67667 32980 23603 10235 20190 48/// 80002
                   333 10302 20170 59007 82080=
201602120300 AAXX 12034 67667 NIL=
201602110600 AAXX 11064 67667 32580 60904 10225 20197 48/// 81102
                   333 10300 20168 59009 81825 86080=
201602100900 AAXX 10094 67667 42680 40505 10266 20208 48538 84830=
201602100600 AAXX 10064 67667 12980 10903 10238 20198 48/// 60194 80001
                   333 10292 20165 59004 81080=
201602080600 AAXX 08064 67667 32980 60906 10245 20188 48/// 80002
                   333 10295 20175 59007 86080=
201602030600 AAXX 03064 67667 12580 63603 10210 20188 48/// 60354 82502
                   333 10272 20160 58000 82620 86080=
201602020600 AAXX 02064 67667 32580 63601 10220 20196 48/// 84502
                   333 10275 20190 58004 84620 86080=

################################################################################
#  SYNOPS from 67673, Petauke (Zambia) | 14-15S | 031-17E | 1035 m
################################################################################
201603011200 AAXX 01124 67673 41680 60801 10247 20207 48542 72992 85231
                   333 59002 81930 85830 86360 82080=
201603010600 AAXX 01064 67673 12584 50801 10240 20208 48572 60564 85531
                   333 1//// 20203 59004 85628 83360 81080=
201602291200 AAXX 29124 67673 42684 63402 10294 20203 48551 86231
                   333 58007 86835 83360=
201602290600 AAXX 29064 67673 12584 50000 10238 20198 48576 69904 84530
                   333 1//// 20195 58035 84630 85360=
201602261200 AAXX 26124 67673 41684 63001 10308 20203 48521 71522 86201
                   333 86840 84080=
201602260600 AAXX 26064 67673 NIL=
201602251200 AAXX 25124 67673 42684 62702 10294 20215 48524 86201
                   333 59006 86840 84080=
201602250900 AAXX 25094 67673 42684 51002 10286 20213 48554 85231
                   333 58011 85832 82360 83080=
201602250600 AAXX 25064 67673 12584 40201 10260 20208 48553 60184 83101
                   333 1//// 20195 58004=
201602241200 AAXX 24124 67673 NIL=
201602240600 AAXX 24064 67673 12680 40902 10275 20210 48550 60064 81102
                   333 1//// 20225 58020=
201602230900 AAXX 23094 67673 NIL=
201602230600 AAXX 23064 67673 32980 70902 10255 20203 48524 80008
                   333 1//// 20235 59007=
201602221200 AAXX 22124 67673 42684 53601 10330 20201 48529 85201
                   333 58004 85840 82080=
201602220900 AAXX 22094 67673 42684 43601 10310 20210 48544 84101
                   333 59001 84835 82080=
201602190600 AAXX 19064 67673 12680 33602 10245 20194 48533 69904 82101
                   333 1//// 20210 59018 82830 81080=
201602181200 AAXX 18124 67673 42684 50901 10294 20184 48526 85200
                   333 59012 85840=
201602170600 AAXX 17064 67673 12584 63601 10248 20225 48571 60054 83130
                   333 10/// 20204 58020 83828 86360=
201602161200 AAXX 16124 67673 NIL=
201602150600 AAXX 15064 67673 32580 73603 10218 20191 48535 8357/
                   333 10/// 20202 58008 83628 87460=
201602120600 AAXX 12064 67673 32980 73604 10245 20201 48535 8703/
                   333 10//0 20205 58000 87360=
201602120300 AAXX 12034 67673 NIL=
201602100600 AAXX 10064 67673 12984 00902 10260 20175 48549 60024
                   333 10/// 20200 58015=
201602090600 AAXX 09064 67673 32584 60901 10248 20193 48556 82131
                   333 10/// 20195 58014 82828 86360 82080=
201602051200 AAXX 05124 67673 42684 62701 10300 20198 48523 86202
                   333 58014 86840 85080=
201602050600 AAXX 05064 67673 12584 53001 10240 20212 48540 60014 83131
                   333 10/// 20195 58003 83828 82360 85080=
201602011200 AAXX 01124 67673 41580 63001 10244 20218 48507 78022 86231
                   333 59010 86830 84360 81080=
201602010900 AAXX 01094 67673 42680 60502 10260 20200 48534 86830
                   333 59016 82830 84632 84360=

################################################################################
#  SYNOPS from 67731, Senanga (Zambia) | 16-06S | 023-16E | 1027 m
################################################################################
201603010600 AAXX 01064 67731 11460 809// 10200 20191 48/// 60184 76166 8357/
                   333 10339 20154=
201602290600 AAXX 29064 67731 12480 805// 10237 20182 48/// 69904 70222 83578
                   333 10322 20202 59012 83615 87460 87280=
201602260600 AAXX 26064 67731 12980 718// 10231 20208 48/// 60014 70222 85038
                   333 10335 20164=
201602250600 AAXX 25064 67731 32480 30707 10246 2//// 48536 72842 83501
                   333 10285 20185 58001=
201602241200 AAXX 24124 67731 NIL=
201602230900 AAXX 23094 67731 NIL=
201602221200 AAXX 22124 67731 NIL=
201602170600 AAXX 17064 67731 12980 427// 10236 20184 48/// 69904 80008
                   333 10334 20183 5//// 84080=
201602161200 AAXX 16124 67731 NIL=
201602120300 AAXX 12034 67731 NIL=
201602080600 AAXX 08064 67731 32980 821// 10230 20188 48/// 70222 84038
                   333 10336 20179 58000 84360 88280
                   555 00/// 20000=
201602010600 AAXX 01064 67731 12580 818// 10220 20209 48/// 69904 70322 82952
                   333 10280 20187 59000 82927 87362 84080=

################################################################################
#  SYNOPS from 67741, Sesheke (Zambia) | 17-28S | 024-18E | 949 m
################################################################################
201603010600 AAXX 01064 67741 12680 70801 10222 20/// 48548 60274 875//
                   333 10240 20209 58005=
201602290600 AAXX 29064 67741 12980 70901 10230 20209 48540 60034 8707/
                   333 10307 20215 5//// 87460=
201602260600 AAXX 26064 67741 12980 71801 10246 20220 48525 60014 8157/
                   333 10362 20224 59008=
201602250600 AAXX 25064 67741 12980 60701 10252 20217 48535 69904 86030
                   333 10349 20217 59007=
201602241200 AAXX 24124 67741 NIL=
201602240600 AAXX 24064 67741 32980 50701 10225 20202 48538 85030
                   333 10341 20189 59003 85362=
201602230900 AAXX 23094 67741 NIL=
201602230600 AAXX 23064 67741 12980 60000 10243 20211 48542 60024 86030
                   333 10263 20193 58021=
201602221200 AAXX 22124 67741 NIL=
201602161200 AAXX 16124 67741 NIL=
201602120600 AAXX 12064 67741 12980 50901 10246 20188 48525 69904 85030
                   333 10342 20200 58006 85362=
201602120300 AAXX 12034 67741 NIL=
201602110600 AAXX 11064 67741 32980 03601 10260 20202 48517
                   333 10349 20214 59009=
201602100600 AAXX 10064 67741 32980 60000 10232 20211 48521 86040
                   333 10331 20204 59004 86362=
201602050600 AAXX 05064 67741 12980 73301 10214 20192 48508 60014 8707/
                   333 10350 20209 58002 87460=

################################################################################
#  SYNOPS from 67743, Livingstone (Zambia) | 17-49S | 025-49E | 985 m
################################################################################
201602260600 AAXX 26064 67743 NIL=
201602241200 AAXX 24124 67743 NIL=
201602230900 AAXX 23094 67743 NIL=
201602230600 AAXX 23064 67743 32580 71110 10231 20197 48534 60024 70222 81132
                   333 10277 20209=
201602221200 AAXX 22124 67743 NIL=
201602161200 AAXX 16124 67743 NIL=
201602160600 AAXX 16064 67743 12980 21503 10229 20190 48534 60044 70200 81031
                   333 10320 20203 58022 81360 81080 91019=
201602150600 AAXX 15064 67743 12980 61003 10219 20198 48509 60114 70222 80001
                   333 10321 20186 58008 86075 91016=
201602120300 AAXX 12034 67743 NIL=
201602050600 AAXX 05064 67743 12980 63204 10215 20193 48535 60124 70122 86030
                   333 10346 20194 58001 86359 91020=

################################################################################
#  SYNOPS from 67751, Magoye (Zambia) | 16-00S | 027-36E | 1018 m
################################################################################
201603010600 AAXX 01064 67751 11980 83602 10200 20217 48/// 60354 76366 8801/
                   333 10/// 20190 59004 88460=
201602290600 AAXX 29064 67751 12980 80602 10213 20207 48/// 60014 8801/
                   333 10/// 20199 59034 88460=
201602260600 AAXX 26064 67751 32980 60100 10248 20218 48/// 70222 80006
                   333 1//// 20195 58014=
201602241200 AAXX 24124 67751 NIL=
201602230900 AAXX 23094 67751 NIL=
201602230600 AAXX 23064 67751 12980 71602 10235 20213 48/// 60024 70222 86010
                   333 1//// 20199 5//// 86460=
201602221200 AAXX 22124 67751 NIL=
201602190600 AAXX 19064 67751 32980 00000 10246 20187 48///
                   333 1//// 20169 58020=
201602161200 AAXX 16124 67751 NIL=
201602150600 AAXX 15064 67751 32980 70802 10229 20210 48/// 87030
                   333 10/// 20199 5//// 87360=
201602120600 AAXX 12064 67751 32980 01501 10235 20206 48///
                   333 10/// 20170 58007=
201602120300 AAXX 12034 67751 NIL=
201602100600 AAXX 10064 67751 12980 04501 10228 20197 48/// 69904
                   333 10//0 20105 5////=
201602010600 AAXX 01064 67751 32980 30804 10234 20197 48/// 81041
                   333 10/// 20202 5//// 81360 82080=

################################################################################
#  SYNOPS from 67753, Choma (Zambia) | 16-50S | 027-04E | 1213 m
################################################################################
201603010600 AAXX 01064 67753 32560 70000 10196 20192 48549 69904 8583/
                   333 10260 20185 5////=
201602290600 AAXX 29064 67753 11560 80109 10194 20185 48/// 60054 75022 8583/
                   333 10250 20175=
201602260600 AAXX 26064 67753 12560 61804 10214 20191 48511 69904 81102
                   333 10311 20181 5//// 81820 85080=
201602241200 AAXX 24124 67753 NIL=
201602240600 AAXX 24064 67753 12960 10810 10232 20197 48542 60074 81030
                   333 10304 20181 58006 81360=
201602230900 AAXX 23094 67753 NIL=
201602221200 AAXX 22124 67753 NIL=
201602180600 AAXX 18064 67753 11960 70000 10212 20186 48530 60084 72162 8703/
                   333 10305 20174 59020 87360=
201602161200 AAXX 16124 67753 NIL=
201602160600 AAXX 16064 67753 12960 52704 10226 20204 48542 69974 84031
                   333 10286 20176 58017 84360 81080=
201602150600 AAXX 15064 67753 11960 23205 10211 20192 48521 60074 74022 82030
                   333 10292 20186 58009 82360=
201602120600 AAXX 12064 67753 32960 13408 10230 20191 48513 81030
                   333 10288 20179 59001 81360=
201602120300 AAXX 12034 67753 NIL=
201602110600 AAXX 11064 67753 12560 12004 10226 20197 48513 60024 81100
                   333 10290 20179 59010 81820=
201602040600 AAXX 04064 67753 32960 30000 10225 20195 80002
                   333 10278 20175 5//// 83080=
201602020600 AAXX 02064 67753 32560 40108 10211 20196 48/// 81130
                   333 10274 20199 5//// 81835 83360=

################################################################################
#  SYNOPS from 67855, Lupaki (Zambia) | 17-03-00S | 024-46-00E | 1000 m
################################################################################
201603020600 AAXX 02064 67855 32975 60000 10214 20190 3//// 48/// 86070
                   333 20196 5//// 86360=
201603011800 AAXX 01184 67855 NIL=
201603011200 AAXX 01124 67855 NIL=
201603010600 AAXX 01064 67855 NIL=
201602291800 AAXX 29184 67855 NIL=
201602291200 AAXX 29124 67855 41675 71602 10266 20214 3//// 48/// 72052 8557/
                   333 5//// 85635 87459=
201602290600 AAXX 29064 67855 11575 70302 10214 20196 3//// 48/// 60094 70262 8657/
                   333 20195 5//// 86620 87459=
201602281800 AAXX 28184 67855 NIL=
201602280600 AAXX 28064 67855 11975 70302 10214 20203 3//// 48/// 60124 72162 8707/
                   333 20204 5//// 87459=
201602271800 AAXX 27184 67855 NIL=
201602271200 AAXX 27124 67855 42675 52202 10276 20195 3//// 48/// 85230
                   333 5//// 85840=
201602270600 AAXX 27064 67855 12575 72101 10198 20187 3//// 48/// 60074 8653/
                   333 20189 5//// 86620 87360=
201602261800 AAXX 26184 67855 NIL=
201602261200 AAXX 26124 67855 41670 82903 10248 20188 3//// 48/// 79598 85273
                   333 5//// 81930 84835 88458=
201602260600 AAXX 26064 67855 11570 70602 10206 20198 3//// 48/// 71798 84273
                   333 20206 5//// 81920 83825 87459=
201602251800 AAXX 25184 67855 NIL=
201602251200 AAXX 25124 67855 42775 50000 10326 20204 3//// 48/// 85202
                   333 5//// 85856 83080=
201602250600 AAXX 25064 67855 12975 30000 10224 20204 3//// 48/// 69904 80008
                   333 20192 5//// 83280=
201602241200 AAXX 24124 67855 41670 53202 10292 20212 3//// 48/// 79598 84273
                   333 5//// 81930 83835 85458=
201602240600 AAXX 24064 67855 12975 31401 10220 20195 3//// 48/// 60014 81038
                   333 20194 5//// 81360 83280=
201602231800 AAXX 23184 67855 NIL=
201602231200 AAXX 23124 67855 41675 71901 10276 20219 3//// 48/// 70298 83532
                   333 5//// 83640 85360 87080=
201602230600 AAXX 23064 67855 11670 71701 10208 20203 3//// 48/// 60314 79598 84273
                   333 20190 5//// 81925 83830 87458=
201602221200 AAXX 22124 67855 41670 73101 10356 20198 3//// 48/// 71792 84233
                   333 5//// 81930 83835=
201602220600 AAXX 22064 67855 11975 60302 10262 20181 3//// 48/// 69904 70362 86071
                   333 20215 5//// 86360=
201602211200 AAXX 21124 67855 NIL=
201602210600 AAXX 21064 67855 32975 40000 10240 20174 3//// 48/// 84030
                   333 20198 5//// 84360=
201602201800 AAXX 20184 67855 NIL=
201602201200 AAXX 20124 67855 42875 42601 10366 20175 3//// 48/// 84100
                   333 5//// 84857=
201602200600 AAXX 20064 67855 32975 00401 10250 20185 3//// 48///
                   333 20204 5////=
201602191200 AAXX 19124 67855 42875 50303 10350 20168 3//// 48/// 85200
                   333 5//// 85857=
201602190600 AAXX 19064 67855 32975 03602 10236 20168 3//// 48///
                   333 20178 5////=
201602181800 AAXX 18184 67855 NIL=
201602181200 AAXX 18124 67855 42875 20402 10354 20149 3//// 48/// 81101
                   333 5//// 81857=
201602180600 AAXX 18064 67855 32975 51102 10232 20159 3//// 48/// 80001
                   333 20183 5//// 85080=
201602171800 AAXX 17184 67855 NIL=
201602171200 AAXX 17124 67855 42875 50903 10358 20166 3//// 48/// 85208
                   333 5//// 85857 84280=
201602170600 AAXX 17064 67855 32975 30301 10250 20159 3//// 48/// 80008
                   333 20210 5//// 83280=
201602161800 AAXX 16184 67855 NIL=
201602161200 AAXX 16124 67855 42875 40602 10358 20155 3//// 48/// 84208
                   333 5//// 84857 83280=
201602160600 AAXX 16064 67855 12975 63401 10244 20194 3//// 48/// 69904 80008
                   333 20190 5//// 86280=
201602151800 AAXX 15184 67855 NIL=
201602151200 AAXX 15124 67855 42875 53303 10332 20192 3//// 48/// 85208
                   333 5//// 85857=
201602150600 AAXX 15064 67855 32975 70000 10238 20200 3//// 48/// 80008
                   333 20192 5//// 87280=
201602141800 AAXX 14184 67855 NIL=
201602141200 AAXX 14124 67855 42875 53602 10340 20181 3//// 48/// 85200
                   333 5//// 85857=
201602140600 AAXX 14064 67855 12975 10000 10230 20189 3//// 48/// 60034 81031
                   333 20198 5//// 81360=
201602131800 AAXX 13184 67855 NIL=
201602131200 AAXX 13124 67855 42775 33603 10334 20198 3//// 48/// 83230
                   333 5//// 83856=
201602130600 AAXX 13064 67855 11975 60601 10236 20195 3//// 48/// 69904 76062 86070
                   333 20215 5//// 86458=
201602121800 AAXX 12184 67855 NIL=
201602121200 AAXX 12124 67855 42875 40301 10334 20177 3//// 48/// 84232
                   333 5//// 84857 83360=
201602120600 AAXX 12064 67855 11975 62001 10228 20188 3//// 48/// 60014 70192 86072
                   333 20197 5//// 86459=
201602111800 AAXX 11184 67855 NIL=
201602111200 AAXX 11124 67855 42775 52701 10338 20164 3//// 48/// 83232
                   333 5//// 83857 85080=
201602110600 AAXX 11064 67855 31970 10000 10230 20230 3//// 48/// 70500 81030
                   333 20179 5//// 81360=
201602101800 AAXX 10184 67855 NIL=
201602100600 AAXX 10064 67855 32975 50603 10230 20160 38/// 48/// 84032
                   333 20199 5//// 84360=
201602091800 AAXX 09184 67855 NIL=
201602091200 AAXX 09124 67855 42775 30201 10328 20173 3//// 48/// 83200
                   333 5//// 83856=
201602090600 AAXX 09064 67855 12975 00000 10214 20194 3//// 48/// 60074
                   333 20192 5////=
201602081800 AAXX 08184 67855 NIL=
201602081200 AAXX 08124 67855 NIL=
201602080600 AAXX 08064 67855 NIL=
201602071800 AAXX 07184 67855 NIL=
201602071200 AAXX 07124 67855 41670 71901 10313 20185 3//// 48/// 79591 85233
                   333 5//// 81930 84835 87080=
201602070600 AAXX 07064 67855 12975 10000 10202 20196 3//// 48/// 60234 81031
                   333 20168 5//// 81360=
201602061800 AAXX 06184 67855 NIL=
201602060600 AAXX 06064 67855 12975 21802 10216 20199 3//// 48/// 60064 82031
                   333 20180 5//// 82360=
201602051800 AAXX 05184 67855 NIL=
201602051200 AAXX 05124 67855 NIL=
201602050600 AAXX 05064 67855 11975 31801 10200 20192 3//// 48/// 60044 70141 81031
                   333 20172 5//// 81360 83080=
201602041200 AAXX 04124 67855 41675 60302 10330 20186 3//// 48/// 79598 84233
                   333 5//// 81930 83840 86080=
201602040600 AAXX 04064 67855 32975 50201 10232 20188 3//// 48/// 85081
                   333 20181 5//// 85360=
201602031800 AAXX 03184 67855 NIL=
201602031200 AAXX 03124 67855 42875 42001 10336 20145 3//// 48/// 84202
                   333 5//// 84857 83080=
201602030600 AAXX 03064 67855 12975 70000 10228 20188 3//// 48/// 69904 80001
                   333 20180 5//// 87080=
201602021800 AAXX 02184 67855 NIL=
201602021200 AAXX 02124 67855 42775 51801 10328 20178 3//// 48/// 85200
                   333 5//// 85856=
201602020600 AAXX 02064 67855 32575 10702 10214 20145 3//// 48/// 81502
                   333 20154 5//// 81620=
201602011800 AAXX 01184 67855 NIL=
201602011200 AAXX 01124 67855 42775 41802 10310 20149 3//// 48/// 84200
                   333 5//// 84856=
201602010600 AAXX 01064 67855 32975 00203 10218 20170 3//// 48///
                   333 20166 5////=
