################################################################################
# Query made at 04/10/2022 06:55:38 UTC
# Country like Zamb*
# Time interval: from 10/01/2019 05:30  to 10/31/2019 06:30  UTC
################################################################################

################################################################################
#  SYNOPS from 67403, Kawambwa (Zambia) | 09-48S | 029-05E | 1323 m
################################################################################
201910290900 AAXX 29094 67403 NIL=
201910280600 AAXX 28064 67403 31475 33001 10233 20202 48503 81580
                   333 10331 20204 5//// 81615 83360=
201910231200 AAXX 23124 67403 42780 33602 10290 20178 48484 83260
                   333 58010 83850 81080=
201910220900 AAXX 22094 67403 NIL=
201910220600 AAXX 22064 67403 31975 53402 10223 20172 48514 70522 85030
                   333 10328 20188 58001 85360
                   555 00181=
201910211200 AAXX 21124 67403 41775 61801 10296 20141 48470 70522 81360
                   333 5//// 86850 81360=
201910171200 AAXX 17124 67403 NIL=
201910160900 AAXX 16094 67403 NIL=
201910151200 AAXX 15124 67403 41775 53601 10317 20157 48488 70520 85201
                   333 59001 85850 81080=
201910141200 AAXX 14124 67403 41770 60901 10300 20153 48488 78022 81361
                   333 5//// 81950 83850 84360 81080=
201910140900 AAXX 14094 67403 NIL=
201910140600 AAXX 14064 67403 11475 33601 10236 20193 48522 60014 82581
                   333 10324 20188 5//// 82612 81360 81080
                   555 00188=
201910111200 AAXX 11124 67403 41775 70801 10307 20144 48476 81361
                   333 58003 81950 82850 86360 82080=
201910110900 AAXX 11094 67403 NIL=
201910110600 AAXX 11064 67403 11975 60902 10232 20162 48513 69904 70522 86031
                   333 10312 20194 58002 86360 82080
                   555 00198=
201910101200 AAXX 10124 67403 41775 62704 1//// 20182 48471 71792 81961
                   333 59005 81956 84856 82360 82080=
201910100900 AAXX 10094 67403 NIL=
201910100600 AAXX 10064 67403 31975 30801 10262 20183 48513 70500 81031
                   333 10342 20204 58001 81360 83080
                   555 00198=
201910091200 AAXX 09124 67403 41875 42501 10332 20132 48479 70520 84201
                   333 58010 84857 82080=
201910090900 AAXX 09094 67403 NIL=
201910090600 AAXX 09064 67403 31975 40901 10242 20127 48511 70500 80001
                   333 10342 20200 58003 84080
                   555 00185=
201910081200 AAXX 08124 67403 41758 41602 10328 20121 48469 70520 84201
                   333 59009 84850 82080=
201910080600 AAXX 08064 67403 31975 20705 10242 20136 48508 70500 80001
                   333 10334 20190 59006 82080
                   555 00177=
201910071200 AAXX 07124 67403 41775 49602 10323 20128 48475 70500 84200
                   333 5//// 84850=
201910070900 AAXX 07094 67403 NIL=
201910070600 AAXX 07064 67403 11975 10905 10234 20153 48513 69904 70500 81080
                   333 10320 20182 59010 81360
                   555 00170 20003=
201910040600 AAXX 04064 67403 12980 20980 10213 20160 48529 60054 82030
                   333 10314 20174 58003 82360
                   555 00170 20000=
201910031200 AAXX 03124 67403 41875 61205 10290 20153 48500 71722 81901
                   333 59007 81956 86856 81080
                   555 5////=
201910030600 AAXX 03064 67403 41875 41801 10268 20180 48491 70520 81361
                   333 58014 81958 82858 82360 81080
                   555 10292=
201910021200 AAXX 02124 67403 41775 40901 10270 20173 48508 70520 82261
                   333 58030 82850 81360 83080=
201910020900 AAXX 02094 67403 NIL=
201910020600 AAXX 02064 67403 11975 83601 10177 20168 48532 60074 72162 8193/
                   333 10298 20170 58030 819// 87360
                   555 00179=

################################################################################
#  SYNOPS from 67413, Mbala (Zambia) | 08-51S | 031-20E | 1673 m
################################################################################
201910290900 AAXX 29094 67413 NIL=
201910220900 AAXX 22094 67413 NIL=
201910220600 AAXX 22064 67413 NIL=
201910171200 AAXX 17124 67413 NIL=
201910160900 AAXX 16094 67413 NIL=
201910160600 AAXX 16064 67413 32580 30912 10212 20149 48524 81101
                   333 10298 20170 5//// 81820 82076 91023=
201910140900 AAXX 14094 67413 NIL=
201910140600 AAXX 14064 67413 NIL=
201910110900 AAXX 11094 67413 NIL=
201910101200 AAXX 10124 67413 NIL=
201910100900 AAXX 10094 67413 NIL=
201910100600 AAXX 10064 67413 NIL=
201910090900 AAXX 09094 67413 NIL=
201910090600 AAXX 09064 67413 NIL=
201910080600 AAXX 08064 67413 32980 20905 10215 20103 48532 80001
                   333 10282 20112 58002 82080
                   555 00112 91023=
201910070900 AAXX 07094 67413 NIL=
201910040600 AAXX 04064 67413 12580 21512 10185 20123 48537 60044 82502
                   333 10280 20112 58000 82625 81080
                   555 00/// 91023=
201910020900 AAXX 02094 67413 NIL=

################################################################################
#  SYNOPS from 67441, Mwinilunga (Zambia) | 11-45S | 024-26E | 1361 m
################################################################################
201910290900 AAXX 29094 67441 41675 60000 10255 20177 48/// 70522 86200
                   333 5//// 86835=
201910290600 AAXX 29064 67441 11975 30000 10200 20166 48/// 60074 70500 80001
                   333 10329 2//// 5//// 83070=
201910280900 AAXX 28094 67441 42980 30000 10280 20144 48530 80001
                   333 5//// 83075=
201910231200 AAXX 23124 67441 42680 50000 10270 20151 48507 85230
                   333 5//// 83840 82360=
201910230900 AAXX 23094 67441 42980 70000 10210 20159 48534 8703/
                   333 5//// 87360=
201910220900 AAXX 22094 67441 NIL=
201910220600 AAXX 22064 67441 31970 20000 10190 20138 48/// 70500 80001
                   333 10336 2//// 5//// 82070=
201910211200 AAXX 21124 67441 41675 60000 10280 20118 48507 72922 86200
                   333 5//// 86856=
201910210600 AAXX 21064 67441 31970 00000 10190 20148 48498 70500
                   333 10330 2//// 5////=
201910171200 AAXX 17124 67441 NIL=
201910160900 AAXX 16094 67441 NIL=
201910151200 AAXX 15124 67441 41675 50000 10305 20125 48/// 70522 85200
                   333 5//// 85850=
201910141200 AAXX 14124 67441 41675 50000 10305 20133 48524 70522 85200
                   333 5//// 85845=
201910140900 AAXX 14094 67441 NIL=
201910140600 AAXX 14064 67441 NIL=
201910111200 AAXX 11124 67441 41680 60503 10305 20118 48513 70522 84201
                   333 59002 84845 83075=
201910110900 AAXX 11094 67441 41680 50000 10255 20153 48543 70522 83101
                   333 59003 83840 85075=
201910110600 AAXX 11064 67441 11970 60000 10200 20166 48545 60024 70522 85031
                   333 10300 2//// 58000 85360 83070=
201910101200 AAXX 10124 67441 NIL=
201910100900 AAXX 10094 67441 41575 70000 10265 20146 48546 70511 8443/
                   333 5//// 84645 87359=
201910100600 AAXX 10064 67441 11570 60000 10185 20167 48540 60164 70522 86500
                   333 10310 2//// 5//// 86630=
201910090900 AAXX 09094 67441 NIL=
201910090600 AAXX 09064 67441 NIL=
201910080600 AAXX 08064 67441 31970 60000 10195 20153 48/// 70522 86010
                   333 10330 2//// 5//// 86460=
201910071200 AAXX 07124 67441 41675 50000 10320 20098 48/// 70522 85200
                   333 5//// 85850=
201910070900 AAXX 07094 67441 41675 50000 10290 20120 48/// 70522 84101
                   333 5//// 84845 82075=
201910070600 AAXX 07064 67441 31970 30000 10195 20134 48/// 70500 80001
                   333 10132 20//0 5//// 83070
                   555 00///=
201910030900 AAXX 03094 67441 31970 40000 10195 20152 48/// 70500 84030
                   333 10291 20//0 5//// 84360=
201910030600 AAXX 03064 67441 31970 40000 10195 20152 48/// 70500 84030
                   333 10291 20//0 5//// 84360
                   555 00/// 20020=
201910020900 AAXX 02094 67441 NIL=
201910020600 AAXX 02064 67441 11970 60000 10170 20152 48554 60198 70522 86030
                   333 10193 20//0 58007 86360
                   555 00/// 20000=
201910010600 AAXX 01064 67441 31660 80000 10185 20166 48547 79596 8197/
                   333 10308 20//0 58019 877//
                   555 00///=

################################################################################
#  SYNOPS from 67461, Mansa (Zambia) | 11-06S | 028-51E | 1382 m
################################################################################
201910290900 AAXX 29094 67461 NIL=
201910280900 AAXX 28094 67461 42780 12909 10310 20168 48484 81100
                   333 59001 81858 91013=
201910280600 AAXX 28064 67461 31975 02710 10245 20177 48485 70500
                   333 10354 20180 59014 91014=
201910220900 AAXX 22094 67461 42780 53609 10305 20160 48485 81101
                   333 59001 81858 84080 91013=
201910220600 AAXX 22064 67461 31975 62705 10230 20177 48500 70522 80008
                   333 10342 20155 58000 86280 91018=
201910211200 AAXX 21124 67461 42880 61209 10330 20120 48473 84231
                   333 59015 84876 82360 81080 91012=
201910171200 AAXX 17124 67461 42780 70909 10280 20146 48486 83238
                   333 58001 83852 83360 86280 91014=
201910170900 AAXX 17094 67461 42980 51312 10270 20133 48521 80008
                   333 58018 85280 91018=
201910160900 AAXX 16094 67461 41675 61219 10275 20159 48503 70522 81301
                   333 59009 81940 84846 82080 91016=
201910140900 AAXX 14094 67461 NIL=
201910140600 AAXX 14064 67461 31975 11209 10232 20160 48512 70500 80001
                   333 10319 20172 58011 81080 91017=
201910111200 AAXX 11124 67461 42780 61210 10311 20152 48493 84201
                   333 58017 84856 84080 91015=
201910110900 AAXX 11094 67461 42780 51310 10283 20160 48521 84201
                   333 58008 84850 83080 91018=
201910110600 AAXX 11064 67461 31978 31407 10247 20174 48521 70500 80001
                   333 10339 20188 58004 83080 91018=
201910101200 AAXX 10124 67461 41775 61804 10316 20140 48476 70522 85201
                   333 58004 85856 83080 91012=
201910100900 AAXX 10094 67461 41775 42508 10302 20159 48515 70500 82201
                   333 58027 82856 83080 91017=
201910100600 AAXX 10064 67461 31975 51202 10238 20149 48512 70500 83031
                   333 10338 20184 58027 83360 83080 91017=
201910090900 AAXX 09094 67461 42780 70806 10295 20124 48487 81108
                   333 58000 81856 87280 91014=
201910090600 AAXX 09064 67461 32980 71207 10230 20132 48485 80008
                   333 10338 20178 59011 87280 91014=
201910080600 AAXX 08064 67461 32980 41210 10238 20138 48501 84031
                   333 10320 20178 59012 84360 81080 91016=
201910070900 AAXX 07094 67461 42780 20809 10290 20140 48504 82100
                   333 59012 82856 91016=
201910040600 AAXX 04064 67461 32580 51112 10205 20169 48536 83530
                   333 10286 20152 58005 83620 83360
                   555 00/// 91020=
201910030600 AAXX 03064 67461 12980 71208 10187 20155 48529 60014 8707/
                   333 10238 20165 58003 87460
                   555 00/// 91020=
201910020900 AAXX 02094 67461 42980 82502 10230 20169 48535 8807/
                   333 58028 88460 91020=
201910020600 AAXX 02064 67461 11965 82102 10196 20177 48527 60234 70166 8007/
                   333 10310 20160 58025 88460
                   555 00/// 91020=
201910010600 AAXX 01064 67461 31965 62603 10236 20166 48506 70500 85031
                   333 10342 20188 58001 85360 84080
                   555 00/// 91017=

################################################################################
#  SYNOPS from 67469, Samfya (Zambia) | 11-22S | 029-54E | 1171 m
################################################################################
201910290900 AAXX 29094 67469 42680 10808 10312 20210 48/// 81200
                   333 5//// 81840=
201910280900 AAXX 28094 67469 42980 02703 10322 20180 48///
                   333 5////=
201910280600 AAXX 28064 67469 32980 03004 10257 20170 48///
                   333 10330 20205 5////=
201910230900 AAXX 23094 67469 42980 20704 10286 20180 48/// 82032
                   333 5//// 82360 81080=
201910220900 AAXX 22094 67469 NIL=
201910220600 AAXX 22064 67469 NIL=
201910211200 AAXX 21124 67469 42680 30803 10302 20200 48/// 83230
                   333 5//// 83847 81360=
201910171200 AAXX 17124 67469 42680 50705 10273 20170 48/// 85232
                   333 5//// 85842 81360=
201910170900 AAXX 17094 67469 42980 31608 10250 20140 48/// 83032
                   333 5//// 83360 81080=
201910160900 AAXX 16094 67469 42680 31610 10263 20180 48/// 83500
                   333 5//// 83637=
201910151200 AAXX 15124 67469 42680 20804 10300 20190 48/// 81900
                   333 5//// 81847 82847=
201910140900 AAXX 14094 67469 NIL=
201910140600 AAXX 14064 67469 NIL=
201910111200 AAXX 11124 67469 42680 61108 10298 20190 48/// 86232
                   333 5//// 86835 83360 81080=
201910110900 AAXX 11094 67469 42680 51004 10274 20190 48/// 85232
                   333 5//// 85835 82360 81080=
201910110600 AAXX 11064 67469 32980 31210 10244 20190 48/// 83032
                   333 10310 20224 5//// 83360 81080=
201910101200 AAXX 10124 67469 42680 41005 10302 20190 48/// 84230
                   333 5//// 84847 82360=
201910100900 AAXX 10094 67469 42680 31005 10282 2//// 48/// 82230
                   333 5//// 82842 83360=
201910100600 AAXX 10064 67469 32980 41006 10233 20190 48/// 84032
                   333 10304 20231 5//// 84360 82080=
201910091200 AAXX 09124 67469 42780 50804 10296 20150 48/// 82232
                   333 5//// 82854 85360 81080=
201910090900 AAXX 09094 67469 42980 50806 10266 20150 48/// 85032
                   333 5//// 85360 82080=
201910090600 AAXX 09064 67469 32980 51006 1//// 20170 48/// 85032
                   333 10302 20214 5//// 85360 83080=
201910081200 AAXX 08124 67469 42780 40804 10293 20170 48/// 81932
                   333 5//// 81954 84854 81360 81080=
201910080600 AAXX 08064 67469 32980 11215 10252 20190 48/// 81030
                   333 10297 20222 5//// 81360=
201910071200 AAXX 07124 67469 42680 40804 10277 20170 48/// 84200
                   333 5//// 84843=
201910070900 AAXX 07094 67469 42680 20605 10264 20180 48/// 82200
                   333 5//// 82837=
201910031200 AAXX 03124 67469 42680 51206 10270 20190 48/// 85230
                   333 5//// 85835 83360=
201910030600 AAXX 03064 67469 32480 61206 10201 20160 48/// 81130
                   333 10258 20188 5//// 81813 86360
                   555 00///=
201910021200 AAXX 02124 67469 42980 71005 10250 20190 48/// 8703/
                   333 5//// 87360=
201910020900 AAXX 02094 67469 42980 71404 10237 20170 48/// 8703/
                   555 5//// 87360=

################################################################################
#  SYNOPS from 67475, Kasama (Zambia) | 10-13S | 031-08E | 1382 m
################################################################################
201910290900 AAXX 29094 67475 NIL=
201910290600 AAXX 29064 67475 31914 21405 10222 20177 48511 70500 82030
                   333 10360 20165 59002 82360 91019=
201910280600 AAXX 28064 67475 31960 00903 1//// 20114 48514 70500
                   333 10360 20170 59012 91019=
201910231200 AAXX 23124 67475 41660 60405 10327 20124 48475 70522 85200
                   333 58010 85845 91014=
201910230900 AAXX 23094 67475 41660 30903 10300 20138 48505 70500 82200
                   333 58004 82835 91018=
201910220900 AAXX 22094 67475 NIL=
201910220600 AAXX 22064 67475 31960 20803 10245 20150 48517 70500 82030
                   333 10349 20175 59005 82360 91019=
201910171200 AAXX 17124 67475 41660 81705 10279 20125 48506 70522
                   333 58007 85840 83365 82080 91018=
201910170900 AAXX 17094 67475 41660 87005 10264 20105 48531 70522
                   333 58017 84837 83360 83080 91021=
201910160900 AAXX 16094 67475 NIL=
201910140900 AAXX 14094 67475 NIL=
201910140600 AAXX 14064 67475 31960 11109 10234 20144 48533 70500 80001
                   333 10339 20159 58012 81080 91021=
201910110900 AAXX 11094 67475 NIL=
201910110600 AAXX 11064 67475 11960 91012 10230 20146 48523 69904 70500 80008
                   333 10325 20180 58009 86080 91020=
201910101200 AAXX 10124 67475 NIL=
201910100900 AAXX 10094 67475 NIL=
201910100600 AAXX 10064 67475 31960 20911 10235 20137 48518 70500 80001
                   333 10331 20159 59001 82080 91099=
201910090900 AAXX 09094 67475 NIL=
201910090600 AAXX 09064 67475 31960 60313 10234 20116 48519 70522 80008
                   333 10341 20179 59003 86280 91020=
201910080600 AAXX 08064 67475 31960 30913 10240 20127 48522 70500 80001
                   333 10338 20159 59007 83080 91020=
201910071200 AAXX 07124 67475 41660 12005 10314 20113 48490 70522
                   333 59009 84840 91016=
201910070900 AAXX 07094 67475 41660 09007 10282 20140 48520
                   333 59007 82835 91020=
201910031200 AAXX 03124 67475 41660 09015 10274 20160 48512 70522 86290
                   333 58008 85835 81935 91019=
201910030600 AAXX 03064 67475 11660 10202 10176 48542 60014 70522
                   333 10320 20152 58003 84830 82360
                   555 00/// 91022=
201910020900 AAXX 02094 67475 NIL=
201910020600 AAXX 02064 67475 11960 61103 10190 20179 48538 60074 70500 80008
                   333 10339 20964 58026 85280
                   555 00///=
201910010600 AAXX 01064 67475 11960 62305 10202 20159 48514 69904 70522 8603/
                   333 10256 20176 58002
                   555 00/// 91019=

################################################################################
#  SYNOPS from 67476, Misamfu (Zambia) | 10-06S | 031-15E | 1536 m
################################################################################
201910290900 AAXX 29094 67476 42680 53503 10301 20151 48/// 85200
                   333 5//// 85835=
201910280900 AAXX 28094 67476 42680 22802 10305 20116 48/// 82200
                   333 5//// 82835=
201910280600 AAXX 28064 67476 32980 13303 10244 20120 48/// 81030
                   333 10336 20141 5//// 81360=
201910231200 AAXX 23124 67476 41778 53603 10307 20133 48/// 71510 85200
                   333 5//// 85850=
201910230900 AAXX 23094 67476 41678 20604 10300 20140 48/// 70500 82200
                   333 58005 82837=
201910220900 AAXX 22094 67476 NIL=
201910220600 AAXX 22064 67476 12980 10204 10249 20150 48/// 69904 81030
                   333 10315 20149 5//// 81360=
201910211200 AAXX 21124 67476 41778 61805 10305 20124 48/// 71521 84230
                   333 5//// 84850 83360=
201910210600 AAXX 21064 67476 12980 30805 10236 20160 48/// 60064 83030
                   333 10312 20141 5//// 83360=
201910171200 AAXX 17124 67476 42780 71105 10270 20123 48/// 8523/
                   333 5//// 85850 86360=
201910160900 AAXX 16094 67476 NIL=
201910151200 AAXX 15124 67476 41776 61803 10295 20122 48/// 70521 862//
                   333 58002 86850=
201910141200 AAXX 14124 67476 41779 51802 10311 20111 48/// 70510 85200
                   333 5//// 85850=
201910140900 AAXX 14094 67476 NIL=
201910140600 AAXX 14064 67476 11977 00905 10230 20136 48/// 69904 70500
                   333 10315 20137 5////=
201910111200 AAXX 11124 67476 41670 61804 10260 20168 48/// 72588 8227/
                   333 5//// 82847 86460=
201910110900 AAXX 11094 67476 41678 60905 10275 20131 48/// 70522 85208
                   333 58010 85837 86280=
201910110600 AAXX 11064 67476 11577 60505 10232 20147 48/// 69904 70522 81138
                   333 10329 20145 58009 81822 81360 85280=
201910101200 AAXX 10124 67476 41779 61502 10309 20111 48/// 70522 84208
                   333 5//// 84850 86280=
201910100900 AAXX 10094 67476 41678 60706 10294 20114 48/// 70522 81138
                   333 58001 81840 81360 86280=
201910100600 AAXX 10064 67476 31977 60603 10237 20119 48/// 70522 81078
                   333 10329 20140 59001 81360 86280=
201910091200 AAXX 09124 67476 41778 51003 10308 20081 48/// 70521 83208
                   333 59004 83850 84280=
201910090900 AAXX 09094 67476 41977 40805 10297 20097 48/// 70521 80008
                   333 5//// 84280=
201910090600 AAXX 09064 67476 31976 60605 10230 20065 48/// 70522 80008
                   333 10319 20140 5//// 86280=
201910081200 AAXX 08124 67476 41778 41803 10305 20079 48/// 70500 84201
                   333 5//// 84850 81080=
201910080600 AAXX 08064 67476 31577 10404 10236 20127 48/// 70500 81101
                   333 10314 20136 5//// 81822 81080=
201910071200 AAXX 07124 67476 41779 40503 10300 20073 48/// 70500 84200
                   333 5//// 84850=
201910070900 AAXX 07094 67476 41678 10907 10281 20117 48/// 70500 81100
                   333 5//// 81835=
201910070600 AAXX 07064 67476 11577 10406 10225 20138 48/// 69914 70500 81100
                   333 10302 20121 59009 81820
                   555 00/// 20990=
201910040900 AAXX 04094 67476 41677 31004 10256 20130 48/// 70521 83100
                   333 58004 83835=
201910040600 AAXX 04064 67476 11576 31103 10210 20160 48/// 69904 70500 83100
                   333 10292 20126 58004 83820
                   555 00/// 20990=
201910031200 AAXX 03124 67476 41776 51806 10290 20128 48/// 72582 83272
                   333 58007 82850 83460 81080=
201910030600 AAXX 03064 67476 11575 41305 10211 20164 48/// 69904 70510 81431
                   333 10290 20128 5//// 81620 83822 82360 81080
                   555 00/// 20018=
201910021200 AAXX 02124 67476 41777 62803 10280 20149 48/// 70522 82208
                   333 58022 82850 86280=
201910020900 AAXX 02094 67476 NIL=
201910020600 AAXX 02064 67476 11975 51803 10200 20171 48/// 60184 70542 81038
                   333 10312 20136 5//// 81360 85280
                   555 00/// 20003=
201910010600 AAXX 01064 67476 11974 70203 10200 20162 48/// 60034 70522 84038
                   333 10330 20141 58005 84360 86280
                   555 00/// 20000=

################################################################################
#  SYNOPS from 67477, Mpika (Zambia) | 11-54S | 031-26E | 1400 m
################################################################################
201910290900 AAXX 29094 67477 NIL=
201910280900 AAXX 28094 67477 42580 21202 10314 20080 48/// 82100
                   333 5//// 82825=
201910280600 AAXX 28064 67477 32980 01201 10266 20120 48///
                   333 10342 20173 5////
                   555 00163=
201910231200 AAXX 23124 67477 42680 31202 10344 20060 48/// 83101
                   333 5//// 83840 81080=
201910230900 AAXX 23094 67477 42580 10904 10306 20080 48/// 81101
                   333 5//// 81825 81080=
201910220900 AAXX 22094 67477 42580 21202 10316 20090 48/// 81101
                   333 5//// 81812 82080=
201910220600 AAXX 22064 67477 32980 20901 10262 20140 48/// 80001
                   333 10326 20168 5//// 82080
                   555 00157=
201910211200 AAXX 21124 67477 42680 21201 10305 20080 48/// 82200
                   333 5//// 82835=
201910171200 AAXX 17124 67477 NIL=
201910170900 AAXX 17094 67477 42980 10910 10238 20100 48/// 80001
                   333 5//// 81080=
201910160900 AAXX 16094 67477 NIL=
201910151200 AAXX 15124 67477 42680 51204 10286 20100 48/// 83230
                   333 5//// 83840 83365=
201910141200 AAXX 14124 67477 42680 31204 10301 20050 48/// 83200
                   333 5//// 83830=
201910140900 AAXX 14094 67477 NIL=
201910140600 AAXX 14064 67477 32980 10908 10242 20120 48/// 80001
                   333 10299 20182 5//// 81080
                   555 00172=
201910111200 AAXX 11124 67477 42680 51208 10291 20150 48/// 85200
                   333 5//// 85835=
201910110900 AAXX 11094 67477 NIL=
201910110600 AAXX 11064 67477 32480 31208 10224 20130 48/// 83501
                   333 10323 20194 5////
                   555 00182=
201910101200 AAXX 10124 67477 42680 40902 10316 20060 48/// 82101
                   333 5//// 82830 83080=
201910100900 AAXX 10094 67477 41978 21202 10292 20080 48/// 70500 80001
                   333 5//// 82080=
201910100600 AAXX 10064 67477 31978 11202 10232 20110 48/// 70500 80001
                   333 10321 20199 5//// 81080
                   555 00178=
201910091200 AAXX 09124 67477 41678 31202 10316 20080 48/// 70500 82101
                   333 5//// 82830 82080=
201910090900 AAXX 09094 67477 41578 20902 10287 20110 48/// 70500 81101
                   333 5//// 81820 82080=
201910090600 AAXX 09064 67477 31978 11202 10240 20120 48/// 70500 80001
                   333 10324 20182 5//// 81080
                   555 00176=
201910081200 AAXX 08124 67477 41678 20905 10298 20100 48/// 70500 82200
                   333 5//// 82835=
201910080600 AAXX 08064 67477 31978 31203 10232 20140 48/// 70500 83030
                   333 10308 20191 5//// 83359
                   555 00179=
201910071200 AAXX 07124 67477 41678 30904 10301 20110 48/// 70500 83200
                   333 5//// 83835=
201910070900 AAXX 07094 67477 41578 21204 10278 20120 48/// 70500 82100
                   333 5//// 82822=
201910070600 AAXX 07064 67477 31978 00902 10231 20160 48/// 70500
                   333 10298 20153 5////
                   555 00143 20007=
201910040600 AAXX 04064 67477 31478 51206 10202 20160 48/// 70522
                   333 10250 20168 5////=
201910031200 AAXX 03124 67477 41570 61208 10234 20158 48/// 70522 86800
                   333 5//// 81826 86629=
201910030600 AAXX 03064 67477 31370 81210 10169 20159 48/// 70522 88700
                   333 10269 20163 5//// 88706
                   555 00158 20002=
201910021200 AAXX 02124 67477 41775 51506 10264 20159 48/// 70522 84201
                   333 5//// 84836 82080=
201910020900 AAXX 02094 67477 41675 61211 10243 20168 48/// 70522 84530
                   333 5//// 84630 83360=

################################################################################
#  SYNOPS from 67481, Isoka (Zambia) | 10-07S | 032-38E | 1360 m
################################################################################
201910290900 AAXX 29094 67481 41677 23003 10300 20116 48/// 70500 82100
                   333 5//// 82835=
201910280900 AAXX 28094 67481 42980 10302 10300 20100 48/// 81100
                   333 5//// 81835=
201910231200 AAXX 23124 67481 42680 30302 10320 20116 48/// 83200
                   333 5//// 83845=
201910230900 AAXX 23094 67481 42680 12702 10300 20132 48/// 81100
                   333 5//// 81830=
201910220900 AAXX 22094 67481 42680 23302 10292 20140 48/// 82100
                   333 5//// 82830=
201910220600 AAXX 22064 67481 32980 53002 10238 20147 48/// 85030
                   333 10330 20178 5//// 85360=
201910211200 AAXX 21124 67481 42680 52702 10302 20111 48/// 85200
                   333 5//// 85845=
201910171200 AAXX 17124 67481 NIL=
201910160900 AAXX 16094 67481 41677 52602 10272 20144 48/// 70500 85200
                   333 5//// 85840=
201910151200 AAXX 15124 67481 41777 51202 10310 20124 48/// 70522 85200
                   333 5//// 85850=
201910141200 AAXX 14124 67481 41777 51302 10310 20096 48/// 70500 85200
                   333 5//// 85856=
201910140900 AAXX 14094 67481 41677 21301 10285 20122 48/// 70500 82100
                   333 5//// 82845=
201910140600 AAXX 14064 67481 31977 12702 10242 20132 48/// 70500 80001
                   333 10320 20180 5//// 81080=
201910110900 AAXX 11094 67481 NIL=
201910110600 AAXX 11064 67481 32480 52703 10250 20146 48/// 82131
                   333 10335 20168 5//// 82815 82360 85080=
201910101200 AAXX 10124 67481 42780 62702 10320 20121 48/// 86200
                   333 5//// 86850=
201910100900 AAXX 10094 67481 NIL=
201910100600 AAXX 10064 67481 32980 63302 10238 20167 48/// 80001
                   333 10340 20180 5//// 86080=
201910090900 AAXX 09094 67481 NIL=
201910090600 AAXX 09064 67481 31977 63302 10222 20126 48/// 70522 80001
                   333 10330 20170 5//// 86080=
201910081200 AAXX 08124 67481 41557 52702 10318 20072 48/// 70500 85100
                   333 5//// 85856=
201910071200 AAXX 07124 67481 41777 52702 10301 20098 48/// 70500 85100
                   333 5//// 85850=
201910070900 AAXX 07094 67481 41677 31102 10286 20112 48/// 70500 83100
                   333 5//// 83840=
201910070600 AAXX 07064 67481 31977 01004 10235 20123 48/// 70500
                   333 10310 20160 59011
                   555 00///=
201910040600 AAXX 04064 67481 31475 12402 10210 20154 48/// 70500 81100
                   333 10330 20110 5//// 81815
                   555 00///=
201910030600 AAXX 03064 67481 31470 72403 10182 20160 48/// 70522 875//
                   333 10332 20162 5//// 87610
                   555 00///=
201910020900 AAXX 02094 67481 NIL=
201910010600 AAXX 01064 67481 31970 73002 10210 20153 48/// 70522 8707/
                   333 10321 20175 5//// 87360
                   555 00///=

################################################################################
#  SYNOPS from 67531, Zambezi (Zambia) | 13-32S | 023-07E | 1077 m
################################################################################
201910290900 AAXX 29094 67531 42980 73610 10258 20181 48/// 83038
                   333 58003 83362 84281=
201910280600 AAXX 28064 67531 12980 53008 10219 20181 48/// 60134 80008
                   333 10256 20174 59011 85280
                   555 00174=
201910231200 AAXX 23124 67531 42780 43604 10351 20131 48/// 83101
                   333 58004 83857 82081=
201910230900 AAXX 23094 67531 42980 32704 10293 20163 48/// 80001
                   333 5//// 83081=
201910220900 AAXX 22094 67531 NIL=
201910220600 AAXX 22064 67531 32980 32707 10230 20162 48/// 83030
                   333 10362 20196 59016 83362
                   555 00200=
201910171200 AAXX 17124 67531 NIL=
201910160900 AAXX 16094 67531 NIL=
201910151200 AAXX 15124 67531 42880 30903 10336 20149 48/// 83100
                   333 59006 83858=
201910150600 AAXX 15064 67531 12980 00000 10240 20183 48/// 60024
                   333 10356 20185 59016=
201910141200 AAXX 14124 67531 42880 52704 10326 20154 48/// 85100
                   333 59001 85857=
201910140900 AAXX 14094 67531 42680 13303 10387 20180 48/// 81100
                   333 58004 81843=
201910140600 AAXX 14064 67531 32980 13302 10224 20188 48/// 80002
                   333 10340 20170 58011 81081
                   555 00190=
201910111200 AAXX 11124 67531 42880 40607 10336 20141 48/// 84100
                   333 59027 84858=
201910110900 AAXX 11094 67531 42980 00906 10309 20137 48///
                   333 59011=
201910110600 AAXX 11064 67531 32980 32103 10217 20163 48/// 83030
                   333 10276 20174 58007 83361
                   555 00173=
201910101200 AAXX 10124 67531 42980 72103 10258 20166 48/// 83078
                   333 58024 83460 87280=
201910100900 AAXX 10094 67531 42980 70000 10240 20157 48/// 8707/
                   333 58018 87460=
201910100600 AAXX 10064 67531 11980 70904 10205 20167 48/// 69904 72162 8707/
                   333 10310 20193 58002 87460
                   555 00201=
201910091200 AAXX 09124 67531 42680 61904 10288 20180 48/// 82232
                   333 5//// 82845 83361 81080=
201910090900 AAXX 09094 67531 42980 72705 10265 20184 48/// 8707/
                   333 58007 87460=
201910090600 AAXX 09064 67531 11980 70000 10219 20185 48/// 69914 87075
                   333 10357 20205 58015 87460
                   555 00200=
201910070900 AAXX 07094 67531 NIL=
201910070600 AAXX 07064 67531 32980 20909 10242 20130 48/// 80001
                   333 10352 20182 59015 82081
                   555 00172=
201910040600 AAXX 04064 67531 40910 10215 10154 48/// 70500 80008
                   333 10356 20190 58005 84280
                   555 00172=
201910021200 AAXX 02124 67531 41975 71304 10315 20125 48/// 70522 8702/
                   333 58021 87460=
201910020900 AAXX 02094 67531 41975 71902 10245 20161 48/// 70522 80008
                   333 58022 87280=
201910020600 AAXX 02064 67531 32975 60000 10186 20163 48/// 70522 86082
                   333 10356 20146 58023 86360 81080
                   555 00140 20990=
201910010600 AAXX 01064 67531 11978 21805 10234 20158 48/// 69904 70500 80001
                   333 10355 20170 58009 82080
                   555 00160=

################################################################################
#  SYNOPS from 67541, Kasempa (Zambia) | 13-32S | 025-51E | 1234 m
################################################################################
201910290900 AAXX 29094 67541 42980 23407 10320 20180 48/// 80002
                   333 5//// 82080=
201910280900 AAXX 28094 67541 42980 30602 10325 20165 48/// 80003
                   333 5//// 83080=
201910280600 AAXX 28064 67541 32980 30000 10230 20176 48/// 80003
                   333 10370 20140 5//// 83080=
201910231200 AAXX 23124 67541 42980 60304 10355 20115 48/// 82231
                   333 5//// 82859 83360 81080=
201910230900 AAXX 23094 67541 42980 30603 10340 20115 48/// 80003
                   333 5//// 83080=
201910220900 AAXX 22094 67541 NIL=
201910220600 AAXX 22064 67541 32980 10000 10220 20124 48/// 80001
                   333 10290 20134 5//// 81080=
201910211200 AAXX 21124 67541 42980 20506 10375 20099 48/// 82100
                   333 5//// 82860=
201910171200 AAXX 17124 67541 42980 70602 10320 20060 48/// 80007
                   333 5//// 87080=
201910170900 AAXX 17094 67541 42980 60706 10300 20086 48/// 80006
                   333 5//// 86080=
201910160900 AAXX 16094 67541 42980 70707 10310 20136 48/// 80007
                   333 5//// 87080=
201910151200 AAXX 15124 67541 42980 40604 10355 20127 48/// 84200
                   333 5//// 84858=
201910141200 AAXX 14124 67541 42880 60000 10330 20122 48/// 86200
                   333 5//// 86857=
201910140900 AAXX 14094 67541 42980 20604 10310 20136 48/// 80002
                   333 5//// 82080=
201910140600 AAXX 14064 67541 32980 20000 10230 20122 48/// 80002
                   333 10358 20150 5//// 82080=
201910111200 AAXX 11124 67541 42880 70605 10330 20124 48/// 85202
                   333 5//// 82080=
201910110900 AAXX 11094 67541 42980 20718 10310 20136 48/// 80002
                   333 5//// 82080=
201910110600 AAXX 11064 67541 32980 20000 10245 20150 48/// 80002
                   333 10340 20144 5//// 82080=
201910101200 AAXX 10124 67541 42880 70602 10325 20125 48/// 82230
                   333 5//// 82857 85360=
201910100900 AAXX 10094 67541 42980 50601 10300 20153 48/// 85030
                   333 5//// 85360=
201910100600 AAXX 10064 67541 32980 60000 10215 20160 48/// 86030
                   333 10360 20148 5//// 86360=
201910091200 AAXX 09124 67541 42880 60603 10325 20115 48/// 86200
                   333 5//// 86857=
201910090900 AAXX 09094 67541 42980 40403 10325 20125 48/// 80004
                   333 5//// 84080=
201910090600 AAXX 09064 67541 32980 50000 10210 20136 48/// 80005
                   333 10358 20128 5//// 85080=
201910081200 AAXX 08124 67541 42880 60403 10335 20130 48/// 86200
                   333 5//// 86857=
201910080600 AAXX 08064 67541 32980 70708 10255 20124 48/// 87030
                   333 10362 20146 5//// 87360=
201910071200 AAXX 07124 67541 42980 50702 10345 20122 48/// 85200
                   333 5//// 85858=
201910070900 AAXX 07094 67541 42980 20705 10310 20126 48/// 70222 80002
                   333 5//// 82080=
201910070600 AAXX 07064 67541 32980 20807 10250 20127 48/// 70222 80002
                   333 10366 20166 5//// 82080
                   555 00/// 20000=
201910031200 AAXX 03124 67541 42980 50709 10305 20140 48/// 70222 85200
                   333 5//// 85856=
201910030600 AAXX 03064 67541 32980 40602 10203 20150 48/// 70222 80004
                   333 10322 20132 5//// 84080
                   555 00/// 20000=
201910021200 AAXX 02124 67541 82980 70608 10300 20144 48/// 70222 80007
                   333 5//// 87080=
201910020900 AAXX 02094 67541 42980 70605 10290 20150 48/// 70222 80007
                   333 5//// 87080=

################################################################################
#  SYNOPS from 67543, Kabompo (Zambia) | 13-36S | 024-12E | 1075 m
################################################################################
201910290900 AAXX 29094 67543 42980 62704 10321 20173 48/// 82037
                   333 5//// 82360 85280=
201910280600 AAXX 28064 67543 12975 70000 10210 20173 48/// 60054 80007
                   333 10384 20180 59013 87280=
201910231200 AAXX 23124 67543 41670 70603 10368 20127 48/// 70522 83230
                   333 58004 83835 86361=
201910230900 AAXX 23094 67543 41970 13001 10318 20144 48/// 70501 80001
                   333 59003 81080=
201910220900 AAXX 22094 67543 41970 42703 10302 20163 48/// 70500 80005
                   333 59011 84280=
201910220600 AAXX 22064 67543 31970 43602 10248 20147 48/// 70500 84031
                   333 10376 20170 59014 84360 81080=
201910211200 AAXX 21124 67543 41670 60901 10352 20106 48/// 70500 86200
                   333 5//// 86835=
201910171200 AAXX 17124 67543 42670 70302 10324 20095 48/// 81107
                   333 58008 81830 87280=
201910170900 AAXX 17094 67543 42970 60603 10296 20073 48/// 80007
                   333 58011 86280=
201910160900 AAXX 16094 67543 42970 61207 10320 20108 48/// 80007
                   333 58010 86280=
201910151200 AAXX 15124 67543 42675 51802 10364 20109 48/// 85200
                   333 59009 85835=
201910141200 AAXX 14124 67543 42675 60602 10340 20151 48/// 86300
                   333 5//// 81935 86835=
201910140900 AAXX 14094 67543 NIL=
201910140600 AAXX 14064 67543 32975 50000 10244 20184 48/// 85030
                   333 10342 20196 5//// 85360=
201910110900 AAXX 11094 67543 NIL=
201910101200 AAXX 10124 67543 NIL=
201910100900 AAXX 10094 67543 NIL=
201910100600 AAXX 10064 67543 NIL=
201910090900 AAXX 09094 67543 NIL=
201910090600 AAXX 09064 67543 NIL=
201910070900 AAXX 07094 67543 NIL=
201910020900 AAXX 02094 67543 NIL=

################################################################################
#  SYNOPS from 67551, Solwezi (Zambia) | 12-11S | 026-23E | 1386 m
################################################################################
201910291200 AAXX 29124 67551 41870 61307 10327 20167 48462 71792 81900
                   333 59001 81857 91012=
201910290900 AAXX 29094 67551 NIL=
201910280600 AAXX 28064 67551 31970 23004 10226 20180 48501 70500 82030
                   333 10345 20166 59017 82362 91017=
201910231200 AAXX 23124 67551 41970 60907 10304 20126 48496 70522 83032
                   333 58001 83360 84080 91016=
201910230900 AAXX 23094 67551 41970 60907 10304 20126 48496 70522 83032
                   333 58001 83362 84080 91016=
201910220900 AAXX 22094 67551 41970 20306 10304 20149 48492 70500 81101
                   333 59015 81856 82080 91016=
201910220600 AAXX 22064 67551 31970 33205 10216 20163 48506 70511 82031
                   333 10345 20173 59013 82362 82080 91017=
201910211200 AAXX 21124 67551 41970 51807 10331 20093 48504 70522 85100
                   333 59017 85859 91014=
201910171200 AAXX 17124 67551 NIL=
201910160900 AAXX 16094 67551 41670 71312 10270 20137 48522 70522 83108
                   333 58004 83850 91020=
201910151200 AAXX 15124 67551 41870 60805 10314 20137 48496 70522 86200
                   333 58001 86859 91016=
201910141200 AAXX 14124 67551 41970 61806 10326 20121 48496 70522 86200
                   333 58003 86859 91016=
201910140900 AAXX 14094 67551 41970 30905 10286 20124 48530 70512 83030
                   333 58007 83360 91020=
201910140600 AAXX 14064 67551 31965 60405 10221 20166 48531 70522 86031
                   333 10316 20178 58013 86360 82080 91021=
201910110900 AAXX 11094 67551 41970 60907 10281 20147 48517 70522 82108
                   333 58002 82858 86280 91018=
201910110600 AAXX 11064 67551 31970 30000 10217 20169 48517 70511 81031
                   333 10333 20179 58003 81362 83080 91019=
201910101200 AAXX 10124 67551 41970 51306 10319 20117 48480 70522 84100
                   333 58007 84858 81362 91015=
201910100900 AAXX 10094 67551 41970 11804 10280 20126 48/// 70500 81030
                   333 58002 81362 91018=
201910100600 AAXX 10064 67551 31970 20603 10195 20154 48512 70500 82030
                   333 10336 20164 58000 82362 91019=
201910090900 AAXX 09094 67551 NIL=
201910090600 AAXX 09064 67551 31965 70000 10226 20153 48515 70522 80007
                   333 10343 20167 58004 87362 91019=
201910081200 AAXX 08124 67551 41970 6//// 10320 20109 48500 70522 86200
                   333 59007 86859 91013=
201910080600 AAXX 08064 67551 31970 7//// 10220 20119 48510 70522 87071
                   333 10326 20192 59001 87360 82080 91018=
201910070900 AAXX 07094 67551 NIL=
201910070600 AAXX 07064 67551 31970 20906 10239 20131 48507 70511 80006
                   333 10306 20172 59019 82280
                   555 91018=
201910040600 AAXX 04064 67551 11470 41206 10184 20152 48543 69914 70511 85501
                   333 10315 20156 58007 85610 82080
                   555 00/// 20000 91022=
201910031200 AAXX 03124 67551 41870 60909 10292 20145 48514 70522 86200
                   333 58000 86857 555 91018=
201910030600 AAXX 03064 67551 41770 60905 10281 20140 48500 70522 82232
                   333 58006 82856 84360 82080
                   555 91016=
201910021200 AAXX 02124 67551 41770 71805 10272 20150 48512 70522 83270
                   333 58018 83856 87360
                   555 91018=
201910020900 AAXX 02094 67551 41970 63205 10253 20161 48531 70522 86030
                   333 58022 86360 555 91020=
201910020600 AAXX 02064 67551 11965 40505 10192 20168 48532 60034 70522 83031
                   333 10202 20150 58016 83360 82080
                   555 00/// 20990 91020=
201910010600 AAXX 01064 67551 11970 72006 10198 20157 48512 69904 79596 81937
                   333 10319 20184 58009 81940 84362 86280
                   555 00/// 20000 91019=

################################################################################
#  SYNOPS from 67561, Ndola (Zambia) | 13-00S | 028-39E | 1269 m
################################################################################
201910290900 AAXX 29094 67561 NIL=
201910280900 AAXX 28094 67561 41658 13504 10315 20137 48498 70400 81100
                   333 59015 81845 91016=
201910280600 AAXX 28064 67561 31930 20000 10253 20150 48506 70411 80001
                   333 10351 20188 59016 82080 91017=
201910220900 AAXX 22094 67561 41958 69905 10314 20116 48503 70422 80008
                   333 59002 86280 91016=
201910220600 AAXX 22064 67561 31956 69903 10226 20093 48509 70422 80008
                   333 10347 20158 59010 86280 91018=
201910211200 AAXX 21124 67561 41759 41705 10334 20062 48484 70400 84200
                   333 59015 84856 91014=
201910171200 AAXX 17124 67561 41670 60000 10302 20097 48514 70522 84208
                   333 58002 84848 86280
                   555 66100 77/// 8840/ 98058 91018=
201910170900 AAXX 17094 67561 41960 41304 10263 20091 48543 70511 80002
                   333 58009 84080 91021=
201910170600 AAXX 17064 67561 31960 41515 10212 20075 48542 70511 80002
                   333 10306 20144 58006 84080 91022=
201910161200 AAXX 16124 67561 41759 41508 10298 20095 48509 70422 84202
                   333 58008 84856 84080 91017=
201910160900 AAXX 16094 67561 41659 31010 10277 20109 48536 70400 81101
                   333 58004 81840 82080 91020=
201910140900 AAXX 14094 67561 41659 20909 10294 20128 48531 70422 81101
                   333 58008 81840 82080 91020=
201910140600 AAXX 14064 67561 31959 50810 10234 20129 48534 70422 85031
                   333 10321 20184 58008 85360 81080 91020=
201910110900 AAXX 11094 67561 41659 50913 10290 20142 48531 70422 85202
                   333 58017 85845 84080 91020=
201910110600 AAXX 11064 67561 31959 40713 10245 20150 48530 70411 80001
                   333 10343 20196 58009 84080 91020=
201910101200 AAXX 10124 67561 41759 50405 10335 20104 48484 70422 85238
                   333 58003 85856 81360 84280 91014=
201910100900 AAXX 10094 67561 NIL=
201910100600 AAXX 10064 67561 31957 60806 10240 20125 48520 70422 84038
                   333 10345 20198 58002 84360 86280 91019=
201910090900 AAXX 09094 67561 NIL=
201910090600 AAXX 09064 67561 31958 50705 10224 20122 48515 70422 80008
                   333 10332 20179 59004 85280 91018=
201910081200 AAXX 08124 67561 41760 61405 10320 20096 48482 70422 86201
                   333 59006 81956 86857 81080 91014=
201910071200 AAXX 07124 67561 41670 63205 10319 20117 48488 70522 86200
                   333 59019 86840 555 66/// 77/// 8841/ 98043
                   91015=
201910070900 AAXX 07094 67561 41560 30908 10300 20122 48519 70500 83100
                   333 59013 83825 555 91018=
201910070600 AAXX 07064 67561 31959 00805 10230 20132 48527 70400
                   333 10310 20180 59013
                   555 00/// 91020=
201910040600 AAXX 04064 67561 31559 20906 10217 20152 48547 70400 82100
                   333 10260 20150 58002 82820
                   555 00/// 91022=
201910030600 AAXX 03064 67561 11359 71108 10199 20151 48547 60014 70422 85608
                   333 10290 20163 58009 85709 86280
                   555 00/// 20990 91022=
201910021200 AAXX 02124 67561 41659 61803 10274 20154 48518 70422 84230
                   333 58036 81940 84842 85360 91018=
201910020900 AAXX 02094 67561 NIL=
201910020600 AAXX 02064 67561 11956 70000 10198 20153 48538 70422 8703/
                   333 10327 20175 58035
                   555 00/// 91021=
201910011200 AAXX 01124 67561 41757 62004 10144 48484 70422 86200
                   333 58008 86850 555 67064 78/// 8948/ 99002
                   91014=

################################################################################
#  SYNOPS from 67563, Kafironda (Zambia) | 12-36S | 028-07E | 1243 m
################################################################################
201910290900 AAXX 29094 67563 NIL=
201910280600 AAXX 28064 67563 31970 12103 10250 20160 48/// 70500 81030
                   333 10356 20155 5//// 81360
                   555 00150=
201910220900 AAXX 22094 67563 NIL=
201910220600 AAXX 22064 67563 31970 50304 10255 20144 48/// 70522 80008
                   333 10353 20135 5//// 85280
                   555 00130=
201910210600 AAXX 21064 67563 31970 30604 10220 20170 48/// 70500 83030
                   333 10326 20148 5//// 83360
                   555 00137=
201910171200 AAXX 17124 67563 NIL=
201910160900 AAXX 16094 67563 NIL=
201910160600 AAXX 16064 67563 11370 31208 10224 20160 48/// 60054 70500 81601
                   333 10338 20152 5//// 81709 83080
                   555 00148=
201910150600 AAXX 15064 67563 31970 01112 10250 20157 48/// 70500
                   333 10341 20144 5////
                   555 00126=
201910140900 AAXX 14094 67563 NIL=
201910140600 AAXX 14064 67563 31970 01110 10265 20160 48/// 70500
                   333 10322 20144 5////
                   555 00136=
201910110900 AAXX 11094 67563 NIL=
201910101200 AAXX 10124 67563 NIL=
201910100900 AAXX 10094 67563 NIL=
201910100600 AAXX 10064 67563 31970 70502 10235 20123 48/// 70522 87030
                   333 10366 20166 5//// 87362
                   555 00150=
201910090900 AAXX 09094 67563 NIL=
201910090600 AAXX 09064 67563 31970 00306 1//// 20145 48/// 70500
                   333 10350 20136 5////
                   555 00126=
201910080600 AAXX 08064 67563 31970 21406 10250 20137 48/// 70500 82030
                   333 10340 20156 5//// 82362
                   555 00146=
201910070900 AAXX 07094 67563 NIL=
201910020900 AAXX 02094 67563 NIL=
201910020600 AAXX 02064 67563 31850 70402 10215 20160 48/// 70522 81038
                   333 10335 20180 5//// 81362 86270
                   555 00175=
201910010600 AAXX 01064 67563 31450 10210 10163 48/// 70522 87500
                   333 10351 20175 87612
                   555 00169=

################################################################################
#  SYNOPS from 67571, Serenje (Zambia) | 13-14S | 030-13E | 1384 m
################################################################################
201910290900 AAXX 29094 67571 42677 13603 10307 20106 48485 70500 81100
                   333 58031 81840=
201910290600 AAXX 29064 67571 32970 02702 10243 20086 48543 70500
                   333 10351 20167 58029=
201910280600 AAXX 28064 67571 32975 00302 10243 20076 48/// 70500
                   333 10347 20176 5////=
201910231200 AAXX 23124 67571 41208 4//// 10336 20085 48423 70500 84200
                   333 59023 84845=
201910230900 AAXX 23094 67571 42678 10305 10310 20119 48454 70500 81100
                   333 59014 81835=
201910220900 AAXX 22094 67571 42678 30905 10326 20056 48/// 70500 81101
                   333 5//// 81836 83080=
201910220600 AAXX 22064 67571 32978 10000 10265 20126 48/// 70500 80001
                   333 10338 20187 5//// 81080=
201910211200 AAXX 21124 67571 42678 11206 10328 20016 48434 70500 81130
                   333 59009 81845 81360=
201910210600 AAXX 21064 67571 32978 13603 10245 20131 48473 70500 81030
                   333 10323 20165 59012 81360=
201910171200 AAXX 17124 67571 42680 31806 10265 20080 48464 70500 81201
                   333 58000 81840 83080=
201910170900 AAXX 17094 67571 42980 10908 10239 20090 48493 70500
                   333 5//// 81080=
201910160900 AAXX 16094 67571 42680 71206 10220 20119 48/// 70522 875//
                   333 5//// 87630=
201910160600 AAXX 16064 67571 32580 61510 10189 20117 48/// 70511 86500
                   333 10308 20175 5//// 86620=
201910151200 AAXX 15124 67571 42680 60906 10283 20126 48/// 86200
                   333 5//// 81945 86845=
201910141200 AAXX 14124 67571 42680 61506 10285 20100 48464 70522 86200
                   333 58008 86845=
201910140900 AAXX 14094 67571 42680 41505 10275 20130 48484 70500 84200
                   333 58012 84835=
201910140600 AAXX 14064 67571 32980 00606 10234 20131 48492 70500
                   333 10301 20176 58015=
201910111200 AAXX 11124 67571 42680 71205 10282 20124 48454 70522 85208
                   333 58022 81940 85840 87280=
201910110900 AAXX 11094 67571 NIL=
201910110600 AAXX 11064 67571 32580 71209 10225 20143 48493 70522 84508
                   333 10329 20195 58025 84625 87280=
201910101200 AAXX 10124 67571 42778 21508 10324 20076 48434 70500 82201
                   333 58001 81850 81080=
201910100900 AAXX 10094 67571 42678 20304 10304 20088 48/// 70500 81231
                   333 5//// 81360 82080=
201910100600 AAXX 10064 67571 32978 63302 10248 20129 48/// 70500 80008
                   333 10325 20189 5//// 86280=
201910091200 AAXX 09124 67571 42675 50903 10308 20065 48535 70522 85201
                   333 58000 85848 81080=
201910090900 AAXX 09094 67571 42675 10602 10297 20075 48464 70500 81101
                   333 59005 81835 81080=
201910090600 AAXX 09064 67571 32975 23302 10233 20111 48473 70500 80001
                   333 10325 20190 59002 82080=
201910081200 AAXX 08124 67571 42780 31202 10302 20065 48433 70511 83201
                   333 59011 83850 81080=
201910080600 AAXX 08064 67571 32980 23605 10245 20121 48474 70500 81031
                   333 10311 20182 58005 81360 81080=
201910071200 AAXX 07124 67571 42680 50902 10287 20112 48/// 70522 85200
                   333 5//// 85848=
201910070900 AAXX 07094 67571 42680 60903 10276 20120 48/// 70500 86200
                   333 5//// 86840=
201910070600 AAXX 07064 67571 32980 00904 10231 20131 48/// 70500
                   333 10296 20175 5////
                   555 00/// 20000=
201910031200 AAXX 03124 67571 41378 80906 10169 20147 48500 75155 887//
                   333 58022 88708=
201910030600 AAXX 03064 67571 11378 81506 10158 20146 48510 59904 75055 887//
                   333 10244 20154 58014 88706
                   555 00/// 20016=
201910021200 AAXX 02124 67571 42970 71210 10210 20134 48482 70222 8703/
                   333 58062 87360=
201910020900 AAXX 02094 67571 42970 71205 10205 20147 48492 70522 8703/
                   333 58057 87360=
201910020600 AAXX 02064 67571 12570 71505 10183 20151 48/// 60164 70522 8153/
                   333 10318 20165 555 81620 87360=
201910010600 AAXX 01064 67571 32965 13003 10201 20141 48/// 70500 81030
                   333 10337 20173 5//// 81360
                   555 00/// 20000=

################################################################################
#  SYNOPS from 67575, Mkushi (Zambia) | 13-38-00S | 029-26-00E | 1237 m
################################################################################
201910290900 AAXX 29094 67575 NIL=
201910280900 AAXX 28094 67575 41970 03603 10338 20063 48455 70500
                   333 5////=
201910280600 AAXX 28064 67575 31970 03603 10246 20061 48465 70500
                   333 10365 20144 59020
                   555 00130=
201910231200 AAXX 23124 67575 41670 60806 10352 20078 48/// 70500 81138
                   333 5//// 81842 81365 86280=
201910230900 AAXX 23094 67575 41670 70805 10322 20128 48462 70522 81108
                   333 58003 81835 87278=
201910220900 AAXX 22094 67575 NIL=
201910220600 AAXX 22064 67575 31970 63601 10248 20107 48465 70521 80008
                   333 10358 20164 59016 86278
                   555 00150=
201910211200 AAXX 21124 67575 41670 11204 10350 20043 48438 70500 81200
                   333 5//// 81840=
201910171200 AAXX 17124 67575 41675 70906 10290 20083 48474 70522 81108
                   333 5//// 81840 87280=
201910170900 AAXX 17094 67575 41975 61304 10254 20091 48502 70522 80008
                   333 58004 86280=
201910160900 AAXX 16094 67575 41675 51210 10258 20113 48499 70521 81108
                   333 5//// 81830 85280=
201910151200 AAXX 15124 67575 41675 31204 10300 20124 48471 70521 83200
                   333 58009 83840=
201910141200 AAXX 14124 67575 41775 32801 10305 20111 48462 70500 83200
                   333 5//// 83850=
201910140900 AAXX 14094 67575 41675 11007 10298 20127 48493 70500 81200
                   333 5//// 81832=
201910140600 AAXX 14064 67575 31975 10908 10245 20131 48500 70500 81030
                   333 10325 20176 58010 81360
                   555 00162=
201910111200 AAXX 11124 67575 41670 61009 10300 20113 48/// 70522 82208
                   333 5//// 82843 85280=
201910110900 AAXX 11094 67575 41670 70911 10276 20139 48494 70522 83208
                   333 5//// 83835=
201910110600 AAXX 11064 67575 31470 71308 10242 20151 48496 70522 82508
                   333 10356 20185 5//// 82615 87278
                   555 00165=
201910101200 AAXX 10124 67575 41770 10902 10342 20055 48/// 70521 81200
                   333 5//// 81850=
201910100900 AAXX 10094 67575 41670 21503 10324 20085 48/// 70521 81101
                   333 5//// 81832 82080=
201910100600 AAXX 10064 67575 31970 90302 10239 20125 48/// 70522 80008
                   333 10353 20162 5//// 87278
                   555 00154=
201910091200 AAXX 09124 67575 41770 40903 10340 20066 48/// 70521 82208
                   333 5//// 82850 83280=
201910090900 AAXX 09094 67575 41670 60303 10314 20102 48469 70522 81108
                   333 59006 81832 86280=
201910090600 AAXX 09064 67575 31970 62901 10240 20118 48476 70522 80008
                   333 10345 20172 59003 86280
                   555 00150=
201910081200 AAXX 08124 67575 41775 31605 10336 20084 48/// 70500 83201
                   333 5//// 83850 81080=
201910080600 AAXX 08064 67575 31975 10605 10249 20118 48480 70500 81031
                   333 10336 20167 59010 81360 81080
                   555 00150=
201910071200 AAXX 07124 67575 41775 21204 10320 20109 48/// 70500 82200
                   333 5//// 82845=
201910070900 AAXX 07094 67575 41675 21205 10302 20116 48/// 70500 82200
                   333 5//// 82830=
201910031200 AAXX 03124 67575 42480 81202 10201 20154 48500 885//
                   333 5//// 88618 555 5////=
201910030600 AAXX 03064 67575 31475 81205 10182 20148 48511 70522 885//
                   333 10284 20168 58012 88613
                   555 00170=
201910020900 AAXX 02094 67575 41675 70805 10255 20157 48501 70522 81208
                   333 58045 81830 87280
                   555 5////=
201910010600 AAXX 01064 67575 31965 83603 10234 20148 48463 70522 81037
                   333 10361 20178 58003 81360 88278
                   555 00162=

################################################################################
#  SYNOPS from 67580, Msekera (Zambia) | 13-39S | 032-34E | 1025 m
################################################################################
201910290900 AAXX 29094 67580 NIL=
201910290600 AAXX 29064 67580 31975 00902 10308 20146 48/// 70500
                   333 10384 20244 59007=
201910280600 AAXX 28064 67580 31975 00805 10294 20131 48/// 70500
                   333 10375 20230 5////=
201910220900 AAXX 22094 67580 NIL=
201910220600 AAXX 22064 67580 NIL=
201910171200 AAXX 17124 67580 NIL=
201910170900 AAXX 17094 67580 41675 11802 10260 20133 48/// 70500 81130
                   333 58006 81844 81361=
201910160900 AAXX 16094 67580 41975 71608 10252 20140 48/// 70522 80008
                   333 5//// 87282=
201910160600 AAXX 16064 67580 11975 61508 10213 20140 48/// 60124 70522 81038
                   333 10333 20198 5//// 81360 86280=
201910140900 AAXX 14094 67580 41675 50905 10305 20174 48/// 70500 85100
                   333 5//// 85848=
201910140600 AAXX 14064 67580 31978 41205 10249 20166 48/// 70522 84030
                   333 10334 20196 58011 84360=
201910110900 AAXX 11094 67580 41775 71507 10298 20164 48/// 86208
                   333 58021 86850 87280=
201910110600 AAXX 11064 67580 31675 71506 10254 20177 48/// 70522 86208
                   333 10352 20215 58025 86830 87280=
201910101200 AAXX 10124 67580 NIL=
201910100900 AAXX 10094 67580 41675 70905 10322 20172 48/// 70522 81108
                   333 5//// 81845 87280=
201910100600 AAXX 10064 67580 31975 70905 10267 20173 48/// 70522 80008
                   333 10357 20220 5//// 87280=
201910090900 AAXX 09094 67580 41978 20903 10318 20152 48/// 70500 80001
                   333 5//// 82080=
201910090600 AAXX 09064 67580 31978 30907 10266 20140 48/// 70500 80001
                   333 10350 20225 5////=
201910080600 AAXX 08064 67580 32680 30906 10250 20172 48/// 81131
                   333 10348 20215 59006 81834 82360 81080=
201910070900 AAXX 07094 67580 41775 61504 10300 20173 48/// 70521 84108
                   333 5//// 84850 85280=
201910070600 AAXX 07064 67580 31550 51505 10261 20167 48/// 70521 81108
                   333 10334 20195 5//// 81825 85282
                   555 00///=
201910030600 AAXX 03064 67580 12580 71204 10194 20183 48/// 60404 8753/
                   333 10200 20169 5//// 87624 83360
                   555 00/// 20093=
201910020900 AAXX 02094 67580 NIL=
201910020600 AAXX 02064 67580 11580 81205 10170 20168 48/// 60934 79599 8297/
                   333 10375 20170 58061 82920 88460
                   555 00/// 20000=
201910010600 AAXX 01064 67580 31975 00606 10272 20161 48/// 70500
                   333 10363 20223 59003
                   555 00/// 20000=

################################################################################
#  SYNOPS from 67581, Chipata (Zambia) | 13-33S | 032-35E | 1028 m
################################################################################
201910290900 AAXX 29094 67581 42980 00905 10348 20111 48555
                   333 59006 91014=
201910280600 AAXX 28064 67581 32980 00608 10286 20123 48534
                   333 10355 20248 5//// 91016=
201910230900 AAXX 23094 67581 42680 11808 10332 20151 48/// 81100
                   333 5//// 81845=
201910220900 AAXX 22094 67581 NIL=
201910220600 AAXX 22064 67581 32980 21604 10275 20158 48525 80002
                   333 10350 20232 59010 82080 91017=
201910211200 AAXX 21124 67581 42880 21406 10348 20109 48/// 82130
                   333 5//// 82857 81360=
201910171200 AAXX 17124 67581 NIL=
201910170600 AAXX 17064 67581 32980 01717 10215 20105 48558
                   333 10284 20175 5//// 91022=
201910160900 AAXX 16094 67581 42980 01725 10255 20129 48///
                   333 5////=
201910151200 AAXX 15124 67581 42680 70712 10310 20153 48/// 872//
                   333 5//// 87845=
201910141200 AAXX 14124 67581 42780 70906 10311 20144 48/// 872//
                   333 5//// 87845=
201910140900 AAXX 14094 67581 42680 40910 10305 20151 48/// 84200
                   333 5//// 84840=
201910140600 AAXX 14064 67581 32980 50908 10260 20153 48555 85030
                   333 10318 20210 58010 85360 91020=
201910110900 AAXX 11094 67581 NIL=
201910110600 AAXX 11064 67581 32680 51008 10255 20168 48559 85200
                   333 10332 20228 58022 85830 91021=
201910101200 AAXX 10124 67581 NIL=
201910100900 AAXX 10094 67581 42680 31406 10316 20165 48536 82102
                   333 5//// 82840 82080 91017=
201910100600 AAXX 10064 67581 32980 30909 10258 20168 48540 70500 80002
                   333 10336 20222 5//// 83080 91018=
201910090900 AAXX 09094 67581 NIL=
201910090600 AAXX 09064 67581 32980 21209 10256 20128 48/// 80002
                   333 10309 20228 5//// 82080=
201910080600 AAXX 08064 67581 32980 30608 10240 20163 48543 82032
                   333 10325 20220 59001 82360 83080 91019=
201910070900 AAXX 07094 67581 42680 50408 10291 20157 48546 70322 85200
                   333 5//// 85845 91001=
201910070600 AAXX 07064 67581 32680 20180 10252 20152 48546 70222 82100
                   333 10309 20200 5//// 82830
                   555 00/// 91019=
201910040600 AAXX 04064 67581 32580 31206 10164 48568 81130
                   333 10256 20188 5//// 81825 83360
                   555 00/// 20030 91023=
201910031200 AAXX 03124 67581 42580 41606 10248 20183 48/// 70222 84200
                   333 5//// 84825 910//=
201910030600 AAXX 03064 67581 12480 71710 10200 20161 48/// 60304 70122 8457/
                   333 10230 21079 5//// 84610 87459
                   555 00/// 20087 910//=
201910020900 AAXX 02094 67581 NIL=
201910020600 AAXX 02064 67581 11256 81809 10172 20168 48499 60874 76199 887//
                   333 10355 20173 58047 88740
                   555 00/// 91022=
201910010600 AAXX 01064 67581 31980 00605 10261 20133 48523 70500
                   333 10351 20234 58000
                   555 00/// 91017=

################################################################################
#  SYNOPS from 67583, Lundazi (Zambia) | 12-17S | 033-12E | 1143 m
################################################################################
201910290900 AAXX 29094 67583 41758 13602 10354 20123 48/// 70500 81100
                   333 5//// 81856=
201910220900 AAXX 22094 67583 NIL=
201910220600 AAXX 22064 67583 31957 60000 10268 20162 48/// 70522 80006
                   333 10352 2//// 5//// 86280=
201910211200 AAXX 21124 67583 41758 51203 10342 20132 48/// 70522 82131
                   333 5//// 82850 82360 81080=
201910171200 AAXX 17124 67583 41757 70000 10290 20155 48/// 70522 872//
                   333 5//// 87856=
201910160900 AAXX 16094 67583 NIL=
201910151200 AAXX 15124 67583 41758 41103 10318 20155 48/// 70510 84201
                   333 5//// 84850 81080=
201910140900 AAXX 14094 67583 41659 41505 10316 20151 48/// 70500 84100
                   333 5//// 84835=
201910140600 AAXX 14064 67583 31959 00000 10252 20165 48/// 70500
                   333 10334 2//// 5////=
201910110900 AAXX 11094 67583 NIL=
201910110600 AAXX 11064 67583 31560 71707 10254 20172 48/// 70522 84837
                   333 10340 2//// 5//// 81820 83621 81360 87280=
201910101200 AAXX 10124 67583 NIL=
201910100900 AAXX 10094 67583 NIL=
201910100600 AAXX 10064 67583 31959 71204 10266 20162 48/// 70522 81037
                   333 10340 2//// 5//// 81359 87280=
201910090900 AAXX 09094 67583 41659 70302 10319 20138 48/// 70522 81107
                   333 5//// 81840 87280=
201910090600 AAXX 09064 67583 31959 10904 10260 20145 48/// 70500 80001
                   333 10346 2//// 5//// 81080=
201910081200 AAXX 08124 67583 41759 50902 10324 20156 48/// 70521 85201
                   333 5//// 85856 81080=
201910071200 AAXX 07124 67583 41759 41206 10322 20143 48/// 70500 82230
                   333 5//// 82856 82358=
201910070900 AAXX 07094 67583 41759 40905 10302 20168 48/// 70500 84200
                   333 5//// 84840=
201910070600 AAXX 07064 67583 31558 11203 10250 20162 48/// 70500 81200
                   333 10318 2//// 5//// 81825
                   555 00///=
201910040600 AAXX 04064 67583 31457 61202 10224 20178 48/// 70522 86501
                   333 10280 2//// 5//// 86618 81080
                   555 00///=
201910031200 AAXX 03124 67583 41656 70904 10280 20162 48/// 70522 8223/
                   333 5//// 82848 87358=
201910030600 AAXX 03064 67583 31450 80000 10196 20172 48/// 70522 8177/
                   333 10330 2//// 5//// 81710 88359
                   555 00///=
201910021200 AAXX 02124 67583 41750 61203 10320 20155 48/// 70522 83106
                   333 5//// 84850 86280=
201910020900 AAXX 02094 67583 41750 71202 10300 20168 48/// 70522 85131
                   333 5//// 85850 81360 82080=
201910010600 AAXX 01064 67583 31940 10302 10256 20164 48/// 70500 80001
                   333 10356 2//// 5//// 81080
                   555 00///=

################################################################################
#  SYNOPS from 67599, Mfuwe (Zambia) | 13-16S | 031-56E | 568 m
################################################################################
201910290900 AAXX 29094 67599 NIL=
201910220900 AAXX 22094 67599 NIL=
201910220600 AAXX 22064 67599 31958 60504 10309 20135 48510 70522 80002
                   333 10385 20194 59011 86080
                   555 00199 91014=
201910171200 AAXX 17124 67599 NIL=
201910160900 AAXX 16094 67599 NIL=
201910140900 AAXX 14094 67599 NIL=
201910140600 AAXX 14064 67599 31960 11205 10288 20136 48554 70500 81030
                   333 10374 20200 58006 81360
                   555 00200 91018=
201910110900 AAXX 11094 67599 NIL=
201910110600 AAXX 11064 67599 31675 50810 10302 20156 48560 70500 83138
                   333 10405 20238 59020 83840 81360 85280 91018=
201910101200 AAXX 10124 67599 NIL=
201910100900 AAXX 10094 67599 NIL=
201910100600 AAXX 10064 67599 32980 60610 10286 20148 48536 80007
                   333 10400 20228 58003 86280
                   555 00223 91016=
201910090900 AAXX 09094 67599 NIL=
201910090600 AAXX 09064 67599 NIL=
201910070900 AAXX 07094 67599 NIL=
201910070600 AAXX 07064 67599 32980 30814 10292 20143 48547 83030
                   555 00186 91017=
201910030600 AAXX 03064 67599 32880 81805 10221 20106 48567 88071
                   333 10380 20183 58020 88458
                   555 00188 91022=
201910020900 AAXX 02094 67599 NIL=

################################################################################
#  SYNOPS from 67625, Kalabo (Zambia) | 14-51S | 022-42E | 1033 m
################################################################################
201910290900 AAXX 29094 67625 42982 72708 10325 20147 48/// 84034
                   333 58005 84361 87075=
201910280900 AAXX 28094 67625 42982 73310 10334 20142 48/// 80004
                   333 5//// 87075=
201910280600 AAXX 28064 67625 12982 73304 10254 20153 48/// 69904 87034
                   333 10385 20186 59009 81360 87075=
201910220900 AAXX 22094 67625 NIL=
201910220600 AAXX 22064 67625 32982 63008 10260 20130 48/// 86030
                   333 10385 20215 59031 86360=
201910171200 AAXX 17124 67625 NIL=
201910160900 AAXX 16094 67625 NIL=
201910151200 AAXX 15124 67625 42982 10915 10366 20078 48/// 81030
                   333 59007 81360=
201910140900 AAXX 14094 67625 NIL=
201910140600 AAXX 14064 67625 32982 72102 10230 20159 48/// 83034
                   333 10352 20184 59002 83360 87075=
201910110900 AAXX 11094 67625 NIL=
201910101200 AAXX 10124 67625 NIL=
201910100900 AAXX 10094 67625 42982 82304 10285 20143 48/// 85034
                   333 58016 85360 88075=
201910100600 AAXX 10064 67625 12982 72304 10222 20149 48/// 69904 86074
                   333 10313 20195 58000 86360 87075=
201910091200 AAXX 09124 67625 42982 82704 10305 20140 48/// 8803/
                   333 58025 88361=
201910090900 AAXX 09094 67625 42982 82507 10268 20154 48/// 8802/
                   333 58009 88461=
201910090600 AAXX 09064 67625 32982 72205 10240 20144 48/// 8702/
                   333 10380 20227 58019 87460=
201910080600 AAXX 08064 67625 32982 70807 10240 20091 48/// 80004
                   333 10377 20105 59018 87075=
201910070900 AAXX 07094 67625 42982 70911 10330 20110 48/// 83340
                   333 83360 87075=
201910030600 AAXX 03064 67625 32982 20119 10//0 48/// 80004
                   333 10355 20175 58000 87075
                   555 00/// 20000=
201910021200 AAXX 02124 67625 42982 81006 10342 20003 48/// 80004
                   333 58009 88075=
201910020900 AAXX 02094 67625 42982 81218 10302 21018 48/// 80004
                   333 58014 88075=
201910020600 AAXX 02064 67625 32922 71206 10185 20020 48/// 80004
                   333 10360 20120 58200 87075
                   555 00/// 20000=

################################################################################
#  SYNOPS from 67633, Mongu (Zambia) | 15-15S | 023-09E | 1052 m
################################################################################
201910290900 AAXX 29094 67633 NIL=
201910280900 AAXX 28094 67633 32980 33603 10337 20338 48485 80001
                   333 59003 81080 91012=
201910220900 AAXX 22094 67633 NIL=
201910220600 AAXX 22064 67633 NIL=
201910171200 AAXX 17124 67633 42980 20708 10340 20033 48525 80001
                   333 58012 82080 91017=
201910170900 AAXX 17094 67633 42980 20911 10305 20053 48550 80001
                   333 58010 82080 91020=
201910160900 AAXX 16094 67633 42980 10920 10327 20076 48543 80001
                   333 58011 81080 91019=
201910140900 AAXX 14094 67633 42980 20810 10335 20125 48538 82030
                   333 59005 82360 91018=
201910140600 AAXX 14064 67633 NIL=
201910111200 AAXX 11124 67633 42780 50910 10355 20127 48508 85200
                   333 58014 85856 91015=
201910110900 AAXX 11094 67633 42680 10913 10316 20129 48532 81100
                   333 59000 81830 91018=
201910110600 AAXX 11064 67633 32980 51810 10247 20139 48530 85030
                   333 10337 20204 59000 85360
                   555 00156 91019=
201910101200 AAXX 10124 67633 NIL=
201910100900 AAXX 10094 67633 NIL=
201910100600 AAXX 10064 67633 NIL=
201910090900 AAXX 09094 67633 NIL=
201910090600 AAXX 09064 67633 NIL=
201910070900 AAXX 07094 67633 NIL=
201910070600 AAXX 07064 67633 32980 10908 10255 20110 48519 70200 81001
                   333 10370 20214 59001 81080
                   555 00196 91017=
201910030600 AAXX 03064 67633 32980 00910 10240 20150 48529
                   333 10361 20174 58001
                   555 00165 91020=
201910020900 AAXX 02094 67633 NIL=
201910010600 AAXX 01064 67633 31980 01505 10220 20015 48510 70500
                   333 10373 20165 58013 91017=

################################################################################
#  SYNOPS from 67641, Kaoma (Zambia) | 14-48S | 024-48E | 1213 m
################################################################################
201910290900 AAXX 29094 67641 42980 22805 10332 20153 48489 80001
                   333 58001 82080 91013=
201910280900 AAXX 28094 67641 42980 52808 10320 20144 48482 80008
                   333 59006 91013=
201910280600 AAXX 28064 67641 32980 73304 10241 20165 48489 80008
                   333 10392 20177 59006 87280 91014=
201910231200 AAXX 23124 67641 42680 40306 10369 20129 48474 83231
                   333 58002 83846 81361 81080 91017=
201910230900 AAXX 23094 67641 42980 30603 10331 20154 48493 80001
                   333 58003 83080 91014=
201910220900 AAXX 22094 67641 42980 03505 10330 20138 48488
                   333 5//// 91013=
201910220600 AAXX 22064 67641 32980 6//// 10260 20095 48488 86030
                   333 10341 20187 59015 86360 91014=
201910210600 AAXX 21064 67641 32980 02702 10244 20097 48503
                   333 10384 20149 59004 91015=
201910171200 AAXX 17124 67641 NIL=
201910160900 AAXX 16094 67641 42980 21008 10312 20118 48538 80001
                   333 58023 82080 91018=
201910160600 AAXX 16064 67641 32980 21103 10253 20113 48535 80001
                   333 10366 20180 58024 82080 91020=
201910141200 AAXX 14124 67641 41775 61606 10353 20130 48504 70521 86200
                   333 5//// 86856 91014=
201910140900 AAXX 14094 67641 41975 00804 10324 20144 48526 70500
                   333 5//// 91017=
201910140600 AAXX 14064 67641 31975 63602 10239 20125 48513 70510 86030
                   333 10358 20174 58002 86360 91017=
201910110900 AAXX 11094 67641 NIL=
201910110600 AAXX 11064 67641 11975 31006 10256 20133 48511 69914 70500 83030
                   333 10367 20215 58006 83360 91016=
201910101200 AAXX 10124 67641 NIL=
201910100900 AAXX 10094 67641 NIL=
201910100600 AAXX 10064 67641 11975 42004 10229 20146 48501 69904 70521 84030
                   333 10332 20185 58016 84360 91016=
201910090900 AAXX 09094 67641 41970 71806 10308 20127 48502 71522 87030
                   333 59009 87360 91015=
201910090600 AAXX 09064 67641 31975 60801 10280 20152 48492 70521 86030
                   333 10367 20217 59004 86360 91014=
201910080600 AAXX 08064 67641 31975 40202 10268 20133 48494 70500 80001
                   333 10365 20189 59010 84080 91014=
201910070900 AAXX 07094 67641 NIL=
201910070600 AAXX 07064 67641 31975 00801 10250 20131 48503 70500
                   333 10356 20168 59022
                   555 00/// 91015=
201910041500 AAXX 04154 67641 42970 00520 10261 20199 40123 55006=
201910020900 AAXX 02094 67641 NIL=
201910020600 AAXX 02064 67641 31960 70901 10193 20075 48512 70522 87030
                   333 10360 20130 59024 87360
                   555 00/// 91017=
201910010600 AAXX 01064 67641 31975 01902 10217 20042 48536 70500
                   333 10364 20127 58052
                   555 00/// 91020=

################################################################################
#  SYNOPS from 67655, Mumbwa (Zambia) | 15-04S | 027-11E | 1216 m
################################################################################
201910290900 AAXX 29094 67655 NIL=
201910280600 AAXX 28064 67655 31980 73410 10282 20124 48491 80008
                   333 10377 2//// 58000 87280
                   555 00182 91014=
201910220900 AAXX 22094 67655 NIL=
201910220600 AAXX 22064 67655 NIL=
201910171200 AAXX 17124 67655 NIL=
201910160900 AAXX 16094 67655 NIL=
201910140900 AAXX 14094 67655 NIL=
201910140600 AAXX 14064 67655 NIL=
201910110900 AAXX 11094 67655 NIL=
201910101200 AAXX 10124 67655 NIL=
201910100900 AAXX 10094 67655 NIL=
201910100600 AAXX 10064 67655 NIL=
201910090900 AAXX 09094 67655 NIL=
201910090600 AAXX 09064 67655 NIL=
201910070900 AAXX 07094 67655 NIL=
201910020900 AAXX 02094 67655 NIL=

################################################################################
#  SYNOPS from 67659, Kafue Polder (Zambia) | 15-46S | 027-55E | 978 m
################################################################################
201910290900 AAXX 29094 67659 42980 22705 10355 20160 48///
                   333 5//// 82360=
201910220900 AAXX 22094 67659 42780 10407 10365 20140 48/// 81200
                   333 59020 81850=
201910220600 AAXX 22064 67659 32980 11207 10304 20128 48/// 81030
                   333 10388 20168 59016 81360=
201910171200 AAXX 17124 67659 42980 01310 10300 20150 48///
                   333 5////=
201910170900 AAXX 17094 67659 42980 11212 10271 20106 48/// 81030
                   333 58004 81360=
201910160900 AAXX 16094 67659 42780 11207 10280 20143 48/// 81200
                   333 58014 81850=
201910140900 AAXX 14094 67659 NIL=
201910140600 AAXX 14064 67659 NIL=
201910111200 AAXX 11124 67659 42780 21506 10306 20181 48///
                   333 5//// 82850=
201910110900 AAXX 11094 67659 42680 21209 10301 20177 48/// 82200
                   333 58034 82840=
201910110600 AAXX 11064 67659 32580 11409 10270 20177 48/// 81200
                   333 10368 20191 58020 81830=
201910101200 AAXX 10124 67659 42780 40403 10359 20171 48/// 84230
                   333 5////=
201910100900 AAXX 10094 67659 42980 10707 10340 20158 48/// 81030
                   333 58001 81361=
201910100600 AAXX 10064 67659 32980 23605 10278 20125 48/// 81031
                   333 10371 20191 58013 81360 82080=
201910090900 AAXX 09094 67659 42980 20906 10339 20153 48/// 80001
                   333 59006 82080=
201910090600 AAXX 09064 67659 32980 10706 10275 20136 48/// 80001
                   333 10367 20165 59006 81080=
201910080600 AAXX 08064 67659 32980 31005 10281 20154 48/// 83030
                   333 10352 20168 59013=
201910071200 AAXX 07124 67659 42780 51705 10340 20163 48/// 85200
                   333 5//// 85857=
201910070900 AAXX 07094 67659 42780 11508 10319 20177 48/// 70222 81100
                   333 5//// 81850=
201910070600 AAXX 07064 67659 32980 01407 10258 48/// 70222
                   333 10345 20115 5////
                   555 00///=
201910020900 AAXX 02094 67659 NIL=
201910010600 AAXX 01064 67659 31975 00904 10236 20113 48/// 70500
                   333 10368 20112 58000
                   555 00/// 20000=

################################################################################
#  SYNOPS from 67662, Kabwe Agric (Zambia) | 14-24S | 028-30E | 1165 m
################################################################################
201910291200 AAXX 29124 67662 41875 30000 10375 20146 48/// 70500 82101
                   333 5//// 82858 81080=
201910290900 AAXX 29094 67662 NIL=
201910280600 AAXX 28064 67662 31975 00604 10280 20079 70500
                   333 10380 20128 5////=
201910220900 AAXX 22094 67662 NIL=
201910220600 AAXX 22064 67662 NIL=
201910171200 AAXX 17124 67662 41975 22803 10290 20095 48/// 70500 80001
                   333 5//// 82080=
201910160900 AAXX 16094 67662 NIL=
201910160600 AAXX 16064 67662 31675 21217 10235 20135 48/// 70500 81130
                   333 10330 20134 5//// 81838 81360=
201910140900 AAXX 14094 67662 NIL=
201910140600 AAXX 14064 67662 31975 10903 10261 20130 48/// 70500 80001
                   333 10336 20116 5//// 81080=
201910110900 AAXX 11094 67662 NIL=
201910110600 AAXX 11064 67662 31675 21214 10260 20150 48/// 70500 81101
                   333 10350 20170 5//// 81835 81080=
201910101200 AAXX 10124 67662 NIL=
201910100900 AAXX 10094 67662 NIL=
201910100600 AAXX 10064 67662 NIL=
201910090900 AAXX 09094 67662 NIL=
201910090600 AAXX 09064 67662 NIL=
201910080600 AAXX 08064 67662 31970 10408 10249 20119 48516 70500 80002
                   333 10337 20201 59007 81080
                   555 00314=
201910070900 AAXX 07094 67662 NIL=
201910070600 AAXX 07064 67662 31975 10813 10255 20149 70500
                   333 10310 20142 555 00///=
201910020900 AAXX 02094 67662 NIL=

################################################################################
#  SYNOPS from 67663, Kabwe (Zambia) | 14-27S | 028-28E | 1206 m
################################################################################
201910290900 AAXX 29094 67663 NIL=
201910220900 AAXX 22094 67663 41970 10912 10338 20119 48510 70500 81101
                   333 59019 81858 81080=
201910220600 AAXX 22064 67663 31970 00806 1//// 20116 48500 70500
                   333 10362 20184 59022=
201910210600 AAXX 21064 67663 31970 00304 10254 20132 48518 70500
                   333 10354 20176 59001=
201910171200 AAXX 17124 67663 NIL=
201910170600 AAXX 17064 67663 31970 30922 10210 20093 48542 70500 80002
                   333 10298 20154 58002 83080=
201910160900 AAXX 16094 67663 NIL=
201910160600 AAXX 16064 67663 31570 10918 10226 20129 48548 70500 81500
                   333 10321 20172 58013 81620=
201910150900 AAXX 15094 67663 41570 10816 10282 20148 48528 70500 81100
                   333 58008 81823=
201910150600 AAXX 15064 67663 31970 00817 10238 20156 48531 70500
                   333 10336 20182 58003=
201910140900 AAXX 14094 67663 NIL=
201910140600 AAXX 14064 67663 NIL=
201910110900 AAXX 11094 67663 41570 60913 10289 20166 48523 70500 83102
                   333 58012 83824 83080=
201910110600 AAXX 11064 67663 31970 30813 10252 20163 48534 70500 80002
                   333 10351 20209 58007 83080=
201910101200 AAXX 10124 67663 NIL=
201910100900 AAXX 10094 67663 NIL=
201910100600 AAXX 10064 67663 31970 63403 10243 20125 48526 70522 80008
                   333 10352 20201 58011 86280=
201910090900 AAXX 09094 67663 41970 50906 10315 20109 48511 70522 80008
                   333 58000 85280=
201910090600 AAXX 09064 67663 31970 50907 10243 20109 48515 70522 80008
                   333 10348 20194 58000 85280=
201910070900 AAXX 07094 67663 NIL=
201910070600 AAXX 07064 67663 31970 00607 10249 20140 48542 70500
                   333 10321 20196 58004
                   555 00321=
201910020900 AAXX 02094 67663 NIL=

################################################################################
#  SYNOPS from 67665, Lusaka Internationalairport (Zambia) | 15-19S | 028-27E | 1152 m
################################################################################
201910310600 AAXX 31064 67665 31960 00814 10267 20149 48548 70500
                   333 10367 20//0 58025=
201910310300 AAXX 31034 67665 42980 01005 10217 20116 48525 70200
                   333 58038=
201910310000 AAXX 31004 67665 42980 00808 10249 20092 48519 70200
                   333 58041=
201910302100 AAXX 30214 67665 42980 01305 10252 20089 48523 70200
                   333 58036=
201910301800 AAXX 30184 67665 42980 01402 10277 20043 48498 70200
                   333 58033=
201910300300 AAXX 30034 67665 42960 21202 10225 20030 48489 70200
                   333 58015=
201910292100 AAXX 29214 67665 42960 00000 10277 20043 48491 70200
                   333 58016=
201910291800 AAXX 29184 67665 41960 21303 10293 20111 48475 70500 82030
                   333 58008 82360=
201910291500 AAXX 29154 67665 41759 31208 10369 20072 48464 70500 83100
                   333 58005 83850=
201910291200 AAXX 29124 67665 41659 30906 10374 20104 48478 70500 83100
                   333 58002 83835=
201910290900 AAXX 29094 67665 NIL=
201910290600 AAXX 29064 67665 31959 13104 10269 20025 48498 70500 80001
                   333 10382 20//0 59008 81080
                   555 00/// 91015=
201910281800 AAXX 28184 67665 41975 11404 10296 20000 48468 70500
                   333 59020=
201910281500 AAXX 28154 67665 41675 10506 10367 21030 48459 70200 81100
                   333 59017 81845=
201910281200 AAXX 28124 67665 41975 10367 10034 20034 48476
                   333 59018=
201910280900 AAXX 28094 67665 41959 03509 10339 20088 48506 70500
                   333 59005=
201910280600 AAXX 28064 67665 31975 10203 10276 20071 48507 80001
                   333 10374 59017 81080
                   555 00///=
201910280300 AAXX 28034 67665 42980 00000 10190 20055 48464 70200
                   333 59030=
201910280000 AAXX 28004 67665 42980 01901 10215 20054 48476 70200
                   333 59017=
201910272100 AAXX 27214 67665 42980 01503 10246 20048 48493 70200
                   333 59013=
201910271200 AAXX 27124 67665 42980 11110 10363 20042 48493 70300 81100
                   333 59009 81258=
201910270900 AAXX 27094 67665 42980 00310 10335 20035 48522
                   333 59008=
201910261800 AAXX 26184 67665 42980 11304 10298 20021 48500 81030
                   333 10373 59007 81360=
201910261500 AAXX 26154 67665 42980 20906 10361 20040 48489 82030
                   333 59009 555 10373=
201910261200 AAXX 26124 67665 42780 30909 10361 20038 48503 83200
                   333 5//// 83857=
201910260900 AAXX 26094 67665 42780 10509 10331 20072 48529 70300 81100
                   333 59005 81856=
201910260600 AAXX 26064 67665 32980 01002 10287 20086 48536 70200
                   333 10289 20//0 5//// 91019=
201910250900 AAXX 25094 67665 41775 10510 10329 20131 48532 70500 81100
                   333 58004 81850=
201910241800 AAXX 24184 67665 42980 01204 10297 20062 48501 70200
                   333 58009 91015=
201910240900 AAXX 24094 67665 41959 10410 10341 20084 48525 70500 80001
                   333 59013 81080=
201910240600 AAXX 24064 67665 32980 20306 10282 20108 48531 70200 80002
                   333 10368 20//0 59010=
201910240300 AAXX 24034 67665 42980 01503 10222 20091 48501 70200
                   333 59010=
201910240000 AAXX 24004 67665 42980 01404 10229 20100 48490 70200
                   333 59008=
201910232100 AAXX 23214 67665 42980 01503 10246 20102 48500 70200
                   333 59014=
201910231800 AAXX 23184 67665 42980 30606 10304 20074 48490 70200 83030
                   333 58009 83360=
201910231500 AAXX 23154 67665 41780 40711 10345 20079 48475 70500 81130
                   333 58011 81848 83860=
201910230600 AAXX 23064 67665 32960 03305 10265 20055 48520 70500 80001
                   333 58005 82080=
201910221800 AAXX 22184 67665 41960 21004 10267 20026 48480 70500 82030
                   333 59010 82360=
201910221500 AAXX 22154 67665 41759 41014 10359 20015 48470 70522 84200
                   333 59012 84850=
201910221200 AAXX 22124 67665 41759 41108 10360 20070 48482 70500 84100
                   333 59010 84840=
201910220900 AAXX 22094 67665 41970 13606 10349 20061 48506 70500 81030
                   333 59016 81030=
201910220600 AAXX 22064 67665 31970 10904 10289 20030 48517 70500 81030
                   333 10370 20//0 59017 81360
                   555 00/// 91017=
201910211800 AAXX 21184 67665 42960 11403 10276 20008 48494 70200 81031
                   333 59019 81360 81080=
201910211500 AAXX 21154 67665 41959 11208 10355 21038 48482 70500 81100
                   333 58020 81850=
201910211200 AAXX 21124 67665 41959 20811 10354 20005 48491 70500 82100
                   333 59019 81838=
201910210900 AAXX 21094 67665 41959 00207 10323 20056 48534 70500
                   333 59013=
201910210600 AAXX 21064 67665 31975 01602 10271 20020 48531 70500
                   333 10354 59001 555 00///=
201910210300 AAXX 21034 67665 42980 11901 10180 20051 48499 70300 81030
                   333 81360 91016=
201910202100 AAXX 20214 67665 42980 02102 10207 20011 48513 70200
                   333 59003=
201910191800 AAXX 19184 67665 42980 11204 10263 20000 48509 70200 81030
                   333 10342 59010=
201910191500 AAXX 19154 67665 42980 20703 10325 21032 48502 70200 82030
                   333 59010 82360 555 10342=
201910191200 AAXX 19124 67665 41975 01603 10324 20005 48514 70500
                   333 59009=
201910190900 AAXX 19094 67665 41975 01007 10310 20048 48538 70500
                   333 59016 91019=
201910190600 AAXX 19064 67665 32980 01009 10246 20061 48534 70200
                   333 10//0 20//0 59018 91020=
201910182100 AAXX 18214 67665 42980 01002 10188 20025 48516 70200
                   333 59015 91019=
201910181800 AAXX 18184 67665 42980 01405 10237 20027 48517 70200
                   333 59021 91018=
201910181500 AAXX 18154 67665 42980 01405 10313 20011 48509 70200
                   333 59023 91016=
201910180900 AAXX 18094 67665 42980 00709 10271 20035 48549 70200
                   333 59018=
201910180600 AAXX 18064 67665 32980 00909 10216 20070 48553 70200
                   333 59012=
201910180300 AAXX 18034 67665 42980 01404 10145 20055 48530 70200
                   333 59011=
201910180000 AAXX 18004 67665 42980 01306 10166 20047 48531 70200
                   333 59006=
201910172100 AAXX 17214 67665 42980 01203 10177 20015 48537 70200
                   333 59006=
201910171800 AAXX 17184 67665 42980 01005 10208 20011 48529 70200
                   333 10308 2//// 59004=
201910171500 AAXX 17154 67665 42980 21011 10276 20030 48538 70200 80001
                   333 59002 82080=
201910171200 AAXX 17124 67665 NIL=
201910170900 AAXX 17094 67665 41959 10912 10248 20038 48564 70500 80001
                   333 5//// 81080=
201910170600 AAXX 17064 67665 31459 10817 10210 20095 48564 70500 81150
                   333 10295 20//0 81625 91023=
201910161800 AAXX 16184 67665 42980 11103 10214 20035 48538 70100 80002
                   333 58015 81080=
201910161500 AAXX 16154 67665 42980 21213 10289 21030 48532 70100 80002
                   333 58008 82080=
201910161200 AAXX 16124 67665 42680 21011 10299 20060 48540 70200 81102
                   333 58008 81830 82080=
201910160900 AAXX 16094 67665 NIL=
201910160600 AAXX 16064 67665 32980 01020 10225 20106 48560 70200
                   333 10///=
201910152100 AAXX 15214 67665 41975 01506 10190 20080 48526 70500
                   333 58002 91019=
201910151800 AAXX 15184 67665 42980 01106 10234 20059 48525 70200
                   333 58007=
201910151500 AAXX 15154 67665 42580 20914 10307 20042 48526 70200 82100
                   333 58010 82845=
201910151200 AAXX 15124 67665 42580 30710 10311 20050 48533 70200 83100
                   333 58010 83830=
201910150900 AAXX 15094 67665 42580 10912 10277 20099 48554 70300 81100
                   333 58006 81820=
201910150600 AAXX 15064 67665 32980 00916 10230 20111 48551 70200
                   333 10339 20//0 5////
                   555 00///=
201910150300 AAXX 15034 67665 42980 01206 10181 20102 48527 70200
                   333 58010=
201910150000 AAXX 15004 67665 42980 01305 10194 20085 48527
                   333 58011=
201910142100 AAXX 14214 67665 42980 01703 10212 20067 48535
                   333 58013=
201910141800 AAXX 14184 67665 41975 11205 10236 20046 48520 70500
                   333 10339 58002 91018=
201910141500 AAXX 14154 67665 41775 31111 10317 20048 48517 70522 83200
                   333 58010 83856 555 10339 91017=
201910141200 AAXX 14124 67665 42680 61408 10321 20067 48525 70320 86200
                   333 58009 86845 91017=
201910140900 AAXX 14094 67665 NIL=
201910140600 AAXX 14064 67665 NIL=
201910131800 AAXX 13184 67665 42980 11106 10255 20076 48520 81030
                   333 10331 59013 81360=
201910131500 AAXX 13154 67665 42980 21210 10314 20054 48506 82030
                   333 59019 82360 555 10331=
201910131200 AAXX 13124 67665 42680 40906 10315 20041 48515 84100
                   333 59010 84840=
201910120900 AAXX 12094 67665 42680 50815 10245 20141 48556 70100 85500
                   333 58015 85632=
201910120600 AAXX 12064 67665 32480 10212 20146 48548 70200 84502
                   333 10347 20//0 58011 84613 85080=
201910110900 AAXX 11094 67665 41659 50917 10288 20138 48550 84501
                   333 5//// 84630 84080 91021=
201910110600 AAXX 11064 67665 32480 10249 20140 48551 70300 84502
                   333 10347 20/// 58022 84612 83080=
201910110000 AAXX 11004 67665 42980 01701 10198 20054 48509 70200
                   333 58014=
201910102100 AAXX 10214 67665 42980 00905 10211 20053 48516 70200
                   333 58013=
201910101800 AAXX 10184 67665 42980 41302 10254 20030 48504 70200 84030
                   333 58015 84360=
201910101200 AAXX 10124 67665 41659 51008 10333 20061 48504 70522 82232
                   333 58010 82840 84360 85080=
201910100900 AAXX 10094 67665 NIL=
201910100600 AAXX 10064 67665 41980 50707 10217 20071 48530 70122 83031
                   333 58007 83360 84080=
201910091800 AAXX 09184 67665 42980 31402 10273 20053 48493 70200 81032
                   333 59007 81360 83080=
201910091500 AAXX 09154 67665 42780 41408 10332 20050 48485 70122 83202
                   333 59009 83850 83080=
201910091200 AAXX 09124 67665 42680 50804 10335 20033 48498 70222 84102
                   333 59004 84835 83080=
201910090900 AAXX 09094 67665 NIL=
201910090600 AAXX 09064 67665 31970 60606 10257 20092 48523 70520 81038
                   333 1//// 2//// 59006 81360 85280 91018=
201910081800 AAXX 08184 67665 42960 41502 10252 20118 48457 70200 84032
                   333 59006 84360 82080=
201910081500 AAXX 08154 67665 41659 60710 10313 20068 48492 70200 83202
                   333 59004 83850 86360=
201910081200 AAXX 08124 67665 41659 41008 10341 20064 48502 70200 84102
                   333 59005 84838 83080=
201910080900 AAXX 08094 67665 41559 30111 10303 20091 48530 70200 81102
                   333 59005 81825 82080=
201910080600 AAXX 08064 67665 32980 50506 10257 20093 48530 70300 83032
                   333 10332 20/// 59011 83360 84080
                   555 00///=
201910080300 AAXX 08034 67665 42980 01302 10195 20086 48498 70200
                   333 59019=
201910080000 AAXX 08004 67665 42980 01303 10196 20088 40504 70200
                   333 59020=
201910072100 AAXX 07214 67665 42980 01402 10216 20081 48507
                   333 59017=
201910071200 AAXX 07124 67665 42680 50204 10309 20089 48501 85201
                   333 59023 85842 81080 91015=
201910070900 AAXX 07094 67665 42680 50709 10293 20110 48534 70222 85101
                   333 59022 85835 82080=
201910070600 AAXX 07064 67665 42980 01209 10243 20122 48536 70200
                   333 59024 91020=
201910061800 AAXX 06184 67665 42980 11305 10245 20061 48515 81030
                   333 10324 59016 81360=
201910061500 AAXX 06154 67665 41959 20910 10306 20050 48518 82030
                   333 58017 82360 555 10324=
201910061200 AAXX 06124 67665 42780 50909 10308 20071 48525 85200
                   333 58001 85850=
201910060900 AAXX 06094 67665 41675 50712 10283 20132 48555 70500 85500
                   333 59010 85640 91021=
201910051800 AAXX 05184 67665 42980 01204 10245 20080 48535 70200
                   555 59006=
201910050900 AAXX 05094 67665 42680 30812 10283 20118 48564 83100
                   333 59012 83835=
201910050600 AAXX 05064 67665 32480 11109 10222 20152 48558 70200 80001
                   333 10//0 20//0 59005 81080=
201910040900 AAXX 04094 67665 42580 50811 10242 20143 48571 70122 85500
                   333 58004 85620 91024=
201910040600 AAXX 04064 67665 32480 60914 10191 20127 48566 70300 86500
                   333 10//0 20//0 58004 86615=
201910040300 AAXX 04034 67665 42980 01205 10155 20138 48545 70200
                   333 5////=
201910040000 AAXX 04004 67665 42980 01203 10155 20138 48544 70200
                   333 5////=
201910032100 AAXX 03214 67665 42980 11005 10162 20136 48553 70200 81030
                   333 58015 81360=
201910031500 AAXX 03154 67665 42680 51011 10228 20143 48551 70200 85230
                   333 58026 84838 81360=
201910030900 AAXX 03094 67665 42580 70916 10216 20134 48558 875//
                   333 58023 87625=
201910030600 AAXX 03064 67665 32480 81016 10//0 20//0 48/// 70200 885//
                   333 10//0 20//0 58020 88615 91024=
201910021800 AAXX 02184 67665 42980 21011 10203 20137 48539 70200 80002
                   333 58047 82080=
201910021500 AAXX 02154 67665 41760 51017 10250 20149 48532 70500 83202
                   333 58058 83850 83080=
201910021200 AAXX 02124 67665 41659 60713 10284 20132 48536 70500 85202
                   333 59004 85835 83080=
201910020900 AAXX 02094 67665 NIL=
201910020600 AAXX 02064 67665 31958 51111 10228 20111 48548 70420 85030
                   333 10//0 20//0 58043
                   555 00/// 91021=
201910011800 AAXX 01184 67665 42960 02403 10270 21010 48502 70500 83030
                   333 58016 83360=
201910011500 AAXX 01154 67665 41959 01411 10318 21003 48482 70500 81130
                   333 58005 81850 85360=
201910011200 AAXX 01124 67665 41959 00910 10351 20000 48592 70500
                   333 58006=
201910010900 AAXX 01094 67665 41959 01109 10316 21030 48515 70500
                   333 58002=
201910010600 AAXX 01064 67665 31959 01404 10257 20042 48509 70500
                   333 10//0 20//0 59002 91017=

################################################################################
#  SYNOPS from 67666, Lusaka City Airport (Zambia) | 15-25-00S | 028-28-00E | 1280 m
################################################################################
201910290900 AAXX 29094 67666 NIL=
201910290600 AAXX 29064 67666 31978 03605 10268 20088 48486 70500
                   333 10370 20198 59009 91015=
201910280600 AAXX 28064 67666 31980 00308 10272 20072 48501 70500
                   333 10364 20192 5//// 91016=
201910220900 AAXX 22094 67666 NIL=
201910220600 AAXX 22064 67666 31975 10610 10293 20084 48513 70500 81030
                   333 10362 20210 59014 82030 91017=
201910210600 AAXX 21064 67666 31970 00810 10272 20079 48528 70500
                   333 10350 20188 59010 91019=
201910171200 AAXX 17124 67666 NIL=
201910160900 AAXX 16094 67666 NIL=
201910160600 AAXX 16064 67666 31975 00920 10204 20114 48549 70500
                   333 10310 20180 58017 91022=
201910150600 AAXX 15064 67666 31978 01115 10214 20127 48545 70500
                   333 10321 20184 58003 91021=
201910141200 AAXX 14124 67666 41780 41208 10300 20099 48509 84200
                   333 59008 84850 91017=
201910140900 AAXX 14094 67666 NIL=
201910140600 AAXX 14064 67666 31978 01012 10240 20142 48542 70500
                   333 10320 20206 58007 91021=
201910110900 AAXX 11094 67666 NIL=
201910110600 AAXX 11064 67666 31475 70920 10236 20146 48543 70500 81201
                   333 1//// 2//// 58020 81810 87080 91021=
201910101200 AAXX 10124 67666 NIL=
201910100900 AAXX 10094 67666 NIL=
201910100600 AAXX 10064 67666 11970 70607 10260 20092 48525 69904 70522 81037
                   333 10340 20232 58007 81360 87280 91019=
201910090900 AAXX 09094 67666 NIL=
201910090600 AAXX 09064 67666 31978 20910 10250 20098 48518 70500 81031
                   333 10332 20190 59004 82360 81080 91018=
201910080600 AAXX 08064 67666 31970 20910 10250 20106 48522 70500 82030
                   333 10324 20200 59010 82360 91018=
201910070900 AAXX 07094 67666 NIL=
201910070600 AAXX 07064 67666 31975 00916 10228 20139 70500
                   333 10313 20203 59024
                   555 00/// 91019=
201910040900 AAXX 04094 67666 42580 60915 10211 20164 48559 865//
                   333 58000 86620 91020=
201910040600 AAXX 04064 67666 32480 70916 10180 20156 48558 875//
                   333 10240 20160 58000 87615
                   555 00/// 91023=
201910030600 AAXX 03064 67666 31478 80920 10174 20147 48557 70500 88611
                   333 10290 20172 58021 88712
                   555 00/// 91020=
201910020900 AAXX 02094 67666 NIL=
201910020600 AAXX 02064 67666 31970 51010 10221 20136 48541 70500 83031
                   333 10340 20179 83359 82080 91021=
201910010600 AAXX 01064 67666 31978 01332 10190 58000
                   555 91016=

################################################################################
#  SYNOPS from 67667, Mount Makulu (Zambia) | 15-33S | 028-15E | 1213 m
################################################################################
201910290900 AAXX 29094 67667 41660 23604 10344 2//// 48/// 70500 81101
                   333 5//// 82845 81082=
201910290600 AAXX 29064 67667 31960 01702 10284 20100 48545 70500
                   333 10402 20218 5////=
201910280600 AAXX 28064 67667 31960 01802 10300 20082 48/// 70500
                   333 10392 20230 5////=
201910220900 AAXX 22094 67667 NIL=
201910220600 AAXX 22064 67667 NIL=
201910171200 AAXX 17124 67667 41960 10908 10288 20092 48557 70500 80001
                   333 58001 81082=
201910170600 AAXX 17064 67667 31660 20910 10210 20112 48602 70500 81101
                   333 10326 20162 58005 81830 82082=
201910160900 AAXX 16094 67667 NIL=
201910160600 AAXX 16064 67667 31660 11308 10228 20132 48591 70500 81100
                   333 10335 20190 5//// 81830=
201910151200 AAXX 15124 67667 42580 30710 10311 20050 48533 83100
                   333 58010 91019=
201910141200 AAXX 14124 67667 42680 61408 10321 20067 48525 83200
                   333 58009 91017=
201910140900 AAXX 14094 67667 41660 10907 10304 20150 48566 70500 81101
                   333 5//// 81835 81082=
201910140600 AAXX 14064 67667 31660 21005 10252 20140 48/// 70500 81101
                   333 10350 20196 5//// 81830 81082=
201910110900 AAXX 11094 67667 NIL=
201910110600 AAXX 11064 67667 31660 31209 10243 20127 48/// 70500 81102
                   333 10363 20224 5//// 81830 83082=
201910101200 AAXX 10124 67667 41660 50905 10336 20120 48530 70500 83102
                   333 59017 83845 84082=
201910100900 AAXX 10094 67667 41960 30903 10320 20125 48547 70500 80002
                   333 59001 83082=
201910100600 AAXX 10064 67667 31960 40907 10270 20120 48564 70500 80002
                   333 10371 20228 59012 84082=
201910090900 AAXX 09094 67667 NIL=
201910090600 AAXX 09064 67667 NIL=
201910070900 AAXX 07094 67667 NIL=
201910070600 AAXX 07064 67667 31960 02404 10250 20140 48///
                   333 10340 20190 5////
                   555 00/// 20000=
201910040900 AAXX 04094 67667 41660 40910 10246 20161 48591 70500 84100
                   333 59009 84830=
201910040600 AAXX 04064 67667 31560 50905 10196 20155 48/// 70500 85500
                   333 10265 20160 5//// 85625
                   555 00/// 20000=
201910030900 AAXX 03094 67667 41660 60913 10222 20141 48/// 70522 86500
                   333 5//// 86635=
201910030600 AAXX 03064 67667 31660 81415 10184 20150 48/// 70522 885//
                   333 10314 20119 5//// 88630
                   555 00/// 20000=
201910020900 AAXX 02094 67667 NIL=
201910020600 AAXX 02064 67667 31960 12501 10220 20142 48/// 70500 80001
                   333 10358 20171 5//// 81080
                   555 00///=
201910010600 AAXX 01064 67667 31960 02701 10264 20071 48560 70500
                   333 10364 20180 58015
                   555 00///=

################################################################################
#  SYNOPS from 67673, Petauke (Zambia) | 14-15S | 031-17E | 1035 m
################################################################################
201910290900 AAXX 29094 67673 41959 01802 10354 20135 48/// 70500
                   333 5////=
201910280900 AAXX 28094 67673 41959 01804 10340 20090 48/// 70500
                   333 5////=
201910280600 AAXX 28064 67673 31959 01803 10290 20112 48111 70500
                   333 10376 20215 5////=
201910220900 AAXX 22094 67673 NIL=
201910220600 AAXX 22064 67673 NIL=
201910211200 AAXX 21124 67673 41659 20902 10360 20170 48/// 70500 82200
                   333 5//// 82840=
201910171200 AAXX 17124 67673 NIL=
201910160900 AAXX 16094 67673 NIL=
201910140900 AAXX 14094 67673 NIL=
201910140600 AAXX 14064 67673 31659 40902 10260 20160 48/// 70522 82130
                   333 10334 20164 5//// 82827 82360=
201910110900 AAXX 11094 67673 NIL=
201910101200 AAXX 10124 67673 NIL=
201910100900 AAXX 10094 67673 NIL=
201910100600 AAXX 10064 67673 32980 63602 10258 20155 48/// 82035
                   333 10350 20203 5//// 82360 85280=
201910090900 AAXX 09094 67673 NIL=
201910090600 AAXX 09064 67673 32980 53602 10258 20132 48/// 80005
                   333 10350 20200 5//// 85280=
201910070900 AAXX 07094 67673 NIL=
201910030600 AAXX 03064 67673 31980 80902 10180 20155 48/// 70522 887//
                   333 10260 20160 5//// 88460
                   555 00/// 20008=
201910020900 AAXX 02094 67673 NIL=

################################################################################
#  SYNOPS from 67731, Senanga (Zambia) | 16-06S | 023-16E | 1027 m
################################################################################
201910290900 AAXX 29094 67731 42980 103// 10337 20147 48/// 80008
                   333 5//// 81080=
201910290600 AAXX 29064 67731 12680 602// 10287 20158 48/// 69904 81251
                   333 10415 20210 5//// 81835 84362 83080
                   555 00113=
201910280600 AAXX 28064 67731 32980 404// 10241 20128 48/// 80002
                   333 10397 20209 5//// 84080
                   555 00124=
201910230900 AAXX 23094 67731 42980 423// 10300 20141 48/// 83030
                   333 58031 83362=
201910220900 AAXX 22094 67731 42980 018// 10365 20144 48///
                   333 5////=
201910220600 AAXX 22064 67731 32980 718// 10270 20098 48/// 87020
                   333 10399 20215 59022 87460
                   555 00098=
201910211200 AAXX 21124 67731 42680 110// 10385 20059 48/// 81100
                   333 5//// 81835=
201910210600 AAXX 21064 67731 32980 018// 10284 20082 48///
                   333 10394 20173 59012
                   555 00103=
201910171200 AAXX 17124 67731 NIL=
201910160900 AAXX 16094 67731 42980 014// 10324 20091 48///
                   333 58005=
201910150600 AAXX 15064 67731 32980 018// 10241 20146 48///
                   333 10377 20201 58000
                   555 00107=
201910141200 AAXX 14124 67731 42680 502// 10351 20154 48/// 85202
                   333 5//// 85840 83080=
201910140900 AAXX 14094 67731 42980 335// 10329 20124 48/// 83030
                   333 5//// 83363=
201910140600 AAXX 14064 67731 32980 431// 10241 20095 48/// 84030
                   333 10357 20193 5//// 84360
                   555 00124=
201910111200 AAXX 11124 67731 42680 308// 10327 20146 48/// 83200
                   333 59023 83830=
201910110900 AAXX 11094 67731 42980 209// 10282 20142 48/// 82050
                   333 59002 82363=
201910110600 AAXX 11064 67731 12980 704// 10235 20142 48/// 60184 86038
                   333 10373 20191 58019 86360 85280
                   555 00075=
201910101200 AAXX 10124 67731 NIL=
201910100900 AAXX 10094 67731 NIL=
201910100600 AAXX 10064 67731 NIL=
201910090900 AAXX 09094 67731 42980 221// 10333 20134 48/// 82050
                   333 58008 82364=
201910090600 AAXX 09064 67731 32980 618// 10274 20148 48/// 86030
                   333 10396 20232 58005 86360
                   555 00097=
201910081200 AAXX 08124 67731 42680 332// 10381 20091 48/// 83200
                   333 59022 83832=
201910080600 AAXX 08064 67731 32980 115// 10292 20121 48/// 80008
                   333 10371 20175 59017 81080
                   555 00114=
201910070900 AAXX 07094 67731 42580 331// 10289 20115 48/// 70300 83100
                   333 59029 83825=
201910070600 AAXX 07064 67731 32980 003// 10239 20103 48/// 70200
                   333 10367 20199 59037
                   555 00131 20000=
201910040600 AAXX 04064 67731 32980 106// 10238 20153 48/// 70200 80008
                   333 10365 20188 5//// 81080
                   555 00150=
201910020900 AAXX 02094 67731 42980 410// 10274 20081 48/// 70322 80002
                   333 5//// 84080=
201910010600 AAXX 01064 67731 32980 031// 10219 20031 48/// 70200
                   333 10377 20191 5////
                   555 00103=

################################################################################
#  SYNOPS from 67741, Sesheke (Zambia) | 17-28S | 024-18E | 949 m
################################################################################
201910290900 AAXX 29094 67741 NIL=
201910290600 AAXX 29064 67741 12980 61601 10274 2//// 48/// 60024 86070
                   333 10419 20233 5//// 86362=
201910280600 AAXX 28064 67741 32980 33002 10298 2//// 48/// 83030
                   333 10409 20212 5//// 83362=
201910220900 AAXX 22094 67741 NIL=
201910220600 AAXX 22064 67741 32980 73601 10296 20085 48486 8704/
                   333 10400 20205 59031 87362=
201910210600 AAXX 21064 67741 32980 60000 10273 20154 48519 86040
                   333 10388 20177 59015 86362=
201910171200 AAXX 17124 67741 NIL=
201910160900 AAXX 16094 67741 NIL=
201910160600 AAXX 16064 67741 32980 00903 10268 20102 48558
                   333 10370 20139 5////=
201910140900 AAXX 14094 67741 NIL=
201910140600 AAXX 14064 67741 32980 10802 10268 20119 48539 81030
                   333 10352 20168 59003 81362=
201910110900 AAXX 11094 67741 NIL=
201910110600 AAXX 11064 67741 12980 61002 10238 20155 48552 60014 86070
                   333 10358 20197 58038 86461=
201910101200 AAXX 10124 67741 NIL=
201910100900 AAXX 10094 67741 NIL=
201910100600 AAXX 10064 67741 32980 53501 10270 20143 48529 85030
                   333 10386 20249 5//// 85362=
201910090900 AAXX 09094 67741 42980 03606 10360 2//// 48///
                   333 5////=
201910090600 AAXX 09064 67741 32980 03602 10298 2//// 48///
                   333 10384 20161 5////=
201910081200 AAXX 08124 67741 42680 10903 10380 2//// 48/// 81100
                   333 5//// 81850=
201910080600 AAXX 08064 67741 32980 10601 10278 20116 48512 80001
                   333 10370 20070 5////=
201910070900 AAXX 07094 67741 NIL=
201910020900 AAXX 02094 67741 NIL=
201910020600 AAXX 02064 67741 82980 11003 10188 20114 48542 80001
                   333 10341 20070 58027 81080
                   555 00/// 20000=

################################################################################
#  SYNOPS from 67743, Livingstone (Zambia) | 17-49S | 025-49E | 985 m
################################################################################
201910290900 AAXX 29094 67743 NIL=
201910220900 AAXX 22094 67743 NIL=
201910220600 AAXX 22064 67743 NIL=
201910210600 AAXX 21064 67743 31959 10604 10275 20077 48515 70500 81030
                   333 10392 20189 59017 81360 91016=
201910171200 AAXX 17124 67743 NIL=
201910160900 AAXX 16094 67743 NIL=
201910140900 AAXX 14094 67743 NIL=
201910140600 AAXX 14064 67743 31959 00813 10265 20067 48542 70500
                   333 10334 20153 59003 91019=
201910110900 AAXX 11094 67743 NIL=
201910101200 AAXX 10124 67743 41760 61204 10355 20111 48505 70500 83230
                   333 58022 91013=
201910100900 AAXX 10094 67743 NIL=
201910100600 AAXX 10064 67743 11958 13506 10283 20138 48532 69904 70500 81030
                   333 10380 20215 58027 81360 91018=
201910090900 AAXX 09094 67743 NIL=
201910090600 AAXX 09064 67743 NIL=
201910070900 AAXX 07094 67743 NIL=
201910070600 AAXX 07064 67743 31959 01004 10247 20026 48530 70500
                   333 10360 20167 59022
                   555 91018=
201910040600 AAXX 04064 67743 31960 01007 10195 20145 48550 70500
                   333 10334 20150 58001
                   555 91022=
201910020900 AAXX 02094 67743 NIL=
201910020600 AAXX 02064 67743 31959 11117 10174 20113 48545 70500 80001
                   333 10340 20147 58038 81080
                   555 91021=
201910010600 AAXX 01064 67743 31959 01508 10205 21062 48504 70500
                   333 10378 20190 58030
                   555 91017=

################################################################################
#  SYNOPS from 67751, Magoye (Zambia) | 16-00S | 027-36E | 1018 m
################################################################################
201910290900 AAXX 29094 67751 NIL=
201910290600 AAXX 29064 67751 31975 10103 10288 20035 48/// 70500 81081
                   333 10391 20177 5//// 81360 83080=
201910280600 AAXX 28064 67751 31975 03505 10295 20065 48/// 70500
                   333 10394 20177 5////=
201910220900 AAXX 22094 67751 NIL=
201910220600 AAXX 22064 67751 31975 11805 10293 20090 48/// 70500 81080
                   333 10381 20170 5//// 81360=
201910171200 AAXX 17124 67751 NIL=
201910160900 AAXX 16094 67751 NIL=
201910140900 AAXX 14094 67751 41975 21510 10328 20114 48/// 70500 82200
                   333 5//// 82858=
201910140600 AAXX 14064 67751 31975 10911 10278 20120 48/// 70500 80001
                   333 10350 20175=
201910110900 AAXX 11094 67751 42580 61510 10260 20140 48484 70522 86500
                   333 58026 86628=
201910110600 AAXX 11064 67751 11975 11013 10275 20148 48/// 69904 70500 80001
                   333 10360 20223 5//// 81080=
201910101200 AAXX 10124 67751 NIL=
201910100900 AAXX 10094 67751 41975 13609 10283 20090 48/// 70500 81031
                   333 59006 81360 81080=
201910100600 AAXX 10064 67751 31975 70209 10290 20092 48/// 70522 80007
                   333 10370 20209 5//// 87280=
201910090900 AAXX 09094 67751 NIL=
201910090600 AAXX 09064 67751 11975 00612 10290 20090 48/// 69904 70500
                   333 10357 20177 5////=
201910081200 AAXX 08124 67751 41975 40907 10341 20199 70522 82260
                   333 58000 82858 84360=
201910080600 AAXX 08064 67751 31975 20210 10285 20090 48/// 70500 82080
                   333 10351 20176 5////=
201910070900 AAXX 07094 67751 41975 10807 10315 20140 70500 81200
                   333 5//// 81857=
201910070600 AAXX 07064 67751 31975 00910 10274 20084 70500
                   333 10349 20159 5////
                   555 00///=
201910040600 AAXX 04064 67751 31970 10805 10223 20154 70500 81101
                   333 10274 20145 5//// 81823 81080
                   555 00///=
201910030600 AAXX 03064 67751 31570 50613 10216 20147 70522 85500
                   333 10310 20165 5//// 85625
                   555 00///=
201910020900 AAXX 02094 67751 41970 40813 10281 25016 70500 84200
                   333 5//// 84850=
201910020600 AAXX 02064 67751 31970 61501 10209 20128 70522 80006
                   333 10343 20177 5//// 86280
                   555 00///=

################################################################################
#  SYNOPS from 67753, Choma (Zambia) | 16-50S | 027-04E | 1213 m
################################################################################
201910290900 AAXX 29094 67753 NIL=
201910280600 AAXX 28064 67753 31980 03513 10289 20106 48488 70500
                   333 10379 20220 59016=
201910220900 AAXX 22094 67753 NIL=
201910220600 AAXX 22064 67753 31980 30605 10294 20081 48/// 70500 83030
                   333 10372 20178 5//// 83360=
201910210600 AAXX 21064 67753 31980 00000 10294 20106 48/// 70500
                   333 10360 20160 5////=
201910171200 AAXX 17124 67753 NIL=
201910160900 AAXX 16094 67753 NIL=
201910141200 AAXX 14124 67753 41680 11009 10320 20127 48521 81100
                   333 5//// 81830=
201910140900 AAXX 14094 67753 NIL=
201910140600 AAXX 14064 67753 31980 00212 10255 20149 48544 70500
                   333 10311 20178 58003=
201910110900 AAXX 11094 67753 NIL=
201910110600 AAXX 11064 67753 31980 12710 10230 20141 48/// 70500 81030
                   333 10349 20208 5//// 81360=
201910101200 AAXX 10124 67753 NIL=
201910100900 AAXX 10094 67753 NIL=
201910100600 AAXX 10064 67753 11980 70000 10240 20130 48/// 69904 70522 87030
                   333 10351 20200 5//// 87360=
201910090900 AAXX 09094 67753 NIL=
201910090600 AAXX 09064 67753 31980 21903 10270 20124 48/// 70500 80001
                   333 10329 20168 5//// 82080=
201910070900 AAXX 07094 67753 NIL=
201910070600 AAXX 07064 67753 31980 00213 10239 20136 48/// 70500
                   333 10330 20156 5////
                   555 00///=
201910030600 AAXX 03064 67753 31580 72710 10185 20147 48557 70522 87500
                   333 10309 20160 58017 87620
                   555 00///=
201910020900 AAXX 02094 67753 NIL=
201910010600 AAXX 01064 67753 31980 30103 10200 20049 48500 83030
                   333 10346 20110 58010 83360
                   555 00///=

################################################################################
#  SYNOPS from 67855, Lupaki (Zambia) | 17-03-00S | 024-46-00E | 1000 m
################################################################################
201910300600 AAXX 30064 67855 31970 00703 10254 20186 3//// 48/// 70511
                   333 20198 5////=
201910291200 AAXX 29124 67855 41870 50601 10406 20080 3//// 48/// 70511 83270
                   333 5//// 83858 85360=
201910290600 AAXX 29064 67855 31970 61101 10310 20095 3//// 48/// 70522 86070
                   333 20240 5//// 86360=
201910281200 AAXX 28124 67855 41870 63305 10400 20085 3//// 48/// 70511 81231
                   333 5//// 81857 86360=
201910280600 AAXX 28064 67855 11970 03402 10314 20103 3//// 48/// 60014 70500
                   333 20220 5////=
201910260600 AAXX 26064 67855 31970 10301 10302 20108 3//// 48/// 70500 81030
                   333 20200 5//// 81360=
201910250600 AAXX 25064 67855 31970 10305 10314 20105 3//// 48/// 70511 81030
                   333 20266 5//// 81360=
201910231200 AAXX 23124 67855 41870 33308 10376 20105 3//// 48/// 83200
                   333 5//// 83857=
201910220600 AAXX 22064 67855 31970 60205 10308 20073 3//// 48/// 70511 86030
                   333 20176 5//// 86360=
201910211200 AAXX 21124 67855 41970 50703 10378 20043 3//// 48/// 70511 85200
                   333 5//// 83857=
201910210600 AAXX 21064 67855 31970 03602 10282 20055 3//// 48/// 70500
                   333 20165 5////=
201910201200 AAXX 20124 67855 41870 13401 10376 20020 3//// 48/// 70500 81100
                   333 5//// 81857=
201910191200 AAXX 19124 67855 41970 02002 10364 20005 3//// 48/// 70500
                   333 5////=
201910190600 AAXX 19064 67855 31970 00303 10250 20050 3//// 48/// 70500
                   333 20100 5////=
201910181200 AAXX 18124 67855 41970 02101 10330 20013 3//// 48/// 70500
                   333 5////=
201910180600 AAXX 18064 67855 31970 00302 10232 20050 38/// 48/// 70500
                   333 20110 5////=
201910150600 AAXX 15064 67855 31970 00905 10240 20096 3//// 48/// 70500
                   333 20140 5////=
201910141200 AAXX 14124 67855 41970 00601 10360 20029 3//// 48/// 70500
                   333 5////=
201910121200 AAXX 12124 67855 41770 20101 10328 20110 3//// 48/// 70500 82200
                   333 5//// 82850=
201910120600 AAXX 12064 67855 11970 10605 10186 20035 3//// 48/// 69904 70500 80001
                   333 20130 5//// 81080=
201910101200 AAXX 10124 67855 41770 51102 10354 20095 3//// 48/// 70511 83230
                   333 5//// 85850 83360=
201910100600 AAXX 10064 67855 11970 30603 10282 20105 3//// 48/// 60014 70511 81032
                   333 20188 5//// 81360 83080=
201910091200 AAXX 09124 67855 41770 50000 10364 20063 3//// 48/// 79598 85233
                   333 5//// 81945 84850=
201910090600 AAXX 09064 67855 31970 00305 10284 20105 3//// 48/// 70500
                   333 20170 5////=
201910080600 AAXX 08064 67855 31970 00303 10266 20085 3//// 48/// 70500
                   333 20155 5////=
201910070600 AAXX 07064 67855 31970 00604 10248 20063 3//// 48/// 70500
                   333 20133 5////=
201910041200 AAXX 04124 67855 41770 53301 10326 20119 3//// 48/// 70511 85200
                   333 5//// 85856=
201910040600 AAXX 04064 67855 31970 00901 10216 20155 3//// 48/// 70500
                   333 20133 5////=
201910031200 AAXX 03124 67855 41670 30103 10308 20145 3//// 48/// 70511 83100
                   333 5//// 83845=
201910030600 AAXX 03064 67855 31570 70604 10180 20125 3//// 48/// 70511 875//
                   333 20126 5//// 87620=
201910020600 AAXX 02064 67855 32675 41008 10178 20105 3//// 48/// 84500
                   333 20148 5//// 84630=
201910010600 AAXX 01064 67855 31970 01801 10202 21020 3//// 48/// 70500
                   333 20115 5////=
