################################################################################
# Query made at 04/15/2022 02:05:48 UTC
# Country like Zamb*
# Time interval: from 11/01/2009 05:30  to 12/01/2009 06:30  UTC
################################################################################

################################################################################
#  SYNOPS from 67403, Kawambwa (Zambia) | 09-48S | 029-05E | 1323 m
################################################################################
200911270600 AAXX 27064 67403 12980 70000 10213 20180 48532 60134 8707/
                   333 10294 20162 59003 87362=
200911180600 AAXX 18064 67403 11356 80000 10198 20195 48540 60194 76362 885//
                   333 10275 20145 58012 88601=
200911160600 AAXX 16064 67403 11480 72901 10229 20182 48523 60024 71722 8697/
                   333 10266 58011 81918 85818 87361=

################################################################################
#  SYNOPS from 67413, Mbala (Zambia) | 08-51S | 031-20E | 1673 m
################################################################################
200911270600 AAXX 27064 67413 12580 71008 10228 20154 48531 60134 81921
                   333 10270 20166 59002 81925 82360 85080=
200911180600 AAXX 18064 67413 12580 70000 10205 20174 48536 60154 83582
                   333 10238 20160 5//// 83620 82359 84080=
200911160600 AAXX 16064 67413 12680 60000 10200 20161 48/// 60054 81380
                   333 10240 20145 5//// 81930 81830 85359=
200911040600 AAXX 04064 67413 11975 50809 10225 20154 48524 60014 70500 85080
                   333 10310 20175 59004 85359=

################################################################################
#  SYNOPS from 67441, Mwinilunga (Zambia) | 11-45S | 024-26E | 1361 m
################################################################################
200911270600 AAXX 27064 67441 11960 80000 10140 20185 48552 60064 76162 8802/
                   333 10253 20/// 59001 88460=
200911250600 AAXX 25064 67441 12480 30906 10215 20193 48563 60054 81134
                   333 10285 2//// 59003 81818 81360 82080=
200911240900 AAXX 24094 67441 42682 30604 10270 20180 48556 83130
                   333 59005 83830 81360=
200911230600 AAXX 23064 67441 12480 70000 10192 20185 48566 60154 8217/
                   333 10250 20/// 59002 82818 87360=
200911200900 AAXX 20094 67441 42582 73305 19235 20185 48550 8317/
                   333 5//// 83820 87360=
200911180600 AAXX 18064 67441 12480 70609 10195 20172 48/// 60074 81138
                   333 10360 20/// 5//// 81818 82360 86280=
200911170600 AAXX 17064 67441 12980 70000 10175 20175 48555 60054 8707/
                   333 10260 20/// 5//// 87360=
200911160600 AAXX 16064 67441 11580 70000 10180 20178 48/// 60094 72844 81130
                   333 10230 20/// 5//// 81820 87360=
200911130600 AAXX 13064 67441 NIL=
200911120600 AAXX 1206/ 67441 NIL=
200911110600 AAXX 11064 67441 11960 80000 10170 20165 48530 60194 88021
                   333 10290 20111 59004 88460=
200911100600 AAXX 10064 67441 31575 70000 10200 20085 48534 70222 81130
                   333 10260 20//0 5//// 81820 87360
                   555 00/// 20002=
200911060600 AAXX 06064 67441 11970 80000 10179 20175 48/// 60054 76162 8802/
                   333 10270 20/// 58011 88460=
200911030600 AAXX 03064 67441 11965 60000 10185 20170 48542 69904 70522 86030
                   333 10275 20/// 58000 86360=
200911021200 AAXX 02124 67441 41675 70000 10243 20182 48518 70526 8113/
                   333 5//// 81830 87362=

################################################################################
#  SYNOPS from 67461, Mansa (Zambia) | 11-06S | 028-51E | 1382 m
################################################################################
200911270600 AAXX 27064 67461 32980 70901 10230 20193 48524 87070
                   333 10312 20193 58001 87462 85361 83080=
200911250600 AAXX 25064 67461 32580 71004 10214 20178 48537 8457/
                   333 10301 20178 59001 84625 87462=
200911230600 AAXX 23064 67461 32580 61501 10219 20191 48545 82538
                   333 10300 20181 59002 82620 81362 86280=
200911180600 AAXX 18064 67461 12580 80701 10203 20182 48528 60384 8557/
                   333 10273 20170 58002 85618 88461=
200911170600 AAXX 17064 67461 12580 73501 10192 20181 48526 60074 8257/
                   333 10300 20160 58018 82620 87462=
200911160600 AAXX 16064 67461 12580 71801 10196 20177 48514 60114 82538
                   333 10289 20160 59010 82620 874620 86280=
200911130600 AAXX 13064 67461 32580 33401 10218 20189 48511 81131
                   333 10289 20168 59010 81850 81362 82080=
200911120600 AAXX 1206/ 67461 32580 73601 10206 20174 48514 8357/
                   333 10290 20179 58014 83620 87461=
200911110600 AAXX 11064 67461 32580 33203 10193 20196 48505 8357/
                   333 10290 20177 59003 83820 88461=
200911091200 AAXX 09124 67461 42680 52702 10276 20167 48493 84208
                   333 58006 84840 84080=
200911090900 AAXX 09094 67461 42680 72702 10244 20186 48514 82138
                   333 58010 82830 82362 87280=
200911060600 AAXX 06064 67461 11965 73601 10210 20181 48506 60024 70522 8707/
                   333 10230 59011 87463=
200911050900 AAXX 05094 67461 41565 83503 10190 20174 48524 76022 8557/
                   333 58029 85626 87462 Q1019.9=
200911050600 AAXX 05064 67461 31565 73513 10207 20181 48522 70522 875//
                   333 10340 20193 58012 87620=
200911040600 AAXX 04064 67461 31965 61002 10245 20193 48515 70522 80008
                   333 10335 20188 59009 82080=
200911030600 AAXX 03064 67461 NIL=
200911021200 AAXX 02124 67461 41865 60605 10310 20136 48484 70522 85208
                   333 59010 81958 85858 85280=

################################################################################
#  SYNOPS from 67469, Samfya (Zambia) | 11-22S | 029-54E | 1171 m
################################################################################
200911160600 AAXX 16064 67469 11480 72702 10204 20174 48/// 60054 72996 8157/
                   333 10317 20161 5//// 87460=

################################################################################
#  SYNOPS from 67475, Kasama (Zambia) | 10-13S | 031-08E | 1382 m
################################################################################
200911270900 AAXX 27094 67475 42680 61708 10268 20178 48517 86231
                   333 59003 86845 83362 83080=
200911270600 AAXX 27064 67475 32480 51204 10242 20181 48524 82182
                   333 10292 20173 59005 82810 85361 83080=
200911230600 AAXX 23064 67475 32980 50912 10242 20164 48539 80002
                   333 10282 20167 59008 85080=
200911190600 AAXX 19064 67475 31475 81306 10200 20188 48521 70522 887//
                   333 10282 20187 59008 88615=
200911180600 AAXX 18064 67475 11460 71309 10205 20182 48530 60064 74042 875//
                   333 10302 20174 58007 87610=
200911170600 AAXX 17064 67475 12480 50803 10225 20153 48527 69904 81132
                   333 10299 20150 58012 81815 81361 85080=
200911160900 AAXX 16094 67475 42680 61804 10253 20175 48502 86200
                   333 58009 86830=
200911160600 AAXX 16064 67475 32480 62706 10217 20182 48511 8658/
                   333 10310 20165 58013 86615 81360=
200911130600 AAXX 13064 67475 12480 63608 10227 20178 48517 60094 81130
                   333 10245 20155 59004 81810 86360=
200911120600 AAXX 1206/ 67475 12980 12804 10209 20160 48520 60104 8707/
                   333 10255 20168 58010 87460=
200911110600 AAXX 11064 67475 12465 70702 10205 20190 48510 60044 8455/
                   333 10290 20172 59003 84610 87460=
200911100600 AAXX 10061 67475 32580 50304 10218 20184 48514 84132
                   333 10218 20184 48514 84132
                   333 10298 20175 59005 48820 84820 84360 85086
                   555 00/// 20011 Q1019/4=
200911090900 AAXX 09094 67475 42680 63402 10255 20162 48510 83232
                   333 58004 83830 84361 86080=
200911090600 AAXX 09064 67475 12480 71507 10186 20172 48517 60114 8157/
                   333 10275 20161 59002 81610 87460=
200911060600 AAXX 06064 67475 11470 70000 10215 20188 48512 60054 70522 8757/
                   333 10202 20175 58006 87615 84762=
200911040600 AAXX 04064 67475 11670 70908 10225 20168 48513 60024 70522 81101
                   333 10330 20186 59009 81830 87080=
200911030600 AAXX 03064 67475 11970 73605 10246 20153 48526 69904 70522 8707/
                   333 10328 20194 58008 87360=

################################################################################
#  SYNOPS from 67476, Misamfu (Zambia) | 10-06S | 031-15E | 1536 m
################################################################################
200911180600 AAXX 18064 67476 12480 70608 10218 20186 48/// 60074 83530
                   333 10305 20177 58008 83611 87360=
200911170600 AAXX 17064 67476 12980 13303 10205 20167 60084 81030
                   333 10304 20150 5//// 81360=
200911120600 AAXX 12064 67476 12980 80000 10199 20133 48/// 69904 8807/
                   333 10238 20168 58010 88460=

################################################################################
#  SYNOPS from 67477, Mpika (Zambia) | 11-54S | 031-26E | 1400 m
################################################################################
200911270600 AAXX 27064 67477 32480 50901 10224 20186 48525 81131
                   333 10271 20175 59006 81818 85361 81080=
200911230600 AAXX 23064 67477 12580 51002 10229 20177 48541 60124 81131
                   333 10274 20166 59005 81820 81362 84080=
200911180600 AAXX 18064 67477 11475 81205 10179 20166 48492 60054 76162 8357/
                   333 10290 20170 58018 83612 81360=
200911170600 AAXX 17064 67477 NIL=
200911160600 AAXX 16064 67477 11480 32604 10230 20167 48503 69934 81131
                   333 10300 20165 58001 81817 81362 83080=
200911130600 AAXX 13064 67477 12580 60301 10223 20173 48517 69954 83230
                   333 10232 20150 58005 83820 85361=
200911120600 AAXX 1206/ 67477 11480 70000 10180 20171 48511 60094 76062 8117/
                   333 10285 20167 58010 81814 87360=
200911110600 AAXX 11064 67477 11980 73204 10200 20185 48502 60104 72162 8707/
                   333 10280 20170 59003 87360=
200911060600 AAXX 06064 67477 11970 72701 10195 20172 48504 60744 70522 8703/
                   333 10285 20159 59004 87362=
200911040600 AAXX 04064 67477 12480 61315 10244 20153 48513 69904 85101
                   333 10320 20176 59009 85816 85080=
200911030600 AAXX 03064 67477 32980 51106 10239 20111 48522 80001
                   333 10315 20190 58008 85080=

################################################################################
#  SYNOPS from 67531, Zambezi (Zambia) | 13-32S | 023-07E | 1077 m
################################################################################
200911270600 AAXX 27064 67531 11380 70000 10186 20180 48/// 60374 79196 8277/
                   333 10305 20175 5//// 82707 87460=
200911230600 AAXX 23064 67531 12480 70701 10212 20188 48/// 60044 8117/
                   333 10297 20182 5//// 81811 87460=
200911190600 AAXX 19064 67531 32480 70903 10290 20181 48/// 8117/
                   333 10291 20185 5//// 81811 87460=
200911180600 AAXX 18064 67531 12480 21104 10216 20183 48/// 69904 81130
                   333 10385 20174 5//// 81815 81362=
200911170600 AAXX 17064 67531 12380 70703 10200 20188 48/// 60224 8567/
                   333 10306 20175 5//// 85707 87460=
200911160600 AAXX 16064 67531 12480 50801 10228 20202 48/// 60064 81132
                   333 10309 20168 58001 81817 81362 83080=
200911130600 AAXX 13064 67531 32980 13602 10243 20186 48/// 81030
                   333 10326 20176 5//// 81362=
200911120600 AAXX 1206/ 67531 32480 23604 10210 20166 48/// 81130
                   333 10281 20160 5//// 81817 82361=
200911110600 AAXX 11064 67531 31480 70307 10220 20176 48/// 72999 8117/
                   333 10320 20186 5//// 81812 87460=
200911060600 AAXX 06064 67531 12380 70000 10206 20189 48/// 60164 8167/
                   333 10320 20186 5//// 81706 87460=
200911050600 AAXX 05064 67531 32980 30305 10321 20167 48/// 82032
                   333 10296 20187 5//// 82362 82082=
200911040600 AAXX 04064 67531 31975 72206 10224 20187 48/// 70522 8707/
                   333 10342 20200 5//// 87460=
200911030600 AAXX 03064 67531 32980 70000 10216 20176 48/// 8707/
                   333 10302 20196 5//// 87460=

################################################################################
#  SYNOPS from 67541, Kasempa (Zambia) | 13-32S | 025-51E | 1234 m
################################################################################
200911301200 AAXX 30124 67541 41570 70000 10206 20203 48479 79596 8423/
                   333 5//// 81928 83828 87360=
200911270600 AAXX 27064 67541 32982 70000 10200 20190 48516 8703/
                   333 10/// 20/// 59009 87360=
200911250600 AAXX 25064 67541 12980 60000 10236 20192 48530 69924 70222 86030
                   333 10/// 20/// 59000 86360=
200911230600 AAXX 23064 67541 NIL=
200911180600 AAXX 18064 67541 12380 70000 10196 20169 48524 60094 8162/
                   333 10/// 20/// 59004 81605 87360=
200911170600 AAXX 17064 67541 NIL=
200911160600 AAXX 16064 67541 NIL=
200911130600 AAXX 13064 67541 NIL=
200911120600 AAXX 1206/ 67541 NIL=
200911110600 AAXX 11064 67541 NIL=
200911060600 AAXX 06064 67541 12380 70000 10192 20184 48498 60074 8263/
                   333 10/// 20/// 59008 82607 87360=
200911050600 AAXX 05064 67541 NIL=
200911030600 AAXX 03064 67541 NIL=

################################################################################
#  SYNOPS from 67551, Solwezi (Zambia) | 12-11S | 026-23E | 1386 m
################################################################################
200911270600 AAXX 27064 67551 11380 70000 10185 20169 48520 60704 70666 8277/
                   333 10285 20170 59004 82708 87362=
200911180600 AAXX 18064 67551 12380 70910 10185 20169 48526 69904 876//
                   333 10253 20170 58011 87708=
200911160600 AAXX 16064 67551 12980 50000 10184 20181 48509 60074 84030
                   333 10270 20172 58014 84362=

################################################################################
#  SYNOPS from 67561, Ndola (Zambia) | 13-00S | 028-39E | 1269 m
################################################################################
200911300600 AAXX 30064 67561 32980 63401 10229 20188 48529 86031
                   333 10305 20182 59012 86362 83080
                   555 Q1019.7=
200911270900 AAXX 27094 67561 41560 70905 10256 20188 48521 70522 85238
                   333 58002 85820 86360 86280=
200911270600 AAXX 27064 67561 11460 70000 10215 20182 48528 70522 83438
                   333 10313 20176 58000 86360 86280=
200911240900 AAXX 24094 67561 41960 70810 10262 20176 70522 85230
                   333 59006 81930 85830 82361 Q1021.4=
200911230600 AAXX 23064 67561 11465 72105 10209 20194 48545 60164 70562 85538
                   333 10262 20180 58004 85612 85360 87280=
200911180600 AAXX 18064 67561 11265 81208 10186 20178 48537 69924 76022 8307/
                   333 10280 20180 58010 83725 88460=
200911170600 AAXX 17064 67561 11365 70000 10208 20178 48527 69904 70522 8167/
                   333 10315 20191 58018 81708 84625 87460=
200911160600 AAXX 16064 67561 11960 71803 10211 20173 48509 60044 70522 86032
                   333 10330 20179 58009 86460 84080=
200911130600 AAXX 13064 67561 12480 50506 10231 20184 48512 69904 81131
                   333 10290 20168 58004 81812 85360 81080=
200911121200 AAXX 12124 67561 41680 70506 10290 20168 48481 79522 85232
                   333 58012 81940 85830 83361 84080=
200911120600 AAXX 1206/ 67561 31980 70605 10194 20150 48504 70522 85438
                   333 58009 85640 83361 82280=
200911110600 AAXX 11064 67561 11565 60305 10209 20183 48497 60064 70522 83238
                   333 10310 20180 59002 83810 83360 85280=
200911100600 AAXX 10064 67561 32980 53004 10236 20178 48501 82032
                   333 10294 20170 59020 82360 84080
                   555 00/// 20009 Q1017/2=
200911061200 AAXX 06124 67561 41965 60000 10290 20158 48472 70522 82130
                   333 59018 82856 84360=
200911060600 AAXX 06064 67561 31965 70000 10205 20162 48500 70522 87030
                   333 10306 20175 58018 87460=
200911050600 AAXX 05064 67561 31960 72304 10234 20158 48519 70500 86038
                   333 10329 20/// 58003 86361 87280=
200911040900 AAXX 04094 67561 41675 41006 10301 20154 48514 70500 84201
                   333 59005 84845 81080=
200911040600 AAXX 04064 67561 11975 30910 10244 20158 48518 60044 80002
                   333 10330 20179 59006 83080=
200911030600 AAXX 03064 67561 31960 70610 10247 20145 48524 70522 87030
                   333 10336 20205 58008 87360=
200911020600 AAXX 02064 67561 31960 50610 10240 20151 48515 70511 80002
                   333 10312 20182 59010 85280 91018=

################################################################################
#  SYNOPS from 67563, Kafironda (Zambia) | 12-36S | 028-07E | 1243 m
################################################################################
200911270600 AAXX 27064 67563 11580 73601 10207 20190 48/// 60714 72562 8447/
                   333 10314 20176 59001 84620 87358=
200911160600 AAXX 16064 67563 11978 61201 10215 20180 48/// 60034 70522 85031
                   333 10330 20155 58013 85358 82080=

################################################################################
#  SYNOPS from 67571, Serenje (Zambia) | 13-14S | 030-13E | 1384 m
################################################################################
200911270600 AAXX 27064 67571 12484 70302 10218 20176 48533 60174 85538
                   333 10286 20166 59001 85618 85360 87280=
200911180600 AAXX 18064 67571 11465 81208 10179 20156 48526 60114 75256 885//
                   333 10270 20165 58027 88616=
200911160600 AAXX 16064 67571 11984 70000 10209 20164 48502 60024 72162 8707/
                   333 10304 20171 58006 87460=

################################################################################
#  SYNOPS from 67575, Mkushi (Zambia) | 13-38S | 029-53E | 1237 m
################################################################################
200911270600 AAXX 27064 67575 31580 70000 10227 20187 48484 81238
                   333 10300 20177 58003 81820 81360 86280=
200911160600 AAXX 16064 67575 11580 71803 10227 20178 48463 60024 70162 81522
                   333 10317 20181 58007 81620 86360 82080=

################################################################################
#  SYNOPS from 67580, Msekera (Zambia) | 13-39S | 032-34E | 1025 m
################################################################################
200912010600 AAXX 01064 67580 32982 70603 10266 20189 48/// 85038
                   333 10303 20203 59010 85360 87280=
200911270600 AAXX 27064 67580 12582 70000 10254 20195 48/// 60044 82138
                   333 10310 20200 59007 82820 81360 86280=
200911200900 AAXX 20094 67580 42680 70000 10270 20188 48/// 83130
                   333 58010 83835 83360=
200911180900 AAXX 18094 67580 42680 71206 10242 20169 48/// 8623/
                   333 58023 86840 87360=
200911180600 AAXX 18064 67580 12480 71606 10205 20165 48/// 60044 8657/
                   333 10322 20186 58028 86618 87360=
200911160600 AAXX 16064 67580 31975 70000 10264 20168 48/// 70521 84038
                   333 10339 20203 58007 84360 85280=
200911121200 AAXX 12124 67580 42680 70000 10241 20186 48/// 8217/
                   333 58039 82848 87460=
200911100600 AAXX 10064 67580 31975 30302 10266 20179 48/// 70511 80002
                   333 10334 20220 59019 83080
                   555 00/// 20002=
200911091200 AAXX 09124 67580 41775 62706 10334 20148 48/// 71522 84208
                   333 5//// 81950 83856 86280=
200911090900 AAXX 09094 67580 41675 70000 10306 20176 48/// 70522 85208
                   333 5//// 85848 86280=
200911060600 AAXX 06064 67580 31970 30000 10275 20166 48/// 70511 81032
                   333 10350 20189 59008 81361 82080=
200911051200 AAXX 05124 67580 41775 62706 10339 20112 48/// 70522 86208
                   333 59013 86856 82080=
200911050900 AAXX 05094 67580 41565 83503 10190 20174 48524 76022 8557/
                   333 58029 85620 87462 Q1019.9=
200911040600 AAXX 04064 67580 11975 31504 10250 20147 48/// 69904 70500 80001
                   333 10338 20197 58006 83080=
200911031200 AAXX 03121 67580 41775 71204 10305 20154 48/// 70522 872//
                   333 58014 81956 86857=

################################################################################
#  SYNOPS from 67581, Chipata (Zambia) | 13-33S | 032-35E | 1028 m
################################################################################
200911270900 AAXX 27094 67581 42680 50703 10291 20187 48537 84131
                   333 59005 84835 81362 81080=
200911270600 AAXX 27064 67581 12680 41206 10265 20186 48539 69904 82130
                   333 10308 20202 59008 82830 82360=
200911250600 AAXX 25064 67581 12980 31007 10230 20170 48556 60364 83030
                   333 10254 20174 58002 83360=
200911230600 AAXX 23064 67581 12684 70903 10258 20184 48554 69904 81138
                   333 10321 20210 59003 81835 81360 87280=
200911210900 AAXX 21094 67581 41570 82807 10220 20206 48551 79796 8197/
                   333 58024 81920 83625 88462=
200911190600 AAXX 19064 67581 32980 30901 10233 20153 48537 83030
                   333 10250 20155 59018 83360=
200911180600 AAXX 18064 67581 32680 80904 10209 20162 48550 8457/
                   333 10332 20196 58028 84630 88460=
200911170600 AAXX 17064 67581 32980 31205 10272 20164 48534 83030
                   333 10340 20225 58017 83360=
200911160600 AAXX 16064 67581 32680 50602 10280 20153 48518 81132
                   333 10346 20203 58008 81840 84360 82080=
200911130600 AAXX 13064 67581 12580 60501 10251 20171 48527 69904 81532
                   333 10298 20184 58005 81625 84360 82080=
200911120600 AAXX 1206/ 67581 12580 80408 10212 20197 48517 60264 8123/
                   333 10312 20196 58020 82835 88360=
200911110600 AAXX 11064 67581 NIL=
200911060600 AAXX 06064 67581 31970 13602 10269 20160 48515 70500 81032
                   333 10351 20187 59007 81360 81080=
200911050600 AAXX 05064 67581 32980 00403 10280 20156 48525 70200
                   333 10329 20205 59011=
200911040600 AAXX 04064 67581 12980 01406 10266 20143 48531 69904 70522
                   333 10322 20200 59008=
200911031200 AAXX 03124 67581 42780 70906 10309 20154 48512 872//
                   333 58015 87847=

################################################################################
#  SYNOPS from 67583, Lundazi (Zambia) | 12-17S | 033-12E | 1143 m
################################################################################
200911270600 AAXX 27064 67583 12582 70000 10254 20195 48/// 60044 82138
                   333 10310 20200 59007 82820 81360 86280=
200911160600 AAXX 16064 67583 32980 10903 10285 20181 48/// 80001
                   333 10350 20170 5//// 81080=
200911050600 AAXX 05064 67583 32980 31002 10265 20174 80002
                   333 10325 20180 5//// 83080=

################################################################################
#  SYNOPS from 67599, Mfuwe (Zambia) | 13-16S | 031-56E | 568 m
################################################################################
200912010600 AAXX 01064 67599 32960 50000 10264 20224 48526 85030
                   333 10350 20222 59018 85360=
200911300900 AAXX 30094 67599 42560 40000 10290 20241 48543 70222 81130
                   333 59010 81820 84362 Q1016.6=
200911291200 AAXX 29124 67599 42580 42604 10330 20226 48529 70122 81900
                   333 58007 81927 84830 Q1013.6=
200911290900 AAXX 2909/ 67599 42580 60405 10290 20234 48552 8223/
                   333 58007 82820 86360 Q1017.6=
200911290600 AAXX 29064 67599 11359 71705 10230 20223 48541 60074 70522 82157/
                   333 10360 20212 58002 82607 87459
                   555 00/// 20000 Q1018.6=
200911271200 AAXX 27124 67599 42660 70000 10328 20226 48524 832231
                   333 58022 83850 86362 87080=
200911270600 AAXX 27064 67599 12960 40000 10269 20236 48542 60034 84030
                   333 10294 20162 59003 85357 86276=
200911201200 AAXX 20124 67599 42660 51204 10335 20224 48533 83201
                   333 58003 83840 85080=
200911180600 AAXX 18064 67599 12480 71710 10239 20181 48563 60344 8257/
                   333 10375 20215 58046 82610 87460=
200911171200 AAXX 17124 67599 41659 71010 10360 20186 48522 71722 819//
                   333 58023 81945 87850=
200911170600 AAXX 17064 67599 11959 31705 10285 20213 48535 60034 70522 83030
                   333 10385 20230 58016 83360=
200911160600 AAXX 16064 67599 32980 60905 10300 20207 48527 70322 8607/
                   333 10390 20240 58004 86459=
200911141200 AAXX 14124 67599 42780 42905 10360 20204 48510 81900
                   333 58006 81950 84856=
200911131500 AAXX 13154 67599 41/80 70000 10265 20229 48479 71796 8197/
                   333 59004 819// 87460=
200911131200 AAXX 13124 67599 41680 52206 10365 20192 48505 71722 81900
                   333 59019 81940 85842=
200911121200 AAXX 12124 67599 42680 60000 10296 20209 48502 83130
                   333 58034 819// 83840 85360=
200911120600 AAXX 12064 67599 12980 80000 10238 20218 48521 60014 8807/
                   333 10355 20215 58019 88460
                   555 00/// 20019 Q1015/9=
200911111500 AAXX 11154 67599 42780 80000 10320 20222 48473 82938
                   333 59005 82956 84360 88280=
200911111200 AAXX 11124 67599 42780 33004 10340 20204 48483 81932
                   333 58003 81956 81856 81360 83080=
200911110900 AAXX 11094 67599 42680 60206 10295 20220 48509 82130
                   333 58015 82840 85360 Q1012.7=
200911090900 AAXX 09094 67599 42775 43305 10355 20197 48533 83202
                   333 59013 83850 83080=
200911061500 AAXX 06154 67599 42775 80000 10339 20179 48460 82937
                   333 59014 82957 82957 84360 88280=
200911061200 AAXX 06124 67599 42775 60806 10374 20196 48482 84232
                   333 59018 81957 84857 83360 85080=
200911060600 AAXX 06064 67599 31959 30907 10304 20196 48520 70500 83030
                   333 10410 20220 59014 83360
                   555 00/// Q1013/6=
200911051200 AAXX 05124 67599 41760 50000 10390 20198 48505 70522 81900
                   333 59014 81957 85858=
200911050900 AAXX 05094 67599 41760 40000 10350 20184 48532 70522 82101
                   333 59007 82850 84080 Q1013.2=
200911050600 AAXX 05064 67599 31960 41006 10295 20175 48530 70522 80001
                   333 10384 20214 59011 84080 Q1015.1=
200911040600 AAXX 04064 67599 31959 21403 10285 20161 48537 70500 82030
                   333 10385 20219 59009 82360=
200911031200 AAXX 03124 67599 41760 71409 10370 20190 48522 70522 81930
                   333 58014 819// 82858 87360=
200911030600 AAXX 03064 67599 11760 70000 10283 20200 48545 69904 70522 8113/
                   333 10397 20230 58011 81850 87360=
200911021200 AAXX 02124 67599 41760 61203 10382 20211 48512 70522
                   333 59016 81956 83857 86360=

################################################################################
#  SYNOPS from 67625, Kalabo (Zambia) | 14-51S | 022-42E | 1033 m
################################################################################
200911100600 AAXX 10064 67625 32980 33403 10253 20196 48/// 70200 81031
                   333 10340 20186 59015 81310 83080
                   555 00///=
200911060600 AAXX 06064 67625 11765 80000 10183 20181 48/// 60174 76266 8807/
                   333 10333 20172 58004 88460=

################################################################################
#  SYNOPS from 67633, Mongu (Zambia) | 15-15S | 023-09E | 1052 m
################################################################################
200912010600 AAXX 01064 67633 12982 70602 10240 20203 48499 60014 8707/
                   333 10308 20205 59016 87461=
200911270600 AAXX 27064 67633 32482 73608 10232 20192 48529 8367/
                   333 10335 20210 58005 83708 87060=
200911250600 AAXX 25064 67633 12982 70902 10230 20185 48538 69904 8707/
                   333 10280 20206 59003 87461=
200911230600 AAXX 23064 67633 32582 61804 10220 20190 48534 82530
                   333 10320 20200 59004 82620 86361=
200911180600 AAXX 18064 67633 12982 70905 10214 20174 48518 69904 8707/
                   333 10275 20186 59006 87461=
200911171200 AAXX 17124 67633 42680 63606 10240 20179 48516 82130
                   333 58014 82840 86361=
200911170600 AAXX 17064 67633 12482 70903 10202 20192 48522 60254 8467/
                   333 10315 20190 58020 84609 87460=
200911160900 AAXX 16094 67633 42682 60303 10268 20189 48507 82238
                   333 59017 82840=
200911160600 AAXX 16064 67633 12982 60902 10234 20183 48508 60214 85032
                   333 10248 20200 58006 85361 83080=
200911130600 AAXX 13064 67633 32980 63603 10224 20177 48501 86032
                   333 10330 20204 58007 86361 82080=
200911120600 AAXX 1206/ 67633 11982 63606 10215 20184 48493 60014 72166 86030
                   333 10335 20180 58010 86461=
200911110600 AAXX 11064 67633 32980 63607 10221 20183 48484 83038
                   333 10335 20205 59008 83361 85280=
200911100600 AAXX 10061 67633 32982 52982 10235 20194 48495 53604 70222 83032
                   333 10338 20210 59012 83361 82080
                   555 00205 Q1015/0=
200911090600 AAXX 09064 67633 32980 50308 10244 20184 48507 80008
                   333 10320 20198 59006 85280=
200911060600 AAXX 06064 67633 11970 73004 10195 20186 48503 60424 76166 8707/
                   333 10330 20190 58003 87460=
200911051200 AAXX 05124 67633 41670 43604 10305 20182 48493 70522 84200
                   333 59016 84845=
200911050600 AAXX 05064 67633 31870 73603 10220 20190 48507 70522 8197/
                   333 10270 20195 59007 81958 87460=
200911040600 AAXX 04064 67633 118870 70000 10205 20193 48511 60114 71799 8197/
                   333 10350 20192 58003 81958 87460=
200911030600 AAXX 03064 67633 31970 60000 10230 20185 48513 72022 86030
                   333 10324 20210 59006 86460=
200911021200 AAXX 02124 67633 41670 73604 10316 20159 48501 70522 83237
                   333 59003 83845 81361 87280=

################################################################################
#  SYNOPS from 67641, Kaoma (Zambia) | 14-48S | 024-48E | 1213 m
################################################################################
200911270600 AAXX 27064 67641 11980 63501 10230 20181 48516 69904 82032
                   333 10316 20200 58000 82361 84080=
200911230600 AAXX 23064 67641 11680 71901 10207 20192 48525 60054 83530
                   333 10268 20192 58002 83630 86360=
200911180600 AAXX 18064 67641 NIL=
200911160600 AAXX 16064 67641 NIL=
200911130600 AAXX 13064 67641 32980 20402 10236 20192 48491 82030
                   333 10299 20182 59009 82360=
200911120600 AAXX 1206/ 67641 NIL=
200911110600 AAXX 11064 67641 12680 62801 10209 20181 48480 60024 81532
                   333 10316 20190 59003 81630 86360 81080=
200911060600 AAXX 06064 67641 11680 72001 10196 20178 48493 60174 72062 81530
                   333 10320 20181 59002 81630 87361=
200911050600 AAXX 05064 67641 31975 60601 10220 20174 48497 70522 86030
                   333 10330 20200 58002 86361=
200911040600 AAXX 04064 67641 11975 70101 10236 20157 48598 69914 70522 87030
                   333 10339 20214 59008 87361=

################################################################################
#  SYNOPS from 67655, Mumbwa (Zambia) | 15-04S | 027-11E | 1216 m
################################################################################
200911270600 AAXX 27064 67655 32780 63201 10223 20188 48534 83088
                   333 10294 20162 59003 85357 86276=
200911200900 AAXX 20094 67655 42480 82702 10230 20194 48529 8653/
                   333 58006 86620 84358=
200911170600 AAXX 17064 67655 31780 80000 10206 20188 48537 72162 8802/
                   333 10266 20178 58019 88456=
200911131200 AAXX 13124 67655 42580 60908 10292 20218 48492 83230
                   333 59009 83830 86357=
200911100600 AAXX 10064 67655 32786 60000 10230 20194 48507 86070
                   333 10315 20205 59008 86456
                   555 00/// 20000 Q1018/1=
200911090600 AAXX 09064 67655 31780 63403 10330 20190 48518 83031
                   333 10265 20186 59010 83358 82077=

################################################################################
#  SYNOPS from 67663, Kabwe (Zambia) | 14-27S | 028-28E | 1206 m
################################################################################
200911270600 AAXX 27064 67663 32980 53501 10226 20179 48525 82088
                   333 10301 20179 58004 82360 85280=
200911230600 AAXX 23064 67663 11470 80000 10187 20181 48540 60434 76066 8147/
                   333 10288 20169 58012 81920 81620 88460=
200911180600 AAXX 18064 67663 11380 70907 10195 20165 48518 60144 8367/
                   333 10270 20177 58017 83708 87460=
200911170600 AAXX 17064 67663 11970 61002 10232 20184 48506 60014 70522 86030
                   333 10306 20198 59001 86360=
200911160600 AAXX 16064 67663 11370 71002 10199 20172 48504 60024 8367/
                   333 10328 20190 58011 83708 87460=
200911130600 AAXX 13064 67663 11970 20602 10233 20187 48495 69904 70500 82032
                   333 10278 20163 59003 82360 81080=
200911120600 AAXX 1206/ 67663 NIL=
200911110600 AAXX 11064 67663 31960 53502 10231 20184 48465 70522 82032
                   333 10308 20184 59003 82360 84080=
200911060600 AAXX 06064 67663 11960 51801 10222 20176 48495 69904 70522 85032
                   333 10343 20189 59011 85360 81080=
200911050600 AAXX 05064 67663 31960 50806 10255 20131 48505 70522 85082
                   333 10335 20200 59001 85360 82080=
200911040600 AAXX 04064 67663 31960 10704 10274 20140 48509 70500 80002
                   333 10338 20189 58001 81080=
200911030600 AAXX 03064 67663 NIL=

################################################################################
#  SYNOPS from 67665, Lusaka Internationalairport (Zambia) | 15-19S | 028-27E | 1152 m
################################################################################
200912010600 AAXX 01064 67665 12980 43504 10222 20222 48517 60024 84031
                   333 10/// 20175 59003 84360 82080=
200911301200 AAXX 30124 67665 41670 70404 10261 20232 48495 71782 82933
                   333 59020 82949 83845 83360 85080=
200911300900 AAXX 30094 67665 42680 50303 10278 20221 48549 70222 85232
                   333 59015 85830 81360 82080 Q1018.9=
200911300600 AAXX 30064 67665 32980 31103 10234 20199 48521 81032
                   333 10297 2016659021 81360 83080
                   555 00170 Q1018.8=
200911300400 AAXX 30044 67665 42980 21403 10180 20180 48514 82030
                   333 5//// 81360 81080=
200911300300 AAXX 30034 67665 42980 21203 10183 20183 48507 82030
                   333 5//// 82360=
200911292100 AAXX 29214 67665 42980 51402 10202 20202 48524 85030
                   333 5//// 85360=
200911291500 AAXX 29154 67665 42780 71407 10229 20222 48502 70222 83232
                   333 5//// 81850 82360 86280 Q1016.5=
200911291200 AAXX 29124 67665 41680 72507 10251 20184 48513 71522 86202
                   333 5//// 819// 86842 83080 Q1017.5=
200911290600 AAXX 29064 67665 12680 63006 10230 20222 48542 60994 81132
                   333 10308 20180 59005 81822 84360 83080
                   555 00164 Q1021.1=
200911281800 AAXX 28184 67665 42780 7//// 10217 20217 48523 81932
                   333 10286 58009 81950 85360 84080=
200911281500 AAXX 28154 67665 41680 71302 10217 20217 48507 71522 81932
                   333 58013 81945 81845 84360 85080=
200911281200 AAXX 28124 67665 41660 70903 10225 20210 48521 71796 82232
                   333 58011 81930 82830 85360 82080=
200911280600 AAXX 28064 67665 32980 70702 10207 20207 48544 70222 85032
                   333 10302 20189 58008 85360 86080
                   555 00193 Q1021.7=
200911271500 AAXX 27154 67665 42680 50906 10286 20193 48501 82908
                   333 59008 82945 85280
                   555 10300=
200911271200 AAXX 27124 67665 42680 63605 10292 20199 48517 85208
                   333 59007 85840 85280
                   555 Q1017.4=
200911270900 AAXX 27094 67665 42580 60207 10270 20204 48540 83138
                   333 59005 83830 82360 85280=
200911270600 AAXX 27064 67665 32980 61203 10229 20184 48539 82082
                   333 10300 20154 59017 82360 85280=
200911261500 AAXX 26154 67665 42880 21007 10280 20168 48508 70100 82101
                   333 59019 82856 81080 10290=
200911261200 AAXX 26124 67665 42680 20705 10280 20174 48523 82101
                   333 59016 82848 81080 Q1018.3=
200911260900 AAXX 26094 67665 42980 20607 10254 20169 48541 80001
                   333 59015 82080=
200911260600 AAXX 26064 67665 32980 20806 10219 20189 48545 81031
                   333 10274 20147 59014 81360 81080=
200911260400 AAXX 26044 67665 42980 31303 10161 20161 48524 70300 81030
                   333 59016 81360 82080=
200911260300 AAXX 26034 67665 42980 21203 10158 20158 48518 70300 82030
                   333 59014 81360 81080=
200911260000 AAXX 26004 67665 42980 11303 10179 20179 48517 70200 81030
                   333 58002 81360=
200911252100 AAXX 25214 67665 42980 11202 10194 20194 48531 70100 81030
                   333 59016 81360 Q1020.4=
200911251500 AAXX 25154 67665 42780 31208 10264 20206 48524 81231
                   333 59014 81850 82360 81080=
200911251200 AAXX 25124 67665 42680 60907 10271 20206 48537 86200
                   333 59011 86840=
200911250900 AAXX 25094 67665 42580 60709 10246 20213 48553 70310 85262
                   333 59009 85825 82361 81080=
200911250600 AAXX 25064 67665 32480 60809 10223 20214 48558 70300 82101
                   333 10255 20152 58000 82812 86078=
200911250400 AAXX 25044 67665 42980 10903 10167 20167 48540 81031
                   333 5//// 81360 81080=
200911250300 AAXX 25034 67665 42980 21003 10163 20163 48533 81031
                   333 5//// 81359 81080=
200911250000 AAXX 25004 67665 42980 01104 10171 20171 48529
                   333 5////=
200911242100 AAXX 24214 67665 42980 11003 10186 20186 48546 81030
                   333 5//// 81362=
200911241200 AAXX 24124 67665 42580 61009 10242 20217 48544 70222 8683/
                   333 59006 84827 83628 81360=
200911240900 AAXX 24094 67665 42480 70610 10222 20216 48562 70222 8753/
                   333 59004 87618 83360 Q1023.6=
200911240600 AAXX 24064 67665 32380 70610 10206 20206 48556 6//// 70322 8753/
                   333 10251 20169 59001 87608 83360
                   555 00175 Q1023.1=
200911231500 AAXX 23154 67665 42480 61110 10204 20204 48539 84532
                   333 58020 84512 84360 83080=
200911231200 AAXX 23124 67665 41458 81008 10200 20200 48545 76166 8197/
                   333 58018 819// 85707 88459=
200911230900 AAXX 23094 67665 41458 81106 10201 20201 48563 96166 8277/
                   333 58011 829// 85609 88459 Q1024.0=
200911230600 AAXX 23064 67665 11458 81204 10211 20211 48558 60204 76196 8277/
                   333 10282 20184 58004 829// 82609 88459=
200911221800 AAXX 22184 67665 41780 71103 10215 20215 48539 76122 8193/
                   333 10253 59007 81950 87360=
200911221500 AAXX 22154 67665 42680 70707 10243 20229 48525 83830
                   333 59010 82845 81646 86360=
200911221200 AAXX 22124 67665 41680 70608 10237 20232 48532
                   333 59002 82835 85635 84360=
200911220900 AAXX 22094 67665 41360 80406 10216 20216 48551 76266 8677/
                   333 58005 86707 87460 Q1022.8=
200911220600 AAXX 22064 67665 11358 80506 10227 20227 48557 76266 8677/
                   333 10276 20179 58009 86707 88459
                   555 00201 Q1022.8=
200911211200 AAXX 21124 67665 42580 73608 10236 20221 48534 84232
                   333 58026 84825 86360 83080=
200911210900 AAXX 21094 67665 41480 80209 10225 20225 48552 8557/
                   333 58021 85610 87359=
200911210600 AAXX 21064 67665 12380 83606 10200 20200 48544 60194 8577/
                   333 10265 20171 58012 85705 87359=
200911201200 AAXX 20124 67665 42580 60203 10257 20222 48511 85232
                   333 58005 81922 84825 83360 84080
                   555 Q1017.2=
200911200900 AAXX 20094 67665 42680 60303 10224 20224 48530 86830
                   333 58006 84615 843820 84360=
200911200600 AAXX 20064 67665 11358 80603 10214 20214 48534 60284 76162 8377/
                   333 10290 20156 58006 83708 88459=
200911200400 AAXX 20044 67665 41356 81702 10208 20208 48526 79566 8197/
                   333 59006 83707 81925 88459=
200911200300 AAXX 20034 67665 41356 70204 10202 20202 48524 79596 8197/
                   333 59003 82706 81920 87359=
200911200000 AAXX 20004 67665 41780 53005 10197 20197 48508 72962 81932
                   333 59016 81950 83360 83080=
200911192100 AAXX 19214 67665 41780 30803 10206 20206 48512 71322 81932
                   333 59021 81950 82360 81080=
200911191500 AAXX 19154 67665 42680 43004 10273 20200 48489 81232
                   333 59034 81850 82360 83080=
200911191200 AAXX 19124 67665 42680 73306 10266 20201 48509 83232
                   333 59034 83835 84360 86080=
200911190600 AAXX 19064 67665 32980 70506 10200 20188 48527 81102
                   333 10231 20143 59030 81810 87078=
200911190400 AAXX 19044 67665 42980 40903 10157 20157 48516 84031
                   333 59031 84360 83080 Q1019.1=
200911180900 AAXX 18094 67665 42580 707111 10218 20195 48552 84530
                   333 58016 84615 85360=
200911180600 AAXX 18064 67665 31380 70615 10200 20190 48552 70350 87730
                   333 10289 20178 58026 87706 81360=
200911180400 AAXX 18044 67665 42380 70610 10190 20190 48549 8573/
                   333 58031 85706 87360=
200911180300 AAXX 18034 67665 42980 70709 10194 20194 48543 87030
                   333 58030 87360=
200911172100 AAXX 17214 67665 42780 62403 10200 20200 48546 81930
                   333 58025 81950 86360=
200911171800 AAXX 17184 67665 41780 61408 10214 20214 48527 71322 81932
                   333 10289 58019 81950 84360 85280=
200911171500 AAXX 17154 67665 41460 71005 10249 20220 48507 71522 81632
                   333 58010 81610 81930 84840 85360=
200911171200 AAXX 17124 67665 41560 60408 10273 20216 48517 70522 85231
                   333 58010 85828 82359 81080=
200911170900 AAXX 17094 67665 41960 70612 10264 20221 48542 58014 70522 84360 8513/ 85815
                   Q1020/7=
200911170600 AAXX 17064 67665 129860 70708 10219 20219 48533 60064 8703
                   333 10281 20179 58006 87360=
200911161800 AAXX 16184 67665 41660 71104 10188 20188 48506 76196 81930
                   333 10281 58026 81945 87359=
200911161500 AAXX 16154 67665 41660 70806 10237 20230 48497 71772 82230
                   333 58014 81945 92845 85360=
200911161200 AAXX 16124 67665 42660 51004 10262 20219 48505 82230
                   333 58026 82835 84360=
200911160900 AAXX 16094 67665 41759 81206 10206 20206 48522 76166 8197/
                   333 59021 819/// 82708 87459=
200911160600 AAXX 16064 67665 11757 81107 10218 20218 48527 60074 76162 8197/
                   333 10316 20170 58018 81706 819// 87459=
200911151200 AAXX 15124 67665 42680 63606 10307 20173 48485 85202
                   333 59005 81945 84849 85080
                   555 Q1013/6=
200911150900 AAXX 15094 67665 42680 53606 10302 20184 48512 85230
                   333 59014 85845 81360=
200911150600 AAXX 15064 67665 12980 30707 10255 20220 48514 81232
                   333 10311 20195 59007 81820 82360 81080=
200911141800 AAXX 14184 67665 41780 62102 10217 20205 48492 71322 81933
                   333 59001 81950 82360 85080=
200911141200 AAXX 14124 67665 42680 60208 10298 20196 48489 86232
                   333 59008 81930 85835 83360 83080 Q1014.2=
200911140400 AAXX 14044 67665 42980 63601 10208 20208 48508 83032
                   333 59005 83360 84080=
200911140300 AAXX 14034 67665 42/80 11503 10205 20205 48500 81932
                   333 58000 83360 8I9// 83080=
200911140000 AAXX 14004 67665 42980 11502 10206 20206 48492 81030
                   333 59024 81360=
200911132100 AAXX 13214 67665 42/80 10000 10227 20213 48510 81930
                   333 59001 819// 81360=
200911131800 AAXX 13184 67665 41980 10803 10249 20196 48496 71322 81331
                   333 59011 81959 81362 81080=
200911131500 AAXX 13154 67665 42880 30604 10296 20194 48482 81231
                   333 59011 81857 81362 81080=
200911131200 AAXX 13124 67665 42680 50509 10305 20188 48498 83237
                   333 59003 83845 82362 82080=
200911130600 AAXX 13064 67665 12965 40000 10230 20214 48519 69904 84030
                   333 10270 20170 59017 84360=
200911121800 AAXX 12184 67665 42980 33505 10219 20219 48505 70222 83031
                   333 58030 83360 81080 Q1017.0=
200911121500 AAXX 12154 67665 42980 61204 10264 20198 48489 86031
                   333 58033 86360 81080=
200911121200 AAXX 12124 67665 42980 70000 10239 20201 48493 82032
                   333 59031 82360 87280=
200911120900 AAXX 12094 67665 41360 70000 10200 20200 48522 72562 8173/
                   333 59037 81709 87359 Q1019.2=
200911120600 AAXX 1206/ 67665 11360 82704 10190 20190 48531 60204 76162 8173/
                   333 10335 20171 58031 81708 819// 87359=
200911120400 AAXX 12044 67665 41360 7//// 10212 20212 48509 76166 8173/
                   333 58015 81708 87359=
200911120300 AAXX 12034 67665 41/60 7//// 10193 20193 48496 76166 8193/
                   333 58010 87359=
200911120000 AAXX 12004 67665 41760 7//// 10191 20191 48489 79596 8293/
                   333 58004 82950 87359=
200911112100 AAXX 11214 67665 41740 73006 10206 20206 48488 79796 8293/
                   333 59006 82957 87360=
200911111800 AAXX 11184 67665 41980 41002 10253 20202 48479 71322 81981
                   333 10335 59014 81959 84360 82080=
200911111500 AAXX 11154 67665 41880 63305 10303 20194 48460 71522 81331
                   333 59024 81957 84858 82359 83280=
200911111200 AAXX 11124 67665 42780 60208 10317 20175 48471 86200
                   333 59027 86850=
200911110900 AAXX 11094 67665 42470 53108 10285 20198 48425 80102
                   333 59035 82815 83080 Q1015.1=
200911110600 AAXX 11064 67665 31560 23306 10231 20227 48505 70500 82102
                   333 10299 20175 59006 82818 85080=
200911101200 AAXX 10124 67665 42665 71211 10247 20197 48587 72992 8197/
                   333 58000 81933 82835 87360=
200911100600 AAXX 10064 67665 11560 62208 10232 20224 48511 69924 70522 81532
                   333 10333 20210 59018 81620 83360 85080
                   555 00221 Q1017/5=
200911091200 AAXX 09124 67665 42880 63208 10324 20193 48498 84202
                   333 59014 85856 82080 Q1015.0=
200911090900 AAXX 09094 67665 42680 63408 10294 20200 48520 83202
                   333 59012 83840 85080=
200911090600 AAXX 09064 67665 31960 52602 10247 20210 48528 70522 80002
                   333 10292 20176 59003 85080=
200911081200 AAXX 08124 67665 41675 61309 10285 20197 48509 71792 86932
                   333 58022 81945 85848 83360 82080 Q1016.5=
200911080900 AAXX 08094 67665 41670 60303 10265 20191 48529 70522 83232
                   333 58015 83840 84360 83080=
200911080600 AAXX 08064 67665 11970 70601 10222 20201 48527 60084 70522 86032
                   333 10320 20165 58011 86360 84080=
200911080400 AAXX 08044 67665 42980 72202 10186 20186 48508 84032
                   333 58006 84360 85080=
200911080300 AAXX 08034 67665 42980 73202 10189 20189 48501 8707/
                   333 58011 87360=
200911080000 AAXX 08004 67665 42980 63304 10198 20198 48504 83032
                   333 58011 83360 83080=
200911072100 AAXX 07214 67665 41759 72505 10195 20195 48512 72192 8197/
                   333 59016 81948 87459=
200911071800 AAXX 07184 67665 41759 72405 10205 20205 48504 71796 8197/
                   333 58026 81945 87459=
200911071500 AAXX 07154 67665 41759 71804 10246 20218 48483 70562 8197/
                   333 58017 81950 87360=
200911070400 AAXX 07044 67665 41980 41603 101184 20184 48499 70500 83032
                   333 58005 83360 81080 Q1016.9=
200911062100 AAXX 06214 67665 42980 42904 10223 20192 48501 70500 83032
                   333 59019 83369 84080 Q1016.3=
200911061800 AAXX 06184 67665 42980 42603 10242 20192 48483 83032
                   333 10330 59017 83360 84080=
200911061200 AAXX 06124 67665 41759 50303 10315 20163 48489 70522 85232
                   333 59008 85850 81360 83080=
200911060900 AAXX 06094 67665 41659 60304 10288 20184 48514 70522
                   333 59001 81835 82360 86080 Q1017.2=
200911060600 AAXX 06064 67665 12980 71703 10228 20205 48511 69904 82032
                   333 10311 20182 59013 B82360 86080=
200911060400 AAXX 06044 67665 42980 62203 10192 20192 48495 84032
                   333 58011 84360 85080=
200911060300 AAXX 06034 67665 42980 32103 10187 20187 48497 83030
                   333 58001 83360=
200911051800 AAXX 05184 67665 41960 62207 10259 20172 48500 70522 84032
                   333 10330 58002 84360 84280=
200911051500 AAXX 05154 67665 41980 81405 10299 20141 48485 70522 83032
                   333 59005 83359 88280=
200911051200 AAXX 05124 67665 41770 63505 10306 20140 48496 70522 86202
                   333 59012 86850 83080=
200911050900 AAXX 05094 67665 41970 13306 10290 20146 48524 70500 80001
                   333 59005 81080 Q1018.2=
200911050600 AAXX 05064 67665 31970 30602 10231 20134 48525 70500 81031
                   333 10326 20160 59011 81360 83080=
200911041800 AAXX 04184 67665 41970 21004 10249 20145 48498 70500 80002
                   333 10326 59010 82080=
200911041500 AAXX 04154 67665 41870 31007 10312 20139 48491 70500 83230
                   333 59006 83857 81360=
200911041200 AAXX 04124 67665 42780 40407 10315 20154 48508 84202
                   333 59006 84850 81080=
200911040900 AAXX 0409/ 67665 42680 10312 10299 20162 48530 81100
                   333 59007 81340=
200911040600 AAXX 04064 67665 32980 00610 10236 20157 48537
                   333 10331 20165 58000=
200911040400 AAXX 04044 67665 41970 10904 10185 20153 48509 70500 80001
                   333 58001 81080=
200911031800 AAXX 03184 67665 42980 00905 10241 20135 48507
                   333 10331 59003=
200911031500 AAXX 03154 67665 42980 10709 10312 20150 48497 81030
                   333 58002 81359=
200911031200 AAXX 03124 67665 42780 50608 10312 20159 48514 85201
                   333 58007 85856 81080=
200911030600 AAXX 03064 67665 32980 20610 10252 20158 48539 80001
                   333 10320 20185 58006 82080=
200911021200 AAXX 02124 67665 42780 50607 10305 20151 48507 84132
                   333 59013 84850 82360 82080=
200911020900 AAXX 02094 67665 41670 40608 10270 20164 48531 70522 81132
                   333 59010 81848 83360 84080=
200911020600 AAXX 02064 67665 31970 30610 10222 20169 48529 70500 81031
                   333 10315 20180 59016 81362 83080=
200911020400 AAXX 02044 67665 42980 40905 10171 20155 48504 70300 81031
                   333 59024 81360 83080=
200911020300 AAXX 02034 67665 42980 41005 10168 20159 48496 70300 83031
                   333 59019 83360 82080=
200911020000 AAXX 02004 67665 42980 10804 10179 20172 48501 80001
                   333 59015 81080=
200911011500 AAXX 01154 67665 42970 30607 10294 20155 48504 81031
                   333 59005 81360 82080=
200911011200 AAXX 01124 67665 42770 40607 10295 20156 48519 83101
                   333 58001 83850 82080=
200911010900 AAXX 01094 67665 42660 30708 10271 20155 48541 70510 81101
                   333 59003 81842 83079=
200911010600 AAXX 01064 67665 32970 61011 10233 20154 48545 85001
                   333 10327 20169 58004 86078=

################################################################################
#  SYNOPS from 67666, Lusaka City Airport (Zambia) | 15-25S | 028-19E | 1280 m
################################################################################
200912010600 AAXX 01064 67666 32980 70703 10230 20185 48511 8703/
                   333 10298 20175 59013 87359=
200911300900 AAXX 30094 67666 42580 40904 10265 20266 48517 84200
                   333 59015 84830 Q1019.1=
200911300600 AAXX 30064 67666 121980 31302 10232 1082 48524 60054 80001
                   333 10280 20173 59014 83080=
200911271200 AAXX 27124 67666 42680 43006 10279 20216 48507 83208
                   333 5//// 83838 86080=
200911270600 AAXX 27064 67666 32980 70903 10235 20190 48532 82038
                   333 10382 20160 59004 82360 87280=
200911240900 AAXX 24094 67666 42580 89010 10215 20193 48552 887//
                   333 59006 88622 Q1022.6=
200911201200 AAXX 20124 67666 42680 60702 10250 20120 48503 86230
                   333 58005 86832 83360=
200911180900 AAXX 18094 67666 42580 60907 10197 20154 48543 86830
                   333 58015 85622 84624 84636=
200911180600 AAXX 18064 67666 12480 61016 10185 20193 48547 60024 86500
                   333 10316 20165 58022 86610=
200911170600 AAXX 17064 67666 12480 70910 10215 20163 48529 60044 82530
                   333 10270 20175 58007 82612 87360=
200911160600 AAXX 16064 67666 11375 81403 10186 20176 48519 60194 76662 887//
                   333 10303 20170 58010 88709=
200911121200 AAXX 12124 67666 42980 70703 10245 20163 48488 8707/
                   333 58029 87360 87460=
200911120600 AAXX 12064 67666 11972 80000 10170/ 20163 48523 60184 76166 8807/
                   333 10138 20159 58013 88453=
200911111200 AAXX 11124 67666 42780 52002 10310 20160 48465 85200
                   333 59024 85845=
200911110900 AAXX 11094 67666 42580 52003 10281 20165 484888 81131
                   333 59030 81830 84360 81080 Q1014.4=
200911100600 AAXX 10064 67666 12480 70908 10115 20183 48504 60034 8327/
                   333 10318 20199 79012 83818 87457
                   555 00/// 20000 Q1017/2=
200911091200 AAXX 09124 67666 42680 51104 10305 20166 48489 85202
                   333 59014 85838 82080=
200911090900 AAXX 09091 67666 41580 53307 10268 20169 48511 85202
                   333 59011 85828 82080=
200911090600 AAXX 09064 67666 11978 40904 10232 20176 48519 60054 70500 80002
                   333 10285 20170 59005 84077=
200911061200 AAXX 06124 67666 42680 40604 10314 20234 48478 84200
                   333 59012 84845=
200911051200 AAXX 05124 67666 42680 73001 10300 20223 48489 85208
                   333 59010 83836 86280=
200911050900 AAXX 05094 67666 42980 70508 10285 20214 48516 82038
                   333 59007 82360 87280 Q1017.6=
200911050600 AAXX 05064 67666 31975 60803 10227 20179 48520 70500 81038
                   333 10315 20195 59007 81360 86280 Q1018.6=
200911040600 AAXX 04064 67666 31975 00914 10232 20192 48525 70500
                   333 10317 20189 59003=
200911031200 AAXX 03121 67666 42680 60805 10301 20230 48506 85200
                   333 58008 81945 85845=
200911021200 AAXX 02124 67666 42680 60903 10292 20227 48497 85131
                   333 59011 85840 82360 81080=

################################################################################
#  SYNOPS from 67667, Mount Makulu (Zambia) | 15-33S | 028-15E | 1213 m
################################################################################
200911270600 AAXX 27064 67667 32980 70302 10194 20170 48/// 80008
                   333 10290 20134 5//// 87280=
200911180600 AAXX 18064 67667 11980 70906 10200 20152 48/// 69904 86508
                   333 10267 20176 5//// 86620 87283=
200911160600 AAXX 16064 67667 11980 80907 10200 20185 48/// 60244 86508
                   333 10295 20170 5//// 86620 88283=

################################################################################
#  SYNOPS from 67673, Petauke (Zambia) | 14-15S | 031-17E | 1035 m
################################################################################
200911271200 AAXX 27124 67673 42780 41607 10299 20155 48518 71722 86232
                   333 59009 81945 83845 82360 83080=
200911270600 AAXX 27064 67673 32580 63603 10245 20174 48547 81131
                   333 10316 20213 59009 81830 86360 82080=
200911180900 AAXX 18094 67673 41975 80910 10219 20149 48557 70522 885//
                   333 58032 88630=
200911180600 AAXX 18064 67673 31575 70105 10195 20152 48558 70522 87530
                   333 10216 20185 58026 87622 82360=
200911160600 AAXX 16064 67673 11980 72204 10254 20160 48521 69904 87070
                   333 10354 20195 58000 87362=
200911111200 AAXX 11124 67673 41675 50502 10308 20172 48492 70522 84132
                   333 59007 84840 81360 82080=
200911110900 AAXX 11094 67673 41675 50105 10269 20195 48507 70522 83131
                   333 58000 83835 82360 81080=
200911100600 AAXX 10064 67673 11975 60203 10264 20176 48038 48517 60034 70522
                   333 10252 20208 59011 85280
                   555 00///=
200911060600 AAXX 06064 67673 31975 60302 10262 20188 10351 20112 48512 58012 70522 83031=
200911051200 AAXX 05124 67673 41670 60503 10334 20108 48505 70522 86200
                   333 5//// 86845=

################################################################################
#  SYNOPS from 67731, Senanga (Zambia) | 16-06S | 023-16E | 1027 m
################################################################################
200911270600 AAXX 27064 67731 12980 70901 10221 20189 48/// 69924 80008
                   333 10341 20176 5//// 86080=
200911180600 AAXX 18064 67731 12480 63002 10200 20217 48/// 60174 84530
                   333 10239 20/// 5//// 84615 85360=
200911160600 AAXX 16064 67731 12480 63201 10231 20184 48/// 60014 84530
                   333 10251 20188 5//// 84610 86360=

################################################################################
#  SYNOPS from 67741, Sesheke (Zambia) | 17-28S | 024-18E | 949 m
################################################################################
200911160600 AAXX 16064 67741 NIL=

################################################################################
#  SYNOPS from 67743, Livingstone (Zambia) | 17-49S | 025-49E | 985 m
################################################################################
200912010600 AAXX 01064 67743 32480 80807 10246 20193 48510 8167/
                   333 10330 20/// 59014 81614 88360=
200911270900 AAXX 27094 67743 42980 40607 10310 20138 48535 82031
                   333 59010 82360 83080=
200911270600 AAXX 27064 67743 32980 51102 10228 20154 48528 82031
                   333 10322 20111 59014 82360 83080=
200911231200 AAXX 23124 67743 41356 80307 10200 20200 48538 79299 8677/
                   333 58022 82930 86706 88459=
200911230600 AAXX 23064 67743 32480 81007 10219 20195 48549 83531
                   333 10290 20170 58000 83610 87360=
200911170600 AAXX 17064 67743 32980 70905 10225 20179 48534 87030
                   333 10310 20170 58016 87360=
200911160900 AAXX 16094 67743 42680 60808 10250 20182 48522 82130
                   333 58020 82830=
200911160600 AAXX 16064 67743 32980 60806 10230 20184 48518 86030
                   333 58018 86360=
200911131500 AAXX 13154 67743 42780 53606 10320 20146 48473 82230
                   333 59018 82856 83364=
200911130600 AAXX 13064 67743 12980 30904 10255 20180 48505 60014 83030
                   333 10346 20180 59004 83360=
200911120600 AAXX 1206/ 67743 32780 63306 10255 20187 48504 81130
                   333 10350 20195 58014 81806 85360=
200911110900 AAXX 11094 67743 43680 43110 10300 20156 48485 82101
                   333 59015 82830 84080 Q1013.6=
200911110600 AAXX 11064 67743 32980 72206 10232 20184 48484 80001
                   333 10300 20150 5//// 87080=
200911100600 AAXX 10064 67743 31475 83404 10195 20182 48511 60304 79592 8397/
                   333 10360 20140 59008 87760
                   555 00185 Q1015/6=
200911061200 AAXX 06124 67743 42980 62405 10270 20179 48491 82272
                   333 59009 82858 83364 82080=
200911060600 AAXX 06064 67743 32980 73007 10225 20197 48555 87070
                   333 10280 20190 59010 87360=
200911051500 AAXX 05154 67743 42980 63503 10265 20168 48484 86070
                   333 58010 86360=
200911051200 AAXX 05124 67743 42980 81006 10260 20183 48497 86070
                   333 58006 88360=
200911050900 AAXX 05094 67743 42480 81104 10213 20191 48579 8357/
                   333 58018 88359 Q1018.1=
200911050600 AAXX 05064 67743 11356 81306 10195 20195 48510 60094 76266 85771
                   333 10345 20175 58000 85603 88459=
200911041200 AAXX 04124 67743 41775 61412 10310 20146 48499 71792 82930
                   333 59008 82957 84856 84360=
200911040900 AAXX 0409/ 67743 41675 10506 10320 20168 48524 70500 81100
                   333 59015 81845=
200911031200 AAXX 03124 67743 42775 60807 10337 20150 48514 70222 83202
                   333 58002 83858 83080=
200911030600 AAXX 03064 67743 31975 83405 10246 20176 48532 70522 82032
                   333 10335 20189 58005 82364 85080=
200911021200 AAXX 02124 67743 42670 53503 10315 20156 48504 83101
                   333 59010 83845 84080=

################################################################################
#  SYNOPS from 67751, Magoye (Zambia) | 16-00S | 027-36E | 1018 m
################################################################################
200911160600 AAXX 16064 67751 NIL=

################################################################################
#  SYNOPS from 67753, Choma (Zambia) | 16-50S | 027-04E | 1213 m
################################################################################
200911301200 AAXX 30124 67753 41680 73607 10274 20191 48/// 71722 85230
                   333 5//// 81945 85845 84360=
200911270600 AAXX 27064 67753 32980 70905 10231 20157 48/// 80008
                   333 10290 20139 5//// 87280=
200911231200 AAXX 23124 67753 41682 60906 10275 20186 48515 71799 85232
                   333 58000 81940 85850 83361 82080=
200911230600 AAXX 23064 67753 12380 83605 10198 20179 48/// 60134 8777/
                   333 10239 20171 5//// 87708 88459=
200911201200 AAXX 20124 67753 41304 82706 10201 20192 48/// 76162 8777/
                   333 5//// 87709 88459=
200911200900 AAXX 20094 67753 41360 73508 10209 20192 48/// 8577/
                   333 5//// 85709 87459=
200911180600 AAXX 18064 67753 11304 80908 10162 20159 48/// 60114 76162 877//
                   333 10262 20154 5//// 87708 88459=
200911170600 AAXX 17064 67753 12980 70905 10209 20178 48/// 69954 8707/
                   333 10244 20186 5//// 87459=
200911160600 AAXX 16064 67753 NIL=
200911130600 AAXX 13064 67753 32980 73610 10244 20171 48/// 80008
                   333 10283 20167 5//// 87280=
200911120600 AAXX 1206/ 67753 32480 73615 10207 20167 48/// 82508
                   333 10307 20183 5//// 82614 87280=
200911111200 AAXX 11124 67753 42680 72725 10299 20180 48/// 85208
                   333 5//// 85850 87280=
200911110600 AAXX 11064 67753 13380 73612 10214 20191 48/// 69564 83508
                   333 10266 20161 5//// 83615 87280=
200911060600 AAXX 06064 67753 NIL=
200911050600 AAXX 05064 67753 NIL=
200911030600 AAXX 03064 67753 NIL=

################################################################################
#  SYNOPS from 67855, Lupaki (Zambia) | 17-03-00S | 024-46-00E | 1000 m
################################################################################
200912010600 AAXX 01064 67855 NIL=
200911301200 AAXX 30124 67855 NIL=
200911291200 AAXX 29124 67855 NIL=
200911281200 AAXX 28124 67855 NIL=
200911280600 AAXX 28064 67855 32980 60901 10224 20139 3//// 48/// 80002
                   333 20160 5//// 86080=
200911271200 AAXX 27124 67855 42880 71302 10326 20083 3//// 48/// 81102
                   333 5//// 81857 87080=
200911270600 AAXX 27064 67855 32980 70000 10234 20146 3//// 48/// 80002
                   333 20140 5//// 87080=
200911261200 AAXX 26124 67855 NIL=
200911260600 AAXX 26064 67855 32980 31501 10212 20135 3//// 48/// 80001
                   333 20130 5//// 83080=
200911251200 AAXX 25124 67855 NIL=
200911250600 AAXX 25064 67855 32980 11502 10208 20125 3//// 48/// 80002
                   333 20140 5//// 81080=
200911230600 AAXX 23064 67855 NIL=
200911221200 AAXX 22124 67855 NIL=
200911220600 AAXX 22064 67855 NIL=
200911211200 AAXX 21124 67855 NIL=
200911200600 AAXX 20064 67855 11370 80101 10198 20188 3//// 48/// 60304 71596 8777/
                   333 20185 5//// 87706 88460=
200911181200 AAXX 18124 67855 NIL=
200911180600 AAXX 18064 67855 32980 50904 10208 20131 3//// 48/// 85030
                   333 20163 5//// 85360=
200911171200 AAXX 17124 67855 42780 71004 10286 20166 3//// 48/// 8713/
                   333 5//// 87850=
200911170600 AAXX 17064 67855 32480 70906 10216 20164 3//// 48/// 875//
                   333 20165 5//// 87615=
200911161200 AAXX 16124 67855 42680 70301 10286 20175 3//// 48/// 81232
                   333 5//// 81840 83360 87080=
200911160600 AAXX 16064 67855 11980 70000 10226 20190 3//// 48/// 60064 70262 8707/
                   333 20195 5//// 87460=
200911141200 AAXX 14124 67855 NIL=
200911130600 AAXX 13064 67855 12980 70000 10250 20192 3//// 48/// 69904 83032
                   333 20180 5//// 83360 87080=
200911120600 AAXX 12064 67855 NIL=
200911111200 AAXX 11124 67855 NIL=
200911101200 AAXX 10124 67855 NIL=
200911100600 AAXX 10064 67855 32980 82501 10244 20179 3//// 48/// 87082
                   333 20210 5//// 87360=
200911091200 AAXX 09124 67855 NIL=
200911090600 AAXX 09064 67855 12980 10000 10248 20171 3//// 48/// 69904 81032
                   333 20160 5//// 81360=
200911081200 AAXX 08124 67855 NIL=
200911080600 AAXX 08064 67855 NIL=
200911071200 AAXX 07124 67855 NIL=
200911070600 AAXX 07064 67855 NIL=
200911061200 AAXX 06124 67855 NIL=
200911040600 AAXX 04064 67855 32980 00603 10242 20142 3//// 48///
                   333 20172 5////=
200911030600 AAXX 03064 67855 32980 70801 10268 20127 3//// 48/// 81032
                   333 20189 5//// 81360 87080=
