################################################################################
# Query made at 04/14/2022 16:34:55 UTC
# Country like Zamb*
# Time interval: from 06/01/2012 05:30  to 07/01/2012 05:30  UTC
################################################################################

################################################################################
#  SYNOPS from 67403, Kawambwa (Zambia) | 09-48S | 029-05E | 1323 m
################################################################################
201206250600 AAXX 25064 67403 32980 00000 10176 20101 48558
                   333 10284 20/// 58001=
201206200600 AAXX 20064 67403 32980 11005 10156 20113 48567 80001
                   333 10263 20//0 58001 81080=
201206190600 AAXX 19064 67403 32980 00000 10148 20103 48566
                   333 10290 20/// 58002=
201206140600 AAXX 14064 67403 32980 00901 10145 20080 48566
                   333 10266 20/// 59002=
201206060600 AAXX 06064 67403 32980 01002 10107 20107 48554 70267 20113 59005=

################################################################################
#  SYNOPS from 67413, Mbala (Zambia) | 08-51S | 031-20E | 1673 m
################################################################################
201206140600 AAXX 14064 67413 31380 21409 10135 20099 48548 70500 81801
                   333 10250 20/// 58002 81608 81077=
201206071200 AAXX 07124 67413 10705 10250 20094 48526 81100
                   333 59001 81818 91023=
201206070600 AAXX 07064 67413 31975 00307 10140 20105 48551 70500
                   333 10250 20/// 58003=
201206060600 AAXX 06064 67413 31980 01607 10140 20095 48564 70500
                   333 10240 20//0 59011=

################################################################################
#  SYNOPS from 67441, Mwinilunga (Zambia) | 11-45S | 024-26E | 1361 m
################################################################################
201206280600 AAXX 28064 67441 31965 00000 10148 20116 48577 70500
                   333 10275 20//0 59009=
201206270900 AAXX 27094 67441 41670 10913 10248 20098 48592 70500 81100
                   333 58002 81835=
201206270600 AAXX 27064 67441 31960 00000 10110 20077 48586 70500
                   333 10280 20//0 58010=
201206260600 AAXX 26064 67441 31960 20000 10084 20077 48576 70500 81034
                   333 10295 20//0 58021 81360 82080=
201206250600 AAXX 25064 67441 31960 00000 10106 20074 48555 70500
                   333 10280 20/// 59010=
201206210600 AAXX 21064 67441 31965 00000 10125 20088 48566 70500
                   333 10282 20/// 59012=
201206200600 AAXX 20064 67441 31965 00000 10120 20081 48578 70500
                   333 10275 20/// 59007=
201206190600 AAXX 19064 67441 31965 00000 10145 20096 48585 70500
                   333 10287 20//0 58010=
201206150600 AAXX 15064 67441 31965 10000 10098 20068 48573 70500 80001
                   333 10250 20/// 58005 81080=
201206140600 AAXX 14064 67441 31965 00000 10095 20058 48568 70500
                   333 10270 20/// 58003=
201206130600 AAXX 13064 67441 31965 00000 10100 20060 48565 70500
                   333 10262 20/// 59014=
201206060600 AAXX 06064 67441 31980 00000 10105 20087 48579 70500
                   333 10255 20//0 59002=
201206010900 AAXX 01094 67441 42682 10000 10238 20115 48597 81100
                   333 58002 81830=
201206010600 AAXX 01064 67441 32980 00000 10155 20110 48588
                   333 10278 20//0 59001=

################################################################################
#  SYNOPS from 67461, Mansa (Zambia) | 11-06S | 028-51E | 1382 m
################################################################################
201206280600 AAXX 28064 67461 31975 11507 10167 20136 48539 70500 80001
                   333 10279 20111 58005 81080=
201206250600 AAXX 25064 67461 31975 01101 10170 20124 48514 70500
                   333 10291 20082 59006=
201206221200 AAXX 22124 67461 42680 30804 10251 20120 48540 83200
                   333 58013 83832=
201206210600 AAXX 21064 67461 NIL=
201206200600 AAXX 20064 67461 32980 21105 10152 20137 48539 80001
                   333 10251 20092 59012 82080=
201206190600 AAXX 19064 67461 32980 40806 10148 20106 48563 80001
                   333 10277 20078 58015 84080=
201206150600 AAXX 15064 67461 32580 10805 10124 20106 48546 81501
                   333 10243 20070 58007 81627 81080=
201206140600 AAXX 14064 67461 32980 20000 10125 20090 48539 80001
                   333 10245 20068 59003 82080=
201206131200 AAXX 13124 67461 42580 31605 10235 20107 48518 81102
                   333 59009 81830 83080 91019=
201206130600 AAXX 13064 67461 32980 61503 10130 20098 48527 80008
                   333 10236 20074 59004 86280=
201206101200 AAXX 10124 67461 41970 50703 10281 20061 48532 70522 80008
                   333 58000 85280=
201206070600 AAXX 07064 67461 32980 30903 10140 20105 48541 80001
                   333 10262 20074 59007 83080=
201206060600 AAXX 06064 67461 32980 20903 10130 20//0 48547 80001
                   333 10235 20070 59004 82080=
201206010900 AAXX 01094 67461 42580 31513 10236 20139 48556 83201
                   333 58007 83824 82080=
201206010600 AAXX 01064 67461 32480 21106 10164 20139 48548 81501
                   333 10272 20104 58004 81619 82080=

################################################################################
#  SYNOPS from 67469, Samfya (Zambia) | 11-22S | 029-54E | 1171 m
################################################################################
201206140600 AAXX 14064 67469 32980 11205 10158 20/// 48/// 80001
                   333 10209 20114 5//// 81080=
201206010600 AAXX 01064 67469 32480 11212 10198 20/// 48/// 81100
                   333 10250 20150 5//// 81812=

################################################################################
#  SYNOPS from 67475, Kasama (Zambia) | 10-13S | 031-08E | 1382 m
################################################################################
201206281200 AAXX 28124 67475 41970 21206 10258 20080 48540 70500 80001
                   333 58008 82080=
201206250600 AAXX 25064 67475 31970 03602 10201 20130 48535 70500
                   333 10282 20116 59005=
201206210600 AAXX 21064 67475 31970 00302 10161 20106 48547 70500
                   333 10260 20102 59012=
201206200600 AAXX 20064 67475 31970 51203 10170 20111 48559 70522 81031
                   333 10252 20130 59010 81360 85080=
201206190600 AAXX 19064 67475 31975 11212 10170 20138 48569 70500 81100
                   333 10262 20105 58010 81830=
201206150600 AAXX 15064 67475 31470 10145 20102 48559 70500 81100
                   333 10240 20108 58013 81815=
201206140600 AAXX 14064 67475 31970 01403 10145 20089 48547 70500
                   333 10250 20086 59003=
201206130600 AAXX 13064 67475 31970 41212 10158 20095 48545 70522 80002
                   333 10232 20074 59013 84080=
201206070600 AAXX 07064 67475 31970 00903 10163 20104 48545 70500
                   333 10268 20080 59008=
201206060600 AAXX 06064 67475 31970 00903 10155 20105 48552 70500
                   333 10242 20077 59014=
201206041200 AAXX 04124 67475 41970 71208 10224 20077 48544 70522 80002
                   333 5//// 87080=
201206010600 AAXX 01064 67475 31470 31205 10182 20137 48566 70500 83100
                   333 10261 20140 59003 83815=

################################################################################
#  SYNOPS from 67477, Mpika (Zambia) | 11-54S | 031-26E | 1400 m
################################################################################
201206250600 AAXX 25064 67477 31980 00904 10190 20112 48531
                   333 10273 20108 59005=
201206211200 AAXX 21124 67477 42780 40908 10220 20073 48535 84100
                   333 59011 84850=
201206210600 AAXX 21064 67477 32580 10801 10160 20101 48558 81130
                   333 10229 20052 59007 81822 81361=
201206200600 AAXX 20064 67477 32480 31208 10180 20113 48566 83101
                   333 10230 20070 59010 83814 81080=
201206190600 AAXX 19064 67477 32580 11108 10170 20107 48575 81100
                   333 10239 20084 58008 81820=
201206140900 AAXX 14094 67477 42580 51109 10181 20073 48562 85100
                   333 58011 85828=
201206140600 AAXX 14064 67477 31475 51408 10145 20088 48558 70521 85100
                   333 10210 20060 58008 85815=
201206130600 AAXX 13064 67477 32980 10906 10141 20082 48552 80001
                   333 10200 20070 59017 81075=
201206010600 AAXX 01064 67477 31475 11213 10175 20110 48568 70500 81100
                   333 10239 20120 59003 81816=

################################################################################
#  SYNOPS from 67481, Isoka (Zambia) | 10-07S | 032-38E | 1360 m
################################################################################
201206200600 AAXX 20064 67481 32580 10904 10181 20116 48/// 81100
                   333 10255 20114 5//// 81821=
201206060600 AAXX 06064 67481 32980 00904 10155 20109 48///
                   333 10240 20076 5////=

################################################################################
#  SYNOPS from 67531, Zambezi (Zambia) | 13-32S | 023-07E | 1077 m
################################################################################
201206281200 AAXX 28124 67531 41770 11506 10280 20120 48/// 70500 81100
                   333 59018 81856=
201206280600 AAXX 28064 67531 31975 01204 10150 20108 48/// 70500
                   333 10295 20107 59008=
201206271200 AAXX 27124 67531 41975 01507 10285 20098 48/// 70500
                   333 58005=
201206270900 AAXX 27094 67531 41975 01075 10235 20114 48/// 70500
                   333 58010=
201206260600 AAXX 26064 67531 31975 01301 10151 20097 48/// 70500
                   333 10306 20090 5////=
201206210600 AAXX 21064 67531 31978 01004 10147 20108 48/// 70500
                   333 10281 20064 59013=
201206201200 AAXX 20124 67531 41978 11303 10269 20108 48/// 70500 80001
                   333 59006 81082=
201206200600 AAXX 20064 67531 31978 01103 10147 20104 48/// 70500
                   333 10286 20110 59002=
201206190600 AAXX 19064 67531 31978 01009 10157 20106 48/// 70500
                   333 10294 20129 58004=
201206150600 AAXX 15064 67531 31978 01003 10115 20078 48/// 70500
                   333 10251 20059 58005=
201206140900 AAXX 14094 67531 41975 01207 10202 20085 48/// 70500
                   333 5////=
201206140600 AAXX 14064 67531 31975 01006 10111 20064 48/// 70500
                   333 10264 20034 58005=
201206131200 AAXX 13124 67531 41975 01004 10260 20084 48/// 70500
                   333 59012=
201206130600 AAXX 13064 67531 31975 01104 10100 20051 48/// 70500
                   333 10256 20042 59015=
201206081200 AAXX 08124 67531 41978 01502 10257 20074 48/// 70500
                   333 59005=
201206070600 AAXX 07064 67531 31970 10000 10095 20070 48/// 70500 80001
                   333 10250 20039 59017 81081=
201206060600 AAXX 06064 67531 31978 71102 10118 20095 48/// 70522 8703/
                   333 10250 20062 5//// 87360=
201206041200 AAXX 04124 67531 41975 01207 10245 20058 48/// 70500
                   333 5////=
201206010900 AAXX 01094 67531 41978 11308 10255 20130 48/// 70520 81030
                   333 59008 81361=
201206010600 AAXX 01064 67531 31978 71302 10156 20121 48/// 70522 8707/
                   333 10287 20132 59007 87360=

################################################################################
#  SYNOPS from 67541, Kasempa (Zambia) | 13-32S | 025-51E | 1234 m
################################################################################
201206280600 AAXX 28064 67541 32980 00000 10144 20121 48546
                   333 10//0 20082 58002=
201206271200 AAXX 27124 67541 42980 00000 10279 20111 48547
                   333 58003=
201206270600 AAXX 27064 67541 32980 00000 10121 48544
                   333 10//0 20069 58006=
201206260600 AAXX 26064 67541 32980 00000 10101 20088 48583
                   333 10//0 20062 58021=
201206250600 AAXX 25064 67541 32980 00000 10118 20101 48517
                   333 10/// 20059 59035=
201206210600 AAXX 21064 67541 32980 00000 10149 20121 48543
                   333 10/// 20080 59003=
201206201200 AAXX 20124 67541 42980 10262 20119 48531
                   333 59017=
201206200600 AAXX 20064 67541 32980 00000 10148 20109 48546
                   333 10/// 20055 59014=
201206150600 AAXX 15064 67541 32980 00000 10139 20099 48550
                   333 10/// 20074 58008=
201206140600 AAXX 14064 67541 32980 00000 10129 20086 48542
                   333 10/// 20079 58004=
201206070600 AAXX 07064 67541 32980 40000 10095 20091 48534 84030
                   333 10050 59017 85358=
201206010600 AAXX 01064 67541 32980 10000 10184 20119 48558 81030
                   333 10//0 20120 59004 81360=

################################################################################
#  SYNOPS from 67551, Solwezi (Zambia) | 12-11S | 026-23E | 1386 m
################################################################################
201206250600 AAXX 25064 67551 31975 00000 10140 20082 48534 70500
                   333 10253 20075 59015=
201206190600 AAXX 19064 67551 31965 00905 10134 20092 48560 70500
                   333 10261 20119 58012=
201206140600 AAXX 14064 67551 31965 01105 10114 20059 48540 70500
                   333 10242 20076 59004=
201206060600 AAXX 06064 67551 31960 00904 10087 20079 48550 70500
                   333 10241 20047 59004=
201206010600 AAXX 01064 67551 31970 01207 10153 20116 48558 70500
                   333 10250 20108 58000=

################################################################################
#  SYNOPS from 67561, Ndola (Zambia) | 13-00S | 028-39E | 1269 m
################################################################################
201206281200 AAXX 28124 67561 42680 49902 10272 20106 48543 84100
                   333 59006 84850=
201206280600 AAXX 28064 67561 32980 00000 10168 20135 48560
                   333 10279 20125 59001=
201206271500 AAXX 27154 67561 41775 51207 10251 20113 48547 70522 86400
                   333 58004 86656=
201206271200 AAXX 27124 67561 42780 51208 10276 20109 48550 85200
                   333 58006 85850=
201206250600 AAXX 25064 67561 31960 00000 10128 20085 48526 70500
                   333 10283 20074 59004=
201206221200 AAXX 22124 67561 42680 20507 10261 20095 48539 82100
                   333 58003 82850=
201206211500 AAXX 21154 67561 42980 20708 10237 20079 48528 82060
                   333 59008 82360=
201206211200 AAXX 21124 67561 42780 50850 10247 20090 48534 85200
                   333 59012 85850=
201206210600 AAXX 21064 67561 32975 00704 10140 20114 48543 70500
                   333 10261 20094 59012=
201206201500 AAXX 20154 67561 42880 40805 10242 20092 48537 84400
                   333 59022 84657 555 10261=
201206201200 AAXX 20124 67561 42680 50905 10250 20096 48546 85100
                   333 59018 85845 91022=
201206200600 AAXX 20064 67561 31975 00704 10138 20112 48550 70500
                   333 10252 20138 59020=
201206190600 AAXX 19064 67561 31970 00704 10146 20098 48574 70500
                   333 10276 20094 58022=
201206160600 AAXX 16064 67561 31965 00803 10125 20107 48547 70500
                   333 10242 20084 59010
                   555 00/// 91023=
201206150600 AAXX 15064 67561 31970 09902 10126 20093 48556 70500
                   333 10233 20076 58007=
201206140900 AAXX 14094 67561 41675 30610 10202 20067 48561 70500
                   333 58009 83830=
201206140600 AAXX 14064 67561 32980 00805 10125 20075 48549 70500
                   333 10246 20067 58005=
201206131200 AAXX 13124 67561 41975 01405 10236 20073 48530 70500
                   333 59011 91020=
201206130900 AAXX 13094 67561 41975 10806 10204 20070 48552 70500 80002
                   333 59017 81080=
201206130600 AAXX 13064 67561 31958 29902 10106 20074 48543 70400 80002
                   333 10237 20061 59014 82080=
201206111200 AAXX 11124 67561 41975 01209 10253 20044 48551 70500
                   333 58015=
201206101200 AAXX 10124 67561 41965 11808 10266 20026 48537 70500 80002
                   333 58010 81080=
201206100900 AAXX 1009/ 67561 41960 02405 10242 20042 48561 70500
                   333 58013=
201206091200 AAXX 09124 67561 41960 03005 10263 20063 48526 70500
                   333 58010=
201206070600 AAXX 07064 67561 31957 40000 10114 20097 48554 70422 84030
                   333 10247 20079 59006 84361=
201206070500 AAXX 07054 67561 31975 00000 10122 20099 48542 90500
                   333 10237 20074 59005
                   555 00/// BB095 CC074 DD019 91023=
201206060600 AAXX 06064 67561 31965 00604 10120 20094 48548 70500
                   333 10243 20066 59015=
201206060000 AAXX 06004 67561 41970 00000 10120 20093 48540 70500
                   333 59010=
201206051200 AAXX 05124 67561 42680 60610 10231 20088 48549 86200
                   333 59015 86840=
201206041200 AAXX 04124 67561 42680 51009 10222 20068 48562 85200
                   333 58002 85850=
201206031500 AAXX 03154 67561 42780 61306 10196 20061 48558 86200
                   333 58012 86256=
201206030600 AAXX 03064 67561 31975 11112 10165 20098 48575 70500 80001
                   333 10257 20080 58010 81080=
201206011200 AAXX 01124 67561 42580 61104 10255 20104 48551 86200
                   333 59001 86845=
201206010900 AAXX 01094 67561 41960 00808 10228 20109 48577 70500
                   333 59005=
201206010600 AAXX 01064 67561 31960 01208 10173 20103 48565 70500
                   333 10273 20100 59005=

################################################################################
#  SYNOPS from 67563, Kafironda (Zambia) | 12-36S | 028-07E | 1243 m
################################################################################
201206270900 AAXX 27094 67563 41970 01204 10250 20130 48/// 70500
                   333 58019=
201206260600 AAXX 26064 67563 31960 11701 10114 20090 48/// 70500 80001
                   333 10294 20042 58020 81080=
201206250600 AAXX 25064 67563 31970 11001 10100 20080 48/// 70500 80001
                   333 10286 20037 59003 81080=
201206200600 AAXX 20064 67563 31965 00902 10167 20120 48/// 70500
                   333 10266 20041 59016=
201206190600 AAXX 19064 67563 31965 01202 10140 20100 48/// 70500
                   333 10278 20042 58002=
201206140600 AAXX 14064 67563 31970 00901 10125 20080 48/// 70500
                   333 10242 20076 59004=
201206070600 AAXX 07064 67563 31965 21202 10116 20090 48/// 70500 80002
                   333 10264 20040 59004 82080=
201206060600 AAXX 06064 67563 31/05 90000 10078 20078 48/// 74544 8////
                   333 10254 20039 59019=
201206010600 AAXX 01064 67563 31970 01601 10159 20130 48/// 70500
                   333 10284 20062 59003=

################################################################################
#  SYNOPS from 67571, Serenje (Zambia) | 13-14S | 030-13E | 1384 m
################################################################################
201206060600 AAXX 06064 67571 32982 00902 10163 20090 48549
                   333 10210 20104 59002=

################################################################################
#  SYNOPS from 67580, Msekera (Zambia) | 13-39S | 032-34E | 1025 m
################################################################################
201206280600 AAXX 28064 67580 31978 00903 10195 20137 48/// 70500
                   333 20//0 59005=
201206270900 AAXX 27094 67580 41675 61606 10251 20154 48/// 70521 86200
                   333 58016 86845=
201206260600 AAXX 26064 67580 31975 10206 10234 20156 48/// 70500
                   333 10312 20//0 58008=
201206250600 AAXX 25064 67580 31975 00000 10210 20154 48/// 70500
                   333 10300 20/// 59006=
201206200900 AAXX 20094 67580 41675 41009 10250 20115 48/// 70500 84100
                   333 5//// 84830=
201206200600 AAXX 20064 67580 31975 11203 10207 20129 48/// 70500 81030
                   333 10273 20//0 5//// 81362=
201206190600 AAXX 19064 67580 31480 21205 10192 20127 48/// 70511 81101
                   333 10278 20/// 5////=
201206140600 AAXX 14064 67580 31475 31106 10174 20122 48/// 70511 81130
                   333 10247 20/// 5//// 812815 82360=
201206131200 AAXX 13124 67580 41775 71504 10230 20060 48/// 70522 81108
                   333 5//// 81856 86280=
201206071200 AAXX 07124 67580 41775 10263 20070 48/// 70500 81102
                   333 59009 81856 82080=
201206070600 AAXX 07064 67580 31975 11204 10172 20101 48/// 70500 81030
                   333 10255 20/// 59012 81360=
201206060600 AAXX 06064 67580 32478 11405 10164 20109 48/// 81500
                   333 10239 20//0 59019 81615=
201206010600 AAXX 01064 67580 31475 41305 10189 20125 48/// 70500 81130
                   333 10286 20/// 59002 81813=

################################################################################
#  SYNOPS from 67581, Chipata (Zambia) | 13-33S | 032-35E | 1028 m
################################################################################
201206281200 AAXX 28124 67581 41670 21402 10278 20107 48572 70500 81130
                   333 59010 81840 81360=
201206271200 AAXX 27124 67581 41760 70905 10275 20127 48567 70522 87100
                   333 58006 87850=
201206250600 AAXX 25064 67581 31960 00908 10211 20147 48539 70500
                   333 10306 20106 58006=
201206221200 AAXX 22124 67581 41660 70605 10248 20121 48562 82130
                   333 59003 82850 87360=
201206211200 AAXX 21124 67581 41680 71806 10221 20120 48556 70522 82230
                   333 59006 82835 87360=
201206210600 AAXX 21064 67581 31960 00907 10196 20133 48562 70500
                   333 10279 20144 59011=
201206200600 AAXX 20064 67581 32980 20409 10210 20108 48575 82030
                   333 10255 20152 59015 82360=
201206190600 AAXX 19064 67581 31560 10904 10189 20123 48583 70500 81500
                   333 10277 20126 58004=
201206150600 AAXX 15064 67581 31560 71410 10166 20119 48576 70521 87500
                   333 10242 20134 58024 87620=
201206140900 AAXX 14094 67581 42680 41204 10236 20078 48570 84100
                   333 58010 84830=
201206140600 AAXX 14064 67581 32980 21204 10175 20110 48556 80002
                   333 10247 20115 58008 82080=
201206130600 AAXX 13064 67581 31960 21006 10174 20089 48564 70500 80002
                   333 10252 20116 58015 82080=
201206070600 AAXX 07064 67581 31960 00000 10162 20113 48569 70500
                   333 10252 20105 58006=
201206060600 AAXX 06064 67581 32980 01606 10176 20100 48566
                   333 10330 20110 59016=
201206041200 AAXX 04124 67581 41660 71012 10241 20081 48578 70522 87108
                   333 59002 87840 85280=
201206030600 AAXX 03064 67581 32980 01418 10181 20100 48558
                   333 10272 20144 58000=
201206010600 AAXX 01064 67581 32680 11408 10182 20122 48584 81130
                   333 10280 20145 59001 81830 81360=

################################################################################
#  SYNOPS from 67583, Lundazi (Zambia) | 12-17S | 033-12E | 1143 m
################################################################################
201206250600 AAXX 25064 67583 32980 01801 10160 20125 48///
                   333 10300 20093 5////=
201206190600 AAXX 19064 67583 32580 32102 10149 20125 48/// 83530
                   333 10275 20080 5//// 83620 81360=
201206140600 AAXX 14064 67583 32580 51505 10170 20119 48/// 81531
                   333 10250 20075 5//// 81625 85360 81080=
201206060600 AAXX 06064 67583 32980 01103 10150 20122 48//
                   333 10250 20070 5////=
201206010600 AAXX 01064 67583 32580 31705 10188 20142 48/// 83530
                   333 10260 20136 5//// 83625 81360=

################################################################################
#  SYNOPS from 67599, Mfuwe (Zambia) | 13-16S | 031-56E | 568 m
################################################################################
201206201500 AAXX 20154 67599 42680 70000 10261 20169 48569 86230
                   333 59019 86840 83360=
201206201200 AAXX 20124 67599 42680 70000 10280 20157 48584 84230
                   333 59017 84845 85359 91021=
201206200900 AAXX 20094 67599 42580 42007 10276 20152 48619 74199
                   333 58923 74727=
201206200600 AAXX 20064 67599 32980 60000 10171 20136 48580 86030
                   333 10307 20112 59014 86360=
201206190600 AAXX 19064 67599 32980 32005 10169 20119 48588 82031
                   333 10319 20114 58013 82360 82080=
201206140900 AAXX 14094 67599 42580 32004 10257 20139 48616 83230
                   333 58007 83825 82360=
201206140600 AAXX 14064 67599 32980 30000 10156 20110 48567 83030
                   333 10296 20074 58002 83360=
201206100600 AAXX 10064 67599 31960 02004 10174 20117 48554 70500
                   333 10325 20116 58016
                   555 00102 91022=
201206091200 AAXX 09124 67599 11960 00000 10314 20148 48552 70500
                   333 59003=
201206071500 AAXX 07154 67599 42980 00000 10268 20141 48550
                   333 59007 555 10303 91018=
201206071200 AAXX 07124 67599 42980 00000 10287 20131 48570
                   333 59002 91019=
201206070600 AAXX 07064 67599 32980 00000 10160 20116 48557
                   333 10283 20090 59011=
201206060900 AAXX 0609/ 67599 12580 10501 10133 48600 70300
                   333 59011 81823=
201206060600 AAXX 06064 67599 32980 00000 10152 20128 48567
                   333 10282 20087 59018
                   555 00076 91024=
201206011500 AAXX 01154 67599 42780 11904 10277 20145 48585 70100 81230
                   333 59009 81856 81360
                   555 10320=
201206011200 AAXX 01124 67599 42780 11904 10277 20145 48585 70100 81230
                   333 59009 81856 81360
                   555 10320 Q1021.8=
201206010900 AAXX 01094 67599 42580 42003 10265 20157 48613 81230
                   333 58000 81825 84360=
201206010600 AAXX 01064 67599 32980 51804 10204 20144 48595 85030
                   333 10325 20116 58002 85360=

################################################################################
#  SYNOPS from 67625, Kalabo (Zambia) | 14-51S | 022-42E | 1033 m
################################################################################
201206250600 AAXX 25064 67625 31975 11012 10152 20101 48/// 70500 81030
                   333 10296 20104 58006 81360=
201206190600 AAXX 19064 67625 31975 01105 10148 20098 48/// 70500
                   333 10278 20085 58006=
201206140600 AAXX 14064 67625 31975 01105 10132 20084 48/// 70500
                   333 10287 20070 58005=
201206060600 AAXX 06064 67625 31975 61008 10168 20105 48/// 70500 86030
                   333 10278 20081 58003 86360=
201206010600 AAXX 01064 67625 32982 61210 10194 20108 48/// 86030
                   333 10300 20102 5//// 86360=

################################################################################
#  SYNOPS from 67633, Mongu (Zambia) | 15-15S | 023-09E | 1052 m
################################################################################
201206281200 AAXX 28124 67633 42680 11003 10295 20113 48544 81100
                   333 59024 81840=
201206250600 AAXX 25064 67633 32980 00904 10175 20067 48524
                   333 10310 20142 58009=
201206221200 AAXX 22124 67633 42980 00605 10292 20121 48570
                   333 58005=
201206210600 AAXX 21064 67633 32980 00806 10156 20107 48530
                   333 10295 20127 58020=
201206200600 AAXX 20064 67633 NIL=
201206190600 AAXX 19064 67633 32980 00904 10165 20110 48546
                   333 10313 20130 58008=
201206150600 AAXX 15064 67633 32980 01008 10139 20099 48559
                   333 10220 20096 58010=
201206140900 AAXX 14094 67633 42980 01003 10210 20057 48557
                   333 58001=
201206140600 AAXX 14064 67633 32980 01003 10102 20064 48528
                   333 10257 20083 58001=
201206130600 AAXX 13064 67633 32980 00806 10118 20050 48539
                   333 10266 20069 59007=
201206101200 AAXX 10124 67633 42980 02005 10242 20073 48560
                   333 58036=
201206070600 AAXX 07064 67633 32980 10000 10155 20069 48546 81030
                   333 10260 20085 59005 82361=
201206060600 AAXX 06064 67633 32980 50902 10140 20099 48548 70222 85030
                   333 10254 20114 59003 85360=
201206041200 AAXX 04124 67633 42980 01206 10248 20058 48576
                   333 59014=
201206010600 AAXX 01064 67633 32980 70904 10180 20111 48551 8707/
                   333 10265 20170 59012 87460=

################################################################################
#  SYNOPS from 67641, Kaoma (Zambia) | 14-48S | 024-48E | 1213 m
################################################################################
201206210600 AAXX 21064 67641 NIL=
201206200600 AAXX 20064 67641 NIL=
201206190600 AAXX 19064 67641 32980 00902 10147 20107 48543
                   333 10285 20105 58001=
201206140600 AAXX 14064 67641 NIL=
201206060600 AAXX 06064 67641 32980 70000 10101 20104 48551 70222 87030
                   333 10//0 20049 59009 87360=

################################################################################
#  SYNOPS from 67655, Mumbwa (Zambia) | 15-04S | 027-11E | 1216 m
################################################################################
201206270600 AAXX 27064 67655 32980 00904 10169 20113 48574
                   333 10295 20//0 58021=
201206190600 AAXX 19064 67655 32980 00000 10160 20097 48579
                   333 10270 20/// 58015=
201206070600 AAXX 07064 67655 32980 30000 10135 20019 48548 83070
                   333 10229 20/// 58011 83359=
201206060600 AAXX 06064 67655 32880 70903 10125 20076 48559 87030
                   333 10215 20//0 58025 87358=

################################################################################
#  SYNOPS from 67663, Kabwe (Zambia) | 14-27S | 028-28E | 1206 m
################################################################################
201206281200 AAXX 28124 67663 42580 21010 10261 20121 48545 82100
                   333 59041 82828=
201206250600 AAXX 25064 67663 32980 00401 10177 20077 48540
                   333 10292 20133 58005=
201206210600 AAXX 21064 67663 32980 01405 10154 20116 48543
                   333 10257 20112 59027=
201206200600 AAXX 20064 67663 32980 00707 10154 20116 48570
                   333 10255 20114 59016=
201206190600 AAXX 19064 67663 32980 01004 10156 20098 48585
                   333 10271 20118 58015=
201206150600 AAXX 15064 67663 32980 00000 10135 20075 48549
                   333 10260 20089 59007=
201206140600 AAXX 14064 67663 32980 60906 10131 20084 48549 86030
                   333 10226 20088 58010 86360=
201206130600 AAXX 13064 67663 32980 20902 10127 20076 48538 80002
                   333 10211 20074 59020 82080=
201206070600 AAXX 07064 67663 32980 50705 10139 20102 48534 85030
                   333 10235 20090 59012 85360=
201206060600 AAXX 06064 67663 32480 61003 10128 20089 48546 86530
                   333 10211 20092 59032 86619 83360=
201206041200 AAXX 04124 67663 42580 50615 10206 20074 48575 70322 85800
                   333 58001 83822 85624=
201206010600 AAXX 01064 67663 32980 20617 10156 20117 48567 82030
                   333 10263 20113 58001 82360=

################################################################################
#  SYNOPS from 67665, Lusaka Internationalairport (Zambia) | 15-19S | 028-27E | 1152 m
################################################################################
201206301800 AAXX 30184 67665 42980 01602 10154 20100 48549
                   333 58002=
201206301500 AAXX 3015/ 67665 42980 01005 10235 20085 48546
                   333 59001=
201206301200 AAXX 30124 67665 42680 11005 10248 20091 48550 81100
                   333 59005 81840=
201206300900 AAXX 30094 67665 42580 11204 10216 81100
                   333 59006 81825=
201206300600 AAXX 30064 67665 32980 01402 10156 20118 48563
                   333 10260 20094 59008=
201206300000 AAXX 30004 67665 42980 01402 10114 20095 48534 70200
                   333 59017=
201206292100 AAXX 29214 67665 42980 01501 10124 20100 48544 70200
                   333 59015=
201206291200 AAXX 29124 67665 42780 11207 10247 20094 48552 81100
                   333 59007 81856=
201206290900 AAXX 2909/ 67665 42680 10909 10219 20129 48581 81100
                   333 59001 81830=
201206290600 AAXX 29064 67665 32980 00903 10142 20142 48568
                   333 10276 20098 59001=
201206290300 AAXX 29034 67665 42980 01502 10112 20102 48548
                   333 59008=
201206290000 AAXX 29004 67665 42980 01502 10103 20089 48549
                   333 59006=
201206282100 AAXX 28214 67665 42980 01602 10137 20111 48560
                   333 59006=
201206281800 AAXX 28184 67665 42980 01302 10163 20109 48562
                   333 10276 59007=
201206281200 AAXX 28124 67665 42680 10807 10261 20111 48564 81100
                   333 59014 81840=
201206280900 AAXX 2809/ 67665 41480 11005 10227 20147 48584 70300 81100
                   333 59007 81820=
201206280600 AAXX 28064 67665 31980 01402 10149 20140 48570 70500
                   333 10264 20105 59007=
201206280400 AAXX 28044 67665 42980 00901 10110 20101 48555 70200
                   333 59007 Q1024.6=
201206271800 AAXX 27184 67665 42980 01601 10168 20142 48571
                   333 10264 58002=
201206271500 AAXX 27154 67665 42780 11005 10237 20130 48570 81100
                   333 58005 81856=
201206271200 AAXX 27124 67665 42680 50904 10253 20140 48576 84100
                   333 58012 85840=
201206270900 AAXX 2709/ 67665 42360 21508 10228 20148 48591 70300 82100
                   333 82820=
201206270600 AAXX 27064 67665 31959 01303 10157 20149 48579 70500
                   333 10298 20105 58048=
201206270400 AAXX 27044 67665 41960 01401 10116 20110 48564 70500
                   333 58038=
201206270000 AAXX 27004 67665 41960 00000 10128 20110 48563 70500
                   333 58024=
201206262100 AAXX 26214 67665 41960 01601 10143 20115 48569 70500
                   333 58029=
201206261800 AAXX 26184 67665 41960 01502 10177 20112 48570 70500
                   333 10298 58031=
201206261500 AAXX 26154 67665 42980 10904 10260 20165 48568 70500 81030
                   333 58039 81360=
201206261200 AAXX 26124 67665 41760 11105 10272 20092 48567 70500 81100
                   333 58035 81857 91023=
201206260900 AAXX 26094 67665 41960 00906 10259 20096 48582 70400
                   333 58035=
201206260600 AAXX 26061 67665 31959 00000 10164 20141 48551 70500
                   333 10299 20094 58029=
201206260400 AAXX 26044 67665 42980 01502 10110 20101 48544=
201206260300 AAXX 2603/ 67665 42980 01001 10123 20095 48542 333=
201206260000 AAXX 26004 67665 42980 01801 10142 20116 48542 333=
201206252100 AAXX 2521/ 67665 41980 0190210166 20094 48546 70500 333=
201206251800 AAXX 25184 67665 41980 01502 10192 20104 48537 70500
                   333 10299 58012=
201206251500 AAXX 25154 67665 41980 01304 10271 20079 48529 70500
                   333 58007 555 10299 91019=
201206251200 AAXX 25124 67665 41780 31104 10282 20069 48534 70500 81130
                   333 81857 82360 91019=
201206250900 AAXX 25094 67665 42980 00000 10259 20085 48548
                   333 59002=
201206250600 AAXX 25064 67665 31959 00000 10147 20121 48530 70500
                   333 10295 20098 59009=
201206241800 AAXX 24184 67665 42980 03301 10200 20094 48527
                   333 59019=
201206241500 AAXX 24154 67665 42980 01006 10270 20062 48524
                   333 59024=
201206241200 AAXX 24124 67665 41980 04001 10278 20064 48530 70500
                   333 59025=
201206231500 AAXX 23154 67665 42980 10302 10249 20104 48545 81030
                   333 59008 81360=
201206231200 AAXX 23124 67665 42680 10603 10258 20116 48552 81100
                   333 59006 81845=
201206230600 AAXX 23064 67665 32960 01503 10156 20148 48540 70500
                   333 10274 59028=
201206230300 AAXX 23034 67665 42980 01402 10106 20097 48548
                   333 58003=
201206230000 AAXX 23004 67665 42980 01502 10111 20100 48550
                   333 58000=
201206222100 AAXX 22214 67665 42980 01502 10133 20124 48556
                   333 59004=
201206221800 AAXX 22184 67665 42980 01202 10156 20112 48554
                   333 10261 58002=
201206221200 AAXX 22124 67665 42680 20606 10240 20108 48555 82100
                   333 59002 82845=
201206220900 AAXX 2209/ 67665 41480 20403 10214 20131 48581 70400 82100
                   333 59002 82820=
201206220600 AAXX 22064 67665 32980 01002 10133 20124 48562
                   333 10250 20095 58001=
201206220000 AAXX 22004 67665 42980 10000 10104 20104 48549 70200 81030
                   333 58000 81360=
201206211800 AAXX 21184 67665 42980 11402 10153 20118 48550 81030
                   333 59003 81360=
201206211500 AAXX 21154 67665 42780 40504 10219 20101 48549 84100
                   333 58002 84850=
201206211200 AAXX 21124 67665 42680 50604 10220 20099 48554 85100
                   333 59009 85838=
201206210600 AAXX 21064 67665 32980 11003 10136 20105 48562 81030
                   333 10259 20065 59007 81360=
201206210400 AAXX 2104/ 67665 42980 11502 10094 20094 48545 74100 81030
                   333 59008 81360=
201206202100 AAXX 20214 67665 42980 01403 10128 20125 48557
                   333 59017=
201206201800 AAXX 20184 67665 42980 11402 10150 20129 48553 81030
                   333 59023 81360=
201206201500 AAXX 20154 67665 42780 20404 10227 20111 48553 81130
                   333 59021 81850 81360
                   555 10250 91022=
201206201200 AAXX 20124 67665 42680 60602 10221 20110 48562 70200 86200
                   333 59040 86835 91023=
201206200900 AAXX 20094 67665 42580 50805 10201 20153 48585 85100
                   333 59021 85810=
201206200600 AAXX 20064 67665 32980 11202 10130 20105 48567
                   333 10255 20089 59020 81360=
201206200400 AAXX 20044 67665 42980 11402 10104 20104 48554
                   333 59013=
201206200000 AAXX 20004 67665 42980 01602 10115 20115 48564
                   333 58000=
201206191500 AAXX 19154 67665 42680 20605 10225 20094 48577 70300 82030
                   333 58021 82360 555 10255 91024=
201206191200 AAXX 19124 67665 42680 20406 10241 20093 48582 70500 82800
                   333 58023 81840 81642 91025=
201206190900 AAXX 19094 67665 41580 60605 10215 20112 48605 70400 86800
                   333 58028 81825 86627=
201206190600 AAXX 19064 67665 32980 01203 10146 20130 48588
                   333 10263 20//0 58022=
201206181800 AAXX 18184 67665 42980 01402 10159 20134 48566
                   333 58012=
201206181500 AAXX 18154 67665 42980 01204 10241 20104 48554
                   333 58011=
201206181200 AAXX 18124 67665 42780 10903 10253 20104 48561 81100
                   333 58009 81860=
201206171500 AAXX 17154 67665 42980 00602 10227 20065 48542
                   333 59015=
201206171200 AAXX 17124 67665 42680 10303 10232 10191 48550 81100
                   333 59004 81848=
201206170900 AAXX 1709/ 67665 42380 20604 10209 20115 48571 82500
                   333 59011 82615=
201206170600 AAXX 17064 67665 32980 01103 20120 48555
                   333 10211 20//0 59009=
201206170400 AAXX 1704/ 67665 42980 01502 10085 20075 48538
                   333 59010=
201206170300 AAXX 17034 67665 42980 01402 10082 20082 48537
                   333 59007=
201206170000 AAXX 17004 67665 42980 01402 10088 20075 48542
                   333 59007=
201206162100 AAXX 16214 67665 42980 01602 10098 20098 48556
                   333 59004=
201206160900 AAXX 16094 67665 42380 60905 10167 20134 48576 70322 83///
                   333 59008 85620=
201206160600 AAXX 16064 67665 32380 51004 10123 20123 48564 83030
                   333 10230 20//0 59013 85960=
201206160400 AAXX 16044 67665 42980 31502 10096 20096 48551 70300 83030
                   333 59007 83360 Q1024.1=
201206160300 AAXX 16034 67665 42980 01302 10092 20092 48545 70200
                   333 59006 91023=
201206160000 AAXX 16004 67665 42980 00000 10105 20105 48552 70200
                   333 59007 91024=
201206152100 AAXX 15214 67665 42980 20000 10122 20113 48563 82030
                   333 59003 82360 91025=
201206151800 AAXX 15184 67665 42980 61102 10148 20121 48566 86030
                   333 10230 59003 86359=
201206151500 AAXX 15154 67665 42780 71203 10190 20119 48559 87100
                   333 59002 87850=
201206151200 AAXX 15124 67665 42680 50804 10214 20101 48564 85200
                   333 58000 85835=
201206150600 AAXX 15064 67665 32380 51303 10118 20116 48574 70310 85830
                   333 10210 20076 58015 81708 85612 81360=
201206150300 AAXX 15034 67665 42980 11301 10087 20085 48550 81030
                   333 58007 81360=
201206142100 AAXX 14214 67665 42980 51002 10116 20095 48565 85030
                   333 58009 85360=
201206141800 AAXX 14184 67665 42980 50802 10152 20104 48568 85030
                   333 58008 85350=
201206141500 AAXX 1415/ 67665 42780 71206 10177 20106 48560 70222 81530
                   333 58011 81656 87360
                   555 10210=
201206141200 AAXX 14124 67665 42680 70606 10191 20081 48561 70222 85230
                   333 58012 85845 82360 91023=
201206140900 AAXX 14094 67665 42680 70806 10175 20114 48582 87500
                   333 58012 87630=
201206140600 AAXX 14064 67665 32480 70905 10142 20115 48564 86530
                   333 10235 20063 58002 86618 81360=
201206140000 AAXX 14004 67665 42980 00903 10064 20064 48541
                   333 58006=
201206131500 AAXX 13154 67665 42980 11306 10195 20086 48552 81030
                   333 10235 59007 81360 91022=
201206131200 AAXX 13124 67665 42680 21204 10207 20069 48551 70200 81100
                   333 59018 81835 91022=
201206130900 AAXX 13094 67665 42580 31307 10180 20073 48572 70400
                   333 59018 83622 81360=
201206130600 AAXX 13064 67665 32980 11302 10106 20086 48558 80001
                   333 10215 20/// 59024 81080=
201206122100 AAXX 12214 67665 42980 01201 10083 20064 48558
                   333 59015=
201206121500 AAXX 1215/ 67665 42980 11207 10195 20050 48558 80001
                   333 59021 81080=
201206121200 AAXX 12124 67665 42980 10809 10201 20045 48566 80001
                   333 59016 81080=
201206120900 AAXX 12094 67665 42980 10708 10177 20050 48589 81030
                   333 58018 81080=
201206111500 AAXX 11154 67665 41970 00905 10196 21005 48579 70500
                   333 58021=
201206111200 AAXX 11124 67665 41970 00907 10206 20000 48583 70500
                   333 58027=
201206110900 AAXX 11094 67665 41959 00812 10182 21001 48598 70500
                   333 58027=
201206110600 AAXX 11064 67665 32980 01001 10079 20047 48576
                   333 10249 20//0 58026=
201206110300 AAXX 11034 67665 42980 01403 10048 20020 48556
                   333 58026=
201206110000 AAXX 11004 67665 42980 01801 10065 20006 48552
                   333 58025=
201206102100 AAXX 10214 67665 42980 01401 10089 20001 48569
                   333 58036=
201206101800 AAXX 10184 67665 42980 01403 10119 20016 48560
                   333 10249 58003=
201206101200 AAXX 10124 67665 42980 01202 10235 20042 48560 70200
                   333 58026=
201206100900 AAXX 1009/ 67665 42980 01703 10211 20034 48576
                   333 58029=
201206100400 AAXX 1004/ 67665 41959 01202 10090 20049 48534 70500
                   333 58005 91023=
201206100300 AAXX 10034 67665 41959 00000 10105 20060 48532 70500
                   333 58018=
201206100000 AAXX 10004 67665 41958 00000 10100 20060 48534 70500
                   333 58002=
201206092100 AAXX 09214 67665 41957 00000 10112 20063 48538 70500
                   333 58003=
201206091800 AAXX 09184 67665 41957 02401 10162 20027 48535 70500
                   333 10280 58009=
201206091500 AAXX 09154 67665 41959 02402 10246 20020 48534 70500
                   333 58014=
201206091200 AAXX 09124 67665 41959 01204 10267 20009 48539 70500
                   333 58008=
201206090300 AAXX 09034 67665 41959 02401 10096 20069 48523 70500
                   333 58003=
201206090000 AAXX 09004 67665 41959 02906 10088 20068 48522 70522
                   333 58000=
201206082100 AAXX 08214 67665 41959 01702 10120 20070 48526 70500
                   333 59008=
201206081800 AAXX 08184 67665 41959 02803 10155 20069 48525 70500
                   333 10265 59012=
201206081200 AAXX 08124 67665 42980 12704 10249 20049 48529 70300 80001
                   333 59015 81080 91019=
201206080900 AAXX 08094 67665 42980 01903 10232 20043 48551
                   333 59014=
201206080600 AAXX 08064 67665 32980 01702 10115 20075 48531
                   333 10200 20//0 59017=
201206080400 AAXX 08044 67665 42980 01804 10074 20064 48513
                   333 59016=
201206080300 AAXX 0803/ 67665 42980 01802 10081 20072 48517
                   333 59014=
201206080000 AAXX 08004 67665 42980 00000 10100 20070 48524
                   333 59018=
201206072100 AAXX 0721/ 67665 42980 01602 10114 20065 48533
                   333 59019=
201206071800 AAXX 07184 67665 42980 01404 10139 20060 48535
                   333 10250 59012=
201206071500 AAXX 07154 67665 42980 01406 10226 20029 48529 70100
                   333 59014 555 10250 91019=
201206071200 AAXX 07124 67665 42980 20000 10235 20030 48542 70100
                   333 59009 81360 81080 91021=
201206070900 AAXX 07094 67665 42980 20201 10217 20030 48563 81031
                   333 58011 81360 81080=
201206070600 AAXX 07064 67665 31960 11401 10129 20110 48549 70500 81030
                   333 10228 20/// 58015 81360=
201206062100 AAXX 06214 67665 42980 31805 10237 20110 48555 83030
                   333 59013 83360=
201206061800 AAXX 06184 67665 42980 31504 10156 20122 48549 83030
                   333 59022 83360=
201206061200 AAXX 06124 67665 42680 61602 10204 20088 48546 85130
                   333 59032 85830 83360=
201206060900 AAXX 0609/ 67665 42380 40604 20121 48570 70322 84530 83815 84360=
201206060600 AAXX 06064 67665 32980 21305 10125 20106 48563 82030
                   333 10205 20//0 59021 82360=
201206060000 AAXX 06004 67665 42980 21502 10080 20074 48551 82030
                   333 59009 82360=
201206051800 AAXX 05184 67665 42980 61205 10146 20129 48568 86030
                   333 59009 86360=
201206051500 AAXX 05154 67665 42580 51210 10179 20126 48564 82530
                   333 59010 82628 85360=
201206051200 AAXX 05124 67665 42580 60910 10178 20125 48574 86830
                   333 59005 83625 84828 82360=
201206050900 AAXX 0509/ 67665 42380 71210 10173 20121 48594 87500
                   333 59006 87612=
201206050600 AAXX 05064 67665 32380 70910 10140 20122 48584 57500
                   333 10228 20//0 59004 87608=
201206050400 AAXX 0504/ 67665 42380 70906 10124 20124 48573 87530
                   333 59004 87608 84360=
201206050300 AAXX 05034 67665 42380 61008 10124 20124 48564 86530
                   333 59004 86608 84360=
201206050000 AAXX 05004 67665 42980 60906 10134 20134 48566 86530
                   333 59004 86608 81360=
201206041800 AAXX 04184 67665 42980 21305 10130 20117 48574 82030
                   333 10227 59010 82030=
201206041200 AAXX 04124 67665 42680 50612 10205 20100 48582 70222 85230
                   333 58002 85840 82360=
201206040900 AAXX 04094 67665 42580 60913 10182 20102 48601 86100
                   333 58002 86828=
201206040600 AAXX 04064 67665 32980 01205 10116 20100 48585
                   333 10230 20106 59001=
201206040400 AAXX 04044 67665 42980 01404 10070 20060 48566 70200
                   333 58003 Q1026.5=
201206040300 AAXX 04034 67665 42980 01205 10070 20060 48562 70200
                   333 58004 91026=
201206040000 AAXX 04004 67665 42980 01505 10082 20063 48563 70200
                   333 58008 91026=
201206032100 AAXX 03214 67665 42980 01504 10105 20044 48583
                   333 58011 91027=
201206031800 AAXX 03184 67665 42980 01202 10135 20049 48584
                   333 10230 58012=
201206031500 AAXX 03154 67665 42980 01207 10202 20049 48581
                   333 58011=
201206031200 AAXX 03124 67665 42680 20910 10221 20064 48582 82100
                   333 58005 82845=
201206030600 AAXX 03064 67665 32980 71204 10144 20130 48589 87030
                   333 10240 20128 58005 87360=
201206030400 AAXX 03044 67665 42980 00904 10122 20122 48570 83030
                   333 58004 83360=
201206022100 AAXX 02214 67665 42980 11703 10115 20112 48573 81030
                   333 58002 81360=
201206021500 AAXX 02154 67665 42980 51409 10213 20086 48571 85030
                   333 59001 85360 555 10240 91024=
201206021200 AAXX 02124 67665 42580 61008 10211 20118 48567 70322 86800
                   333 58008 83823 83625
                   555 91025=
201206020600 AAXX 02064 67665 32980 41205 10140 20131 48584 84030
                   333 20249 59002 84360=
201206020400 AAXX 0204/ 67665 42980 11204 10099 20099 48563 81030
                   333 59002 81360=
201206020300 AAXX 02034 67665 42980 11603 10094 20094 48555 81030
                   333 59006 81360=
201206020000 AAXX 02004 67665 42980 11405 10099 20099 48557 81030
                   333 59003 81360=
201206012100 AAXX 01214 67665 42980 31403 10133 20115 48574 83030
                   333 58001 83360=
201206011800 AAXX 01184 67665 42980 71403 10165 20122 48577 70322 8707/
                   333 10249 58000 87360=
201206011500 AAXX 01154 67665 42980 21206 10215 20114 48581 82030
                   333 59004 82360 555 10249 91024=
201206011200 AAXX 01124 67665 42680 21013 10239 20101 48575 81130
                   333 59006 81835 81360 91024=
201206010900 AAXX 01094 67665 42980 10812 10215 20112 48594 81030
                   333 58009 81360=
201206010600 AAXX 01064 67665 32980 11010 10141 20125 48584 81030
                   333 10260 20/// 58003=

################################################################################
#  SYNOPS from 67666, Lusaka City Airport (Zambia) | 15-25S | 028-19E | 1280 m
################################################################################
201206280600 AAXX 28064 67666 32980 00408 10165 20136 48567
                   333 10//0 20130 59003=
201206270900 AAXX 27094 67666 42580 21012 10220 20145 48579 82100
                   333 58010 82830=
201206270600 AAXX 27064 67666 32980 00809 10170 20146 48575
                   333 10//0 20145 58021=
201206260600 AAXX 26064 67666 32978 00000 10192 20064 48557
                   333 10//0 20154 58028=
201206251200 AAXX 25124 67666 42780 20704 10272 20101 48539 82100
                   333 59001 82830 91019=
201206250600 AAXX 25064 67666 31977 00000 10186 20105 48529 70500
                   333 10/// 20144 59008=
201206201200 AAXX 20124 67666 42680 60913 10214 20136 48554 86200
                   333 59016 86827 91022=
201206200900 AAXX 20094 67666 42580 50908 10198 20120 48557 85200
                   333 59020 85825=
201206200600 AAXX 20064 67666 32980 00809 10145 20120 48560
                   333 10//0 20120 59020=
201206190600 AAXX 19064 67666 32980 00910 10155 20122 48583
                   333 10/// 20130 58010=
201206081200 AAXX 08124 67666 42980 02705 10//0 20046 48502
                   333 59032 91017=
201206070600 AAXX 07064 67666 31958 10000 10144 20089 48546 70500 80001
                   333 10/// 20065 59013 81080=
201206060600 AAXX 06064 67666 32980 00805 10140 20084 48558 81030
                   333 10//0 20090 59016 81360=
201206011200 AAXX 01124 67666 42580 30908 10225 20098 48561 83100
                   333 5//// 83830=
201206010900 AAXX 01094 67666 42980 10709 10200 20094 58584 81030
                   333 58006 81360=
201206010600 AAXX 01064 67666 32980 10912 10145 20109 48580 80001
                   333 10/// 20121 58001 81080=

################################################################################
#  SYNOPS from 67667, Mount Makulu (Zambia) | 15-33S | 028-15E | 1213 m
################################################################################
201206250600 AAXX 25064 67667 32980 00000 10200 20096 48/// 70500
                   333 10295 20124 59008=

################################################################################
#  SYNOPS from 67673, Petauke (Zambia) | 14-15S | 031-17E | 1035 m
################################################################################
201206251200 AAXX 25124 67673 41675 11802 10300 20073 48539 70500 81100
                   333 59005 81850=
201206250600 AAXX 25064 67673 31975 00804 10215 20120 48546 70500
                   333 10290 20160 59011=
201206190600 AAXX 19064 67673 31575 11005 10183 20117 48600 70500 81100
                   333 10275 20138 58014 81825=
201206131200 AAXX 13124 67673 42675 61002 10215 20075 48560 84132
                   333 59014 83835 86360 85080=
201206071200 AAXX 07124 67673 41675 32003 10268 20078 48549 70500 82130
                   333 59012 82840 81360=
201206070600 AAXX 07064 67673 31975 61601 10210 20094 48569 70522 86030
                   333 10240 20145 59012 86360=
201206060600 AAXX 06064 67673 31575 60203 10175 20122 48575 70522 82130
                   333 10218 20130 59024 82825 86360=
201206010900 AAXX 01094 67673 41675 20905 10268 20101 48605 70500 81130
                   333 58007 81835 82360=
201206010600 AAXX 01064 67673 31980 31008 10184 20098 48593 70500 83030
                   333 10262 20145 58002 83360=

################################################################################
#  SYNOPS from 67731, Senanga (Zambia) | 16-06S | 023-16E | 1027 m
################################################################################
201206190600 AAXX 19064 67731 32980 02703 10161 20104 48///
                   333 10290 20116 5////=
201206140600 AAXX 14064 67731 32980 00902 10130 20066 48///
                   333 10251 20084 5////=
201206060600 AAXX 06064 67731 32980 83302 10140 20081 48/// 88030
                   333 10254 20079 5//// 88360=

################################################################################
#  SYNOPS from 67741, Sesheke (Zambia) | 17-28S | 024-18E | 949 m
################################################################################
201206250600 AAXX 25064 67741 32980 00000 10084 20045 48519
                   333 10322 20048 58011=
201206190600 AAXX 19064 67741 32980 00909 10143 20102 48559
                   333 10292 20074 58013=
201206140600 AAXX 14064 67741 32980 00902 10111 20074 48553
                   333 10246 20016 58006=
201206060600 AAXX 06064 67741 32980 20000 10129 20101 48557 82030
                   333 10238 20066 59021 82363=
201206010600 AAXX 01064 67741 32980 60902 10171 20125 48584 85030
                   333 10280 20111 59003 86360=

################################################################################
#  SYNOPS from 67743, Livingstone (Zambia) | 17-49S | 025-49E | 985 m
################################################################################
201206281200 AAXX 28124 67743 42880 20908 10290 20085 48568 82100
                   333 59013 82859=
201206271200 AAXX 27124 67743 42980 02703 10292 20065 48581
                   333 58002=
201206250600 AAXX 25064 67743 32980 00902 10131 20019 48530
                   333 10315 20129 58023=
201206221200 AAXX 22124 67743 42980 00807 10284 20076 48570
                   333 58005=
201206211500 AAXX 21154 67743 42780 10704 10278 20096 48535 81100
                   333 59013 81856=
201206211200 AAXX 21124 67743 42780 10703 10271 20100 48543 81100
                   333 59022=
201206210600 AAXX 21064 67743 32980 01002 10141 20096 48541
                   333 10280 20106 59022=
201206201500 AAXX 20154 67743 42780 11108 10263 20098 48544 70200 81130
                   333 59021 81857 81359
                   555 10280 91020=
201206201200 AAXX 20124 67743 42780 20805 10272 20101 48562 70200
                   333 59014 82857 91021=
201206200600 AAXX 20064 67743 32980 00904 10151 20099 48563
                   333 10279 20118 59009=
201206190600 AAXX 19064 67743 32980 00904 10146 20091 48572
                   333 10281 20116 58015=
201206160600 AAXX 16064 67743 32980 50904 10114 20080 48550 70300 85030
                   333 10250 20084 59021 85360=
201206150600 AAXX 15064 67743 32980 30000 10116 20067 48572 70500 83030
                   333 10242 20076 58014 83360=
201206141500 AAXX 1415/ 67743 42980 00908 10229 20057 48560 70200
                   333 58010=
201206140900 AAXX 14094 67743 42680 21210 10202 20071 48587 81130
                   333 58014 81845 81360=
201206140600 AAXX 14064 67743 32980 00000 10111 20066 48557
                   333 10249 20063 58006=
201206130900 AAXX 13094 67743 42970 00908 10205 20045 48575
                   333 59026=
201206130600 AAXX 13064 67743 32980 00903 10088 20021 48547
                   333 19235 20036 59028=
201206111200 AAXX 11124 67743 42980 01209 10208 21052 48593
                   333 58018=
201206101200 AAXX 10124 67743 42980 01707 10203 21010 48574 70200
                   333 58061=
201206100900 AAXX 1009/ 67743 42980 02004 10154 21010 48586 70200 58060=
201206091500 AAXX 09154 67743 42980 02709 10269 20008 48531
                   333 58013=
201206091200 AAXX 09124 67743 42980 02708 10278 20034 48531
                   333 58003=
201206080900 AAXX 08094 67743 42980 02905 10258 20074 48554
                   333 59019 555 91021=
201206070600 AAXX 07064 67743 32980 12404 10106 20098 48536 81030
                   333 10256 20066 59022 81360=
201206060900 AAXX 06094 67743 42780 21004 10221 20084 48578 81130
                   333 59028 81850 81360 91024=
201206051200 AAXX 05124 67743 42780 40810 10225 48573 70300 84100
                   333 59016 84856=
201206050600 AAXX 05064 67743 32980 21005 10138 20072 48583 70200 82030
                   333 10252 20104 59011 82360=
201206041200 AAXX 04124 67743 42780 20911 10241 20070 48590 82100
                   333 59001 82856=
201206031200 AAXX 03124 67743 42980 01306 10238 20030 48591
                   333 58010=
201206021200 AAXX 02124 67743 42780 11810 10253 20041 48583 70200 81100
                   333 58002 81857 91024=
201206021024 AAXX 02104 67743 42980 01404 10248 20038 48578 70200 58004 91024=
201206020600 AAXX 02064 67743 32980 11003 10110 20075 18583 81030
                   333 10219 20107 58007 81360=
201206011500 AAXX 01154 67743 42880 31007 10241 20102 48573 81130
                   333 59003 81857 82360
                   555 10249=
201206011200 AAXX 01124 67743 42780 51008 10231 20110 48577 81130
                   333 58002 81856 85360=
201206010900 AAXX 01094 67743 42980 61610 10210 20097 48595 86030
                   333 59003 86360=
201206010600 AAXX 01064 67743 32980 71107 10168 20094 48582 87030
                   333 10271 20129 59002 87360=

################################################################################
#  SYNOPS from 67751, Magoye (Zambia) | 16-00S | 027-36E | 1018 m
################################################################################
201206190600 AAXX 19064 67751 31978 01303 10179 20106 48/// 70500
                   333 10280 20075 59017=
201206140600 AAXX 14064 67751 31978 11302 10137 20025 48/// 70500 81030
                   333 10236 20036 59007 81360=

################################################################################
#  SYNOPS from 67753, Choma (Zambia) | 16-50S | 027-04E | 1213 m
################################################################################
201206281200 AAXX 28124 67753 42960 10812 10253 20121 48/// 70500 81100
                   333 5//// 81840=
201206250600 AAXX 25064 67753 31960 02003 10146 20111 48/// 70500
                   333 10286 20110 5////=
201206221200 AAXX 22124 67753 42760 10304 10253 20109 48/// 81100
                   333 5//// 81850=
201206210600 AAXX 21064 67753 32960 10162 20117 48///
                   333 10244 20106 5////=
201206200600 AAXX 20064 67753 32960 00608 10149 20111 48///
                   333 10261 20102 5////=
201206190600 AAXX 19064 67753 32960 00608 10161 20108 48///
                   333 10256 20092 5////=
201206150600 AAXX 15064 67753 32960 10808 10137 20091 48/// 81030
                   333 10204 20073 5////=
201206140600 AAXX 14064 67753 32960 00804 10124 20080 48///
                   333 10210 20030 5////=
201206130600 AAXX 13064 67753 32960 00000 10088 20048 48///
                   333 10201 20019 5////=
201206070600 AAXX 07064 67753 32560 11203 10140 20064 48/// 81101
                   333 10217 20035 5//// 81825 81080=
201206030600 AAXX 03064 67753 32960 01504 10119 20068 48///
                   333 10201 20056 5////=
201206010600 AAXX 01064 67753 32960 11108 10156 20144 48/// 81030
                   333 10214 20105 5//// 81360=

################################################################################
#  SYNOPS from 67855, Lupaki (Zambia) | 17-03-00S | 024-46-00E | 1000 m
################################################################################
201206301800 AAXX 30184 67855=
201206301200 AAXX 30124 67855 41970 03301 10282 20083 3//// 48/// 70500
                   333 5////=
201206300600 AAXX 30064 67855 31970 00000 10064 20010 38/// 48/// 70500
                   333 20030 5////=
201206291800 AAXX 29184 67855 NIL=
201206291200 AAXX 29124 67855 41970 01303 10274 20093 38/// 48/// 70500
                   333 5////=
201206290600 AAXX 29064 67855 31970 01101 10082 20060 3//// 48/// 70500
                   333 20000 5////=
201206281800 AAXX 28184 67855 NIL=
201206281200 AAXX 28124 67855 41670 32103 10276 20010 3//// 48/// 70500 83100
                   333 5//// 83840=
201206280600 AAXX 28064 67855 31970 00000 10094 20057 38/// 48/// 70500
                   333 20005 5////=
201206271800 AAXX 27184 67855 NIL=
201206271200 AAXX 27124 67855 NIL=
201206270600 AAXX 27064 67855 31970 00000 10068 20005 3//// 48/// 70500
                   333 20030 5////=
201206261800 AAXX 26184 67855 NIL=
201206261200 AAXX 26124 67855 41970 01701 10290 20023 3//// 48/// 70500
                   333 5////=
201206260600 AAXX 26064 67855 31970 01101 10050 21040 3//// 48/// 70500
                   333 20010 5////=
201206251800 AAXX 25184 67855 NIL=
201206251200 AAXX 25124 67855 NIL=
201206250600 AAXX 25064 67855 31970 02801 10096 20035 3//// 48/// 70500
                   333 20055 5////=
201206241800 AAXX 24184 67855 NIL=
201206241200 AAXX 24124 67855 NIL=
201206240600 AAXX 24064 67855 31970 03401 10130 20094 3//// 48/// 70500
                   333 20085 5////=
201206231200 AAXX 23124 67855 42980 03303 10282 20109 3//// 48///
                   333 5////=
201206230600 AAXX 23064 67855 31970 00000 10086 20073 38/// 48/// 70500
                   333 20060 5////=
201206221800 AAXX 22184 67855 NIL=
201206221200 AAXX 22124 67855 41970 03305 10266 20085 38/// 48/// 70500
                   333 5////=
201206220600 AAXX 22064 67855 31970 00701 10118 20072 3//// 48/// 70500
                   333 20070 5////=
201206211800 AAXX 21184 67855 NIL=
201206211200 AAXX 21124 67855 41670 23605 10258 20093 38/// 48/// 70500 82100
                   333 5//// 82840=
201206210600 AAXX 21064 67855 31970 01302 10138 20075 3//// 48/// 70500
                   333 20070 5////=
201206201800 AAXX 20184 67855 NIL=
201206201200 AAXX 20124 67855 41670 41802 10264 20105 3//// 48/// 70500 84100
                   333 5//// 84840=
201206200600 AAXX 20064 67855 31970 11101 10100 20059 3//// 48/// 70500 81030
                   333 20054 5//// 81360=
201206191800 AAXX 19184 67855 NIL=
201206191200 AAXX 19124 67855 NIL=
201206190600 AAXX 19064 67855 31970 01301 10096 20055 3//// 48/// 70500
                   333 20005 5////=
201206181800 AAXX 18184 67855 NIL=
201206181200 AAXX 18124 67855 41670 10000 10268 20058 3//// 48/// 70500 81100
                   333 5//// 81840=
201206180600 AAXX 18064 67855 31970 00000 10092 20070 38/// 48/// 70500
                   333 20005 5////=
201206171800 AAXX 17184 67855 NIL=
201206171200 AAXX 17124 67855 NIL=
201206170600 AAXX 17064 67855 31970 01301 10072 20050 38/// 48/// 70500
                   333 20035 5////=
201206161800 AAXX 16184 67855 NIL=
201206161200 AAXX 16124 67855 41770 41902 10248 20071 38/// 48/// 70500 84100
                   333 5//// 84850=
201206160600 AAXX 16064 67855 NIL=
201206151200 AAXX 15124 67855 41770 40603 10240 20070 3//// 48/// 70500 84100
                   333 5//// 84850=
201206150600 AAXX 15064 67855 31970 10403 10092 20044 3//// 48/// 70500 81030
                   333 20025 5//// 81360=
201206141800 AAXX 14184 67855 NIL=
201206141200 AAXX 14124 67855 41970 01702 10236 20063 3//// 48/// 70500
                   333 5////=
201206140600 AAXX 14064 67855 NIL=
201206131800 AAXX 13184 67855 NIL=
201206131200 AAXX 13124 67855 41970 00403 10250 20048 38/// 4//// 70500
                   333 5////=
201206130600 AAXX 13064 67855 31970 00000 10052 20001 3//// 48/// 70500
                   333 20005 5////=
201206121200 AAXX 12124 67855 41970 00604 10234 20050 3//// 48/// 70500
                   333 5////=
201206120600 AAXX 12064 67855 31970 00000 10034 20000 38/// 48/// 70500
                   333 21015 5////=
201206111800 AAXX 11184 67855 NIL=
201206111200 AAXX 11124 67855 41970 01304 10230 21020 38/// 48/// 70500
                   333 5////=
201206110600 AAXX 11064 67855 31970 01701 10030 21090 38/// 48/// 70500
                   333 21055 5////=
201206101800 AAXX 10184 67855 NIL=
201206101200 AAXX 10124 67855 41970 01903 10208 21070 38/// 48/// 70500
                   333 5////=
201206100600 AAXX 10064 67855 31970 01901 10060 21035 3//// 48/// 70500
                   333 20010 5////=
201206091800 AAXX 09184 67855 NIL=
201206091200 AAXX 09124 67855 41970 02905 10282 20043 3//// 48/// 70500
                   333 5////=
201206090600 AAXX 09064 67855 31970 03301 10080 20010 3//// 48/// 70500
                   333 20030 5////=
201206081800 AAXX 08184 67855 NIL=
201206081200 AAXX 08124 67855 41970 03004 10278 20035 3//// 48/// 70500
                   333 5////=
201206080600 AAXX 08064 67855 31970 00000 10062 20013 3//// 48/// 70500
                   333 20020 5////=
201206071800 AAXX 07184 67855 NIL=
201206071200 AAXX 07124 67855 41770 11702 10256 20008 3//// 48/// 70500 81100
                   333 5//// 81850=
201206070600 AAXX 07064 67855 31970 20000 10078 20044 38/// 48/// 70500 80001
                   333 20025 5//// 82080=
201206061800 AAXX 06184 67855 NIL=
201206061200 AAXX 06124 67855 41770 62002 10230 20046 38/// 48/// 70511 86100
                   333 5//// 86850=
201206051800 AAXX 05184 67855 NIL=
201206051200 AAXX 05124 67855 42780 30602 10246 20078 38/// 48/// 83100
                   333 5//// 83850=
201206050600 AAXX 05064 67855 31970 11301 10090 20057 3//// 48/// 70500 81030
                   333 20050 5//// 81360=
201206041800 AAXX 04184 67855 NIL=
201206041200 AAXX 04124 67855 41770 51405 10224 20090 3//// 48/// 70511 85100
                   333 5//// 85850=
201206040600 AAXX 04064 67855 31970 00000 10090 20060 3//// 48/// 70500
                   333 20045 5////=
201206031800 AAXX 03184 67855 NIL=
201206031200 AAXX 03124 67855 41970 01801 10262 20022 3//// 48/// 70500
                   333 5////=
201206030600 AAXX 03064 67855 31970 00000 10056 21004 38/// 48/// 70500
                   333 20010 5////=
201206021800 AAXX 02184 67855 NIL=
201206021200 AAXX 02124 67855 41670 10604 10264 20030 38/// 48/// 70500 81100
                   333 5//// 81840=
201206020600 AAXX 02064 67855 31970 00000 10072 20049 38/// 48/// 70500
                   333 20040 5////=
201206011800 AAXX 01184 67855 NIL=
201206011200 AAXX 01124 67855 41770 61202 10256 20075 38/// 48/// 70511 86100
                   333 5//// 86850=
201206010600 AAXX 01064 67855 31970 60702 10132 20088 38/// 48/// 70522 86030
                   333 20097 5//// 86360=
