################################################################################
# Query made at 04/14/2022 02:47:13 UTC
# Country like Zamb*
# Time interval: from 02/01/2018 05:30  to 03/03/2018 06:30  UTC
################################################################################

################################################################################
#  SYNOPS from 67403, Kawambwa (Zambia) | 09-48S | 029-05E | 1323 m
################################################################################
201802270600 AAXX 27064 67403 12980 80901 10197 20177 48507 60064 8703/
                   333 10277 20168 58010 87360
                   555 00154=
201802260600 AAXX 26064 67403 32980 83001 10202 20193 48497 8703/
                   333 10282 20178 59013 87360
                   555 00164=
201802230600 AAXX 23064 67403 11380 80000 10188 20182 48488 60064 70322 8253/
                   333 10304 20170 58003 82608 87360
                   555 00160=
201802220900 AAXX 22094 67403 NIL=
201802220600 AAXX 22064 67403 32980 70901 10217 20184 48487 87031
                   333 10299 20179 59016 87360 82080
                   555 00168=
201802201500 AAXX 20154 67403 NIL=
201802201200 AAXX 20124 67403 NIL=
201802150600 AAXX 15064 67403 12980 20903 10217 20188 48512 60044 81031
                   333 10318 20181 59011 81360 82080
                   555 00158=
201802140600 AAXX 14064 67403 32980 30902 10207 20163 48522 81031
                   333 10318 20172 59006 81360 83080
                   555 00148=
201802131200 AAXX 13124 67403 NIL=
201802130600 AAXX 13064 67403 12980 40904 10215 20168 48529 69914 82031
                   333 10283 20169 58003 82360 83080
                   555 00153=

################################################################################
#  SYNOPS from 67413, Mbala (Zambia) | 08-51S | 031-20E | 1673 m
################################################################################
201802260600 AAXX 26064 67413 12980 60000 10195 20180 48524 60014 8607/
                   333 10/// 20100 59011 86359
                   555 00100 91022=
201802230600 AAXX 23064 67413 NIL=
201802220900 AAXX 22094 67413 NIL=
201802220600 AAXX 22064 67413 NIL=
201802201500 AAXX 20154 67413 NIL=
201802201200 AAXX 20124 67413 NIL=
201802150600 AAXX 15064 67413 NIL=
201802131200 AAXX 13124 67413 NIL=

################################################################################
#  SYNOPS from 67441, Mwinilunga (Zambia) | 11-45S | 024-26E | 1361 m
################################################################################
201802230600 AAXX 23064 67441 NIL=
201802220900 AAXX 22094 67441 NIL=
201802220600 AAXX 22064 67441 NIL=
201802201500 AAXX 20154 67441 NIL=
201802201200 AAXX 20124 67441 NIL=
201802150600 AAXX 15064 67441 NIL=
201802131200 AAXX 13124 67441 NIL=

################################################################################
#  SYNOPS from 67461, Mansa (Zambia) | 11-06S | 028-51E | 1382 m
################################################################################
201802270600 AAXX 27064 67461 12980 73202 10192 20175 48509 69904 8703/
                   333 10282 20162 58008 87360
                   555 00160 91017=
201802260600 AAXX 26064 67461 12380 80000 10198 20192 48500 60034 887//
                   333 10270 20170 59010 88706
                   555 00162 91016=
201802230600 AAXX 23064 67461 12280 72303 10185 20177 48493 60124 8467/
                   333 10272 20162 58010 84705 87360
                   555 00155 91016=
201802220900 AAXX 22094 67461 42680 70606 10255 20195 48487 85231
                   333 59018 85830 84360 81080 91014=
201802220600 AAXX 22064 67461 12580 70902 10204 20189 48485 60034 8457/
                   333 10303 20162 59022 85620 87360
                   555 00170=
201802201500 AAXX 20154 67461 NIL=
201802201200 AAXX 20124 67461 NIL=
201802150600 AAXX 15064 67461 32980 71504 10219 20189 48513 81038
                   333 10302 20164 59007 81360 87280
                   555 00158=
201802140600 AAXX 14064 67461 12980 71006 10202 20198 48518 60094 81038
                   333 10300 20160 59012 81360 87280
                   555 00149 91019=
201802131200 AAXX 13124 67461 NIL=
201802130900 AAXX 13094 67461 42680 41009 10264 20191 48523 82131
                   333 59001 82832 81360 81080 91019=
201802130600 AAXX 13064 67461 12480 71002 10188 20179 48529 60434 8117/
                   333 10282 20152 58012 81818 87360
                   555 00145 91017=

################################################################################
#  SYNOPS from 67469, Samfya (Zambia) | 11-22S | 029-54E | 1171 m
################################################################################
201802280600 AAXX 28064 67469 32480 33306 10250 20220 48/// 81132
                   333 10290 20200 5//// 81818 81360 81080=
201802230600 AAXX 23064 67469 NIL=
201802220900 AAXX 22094 67469 NIL=
201802220600 AAXX 22064 67469 NIL=
201802201500 AAXX 20154 67469 NIL=
201802201200 AAXX 20124 67469 NIL=
201802150600 AAXX 15064 67469 NIL=
201802140600 AAXX 14064 67469 32480 31407 10251 20180 48/// 81132
                   333 10284 20185 5//// 81818 81360 81080=
201802131200 AAXX 13124 67469 NIL=

################################################################################
#  SYNOPS from 67475, Kasama (Zambia) | 10-13S | 031-08E | 1382 m
################################################################################
201802270600 AAXX 27064 67475 12260 73603 10178 20175 48519 60024 70322 8167/
                   333 10268 20176 58012 81704 87360 91020=
201802260600 AAXX 26064 67475 12960 73502 10194 20182 48507 60014 70122 8707/
                   333 10298 20176 59017 87360 91018=
201802230600 AAXX 23064 67475 12460 51803 10203 20183 48498 60034 70122 81478
                   333 10306 20162 59000 81613 81856 83360 85280
                   91017=
201802220900 AAXX 22094 67475 42660 50906 10276 20168 48496 70322 84232
                   333 59006 84835 82360 82080 91017=
201802220600 AAXX 22064 67475 32460 50406 10214 20177 48498 70122 81478
                   333 10302 20161 59011 81616 81360 85280 91017=
201802201500 AAXX 20154 67475 41760 71702 10266 20172 48470 71392 83268
                   333 5//// 81950 82850 83360 87280
                   555 10302 91014=
201802201200 AAXX 20124 67475 41660 71205 10283 20160 48/// 71722 85208
                   333 5//// 81945 84845 86280=
201802150600 AAXX 15064 67475 32360 50813 10215 20174 48526 70322 81608
                   333 10294 20159 59013 81708 85280 91020=
201802141500 AAXX 14154 67475 42760 70407 10281 20139 48497 70322 82268
                   333 59008 81956 81856 82360 86280
                   555 10294 91017=
201802140600 AAXX 14064 67475 32960 50102 10185 20173 48538 70122 80008
                   333 10298 20149 59006 85280 91022=
201802131200 AAXX 13124 67475 42760 40808 10286 20154 48523 70322 84201
                   333 58016 81950 83850 82080 91020=
201802130900 AAXX 13094 67475 42660 43610 10263 20165 48540 70322 82101
                   333 58008 82835 83080 91022=
201802130600 AAXX 13064 67475 12560 40908 10209 20180 48545 69904 70322 82101
                   333 10304 20151 58013 82820 83080 91023=

################################################################################
#  SYNOPS from 67476, Misamfu (Zambia) | 10-06S | 031-15E | 1536 m
################################################################################
201802270600 AAXX 27064 67476 12980 80201 10180 20172 48/// 60054 8806/
                   333 10267 20163 58010 88359
                   555 00155=
201802260600 AAXX 26064 67476 12980 70000 10202 20181 48/// 60014 87060
                   333 10300 20163 5//// 87360
                   555 00146=
201802230600 AAXX 23064 67476 12580 51203 10207 20170 48/// 60124 82130
                   333 10287 20164 58006 82823 84360
                   555 00136=
201802220900 AAXX 22094 67476 NIL=
201802220600 AAXX 22064 67476 12980 40822 10208 20167 48/// 69904 84031
                   333 10297 20157 59012 84360 81080
                   555 00144=
201802201500 AAXX 20154 67476 NIL=
201802201200 AAXX 20124 67476 NIL=
201802150600 AAXX 15064 67476 32980 20803 10212 20183 48/// 80001
                   333 10289 20152 59013 82080
                   555 00127=
201802140600 AAXX 14064 67476 32680 31501 10197 20174 48/// 81102
                   333 10294 20154 59004 81830 83080
                   555 00124=
201802131200 AAXX 13124 67476 NIL=
201802130600 AAXX 13064 67476 32480 51006 10220 20180 48/// 82132
                   333 10334 20200 5//// 82814 82360 81080=

################################################################################
#  SYNOPS from 67477, Mpika (Zambia) | 11-54S | 031-26E | 1400 m
################################################################################
201802270600 AAXX 27064 67477 12980 70000 10203 20189 48519 60154 8707/
                   333 10212 20160 58006 87360
                   555 00164=
201802260600 AAXX 26064 67477 11478 80000 10192 20190 48512 69904 76022 8457/
                   333 10292 20176 59013 84610 86459
                   555 00180=
201802230600 AAXX 23064 67477 31480 40902 10215 20180 48500 72822 82501
                   333 10280 20169 58000 82612 83080
                   555 00166=
201802220900 AAXX 22094 67477 NIL=
201802220600 AAXX 22064 67477 32980 21209 10223 20179 48501 82030
                   333 10290 20178 59013 82360
                   555 00170=
201802201500 AAXX 20154 67477 NIL=
201802201200 AAXX 20124 67477 NIL=
201802150600 AAXX 15064 67477 32980 30000 10216 20130 48530 80001
                   333 10276 20172 59014 83080
                   555 00163=
201802140600 AAXX 14064 67477 32480 41203 10219 20130 48543 83101
                   333 10276 20177 58013 83812 82080
                   555 00167=
201802131200 AAXX 13124 67477 NIL=

################################################################################
#  SYNOPS from 67481, Isoka (Zambia) | 10-07S | 032-38E | 1360 m
################################################################################
201802280600 AAXX 28064 67481 32480 52102 10216 20190 48/// 82131
                   333 10290 20178 58015 82812 82360 85080=
201802270600 AAXX 27064 67481 12480 82402 10184 20178 48/// 60124 8157/
                   333 10248 20164 58006 81610 88460=
201802260900 AAXX 26094 67481 41380 80302 10208 20192 48/// 71722 81920 85710 88460=
201802260600 AAXX 26064 67481 12380 72402 10208 20198 48/// 60174 8557/
                   333 10278 20191 59008 85609 87460=
201802230600 AAXX 23064 67481 32480 60000 10220 20181 48/// 81502
                   333 10280 20170 58000 81610 86080=
201802220900 AAXX 22094 67481 41680 62403 10276 20183 48/// 86200
                   333 59011 81935 86835=
201802220600 AAXX 22064 67481 32480 63001 10212 20187 48/// 81132
                   333 10306 20169 59014 81810 81360 86080=
201802210900 AAXX 21094 67481 42680 62803 10272 20178 48/// 81101
                   333 5//// 81835 86080=
201802201500 AAXX 20154 67481 NIL=
201802201200 AAXX 20124 67481 NIL=
201802150600 AAXX 15064 67481 32980 43601 10220 29180 48/// 80001
                   333 10291 20161 59001 84080=
201802140600 AAXX 14064 67481 32980 40304 10209 20187 48/// 83051
                   333 10295 20160 59002 83360 82080=
201802131200 AAXX 13124 67481 NIL=
201802130600 AAXX 13064 67481 12980 23302 10203 20183 48/// 60034 82030
                   333 10301 20151 58005 82360=

################################################################################
#  SYNOPS from 67531, Zambezi (Zambia) | 13-32S | 023-07E | 1077 m
################################################################################
201802280600 AAXX 28064 67531 36480 63605 10219 20205 48/// 70222 83532
                   333 10324 20182 58001 83610 84362 83080
                   555 00190=
201802270600 AAXX 27064 67531 32980 23005 10207 20197 48/// 70200 80001
                   333 10301 20158 58004 82080
                   555 00164=
201802260600 AAXX 26064 67531 12980 73603 10189 20182 48/// 60104 70222 8707/
                   333 10302 20175 59015 87361
                   555 00194=
201802230600 AAXX 23064 67531 12980 70402 10211 20197 48/// 60194 8707/
                   333 10272 20170 58006 87460
                   555 00183=
201802220900 AAXX 22094 67531 NIL=
201802220600 AAXX 22064 67531 11480 73604 10220 20198 48/// 69904 71799 8487/
                   333 10301 20181 59020 81929 82610 82810 87360
                   555 00190=
201802201500 AAXX 20154 67531 NIL=
201802201200 AAXX 20124 67531 NIL=
201802150600 AAXX 15064 67531 12380 60000 10204 20192 48/// 60064 81678
                   333 10276 20170 59012 81708 83361 84281
                   555 00180=
201802131200 AAXX 13124 67531 NIL=
201802130600 AAXX 13064 67531 11370 73606 10195 20188 48/// 60134 76066 8377/
                   333 10323 20181 58012 83706 87360
                   555 00200=

################################################################################
#  SYNOPS from 67541, Kasempa (Zambia) | 13-32S | 025-51E | 1234 m
################################################################################
201802280600 AAXX 28064 67541 32480 70603 10205 20198 48496 70222 81135
                   333 10320 20178 59003 81810 81360 85080=
201802270600 AAXX 27064 67541 32980 30605 10221 20201 48499 70222 83030
                   333 10280 20170 58002 83360=
201802260600 AAXX 26064 67541 12980 70000 10193 20181 48297 60014 70222 8703/
                   333 10294 20168 59007 87360=
201802230600 AAXX 23064 67541 11360 70605 10186 20186 48506 60554 76066 8253/
                   333 10302 20178 58009 82706 87360=
201802220900 AAXX 22094 67541 NIL=
201802220600 AAXX 22064 67541 12980 70000 10185 20185 48497 60014 70222 8703/
                   333 10300 20174 59013 87360=
201802201500 AAXX 20154 67541 NIL=
201802201200 AAXX 20124 67541 NIL=
201802150600 AAXX 15064 67541 12980 70602 10195 20195 48512 60174 70222 87030
                   333 10310 20168 59018 87360=
201802131200 AAXX 13124 67541 NIL=
201802130600 AAXX 13064 67541 12980 70703 10189 20183 48535 60014 70222 8703/
                   333 10300 20170 5//// 87360=

################################################################################
#  SYNOPS from 67543, Kabompo (Zambia) | 13-36S | 024-12E | 1075 m
################################################################################
201802280600 AAXX 28064 67543 32983 70000 10212 20198 48/// 85035
                   333 10322 20190 59002 85361 86280
                   555 00170=
201802270600 AAXX 27064 67543 11983 20000 10204 20192 48/// 60014 72844 82030
                   333 10310 20178 58008 82361
                   555 00164=
201802260600 AAXX 26064 67543 12383 80000 10194 20182 48/// 60354 70226 886//
                   333 10308 20182 59003 88708
                   555 00160=
201802230600 AAXX 23064 67543 12683 80000 10208 20199 48/// 60024 8267/
                   333 10296 20200 58004 82707 88760
                   555 00188=
201802220900 AAXX 22094 67543 NIL=
201802220600 AAXX 22064 67543 12383 80000 10202 20195 48/// 60074 8267/
                   333 10298 20194 59019 82707 88360
                   555 00180=
201802201500 AAXX 20154 67543 NIL=
201802201200 AAXX 20124 67543 NIL=
201802150600 AAXX 15064 67543 12360 70000 10206 20188 48/// 60044 82635
                   333 10280 20176 59004 82707 84360 85280
                   555 00168=
201802140600 AAXX 14064 67543 12480 70000 10204 20195 48/// 60114 70229 8353/
                   333 10298 20196 58004 83615 87360
                   555 00176=
201802131200 AAXX 13124 67543 NIL=
201802130600 AAXX 13064 67543 11380 70000 10200 20188 48/// 60144 72166 8361/
                   333 10320 20190 58008 83707 87460
                   555 00172=

################################################################################
#  SYNOPS from 67551, Solwezi (Zambia) | 12-11S | 026-23E | 1386 m
################################################################################
201802280600 AAXX 28064 67551 11958 83403 10177 20174 48509 60074 76166 8807/
                   333 10252 20//0 58006 88362
                   555 00184 91018=
201802270600 AAXX 27064 67551 32980 53403 10220 20193 48501 85030
                   333 10291 20//0 58002 85362
                   555 00239 91017=
201802260600 AAXX 26064 67551 12375 72704 10194 20178 48497 60014 8557/
                   333 10278 20//0 59008 85608 87362
                   555 00239 91017=
201802230600 AAXX 23064 67551 12275 73003 10187 20182 48511 60014 72562 877//
                   333 10301 20//0 58013 87704
                   555 00209 91018=
201802220900 AAXX 22094 67551 NIL=
201802220600 AAXX 22064 67551 12380 70904 10194 20178 48493 69914 8267/
                   333 10294 20/// 59016 82704 87362
                   555 00210 91016=
201802201500 AAXX 20154 67551 NIL=
201802201200 AAXX 20124 67551 NIL=
201802150600 AAXX 15064 67551 12380 71206 10195 20176 48522 69934 875//
                   333 10299 20//0 59007 87608
                   555 00224 91020=
201802131200 AAXX 13124 67551 NIL=
201802130600 AAXX 13064 67551 12980 70503 10183 20176 48529 60334 8707/
                   333 10211 20/// 58013 87362
                   555 00210 91021=

################################################################################
#  SYNOPS from 67561, Ndola (Zambia) | 13-00S | 028-39E | 1269 m
################################################################################
201802280900 AAXX 28094 67561 41570 79902 10193 20186 48511 76099 8127/
                   333 58004 81820 87459 91018=
201802270600 AAXX 27064 67561 11375 60807 10191 20183 48510 60294 72842 81632
                   333 10275 20172 58007 81706 84360 83080 91018=
201802260600 AAXX 26064 67561 31360 70807 10190 20183 48495 60034 70592 84638
                   333 10288 20175 59005 84708 85360 87280
                   555 00/// 20018 91017=
201802230600 AAXX 23064 67561 11270 82306 10190 20186 48505 60174 76166 8577/
                   333 10304 20179 58009 87704 88459
                   555 91018=
201802220900 AAXX 22094 67561 NIL=
201802220600 AAXX 22064 67561 31975 59903 10220 20193 48499 70522 83032
                   333 10288 20174 59019 83360 83080 91017=
201802201500 AAXX 20154 67561 NIL=
201802201200 AAXX 20124 67561 NIL=
201802150600 AAXX 15064 67561 11365 70000 10189 20181 48524 60024 72162 81638
                   333 10300 20174 59005 81707 83360 87280 91020=
201802141800 AAXX 14184 67561 41975 71006 10234 20191 48510 70522 81938
                   333 10299 59005 81959 83360 87280 91018=
201802140600 AAXX 14064 67561 11975 40914 10227 20189 48532 69904 70522 81032
                   333 10292 20173 59014 81360 84080 91020=
201802131200 AAXX 13124 67561 42680 60706 10270 20175 48526 70322 85208
                   333 58014 85835 86280
                   555 66032 77/// 8886/ 98041 91019=
201802130600 AAXX 13064 67561 11970 80000 10188 20184 48542 60234 70522 8807/
                   333 10281 20168 58010 88459 91022=

################################################################################
#  SYNOPS from 67563, Kafironda (Zambia) | 12-36S | 028-07E | 1243 m
################################################################################
201802280600 AAXX 28064 67563 11356 80000 10190 20188 48/// 60204 76096 8277/
                   333 10292 20185 59002 82708 86457
                   555 00185=
201802270600 AAXX 27064 67563 11970 70000 10200 20198 48/// 60164 70522 87030
                   333 10220 20174 58005 87360
                   555 00172=
201802260600 AAXX 26064 67563 11378 70000 10198 20190 48/// 60064 70522 81770
                   333 10290 20177 59008 81610 86458
                   555 00180=
201802230600 AAXX 23064 67563 11478 80000 10186 20180 48/// 60054 72166 8277/
                   333 10300 20166 58002 82710 88358
                   555 00172=
201802220900 AAXX 22094 67563 NIL=
201802220600 AAXX 22064 67563 11460 72802 10185 20172 48/// 60034 70522 87600
                   333 10310 20160 59005 87610
                   555 00155=
201802201500 AAXX 20154 67563 NIL=
201802201200 AAXX 20124 67563 NIL=
201802150600 AAXX 15064 67563 NIL=
201802131200 AAXX 13124 67563 NIL=
201802130600 AAXX 13064 67563 11378 80000 10185 20180 48/// 60404 70522 8277/
                   333 10298 20170 58015 82708 86458
                   555 00180=

################################################################################
#  SYNOPS from 67571, Serenje (Zambia) | 13-14S | 030-13E | 1384 m
################################################################################
201802270600 AAXX 27064 67571 11379 80000 10194 20174 48/// 60274 72842 81637
                   333 10258 20156 5//// 81708 85360 88280
                   555 00232=
201802261200 AAXX 26124 67571 41610 81203 10200 20186 48/// 79796 8627/
                   333 5//// 81935 86835 88460=
201802260600 AAXX 26064 67571 12379 83602 10194 20188 48/// 60064 70222 81688
                   333 10278 20182 5//// 81708 85360 87280
                   555 00242=
201802231200 AAXX 23124 67571 41670 72703 10202 20174 48/// 79596 872//
                   333 5//// 81935 87835=
201802230600 AAXX 23064 67571 12482 72702 10199 20174 48/// 60114 70222 82538
                   333 10285 20175 5//// 82615 81360 87280
                   555 00238=
201802220900 AAXX 22094 67571 NIL=
201802220600 AAXX 22064 67571 12582 51205 10230 20179 48/// 69904 70222 81538
                   333 10289 20186 5////
                   555 00271=
201802210900 AAXX 21094 67571 42682 70605 10271 20171 48/// 70222 83208
                   333 5//// 83830 87280=
201802201500 AAXX 20154 67571 NIL=
201802201200 AAXX 20124 67571 42682 71505 10273 20170 48/// 70222 83208
                   333 5//// 81945 83845 87280=
201802150900 AAXX 15094 67571 42682 70303 10271 20188 48/// 70222 83208
                   333 5//// 81935 83835 87280=
201802150600 AAXX 15064 67571 NIL=
201802140600 AAXX 14064 67571 12379 70905 10212 20179 48/// 60264 70222 81608
                   333 10287 20184 5//// 81705 87280
                   555 00229=
201802131200 AAXX 13124 67571 NIL=
201802130900 AAXX 13094 67571 42682 73602 10269 20174 48/// 70222 82138
                   333 5//// 82832 81360 87280=
201802130600 AAXX 13064 67571 12982 71202 10221 20178 48/// 60034 70222 82038
                   333 10267 20156 5//// 82360 87280
                   555 00246=

################################################################################
#  SYNOPS from 67575, Mkushi (Zambia) | 13-38-00S | 029-26-00E | 1237 m
################################################################################
201802270600 AAXX 27064 67575 12480 80601 10196 20182 48469 69944 81178
                   333 10270 20167 58008 81815 81360 88280
                   555 00167=
201802260600 AAXX 26064 67575 11680 80000 10187 20184 48454 60314 70362 8807/
                   333 10300 20173 59005 88360
                   555 00178=
201802230600 AAXX 23064 67575 11365 71801 10184 20181 48463 60164 76096 87770
                   333 10304 20170 58010 87706 81359
                   555 00180=
201802220900 AAXX 22094 67575 NIL=
201802220600 AAXX 22064 67575 12480 50903 10228 20192 48456 69934 81138
                   333 10300 20176 59009 81815 81360 85280
                   555 00164=
201802201500 AAXX 20154 67575 NIL=
201802201200 AAXX 20124 67575 NIL=
201802150600 AAXX 15064 67575 12380 70901 10201 20191 48486 60144 87671
                   333 10303 20173 59009 87708 81360 81080
                   555 00170=
201802140600 AAXX 14064 67575 12480 31005 10224 20188 48496 60014 81571
                   333 10301 20181 59007 81615 82360 82080
                   555 00172=
201802131200 AAXX 13124 67575 NIL=
201802130600 AAXX 13064 67575 32980 70000 10194 20180 48501 87070
                   333 10288 20165 58010 87360
                   555 00165=

################################################################################
#  SYNOPS from 67580, Msekera (Zambia) | 13-39S | 032-34E | 1025 m
################################################################################
201802280600 AAXX 28064 67580 12580 71203 10216 20202 48/// 60104 82531
                   333 10304 20194 5//// 82624 82360 87080=
201802260600 AAXX 26064 67580 12980 70902 10214 20199 48/// 60074 85031
                   333 10305 20182 5//// 85360 82080=
201802230600 AAXX 23064 67580 12580 70000 10228 20204 48/// 60014 82231
                   333 10330 20193 58004 82826 83360 87080=
201802220900 AAXX 22094 67580 NIL=
201802220600 AAXX 22064 67580 12980 41004 10248 20200 48/// 69944 84030
                   333 10297 20185 59008 84360=
201802210900 AAXX 21094 67580 41680 70903 10254 20203 48/// 78022 87201
                   333 59009 87844 84080=
201802201500 AAXX 20154 67580 NIL=
201802201200 AAXX 20124 67580 NIL=
201802150600 AAXX 15064 67580 32680 50902 10248 20200 48/// 81131
                   333 10326 20189 5//// 81832 82360 83080=
201802131200 AAXX 13124 67580 NIL=
201802130900 AAXX 13094 67580 42780 53604 10279 20193 48/// 83101
                   333 58013 83850 82080=
201802130600 AAXX 13064 67580 12680 41202 10247 20193 48/// 60124 82101
                   333 10320 20182 58015 82834 82080=

################################################################################
#  SYNOPS from 67581, Chipata (Zambia) | 13-33S | 032-35E | 1028 m
################################################################################
201802280600 AAXX 28064 67581 12580 71203 10230 20207 48513 60034 84832
                   333 10292 20181 59021 82825 82627 85360 82080
                   91016=
201802270600 AAXX 27064 67581 12580 71604 10216 20178 48532 60024 82170
                   333 10264 20162 58013 82825 86460 91018=
201802230600 AAXX 23064 67581 12680 60000 10232 20197 48512 69904 82132
                   333 10298 20175 58004 82830 83360 84080 91016=
201802220900 AAXX 22094 67581 NIL=
201802220600 AAXX 22064 67581 12682 50503 10271 20193 48514 60014 82130
                   333 10299 20173 59009 82835 83360 91012=
201802201500 AAXX 20154 67581 NIL=
201802201200 AAXX 20124 67581 NIL=
201802150600 AAXX 15064 67581 32680 31403 10246 20191 48542 82132
                   333 10323 20175 59021 82830 82360 82080 91019=
201802131200 AAXX 13124 67581 NIL=
201802130600 AAXX 13064 67581 12580 41204 10244 20181 48559 60254 81102
                   333 10293 20172 58012 82825 83080 91021=

################################################################################
#  SYNOPS from 67583, Lundazi (Zambia) | 12-17S | 033-12E | 1143 m
################################################################################
201802270600 AAXX 27064 67583 12978 80000 10200 20195 48/// 60034 8807/
                   333 10290 20168 5//// 88359=
201802260600 AAXX 26064 67583 11978 80000 10194 20194 48/// 60604 76162 8807/
                   333 10280 20172 5//// 88459=
201802230600 AAXX 23064 67583 32980 70000 10228 20202 48/// 70222 82038
                   333 10324 20162 5//// 82359 87280=
201802220900 AAXX 22094 67583 NIL=
201802220600 AAXX 22064 67583 NIL=
201802201500 AAXX 20154 67583 NIL=
201802201200 AAXX 20124 67583 NIL=
201802150600 AAXX 15064 67583 12980 70000 10222 20205 48/// 60054 70222 80008
                   333 10318 20150 5//// 87280=
201802140600 AAXX 14064 67583 12980 60901 10228 20202 48/// 69904 70224 80006
                   333 10318 20160 5//// 86280=
201802131200 AAXX 13124 67583 NIL=
201802130600 AAXX 13064 67583 12980 31502 10234 20202 48/// 60014 70122 80005
                   333 10320 20168 5//// 83280=

################################################################################
#  SYNOPS from 67599, Mfuwe (Zambia) | 13-16S | 031-56E | 568 m
################################################################################
201802280600 AAXX 28064 67599 32480 70000 10242 20213 48507 81530
                   333 10328 20219 59017 81610 87360
                   555 00221 91014=
201802270600 AAXX 27064 67599 12480 71003 10225 20211 48516 60254 81530
                   333 10246 20196 58009 81610 87360
                   555 00202 91016=
201802260600 AAXX 26064 67599 12270 80000 10217 20210 48508 60144 70322 877//
                   333 10338 20199 58003 87704
                   555 00213 91015=
201802230600 AAXX 23064 67599 12980 61403 10253 20214 48508 60014 86031
                   333 10349 20207 58005 86360 81080 91014=
201802220900 AAXX 22094 67599 NIL=
201802220600 AAXX 22064 67599 32980 60000 10245 20209 48500 86030
                   333 10339 20218 59009 86360
                   555 00224 91013=
201802201500 AAXX 20154 67599 NIL=
201802201200 AAXX 20124 67599 NIL=
201802150600 AAXX 15064 67599 32980 50000 10273 20215 48541 81037
                   333 10365 20204 59021 81360 85280
                   555 00206 91017=
201802131200 AAXX 13124 67599 NIL=
201802130600 AAXX 13064 67599 12980 60000 10251 20214 48556 60064 80002
                   333 10345 20200 58020 86080
                   555 00206 91019=

################################################################################
#  SYNOPS from 67625, Kalabo (Zambia) | 14-51S | 022-42E | 1033 m
################################################################################
201802280600 AAXX 28064 67625 32982 81102 10215 20203 48/// 84033
                   333 10297 20194 58000 84360 88075
                   555 00188=
201802260600 AAXX 26064 67625 12482 82704 10211 20199 48/// 60054 83633
                   333 10306 20190 59003 83710 84360 88075
                   555 00185=
201802230600 AAXX 23064 67625 12482 83603 10206 20203 48/// 60204 87633
                   333 10295 20190 59009 87710 85361 88075
                   555 00202=
201802220900 AAXX 22094 67625 NIL=
201802220600 AAXX 22064 67625 12982 83604 10228 20201 48/// 60034 84073
                   333 10269 20215 59012 84360 88075
                   555 00206=
201802201500 AAXX 20154 67625 NIL=
201802201200 AAXX 20124 67625 NIL=
201802150600 AAXX 15064 67625 12982 80902 10210 20196 48/// 60064 85033
                   333 10262 20200 59018 85361 88075
                   555 00188=
201802140600 AAXX 14064 67625 32982 80603 10230 20206 48/// 87073
                   333 10300 20216 58006 87360 88075
                   555 00210=
201802131200 AAXX 13124 67625 NIL=
201802130600 AAXX 13064 67625 12482 70303 10215 20193 48/// 69904 81623
                   333 10323 20200 58020 81710 84460 87075
                   555 00200=

################################################################################
#  SYNOPS from 67633, Mongu (Zambia) | 15-15S | 023-09E | 1052 m
################################################################################
201802280600 AAXX 28064 67633 32980 71201 10228 20208 48495 70222 87030
                   333 10299 20200 59017 87360 91015=
201802270600 AAXX 27064 67633 32380 72706 10210 20193 48505 876//
                   333 10310 20200 58010 87708 91016=
201802260600 AAXX 26064 67633 12480 63605 10220 20207 48497 60064 70322 84603
                   333 10308 20195 58017 84650 82360 91015=
201802230600 AAXX 23064 67633 12980 70205 10206 20200 48482 60044 70222 87032
                   333 10212 20193 58000 87360 83080 91014=
201802220900 AAXX 22094 67633 NIL=
201802220600 AAXX 22064 67633 12980 70705 10214 20203 48482 69904 70222 8707/
                   333 10295 20207 59021 87460 91014=
201802201500 AAXX 20154 67633 NIL=
201802201200 AAXX 20124 67633 NIL=
201802150600 AAXX 15064 67633 12980 70903 10215 20188 48511 60014 70222 87030
                   333 10282 20186 59022 57360 91017=
201802140600 AAXX 14064 67633 11580 70903 10215 20194 48532 69914 75099 8553/
                   333 10316 20200 58009 85625 83360 91019=
201802131200 AAXX 13124 67633 NIL=
201802130600 AAXX 13064 67633 32980 50302 10216 20193 48524 70222 85030
                   333 10318 20200 58013 85360 91018=

################################################################################
#  SYNOPS from 67641, Kaoma (Zambia) | 14-48S | 024-48E | 1213 m
################################################################################
201802270600 AAXX 27064 67641 12580 72403 10200 20193 48486 69904 70322 85501
                   333 10281 20187 58015 85632 86080 91014=
201802260600 AAXX 26064 67641 12580 83104 10197 20190 48472 60054 70222 8657/
                   333 10293 20180 59015 86620 88460 91013=
201802230600 AAXX 23064 67641 12580 70902 10200 20187 48483 60014 8153/
                   333 10301 20183 58006 81620 87360 91014=
201802220900 AAXX 22094 67641 NIL=
201802220600 AAXX 22064 67641 11980 70701 10195 20188 48476 60114 72166 87030
                   333 10310 20182 59019 87360 91013=
201802201500 AAXX 20154 67641 NIL=
201802201200 AAXX 20124 67641 NIL=
201802150600 AAXX 15064 67641 12980 70806 10199 20184 48504 60124 70222 83031
                   333 10285 20178 59025 83361 86080 91016=
201802131200 AAXX 13124 67641 NIL=
201802130600 AAXX 13064 67641 12580 70000 10196 20187 48516 60104 70262 8457/
                   333 10324 20182 59013 84624 87460 91017=

################################################################################
#  SYNOPS from 67655, Mumbwa (Zambia) | 15-04S | 027-11E | 1216 m
################################################################################
201802280600 AAXX 28064 67655 12480 80811 10203 20194 48515 60034 8353/
                   333 10277 20180 59001 83615 83820 86359 91018=
201802270600 AAXX 27064 67655 12480 70606 10203 20193 48516 60034 8253/
                   333 10277 20178 58013 82615 83820 83359 91018=
201802260600 AAXX 26064 67655 12480 70000 10200 20185 48504 60134 8258/
                   333 10296 20179 59012 82612 85359 91016=
201802230600 AAXX 23064 67655 NIL=
201802220900 AAXX 22094 67655 NIL=
201802220600 AAXX 22064 67655 11480 70000 10201 20169 48456 60134 71722 875//
                   333 10281 20172 59010 87615 819// 91017=
201802201500 AAXX 20154 67655 NIL=
201802201200 AAXX 20124 67655 NIL=
201802150600 AAXX 15064 67655 NIL=
201802131200 AAXX 13124 67655 NIL=

################################################################################
#  SYNOPS from 67659, Kafue Polder (Zambia) | 15-46S | 027-55E | 978 m
################################################################################
201802270600 AAXX 27064 67659 12980 80703 10214 20203 48/// 60254 70222 8807/
                   333 10302 20196 58006 88460=
201802260600 AAXX 26064 67659 12380 83604 10217 20203 48/// 70252 8361/
                   333 10302 20190 59014 83606 87460=
201802230600 AAXX 23064 67659 12680 73302 10200 20196 48/// 60414 70266 8377/
                   333 10245 20190 5//// 83706 84460=
201802220900 AAXX 22094 67659 NIL=
201802220600 AAXX 22064 67659 32480 60705 10228 20220 48/// 70322 84501
                   333 10302 20190 59009 84610 82080=
201802201500 AAXX 20154 67659 NIL=
201802201200 AAXX 20124 67659 NIL=
201802150600 AAXX 15064 67659 12480 60703 10229 20203 48/// 60014 84530
                   333 10298 20205 59009 84615 82360=
201802131200 AAXX 13124 67659 NIL=
201802130600 AAXX 13064 67659 12380 80504 10206 20197 48/// 60234 70222 8367/
                   333 10301 20178 58030 83706 85460=

################################################################################
#  SYNOPS from 67662, Kabwe Agric (Zambia) | 14-24S | 028-30E | 1165 m
################################################################################
201802270600 AAXX 27064 67662 32480 70802 10208 20190 48/// 84530
                   333 10276 20166 5//// 84612 87360
                   555 00160=
201802230600 AAXX 23064 67662 NIL=
201802220900 AAXX 22094 67662 NIL=
201802220600 AAXX 22064 67662 NIL=
201802201500 AAXX 20154 67662 NIL=
201802201200 AAXX 20124 67662 NIL=
201802150600 AAXX 15064 67662 12380 70000 10216 20200 48/// 60434 876//
                   333 10291 20170 5//// 87707
                   555 00166=
201802131200 AAXX 13124 67662 NIL=
201802130600 AAXX 13064 67662 11365 80000 10186 20182 48/// 60084 72166 8377/
                   333 10281 20171 5//// 83707 88460
                   555 00168=

################################################################################
#  SYNOPS from 67663, Kabwe (Zambia) | 14-27S | 028-28E | 1206 m
################################################################################
201802280600 AAXX 28064 67663 11580 81807 10183 20178 48513 60184 76166 8447/
                   333 10266 20176 58003 81923 84623 88460
                   555 00192=
201802270600 AAXX 27064 67663 12480 60404 10204 20190 48517 60014 83532
                   333 10270 20180 58025 83618 83360 84080
                   555 00240=
201802260600 AAXX 26064 67663 11575 60000 10181 20179 48486 60214 79199 8447/
                   333 10299 20172 59017 81925 84625 87460
                   555 00199=
201802230600 AAXX 23064 67663 11980 83403 10176 20172 48512 60554 76166 8807/
                   333 10300 20169 58021 88460
                   555 00196=
201802220900 AAXX 22094 67663 NIL=
201802220600 AAXX 22064 67663 32580 51807 10215 20202 48487 82580
                   333 10318 20192 59004 82620 85360
                   555 00246=
201802201500 AAXX 20154 67663 NIL=
201802201200 AAXX 20124 67663 NIL=
201802150600 AAXX 15064 67663 12580 81706 10213 20193 48552 60164 885//
                   333 10285 20179 59008 88620
                   555 00244=
201802131200 AAXX 13124 67663 NIL=
201802130600 AAXX 13064 67663 11980 83508 10182 20179 48547 60114 76166 8807/
                   333 10285 20170 58032 88462
                   555 00202=

################################################################################
#  SYNOPS from 67665, Lusaka Internationalairport (Zambia) | 15-19S | 028-27E | 1152 m
################################################################################
201803030600 AAXX 03064 67665 12460 80704 10199 20191 48502 8657/
                   333 10253 20//0 58004 86610 87459=
201803030300 AAXX 03034 67665 41359 81602 10183 20183 48488 76166 8477/
                   333 58003 84709 87459=
201803030000 AAXX 03004 67665 41358 80505 10194 20194 48495 76162 8477/
                   333 58014 84709 87459=
201803022100 AAXX 02214 67665 42460 71004 10201 20194 48507 70222 83632
                   333 58007 83709 83360 85080=
201803021800 AAXX 02184 67665 42760 70906 10201 20194 48492 70222 8193/
                   333 59001 81956 86360=
201803021500 AAXX 02154 67665 42660 71308 10223 20192 48472 70322 81331
                   333 58001 81942 82845 83360 84080=
201803021200 AAXX 02124 67665 42580 70507 10254 20204 48470 70222 8133/
                   333 59012 81925 83830 86360=
201803020900 AAXX 02094 67665 42480 70206 10235 20182 48508 8683/
                   333 59013 84615 83815 86360=
201803020600 AAXX 02064 67665 12380 70203 10205 20182 48507 69944 8663/
                   333 10264 20//0 5//// 86707 87360=
201803020000 AAXX 02004 67665 41260 70203 10197 20190 48483 8263/
                   333 59009 82705 87459=
201803012100 AAXX 01214 67665 42/80 61004 10205 20198 48501 81932
                   333 59011 819// 85360 84080 91016=
201803011800 AAXX 01184 67665 42780 71602 10227 20181 48496 70222 81932
                   333 10264 59007 81956 84360 86080=
201803011500 AAXX 01154 67665 42680 63206 10248 20177 48475 70222 85231
                   333 59011 83845 83360 85080=
201803011200 AAXX 01124 67665 42580 63106 10251 20191 48491 70222 85530
                   333 59003 85722 87360=
201803010900 AAXX 01094 67665 41460 83507 10222 20192 48518 71622 8657/
                   333 59002 83612 88459 91018=
201802282100 AAXX 28214 67665 42960 72905 10209 20194 48512 70222 86032
                   333 58002 86360 82080=
201802281800 AAXX 28184 67665 42760 71102 10217 20217 30201 48502 81932
                   333 10251 58006 81950 86360 82080=
201802281500 AAXX 28154 67665 42660 60906 10243 20191 48484 81932
                   333 58002 81940 81360 85280
                   555 10251 91014=
201802281200 AAXX 28124 67665 42560 71307 10232 20194 48492 83208
                   333 58001 81925 83828 86280=
201802280900 AAXX 28094 67665 42460 70506 10214 20189 48519 72582 84570
                   333 58002 84610 87459=
201802280600 AAXX 28064 67665 42380 71008 10203 20188 48513 70222 8657/
                   333 59001 86608 86360=
201802271800 AAXX 27184 67665 42760 61205 10210 20171 48495 70122 81931
                   333 10270 20//0 59006 81950 84360 83080=
201802270900 AAXX 27094 67665 42460 80306 10218 20188 48510 8557/
                   333 58013 85615 88458 91018=
201802270600 AAXX 27064 67665 12260 80802 10179 20174 48512 60124 70322 8477/
                   333 10274 20//0 58009 84703 87458=
201802270000 AAXX 27004 67665 41359 83408 10172 20172 48499 76360 8377/
                   333 58016 83707 87459=
201802260900 AAXX 26094 67665 42480 70804 10220 20187 48506 70222 83531
                   333 58000 83615 84360 81080=
201802251800 AAXX 25184 67665 41759 82704 10203 20177 48489 79599 81978
                   333 59004 81956 86458 86280=
201802251200 AAXX 25124 67665 42680 63108 10290 20174 48483 84232
                   333 59011 84835 83360 83080=
201802250900 AAXX 25094 67665 42580 63506 10263 20197 48510 84131
                   333 59009 84820 84360 83080=
201802250000 AAXX 25004 67665 42980 60000 10203 20196 48493 70222 86030
                   333 59008 86360 91015=
201802242100 AAXX 24214 67665 42980 50000 10203 20196 48501 70222 86030
                   333 59001 86360 91016=
201802240600 AAXX 24064 67665 12460 70307 10206 20195 48519 69904 70222 8553/
                   333 10281 20//0 58003 85610 87359=
201802240300 AAXX 24034 67665 42380 60304 10204 20184 48499 72582 84630
                   333 58009 84709 85359=
201802240000 AAXX 24004 67665 42980 53103 10203 20185 48510 70220 85030
                   333 58010 85360=
201802232100 AAXX 23214 67665 42980 40000 10206 20184 48503 70200 84030
                   333 58011 84360=
201802231800 AAXX 23184 67665 42980 22803 10220 20174 48490 70100 82030
                   333 58003 82360 555 10281=
201802231200 AAXX 23124 67665 42680 62804 10267 20158 48493 70222 83130
                   333 58000 83830 85360=
201802230600 AAXX 23064 67665 NIL=
201802230300 AAXX 23034 67665 42260 70103 10200 20192 48491 8473/
                   333 58002 84703 87360 91015=
201802230000 AAXX 23004 67665 42/80 41303 10197 20182 48491 84030
                   333 59001 819// 84360=
201802221800 AAXX 22184 67665 41780 30704 10214 20194 48485 71322 81931
                   333 10282 59001 81956 83360 82080=
201802221500 AAXX 22154 67665 42780 61205 10243 20182 48475 70122 81931
                   333 58001 81950 83856 82360 84080=
201802221200 AAXX 22124 67665 42680 73010 10236 20175 48489 72992 81930
                   333 59003 81938 85640 83360=
201802220900 AAXX 22094 67665 NIL=
201802220600 AAXX 22064 67665 NIL=
201802211800 AAXX 21184 67665 42780 41405 10224 20194 48487 84032
                   333 10300 59015 81957 84360 81080=
201802211500 AAXX 21154 67665 42680 51104 10292 20161 48479 81932
                   333 59009 81945 83848 81360 83080
                   555 10300 91013=
201802211200 AAXX 21124 67665 42680 60305 10287 20184 48499 85202
                   333 59009 85835 83080=
201802210900 AAXX 21094 67665 42580 50506 10265 20183 48523 70300 84101
                   333 59006 84820 82080=
201802210600 AAXX 21064 67665 32480 70301 10208 20193 48516 70300 85530
                   333 10290 20//0 59013 85610 83360=
201802201500 AAXX 20154 67665 NIL=
201802201200 AAXX 20124 67665 NIL=
201802200600 AAXX 20064 67665 11460 72502 10208 20173 48529 60114 72166 82578
                   333 10//0 20//0 58008 82615 86459 85280=
201802200000 AAXX 20004 67665 42960 52005 10194 20178 48513 8197/
                   333 58012 819// 85460=
201802192100 AAXX 19214 67665 42960 51701 10199 20180 48521 8197/
                   333 58011 819// 85460=
201802191800 AAXX 19184 67665 41460 52710 10204 20179 48516 71799 81378
                   333 58021 81915 85360 84280 91018=
201802191500 AAXX 19154 67665 41658 61507 10228 20186 48497 79592 81370
                   333 59002 81935 82840 86360 91015=
201802181500 AAXX 18154 67665 41459 61404 10203 20191 48490 76168 1378
                   333 58000 81912 85360 87280 Q1015=
201802181200 AAXX 18124 67665 41455 72203 10199 20185 48503 79592 81378
                   333 58012 81915 83820 84360 87280 91017=
201802180900 AAXX 18094 67665 42460 63005 10225 20188 48523 84371
                   333 58005 81915 84820 84360 84280 91019=
201802170900 AAXX 17094 67665 42580 40507 10264 20190 48522 81931
                   333 59033 81925 83830 82360 84080=
201802170600 AAXX 17064 67665 12460 71005 10187 20179 48525 60334 72844 84530
                   333 10273 20//0 58000 84610 86360=
201802170300 AAXX 17034 67665 41/01 /0804 10180 20175 48511 74644 86030
                   333 58001 86359=
201802170000 AAXX 17004 67665 41/59 51302 10180 20173 48512 74144 82630
                   333 58003 82709 85360=
201802162100 AAXX 16214 67665 42259 41201 10179 20173 48516 70200 81630
                   333 59006 81708 83360=
201802161800 AAXX 16184 67665 42760 30802 10195 20182 48505 81930
                   333 59005 81930 82460=
201802161500 AAXX 16154 67665 42660 806006 10215 20177 48501 8197/
                   333 58501 81940 82645 88460=
201802161200 AAXX 16124 67665 41560 80000 10196 20174 48522 8187/
                   333 58010 81930 85630 88458=
201802160900 AAXX 16094 67665 41459 82610 10185 20176 48545 79596 8197/
                   333 58018 81915 85620 88458=
201802160600 AAXX 16064 67665 42380 70904 10226 20212 48527 81632
                   333 59012 81708 84360 86280
                   555 00///=
201802160300 AAXX 16034 67665 42380 41502 10199 20191 48512 81630
                   333 59020 81705 83360 91018=
201802160000 AAXX 16004 67665 42/80 31402 10199 20191 48511 83030
                   333 59016 819// 83360=
201802152100 AAXX 15214 67665 42780 50803 10206 20192 48519 84030
                   333 59001 81957 84360 91019=
201802151800 AAXX 15184 67665 42780 50603 10234 20198 48514 70222 81932
                   333 10282 59018 81956 83360 84080=
201802151500 AAXX 15154 67665 42780 50302 10263 20180 48502 70122 83202
                   333 59011 83850 84080=
201802151200 AAXX 15124 67665 42680 50208 10271 20189 48518 70222 85201
                   333 59017 85835 84080=
201802150900 AAXX 15094 67665 42580 60708 10263 20196 48537 70222 86501
                   333 59018 86625 84080=
201802150600 AAXX 15064 67665 NIL=
201802141800 AAXX 14184 67665 41750 80305 10214 20200 48530 79522 8197/
                   333 10286 59002 81950 87459=
201802141500 AAXX 14154 67665 42680 50705 10277 20171 48515 84202
                   333 59008 84845 82080
                   555 10286 91017=
201802141200 AAXX 14124 67665 42660 60810 10270 20171 48537 85202
                   333 59003 85835 82080=
201802140900 AAXX 14094 67665 42580 50810 10251 20184 48553 70222 85501
                   333 59006 85620 83080=
201802140600 AAXX 14064 67665 32380 31010 10209 20183 48580 70300 83531
                   333 59004 83608 82360 82080=
201802131200 AAXX 13124 67665 NIL=
201802130900 AAXX 13094 67665 42460 60503 10221 20175 48555 70122 83532
                   333 58050 83612 82360 86280 91022=
201802130600 AAXX 13064 67665 11257 80804 10183 20183 48550 76266 8477/
                   333 58029 84704 88458=
201802122100 AAXX 12214 67665 41959 72006 10187 20178 48531 8197/
                   333 58024 819// 87459=
201802121800 AAXX 12184 67665 41658 40504 10221 20193 48517 79522 81330
                   333 58018 819// 83830 82360 91018=
201802121500 AAXX 12154 67665 42680 40507 10259 20185 48504 70222 84530
                   333 58021 84840 83360 91016=
201802121200 AAXX 12124 67665 42680 43308 10273 20178 48513 70222 84531
                   333 58024 84635 83360=
201802120900 AAXX 12094 67665 42580 53309 10248 20172 48530 70222 84530
                   333 58028 84630 84360=
201802120000 AAXX 12004 67665 41360 70904 10193 20180 48502 8577/
                   333 58030 85706 87459=
201802112100 AAXX 11214 67665 42780 51205 10208 20200 48510 81956
                   333 58029 81956 84360 84080=
201802111800 AAXX 11184 67665 42780 50103 10224 20191 48500 81930
                   333 58029 81956 84360=
201802111500 AAXX 11154 67665 42680 62708 10264 20178 48484 85230
                   333 58032 85840 84360=
201802111200 AAXX 11124 67665 42580 62711 10248 20184 48486 86232
                   333 58038 86825 82359 82080=
201802110300 AAXX 11034 67665 42380 62902 10185 20175 48476 86600
                   333 58029 86708=
201802110000 AAXX 11004 67665 42380 60602 10184 20172 48472 86600
                   333 58025 86708=
201802102100 AAXX 10214 67665 42380 31704 10182 20172 48479 70262 83700
                   333 58020 83708=
201802101800 AAXX 10184 67665 41360 71704 10189 20182 48468 72562 8577/
                   333 58012 85706 87459=
201802100600 AAXX 10064 67665 11359 82502 10185 20178 48460 75065 8477/
                   333 10200 20//0 59034 84707 88458=
201802100300 AAXX 10034 67665 41858 81204 10177 20177 48447 76166 8807/
                   333 59043 88458=
201802100000 AAXX 10004 67665 41359 81305 10177 20177 48446 76166 8477/
                   333 59035 84709 88459=
201802092100 AAXX 09214 67665 41358 83601 10181 20181 48459 76166 8577/
                   333 59038 85709 88458=
201802090300 AAXX 09034 67665 41215 83204 10175 20175 48488 76166 8577/
                   333 59014 85703 88458 91015=
201802090000 AAXX 09004 67665 41359 81006 10192 20184 48581 76166 8477/
                   333 59020 84705 88459=
201802082100 AAXX 08214 67665 41560 80907 10194 20178 48497 72162 8557/
                   333 59015 85620 88458 91016=
201802081800 AAXX 08184 67665 42459 80909 10192 20184 48497 72166 8357/
                   333 10244 58000 83618 88459=
201802081500 AAXX 08154 67665 41609 80805 10205 20190 48492 76366 8457/
                   333 58011 84640 88459=
201802081200 AAXX 08124 67665 41459 71110 10211 20188 48498 76022 8557/
                   333 58024 86625 87459=
201802080600 AAXX 08064 67665 32360 70507 10201 20194 48510 60284 8363/
                   333 58011 83707 87459=
201802071800 AAXX 07184 67665 41758 82302 10215 20207 48501 76166 8197/
                   333 10280 58002 81950 87459=
201802071500 AAXX 07154 67665 41660 71304 10221 20206 48482 72582 8197/
                   333 58001 81940 83845 87459
                   555 10280 91014=
201802071200 AAXX 07124 67665 41660 70807 10270 20205 48481 71622 81931
                   333 59021 81930 86832 86360 81080=
201802070900 AAXX 07094 67665 42580 60508 10249 20189 48508 70122 86230
                   333 59010 86825 84360=
201802070600 AAXX 07064 67665 42480 40910 10220 20195 48502 70322 83531
                   333 10273 20//0 59019 83615 83360 84080 91016=
201802061800 AAXX 06184 67665 41760 61204 10215 20159 48494 81932
                   333 5//// 82360 85080=
201802061500 AAXX 06154 67665 42660 60607 10245 20196 48484 82232
                   333 10273 20//0 5//// 82840 82360 85080=
201802061200 AAXX 06124 67665 42560 70000 20171 48497 83232
                   333 59003 83830 85360 81080=
201802060900 AAXX 06094 67665 42460 70905 10255 20196 48518 84531
                   333 59002 84615 85360 81080 91018=
201802060600 AAXX 06064 67665 32280 70905 10210 20197 48519 8673/
                   333 58005 86705 86360=
201802052100 AAXX 05214 67665 42980 62303 10203 20194 48512 8603/
                   333 58003 86360=
201802051200 AAXX 05124 67665 42580 60605 10264 20200 48503 50222 85531
                   333 59003 85630 84360 81080 91016=
201802050900 AAXX 05094 67665 42480 71207 10234 20204 48518 85530
                   333 59007 85620 85360=
201802050300 AAXX 05034 67665 42980 61004 10215 20200 48502 70222 83032
                   333 59008 83360 84080=
201802050000 AAXX 05004 67665 42980 61004 10215 20200 48502 70222 83032
                   333 59008 83360 84080=
201802041800 AAXX 04184 67665 41780 50802 10231 20205 48499 71322 81932
                   333 59017 81956 81360 84080=
201802041500 AAXX 04154 67665 42680 63102 10278 20182 48488 84202
                   333 59015 84840 85080=
201802041200 AAXX 04124 67665 42680 60302 10258 20186 48506 84232
                   333 59009 84830 83360 85080=
201802040900 AAXX 04094 67665 42580 70808 10250 20198 48527 70222 8553/
                   333 59005 85625 87360 91019=
201802031800 AAXX 03184 67665 42660 71002 10219 20204 48514 70222 81971
                   333 58015 81950 85460 87480=
201802031500 AAXX 03154 67665 42660 71202 10232 20203 48497 70222 8197/
                   333 58017 81935 82840 87360=
201802031200 AAXX 03124 67665 42480 73605 10248 20199 48532 8553/
                   333 58009 85615 87360=
201802030900 AAXX 03094 67665 42480 73605 10248 20199 48532 8553/
                   333 58011 85615 87360=
201802030600 AAXX 03064 67665 32980 71003 10216 20194 48530 70322 87030
                   333 10292 20//0 58018 86359=
201802030300 AAXX 03034 67665 42980 41303 10207 20192 48510 70200 84030
                   333 58015 84360=
201802030000 AAXX 03004 67665 42980 51702 10214 20199 48510 70222 85030
                   333 58008 85360=
201802022100 AAXX 02214 67665 42980 51104 10216 20194 48516 70300 81930
                   333 59004 819// 85360=
201802021800 AAXX 02184 67665 41/80 20204 10234 20198 48501 71300 81901
                   333 58004 819// 82080=
201802021500 AAXX 02154 67665 42680 40608 10277 20176 48586 81932
                   333 58003 81940 81840 82360 84080=
201802021200 AAXX 02124 67665 42680 60307 10270 20188 48508 85232
                   333 58014 85832 81360 86080=
201802020900 AAXX 02094 67665 42460 60504 10250 20191 48521 86501
                   333 58004 86620 85080=
201802020600 AAXX 02064 67665 11359 80000 10194 20187 48509 8577/
                   333 10295 20//0 85704 88459
                   555 00///=
201802020300 AAXX 02034 67665 42360 80000 10189 20189 48493 8577/
                   333 59002 85705 88459=
201802020000 AAXX 02004 67665 41359 81402 10192 20184 48500 76166 8577/
                   333 58009 85706 88459=
201802012100 AAXX 01214 67665 41756 83206 10192 20192 48516 76166 8197/
                   333 58015 81950 87459 91018=
201802011800 AAXX 01184 67665 42/59 71316 10226 20197 48497 71322 81930
                   333 10295 59001 819// 86359=
201802011500 AAXX 01154 67665 42670 70804 10229 20192 48477 72052 81902
                   333 58005 81940 84845 84108=
201802011200 AAXX 01124 67665 42680 62510 10270 20189 48494 70222 85201
                   333 58004 85830 82080=
201802010600 AAXX 01064 67665 42360 72906 10205 20174 48514 72522 8457/
                   333 10216 20//0 58001 84709 87459=

################################################################################
#  SYNOPS from 67666, Lusaka City Airport (Zambia) | 15-25-00S | 028-28-00E | 1280 m
################################################################################
201802280600 AAXX 28064 67666 11480 82006 10178 20172 48508 69904 75022 886//
                   333 10253 20183 58002 88710 91017=
201802270600 AAXX 27064 67666 12980 80910 10187 20176 48507 60024 8807/
                   333 10260 20168 58014 88459 91017=
201802260600 AAXX 26064 67666 11380 80107 10187 20182 48493 60084 75155 887//
                   333 10281 20192 59015 88709 91016=
201802230600 AAXX 23064 67666 11380 80402 10185 20177 48509 60054 72052 8277/
                   333 10261 20179 58008 82709 88458 91017=
201802220900 AAXX 22094 67666 NIL=
201802220600 AAXX 22064 67666 32480 60610 10218 20194 48502 70322 83536
                   333 10296 20173 59008 83615 82356 85276 91016=
201802210900 AAXX 21094 67666 42580 40807 10255 20180 48512 70322 82136
                   333 59001 82825 81359 84080 91017=
201802201500 AAXX 20154 67666 NIL=
201802201200 AAXX 20124 67666 NIL=
201802150600 AAXX 15064 67666 12480 81105 10208 20193 48535 60104 70222 8653/
                   333 10276 20186 59006 86610 87358 91020=
201802131200 AAXX 13124 67666 NIL=
201802130600 AAXX 13064 67666 11980 81601 10186 20186 48544 60274 72162 8807/
                   333 10272 20172 58026 88459 91021=

################################################################################
#  SYNOPS from 67667, Mount Makulu (Zambia) | 15-33S | 028-15E | 1213 m
################################################################################
201802280600 AAXX 28064 67667 11580 70000 10174 20172 48566 60054 78022 87600
                   333 10298 20164 58004 87628=
201802230600 AAXX 23064 67667 11580 82701 10184 20180 48544 60044 75022 84508
                   333 10300 20175 58001 84625 88280=
201802220900 AAXX 22094 67667 NIL=
201802220600 AAXX 22064 67667 32580 50905 10224 20194 48538 82502
                   333 10306 20161 58001 82625 85080=
201802201500 AAXX 20154 67667 NIL=
201802201200 AAXX 20124 67667 NIL=
201802150600 AAXX 15064 67667 12580 61001 10218 20193 48591 60014 70222 85531
                   333 10306 20174 58006 83625 82830 82360 82080=
201802131200 AAXX 13124 67667 NIL=
201802130600 AAXX 13064 67667 12580 80000 10190 20191 48601 60384 70222 88500
                   333 10316 20170 59028 88625=

################################################################################
#  SYNOPS from 67673, Petauke (Zambia) | 14-15S | 031-17E | 1035 m
################################################################################
201802280600 AAXX 28064 67673 12584 60901 10238 20208 48521 69904 84130
                   333 10288 20180 59009 84828 86360=
201802261200 AAXX 26124 67673 42584 80000 10200 20191 48499 8513/
                   333 5//// 85828 88360=
201802260900 AAXX 26094 67673 41560 80000 10188 20183 48508 76166 885//
                   333 5//// 88628=
201802260600 AAXX 26064 67673 11580 80000 10200 20188 48514 60544 76066 8657/
                   333 10310 20180 58002 86625 88459=
201802230600 AAXX 23064 67673 NIL=
201802220900 AAXX 22094 67673 NIL=
201802220600 AAXX 22064 67673 NIL=
201802210900 AAXX 21094 67673 42684 60502 10288 20203 48528 86201
                   333 59024 86832 83080=
201802201500 AAXX 20154 67673 NIL=
201802201200 AAXX 20124 67673 NIL=
201802150600 AAXX 15064 67673 NIL=
201802140900 AAXX 14094 67673 42684 61002 10262 20198 48516 86231
                   333 58007 86832 82360 81080=
201802131200 AAXX 13124 67673 42684 43602 10284 20188 48492 84201
                   333 59037 84840 82080=
201802130900 AAXX 13094 67673 42684 53602 10268 20197 48511 85201
                   333 59030 85830 84080=
201802130600 AAXX 13064 67673 32584 43601 10250 20193 48517 82131
                   333 10290 20179 59025 82830 84360 82080=

################################################################################
#  SYNOPS from 67731, Senanga (Zambia) | 16-06S | 023-16E | 1027 m
################################################################################
201802280600 AAXX 28064 67731 12580 713// 10230 20209 48/// 60084 70222 85280
                   333 10257 20212 58019 85820 84360
                   555 00175=
201802270600 AAXX 27064 67731 11360 812// 10216 20191 48/// 60024 76166 8372/
                   333 10293 20158 59015 83708 88459
                   555 00148=
201802260600 AAXX 26064 67731 12380 825// 10225 20190 48/// 60014 70222 8377/
                   333 10298 20153 59012 83709 88460
                   555 00148=
201802230600 AAXX 23064 67731 32480 718// 10219 20193 48/// 70122 84520
                   333 10260 20205 58003 84616 86460
                   555 00200=
201802220900 AAXX 22094 67731 NIL=
201802220600 AAXX 22064 67731 32580 717// 10235 20193 48/// 70222 82250
                   333 10285 20206 59031 82823 87360
                   555 00195=
201802201500 AAXX 20154 67731 NIL=
201802201200 AAXX 20124 67731 NIL=
201802150600 AAXX 15064 67731 32980 729// 10219 20178 48/// 70222 85078
                   333 10300 20180 59028 85360 86280
                   555 00177=
201802140600 AAXX 14064 67731 12580 712// 10226 20200 48/// 60044 70222 83570
                   333 10300 20209 58012 83625 86360
                   555 00206=
201802131200 AAXX 13124 67731 NIL=
201802130600 AAXX 13064 67731 32480 827// 10233 20203 48/// 70322 84282
                   333 10310 20204 58019 84815 85360 84080
                   555 00196=

################################################################################
#  SYNOPS from 67741, Sesheke (Zambia) | 17-28S | 024-18E | 949 m
################################################################################
201802270600 AAXX 27064 67741 12680 80000 10211 20205 48498 60154 885//
                   333 10262 20206 58015 88635
                   555 00183=
201802260600 AAXX 26064 67741 11670 81901 10197 20194 48479 60254 76022 885//
                   333 10248 20193 5//// 88630=
201802230600 AAXX 23064 67741 12680 70000 10207 20200 48481 60114 8157/
                   333 10319 20197 59005 81635 87460
                   555 00181=
201802220900 AAXX 22094 67741 NIL=
201802220600 AAXX 22064 67741 12980 50401 10222 20206 48483 60054 85031
                   333 10300 20188 59020 85362 81080
                   555 00163=
201802201500 AAXX 20154 67741 NIL=
201802201200 AAXX 20124 67741 NIL=
201802150600 AAXX 15064 67741 12980 63601 10208 20183 48517 60014 85031
                   333 10299 20184 59021 85362 82080
                   555 00160=
201802131200 AAXX 13124 67741 NIL=
201802130600 AAXX 13064 67741 32680 70901 10222 20206 48531 875//
                   333 10304 20205 58008 87645=

################################################################################
#  SYNOPS from 67743, Livingstone (Zambia) | 17-49S | 025-49E | 985 m
################################################################################
201802270600 AAXX 27064 67743 11459 83106 10205 20198 48/// 60544 76022 86671
                   333 10248 20186 5//// 86710 85457=
201802260600 AAXX 26064 67743 12380 81002 10201 20192 48466 60634 8567/
                   333 10291 20190 59014 85715 84457=
201802230600 AAXX 23064 67743 NIL=
201802220900 AAXX 22094 67743 NIL=
201802220600 AAXX 22064 67743 NIL=
201802201500 AAXX 20154 67743 NIL=
201802201200 AAXX 20124 67743 NIL=
201802150600 AAXX 15064 67743 12580 71103 10205 20171 48503 60184 70222 83531
                   333 10232 20179 59023 83625 86358 82078 91017=
201802131200 AAXX 13124 67743 NIL=

################################################################################
#  SYNOPS from 67751, Magoye (Zambia) | 16-00S | 027-36E | 1018 m
################################################################################
201802280600 AAXX 28064 67751 12980 70901 10194 20184 48/// 60134 72166 8701/
                   333 10270 20176 59004 87460=
201802260600 AAXX 26064 67751 12380 80405 10220 20202 48/// 60144 70222 887//
                   333 10290 20203 58011 88706=
201802230600 AAXX 23064 67751 11580 83102 10198 20190 48/// 60534 76366 8801/
                   333 10324 20190 5//// 88460=
201802220900 AAXX 22094 67751 NIL=
201802220600 AAXX 22064 67751 32380 41202 10222 20207 48/// 82580
                   333 10332 20186 5//// 82606 83360=
201802201500 AAXX 20154 67751 NIL=
201802201200 AAXX 20124 67751 NIL=
201802150600 AAXX 15064 67751 32980 42601 10220 20190 48/// 70222 84041
                   333 10298 20190 58003 84360 83080=
201802131200 AAXX 13124 67751 NIL=
201802130600 AAXX 13064 67751 11980 80403 10201 20190 48/// 60124 75166 8801/
                   333 10320 20142 59029 88460=

################################################################################
#  SYNOPS from 67753, Choma (Zambia) | 16-50S | 027-04E | 1213 m
################################################################################
201802270600 AAXX 27064 67753 11560 80306 10190 20184 48499 60084 72162 8255/
                   333 10259 20182 58017 82620 86360=
201802260600 AAXX 26064 67753 11358 81805 10200 20190 48481 60042 75155 886//
                   333 10282 20186 59017 88706=
201802230600 AAXX 23064 67753 12560 80000 10186 20184 48499 60034 8255/
                   333 10256 20179 58006 82620 86360=
201802220900 AAXX 22094 67753 NIL=
201802220600 AAXX 22064 67753 12560 61903 10206 20197 48491 60024 82230
                   333 10280 20180 5//// 82820 84360=
201802210900 AAXX 21094 67753 42680 80000 10190 20190 48509 8803/
                   333 58006 88360=
201802201500 AAXX 20154 67753 NIL=
201802201200 AAXX 20124 67753 NIL=
201802150600 AAXX 15064 67753 12960 61803 10199 20184 48520 60184 86030
                   333 10270 20166 59018 86360=
201802140600 AAXX 14064 67753 11560 70912 10210 20195 48540 69904 76064 8355/
                   333 10272 20194 58004 83620 85360=
201802131200 AAXX 13124 67753 NIL=
201802130600 AAXX 13064 67753 12560 83506 10184 20178 48537 60754 8255/
                   333 10270 20176 58026 82620 86360=

################################################################################
#  SYNOPS from 67855, Lupaki (Zambia) | 17-03-00S | 024-46-00E | 1000 m
################################################################################
201803021500 AAXX 02154 67855 41670 70000 10210 20203 3//// 48/// 78098 8427/
                   333 5//// 84840 87458=
201803011500 AAXX 01154 67855 41670 70000 10268 20203 3//// 48/// 71792 84273
                   333 5//// 81935 83840 87360=
201803011200 AAXX 01124 67855 41675 51501 10286 20200 3//// 48/// 70152 85238
                   333 5//// 85840 83360=
201803010900 AAXX 01094 67855 41670 60302 10258 20204 3//// 48/// 75052 86538
                   333 5//// 86630 83360=
201802280600 AAXX 28064 67855 12975 70304 10202 20184 3//// 48/// 60184 8707/
                   333 20185 5//// 87459=
201802271200 AAXX 27124 67855 41670 70000 10240 20208 3//// 48/// 75152 8557/
                   333 5//// 85630 87458=
201802270600 AAXX 27064 67855 11575 71301 10202 20188 3//// 48/// 60054 70262 8557/
                   333 20185 5//// 85620 87360=
201802261500 AAXX 26154 67855 41975 70601 10252 20207 38/// 48/// 70162 8707/
                   333 5//// 87459=
201802261200 AAXX 26124 67855 41670 80401 10232 20207 3//// 48/// 76165 8807/
                   333 5//// 88458=
201802260900 AAXX 26094 67855 41570 80903 10218 20194 38/// 48/// 75052 885//
                   333 5//// 88620=
201802260600 AAXX 26064 67855 11570 80602 10204 20196 3//// 48/// 60454 75165 8557/
                   333 20188 5//// 85620 88457=
201802251200 AAXX 25124 67855 41670 70000 10236 20219 3//// 48/// 79598 84273
                   333 5//// 81930 83835 87459=
201802250600 AAXX 25064 67855 12975 70000 10220 20208 3//// 48/// 69904 8707/
                   333 20202 5//// 87459=
201802241200 AAXX 24124 67855 41675 73603 10298 20193 3//// 48/// 70282 84208
                   333 5//// 84845 87280=
201802240900 AAXX 24094 67855 42675 73307 10274 20198 3//// 48/// 84207
                   333 5//// 84840 87280=
201802240600 AAXX 24064 67855 12575 70401 10222 20216 3//// 48/// 60024 81532
                   333 20190 5//// 81620 87080=
201802231200 AAXX 23124 67855 42675 73203 10274 20193 3//// 48/// 84232
                   333 5//// 84840 87080=
201802230900 AAXX 23094 67855 41670 73603 10238 20194 3//// 48/// 71562 8557/
                   333 5//// 85630 87459=
201802220900 AAXX 22094 67855 42675 53603 10272 20200 3//// 48/// 83232
                   333 5//// 83830 85080=
201802220600 AAXX 22064 67855 12975 50102 10206 20198 38/// 48/// 60014 83031
                   333 20182 5//// 83360 85080=
201802211200 AAXX 21124 67855 41670 70901 10226 20211 38/// 48/// 78086 8427/
                   333 5//// 84830 87459=
201802201500 AAXX 20154 67855 41670 73401 10254 20198 3//// 48/// 71598 8527/
                   333 5//// 85845 87360=
201802201200 AAXX 20124 67855 41675 73401 10304 20178 3//// 48/// 79598 85273
                   333 5//// 81940 84845 87360=
201802191500 AAXX 19154 67855 42675 50000 10300 20179 38/// 48/// 85232
                   333 5//// 85840 83360=
201802181200 AAXX 18124 67855 41670 70000 10236 20216 3//// 48/// 79598 85273
                   333 5//// 81935 84840 87080=
201802180600 AAXX 18064 67855 32975 70603 10226 20196 3//// 48/// 8707/
                   333 20200 5//// 87360=
201802171500 AAXX 17154 67855 42675 50000 10306 20183 3//// 48/// 81262
                   333 5//// 81840 83360 85080=
201802171200 AAXX 17124 67855 42675 53601 10308 20183 3//// 48/// 85231
                   333 5//// 85840 83360=
201802170900 AAXX 17094 67855 42975 73101 10266 20178 3//// 48/// 8707/
                   333 5//// 87360=
201802161200 AAXX 16124 67855 41675 53610 10284 20168 3//// 48/// 70162 83231
                   333 5//// 83840 85360=
201802160900 AAXX 16093 67855 41670 70101 10250 20193 3//// 48/// 76062 82172
                   333 5//// 83830 87457=
201802160600 AAXX 16064 67855 11575 80000 10198 20189 3//// 48/// 60114 70362 8557/
                   333 20190 5//// 85620 88459=
201802151200 AAXX 15124 67855 41970 80000 10248 20214 3//// 48/// 76062 8807/
                   333 5//// 88457=
201802150900 AAXX 15094 67855 42675 70203 10252 20198 3//// 48/// 8327/
                   333 5//// 83830 87459=
201802141500 AAXX 14154 67855 41675 81801 10218 20207 3//// 48/// 70398 8557/
                   333 5//// 85630 88459=
201802141200 AAXX 14124 67855 41675 70000 10238 20223 3//// 48/// 72162 8427/
                   333 5//// 84840 87459=
201802140900 AAXX 14094 67855 41575 80000 10222 20198 3//// 48/// 70362 8557/
                   333 5//// 85625 88459=
201802131200 AAXX 13124 67855 41675 73201 10280 20194 3//// 48/// 70252 8527/
                   333 5//// 85840 87280=
201802130600 AAXX 13064 67855 12575 70403 10214 20188 3//// 48/// 60014 8557/
                   333 20190 5//// 85625 87360=
201802121500 AAXX 12154 67855 41670 71803 10250 20193 3//// 48/// 76065 8557/
                   333 5//// 85630 87457=
201802121200 AAXX 12124 67855 41675 71803 10254 20193 3//// 48/// 75052 875//
                   333 5//// 87630=
201802120900 AAXX 12094 67855 41670 81102 10236 20183 3//// 48/// 75152 885//
                   333 5//// 88630=
201802120600 AAXX 12064 67855 12575 72103 10208 20160 3//// 48/// 69904 8557/
                   333 20183 5//// 87360=
201802101200 AAXX 10124 67855 42675 71302 10278 20171 3//// 48/// 8527/
                   333 5//// 85840 87360=
201802100900 AAXX 10094 67855 42675 71602 10258 20173 3//// 48/// 83272
                   333 5//// 83835 85360=
201802081500 AAXX 08154 67855 42675 70305 10262 20176 3//// 48/// 8323/
                   333 83840 87360=
201802081200 AAXX 08124 67855 42675 70603 10246 20169 3//// 48/// 83238
                   333 5//// 83840 87280=
201802071200 AAXX 07124 67855 42675 70000 10292 20197 3//// 48/// 84272
                   333 5//// 84840 87360=
201802070900 AAXX 07094 67855 42675 70303 10278 20198 3//// 48/// 8427/
                   333 5//// 84830 87360=
201802070600 AAXX 07064 67855 12675 61603 10232 20163 3//// 48/// 69904 82531
                   333 20200 5//// 82630 86360=
201802061500 AAXX 06154 67855 41670 70901 10288 20198 3//// 48/// 71582 84232
                   333 5//// 84840 87080=
201802061200 AAXX 06124 67855 42675 70000 10272 20200 3//// 48/// 70152 8527/
                   333 5//// 85840 87360=
201802060900 AAXX 06094 67855 42675 80302 10240 20199 3//// 48/// 8557/
                   333 5//// 85630 88459=
201802060600 AAXX 06064 67855 12575 80302 10216 20199 3//// 48/// 60214 8557/
                   333 20204 5//// 85620 88459=
201802050900 AAXX 05094 67855 41670 70301 10248 20205 3//// 48/// 75152
                   333 5//// 85630 87457=
201802040600 AAXX 04064 67855 12975 73601 10216 20193 3//// 48/// 60194 8707/
                   333 20198 5//// 87459=
201802031500 AAXX 03154 67855 42675 50000 10270 20202 3//// 48/// 83232
                   333 5//// 83840 85360=
201802021500 AAXX 02154 67855 42675 70902 10280 20203 3//// 48/// 84268
                   333 5//// 84845 87280=
201802021200 AAXX 02124 67855 42675 70000 10282 20200 3//// 48/// 8527/
                   333 5//// 85845 87360=
201802020900 AAXX 0209/ 67855 42675 70302 10258 20204 3//// 48/// 83138
                   333 5//// 83830 85360=
201802020600 AAXX 02064 67855 11575 70000 10214 20204 3//// 48/// 60604 70162 8357/
                   333 20195 5//// 83620 87459=
201802011500 AAXX 01154 67855 42775 50901 10300 20184 3//// 48/// 85202
                   333 5//// 85850=
201802011200 AAXX 01124 67855 41775 33601 10318 20185 3//// 48/// 70181 83202
                   333 5//// 83850=
201802010900 AAXX 01094 67855 42675 70000 10280 20190 3//// 48/// 83132
                   333 5//// 83835 87080=
201802010600 AAXX 01064 67855 12575 50000 10216 20178 3//// 48/// 60034 85338
                   333 20190 5//// 83620 85360=
