###############################################################################
# Query made at 04/14/2022 16:34:08 UTC
# Country like Zamb*
# Time interval: from 05/01/2012 05:30  to 05/31/2012 05:30  UTC
################################################################################

################################################################################
#  SYNOPS from 67403, Kawambwa (Zambia) | 09-48S | 029-05E | 1323 m
################################################################################
201205140600 AAXX 14064 67403 12980 30906 10202 20166 48541 60034 82081
                   333 10225 20//0 59012 82362 81080=
201205090600 AAXX 09064 67403 32980 30901 10185 20167 48540 83031
                   333 10261 20/// 59008 83362 81080=
201205080600 AAXX 08064 67403 32580 40901 10186 20138 48549 81131
                   333 10269 20/// 58000 81820 82362 81080=
201205030600 AAXX 03064 67403 32980 60901 10206 20159 48551 81032
                   333 10296 20//0 58008 81362 86080=
201205020600 AAXX 02064 67403 12980 30907 10208 20130 48541 69904 80001
                   333 10295 20/// 59011 86080=

################################################################################
#  SYNOPS from 67413, Mbala (Zambia) | 08-51S | 031-20E | 1673 m
################################################################################
201205290600 AAXX 29064 67413 32480 20313 10175 20132 48561 82500
                   333 10274 20//0 58002 86210=
201205210600 AAXX 21064 67413 31978 00310 10180 20157 48540 70500
                   333 10275 20//0 58000=
201205180600 AAXX 18064 67413 32980 71707 10165 20102 48537 87080
                   333 10220 20//0 59007 87357=
201205041200 AAXX 04124 67413 41480 70706 10191 20176 48515 76022 871//
                   333 58000 81912 82820 85622=
201205020600 AAXX 02064 67413 32480 20410 10176 20114 48531 81530
                   333 10265 20145 59009 81610 81359=

################################################################################
#  SYNOPS from 67441, Mwinilunga (Zambia) | 11-45S | 024-26E | 1361 m
################################################################################
201205300600 AAXX 30064 67441 32980 00000 10130 20103 48588
                   333 10285 20/// 58003
                   555 00///=
201205291200 AAXX 29124 67441 42982 00909 10270 20080 48565
                   333 58008=
201205290600 AAXX 29064 67441 32980 10000 20090 48585 81040
                   333 10280 20//0 59001 81360=
201205280900 AAXX 2809/ 67441 42982 01204 10240 20091 48586
                   333 5////=
201205230600 AAXX 23064 67441 32980 00000 10145 20089 48568
                   333 10280 20//0 59002=
201205210600 AAXX 21064 67441 32980 00000 10130 20121 48562
                   333 10280 20//0 58003=
201205180600 AAXX 18064 67441 32980 10000 10145 20102 48538 80001
                   333 10290 20//0 59004 81080=
201205171200 AAXX 17124 67441 42682 51505 10268 20131 48536 85100
                   333 59012 85840=
201205160900 AAXX 1609/ 67441 42982 61009 10250 20133 48579 81037
                   333 58007 81362 86280=
201205160600 AAXX 16064 67441 32980 50000 10142 20122 48572 81035
                   333 10285 2//// 58003 81360=
201205150600 AAXX 15064 67441 32980 60000 10140 20126 48569 80008
                   333 10280 20/// 58018 86280=
201205140900 AAXX 14094 67441 42682 20604 10260 20136 48556 81130
                   333 5//// 81830 81360=
201205140600 AAXX 14064 67441 32980 10000 10155 20137 48549 81030
                   333 10285 20/// 59005 81360=
201205110600 AAXX 11064 67441 32980 00000 10160 20125 48570
                   333 10275 20//0 58009=
201205090600 AAXX 09064 67441 31980 00902 10141 20101 48552
                   333 10280 20/// 59013=
201205070600 AAXX 07064 67441 32980 20000 10155 20111 48567 80008
                   333 10283 20/// 58002 82280=
201205040900 AAXX 04094 67441 42682 51304 10260 20150 48568 81108
                   333 58003 81835 84280=
201205040600 AAXX 04064 67441 32980 60000 10150 20125 48560 80000
                   333 10290 20/// 58001 86280=
201205031200 AAXX 03124 67441 42682 70902 10272 20127 48539 81108
                   333 58009 81835 87280=
201205021200 AAXX 0212/ 67441 42682 21205 10281 20131 48535 81101
                   333 5//// 81840 81080=
201205020600 AAXX 02064 67441 32980 10000 10160 20144 48556 81040
                   333 10297 20/// 59003 81360=

################################################################################
#  SYNOPS from 67461, Mansa (Zambia) | 11-06S | 028-51E | 1382 m
################################################################################
201205291200 AAXX 29124 67461 42680 20902 10270 20140 48543 82201
                   333 59002 82850 81080=
201205260600 AAXX 26064 67461 32980 10803 10166 20114 48547 80001
                   333 10270 20072 58009 81080=
201205221200 AAXX 22124 67461 42680 30907 10264 20124 48528 83201
                   333 58012 83845 82080=
201205210600 AAXX 21064 67461 32980 40702 10168 20139 48520 80001
                   333 10290 20080 58000 84080=
201205180600 AAXX 18064 67461 32980 20902 10160 20109 48525 80001
                   333 10274 20155 59012 82080=
201205161200 AAXX 16124 67461 42580 41213 10279 20145 48530 84202
                   333 58008 84840 83080=
201205160900 AAXX 1609/ 67461 42580 61410 10262 20149 48543 84208
                   333 58004 84828 86280=
201205160600 AAXX 16064 67461 32980 60906 10195 20155 48539 80008
                   333 10295 20090 59005 86280=
201205150600 AAXX 15064 67461 32980 61205 10190 20166 48534 81038
                   333 10283 20194 58015 81362 86380=
201205140600 AAXX 14064 67461 32580 21105 10180 20160 48526 81501
                   333 10283 20180 59002 81620 82080=
201205110600 AAXX 11064 67461 32980 21202 10170 20134 48536 81031
                   333 10261 20128 58008 81360 82080=
201205100700 AAXX 1007/ 67461 32980 20808 10160 20135 48527 80001
                   333 10259 20105 58004 82080=
201205100600 AAXX 10064 67461 32980 20808 10160 20135 48527 80001
                   333 10259 20105 58004 82080=
201205090600 AAXX 09064 67461 32580 21005 10160 20132 48523 82501
                   333 10257 20116 59015 82620 82080=
201205070600 AAXX 07064 67461 32580 51206 10190 20158 48537 82501
                   333 10282 20143 58003 82620 83080=
201205051200 AAXX 05124 67461 42680 51205 10274 20145 48514 70222 85200
                   333 58001 85840=
201205041200 AAXX 04124 67461 42680 51108 10276 20149 48517 85230
                   333 58001 85848 82362=
201205020600 AAXX 02064 67461 32980 61202 10195 20164 48525 80008
                   333 10290 20145 59003 86280=

################################################################################
#  SYNOPS from 67469, Samfya (Zambia) | 11-22S | 029-54E | 1171 m
################################################################################
201205140600 AAXX 14064 67469 32480 11403 10209 20//0 48/// 81101
                   333 10250 20152 5//// 81818 81080=
201205030600 AAXX 03064 67469 32480 71204 10220 2//// 48/// 81108
                   333 10265 20171 5//// 81818 87280=

################################################################################
#  SYNOPS from 67475, Kasama (Zambia) | 10-13S | 031-08E | 1382 m
################################################################################
201205291200 AAXX 29124 67475 41770 31204 10260 20113 48538 83100
                   333 58003 83856=
201205231200 AAXX 23124 67475 41770 31206 10245 20106 48532 82101
                   333 58002 82856 83080=
201205210600 AAXX 21064 67475 31970 00202 10185 20150 48533 70500
                   333 10288 20120 58000=
201205180600 AAXX 18064 67475 31970 00603 10172 20074 48535 70500
                   333 10262 20090 59006=
201205171200 AAXX 1712/ 67475 41775 51206 10251 20118 48509 70522 85100
                   333 59016 85856=
201205161200 AAXX 16124 67475 41775 51210 10268 20136 48526 70522 85100
                   333 58006 85856=
201205160900 AAXX 1609/ 67475 41675 01005 10240 20144 48550 70511 84100
                   333 58009 84835=
201205160600 AAXX 16064 67475 31975 01005 10300 20153 48547 70500
                   333 10278 20135 58000=
201205150600 AAXX 15064 67475 31975 41203 10202 20158 48547 70511 80001
                   333 10275 20142 58015 84080=
201205140600 AAXX 14064 67475 31475 11103 10186 20157 48532 70500 81100
                   333 10261 20134 59004 81810=
201205100700 AAXX 1007/ 67475 31975 31006 10166 20102 48537 70500 83030
                   333 10256 20115 58004 83360=
201205100600 AAXX 10064 67475 31975 31006 10166 20102 48537 70500 83030
                   333 10256 20115 58004 83360=
201205090600 AAXX 09064 67475 31575 21205 10108 20108 48533 70500 81130
                   333 10250 20115 59010 81820 82360=
201205020600 AAXX 02064 67475 31975 41003 10190 20132 48530 70500 80001
                   333 10280 20135 59005 84080=

################################################################################
#  SYNOPS from 67477, Mpika (Zambia) | 11-54S | 031-26E | 1400 m
################################################################################
201205161200 AAXX 16124 67477 42680 61206 10250 20133 48533 86200
                   333 58013 86845=
201205150900 AAXX 1509/ 67477 42580 31209 10236 20143 48545 83101
                   333 58011 83829 81080=
201205150600 AAXX 15064 67477 32980 30908 10199 20149 48542 81031
                   333 10255 20135 58011 81360 83080=
201205100700 AAXX 1007/ 67477 32980 11108 10170 20125 48553 81100
                   333 10225 20113 58008 81819=
201205100600 AAXX 10064 67477 32980 11108 10170 20125 48553 81100
                   333 10225 20113 58008 81819=
201205090600 AAXX 09064 67477 32480 61404 10160 20125 48541 86100
                   333 10225 20100 59001 86815=
201205041200 AAXX 04124 67477 42680 50905 10255 20139 48515 85100
                   333 59005 85837=
201205020600 AAXX 02064 67477 32980 10906 10190 20111 48535 80001
                   333 10252 20114 59004 81080=

################################################################################
#  SYNOPS from 67481, Isoka (Zambia) | 10-07S | 032-38E | 1360 m
################################################################################
201205140600 AAXX 14064 67481 32480 30904 10198 20159 48/// 83500
                   333 10273 20126 5//// 85612=
201205030600 AAXX 03064 67481 32980 51503 10209 20160 48/// 85032
                   333 10272 20149 5//// 85361 82080=

################################################################################
#  SYNOPS from 67531, Zambezi (Zambia) | 13-32S | 023-07E | 1077 m
################################################################################
201205300600 AAXX 30064 67531 31975 01007 10148 20113 48/// 70500
                   333 10275 20075 58006
                   555 00///=
201205291200 AAXX 29124 67531 41975 01603 10270 20109 48/// 70500
                   333 5////=
201205290600 AAXX 29064 67531 31975 01045 10119 20085 48/// 70500
                   333 10272 20080 59005=
201205280900 AAXX 28094 67531 41975 11208 10249 20132 48/// 70500 81030
                   333 58004 81361=
201205231200 AAXX 23124 67531 42980 01406 10270 20109 48///
                   333 58007=
201205210600 AAXX 21064 67531 31975 00000 10125 20091 48/// 70500
                   333 10291 20064 5////=
201205180600 AAXX 18064 67531 32980 10907 10158 20102 48/// 80001
                   333 10300 20102 5//// 81082=
201205171200 AAXX 1712/ 67531 42780 51505 10290 20125 48/// 85100
                   333 5//// 85856=
201205160900 AAXX 1609/ 67531 42980 11205 10274 20143 48/// 81100
                   333 81830=
201205160600 AAXX 16064 67531 32980 11005 10185 20129 48/// 80130
                   333 10307 20116 58004 81362=
201205150600 AAXX 15064 67531 32980 10000 10139 20119 48/// 80001
                   333 10301 20076 58018 81081=
201205141200 AAXX 14124 67531 42780 31503 10269 20148 48/// 83100
                   333 5//// 83850=
201205140900 AAXX 14094 67531 42980 10702 10265 20161 48/// 81030
                   333 5//// 81362=
201205140600 AAXX 14064 67531 32980 51101 10170 20130 48/// 85030
                   333 10296 20096 59002 85362=
201205110600 AAXX 11064 67531 32980 11204 10145 20113 48/// 81030
                   333 10304 20078 58012 81360=
201205090600 AAXX 09064 67531 32980 01003 10152 20108 48///
                   333 10274 20086 59013=
201205070600 AAXX 07064 67531 32980 11006 10167 20102 48/// 80001
                   333 10302 20080 58009 81081=

################################################################################
#  SYNOPS from 67541, Kasempa (Zambia) | 13-32S | 025-51E | 1234 m
################################################################################
201205300600 AAXX 30064 67541 32980 10000 10174 20140 48561 70200 81030
                   333 10/// 20095 59007 81360=
201205290600 AAXX 29064 67541 31965 00000 10164 20101 48554 70500
                   333 10//0 20089 59006=
201205180600 AAXX 18064 67541 31965 00000 10142 20106 48521 70500
                   333 10//0 20065 59014=
201205171200 AAXX 1712/ 67541 42680 10000 10274 20129 48513 70212 81100
                   333 59009 81845=
201205150900 AAXX 1509/ 67541 41965 00603 10273 20148 48543 70500
                   333 58016=
201205150600 AAXX 15064 67541 31965 00000 10148 20134 48534 70500
                   333 10/// 20076 58013=
201205140600 AAXX 14064 67541 31965 10000 10171 20145 48521 70522 81030
                   333 10/// 20087 59015 81360=
201205090600 AAXX 09064 67541 31965 00000 10181 20131 48524 70500
                   333 10/// 20109 59013=
201205081200 AAXX 08124 67541 42580 10000 10258 20124 48525 81100
                   333 50000 81825=
201205020600 AAXX 02064 67541 31970 00000 10185 20147 48528 70500
                   333 10/// 20095 59001=

################################################################################
#  SYNOPS from 67551, Solwezi (Zambia) | 12-11S | 026-23E | 1386 m
################################################################################
201205140600 AAXX 14064 67551 32980 71004 10161 20136 48537 87030
                   333 10//0 20110 59009 81080=
201205090600 AAXX 09064 67551 32980 01206 10145 20102 48535
                   333 10/// 20113 59004=
201205080600 AAXX 08064 67551 32982 31308 10135 20105 48539 80001
                   333 10/// 20128 59007 83280=
201205030600 AAXX 03064 67551 32980 70905 10155 20//0 48530 80007 10/// 20125 59002 87280=

################################################################################
#  SYNOPS from 67561, Ndola (Zambia) | 13-00S | 028-39E | 1269 m
################################################################################
201205291200 AAXX 29124 67561 42780 50000 10263 20110 48548 85200
                   333 59002 85850=
201205280900 AAXX 2809/ 67561 41960 01006 10227 20074 48572 70500
                   333 59002=
201205260900 AAXX 26094 67561 42980 01205 10226 20086 48561
                   333 58007=
201205260600 AAXX 26064 67561 31975 00000 10143 20094 48552 70500
                   333 10268 20061 58008=
201205250600 AAXX 25064 67561 31960 00000 10133 20079 48544 70500
                   333 10263 20052 59008
                   555 00/// 91023=
201205231200 AAXX 23124 67561 42980 01507 10254 20065 48541
                   333 58001=
201205230000 AAXX 23004 67561 41960 01105 10101 20088 48532 58010 70500=
201205210900 AAXX 2109/ 67561 41975 01504 10257 20084 48544 70500
                   333 58004=
201205210600 AAXX 21064 67561 31920 00000 10158 20113 48534 70400
                   333 10288 20096 58003=
201205200600 AAXX 20064 67561 31959 00000 10153 20108 48530 70400
                   333 10275 20085 59003=
201205190600 AAXX 19064 67561 31958 00000 10120 20094 48531 70400 80001
                   333 10260 20072 58000=
201205180600 AAXX 18064 67561 31965 00000 10126 20099 48531 70500
                   333 10266 20075 59013=
201205170900 AAXX 1709/ 67561 42980 01212 10241 20100 40048 70500
                   333 59007 91022=
201205161500 AAXX 16154 67561 42980 71209 10263 20124 48529 82468
                   333 58001 82659 81360 86280=
201205161200 AAXX 16124 67561 42780 51308 10266 20117 48533 85202
                   333 58008 85856 82080=
201205160900 AAXX 1609/ 67561 41680 41005 10258 20111 48556 70522 84032
                   333 58004 84360 83080=
201205160600 AAXX 16064 67561 31960 50000 10173 20141 48548 70522 85030
                   333 10283 20133 58004 85361=
201205151200 AAXX 15124 67561 42680 61205 10273 20122 48558 70322 86200
                   333 58010 86850 91019=
201205150900 AAXX 1509/ 67561 42980 10705 10255 20134 48552 80002
                   333 58015 81080=
201205150600 AAXX 15064 67561 31970 20604 10175 20138 48545 70511 82032
                   333 10277 20127 58021 82360 81080=
201205140900 AAXX 14094 67561 42980 00000 10250 20130 48537
                   333 59005=
201205140600 AAXX 14064 67561 32980 00705 10165 20132 48524
                   333 10275 20116 59005=
201205120400 AAXX 12044 67561 41970 4000 10116 20111 48529 70500 82031
                   333 59007 82360 82080=
201205120300 AAXX 12034 67561 41970 4000 10116 20111 48529 70500 82031
                   333 59007 82360 82080=
201205120000 AAXX 12004 67561 41970 30000 10140 20119 48528 70500 83030
                   333 59004 83360=
201205111800 AAXX 11184 67561 41975 41506 10198 20132 48541 70511 84030
                   333 10287 58003 84360=
201205101800 AAXX 10184 67561 41960 51205 10199 20110 48537 70522 85030
                   333 10256 58004 85360=
201205101500 AAXX 10154 67561 42780 40904 10222 20151 48552 84100
                   333 58011 84850=
201205090900 AAXX 09094 67561 42580 31012 10220 20096 48538 83200
                   333 59013 83830=
201205090600 AAXX 09064 67561 32980 01215 10175 20120 48537
                   333 10183 20131 59005=
201205041200 AAXX 04124 67561 42780 61810 10279 20114 48521 86200
                   333 58001 86856=
201205030600 AAXX 03064 67561 31975 50804 10188 20134 48549 70511 80008
                   333 10288 20096 58005 85280=
201205020600 AAXX 02064 67561 31975 50000 10184 20157 48535 70511 80008
                   333 10282 20125 59002 85280=

################################################################################
#  SYNOPS from 67563, Kafironda (Zambia) | 12-36S | 028-07E | 1243 m
################################################################################
201205210600 AAXX 21064 67563 31970 00000 10140 20126 48/// 70500
                   333 10294 20059 58003=
201205140600 AAXX 14064 67563 31975 00701 10192 20160 48/// 70500
                   333 10285 20096 59005=
201205090600 AAXX 09064 67563 31975 00901 10160 20130 48/// 70500
                   333 10269 20069 59011=
201205080600 AAXX 08064 67563 31970 11601 10168 20130 48/// 70500 80001
                   333 10278 20074 59002 81080=
201205041200 AAXX 04124 67563 41675 52703 10290 20140 48/// 70521 85100
                   333 58000 85850=
201205030900 AAXX 0309/ 67563 41575 62704 10265 20090 48/// 70522 82102
                   333 58012 82840 86080=
201205020600 AAXX 02064 67563 31970 11701 10165 20120 48/// 70500 80002
                   333 10288 20101 59003 81080=

################################################################################
#  SYNOPS from 67571, Serenje (Zambia) | 13-14S | 030-13E | 1384 m
################################################################################
201205040900 AAXX 04094 67571 42682 30902 10254 20136 48534 83101
                   333 58027 83834 81080=
201205030600 AAXX 03064 67571 32980 01002 10191 20115
                   333 10315 20066 59016=

################################################################################
#  SYNOPS from 67575, Mkushi (Zambia) | 13-38S | 029-53E | 1237 m
################################################################################
201205030600 AAXX 03064 67575 32480 20000 10180 20137 48/// 81101
                   333 10290 20086 5//// 81815 82080=

################################################################################
#  SYNOPS from 67580, Msekera (Zambia) | 13-39S | 032-34E | 1025 m
################################################################################
201205290600 AAXX 29064 67580 31575 11204 10192 20147 48/// 70500 81100
                   333 10278 20//0 59004 81810=
201205280900 AAXX 2809/ 67580 42678 50905 10236 20127 48/// 85100
                   333 58/// 85830=
201205230600 AAXX 23064 67580 31975 01104 10180 20134 48/// 70500
                   333 10255 20//0 58005=
201205210600 AAXX 21064 67580 31985 03003 10217 20135 48/// 70500
                   333 10302 20//0 58008=
201205170900 AAXX 17094 67580 41978 01610 10248 20085 48/// 70500
                   333 59005=
201205141200 AAXX 14124 67580 42780 60000 10284 20141 48/// 86100
                   333 59007 86856=
201205140600 AAXX 14064 67580 32982 01604 10203 20139 48///
                   333 10276 20//0 59010=
201205091200 AAXX 09124 67580 42780 60000 10240 20135 48/// 86100
                   333 59005 86850=
201205090900 AAXX 09094 67580 42680 61507 10232 20128 48/// 85230
                   333 59010 85835 81360=
201205090600 AAXX 09064 67580 32480 71608 10176 20148 48/// 875//
                   333 10266 20/// 59009 87618=
201205081200 AAXX 08124 67580 42780 51503 10260 20116 48/// 85101
                   333 59010 85850 81081=
201205080600 AAXX 08064 67580 32480 61512 10190 20122 48/// 82138
                   333 10269 20/// 58002 82819 81360 86280=
201205031200 AAXX 03124 67580 42780 70904 10288 20159 48/// 86202
                   333 58004 86856 82080=
201205030900 AAXX 0309/ 67580 42680 61204 10257 20164 48/// 86102
                   333 58005 86845 82080=
201205020600 AAXX 02064 67580 32980 00902 10210 20169 48///
                   333 10292 20/// 59003=

################################################################################
#  SYNOPS from 67581, Chipata (Zambia) | 13-33S | 032-35E | 1028 m
################################################################################
201205291200 AAXX 29124 67581 42680 30904 10270 20123 48566 83100
                   333 58002 83840=
201205260900 AAXX 26094 67581 42680 31603 10254 20127 48562 81130
                   333 58013 81835 81360=
201205260600 AAXX 26064 67581 32980 21605 10199 20107 48573 82032
                   333 10276 20124 58015 82360 81080=
201205231200 AAXX 23124 67581 42980 01004 10256 20065 48558
                   333 59003=
201205200900 AAXX 20094 67581 42980 01904 10265 20094 48548
                   333 59008=
201205190600 AAXX 19064 67581 32980 00602 10204 20107 48553
                   333 10266 20097 58008=
201205180600 AAXX 18064 67581 31965 02804 10184 20079 48542 70500
                   333 10269 20106 59012=
201205171200 AAXX 1712/ 67581 42980 01807 10262 20038 48539
                   333 59011=
201205150600 AAXX 15064 67581 32980 00907 10238 20147 48560
                   333 10261 20156 58010=
201205140600 AAXX 14064 67581 32980 00405 10220 20112 48550
                   333 10276 20132 59007=
201205090600 AAXX 09064 67581 32480 71208 10181 20139 48549 82530
                   333 10270 20149 59004 82612 87360=
201205051200 AAXX 05124 67581 42680 31206 10289 20126 48545 83100
                   333 58006 83840=
201205041200 AAXX 04124 67581 42680 52703 10286 20150 48534 85200
                   333 59001 85840=
201205040600 AAXX 04064 67581 12980 51602 10230 20162 48554 69904 80002
                   333 10301 20152 59006 85080=
201205030600 AAXX 03064 67581 32580 30908 10231 20164 48554 70300 83500
                   333 10299 20165 58005 83615=
201205020600 AAXX 02064 67581 32980 01203 10212 20132 48547
                   333 10298 20136 59003=

################################################################################
#  SYNOPS from 67583, Lundazi (Zambia) | 12-17S | 033-12E | 1143 m
################################################################################
201205210900 AAXX 2109/ 67583 42980 01803 10263 20138 48///
                   333 5////=
201205140600 AAXX 14064 67583 32980 10601 10196 20166 48/// 81030
                   333 10280 20139 5//// 81360=
201205090600 AAXX 09064 67583 32580 11202 10175 20141 48/// 81501
                   333 10275 20105 5//// 81620 81080=
201205080600 AAXX 08064 67583 32980 61804 10182 20137 48///
                   333 10272 20125 5////=

################################################################################
#  SYNOPS from 67599, Mfuwe (Zambia) | 13-16S | 031-56E | 568 m
################################################################################
201205300600 AAXX 30064 67599 32980 00000 10195 20148 48589
                   333 10326 20130 58006
                   555 00110 91025=
201205290600 AAXX 29064 67599 32980 10000 10187 20154 48583 81030
                   333 10316 20124 59004 81360=
201205230900 AAXX 2309/ 67599 42580 31210 10255 20116 48618 83100
                   333 58008 83825=
201205230600 AAXX 23064 67599 31959 00000 10160 20126 48570 70500
                   333 10310 20085 58010=
201205180900 AAXX 18094 67599 42980 00000 10264 20131 48571
                   333 59011 91021=
201205180600 AAXX 18064 67599 32980 00000 10151 20106 48569
                   333 10308 20087 58008=
201205170900 AAXX 17094 67599 42980 00000 10265 20112 48572
                   333 59001 91022=
201205141200 AAXX 14124 67599 42680 42203 10306 20178 48545 84100
                   333 59007 84845 91016=
201205140600 AAXX 14064 67599 32980 00000 10200 20156 48548
                   333 10320 20141 59016=
201205130900 AAXX 13094 67599 42580 70000 10275 20177 48578 81130
                   333 59007 81822 87360 91020=
201205090900 AAXX 09094 67599 42580 51804 10266 20165 48576 84230
                   333 59010 84825 85360=
201205090600 AAXX 09064 67599 32480 20000 10205 20166 48561 81130
                   333 10307 20123 59004 81815 82360=
201205081200 AAXX 08124 67599 42680 41609 10284 20126 48461 70222 84200
                   333 59008 84838 91019=
201205080600 AAXX 08064 67599 32980 01208 10159 20129 48///
                   333 10227 20106 5////=
201205050600 AAXX 05064 67599 32980 10000 10220 20184 48554 81030
                   333 10338 20170 58003 81360
                   555 00166 20001 91020=
201205030600 AAXX 03064 67599 32980 41860 41806 10203 20166 48562 84030
                   333 10328 20144 58003 84360=
201205021500 AAXX 02154 67599 42780 20000 10312 20151 48551 82101
                   333 58008 82856 81080
                   555 10328 91016=
201205021200 AAXX 0212/ 67599 42680 22603 10306 20163 48552 81101
                   333 58009 81840 81080 91017=
201205020600 AAXX 02064 67599 32980 02005 10190 20159 48552
                   333 10340 20126 58007=
201205010900 AAXX 01094 67599 42580 31804 10300 20198 48567 70300 83200
                   333 59002 83825 91019=
201205010600 AAXX 01064 67599 32980 10000 19220 20184 48554 81031
                   333 10344 20170 58002 81360 81080
                   555 00165 91020=

################################################################################
#  SYNOPS from 67625, Kalabo (Zambia) | 14-51S | 022-42E | 1033 m
################################################################################
201205140600 AAXX 14064 67625 32982 11012 10196 20121 48/// 81030
                   333 10302 20130 58004 81360=
201205090600 AAXX 09064 67625 32982 00910 10192 20138 48///
                   333 10306 20142 59002=
201205080600 AAXX 08064 67625 32982 00912 10172 20142 48///
                   333 10303 20152 58003=

################################################################################
#  SYNOPS from 67633, Mongu (Zambia) | 15-15S | 023-09E | 1052 m
################################################################################
201205291200 AAXX 29124 67633 42880 11501 10264 20075 48561 81100
                   333 59017 81857=
201205231200 AAXX 23124 67633 42980 01604 10272 20089 48543
                   333 58008=
201205180600 AAXX 18064 67633 32980 00906 10164 20093 48520 70200
                   333 10299 20138 59013=
201205171200 AAXX 1712/ 67633 42780 22603 10280 20156 48525 821300
                   333 59009 82856 81361=
201205161200 AAXX 16124 67633 42780 21503 10305 20106 48538 82100
                   333 58002 82856=
201205160900 AAXX 1609/ 67633 42980 00903 10280 20126 48555
                   333 58006=
201205160600 AAXX 16064 67633 32980 10903 10187 20117 48544 81030
                   333 10316 20178 58007 81361=
201205150900 AAXX 1509/ 67633 42680 10903 10285 20134 48549 81101
                   333 58007 81830 81080=
201205150600 AAXX 15064 67633 32980 10000 10195 20119 48537 81030
                   333 10299 20110 58018 81360=
201205140600 AAXX 14064 67633 32980 10903 10185 20126 48579 81030
                   333 10293 20135 59011 81362=
201205090600 AAXX 09064 67633 32980 00904 10166 20102 48538
                   333 10306 20102 59008=
201205051200 AAXX 05124 67633 42980 00908 10315 20100 48535 70200
                   333 58004=
201205030600 AAXX 03064 67633 32980 00906 10214 20112 48536 70200
                   333 10332 20145 58001=
201205020600 AAXX 02064 67633 32980 00906 10196 20086 48529
                   333 10324 20144 59008=

################################################################################
#  SYNOPS from 67641, Kaoma (Zambia) | 14-48S | 024-48E | 1213 m
################################################################################
201205180600 AAXX 18064 67641 32982 00902 10140 20103 48521
                   333 10295 20090 59006=
201205150600 AAXX 15064 67641 32982 50702 10124 20110 48527 85030
                   333 10300 20104 58018 85360=
201205090600 AAXX 09064 67641 32980 00401 10121 20099 48521
                   333 10275 20095 59012=

################################################################################
#  SYNOPS from 67655, Mumbwa (Zambia) | 15-04S | 027-11E | 1216 m
################################################################################
201205210600 AAXX 21064 67655 32980 00000 10173 20101 48543
                   333 10276 20//0 58008=
201205020600 AAXX 02064 67655 32980 30905 10192 20138 48536 80001
                   333 10298 20/// 59002 83080=

################################################################################
#  SYNOPS from 67663, Kabwe (Zambia) | 14-27S | 028-28E | 1206 m
################################################################################
201205291200 AAXX 29124 67663 42580 30207 10254 20117 48553 83100
                   333 59011 83828=
201205260600 AAXX 26064 67663 32980 01007 10152 20093 49558
                   333 10251 20090 58016=
201205231200 AAXX 23124 67663 42580 10906 10217 20099 48540 81100
                   333 59024 81825=
201205200600 AAXX 20064 67663 32980 30601 10184 20094 48525 80002
                   333 10277 20096 59021 83080=
201205190600 AAXX 19064 67663 32980 20601 10169 20086 48543 80002
                   333 10257 20099 58001 82080=
201205180600 AAXX 18064 67663 32980 00803 10162 20089 48541
                   333 10261 20093 59010=
201205160900 AAXX 1609/ 67663 42980 11210 10247 20134 48570 70300 80002
                   333 58010 81080=
201205160600 AAXX 16064 67663 32980 00906 10183 20129 48559
                   333 10277 20133 58024=
201205150900 AAXX 1509/ 67663 42980 00407 10251 20134 48562
                   333 58031=
201205150600 AAXX 15064 67663 32980 11004 10190 20137 48536 80002
                   333 10280 20139 58017 81080=
201205140600 AAXX 14064 67663 32980 10000 10172 20137 48517 81030
                   333 10262 20122 59013=
201205090600 AAXX 09064 67663 32580 70701 10151 20139 48530 875//
                   333 10243 20116 58007 87620=
201205030600 AAXX 03064 67663 32980 10905 10190 20121 48560 80002
                   333 10277 20122 58009 81080=

################################################################################
#  SYNOPS from 67665, Lusaka Internationalairport (Zambia) | 15-19S | 028-27E | 1152 m
################################################################################
201205301800 AAXX 30184 67665 42980 11504 10164 30142 48574 81030
                   333 10274 58005 81360=
201205301500 AAXX 30154 67665 42980 31507 10236 20150 48570 83030
                   333 58004 83360=
201205301200 AAXX 30124 67665 42680 61210 10239 20133 48573 86200
                   333 58006 86845=
201205300600 AAXX 30064 67665 32980 41303 10149 20149 48580 84030
                   333 10246 20/// 58002 84360=
201205300400 AAXX 30044 67665 42980 11603 10110 20110 48565 81030
                   333 58004 81359=
201205300300 AAXX 30034 67665 42980 01503 10113 20113 48562
                   333 58006=
201205292100 AAXX 29214 67665 42980 13002 10122 20122 48565
                   333 59002=
201205291200 AAXX 29124 67665 42680 41105 10229 20148 48564 84200
                   333 59004 84830=
201205290900 AAXX 2909/ 67665 42480 51007 10208 20151 48585 70322 85100
                   333 59004 85820=
201205290600 AAXX 29064 67665 32980 01004 10149 20142 48578
                   333 10249 20//0 59007=
201205290300 AAXX 29034 67665 42980 01503 10108 20098 48561 70200
                   333 59002 91025=
201205281800 AAXX 28184 67665 42980 01403 10145 20119 48562
                   333 10249 59007=
201205281500 AAXX 28154 67665 42980 11205 10221 20089 48563 81030
                   333 58005 81359=
201205281200 AAXX 28124 67665 42780 21309 10228 20087 48569 82100
                   333 58001 82850=
201205280900 AAXX 2809/ 67665 42480 30611 10219 20118 48590 70311 83500
                   333 59005 83620=
201205280600 AAXX 28064 67665 32980 01104 10126 20118 48582
                   333 10250 20//0 58009=
201205280000 AAXX 28004 67665 42980 01603 10092 20081 48555
                   333 58012=
201205272100 AAXX 27214 67665 42980 01704 10119 20090 48570
                   333 58006=
201205271800 AAXX 27184 67665 42980 01405 10135 20120 49567
                   333 58010=
201205270900 AAXX 27094 67665 42980 00610 10212 20089 48594
                   333 58017=
201205270600 AAXX 27064 67665 32980 01206 10123 20105 48572
                   333 10265 58011=
201205270000 AAXX 27004 67665 42980 01604 10090 20090 48550
                   333 58007=
201205261500 AAXX 26154 67665 42980 01508 10231 20085 48556
                   333 58008=
201205261200 AAXX 26124 67665 42980 01205 10248 20080 48560
                   333 58003=
201205260900 AAXX 26094 67665 42980 00914 10225 20096 48580
                   333 58010=
201205260600 AAXX 26064 67665 32980 01203 10131 20115 48563
                   333 10262 20//0 58010=
201205251800 AAXX 25184 67665 42980 01505 10150 20105 48549
                   333 59003=
201205250600 AAXX 25064 67665 32980 01504 10134 20106 48554
                   333 10255 20//0 59008=
201205241800 AAXX 24184 67665 42980 00903 10158 20072 48551
                   333 10255 59004=
201205241200 AAXX 24124 67665 42980 00404 10243 20056 48557 70200
                   333 59006 91022=
201205240600 AAXX 24064 67665 32980 01403 20117 48562
                   333 10237 20//0 59005=
201205240300 AAXX 24034 67665 42980 02101 10078 20068 48544
                   333 58005=
201205240000 AAXX 24004 67665 42980 01503 10095 20086 48542
                   333 59002=
201205231800 AAXX 23184 67665 42980 01302 10134 20103 48553
                   333 10237 59006=
201205231200 AAXX 23124 67665 42580 11208 10221 20089 48560 81100
                   333 58004 81828=
201205230600 AAXX 23064 67665 31960 01206 10138 20138 48567 70500
                   333 10280 20//0 58003=
201205230400 AAXX 23044 67665 42980 01503 10098 20088 48546 70200
                   333 58003 91023=
201205230000 AAXX 23004 67665 42980 01502 10108 20108 48547
                   333 59004=
201205221800 AAXX 22184 67665 42980 00906 10155 20091 48562
                   333 10280 58020=
201205221200 AAXX 22124 67665 42680 11004 10235 20081 48565 81100
                   333 58026 81840=
201205220900 AAXX 2209/ 67665 42980 00816 10228 20086 48586 70200
                   333 58029=
201205220600 AAXX 22064 67665 32980 01016 10166 20132 48569 70200
                   333 10283 20//0 58014=
201205220400 AAXX 2204/ 67665 42980 01304 10112 20101 48544
                   333 58022=
201205220300 AAXX 22034 67665 42980 01206 10117 20100 48542
                   333 58020=
201205212100 AAXX 21214 67665 42980 01803 10139 20094 48546
                   333 58021=
201205211800 AAXX 21184 67665 41960 01403 10160 20092 48543 70500
                   333 10283 58015=
201205211200 AAXX 21124 67665 42980 10608 10268 20085 48545 70200 81030
                   333 58005 81360 91020=
201205210900 AAXX 2109/ 67665 42980 00811 10254 20100 48560
                   333 58005=
201205210600 AAXX 21064 67665 32980 01403 10182 20112 48547 70200
                   333 10280 20//0 58005=
201205210400 AAXX 2104/ 67665 42980 00803 10095 20085 48523
                   333 58001=
201205210300 AAXX 21034 67665 42980 01802 10124 20096 48523
                   333 58004=
201205210000 AAXX 21004 67665 42980 01904 10120 20093 48522
                   333 58002=
201205202100 AAXX 20214 67665 42980 01603 10147 20092 48527
                   333 59005=
201205201800 AAXX 20184 67665 42980 01404 10160 20116 48529 70100
                   333 10280 58000=
201205201500 AAXX 20154 67665 42980 11704 10257 20064 48523 70200 81030
                   333 59005 81360 555 10280 91018=
201205201200 AAXX 20124 67665 42680 10403 10268 20057 48534 70200 81100
                   333 59003 81840 91019=
201205200900 AAXX 20094 67665 42580 21205 10252 20085 48555 81130
                   333 58001 81825 82360=
201205200600 AAXX 20064 67665 31970 21402 10153 20128 48538 70500 82030
                   333 10270 20/// 59002 82360=
201205192100 AAXX 19214 67665 42980 01804 10136 20090 48530
                   333 58003=
201205191200 AAXX 19124 67665 42680 21205 10258 20071 48536 82100
                   333 58003 82830=
201205190600 AAXX 19064 67665 31970 10102 10147 20111 48539 70500 81030
                   333 10271 20/// 59005 81360=
201205182100 AAXX 18214 67665 42980 01801 10123 20095 48524 70200
                   333 59017=
201205181800 AAXX 18184 67665 42980 00302 10155 20090 48522
                   333 10271 59023=
201205181500 AAXX 18154 67665 42980 01004 10238 20090 48521
                   333 59021=
201205181200 AAXX 18124 67665 42780 10603 10249 20053 48532 81100
                   333 59014 81850=
201205180900 AAXX 1809/ 67665 42980 03303 10221 20089 48551
                   333 59012=
201205180600 AAXX 18064 67665 32980 01304 10152 20102 48545
                   333 10261 20191 59014=
201205180400 AAXX 1804/ 67665 42980 01403 10087 20077 48525
                   333 59007=
201205180300 AAXX 18034 67665 42980 01803 10084 20074 48522
                   333 59012=
201205180000 AAXX 18004 67665 42980 01703 10092 20084 48525
                   333 59012=
201205172100 AAXX 17214 67665 42980 01703 10108 20089 48539
                   333 59006=
201205171800 AAXX 17184 67665 42980 01702 10138 20082 48543
                   333 10261 59003=
201205171200 AAXX 1712/ 67665 42780 11105 10250 20029 48546 81100
                   333 59004 81850=
201205170900 AAXX 17094 67665 42980 00908 10230 20052 48568
                   333 59005=
201205170600 AAXX 17064 67665 32980 00309 10157 20114 48560
                   333 10274 20194 59004=
201205170400 AAXX 1704/ 67665 42980 01404 10104 20094 48538 70200
                   333 59003 91022=
201205170000 AAXX 17004 67665 42980 01603 10122 10122 48540
                   333 58006=
201205161800 AAXX 16184 67665 42980 11003 10178 20161 48551 81030
                   333 10274 58004 81360=
201205161500 AAXX 16154 67665 42880 41006 10236 20166 48548 84130
                   333 58004 84857 81359=
201205161200 AAXX 16124 67665 42680 50904 10258 20129 48551 85200
                   333 58004 85845=
201205160900 AAXX 1609/ 67665 42680 10707 10245 20152 48584 81100
                   333 58008=
201205160600 AAXX 16064 67665 32980 10903 10177 20153 48565 81030
                   333 10280 20134 58009 81360=
201205160400 AAXX 16044 67665 42980 11504 10122 20122 48544 81030
                   333 58007 81360=
201205160300 AAXX 16034 67665 42980 11703 10127 20127 48541 81030
                   333 58006 81360=
201205152100 AAXX 15214 67665 42980 10305 10170 20145 48554 81030
                   333 58020 81360=
201205151800 AAXX 15184 67665 41960 11603 10178 20154 48553 70500
                   333 10280 58022 81360=
201205151500 AAXX 15154 67665 42980 31305 10245 20121 48546 83030
                   333 59019 83360 555 10280 91021=
201205151200 AAXX 15124 67665 42680 40904 10265 20126 48548 84100
                   333 59018 84830 91021=
201205150900 AAXX 1509/ 67665 42480 10713 10241 20164 48567 70300 81100
                   333 58019 81812=
201205150600 AAXX 15064 67665 32980 01204 10179 20172 48558
                   333 10274 20/// 58019=
201205150300 AAXX 15034 67665 42980 11603 10121 20121 48534 81030
                   333 58021 81360=
201205150000 AAXX 15004 67665 42980 11703 10130 20130 48529 81030
                   333 58013 81360=
201205141800 AAXX 14184 67665 42980 41703 10190 20174 48536 84030
                   333 10274 59002 84360 91020=
201205141500 AAXX 14154 67665 42980 30907 10251 20139 48527 83030
                   333 59002 83360 555 10274 91019=
201205141200 AAXX 14124 67665 42680 60403 10245 20141 48527 70322 86800
                   333 59003 82632 84835 91019=
201205140900 AAXX 14094 67665 42580 10904 10237 20167 48548 81100
                   333 59017 81825=
201205140600 AAXX 14064 67665 32980 01303 10165 20149 48538
                   333 10259 20/// 59021=
201205132100 AAXX 13214 67665 42980 11504 10142 20142 48528 81030
                   333 59021 81360=
201205131500 AAXX 13154 67665 42680 30805 10234 20137 48526 83100
                   333 59018 83840=
201205131200 AAXX 13124 67665 42680 41211 10250 20147 48531 84100
                   333 59020 84830=
201205130600 AAXX 13064 67665 32980 00706 10157 20149 48552 70200
                   333 10295 20213 59008=
201205130000 AAXX 13004 67665 42980 11402 10117 20117 48531 81030
                   333 59006 81360=
201205122100 AAXX 12214 67665 42980 11603 10130 20128 48545 70200 81030
                   333 59005 81360=
201205121800 AAXX 12184 67665 42980 11404 10157 20140 48545 81030
                   333 10295 59010 81360=
201205121500 AAXX 12154 67665 42780 51206 10222 20151 48543 81130
                   333 59009 81856 85360=
201205120900 AAXX 12094 67665 42680 31208 10227 20156 48572 70322 83130
                   333 59004 83830 81360=
201205120600 AAXX 12064 67665 32980 31208 10162 20145 48560 70222 83030
                   333 10261 20216 59009 83360=
201205120400 AAXX 12044 67665 42980 51502 10131 20124 48540 85030
                   333 59006 85360=
201205120300 AAXX 12034 67665 42980 51502 10131 20124 48540 85030
                   333 59006 85360=
201205120000 AAXX 12004 67665 42980 00000 10116 20116 48538
                   333 59003=
201205111800 AAXX 11184 67665 42980 01103 10160 20134 48552
                   333 10261 58008=
201205111200 AAXX 11124 67665 42680 40405 10248 20114 48554 84100
                   333 58000 84840=
201205110900 AAXX 11094 67665 42580 30912 10217 20115 48575 83100
                   333 58005 83825=
201205110600 AAXX 11064 67665 32480 11206 10145 20126 48567 81100
                   333 10251 20151 58009 81815=
201205110400 AAXX 11044 67665 42980 11604 10093 20093 48545 81030
                   333 58007 81360 91023=
201205101800 AAXX 10184 67665 42980 11503 10155 20138 48555 81030
                   333 10251 58007 81360=
201205101500 AAXX 10154 67665 42780 40904 10222 20151 48552 84100
                   333 58011 84850=
201205101200 AAXX 10124 67665 42680 50606 10234 20128 48553 85100
                   333 58005 85835=
201205100700 AAXX 1007/ 67665 32380 11205 10151 20148 48568 81730
                   333 10244 20121 58005 81704 81360=
201205100600 AAXX 10064 67665 32380 11205 10151 20148 48568 81730
                   333 10244 20121 58005 81704 81360=
201205100400 AAXX 10044 67665 42980 11403 10106 20104 48542 81030
                   333 58005 81360=
201205092100 AAXX 09214 67665 42980 01603 10120 20120 48540
                   333 59003=
201205091800 AAXX 09184 67665 42980 40802 10149 20136 48547 84030
                   333 10240 59001 84360=
201205091200 AAXX 09124 67665 42680 61207 10220 20148 48547 70322 86800
                   333 59008 83832 83635 91021=
201205090900 AAXX 09094 67665 42580 60910 10208 20160 48563 86530
                   333 59013 86620 81360=
201205090600 AAXX 09064 67665 32380 30903 10147 20129 48553 81530
                   333 10250 20/// 59009 81610 83360=
201205090400 AAXX 09044 67665 42980 31503 10121 20121 48538 70200 83030
                   333 59011 83360=
201205090300 AAXX 09034 67665 42980 31502 10131 20131 48537 70300 83030
                   333 59007 83360=
201205090000 AAXX 09004 67665 42980 21705 10115 20115 48535 82030
                   333 59012 82360=
201205082100 AAXX 08214 67665 42980 21503 10137 20119 48546 82030
                   333 59014 82360=
201205081500 AAXX 08154 67665 42980 31111 10221 20119 48551 83030
                   333 59001 83360 91022=
201205081200 AAXX 08124 67665 42680 51010 10234 20136 48556 70222 85200
                   333 59005 85840 91022=
201205080900 AAXX 08094 67665 42580 50913 10211 20130 48575 85500
                   333 59004 85625=
201205080600 AAXX 08064 67665 32980 11209 10149 20140 48562 81030
                   333 10255 20177 59005 81360=
201205071500 AAXX 07154 67665 42780 21013 10237 20121 48555 82100
                   333 58002 82850=
201205071200 AAXX 07124 67665 42680 40908 10243 20138 48562 83100
                   333 58007 83840=
201205070900 AAXX 07094 67665 42680 30913 10226 20138 48582 83500
                   333 58011 83625=
201205070600 AAXX 07064 67665 32980 10911 10175 20156 48570 81030
                   333 10271 20175 59011 81360=
201205070400 AAXX 07044 67665 42980 11503 10117 20117 48541 70200 81030
                   333 58011 81360=
201205070000 AAXX 07004 67665 42980 00302 10120 20113 48545 70200
                   333 58014=
201205061500 AAXX 06154 67665 42980 00610 10243 20085 48553
                   333 58020=
201205061200 AAXX 06124 67665 42680 11214 10263 20059 48558 81100
                   333 81830=
201205060900 AAXX 0609/ 67665 42580 20916 10251 20084 48574 82101
                   333 58012 82820 81080=
201205060600 AAXX 06064 67665 42980 11306 10166 20132 48559 80001
                   333 10291 20178 58014 81080=
201205060400 AAXX 0604/ 67665 42980 01604 10119 20089 48541
                   333 58000=
201205060300 AAXX 06034 67665 42980 01503 10119 20089 48534
                   333 58007=
201205060000 AAXX 06004 67665 42980 01704 10127 20109 48534
                   333 58007=
201205052100 AAXX 05214 67665 42980 01802 10141 20115 48540
                   333 58004=
201205051200 AAXX 05124 67665 42580 11105 10285 20092 48545 70200 81100
                   333 58007 81835=
201205050600 AAXX 05064 67665 32980 10404 10189 20148 48542 80001
                   333 10287 20114 58000 81080=
201205050400 AAXX 05044 67665 42980 11602 10116 20106 48532 70300 80001
                   333 58004 81080 91021=
201205050300 AAXX 0503/ 67665 42980 01602 10116 20116 48527 70200
                   333 58000 Q1020.9=
201205050000 AAXX 05004 67665 42980 01803 10130 20121 48527 70200
                   333 58001 91020=
201205042100 AAXX 04214 67665 42980 01903 10158 20131 48539 70200
                   333 58000 91021=
201205041800 AAXX 04184 67665 42980 01603 10169 20132 48534
                   333 10287 59005=
201205041500 AAXX 04154 67665 42980 11606 10259 20129 48531 81030
                   333 59002 81359=
201205041200 AAXX 04124 67665 42680 50000 10315 20191 48549 85200
                   333 59009 85840=
201205040900 AAXX 04094 67665 42980 01105 10254 20109 48577 70200
                   333 59011=
201205040600 AAXX 04064 67665 32980 01203 10177 20169 48546 70200
                   333 10285 20169 59012=
201205031800 AAXX 03184 67665 42980 11403 10179 20144 48540 80002
                   333 10285 58001 81080=
201205031500 AAXX 03154 67665 42980 50704 10259 20118 48533 80002
                   333 58002 85080 555 10285 91019=
201205031200 AAXX 03124 67665 42680 30710 10274 20119 48531 81101
                   333 58005 81830 83080 91020=
201205030900 AAXX 0309/ 67665 42980 10906 10240 20162 48566 81101
                   333 58016 81812 81080=
201205030600 AAXX 03064 67665 32980 10905 10170 20136 48557 80001
                   333 10285 20162 58010 81080=
201205030400 AAXX 0304/ 67665 42980 21504 10111 20102 48538 80001
                   333 58010 82080=
201205030300 AAXX 03034 67665 42980 21404 10108 20099 48528 80001
                   333 58007 82080=
201205030000 AAXX 03004 67665 42980 01604 10116 20089 48526
                   333 59010=
201205022100 AAXX 02214 67665 42980 01505 10138 20077 48538
                   333 59003=
201205021500 AAXX 02154 67665 42980 11009 10259 20070 48531 80001
                   333 58000 81080 555 10285 91019=
201205021200 AAXX 0212/ 67665 42680 10913 10280 20051 48536 81100
                   333 58000 81840 91019=
201205020900 AAXX 02094 67665 42980 10810 10247 20161 48553 80001
                   333 59005 81080=
201205020600 AAXX 02064 67665 32980 11103 10174 20158 48548 80001
                   333 10295 20165 59004 81080=
201205011800 AAXX 01184 67665 42980 11503 10177 20135 48536 80001
                   333 58000 81080=
201205011500 AAXX 01154 67665 42680 11309 10265 20147 48532 81101
                   333 59002 81845 81080=
201205011200 AAXX 01124 67665 42580 10807 10281 20093 48536 81101
                   333 59003 81825 81080=
201205010600 AAXX 01064 67665 32980 21104 10175 20159 48553 70200
                   333 58003 82078=

################################################################################
#  SYNOPS from 67666, Lusaka City Airport (Zambia) | 15-25S | 028-19E | 1280 m
################################################################################
201205290600 AAXX 29064 67666 32980 00910 10157 20109 48573
                   333 10//0 20130 59004=
201205280900 AAXX 2809/ 67666 42780 30920 10204 20095 48/// 83100
                   333 5//// 83835=
201205230600 AAXX 23064 67666 32980 00907 10145 20116 48560
                   333 10//0 20110 58006=
201205210900 AAXX 2109/ 67666 42980 00704 10248 20084 48552
                   333 58003=
201205210600 AAXX 21064 67666 31980 00902 10196 20087 48545 70500
                   333 10//0 20102 58006=
201205180600 AAXX 18064 67666 32980 00405 10175 20071 48541
                   333 10//0 20100 59012=
201205170900 AAXX 17094 67666 42980 00909 10215 20099 48559
                   333 59006 Q1023.4=
201205141200 AAXX 14124 67666 42680 60000 10240 20124 48519 70322 86100
                   333 59001 86833 91018=
201205140600 AAXX 14064 67666 32980 00908 10180 20129 48534
                   333 10//0 20135 59014=
201205091200 AAXX 09124 67666 42580 50907 10220 20148 48547 70322 86800
                   333 83832 83635 91021=
201205090900 AAXX 09094 67666 42580 50915 10200 20122 48553 85800
                   333 59015 83615 84818=
201205090600 AAXX 09064 67666 32980 40107 10170 20128 48552 82530
                   333 10/// 20135 59006 82620 82360=
201205081200 AAXX 08124 67666 42680 30905 10210 20096 48547 83100
                   333 59003 83830 91022=
201205080600 AAXX 08064 67666 32980 00918 10168 20110 48557
                   333 10/// 20110 59006=
201205041200 AAXX 04124 67666 42580 10906 10273 20/// 48528 81100
                   333 59002 81848=
201205031200 AAXX 03124 67666 42580 50907 10260 20106 48521 81101
                   333 58007 81830 85080 91019=
201205021200 AAXX 0212/ 67666 42680 10910 10226 20075 48524 81100
                   333 59001 81835 91018=
201205020600 AAXX 02064 67666 32980 10908 10190 20134 48546 80001
                   333 10/// 20155 58001 81080=

################################################################################
#  SYNOPS from 67673, Petauke (Zambia) | 14-15S | 031-17E | 1035 m
################################################################################
201205141200 AAXX 14124 67673 42680 51001 10286 20130 48537 85200
                   333 59012 85840=
201205140600 AAXX 14064 67673 32980 00902 10210 20135 48553
                   333 10275 20145 59009=
201205021200 AAXX 0212/ 67673 42980 30903 10290 20076 48541 81031
                   333 59003 81836 83080=
201205020600 AAXX 02064 67673 32980 00902 10205 20140 48557
                   333 10300 20145 58001=

################################################################################
#  SYNOPS from 67731, Senanga (Zambia) | 16-06S | 023-16E | 1027 m
################################################################################
201205080600 AAXX 08064 67731 32980 00901 10199 20119 48///
                   333 10305 20118 5////=

################################################################################
#  SYNOPS from 67741, Sesheke (Zambia) | 17-28S | 024-18E | 949 m
################################################################################
201205140600 AAXX 14064 67741 32980 60000 10135 20118 48520 86030
                   333 10284 20105 59013 86362=
201205090600 AAXX 09064 67741 32980 10901 10152 20114 48544 81030
                   333 10271 20088 59011 81362=
201205080600 AAXX 08064 67741 32980 00903 10165 20118 48565
                   333 10294 20094 59001=

################################################################################
#  SYNOPS from 67743, Livingstone (Zambia) | 17-49S | 025-49E | 985 m
################################################################################
201205300600 AAXX 30064 67743 32980 00000 10124 20085 48570
                   333 10268 20089 58003
                   555 91026=
201205291200 AAXX 29124 67743 42780 11507 10254 20069 48571 70100 81100
                   333 59003 81857=
201205290600 AAXX 29064 67743 32980 00902 10138 20078 48571 70200 10264 20103 59004=
201205281200 AAXX 28124 67743 42780 20905 10248 20082 48574 82100
                   333 59001 82856=
201205280900 AAXX 2809/ 67743 42650 10910 10222 20092 48592 81100
                   333 58004 81848=
201205280600 AAXX 28064 67743 32980 01004 10143 20085 48575
                   333 10273 20106 58010=
201205260900 AAXX 26094 67743 42980 01504 10251 20081 48581
                   333 58009=
201205260600 AAXX 26064 67743 32980 00905 10152 20058 48554
                   333 10289 20082 58002=
201205250900 AAXX 25094 67743 42980 01105 10245 20056 48573
                   333 59005 555 91023=
201205250600 AAXX 25064 67743 32980 00000 10131 20072 48546
                   333 10275 20086 59004
                   555 00/// 91023=
201205231200 AAXX 23124 67743 42780 21806 10265 20065 48562 82100
                   333 59005 82856=
201205230900 AAXX 2309/ 67743 42980 00808 10243 20112 48581 70200
                   333 59008=
201205221200 AAXX 22124 67743 42880 11209 10269 20123 48567 81100
                   333 58025 81857=
201205220900 AAXX 2209/ 67743 42980 01111 10224 20090 48603
                   333 58031=
201205211022 AAXX 21104 67743 42980 01903 10267 20056 48565 70200 58011 91022=
201205210600 AAXX 21064 67743 32980 00000 10125 20050 48535 70200
                   333 10310 20082 58013=
201205201200 AAXX 20124 67743 42980 00803 10307 20014 48536
                   333 58001 91018=
201205200900 AAXX 20094 67743 42980 03503 10273 20015 48554
                   333 58000=
201205200600 AAXX 20064 67743 32980 12804 10156 20056 48528 80001
                   333 10306 20090 59004 81080=
201205190600 AAXX 19064 67743 32980 12702 10134 20079 48527 80001
                   333 10296 20086 59004 81080=
201205180900 AAXX 18094 67743 42980 01803 10254 20088 48551
                   333 59016 555 91021=
201205180600 AAXX 18064 67743 32980 00902 10164 20093 48536
                   333 10299 20096 59017
                   555 91021=
201205161200 AAXX 16124 67743 42880 10806 10302 20039 48560 81130
                   333 58008 81857 81360=
201205150900 AAXX 1509/ 67743 42880 11107 10268 20114 48572 81130
                   333 58020 81856 81360=
201205150600 AAXX 15064 67743 32980 40000 10186 20125 48552 84030
                   333 10295 20138 58021=
201205141200 AAXX 14124 67743 42880 41502 10284 20093 48526 82130
                   333 59008 82857 82360
                   555 91017=
201205140900 AAXX 14094 67743 42980 21605 10255 20096 48545 82030
                   333 59011 82360=
201205140600 AAXX 14064 67743 32980 61102 10180 20120 48530 86030
                   333 10287 20154 59018 86360=
201205130900 AAXX 13094 67743 42780 10906 10255 20103 48556 81100
                   333 59025 81850 91021=
201205101500 AAXX 10154 67743 42880 11006 10272 20057 48554 81100
                   333 59003 81857=
201205090900 AAXX 09094 67743 42780 10908 10238 20105 81100
                   333 59015 81850=
201205090600 AAXX 09064 67743 32980 00902 10159 20096 48551
                   333 10278 20106 59019=
201205070600 AAXX 07064 67743 32980 00905 10172 20105 48569
                   333 10316 20127 58019=
201205050600 AAXX 05064 67743 32980 00000 10174 20103 48541
                   333 10325 20115 58000
                   555 91021=
201205041500 AAXX 04154 67743 42980 00908 10315 20052 48533
                   333 59002=
201205030900 AAXX 03094 67743 42980 10807 10285 20102 48570 80001
                   333 58017 81080 555 91022=
201205030600 AAXX 03064 67743 32980 00904 10186 20102 48547
                   333 10336 20134 58004=
201205020600 AAXX 02064 67743 32980 02002 10164 20130 48538
                   333 10324 20103 59005=
201205010900 AAXX 01094 67743 42980 01005 10289 20088 48567
                   333 58001 555 91022=
201205010600 AAXX 01064 67743 32980 10903 10160 20066 48542 70200 81001
                   333 10328 20100 58001 81080
                   555 91022=

################################################################################
#  SYNOPS from 67751, Magoye (Zambia) | 16-00S | 027-36E | 1018 m
################################################################################
201205140600 AAXX 14064 67751 32980 10000 10171 20130 48/// 81040
                   333 10292 20079 58012 81360=

################################################################################
#  SYNOPS from 67753, Choma (Zambia) | 16-50S | 027-04E | 1213 m
################################################################################
201205291200 AAXX 29124 67753 42660 41108 10220 20129 48/// 84200
                   333 5//// 84832=
201205260900 AAXX 26094 67753 42980 00816 10233 20112 48///
                   333 5////=
201205180600 AAXX 18064 67753 32960 03404 10152 20085 48///
                   333 10236 20082 5////=
201205171200 AAXX 1712/ 67753 42760 11506 10251 20104 48/// 81101
                   333 5//// 81856=
201205160900 AAXX 1609/ 67753 42660 10810 10254 20171 48/// 81100
                   333 5//// 81830=
201205160600 AAXX 16064 67753 32960 51404 10181 20133 48/// 85030
                   333 10249 20130 5//// 81360=
201205150600 AAXX 15064 67753 32960 70000 10181 20148 48/// 87030
                   333 10224 20145 5//// 87360=
201205140600 AAXX 14064 67753 32960 00000 10200 20156 48548
                   333 19320 20141 59016=
201205100700 AAXX 1007/ 67753 32460 31504 10152 20126 48/// 81130
                   333 10184 20080 5//// 81818 82360=
201205100600 AAXX 10064 67753 32460 31504 10152 20126 48/// 81130
                   333 10184 20080 5//// 81818 82360=
201205090600 AAXX 09064 67753 32960 00906 10160 20122 48///
                   333 10214 20081 5////=
201205020600 AAXX 02064 67753 32960 00904 10167 20126 48///
                   333 10229 20082 5////=

################################################################################
#  SYNOPS from 67855, Lupaki (Zambia) | 17-03-00S | 024-46-00E | 1000 m
################################################################################
201205301800 AAXX 30184 67855 NIL=
201205301200 AAXX 30124 67855 41670 41801 10266 20063 38/// 48/// 70500 84100
                   333 5//// 84840=
201205300600 AAXX 30064 67855 31970 30000 10106 20069 3//// 48/// 70511 83030
                   333 20063 5//// 82360=
201205291800 AAXX 29184 67855 NIL=
201205291200 AAXX 29124 67855 41670 50307 10246 20083 3//// 48/// 70522 85100
                   333 5//// 85840=
201205290600 AAXX 29064 67855 31970 10000 10102 20094 3//// 48/// 70500 81030
                   333 20060 5//// 81360=
201205281800 AAXX 28184 67855 NIL=
201205281200 AAXX 28124 67855 41670 40303 10260 20080 3//// 48/// 70500 84100
                   333 5//// 84840=
201205280600 AAXX 28064 67855 31970 00000 10130 20088 38/// 48/// 70500
                   333 20073 5////=
201205271800 AAXX 27184 67855 NIL=
201205271200 AAXX 27124 67855 NIL=
201205270600 AAXX 27064 67855 31970 00000 10080 20049 3//// 48/// 70500
                   333 20035 5////=
201205261800 AAXX 26184 67855 NIL=
201205261200 AAXX 26124 67855 41970 02501 10276 20070 3//// 48/// 70500
                   333 5////=
201205260600 AAXX 26064 67855 31970 00000 10084 20025 3//// 48/// 70500
                   333 20040 5////=
201205251800 AAXX 25184 67855 NIL=
201205251200 AAXX 25124 67855 NIL=
201205250600 AAXX 25064 67855 31970 00000 10096 20051 3//// 48/// 70500
                   333 20053 5////=
201205241800 AAXX 24184 67855 NIL=
201205241200 AAXX 24124 67855 41970 01201 10274 20078 3//// 48/// 70500
                   333 5////=
201205240600 AAXX 24064 67855 31970 00000 10100 20069 3//// 48/// 70500
                   333 20065 5////=
201205231800 AAXX 23184 67855 NIL=
201205231200 AAXX 23124 67855 41770 23303 10268 20098 3//// 48/// 70500 82100
                   333 5//// 82850=
201205230600 AAXX 23064 67855 31970 00000 10100 20080 38/// 48/// 70500
                   333 20072 5////=
201205221800 AAXX 22184 67855 NIL=
201205221200 AAXX 22124 67855 41770 50704 10268 20103 38/// 48/// 70500 85100
                   333 5//// 85850=
201205220600 AAXX 22064 67855 31970 01807 10148 20108 38/// 48/// 70500
                   333 20090 5////=
201205211800 AAXX 21184 67855 NIL=
201205211200 AAXX 21124 67855 41970 01803 10300 20030 38/// 48/// 70500
                   333 5////=
201205210600 AAXX 21064 67855 31970 00000 10088 20030 3//// 48/// 70500
                   333 20033 5////=
201205201800 AAXX 20184 67855 NIL=
201205201200 AAXX 20124 67855 NIL=
201205200600 AAXX 20064 67855 31970 00000 10110 20038 3//// 48/// 70500
                   333 20045 5////=
201205191800 AAXX 19184 67855 NIL=
201205191200 AAXX 19124 67855 41970 01602 10290 20038 3//// 48/// 70500
                   333 5////=
201205190600 AAXX 19064 67855 31970 02401 10086 20039 3//// 48/// 70500
                   333 20050 5////=
201205181800 AAXX 18184 67855 NIL=
201205181200 AAXX 18124 67855 41970 00301 10286 20060 3//// 48/// 70500
                   333 5////=
201205180600 AAXX 18064 67855 31970 01001 10106 20031 3//// 48/// 70500
                   333 20071 5////=
201205171800 AAXX 17184 67855 NIL=
201205171200 AAXX 17124 67855 41670 21803 10274 20063 38/// 48/// 70500 82100
                   333 5//// 82840=
201205170600 AAXX 17064 67855 31970 00902 10126 20059 38/// 48/// 70500
                   333 20060 5////=
201205161800 AAXX 16184 67855 NIL=
201205161200 AAXX 16124 67855 41770 10602 10292 20050 38/// 48/// 70500 81130
                   333 5//// 81850=
201205160600 AAXX 16064 67855 31970 00000 10110 20058 3//// 48/// 70500
                   333 20061 5////=
201205151800 AAXX 15184 67855 NIL=
201205151200 AAXX 15124 67855 41670 53601 10292 20093 3//// 48/// 70511 83130
                   333 5//// 83840 85080=
201205150600 AAXX 15064 67855 31970 50000 10142 20095 3//// 48/// 70522 85030
                   333 20095 5//// 85360=
201205141800 AAXX 14184 67855 NIL=
201205141200 AAXX 14124 67855 41670 61301 10266 20108 3//// 48/// 70522 83230
                   333 5//// 83840 86360=
201205140600 AAXX 14064 67855 31970 70601 10170 20085 3//// 48/// 70522 8703/
                   333 20119 5//// 87360=
201205131200 AAXX 13124 67855 41770 51701 10274 20080 3//// 48/// 70511 85100
                   333 5//// 85850=
201205130600 AAXX 13064 67855 31970 00702 10134 20090 38/// 48/// 70500
                   333 20070 5////=
201205121200 AAXX 12124 67855 41770 40000 10280 20090 38/// 48/// 70500 84100
                   333 5//// 84850=
201205120600 AAXX 12064 67855 31970 11701 10124 20070 38/// 48/// 70500 81030
                   333 20069 5//// 81360=
201205111800 AAXX 11184 67855 NIL=
201205111200 AAXX 11124 67855 41770 11302 10284 20069 38/// 48/// 70500 81100
                   333 5//// 81850=
201205110600 AAXX 11064 67855 31970 00000 10106 20055 38/// 48/// 70500
                   333 20050 5////=
201205101800 AAXX 10184 67855 NIL=
201205101200 AAXX 10124 67855 41970 00603 10278 20075 3//// 48/// 70500
                   333 5////=
201205100600 AAXX 10064 67855 31970 00000 10122 20080 3//// 48/// 70500
                   333 20080 5////=
201205091800 AAXX 09184 67855 NIL=
201205091200 AAXX 09124 67855 41970 00604 10288 20048 3//// 48/// 70500
                   333 5////=
201205090600 AAXX 09064 67855 31970 00000 10116 20089 3//// 48/// 70500
                   333 20075 5////=
201205081800 AAXX 08184 67855 NIL=
201205081200 AAXX 08124 67855 41770 11204 10282 20095 3//// 48/// 70500 81400
                   333 5//// 81650=
201205071800 AAXX 07184 67855 NIL=
201205071200 AAXX 07124 67855 41970 00906 10300 20070 38/// 48/// 70500
                   333 5////=
201205070600 AAXX 07064 67855 31970 00603 10148 20113 38/// 48/// 70500
                   333 20105 5////=
201205061800 AAXX 06184 67855 NIL=
201205061200 AAXX 06124 67855 NIL=
201205060600 AAXX 06064 67855 31970 01303 10164 20076 38/// 48/// 70500
                   333 20070 5////=
201205051800 AAXX 05184 67855 NIL=
201205051200 AAXX 05124 67855 41970 00905 10334 20067 3//// 48/// 70500
                   333 5////=
201205050600 AAXX 05064 67855 31970 01801 10120 20043 3//// 48/// 70500
                   333 20054 5////=
201205041800 AAXX 04184 67855 NIL=
201205041200 AAXX 04124 67855 41970 01302 10320 20088 3//// 48/// 70500
                   333 5////=
201205040600 AAXX 04064 67855 31970 03601 10150 20078 3//// 48/// 70500
                   333 20080 5////=
201205031800 AAXX 03184 67855 NIL=
201205031200 AAXX 03124 67855 41970 03601 10318 20100 3//// 48/// 70500
                   333 5////=
201205030600 AAXX 03064 67855 31970 03602 10170 20101 38/// 48/// 70500
                   333 20079 5////=
201205021800 AAXX 02184 67855 NIL=
201205021200 AAXX 02124 67855 42980 01403 10326 20071 38/// 48///
                   333 5////=
201205020600 AAXX 02064 67855 31970 00000 10124 20055 38/// 48/// 70500
                   333 20060 5////=
201205011800 AAXX 01184 67855 NIL=
201205011200 AAXX 01124 67855 NIL=
201205010600 AAXX 01064 67855 31970 01801 10124 20055 3//// 48/// 70500
                   333 20058 5////=
