################################################################################
# Query made at 04/10/2022 06:40:32 UTC
# Country like Zamb*
# Time interval: from 05/01/2020 05:30  to 05/31/2020 06:30  UTC
################################################################################

################################################################################
#  SYNOPS from 67403, Kawambwa (Zambia) | 09-48S | 029-05E | 1323 m
################################################################################
202005290600 AAXX 29064 67403 31975 50905 10200 20155 48534 70522 85030
                   333 10306 20170 59001 85360 81080
                   555 00160=
202005280600 AAXX 28064 67403 11975 30902 10209 20168 48535 69904 70520 83081
                   333 10313 20167 59001 83360 81080
                   555 00158=
202005270600 AAXX 27064 67403 31975 00903 10192 20139 48535 70500
                   333 10304 20166 58009=
202005260600 AAXX 26064 67403 31975 00901 10187 20155 48526 70500
                   333 10299 20152 59011
                   555 00142=
202005180600 AAXX 18064 67403 31975 01203 10143 20081 48551 70500
                   333 10241 20107 5////
                   555 00102=
202005150600 AAXX 15064 67403 31975 20901 10198 20137 48538 70500 81031
                   333 10302 20168 58002 81360 82080
                   555 00150=
202005140600 AAXX 14064 67403 31975 40901 10191 20140 48540 70520 80001
                   333 10307 20148 58000 85030
                   555 00131=
202005130600 AAXX 13064 67403 31975 41202 10191 20140 48540 70500 81031
                   333 10306 20156 58000 81360 84030
                   555 00134=
202005120600 AAXX 12064 67403 31975 10901 10180 20147 48540 70500 80001
                   333 10283 20150 59004 81080
                   555 00134=
202005110600 AAXX 11064 67403 31975 30902 10166 20130 48639 70520 80001
                   333 10257 20144 5//// 83080
                   555 00146=
202005080600 AAXX 08064 67403 31975 21203 10176 20142 48532 70500 80001
                   333 10282 20149 59001 82080
                   555 00154=
202005070600 AAXX 07064 67403 31975 11602 10177 20153 48533 70500 81030
                   333 10292 20155 59006 81360
                   555 00157=
202005050600 AAXX 05064 67403 31975 11203 10191 20129 48531 70500 80001
                   333 10298 20161 58001 81080
                   555 00158=
202005040600 AAXX 04064 67403 32980 01202 10192 20156 48530
                   333 1//// 20164 5////=

################################################################################
#  SYNOPS from 67441, Mwinilunga (Zambia) | 11-45S | 024-26E | 1361 m
################################################################################
202005280900 AAXX 28094 67441 41980 41304 10250 20088 48586 70500 80007
                   333 58003 84275=
202005280600 AAXX 28064 67441 31970 40000 10130 20113 48575 70500 80007
                   333 10290 2//// 58005 84270=
202005270900 AAXX 27094 67441 41980 40000 10265 20107 48583 80007
                   333 58009 84275=
202005270600 AAXX 27064 67441 31970 30000 10135 20118 48570 70500 80001
                   333 10293 2//// 58005 83070=
202005260900 AAXX 26094 67441 42980 00000 10250 20130 48573
                   333 5////=
202005260600 AAXX 26064 67441 31970 00000 10145 20102 48565 70500
                   333 10279 2//// 59012=
202005180900 AAXX 18094 67441 42980 40903 10225 20071 48596 80007
                   333 5//// 84272=
202005180600 AAXX 18064 67441 32980 20000 10135 20075 48586 80001
                   333 10266 2//// 5//// 82070=
202005150900 AAXX 15094 67441 42980 21303 10245 20100 48584 80001
                   333 59009 82075=
202005150600 AAXX 15064 67441 31970 00000 10120 20103 48576 70500
                   333 10280 2//// 59003=
202005140900 AAXX 14094 67441 42980 50000 10245 20092 48593 80006
                   333 58002 85275=
202005130900 AAXX 13094 67441 42980 40904 10245 20109 48491 80006
                   333 5//// 84275=
202005130600 AAXX 13064 67441 32980 30000 10130 20113 48582 80008
                   333 10275 2//// 58004 83270=
202005120900 AAXX 12094 67441 42980 51303 10230 20119 48/// 80007
                   333 5//// 85272=
202005120600 AAXX 12064 67441 32980 40000 10145 20119 48578 80008
                   333 10270 2//// 59004 84270=
202005110900 AAXX 11094 67441 42980 20903 10235 20125 48581 80001
                   333 5//// 82072=
202005080900 AAXX 08094 67441 42680 61304 10242 20133 48575 82530
                   333 59003 82635 85362=
202005070900 AAXX 07094 67441 42980 70000 10215 20130 48578 8703/
                   333 59005 87360=
202005060900 AAXX 06094 67441 42980 41303 10255 20102 48584 80006
                   333 58014 84275=
202005060600 AAXX 06064 67441 32980 40000 10165 20105 48576 80001
                   333 10284 2//// 58006 84070=
202005040900 AAXX 04094 67441 42680 41303 10275 20139 48568 84100
                   333 5//// 84850=
202005040600 AAXX 04064 67441 32980 00000 10170 20152 48560
                   333 10281 2//// 59013=

################################################################################
#  SYNOPS from 67461, Mansa (Zambia) | 11-06S | 028-51E | 1382 m
################################################################################
202005290600 AAXX 29064 67461 32480 41321 10197 20170 48541 81501
                   333 10304 2//// 59002 81617 84080 91021=
202005280900 AAXX 28094 67461 42680 50812 10277 20149 48551 81201
                   333 58000 81840 85280 91021=
202005280600 AAXX 28064 67461 32980 00803 10204 20156 48544
                   333 10310 2//// 58000 91021=
202005270900 AAXX 27094 67461 42680 11902 10276 20155 48551 81200
                   333 58026 81840 91021=
202005270600 AAXX 27064 67461 32980 50000 10190 20152 48543 85030
                   333 10300 2//// 58022 85360 91021=
202005261200 AAXX 26124 67461 42780 53408 10285 20133 48505 85500
                   333 59016 85658=
202005260900 AAXX 26094 67461 42680 33210 10270 20144 48524 82501
                   333 59026 82649 81080 91019=
202005260600 AAXX 26064 67461 32980 10904 10200 20152 48522 80001
                   333 10280 2//// 59024 81080 91019=
202005180900 AAXX 18094 67461 41675 11212 10215 20096 48557 70500 81500
                   333 58002 81645 91023=
202005180600 AAXX 18064 67461 31970 01311 10142 20102 48551 70500
                   333 10252 2//// 58003 91023=
202005151200 AAXX 15124 67461 42680 11412 10274 20117 48533 81200
                   333 58001 81848 91019=
202005150900 AAXX 15094 67461 42980 01118 10250 20116 48553
                   333 59003 91022=
202005150600 AAXX 15064 67461 32980 00705 10182 20128 48536
                   333 10288 2//// 58000 91022=
202005140900 AAXX 14094 67461 42980 41208 10266 20130 48557 80001
                   333 59001 84080 91022=
202005140600 AAXX 14064 67461 32980 71007 10192 20148 48556 80008
                   333 10294 2//// 59003 87280 91022=
202005131200 AAXX 13124 67461 42680 71204 10286 20119 48532 83208
                   333 58000 83847 86280 91019=
202005130900 AAXX 13094 67461 42980 51005 10252 20135 48557 80008
                   333 58005 85280 91023=
202005130600 AAXX 13064 67461 32980 70803 10171 20151 48548 8703/
                   333 10280 2//// 58000 87360 91022=
202005120600 AAXX 12064 67461 32980 20704 10176 20141 48548 80001
                   333 10268 2//// 59005 82080 91022=
202005110900 AAXX 11094 67461 42580 21218 10227 20137 48558 82200
                   333 58026 82835 91023=
202005110600 AAXX 11064 67461 32980 20810 10175 20140 48552 82030
                   333 10260 2//// 58023 82360 91023=
202005081200 AAXX 08124 67461 42680 41311 10256 20143 48517 84800
                   333 58010 83645 81848 91017=
202005080900 AAXX 08094 67461 42680 41513 10240 20144 48536 84500
                   333 58000 84638 91020=
202005080600 AAXX 08064 67461 32480 11214 10175 20142 48529 81500
                   333 10268 2//// 59001 81612 91020=
202005071200 AAXX 07124 67461 42680 51211 10256 20143 48506 85800
                   333 59009 84642 81845 91016=
202005070900 AAXX 07094 67461 42680 31017 10240 20175 48536 83500
                   333 58002 83638 91020=
202005070600 AAXX 07064 67461 32480 11415 10180 20139 48531 81530
                   333 10280 2//// 58001 81618 81360 91020=
202005061200 AAXX 06124 67461 42680 71110 10256 20152 48516 81108
                   333 59017 81840 87280 91017=
202005060900 AAXX 06094 67461 42680 71215 10240 20155 48534 81508
                   333 59024 81635 86280 91020=
202005060600 AAXX 06064 67461 32980 51213 10178 20152 48529 80008
                   333 10280 2//// 59023 85280 91020=
202005051200 AAXX 05124 67461 42680 21815 10273 20145 48534 81201
                   333 58013 91020=
202005050900 AAXX 05094 67461 42980 31318 10254 20139 48558 80001
                   333 58018 83080 91023=
202005050600 AAXX 05064 67461 32980 30713 10190 20134 48553 80001
                   333 10288 2//// 58017 83080 91023=
202005041200 AAXX 04124 67461 42780 11318 10283 20142 48522 81200
                   333 59005 81850 91018=
202005040600 AAXX 04064 67461 32980 00809 10204 20160 48538
                   333 10291 2//// 59009 91021=

################################################################################
#  SYNOPS from 67469, Samfya (Zambia) | 11-22S | 029-54E | 1171 m
################################################################################
202005290600 AAXX 29064 67469 32480 51508 10212 20180 48/// 85131
                   333 10256 20191 5//// 85818 82360 81080=
202005281200 AAXX 28124 67469 42580 30704 10264 20180 48/// 82231
                   333 5//// 83824 82080=
202005280900 AAXX 28094 67469 42980 20807 10267 20180 48/// 82031
                   333 5//// 82360 81080=
202005280600 AAXX 28064 67469 32980 21104 10197 20180 48/// 82031
                   333 10273 20152 5//// 82360 81080=
202005271200 AAXX 27124 67469 42680 41005 10266 20190 48/// 84231
                   333 5//// 84830 81360 81080=
202005270900 AAXX 27094 67469 42480 21004 10247 20190 48/// 82100
                   333 5//// 82817=
202005270600 AAXX 27064 67469 32480 51003 10210 20180 48/// 81130
                   333 10258 20190 5//// 81813 85360=
202005260600 AAXX 26064 67469 32980 00801 10196 20160 48///
                   333 10245 20197 5////=
202005180900 AAXX 18094 67469 42680 21210 10200 20130 48/// 82200
                   333 5//// 82833=
202005180600 AAXX 18064 67469 32980 01408 10180 20120 48///
                   333 10240 20142 5////=
202005150600 AAXX 15064 67469 32980 01408 10211 20140 48///
                   333 10269 20174 5////=
202005141200 AAXX 14124 67469 42680 20804 10260 20170 48/// 82231
                   333 5//// 82836 81360 81080=
202005140900 AAXX 14094 67469 42980 21106 10257 20140 48/// 82031
                   333 5//// 82360 81080=
202005140600 AAXX 14064 67469 32980 22602 10172 20170 48/// 82031
                   333 10262 20137 5//// 82360 81080=
202005130900 AAXX 13094 67469 42680 20905 10247 20170 48/// 81231
                   333 5//// 81830 81360 82080=
202005130600 AAXX 13064 67469 32980 62503 10182 20180 48/// 86030
                   333 10253 20140 5//// 86360=
202005121200 AAXX 12124 67469 42680 20805 10243 20160 48/// 81230
                   333 5//// 81830 82360=
202005120900 AAXX 12094 67469 42680 21106 10233 20160 48/// 82230
                   333 5//// 82831 81360=
202005120600 AAXX 12064 67469 32480 21007 10202 20180 48/// 82131
                   333 10243 20166 5//// 82812 81360=
202005110600 AAXX 11064 67469 32580 41213 10194 20130 48/// 84231
                   333 10260 20155 5//// 84826 82360 81080=
202005081200 AAXX 08124 67469 42480 21408 10245 20190 48/// 82130
                   333 5//// 82817 81360=
202005080900 AAXX 08094 67469 42580 80215 10228 20220 48/// 82230
                   333 5//// 82825 81360=
202005080600 AAXX 08064 67469 32480 21108 10200 20160 48/// 82100
                   333 10259 20155 5//// 82818=
202005071200 AAXX 07124 67469 42480 21306 10258 20210 48/// 82100
                   333 5//// 82818=
202005070900 AAXX 07094 67469 42580 21210 10233 20180 48/// 82800
                   333 5//// 82625 81824=
202005070600 AAXX 07064 67469 32480 21412 10202 20160 48/// 82800
                   333 10255 20170 5//// 82618 81818=
202005060900 AAXX 06094 67469 42480 31409 10235 20190 48/// 81231
                   333 5//// 81817 82360 83080=
202005060600 AAXX 06064 67469 32480 21107 10207 20160 48/// 81131
                   333 10262 20188 5//// 81818 81360 81080=
202005051200 AAXX 05124 67469 42980 11007 10255 20190 48/// 81030
                   333 5//// 81360=
202005050900 AAXX 05094 67469 42980 01108 10245 20210 48///
                   333 5////=
202005050600 AAXX 05064 67469 32980 01207 10212 20180 48///
                   333 10279 20195 5////=
202005041200 AAXX 04124 67469 42680 10704 10278 20190 48/// 81200
                   333 5//// 81835=
202005040900 AAXX 04094 67469 42980 00805 10261 20170 48///
                   333 5////=
202005040600 AAXX 04064 67469 32980 01408 10230 20194 48///
                   333 10284 20209 5////=

################################################################################
#  SYNOPS from 67475, Kasama (Zambia) | 10-13S | 031-08E | 1382 m
################################################################################
202005290600 AAXX 29064 67475 32460 51105 10187 20157 48551 70300 84601
                   333 10310 20158 58004 84718 81080 91024=
202005280900 AAXX 28094 67475 42660 51705 10275 20157 48541 70322 82201
                   333 58000 82820 83080 91022=
202005280600 AAXX 28064 67475 42560 53305 10200 20153 48549 70222 82231
                   333 10319 20142 58001 82820 83360 82080=
202005271200 AAXX 27124 67475 41660 31802 10295 20112 48528 70500 83200
                   333 58005 83840 91020=
202005270900 AAXX 27094 67475 41660 10903 10285 20145 48551 70500 81100
                   333 58006 81830 91023=
202005270600 AAXX 27064 67475 32960 03402 10186 20162 48547 70200
                   333 10321 20118 58008 91023=
202005260900 AAXX 26094 67475 42660 20902 10274 20136 48545 70200 82100
                   333 59008 82830 91022=
202005260600 AAXX 26064 67475 32960 00503 10188 20149 48540 70200
                   333 10293 20120 59013 91022=
202005180600 AAXX 18064 67475 32960 00908 10146 20094 48566
                   333 10264 20091 59003 91023=
202005150600 AAXX 15064 67475 32980 30905 10204 20124 48553 70320 80008
                   333 10298 20147 58001 83280 91024=
202005141200 AAXX 14124 67475 42660 50804 10274 20132 48531 70122 83201
                   333 58002 83840 82080 91020=
202005140900 AAXX 14094 67475 42560 60904 10259 20148 48552 70322 82231
                   333 58004 82825 84360 83080 91024=
202005140600 AAXX 14064 67475 32960 60502 10199 20155 48553 70222 82038
                   333 10301 20136 59001 82360 85280 91024=
202005131200 AAXX 13124 67475 42660 51603 10285 20122 48530 70222 83201
                   333 58004 83840 82080 91020=
202005130900 AAXX 13094 67475 42560 40803 10262 20127 48553 70322 82101
                   333 58003 82830 83080 91023=
202005130600 AAXX 13064 67475 32960 61105 10197 20151 48554 70222 80008
                   333 10302 20120 58000 86260 91024=
202005121200 AAXX 12124 67475 42660 41005 10278 20131 48525 82108
                   333 59010 82840 84280 91020=
202005120600 AAXX 12064 67475 32960 30905 10181 20141 48552 80001
                   333 10274 20108 59003 83080 91024=
202005110900 AAXX 11094 67475 42560 31411 10239 20133 48553 82104
                   333 58001 82820 83080 91023=
202005110600 AAXX 11064 67475 32960 41315 10171 20120 48555 82038
                   333 10274 20112 59002 82360 84280 91024=
202005081200 AAXX 08124 67475 42680 81105 10239 20152 48535 70322 86501
                   333 58010 86630 83080 91021=
202005080900 AAXX 08094 67475 42580 51505 10230 20141 48550 70322 83501
                   333 58002 83625 83080 91023=
202005080600 AAXX 08064 67475 32580 31203 10184 20144 48547 70320 82201
                   333 10286 20136 58002 82820 82080 91023=
202005071200 AAXX 07124 67475 42680 51304 10261 20146 48526 70222 84201
                   333 59003 84835 82080 91020=
202005070900 AAXX 07094 67475 42580 51007 10234 20147 48548 70322 84201
                   333 59007 84825 82080 91023=
202005070600 AAXX 07064 67475 32580 51307 10190 20170 48546 70320 84201
                   333 10282 20177 59011 84820 83080 91023=
202005061200 AAXX 06124 67475 42660 51105 10270 20153 48531 70222 82231
                   333 59004 82840 81360 83080 91021=
202005060900 AAXX 06094 67475 42560 41305 10243 20153 48556 70222 82201
                   333 58000 82830 83080 91024=
202005060600 AAXX 06064 67475 32960 41206 10186 20163 48556 70322 80001
                   333 10290 20131 58001 84280=
202005051200 AAXX 05124 67475 42660 41506 10276 20147 48534 70222 84200
                   333 58013 84840 91021=
202005050600 AAXX 05064 67475 32960 02105 10199 20152 48557 70200
                   333 10292 20145 58011 91024=
202005041200 AAXX 04124 67475 42660 21012 10274 20139 48521 82200
                   333 59009 82835 91020=
202005040900 AAXX 04094 67475 42560 21215 10255 20154 48545 82200
                   333 59009 82820 91022=
202005040600 AAXX 04064 67475 32960 01014 10207 20121 48546
                   333 10292 20152 59006 91023=

################################################################################
#  SYNOPS from 67476, Misamfu (Zambia) | 10-06S | 031-15E | 1536 m
################################################################################
202005270600 AAXX 27064 67476 32980 50902 10158 20116 48/// 82038
                   333 10282 20074 58002 82362 84280=
202005260600 AAXX 26064 67476 31980 00902 10194 20144 48/// 70500
                   333 10275 20081 5////=
202005150900 AAXX 15094 67476 41678 11004 10249 20138 48/// 70500 81100
                   333 5//// 81837=
202005150600 AAXX 15064 67476 31978 01104 10200 20138 48/// 70500
                   333 10290 20087 58000=
202005140600 AAXX 14064 67476 32980 60701 10180 20160 48/// 81058
                   333 10290 20085 59001 81360 86280=
202005130900 AAXX 13094 67476 42680 41803 10252 20135 48/// 81102
                   333 58005 81842 84080=
202005130600 AAXX 13064 67476 32980 50902 10188 20172 48/// 81038
                   333 10286 20076 58000 81360 85280=
202005121200 AAXX 12124 67476 42780 12902 10272 20139 48/// 81100
                   333 5//// 81856=
202005120900 AAXX 12094 67476 42680 13602 10247 20153 48/// 81100
                   333 59007 81845=
202005120600 AAXX 12064 67476 32980 11202 10175 20150 48/// 81031
                   333 10262 20060 5//// 81360 81080=
202005110900 AAXX 11094 67476 42680 11204 10233 20134 48/// 81102
                   333 5//// 81845 81080=
202005081200 AAXX 08124 67476 42680 71804 10236 20155 48/// 85232
                   333 58011 85848 81360 82080=
202005080900 AAXX 08094 67476 42680 71803 10218 20146 48/// 871//
                   333 5//// 87835=
202005080600 AAXX 08064 67476 31578 11504 10186 20145 48/// 70500 81100
                   333 10267 20077 58003 81820=
202005071200 AAXX 07124 67476 42780 51804 10255 20155 48/// 85100
                   333 5//// 85850=
202005070600 AAXX 07064 67476 32580 11403 10186 20156 48/// 81101
                   333 10265 20104 59016 81820 81080=
202005060600 AAXX 06064 67476 32580 70902 10177 20161 48/// 81108
                   333 10275 20079 58003 81820 87280=
202005051200 AAXX 05124 67476 42780 31104 10259 20165 48/// 83201
                   333 58013 83850 81080=
202005050900 AAXX 05094 67476 42680 41103 10246 20155 48/// 84200
                   333 58011 84835=
202005050600 AAXX 05064 67476 32980 11303 10199 20156 48/// 80001
                   333 10271 20095 58011 81080=
202005041200 AAXX 04124 67476 42780 11105 10265 20143 48/// 81100
                   333 5//// 81850=
202005040900 AAXX 04094 67476 42680 11207 10249 20138 48/// 81100
                   333 5//// 81838=
202005040600 AAXX 04064 67476 32680 11003 10203 20144 48/// 81200
                   333 10275 20083 59008 81840=

################################################################################
#  SYNOPS from 67477, Mpika (Zambia) | 11-54S | 031-26E | 1400 m
################################################################################
202005290600 AAXX 29064 67477 32480 31207 10195 20165 48/// 83500
                   333 10276 20165 5//// 83614
                   555 00154=
202005280900 AAXX 28094 67477 42680 31208 10260 20142 48/// 81101
                   333 5//// 81845 83080=
202005280600 AAXX 28064 67477 32980 21507 10215 20157 48/// 80001
                   333 10300 20156 5//// 83080
                   555 00135=
202005270900 AAXX 27094 67477 42680 32702 10277 20160 48/// 83200
                   333 5//// 83840=
202005270600 AAXX 27064 67477 32980 22102 10189 20155 48/// 82030
                   333 10304 20130 5//// 82360
                   555 00120=
202005260900 AAXX 26094 67477 42680 21802 10265 20142 48/// 81130
                   333 5//// 81842 82361=
202005260600 AAXX 26064 67477 32980 00904 10215 20140 48///
                   333 10274 20115 5////=
202005180900 AAXX 18094 67477 41578 31203 10195 20080 48/// 70500 82101
                   333 5//// 82820 82080=
202005180600 AAXX 18064 67477 31475 41208 10151 20090 48/// 70500 84501
                   333 10223 20112 5//// 84610 82080
                   555 00101=
202005150900 AAXX 15094 67477 42980 01209 10203 20117 48///
                   333 5////=
202005150600 AAXX 15064 67477 32980 00908 10177 20112 48///
                   333 10272 20144 5////
                   555 00136=
202005140600 AAXX 14064 67477 32980 30905 10196 20151 48/// 80001
                   333 10272 20143 5//// 83080
                   555 00137=
202005130900 AAXX 13094 67477 42980 21202 10255 20150 48/// 80001
                   333 5//// 82080=
202005130600 AAXX 13064 67477 32980 40905 10192 20130 48/// 84030
                   333 10267 20130 5//// 84360
                   555 00125=
202005110900 AAXX 11094 67477 42580 31210 10208 20125 48/// 83501
                   333 5//// 83629 81080=
202005110600 AAXX 11064 67477 32480 50912 10158 20124 48/// 85530
                   333 10228 20130 5//// 85616 82360
                   555 00125=
202005081200 AAXX 08124 67477 41678 60903 10213 20150 48/// 86101
                   333 5//// 86830 81080=
202005080900 AAXX 08094 67477 41578 40906 10213 20130 48/// 70500 84130
                   333 5//// 84820 81360=
202005080600 AAXX 08064 67477 31475 60906 10148 20130 48/// 70522 85501
                   333 10241 20137 5//// 85612 82080
                   555 00194=
202005071200 AAXX 07124 67477 42680 51206 10236 20150 48/// 85101
                   333 5//// 85830 81080=
202005070900 AAXX 07094 67477 41578 50903 10216 20140 48/// 70522 84131
                   333 5//// 84820 82359 82080=
202005070600 AAXX 07064 67477 31978 61207 10164 20150 48/// 70522 85031
                   333 10249 20141 5//// 85359 82080
                   555 00176=
202005060900 AAXX 06094 67477 41578 30604 10217 20140 48/// 70500 82101
                   333 5//// 82820 82080=
202005060600 AAXX 06064 67477 31475 61206 10169 20150 48/// 70522 85531
                   333 10250 20146 5//// 85610 82360 81080
                   555 00160=
202005051200 AAXX 05124 67477 42680 10905 10243 20140 48/// 81101
                   333 5//// 81834 81080=
202005050900 AAXX 05094 67477 41578 11206 10223 20150 48/// 70500 81100
                   333 5//// 81820=
202005050600 AAXX 05064 67477 31978 10902 10183 20160 48/// 70500 80001
                   333 10268 20138 5//// 81080
                   555 00181=
202005041200 AAXX 04124 67477 42980 11203 10260 20140 48/// 80001
                   333 5//// 81080=
202005040900 AAXX 04094 67477 42980 10607 10248 20140 48/// 81030
                   333 5//// 81360=
202005040600 AAXX 04064 67477 32980 10902 10207 20150 48/// 80001
                   333 10272 20153 5//// 81080
                   555 00146=

################################################################################
#  SYNOPS from 67481, Isoka (Zambia) | 10-07S | 032-38E | 1360 m
################################################################################
202005290600 AAXX 29064 67481 31478 22403 10202 20170 48/// 70500 82100
                   333 10298 20152 5//// 82815=
202005280600 AAXX 28064 67481 31578 72702 10230 20166 48/// 70422 81132
                   333 10312 20150 5//// 81820 81360 87080=
202005270900 AAXX 27094 67481 41678 10302 10276 20158 48/// 70500 81100
                   333 58006 81830=
202005270600 AAXX 27064 67481 31978 03002 10220 20154 48/// 70500
                   333 10260 20150 5////=
202005261200 AAXX 26124 67481 41678 10302 10282 20124 48/// 70500 81100
                   333 5//// 81845=
202005260900 AAXX 26094 67481 41678 11003 10262 20141 48/// 70500 81100
                   333 5//// 81840=
202005260600 AAXX 26064 67481 32978 02002 10205 20152 48/// 70500
                   333 10270 20110 5////=
202005180600 AAXX 18064 67481 32980 03002 10200 20122 48///
                   333 10264 20136 5////=
202005140600 AAXX 14064 67481 32980 62002 10200 20132 48/// 80001
                   333 10260 20138 5//// 86080=
202005130600 AAXX 13064 67481 32980 62402 10198 20128 48/// 80001
                   333 10263 20134 5//// 86080=
202005110600 AAXX 11064 67481 32980 33003 10178 20131 48/// 80001
                   333 10248 20132 5//// 83080=
202005080600 AAXX 08064 67481 32480 23002 10190 20147 48/// 82500
                   333 10262 20140 5//// 82612=
202005070600 AAXX 07064 67481 32480 71204 10175 20132 48/// 875//
                   333 10275 20154 5//// 87610=
202005060900 AAXX 06094 67481 42580 72702 10228 20161 48/// 83107
                   333 5//// 83823 87280=
202005060600 AAXX 06064 67481 32480 71202 10192 20148 48/// 81107
                   333 10280 20158 5//// 81810 87280=
202005050600 AAXX 05064 67481 32480 23003 10200 20158 48/// 81130
                   333 10286 20152 5//// 81812 82360=
202005040600 AAXX 04064 67481 32480 12702 10202 20151 48/// 81100
                   333 10272 20150 5//// 81813=

################################################################################
#  SYNOPS from 67531, Zambezi (Zambia) | 13-32S | 023-07E | 1077 m
################################################################################
202005290600 AAXX 29064 67531 32980 10000 10149 20079 48/// 80001
                   333 10300 20059 58000 81081=
202005281200 AAXX 28124 67531 42980 11204 10293 20110 48/// 80001
                   333 58011 81081=
202005280600 AAXX 28064 67531 32980 21205 10168 20082 48/// 80001
                   333 10316 20102 58012 82080=
202005271200 AAXX 27124 67531 42780 31006 10305 20112 48/// 83101
                   333 58008 83850 81081=
202005270900 AAXX 27094 67531 42980 30905 10276 20130 48/// 80002
                   333 58002 83081=
202005270600 AAXX 27064 67531 32980 50902 10156 20116 48/// 82038
                   333 10305 20074 58002 82362 84280=
202005260900 AAXX 26094 67531 42980 00905 10265 20137 48///
                   333 59009=
202005260600 AAXX 26064 67531 31965 10000 10156 20121 48/// 70500 80001
                   333 10298 20073 59010 81080=
202005180600 AAXX 18064 67531 32980 20909 10155 20084 48/// 82030
                   333 10272 20102 58004 82362=
202005151200 AAXX 15124 67531 42980 00602 10290 20094 48///
                   333 59009=
202005150900 AAXX 15094 67531 42980 01203 10265 20102 48///
                   333 59006=
202005150600 AAXX 15064 67531 32980 00000 10155 20084 48///
                   333 10300 20045 59001=
202005140900 AAXX 14094 67531 41970 21803 10263 20088 48/// 70500 80001
                   333 58003 82081=
202005140600 AAXX 14064 67531 31970 10902 10135 20102 48/// 70500 81030
                   333 10298 20052 58005 81362=
202005131200 AAXX 13124 67531 42680 11606 10297 20103 48/// 81100
                   333 58002 81849=
202005130900 AAXX 13094 67531 41970 10905 10268 20117 48/// 70500 81030
                   333 58005 81362=
202005130600 AAXX 13064 67531 31970 10905 10156 20114 48/// 70500 81030
                   333 10297 20070 59003 81362=
202005120900 AAXX 12094 67531 42980 11207 10263 20136 48/// 80001
                   333 59004 81081=
202005120600 AAXX 12064 67531 31970 21005 10162 20117 48/// 70500 82030
                   333 10285 20080 59006 82362=
202005110900 AAXX 11094 67531 42980 31006 10245 20129 48/// 82032
                   333 5//// 82362 82081=
202005110600 AAXX 11064 67531 32980 40907 10163 20117 48/// 81038
                   333 10284 20105 58004 81362 84280=
202005081200 AAXX 08124 67531 42780 31504 10286 20153 48/// 83100
                   333 59007 83850=
202005080600 AAXX 08064 67531 32980 20000 10183 20132 48/// 82030
                   333 10280 20119 59002 82362=
202005071200 AAXX 07124 67531 42680 51504 10259 20143 48/// 81130
                   333 59004 81846 85361=
202005070900 AAXX 07094 67531 42980 71305 10222 20141 48/// 8707/
                   333 59009 87461=
202005070600 AAXX 07064 67531 32980 70903 10156 20132 48/// 8703/
                   333 10296 20105 59003 87361=
202005061200 AAXX 06124 67531 42980 31207 10288 20138 48/// 82031
                   333 58009 82362 82081=
202005060900 AAXX 06094 67531 42980 30906 10255 20139 48/// 82031
                   333 58009 82362 82081=
202005060600 AAXX 06064 67531 31970 30906 10194 20130 48/// 70500 83031
                   333 10305 20140 58003 83362 81080=
202005051200 AAXX 05124 67531 42780 11506 10296 20152 48/// 81100
                   333 58016 81850=
202005050600 AAXX 05064 67531 31970 21203 10171 20147 48/// 70500 82030
                   333 10316 20121 58013 82362=
202005041200 AAXX 04124 67531 42780 30906 10306 20169 48/// 83100
                   333 5//// 83850=
202005040900 AAXX 04094 67531 42980 01006 10284 20170 48///
                   333 5////=
202005040600 AAXX 04064 67531 32980 03602 10202 20159 48///
                   333 10315 20112 59016=

################################################################################
#  SYNOPS from 67541, Kasempa (Zambia) | 13-32S | 025-51E | 1234 m
################################################################################
202005290600 AAXX 29064 67541 32980 20000 10135 20126 48/// 70222 80002
                   333 10304 20078 5//// 82080=
202005281200 AAXX 28124 67541 42980 20000 10300 2//// 48/// 70222 80002
                   333 5//// 82080=
202005280900 AAXX 28094 67541 42980 50000 10265 20147 48/// 70222 80005
                   333 5//// 85080=
202005280600 AAXX 28064 67541 32980 70000 10120 20101 48/// 70222 80007
                   333 10300 20070 5//// 87070=
202005270600 AAXX 27064 67541 32980 70000 10140 20131 48/// 70222 80007
                   333 10302 20090 5//// 87080=
202005260900 AAXX 26094 67541 42980 10000 10260 20159 48/// 70222 81030
                   333 5//// 81360=
202005260600 AAXX 26064 67541 32980 10000 10150 20133 48/// 70222 81030
                   333 10300 20090 5//// 81360=
202005180900 AAXX 18094 67541 42980 10000 10230 20131 48/// 70222 80001
                   333 5//// 81080=
202005180600 AAXX 18064 67541 32980 20000 10150 20095 48/// 70222 80002
                   333 10280 20120 5//// 82080=
202005151200 AAXX 15124 67541 42980 10502 10290 20140 48/// 70222 80001
                   333 5//// 81080=
202005150900 AAXX 15094 67541 42980 10000 10275 20140 48/// 70222 80001
                   333 5//// 81080=
202005150600 AAXX 15064 67541 32980 10000 10120 20101 48/// 70222 80001
                   333 10300 20052 5//// 81080=
202005140900 AAXX 14094 67541 42980 10000 10275 20108 48/// 70222 80001
                   333 5//// 81080=
202005140600 AAXX 14064 67541 32980 10000 10115 20098 48/// 70222 80001
                   333 10296 20050 5//// 81080=
202005130600 AAXX 13064 67541 32980 50000 10140 20113 48/// 70222 80005
                   333 10290 20120 5//// 85080=
202005121200 AAXX 12124 67541 42980 70000 10280 20174 48/// 70222 80007
                   333 5//// 87080=
202005120900 AAXX 12094 67541 42980 60000 10260 20159 48/// 70222 80006
                   333 5//// 86080=
202005120600 AAXX 12064 67541 32980 60000 10155 20130 48/// 70222 80006
                   333 10282 20120 5//// 86080=
202005110900 AAXX 11094 67541 42980 20504 10250 20182 48/// 70222 80002
                   333 5//// 82080=
202005110600 AAXX 11064 67541 32980 20000 10145 20136 48/// 70200 80002
                   333 10274 20100 5//// 82080=
202005080900 AAXX 08094 67541 42980 60000 10215 20160 48/// 70223 86030
                   333 5//// 86360=
202005080600 AAXX 08064 67541 32980 30000 10170 20128 48/// 70222 83030
                   333 10254 20124 5//// 83360=
202005071200 AAXX 07124 67541 42680 70000 10240 20158 48/// 70222 82230
                   333 5//// 82832 85360=
202005070900 AAXX 07094 67541 42980 70504 10230 20151 48/// 70222 87030
                   333 5//// 87360=
202005070600 AAXX 07064 67541 32980 70000 10145 20136 48/// 70222 87030
                   333 10300 20118 5//// 87360=
202005061200 AAXX 06124 67541 42980 40000 10290 20150 48/// 70222 80004
                   333 5//// 84080=
202005060900 AAXX 06094 67541 42980 20507 10270 20134 48/// 70222 80002
                   333 5//// 82080=
202005060600 AAXX 06064 67541 32980 10000 10180 20130 48/// 70222 80001
                   333 10310 20116 5//// 81080=
202005051200 AAXX 05124 67541 42980 10405 10295 20166 48/// 70222 80001
                   333 5//// 81080=
202005050900 AAXX 05094 67541 42980 20503 10275 20150 48/// 70222 80002
                   333 5//// 82080=
202005050600 AAXX 05064 67541 32980 20000 10195 20138 48/// 70222 80002
                   333 10318 20104 5//// 82080=
202005040900 AAXX 04094 67541 42980 10506 10295 20166 48/// 70222 80001
                   333 5//// 81080=
202005040600 AAXX 04064 67541 32980 10000 10200 20169 48/// 70222 80001
                   333 10320 20120 5//// 81080=

################################################################################
#  SYNOPS from 67543, Kabompo (Zambia) | 13-36S | 024-12E | 1075 m
################################################################################
202005290600 AAXX 29064 67543 31970 40000 10304 20094 48/// 70524 80005
                   333 10304 20084 5//// 84280=
202005280900 AAXX 28094 67543 41975 31202 10270 20065 48/// 70522 80007
                   333 5//// 83285=
202005280600 AAXX 28064 67543 31970 60000 10164 20070 48/// 70522 80007
                   333 10314 20130 5//// 86280=
202005270900 AAXX 27094 67543 41970 70000 10268 20125 48/// 70522 80007
                   333 5//// 87280=
202005270600 AAXX 27064 67543 31970 70000 10126 20105 48/// 70522 82037
                   333 10300 20098 5//// 82362 87280=
202005261200 AAXX 26124 67543 41675 32202 10294 20109 48/// 70500 83100
                   333 5//// 83845=
202005260900 AAXX 26094 67543 41970 00801 10270 20127 48/// 70500
                   333 5////=
202005260600 AAXX 26064 67543 31960 00000 10128 20114 48/// 74044
                   333 10300 20102 5////=
202005180900 AAXX 18094 67543 42975 41503 10238 20184 48/// 70500 80005
                   333 5//// 84285=
202005180600 AAXX 18064 67543 31975 00000 10136 20088 48/// 70500
                   333 10290 20100 5////=
202005150600 AAXX 15064 67543 31970 00000 10102 20079 48/// 70500
                   333 10310 20074 5////=
202005120900 AAXX 12094 67543 41975 60901 10254 20141 48/// 70522 80005
                   333 5//// 86285=
202005120600 AAXX 12064 67543 31975 60000 10152 20113 48/// 70522 80005
                   333 10280 20112 5//// 86285=
202005110900 AAXX 11094 67543 41975 61202 10248 20119 48/// 70522 80007
                   333 5//// 86280=
202005110600 AAXX 11064 67543 31975 60000 10148 20122 48/// 70522 80007
                   333 10292 20122 5//// 87280=
202005041200 AAXX 04124 67543 41676 61403 10306 20151 48/// 70521 86200
                   333 5//// 86840=
202005040900 AAXX 04094 67543 41975 00902 10294 20161 48/// 70500
                   333 5////=
202005040600 AAXX 04064 67543 31975 00000 10194 20169 48/// 70500
                   333 10330 20136 5////=

################################################################################
#  SYNOPS from 67551, Solwezi (Zambia) | 12-11S | 026-23E | 1386 m
################################################################################
202005290600 AAXX 29064 67551 31960 10000 10160 20119 48546 70500 81030
                   333 10261 20095 59011 81362 91022=
202005280900 AAXX 28094 67551 41960 71706 10246 20094 48547 70522 86030
                   333 58008 86362=
202005280600 AAXX 28064 67551 31960 71505 10169 20117 48548 70522 87030
                   333 10272 20099 58004 87362 91022=
202005270600 AAXX 27064 67551 31665 30000 10155 20148 48541 70511 83100
                   333 10275 20171 58010 83830 91022=
202005260600 AAXX 26064 67551 31965 03003 10144 20119 48533 70500
                   333 10273 20109 59013 91021=
202005180600 AAXX 18064 67551 32970 01006 10132 20068 48565 70200
                   333 10261 20082 58001 91025=
202005150600 AAXX 15064 67551 32970 00000 10165 20111 48547 70200
                   333 10278 20081 59001 91023=
202005140900 AAXX 14094 67551 41970 61506 10246 20060 48561 70522 80006
                   333 58004 86280 91023=
202005140600 AAXX 14064 67551 31965 60000 10131 20118 48547 70522 80006
                   333 10261 20086 59001 86280 91023=
202005120900 AAXX 12094 67551 41970 61205 10235 20134 48555 70522 86030
                   333 59009 86362 91023=
202005120600 AAXX 12064 67551 31965 50905 10155 20121 48553 70522 85030
                   333 10261 20097 59005 85362 91023=
202005110600 AAXX 11064 67551 31965 31207 10153 20114 48558 70500 83030
                   333 10255 20115 58004 83362 91023=
202005080600 AAXX 08064 67551 31670 61507 10167 20124 48545 70522 81230
                   333 10249 20133 58000 81845 86362 91022=
202005070600 AAXX 07064 67551 31970 70905 10156 20122 48550 70522 87030
                   333 10254 20136 59008 87362=
202005060900 AAXX 06094 67551 41670 31506 10232 20106 48558 70500 81101
                   333 58000 81830 83080 91023=
202005060600 AAXX 06064 67551 31970 61205 10157 20119 48552 70500 81036
                   333 10266 20122 58001 81362 86280=
202005050600 AAXX 05064 67551 32970 11205 10177 20134 48553 70500 81030
                   333 10276 20145 58014 81362 91023=
202005040900 AAXX 04094 67551 41670 10105 10263 20150 48545 70500 81100
                   333 59011 81830 91021=

################################################################################
#  SYNOPS from 67561, Ndola (Zambia) | 13-00S | 028-39E | 1269 m
################################################################################
202005281200 AAXX 28124 67561 41775 52104 10280 20102 48533 70522 85208
                   333 58002 85850 85280 91020=
202005280900 AAXX 28094 67561 41970 61507 10277 20099 48557 70522 80008
                   333 58002 86280 91023=
202005280600 AAXX 28064 67561 31940 60000 10182 20137 48550 70422 83038
                   333 10296 20128 58005 83360 86280 91023=
202005270900 AAXX 27094 67561 41670 59903 10275 20140 48555 70522 83208
                   333 58008 83842 85280 91022=
202005261200 AAXX 26124 67561 41759 12904 10290 20119 48522 70400 81100
                   333 59004 81856 91019=
202005260600 AAXX 26064 67561 31959 09903 10171 20129 48537 70400
                   333 10279 20128 59012 91021=
202005180900 AAXX 18094 67561 41970 00908 10205 20080 48581 70500
                   333 59003 91026=
202005180600 AAXX 18064 67561 41958 01105 10139 20085 48570 70400
                   333 10256 20069 59004 91026=
202005150600 AAXX 15064 67561 31958 09903 10173 20095 48552 70400
                   333 10296 20110 58000 91023=
202005130600 AAXX 13064 67561 31956 70000 10154 20128 48552 74444 81038
                   333 10275 20107 58001 81361 87280 91023=
202005121200 AAXX 12124 67561 41770 60000 10270 20116 48533 70522 81108
                   333 59007 81850 86280 91020=
202005120900 AAXX 12094 67561 41970 53304 10245 20121 48558 70522 80008
                   333 59007 85280 91023=
202005120600 AAXX 12064 67561 31958 20000 10165 20121 48552 70400 80001
                   333 10274 20101 59010 82080 91023=
202005110600 AAXX 11064 67561 31959 50503 10152 20067 48561 70522 80008
                   333 10257 20108 59002 85280 91022=
202005080600 AAXX 08064 67561 31960 51113 10186 20116 48553 70522 85030
                   333 10266 2//// 59001 85360 91023=
202005061200 AAXX 06124 67561 42780 61304 10268 20092 48541 70122 81108
                   333 59002 81856 86280 91021=
202005060900 AAXX 06094 67561 42680 61108 10240 20102 48565 70322 81108
                   333 59003 81840 86280 91024=
202005060600 AAXX 06064 67561 41959 50000 10172 20133 48560 70400 80008
                   333 10278 20113 58003 85280 91024=
202005051200 AAXX 05124 67561 41660 11805 10275 20103 48544 70500 81100
                   333 58022 81840 91021=
202005050600 AAXX 05064 67561 31959 40000 10175 20125 48557 70411 82032
                   333 10291 20140 58005 82360 84080 91024=
202005040900 AAXX 04094 67561 41960 01108 10272 20134 48552 70500
                   333 59009 91022=
202005040600 AAXX 04064 67561 31959 00805 10199 20153 48544 70400
                   333 10293 20148 59010 91022=

################################################################################
#  SYNOPS from 67563, Kafironda (Zambia) | 12-36S | 028-07E | 1243 m
################################################################################
202005280600 AAXX 28064 67563 32980 70000 10155 20130 48/// 70522 81038
                   333 10300 20096 5//// 81362 86270
                   555 00084=
202005270600 AAXX 27064 67563 32980 30401 10165 20140 48/// 70500 81032
                   333 10305 20110 5//// 81360 82080
                   555 00096=
202005260600 AAXX 26064 67563 32980 03601 10150 20124 48/// 70500
                   333 10292 20084 5////
                   555 00073=
202005140600 AAXX 14064 67563 32980 70000 10125 20118 48/// 70240 80008
                   333 10285 20072 59004 87270
                   555 00062=
202005130600 AAXX 13064 67563 32980 70000 10120 20112 48/// 70442 81038
                   333 10278 20076 58001 81364 86270
                   555 00067=
202005110600 AAXX 11064 67563 32980 11002 10150 20124 48/// 70200 81030
                   333 10270 20070 5//// 81364
                   555 00064=
202005080600 AAXX 08064 67563 32980 51502 10165 20122 48/// 70211 85030
                   333 10285 20090 5//// 85362
                   555 00080=
202005070600 AAXX 07064 67563 32980 61202 10160 20136 48/// 70222 80008
                   333 10285 20092 5//// 86280
                   555 00074=
202005060600 AAXX 06064 67563 32980 71302 10150 20133 48/// 70222 80008
                   333 10290 20096 5//// 87270
                   555 00076=
202005050600 AAXX 05064 67563 32980 21502 10190 20132 48/// 70200 80002
                   333 10302 20112 5//// 82080
                   555 00096=
202005040600 AAXX 04064 67563 32980 03601 10180 20165 48/// 70200
                   333 10305 20120 5////
                   555 00110=

################################################################################
#  SYNOPS from 67571, Serenje (Zambia) | 13-14S | 030-13E | 1384 m
################################################################################
202005290600 AAXX 29064 67571 32580 40908 10181 20150 48501 70511 84500
                   333 10270 20151 59001 84620=
202005281200 AAXX 28124 67571 42980 71206 10254 20131 48583 81208
                   333 58004 81845 87281=
202005280900 AAXX 28094 67571 42980 71508 10240 20099 48513 80008
                   333 58011 87281=
202005280600 AAXX 28064 67571 32980 71802 10210 20103 48502 70522 81038
                   333 10289 20156 58007 81360 87281=
202005271200 AAXX 27124 67571 42680 71802 10270 20121 48484 85208
                   333 58010 85845 87281=
202005270900 AAXX 27094 67571 42680 62102 10265 20131 48505 70522 85208
                   333 58005 85831 85281=
202005270600 AAXX 27064 67571 32980 11802 10205 20121 48502 70500 81030
                   333 10276 20150 58014 81360=
202005261200 AAXX 26124 67571 42782 33604 10260 20106 48474 70200 83130
                   333 59004 83850 81360=
202005260900 AAXX 26094 67571 42682 23005 10243 20116 48453 70300 82100
                   333 59008 82833=
202005180600 AAXX 18064 67571 32482 10905 10137 20095 48529 70200 81500
                   333 10222 20086 59003 81615=
202005151200 AAXX 15124 67571 42980 50906 10233 20061 48493 70522 80001
                   333 59002 85281=
202005150900 AAXX 15094 67571 42980 00908 10217 20058 48513 70500
                   333 58004=
202005150600 AAXX 15064 67571 32980 01207 10185 20051 48501 70500
                   333 10270 20155 58000=
202005141200 AAXX 14124 67571 42682 72702 10258 20077 48/// 70222 81108
                   333 5//// 81835 87280=
202005140900 AAXX 14094 67571 42982 71205 10243 20066 48/// 70222 80008
                   333 5//// 87280=
202005140600 AAXX 14064 67571 32982 71203 10208 20071 48/// 70222 80008
                   333 10268 20149 5//// 87280=
202005131200 AAXX 13124 67571 42682 71203 10254 20062 48494 70222 81138
                   333 58010 81840 81360 87280=
202005130900 AAXX 13094 67571 42582 71204 10248 20064 48504 70222 81138
                   333 58004 81823 81360 87280=
202005130600 AAXX 13064 67571 32982 71202 10193 20100 48511 70222 81038
                   333 10266 20136 58003 81360 87280=
202005121200 AAXX 12124 67571 42982 72404 10255 20107 48484 70222 80008
                   333 59011 87280=
202005120900 AAXX 12094 67571 42982 72703 10239 20118 48503 70322 80008
                   333 59010 87280=
202005120600 AAXX 12064 67571 32982 61206 10184 20104 48501 70222 80008
                   333 10237 20124 59013 86280=
202005110600 AAXX 11064 67571 32482 71207 10146 20114 48519 81508
                   333 10221 20115 59006 81618 87280=
202005080600 AAXX 08064 67571 32482 71204 10151 20116 48/// 70222 82538
                   333 10232 20114 5//// 82615 82360 85280=
202005071200 AAXX 07124 67571 42682 71206 10213 20119 48492 70222 83531
                   333 59003 83638 82360 84080=
202005070900 AAXX 07094 67571 42582 70903 10210 20115 48512 70222 83138
                   333 59007 83825 82360 86280=
202005070600 AAXX 07064 67571 32379 31207 10156 20103 48510 70200 81601
                   333 10241 20129 59003 81708 83080=
202005061200 AAXX 06124 67571 42680 71204 10222 20122 48492 70522 82108
                   333 58000 82840 87280=
202005060900 AAXX 06094 67571 42582 71203 10200 20116 48522 70222 83508
                   333 59002 83628 86280=
202005060600 AAXX 06064 67571 32482 71203 10164 20118 48510 70222 81108
                   333 10246 20121 59003 81816 87280=
202005051200 AAXX 05124 67571 42982 01205 10240 20119 48493
                   333 58018=
202005050900 AAXX 05094 67571 42982 01205 10207 20111 48523
                   333 58018=
202005050600 AAXX 05064 67571 32982 01206 10165 20095 48520
                   333 58018=
202005041200 AAXX 04124 67571 42982 01210 10247 20080 48583
                   333 59004=
202005040900 AAXX 04094 67571 42982 00909 10244 20055 48503
                   333 59006=
202005040600 AAXX 04064 67571 32982 00905 10205 20121 48502
                   333 10272 20141 59008=

################################################################################
#  SYNOPS from 67575, Mkushi (Zambia) | 13-38-00S | 029-26-00E | 1237 m
################################################################################
202005290600 AAXX 29064 67575 31370 70905 10170 20155 48511 70522 86602
                   333 10302 20137 58012 86708 82276
                   555 00118=
202005281200 AAXX 28124 67575 42680 71801 10288 20113 48495 81108
                   333 58004 81838 87280=
202005280600 AAXX 28064 67575 31970 81201 10164 20122 48508 70522 80007
                   333 10305 20090 58007 88278
                   555 00090=
202005271200 AAXX 27124 67575 42680 81601 10290 20140 48491 82208
                   333 58011 82840 87280=
202005270900 AAXX 27094 67575 42680 72702 10270 20135 48512 81108
                   333 58009 81830 87280=
202005270600 AAXX 27064 67575 31765 41201 10162 20139 48502 70510 84201
                   333 10304 20105 58012 84856 81078
                   555 00107=
202005261200 AAXX 26124 67575 42680 13402 10290 20129 48480 81200
                   333 5//// 81838=
202005260900 AAXX 26094 67575 42680 12703 10276 20139 48504 81100
                   333 5//// 81830=
202005260600 AAXX 26064 67575 32980 03401 10165 20134 48492
                   333 10295 20095 59017
                   555 00090=
202005180900 AAXX 18094 67575 42680 11207 10218 20100 48544 81100
                   333 5//// 81832=
202005180600 AAXX 18064 67575 32480 11201 10136 20087 48532 81100
                   333 10255 20065 59005 81815
                   555 00058=
202005151200 AAXX 15124 67575 42680 10903 10270 20096 48499 81101
                   333 58007 81840 81080=
202005150900 AAXX 15094 67575 42980 01207 10250 20092 48523
                   333 58004=
202005150600 AAXX 15064 67575 32980 01202 10182 20090 48513
                   333 10305 20112 58002
                   555 00085=
202005141200 AAXX 14124 67575 42680 40901 10296 20083 48495 81108
                   333 59002 81840 84280=
202005140900 AAXX 14094 67575 42980 60901 10281 20102 48522 80008
                   333 58003 86280=
202005140600 AAXX 14064 67575 32980 60901 10150 20107 48508 80008
                   333 10295 20066 58000 86278
                   555 00073=
202005131200 AAXX 13124 67575 42780 72602 10286 20075 48496 81208
                   333 58004 81845 87280=
202005130900 AAXX 13094 67575 42980 71301 10265 20101 48518 82038
                   333 58001 82365 86280=
202005130600 AAXX 13064 67575 32980 70000 10149 20115 48508 81080
                   333 10280 20073 58000 81362 87278
                   555 00076=
202005121200 AAXX 12124 67575 42980 71601 10275 20112 48490 80008
                   333 59011 87280=
202005120900 AAXX 12094 67575 42980 71301 10248 20112 48515 80008
                   333 59012 87280=
202005120600 AAXX 12064 67575 32980 11201 10174 20124 48510 80001
                   333 10265 20100 59014 81080
                   555 00089=
202005110900 AAXX 11094 67575 42680 21204 10222 20128 48525 81104
                   333 5//// 81830 82080=
202005110600 AAXX 11064 67575 32480 21001 10161 20125 48424 81504
                   333 10257 20126 59004 81615 82080
                   555 00124=
202005081200 AAXX 08124 67575 42680 11305 10247 20153 48500 81130
                   333 58004 81838 81363=
202005080900 AAXX 08094 67575 42680 11204 10236 20132 48526 81130
                   333 58005 81830 81362=
202005080600 AAXX 08064 67575 32980 21206 10177 20124 48518 82030
                   333 10265 20130 58004 82360
                   555 00130=
202005071200 AAXX 07124 67575 42780 21204 10247 20133 48498 81231
                   333 59005 81850 81368 82080=
202005070900 AAXX 07094 67575 42680 31204 10229 20132 48520 81131
                   333 59005 81830 83366 81080=
202005070600 AAXX 07064 67575 32480 11203 10174 20115 48513 81131
                   333 10272 20125 59010 81815 81365 81080
                   555 00116=
202005061200 AAXX 06124 67575 42680 51203 10267 20117 48504 81108
                   333 59003 81840 85280=
202005060600 AAXX 06064 67575 32480 11302 10168 20129 48524 81504
                   333 10277 20095 59003 81615 81080
                   555 00088=
202005051200 AAXX 05124 67575 42980 00904 10266 20122 48507
                   333 5////=
202005050900 AAXX 05094 67575 42980 11306 10246 20116 48530 80001
                   333 5//// 81080=
202005050600 AAXX 05064 67575 32980 11005 10176 20114 48528 81030
                   333 10295 20105 58026 81360 81078
                   555 00096=
202005041200 AAXX 04124 67575 42680 11206 10289 20141 48488 81100
                   333 5//// 81840=
202005040600 AAXX 04064 67575 32980 00903 10210 20145 48505
                   333 10310 20142 58001
                   555 00136=

################################################################################
#  SYNOPS from 67580, Msekera (Zambia) | 13-39S | 032-34E | 1025 m
################################################################################
202005281200 AAXX 28124 67580 41778 70000 10285 20172 48/// 70522 86208
                   333 58010 86850 87280=
202005280900 AAXX 28094 67580 41678 70000 10274 20145 48/// 70522 84238
                   333 58014 84835 81360 87280=
202005280600 AAXX 28064 67580 31978 71505 10212 20165 48/// 70522 82038
                   333 10308 20174 58014 82360 87280=
202005271200 AAXX 27124 67580 42780 73302 10320 20149 48/// 86101
                   333 58007 86856=
202005270900 AAXX 27094 67580 42680 43603 10298 20155 48/// 82101
                   333 58002 82838 83080=
202005270600 AAXX 27064 67580 32980 00000 10242 20182 48///
                   333 10314 20169 58007=
202005261200 AAXX 26124 67580 42780 62703 10289 20141 48/// 84130
                   333 59011 84850 82361=
202005260900 AAXX 26094 67580 42680 40303 10273 20159 48/// 82130
                   333 59011 82836 82361=
202005260600 AAXX 26064 67580 32980 10000 10222 20170 48/// 81030
                   333 10306 20157 59021 81360=
202005180900 AAXX 18094 67580 42680 51503 10228 20121 48/// 85100
                   333 5//// 85832=
202005180600 AAXX 18064 67580 32980 00000 10164 20125 48///
                   333 10276 20105 5////=
202005151200 AAXX 15124 67580 41775 10904 10273 20119 48/// 70500 81101
                   333 5//// 81850 81080=
202005150900 AAXX 15094 67580 41975 02404 10268 20118 48/// 70500
                   333 5////=
202005150600 AAXX 15064 67580 32975 01208 10212 20099 48/// 70500
                   333 10315 20148 5////=
202005141200 AAXX 14124 67580 42780 71203 10303 20127 48/// 81108
                   333 5//// 81850 87280=
202005140900 AAXX 14094 67580 42680 71204 10284 20123 48/// 81138
                   333 5//// 81835 81360 86280=
202005130900 AAXX 13094 67580 42680 72402 10268 20141 48/// 81101
                   333 59003 81838 87080=
202005120900 AAXX 12094 67580 42680 42803 10252 20136 48/// 84100
                   333 59013 84836=
202005120600 AAXX 12064 67580 32980 01102 10193 20135 48///
                   333 10288 20132 59018=
202005110900 AAXX 11094 67580 42680 70904 10238 20114 48/// 82108
                   333 59009 82835 87280=
202005110600 AAXX 11064 67580 32980 71207 10190 2//// 48/// 81038
                   333 10266 20131 5//// 81362 87280=
202005080900 AAXX 08094 67580 42980 20903 10248 20146 48/// 82030
                   333 58002 82360=
202005080600 AAXX 08064 67580 32980 41505 10185 20135 48/// 84030
                   333 10270 20143 58000 84360=
202005061200 AAXX 06124 67580 42680 72404 10258 20162 48/// 86208
                   333 5//// 86848 87280=
202005060900 AAXX 06094 67580 42680 71604 10247 20143 48/// 83107
                   333 5//// 83840 87280=
202005060600 AAXX 06064 67580 32480 71204 10179 20148 48/// 81108
                   333 10294 20138 5//// 81815 86280=
202005051200 AAXX 05124 67580 42780 40000 10279 20158 48/// 84100
                   333 58021 84850=
202005050600 AAXX 05064 67580 32980 00000 10184 20134 48///
                   333 10294 20136 58020=
202005041200 AAXX 04124 67580 42980 01203 10285 20126 48///
                   333 59004=
202005040900 AAXX 04094 67580 42980 01503 10276 20119 48///
                   333 59005=
202005040600 AAXX 04064 67580 32980 01202 10214 20120 48///
                   333 10306 20147 59004=

################################################################################
#  SYNOPS from 67581, Chipata (Zambia) | 13-33S | 032-35E | 1028 m
################################################################################
202005280600 AAXX 28064 67581 32580 61706 10227 20162 48570 70200 82132
                   333 1//// 20173 58012 82820 83360 85080 91022=
202005271200 AAXX 27124 67581 42680 41804 10308 20145 48546 84100
                   333 58003 84836 91018=
202005270900 AAXX 27094 67581 42680 11403 10292 20152 48567 81100
                   333 58005 81830 91021=
202005270600 AAXX 27064 67581 32980 00906 10244 20172 48558
                   333 1//// 20156 58007 91021=
202005260600 AAXX 26064 67581 32580 10410 10222 20159 48548 81130
                   333 1//// 20177 59018 81820 81360 91020=
202005180900 AAXX 18094 67581 42680 40406 10236 20090 48597 70322 84100
                   333 5//// 84845 91026=
202005180600 AAXX 18064 67581 32980 01609 10181 20087 48593
                   333 1//// 20114 5//// 91027=
202005150600 AAXX 15064 67581 32980 01403 10219 20070 48511
                   333 1//// 20168 5//// 91023=
202005140600 AAXX 14064 67581 32980 40804 1//// 20125 48/// 81032
                   333 1//// 20142 5//// 81360 84080=
202005130600 AAXX 13064 67581 32980 21403 10211 20133 48560 80002
                   333 1//// 20142 59006 82080 91022=
202005120600 AAXX 12064 67581 32980 11704 10206 20122 48566 80001
                   333 1//// 20152 5//// 81080 91023=
202005110900 AAXX 11094 67581 42680 31004 10244 20116 48579 82102
                   333 59010 82835 82080 91023=
202005080600 AAXX 08064 67581 32980 31710 10186 20122 48567 83030
                   333 1//// 20158 59002 83360 91023=
202005071200 AAXX 07124 67581 42680 40904 10256 20140 48552 84130
                   333 5//// 84838 82360 91020=
202005070600 AAXX 07064 67581 32580 31205 10195 20125 48571 81230
                   333 1//// 20158 5//// 81825 82360 91023=
202005060600 AAXX 06064 67581 32980 11610 10196 20130 48/// 80001
                   333 1//// 20160 5//// 81080=
202005051200 AAXX 05124 67581 42680 30904 10280 20136 48569 83100
                   333 58011 83840 91021=
202005050900 AAXX 05094 67581 42680 21406 10256 20133 48583 82100
                   333 58016 82830 91024=
202005050600 AAXX 05064 67581 32980 00904 10201 20121 48577
                   333 1//// 20164 58019 91024=
202005040600 AAXX 04064 67581 32980 01203 10210 20102 48561
                   333 1//// 20130 59004 91022=

################################################################################
#  SYNOPS from 67583, Lundazi (Zambia) | 12-17S | 033-12E | 1143 m
################################################################################
202005290600 AAXX 29064 67583 32980 60901 10208 20181 48/// 86030
                   333 10300 2//// 5//// 86360=
202005280900 AAXX 28094 67583 42680 71902 10262 20184 48/// 81130
                   333 5//// 81835 86360=
202005261200 AAXX 26124 67583 42680 52704 10327 20105 48/// 85100
                   333 5//// 85840=
202005260600 AAXX 26064 67583 32980 00902 10190 20157 48///
                   333 10300 2//// 5////=
202005180600 AAXX 18064 67583 32580 10905 10188 20125 48/// 70200 81101
                   333 10281 2//// 5//// 81825 81080=
202005110600 AAXX 11064 67583 32980 41803 10190 20145 48/// 81031
                   333 10300 2//// 5//// 81360 84080=
202005080900 AAXX 08094 67583 42980 21801 10258 20128 48/// 82030
                   333 5//// 82360=
202005070900 AAXX 07094 67583 42680 20904 10255 20147 48/// 82100
                   333 5//// 82835=
202005070600 AAXX 07064 67583 32980 11505 10194 20144 48/// 81030
                   333 10300 2//// 5//// 81360=
202005060900 AAXX 06094 67583 42680 31904 10260 20150 48/// 81102
                   333 5//// 81835 83080=
202005060600 AAXX 06064 67583 32580 71804 10196 20152 48/// 81137
                   333 10302 2//// 5//// 81825 81360 87280=
202005050900 AAXX 05094 67583 42680 31801 10268 20156 48/// 83100
                   333 5//// 83835=
202005050600 AAXX 05064 67583 32980 11804 10206 20150 48/// 81031
                   333 10306 2//// 5//// 81360 81080=

################################################################################
#  SYNOPS from 67599, Mfuwe (Zambia) | 13-16S | 031-56E | 568 m
################################################################################
202005290600 AAXX 29064 67599 11670 11501 10214 20174 48562 60014 70500 81100
                   333 10345 20155 58016 81840
                   555 00135 91021=
202005280600 AAXX 28064 67599 32980 71602 10227 20166 48554 82038
                   333 10361 20162 58006 82360 85280
                   555 00148=
202005270600 AAXX 27064 67599 32980 11902 10222 20176 48537 81030
                   333 10348 20158 58005 81360
                   555 00155 91019=
202005260600 AAXX 26064 67599 31970 22002 10196 20148 48531 70500 82030
                   333 10321 20132 59022 82360
                   555 00130 91019=
202005180600 AAXX 18064 67599 32980 01501 10185 20106 48583
                   333 10314 20110 58001
                   555 00100 91025=
202005150600 AAXX 15064 67599 32980 00000 10197 20111 48561
                   333 10349 20113 58012
                   555 00113 91022=
202005140600 AAXX 14064 67599 32980 51701 10196 20139 48546 81031
                   333 10335 20128 59002 81360 85080
                   555 00120 91020=
202005130600 AAXX 13064 67599 32980 62203 10201 20140 48548 82031
                   333 10325 20125 59007 82360 86080 91021=
202005120600 AAXX 12064 67599 32980 31604 10192 20133 48554 80001
                   333 10320 20118 59017 83080
                   555 00110 91021=
202005110600 AAXX 11064 67599 32980 61802 10201 20145 48573 86030
                   333 10306 20166 59002 86359
                   555 00145 91023=
202005080600 AAXX 08064 67599 32980 51907 10205 20140 48567 85030
                   333 10310 20147 58004 85360
                   555 00142 91023=
202005070600 AAXX 07064 67599 32980 61904 10211 20138 48569 86030
                   333 10310 20172 59003 86359
                   555 00170 91022=
202005060600 AAXX 06064 67599 32980 61903 10193 20154 48562 83038
                   333 10324 20140 58001 83359 86280
                   555 00140 91022=
202005050600 AAXX 05064 67599 32980 01704 10202 20136 48567
                   333 10330 20130 58017
                   555 00108 91022=
202005041200 AAXX 04124 67599 42980 01307 10320 20118 48545
                   333 59008 91015=
202005040900 AAXX 04094 67599 42980 00000 10280 20164 48570
                   333 59005 91020=
202005040600 AAXX 04064 67599 32980 00000 10205 20174 48550
                   333 10335 20150 59002
                   555 00145 91021=

################################################################################
#  SYNOPS from 67625, Kalabo (Zambia) | 14-51S | 022-42E | 1033 m
################################################################################
202005290600 AAXX 29064 67625 32982 41311 10150 20074 48/// 80004
                   333 10293 20105 59001 84075=
202005281200 AAXX 28124 67625 42982 71107 10280 20080 48/// 80004
                   333 5//// 84075=
202005280900 AAXX 28094 67625 42982 41109 10235 20072 48/// 80004
                   333 58013 84075=
202005280600 AAXX 28064 67625 32982 71507 10140 20090 48/// 80004
                   333 10296 20105 58026 87075=
202005271200 AAXX 27124 67625 42982 61105 10290 20104 48/// 80004
                   333 5//// 86075=
202005270900 AAXX 27094 67625 42982 71009 10255 20102 48/// 80004
                   333 58018 87075=
202005270600 AAXX 27064 67625 32982 71702 10155 20116 48/// 80004
                   333 10300 20120 59001 87075=
202005261200 AAXX 26124 67625 42982 02709 10290 20076 48///=
202005260900 AAXX 26094 67625 42982 03006 10275 20088 48///=
202005260600 AAXX 26064 67625 32982 02101 10145 20105 48///
                   333 10290 20105 59011=
202005180900 AAXX 18094 67625 42982 00913 10220 20086 48/// 80004
                   333 5//// 86075=
202005180600 AAXX 18064 67625 32982 10911 10170 20071 48/// 81030
                   333 10285 20155 58005 81360=
202005151200 AAXX 15124 67625 42982 01211 10290 20040 48///
                   333 5////=
202005150900 AAXX 15094 67625 42982 01209 10260 20060 48///
                   333 59008=
202005150600 AAXX 15064 67625 32982 01604 10150 20050 48///
                   333 10290 20120 59005=
202005141200 AAXX 14124 67625 42982 00913 10279 20023 48///
                   333 5////=
202005140900 AAXX 14094 67625 42982 00910 10270 20062 48///
                   333 58005=
202005140600 AAXX 14064 67625 32982 01207 10185 20095 48///
                   333 10300 20120 59001=
202005131200 AAXX 13124 67625 42982 21108 10295 20065 48/// 82030
                   333 59006 82360=
202005130900 AAXX 13094 67625 42982 00909 10265 20080 48///
                   333 59003=
202005130600 AAXX 13064 67625 32682 11305 10184 20127 48/// 81040
                   333 10290 20125 58006 81360=
202005121200 AAXX 12124 67625 42982 70606 10277 20117 48/// 80004
                   333 5//// 87075=
202005120900 AAXX 12094 67625 42982 70904 10245 20120 48/// 80004
                   333 5//// 87075=
202005120600 AAXX 12064 67625 32982 70904 10175 20152 48/// 80004
                   333 10276 20134 5//// 87075=
202005081200 AAXX 08124 67625 42982 20911 10274 20089 48/// 82030
                   333 5//// 82362=
202005080900 AAXX 08094 67625 42982 00912 10240 20103 48///
                   333 58000=
202005080600 AAXX 08064 67625 32982 10910 10200 20104 48/// 81040
                   333 10280 20135 58000 81360=
202005071200 AAXX 07124 67625 42782 71008 10255 20113 48/// 81133
                   333 5//// 81850 85360 87075=
202005070900 AAXX 07094 67625 42982 70815 10239 20152 48/// 87030
                   333 5//// 87360=
202005070600 AAXX 07064 67625 32982 61103 10175 20136 48/// 86030
                   333 10292 20130 59021 86360=
202005061200 AAXX 06124 67625 42782 20909 10280 20114 48/// 81130
                   333 58010 81856 82361=
202005060900 AAXX 06094 67625 42982 30813 10255 20123 48/// 83030
                   333 5//// 83360=
202005060600 AAXX 06064 67625 32982 11208 10195 20147 48/// 80003
                   333 10300 20155 5//// 81075=
202005051200 AAXX 05124 67625 42982 60808 10285 20130 48/// 82033
                   333 58011 82361 86075=
202005050900 AAXX 05094 67625 42982 70913 10270 20143 48/// 86033
                   333 5//// 86360 87075=
202005050600 AAXX 05064 67625 32982 71402 10221 20173 48/// 85083
                   333 10335 20213 5//// 85360 87075=
202005040600 AAXX 04064 67625 32982 01205 10210 20179 48///
                   333 10315 20165 59015=

################################################################################
#  SYNOPS from 67633, Mongu (Zambia) | 15-15S | 023-09E | 1052 m
################################################################################
202005281200 AAXX 28124 67633 42980 02504 10280 20113 48552 70200
                   333 58009 91020=
202005280900 AAXX 28094 67633 42980 00703 10267 20065 48570 70200
                   333 58016 91023=
202005280600 AAXX 28064 67633 32980 10903 10155 20054 48546 70200 80001
                   333 10294 20115 58014 81080
                   555 00090 91022=
202005271200 AAXX 27124 67633 42680 32403 10285 20098 48543 81102
                   333 58002 91019=
202005270900 AAXX 27094 67633 42980 31803 10265 20102 48553 80002
                   333 59009 83080 91021=
202005270600 AAXX 27064 67633 32980 50902 10172 20106 48535 80002
                   333 10300 20115 59002 85080
                   555 00095 91021=
202005180900 AAXX 18094 67633 42980 20913 10235 20081 48577 80001
                   333 58006 82080 91024=
202005180600 AAXX 18064 67633 32980 00910 10165 20074 48563
                   333 10292 20130 58003
                   555 00114 91024=
202005150900 AAXX 15094 67633 42980 01804 10252 20066 48563
                   333 58000 91022=
202005150600 AAXX 15064 67633 32980 00903 10170 20071 48545
                   333 10287 20085 59004
                   555 00058 91022=
202005140600 AAXX 14064 67633 32980 00903 10185 20095 48549 70200
                   333 10299 20124 58009
                   555 00095 91022=
202005131200 AAXX 13124 67633 42680 21003 10285 20055 48541 82100
                   333 58001 82845 91019=
202005130900 AAXX 13094 67633 42980 00902 10277 20100 48565
                   333 58001 91022=
202005130600 AAXX 13064 67633 32980 00905 10190 20097 48545
                   333 10284 20120 59003
                   555 00100 91021=
202005121200 AAXX 12124 67633 42980 52704 10270 20140 48539 80002
                   333 59010 85080 91019=
202005120900 AAXX 12094 67633 42980 40906 10265 20125 48562 80002
                   333 59004 84080 91022=
202005120600 AAXX 12064 67633 32980 40608 10174 20109 48545 80002
                   333 10284 20135 59012 85080
                   555 00106 91022=
202005080600 AAXX 08064 67633 32980 00910 10185 20125 48549 70200
                   333 10295 20125 58003
                   555 00118 91022=
202005071200 AAXX 07124 67633 42680 61004 10275 20095 48559 70322 82230
                   333 58006 82845 86360 91021=
202005070900 AAXX 07094 67633 42980 50918 10245 20127 48568 70222 85030
                   333 59003 85360 91023=
202005070600 AAXX 07064 67633 32980 60908 10180 20123 48548 70222 86030
                   333 10298 20160 59008 86360
                   555 00140 91022=
202005061200 AAXX 06124 67633 42980 21808 10292 20119 48555 70200 82030
                   333 58001 82361 91021=
202005060900 AAXX 06094 67633 42980 20904 10267 20120 48574 70200 82040
                   333 58005 82360 91023=
202005060600 AAXX 06064 67633 32980 20902 10183 20130 48555 70200 80001
                   333 10313 20146 58008 82080
                   555 00132 91023=
202005050600 AAXX 05064 67633 12980 70902 10206 20137 48553 60044 70222 8703/
                   333 10322 20195 58019 87360
                   555 00210 91021=
202005041200 AAXX 04124 67633 42680 32704 10302 20158 48531 70300 83200
                   333 59010 83845 91018=
202005040900 AAXX 04094 67633 42980 00905 10291 20153 48553 70200
                   333 59006 91020=
202005040600 AAXX 04064 67633 32980 00905 10206 20149 48535 70200
                   333 10322 20173 59014
                   555 00154 91020=

################################################################################
#  SYNOPS from 67641, Kaoma (Zambia) | 14-48S | 024-48E | 1213 m
################################################################################
202005281200 AAXX 28124 67641 42980 13402 10296 20077 48538 80001
                   333 58005 81080 91018=
202005280900 AAXX 28094 67641 42980 01303 10273 20084 48559
                   333 58012 91022=
202005280600 AAXX 28064 67641 31970 20000 10110 20075 48536 70500 80001
                   333 10310 20082 58015 82080 91022=
202005271200 AAXX 27124 67641 42980 52603 10300 20086 48513 80001
                   333 58013 85080 91018=
202005270900 AAXX 27094 67641 41970 52405 10278 20070 48549 80001
                   333 58011 85080 91021=
202005270600 AAXX 27064 67641 31970 60000 10124 20098 48524 80004
                   333 10301 20094 58014 86080 91020=
202005151200 AAXX 15124 67641 42980 01002 10307 20080 48538
                   333 59006 91018=
202005150900 AAXX 15094 67641 42980 01305 10270 20067 48556
                   333 59001 91022=
202005150600 AAXX 15064 67641 32980 00802 10100 20073 48537
                   333 10297 20069 58004 91022=
202005110900 AAXX 11094 67641 42980 51406 10250 20114 48561 80004
                   333 5//// 85080 91023=
202005110600 AAXX 11064 67641 32980 70000 10132 20113 48548 80005
                   333 10290 20106 58010 87080 91023=
202005040900 AAXX 04094 67641 42980 00906 10290 20153 48543
                   333 59008 91020=
202005040600 AAXX 04064 67641 32980 00302 10190 20155 48530
                   333 10330 20142 59008 91020=

################################################################################
#  SYNOPS from 67655, Mumbwa (Zambia) | 15-04S | 027-11E | 1216 m
################################################################################
202005120600 AAXX 12064 67655 32980 40908 10177 20118 48566 80001
                   333 10259 20066 59018 84080 91023=
202005040600 AAXX 04064 67655 32980 00808 10215 20154 48554
                   333 10310 20082 59005 91022=

################################################################################
#  SYNOPS from 67659, Kafue Polder (Zambia) | 15-46S | 027-55E | 978 m
################################################################################
202005290600 AAXX 29064 67659 32480 11404 10188 20127 48/// 70322 81200
                   333 10298 20130 58001 81820=
202005180900 AAXX 18094 67659 42680 11210 10230 20098 48/// 70222 81100
                   333 5//// 81845=
202005180600 AAXX 18064 67659 31980 00703 10155 20092 48/// 70500
                   333 10269 20084 5////=
202005140600 AAXX 14064 67659 32980 00403 10165 20105 48/// 70200
                   333 10298 20080 5////=
202005130900 AAXX 13094 67659 42680 12703 10255 20128 48/// 70222 81100
                   333 5//// 81835=
202005130600 AAXX 13064 67659 32980 12704 10174 20112 48/// 70222 80001
                   333 10290 20089 5//// 81080=
202005110600 AAXX 11064 67659 32480 51206 10172 20121 48/// 70322 81102
                   333 10270 20080 5//// 81815 84080=
202005080900 AAXX 08094 67659 42680 20909 10237 20130 48/// 70122 81130
                   333 5//// 81830 81360=
202005080600 AAXX 08064 67659 32980 30507 10202 20139 48/// 70222 83031
                   333 10266 20120 5//// 83360 81080=
202005060900 AAXX 06094 67659 42680 31206 10232 20137 48/// 70222 81101
                   333 5//// 81825 82080=
202005050600 AAXX 05064 67659 32980 11504 10201 20106 48/// 70222 81030
                   333 10300 20148 5//// 81360=

################################################################################
#  SYNOPS from 67662, Kabwe Agric (Zambia) | 14-24S | 028-30E | 1165 m
################################################################################
202005290600 AAXX 29064 67662 31380 50903 10165 20162 48/// 70300 85600
                   333 10288 20092 5//// 85605=
202005280900 AAXX 28094 67662 41980 20902 10268 20050 48/// 70200 80001
                   333 5//// 83080=
202005271200 AAXX 27124 67662 42780 62704 10300 20099 48/// 70222 82231
                   333 5//// 82850 81360 84080=
202005270600 AAXX 27064 67662 31980 40000 10190 20141 48/// 70222 81031
                   333 10304 20090 5//// 81360 83080=
202005260600 AAXX 26064 67662 31980 00000 10180 20138 48/// 70200
                   333 10280 20050 5////=
202005180900 AAXX 18094 67662 41680 11808 10215 20080 48/// 70300 81200
                   333 5//// 81840=
202005180600 AAXX 18064 67662 31980 01202 10125 20076 48/// 70200
                   333 10275 20042 5////=
202005150900 AAXX 15094 67662 41980 00906 10246 20099 48///
                   333 5////=
202005140600 AAXX 14064 67662 31980 10000 10175 20099 48/// 70200 80001
                   333 10295 20092 5//// 81080=
202005131200 AAXX 13124 67662 41680 21802 10280 20066 48/// 70200 82201
                   333 5//// 81046 81080=
202005130900 AAXX 13094 67662 41980 10000 10260 20086 48/// 70200 80001
                   333 5//// 81080=
202005130600 AAXX 13064 67662 31980 10502 10190 20106 48/// 70200 80001
                   333 10289 20040 5//// 81080=
202005080600 AAXX 08064 67662 31980 51602 10170 20103 48/// 70222 85030
                   333 10250 20082 5//// 85360=
202005070600 AAXX 07064 67662 31980 31006 10178 20119 48/// 70200 83030
                   333 10252 20070 5//// 83360=
202005061200 AAXX 06124 67662 41680 50906 10250 20126 48/// 70222 82201
                   333 5//// 81847 84080=
202005060900 AAXX 06094 67662 41680 40906 10235 20108 48/// 70320 81230
                   333 5//// 81840 83360=
202005060600 AAXX 06064 67662 31980 10902 10170 20119 48/// 70200 81030
                   333 10274 20070 5//// 81360=
202005050900 AAXX 05094 67662 41980 00904 10238 20116 48/// 70200
                   333 5////=
202005050600 AAXX 05064 67662 31980 01005 10185 20111 48/// 70200
                   333 10293 20080 5////=
202005040900 AAXX 04094 67662 41980 00904 10270 20123 48/// 70200
                   333 5////=
202005040600 AAXX 04064 67662 31980 00904 10200 20152 48/// 70200
                   333 10305 20108 5////=

################################################################################
#  SYNOPS from 67663, Kabwe (Zambia) | 14-27S | 028-28E | 1206 m
################################################################################
202005290600 AAXX 29064 67663 32480 71305 10170 20154 48559 70222 875//
                   333 10290 20130 58007 87618
                   555 00200=
202005280600 AAXX 28064 67663 32980 30604 10195 20086 48571 70311 82032
                   333 10302 20120 58002 82360 82080
                   555 00220=
202005180900 AAXX 18094 67663 42680 10914 10202 20080 48581 81100
                   333 58004 81835=
202005180600 AAXX 18064 67663 32980 00807 10149 20086 48468
                   333 10244 20094 59006
                   555 00218=
202005150600 AAXX 15064 67663 32980 00905 10180 20091 48547 70200
                   333 10292 20104 59001=
202005130900 AAXX 13094 67663 42580 10103 10252 20100 48553 81102
                   333 58005 81820 82080=
202005110900 AAXX 11094 67663 42480 30912 10215 20119 48557 81532
                   333 59004 81618 82360 82080=
202005080600 AAXX 08064 67663 32980 50910 10162 20117 48556 85032
                   333 10245 20121 58006 85360 81080
                   555 00284=

################################################################################
#  SYNOPS from 67665, Lusaka Internationalairport (Zambia) | 15-19S | 028-27E | 1152 m
################################################################################
202005301800 AAXX 30184 67665 42980 11504 10187 20129 48569 70200 80001
                   333 58015 82080 91024=
202005301500 AAXX 30154 67665 42980 11210 10251 20122 48561 70100 81030
                   333 58014 81360 91023=
202005300900 AAXX 30094 67665 42580 20713 10246 20122 48481 82100
                   333 58005 82828=
202005300600 AAXX 30064 67665 32980 01203 10172 20130 48566
                   333 10282 20/// 58002=
202005300300 AAXX 30034 67665 42980 02002 10114 20095 48538
                   333 59006=
202005300000 AAXX 30004 67665 42980 01301 10127 20110 48539
                   333 58000=
202005292100 AAXX 29214 67665 41970 01703 10155 20128 48552
                   333 59002=
202005290900 AAXX 29094 67665 42960 00809 10227 20140 48573
                   333 58001=
202005281800 AAXX 28184 67665 42980 01405 10184 20094 48555
                   333 10277 58007=
202005281500 AAXX 28154 67665 42980 01206 10258 20068 48551
                   333 58011 555 10277=
202005281200 AAXX 28124 67665 41975 11010 10268 20056 48555 70500 81030
                   333 58013 81360=
202005280900 AAXX 28094 67665 42980 01112 10254 20064 48525 70100
                   333 58012 91024=
202005280000 AAXX 28004 67665 42980 01302 10153 20055 48544
                   333 58014=
202005272100 AAXX 27214 67665 42980 01005 10175 20062 48552
                   333 58015=
202005270900 AAXX 27094 67665 42980 11707 10274 20068 48566 70500 81030
                   333 58011 81360=
202005261800 AAXX 26184 67665 42980 12802 10209 20118 48538 81030
                   333 58002 81358=
202005261500 AAXX 26154 67665 42680 33008 10277 20097 48528 82130
                   333 59008 82848 82358=
202005261200 AAXX 26124 67665 42680 52909 10283 20098 48530 85130
                   333 59016 85840 83358=
202005250900 AAXX 25094 67665 42980 00506 10231 20091 48568
                   333 59021=
202005250600 AAXX 25064 67665 32980 01404 10165 20103 48557
                   333 10261 20//0 59021=
202005250300 AAXX 25034 67665 42980 01803 10096 20075 48534 70200
                   333 59018=
202005242100 AAXX 24214 67665 42980 01403 10132 20085 48554
                   333 59014=
202005241200 AAXX 24124 67665 42780 11006 10251 20071 48558 70300 81100
                   333 59017 81850=
202005231800 AAXX 23184 67665 42980 01303 10160 20096 48570
                   333 10257 59017=
202005231500 AAXX 23154 67665 42980 01109 10234 20071 48567
                   333 59010 555 10257=
202005231200 AAXX 23124 67665 42980 10808 10241 20081 48574 81030
                   333 59006 81360=
202005230900 AAXX 23094 67665 42680 10712 10216 20093 48600 70300 81100
                   333 59003 81845 91027=
202005230600 AAXX 23064 67665 32980 01207 10147 20102 48587
                   333 10//0 20//0 59009=
202005222100 AAXX 22214 67665 42980 01503 10129 20102 48580
                   333 59002=
202005220900 AAXX 22094 67665 42680 30814 10205 20088 48601 70300 83500
                   333 59002 83630=
202005220600 AAXX 22064 67665 32980 01007 10136 20098 48595 70200
                   333 58004 91028=
202005220300 AAXX 22034 67665 42980 01405 10095 20075 48571 70200
                   333 59001 91026=
202005211800 AAXX 21184 67665 42980 01404 10150 20096 48578
                   333 58001=
202005211500 AAXX 21154 67665 42680 31010 10217 20082 48573 83500
                   333 58002 83645=
202005211200 AAXX 21124 67665 42680 31011 10220 20098 48577
                   333 83500 83630=
202005202100 AAXX 20210 67665 42980 01205 10132 20086 48579 70200
                   333 58002 91027=
202005201800 AAXX 20184 67665 42980 11305 10152 20088 48577 70100 81030
                   333 58008 91026=
202005201500 AAXX 20154 67665 42980 11209 10223 20072 48569 70200 81030
                   333 58003 81360 91024=
202005200900 AAXX 20094 67665 42980 01015 10208 20067 48592
                   333 59005=
202005200600 AAXX 20064 67665 32980 01107 10136 20078 48584
                   333 10240 20//0 58001=
202005200300 AAXX 20034 67665 42980 01204 10085 48557 70200
                   333 59001=
202005200000 AAXX 20004 67665 42980 00000 10094 20084 48561
                   333 59001=
202005192100 AAXX 19214 67665 42980 01203 10124 20074 48575
                   333 58007=
202005191500 AAXX 19154 67665 42980 00908 10227 20062 48567 70200
                   333 59003 555 10245 91024=
202005191200 AAXX 19124 67665 42980 00809 10240 20068 48571 70100
                   333 59008=
202005190900 AAXX 19094 67665 42980 01006 10217 20085 48598 70200
                   333 59005 91027=
202005190000 AAXX 19004 67665 42980 00000 10094 20084 48561
                   333 59001=
202005181800 AAXX 18184 67665 42980 01304 10157 20084 48575 70200
                   333 10255 59006=
202005181500 AAXX 18154 67665 42980 21109 10218 20058 48569 80002
                   333 59006 82080 555 10255=
202005181200 AAXX 18124 67665 42780 11110 10228 20056 48577 81100
                   333 59005 81850=
202005180900 AAXX 18094 67665 42680 60913 10198 20078 48600 70321 86500
                   333 59002 86630 91028=
202005180600 AAXX 18064 67665 32980 00905 10142 20086 48587 70200
                   333 10//0 20//0 59003 91027=
202005180300 AAXX 18034 67665 42980 01504 10092 20062 48560 70200
                   333 59005 91025=
202005171800 AAXX 17184 67665 42980 01305 10146 20056 48550 70300
                   333 10258 58017=
202005171500 AAXX 17154 67665 42980 01110 10223 20048 48575 70200
                   333 58022 555 10258=
202005171200 AAXX 17124 67665 42980 01112 10237 20044 48583 70200
                   333 58017=
202005170900 AAXX 17094 67665 42980 00919 10219 20045 48603
                   333 58027=
202005170600 AAXX 17064 67665 31960 01013 10167 20095 48591 70500
                   333 10268 20//0 58048=
202005160300 AAXX 16034 67665 42980 00000 10107 20088 48544 70200
                   333 58001 91023=
202005151800 AAXX 15184 67665 42980 01506 10178 20098 48557 70200
                   333 58002 91023=
202005151023 AAXX 15104 67665 42980 09903 10139 20094 48548 70200 91023=
202005150900 AAXX 15094 67665 42980 00812 10231 20079 48581 70200
                   333 58008 91025=
202005150600 AAXX 15064 67665 32980 01207 10172 20078 48566 70200
                   333 10294 20120 58008
                   555 00///=
202005150300 AAXX 15034 67665 42980 01207 10130 20061 48546 70200
                   333 58009=
202005150000 AAXX 15004 67665 42980 01302 10134 20067 48543
                   333 59001=
202005142100 AAXX 14214 67665 42980 01202 10150 20056 48553
                   333 58006=
202005141200 AAXX 14124 67665 42780 10804 10284 20010 48553 70300 81130
                   333 58003 81856 81360 91021=
202005140900 AAXX 14094 67665 42680 11402 10272 20046 48579 70200 81100
                   333 58005 81845 91024=
202005140000 AAXX 14004 67665 42980 01302 10134 20067 48543
                   333 59001=
202005131800 AAXX 13184 67665 42980 02004 10183 20058 48544
                   333 10299 59003=
202005131500 AAXX 13154 67665 42980 12805 10270 20015 48554 81030
                   333 59001 81360 555 10299=
202005131200 AAXX 13124 67665 42780 42305 10278 20020 48500 84200
                   333 59003 82857=
202005122100 AAXX 12214 67665 42980 09902 10141 20082 48548
                   333 59012=
202005120900 AAXX 12094 67665 42980 00606 10231 20066 48571
                   333 59011=
202005120600 AAXX 12064 67665 31980 00000 10170 20099 48567
                   333 10267 20//0 59017=
202005110600 AAXX 11064 67665 32980 51009 10156 20112 48581 70300 80008
                   333 10240 20094 58001 85280
                   555 00/// 91026=
202005100900 AAXX 10094 67665 42580 40814 10217 20104 48511 84101
                   333 58006 91027=
202005100600 AAXX 10064 67665 32980 11111 10155 20121 48580 80001
                   333 10260 20101 58005
                   555 00///=
202005100300 AAXX 10034 67665 42980 01205 10120 20096 48556
                   333 58002=
202005100000 AAXX 10004 67665 42980 01503 10132 20096 48558
                   333 58002=
202005092100 AAXX 09214 67665 42980 11404 10143 20114 48566 81030
                   333 58003 81360=
202005090900 AAXX 09094 67665 42980 10612 10220 20094 48585 70100 81030
                   333 59001 81360 91026=
202005080900 AAXX 08094 67665 42680 50818 10215 20104 48584 82530
                   333 58003 82630 83360=
202005080600 AAXX 08064 67665 32480 50917 10173 20124 48574 82530
                   333 10244 20120 58003 82615 83360
                   555 00///=
202005080300 AAXX 08034 67665 42380 61109 10131 20095 48550 81630
                   333 5//// 81706 85360=
202005080000 AAXX 08004 67665 42980 31103 10130 20083 48551 83030
                   333 5//// 83360=
202005072100 AAXX 07214 67665 42980 41103 10153 20090 48547 84030
                   333 5//// 84360=
202005070900 AAXX 07094 67665 42580 51119 10215 20084 48581 70122 83530
                   333 59004 83620 83360 Q1025.8=
202005070600 AAXX 07064 67665 32480 60916 10165 20113 48571 70322 82530
                   333 10248 20//0 59005 82612 85360 91025=
202005050900 AAXX 05094 67665 42980 10912 10226 20116 48588 81030
                   333 58020 81360=
202005050600 AAXX 05064 67665 32980 11110 10167 20114 48577 70200 81030
                   333 10289 20160 58021 81360
                   555 00///=
202005050300 AAXX 05034 67665 42980 01107 10151 20106 48555 70200
                   333 58020=
202005050000 AAXX 05004 67665 42980 01403 10147 20112 48546 70200
                   333 58009=
202005042100 AAXX 04214 67665 42980 01203 10159 20115 48553 70200
                   333 59003=
202005041800 AAXX 04184 67665 42980 01303 10191 20123 48553 70200
                   333 10//0 58006 91023=
202005041500 AAXX 04154 67665 42780 11010 10263 20112 48543 70100 81100
                   333 58002 81856 555 10///=
202005041200 AAXX 04124 67665 42780 30811 10277 20112 48545 70300 83100
                   333 59007 91020=
202005040000 AAXX 04004 67665 42980 01403 10147 20112 48546 70200
                   333 58009=
202005031800 AAXX 03184 67665 42980 01003 10206 20136 48550
                   333 10290 59008=
202005031500 AAXX 03154 67665 42980 20706 10278 20113 48544 82030
                   333 59011 82360 555 10290=
202005031200 AAXX 03124 67665 42980 20808 10284 20111 48552 82100
                   333 59009 82857=
202005030900 AAXX 03094 67665 42980 00808 10258 20128 48577 70100
                   333 59006 91024=
202005030600 AAXX 03064 67665 32980 11205 10193 20136 48565 81030
                   333 10//0 20//0 59002 81360=
202005020900 AAXX 02094 67665 42680 20711 10255 20144 48583 82100
                   333 58001 82830=
202005020600 AAXX 02064 67665 32980 01008 10196 20147 48578 70200
                   333 10//0 58002 91025=
202005011800 AAXX 01184 67665 42980 01503 10214 20142 48561 70200
                   333 59004 91023=
202005011200 AAXX 01124 67665 42680 50809 10304 20105 48567 70322 85200
                   333 59001 85840 91022=

################################################################################
#  SYNOPS from 67666, Lusaka City Airport (Zambia) | 15-25-00S | 028-28-00E | 1280 m
################################################################################
202005290600 AAXX 29064 67666 31480 80910 10160 20144 48559 70522 885//
                   333 10268 20145 59005 88610 91024=
202005280600 AAXX 28064 67666 32980 21510 10193 20012 48557 80001
                   333 10285 20174 58004 82080 91023=
202005270600 AAXX 27064 67666 31975 71903 10205 20113 48546 70500 82038
                   333 10280 20147 58008 82360 87280 91021=
202005260600 AAXX 26064 67666 31980 60906 10193 48536 70500 86030
                   333 10265 20136 59018 86359 91021=
202005180600 AAXX 18064 67666 31978 00918 10148 20098 48582 70500
                   333 10256 2//// 59012 91026=
202005150600 AAXX 15064 67666 32980 01008 10175 20077 48561
                   333 10280 2//// 59006 91024=
202005140600 AAXX 14064 67666 32980 00000 10210 20085 48559
                   333 10270 2//// 58002 91023=
202005130600 AAXX 13064 67666 32975 20000 10185 20086 48555 70500 80008
                   333 10264 2//// 58008 82280 91023=
202005110600 AAXX 11064 67666 32980 21014 10160 20105 48574 80002
                   333 10234 2//// 59002 82080 91025=
202005070900 AAXX 07094 67666 42480 61013 10206 20125 48571 83231
                   333 5//// 83820 82359 81080 91024=
202005060600 AAXX 06064 67666 32480 30912 10165 20120 48568 83800
                   333 10259 2//// 59001 81610 82820 91025=
202005050900 AAXX 05094 67666 42980 21008 10218 20119 48578 82030
                   333 59020 82360 91025=
202005050600 AAXX 05064 67666 32980 20913 10165 20113 48569 82030
                   333 10280 2//// 59019 82358 91025=
202005040900 AAXX 04094 67666 42980 00908 10252 20126 48560
                   333 58005 91023=
202005040600 AAXX 04064 67666 32980 00905 10198 20122 48554
                   333 10289 2//// 58008 91022=

################################################################################
#  SYNOPS from 67667, Mount Makulu (Zambia) | 15-33S | 028-15E | 1213 m
################################################################################
202005290600 AAXX 29064 67667 32580 30915 10166 20148 48607 83500
                   333 10299 20128 59001 83628=
202005280600 AAXX 28064 67667 32980 01207 10200 20065 48620
                   333 10318 20118 58020=
202005270600 AAXX 27064 67667 32980 40000 10310 20184 48587 84031
                   333 10310 20184 58001 84360 81080=
202005260600 AAXX 26064 67667 32980 41201 10180 20132 48588 84031
                   333 10292 20116 5//// 84360 81080=
202005180900 AAXX 18094 67667 42580 11906 10208 20111 48/// 81100
                   333 5//// 81825=
202005180600 AAXX 18064 67667 32980 01802 10152 20100 48639
                   333 10262 20064 5////=
202005121200 AAXX 12124 67667 42980 33401 10258 20112 48/// 80001
                   333 5//// 83080=
202005120600 AAXX 12064 67667 32980 21202 10175 20122 48/// 80001
                   333 10260 20056 5//// 82080=
202005110900 AAXX 11094 67667 42680 61504 10206 20110 48/// 85101
                   333 5//// 85830 82080=
202005110600 AAXX 11064 67667 32980 41801 10168 20121 48/// 80001
                   333 10266 20110 5//// 84080=
202005081200 AAXX 08124 67667 42980 20905 10256 20139 48584 80002
                   333 58006 82080=
202005080900 AAXX 08094 67667 42680 20910 10222 20121 48609 81102
                   333 58000 81830 82080=
202005080600 AAXX 08064 67667 32580 20914 10172 20121 48614 81102
                   333 10266 20114 58007 81825 82080=
202005071200 AAXX 07124 67667 42680 61207 10244 20085 48594 80002
                   333 59001 86080=
202005070900 AAXX 07094 67667 42580 30912 10218 20102 48605 81102
                   333 5//// 81830 83080=
202005070600 AAXX 07064 67667 32980 60910 10170 20121 48613 80002
                   333 10270 20105 5//// 86080=
202005061200 AAXX 06124 67667 42680 50905 10246 20130 48586 82101
                   333 59001 82835 85080=
202005060900 AAXX 06094 67667 42680 50906 10222 20133 48/// 84101
                   333 5//// 84830 85080=
202005060600 AAXX 06064 67667 32980 20905 10175 20135 48/// 81101
                   333 10310 20102 5//// 81830 82080=
202005051200 AAXX 05124 67667 42680 12001 10256 20132 48612 81100
                   333 59020 81830=
202005050900 AAXX 05094 67667 42680 11801 10228 20139 48/// 81100
                   333 5//// 81830=
202005050600 AAXX 05064 67667 32980 12201 10182 20120 48617 80001
                   333 10312 20132 5//// 81080=
202005041200 AAXX 04124 67667 42680 21801 10278 20161 48592 82100
                   333 5//// 83830=
202005040900 AAXX 04094 67667 42980 01802 10254 20142 48615
                   333 5////=
202005040600 AAXX 04064 67667 32980 01704 10204 2//// 48/// 70200
                   333 10308 20152 5////=

################################################################################
#  SYNOPS from 67673, Petauke (Zambia) | 14-15S | 031-17E | 1035 m
################################################################################
202005290600 AAXX 29064 67673 31575 31501 10190 20160 48/// 70500 83101
                   333 10290 2//// 5//// 83828 81080=
202005280900 AAXX 28094 67673 41675 41004 10260 20150 48/// 70500 81101
                   333 5//// 81535 84080=
202005271200 AAXX 27124 67673 42680 61201 10312 20150 48/// 82131
                   333 5//// 82838 82360 83080=
202005270600 AAXX 27064 67673 32680 31802 10232 20155 48/// 82130
                   333 10310 2//// 5//// 82827 81360=
202005180600 AAXX 18064 67673 32980 11905 10192 20121 48/// 81030
                   333 10286 2//// 5//// 81360=
202005150600 AAXX 15064 67673 31960 00804 10200 20110 48/// 70500
                   333 10320 2//// 5////=
202005141200 AAXX 14124 67673 42680 30601 10304 20105 48/// 81101
                   333 5//// 81835 82080=
202005140900 AAXX 14094 67673 42980 20701 10290 20125 48/// 82030
                   333 5//// 82360=
202005140600 AAXX 14064 67673 32980 30000 10226 20110 48/// 83030
                   333 10304 2//// 5//// 83360=
202005130900 AAXX 13094 67673 42984 41801 10282 20118 48/// 80001
                   333 5//// 84080=
202005130600 AAXX 13064 67673 32984 30901 10230 20110 48/// 82031
                   333 10290 2//// 5//// 82360 83080=
202005120600 AAXX 12064 67673 32984 30901 10212 20130 48/// 80001
                   333 10276 2//// 5//// 83080=
202005110600 AAXX 11064 67673 32980 60804 10188 20122 48/// 83031
                   333 10272 2//// 5//// 83360 83080=
202005080900 AAXX 08094 67673 42584 30905 10246 20140 48/// 83131
                   333 5//// 83830 82360 81080=
202005071200 AAXX 07124 67673 42980 40605 10252 20148 48/// 84030
                   333 5//// 84360=
202005070900 AAXX 07094 67673 42680 30905 10232 20120 48/// 81101
                   333 5//// 81834 82080=
202005070600 AAXX 07064 67673 32680 41105 10190 20156 48/// 81130
                   333 10274 2//// 5//// 81827 84360=
202005061200 AAXX 06124 67673 42680 51803 10360 20180 48/// 82130
                   333 5//// 82834 83360=
202005060600 AAXX 06064 67673 32580 30904 10188 20141 48/// 81130
                   333 10290 2//// 5//// 81825 82360=
202005050900 AAXX 05094 67673 42584 31504 10240 20145 48/// 83100
                   333 5//// 83830=
202005050600 AAXX 05064 67673 32580 40904 10204 20136 48/// 82100
                   333 10298 2//// 5//// 82826=
202005041200 AAXX 04124 67673 42684 20904 10282 20140 48/// 82100
                   333 5//// 82835=
202005040900 AAXX 04094 67673 42984 00902 10270 20148 48///
                   333 5////=
202005040600 AAXX 04064 67673 32984 00502 10240 20125 48///
                   333 10302 2//// 5////=

################################################################################
#  SYNOPS from 67731, Senanga (Zambia) | 16-06S | 023-16E | 1027 m
################################################################################
202005290600 AAXX 29064 67731 32980 011// 10138 20028 48/// 70200
                   333 10286 20087 59003
                   555 00025=
202005280900 AAXX 28094 67731 42980 003// 10250 20036 48/// 70200
                   333 58011=
202005280600 AAXX 28064 67731 32980 031// 10130 20032 48/// 70200
                   333 10291 20097 58016
                   555 00021=
202005270900 AAXX 27094 67731 42980 009// 10244 20066 48/// 70200
                   333 58019=
202005270600 AAXX 27064 67731 32980 009// 10160 20072 48/// 70200
                   333 10307 20124 58018
                   555 00025=
202005260600 AAXX 26064 67731 32980 020// 10145 20122 48/// 70200
                   333 10291 20120 59036
                   555 00021=
202005180900 AAXX 18094 67731 42980 001// 10247 20081 48/// 70200
                   333 58023=
202005151200 AAXX 15124 67731 42980 003// 10296 20056 48/// 70200
                   333 5////=
202005141200 AAXX 14124 67731 42980 013// 10277 20169 48/// 70200
                   333 5////=
202005140900 AAXX 14094 67731 42980 008// 10250 20114 48/// 70200
                   333 5////=
202005140600 AAXX 14064 67731 32980 033// 10209 20134 48/// 70200
                   333 10289 20119 5////
                   555 00036=
202005130900 AAXX 13094 67731 42980 033// 10260 20144 48/// 70100
                   333 59003=
202005130600 AAXX 13064 67731 32980 410// 10201 20100 48/// 84030
                   333 10286 20123 59008 84360
                   555 00041=
202005121200 AAXX 12124 67731 42980 127// 10267 20118 48/// 80001
                   333 59006 81080=
202005120900 AAXX 12094 67731 42980 127// 10234 20132 48/// 70300 80008
                   333 5//// 81080=
202005110900 AAXX 11094 67731 42980 312// 10255 20113 48/// 70120 80008
                   333 5//// 83080=
202005110600 AAXX 11064 67731 32980 319// 10167 20102 48/// 70300 80008
                   333 10296 20130 5//// 83080
                   555 00027=
202005080600 AAXX 08064 67731 32980 034// 10224 20164 48/// 70200
                   333 10297 20153 59002
                   555 00042=
202005071200 AAXX 07124 67731 42680 434// 10289 20191 48/// 84100
                   333 58000 84100=
202005070900 AAXX 07094 67731 42980 027// 10264 20171 48/// 70200
                   333 58003=
202005060600 AAXX 06064 67731 32980 014// 10236 20159 48///
                   333 10304 20139 5////
                   555 00048=
202005041200 AAXX 04124 67731 42580 618// 10290 20191 48/// 83132
                   333 5//// 83828 84362 85080=
202005040900 AAXX 04094 67731 42980 533// 10260 20173 48/// 84032
                   333 59011 84361 83080=

################################################################################
#  SYNOPS from 67741, Sesheke (Zambia) | 17-28S | 024-18E | 949 m
################################################################################
202005290600 AAXX 29064 67741 32980 00000 10135 20051 48548
                   333 10288 20021 59010=
202005280600 AAXX 28064 67741 32980 00000 10125 20045 48555
                   333 10319 20036 58014=
202005180600 AAXX 18064 67741 32980 00000 10150 20106 48580
                   333 10275 20050 58000=
202005150900 AAXX 15094 67741 42980 00901 10239 20087 48581
                   333 58001=
202005150600 AAXX 15064 67741 32980 00000 10150 20068 48552
                   333 10288 20050 58006=
202005141200 AAXX 14124 67741 42980 00902 10280 20028 48560
                   333 58012=
202005140900 AAXX 14094 67741 42980 01201 10266 20050 48577
                   333 58006=
202005140600 AAXX 14064 67741 32980 00000 10168 20084 48556
                   333 10301 20059 58002=
202005131200 AAXX 13124 67741 42980 01401 10290 20048 48552
                   333 59004=
202005130900 AAXX 13094 67741 42980 01301 10260 20091 48575
                   333 59006=
202005130600 AAXX 13064 67741 32980 10000 10202 20108 48563 81030
                   333 10290 20067 59009 81362=
202005121200 AAXX 12124 67741 42980 13601 10279 20094 48550 81031
                   333 59008 81362 81080=
202005120900 AAXX 12094 67741 42980 11201 10244 20109 48571 80001
                   333 59008 81080=
202005120600 AAXX 12064 67741 32980 01601 10147 20102 48561
                   333 10266 20071 59014=
202005110900 AAXX 11094 67741 42980 21201 10232 20114 48578 82030
                   333 5//// 82362=
202005110600 AAXX 11064 67741 32980 20901 10166 20105 48575 82030
                   333 10270 20080 58002 82362=
202005080600 AAXX 08064 67741 32980 00901 10189 20109 48579
                   333 10276 20086 58008=
202005070600 AAXX 07064 67741 32980 00901 10186 20121 48570
                   333 10276 20092 59009=
202005041200 AAXX 04124 67741 42980 30901 10299 20153 48545 83030
                   333 5//// 83362=
202005040900 AAXX 04094 67741 42980 30902 10276 20165 48570 83030
                   333 5//// 83362=
202005040600 AAXX 04064 67741 32980 60000 10233 20175 48550 86030
                   333 10325 20146 5//// 86362=

################################################################################
#  SYNOPS from 67743, Livingstone (Zambia) | 17-49S | 025-49E | 985 m
################################################################################
202005290600 AAXX 29064 67743 32980 01801 10145 20014 48551
                   333 10290 20032 59005 91023=
202005280900 AAXX 28094 67743 42980 01307 10225 21001 48576 70200
                   333 58014 91024=
202005280600 AAXX 28064 67743 32980 01404 10150 21028 48558 70200
                   333 10293 20045 58010 91024=
202005180900 AAXX 18094 67743 42980 00910 10222 20085 48598 70200
                   333 59006 91027=
202005180600 AAXX 18064 67743 32980 01004 10157 20078 48586
                   333 10273 20060 59001 91027=
202005151200 AAXX 15124 67743 42780 21305 10274 20079 48553 70300 82100
                   333 58000 82856 91020=
202005150900 AAXX 15094 67743 42980 01110 10240 20086 48576 70200
                   333 58004 91024=
202005141200 AAXX 14124 67743 42980 10908 10288 20042 48554 70200 80001
                   333 58005 81080 91020=
202005140900 AAXX 14094 67743 42980 01004 10260 20038 48576 70200
                   333 58005 91023=
202005130900 AAXX 13094 67743 42980 01402 10259 20071 48571
                   333 59003 91023=
202005130600 AAXX 13064 67743 32980 00000 10164 20083 48550
                   333 10290 20058 59009 91022=
202005121200 AAXX 12124 67743 42680 22508 10276 20070 48547 82100
                   333 59014 82856 91020=
202005120900 AAXX 12094 67743 42680 11002 10250 20106 48572 81100
                   333 59017 81850 91023=
202005120600 AAXX 12064 67743 32980 02702 10170 20089 48558
                   333 10285 20070 59021 91023=
202005110600 AAXX 11064 67743 32980 41007 10166 20090 48578 80001
                   333 10330 20091 58021 84080 91026=
202005081200 AAXX 08124 67743 42980 01506 10271 20127 48568
                   333 58004 91022=
202005080900 AAXX 08094 67743 42780 10908 10235 20118 48585 81130
                   333 58002 81856 81359 91025=
202005080600 AAXX 08064 67743 32980 00905 10166 20116 48574
                   333 10288 20100 58009 91025=
202005070900 AAXX 07094 67743 42980 10809 10234 20119 48583 70300 81100
                   333 59002 81840 91025=
202005060900 AAXX 06094 67743 42980 01007 10240 20104 48583
                   333 59006 91024=
202005060600 AAXX 06064 67743 32980 01307 10180 20100 48575
                   333 10305 20113 58006 91025=
202005051200 AAXX 05124 67743 42980 01511 10282 20108 48569
                   333 58031 91022=
202005050900 AAXX 05094 67743 42980 30611 10257 20095 48591 83030
                   333 58030 91025=
202005041200 AAXX 04124 67743 42780 31013 1//// 20134 48542 83130
                   333 59002 83850 81360 91018=
202005040900 AAXX 04094 67743 42680 30808 10276 20159 48564 81130
                   333 58006 81835 83360 91022=
202005040600 AAXX 04064 67743 32980 60906 10235 20160 48558 86030
                   333 10318 20150 59004 86360 91022=

################################################################################
#  SYNOPS from 67751, Magoye (Zambia) | 16-00S | 027-36E | 1018 m
################################################################################
202005130600 AAXX 13064 67751 32980 00000 10179 20010 48/// 70200
                   333 10267 20110 5////=
202005110600 AAXX 11064 67751 32980 50802 10187 20120 48/// 70200 80001
                   333 10266 20096 5//// 85080=
202005080600 AAXX 08064 67751 32980 51202 10172 20135 48/// 70222 85040
                   333 10263 20116 5//// 85360=
202005040600 AAXX 04064 67751 32980 01501 10191 20140 48///
                   333 10317 20140 5////=

################################################################################
#  SYNOPS from 67753, Choma (Zambia) | 16-50S | 027-04E | 1213 m
################################################################################
202005290600 AAXX 29064 67753 32980 00000 10167 20115 48555
                   333 10280 20074 59003=
202005280600 AAXX 28064 67753 32980 00000 10145 20025 48552
                   333 10282 20086 58016=
202005271200 AAXX 27124 67753 42780 11303 10276 20068 48536 81100
                   333 5//// 81856=
202005270900 AAXX 27094 67753 42980 10000 10251 20062 48552 80001
                   333 58018 81080=
202005150600 AAXX 15064 67753 31980 00000 10162 20092 48564
                   333 10276 20092 58007=
202005140600 AAXX 14064 67753 31980 00000 10186 20060 48557
                   333 10295 20118=
202005130600 AAXX 13064 67753 31980 00000 10177 20099 48547
                   333 10272 20080 59007=
202005120600 AAXX 12064 67753 31980 10000 10165 20120 48554 80001
                   333 10249 20066 59022 81080=
202005070600 AAXX 07064 67753 31580 60000 10153 20127 48/// 70322 84530
                   333 10250 20090 5//// 84620 82360=
202005060600 AAXX 06064 67753 31980 10000 10177 20126 48/// 70300 81030
                   333 10256 20108 5//// 81360=
202005040600 AAXX 04064 67753 31980 10000 10201 20169 48/// 81030
                   333 10295 20134 5//// 81360=

################################################################################
#  SYNOPS from 67855, Lupaki (Zambia) | 17-03-00S | 024-46-00E | 1000 m
################################################################################
202005291200 AAXX 29124 67855 42975 03501 10288 20019 3//// 48///
                   333 5////=
202005290600 AAXX 29064 67855 32975 00000 10080 21005 3//// 48///
                   333 20020 5////=
202005280600 AAXX 28064 67855 32975 01601 10080 21045 3//// 48///
                   333 20008 5////=
202005270600 AAXX 27064 67855 32975 00000 10108 20045 3//// 48///
                   333 20078 5////=
202005261200 AAXX 26124 67855 42775 33307 10292 20068 3//// 48/// 83130
                   333 5//// 83850=
202005260600 AAXX 26064 67855 32975 70000 10116 20055 3//// 48/// 8707/
                   333 20064 5//// 87360=
202005251200 AAXX 25124 67855 42675 10000 10264 20063 3//// 48/// 81100
                   333 5//// 81845=
202005250600 AAXX 25064 67855 32975 00000 10104 20070 3//// 48///
                   333 20070 5////=
202005240600 AAXX 24064 67855 32975 00000 10114 20055 3//// 48///
                   333 20060 5////=
202005230600 AAXX 23064 67855 32975 01801 10118 20070 3//// 48///
                   333 20052 5////=
202005221200 AAXX 22124 67855 42675 51704 10254 20063 3//// 48/// 85100
                   333 5//// 85840=
202005220600 AAXX 22064 67855 32975 00901 10140 20075 3//// 48///
                   333 20063 5////=
202005211200 AAXX 21124 67855 42675 10605 10266 20063 3//// 48/// 81100
                   333 5//// 81835=
202005210600 AAXX 21064 67855 32975 01801 10126 20077 3//// 48///
                   333 20088 5////=
202005201200 AAXX 20124 67855 42975 02003 10266 20029 3//// 48///
                   333 5////=
202005180600 AAXX 18064 67855 32975 00000 10120 20073 3//// 48///
                   333 20073 5////=
202005161200 AAXX 16124 67855 42975 00401 10290 20010 3//// 48///
                   333 5////=
202005101200 AAXX 10124 67855 42675 50602 10266 20085 3//// 48/// 81101
                   333 5//// 81840 85080=
202005100600 AAXX 10064 67855 32975 70000 10136 20096 38/// 48/// 80002
                   333 20082 5//// 87080=
202005091200 AAXX 09124 67855 42975 00603 10294 20063 3//// 48/// 333=
202005090600 AAXX 09064 67855 0//// 10290=
202005080600 AAXX 08064 67855 32975 01702 10146 20104 3//// 48///
                   333 20095 5////=
202005071200 AAXX 07124 67855 42975 10602 10294 20040 3//// 48/// 81030
                   333 5//// 81360=
202005061200 AAXX 06124 67855 42975 00602 10290 20048 3//// 48///
                   333 5////=
202005051200 AAXX 05124 67855 42675 10602 10272 20083 3//// 48/// 81100
                   333 5//// 81840=
202005050600 AAXX 05064 67855 32975 71602 10184 20105 3//// 48/// 8707/
                   333 20175 5//// 87360=
202005030600 AAXX 03064 67855 32975 11801 10174 20105 3//// 48/// 81030
                   333 20115 5//// 81360=
