################################################################################
# Query made at 04/14/2022 03:36:18 UTC
# Country like Zamb*
# Time interval: from 07/01/2016 05:30  to 07/31/2016 06:30  UTC
################################################################################

################################################################################
#  SYNOPS from 67403, Kawambwa (Zambia) | 09-48S | 029-05E | 1323 m
################################################################################
201607280600 AAXX 28064 67403 NIL=
201607260600 AAXX 26064 67403 31970 20605 10178 20125 48517 70500 82030
                   333 10/// 20157 58006 82360=
201607250600 AAXX 25064 67403 31965 10904 10167 20112 48511 70544 81030
                   333 10/// 20122 59005 81360=
201607200600 AAXX 20064 67403 31975 11207 10127 20064 48544 70500 81030
                   333 10/// 20107 59003 81360=
201607190600 AAXX 19064 67403 31975 00905 10137 20077 48547 70500
                   333 10/// 20107 59001=
201607180600 AAXX 18064 67403 31975 00906 10147 20094 48549 70500
                   333 10/// 20123 58008=
201607140600 AAXX 14064 67403 32980 00906 10135 20084 48541
                   333 10/// 20100 59015=
201607130600 AAXX 13064 67403 32980 01207 10132 20080 48556
                   333 10/// 20094 58000=
201607120600 AAXX 12064 67403 31980 00907 10117 20078 48554 70500
                   333 10/// 20073 59008=
201607070600 AAXX 07064 67403 31980 20902 10125 20111 48532 70500 81031
                   333 10/// 20085 59001 81360 82080=

################################################################################
#  SYNOPS from 67413, Mbala (Zambia) | 08-51S | 031-20E | 1673 m
################################################################################
201607280600 AAXX 28064 67413 NIL=
201607260600 AAXX 26064 67413 NIL=
201607250600 AAXX 25064 67413 31978 00907 10180 20100 48537
                   333 10285 20/// 58001 91023=
201607200600 AAXX 20064 67413 32978 01010 10150 20074 48561 70500
                   333 10230 20/// 58000 91026=
201607180600 AAXX 18064 67413 31978 01309 10155 20102 48565 70500
                   333 10255 20//0 58000 91027=
201607140600 AAXX 14064 67413 32980 00901 10150 20063 48560
                   333 10250 20/// 59010 91016=
201607120600 AAXX 12064 67413 32980 01208 10135 20055 48570
                   333 10230 20/// 59010 91027=
201607070600 AAXX 07064 67413 32980 01005 10155 20090 48565
                   333 10240 20/// 58005 91027=

################################################################################
#  SYNOPS from 67441, Mwinilunga (Zambia) | 11-45S | 024-26E | 1361 m
################################################################################
201607280600 AAXX 28064 67441 NIL=
201607260600 AAXX 26064 67441 NIL=
201607200600 AAXX 20064 67441 31970 115// 10125 20042 48584 70500 80001
                   333 10240 20/// 59006 81080=
201607180600 AAXX 18064 67441 31975 012// 10120 20060 48590 70500
                   333 10255 20//0 58010=
201607130600 AAXX 13064 67441 31975 012// 10135 20076 48590 70500
                   333 10230 20/// 59006=
201607120600 AAXX 12064 67441 31975 012// 10110 20060 48596 70500
                   333 10240 20/// 5////=
201607070600 AAXX 07064 67441 31970 515// 10095 20074 48582 70522 80005
                   333 10260 20/// 59003 85280=

################################################################################
#  SYNOPS from 67461, Mansa (Zambia) | 11-06S | 028-51E | 1382 m
################################################################################
201607280600 AAXX 28064 67461 NIL=
201607260600 AAXX 26064 67461 NIL=
201607250600 AAXX 25064 67461 31970 70903 10151 20125 48524 70500 8703/
                   333 10280 20119 5//// 87360=
201607200600 AAXX 20064 67461 31975 60907 10120 20076 48554 70500 80008
                   333 10250 20078 91024=
201607190600 AAXX 19064 67461 31975 51206 10140 20071 48562 70500 80008
                   333 10250 20081 59004 85280 91024=
201607140600 AAXX 14064 67461 31975 01408 10145 20089 48567 70500
                   333 10234 20080 59003 91025=
201607120600 AAXX 12064 67461 31475 40908 10132 20097 48583 70500 84500
                   333 10223 20069 5//// 84612 91026=
201607070600 AAXX 07064 67461 31975 71003 10125 20096 48551 70500 80008
                   333 10240 20078 59005 87280 91023=

################################################################################
#  SYNOPS from 67475, Kasama (Zambia) | 10-13S | 031-08E | 1382 m
################################################################################
201607280600 AAXX 28064 67475 NIL=
201607260600 AAXX 26064 67475 31960 00515 10171 20125 48531 70500
                   333 10280 20126 58000 91021=
201607200600 AAXX 20064 67475 31960 21409 10141 20064 48554 70500 80001
                   333 10250 20066 59006 82080 91024=
201607180600 AAXX 18064 67475 31960 01113 10153 20090 48566 70521
                   333 10249 20113 58008 91026=
201607140600 AAXX 14064 67475 31960 01207 10135 20084 48559 70500
                   333 10240 20067 59014 91025=
201607130600 AAXX 13064 67475 31960 01211 10140 20080 48573 70500
                   333 10228 20094 58002 91026=
201607120600 AAXX 12064 67475 31960 00913 10128 20090 48572 70500
                   333 10230 20088 59012 91026=

################################################################################
#  SYNOPS from 67476, Misamfu (Zambia) | 10-06S | 031-15E | 1536 m
################################################################################
201607280600 AAXX 28064 67476 NIL=
201607260600 AAXX 26064 67476 NIL=
201607200600 AAXX 20064 67476 32980 00000 10115 20068 48///
                   333 10244 20054 59006=
201607190600 AAXX 19064 67476 32980 01204 10145 20086 48///
                   333 10240 20064 59006=
201607130600 AAXX 13064 67476 32980 00806 10150 20079 48///
                   333 10226 20081 5////=
201607120600 AAXX 12064 67476 32980 01405 10140 20090 48///
                   333 10230 20056 5////=
201607070600 AAXX 07064 67476 32980 11503 10158 20074 48/// 80001
                   333 10240 20065 58003 81080=

################################################################################
#  SYNOPS from 67477, Mpika (Zambia) | 11-54S | 031-26E | 1400 m
################################################################################
201607280600 AAXX 28064 67477 NIL=
201607260600 AAXX 26064 67477 31970 00904 10175 20/// 48530 70500
                   333 10250 20146 59003=
201607250600 AAXX 25064 67477 31980 51206 10175 20/// 48540 70522 85031
                   333 10257 20131 58002 85358 82080=
201607200600 AAXX 20064 67477 31970 00903 10132 20/// 48566 70500
                   333 10212 20065 59006=
201607180600 AAXX 18064 67477 31960 01206 10141 20//0 48576 70500
                   333 10220 20106 58006=
201607140600 AAXX 14064 67477 31980 00903 10132 20/// 48569 70500
                   333 10200 20072=
201607130600 AAXX 13064 67477 31460 70908 10152 20/// 48/// 70522 875//
                   333 10200 20101 5//// 876//=
201607120600 AAXX 12064 67477 31460 70910 10122 20/// 48580 70522 87500
                   333 10192 20094 59009 87610=
201607070600 AAXX 07064 67477 31960 31202 10142 20/// 48566 70500 80001
                   333 10211 20067 58006 83080=

################################################################################
#  SYNOPS from 67481, Isoka (Zambia) | 10-07S | 032-38E | 1360 m
################################################################################
201607280600 AAXX 28064 67481 NIL=
201607260600 AAXX 26064 67481 31978 11501 10167 20128 48/// 70500 80001
                   333 10265 20117 58002=
201607250600 AAXX 25064 67481 31976 60000 10160 20133 48/// 70522 86030
                   333 10282 20138 5//// 86360=
201607220600 AAXX 22064 67481 31978 53001 10173 20119 48/// 70522 80001
                   333 10251 20101 59011=
201607200600 AAXX 20064 67481 31978 00903 10145 20068 48/// 70500
                   333 10245 20095 59005=
201607190600 AAXX 19064 67481 31975 10909 10152 20097 48/// 70500 80001
                   333 10240 20097 59004 81080=
201607140600 AAXX 14064 67481 31975 11204 10146 20096 48/// 70510 80001
                   333 10238 20094 59011 81080=
201607130600 AAXX 13064 67481 31977 20605 10135 20089 48/// 70500 80001
                   333 10232 20080 58001 82080=
201607120600 AAXX 12064 67481 31978 21504 10135 20088 48/// 70510 80001
                   333 10209 20086 59011 82080=

################################################################################
#  SYNOPS from 67531, Zambezi (Zambia) | 13-32S | 023-07E | 1077 m
################################################################################
201607280600 AAXX 28064 67531 NIL=
201607260600 AAXX 26064 67531 31960 00502 10121 20075 48/// 70500
                   333 10317 20060 5////=
201607250600 AAXX 25064 67531 31958 20603 10102 20051 48/// 70500 80001
                   333 10300 20031 5//// 82080=
201607200600 AAXX 20064 67531 31970 10602 10115 20051 48/// 70500 80001
                   333 10252 20032 59009 81080=
201607190600 AAXX 19064 67531 31970 01203 10116 20046 48/// 70500
                   333 10266 20064 58002=
201607180600 AAXX 18064 67531 31975 01002 10126 20069 48/// 70500
                   333 10275 20064 58006=
201607140600 AAXX 14064 67531 31978 01303 10126 20077 48/// 70500
                   333 10251 20037 59014=
201607130600 AAXX 13064 67531 31975 01202 10100 20062 48/// 70500
                   333 10243 20011 59015=
201607120600 AAXX 12064 67531 31975 00000 10114 20057 48/// 70500
                   333 10244 20016 59009=
201607070600 AAXX 07064 67531 31960 10000 10093 20072 48/// 70500 80001
                   333 10278 20017 59004 81080=

################################################################################
#  SYNOPS from 67541, Kasempa (Zambia) | 13-32S | 025-51E | 1234 m
################################################################################
201607280600 AAXX 28064 67541 NIL=
201607260600 AAXX 26064 67541 NIL=
201607200600 AAXX 20064 67541 31960 00000 10124 20063 48542 70500
                   333 10/// 20/// 59016=
201607190600 AAXX 19064 67541 31960 00000 10129 20062 48558 70500
                   333 10/// 20/// 58000=
201607180600 AAXX 18064 67541 31960 00000 10135 20075 48558 70500
                   333 10//0 20//0 58016=
201607140600 AAXX 14064 67541 32980 00000 10141 20096 48546
                   333 10/// 20/// 59024=
201607130600 AAXX 13064 67541 32980 00803 10136 20088 48570
                   333 10/// 20/// 58000=
201607120600 AAXX 12064 67541 31970 10904 10130 20086 48570 70522 81030
                   333 10/// 20/// 58001 81360=

################################################################################
#  SYNOPS from 67543, Kabompo (Zambia) | 13-36S | 024-12E | 1075 m
################################################################################
201607280600 AAXX 28064 67543 NIL=
201607260600 AAXX 26064 67543 NIL=
201607250600 AAXX 25064 67543 31970 40000 10072 20092 48/// 70522 80005
                   333 10302 20035 5//// 84280=
201607200600 AAXX 20064 67543 31975 10000 10096 20053 48/// 70500 80001
                   333 10260 20044 5//// 81080=
201607190600 AAXX 19064 67543 31975 00000 10086 20046 48/// 70500
                   333 10284 20040=
201607180600 AAXX 18064 67543 31975 0//00 10127 20070 48/// 70500
                   333 10284 20088 5////=
201607140600 AAXX 14064 67543 31975 00000 10092 20067 48/// 70500
                   333 10252 20046 5////=
201607130600 AAXX 13064 67543 31975 00000 10103 20081 48/// 70500
                   333 10242 20053 5////=
201607120600 AAXX 12064 67543 31975 2//01 10102 20060 48/// 70500 82030
                   333 10268 20053 5//// 82361=
201607070600 AAXX 07064 67543 21975 10000 10104 20066 48/// 70500 80001
                   333 10305 20068 5//// 81080=

################################################################################
#  SYNOPS from 67551, Solwezi (Zambia) | 12-11S | 026-23E | 1386 m
################################################################################
201607280600 AAXX 28064 67551 NIL=
201607260600 AAXX 26064 67551 NIL=
201607250600 AAXX 25064 67551 31958 01904 10155 20080 48524 70500
                   333 10294 20/// 59001 91020=
201607200600 AAXX 20064 67551 32958 31204 10106 20056 48556 80003
                   333 10216 20/// 59008 83080 91024=
201607190600 AAXX 19064 67551 32980 01303 10111 20047 48573
                   333 10233 20/// 59002 91025=
201607180600 AAXX 18064 67551 31959 01504 10133 20073 48567 70500
                   333 10246 20//0 59002 91025=
201607140600 AAXX 14064 67551 32970 00903 10105 20073 48552
                   333 10230 20/// 59014 91023=
201607130600 AAXX 13064 67551 32980 01504 10106 20085 48565
                   333 10220 20/// 59002 91025=
201607120600 AAXX 12064 67551 32980 01104 10098 20068 48568
                   333 10221 20/// 59007 91025=
201607070600 AAXX 07064 67551 32980 40903 10110 20069 48555 80001
                   333 10240 20/// 58000 84080 91024=

################################################################################
#  SYNOPS from 67561, Ndola (Zambia) | 13-00S | 028-39E | 1269 m
################################################################################
201607280600 AAXX 28064 67561 NIL=
201607260600 AAXX 26064 67561 NIL=
201607200600 AAXX 20064 67561 NIL=
201607190600 AAXX 19064 67561 31960 00000 10144 20058 48566 70500
                   333 10241 20079 59004 91025=
201607180600 AAXX 18064 67561 31970 70803 10115 20073 48571 70522 87030
                   333 10250 20105 58027 87360 91026=
201607140600 AAXX 14064 67561 31960 00000 10120 20082 48556 70500
                   333 10224 20050 59014 91024=
201607130600 AAXX 13064 67561 31970 10804 10126 20094 48570 70500 81030
                   333 10220 20074 59004 81360 91026=

################################################################################
#  SYNOPS from 67563, Kafironda (Zambia) | 12-36S | 028-07E | 1243 m
################################################################################
201607280600 AAXX 28064 67563 NIL=
201607260600 AAXX 26064 67563 NIL=
201607200600 AAXX 20064 67563 32980 70000 10105 20065 48/// 70100 80008
                   333 10240 20010 59004 87280=
201607180600 AAXX 18064 67563 32960 60000 10110 20090 48/// 70222 86030
                   333 10260 20025 5//// 86360=
201607140600 AAXX 14064 67563 32970 01202 10115 20070 48/// 70100
                   333 10240 20020 59011=
201607120600 AAXX 12064 67563 32970 10102 10130 20108 48/// 70100 80002
                   333 10212 20025 59002 81080=
201607070600 AAXX 07064 67563 32970 61202 10150 20120 48/// 70200 80008
                   333 10275 20055 59002 86280=

################################################################################
#  SYNOPS from 67571, Serenje (Zambia) | 13-14S | 030-13E | 1384 m
################################################################################
201607280600 AAXX 28064 67571 32980 01202 10165 20086 48530 70500
                   333 20090 59003=
201607270600 AAXX 27064 67571 32980 71202 10170 20106 48530 8703/
                   333 10276 20135 58003 87360=
201607260600 AAXX 26064 67571 NIL=
201607200600 AAXX 20064 67571 NIL=
201607140600 AAXX 14064 67571 32980 00908 10128 20076 48557 70500
                   333 10202 20091 58012=
201607130600 AAXX 13064 67571 32482 70908 10122 20094 48566 70222 875//
                   333 10194 20105 59001 87618=
201607120600 AAXX 12064 67571 32482 70908 10121 20087 48566 70222 875//
                   333 10194 20101 59007 87618=
201607070600 AAXX 07064 67571 32980 10906 10154 20084 48/// 70522 81038
                   333 10227 20108 5//// 81360 87281=

################################################################################
#  SYNOPS from 67575, Mkushi (Zambia) | 13-38-00S | 029-26-00E | 1237 m
################################################################################
201607280600 AAXX 28064 67575 NIL=
201607260600 AAXX 26064 67575 NIL=
201607200600 AAXX 20064 67575 32980 31203 10147 20082 48/// 70210 82072
                   333 10230 20077 5//// 82360 81080=
201607180600 AAXX 18064 67575 32980 10902 10150 20067 48/// 81070
                   333 10240 20110 5//// 81360=
201607070600 AAXX 07064 67575 32980 21202 10115 20106 48/// 70200 80001
                   333 10275 20085 5//// 82080=

################################################################################
#  SYNOPS from 67580, Msekera (Zambia) | 13-39S | 032-34E | 1025 m
################################################################################
201607280600 AAXX 28064 67580 NIL=
201607260600 AAXX 26064 67580 NIL=
201607250600 AAXX 25064 67580 31970 00902 10220 20148 48/// 70500
                   333 10299 20/// 58000=
201607200600 AAXX 20064 67580 32980 71503 10149 20129 48/// 87031
                   333 10249 20/// 59003 87360 81080=
201607190600 AAXX 19064 67580 31975 71410 10170 20088 48/// 70522 87030
                   333 10254 20/// 59009 87360=
201607180600 AAXX 18064 67580 31975 51504 10170 20115 48/// 70522 85030
                   333 10266 20/// 58002 85360=
201607130600 AAXX 13064 67580 32480 31405 10160 20106 48/// 83800
                   333 10226 20/// 59001 82815 81620=
201607120600 AAXX 12064 67580 32480 71505 10148 20116 48/// 875//
                   333 10228 20/// 59011 87616=
201607070600 AAXX 07064 67580 32980 71205 10185 20114 48/// 87030
                   333 10265 20/// 58000 87360=

################################################################################
#  SYNOPS from 67581, Chipata (Zambia) | 13-33S | 032-35E | 1028 m
################################################################################
201607280600 AAXX 28064 67581 NIL=
201607260600 AAXX 26064 67581 NIL=
201607200600 AAXX 20064 67581 NIL=
201607140600 AAXX 14064 67581 31960 11703 10167 20094 48578 70500 81030
                   333 10235 20179 59014 81360 91025=
201607120600 AAXX 12064 67581 31978 21504 10135 20088 48/// 70510 80001
                   333 10209 20086 59011 82080=

################################################################################
#  SYNOPS from 67583, Lundazi (Zambia) | 12-17S | 033-12E | 1143 m
################################################################################
201607280600 AAXX 28064 67583 NIL=
201607260600 AAXX 26064 67583 NIL=
201607200600 AAXX 20064 67583 NIL=
201607190600 AAXX 19064 67583 32980 30000 10132 20081 48/// 86050
                   333 10/// 20/// 5//// 86359=
201607180600 AAXX 18064 67583 32960 11502 10170 20094 70200 81030
                   333 10//0 20//0 5//// 81360=
201607140600 AAXX 14064 67583 31980 32101 10152 20114 83030
                   333 10//0 20//0 59012 83360=
201607130600 AAXX 13064 67583 32980 11201 10150 20115 81030
                   333 10/// 20/// 59001 81360=
201607120600 AAXX 12064 67583 32570 31203 10160 20121 83400
                   333 10/// 20/// 59015 82825 81627=

################################################################################
#  SYNOPS from 67599, Mfuwe (Zambia) | 13-16S | 031-56E | 568 m
################################################################################
201607280600 AAXX 28064 67599 NIL=
201607260600 AAXX 26064 67599 NIL=
201607200600 AAXX 20064 67599 32980 61805 10185 20126 48570 86030
                   333 10259 20115 59001 86360 91024=
201607190600 AAXX 19064 67599 32980 71705 10205 20100 48578 8703/
                   333 10295 20171 59010 87360 91024=
201607140600 AAXX 14064 67599 32980 30000 10160 20106 48568 83030
                   333 10281 20095 59016 83360 91024=
201607080600 AAXX 08064 67599 32980 71504 10213 20108 48601 87030
                   333 10300 20205 58024 87359
                   555 00/// 91026=
201607070600 AAXX 07064 67599 32980 70000 10155 20109 48556 8703/
                   333 10295 20130 59002 87359 91023=

################################################################################
#  SYNOPS from 67625, Kalabo (Zambia) | 14-51S | 022-42E | 1033 m
################################################################################
201607280600 AAXX 28064 67625 NIL=
201607260600 AAXX 26064 67625 NIL=
201607200600 AAXX 20064 67625 32982 01204 10118 20029 48///
                   333 10246 20078 59004=
201607130600 AAXX 13064 67625 32982 11405 10114 20071 48/// 81030
                   333 10236 20116 59009 81360=
201607120600 AAXX 12064 67625 32982 01205 10113 20060 48///
                   333 10235 20112 59014=
201607070600 AAXX 07064 67625 32982 21407 10133 20070 48/// 80004
                   333 10266 20114 58003 82075=

################################################################################
#  SYNOPS from 67633, Mongu (Zambia) | 15-15S | 023-09E | 1052 m
################################################################################
201607280600 AAXX 28064 67633 NIL=
201607260600 AAXX 26064 67633 NIL=
201607250600 AAXX 25064 67633 32980 00902 10154 20052 48596 70200
                   333 10296 20080 59015 91017=
201607200600 AAXX 20064 67633 32980 00904 10114 20036 48545
                   333 10257 20075 59018 91024=
201607190600 AAXX 19064 67633 32980 00903 10110 20043 48569 70200
                   333 10269 20081 58010 91026=
201607180600 AAXX 18064 67633 32980 00906 10132 20052 48558 70200
                   333 10269 20096 58008 91025=
201607130600 AAXX 13064 67633 32980 00904 10120 20086 48565 70200
                   333 10240 20078 59009 91025=
201607120600 AAXX 12064 67633 32980 00904 10116 20071 48573 70200
                   333 10243 20091 59013 91026=
201607070600 AAXX 07064 67633 32980 00906 10134 20072 48558 70200
                   333 10271 20095 58010 91024=

################################################################################
#  SYNOPS from 67641, Kaoma (Zambia) | 14-48S | 024-48E | 1213 m
################################################################################
201607280600 AAXX 28064 67641 NIL=
201607260600 AAXX 26064 67641 NIL=
201607200600 AAXX 20064 67641 32980 00000 10086 20055 48544
                   333 10/// 20048 59010 91023=
201607190600 AAXX 19064 67641 32980 01002 10140 20048 48506
                   333 10/// 20064 58003 91024=
201607180600 AAXX 18064 67641 32980 00000 10102 20064 48553
                   333 10//0 20062 58031 91024=
201607140600 AAXX 14064 67641 32980 00000 10105 20074 48538
                   333 10/// 20057 59022 91022=
201607130600 AAXX 13064 67641 32980 00602 10111 20082 48560
                   333 10/// 20052 59002 91024=
201607070600 AAXX 07064 67641 32980 20202 10117 20081 48545 80001
                   333 10/// 20070 58000 82080 91023=

################################################################################
#  SYNOPS from 67655, Mumbwa (Zambia) | 15-04S | 027-11E | 1216 m
################################################################################
201607280600 AAXX 28064 67655 NIL=
201607260600 AAXX 26064 67655 NIL=
201607200600 AAXX 20064 67655 NIL=
201607070600 AAXX 07064 67655 32980 20000 10125 20087 48571 80001
                   333 10241 20/// 58005 82080 91026=

################################################################################
#  SYNOPS from 67659, Kafue Polder (Zambia) | 15-46S | 027-55E | 978 m
################################################################################
201607280600 AAXX 28064 67659 NIL=
201607260600 AAXX 26064 67659 NIL=
201607200600 AAXX 20064 67659 NIL=

################################################################################
#  SYNOPS from 67662, Kabwe Agric (Zambia) | 14-24S | 028-30E | 1165 m
################################################################################
201607280600 AAXX 28064 67662 NIL=
201607260600 AAXX 26064 67662 NIL=
201607200600 AAXX 20064 67662 NIL=

################################################################################
#  SYNOPS from 67663, Kabwe (Zambia) | 14-27S | 028-28E | 1206 m
################################################################################
201607280600 AAXX 28064 67663 NIL=
201607260600 AAXX 26064 67663 NIL=
201607250600 AAXX 25064 67663 32980 01809 10165 20054 48533
                   333 10285 20126 59004=
201607200600 AAXX 20064 67663 32980 20904 10128 20069 48571 70300 82030
                   333 10219 20078 58000 82360=
201607180600 AAXX 18064 67663 32980 10807 10137 20067 48591 81030
                   333 10238 20108 58014 81360=
201607140600 AAXX 14064 67663 32980 11004 10135 20081 48569 70200 81030
                   333 10203 20091 59007 81360=
201607120600 AAXX 12064 67663 32480 71106 10112 20086 48576 875//
                   333 10200 20087 59007 87613=
201607070600 AAXX 07064 67663 32980 41009 10149 20081 48609 80002
                   333 10232 20091 58013 84080=

################################################################################
#  SYNOPS from 67665, Lusaka Internationalairport (Zambia) | 15-19S | 028-27E | 1152 m
################################################################################
201607310600 AAXX 31064 67665 31959 01104 10144 20099 70500
                   333 58012=
201607301800 AAXX 30184 67665 41959 0//// 10189 20100 48539 70500
                   333 58007=
201607301200 AAXX 30124 67665 41959 00206 10280 20166 48540 70500
                   333 58003=
201607300900 AAXX 30094 67665 41959 01304 10284 20195 48561 70500
                   333 59003=
201607300600 AAXX 30064 67665 42980 01204 10157 20105 48542 70200
                   333 58001=
201607292100 AAXX 29214 67665 42980 0//// 10147 20108 48535 70200
                   333 58000=
201607290900 AAXX 29094 67665 41960 00711 10268 20191 48562 70500
                   333 58007=
201607290600 AAXX 29064 67665 31959 01104 10167 20114 48543 70500
                   333 10//0 20//0 58005=
201607290300 AAXX 29034 67665 42980 0//// 10111 20083 48523
                   333 58002=
201607282100 AAXX 28214 67665 42980 0//// 10152 20121 48535
                   333 58003=
201607281800 AAXX 28184 67665 42980 0//// 10203 20150 48539
                   333 58009=
201607281500 AAXX 28154 67665 42980 01204 10279 20166 48536 70200
                   333 58008=
201607281200 AAXX 28124 67665 42980 00807 10300 20163 48536 70200
                   333 58005=
201607280600 AAXX 28064 67665 NIL=
201607280000 AAXX 28004 67665 42980 0//// 10159 20115 48524
                   333 58002=
201607272100 AAXX 27214 67665 41980 1//// 10168 20105 48535 70500 81030
                   333 58004 81360=
201607271800 AAXX 27184 67665 41960 0//// 10200 20124 48530 70500
                   333 59004=
201607271500 AAXX 27154 67665 41965 00306 10267 20155 48523 70500
                   333 58002=
201607271200 AAXX 27124 67665 41970 03507 10282 20163 48529 70500
                   333 59001=
201607270900 AAXX 27094 67665 42980 43608 10242 20162 48549 70222 80001
                   333 58003 84080=
201607260600 AAXX 26064 67665 31959 20803 10138 20094 48532 70500 82030
                   333 10//0 20//0 58000 81360
                   555 00///=
201607260000 AAXX 26004 67665 41959 0//// 10137 20081 48521 70500
                   333 58004=
201607251500 AAXX 25154 67665 41959 00403 10245 20105 48528 70500
                   333 58022=
201607250600 AAXX 25064 67665 32980 01006 10146 20091 48533
                   333 10278 20//0 58001=
201607250000 AAXX 25004 67665 42980 0//// 10135 20055 48517
                   333 59007=
201607242100 AAXX 24214 67665 41959 ///// 10129 20059 48523 70500
                   333 59010=
201607241800 AAXX 24184 67665 41959 0//// 10178 20097 48525 70500
                   333 10278 58013=
201607241200 AAXX 24124 67665 41959 00305 10266 20138 48529 70500
                   333 59012=
201607240900 AAXX 24094 67665 41959 01008 10244 20158 48542 70200
                   333 59017=
201607240600 AAXX 24064 67665 42980 01103 10144 20089 48531
                   333 10//0 20//0 59016=
201607240300 AAXX 24034 67665 42980 0//// 10084 20045 48516
                   333 59023=
201607240000 AAXX 24004 67665 42980 0//// 10082 20046 48516
                   333 59017=
201607232100 AAXX 23214 67665 42980 0//// 10127 20084 48533
                   333 59019=
201607231800 AAXX 23184 67665 42980 0//// 10168 20074 48530
                   333 59021=
201607231500 AAXX 23154 67665 42980 01004 10243 20096 48528
                   333 59020=
201607231200 AAXX 23124 67665 42980 01008 10259 20095 48540
                   333 59016=
201607230600 AAXX 23064 67665 42980 01702 10144 20107 48547 70200
                   333 59016 555 00///=
201607222100 AAXX 22214 67665 42980 00802 10113 20071 48547 70200
                   333 59015=
201607220900 AAXX 22094 67665 42980 01009 10222 20140 48578
                   333 59014=
201607220600 AAXX 22064 67665 32980 01203 10140 20061 48561
                   333 10208 58013=
201607220300 AAXX 22034 67665 42980 01002 10077 20045 48542 70200
                   333 59010=
201607220000 AAXX 22004 67665 42980 00902 10081 20050 48549 70200
                   333 59003=
201607211800 AAXX 21184 67665 42980 00903 10142 20094 48563 70200
                   333 59006=
201607211500 AAXX 21154 67665 42980 01008 10220 20125 48562 70200
                   333 58003=
201607211200 AAXX 21124 67665 42680 30809 10230 20138 48570 70200 83100
                   333 58002 83835=
201607210600 AAXX 21064 67665 32980 11302 10126 20068 48572 81030
                   333 59005 81360=
201607210300 AAXX 21034 67665 42980 11404 10072 20026 48550 81030
                   333 59004 81360=
201607210000 AAXX 21004 67665 42980 11302 10080 20035 48551 81030
                   333 59007 81360=
201607202100 AAXX 20214 67665 42980 21006 10096 20055 48568 82030
                   333 59001 82360=
201607201500 AAXX 20154 67665 42780 51005 10195 20095 48562 70222 84230
                   333 59003 84850 82360=
201607201200 AAXX 20124 67665 42680 61012 10203 20097 48564 70222 86500
                   333 59008 86635=
201607200900 AAXX 20094 67665 42580 50811 10175 20122 48587 70310 85500
                   333 59005 85630=
201607200600 AAXX 20064 67665 42980 10000 10095 20056 48572 81030
                   333 10234 20//0 59007 81360=
201607200300 AAXX 20034 67665 42980 01402 10069 20028 48554
                   333 58000 91025=
201607200000 AAXX 20004 67665 42980 00000 10085 20030 48559
                   333 58002 91025=
201607191800 AAXX 19184 67665 42980 41105 10141 20040 48571 84030
                   333 59005 84360=
201607191500 AAXX 19154 67665 42680 30907 10196 20051 48565 83500
                   333 59002 83648=
201607191200 AAXX 19124 67665 42680 51113 10202 20046 48572 85500
                   333 59005 85638=
201607190900 AAXX 19094 67665 42580 60812 10192 20045 48593 70322 86500
                   333 59008 86625=
201607190600 AAXX 19064 67665 32980 71104 10129 20060 48575 70221 87030
                   333 10//0 20//0 59007 87360=
201607181500 AAXX 18154 67665 42980 00808 10214 20056 48591 70200
                   333 58015=
201607181200 AAXX 18124 67665 42680 10909 10215 20131 48579 81100
                   333 58010 81845=
201607180900 AAXX 18094 67665 42580 41013 10156 20127 48601 84500
                   333 58009 84625=
201607180600 AAXX 18064 67665 32980 11305 10118 20069 48589 81030
                   333 58012 81360=
201607180000 AAXX 18004 67665 42980 00405 10104 20052 48568
                   333 58015=
201607172100 AAXX 17214 67665 42980 10605 10110 20060 48580 81030
                   333 58016 81360=
201607170900 AAXX 17094 67665 42580 10813 10203 20125 48594 81100
                   333 58010 81825 91027=
201607170600 AAXX 17064 67665 32980 61202 10123 20084 48577 86030
                   333 58023 86360=
201607170000 AAXX 17004 67665 42980 21403 10114 20085 48555 82030
                   333 58012 82360=
201607161800 AAXX 16184 67665 42980 20604 10141 20085 48557 82030
                   333 58007 82360=
201607161500 AAXX 16154 67665 42680 30708 10210 20126 48546 83100
                   333 58001 83850=
201607161200 AAXX 16124 67665 42680 41006 10214 20129 48549 84100
                   333 58000 84835=
201607160600 AAXX 16064 67665 32980 71204 10147 20102 48560 87030
                   333 10215 59009 87360=
201607160300 AAXX 16034 67665 42980 61104 10106 20066 48531 86030
                   333 59005 86360=
201607160000 AAXX 16004 67665 42980 21203 10108 20079 48544 82030
                   333 59005 82360=
201607152100 AAXX 15214 67665 42980 41106 10130 20093 48554 84030
                   333 59012 84360=
201607151800 AAXX 15184 67665 42980 51105 10143 20097 85030
                   333 59015 85360=
201607150900 AAXX 15094 67665 42480 20911 10197 20120 48576
                   333 82100 82818=
201607150600 AAXX 15064 67665 32980 41103 10116 20085 48564 70222 84030
                   333 10205 20//0 59012 84360=
201607150300 AAXX 15034 67665 42980 41002 10097 20076 48543 70222 84030
                   333 59016 84360=
201607150000 AAXX 15004 67665 42980 51103 10115 20086 48550 70122 85030
                   333 59012 85360=
201607141800 AAXX 14184 67665 42980 60904 10151 20104 70222 86030
                   333 59008 86359=
201607141500 AAXX 14154 67665 42680 61110 10178 20090=
201607141200 AAXX 14124 67665 42680 60912 10189 20107 48562 70222 86500
                   333 59016 86630=
201607140600 AAXX 14064 67665 32580 41304 10112 20085 48574 84500
                   333 59012 84620=
201607140300 AAXX 14034 67665 42980 01103 10057 20034 48552
                   333 59012=
201607140000 AAXX 14004 67665 42980 01003 10097 20076 48560
                   333 59016=
201607132100 AAXX 13214 67665 42980 60803 10126 20089 48573 86030
                   333 59014 86360=
201607131800 AAXX 13184 67665 42980 60903 10151 20100 48574 70122 86030
                   333 59012 86360=
201607131500 AAXX 13154 67665 42780 70905 10181 20102 48570 70222 87200
                   333 59010 87845=
201607131200 AAXX 13124 67665 42680 60506 10175 20105 48576 70222 86200
                   333 59009 86830=
201607130900 AAXX 13094 67665 42580 50917 10170 20128 48598 70222 85500
                   333 59007 85620=
201607130600 AAXX 13064 67665 32380 51005 10095 20080 48582 70222 85500
                   333 10200 59006 85607 555=
201607130300 AAXX 13034 67665 42980 01002 10062 20014 48563
                   333 59003 91026=
201607130000 AAXX 13004 67665 42980 00604 10065 20030 48569
                   333 59001 91026=
201607122100 AAXX 12214 67665 42980 00000 10084 20043 48579
                   333 59001 91027=
201607121800 AAXX 12184 67665 42980 30906 10115 20075 48581 83030
                   333 10184 59005 83360=
201607121500 AAXX 12154 67665 42680 61810 10179 20109 48550 86500
                   333 59011 86642=
201607121200 AAXX 12124 67665 42580 70916 10183 20104 48584 87500
                   333 59011 87628=
201607120900 AAXX 12094 67665 42480 71010 10157 20084 48603 70222 87500
                   333 59009 87615=
201607111800 AAXX 11184 67665 42980 51004 10131 20093 48587 85030
                   333 10196 59011 85360=
201607111200 AAXX 11124 67665 42680 70916 10177 20124 48595 70222 875//
                   333 59007 87632=
201607110900 AAXX 11094 67665 42580 60915 10171 20138 86500
                   333 59005 86625=
201607110600 AAXX 11064 67665 32380 61812 10114 20074 86500
                   333 10194 59003 86612=
201607100600 AAXX 10064 67665 42980 20917 10122 20073 48601 70300
                   333 10227 20/// 58007
                   555 00/// 91030=
201607092100 AAXX 09214 67665 42980 30803 10090 20049 48578 70300 83030
                   333 59010 83360=
201607090600 AAXX 09064 67665 32980 01003 10110 20071 48593 70200
                   333 10222 20//0 58000=
201607090300 AAXX 09034 67665 42980 00902 10080 20060 48576 70200
                   333 58003=
201607090000 AAXX 09004 67665 42980 00802 10093 20056 48581 70200
                   333 58009=
201607082100 AAXX 08214 67665 42980 01003 10096 20056 48592 70200
                   333 58015=
201607081800 AAXX 08184 67665 42980 00804 10124 20078 48595 70200
                   333 58030=
201607081500 AAXX 08154 67665 42980 10105 10195 20118 48597 70200
                   333 58028=
201607081200 AAXX 08124 67665 42680 10814 10207 20119 48596 70200 81100
                   333 58029 81840=
201607080600 AAXX 08064 67665 32980 11008 10123 20064 48595 81030
                   333 58030 81360=
201607080300 AAXX 08034 67665 42980 01303 10083 20040 48573
                   333 58022=
201607072100 AAXX 07214 67665 42980 01205 10120 20071 48581
                   333 58018=
201607071800 AAXX 07184 67665 42980 11302 10144 20078 48578 58020 81080=
201607071500 AAXX 07154 67665 42980 21009 10221 20090 48573 70100 80001
                   333 58015 82080=
201607070900 AAXX 07094 67665 42680 31810 10213 20149=
201607070300 AAXX 07034 67665 42980 01202 10068 20022 48552
                   333 58004 91024=
201607070000 AAXX 07004 67665 42980 00000 10092 20060 48553 70200
                   333 59006=
201607062100 AAXX 06214 67665 42980 01003 10105 20053 48570 70200
                   333 59007 91025=
201607061800 AAXX 06184 67665 42980 01106 10142 20062 48559
                   333 10234 59007=
201607061500 AAXX 06154 67665 42980 00907 10215 20092 48558
                   333 59007=
201607061200 AAXX 06124 67665 42680 20608 10209 20094 48567
                   333 59007 82840=
201607060900 AAXX 06094 67665 42580 30507 10182 20096 48586 70200 83101
                   333 59017 83825 81080=
201607060600 AAXX 06064 67665 32980 11203 10121 20073 48564 70300
                   333 10244 20//0 59019 81360=
201607051800 AAXX 05184 67665 42980 01003 10132 20052 48563
                   333 10244 59030=
201607051500 AAXX 05154 67665 42980 01009 10213 20073 48583=
201607051200 AAXX 05124 67665 42780 10809 10208 20091 48574 70200 81100
                   333 59026 81857=
201607050900 AAXX 05094 67665 42580 30517 10185 20116 48604 83100
                   333 59014 83828=
201607050600 AAXX 05064 67665 32980 01005 10102 20062 48584
                   333 59013=
201607050300 AAXX 05034 67665 42980 01206 10076 20042 48568
                   333 59015=
201607050000 AAXX 05004 67665 42980 01805 10088 20067 48574
                   333 59002=
201607042100 AAXX 04214 67665 42980 01805 10100 20060 48585
                   333 59002=
201607041800 AAXX 04184 67665 42980 10150 20095 48587 70120
                   333 58004 82360=
201607041200 AAXX 04124 67665 42680 70509 10205 20114 48595 70222
                   333 58004 87640=
201607040600 AAXX 04064 67665 42580 60906 10135 20092 48602 70300 86500
                   333 58009 86620=
201607031800 AAXX 03184 67665 42980 00906 10147 20102 48592
                   333 58030=
201607031500 AAXX 03154 67665 42980 00912 10215 20122 48591
                   333 58029=
201607030600 AAXX 03064 67665 32980 01010 10151 20097 48595 70200
                   333 10270 20//0 58023=
201607030300 AAXX 03034 67665 42980 01004 10112 20076 48568 70200
                   333 58017=
201607030000 AAXX 03004 67665 42980 00000 10110 20075 48559 70200
                   333 58003=
201607022100 AAXX 02214 67665 42980 01202 10138 20095 48567 70200
                   333 58002=
201607021800 AAXX 02184 67665 42980 01002 10159 20110 48565 70200
                   333 58004=
201607021500 AAXX 02154 67665 42980 20147 48566 70200
                   333 58002=
201607021200 AAXX 02124 67665 42980 00912 10266 20144 48573 70200
                   333 59001=
201607020900 AAXX 02094 67665 42980 00708 10233 20125 48592
                   333 59003=
201607020600 AAXX 02064 67665 32980 01302 10127 20068 48570
                   333 59006=
201607020300 AAXX 02034 67665 42980 01503 10087 20044 48549
                   333 59007=
201607020000 AAXX 02004 67665 42980 01603 10098 20045 48555
                   333 59008=
201607012100 AAXX 01214 67665 42980 01702 10119 20070 48563
                   333 59014=
201607011800 AAXX 01184 67665 42980 01302 10152 20094 48560 70200
                   333 10265 59014=
201607011500 AAXX 01154 67665 42980 01204 10241 20105 48564 70200
                   333 59013=
201607011200 AAXX 01124 67665 42980 09006 10249 20116 48571 70200
                   333 59013=
201607010900 AAXX 01094 67665 42980 00908 10207 20133 48592 70200
                   333 59012=
201607010600 AAXX 01064 67665 32980 01402 10115 20043 48574 70300
                   333 10275 58000 555 00///=

################################################################################
#  SYNOPS from 67666, Lusaka City Airport (Zambia) | 15-25-00S | 028-28-00E | 1280 m
################################################################################
201607280600 AAXX 28064 67666 31980 31001 10180 20117 48533 83030
                   333 10270 20162 58000 83360 91020=
201607260600 AAXX 26064 67666 31975 01008 10170 20120 48531 70500
                   333 10258 20159 58000 91020=
201607200600 AAXX 20064 67666 32980 01207 10134 20084 48573
                   333 10218 20106 59005 91026=
201607190600 AAXX 19064 67666 32980 61205 10133 20066 48578 70222 86030
                   333 10223 20085 59007 86359 91026=
201607140600 AAXX 14064 67666 32480 31305 10127 20086 48572 70300 81530
                   333 10192 20084 59013 81615 83362 91025=
201607130600 AAXX 13064 67666 32580 30910 10118 20091 48583 70300 83800
                   333 10191 20092 59003 83620 91027=
201607120600 AAXX 12064 67666 32480 71209 10113 20085 48578 877//
                   333 10189 20077 59009 86709 91027=
201607070600 AAXX 07064 67666 32980 51105 10148 20081 48568 70322 80002
                   333 10253 20148 58003 85080 91025=

################################################################################
#  SYNOPS from 67667, Mount Makulu (Zambia) | 15-33S | 028-15E | 1213 m
################################################################################
201607280600 AAXX 28064 67667 NIL=
201607260600 AAXX 26064 67667 NIL=
201607200600 AAXX 20064 67667 32980 10900 10144 20085 81030
                   333 10215 20041 59004 81360=
201607190600 AAXX 19064 67667 32980 40000 10142 20065 84030
                   333 10220 20041 59009 84360=
201607180600 AAXX 18064 67667 32980 00000 10152 20055
                   333 10222 20088 58009=
201607140600 AAXX 14064 67667 32580 10900 10130 20094 81501
                   333 10200 20075 59014 81625 81080=
201607130600 AAXX 13064 67667 32580 30901 10136 20095 83500
                   333 10200 20060 59006 83525=
201607120600 AAXX 12064 67667 32580 20903 10130 20101 82501
                   333 10198 20072 59006 82625 81080=
201607070600 AAXX 07064 67667 32980 40000 10156 20090 80002
                   333 10224 20056 58001 84080=

################################################################################
#  SYNOPS from 67673, Petauke (Zambia) | 14-15S | 031-17E | 1035 m
################################################################################
201607280600 AAXX 28064 67673 NIL=
201607260600 AAXX 26064 67673 NIL=
201607200600 AAXX 20064 67673 32580 71004 10160 20116 48565 81531
                   333 10/// 20115 59009 81620 86360 81080=
201607190600 AAXX 19064 67673 32680 71303 10155 20100 48571 8113/
                   333 10/// 20120 59026 81830 87360=
201607180600 AAXX 18064 67673 32984 50902 10180 20079 48602 85030
                   333 10//0 20130 58010 85360=
201607130600 AAXX 13064 67673 32584 30904 10165 20098 48597 83100
                   333 10/// 20120 58010 83820=
201607120600 AAXX 12064 67673 32480 71303 10140 20104 48582 877//
                   333 10/// 20115 59001=

################################################################################
#  SYNOPS from 67731, Senanga (Zambia) | 16-06S | 023-16E | 1027 m
################################################################################
201607280600 AAXX 28064 67731 NIL=
201607260600 AAXX 26064 67731 NIL=
201607250600 AAXX 25064 67731 32980 032// 10153 20065 48///
                   333 10292 20093 59015=
201607200600 AAXX 20064 67731 32980 016// 10129 20043 48///
                   333 10248 20062 59010=
201607190600 AAXX 19064 67731 32980 017// 10136 20036 48///
                   333 10243 20073 58009=
201607180600 AAXX 18064 67731 32980 018// 10135 20071 48///
                   333 10222 20092 58006=
201607130600 AAXX 13064 67731 32980 115// 10142 20085 48/// 70200 81020
                   333 10219 20082 59010 81462=

################################################################################
#  SYNOPS from 67741, Sesheke (Zambia) | 17-28S | 024-18E | 949 m
################################################################################
201607280600 AAXX 28064 67741 32980 00000 10094 20020 48521
                   333 10308 20047 58010=
201607260600 AAXX 26064 67741 NIL=
201607250600 AAXX 25064 67741 32980 03603 10186 20065 48514
                   333 10306 20062 59101=
201607200600 AAXX 20064 67741 32980 00000 10089 20049 48567
                   333 10236 20008 59010=
201607190600 AAXX 19064 67741 32980 10801 10108 20065 48580 81030
                   333 10245 20019 58001 81362=
201607180600 AAXX 18064 67741 32980 00901 10114 20073 48580
                   333 10250 20030 5////=
201607140600 AAXX 14064 67741 32980 00901 10128 20077 48566
                   333 10225 20053 59021=
201607130600 AAXX 13064 67741 32980 21201 10122 20070 48582 82040
                   333 10233 20038 59011 82362=
201607120600 AAXX 12064 67741 32980 11001 10093 20076 48585 81030
                   333 10227 20020 59012 81362=

################################################################################
#  SYNOPS from 67743, Livingstone (Zambia) | 17-49S | 025-49E | 985 m
################################################################################
201607280600 AAXX 28064 67743 NIL=
201607260600 AAXX 26064 67743 NIL=
201607200600 AAXX 20064 67743 NIL=

################################################################################
#  SYNOPS from 67751, Magoye (Zambia) | 16-00S | 027-36E | 1018 m
################################################################################
201607280600 AAXX 28064 67751 NIL=
201607260600 AAXX 26064 67751 NIL=
201607250600 AAXX 25064 67751 32980 00000 10159 20079
                   333 10/// 20090 5////=
201607200600 AAXX 20064 67751 NIL=
201607180600 AAXX 18064 67751 32980 01504 10144 20060
                   333 10//0 20069 5////=
201607140600 AAXX 14064 67751 32980 01202 10141 20089
                   333 10/// 20056 5////=
201607120600 AAXX 12064 67751 32980 30404 10155 20090 70200 83030
                   333 10/// 20059 5//// 83360=
201607070600 AAXX 07064 67751 32980 10000 10130 20078 80001
                   333 10/// 20050 59003 81080=

################################################################################
#  SYNOPS from 67753, Choma (Zambia) | 16-50S | 027-04E | 1213 m
################################################################################
201607280600 AAXX 28064 67753 31960 00000 10143 20113 48/// 70500
                   333 10285 20105 5////=
201607270600 AAXX 27064 67753 31960 60000 10170 20133 48526 70500 86030
                   333 10284 20149 58007=
201607260600 AAXX 26064 67753 31960 00000 10126 20093 48513 70500
                   333 10272 20093 5////=
201607200600 AAXX 20064 67753 31960 01804 10114 20036 48569 70500
                   333 10211 20027 59015=
201607190600 AAXX 19064 67753 31960 11006 10121 20056 48579 70500 81031
                   333 10215 20041 5//// 81360 81080=
201607140600 AAXX 14064 67753 31960 60814 10135 20089 48/// 70500 86050
                   333 10203 20083 5////=
201607130600 AAXX 13064 67753 31560 60806 10118 20092 48579 70500 84530
                   333 10200 20077 59010=
201607120600 AAXX 12064 67753 31960 11006 10121 20073 48589 70500 81030
                   333 10192 20081 5////=
201607070600 AAXX 07064 67753 31960 10000 10121 20079 48560 70500 80001
                   333 10234 20050 59002=

################################################################################
#  SYNOPS from 67855, Lupaki (Zambia) | 17-03-00S | 024-46-00E | 1000 m
################################################################################
201607310600 AAXX 31064 67855 NIL=
201607301200 AAXX 30124 67855 NIL=
201607300600 AAXX 30064 67855 31970 01901 10050 21094 3//// 48/// 70500
                   333 20000 5////=
201607291800 AAXX 29184 67855 NIL=
201607291200 AAXX 29124 67855 NIL=
201607290600 AAXX 29064 67855 31970 00000 10062 21033 38/// 48/// 70500
                   333 20034 5////=
201607281800 AAXX 28184 67855 NIL=
201607281200 AAXX 28124 67855 NIL=
201607280600 AAXX 28064 67855 31970 02501 10090 20041 3//// 48/// 70500
                   333 20065 5////=
201607271200 AAXX 27124 67855 41670 13203 10286 20095 3//// 48/// 70511 81500
                   333 5//// 81640=
201607270600 AAXX 27064 67855 31970 60000 10130 20083 3//// 48/// 70522 86030
                   333 20097 5//// 86360=
201607261200 AAXX 26124 67855 41970 03603 10292 20099 3//// 48/// 70500
                   333 5////=
201607260600 AAXX 26064 67855 31970 30000 10096 20058 3//// 48/// 70500 83030
                   333 20079 5//// 83360=
201607251200 AAXX 25124 67855 NIL=
201607241200 AAXX 24124 67855 41970 00302 10288 20025 3//// 48/// 70500
                   333 5////=
201607240600 AAXX 24064 67855 NIL=
201607231200 AAXX 23124 67855 41970 03001 10290 21005 3//// 48/// 70500
                   333 5////=
201607230600 AAXX 23064 67855 31970 00000 10056 21048 3//// 48/// 70500
                   333 20011 5////=
201607210600 AAXX 21064 67855 NIL=
201607201800 AAXX 20184 67855 NIL=
201607201200 AAXX 20124 67855 41970 00102 10246 21015 3//// 48/// 70500
                   333 5////=
201607200600 AAXX 20064 67855 31970 01801 10052 21020 3//// 48/// 70500
                   333 20014 5////=
201607190600 AAXX 19064 67855 31970 01601 10050 20013 3//// 48/// 70500
                   333 20010 5////=
201607170600 AAXX 17064 67855 32975 70000 10078 20025 3//// 48/// 8707/
                   333 20042 5//// 87360=
201607161200 AAXX 16124 67855 42975 11804 10238 20039 3//// 48/// 81030
                   333 5//// 81360=
201607140600 AAXX 14064 67855 32975 71301 10122 20071 3//// 48/// 8707/
                   333 20075 5//// 87360=
201607131800 AAXX 13184 67855 NIL=
201607111800 AAXX 11184 67855 NIL=
201607111200 AAXX 11124 67855 42675 41003 10236 20063 3//// 48/// 84100
                   333 5//// 84835=
201607110600 AAXX 11064 67855 31970 01801 10070 20047 3//// 48/// 70500
                   333 20039 5////=
201607101800 AAXX 10184 67855 NIL=
201607080600 AAXX 08064 67855 31970 01101 10092 20075 3//// 48/// 70500
                   333 20059 5////=
201607071200 AAXX 07124 67855 41970 10307 10264 20018 3//// 48/// 70500 81030
                   333 5//// 81360=
201607061800 AAXX 06184 67855 NIL=
201607061200 AAXX 06124 67855 41970 00601 10240 20071 3//// 48/// 70500
                   333 5////=
201607060600 AAXX 06064 67855 21970 00000 10064 20045 3//// 48/// 70500
                   333 20028 5////=
201607051800 AAXX 05184 67855 NIL=
201607051200 AAXX 05124 67855 41670 30302 10230 20063 3//// 48/// 70500 83100
                   333 5//// 83835=
201607050600 AAXX 05064 67855 31970 01401 10064 20038 3//// 48/// 70500
                   333 20030 5////=
201607041800 AAXX 04184 67855 NIL=
201607041200 AAXX 04124 67855 42675 60000 10206 20103 3//// 48/// 83130
                   555 83830 86360=
201607040600 AAXX 04064 67855 31970 00000 10060 20041 3//// 48/// 70500
                   333 20035 5////=
201607031200 AAXX 03124 67855 41670 10605 10248 20089 3//// 48/// 70500 81100
                   333 5//// 81835=
201607030600 AAXX 03064 67855 31970 00607 10148 20092 3//// 48/// 70500
                   333 20094 5////=
201607021800 AAXX 02184 67855 NIL=
201607021200 AAXX 02124 67855 41970 01509 10296 20024 3//// 48/// 70500
                   333 5////=
201607020600 AAXX 02064 67855 31970 00000 10082 20042 3//// 48/// 70500
                   333 20044 5////=
201607011800 AAXX 01184 67855 NIL=
201607011200 AAXX 01124 67855 42975 02002 10272 20046 3//// 48///
                   333 5////=
201607010600 AAXX 01064 67855 31970 00000 10074 20048 3//// 48/// 70500
                   333 20051 5////=
