################################################################################
# Query made at 04/15/2022 02:00:06 UTC
# Country like Zamb*
# Time interval: from 03/01/2009 05:30  to 03/31/2009 06:30  UTC
################################################################################

################################################################################
#  SYNOPS from 67413, Mbala (Zambia) | 08-51S | 031-20E | 1673 m
################################################################################
200903040600 AAXX 04064 67413 12580 50505 10200 20152 48532 60064 82201
                   333 10270 20170 58005 82820 83080=

################################################################################
#  SYNOPS from 67441, Mwinilunga (Zambia) | 11-45S | 024-26E | 1361 m
################################################################################
200903310600 AAXX 31064 67441 32482 70000 10190 20182 48524 8113/
                   333 10295 20155 59010 81818 87360=
200903260600 AAXX 26064 67441 12480 70000 10185 20169 48547 69904 81130
                   333 10275 20168 58003 81818 87360=
200903240600 AAXX 24064 67441 32482 10000 10200 20177 48535 81140
                   333 10275 20160 5//// 81818 81360=
200903230600 AAXX 23064 67441 12480 30000 10182 20179 48/// 69904 81130
                   333 10260 20155 5/// 81818 83360=
200903190900 AAXX 19094 67441 42580 70000 10235 20182 48537 8113/
                   333 5//// 81825 87360=
200903190600 AAXX 19064 67441 12980 70000 10180 20172 48537 60024 8707/
                   333 10258 20/// 5//// 87360=
200903170600 AAXX 17064 67441 12380 83603 10185 20180 48/// 60014 886//
                   333 10252 20170 5//// 88709=
200903130600 AAXX 13064 67441 12980 70000 10180 20175 48532 60294 8707/
                   333 10292 20160 58002 87360=
200903030900 AAXX 03094 67441 42682 70000 10260 20194 48557 81260
                   333 59006 81835 87360=
200903030600 AAXX 03064 67441 11480 60000 10200 20185 48541 60014 72840 81130
                   333 10295 20170 59001 81816 86360=
200903020600 AAXX 02064 67441 12980 70000 10183 20178 48551 60014 8703/
                   333 10265 20152 59009 87360=

################################################################################
#  SYNOPS from 67461, Mansa (Zambia) | 11-06S | 028-51E | 1382 m
################################################################################
200903310600 AAXX 31064 67461 32980 61404 10200 20184 48500 820038
                   333 10290 20166 58005 82362 86280 Q1016.7=
200903300600 AAXX 30064 67461 12580 61204 10206 20188 48510 60024 82538
                   333 10287 20172 58004 82620 82362 86280=
200903260600 AAXX 26064 67461 12580 50906 10204 20181 48516 60104 85570
                   333 10206 20098 58005 85620 81361=
200903191200 AAXX 19124 67461 42580 72802 10265 20184 48477 84208
                   333 58024 84830 87280=
200903190600 AAXX 19064 67461 12580 70000 10205 20154 48506 60014 8257/
                   333 10282 20172 59013 82620 87461=
200903170600 AAXX 17064 67461 12580 73103 10200 20186 48500 60254 82532
                   333 10284 20166 58007 82620 84362 83080=
200903030600 AAXX 03064 67461 32580 70000 10198 20190 48520 82538
                   333 10296 20152 59010 82620 84361 87280=
200903020600 AAXX 02064 67461 12680 80000 10222 20186 48527 60014 8257/
                   333 10258 20175 59004 82624 88461=

################################################################################
#  SYNOPS from 67475, Kasama (Zambia) | 10-13S | 031-08E | 1382 m
################################################################################
200903310600 AAXX 31064 67475 32480 71205 10202 20182 48496 8553/
                   333 10290 20172 59012 85618 86360 Q117.5=
200903260600 AAXX 26064 67475 32580 61210 10204 20182 48523 86530
                   333 10260 20156 59001 86625 83360=
200903170600 AAXX 17064 67475 11480 70108 10191 20185 48505 60114 72842 8657/
                   333 10300 20166 58001 86610 87460=
200903161200 AAXX 16124 67475 42780 50904 10264 20173 48472 85202
                   333 59021 81950 85080=
200903030600 AAXX 03064 67475 32480 40905 10227 20188 48520 81102
                   333 10276 20169 59016 81810 84080=
200903020600 AAXX 02064 67475 12480 70000 10187 20170 48524 60244 8267/
                   333 10274 20155 58001 82709 87460=

################################################################################
#  SYNOPS from 67477, Mpika (Zambia) | 11-54S | 031-26E | 1400 m
################################################################################
200903300900 AAXX 30094 67477 42580 50907 10230 20175 48509 85131
                   333 58000 85823 81362 81080=
200903260900 AAXX 26094 67477 42480 41207 10210 20162 48524 84100
                   333 58006 84818=
200903260600 AAXX 26064 67477 12380 70908 10175 20247 48527 69904 876//
                   333 10235 20159 58006 87708=
200903240600 AAXX 24064 67477 12380 71004 10180 20171 48512 60074 8573/
                   333 10238 20163 59002 85706 86361=
200903190900 AAXX 19094 67477 41580 72603 10245 20177 48506 70264 81231
                   333 58002 81823 86361 81080=
200903190600 AAXX 19064 67477 11480 70000 10250 20191 48518 60064 8457/
                   333 10299 20170 58004 84620 87460=
200903180600 AAXX 18064 67477 11380 73002 10189 20178 48511 60114 70262 8157/
                   333 10264 20182 58015 81608 87360=
200903170600 AAXX 17064 67477 12480 61402 10191 20180 48496 60074 81181
                   333 10260 20169 59005 81814 86361 81080=
200903030600 AAXX 03064 67477 32480 31302 10221 20188 48521 81181
                   333 10275 20170 59016 81817 81361 81080=
200903020600 AAXX 02064 67477 11980 80000 10180 20171 48533 60014 76066 8807/
                   333 10268 20165 58001 82709 87460=

################################################################################
#  SYNOPS from 67531, Zambezi (Zambia) | 13-32S | 023-07E | 1077 m
################################################################################
200903310600 AAXX 31064 67531 32980 11307 10215 20170 48/// 80002
                   333 10310 20147 5//// 81082=
200903260600 AAXX 26064 67531 32980 40907 10218 20165 48/// 80001
                   333 10301 20170 5//// 84082=
200903190600 AAXX 19064 67531 12380 33608 10206 20188 48/// 60114 81630
                   333 10225 20172 5//// 81708 83362=
200903171200 AAXX 17124 67531 41580 73308 10252 20196 48/// 71582 87882
                   333 5//// 85825 82625 83360 81080=
200903170600 AAXX 17064 67531 12480 70404 10225 20195 48/// 69904 83530
                   333 10277 20185 5//// 83615 83362=
200903040900 AAXX 04094 67531 42480 70000 10231 20193 48/// 8787/
                   333 58011 83814 84614 87460=
200903030900 AAXX 03094 67531 41380 70401 10201 20187 48/// 71799 8277/
                   333 59001 82707 819// 87460=
200903030600 AAXX 03064 67531 11365 80000 10197 20194 48/// 69904 79599 8477/
                   333 10311 20195 84706 819// 88459=
200903020600 AAXX 02064 67531 11980 80000 10180 20171 48533 60014 76066 8807/
                   333 10246 20186 59010 87460=

################################################################################
#  SYNOPS from 67551, Solwezi (Zambia) | 12-11S | 026-23E | 1386 m
################################################################################
200903240600 AAXX 24064 67551 12480 71102 10190 20169 48503 69904 81130
                   333 10268 20165 59008 81810 87362=
200903230600 AAXX 23064 67551 12480 71604 10180 20172 48510 60064 8353/
                   333 10265 20160 59011 83610 87360=
200903190600 AAXX 19064 67551 12980 73004 10185 20177 48502 60064 87031
                   333 10252 20165 58006 87362=
200903111200 AAXX 11124 67551 41680 70706 10220 20183 48495 71792 87200
                   333 59010 81940 87840=
200903032100 AAXX 03214 67551 60000 10/// 20/// 48/// 81932
                   333 59004 81950 85360 87080=
200903031200 AAXX 03124 67551 42680 60203 10285 20172 48503 86200
                   333 59004 86835 91016=
200903030600 AAXX 03064 67551 12980 40000 10190 20174 48510 60054 80001
                   333 10294 20160 59016 84080=

################################################################################
#  SYNOPS from 67561, Ndola (Zambia) | 13-00S | 028-39E | 1269 m
################################################################################
200903260600 AAXX 26064 67561 32980 12204 10190 20152 48533 10275 20145 58000 81080=
200903190600 AAXX 19064 67561 11360 71506 10185 20177 48511 60094 70522 82638
                   333 10269 20170 58018 82709 86359 86280=
200903170600 AAXX 17064 67561 11220 80000 10189 20184 48495 60354 76166 8777/
                   333 10246 20181 59007 87704 88459=
200903050600 AAXX 05064 67561 11475 70000 10194 20186 48527 60014 70522 83538
                   333 10274 20166 59010 86359 87280=
200903040900 AAXX 04094 67561 41575 79304 10229 20192 48527 72162 8623/
                   333 5008 86820 87361=
200903030600 AAXX 03064 67561 11370 70000 10196 20182 48524 60084 70562 81630
                   333 10294 20174 59005 81708 87360=
200903020600 AAXX 02064 67561 11360 70000 10188 20177 48528 60024 70522 83638
                   333 1028/ 20175 59004 83707 85360 86280=

################################################################################
#  SYNOPS from 67563, Kafironda (Zambia) | 12-36S | 028-07E | 1243 m
################################################################################
200903230900 AAXX 23094 67563 42580 60904 10249 20170 48/// 86500
                   333 59009 86625=

################################################################################
#  SYNOPS from 67580, Msekera (Zambia) | 13-39S | 032-34E | 1025 m
################################################################################
200903310600 AAXX 31064 67580 12480 61201 10217 20192 48/// 60114 81528
                   333 10302 20189 59009 81616 85360 82280=
200903300900 AAXX 30094 67580 42680 51208 10270 20182 48/// 85201
                   333 5//// 85838 81080=
200903251200 AAXX 25124 67580 42680 70000 10247 20174 48/// 878//
                   333 58013 84840 87645=
200903250900 AAXX 25094 67580 42680 80906 10222 20161 48/// 885//
                   333 58015 88636=
200903230900 AAXX 23094 67580 41480 81203 10202 10181 48/// 70522 8357/
                   333 58004 83615 87360=
200903230600 AAXX 23064 67580 12380 71303 10193 20161 48/// 60064 8257/
                   333 10247 20174 59006 82610 87360=
200903190900 AAXX 19094 67580 42580 70000 10228 20199 48/// 8117/
                   333 58003 81828 87460=
200903180600 AAXX 18064 67580 32580 70305 10219 20188 48/// 8703/
                   333 10289 20185 58010 87360=
200903111200 AAXX 11124 67580 41680 72704 10267 20198 48/// 71782 84238
                   333 59009 81940 83845 81362 86280=
200903040900 AAXX 04094 67580 41480 82402 10235 20209 48/// 76165 8477/
                   333 58008 81910 84710 87360=
200903040600 AAXX 04064 67580 11480 71502 10221 20205 48/// 69904 76162 8463/
                   333 10287 20198 59005 84709 87360=
200903031200 AAXX 03124 67580 41675 70000 10264 20216 48/// 71592 81938
                   333 58011 81945 82850 81360 87280=
200903030600 AAXX 03064 67580 32980 40000 10238 20198 48/// 82031
                   333 10276 20197 59008 82361 82080=

################################################################################
#  SYNOPS from 67581, Chipata (Zambia) | 13-33S | 032-35E | 1028 m
################################################################################
200903310600 AAXX 31064 67581 12680 51803 10223 20198 48514 60464 83131
                   333 10265 20193 599007 83830 82360 81080 Q1016.6=
200903260600 AAXX 26064 67581 32982 41806 10212 20132 48538 84030
                   333 10259 20160 58000 84360=
200903230600 AAXX 23064 67581 12480 71606 10199 20186 48531 60204 8277/
                   333 10260 20180 59004 82710 87459=
200903190600 AAXX 19064 67581 12480 80000 10207 20189 48510 60374 8177/
                   333 10282 20184 59001 81710 88459=
200903180600 AAXX 18064 67581 32580 80403 10220 20190 48513 8217/
                   333 10286 20185 58012 82825 87460=
200903170600 AAXX 17064 67581 12982 70000 10219 20196 48508 60594 8707/
                   333 10296 20185 59008 87460=
200903030600 AAXX 03064 67581 12580 42603 10238 20196 48533 60404 81130
                   333 10282 20192 59011 81325 83360=
200903020600 AAXX 02064 67581 12584 80000 10210 20186 48538 60034 8117/
                   333 10298 20188 58004 81825 88460=

################################################################################
#  SYNOPS from 67583, Lundazi (Zambia) | 12-17S | 033-12E | 1143 m
################################################################################
200903300900 AAXX 30094 67583 42680 61204 10273 20182 48/// 85201
                   333 5//// 84833 82080=
200903300600 AAXX 30064 67583 32480 71603 10243 20196 48/// 83538
                   333 10291 20177 5//// 84623 82360 86280=
200903230900 AAXX 23094 67583 42480 80301 10227 20184 48/// 85507
                   333 5//// 85620 8820=
200903030600 AAXX 03064 67583 32980 71202 10218 20184 48/// 81037
                   333 10291 20169 5//// 81360 87280=

################################################################################
#  SYNOPS from 67599, Mfuwe (Zambia) | 13-16S | 031-56E | 568 m
################################################################################
200903300900 AAXX 30094 67599 42580 41904 10283 20211 48542 84200
                   333 58005 84830=
200903300600 AAXX 30064 67599 32980 21903 10235 20213 48528 82071
                   333 10325 20//0 58000 82460 81080=
200903260900 AAXX 26094 67599 42580 30000 10272 20188 48557 81131
                   333 59004 81825 82360 81080=
200903251500 AAXX 25154 67599 42680 30000 10286 20213 48521 81930
                   333 58009 81940 83360=
200903251200 AAXX 25124 67599 42680 62006 10286 20213 48533 83230
                   333 58009 81940 83845 85360=
200903240600 AAXX 24064 67599 12460 71904 10226 20214 48528 69904 85171
                   333 10269 20/// 59004 82810 85460 84080=
200903230900 AAXX 23094 67599 42360 80000 10230 20208 48535 878//
                   333 58000 86610 88815=
200903230600 AAXX 23064 67599 11259 80000 10212 20202 48529 60554 72052 8857/
                   333 10275 20//0 59007 85606 88460=
200903211200 AAXX 21124 67599 42480 71606 10255 20227 48513 70256 878//
                   333 58034 87515 819// Q1014.7=
200903201500 AAXX 20154 67599 41680 83406 10290 20234 48505 71799 82937
                   333 58008 82945 85360 88280=
200903201200 AAXX 20124 67599 41780 53504 10325 20234 48505 71792 82932
                   333 59022 82950 82850 82360 85080=
200903191200 AAXX 19124 67599 42459 80305 10257 20226 48506 8427/
                   333 58010 84812 88460=
200903180600 AAXX 18064 67599 11359 80000 10225 20216 48475 60324 72052 846//
                   333 10340 20/// 58008 84705 88610=
200903171500 AAXX 17154 67599 41580 63005 10280 20231 48487 71792 8197/
                   333 58000 81925 83825 86460=
200903171200 AAXX 17124 67599 42580 60605 10285 20229 48492 85200
                   333 59005 85825=
200903161200 AAXX 16124 67599 42580 62805 10310 20226 48505 86200
                   333 59021 86828=
200903160600 AAXX 16064 67599 12980 70000 10235 20221 48520 60234 70252 8707/
                   333 10315 20//0 59015 87460
                   555 00/// 20018 Q1018 Q1016.2=
200903130600 AAXX 13064 67599 12980 70000 10252 20219 48533 69904 84032
                   333 10340 20//0 58002 84360 86080 Q1016.5=
200903111500 AAXX 11154 67599 42580 42205 10325 20228 48508 70222 81900
                   333 59028 81928 84830=
200903100600 AAXX 10064 67599 12480 60000 10246 20217 48544 69904 81131
                   333 10312 20//0 59013 81812 81360 86080=
200903050600 AAXX 05064 67599 32370 80000 10221 20212 48534 8657/
                   333 10300 20//0 58006 86607 88460=
200903041200 AAXX 04124 67599 42570 72807 10282 20231 48524 71722 8297/
                   333 58019 829// 86825 87460=
200903040900 AAXX 04094 67599 42570 73304 10266 20213 48533 8317/
                   333 58009 819// 83813 87460=
200903040600 AAXX 04064 67599 32470 80000 10250 20227 48539 71522 8117/
                   333 10350 20/// 58000 81812 88460=
200903030600 AAXX 03064 67599 32470 20000 10250 20222 48539 82100
                   333 10314 20/// 59017 82812=
200903020600 AAXX 02064 67599 32380 70000 10225 20211 48544 8477/
                   333 10326 20//0 58005 84709 87460=

################################################################################
#  SYNOPS from 67633, Mongu (Zambia) | 15-15S | 023-09E | 1052 m
################################################################################
200903310600 AAXX 31064 67633 32982 10910 10228 20172 48506 70100 81030
                   333 10314 20185 59008 81361 Q116.6=
200903300900 AAXX 30094 67633 42782 31012 10288 20154 48529 83100 58001 83850=
200903300600 AAXX 30064 67633 32482 11308 10213 20151 48512 81030
                   333 10321 20157 58002 81361=
200903260900 AAXX 26094 67633 42982 50904 10270 20101 48534 80002
                   333 58003 85080=
200903260600 AAXX 26064 67633 32982 50910 10210 20135 48525 80002
                   333 10310 20164 58001 85080=
200903240600 AAXX 24064 67633 32982 10908 10207 20163 48512 81030
                   333 10285 20154 59004 81361=
200903230900 AAXX 23094 67633 42680 30903 10265 20146 48527 83200
                   333 59007 83830=
200903190600 AAXX 19064 67633 12982 51803 10234 20194 48492 60044 83032
                   333 10267 20186 58005 83361 85080=
200903180600 AAXX 18064 67633 11675 70205 10188 20180 48480 60384 79599 8193/
                   333 10276 20187 58003 81930 87360=
200903170600 AAXX 17064 67633 12582 71002 10210 20195 48481 60154 875//
                   333 10268 20189 59013 86830 85360=
200903040900 AAXX 04094 67633 42682 71804 10240 20198 48529 8458/
                   333 58016 84630 87360=
200903040600 AAXX 04064 67633 11982 70000 10200 20198 48519 60144 76066 8708/
                   333 10299 20200 58016 87360=
200903031200 AAXX 03124 67633 42680 73104 10262 20198 48508 84238
                   333 58002 81940 83360 86280=
200903030900 AAXX 03094 67633 42682 63606 10281 20203 48520 84238
                   333 59011 84840 82361 85280=
200903030600 AAXX 03064 67633 11982 70206 10228 20198 48506 69904 71562 8708/
                   333 10296 20213 59004 87360=
200903020600 AAXX 02064 67633 12982 30902 10225 20196 48520 69904 83032
                   333 10280 20189 59001 83361 83080=

################################################################################
#  SYNOPS from 67641, Kaoma (Zambia) | 14-48S | 024-48E | 1213 m
################################################################################
200903190600 AAXX 19064 67641 12682 52601 10191 20179 48484 69924 85500
                   333 10281 20181 58011 85630=
200903170600 AAXX 17064 67641 11682 80601 10204 20197 48476 60094 75055 8653/
                   333 10268 20189 59013 86830 85360=

################################################################################
#  SYNOPS from 67655, Mumbwa (Zambia) | 15-04S | 027-11E | 1216 m
################################################################################
200903230600 AAXX 23064 67655 11370 80903 10189 20183 48525 60034 71042 8177/
                   333 10255 20154 59011 81709 88356=
200903180600 AAXX 18064 67655 12380 63208 10203 20187 48483 60024 85688
                   333 10275 20180 59002 85710 82358 86276=
200903130600 AAXX 13064 67655 32780 80902 10195 20183 48512 8802/
                   333 10287 20175 58004 88456 Q1019.0=
200903030600 AAXX 03064 67655 12480 60805 10210 20188 48535 60064 865//
                   333 10235 20/// 59006 86610=

################################################################################
#  SYNOPS from 67663, Kabwe (Zambia) | 14-27S | 028-28E | 1206 m
################################################################################
200903230600 AAXX 23064 67663 11480 70902 10189 20178 48493 60994 72842 8353/
                   333 10232 20159 59013 83610 87360=
200903170600 AAXX 17064 67663 11375 70405 10187 20184 48474 60104 76166 85770
                   333 10232 20181 59018 85707 87460=
200903030600 AAXX 03064 67663 12480 70201 10204 20182 48501 69904 8453/
                   333 10276 20181 59010 84610 86360=
200903020600 AAXX 02064 67663 12980 70803 10205 20198 48526 60104 8707/
                   333 10240 20189 59010 87430=

################################################################################
#  SYNOPS from 67665, Lusaka Internationalairport (Zambia) | 15-19S | 028-27E | 1152 m
################################################################################
200903310600 AAXX 31064 67665 32580 31007 10204 20191 48520 83800
                   333 10281 20166 59007 83620 82821 Q1019.0 NOSIG=
200903301200 AAXX 30124 67665 42680 61009 10275 20171 48517 86200
                   333 59001 86835 Q117.5=
200903300900 AAXX 30094 67665 42680 51009 10250 20181 48535 85800
                   333 59006 85830 81632=
200903300600 AAXX 30064 67665 32480 11003 10200 20177 48527 81530
                   333 10271 20150 59003 81610 81360=
200903300400 AAXX 30044 67665 42380 4//// 10//0 20//0 48/// 82530
                   333 59001 82604 82360=
200903300300 AAXX 30034 67665 426980 1//// 10//0 20//0 48/// 81030
                   333 59001 81360=
200903300000 AAXX 30004 67665 42980 0//// 10//0 20//0 48/// 81030
                   333 59008 81360=
200903292100 AAXX 29214 67665 42680 0//// 10//0 20//0 48///
                   333 59001=
200903291800 AAXX 29184 67665 42680 1//// 10//0 20//0 48/// 81030
                   333 10271 59001 81360=
200903291500 AAXX 29154 67665 42680 30809 10250 20137 48513 83230
                   333 59001 83845 81360=
200903291200 AAXX 29124 67665 42680 51112 10262 20146 48521 85200
                   333 58000 85832=
200903290600 AAXX 29064 67665 32980 10905 10185 20154 48528 81030
                   333 10269 20136 59008 81360 Q1020.1=
200903281200 AAXX 28124 67665 42680 40908 10259 20149 48521 83201 33 59002 83838 83080
                   Q1018.3=
200903280900 AAXX 28094 67665 42580 50909 10233 20148 48540 81102
                   333 59005 82825 85080 Q1020.9=
200903280600 AAXX 28064 67665 32980 50804 10164 20149 48532 80002
                   333 10276 20130 58000 85080
                   555 00/// Q1021.0=
200903280400 AAXX 28044 67665 42980 60000 10130 20114 48518 80001
                   333 58001 86280=
200903280300 AAXX 28034 67665 42980 0//// 10//0 48///
                   333 59003=
200903280000 AAXX 28004 67665 42980 0//// 10//0 20//0 48///
                   333 59012=
200903272100 AAXX 27214 67665 42980 00000 10160 20//0 48527
                   333 59001=
200903271800 AAXX 27184 67665 42980 3//// 10//0 20//0 48/// 81032
                   333 10272 59001 81360 82080=
200903271500 AAXX 27154 67665 42780 40605 10212 20155 48512 81102
                   333 59001 81850 83080
                   555 10272=
200903271200 AAXX 27124 67665 42680 40807 10258 20119 48523 81102
                   333 59006 81840 83080 Q1018.6=
200903270600 AAXX 27064 67665 32980 50805 10183 20136 48534 85001
                   333 10267 20124 59008 85080=
200903262100 AAXX 26214 67665 42980 13508 10253 20/// 48527 70200 8000/
                   333 58001 81080 Q1020.6=
200903261800 AAXX 26184 67665 42980 21604 10170 20//0 48520 80001
                   333 58004 82080=
200903261200 AAXX 26124 67665 42680 20807 10250 20131 48529 82100
                   333 59002 82837=
200903260900 AAXX 26094 67665 42580 20908 10226 20136 48550 82100
                   333 59001 82825=
200903260600 AAXX 26064 67665 32980 31104 10168 20148 48541 80001
                   333 10260 20134 58003 83080=
200903260400 AAXX 26044 67665 42980 31402 10140 20136 48527 81032
                   333 58007 81360 83080=
200903260300 AAXX 26034 67665 42980 10903 10//0 20//0 48/// 81030
                   333 58007 81360=
200903252100 AAXX 25214 67665 42980 1//// 10//0 20//0 48/// 81030
                   333 58007 81360=
200903251800 AAXX 25184 67665 42980 01104 10182 20//0 48527
                   333 10260 58004=
200903251500 AAXX 25154 67665 42780 31106 10231 20168 48515 83100
                   333 58005 83850=
200903251200 AAXX 25124 67665 42680 50908 10248 20146 48530 85130
                   333 58011 85840 81359=
200903250900 AAXX 25094 67665 42580 50808 10225 20161 48551 86100
                   333 58003 86825 Q1022.1=
200903250600 AAXX 25064 67665 32480 22009 10187 20157 48541 83101
                   333 10263 20144 58012 81815 81080 Q1021.6=
200903241500 AAXX 24154 67665 42680 51802 10244 20164 48511 85330
                   333 59008 81935 84840 82360 Q1017.4=
200903241200 AAXX 24124 67665 42680 61705 10238 20159 48518 85800
                   333 59005 85832 Q1018.2=
200903240900 AAXX 24094 67665 42580 51007 10221 20155 48537 85800
                   333 58001 85825 81627=
200903240600 AAXX 24064 67665 32480 10903 10175 20150 48527 81530
                   333 10232 20140 58001 81610 81360=
200903240400 AAXX 24044 67665 42980 2//// 10//0 20//0 48/// 83030
                   333 59002 82360=
200903240300 AAXX 24034 67665 42980 2//// 10//0 20//0 48/// 83030
                   333 59005 82360=
200903232100 AAXX 23214 67665 42980 3//// 10//0 20//0 48/// 83030
                   333 59002 83360=
200903231800 AAXX 23184 67665 42980 4//// 10//0 20//0 48/// 84030
                   333 10232 59006 84360=
200903231500 AAXX 23154 67665 42680 50804 10215 20151 48510 81230
                   333 59002 81835 84360=
200903231200 AAXX 23124 67665 42580 70909 10215 20160 48519 878//
                   333 59002 81825 87625=
200903230900 AAXX 23094 67665 42480 70709 10215 20152 B48536 8553/
                   333 59010 85618 84360 Q1020.6=
200903230600 AAXX 23064 67665 32380 70910 10179 20167 48527 877//
                   333 10239 20169 59010 87705 Q1020.1=
200903220900 AAXX 22094 67665 42380 70604 10209 20186 48544 70222 875//
                   333 58003 87608 Q1021.6=
200903220600 AAXX 22064 67665 11359 80804 10184 20178 48536 78022 8463/
                   333 10224 20175 58016 84706 88359
                   555 00/// Q1021.3=
200903220400 AAXX 22044 67665 41358 80000 10//0 20//0 48/// 76062 8263/
                   333 58024 82706 87359=
200903220300 AAXX 22034 67665 423580 8//// 10//0 20//0 48/// 8563/
                   333 59009 85606 87360=
200903220000 AAXX 22004 67665 413580 8//// 10//0 20//0 48/// 76062 8573/
                   333 58011 85706 87360=
200903212100 AAXX 21214 67665 42980 6//// 10//0 20//0 48/// 86030
                   333 58017 86360=
200903211500 AAXX 21154 67665 42380 70402 10221 20176 48513 70222 8453/
                   333 58047 84708 87360 819//
                   555 10223=
200903211200 AAXX 21124 67665 41360 82604 10206 20196 48517 72166 8357/
                   333 58034 83706 88459 Q1018.6=
200903210600 AAXX 21064 67665 11360 82603 10196 20193 48522 60094 76266 8357/
                   333 10289 20196 58016 819// 83708 88459=
200903210400 AAXX 21044 67665 42360 582304 10//0 20//0 48/// 74222 83031
                   333 10289 58009 813// 83608 84360 88080 Q1017.5=
200903210300 AAXX 21034 67665 41960 60000 10//0 20//0 48/// 72162 83331
                   333 58011 823// 84606 84360 84080 Q1017/3=
200903201800 AAXX 20184 67665 42980 50000 10//0 20//0 48/// 83031
                   333 10289 58018 83360 84080=
200903201500 AAXX 20154 67665 42680 70000 10224 20200 48487 81932
                   333 58013 81945 82840 84360 85080=
200903201200 AAXX 20124 67665 41670 71706 10264 20178 48490 71622 86331
                   333 58003 81930 86832 81360 83080=
200903200600 AAXX 20064 67665 32480 51302 10221 20196 48510 81102 33 10267 20183 58004
                   81815 85080=
200903200400 AAXX 20044 67665 42980 50000 10182 20179 48496 82032
                   333 58006 82360 83080=
200903200300 AAXX 20034 67665 42560 3//// 10//0 20//0 48/// 81530
                   333 58004 81610 83360=
200903192100 AAXX 19214 67665 42780 3//// 10//0 20//0 48/// 81930
                   333 58003 81950 82360=
200903191800 AAXX 19184 67665 41780 5//// 10//0 20//0 48/// 71322 81932
                   333 10267 59003 81950 83360 82080=
200903191500 AAXX 19154 67665 42680 70000 10236 20200 48477 81232
                   333 58003 81840 84360 87280=
200903191200 AAXX 19124 67665 41680 62707 10265 20184 48486 71522 85231
                   333 58003 85825 82360 85080=
200903190900 AAXX 19094 67665 42380 72109 10231 20191 48506 83731
                   333 58008 85813 86360 Q1017.0=
200903190600 AAXX 19064 67665 41680 62707 10265 20184 48486 71522 85231
                   333 58003 85825 82360 85080=
200903181500 AAXX 18154 67665 42560 73104 10248 20193 48475 70222 85832
                   333 59061 823// 83830 86360 Q1013.2=
200903181200 AAXX 18124 67665 41560 72609 10211 20186 48476 85832
                   333 58008 81926 85628 83360 81080 Q1013.8=
200903180900 AAXX 18094 67665 41560 62405 10230 20185 48498 72162 85832
                   333 59002 81820 85622 82360 81080=
200903180600 AAXX 18064 67665 12380 83504 10194 20188 48490 60554 8577/
                   333 10266 20184 59006 85707 88360=
200903180400 AAXX 18044 67665 42480 7//// 10//0 20//0 48/// 70182 8377/
                   333 59004 83707 87360=
200903180300 AAXX 18034 67665 41359 7//// 10//0 20//0 48/// 78062 8377/
                   333 59009 83707 87360=
200903180000 AAXX 18004 67665 41354 7//// 10//0 20//0 48/// 76166 8377/
                   333 59001 83707 86359=
200903172100 AAXX 17214 67665 41357 7//// 10//0 20//0 48/// 79562 8197/
                   333 59009 83707 81930 86359=
200903171800 AAXX 17184 67665 41359 7//// 10//0/ 20//0 48/// 70962 8163/
                   333 10266 59011 81707 86359=
200903171500 AAXX 17154 67665 41380 60000 10212 20203 48461 70962 81932
                   333 59013 81709 81935 83835 83360=
200903171200 AAXX 17124 67665 42580 60208 10250 20191 48473 86831
                   333 59029 85626 83830 81360 81080=
200903170900 AAXX 17094 67665 41580 70212 10228 20194 48500 71522 878//
                   333 59018 84620 83825 Q1016.3=
200903170600 AAXX 17064 67665 11360 70995 10190 20183 48496 60084 76066 8377/
                   333 10218 20182 59014 83709 87460 Q1016.4=
200903161200 AAXX 16124 67665 41459 80409 10196 20187 48496 76066 8677/
                   333 59010 86710 88459 Q1016.2=
200903160600 AAXX 16064 67665 11457 80806 10192 20192 48510 60354 76166 8577/
                   333 10226 20185 85706 887590
                   555 00/// Q1016.4=
200903151200 AAXX 15124 67665 41570 70909 10215 20192 48508 72182 8583/
                   333 59001 82628 83830 87360 Q1017.3=
200903150600 AAXX 15064 67665 12370 71404 10201 20193 48527 69994 70322 8563/
                   333 10260 20189 59003 85705 86360=
200903141800 AAXX 14184 67665 41780 73603 10196 20//0 48517 71722 8193/
                   333 10260 58002 84615 81940 87380=
200903141500 AAXX 14154 67665 42780 70507 10240 20186 48503 70122 82232
                   333 58010 82848 83360 85080
                   555 10260=
200903141200 AAXX 14124 67665 42680 70810 10244 20189 48511 8623/
                   333 58008 86835 83360 Q1017.4=
200903140600 AAXX 14064 67665 12370 71203 10206 20194 48530 60014 8197/
                   333 10285 20193 58010 81705 819// 87359=
200903140400 AAXX 14044 67665 42460 70902 10194 20188 48514 81530
                   333 58006 81610 87360=
200903140300 AAXX 14034 67665 42460 70902 10194 20188 48514 81530
                   333 58006 81610 87360=
200903132100 AAXX 13214 67665 41760 7//// 10//0 20//0 48/// 72162 8197/
                   333 58003 81950 87360=
200903131200 AAXX 13124 67665 42680 70505 10264 20178 48505 86201
                   333 58004 86830 84080=
200903130900 AAXX 13094 67665 42480 70807 10231 20182 48526 86201
                   333 58004 86612 87080 Q1019.3=
200903130600 AAXX 13064 67665 32380 61807 10199 20182 48521 85201
                   333 10270 20171 58001 84608 83080 Q1019.1=
200903130400 AAXX 13044 67665 42980 7//// 10//0 20//0 48/// 81032
                   333 59003 81360 87280=
200903130300 AAXX 13034 67665 42980 7//// 10//0 20//0 48/// 80002
                   333 59003 87280=
200903130000 AAXX 13004 67665 42980 ///// 10//0 20//0 48/// 80001
                   333 59001 86080=
200903122100 AAXX 12214 67665 42980 1//// 20//0 48/// 80001
                   333 59001 81080=
200903121800 AAXX 12184 67665 42780 31004 10214 20//0 48498 81931
                   333 59009 81956 83360 81080=
200903121200 AAXX 12124 67665 42680 60704 10281 20191 48504 86201
                   333 59013 86845 81080=
200903120900 AAXX 12094 67665 42580 70806 10251 20184 48525 85802
                   333 59009 85825 81626 84080=
200903120600 AAXX 12064 67665 32480 60807 10206 20181 48521 81502
                   333 10280 20170 59010 81610 86080=
200903111800 AAXX 11184 67665 42980 11203 10209 20//0 48506 81030
                   333 10280 59007 81360=
200903111500 AAXX 11154 67665 42780 30907 10266 20177 48491 83101
                   333 59016 83850 81080=
200903111200 AAXX 11124 67665 42680 60906 10264 20183 48514 86200
                   333 59003 86835=
200903110900 AAXX 11094 67665 42580 60807 10241 20181 48532 86500
                   333 59011 86625=
200903110600 AAXX 11064 67665 11460 40904 10194 20172 48528 69944 72842 81532
                   333 10279 20165 59012 81610 82360 84080=
200903110400 AAXX 11044 67665 41980 40000 10//0 48/// 74022 82032
                   333 59016 81360 83080=
200903110300 AAXX 11034 67665 42980 30000 10//0 20//0 48/// 82032
                   333 59024 82360 81080=
200903101500 AAXX 10154 67665 42680 52903 10231 48502 85231
                   333 59011 81948 84848 82360 81080=
200903101200 AAXX 10124 67665 42680 50709 10265 20191 48519 85231
                   333 59009 85835 82360 81080=
200903100900 AAXX 10094 67665 42580 60908 10235 20188 48543 84131
                   333 59007 84820 83360 83080=
200903100600 AAXX 10064 67665 11359 71004 10211 20187 48542 60094 70522 8567/
                   333 10290 20169 58001 85707 85360=
200903091200 AAXX 09124 67665 42680 63607 10265 20188 48527 85230
                   333 59002 81930 84835 83360 91018=
200903090900 AAXX 09094 67665 42480 70605 10240 20196 48550 8783/
                   333 58000 83518 81820 85360 91021=
200903090600 AAXX 09064 67665 32380 60804 10200 20189 48540 81732
                   333 10282 20180 59006 81709 82360 83080 91021=
200903081800 AAXX 08184 67665 42780 70805 10196 20//0 48524 83037
                   333 10282 59008 83360 86080 819//=
200903081500 AAXX 08154 67665 42680 71005 10256 20189 48511 83237
                   333 59007 83840 81360 86080
                   555 10282=
200903081200 AAXX 08124 67665 42580 60208 10252 20176 48527 86200
                   333 59001 86828 91019=
200903080600 AAXX 08064 67665 32380 70906 10196 20180 48546 84730
                   333 10264 20165 58004 84709 85360 91022=
200903072100 AAXX 07214 67665 42980 30000 10//0 20//0 48/// 82231
                   333 58000 81860 83360 83080 91021=
200903071200 AAXX 07124 67665 42680 70807 10249 20176 48527 86800
                   333 59004 83630 84832=
200903070900 AAXX 07094 67665 42580 60409 10222 20173 48548 86800
                   333 58007 83620 85825=
200903070600 AAXX 07064 67665 32380 60907 10185 20170 48541 85630
                   333 10249 20161 58003 85709 83360=
200903070400 AAXX 07044 67665 42380 11104 10176 20161 48529 81630
                   333 58005 81709 81360=
200903070300 AAXX 07034 67665 42980 10705 10//0 20//0 48/// 81030
                   333 58002 81360=
200903062100 AAXX 06214 67665 42980 20903 10//0 20//0 48/// 82030
                   333 58001 82360=
200903061800 AAXX 06184 67665 42680 60000 10//0 20//0 48/// 81132
                   333 58000 81845 84360 84080=
200903061200 AAXX 06124 67665 42580 71008 10234 20168 48528 8683/
                   333 58005 83830 85635 86360=
200903060900 AAXX 06094 67665 42580 70711 10229 20166 48541 87530
                   333 59006 87620 87361=
200903060600 AAXX 06064 67665 12380 81105 10198 20173 48538 60024 8263/
                   333 10242 20189 58006 82708 88360=
200903060400 AAXX 06044 67665 42380 70905 10//0 20//0 48/// 83631
                   333 58006 83606 85360 82080=
200903060300 AAXX 06034 67665 42980 30903 10//0 20//0 48/// 83031
                   333 59009 82360 81080=
200903060000 AAXX 06004 67665 42980 60000 10//0 20//0 48/// 86031
                   333 58006=
200903052100 AAXX 05214 67665 42980 60000 10//0 20//0 48/// 86031
                   333 58011 86360 82080=
200903051800 AAXX 05184 67665 42580 60603 10//0 20//0 48/// 82532
                   333 58017 82620 84360 83080=
200903051200 AAXX 05124 67665 42580 70608 10222 20181 48522 8683/
                   333 58005 83618 85825 84360=
200903050900 AAXX 05094 67665 41460 80907 10191 20181 48543 76066 8553/
                   333 58016 85610 88360=
200903050600 AAXX 05064 67665 12380 81206 10200 20191 48533 60284 8563/
                   333 10235 20181 58004 85709 88360=
200903041800 AAXX 04184 67665 42380 20000 10196 20//0 48518 81932
                   333 10235 59003 81609 81950 82360 81080=
200903041200 AAXX 04124 67665 41359 80000 10200 20195 48515 76092 8167/
                   333 58015 81907 81925 86625 84360=
200903040900 AAXX 04094 67665 42456 83403 10211 20195 48531 76322 8553/
                   333 59001 85610 88360=
200903040600 AAXX 04064 67665 12380 80000 10205 20197 48531 60034 8563/
                   333 10276 20191 58001 85709 88360=
200903040400 AAXX 04044 67665 70000 10/// 20//0 48/// 70222 85530
                   333 59006 85606 84360=
200903040300 AAXX 04034 67665 60000 10/// 20//0 48/// 70222 84032
                   333 58016 84360 86080=
200903031200 AAXX 03124 67665 42680 61203 10245 20202 48506 81932
                   333 59005 81930 84835 82360 85080 91016=
200903030900 AAXX 03094 67665 42580 73207 10231 20198 48533 86231
                   333 59003 86820 81360 82080=
200903030600 AAXX 03064 67665 32359 73604 10201 20187 48528 876//
                   333 10289 20182 59008 87708=
200903021500 AAXX 02154 67665 41380 70803 10235 20179 48539 71792 8163/
                   333 58034 81610 81945 82850 86360
                   555 10289=
200903021200 AAXX 02124 67665 42680 60905 10275 20198 48515 85230
                   333 59007 85840 82360 84080=
200903020900 AAXX 02094 67665 42580 60405 10256 20197 48540 85232
                   333 59006 85828 82360 83080=
200903020600 AAXX 02064 67665 12980 50000 10219 20191 48539 69964 85030
                   333 10288 20184 58001 85360=
200903010900 AAXX 01094 67665 32680 71309 10255 20178 48546 71522 84202
                   333 58010 84825 86080 91021=
200903010600 AAXX 01064 67665 32480 70000 10205 20196 48537 81632
                   333 10290 20179 58002 81707 84360 86080
                   555 00/// 91020=

################################################################################
#  SYNOPS from 67666, Lusaka City Airport (Zambia) | 15-25S | 028-19E | 1280 m
################################################################################
200903310600 AAXX 31064 67666 32480 40913 10200 20185 48513 84800
                   333 10270 20175 59009 83610 82812 Q1018.2=
200903300900 AAXX 30094 67666 42580 40810 10238 20175 48525 84200
                   333 59005 84825=
200903300600 AAXX 30064 67666 32580 21008 10206 20173 48522 81500
                   333 10260 20160 59002 81620=
200903251200 AAXX 25124 67666 42680 51003 10235 20156 48519 85200
                   333 58008 85840=
200903250900 AAXX 25094 67666 42580 61112 10220 20156 48542 85201 58015 85822 81080 Q1012.5=
200903250600 AAXX 25064 67666 32980 10709 10184 20144 48529 81001
                   333 10245 20150 58010 81080 Q1020.3=
200903240600 AAXX 24064 67666 32980 10907 10200 20160 48522 81030
                   333 10220 20136 58000 81359=
200903190900 AAXX 19094 67666 42580 73006 10220 20186 48492 8557/
                   333 58006 85620 87460 Q1015.6=
200903180600 AAXX 18064 67666 12580 83403 10190 20183 48500 60414 8757/
                   333 10245 20170 59004 87620 88459=
200903171200 AAXX 17124 67666 42680 70610 10240 20190 48457 8627/
                   333 59032 87830 84460=
200903161200 AAXX 16124 67666 41960 60803 10190 20187 48484 76167 8807/
                   333 59007 88460=
200903130600 AAXX 13064 67666 31478 70907 10200 20185 48508 70522 83502
                   333 10271 20170 58001 83630 87280 Q1017.6=
200903111200 AAXX 11124 67666 42680 60603 10250 20174 48509 86200
                   333 59017 86832=
200903040900 AAXX 04094 67666 42480 82903 10214 20193 48518 85518
                   333 59009 85615 88460=
200903040600 AAXX 04064 67666 32380 83501 10205 20198 48525 886//
                   333 10265 20190 58007 88709=
200903031200 AAXX 03124 67666 42580 50305 10255 20180 48512 84230
                   333 58013 81932 84832 83360 82080=
200903030600 AAXX 03064 67666 32480 70610 10210 20189 48518 86531
                   333 10275 20180 59013 86618 87359=
200903020600 AAXX 02064 67666 32480 30000 10220 20183 48531 81131
                   333 10280 20160 58004 81812 83360 81080=

################################################################################
#  SYNOPS from 67673, Petauke (Zambia) | 14-15S | 031-17E | 1035 m
################################################################################
200903250900 AAXX 25094 67673 42680 60903 10250 20165 48551 85131
                   333 58022 85830 81360 81080=

################################################################################
#  SYNOPS from 67741, Sesheke (Zambia) | 17-28S | 024-18E | 949 m
################################################################################
200903310600 AAXX 31064 67741 32980 21001 10233 20194 48517 81030
                   333 10300 20184 59018 81362=
200903240600 AAXX 24064 67741 32980 00000 10180 20157 48522
                   333 10275 20123 59003=

################################################################################
#  SYNOPS from 67743, Livingstone (Zambia) | 17-49S | 025-49E | 985 m
################################################################################
200903300900 AAXX 30094 67743 42680 4//// 10260 20168 48533 84100
                   333 58000 84835=
200903300600 AAXX 30064 67743 32980 11004 10200 20160 48530 81040
                   333 10315 20155 5//// 81362=
200903260900 AAXX 26094 67743 42980 30908 10255 20116 48550 81031
                   333 59001 81360 82080=
200903260600 AAXX 26064 67743 32980 31301 10175 20150 48535 81031
                   333 10300 20120 58002 81360 82080=
200903251500 AAXX 25154 67743 42980 21006 10282 20007 48521 80002
                   333 58007 82080=
200903251200 AAXX 25124 67743 42680 10604 10285 20088 48528 81100
                   333 58011 81850=
200903240600 AAXX 24064 67743 32980 11203 10174 20149 48520 80001
                   333 10280 20133 59003 81080=
200903230600 AAXX 23064 67743 32980 21206 10183 20133 48527 80002
                   333 10270 20135 59013 82080=
200903201200 AAXX 20124 67743 42680 31303 10303 20191 48494 83101
                   333 58018 83845 81080=
200903191200 AAXX 19124 67743 41670 63064 10268 20197 48471 71792 84270
                   333 59006 81930 84835=
200903190900 AAXX 19094 67743 42580 62905 10260 20205 48496 84140
                   333 59002 84820 85360 Q1014.5=
200903190600 AAXX 19064 67743 12480 63205 10216 20201 48490 69904 8258/
                   333 10288 20195 58001 81612 86360=
200903180600 AAXX 18064 67743 32480 60302 10205 20190 48485 8583/
                   333 10260 20190 59003 83625 83830 83360=
200903171500 AAXX 17154 67743 42680 60907 10240 20195 48459 85230
                   333 59023 85848 86360=
200903171200 AAXX 17124 67743 42680 71006 10255 20196 48470 85270
                   333 59027 85840 85360=
200903170600 AAXX 17064 67743 12380 81104 10200 20192 48488 60024 8557/
                   333 10253 20180 59028 85608 88360=
200903161200 AAXX 16124 67743 41570 70908 10241 20192 48494 72166 855//
                   333 59011 85625 83830=
200903160600 AAXX 16064 67743 12380 80808 10202 20187 48505 69904 8277/
                   333 10276 20193 59013 82708 88613
                   555 00184 BB/// CC193 DD114 Q1016.7=
200903130600 AAXX 13064 67743 12380 81004 10206 20200 48516 60144 8177/
                   333 10295 20197 58009 81709 88460 Q1017.6=
200903060900 AAXX 06094 67743 42680 70809 10240 20166 48544 85501
                   333 58003 85640 82080=
200903041200 AAXX 04124 67743 42580 70908 10265 20207 48517 70222 85230
                   333 58008 85828 82360=
200903040600 AAXX 04064 67743 11480 81108 10205 20197 48527 60024 885//
                   333 10//0 20189 58006 88610=
200903031200 AAXX 03124 67743 42680 60807 10279 20208 48509 85840
                   333 5//// 83360=
200903030600 AAXX 03064 67743 31459 80904 10214 20203 48520 75022 885//
                   333 10290 20200 59009 88610=
200903020600 AAXX 02064 67743 12380 71402 10205 20196 48526 60094 82230
                   333 10320 20185 58004 82810 85360=

################################################################################
#  SYNOPS from 67753, Choma (Zambia) | 16-50S | 027-04E | 1213 m
################################################################################
200903310600 AAXX 31064 67753 11480 80907 10186 20178 69904 75022 885//
                   333 10264 20154 88610=
200903300900 AAXX 30094 67753 42480 70908 10217 20174 85530
                   333 5//// 85615 87360=
200903251200 AAXX 25124 67753 42680 20908 10247 20156 48/// 82100
                   333 5//// 82835=
200903250900 AAXX 25094 67753 42680 20908 10232 20145 82100
                   333 82800=
200903250600 AAXX 25064 67753 42680 20908 10232 20145 82100
                   333 82800=
200903240600 AAXX 24064 67753 32380 50907 10174 20164 48/// 82502
                   333 10/// 20/// 5//// 82609 83080=
200903191200 AAXX 19124 67753 41680 71008 10224 20189 48/// 71792 8527/
                   333 5//// 81932 85832 87459=
200903190900 AAXX 19094 67753 41460 72702 10254 20197 48/// 78022 87208
                   333 5//// 87815 87282=
200903171200 AAXX 17124 67753 41460 73405 10222 20187 71762 8587/
                   333 5//// 82612 83814 87459=
200903031200 AAXX 03124 67753 41660 71808 10226 20201 48/// 79592 8427/
                   333 5//// 81950 83850 87459=
200903030600 AAXX 03064 67753 12380 70605 10204 20192 48/// 69964 87508
                   333 10271 20181 5//// 87610 85280=
200903020600 AAXX 02064 67753 31380 70902 10203 20199 48/// 87508
                   333 10282 20171 5//// 87609 87280=
