################################################################################
# Query made at 04/15/2022 01:58:17 UTC
# Country like Zamb*
# Time interval: from 01/01/2009 05:30  to 01/31/2009 06:30  UTC
################################################################################

################################################################################
#  SYNOPS from 67413, Mbala (Zambia) | 08-51S | 031-20E | 1673 m
################################################################################
200901210600 AAXX 21064 67413 11950 80000 10170 20170 48533 60224 76222 8807/
                   333 10238 20158 58012 88458=

################################################################################
#  SYNOPS from 67441, Mwinilunga (Zambia) | 11-45S | 024-26E | 1361 m
################################################################################
200901300900 AAXX 30094 67441 42580 70000 10235 20182 48555 8313/
                   333 58005 83820 87360=
200901290900 AAXX 29094 67441 42582 70000 10220 20182 48550 8417/
                   333 58006 84825 87360=
200901290600 AAXX 29064 67441 12382 80000 10185 20177 48547 60084 886//
                   333 10280 20163 5//// 88609=
200901280900 AAXX 28094 67441 42682 50000 10265 20175 48544 85130
                   333 5//// 85830 81362=
200901280600 AAXX 28064 67441 11903 40000 10175 20175 48/// 60054 74240 80004
                   333 10283 20142 5//// 84080=
200901080900 AAXX 08094 67441 42682 70000 10245 20198 48545 8113/
                   333 58000 81935 85835 87360=
200901070900 AAXX 07094 67441 41582 10217 20182 48540 72166 8517/
                   333 58015 85825 88460=
200901060900 AAXX 06094 67441 42582 70000 10220 20190 48525 8513/
                   333 59005 85825 87360=

################################################################################
#  SYNOPS from 67461, Mansa (Zambia) | 11-06S | 028-51E | 1382 m
################################################################################
200901280600 AAXX 28064 67461 12560 51202 10224 20185 48519 60024 82238
                   333 10273 20157 59014 82825 85361 83080=

################################################################################
#  SYNOPS from 67475, Kasama (Zambia) | 10-13S | 031-08E | 1382 m
################################################################################
200901300900 AAXX 30094 67475 42680 73604 10197 20187 48521 71799 8427/
                   333 58007 81940 84840 87460=
200901290900 AAXX 29094 67475 41680 61708 10248 20192 48516 71522 86202
                   333 59004 86845 85080=
200901290600 AAXX 29064 67475 12680 53602 10222 20183 48546 69954 83122
                   333 10280 20159 59009 83820 81940 83361 85080=
200901280600 AAXX 28064 67475 12580 50908 10222 20184 48527 60054 85502
                   333 10270 20165 59008 85620 83080=
200901060900 AAXX 06094 67475 42580 60309 10256 20177 48500 84232
                   333 59011 84820 83361 81080 91017=

################################################################################
#  SYNOPS from 67477, Mpika (Zambia) | 11-54S | 031-26E | 1400 m
################################################################################
200901290900 AAXX 29094 67477 42680 61103 10255 20171 48516 86202
                   333 59006 86834 81075=
200901290600 AAXX 29064 67477 32480 51202 10216 20184 48527 82132
                   333 10267 20153 59001 82814 81362 83075=
200901080900 AAXX 08094 67477 42680 61202 10250 20193 48515 85201
                   333 58002 81930 85830 81080=
200901070900 AAXX 07094 67477 41580 72403 10236 20174 48516 70160 82237
                   333 58016 82826 81361 87280=
200901021200 AAXX 02124 67477 42680 62302 10286 20180 48480 85202
                   333 59025 85845 82280=

################################################################################
#  SYNOPS from 67531, Zambezi (Zambia) | 13-32S | 023-07E | 1077 m
################################################################################
200901300900 AAXX 30094 67531 42580 63103 10254 20196 48/// 85802
                   333 58001 83824 82624 82080=
200901290900 AAXX 29094 67531 42680 72103 10254 20182 48/// 85202
                   333 58008 83830 82630 87360=
200901290600 AAXX 29064 67531 12380 72001 10206 20181 48/// 69914 8257/
                   333 10300 20176 58009 82610 87460=
200901280600 AAXX 28064 67531 12780 40000 10225 20187 48/// 69904 81232
                   333 10315 20190 58014 81850 84362 81082=
200901080900 AAXX 08094 67531 42680 50606 10271 20196 48/// 83131
                   333 5//// 83830 81362 82082=

################################################################################
#  SYNOPS from 67561, Ndola (Zambia) | 13-00S | 028-39E | 1269 m
################################################################################
200901300600 AAXX 30064 67561 11460 50000 10186 20177 48529 60054 72822 83538
                   333 10292 20170 58010 83610 84360 85280=
200901291200 AAXX 29124 67561 42680 70000 10278 20178 48494 86208
                   333 58003 81940 86840 87280=
200901290600 AAXX 29064 67561 12480 70000 10194 20169 48527 69924 82538
                   333 10300 20170 59002 82610 86359 87280=
200901280600 AAXX 28064 67561 31970 70604 10209 20187 48522 70522 85038
                   333 10306 20170 59020 85360 87280=
200901190600 AAXX 19064 67561 11280 80000 10185 20176 48512 60184 72122 85678
                   333 10280 20175 59012 82706 87460 86280=
200901080900 AAXX 08094 67561 42480 50505 10253 20192 48522 84230
                   333 58006 84820 82361=

################################################################################
#  SYNOPS from 67580, Msekera (Zambia) | 13-39S | 032-34E | 1025 m
################################################################################
200901280900 AAXX 28094 67580 42782 60906 10287 20191 48/// 85108
                   333 59014 85850 85280=
200901280600 AAXX 28064 67580 12484 70908 10252 20201 48/// 69904 81108
                   333 10298 20184 59013 81818 87280=
200901261200 AAXX 26124 67580 41675 70306 10275 20206 48/// 71722 81938
                   333 5//// 81935 83840 81360 87280=
200901121200 AAXX 12124 67580 41680 71202 10277 20199 48/// 71722 81933
                   333 5//// 81940 83845 82360 83080=

################################################################################
#  SYNOPS from 67581, Chipata (Zambia) | 13-33S | 032-35E | 1028 m
################################################################################
200901291200 AAXX 29124 67581 41630 73608 10250 20207 48494 79599 8297/
                   333 59013 82940 87460=
200901290600 AAXX 29064 67581 32980 30503 10260 20197 48534 82031
                   333 10305 20197 59003 82360 81080=

################################################################################
#  SYNOPS from 67583, Lundazi (Zambia) | 12-17S | 033-12E | 1143 m
################################################################################
200901201200 AAXX 20124 67583 42680 72101 10254 20188 82137
                   333 58006 82835 81360 87280=
200901161200 AAXX 16124 67583 41680 82701 10244 20204 48/// 76062 81237
                   333 58005 81835 82360 88280=
200901021200 AAXX 02124 67583 42680 73002 10289 20199 48/// 83231
                   333 5//// 83840 85360 81080=

################################################################################
#  SYNOPS from 67599, Mfuwe (Zambia) | 13-16S | 031-56E | 568 m
################################################################################
200901280600 AAXX 28064 67599 32980 70000 10245 20217 48541 80001
                   333 10345 20/// 59015 87080=
200901270600 AAXX 27064 67599 32980 30000 10245 20224 48533 82032
                   333 10310 20//0 59012 82360 83080=
200901261200 AAXX 26124 67599 42580 70000 10285 20229 48553 819//
                   333 58009 81920 87822 91018=
200901211200 AAXX 21124 67599 42580 60000 10270 20213 48522 70252 81970
                   333 58017 81920 83822 86460 91014=
200901210600 AAXX 21064 67599 12380 80000 10225 20211 48530 60094 70222 8357/
                   333 10295 20//0 58014 88459=
200901161200 AAXX 16124 67599 42460 60000 10292 20226 48519 84870
                   333 59003 82615 84825 86360=
200901140600 AAXX 14064 67599 12980 80904 10230 20223 48532 60334 8807/
                   333 10340 20//0 58011 88459=
200901080600 AAXX 08064 67599 32480 61503 10260 20224 48547 83230
                   333 10340 20//0 5//// 83815 86360=
200901050600 AAXX 05064 67599 12358 80000 10238 20219 48526 69904 70322 885//
                   333 10333 20//0 58004 88608=

################################################################################
#  SYNOPS from 67633, Mongu (Zambia) | 15-15S | 023-09E | 1052 m
################################################################################
200901300900 AAXX 30094 67633 42580 70000 10220 20198 48526 76066 8687/
                   333 58013 83825 84630 87460=
200901290600 AAXX 29064 67633 11575 70905 10184 20173 48529 60174 79599 8197/
                   333 10312 20177 58019 81925 87460=
200901280900 AAXX 28094 67633 42682 53610 10270 20206 48517 85232
                   333 59015 81935 84835 83361 85080=
200901280600 AAXX 28064 67633 32582 51803 10230 20201 48519 83532
                   333 10304 20195 58018 83620 83361 85080=
200901261200 AAXX 26124 67633 42780 73008 10265 20191 48507 85232
                   333 58021 81950 84850 83360 86280 91016=
200901200600 AAXX 20064 67633 32982 60000 10225 20196 48494 85038
                   333 10315 20195 59004 85361 86280=
200901161200 AAXX 16124 67633 42680 70000 10254 20202 48481 82138
                   333 59003 82830 86360 87280=
200901080600 AAXX 08064 67633 32982 62706 10240 20196 48499 86032
                   333 10290 20210 58002 86361 82080=
200901070900 AAXX 07094 67633 42582 73206 10243 20199 48503 86838
                   333 58019 84820 82625 85361 86280=
200901060900 AAXX 06094 67633 42682 53305 10280 20192 48490 70322 82102
                   333 59013 82840 85080 91013=

################################################################################
#  SYNOPS from 67641, Kaoma (Zambia) | 14-48S | 024-48E | 1213 m
################################################################################
200901280600 AAXX 28064 67641 32982 30101 10216 20195 48512 81032
                   333 10309 20180 59028 81360 82080=
200901080900 AAXX 08094 67641 42682 33402 10271 20190 48506 83132
                   333 58005 83830 81360 81080=
200901021200 AAXX 02124 67641 42680 33501 10306 20169 48407 83132
                   333 5//// 83845 81361 81080=

################################################################################
#  SYNOPS from 67663, Kabwe (Zambia) | 14-27S | 028-28E | 1206 m
################################################################################
200901290600 AAXX 29064 67663 32480 42905 10212 20185 48517 83802
                   333 10301 20189 59002 82815 81617 82080=
200901060900 AAXX 06094 67663 42580 63602 10245 20193 48488 84232
                   333 59013 84828 86260 82080=

################################################################################
#  SYNOPS from 67665, Lusaka Internationalairport (Zambia) | 15-19S | 028-27E | 1152 m
################################################################################
200901310600 AAXX 31064 67665 32480 70103 10211 20191 48528 81532
                   333 10284 20182 59016 81612 86360 83080=
200901301200 AAXX 30124 67665 41557 60000 10199 20188 48512 76196 85230
                   333 58015 81925 85825 83360 91018=
200901300900 AAXX 30094 67665 42580 63303 10244 20184 48536 84230
                   333 58008 84822 84360=
200901291500 AAXX 29154 67665 41780 71608 10266 20175 48505 71522 84202
                   333 58011 81950 84850 83080 85280=
200901291200 AAXX 29124 67665 42680 60603 10278 20175 48508 86202
                   333 59009 86840 81080=
200901290900 AAXX 29094 67665 42570 63302 10252 20176 48530 86201
                   333 59004 86822 82080=
200901290600 AAXX 29064 67665 31360 60000 10203 20188 48534 72962 83201
                   333 10309 20188 58004 82608 83820 85080=
200901290400 AAXX 29044 67665 41360 70000 10192 20//0 48520 72992 81972
                   333 59003 82605 819// 85360 83080=
200901290300 AAXX 29034 67665 41/59 80000 10207 20207 48519 72992 8193/
                   333 59001 819// 87360=
200901282100 AAXX 28214 67665 42980 70000 10198 20//0 48522 80002
                   333 59014 87080=
200901281800 AAXX 28184 67665 42970 60000 10221 20//0 48509 84072
                   333 59015 83360 85080=
200901281200 AAXX 28124 67665 42670 60808 10274 20190 48516 85202
                   333 59016 85840 85080 91017=
200901280900 AAXX 28094 67665 42670 60410 10269 20187 48534 82232
                   333 59013 82830 81360 86080=
200901280600 AAXX 28064 67665 32470 60804 10220 20190 48531 81532
                   333 10290 20181 59018 81610 82360 85080=
200901280400 AAXX 28044 67665 42980 50000 10180 20173 48522 83032
                   333 59019 83360 84080=
200901280300 AAXX 28034 67665 42980 30000 10178 20//0 48516 70200 83030
                   333 59020 83360=
200901280000 AAXX 28004 67665 42980 20000 10186 20//0 48522 83030
                   333 58011 83360=
200901272100 AAXX 27214 67665 42/80 21204 10197 20//0 48535 81930
                   333 59011 819// 82360=
200901271500 AAXX 27154 67665 42680 60507 10278 20165 48519 81920
                   333 59005 81948 84848 85080=
200901271200 AAXX 27124 67665 41770 70509 10268 20189 48531 71322 81902
                   333 59001 81938 85840 82080=
200901270900 AAXX 27094 67665 42680 72704 10255 20198 48546 86202
                   333 59006 86830 85080=
200901270600 AAXX 27064 67665 12480 70302 10220 20200 48549 60024 84502
                   333 10278 20186 58008 84615 81820 86080=
200901261200 AAXX 26124 67665 42580 60205 10264 20191 48531 86200
                   333 58016 81925 85825 91019=
200901260900 AAXX 26094 67665 42460 70208 10227 20199 48550 8457/
                   333 58021 84612 85360=
200901260600 AAXX 26064 67665 11359 70808 10207 20199 48541 60074 76052 8653/
                   333 10258 20195 58019 86608 83360=
200901251800 AAXX 25184 67665 42680 60000 10213 20//0 48514 71322 81932
                   333 10257 58013 81940 85360 86080=
200901251500 AAXX 25154 67665 42680 63402 10246 20183 48501 70222 84832
                   333 58013 82628 82830 81360 82080
                   555 10257=
200901251200 AAXX 25124 67665 41580 80000 10224 20192 48510 72162 8653/
                   333 58006 86615 87360 91017=
200901250600 AAXX 25064 67665 11359 80000 10192 20188 48520 60244 76066 8577/
                   333 10278 20185 58010 85708 88459 91019=
200901250400 AAXX 25044 67665 41356 81504 10181 20//0 48514 76366 8373/
                   333 58016 83707 87359=
200901250300 AAXX 25034 67665 41/58 70404 10182 20//0 48508 76362 8193/
                   333 58011 819// 87359=
200901242100 AAXX 24214 67665 42780 72104 10193 20//0 48503 81930
                   333 59003 81950 87360=
200901241800 AAXX 24184 67665 42780 60000 10208 20//0 48501 81932
                   333 58011 81956 85360 82080=
200901241200 AAXX 24124 67665 42680 63306 10225 20194 48495 85232
                   333 59005 81930 85832 82360 83080=
200901240600 AAXX 24064 67665 11256 83102 10192 20183 48511 69904 72844 876//
                   333 10264 20188 59007 87705=
200901240400 AAXX 24044 67665 42780 63303 10186 20//0 48499 83502
                   333 59014 83610 88080 91016=
200901240000 AAXX 24004 67665 42780 60000 10198 20//0 48499 81932
                   333 58000 81950 83360 86080 91016=
200901232100 AAXX 23214 67665 42780 40000 10196 20//0 48507 8193/
                   333 59005 81950 83360 91017=
200901231800 AAXX 23184 67665 42680 41103 10201 20//0 48490 81932
                   333 10259 59015 81950 81360 83080=
200901231500 AAXX 23154 67665 42680 61803 10243 20208 48484 82232
                   333 59020 81940 81840 85360 81080=
200901231200 AAXX 23124 67665 42580 72910 10238 20189 48502 85230
                   333 59001 85825 84360=
200901230600 AAXX 23064 67665 12370 80000 10200 20195 48519 60214 8577/
                   333 10260 20190 59008 85707 87360=
200901221800 AAXX 22184 67665 41660 71202 10193 20193 48503 76099 8193/
                   333 10260 59010 81940 87359=
200901221500 AAXX 22154 67665 41340 73005 10191 20191 48498 79596 8373/
                   333 59002 83709 81932 87359=
200901221200 AAXX 22124 67665 41660 60905 10245 20194 48504 71622 85320
                   333 59010 85830 83360=
200901220900 AAXX 22094 67665 41360 70605 10208 20190 48520 71666 8553/
                   333 59004 85610 87359 91018=
200901220600 AAXX 22064 67665 42360 80603 10198 20192 48527 8553/
                   333 10232 20188 58002 86609 87360 91019=
200901211800 AAXX 21184 67665 42460 72603 10196 20/// 48514 8537/
                   333 58017 81922 83830 86360 91018=
200901211500 AAXX 21154 67665 42460 71804 10219 20171 48504 8537/
                   333 58024 81920 83825 87360 91016=
200901211200 AAXX 21124 67665 41459 83303 10209 20193 48509 76066 8537/
                   333 58016 81920 84822 87359 Q1017.6=
200901210600 AAXX 21064 67665 11359 80903 10184 20184 48517 60344 76166 877//
                   333 10265 20179 58019 87706=
200901201500 AAXX 20154 67665 42580 70504 10243 20196 48483 8193/
                   333 58002 81930 84830 85360=
200901201200 AAXX 20124 67665 42470 80705 10221 20194 48495 8453/
                   333 58007 84618 88360=
200901200600 AAXX 20064 67665 12480 40807 10204 20175 48541 60104 83530
                   333 10261 20174 58011 83610 82360=
200901200400 AAXX 20044 67665 42480 80000 10180 20//0 48500 70322 8153/
                   333 58003 81707 88360=
200901200300 AAXX 20034 67665 41360 70000 10180 20//0 48495 72162 8193/
                   333 58004 82706 81940 87360=
200901200000 AAXX 20004 67665 41356 70000 10197 20197 48496 76162 8197/
                   333 58007 81705 81935 87459=
200901192100 AAXX 19214 67665 41657 70000 10192 20192 48507 79592 8197/
                   333 58006 81930 87459=
200901191800 AAXX 19184 67665 42780 71203 10206 20//0 48494 81932
                   333 59002 81950 85360 84080=
200901191200 AAXX 19124 67665 42680 73006 10261 20201 48493 85232
                   333 59007 81930 94830
                   555 85360 82080=
200901190900 AAXX 19094 67665 42470 83202 10224 20194 48510 8353/
                   333 59001 84615 85360=
200901190600 AAXX 19064 67665 12460 73202 10200 20197 48505 60014 72162 8253/
                   333 10285 20195 59011 82612 87359=
200901190400 AAXX 19044 67665 41460 72103 10193 20//0 48498 76022 8153/
                   333 59007 81610 87359=
200901190300 AAXX 19034 67665 42660 70000 10191 20//0 48492 72161 81530
                   333 59007 81610 87360=
200901182100 AAXX 18214 67665 41780 60000 10205 20//0 40503 71300 81932
                   333 59016 81950 86360 81080=
200901181800 AAXX 18184 67665 41780 50000 10220 20//0 48493 71322 81932
                   333 58003 81950 83360 82080=
200901180900 AAXX 18094 67665 42470 73009 10235 20193 48519 8357/
                   333 58007 83618 87360=
200901180600 AAXX 18064 67665 42780 53602 10197 20/// 48518 81932
                   333 10278 59004 81950 85360 83080=
200901171800 AAXX 17184 67665 41780 71403 10234 20//0 48491 71322 8193/
                   333 10288 59017 81950 87360=
200901171500 AAXX 17154 67665 42580 50000 10269 48533 70200 82130
                   333 59008 82240 84360
                   555 10288=
200901170900 AAXX 17094 67665 42580 73007 10224 20196 48510 81520
                   333 59006 81622 87360=
200901170600 AAXX 17064 67665 12380 70102 10191 20182 48512 60054 8263/
                   333 10271 20185 59008 82709 87360=
200901170400 AAXX 17044 67665 42460 80000 10183 20//0 48511 72052 8193/
                   333 59001 84620 88360 91018=
200901170300 AAXX 17034 67665 42460 83403 10184 20//0 48510 72052 8193/
                   333 58002 83620 85360 91018=
200901170000 AAXX 17004 67665 42460 63303 10189 20//0 48509 8193/
                   333 58003 819// 83720 86460=
200901162100 AAXX 16214 67665 41460 72903 10186 20//0 48507 72062 8193/
                   333 59003 819// 83720 87460 91017=
200901161200 AAXX 16124 67665 42580 70104 10242 20188 48501 83272
                   333 59001 83825 86460 85080=
200901151500 AAXX 15154 67665 42670 63202 10258 20198 48482 83201
                   333 59015 83830 85080 91013=
200901151200 AAXX 15124 67665 42570 63506 10254 20186 48503 86801
                   333 58001 81620 86825 83080 91016=
200901141200 AAXX 14124 67665 42680 73003 10256 20186 48503 82272
                   333 59010 82830 86460 83080 91016=
200901140600 AAXX 14064 67665 12480 63104 10217 20198 48521 60014 81132
                   333 10295 20204 59008 81818 84360 86080 91018=
200901140400 AAXX 14044 67665 42660 80000 10201 20//0 48515 81982
                   333 59002 81940 85360 85080=
200901140300 AAXX 14034 67665 42660 70000 10203 20//0 48513 81932
                   333 58011 81940 81360 87080=
200901131500 AAXX 13154 67665 42680 63004 10278 20185 48499 84232
                   333 58014 81948 84848 82360 83080=
200901131200 AAXX 13124 67665 42680 72904 10264 20175 48513 83130
                   333 58012 86360=
200901130400 AAXX 13044 67665 42380 70000 10206 20//0 48515 82530
                   333 58006 82610 86360=
200901130300 AAXX 13034 67665 42980 50000 10202 20//0 48507 85032
                   333 59007 85360 81080=
200901130000 AAXX 13004 67665 42780 50000 10196 20//0 48505 81932
                   333 58004 81957 84360 81080=
200901122100 AAXX 12214 67665 42780 50000 10219 20/// 48512 81932
                   333 58002 81957 84360 81080=
200901121200 AAXX 12124 67665 42680 50000 10282 20211 48504 85131
                   333 59031 85842 83360 82080=
200901120900 AAXX 12094 67665 42680 50000 10258 20190 48518 84231
                   333 59027 84832 82360 81080=
200901120600 AAXX 12064 67665 12970 50000 10213 20190 48518 69904 84032
                   333 10245 20173 59008 84360 83080=
200901120400 AAXX 12044 67665 41959 63603 10169 20//0 48505 74022 86030
                   333 58004 86360=
200901120300 AAXX 12034 67665 42480 72803 10179 20//0 48512 8153/
                   333 58017 81610 87360=
200901112100 AAXX 11214 67665 42780 71603 10169 20//0 48506 81932
                   333 59012 81950 83360 85080=
200901111800 AAXX 11184 67665 42/80 70000 10198 20//0 48494 70222 84032
                   333 10234 58009 819// 84360 86080=
200901111500 AAXX 11154 67665 42780 72406 10232 20184 48499 70222 84832
                   333 58002 82642 81845 85360 87080
                   555 10234=
200901111200 AAXX 11124 67665 41760 72605 10193 20169 48523 72162 8197/
                   333 59014 81928 84830 87360 91019=
200901110900 AAXX 11094 67665 42460 71505 10215 20196 48541 8528/
                   333 58011 85820 87360=
200901101800 AAXX 10184 67665 41760 60000 10201 20//0 48503 71362 81932
                   333 10292 59004 81950 84360 86080=
200901101500 AAXX 10154 67665 41660 60504 10210 20196 48504 76096 81932
                   333 58000 81949 83849 86360
                   555 10292=
200901101200 AAXX 10124 67665 41680 60904 10223 20194 48504 71799 85932
                   333 59007 81940 85840 83360 82080 91016=
200901100900 AAXX 10094 67665 42680 50305 10265 20208 48536 84232
                   333 59004 84832 82360 81080=
200901100600 AAXX 10064 67665 32580 61002 10237 20197 48532
                   333 10295 20185 59002 82822 83360 83080=
200901100400 AAXX 10044 67665 42480 40000 10184 20//0 48513 82231
                   333 59007 81810 83360 83080 91018=
200901100300 AAXX 10034 67665 42980 40000 10185 20//0 48511 83032
                   333 59009 83360 83080 91018=
200901092100 AAXX 09214 67665 42780 60000 10197 20//0 48511 80022
                   333 58002 81360 86080 91019=
200901091800 AAXX 09184 67665 42780 70803 10211 20//0 48508 81902
                   333 10295 59001 81950 87080=
200901091500 AAXX 09154 67665 42780 70805 10276 20202 48503 81932
                   333 58001 81950 82850 83360 85080=
200901091200 AAXX 09124 67665 42680 70503 10284 20201 48518 81932
                   333 58000 81935 85835 81360 85080=
200901090600 AAXX 09064 67665 32480 70905 10226 20201 48531 81132
                   333 10288 20201 59003 81810 83360 87080=
200901081500 AAXX 08154 67665 42580 61105 10272 20199 48499 58007 82202
                   333 82832 555 910159=
200901081200 AAXX 08124 67665 42580 60504 10283 20194 48518 84232
                   333 58011 84830 81360 85080 91017=
200901080900 AAXX 08094 67665 42580 60404 10260 20197 48533 84232
                   333 58009 84820 81360 86080=
200901080600 AAXX 08064 67665 12380 70202 10211 20198 48532 69944 81782
                   333 10266 20191 58023 81707 83360 87080=
200901071200 AAXX 07124 67665 42570 70103 10253 20201 48503 84272
                   333 58021 84825 83360 87080 91016=
200901070900 AAXX 07094 67665 42570 73604 10229 20194 48522 8527/
                   333 58018 85820 86360=
200901070400 AAXX 07044 67665 42770 80000 10187 20//0 48502 8293/
                   333 58002 82950 88360=
200901061800 AAXX 06184 67665 41760 60000 10208 20//0 48492 76022 81932
                   333 10290 58005 81956 85360 84080=
200901061200 AAXX 06124 67665 42680 60303 10259 20203 48484 85202
                   333 59004 81930 85830 84080=
200901060900 AAXX 06094 67665 42560 60603 10250 20192 48507 70222 85200
                   333 59005 82618 85820 91016=
200901060600 AAXX 06064 67665 31559 81202 10212 20199 48503 70222 84222
                   333 59007 84618 82828 85360 87080 91017=
200901060400 AAXX 06044 67665 42380 70000 10202 20187 48501 70322 875//
                   333 59003 87615=
200901060300 AAXX 06034 67665 42780 70000 10198 20//0 48494 70122 81930
                   333 59008 81945 83560=
200901060000 AAXX 06004 67665 41780 70000 10204 20//0 48496 71322 81932
                   333 59008 81945 83360 84080=
200901052100 AAXX 05214 67665 41780 10204 20//0 48502 71382 81932
                   333 59007 81940 83360 84080=
200901051500 AAXX 05154 67665 42680 60905 10265 20183 48481 83232
                   333 59013 83848 83360 85080=
200901051200 AAXX 05124 67665 42680 61303 10279 20192 48490 86200
                   333 59016 86840=
200901050600 AAXX 05064 67665 12380 71102 10208 20196 48511 60024 8173/
                   333 10275 20192 59006 81705 87360=
200901041800 AAXX 04184 67665 42780 70000 10203 20//0 48528 70222 81932
                   333 10262 59007 81945 83360 87080=
200901041500 AAXX 04154 67665 42780 70000 10236 20165 48489 70222 81932
                   333 58005 81945 82856 83360 87080
                   555 10262=
200901041200 AAXX 04124 67665 42658 80607 10233 20202 48503 79596 8197/
                   333 58008 81938 85840 87459 91016=
200901040900 AAXX 04094 67665 42680 61003 10266 20203 48519 85232
                   333 59009 85832 81360 81080=
200901040600 AAXX 04064 67665 12580 72703 10225 20200 48520 60014 81130
                   333 10270 20196 58005 81820 87360=
200901031500 AAXX 03154 67665 42380 60000 10242 20198 48496 81932
                   333 59022 82615 81935 84360 85080=
200901031200 AAXX 03124 67665 42680 61806 10245 20204 48505 70222 8293/
                   333 58003 82935 85838 82360=
200901030900 AAXX 03094 67665 42580 60000 10257 20195 48529 70322 85232
                   333 58016 81922 85825 81360 80280 91018=
200901030600 AAXX 03064 67665 11456 70000 10186 20198 48527 74244 8153/
                   333 10197 20175 58003 81612 87360
                   555 91019=
200901030300 AAXX 03034 67665 42970 70000 10178 20//0 48508 83071
                   333 58003 84460 86080 91017=
200901030000 AAXX 03004 67665 42970 62502 10181 20//0 48503 70222 81971
                   333 58009 819// 86460 82080=
200901022100 AAXX 02214 67665 42970 60000 10180 20//0 48515 70222 8197/
                   333 59002 819// 86460 91018=
200901021200 AAXX 02124 67665 41659 73008 10201 20201 48497 79592 8193/
                   333 59010 81930 86835 83360 91016=
200901011800 AAXX 01184 67665 42780 80000 10214 20//0 48518 70222 82132
                   333 10281 58015 819// 87360=
200901011500 AAXX 01154 67665 42680 80903 10232 20189 48497 70222 82132
                   333 58009 82830 85360 87080 91016=
200901011200 AAXX 01124 67665 42580 81703 10224 20180 48509 70222 82172
                   333 58011 82825 83360 87080 91017=
200901010900 AAXX 01094 67665 41460 80000 10203 20175 48528 76022 82572
                   333 58015 82615 85359 87080=

################################################################################
#  SYNOPS from 67666, Lusaka City Airport (Zambia) | 15-25S | 028-19E | 1280 m
################################################################################
200901300900 AAXX 30094 67666 42580 70905 10235 20183 48529 8423/
                   333 58014 84820 87360 82080=
200901300600 AAXX 30064 67666 11360 83606 10200 20191 48533 69904 75022 8477/
                   333 10285 20185 58010 84709 88459=
200901280900 AAXX 28094 67666 42680 20812 10260 20177 48521 81101
                   333 59016 81830 82080=
200901280600 AAXX 28064 67666 32980 20805 10220 20183 48523 82032
                   333 10270 20180 59017 81360 81080=
200901261200 AAXX 26124 67666 42580 51010 10248 20184 48518 85232
                   333 58019 81930 85830 82360 81080 91018=
200901210600 AAXX 21064 67666 11375 81004 10183 20179 48509 60214 75022 8677/
                   333 10245 20166 58013 86708 88458=
200901201200 AAXX 20124 67666 42580 80901 10215 20186 48485 72055 8627/
                   333 58000 81925 85825 87460=
200901161200 AAXX 16124 67666 42580 63505 10248 20185 48489 83238
                   333 58000 83820 86360 84280=
200901140600 AAXX 14064 67666 12480 72406 10218 20192 48518 60024 82541
                   333 10280 20195 59001 81618 85460 82080=
200901121200 AAXX 12124 67666 42680 53505 10266 20185 48500 86201
                   333 59021 86845 81080=
200901080600 AAXX 08064 67666 32480 70607 10210 20179 48524 81538
                   333 10266 20180 58020 81610 83359 87280=
200901050600 AAXX 05064 67666 32980 71004 10208 20180 48481 85078
                   333 10275 20183 59010 85359 87280=
200901021200 AAXX 02124 67666 41680 60307 10214 20173 48486 79592 81930
                   333 59012 81930 86830 81360=

################################################################################
#  SYNOPS from 67667, Mount Makulu (Zambia) | 15-33S | 028-15E | 1213 m
################################################################################
200901230300 AAXX 23034 67667 42970 70000 10189 20189 48507 81232
                   333 59005 81840 86360 86080=

################################################################################
#  SYNOPS from 67673, Petauke (Zambia) | 14-15S | 031-17E | 1035 m
################################################################################
200901300900 AAXX 30094 67673 41684 43506 10267 20201 48537 71720 84202
                   333 58000 81935 84835 81080=
200901291200 AAXX 29124 67673 42680 70502 10293 20185 48512 86202
                   333 59011 86842 82080=
200901280600 AAXX 28064 67673 12580 50502 10240 20191 48509 60224 81131
                   333 10300 20179 59009 81815 81360 83080=
200901201200 AAXX 20124 67673 42680 72004 10246 20278 48508 83132
                   333 58016 83840 83360 86280=
200901161200 AAXX 16124 67673 42980 71603 10235 20199 48498 87072
                   333 59003 87460 83280=
200901131200 AAXX 13121 67673 32680 73203 10288 20212 39233 48486 84936
                   333 59005 81930 84835 87280
                   555 10299 29062=
200901021200 AAXX 02124 67673 42680 53502 10273 20179 48504 85232
                   333 5//// 85842 81360 81080=

################################################################################
#  SYNOPS from 67741, Sesheke (Zambia) | 17-28S | 024-18E | 949 m
################################################################################
200901280600 AAXX 28064 67741 12980 63606 10225 20203 48520 60084 83032
                   333 10304 20192 59013 83361 84080=

################################################################################
#  SYNOPS from 67743, Livingstone (Zambia) | 17-49S | 025-49E | 985 m
################################################################################
200901300900 AAXX 30094 67743 42680 63410 10272 20196 48528 85230
                   333 58004 85830 84360=
200901291200 AAXX 29124 67743 42580 73303 10278 20192 48496 83202
                   333 59010 81930 83835 83080=
200901290900 AAXX 29094 67743 42580 70203 10265 20207 48526 85204
                   333 59018 85828 83080=
200901290600 AAXX 29064 67743 11380 83304 10215 20193 48527 60284 72162 8227/
                   333 10326 20199 58009 81709 82925 88460=
200901281200 AAXX 28124 67743 42680 41903 10307 20188 48501 84280
                   333 59027 84845 91014=
200901280900 AAXX 28094 67743 42680 40105 10291 20182 48523 81130
                   333 59024 82830 81360=
200901280600 AAXX 28064 67743 32380 61203 10206 20200 48519 84730
                   333 10293 20190 59014 84708 82362=
200901270600 AAXX 27064 67743 12380 72602 10204 20183 48530 60184 8167/
                   333 10285 20194 58006 81706 87360=
200901211200 AAXX 21124 67743 42680 61207 10280 20200 48502 85230
                   333 58013 85845 83360 91015=
200901210600 AAXX 21064 67743 12380 70707 10210 20103 48506 69994 85631
                   333 10285 29179 85708 83360 82080=
200901190600 AAXX 19064 67743 32380 81405 10215 20211 48500 60144 70222 877//
                   333 10300 20198 59001 88709=
200901161200 AAXX 16124 67743 42580 81106 10262 20199 48492 81934
                   333 59003 81928 82360 84080=
200901100600 AAXX 10064 67743 12980 73205 10240 20212 48527 60014 82082
                   333 10315 20202 82360 84362 81080=
200901070900 AAXX 07094 67743 42580 70906 10250 20206 48494 848//
                   333 59002 83620 85830=
200901060900 AAXX 06094 67743 42680 70809 10280 20191 48505 83108
                   333 59007 83840 86280 91015=

################################################################################
#  SYNOPS from 67753, Choma (Zambia) | 16-50S | 027-04E | 1213 m
################################################################################
200901290600 AAXX 29064 67753 32480 72705 10211 20204 48/// 82508
                   333 10284 20185 5//// 82612 87280=
200901280600 AAXX 28064 67753 32980 73605 10223 20183 48/// 80008
                   333 10273 20174 5//// 87280=
200901161200 AAXX 16124 67753 42680 73605 10241 20188 48/// 87208
                   333 5//// 87830 87280=
200901121200 AAXX 12124 67753 42680 73007 10276 20185 85208
                   333 85835 85280=
200901080900 AAXX 08094 67753 42580 70910 10258 20187 48/// 85208
                   333 5//// 85820 87280=

################################################################################
#  SYNOPS from 67855, Lupaki (Zambia) | 17-03-00S | 024-46-00E | 1000 m
################################################################################
200901310600 AAXX 31064 67855 NIL=
200901310000 AAXX 31004 67855 NIL=
200901301800 AAXX 30184 67855 NIL=
200901301200 AAXX 30124 67855 NIL=
200901300600 AAXX 30064 67855 12980 70501 10228 20196 3//// 48/// 69904 81032
                   333 20185 5//// 81360 87080=
200901300000 AAXX 30004 67855 NIL=
200901291200 AAXX 29124 67855 NIL=
200901290600 AAXX 29064 67855 NIL=
200901290000 AAXX 29004 67855 NIL=
200901281200 AAXX 28124 67855 NIL=
200901280600 AAXX 28064 67855 NIL=
200901280000 AAXX 28004 67855 NIL=
200901271800 AAXX 27184 67855 NIL=
200901271200 AAXX 27124 67855 NIL=
200901270600 AAXX 27064 67855 12980 70202 10220 20184 3//// 48/// 69904 87032
                   333 20182 5//// 87360=
200901270000 AAXX 27004 67855 NIL=
200901261800 AAXX 26184 67855 NIL=
200901261200 AAXX 26124 67855 NIL=
200901260600 AAXX 26064 67855 NIL=
200901260000 AAXX 26004 67855 NIL=
200901251800 AAXX 25184 67855 NIL=
200901251200 AAXX 25124 67855 NIL=
200901250600 AAXX 25064 67855 NIL=
200901241800 AAXX 24184 67855 NIL=
200901241200 AAXX 24124 67855 NIL=
200901240600 AAXX 24064 67855 NIL=
200901240000 AAXX 24004 67855 NIL=
200901231800 AAXX 23184 67855 NIL=
200901231200 AAXX 23124 67855 NIL=
200901230600 AAXX 23064 67855 NIL=
200901230000 AAXX 23004 67855 NIL=
200901221800 AAXX 22184 67855 NIL=
200901220600 AAXX 22064 67855 NIL=
200901220000 AAXX 22004 67855 NIL=
200901211800 AAXX 21184 67855 NIL=
200901211200 AAXX 21124 67855 NIL=
200901200600 AAXX 20064 67855 NIL=
200901200000 AAXX 20004 67855 NIL=
200901191800 AAXX 19184 67855 NIL=
200901191200 AAXX 19124 67855 NIL=
200901190600 AAXX 19064 67855 NIL=
200901190000 AAXX 19004 67855 NIL=
200901181800 AAXX 18184 67855 NIL=
200901181200 AAXX 18124 67855 NIL=
200901180600 AAXX 18064 67855 NIL=
200901171800 AAXX 17184 67855 NIL=
200901171200 AAXX 17124 67855 NIL=
200901170600 AAXX 17064 67855 NIL=
200901170000 AAXX 17004 67855 NIL=
200901161800 AAXX 16184 67855 NIL=
200901161200 AAXX 16124 67855 NIL=
200901160600 AAXX 16064 67855 NIL=
200901160000 AAXX 16004 67855 NIL=
200901151800 AAXX 15184 67855 NIL=
200901151200 AAXX 15124 67855 NIL=
200901150600 AAXX 15064 67855 NIL=
200901150000 AAXX 15004 67855 NIL=
200901141800 AAXX 14184 67855 NIL=
200901141200 AAXX 14124 67855 NIL=
200901140600 AAXX 14064 67855 NIL=
200901140000 AAXX 14004 67855 NIL=
200901131800 AAXX 13184 67855 NIL=
200901131200 AAXX 13124 67855 NIL=
200901130600 AAXX 13064 67855 NIL=
200901130000 AAXX 13004 67855 NIL=
200901121800 AAXX 12184 67855 NIL=
200901121200 AAXX 12124 67855 NIL=
200901120600 AAXX 12064 67855 NIL=
200901120000 AAXX 12004 67855 NIL=
200901111800 AAXX 11184 67855 NIL=
200901111200 AAXX 11124 67855 NIL=
200901110600 AAXX 11064 67855 NIL=
200901101800 AAXX 10184 67855 NIL=
200901101200 AAXX 10124 67855 NIL=
200901100600 AAXX 10064 67855 NIL=
200901091800 AAXX 09184 67855 NIL=
200901091200 AAXX 09124 67855 NIL=
200901090600 AAXX 09064 67855 NIL=
200901090000 AAXX 09004 67855 NIL=
200901081800 AAXX 08184 67855 NIL=
200901081200 AAXX 08124 67855 NIL=
200901080600 AAXX 08064 67855 NIL=
200901080000 AAXX 08004 67855 NIL=
200901071800 AAXX 07184 67855 NIL=
200901070600 AAXX 07064 67855 NIL=
200901070000 AAXX 07004 67855 NIL=
200901061800 AAXX 06184 67855 NIL=
200901061200 AAXX 06124 67855 NIL=
200901060600 AAXX 06064 67855 NIL=
200901060000 AAXX 06004 67855 NIL=
200901051800 AAXX 05184 67855 NIL=
200901051200 AAXX 05124 67855 NIL=
200901050600 AAXX 05064 67855 NIL=
200901050000 AAXX 05004 67855 NIL=
200901041200 AAXX 04124 67855 NIL=
200901040600 AAXX 04064 67855 NIL=
200901040000 AAXX 04004 67855 NIL=
200901031800 AAXX 03184 67855 NIL=
200901031200 AAXX 03124 67855 NIL=
200901030600 AAXX 03064 67855 NIL=
200901030000 AAXX 03004 67855 NIL=
200901021800 AAXX 02184 67855 NIL=
200901021200 AAXX 02124 67855 NIL=
200901020600 AAXX 02064 67855 NIL=
200901020000 AAXX 02004 67855 NIL=
200901011800 AAXX 01184 67855 NIL=
200901011200 AAXX 01124 67855 NIL=
200901010600 AAXX 01064 67855 NIL=
