################################################################################
# Query made at 04/18/2022 00:43:59 UTC
# Country like Zamb*
# Time interval: from 07/01/2006 05:30  to 07/31/2006 05:30  UTC
################################################################################

################################################################################
#  SYNOPS from 67403, Kawambwa (Zambia) | 09-48S | 029-05E | 1323 m
################################################################################
200607210600 AAXX 21064 67403 32980 42902 10170 20108 48561 80001
                   333 10257 20104 59004 84080=
200607050600 AAXX 05064 67403 32980 20906 10156 20099 48566
                   333 10277 20088 59010=
200607031200 AAXX 03124 67403 NIL=

################################################################################
#  SYNOPS from 67413, Mbala (Zambia) | 08-51S | 031-20E | 1673 m
################################################################################
200607211200 AAXX 21124 67413 42480 60000 10250 20120 48520 86200
                   333 58008 86818=
200607210600 AAXX 21064 67413 32980 10812 10180 20105 48553 80001
                   333 10246 20101 59003 81080=
200607191200 AAXX 19124 67413 42680 70910 10240 20115 48542 872//
                   333 58003 87830=
200607190600 AAXX 19064 67413 32980 00908 10170 20122 48553
                   333 10235 20114 59003=
200607170600 AAXX 17064 67413 31975 30810 10163 20119 48559 70500 83030
                   333 10260 20107 58003 83361=
200607140600 AAXX 14064 67413 32980 30911 10155 20091 48540 80002
                   333 10255 20130 59001 83080=
200607130600 AAXX 13064 67413 32980 01814 10147 20099 48550
                   333 10255 20095 59011=
200607120600 AAXX 12064 67413 32980 01811 10155 20101 48571
                   333 10240 20080 59013=
200607100600 AAXX 10064 67413 32980 41813 10145 20089 48581 80001
                   333 10250 20079 58008 84080=
200607060600 AAXX 06064 67413 32980 30710 10142 20097 48574 80001
                   333 10261 20086 58009 83080=
200607050600 AAXX 05064 67413 32980 00000 10150 20105 48565
                   333 10265 20090 58007=
200607031200 AAXX 03124 67413 42980 00000 10260 20072 48540
                   333 59004=
200607030900 AAXX 03094 67413 42980 00000 10222 20109 48566
                   333 59006=
200607020900 AAXX 02094 67413 42980 00000 10215 20103 48573
                   333 59006=
200607010900 AAXX 01094 67413 42980 00810 10210 20113 48579
                   333 58003=
200607010600 AAXX 01064 67413 32480 30815 10133 20103 48579 83500
                   333 10246 20094 58001 83613=

################################################################################
#  SYNOPS from 67441, Mwinilunga (Zambia) | 11-45S | 024-26E | 1361 m
################################################################################
200607191200 AAXX 19124 67441 NIL=
200607070600 AAXX 07064 67441 31965 02902 10098 20072 48579 70500
                   333 10270 20060 59005=
200607061200 AAXX 06124 67441 41975 00911 10250 20043 48565 70500
                   333 58002=
200607050600 AAXX 05064 67441 31980 03303 10080 20048 48577 70500
                   333 10265 20025 58001=
200607020600 AAXX 02064 67441 31970 01502 10115 20086 48597 70500
                   333 10265 20045 58001=
200607010600 AAXX 01064 67441 31970 00904 10110 20071 48596 70500
                   333 10240 20070 59011=

################################################################################
#  SYNOPS from 67461, Mansa (Zambia) | 11-06S | 028-51E | 1382 m
################################################################################
200607230600 AAXX 23064 67461 31965 00902 10174 20122 48539 70500
                   333 10286 20102 58004=
200607210600 AAXX 21064 67461 31975 10903 10144 20093 48543 70500 80001
                   333 10271 20096 59004 81080=
200607191200 AAXX 19124 67461 NIL=
200607120600 AAXX 12064 67461 32980 10904 10112 20081 48555 80001
                   333 10247 20076 59016 81080=
200607070600 AAXX 07064 67461 31970 11403 10123 20084 48549 70500 80001
                   333 10241 20073 59018 81080=
200607060600 AAXX 06064 67461 32680 10901 10128 20087 48556 80001
                   333 10260 20076 58018 81080=
200607050600 AAXX 05064 67461 31970 01203 10124 20078 48546 70500
                   333 10239 20080 58010=

################################################################################
#  SYNOPS from 67475, Kasama (Zambia) | 10-13S | 031-08E | 1382 m
################################################################################
200607211200 AAXX 21124 67475 41675 30902 10257 20062 48517 70511 83100
                   333 59012 83848=
200607210600 AAXX 21064 67475 31975 11208 10167 20100 48551 70500 82030
                   333 10265 20089 59003 82361=
200607191200 AAXX 19124 67475 NIL=
200607190600 AAXX 19064 67475 31975 00908 10182 20092 48552 70500
                   333 10251 20098 58007=
200607171200 AAXX 17124 67475 41675 61204 10240 20110 48536 70522 86101
                   333 59002 86845 83080=
200607140600 AAXX 14064 67475 31975 50904 10172 20084 48557 70510 80001
                   333 10260 20094 59008 85080=
200607120600 AAXX 12064 67475 31975 01213 10152 20080 48568 70500
                   333 10234 20087 5901/=
200607060600 AAXX 06064 67475 31975 61109 10155 20088 48564 70522 80002
                   333 10249 20084 58001 86080=
200607050600 AAXX 05064 67475 31975 01208 10171 20102 48564 70500
                   333 10254 20116 58005=

################################################################################
#  SYNOPS from 67476, Misamfu (Zambia) | 10-06S | 031-15E | 1536 m
################################################################################
200607210600 AAXX 21064 67476 31975 10908 10165 20102 48/// 70500 80001
                   333 10260 20072 59004 81080=

################################################################################
#  SYNOPS from 67477, Mpika (Zambia) | 11-54S | 031-26E | 1400 m
################################################################################
200607211200 AAXX 21124 67477 42780 40904 10235 20094 48524 84100
                   333 59017 84850=
200607191200 AAXX 19124 67477 42780 40803 10230 20064 48540 84100
                   333 58006 84856=
200607190600 AAXX 19064 67477 32880 01904 10170 20109 48561 81130
                   333 10245 20110 58004 81823 81361=
200607120600 AAXX 12064 67477 32980 00908 10150 20067 48572
                   333 10200 20085 59013=
200607070600 AAXX 07064 67477 32980 10901 10140 20084 48570 80001
                   333 10209 20026 59001=
200607061200 AAXX 06124 67477 42680 31103 10204 20087 48556 83100
                   333 58003 83845=
200607020600 AAXX 02064 67477 32480 11007 10128 20095 48578 81500
                   333 10210 20077 59006 81612=
200607010600 AAXX 01064 67477 32480 10906 10144 20090 48585 81100
                   333 10208 20092 58006 81818=

################################################################################
#  SYNOPS from 67481, Isoka (Zambia) | 10-07S | 032-38E | 1360 m
################################################################################
200607050600 AAXX 05064 67481 32980 01504 10181 20116 48///
                   333 10256 20099 58009=
200607031200 AAXX 03124 67481 NIL=

################################################################################
#  SYNOPS from 67531, Zambezi (Zambia) | 13-32S | 023-07E | 1077 m
################################################################################
200607191200 AAXX 19124 67531 41975 10506 10271 20185 70500
                   333 58010=
200607190600 AAXX 19064 67531 31975 01504 10112 20090 48/// 70500
                   333 10288 20075 58007=
200607181200 AAXX 18124 67531 41975 01205 10274 20174 70500
                   333 59003=
200607171200 AAXX 17124 67531 41675 11306 10270 20145 70500 81100
                   333 81845=
200607140600 AAXX 14064 67531 31975 01404 10126 20090 48/// 70500
                   333 10275 20067 58002=
200607130600 AAXX 13064 67531 31975 01603 10094 20079 48/// 70500
                   333 10266 20044 5////=
200607020600 AAXX 02064 67531 31975 01305 10135 20086 48/// 70500
                   333 10262 20074 5////=

################################################################################
#  SYNOPS from 67541, Kasempa (Zambia) | 13-32S | 025-51E | 1234 m
################################################################################
200607191200 AAXX 19124 67541 NIL=

################################################################################
#  SYNOPS from 67543, Kabompo (Zambia) | 13-36S | 024-12E | 1075 m
################################################################################
200607031200 AAXX 03124 67543 NIL=

################################################################################
#  SYNOPS from 67551, Solwezi (Zambia) | 12-11S | 026-23E | 1386 m
################################################################################
200607210600 AAXX 21064 67551 31960 01501 10108 20073 48539 70500
                   333 10251 20/// 59011=
200607120600 AAXX 12064 67551 31965 01006 10101 20069 48560 70500
                   333 10235 20056 59010=
200607100600 AAXX 10064 67551 31956 01206 10098 20069 70500
                   333 10234 20070 58004=
200607060600 AAXX 06064 67551 31965 00903 10120 20077 48563 70500
                   333 10252 20043 58005=
200607050600 AAXX 05064 67551 31960 00903 10118 20073 48558 70500
                   333 10255 20051 58000=
200607031200 AAXX 03124 67551 NIL=
200607020900 AAXX 02094 67551 41965 01005 10195 20094 48573 70500
                   333 58000=

################################################################################
#  SYNOPS from 67561, Ndola (Zambia) | 13-00S | 028-39E | 1269 m
################################################################################
200607210600 AAXX 21064 67561 31975 60502 10154 20099 48546 70522 86030
                   333 10257 20130 59008 86362=
200607191200 AAXX 19124 67561 NIL=
200607190600 AAXX 19064 67561 31975 10000 10166 20074 48555 70500 81030
                   333 10267 20101 58006 81361=
200607130600 AAXX 13064 67561 32980 00705 10114 20077 48557
                   333 10255 20064 59018=
200607120600 AAXX 12064 67561 31970 00000 10115 20068 48567 70500
                   333 10240 20057 59012=
200607060600 AAXX 06064 67561 31965 00000 10134 20087 48567 70500
                   333 10259 20068 58008=
200607050600 AAXX 05064 67561 32980 00707 10140 20079 48560
                   333 10254 20075 58003=

################################################################################
#  SYNOPS from 67563, Kafironda (Zambia) | 12-36S | 028-07E | 1243 m
################################################################################
200607031200 AAXX 03124 67563 NIL=

################################################################################
#  SYNOPS from 67571, Serenje (Zambia) | 13-14S | 030-13E | 1384 m
################################################################################
200607201200 AAXX 20124 67571 42782 61213 10222 20084 48543 86500
                   333 58002 86650=
200607180600 AAXX 18064 67571 31975 31209 10163 20110 48549 70500 81031
                   333 10240 20124 59011 81360 82080=
200607140600 AAXX 14064 67571 32978 10509 10144 20084 48558 70500 80001
                   333 10253 20077 58007 81080=
200607050600 AAXX 05064 67571 31978 01204 10143 20074 48558 70500
                   333 10233 20062 58007=
200607031200 AAXX 03124 67571 NIL=

################################################################################
#  SYNOPS from 67581, Chipata (Zambia) | 13-33S | 032-35E | 1028 m
################################################################################
200607210600 AAXX 21064 67581 32980 70604 10180 20137 48558 8703/
                   333 10265 20140 59014 87360=
200607191200 AAXX 19124 67581 NIL=
200607190600 AAXX 19064 67581 32980 60910 10220 20142 48566 86030
                   333 10275 20143 58000 86361=
200607171200 AAXX 17124 67581 42680 52704 10246 20112 48553 85100
                   333 59002 85845=
200607140600 AAXX 14064 67581 32680 10215 10188 20126 48575 81100
                   333 10259 20156 58002=
200607070600 AAXX 07064 67581 32980 00605 10202 20097 48578
                   333 10255 20099 59011=
200607050600 AAXX 05064 67581 32980 01408 10189 20090 48577
                   333 10259 20130 58007=

################################################################################
#  SYNOPS from 67583, Lundazi (Zambia) | 12-17S | 033-12E | 1143 m
################################################################################
200607031200 AAXX 03124 67583 NIL=

################################################################################
#  SYNOPS from 67599, Mfuwe (Zambia) | 13-16S | 031-56E | 568 m
################################################################################
200607200600 AAXX 20064 67599 32980 50000 10210 20139 48578 84031
                   333 10296 20/// 58009 84360 83080=
200607191200 AAXX 19124 67599 42780 61604 10330 20181 48573 83230
                   333 58006 83850 85360=
200607190600 AAXX 19064 67599 32980 60000 10215 20142 48577 86030
                   333 10295 20/// 59001=
200607180900 AAXX 18094 67599 42580 40000 10264 20144 81130
                   333 59005 81820 83360=
200607170600 AAXX 17064 67599 32980 70000 10180 20140 48578 87030
                   333 10310 20/// 58002 87360=
200607150600 AAXX 15064 67599 32980 01206 10210 20126 48588
                   333 10275 20/// 58001=
200607140600 AAXX 14064 67599 32980 01202 10185 20116 48578
                   333 10270 20/// 59001=
200607130900 AAXX 13094 67599 42580 30802 10255 20153 48593 83100
                   333 59021 83825=
200607130600 AAXX 13064 67599 32980 30000 10196 20120 48581 83030
                   333 10266 20/// 59018 83360=
200607120900 AAXX 12094 67599 42580 30000 10240 20134 48608 83100
                   333 59012 83825=
200607031200 AAXX 03124 67599 NIL=

################################################################################
#  SYNOPS from 67625, Kalabo (Zambia) | 14-51S | 022-42E | 1033 m
################################################################################
200607031200 AAXX 03124 67625 NIL=

################################################################################
#  SYNOPS from 67633, Mongu (Zambia) | 15-15S | 023-09E | 1052 m
################################################################################
200607191200 AAXX 19124 67633 NIL=
200607190600 AAXX 19064 67633 31975 00704 10151 20075 48553 70500
                   333 10294 20111 58007=
200607140600 AAXX 14064 67633 41975 01007 10123 20075 48539 70500
                   333 10277 20116 58001=

################################################################################
#  SYNOPS from 67641, Kaoma (Zambia) | 14-48S | 024-48E | 1213 m
################################################################################
200607191200 AAXX 19124 67641 NIL=

################################################################################
#  SYNOPS from 67655, Mumbwa (Zambia) | 15-04S | 027-11E | 1216 m
################################################################################
200607170600 AAXX 17064 67655 32980 21105 10140 20140 48567 82303
                   333 10246 20084 59002 82360=
200607050600 AAXX 05064 67655 31975 00504 10139 20074 48576 70500
                   333 10240 20057 59004=
200607031200 AAXX 03124 67655 NIL=

################################################################################
#  SYNOPS from 67659, Kafue Polder (Zambia) | 15-46S | 027-55E | 978 m
################################################################################
200607261200 AAXX 26124 67659 41970 01211 10264 20038 70500=
200607201200 AAXX 20124 67659 41675 40808 10256 20056 70522 83130
                   333 83845 83362=
200607200600 AAXX 20064 67659 31975 10904 10175 20099 70500 81030
                   333 10265 20084 81362=
200607191200 AAXX 19124 67659 41775 50607 10255 20050 70532 85100
                   333 85850=
200607181200 AAXX 18124 67659 41775 41605 10250 20069 48/// 70522 84100
                   333 5//// 84850=
200607180600 AAXX 18064 67659 31975 00903 10163 20094 48/// 70500
                   333 10260 20082 5////=
200607171200 AAXX 17124 67659 41675 60304 10255 20100 70522 84130
                   333 84840 86362=
200607150600 AAXX 15064 67659 31975 01204 10154 20109 48/// 70500
                   333 10260 20077 5////=
200607060600 AAXX 06064 67659 32975 00000 10092 20070 48/// 70500
                   333 10249 20043=
200607031200 AAXX 03124 67659 NIL=
200607030900 AAXX 03094 67659 42775 10906 10220 20074 70503 81100
                   333 81850=
200607020600 AAXX 02064 67659 31980 00904 10139 20071 48/// 70500
                   333 10218 20049 5////=

################################################################################
#  SYNOPS from 67662, Kabwe Agric (Zambia) | 14-24S | 028-30E | 1165 m
################################################################################
200607200600 AAXX 20064 67662 32980 11260 10142 20077 81030
                   333 10/// 20/// 5//// 81363=
200607120600 AAXX 12064 67662 32980 00906 10119 20095 48///
                   333 10/// 20/// 5////=
200607100600 AAXX 10064 67662 32980 01406 10126 20074 48///
                   333 10/// 20///=
200607050600 AAXX 05064 67662 32980 01203 10128 20079 48///
                   333 10/// 20/// 5////=
200607031200 AAXX 03124 67662 NIL=

################################################################################
#  SYNOPS from 67663, Kabwe (Zambia) | 14-27S | 028-28E | 1206 m
################################################################################
200607191200 AAXX 19124 67663 NIL=
200607070600 AAXX 07064 67663 32980 00000 10142 20076 48555
                   333 10167 20075 59008=
200607030900 AAXX 03094 67663 42680 10904 10206 20066 48575 81100
                   333 59009 81830=

################################################################################
#  SYNOPS from 67665, Lusaka Internationalairport (Zambia) | 15-19S | 028-27E | 1152 m
################################################################################
200607300900 AAXX 30094 67665 42480 61016 10177 20142 48584 85530
                   333 58006 85615 83360=
200607300600 AAXX 30064 67665 32980 71110 10147 20139 48573 87030
                   333 10230 20096 58001 87359=
200607291200 AAXX 29124 67665 42580 31115 10201 20116 48563 83200
                   333 59008 83825=
200607290900 AAXX 29094 67665 42480 41016 10186 20146 48581 84500
                   333 59017 84615 91026=
200607290600 AAXX 29064 67665 32480 11104 10111 20111 48583 81500
                   333 10230 20076 59016 81610=
200607281200 AAXX 28124 67665 42680 10917 10222 20065 48574 81100
                   333 59020 81840=
200607280900 AAXX 28094 67665 42580 30915 10184 20096 40596 83200
                   333 59019 83825 91028=
200607261200 AAXX 26124 67665 42980 01019 10248 20133 48591
                   333 58012 91026=
200607260900 AAXX 26090 67665 42980 00920 10229 20074 48599
                   333 58014=
200607260400 AAXX 26044 67665 42980 01405 10096 20095 48569
                   333 58003=
200607260300 AAXX 26034 67665 42980 01403 10099 20079 48563
                   333 58017=
200607252100 AAXX 25214 67665 42980 01403 10142 20096 48576
                   333 58017=
200607250900 AAXX 25094 67665 42980 00811 10235 20096 48586
                   333 58010=
200607250600 AAXX 25064 67665 32980 01405 10150 20072 48571
                   333 10296 20102 58008=
200607250400 AAXX 25044 67665 42980 00000 10100 20060 48552
                   333 58007=
200607250300 AAXX 25034 67665 42980 00000 10104 20065 48548
                   333 58010=
200607250000 AAXX 25004 67665 42980 01804 10113 20073 48552
                   333 58017=
200607242100 AAXX 24214 67665 42980 01602 10143 20095 48559
                   333 58016=
200607241800 AAXX 24184 67665 42980 01304 10186 20086 48556
                   333 10296 58010=
200607241500 AAXX 24154 67665 42980 01311 10260 20060 48553
                   333 58023=
200607241200 AAXX 24124 67665 41980 00810 10271 20090 48560 70500
                   333 58020=
200607231200 AAXX 23124 67665 42680 30908 10263 20090 48553 83100
                   333 58001 83840=
200607230900 AAXX 23094 67665 42980 00810 10249 20105 48563
                   333 59004=
200607230600 AAXX 23064 67665 32980 01402 10134 20116 48544
                   333 10265 20079 59004=
200607230300 AAXX 23034 67665 42980 01502 10103 20087 48524
                   333 59002 91021=
200607221800 AAXX 22184 67665 42980 21003 10152 20108 48530 82030
                   333 10265 59011 82360=
200607221500 AAXX 22154 67665 42980 21906 10250 20056 48524 82030
                   333 59016 82360=
200607221200 AAXX 22124 67665 42675 42203 10239 20102 48534 84200
                   333 59009 84840=
200607220900 AAXX 22094 67665 42580 11103 10224 20134 48563 81100
                   333 59011 81835=
200607211200 AAXX 21124 67665 42680 53003 10225 20095 48543 70522 82230
                   333 59022 82837 83360=
200607210900 AAXX 21094 67665 42580 51011 10205 20131 48571 81130
                   333 59013 81825 85360=
200607210600 AAXX 21064 67665 32980 11105 10125 20123 48556 81030
                   333 10257 20072 59017 81360 91024=
200607201200 AAXX 20124 67665 42680 41214 10233 20084 48564 70200 84200
                   333 58000 84840 91023=
200607200900 AAXX 20094 67665 42680 10914 10217 20116 48586 81100
                   333 59001 81835=
200607200600 AAXX 20064 67665 32980 11147 10136 20110 48572 81030
                   333 10257 20086 58009 81360=
200607191200 AAXX 19124 67665 42780 40608 10241 20069 48568 84100
                   333 58007 84850=
200607190900 AAXX 19094 67665 42580 10811 10226 20096 48585 81100
                   333 58006 81825=
200607190600 AAXX 19064 67665 32980 01502 10131 20104 48564
                   333 10252 20075 59001=
200607180900 AAXX 18094 67665 42580 30710 10218 20127 48578 83100
                   333 59004 83825=
200607170900 AAXX 17094 67665 42980 30510 10213 20148 48582 82130
                   333 58003 82825 83360
                   555 91026=
200607170600 AAXX 17064 67665 32980 21105 10140 20140 48567 82030
                   333 10246 20084 59002 82360=
200607160900 AAXX 16094 67665 42580 40713 10206 20141 48588 84830
                   333 58003 84825 81360 91026=
200607160600 AAXX 16064 67665 32980 11105 10145 20145 48575 81030
                   333 10256 20098 58005 81360=
200607160400 AAXX 16044 67665 42980 11602 10101 20101 48559 81030
                   333 58005 81359=
200607160300 AAXX 16034 67665 42980 11603 10107 20107 48557 81030
                   333 58006 81359=
200607160000 AAXX 16004 67665 42980 11505 10104 20104 48556 81030
                   333 58006 81360=
200607152100 AAXX 15214 67665 42980 10000 10127 20127 48562 81030
                   333 58003 81360=
200607151800 AAXX 15184 67665 42980 61106 10162 20128 48565 86030
                   333 58012 86360 91024=
200607140900 AAXX 14094 67665 42680 10515 10216 20106 48587 81100
                   333 58010 81830=
200607140600 AAXX 14064 67665 32980 01105 10125 20121 48571
                   333 10240 20081 58008=
200607140300 AAXX 14034 67665 42980 00403 10092 20092 48547
                   333 58001=
200607140000 AAXX 14004 67665 42980 01405 10100 20100 48549
                   333 59007=
200607132100 AAXX 13214 67665 42980 01403 10111 20111 48555
                   333 59008=
200607131800 AAXX 13184 67665 42680 01006 10151 20117 48553
                   333 10240 59010=
200607130900 AAXX 13094 67665 42580 10716 10205 20101 48575 81100
                   333 59020 81820=
200607130600 AAXX 13064 67665 32980 11105 10117 20117 48561 81030
                   333 10262 20074 59018 81360=
200607120900 AAXX 12094 67665 42580 10613 10195 20145 48594 81100
                   333 59016 81820=
200607120600 AAXX 12064 67665 42980 01203 10109 20109 48578
                   333 10211 20062 59016
                   555 91027=
200607120300 AAXX 12034 67665 42980 01403 10070 20070 48559
                   333 59019 555 91025=
200607111800 AAXX 11184 67665 42980 31106 10131 20114 48585 87530
                   333 10210 20075 58008 86635 83359=
200607111500 AAXX 11154 67665 42680 50911 10177 20107 48582 85100
                   333 59007 85849 555 10210 91026=
200607111200 AAXX 11124 67665 42680 41114 10197 20112 48587 84100
                   333 59008 84835=
200607110900 AAXX 11094 67665 42580 60714 10180 20105 48606 86800
                   333 59011 81820 86620=
200607110600 AAXX 11064 67665 32480 21104 10098 20098 48591 82130
                   333 10219 20056 59007 82820 81360 91029=
200607100900 AAXX 10094 67665 42580 50712 10184 20136 48521 85500
                   333 59001 85620=
200607100600 AAXX 10064 67665 31980 01203 10097 20089 48608 70500
                   333 10210 20070 58002=
200607100400 AAXX 10044 67665 42980 00502 10057 20057 48565
                   333 58002=
200607100300 AAXX 10034 67665 42980 01504 10082 20067 48581
                   333 58003=
200607091500 AAXX 09154 67665 42980 21112 10189 20101 48589 82030
                   333 58008 82360=
200607091200 AAXX 09124 67665 42780 40611 10208 20103 48596 84100
                   333 58010 84850=
200607090900 AAXX 09094 67665 42480 20813 10187 20102 48617 82100
                   333 58018 82820 91030=
200607081800 AAXX 08184 67665 42980 00812 10160 20097 48589
                   333 58023 91027=
200607080900 AAXX 08094 67665 42980 00921 10227 20107 48605
                   333 58013=
200607061800 AAXX 06184 67665 42980 01303 10130 20112 48572
                   333 10249 58011=
200607060600 AAXX 06064 67665 32980 01404 10119 20110 48581
                   333 10249 20061 58010=
200607060400 AAXX 06044 67665 42980 01103 10080 20080 48567
                   333 58015=
200607060300 AAXX 06034 67665 42980 03501 10067 20067 48563
                   333 58012=
200607051800 AAXX 05184 67665 42980 01303 10130 20112 48572
                   333 10249 58011=
200607051500 AAXX 05154 67665 42980 01211 10222 20116 48561 70500
                   333 58004=
200607051200 AAXX 05124 67665 42975 01405 10238 20103 48568 70500
                   333 58005=
200607050900 AAXX 05094 67665 42981 00610 10201 20106 48591
                   333 58008=
200607050600 AAXX 05064 67665 42980 01204 10112 20104 48571
                   333 10230 20070 58005 91026=
200607041500 AAXX 04154 67665 42970 01010 10218 20089 48562 70500
                   333 58004=
200607041200 AAXX 04124 67665 42970 01009 10238 20101 48563 70500
                   333 59005=
200607040900 AAXX 04094 67665 42680 11111 10206 20102 48585 81100
                   333 59009 81835 91026=
200607040600 AAXX 04064 67665 32980 01201 10112 20112 48566
                   333 10240 20064 59012 91025=
200607031800 AAXX 03184 67665 42980 01104 10137 20090 48561
                   333 10240 59014=
200607031500 AAXX 03154 67665 42980 01507 10212 20110 48559
                   333 59013=
200607031200 AAXX 03124 67665 42980 01207 10221 20076 48567
                   333 59010=
200607030900 AAXX 03094 67665 42980 01406 10200 20116 48592
                   333 59007 555 91027=
200607030600 AAXX 03064 67665 32980 00000 10115 20115 48578
                   333 10231 20079 59008=
200607020900 AAXX 02094 67665 42580 10911 10187 20108 48596 81100
                   333 5//// 81825=
200607020600 AAXX 02064 67665 31980 01202 10102 20094 48583 70500
                   333 10214 20065 59014=
200607011200 AAXX 01124 67665 41680 21407 10202 20115 48587 70500 82100
                   333 59007 82830=
200607010600 AAXX 01064 67665 32980 01009 10107 20107 48596
                   333 10208 20039 58005=

################################################################################
#  SYNOPS from 67666, Lusaka City Airport (Zambia) | 15-25S | 028-19E | 1280 m
################################################################################
200607261200 AAXX 26124 67666 41980 01109 10245 20029 48576 70500
                   333 58018=
200607211200 AAXX 21124 67666 42680 60804 10230 20089 48530 82130
                   333 59018 82842 84362=
200607210600 AAXX 21064 67666 32980 31214 10146 20099 48548 83030
                   333 10230 20119 59018 83359=
200607190600 AAXX 19064 67666 32980 00906 10175 20075 48559
                   333 10240 20115 58000=
200607181200 AAXX 18124 67666 42680 40000 10235 20091 48551 84200
                   333 58010 84840=
200607180600 AAXX 18064 67666 32980 00808 10160 20115 48557
                   333 10240 20126 59006=
200607170600 AAXX 17064 67666 32980 31311 10152 20109 48562 83030
                   333 10235 20125 5//// 83360=
200607150600 AAXX 15064 67666 32980 11208 10150 20096 48562 81030
                   333 10240 20/// 59004 81360=
200607140600 AAXX 14064 67666 32980 01110 10148 20087 48566
                   333 10231 20120 58011=
200607130600 AAXX 13064 67666 31980 00913 10150 20095 48555 70500
                   333 10222 20106 59020=
200607120600 AAXX 12064 67666 32980 00908 10140 20086 48574
                   333 10200 20090 59012=
200607100600 AAXX 10064 67666 32980 01014 10135 20079 48585
                   333 10202 20105 5////=
200607051200 AAXX 05124 67666 42980 00908 10225 20070 48556
                   333 58004=
200607050600 AAXX 05064 67666 32980 00912 10150 20074 48573
                   333 10235 20105 58000=
200607031200 AAXX 03124 67666 42980 00902 10223 20084 48551
                   333 59011=
200607030900 AAXX 03094 67666 42980 00910 10198 20072 48577
                   333 59007=
200607020900 AAXX 02094 67666 42680 10808 10175 20084 48581 81100
                   333 59014 81830=
200607011200 AAXX 01124 67666 42680 30808 10200 20082 48575 83100
                   333 59005 83848=
200607010900 AAXX 01094 67666 42980 00910 10175 20070 48594
                   333 59003=
200607010600 AAXX 01064 67666 32980 01210 10115 20076 48519
                   333 10198 20100 58006=

################################################################################
#  SYNOPS from 67667, Mount Makulu (Zambia) | 15-33S | 028-15E | 1213 m
################################################################################
200607031200 AAXX 03124 67667 NIL=

################################################################################
#  SYNOPS from 67673, Petauke (Zambia) | 14-15S | 031-17E | 1035 m
################################################################################
200607201200 AAXX 20124 67673 42780 71210 10234 20009 48563 878//
                   333 58005 83850 86650=
200607200600 AAXX 20064 67673 32980 71206 10166 20199 48576 87030
                   333 10273 20132 58014 87360=
200607191200 AAXX 19124 67673 42680 71207 10267 20060 48564 87800
                   333 58002 83845 86650=
200607181200 AAXX 18124 67673 42680 70000 10247 20107 48555 878//
                   333 59004 83846 87650=
200607180600 AAXX 18064 67673 32980 71204 10169 20121 48568 8702/
                   333 10272 20145 59013 87360=
200607150600 AAXX 15064 67673 32980 11208 10182 20112 48576 81030
                   333 10260 20129 59002 81362=
200607140600 AAXX 14064 67673 32980 00915 10184 20080 48578
                   333 10259 20112 58005=
200607130600 AAXX 13064 67673 32980 01409 10186 20086 48573
                   333 10252 20112 59019=
200607100600 AAXX 10064 67673 32580 21218 10150 20095 48605 82500
                   333 10225 20115 58003 82620=
200607051200 AAXX 05124 67673 41980 01210 10250 20070 48574 70500
                   333 58008=
200607031200 AAXX 03124 67673 NIL=
200607030900 AAXX 03094 67673 42680 60307 10227 20088 48593 86101
                   333 59003 86840 81080=

################################################################################
#  SYNOPS from 67731, Senanga (Zambia) | 16-06S | 023-16E | 1027 m
################################################################################
200607031200 AAXX 03124 67731 NIL=

################################################################################
#  SYNOPS from 67741, Sesheke (Zambia) | 17-28S | 024-18E | 949 m
################################################################################
200607261200 AAXX 26124 67741 41970 70906 10310 20079 48599 70500
                   333 58033=
200607210600 AAXX 21064 67741 32980 03602 10150 20074 48547
                   333 10275 20085 59022=
200607181200 AAXX 18124 67741 42680 11204 10273 20075 48562 81100
                   333 59001 81835=
200607171200 AAXX 17124 67741 42980 00104 10274 20093 48562
                   333 5////=
200607050600 AAXX 05064 67741 32980 00000 10088 20068 48557
                   333 10252 20026 58002=
200607031200 AAXX 03124 67741 NIL=

################################################################################
#  SYNOPS from 67743, Livingstone (Zambia) | 17-49S | 025-49E | 985 m
################################################################################
200607281200 AAXX 28124 67743 42980 00811 10229 20008 48583
                   333 59017=
200607230600 AAXX 23064 67743 32980 11103 10115 20047 48515 81030
                   333 10281 20083 59017 81360=
200607210900 AAXX 21094 67743 42980 11106 10230 20071 48567 81800
                   333 59022=
200607210600 AAXX 21064 67743 32980 01102 10110 20045 48534
                   333 10270 20071 59019=
200607200600 AAXX 20064 67743 32980 01002 10110 20065 48559
                   333 10270 20066 58006=
200607191200 AAXX 19124 67743 42980 00604 10261 20036 48574
                   333 58015=
200607190600 AAXX 19064 67743 32980 00000 10108 20063 48553
                   333 10273 20/// 58012=
200607180900 AAXX 18094 67743 42980 01306 10233 20074 48574 70200
                   333 59008=
200607140600 AAXX 14064 67743 32980 01006 10126 20080 48555
                   333 10260 20085 58001=
200607130900 AAXX 13094 67743 42980 20905 10238 20046 48585 82100
                   333 59014 82857=
200607130600 AAXX 13064 67743 32980 00906 10125 20088 48558
                   333 10257 20095 59017=
200607120900 AAXX 12094 67743 42980 00606 10208 20070 48588
                   333 58018=
200607120600 AAXX 12064 67743 32980 00805 10104 20074 48///
                   333 10270 20061 58005=
200607111200 AAXX 11124 67743 42980 00913 10240 20067 48585
                   333 59018=
200607100900 AAXX 10094 67743 42980 00809 10206 20066 48621
                   333 59003=
200607061200 AAXX 06124 67743 42980 00805 10260 48576 70200
                   333 58005=
200607050600 AAXX 05064 67743 32890 00906 10089 20064 48547
                   333 10256 20045 58004=
200607031200 AAXX 03124 67743 42980 01305 10230 20048 48573
                   333 59011=
200607020600 AAXX 02064 67743 32980 01402 10089 20026 48677
                   333 10225 20050 59016=

################################################################################
#  SYNOPS from 67751, Magoye (Zambia) | 16-00S | 027-36E | 1018 m
################################################################################
200607031200 AAXX 03124 67751 NIL=
200607020600 AAXX 02064 67751 31975 00000 10136 20073 48/// 70500
                   333 10223 20041 5////=

################################################################################
#  SYNOPS from 67753, Choma (Zambia) | 16-50S | 027-04E | 1213 m
################################################################################
200607230600 AAXX 23064 67753 32980 00903 10169 20064
                   333 10271 20079=
200607211200 AAXX 21124 67753 42680 31004 10218 20051 48/// 81200 333=
200607210600 AAXX 21064 67753 32980 51803 10112 20071 48/// 85030
                   333 10246 20062 5//// 85359=
200607201200 AAXX 20124 67753 42680 30805 10234 20038 83100
                   333 83845=
200607200600 AAXX 20064 67753 32580 20804 10113 20058 82500
                   333 10251 20048 82620=
200607191200 AAXX 19124 67753 42680 20905 10246 20052 82100
                   333 82845=
200607181200 AAXX 18124 67753 42680 31005 10245 20053 48/// 83100
                   333 5//// 83850=
200607130600 AAXX 13064 67753 32980 00906 10138 20082 48///
                   333 10230 20077 5////=
200607120600 AAXX 12064 67753 32980 03695 10162 20075 48///
                   333 10205 20068 5////=
200607070600 AAXX 07064 67753 31960 00000 10135 20072 70500
                   333 10251 20067=
200607060600 AAXX 06064 67753 31960 03602 10146 20071 48/// 70500
                   333 10239 20045=
200607050600 AAXX 05064 67753 31960 01003 10128 20068 70500
                   333 10233 20049 5////=
200607020600 AAXX 02064 67753 31960 00902 10115 20040 48/// 70500
                   333 10200 20019 5////=
200607010600 AAXX 01064 67753 31960 01003 10109 20059 70500
                   333 1//// 20034=

################################################################################
#  SYNOPS from 67855, Lupaki (Zambia) | 17-03-00S | 024-46-00E | 1000 m
################################################################################
200607310000 AAXX 31004 67855 NIL=
200607301800 AAXX 30184 67855 NIL=
200607301200 AAXX 30124 67855 NIL=
200607300600 AAXX 30064 67855 NIL=
200607300000 AAXX 30004 67855 NIL=
200607291800 AAXX 29184 67855 NIL=
200607291200 AAXX 29124 67855 NIL=
200607290600 AAXX 29064 67855 NIL=
200607290000 AAXX 29004 67855 NIL=
200607281800 AAXX 28184 67855 NIL=
200607281200 AAXX 28124 67855 NIL=
200607280600 AAXX 28064 67855 31970 00302 10089 20037 3//// 48/// 70500
                   333 20030 5////=
200607280000 AAXX 28004 67855 NIL=
200607271800 AAXX 27184 67855 NIL=
200607271200 AAXX 27124 67855 NIL=
200607270600 AAXX 27064 67855 31970 00000 10057 20015 3//// 48/// 70500
                   333 20014 5////=
200607270000 AAXX 27004 67855 NIL=
200607261800 AAXX 26184 67855 NIL=
200607261200 AAXX 26124 67855 NIL=
200607260600 AAXX 26064 67855 31970 00000 10074 20021 3//// 48/// 70500
                   333 20044 5////=
200607260000 AAXX 26004 67855 NIL=
200607251800 AAXX 25184 67855 NIL=
200607251200 AAXX 25124 67855 NIL=
200607250600 AAXX 25064 67855 31970 70901 10114 20044 3//// 48/// 70511 80001
                   333 20064 5//// 87080=
200607250000 AAXX 25004 67855 NIL=
200607241800 AAXX 24184 67855 NIL=
200607241200 AAXX 24124 67855 NIL=
200607240600 AAXX 24064 67855 31970 00801 10108 20021 3//// 48/// 70500
                   333 20048 5////=
200607240000 AAXX 24004 67855 NIL=
200607231800 AAXX 23184 67855 NIL=
200607231200 AAXX 23124 67855 NIL=
200607230600 AAXX 23064 67855 NIL=
200607230000 AAXX 23004 67855 NIL=
200607221800 AAXX 22184 67855 NIL=
200607221200 AAXX 22124 67855 NIL=
200607220600 AAXX 22064 67855 NIL=
200607220000 AAXX 22004 67855 NIL=
200607211800 AAXX 21184 67855 NIL=
200607211200 AAXX 21124 67855 NIL=
200607210600 AAXX 21064 67855 31970 00000 10054 20013 3//// 48/// 70500
                   333 20030 5////=
200607210000 AAXX 21004 67855 NIL=
200607201800 AAXX 20184 67855 NIL=
200607200600 AAXX 20064 67855 31970 00901 10077 20050 3//// 48/// 70500
                   333 20057 5////=
200607200000 AAXX 20004 67855 NIL=
200607191800 AAXX 19184 67855 NIL=
200607191200 AAXX 19124 67855 NIL=
200607190600 AAXX 19064 67855 32975 01801 10068 20033 3//// 48///
                   333 20038 5////=
200607190000 AAXX 19004 67855 NIL=
200607181800 AAXX 18184 67855 NIL=
200607181200 AAXX 18124 67855 NIL=
200607180600 AAXX 18064 67855 31970 00000 10067 20044 3//// 48/// 70500
                   333 20040 5////=
200607180000 AAXX 18004 67855 NIL=
200607171800 AAXX 17184 67855 NIL=
200607171200 AAXX 17124 67855 NIL=
200607170600 AAXX 17064 67855 NIL=
200607170000 AAXX 17004 67855 NIL=
200607161800 AAXX 16184 67855 NIL=
200607161200 AAXX 16124 67855 NIL=
200607160600 AAXX 16064 67855 NIL=
200607160000 AAXX 16004 67855 NIL=
200607151800 AAXX 15184 67855 NIL=
200607150600 AAXX 15064 67855 NIL=
200607150000 AAXX 15004 67855 NIL=
200607141800 AAXX 14184 67855 NIL=
200607141200 AAXX 14124 67855 NIL=
200607140600 AAXX 14064 67855 31970 10000 10071 20052 3//// 48/// 70500 81030
                   333 20040 5//// 81360=
200607140000 AAXX 14004 67855 NIL=
200607131800 AAXX 13184 67855 NIL=
200607131200 AAXX 13124 67855 NIL=
200607130600 AAXX 13064 67855 32980 00902 10072 20035 3//// 48///
                   333 20039 5////=
200607130000 AAXX 13004 67855 NIL=
200607121800 AAXX 12184 67855 NIL=
200607121200 AAXX 12124 67855 NIL=
200607120600 AAXX 12064 67855 31970 00901 10056 20036 3//// 48/// 70500
                   333 20027 5////=
200607120000 AAXX 12004 67855 NIL=
200607111800 AAXX 11184 67855 NIL=
200607111200 AAXX 11124 67855 NIL=
200607110600 AAXX 11064 67855 31970 00000 10049 20032 3//// 48/// 70500
                   333 20023 5////=
200607110000 AAXX 11004 67855 NIL=
200607101800 AAXX 10184 67855 NIL=
200607101200 AAXX 10124 67855 NIL=
200607100600 AAXX 10064 67855 31980 00901 10064 20056 3//// 48/// 70500
                   333 20030 5////=
200607100000 AAXX 10004 67855 NIL=
200607091800 AAXX 09184 67855 NIL=
200607091200 AAXX 09124 67855 NIL=
200607090600 AAXX 09064 67855 NIL=
200607090000 AAXX 09004 67855 NIL=
200607081800 AAXX 08184 67855 NIL=
200607081200 AAXX 08124 67855 NIL=
200607080600 AAXX 08064 67855 NIL=
200607080000 AAXX 08004 67855 NIL=
200607071800 AAXX 07184 67855 NIL=
200607071200 AAXX 07124 67855 NIL=
200607070600 AAXX 07064 67855 32980 00901 10048 20035 3//// 48///
                   333 20022 5////=
200607070000 AAXX 07004 67855 NIL=
200607061800 AAXX 06184 67855 NIL=
200607061200 AAXX 06124 67855 NIL=
200607060600 AAXX 06064 67855 31970 01801 10044 20035 3//// 48///
                   333 20024 5////=
200607060000 AAXX 06004 67855 NIL=
200607051800 AAXX 05184 67855 NIL=
200607051200 AAXX 05124 67855 NIL=
200607050600 AAXX 05064 67855 31970 00901 10040 20037 3//// 48/// 70500
                   333 20013 5////=
200607050000 AAXX 05004 67855 NIL=
200607041800 AAXX 04184 67855 NIL=
200607041200 AAXX 04124 67855 NIL=
200607040600 AAXX 04064 67855 31970 00000 10033 20023 3//// 48///
                   333 20005 5////=
200607040000 AAXX 04004 67855 NIL=
200607031800 AAXX 03184 67855 NIL=
200607031200 AAXX 03124 67855 NIL=
200607030600 AAXX 03064 67855 NIL=
200607030000 AAXX 03004 67855 NIL=
200607021800 AAXX 02184 67855 NIL=
200607021200 AAXX 02124 67855 NIL=
200607020600 AAXX 02064 67855 NIL=
200607020000 AAXX 02004 67855 NIL=
200607011800 AAXX 01184 67855 NIL=
200607011200 AAXX 01124 67855 NIL=
200607010600 AAXX 01064 67855 NIL=
