################################################################################
# Query made at 04/10/2022 06:41:25 UTC
# Country like Zamb*
# Time interval: from 06/01/2020 05:30  to 07/01/2020 06:30  UTC
################################################################################

################################################################################
#  SYNOPS from 67403, Kawambwa (Zambia) | 09-48S | 029-05E | 1323 m
################################################################################
202006261200 AAXX 26124 67403 NIL=
202006260600 AAXX 26064 67403 31975 31203 10174 20128 48527 70520 83031
                   333 10290 20147 59002 83360
                   555 00134=
202006250900 AAXX 25094 67403 NIL=
202006241200 AAXX 24124 67403 NIL=
202006230600 AAXX 23064 67403 31975 01203 10156 20110 48540 70500
                   333 10270 20118 58009
                   555 00110=
202006220600 AAXX 22064 67403 31975 01202 10152 20094 48532 70500
                   333 10268 20105 5////
                   555 00093=
202006191200 AAXX 19124 67403 NIL=
202006190600 AAXX 19064 67403 31975 31205 10143 20105 48554 70520 82031
                   333 10263 20122 58009 82360 82080
                   555 00122=
202006180600 AAXX 18064 67403 31975 01205 10135 20090 48545 70500
                   333 10252 20108 59010
                   555 00104=
202006170600 AAXX 17064 67403 31975 01203 10129 20074 48545 70500
                   333 10256 20100 59003
                   555 00102=
202006160600 AAXX 16064 67403 31975 20903 10150 20107 48554 70500 80001
                   333 10265 20118 59009 82080
                   555 00109=
202006150600 AAXX 15064 67403 31475 31203 10134 20112 48560 70300 83500
                   333 10260 20103 58001 83615
                   555 00102=
202006120600 AAXX 12064 67403 31975 20401 10177 20130 48532 70520 82031
                   333 10289 20134 59002 82360 81080
                   555 00122=
202006110600 AAXX 11064 67403 31975 00000 10162 20098 48529 70500
                   333 10280 20114 59003
                   555 00110=
202006100600 AAXX 10064 67403 31975 01202 10165 20097 48532 70500
                   333 10280 20129 59001
                   555 00119=
202006090600 AAXX 09064 67403 31975 01403 10162 20099 48533 70500
                   333 10279 20126 59007
                   555 00122=
202006080600 AAXX 08064 67403 31975 01202 10162 20105 48540 70500
                   333 10246 20129 5////
                   555 00124=
202006050600 AAXX 05064 67403 31975 01204 10187 20129 48549 70500
                   333 10300 20159 58004
                   555 00148=
202006040600 AAXX 04064 67403 31975 01604 10177 20135 48544 70500
                   333 10298 20153 58004
                   555 00149=
202006030600 AAXX 03064 67403 31975 00905 10176 20127 48530 70500
                   333 10291 20143 59010
                   555 00144=
202006020600 AAXX 02064 67403 31975 00903 10167 20125 48549 70500
                   333 10278 20142 59005
                   555 00129=
202006010600 AAXX 01064 67403 31975 30905 10178 20140 48555 70500 81081
                   333 10266 20152 5//// 81360 82080
                   555 00144=

################################################################################
#  SYNOPS from 67413, Mbala (Zambia) | 08-51S | 031-20E | 1673 m
################################################################################
202006261200 AAXX 26124 67413 NIL=
202006250900 AAXX 25094 67413 NIL=
202006241200 AAXX 24124 67413 NIL=
202006230600 AAXX 23064 67413 NIL=
202006191200 AAXX 19124 67413 NIL=
202006010600 AAXX 01064 67413 32580 20905 10166 20124 48572 82100
                   333 10278 20134 58008 82820
                   555 00200 91028=

################################################################################
#  SYNOPS from 67441, Mwinilunga (Zambia) | 11-45S | 024-26E | 1361 m
################################################################################
202006261200 AAXX 26124 67441 NIL=
202006260600 AAXX 26064 67441 31970 00000 10120 20086 48555 70500
                   333 10283 2//// 59005=
202006250900 AAXX 25094 67441 42980 00000 10240 20104 48566
                   333 59014=
202006250600 AAXX 25064 67441 32980 00000 10100 20075 48555
                   333 10278 2//// 59011=
202006241200 AAXX 24124 67441 NIL=
202006240600 AAXX 24064 67441 32980 00000 10100 20075 48565
                   333 10261 2//// 59006=
202006230600 AAXX 23064 67441 32980 00000 10085 20068 48571
                   333 10250 2//// 58006=
202006220600 AAXX 22064 67441 31970 00000 10075 20058 48565 70500
                   333 10256 2//// 59032=
202006191200 AAXX 19124 67441 NIL=
202006190600 AAXX 19064 67441 32980 40000 10095 20070 48591 80008
                   333 10238 2//// 58007 84275=
202006180600 AAXX 18064 67441 32980 31303 10095 20070 48584 80001
                   333 10230 2//// 58001 83075=
202006170900 AAXX 17094 67441 42980 00904 10195 20067 48590
                   333 58001=
202006170600 AAXX 17064 67441 32980 01303 10120 20086 48590
                   333 10246 2//// 58002=
202006160600 AAXX 16064 67441 32980 00000 10110 20085 48588
                   333 10251 2//// 59005=
202006150900 AAXX 15094 67441 42980 00904 10210 20065 48596
                   333 5////=
202006150600 AAXX 15064 67441 32980 00000 10110 20085 48593
                   333 10247 2//// 59001=
202006120600 AAXX 12064 67441 31970 30000 10095 20078 48562 70500 80007
                   333 10275 2//// 58001 83275=
202006110600 AAXX 11064 67441 31970 00000 10100 20075 48561 70500
                   333 10268 2//// 59001=
202006100600 AAXX 10064 67441 31970 00000 10100 20075 48562 70500
                   333 10262 2//// 59002=
202006090900 AAXX 09094 67441 42980 01703 10230 20094 48576
                   333 59001=
202006090600 AAXX 09064 67441 31970 00000 10100 20083 48564 70500
                   333 10274 2//// 59003=
202006080900 AAXX 08094 67441 42980 00903 10240 20095 48577
                   333 5////=
202006080600 AAXX 08064 67441 31980 30000 10135 20101 48573 70500 83030
                   333 10277 2//// 58010 83360=
202006050600 AAXX 05064 67441 31960 40000 10115 20098 48587 70500 80007
                   333 10273 2//// 58009 84275=
202006040900 AAXX 04094 67441 42680 11603 10240 20139 48589 81100
                   333 58002 81850=
202006040600 AAXX 04064 67441 31970 00000 10115 20098 48578 70500
                   333 10270 2//// 58000=
202006030900 AAXX 03094 67441 42980 01303 10235 20107 48587
                   333 5////=
202006030600 AAXX 03064 67441 31970 00000 10120 20103 48578 70500
                   333 10270 2//// 59007=
202006020600 AAXX 02064 67441 31975 10000 10150 20106 48585 70500 80001
                   333 10274 2//// 59009 81075=
202006010600 AAXX 01064 67441 31970 20000 10170 20129 48594 70500 80001
                   333 10279 2//// 5//// 82075=

################################################################################
#  SYNOPS from 67461, Mansa (Zambia) | 11-06S | 028-51E | 1382 m
################################################################################
202006261200 AAXX 26124 67461 42680 53105 10267 20130 48514 85200
                   333 59005 85845 91017=
202006260600 AAXX 26064 67461 32980 11004 10147 20130 48534 81030
                   333 10268 2//// 59002 81360 91021=
202006250900 AAXX 25094 67461 NIL=
202006241200 AAXX 24124 67461 NIL=
202006230600 AAXX 23064 67461 NIL=
202006220600 AAXX 22064 67461 32980 01105 10136 20098 48537
                   333 10261 2//// 59017 91021=
202006191200 AAXX 19124 67461 42580 41010 10234 20115 48556 83201
                   333 58005 83830 82080 91023=
202006190900 AAXX 19094 67461 42580 71315 10196 20120 48575 875//
                   333 59002 87620 91025=
202006190600 AAXX 19064 67461 32980 31107 10135 20105 48560 82031
                   333 10236 2//// 59006 82360 82080 91024=
202006181200 AAXX 18124 67461 42580 11710 10222 20088 48550 81200
                   333 59002 81825 91022=
202006180900 AAXX 18094 67461 42580 41420 10192 20090 48577 84200
                   333 58008 84820 91025=
202006180600 AAXX 18064 67461 32980 00607 10125 20100 48565
                   333 10232 2//// 58001 91025=
202006171200 AAXX 17124 67461 42580 51110 10212 20084 48/// 85200
                   333 58000 85830 91022=
202006170900 AAXX 17094 67461 42580 50720 10202 20085 48571 85200
                   333 59003 85820 91024=
202006170600 AAXX 17064 67461 32980 00815 10128 20090 48564
                   333 10244 2//// 58002 91025=
202006160900 AAXX 16094 67461 42580 21322 10218 20090 48575 82500
                   333 58005 82620 91025=
202006160600 AAXX 16064 67461 32980 01104 10138 20133 48563
                   333 10240 2//// 59002 91024=
202006151200 AAXX 15124 67461 42580 31115 10232 20086 48550 83200
                   333 58009 83830 91022=
202006150900 AAXX 15094 67461 42580 61010 10213 20108 48570 86200
                   333 59003 86830 91024=
202006150600 AAXX 15064 67461 32480 10702 10132 20116 48565 81500
                   333 10233 2//// 59003 81613 91025=
202006120900 AAXX 12094 67461 42980 01208 10239 20130 48546
                   333 58008 91022=
202006120600 AAXX 12064 67461 32980 01102 10160 20133 48531
                   333 10284 2//// 59005 91021=
202006110600 AAXX 11064 67461 32980 11003 10157 20115 48535 80001
                   333 10258 2//// 59004 81080 91021=
202006101200 AAXX 10124 67461 42680 21505 10247 20114 48525 82200
                   333 58000 82840 91019=
202006100900 AAXX 10094 67461 42580 11605 10228 20109 48548 81100
                   333 58003 81837 91022=
202006100600 AAXX 10064 67461 32980 01102 10154 20111 48539
                   333 10262 2//// 5//// 91022=
202006080600 AAXX 08064 67461 31975 01210 10165 20121 48525 70500
                   333 10262 2//// 5//// 91020=
202006050600 AAXX 05064 67461 32980 01103 10172 20150 48551
                   333 10283 2//// 58022 91023=
202006040600 AAXX 04064 67461 32980 01105 10168 20145 48547
                   333 10261 2//// 59003 91023=
202006030900 AAXX 03094 67461 42980 01212 10237 20134 48564
                   333 59013 91023=
202006030600 AAXX 03064 67461 32980 01310 10165 20171 48550
                   333 10261 2//// 59010 91023=
202006021200 AAXX 02124 67461 42680 11613 10255 20115 48571 81200
                   333 59011 81840 91023=
202006020900 AAXX 02094 67461 42980 01215 10226 20120 48566
                   333 59004 91024=
202006020600 AAXX 02064 67461 32980 01207 10160 20130 48559
                   333 10262 2//// 59003 91024=
202006010600 AAXX 01064 67461 32980 21322 10173 20139 48563 80001
                   333 10278 2//// 58007 82080 91025=

################################################################################
#  SYNOPS from 67469, Samfya (Zambia) | 11-22S | 029-54E | 1171 m
################################################################################
202006261200 AAXX 26124 67469 NIL=
202006251200 AAXX 25124 67469 42580 11003 10220 20140 48/// 81100
                   333 5//// 81820=
202006250900 AAXX 25094 67469 42580 20908 10209 20140 48/// 82100
                   333 5//// 82828=
202006250600 AAXX 25064 67469 32380 31010 10183 20140 48///
                   333 10230 20156 5////=
202006241200 AAXX 24124 67469 42980 00905 10228 20150 48///
                   333 5////=
202006240900 AAXX 24094 67469 42980 01010 10212 20150 48///
                   333 5////=
202006230600 AAXX 23064 67469 32980 01406 10176 20110 48///
                   333 10223 20118 5////=
202006221200 AAXX 22124 67469 42680 10602 10220 20140 48/// 82100
                   333 5//// 82835=
202006220600 AAXX 22064 67469 32980 01004 10172 20100 48///
                   333 10224 20110 5////=
202006191200 AAXX 19124 67469 NIL=
202006190900 AAXX 19094 67469 42580 41308 10193 20120 48/// 84231
                   333 5//// 84826 82360 81080=
202006190600 AAXX 19064 67469 32380 61509 10147 20130 48/// 86630
                   333 10222 20127 5//// 86706 83610 82810 82360=
202006181200 AAXX 18124 67469 42680 21005 10217 20120 48/// 82200
                   333 5//// 82833=
202006180900 AAXX 18094 67469 42680 11409 10191 20120 48/// 81200
                   333 5//// 81833=
202006170900 AAXX 17094 67469 42680 21410 10191 20120 48/// 82100
                   333 5//// 82100=
202006170600 AAXX 17064 67469 32980 01410 10157 20110 48///
                   333 10228 20133 5////=
202006160600 AAXX 16064 67469 32980 21213 10172 20120 48/// 82030
                   333 10227 20154 5//// 82360=
202006151200 AAXX 15124 67469 42680 40806 10223 20130 48/// 84200
                   333 5//// 84832=
202006150900 AAXX 15094 67469 42680 21413 10201 20130 48/// 82200
                   333 5//// 82833=
202006150600 AAXX 15064 67469 32480 31412 10189 20120 48/// 83100
                   333 10232 20138 5//// 83819=
202006110900 AAXX 11094 67469 42980 00804 10223 20140 48///
                   333 5////=
202006110600 AAXX 11064 67469 32980 01203 10190 20130 48///
                   333 1//// 2//// 5////=
202006101200 AAXX 10124 67469 42680 10705 10233 20130 48/// 81100
                   333 5//// 81830=
202006100900 AAXX 10094 67469 42980 00908 10218 20110 48///
                   333 5////=
202006091200 AAXX 09124 67469 42980 10808 10239 20130 48/// 81100
                   333 81830=
202006090900 AAXX 09094 67469 42980 00910 10224 20130 48///
                   333 5////=
202006090600 AAXX 09064 67469 32980 01008 10193 20120 48///
                   333 10236 20160 5////=
202006080600 AAXX 08064 67469 32980 01013 10183 20160 48///
                   333 10249 20165 5////=
202006051200 AAXX 05124 67469 42680 20905 10244 20180 48/// 82200
                   333 5//// 82830=
202006050900 AAXX 05094 67469 42980 01207 10230 20170 48///
                   333 5////=
202006050600 AAXX 05064 67469 32980 01605 10204 20180 48///
                   333 10238 20182 5////=
202006041200 AAXX 04124 67469 42980 00703 10238 20150 48///
                   333 5////=
202006040900 AAXX 04094 67469 42980 00804 10222 20160 48///
                   333 5////=
202006040600 AAXX 04064 67469 32980 01008 10200 20140 48///
                   333 10239 20170 5////=
202006031200 AAXX 03124 67469 42980 00806 10226 20150 48///
                   333 5////=
202006030900 AAXX 03094 67469 42980 01007 10214 20170 48/// 70200
                   333 5////=
202006030600 AAXX 03064 67469 32480 11113 10184 20130 48/// 81100
                   333 10231 20165 5//// 81818=
202006021200 AAXX 02124 67469 42980 00704 10228 20130 48///
                   333 5////=
202006020600 AAXX 02064 67469 32980 01308 10188 20120 48///
                   333 10271 20169 5////=
202006010600 AAXX 01064 67469 32980 11510 10198 20140 48/// 81030
                   333 10264 20199 5//// 81360=

################################################################################
#  SYNOPS from 67475, Kasama (Zambia) | 10-13S | 031-08E | 1382 m
################################################################################
202006261200 AAXX 26124 67475 41660 40506 10244 20126 48516 70522 84208
                   333 59004 84830 84280 91019=
202006260600 AAXX 26064 67475 31960 41008 10164 20130 48541 70522 84030
                   333 10269 20119 59003 84360 91022=
202006250900 AAXX 25094 67475 NIL=
202006241200 AAXX 24124 67475 NIL=
202006230600 AAXX 23064 67475 32960 00703 10168 20101 48556
                   333 10263 20100 58014 91024=
202006220600 AAXX 22064 67475 32960 00903 10161 20089 48541
                   333 10268 20091 59020 91022=
202006191200 AAXX 19124 67475 NIL=
202006190600 AAXX 19064 67475 32960 51104 10150 20110 48567 80008
                   333 10249 20098 59004 85280 91026=
202006180600 AAXX 18064 67475 32960 11302 10136 20090 48571 80001
                   333 10239 20091 58004 81080 91026=
202006160600 AAXX 16064 67475 32470 21505 10154 20080 48572 82500
                   333 10261 20116 59004 82615 91026=
202006150600 AAXX 15064 67475 32460 21509 10121 20119 48574 82500
                   333 10251 20084 58004 82615 91023=
202006120900 AAXX 12094 67475 41960 01904 10240 20116 48546 70500
                   333 58003 91022=
202006120600 AAXX 12064 67475 31960 03504 10181 20132 48546 70500
                   333 10282 20113 58007 91023=
202006110600 AAXX 11064 67475 32960 00906 10181 20126 48538
                   333 10271 20101 59009 91022=
202006100600 AAXX 10064 67475 32960 00301 10161 20114 48545
                   333 10273 20096 59003 91023=
202006091200 AAXX 09124 67475 41660 31302 10242 20092 48524 70500 83200
                   333 5//// 83840 91020=
202006090900 AAXX 09094 67475 41660 21103 10224 20108 48533 70500 82100
                   333 59004 82830 91023=
202006090600 AAXX 09064 67475 31960 00806 10170 20100 48550 70500
                   333 10321 20094 59006 91023=
202006080600 AAXX 08064 67475 31960 01206 10171 20106 48555 70500
                   333 10278 20096 58001 91024=
202006051200 AAXX 05124 67475 41660 31209 10268 20120 48544 70500 83101
                   333 58007 83845 81080 91022=
202006050900 AAXX 05094 67475 41660 10907 10252 20128 48565 70500 81100
                   333 58000 81830 91025=
202006050600 AAXX 05064 67475 31960 00507 10181 20140 48563 70500
                   333 10291 20098 58008 91025=
202006041200 AAXX 04124 67475 41660 31605 1//// 20130 48537 70500 83200
                   333 58007 83840 91021=
202006040900 AAXX 04094 67475 41660 20902 10246 20128 48564 70500 82100
                   333 58008 82830 91025=
202006040600 AAXX 04064 67475 31960 00502 10137 20137 48555 70500
                   333 10291 20109 59009 91024=
202006030900 AAXX 03094 67475 41560 11404 10234 20131 48555 70500 81100
                   333 59009 81825 91024=
202006030600 AAXX 03064 67475 31960 00806 10107 20124 48556 70500
                   333 10279 20102 59009 91024=
202006020600 AAXX 02064 67475 32960 21209 10171 20123 48557 80001
                   333 10278 20113 59002 82080 91025=
202006010600 AAXX 01064 67475 31960 31806 10187 20107 48570 70500
                   333 10281 20140 58003 83080 91026=

################################################################################
#  SYNOPS from 67476, Misamfu (Zambia) | 10-06S | 031-15E | 1536 m
################################################################################
202006261200 AAXX 26124 67476 NIL=
202006250900 AAXX 25094 67476 NIL=
202006241200 AAXX 24124 67476 NIL=
202006230600 AAXX 23064 67476 NIL=
202006191200 AAXX 19124 67476 42680 61804 10228 20121 48/// 85101
                   333 58005 85848 82080=
202006190900 AAXX 19094 67476 42680 41304 10210 20120 48/// 82101
                   333 59001 82837 83080=
202006190600 AAXX 19064 67476 31578 61202 10149 20118 48/// 70522 81108
                   333 10235 20027 59004 81820 86280=
202006181200 AAXX 18124 67476 42780 21304 10228 20106 48/// 82500
                   333 5//// 82850=
202006180900 AAXX 18094 67476 42680 31406 10206 20105 48/// 83100
                   333 59002 83835=
202006180600 AAXX 18064 67476 31978 11304 10141 20093 48/// 70500 80001
                   333 10225 20036 58000 81080=
202006171200 AAXX 17124 67476 42680 41404 10206 20101 48/// 84100
                   333 5//// 84847=
202006170900 AAXX 17094 67476 42680 50905 10195 20100 48/// 85100
                   333 59001 85832=
202006170600 AAXX 17064 67476 31978 11204 10137 20086 48/// 70500 80001
                   333 10242 20051 58002 81080=
202006160600 AAXX 16064 67476 31578 11805 10160 20094 48/// 70500 81131
                   333 10239 20073 59005 81820 81360 81080=
202006150900 AAXX 15094 67476 41679 40904 10185 20106 48/// 70510 84100
                   333 5//// 81832=
202006150600 AAXX 15064 67476 31478 10902 10133 20114 48/// 72844 81400
                   333 10234 20023 5//// 81616 81820=
202006051200 AAXX 05124 67476 41780 11604 10260 20130 48/// 81100
                   333 58007 81856=
202006050900 AAXX 05094 67476 41678 11259 10237 20127 48/// 70500 81100
                   333 58001 81845=
202006050600 AAXX 05064 67476 31978 00705 10179 20146 48/// 70500
                   333 10282 20058 58008=
202006041200 AAXX 04124 67476 42780 20702 10273 20134 48/// 82200
                   333 58009 82850=
202006040900 AAXX 04094 67476 41678 11204 10237 20131 48/// 70500 81100
                   333 58007 81838=
202006040600 AAXX 04064 67476 31977 00903 10178 20142 48/// 70500
                   333 10271 20055 58000=
202006031200 AAXX 03124 67476 41778 10905 10265 20135 48/// 70500 81100
                   333 59013 81850=
202006030900 AAXX 03094 67476 41678 21105 10232 20138 48/// 70500 82101
                   333 59008 82840 81080=
202006030600 AAXX 03064 67476 31577 10703 10168 20135 48/// 70500 81101
                   333 10263 20050 5//// 81825 81080=
202006020600 AAXX 02064 67476 31977 11805 10167 20127 48/// 70500 80001
                   333 10258 20050 5//// 81080=

################################################################################
#  SYNOPS from 67477, Mpika (Zambia) | 11-54S | 031-26E | 1400 m
################################################################################
202006261200 AAXX 26124 67477 NIL=
202006260600 AAXX 26064 67477 32980 10909 10149 20130 48/// 81030
                   333 10234 20128 5//// 81359=
202006250900 AAXX 25094 67477 NIL=
202006241200 AAXX 24124 67477 NIL=
202006230600 AAXX 23064 67477 NIL=
202006220600 AAXX 22064 67477 32980 01207 10145 20070 48///
                   333 10234 20112 5////
                   555 00105=
202006191200 AAXX 19124 67477 42680 20907 10204 20070 48/// 82101
                   333 5//// 82830 81080=
202006190600 AAXX 19064 67477 32480 71204 10138 20100 48/// 875//
                   333 10220 20135 5//// 87610
                   555 00128=
202006181200 AAXX 18124 67477 42680 11204 10206 20070 48/// 81100
                   333 5//// 81830=
202006180900 AAXX 18094 67477 42580 10906 10171 20080 48/// 81100
                   333 5//// 81822=
202006180600 AAXX 18064 67477 32480 11205 10134 20090 48/// 81131
                   333 10202 20082 5//// 81813 81359 81080
                   555 00102=
202006170900 AAXX 17094 67477 42580 51206 10164 20100 48/// 85100
                   333 5//// 85820=
202006170600 AAXX 17064 67477 32480 71208 10128 20110 48/// 875//
                   333 10211 20096 5//// 87611
                   555 00103=
202006160600 AAXX 16064 67477 32480 21208 10145 20120 48/// 81130
                   333 10213 20085 5//// 81811 83359
                   555 00096=
202006151200 AAXX 15124 67477 42680 40906 10202 20100 48/// 84100
                   333 5//// 84830=
202006150900 AAXX 15094 67477 42580 51205 10188 20100 48/// 85100
                   333 5//// 85820=
202006150600 AAXX 15064 67477 32480 80903 10138 20110 48/// 885//
                   333 10208 20108 5//// 88613
                   555 00123=
202006120600 AAXX 12064 67477 32980 01207 10170 20108 48///
                   333 10275 20124 5////
                   555 00115=
202006110600 AAXX 11064 67477 32980 01206 10154 20109 48///
                   333 10231 20105 5////
                   555 00100=
202006090600 AAXX 09064 67477 32980 10908 10151 20105 48/// 81030
                   333 10230 20115 81359
                   555 00100=
202006080900 AAXX 08094 67477 42580 10907 10208 20110 48/// 81500
                   333 5//// 81625=
202006080600 AAXX 08064 67477 32980 00906 10155 20110 48///
                   333 10230 20114 5////
                   555 00102=
202006050900 AAXX 05094 67477 42980 01804 10228 20100 48///
                   333 5////=
202006050600 AAXX 05064 67477 32980 01205 10173 20110 48///
                   333 10243 20128 5////
                   555 00148=
202006041200 AAXX 04124 67477 42680 20906 10239 20090 48/// 82131
                   333 5//// 82835 81363 81080=
202006040900 AAXX 04094 67477 42980 01207 10225 20100 48///
                   333 5////=
202006040600 AAXX 04064 67477 31978 01808 10168 20120 48/// 70500
                   333 10238 20119 5////
                   555 00152=
202006031200 AAXX 03124 67477 42980 01207 10228 20080 48///
                   333 5////=
202006030900 AAXX 03094 67477 42980 01807 10206 20090 48///
                   333 5////=
202006030600 AAXX 03064 67477 32480 11206 10171 20120 48/// 81101
                   333 10229 20110 5//// 81811 81080
                   555 00143=
202006021200 AAXX 02124 67477 42980 10906 10226 20090 48/// 80001
                   333 5//// 81080=
202006020600 AAXX 02064 67477 31478 31809 10164 20110 48/// 70500 82101
                   333 10242 20118 5//// 82813 82080
                   555 00156=
202006010600 AAXX 01064 67477 32480 21808 10168 20110 48/// 82501
                   333 10247 20137 5//// 82511 81080
                   555 00143=

################################################################################
#  SYNOPS from 67481, Isoka (Zambia) | 10-07S | 032-38E | 1360 m
################################################################################
202006261200 AAXX 26124 67481 NIL=
202006260600 AAXX 26064 67481 31478 32002 10170 20135 48/// 70510 81530
                   333 10262 20130 5//// 81610 83360=
202006250900 AAXX 25094 67481 NIL=
202006250600 AAXX 25064 67481 31978 22002 10172 20144 48/// 70500 82500
                   333 10265 20130 5//// 82610=
202006241200 AAXX 24124 67481 NIL=
202006240600 AAXX 24064 67481 32978 02002 10168 20138 48/// 70500
                   333 10260 20121 5////=
202006230600 AAXX 23064 67481 32980 02704 10162 20106 48///
                   333 10240 20112 5////=
202006220600 AAXX 22064 67481 32980 03003 10160 20085 48///
                   333 10245 20098 5////=
202006191200 AAXX 19124 67481 NIL=
202006190600 AAXX 19064 67481 32480 31005 10140 20136 48/// 83500
                   333 10220 20107 5//// 83610=
202006180600 AAXX 18064 67481 32480 22003 10208 20112 48/// 82500
                   333 10210 20100 5//// 82610=
202006170600 AAXX 17064 67481 32480 31002 10150 20082 48/// 83500
                   333 10220 20100 5//// 83610=
202006160600 AAXX 16064 67481 32980 12004 10163 20102 48/// 81030
                   333 10218 20095 5//// 81360=
202006150600 AAXX 15064 67481 31478 72704 10135 20112 48/// 70522 875//
                   333 10250 20098 5//// 87610=
202006120600 AAXX 12064 67481 31975 02702 10192 20133 48/// 70500
                   333 10248 20122 5////=
202006110600 AAXX 11064 67481 31978 02702 10190 20141 48/// 70500
                   333 10250 20112 5////=
202006100600 AAXX 10064 67481 31978 02602 10182 20136 48/// 70500
                   333 10252 20120 5////=
202006090600 AAXX 09064 67481 31978 02602 10170 20118 48/// 70500
                   333 10252 20102 5////=
202006080600 AAXX 08064 67481 31978 01002 10172 20113 48/// 70500
                   333 10270 20120 5////=
202006050600 AAXX 05064 67481 31978 02702 10198 20136 48/// 70500
                   333 10270 20118 5////=
202006040600 AAXX 04064 67481 31978 02002 10182 20134 48/// 70500
                   333 10250 20118 5////=
202006030600 AAXX 03064 67481 31978 01202 10173 20133 48/// 70500
                   333 10252 20120 5////=
202006010600 AAXX 01064 67481 31978 12002 10172 20136 48/// 70500 80001
                   333 10280 20131 5//// 81080=

################################################################################
#  SYNOPS from 67531, Zambezi (Zambia) | 13-32S | 023-07E | 1077 m
################################################################################
202006261200 AAXX 26124 67531 NIL=
202006250900 AAXX 25094 67531 42980 01207 10225 20130 48///
                   333 59017=
202006241200 AAXX 24124 67531 42980 02705 10262 20089 48///
                   333 59002=
202006240600 AAXX 24064 67531 32980 00903 10120 20074 48///
                   333 10265 20055 58000=
202006230600 AAXX 23064 67531 32980 01006 10116 20065 48///
                   333 10265 20052 58006=
202006221200 AAXX 22124 67531 42780 21007 10257 20079 48/// 82100
                   333 59012 82856=
202006220600 AAXX 22064 67531 31970 00000 10112 20081 48/// 70500
                   333 10248 20046 59019=
202006191200 AAXX 19124 67531 NIL=
202006190900 AAXX 19094 67531 41975 11205 10205 20084 48/// 70500 80001
                   333 58004 81081=
202006190600 AAXX 19064 67531 31975 10000 10100 20080 48/// 70500 80001
                   333 10246 20035 58005 81081=
202006180900 AAXX 18094 67531 42780 10905 10210 20080 48/// 81101
                   333 58011 81850 81081=
202006180600 AAXX 18064 67531 31975 10000 10088 20067 48/// 70500 80001
                   333 10246 20033 58005 81081=
202006171200 AAXX 17124 67531 42980 00808 10242 20066 48///
                   333 58002=
202006170900 AAXX 17094 67531 41975 01008 10216 20068 48/// 70500
                   333 59001=
202006170600 AAXX 17064 67531 31970 00905 10112 20079 48/// 70500
                   333 10262 20057 58001=
202006161200 AAXX 16124 67531 42780 30405 10256 20098 48/// 83100
                   333 58000 83856=
202006160900 AAXX 16094 67531 42780 21006 10231 20096 48/// 82100
                   333 59002 82856=
202006160600 AAXX 16064 67531 32980 31005 10138 20088 48/// 83030
                   333 10257 20072 59006 83361=
202006151200 AAXX 15124 67531 42780 11206 10243 20095 48/// 81100
                   333 59003 81856=
202006150900 AAXX 15094 67531 42680 10805 10215 20104 48/// 81100
                   333 5//// 81849=
202006150600 AAXX 15064 67531 31970 00905 10124 20101 48/// 70500
                   333 10246 20077 58003=
202006120900 AAXX 12094 67531 42980 11803 10250 20103 48/// 80001
                   333 58001 81081=
202006120600 AAXX 12064 67531 32980 10000 10122 20088 48/// 80001
                   333 10286 20045 58004 81081=
202006110900 AAXX 11094 67531 42980 21804 10236 20123 48/// 80001
                   333 59006 82081=
202006110600 AAXX 11064 67531 31965 20000 10117 20086 48/// 70500 80001
                   333 10256 20046 59009 82080=
202006100900 AAXX 10094 67531 42980 01009 10231 20096 48/// 58000=
202006100600 AAXX 10064 67531 31965 00902 10116 20079 48/// 70500
                   333 10271 20031 59002=
202006090900 AAXX 09094 67531 42980 00906 10235 20097 48///
                   333 58001=
202006090600 AAXX 09064 67531 31970 10000 10116 20093 48/// 70500 81030
                   333 10282 20043 58002 81362=
202006080900 AAXX 08094 67531 41970 01007 10240 20120 48/// 70500
                   333 59003=
202006080600 AAXX 08064 67531 31960 00000 10130 20108 48/// 70500
                   333 10256 20076 59006=
202006051200 AAXX 05124 67531 42880 12204 10288 20089 48/// 81101
                   333 58011 81858 81081=
202006050900 AAXX 05094 67531 42980 11302 10261 20122 48/// 80001
                   333 58011 81081=
202006050600 AAXX 05064 67531 32980 10000 10142 20108 48/// 80001
                   333 10298 20060 58008 81081=
202006041200 AAXX 04124 67531 42780 10000 10280 20125 48/// 81100
                   333 58003 81856=
202006040900 AAXX 04094 67531 42980 01204 10255 20130 48///
                   333 59001=
202006040600 AAXX 04064 67531 31970 00000 10130 20106 48/// 70500
                   333 10286 20067 59001=
202006031200 AAXX 03124 67531 42780 30604 10281 20123 48/// 83100
                   333 59011 82850=
202006030900 AAXX 03094 67531 42980 00908 10237 20124 48///
                   333 59013=
202006030600 AAXX 03064 67531 32980 00000 10122 20094 48///
                   333 10276 20052 59011=
202006021200 AAXX 02124 67531 42780 10905 10271 20115 48/// 81100
                   333 58002 81850=
202006020900 AAXX 02094 67531 42980 00911 10241 20121 48///
                   333 58011=
202006020600 AAXX 02064 67531 32980 01006 10145 20096 48///
                   333 10292 20071 58001=
202006010600 AAXX 01064 67531 32980 30907 10178 20130 48/// 83030
                   333 10280 20136 58002 83362=

################################################################################
#  SYNOPS from 67541, Kasempa (Zambia) | 13-32S | 025-51E | 1234 m
################################################################################
202006261200 AAXX 26124 67541 42780 10000 10270 20144 48/// 70222 81100
                   333 5//// 81856=
202006260600 AAXX 26064 67541 32980 70000 10135 20126 48/// 70222 8703/
                   333 10280 20120 5//// 87360=
202006250900 AAXX 25094 67541 NIL=
202006241200 AAXX 24124 67541 42980 10000 10265 20136 48/// 70222 81030
                   333 5//// 81360=
202006230600 AAXX 23064 67541 32980 10000 10100 20090 48/// 70222 80001
                   333 10272 20060 5//// 81080=
202006220600 AAXX 22064 67541 32980 10000 10095 20065 48/// 70222 81030
                   333 10262 20044 5//// 81360=
202006191200 AAXX 19124 67541 42980 40000 10245 20099 48/// 70222 80004
                   333 5//// 84080=
202006190900 AAXX 19094 67541 42980 10000 10220 20098 48/// 70222 81030
                   333 5//// 81360=
202006190600 AAXX 19064 67541 32980 10000 10100 20082 48/// 70222 81030
                   333 10250 20048 5//// 81360=
202006180900 AAXX 18094 67541 42980 10505 10213 20081 48/// 70222 80001
                   333 5//// 81080=
202006180600 AAXX 18064 67541 32980 10000 10130 20083 48/// 70222 80001
                   333 10244 20080 5//// 81080=
202006171200 AAXX 17124 67541 42980 10504 10235 20085 48/// 70222 81030
                   333 5//// 81360=
202006170900 AAXX 17094 67541 42980 10000 10210 20085 48/// 70222 81100
                   333 5//// 81849=
202006170600 AAXX 17064 67541 32980 10000 10130 20083 48/// 70222 80001
                   333 10264 20090 5//// 81080=
202006160600 AAXX 16064 67541 32980 10000 10145 20136 48/// 70222 80001
                   333 10262 20100 5//// 81080=
202006151200 AAXX 15124 67541 42980 10000 10250 20107 48/// 70222 81030
                   333 5//// 81360=
202006150900 AAXX 15094 67541 42980 10508 10230 20089 48/// 70222 80001
                   333 5//// 81080=
202006150600 AAXX 15064 67541 32980 10000 10135 20066 48/// 70222 80001
                   333 10270 20068 5//// 81080=
202006120900 AAXX 12094 67541 42980 10000 10255 20134 48/// 70222 80001
                   333 5//// 81080=
202006120600 AAXX 12064 67541 32980 10000 10100 20090 48/// 70222 80001
                   333 10290 20052 5//// 81080=
202006110900 AAXX 11094 67541 42980 10000 10245 20141 48/// 70222 80001
                   333 5//// 81080=
202006110600 AAXX 11064 67541 32980 10000 10100 20081 48/// 70222 80001
                   333 10270 20050 5//// 81080=
202006101200 AAXX 10124 67541 42580 20000 10255 20180 48/// 70222 82100
                   333 5//// 82828=
202006100900 AAXX 10094 67541 42980 10503 10240 20104 48/// 70222 80001
                   333 5//// 81080=
202006100600 AAXX 10064 67541 32980 10000 10150 20133 48/// 70222 80001
                   333 10270 20086 5//// 81080=
202006091200 AAXX 09124 67541 42680 10000 10260 20155 48/// 70222 81100
                   333 5//// 81849=
202006090900 AAXX 09094 67541 42980 10503 10240 20125 48/// 70222 80001
                   333 5//// 81080=
202006090600 AAXX 09064 67541 32980 10000 10130 20099 48/// 70222 80001
                   333 10290 20062 5//// 81080=
202006080900 AAXX 08094 67541 42980 10506 10245 20110 48/// 70222 81030
                   333 5//// 81360=
202006080600 AAXX 08064 67541 32980 10000 10110 20101 48/// 70222 81030
                   333 10288 20070 5//// 81360=
202006051200 AAXX 05124 67541 42680 30000 10285 20186 48/// 70222 83200
                   333 5//// 83840=
202006050900 AAXX 05094 67541 42980 20000 10270 20153 48/// 70222 80002
                   333 5//// 82080=
202006050600 AAXX 05064 67541 32980 20000 10150 20133 48/// 70222 80002
                   333 10294 20082 5//// 82080=
202006041200 AAXX 04124 67541 42680 60000 10280 20180 48/// 70222 86200
                   333 5//// 86840=
202006040900 AAXX 04094 67541 42980 10502 10270 20162 48/// 70222 80001
                   333 5//// 81080=
202006040600 AAXX 04064 67541 32980 20000 10130 20121 48/// 70222 82030
                   333 10290 20078 5//// 82360=
202006031200 AAXX 03124 67541 42680 60000 10265 20146 48/// 70222 86200
                   333 5//// 86847=
202006030900 AAXX 03094 67541 42980 10503 10260 20130 48/// 70222 80001
                   333 5//// 81080=
202006030600 AAXX 03064 67541 32980 10000 10165 20131 48/// 70222 80001
                   333 10280 20090 5//// 81080=
202006021200 AAXX 02124 67541 42680 60000 10255 20144 48/// 70222 86200
                   333 5//// 86842=
202006020600 AAXX 02064 67541 32980 10000 10135 20109 48/// 70222 80001
                   333 10288 20080 5//// 81080=
202006010600 AAXX 01064 67541 32980 20000 10170 20136 48/// 70222 80002
                   333 10294 20132 5//// 82080=

################################################################################
#  SYNOPS from 67543, Kabompo (Zambia) | 13-36S | 024-12E | 1075 m
################################################################################
202006261200 AAXX 26124 67543 NIL=
202006260600 AAXX 26064 67543 31975 60000 10122 20112 48/// 70522 86030
                   333 10294 20108 5//// 86360=
202006250900 AAXX 25094 67543 41975 01203 10218 20122 48/// 70500
                   333 5////=
202006241200 AAXX 24124 67543 41975 00000 10274 20071 48/// 70500
                   333 5////=
202006230600 AAXX 23064 67543 31970 00000 10090 20049 48/// 70500
                   333 10272 20068 5////=
202006220600 AAXX 22064 67543 32980 60000 10112 20078 48/// 86030
                   333 10262 20078 5//// 86360=
202006191200 AAXX 19124 67543 NIL=
202006190600 AAXX 19064 67543 32980 60000 10108 20046 48/// 80007
                   333 10250 20068 5//// 86280=
202006180900 AAXX 18094 67543 41680 51803 10210 20065 48/// 70300 84101
                   333 5//// 84850 82085=
202006180600 AAXX 18064 67543 32980 10601 10100 20064 48/// 80001
                   333 10234 20072 5//// 81080=
202006170900 AAXX 17094 67543 41680 11205 10212 20057 48/// 70300 81100
                   333 5//// 81840=
202006170600 AAXX 17064 67543 31970 00901 10112 20080 48/// 70500
                   333 10276 20086 5////=
202006161200 AAXX 16124 67543 42680 61205 10252 20082 48/// 83130
                   333 5//// 83850 85362=
202006160900 AAXX 16094 67543 42680 21204 10230 20094 48/// 70300 82100
                   333 5//// 82840=
202006160600 AAXX 16064 67543 31975 30000 10118 20076 48/// 70521 83030
                   333 10264 20088 5//// 83362=
202006151200 AAXX 15124 67543 41972 11402 10254 20086 48/// 70500 81030
                   333 5//// 81362=
202006150900 AAXX 15094 67543 41672 21103 10232 20080 48/// 70500 82100
                   333 5//// 82840=
202006150600 AAXX 15064 67543 31970 00901 10122 20096 48/// 70500
                   333 10274 20090 5////=
202006120900 AAXX 12094 67543 41970 60000 10228 20103 48/// 70522 80007
                   333 5//// 86280=
202006120600 AAXX 12064 67543 31970 40000 10092 20075 48/// 70524 80005
                   333 10286 20074 5//// 84280=
202006111200 AAXX 11124 67543 41975 00000 10272 20092 48/// 70500
                   333 5////=
202006110900 AAXX 11094 67543 41970 00000 10240 20097 48/// 70500
                   333 5////=
202006110600 AAXX 11064 67543 31970 00000 10086 20074 48/// 70500
                   333 10278 20062 5////=
202006101200 AAXX 10124 67543 41975 20301 10270 20060 48/// 70500 82030
                   333 5//// 82360=
202006100900 AAXX 10094 67543 41975 00000 10238 20088 48/// 70500
                   333 5////=
202006100600 AAXX 10064 67543 31975 00000 10100 20066 48/// 70500
                   333 10278 20066 5////=
202006091200 AAXX 09124 67543 41975 60902 10270 20075 48/// 70522 86030
                   333 5//// 86362=
202006090900 AAXX 09094 67543 41975 41201 10232 20094 48/// 70522 80005
                   333 5//// 84285=
202006090600 AAXX 09064 67543 31975 60000 10124 20079 48/// 70522
                   333 10280 20104 5//// 86362=
202006080900 AAXX 08094 67543 41975 01202 10240 20108 48/// 70500
                   333 5////=
202006080600 AAXX 08064 67543 31975 20000 10132 20106 48/// 70512 80005
                   333 10288 20108 5//// 82080=
202006050900 AAXX 05094 67543 41972 30601 10268 20128 48/// 70500 80005
                   333 5//// 83285=
202006050600 AAXX 05064 67543 31960 40000 10108 20101 48/// 74044 80005
                   333 10300 20090 5//// 84285=
202006040600 AAXX 04064 67543 31970 00000 10110 20099 48/// 70500
                   333 10284 20088 5////=
202006030900 AAXX 03094 67543 41975 21102 10242 20115 48/// 70522 82030
                   333 5//// 82362=
202006030600 AAXX 03064 67543 31975 70000 10128 20087 48/// 70522 8703/
                   333 10310 20114 5//// 87360=
202006020900 AAXX 02094 67543 41975 01202 10244 20088 48/// 70500
                   333 5////=
202006020600 AAXX 02064 67543 31970 00000 10140 20095 48/// 70500
                   333 10300 20116 5////=
202006010600 AAXX 01064 67543 31975 70000 10158 20127 48/// 70522 8703/
                   333 10304 20130 5//// 87360=

################################################################################
#  SYNOPS from 67551, Solwezi (Zambia) | 12-11S | 026-23E | 1386 m
################################################################################
202006261200 AAXX 26124 67551 NIL=
202006250900 AAXX 25094 67551 NIL=
202006241200 AAXX 24124 67551 NIL=
202006240600 AAXX 24064 67551 31960 00000 10121 20089 48543 70500
                   333 10250 20059 59007 91022=
202006230600 AAXX 23064 67551 NIL=
202006220900 AAXX 22094 67551 41970 01506 10206 20148 48548 70500
                   333 59018 91022=
202006220600 AAXX 22064 67551 31965 00805 10117 20066 48531 70500
                   333 10231 20065 5//// 91022=
202006191200 AAXX 19124 67551 NIL=
202006190600 AAXX 19064 67551 31965 11305 10109 20081 48562 70500 81030
                   333 10228 20056 58010 81362 91024=
202006180600 AAXX 18064 67551 31965 61505 10102 20095 48556 70522 80006
                   333 10214 2//// 59006 86280 91024=
202006170600 AAXX 17064 67551 31960 01106 10125 20074 48560 70500
                   333 10219 20078 58009 91026=
202006160600 AAXX 16064 67551 31960 00906 10124 20091 48560 70500
                   333 10237 20080 59005 91024=
202006151200 AAXX 15124 67551 41670 11705 10225 20070 48546 70500 81100
                   333 59004 81840 91022=
202006150900 AAXX 15094 67551 41670 31507 10199 20065 48559 70500
                   333 59008 83835 91024=
202006150600 AAXX 15064 67551 31361 11205 10105 20108 48561 70500 81600
                   333 10233 20074 59002 81706 91024=
202006120600 AAXX 12064 67551 31960 00000 10106 20095 48543 70500
                   333 10253 20072 58005 91022=
202006110900 AAXX 11094 67551 41970 01505 10234 20076 48545 70500
                   333 59003 91022=
202006110600 AAXX 11064 67551 31659 01203 10104 20092 48532 70500
                   333 10248 20054 5//// 91021=
202006101200 AAXX 10124 67551 41670 10905 10244 20081 48526 70500 81100
                   333 58002 81840 91020=
202006100900 AAXX 10094 67551 41970 01205 10213 20076 48546 70500
                   333 58000 91022=
202006100600 AAXX 10064 67551 31965 00603 10119 20100 48537 70500
                   333 10235 20054 59004 91022=
202006090600 AAXX 09064 67551 31960 00000 10140 20075 48543 70500
                   333 10244 20101 59003 91023=
202006080600 AAXX 08064 67551 31960 00506 10143 20123 48547 70500
                   333 10256 20080 58003 91023=
202006050600 AAXX 05064 67551 31965 60903 10161 20132 48561 70522 80002
                   333 10281 20110 58009 86080 91024=
202006040900 AAXX 04094 67551 41670 11105 10238 20142 48558 70500 81100
                   333 59001 81840 91023=
202006040600 AAXX 04064 67551 31965 11104 10158 20124 48552 70200 80001
                   333 10262 20106 59001 81080 91023=
202006020900 AAXX 02094 67551 41970 01206 10217 20112 48565 70500
                   333 59002 91024=
202006020600 AAXX 02064 67551 31965 01204 10141 20105 48567 70500
                   333 10256 20100 59004 91024=
202006010600 AAXX 01064 67551 31970 61205 10168 20128 48568 70522 86030
                   333 10261 20155 58006 86362 91024=

################################################################################
#  SYNOPS from 67561, Ndola (Zambia) | 13-00S | 028-39E | 1269 m
################################################################################
202006261200 AAXX 26124 67561 NIL=
202006251200 AAXX 25124 67561 41670 50306 10255 20050 48525 70522 85200
                   333 59014 85840 91019=
202006250900 AAXX 25094 67561 41970 00806 10224 20107 48548 70500
                   333 59011 91022=
202006241200 AAXX 24124 67561 NIL=
202006230600 AAXX 23064 67561 31956 20000 10136 20076 48553 70400 82030
                   333 10242 20098 58009 82360 91024=
202006191200 AAXX 19124 67561 NIL=
202006190900 AAXX 19094 67561 41560 31007 10210 20085 48582 70500 83100
                   333 59003 83820 91026=
202006190600 AAXX 19064 67561 31959 00000 10133 20079 48559 70400
                   333 10234 20086 59002 91026=
202006180600 AAXX 18064 67561 31960 31408 10154 20055 48575 70500 83030
                   333 10228 20099 59002 83360 91026=
202006161200 AAXX 16124 67561 42680 71008 10210 20060 48555 878//
                   333 59002 83838 84640 91023=
202006160900 AAXX 16094 67561 42580 61213 10210 20074 48582 86200
                   333 58000 86828 91026=
202006160600 AAXX 16064 67561 31960 11212 10163 20086 48569 70500 81030
                   333 10235 20102 59010 91025=
202006151200 AAXX 15124 67561 42680 60810 10229 20065 48558 70222 86200
                   333 59013 91023=
202006150900 AAXX 15094 67561 41570 51006 10185 20103 48580 70522 85200
                   333 59010 85825 91026=
202006150600 AAXX 15064 67561 31959 40905 10122 20107 48574 70411 84030
                   333 10204 20080 59002 84360 91026=
202006110600 AAXX 11064 67561 41959 00000 10141 20085 48538 70400
                   333 10251 59003 91022=
202006101200 AAXX 10124 67561 42780 10000 10244 20069 48531 81100
                   333 58002 81850 91020=
202006100900 AAXX 10094 67561 42680 21006 10229 20065 48551
                   333 59002 82840 91023=
202006100600 AAXX 10064 67561 31959 00805 10160 20087 48543 70400
                   333 10260 20075 59006 91022=
202006091200 AAXX 09124 67561 42780 40000 10250 20070 48530 84100
                   333 59006 84850 91020=
202006090900 AAXX 09094 67561 41675 12005 10232 20071 48554 70500
                   333 58001 81840 91023=
202006090600 AAXX 09064 67561 31957 00000 10138 20098 48546 70400
                   333 10264 20073 59004 91023=
202006080600 AAXX 08064 67561 31959 00903 10142 20106 48558 70400
                   333 10257 20090 59004 91023=
202006051200 AAXX 05124 67561 41775 63003 10272 20111 48547 70522 86202
                   333 58004 86850 83080 91022=
202006050900 AAXX 05094 67561 41670 50704 10255 20127 48572 70522 82208
                   333 58006 82840 85280 91025=
202006050600 AAXX 05064 67561 31959 49903 10165 20129 48564 70422 80002
                   333 10281 20121 58009 84080 91025=
202006041200 AAXX 04124 67561 41670 69903 10273 20109 48543 70522 86200
                   333 58005 86845 91021=
202006040900 AAXX 04094 67561 41570 10504 10246 20120 48575 81100
                   333 58000 81830 91024=
202006040600 AAXX 04064 67561 31959 00000 10160 20126 48554 70400
                   333 10264 20104 59002 91024=
202006021200 AAXX 02124 67561 42680 61805 10242 20089 48546 86200
                   333 59010 86845 91022=
202006020900 AAXX 02094 67561 42980 01007 10231 20094 48574
                   333 59008 91025=
202006020600 AAXX 02064 67561 31959 31106 10164 20104 48567 70400 83930
                   333 10262 20113 59010 83360 91025=
202006010600 AAXX 01064 67561 31960 61310 10178 20100 48577 70522 86030
                   333 10274 20128 58012 86360 91026=

################################################################################
#  SYNOPS from 67563, Kafironda (Zambia) | 12-36S | 028-07E | 1243 m
################################################################################
202006261200 AAXX 26124 67563 NIL=
202006250900 AAXX 25094 67563 NIL=
202006250600 AAXX 25064 67563 31950 22102 10095 20085 48/// 74244 82030
                   333 10280 20075 59008 82360
                   555 00060=
202006241200 AAXX 24124 67563 NIL=
202006240600 AAXX 24064 67563 31970 00301 10100 20080 48/// 70500
                   333 10280 20040 59003
                   555 00035=
202006230600 AAXX 23064 67563 31975 00000 10080 20061 48/// 70500
                   333 10262 20040 5////
                   555 00034=
202006220600 AAXX 22064 67563 31970 30000 10076 20060 48/// 70500 83030
                   333 10217 20024 5//// 83359
                   555 00020=
202006191200 AAXX 19124 67563 NIL=
202006190600 AAXX 19064 67563 31975 20000 10090 20070 48/// 70500 80008
                   333 10242 20021 59002 82080
                   555 00016=
202006180600 AAXX 18064 67563 31975 12102 10110 20070 48/// 70500 81030
                   333 10240 20040 58000 81360
                   555 00029=
202006170600 AAXX 17064 67563 31975 01502 10110 20081 48/// 70500
                   333 10249 20101 5////
                   555 00031=
202006160600 AAXX 16064 67563 31975 10402 10105 20086 48/// 70500 81030
                   333 10252 20042 5//// 81358
                   555 00035=
202006150600 AAXX 15064 67563 31940 30000 10094 20090 48/// 71044 83030
                   333 10260 20050 59004 83358
                   555 00036=
202006110600 AAXX 11064 67563 31975 00301 10115 20086 48/// 70500
                   333 10268 20042 59004
                   555 00030=
202006100600 AAXX 10064 67563 31975 00000 10105 20086 48/// 70500
                   333 10270 20044 59005
                   555 00038=
202006090600 AAXX 09064 67563 31975 00000 10115 20086 48/// 70500
                   333 10272 20040 59005
                   555 00034=
202006080600 AAXX 08064 67563 31975 01002 10145 20110 48/// 70500
                   333 10276 20053 58002
                   555 00050=
202006050600 AAXX 05064 67563 31975 40401 10155 20130 48/// 70511 80008
                   333 10293 20080 58008 84280
                   555 00080=
202006040600 AAXX 04064 67563 31975 03202 10145 20124 48/// 70500
                   333 10275 20080 5////
                   555 00070=
202006030600 AAXX 03064 67563 31975 00402 10140 20103 48/// 70500
                   333 10272 20074 5////
                   555 00062=
202006020600 AAXX 02064 67563 31975 01002 10140 20104 48/// 70500
                   333 10273 20070 59006
                   555 000059=
202006010600 AAXX 01064 67563 31975 21802 10139 20130 48/// 70500 82030
                   333 10282 20092 5//// 82360
                   555 00080=

################################################################################
#  SYNOPS from 67571, Serenje (Zambia) | 13-14S | 030-13E | 1384 m
################################################################################
202006261200 AAXX 26124 67571 42680 10205 10207 20125 48/// 8323/
                   333 5//// 86840 82360=
202006250900 AAXX 25094 67571 42477 10903 10192 20113 48501 70500 81100
                   333 59014 81819=
202006241200 AAXX 24124 67571 NIL=
202006240600 AAXX 24064 67571 32977 01209 10149 20106 48509 70500
                   333 10223 20121 59004=
202006230600 AAXX 23064 67571 32980 00913 10150 20076 48509 70500
                   333 10213 20116 58010=
202006221200 AAXX 22124 67571 42682 71205 10192 20075 48461 8323/
                   333 59005 83840 86360=
202006220600 AAXX 22064 67571 32980 70906 10144 20060 48499 8703/
                   333 10217 20124 59001 87360=
202006191200 AAXX 19124 67571 42582 61204 10174 20092 48520 70122 85501
                   333 58006 85627 83080=
202006190900 AAXX 19094 67571 41480 81202 10145 20102 48539 75055 885//
                   333 58009 88615=
202006181200 AAXX 18124 67571 42582 51203 10191 20076 48/// 70222 85500
                   333 5//// 85628=
202006180900 AAXX 18094 67571 42482 11203 10169 20079 48/// 70200 81100
                   333 5//// 81817=
202006180600 AAXX 18064 67571 32982 01211 10128 20071 48///
                   333 10193 20070 5////=
202006171200 AAXX 17124 67571 42682 61208 10182 20066 48/// 70322 86500
                   333 5//// 86630=
202006170900 AAXX 17094 67571 42582 21204 10162 20078 48/// 70100 82500
                   333 5//// 82621=
202006160600 AAXX 16064 67571 32982 21206 10126 20099 48/// 82030
                   333 10214 20100 5//// 82360=
202006151200 AAXX 15124 67571 42682 50905 10201 20084 48/// 85500
                   333 5//// 85630=
202006150900 AAXX 15094 67571 42582 51205 10172 20092 48/// 85500
                   333 5//// 85625=
202006150600 AAXX 15064 67571 32482 70905 10130 20105 48/// 875//
                   333 10200 20105 5//// 87615=
202006120900 AAXX 12094 67571 42977 01206 10213 20079 48/// 70500
                   333 5////=
202006120600 AAXX 12064 67571 32978 01204 10172 20089 48/// 70500
                   333 10258 20109 5////=
202006111200 AAXX 11124 67571 42678 13002 10249 20069 48/// 70500 81100
                   333 5//// 81838=
202006110600 AAXX 11064 67571 32978 01205 10175 20091 48/// 70500
                   333 10239 20107 5////=
202006101200 AAXX 10124 67571 42680 11203 10221 20086 48/// 70500 81100
                   333 5//// 81845=
202006100900 AAXX 10094 67571 42680 20906 10211 20074 48/// 70500 82100
                   333 5//// 82832=
202006100600 AAXX 10064 67571 32980 01206 10153 20080 48/// 70500
                   333 10225 20107 5////=
202006091200 AAXX 09124 67571 42682 11208 10215 20075 48/// 81100
                   333 5//// 81845=
202006090900 AAXX 09094 67571 42682 11506 10198 20072 48/// 81100
                   333 5//// 81830=
202006090600 AAXX 09064 67571 32981 00911 10153 20075 48/// 70500
                   333 10223 20120 5////=
202006080600 AAXX 08064 67571 32982 01206 10144 20086 48///
                   333 10224 20115 5////=
202006051200 AAXX 05124 67571 42678 31203 10239 20124 48/// 70500 82101
                   333 5//// 82842 82080=
202006050900 AAXX 05094 67571 42678 10903 10223 20123 48/// 70500 81101
                   333 5//// 81830 81080=
202006041200 AAXX 04124 67571 42680 51205 10240 20121 48/// 70500 85200
                   333 5//// 85845=
202006040900 AAXX 04094 67571 42680 31506 10221 20121 48/// 70500 81230
                   333 5//// 81830 83360=
202006040600 AAXX 04064 67571 32980 00906 10162 20109 48/// 70500
                   333 10238 20135 5////=
202006031200 AAXX 03124 67571 42680 71203 10215 20111 48/// 70522 872//
                   333 5//// 87843=
202006030900 AAXX 03094 67571 42680 11205 10199 20105 48/// 70500 81100
                   333 5//// 81831=
202006030600 AAXX 03064 67571 32980 01206 10150 20095 48/// 70500
                   333 10235 20116 5////=
202006021200 AAXX 02124 67571 42680 21206 10215 20109 48/// 70500 82200
                   333 5//// 82845=
202006020600 AAXX 02064 67571 32980 00908 10146 20091 48/// 70500
                   333 10227 20114 5////=

################################################################################
#  SYNOPS from 67575, Mkushi (Zambia) | 13-38-00S | 029-26-00E | 1237 m
################################################################################
202006261200 AAXX 26124 67575 41778 62702 10242 20075 48480 70521 81270
                   333 5//// 81850 86362=
202006260600 AAXX 26064 67575 31475 23401 10138 20115 48497 70500 81570
                   333 10258 20084 59007 81615 82360
                   555 00075=
202006251200 AAXX 25124 67575 42780 51207 10244 20111 48/// 85200
                   333 5//// 85856=
202006250900 AAXX 25094 67575 42980 00908 10211 20116 48510
                   333 5////=
202006241200 AAXX 24124 67575 41775 21603 10238 20116 48500 70500 82200
                   333 5//// 82850=
202006230600 AAXX 23064 67575 32980 11202 10144 20087 48517 81030
                   333 10234 20095 5//// 81360
                   555 00091=
202006221200 AAXX 22124 67575 42680 71206 10217 20068 48/// 81270
                   333 5//// 81837 87363=
202006220600 AAXX 22064 67575 32980 71204 10150 20076 48/// 87070
                   333 10240 20120 5//// 87360
                   555 00115=
202006191200 AAXX 19124 67575 42780 31204 10195 20098 48526 83200
                   333 58007 83850=
202006190900 AAXX 19094 67575 42480 21206 10186 20104 48/// 82500
                   333 5//// 82619=
202006190600 AAXX 19064 67575 32480 61105 10132 20099 48535 86500
                   333 10235 20090 5//// 86613
                   555 00086=
202006181200 AAXX 18124 67575 42780 31305 10212 20083 48521 83200
                   333 59003 83856=
202006180900 AAXX 18094 67575 42480 10907 10204 20090 48/// 81100
                   333 5//// 81819=
202006180600 AAXX 18064 67575 32480 11205 10136 20075 48/// 81500
                   333 10223 20075 5//// 81613
                   555 00074=
202006171200 AAXX 17124 67575 42780 51208 10202 20072 48523 85200
                   333 5//// 85850=
202006170900 AAXX 17094 67575 42480 21210 10174 20091 48/// 82500
                   333 5//// 82618=
202006170600 AAXX 17064 67575 32980 11105 10130 20083 48538 81070
                   333 10220 20079 5//// 81360
                   555 00079=
202006160600 AAXX 16064 67575 32480 11207 10148 20097 48/// 81570
                   333 10242 20102 5//// 81613 81360
                   555 00096=
202006151200 AAXX 15124 67575 42780 31207 10228 20087 48520 83200
                   333 5//// 83850=
202006150900 AAXX 15094 67575 42580 10809 10198 20097 48/// 81200
                   333 5//// 81825=
202006150600 AAXX 15064 67575 32480 21205 10148 20116 48538 81570
                   333 10185 20100 59006 81613 82060
                   555 00095=
202006120900 AAXX 12094 67575 42980 01203 10245 20099 48514
                   333 58004=
202006120600 AAXX 12064 67575 31975 11202 10153 20101 48503 70500 80001
                   333 10270 20068 58004 81080
                   555 00068=
202006111200 AAXX 11124 67575 42780 12703 10262 20060 48484 81100
                   333 59008 81845=
202006110900 AAXX 11094 67575 42680 11202 10238 20093 48509 81100
                   333 59005 81830=
202006110600 AAXX 11064 67575 32980 00000 10127 20082 48497
                   333 10261 20050 59005
                   555 00046=
202006101200 AAXX 10124 67575 42680 11305 10248 20074 48492 81100
                   333 59002 81850=
202006100600 AAXX 10064 67575 32980 00904 10155 20087 48504
                   333 10255 20077 59004
                   555 00053=
202006091200 AAXX 09124 67575 42780 11403 10244 20088 48493 81100
                   333 59005 81845=
202006090900 AAXX 09094 67575 42680 11007 10225 20182 48517 81100
                   333 59003 81830=
202006090600 AAXX 09064 67575 32980 01107 10160 20093 48508
                   333 10253 20095 59005
                   555 00084=
202006080900 AAXX 08094 67575 42680 11004 10229 20100 48520 81100
                   333 5//// 81830=
202006080600 AAXX 08064 67575 32980 01205 10164 20103 48513
                   333 10257 20100 59002
                   555 00093=
202006010600 AAXX 01064 67575 32980 11203 10168 20100 48540 81070
                   333 10248 20125 58015 81360
                   555 00108=

################################################################################
#  SYNOPS from 67580, Msekera (Zambia) | 13-39S | 032-34E | 1025 m
################################################################################
202006261200 AAXX 26124 67580 41678 70902 10278 20148 48/// 70522 87100
                   333 5//// 87846=
202006251200 AAXX 25124 67580 41678 71203 10240 20146 48/// 70522 87230
                   333 5//// 87838 82360=
202006250900 AAXX 25094 67580 41680 71503 10228 20140 48/// 70500 87100
                   333 5//// 87830=
202006241200 AAXX 24124 67580 NIL=
202006230600 AAXX 23064 67580 31975 00000 10157 20109 48/// 70500
                   333 10287 20115 5////=
202006220600 AAXX 22064 67580 31978 11503 10169 20085 48/// 70511 81030
                   333 10260 20117 59018 81360=
202006191200 AAXX 19124 67580 42680 71203 10223 20124 48/// 87230
                   333 58001 87834 81361=
202006190900 AAXX 19094 67580 42680 71204 10222 20134 48/// 87101
                   333 59002 87830 82080=
202006190600 AAXX 19064 67580 32480 71204 10156 20125 48/// 85530
                   333 10262 20119 59002 85612 82360=
202006181200 AAXX 18124 67580 42680 71503 10229 20169 48/// 87100
                   333 5//// 87836=
202006180900 AAXX 18094 67580 42680 41503 10215 20116 48/// 84100
                   333 5//// 84830=
202006180600 AAXX 18064 67580 32980 31504 10167 20106 48/// 83030
                   333 10224 20137 59007 83360=
202006171200 AAXX 17124 67580 42680 71506 10218 20104 48/// 878//
                   333 5//// 83840 87645=
202006170900 AAXX 17094 67580 42680 21806 1//// 2//// 48/// 81230
                   333 5//// 81835 81362=
202006170600 AAXX 17064 67580 32580 71606 10155 20115 48/// 8213/
                   333 10234 20140 58008 82820 87360=
202006161200 AAXX 16124 67580 41680 31808 10218 20081 48/// 70500 83100
                   333 58002 83845=
202006160900 AAXX 16094 67580 41680 11610 10215 20072 48/// 70500 81130
                   333 58010 81830 81362=
202006160600 AAXX 16064 67580 31980 21508 10164 20093 48/// 70510 82030
                   333 10249 20135 59007 82362=
202006150900 AAXX 15094 67580 42680 41103 10230 20136 48/// 83130
                   333 59012 83832 81360=
202006120900 AAXX 12094 67580 41680 61203 10244 20117 48/// 70521 86200
                   333 58004 86840=
202006120600 AAXX 12064 67580 31978 70000 10196 20154 48/// 70522 87030
                   333 10296 20108 58006 87360=
202006111200 AAXX 11124 67580 41778 20000 10270 20123 48/// 70500 82100
                   333 59012 82856=
202006110900 AAXX 11094 67580 41678 23604 10263 20106 48/// 70500 82100
                   333 59011 81840=
202006110600 AAXX 11064 67580 31978 00000 10193 20130 48/// 70500
                   333 10288 20123 59008=
202006101200 AAXX 10124 67580 41680 51203 10265 20111 48/// 70511 85100
                   333 59001 85842=
202006100900 AAXX 10094 67580 41680 30903 10256 20081 48/// 70500 83100
                   333 59003 83834=
202006100600 AAXX 10064 67580 31980 01004 10172 20114 48/// 70500
                   333 10268 20124 59010=
202006090900 AAXX 09094 67580 42680 11202 10232 20095 48/// 81100
                   333 59004 81834=
202006080900 AAXX 08094 67580 41678 11205 10232 20099 48/// 70500 81100
                   333 59004 81835=
202006080600 AAXX 08064 67580 31978 01204 10169 20119 48/// 70500
                   333 10265 20109 59007=
202006050900 AAXX 05094 67580 41678 41502 10255 20135 48/// 70500 84100
                   333 58004 84836=
202006050600 AAXX 05064 67580 31978 01202 10179 20145 48/// 70500
                   333 10296 20125 58012=
202006041200 AAXX 04124 67580 41678 71202 10256 20134 48/// 70522 87100
                   333 58005 87842=
202006040900 AAXX 04094 67580 41678 60302 10250 20135 48/// 70500 86200
                   333 58003 86836=
202006040600 AAXX 04064 67580 31978 01203 10189 20139 48/// 70500
                   333 10276 20137 59006=
202006031200 AAXX 03124 67580 41778 71806 10258 20132 48/// 872//
                   333 59014 87850=
202006030900 AAXX 03094 67580 41678 20000 10238 20138 48/// 70500 82100
                   333 59014 82840=
202006030600 AAXX 03064 67580 31978 01203 10164 20119 48/// 70500
                   333 10264 20125 59013=
202006021200 AAXX 02124 67580 41778 61205 10252 20130 48/// 70521 86100
                   333 59007 86850=
202006020900 AAXX 02094 67580 41678 11205 10240 20129 48/// 70500 81100
                   333 59007 81838=
202006020600 AAXX 02064 67580 31978 11204 10174 20128 48/// 70500 80001
                   333 10276 20132 59002 81080=
202006010600 AAXX 01064 67580 32980 01003 10186 20125 48///
                   333 10270 20135 58006=

################################################################################
#  SYNOPS from 67581, Chipata (Zambia) | 13-33S | 032-35E | 1028 m
################################################################################
202006261200 AAXX 26124 67581 NIL=
202006250900 AAXX 25094 67581 42680 70707 10230 20129 48575 70322 872//
                   333 59008 87830 91023=
202006241200 AAXX 24124 67581 NIL=
202006240600 AAXX 24064 67581 32580 21605 10182 20128 48571 82100
                   333 1//// 20152 59027 82820 91024=
202006230600 AAXX 23064 67581 NIL=
202006220900 AAXX 22094 67581 42680 21206 10244 20070 48576 82100
                   333 59012 82830 91023=
202006220600 AAXX 22064 67581 32480 20904 10188 20066 48565 82100
                   333 1//// 20118 59016 82818 91023=
202006191200 AAXX 19124 67581 42680 61710 10238 20110 48581 70222 86200
                   333 58000 86835 91023=
202006190900 AAXX 19094 67581 42580 61609 10214 20120 48599 70322 86200
                   333 58001 86825 91027=
202006190600 AAXX 19064 67581 32480 31715 10162 20114 48587 70200 82102
                   333 1//// 20137 59001 82615 82080 91026=
202006180900 AAXX 18094 67581 42980 30904 10216 20095 48598 82130
                   333 5//// 82832 82360 91026=
202006180600 AAXX 18064 67581 31609 3//// 10168 20098 48590 83030
                   333 1//// 20151 59004 83360 91026=
202006171200 AAXX 17124 67581 42980 71512 10216 20075 48/// 70100 8707/
                   333 5//// 87460=
202006170900 AAXX 17094 67581 42680 31610 10216 20097 48/// 70322 83130
                   333 5//// 83832 81360=
202006160600 AAXX 16064 67581 32980 31204 10179 20056 48587 83030
                   333 1//// 20151 59008 83360 91026=
202006150900 AAXX 15094 67581 42680 61907 10220 20123 48597 70322 86200
                   333 58009 86830 91026=
202006150600 AAXX 15064 67581 32580 31708 10175 20119 48595 70200 81130
                   333 1//// 20136 59003 81815 83360 91027=
202006120900 AAXX 12094 67581 42680 31203 10255 20115 48567 82130
                   333 58000 83830 81360 91022=
202006120600 AAXX 12064 67581 32980 41203 10188 20135 48559 84030
                   333 1//// 20114 58006 84360 91022=
202006110600 AAXX 11064 67581 32980 00910 10211 20110 48558
                   333 1//// 20127 59009 91022=
202006101200 AAXX 10124 67581 42980 30804 10261 20079 48551 83030
                   333 59002 83360 91020=
202006100900 AAXX 10094 67581 42680 21406 10242 20079 48573 82100
                   333 59003 82832 91023=
202006100600 AAXX 10064 67581 32980 00906 10202 20088 48565
                   333 1//// 20140 59008 91023=
202006090900 AAXX 09094 67581 42680 31608 10245 20083 48576 83200
                   333 59004 83845 91023=
202006090600 AAXX 09064 67581 32980 01609 10190 20098 48571
                   333 1//// 20135 59001 91023=
202006080900 AAXX 08094 67581 42680 11003 10230 20090 48578 81100
                   333 59006 81362 91023=
202006080600 AAXX 08064 67581 32980 01604 10188 20100 48571
                   333 1//// 20146 59006 91024=
202006050900 AAXX 05094 67581 42680 52404 10250 20130 48590 85200
                   333 58006 85835 91026=
202006050600 AAXX 05064 67581 32980 01706 10190 20133 48583
                   333 1//// 20130 58012 91025=
202006041200 AAXX 04124 67581 42680 51102 10264 20119 48564 84130
                   333 59007 84840 82360 91021=
202006040600 AAXX 04064 67581 32980 01206 10210 20125 48576
                   333 1//// 20128 59006 91024=
202006031200 AAXX 03124 67581 42680 41204 10258 20126 48557 83130
                   333 59013 83835 82360 91021=
202006030900 AAXX 03094 67581 42680 20904 10249 20117 48581 82100
                   333 59012 82830 91023=
202006030600 AAXX 03064 67581 32980 01405 10192 20116 48578
                   333 1//// 20149 59009 91024=
202006021200 AAXX 02124 67581 42680 41604 10255 20115 48569 84100
                   333 59010 83836 91022=
202006020900 AAXX 02094 67581 42680 11204 10240 20108 48590 81100
                   333 59010 81830 91024=
202006020600 AAXX 02064 67581 32980 01205 10181 20110 48586
                   333 1//// 20151 59003 91026=
202006010600 AAXX 01064 67581 32980 01612 10184 20109 48587
                   333 1//// 20158 58005 91026=

################################################################################
#  SYNOPS from 67583, Lundazi (Zambia) | 12-17S | 033-12E | 1143 m
################################################################################
202006261200 AAXX 26124 67583 NIL=
202006251200 AAXX 25124 67583 41659 71802 10232 20152 48/// 70522 871//
                   333 5//// 87846=
202006250900 AAXX 25094 67583 NIL=
202006241200 AAXX 24124 67583 41659 41203 10256 20156 48/// 70500 84100
                   333 5//// 84840=
202006240600 AAXX 24064 67583 31458 21804 10176 20140 48/// 70500 82500
                   333 10270 2//// 5//// 82612=
202006230600 AAXX 23064 67583 31958 01202 10166 20138 48/// 70500
                   333 10282 2//// 5////=
202006221200 AAXX 22124 67583 42780 11202 10278 20108 48/// 70200 81100
                   333 5//// 81856=
202006220900 AAXX 22094 67583 42780 00000 10248 20101 48/// 70300 81100
                   333 5//// 81850=
202006220600 AAXX 22064 67583 32980 00000 10146 20100 48///
                   333 10271 2//// 5////=
202006191200 AAXX 19124 67583 NIL=
202006190600 AAXX 19064 67583 32480 41604 10156 20131 48/// 84532
                   333 10252 2//// 5//// 84620 81359 82080=
202006180900 AAXX 18094 67583 42680 11804 10222 20116 48/// 81100
                   333 5//// 81835=
202006180600 AAXX 18064 67583 32980 11604 10155 20105 48/// 81030
                   333 10238 2//// 5////=
202006170600 AAXX 17064 67583 32980 31707 10159 20107 48/// 83030
                   333 10248 2//// 5//// 83360=
202006160600 AAXX 16064 67583 32980 71504 10158 20099 48/// 8703/
                   333 10260 2//// 5//// 87359=
202006151200 AAXX 15124 67583 42680 70902 10240 20103 48/// 871//
                   333 5//// 87535=
202006150600 AAXX 15064 67583 32580 21803 10156 20125 48/// 82530
                   333 10282 2//// 5//// 82620 81360=
202006110900 AAXX 11094 67583 42680 10000 10260 20136 48/// 81100
                   333 5//// 81835=
202006100900 AAXX 10094 67583 42680 40903 10245 20110 48/// 84100
                   333 5//// 84835=
202006100600 AAXX 10064 67583 32980 00000 10164 20123 48///
                   333 10275 2//// 5////=
202006090900 AAXX 09094 67583 42680 20000 10240 20110 48/// 82100
                   333 5//// 82830=
202006090600 AAXX 09064 67583 32980 20000 10154 20127 48/// 82030
                   333 10280 2//// 5//// 82360=
202006080900 AAXX 08094 67583 42680 10000 10245 20118 48/// 81100
                   333 5//// 81825=
202006050600 AAXX 05064 67583 32980 00000 10182 20158 48///
                   333 10290 2//// 5////=
202006041200 AAXX 04124 67583 42780 60000 10268 20149 48/// 70321 86101
                   333 5//// 86850 81080=
202006040900 AAXX 04094 67583 42780 30903 10260 20133 48/// 70300 83101
                   333 5//// 83850 81080=
202006040600 AAXX 04064 67583 32980 10000 10158 20136 48/// 70200 80001
                   333 10288 2//// 5//// 81080=
202006031200 AAXX 03124 67583 42780 40000 10284 20117 48/// 70200 84100
                   333 5//// 84856=
202006030900 AAXX 03094 67583 42680 20902 10252 20136 48/// 70300 82100
                   333 5//// 82842=
202006030600 AAXX 03064 67583 32980 01202 10176 20139 48///
                   333 10276 2//// 5////=
202006020900 AAXX 02094 67583 42680 21503 10252 20143 48/// 70300
                   333 5//// 81842 81080=
202006020600 AAXX 02064 67583 32980 22103 10178 20125 48/// 70100 80002
                   333 10260 2//// 5//// 82080=
202006010600 AAXX 01064 67583 32580 21802 10182 20137 48/// 81130
                   333 10292 2//// 5//// 81828 81360=

################################################################################
#  SYNOPS from 67599, Mfuwe (Zambia) | 13-16S | 031-56E | 568 m
################################################################################
202006261200 AAXX 26124 67599 NIL=
202006260600 AAXX 26064 67599 32980 01603 10176 20134 48546
                   333 10310 20118 59009
                   555 00104 91021=
202006251200 AAXX 25124 67599 42880 50704 10280 20156 48552 85200
                   333 59016 85856 91018=
202006250900 AAXX 25094 67599 42680 40705 10260 20150 48571 84100
                   333 59010 84849 91021=
202006241200 AAXX 24124 67599 NIL=
202006240600 AAXX 24064 67599 32980 20000 10190 20141 48567 82030
                   333 10310 20120 59003 82360
                   555 00100 91023=
202006230600 AAXX 23064 67599 32980 00000 10165 20112 48560
                   333 10306 20095 58012
                   555 00080 91013=
202006221200 AAXX 22124 67599 42880 21703 10285 20086 48550 82100
                   333 59015 82857 91017=
202006220600 AAXX 22064 67599 32980 40000 10160 20096 48550 84030
                   333 10295 20080 59021 84360
                   555 00082 91022=
202006191200 AAXX 19124 67599 NIL=
202006190600 AAXX 19064 67599 32980 21402 10170 20118 48583 81031
                   333 10297 20101 58000 81360 82080
                   555 00077 91026=
202006180600 AAXX 18064 67599 32680 42202 10186 20097 48587 81130
                   333 10283 20115 59003 81830 84360
                   555 00104 91026=
202006170600 AAXX 17064 67599 32980 71703 10188 20109 48592 87030
                   333 10283 20135 58007 87360
                   555 00118 91026=
202006160600 AAXX 16064 67599 32980 71408 10194 20093 48586 87030
                   333 10284 20167 59012 87360
                   555 00158 91025=
202006150600 AAXX 15064 67599 32580 50000 10176 20132 48590 81130
                   333 10277 20110 58003 81820 85360
                   555 00092 91026=
202006120600 AAXX 12064 67599 32980 21804 10180 20130 48543 82030
                   333 10325 20120 58000 82360
                   555 00094 91020=
202006111200 AAXX 11124 67599 42880 30202 10300 20138 48546 83100
                   333 59010 83858 91016=
202006110900 AAXX 11094 67599 42880 13603 10275 20140 48566 81100
                   333 59011 81856 91020=
202006110600 AAXX 11064 67599 31970 01505 10185 20121 48543 70500
                   333 10310 20100 59012
                   555 00090 91020=
202006100600 AAXX 10064 67599 32980 00000 10184 20116 48554
                   333 10310 20100 59008
                   555 00085 91022=
202006090600 AAXX 09064 67599 32980 01702 10166 20114 48553
                   333 10300 20088 59004
                   555 00078 91023=
202006080600 AAXX 08064 67599 32980 01703 10168 20110 48561
                   333 10306 20088 59002
                   555 00065=
202006051200 AAXX 05124 67599 42880 50502 10302 20143 48/// 85100
                   333 58002 85857 91019=
202006050900 AAXX 05094 67599 42980 00205 10267 20161 48592
                   333 58006 91023=
202006050600 AAXX 05064 67599 32980 01504 10200 20152 48575
                   333 10320 20130 58012
                   555 00105 91024=
202006041200 AAXX 04124 67599 42880 62803 10305 20150 48566 84130
                   333 58000 84857 86360 91018=
202006040600 AAXX 04064 67599 31980 00000 10192 20149 48562 70500
                   333 10315 20112 59008
                   555 00105 91022=
202006030600 AAXX 03064 67599 32980 00702 10204 20119 48572
                   333 10316 20155 59013
                   555 00131 91023=
202006020600 AAXX 02064 67599 32980 21503 10198 20121 48584 82030
                   333 10320 20129 59003 82360
                   555 00110 91024=
202006010600 AAXX 01064 67599 32980 31603 10210 20121 48590 83030
                   333 10300 20145 58018 83360
                   555 00130 91025=

################################################################################
#  SYNOPS from 67625, Kalabo (Zambia) | 14-51S | 022-42E | 1033 m
################################################################################
202006261200 AAXX 26124 67625 42982 10711 10255 20112 48/// 81030
                   333 59013 81360=
202006260600 AAXX 26064 67625 32982 11413 10130 20103 48/// 81040
                   333 10252 20105 59004 81360=
202006251200 AAXX 25124 67625 42982 10812 10230 20095 48/// 81030
                   333 59019 82360=
202006250900 AAXX 25094 67625 42982 01014 10210 20117 48///
                   333 59021=
202006241200 AAXX 24124 67625 42982 00812 10250 20069 48///
                   333 58002=
202006230600 AAXX 23064 67625 32982 01311 10125 20077 48///
                   333 10249 20100 58001=
202006220600 AAXX 22064 67625 32982 11105 10130 20080 48/// 81030
                   333 10250 20105 59026 81360=
202006191200 AAXX 19124 67625 42982 61007 10235 20061 48/// 80004
                   333 59006 86075=
202006190900 AAXX 19094 67625 42982 61213 10206 20064 48/// 80004
                   333 59002 86075=
202006190600 AAXX 19064 67625 32982 51408 10110 20070 48/// 80004
                   333 10240 20080 59007 85075=
202006150900 AAXX 15094 67625 42982 00807 10215 20099 48///
                   333 5////=
202006150600 AAXX 15064 67625 32982 31206 10130 20109 48/// 83030
                   333 10262 20095 5//// 83360=
202006120900 AAXX 12094 67625 42982 11217 10216 20079 48/// 80004
                   333 58011 81075=
202006120600 AAXX 12064 67625 32982 31506 10128 20074 48/// 80004
                   333 10270 20086 58002 83075=
202006101200 AAXX 10124 67625 42982 00409 10260 20071 48///
                   333 5////=
202006100900 AAXX 10094 67625 42982 00708 10224 20095 48///
                   333 59009=
202006100600 AAXX 10064 67625 32982 00906 10140 20091 48///
                   333 10263 20095 59002=
202006091200 AAXX 09124 67625 42982 11010 10260 20082 48/// 81030
                   333 5//// 81361=
202006090900 AAXX 09094 67625 42982 10909 10225 20105 48/// 81030
                   333 58009 81361=
202006090600 AAXX 09064 67625 32982 71206 10145 20110 48/// 87030
                   333 10285 20125 58002 87360=
202006080900 AAXX 08094 67625 42982 41110 10237 20116 48/// 84030
                   333 5//// 84361=
202006080600 AAXX 08064 67625 32982 71206 10173 20122 48/// 87030
                   333 10273 20159 59003 87360=
202006050900 AAXX 05094 67625 42982 21006 10259 20120 48/// 80005
                   333 58008 82275=
202006050600 AAXX 05064 67625 32982 11704 10149 20094 48/// 80005
                   333 10290 20126 58008 81275=
202006041200 AAXX 04124 67625 42882 1//// 10280 20079 48/// 81100
                   333 59002 81857=
202006040900 AAXX 04094 67625 42982 00510 10233 20120 48///
                   333 59013=
202006040600 AAXX 04064 67625 32982 01008 10150 20115 48///
                   333 10270 20125 59004=
202006031200 AAXX 03124 67625 42982 11404 10260 20097 48/// 81030
                   333 59020 81360=
202006030900 AAXX 03094 67625 42982 00309 10225 20115 48///
                   333 58015=
202006030600 AAXX 03064 67625 32982 01207 10145 20100 48///
                   333 10278 20105 59016=
202006021200 AAXX 02124 67625 42982 01314 10270 20053 48///
                   333 58005=
202006020600 AAXX 02064 67625 32982 00908 10155 20091 48///
                   333 10290 20130 58005=
202006010600 AAXX 01064 67625 32982 11204 10170 20128 48/// 81030
                   333 10295 20145 58003 81360=

################################################################################
#  SYNOPS from 67633, Mongu (Zambia) | 15-15S | 023-09E | 1052 m
################################################################################
202006261200 AAXX 26124 67633 NIL=
202006260600 AAXX 26064 67633 32980 00000 10146 20114 48531 70200
                   333 10265 20106 59022
                   555 00077 91021=
202006250900 AAXX 25094 67633 NIL=
202006250600 AAXX 25064 67633 32980 30903 10130 20095 48548 70222 83030
                   333 10266 20094 59002 83360
                   555 00075 91023=
202006241200 AAXX 24124 67633 NIL=
202006240600 AAXX 24064 67633 32980 01002 10128 20065 48550 70200
                   333 10265 20084 58001
                   555 00062 91023=
202006230600 AAXX 23064 67633 32980 00904 10125 20061 48548 70200
                   333 10256 20097 58005
                   555 00074 91023=
202006221200 AAXX 22124 67633 42980 40905 10250 20080 48540 70222 84030
                   333 59011 84360 91020=
202006220600 AAXX 22064 67633 32980 60804 10115 20097 48547 70222 86030
                   333 10259 20095 59012 86360
                   555 00075 91022=
202006191200 AAXX 19124 67633 NIL=
202006190900 AAXX 19094 67633 42980 00903 10215 20069 48583 70200
                   333 59008=
202006190600 AAXX 19064 67633 32980 1//// 10125 20059 48565 70222 80001
                   333 1//// 2//// 59002 81080
                   555 00050 91025=
202006181200 AAXX 18124 67633 42980 01503 10231 20051 48573 70200
                   333 58008 91024=
202006180900 AAXX 18094 67633 42980 01512 10215 20049 48593 70200
                   333 58009 91027=
202006180600 AAXX 18064 67633 32980 01003 10119 20066 48565 70200
                   333 10252 20084 58006
                   555 00061 91026=
202006170600 AAXX 17064 67633 32980 20905 10127 20068 48566 70200 82030
                   333 10264 20097 58013 82360
                   555 00074 91025=
202006160600 AAXX 16064 67633 32980 00903 10156 20093 48552 70200
                   333 10258 20104 5//// 91023=
202006151200 AAXX 15124 67633 42980 31508 10254 20086 48565 70200 83030
                   333 58004 83360 91022=
202006150900 AAXX 15094 67633 42980 00906 10224 20093 48583 70200
                   333 58002 91025=
202006150600 AAXX 15064 67633 32980 00905 10140 20098 48568 70200
                   333 10266 20111 58000
                   555 00087 91025=
202006120900 AAXX 12094 67633 42980 21006 10212 20079 48563 80001
                   333 58017 82080 91023=
202006120600 AAXX 12064 67633 32980 21206 10146 20071 48539 80001
                   333 10269 20100 58013 82080
                   555 00070 91021=
202006110600 AAXX 11064 67633 32980 10000 10133 20083 48524 80001
                   333 10270 20080 59004 81080
                   555 00053 91020=
202006101200 AAXX 10124 67633 42980 00902 10264 20080 48532 70200
                   333 59003 91019=
202006100900 AAXX 10094 67633 42980 00906 10245 20089 48550 70200
                   333 58007 91021=
202006100600 AAXX 10064 67633 32980 00904 10140 20077 48532 70200
                   333 10276 20105 59003
                   555 00085 91020=
202006090600 AAXX 09064 67633 32980 50803 10160 20090 48543 85030
                   333 10285 20120 59001 85360
                   555 00095 91022=
202006080900 AAXX 08094 67633 42980 21005 10250 20103 48558 82030
                   333 59012 82360 91022=
202006080600 AAXX 08064 67633 32980 70912 10165 20106 48544 8707/
                   333 10288 20156 58003 87360
                   555 00140 91022=
202006051200 AAXX 05124 67633 42980 01804 10275 20057 48555 70200
                   333 58013 91021=
202006050900 AAXX 05094 67633 42980 00904 10250 20123 48568 70200
                   333 58008 91023=
202006050600 AAXX 05064 67633 42980 00904 10170 20102 48555 70200
                   333 10293 20105 58007
                   555 00100 91023=
202006041200 AAXX 04124 67633 42680 13006 10285 20061 48545 70200
                   333 58002 82840 91020=
202006040900 AAXX 04094 67633 42980 00910 10255 20206 48560 70222
                   333 59003 91022=
202006040600 AAXX 04064 67633 32980 60908 10155 20104 48543 70222 86030
                   333 10271 20124 58000 86360
                   555 00095 91022=
202006031200 AAXX 03124 67633 42680 22704 10262 20089 48541 82100
                   333 59011 82840 91020=
202006030900 AAXX 03094 67633 42980 00813 10252 20101 48565
                   333 59012 91022=
202006030600 AAXX 03064 67633 32980 00905 10148 20088 48547
                   333 10287 20109 59010
                   555 00082 91022=
202006020900 AAXX 02094 67633 42980 01508 10255 20076 48576
                   333 59009 91024=
202006020600 AAXX 02064 67633 32980 00908 10165 20076 48558
                   333 10303 20165 59008
                   555 00096 91023=
202006010600 AAXX 01064 67633 32980 30993 10173 20108 48565 70222 80001
                   333 10301 20140 58010 83080
                   555 00110 91024=

################################################################################
#  SYNOPS from 67641, Kaoma (Zambia) | 14-48S | 024-48E | 1213 m
################################################################################
202006261200 AAXX 26124 67641 NIL=
202006260600 AAXX 26064 67641 31960 70000 10116 20106 48518 70522 87030
                   333 10270 20098 58009 87362 91020=
202006250900 AAXX 25094 67641 NIL=
202006250600 AAXX 25064 67641 31975 00000 10101 20081 48533 70500
                   333 10257 20069 59008 91021=
202006241200 AAXX 24124 67641 NIL=
202006230600 AAXX 23064 67641 32978 01002 10116 20067 48535
                   333 10253 20058 59007 91022=
202006191200 AAXX 19124 67641 NIL=
202006190600 AAXX 19064 67641 32980 10702 10076 20052 48553 81030
                   333 10237 20047 58006 81360 91024=
202006180600 AAXX 18064 67641 32980 01002 10095 20071 48551
                   333 10229 20077 59001 91023=
202006170600 AAXX 17064 67641 32980 01602 10104 20070 48552
                   333 10258 20069 59002 91024=
202006150600 AAXX 15064 67641 32980 01004 10128 20100 48563
                   333 10252 20078 59001 91024=
202006120600 AAXX 12064 67641 32978 10801 10084 20071 48523 81030
                   333 10285 20070 58007 81360 91021=
202006110600 AAXX 11064 67641 32978 00000 10076 20064 48516
                   333 10286 20061 59024 91020=
202006090600 AAXX 09064 67641 32980 01002 10112 20091 48535
                   333 10272 20089 58001 91022=
202006080900 AAXX 08094 67641 42980 10804 10241 20113 48552 81030
                   333 59005 81362 91022=
202006080600 AAXX 08064 67641 32980 71302 10148 20111 48540 87030
                   333 10275 20113 58005 87362 91022=
202006050600 AAXX 05064 67641 31970 00000 10117 20107 48541 70500
                   333 10300 20089 59005 91022=
202006041200 AAXX 04124 67641 41670 40406 10280 20121 48540 70500 84200
                   333 58002 84848 91020=
202006040900 AAXX 04094 67641 41975 00805 10247 20135 48561 70500
                   333 58002 91022=
202006030900 AAXX 03094 67641 42980 01306 10235 20114 48558
                   333 59009 91022=
202006030600 AAXX 03064 67641 31970 00000 10124 20090 48541 70500
                   333 10275 20074 59016 91022=

################################################################################
#  SYNOPS from 67655, Mumbwa (Zambia) | 15-04S | 027-11E | 1216 m
################################################################################
202006261200 AAXX 26124 67655 NIL=
202006250900 AAXX 25094 67655 NIL=
202006241200 AAXX 24124 67655 NIL=
202006230600 AAXX 23064 67655 32980 00000 10145 20090 48564
                   333 10242 20001 58015 91024=
202006191200 AAXX 19124 67655 NIL=
202006190900 AAXX 19094 67655 42680 41014 10195 20075 48598 84100
                   333 59005 84830 91027=
202006160600 AAXX 16064 67655 32980 00908 10139 20085 48576
                   333 10239 20018 58006 91026=

################################################################################
#  SYNOPS from 67659, Kafue Polder (Zambia) | 15-46S | 027-55E | 978 m
################################################################################
202006261200 AAXX 26124 67659 NIL=
202006250900 AAXX 25094 67659 NIL=
202006250600 AAXX 25064 67659 32480 11207 10169 20121 48/// 70322 81100
                   333 10235 20099 5//// 81815=
202006241200 AAXX 24124 67659 NIL=
202006240600 AAXX 24064 67659 32980 11405 10168 20111 48/// 70222 81030
                   333 10243 20116 5//// 81360=
202006230600 AAXX 23064 67659 NIL=
202006191200 AAXX 19124 67659 NIL=
202006190900 AAXX 19094 67659 42680 30706 10210 20112 48/// 70222 83200
                   333 5//// 83840=
202006190600 AAXX 19064 67659 32480 20503 10145 20119 48/// 70322 82200
                   333 10231 20069 5//// 82820=
202006180900 AAXX 18094 67659 42680 1//// 10194 20081 48/// 70222 82230
                   333 5//// 82830 84361=
202006160900 AAXX 16094 67659 42680 51707 10205 2//// 48/// 70222 81130
                   333 5//// 81835 85360=
202006160600 AAXX 16064 67659 32980 61206 10165 20111 48/// 70222 86030
                   333 10240 20060 5//// 86360=
202006120900 AAXX 12094 67659 42680 22502 10255 20110 48/// 70222 81101
                   333 5//// 81830 81030=
202006110900 AAXX 11094 67659 42680 10504 10247 20121 48/// 70222 81100
                   333 5//// 81830=
202006110600 AAXX 11064 67659 32980 01002 10155 20119 48///
                   333 10265 20082 5////=
202006101200 AAXX 10124 67659 42680 20705 10260 20126 48/// 70222 82200
                   333 58000 81845=
202006100900 AAXX 10094 67659 42680 10607 10234 20104 48/// 70222 81100
                   333 59007 81835=
202006100600 AAXX 10064 67659 32980 00804 10172 20101 48///
                   333 10257 20060 59009=
202006090900 AAXX 09094 67659 42680 11307 10232 20117 48/// 70222 81100
                   333 5//// 81835=
202006090600 AAXX 09064 67659 31975 10903 10172 20110 48/// 70500 81030
                   333 10264 20162 58007 81360=
202006080900 AAXX 08094 67659 42580 11006 10218 20133 48/// 70222 81100
                   333 5//// 81830=
202006080600 AAXX 08064 67659 32980 01304 10171 20120 48///
                   333 10260 20080 59005=
202006030900 AAXX 03094 67659 42980 00904 10225 20092 48///
                   333 5////=
202006030600 AAXX 03064 67659 31975 01505 10178 20122 48/// 70500
                   333 10250 20074 59017=
202006020900 AAXX 02094 67659 42980 10705 10225 20128 48/// 70222 81100
                   333 5//// 81840=
202006020600 AAXX 02064 67659 32980 01706 10180 20110 48///
                   333 10276 20100 5////=
202006010600 AAXX 01064 67659 32980 01407 10192 20125 48///
                   333 10275 20110 5////=

################################################################################
#  SYNOPS from 67662, Kabwe Agric (Zambia) | 14-24S | 028-30E | 1165 m
################################################################################
202006261200 AAXX 26124 67662 NIL=
202006250900 AAXX 25094 67662 NIL=
202006241200 AAXX 24124 67662 41680 41607 10220 20109 48/// 70320 84200
                   333 5//// 81838=
202006230600 AAXX 23064 67662 31980 10902 10160 20066 48/// 81070
                   333 10227 20060 5//// 81360=
202006220600 AAXX 22064 67662 31980 40000 10152 20114 48/// 70222 84070
                   333 10238 20030 5//// 84380=
202006191200 AAXX 19124 67662 NIL=
202006190900 AAXX 19094 67662 41680 40903 10186 20084 48/// 70322 84200
                   333 5//// 84832=
202006181200 AAXX 18124 67662 41780 41203 10215 20098 48/// 70221 84200
                   333 5//// 84850=
202006180900 AAXX 18094 67662 41980 30902 10190 20086 48/// 70300 83200
                   333 5//// 83840=
202006170600 AAXX 17064 67662 31980 20000 10116 20086 48/// 70122 82070
                   333 10210 20042 5//// 82360=
202006161200 AAXX 16124 67662 41780 70908 10205 20079 48/// 70222 84270
                   333 5//// 84850 83360=
202006160900 AAXX 16094 67662 41680 50904 10200 20080 48/// 70321 84230
                   333 5//// 84836 81360=
202006160600 AAXX 16064 67662 31980 00000 10140 20094 48/// 70200
                   333 10230 20052 5////=
202006150900 AAXX 15094 67662 41580 20902 10145 20095 48/// 70300 82200
                   333 5//// 82828=
202006150600 AAXX 15064 67662 31980 20902 10125 20110 48/// 70122
                   333 10222 20030 5//// 82360=
202006120900 AAXX 12094 67662 41980 12002 10240 20080 48/// 70200 80001
                   333 5//// 81080=
202006111200 AAXX 11124 67662 41980 00000 10253 20080 48/// 70200
                   333 5////=
202006110900 AAXX 11094 67662 41780 40604 10240 20066 48/// 70320 84200
                   333 5//// 84850=
202006110600 AAXX 11064 67662 32980 00904 10150 20098 48534
                   333 10251 20100 59000
                   555 00186=
202006101200 AAXX 10124 67662 41980 00903 10248 20050 48///
                   333 5////=
202006100900 AAXX 10094 67662 41680 10906 10225 20070 48/// 70300 81200
                   333 5//// 81840=
202006100600 AAXX 10064 67662 31980 00000 10133 20066 48/// 70200
                   333 10245 20032 5////=
202006090900 AAXX 09094 67662 41680 10906 10217 20078 48/// 70300 81200
                   333 5//// 81840=
202006080600 AAXX 08064 67662 31980 10902 10146 20102 48/// 70200 80001
                   333 10274 20052 5//// 81080=
202006040600 AAXX 04064 67662 31980 70000 10147 20116 48/// 70222 87030
                   333 10250 20072 5//// 87360=
202006031200 AAXX 03124 67662 42680 50000 10237 20106 48/// 70322 83230
                   333 5//// 83847 82359=
202006030600 AAXX 03064 67662 31980 00901 10152 20104 48///
                   333 10255 20062 5////=
202006020900 AAXX 02094 67662 42980 01208 10220 20098 48/// 70200
                   333 5////=
202006020600 AAXX 02064 67662 31980 00000 10152 20094 48/// 70200
                   333 10250 20052 5////=
202006010600 AAXX 01064 67662 31980 00000 10160 20106 48/// 70200
                   333 10282 20060 5////=

################################################################################
#  SYNOPS from 67663, Kabwe (Zambia) | 14-27S | 028-28E | 1206 m
################################################################################
202006261200 AAXX 26124 67663 NIL=
202006250900 AAXX 25094 67663 NIL=
202006250600 AAXX 25064 67663 32980 11309 10145 20113 48533 81030
                   333 10226 20097 59009 81360
                   555 00200=
202006241200 AAXX 24124 67663 NIL=
202006240600 AAXX 24064 67663 32980 01110 10135 20093 48539
                   333 10230 20090 58000
                   555 00178=
202006230600 AAXX 23064 67663 32980 10815 10158 20078 48543 81030
                   333 10230 20087 58005 81360
                   555 00201=
202006191200 AAXX 19124 67663 NIL=
202006170600 AAXX 17064 67663 32980 20906 10116 20086 48559 70211 82030
                   333 10210 20076 58012 82360
                   555 00130=
202006160600 AAXX 16064 67663 32980 01104 10135 20094 48549 70200
                   333 10250 20100 59009
                   555 00189=
202006150600 AAXX 15064 67663 32980 10906 10129 20109 48563 81030
                   333 10201 20088 59010 81360
                   555 00168=
202006120600 AAXX 12064 67663 32980 10201 10150 20098 48530 80001
                   333 10265 20106 58008 81080
                   555 00190=
202006100600 AAXX 10064 67663 32980 01105 10143 20076 48522
                   333 10240 20040 59008
                   555 00174=
202006090600 AAXX 09064 67663 32980 11005 10145 20093 48530 80001
                   333 10250 20084 59004 81080
                   555 00198=
202006050600 AAXX 05064 67663 32980 30907 10156 20139 48556 80002
                   333 10272 20122 58004 83080
                   555 00198=
202006010600 AAXX 01064 67663 32980 01206 10163 20114 48567
                   333 10300 20110 58006
                   555 00194=

################################################################################
#  SYNOPS from 67665, Lusaka Internationalairport (Zambia) | 15-19S | 028-27E | 1152 m
################################################################################
202007010600 AAXX 01064 67665 42980 01014 10142 20099 48586 70200
                   333 10//0 58028 91027=
202006301800 AAXX 30184 67665 01405 10675 20083 48569
                   333 58017=
202006301500 AAXX 30154 67665 42680 10912 10228 20062 48562 81100
                   333 58013 81845=
202006301200 AAXX 30124 67665 42680 21010 10246 20063 48562 82100
                   333 58008 82840=
202006300900 AAXX 30094 67665 41660 21012 10227 20098 48584 70500 82100
                   333 58016 82835=
202006300600 AAXX 30064 67665 31975 01208 10158 20094 48562 70500
                   333 10275 20//0 58009
                   555 00/// 91024=
202006291800 AAXX 29184 67665 42980 31803 10181 20056 48554 70200 83030
                   333 58005 83359 91023=
202006290600 AAXX 29064 67665 32980 20903 10188 20040 48558 82030
                   333 10275 20140 58007 82360=
202006290000 AAXX 29004 67665 42980 51403 10160 20051 48542 85030
                   333 58007 85360=
202006282100 AAXX 28214 67665 42980 20000 10165 20046 48552 82030
                   333 58009 82360=
202006280300 AAXX 28034 67665 42980 21102 10147 20046 48538 82030
                   333 59008 82360=
202006271800 AAXX 27184 67665 42980 41403 10174 20102 48539 84030
                   333 10268 58002 84360=
202006271500 AAXX 27154 67665 41975 51307 10242 20106 48539 70522 85030
                   333 58002 85360 555 10268=
202006271200 AAXX 27124 67665 42675 31105 10259 20071 48539 70510 83130
                   333 59009 83856 82360=
202006270900 AAXX 27094 67665 41975 50404 10209 20116 48553 70504 85030
                   333 59010 85360 91022=
202006270600 AAXX 27064 67665 31960 21603 10124 20118 48536 71000 82030
                   333 10230 20088 59010 82359=
202006270300 AAXX 27034 67665 42980 01401 10098 20088 48529
                   333 59008=
202006262100 AAXX 26214 67665 42980 01404 10106 20095 48533
                   333 59012=
202006261200 AAXX 26124 67665 NIL=
202006260900 AAXX 26094 67665 42580 70808 10166 20114 48557 8253/
                   333 59011 82625 87360=
202006260600 AAXX 26064 67665 32980 71306 10137 20118 48549 70210 8707/
                   333 10//0 59008 87358 91023=
202006251800 AAXX 25184 67665 42980 11305 10142 20107 48549 81030
                   333 59017 81359=
202006251500 AAXX 25154 67665 41660 40910 10184 20107 48544 70500 84530
                   333 59021 84645 81358=
202006251200 AAXX 25124 67665 41660 60908 1098/ 20113 48500 70500 86500
                   333 59021 86530=
202006250900 AAXX 25094 67665 NIL=
202006250600 AAXX 25064 67665 31959 51108 10131 20114 48557 70500 85630
                   333 10214 20//0 59009 85709 81360
                   555 00/// 91024=
202006241800 AAXX 24184 67665 42980 11206 10132 20100 48564 81030
                   333 58001 81360 91025=
202006241500 AAXX 24154 67665 42680 11012 10184 20105 48564 70200 81500
                   333 58006 81645 91024=
202006241200 AAXX 24124 67665 NIL=
202006240900 AAXX 24094 67665 42480 51013 10191 20082 48582 85500
                   333 59004 85618=
202006240600 AAXX 24064 67665 32980 11107 10145 20090 48568 81030
                   333 10229 20115 81360=
202006240300 AAXX 24034 67665 42980 31206 10133 20084 48552 83030
                   333 58001 83360=
202006240000 AAXX 24004 67665 42980 51003 10145 20080 48558 85030
                   333 58005 85360=
202006232100 AAXX 23214 67665 42980 61204 10148 20081 48569 86030
                   333 58001 86360=
202006231500 AAXX 23154 67665 41775 71109 10200 20084 48560 70522 83430
                   333 58009 83656 86360
                   555 10229 91023=
202006231200 AAXX 23124 67665 42780 60911 10224 20082 48564 70300 85100
                   333 58007 86850 91023=
202006230900 AAXX 23094 67665 42980 00914 10200 20082 48587 70200
                   333 59013 91026=
202006230600 AAXX 23064 67665 NIL=
202006230000 AAXX 23004 67665 42980 51003 10145 20080 48558 85030
                   333 58005 85360=
202006221800 AAXX 22184 67665 42980 61204 10169 20048 48574 86030
                   333 10225 58002 86360=
202006221500 AAXX 22154 67665 42980 61010 10195 20005 48552 86030
                   333 59005 86360 555 10225=
202006221200 AAXX 22124 67665 42780 60909 10223 20050 48557 83230
                   333 59006 83856 83360=
202006220900 AAXX 22094 67665 42680 60812 10199 20044 48575 70321 84230
                   333 59010 84845 85360 91025=
202006220600 AAXX 22064 67665 32980 41504 10135 20077 48559 84030
                   333 10210 20104 59021 84360=
202006220300 AAXX 22034 67665 42980 30000 10115 20087 48542 83030
                   333 59029 83360=
202006220000 AAXX 22004 67665 42980 71402 10144 20087 48552 8703/
                   333 59019 87360=
202006212100 AAXX 21214 67665 42980 71703 10156 20082 48564 8703/
                   333 59016 87360=
202006201800 AAXX 20184 67665 42980 01603 10133 20076 48569
                   333 59012=
202006201500 AAXX 20154 67665 42680 31308 10205 20064 48575 83500
                   333 59005 83545=
202006201200 AAXX 20124 67665 42680 50908 10208 20057 48582 85500
                   333 59005 85633=
202006200600 AAXX 20064 67665 32980 71306 10137 20118 48549 70210 8707/
                   333 10/// 59008 87358 91023=
202006191800 AAXX 19184 67665 42980 21110 10156 20092 48565 70200 82030
                   333 59001 82358 91027=
202006191500 AAXX 19154 67665 42780 20909 10201 20073 48579 70122 82100
                   333 59003 82856 91025=
202006191200 AAXX 19124 67665 NIL=
202006190900 AAXX 19094 67665 42480 60710 10173 20102 48602 85530
                   333 59006 85525 84358=
202006190600 AAXX 19064 67665 32480 61004 10125 20098 48590 86500
                   333 10215 20082 59003 86512=
202006190300 AAXX 19034 67665 42980 11404 10091 20070 48571 81030
                   333 58007 81360=
202006182100 AAXX 18214 67665 42980 21403 10128 20046 48584 82030
                   333 59001 82360=
202006181200 AAXX 18124 67665 42680 70707 10200 20042 48585 70301 87500
                   333 59002 87640 91026=
202006180900 AAXX 18094 67665 42680 40912 10187 20059 48611 70200 84530
                   333 58004 84630 91029=
202006171800 AAXX 17184 67665 42980 51302 10133 20064 48583 85030
                   333 10208 59005 85360=
202006171500 AAXX 17154 67665 42780 70908 10181 20050 48581 8153/
                   333 59007 81648 87360
                   555 10208=
202006171200 AAXX 17124 67665 42680 70911 10190 20055 48585 70222 875//
                   333 59003 87638=
202006170900 AAXX 17094 67665 42580 70915 10175 20072 48615 70222 875//
                   333 58001 87625 91029=
202006170300 AAXX 17034 67665 42980 01404 10080 20060 48571
                   333 58005=
202006162100 AAXX 16214 67665 42980 01602 10090 20048 48583
                   333 58011=
202006160900 AAXX 16094 67665 42580 70715 10172 20080 48603 83530
                   333 58004 83625 86360=
202006160600 AAXX 16064 67665 42980 01105 10125 20094 48590 70200 81030
                   333 59001 81360 91028=
202006151800 AAXX 15184 67665 42980 01503 10135 20088 48578
                   333 59016=
202006151500 AAXX 15154 67665 42680 41207 10206 20066 48578 81130
                   333 59020 81840 84358=
202006151200 AAXX 15124 67665 42680 50912 10205 20077 48582 85100
                   333 59014 85835=
202006150600 AAXX 15064 67665 32380 61106 10136 20108 48593 70102 85630
                   333 10210 20//0 59007 85708 81360
                   555 00/// 91028=
202006141200 AAXX 14124 67665 42580 60910 10185 20085 48593 70122 86500
                   333 58027 86625 91027=
202006140900 AAXX 14094 67665 42480 80712 10167 20081 48609 885//
                   333 58027 88618=
202006140600 AAXX 14064 67665 31380 80910 10140 20113 72022 886//
                   333 10241 20//0 58032 88708=
202006140300 AAXX 14034 67665 42280 71107 10139 20112 48580 70322 877//
                   333 58026 87605=
202006140000 AAXX 14004 67665 42980 10000 10116 20099 48573 81030
                   333 58025 81360=
202006132100 AAXX 13214 67665 42980 21104 10131 20074 48582 82030
                   333 58029 82360=
202006131500 AAXX 13154 67665 42780 61110 10216 20069 48578 70122 84260
                   333 58026 84860 83360
                   555 10241 91025=
202006130900 AAXX 13094 67665 42680 10713 10226 20076 48592 70300 81100
                   333 58026 81830 91026=
202006130000 AAXX 13004 67665 42980 10000 10116 20099 48573 81030
                   333 58025 81360=
202006121500 AAXX 12154 67665 42980 11507 10245 20032 48553 81030
                   333 58012 81360 555 10269=
202006121200 AAXX 12124 67665 42980 21406 10257 20024 48552 82031
                   333 58011 82360 81080=
202006120900 AAXX 12094 67665 42780 31406 10243 20058 48568 70300 81102
                   333 58001 81856 83080 91023=
202006120600 AAXX 12064 67665 32980 11401 10165 20093 48556 80001
                   333 10260 20//0 58002 81080=
202006120000 AAXX 12004 67665 42980 01602 10133 20077 48538
                   333 58002=
202006112100 AAXX 11214 67665 42980 01505 10129 20082 48562
                   333 59003=
202006110900 AAXX 11094 67665 41659 10707 10225 20081 48560 70500 81100
                   333 58000 81840=
202006110600 AAXX 11064 67665 31959 01504 10155 20102 48551 70500
                   333 59002 91023=
202006101800 AAXX 10184 67665 42980 01403 10157 20083 48546
                   333 59008=
202006101500 AAXX 10154 67665 42680 10607 10227 20047 48542 81100
                   333 58001 81848=
202006101200 AAXX 10124 67665 42680 10512 10230 20021 48552 81100
                   333 59002 81840=
202006100600 AAXX 10064 67665 32980 01205 10142 20076 48552 70200
                   333 10250 20/// 59012
                   555 00/// 91023=
202006092100 AAXX 09214 67665 42980 09902 10113 20064 48549 70200
                   333 59002 91023=
202006091800 AAXX 09184 67665 42980 01404 10152 20070 48552 70200
                   333 59002 91023=
202006091200 AAXX 09124 67665 42980 00513 10239 20050 48555 70100
                   333 59002 91022=
202006090900 AAXX 09094 67665 42680 11010 10212 20087 48577
                   333 59001 81830=
202006090600 AAXX 09064 67665 32980 11306 10155 20081 48566 81030
                   333 10241 20//0 59002 81358=
202006090300 AAXX 09034 67665 42980 01301 10104 20074 48543 70200
                   333 59007=
202006090000 AAXX 09004 67665 42980 00000 10107 20077 48544
                   333 59009=
202006082100 AAXX 08214 67665 42980 11802 10125 20066 48554 81030
                   333 59009 81360=
202006081800 AAXX 08184 67665 42980 11504 10158 20071 48556 81030
                   333 10241 59008 81360=
202006071800 AAXX 07184 67665 42980 21602 10154 20096 48562 82030
                   333 10254 59001 82360=
202006071500 AAXX 07154 67665 42980 31208 10219 20084 48560 83030
                   333 59005 83360 555 10254=
202006071200 AAXX 07124 67665 42780 11111 10229 20064 48565 81130
                   333 59004 81856 81360=
202006070900 AAXX 07094 67665 42980 30913 10210 20096 48583 70122 83030
                   333 59008 83360 91026=
202006070300 AAXX 07034 67665 42980 31306 10115 20087 48558 83030
                   333 58003 83360=
202006062100 AAXX 06214 67665 42980 31405 10140 20104 48563 83030
                   333 59005 83360=
202006060900 AAXX 06094 67665 42680 10811 10220 20109 48592 81100
                   333 58006 81840=
202006060600 AAXX 06064 67665 32980 01106 10150 20121 48577 70200
                   333 10//0 20//0 58009 91026=
202006051800 AAXX 05184 67665 42980 01203 10177 20126 48565
                   333 59002=
202006051500 AAXX 05154 67665 42680 21105 10238 20113 48560 81230
                   333 58002 81848 81358=
202006051200 AAXX 05124 67665 42680 40706 10246 20112 48567 84200
                   333 58006 84840=
202006050900 AAXX 05094 67665 42680 30610 10230 20132 48588 83100
                   333 58003 83835=
202006042100 AAXX 04214 67665 42980 01203 10145 20112 48564 70200
                   333 58005 91024=
202006041800 AAXX 04184 67665 42980 01306 10174 20127 48566 70200
                   333 58009 91024=
202006041500 AAXX 04154 67665 42980 11210 10235 20129 48557 70101 81030
                   333 58007 81360 91022=
202006040900 AAXX 04094 67665 42680 10810 10219 20108 48583 81100
                   333 58000 81830=
202006040600 AAXX 04064 67665 32980 01106 10151 20107 48568
                   333 10250 20//0 59002=
202006040300 AAXX 04034 67665 42980 11602 10104 20084 48543 81030
                   333 58000 81360=
202006040000 AAXX 04004 67665 42980 21303 10115 20087 48547
                   333 59004=
202006031800 AAXX 03184 67665 42980 21204 10167 20104 48557 70122 82030
                   333 10250 59014 82360 91023=
202006031500 AAXX 03154 67665 42780 51008 10224 20104 48549 70122 85200
                   333 59014 85857 555 10250 91022=
202006031200 AAXX 03124 67665 42780 61107 10231 20091 48556 70300 86200
                   333 59017 86850=
202006021800 AAXX 02184 67665 42980 01404 10153 20087 48569 70200
                   333 10250 59017=
202006021500 AAXX 02154 67665 42980 11008 10228 20073 48563 81030
                   333 59016 81360 555 10250=
202006021200 AAXX 02124 67665 42780 21208 10231 20078 48572 70100 82100
                   333 59004 82850=
202006020900 AAXX 02094 67665 42680 51012 10206 20102 48593 70220 85400
                   333 59011 85630 91027=
202006020600 AAXX 02064 67665 32980 00911 10155 20101 48587
                   333 10//0 20//0 59011=
202006020300 AAXX 02034 67665 42980 01602 10089 20069 48573
                   333 59003=
202006020000 AAXX 02004 67665 42980 01503 10100 20070 48565
                   333 59003=
202006012100 AAXX 01214 67665 42980 01405 10127 20071 48583
                   333 58005=
202006010900 AAXX 01094 67665 42580 30913 10208 20091 48603 70100 83500
                   333 58008 83625=
202006010600 AAXX 01064 67665 32980 01008 10160 20117 48598 70200
                   333 10//0 20//0 58016 91028=

################################################################################
#  SYNOPS from 67666, Lusaka City Airport (Zambia) | 15-25-00S | 028-28-00E | 1280 m
################################################################################
202006261200 AAXX 26124 67666 NIL=
202006250900 AAXX 25094 67666 NIL=
202006241200 AAXX 24124 67666 NIL=
202006230600 AAXX 23064 67666 32980 21013 10140 20068 48591 70222 82030
                   333 10210 2//// 58000 82360 91024=
202006220600 AAXX 22064 67666 32980 51011 10160 20064 48554 70222 85030
                   333 10200 2//// 59002 85360 91023=
202006191200 AAXX 19124 67666 NIL=
202006190900 AAXX 19094 67666 42580 51504 10174 20090 48/// 85100
                   333 5//// 85822=
202006190600 AAXX 19064 67666 32480 80906 10125 20102 48584 888//
                   333 10205 2//// 58000 83612 85818 91027=
202006180600 AAXX 18064 67666 32980 10910 10132 20070 48585 81030
                   333 10192 2//// 59003 81359 91027=
202006160600 AAXX 16064 67666 32980 31012 10130 20092 48580 70300 83030
                   333 1//// 2//// 5//// 83360 91026=
202006120600 AAXX 12064 67666 32980 70903 10182 20087 48553 80008
                   333 10246 2//// 58001 87280 91023=
202006090600 AAXX 09064 67666 32980 00911 10152 20082 48///
                   333 10220 2//// 58002 91023=
202006051200 AAXX 05124 67666 42480 50906 10240 20123 48557 70222 85200
                   333 58010 85818 91023=
202006050900 AAXX 05094 67666 42480 21010 10210 20127 48576 70300 82101
                   333 58002 82810 91025=
202006050600 AAXX 05064 67666 32980 00912 10160 20125 48568 70500
                   333 10251 20142 58007 91025=
202006041200 AAXX 04124 67666 42580 51010 10240 20103 48548 85200
                   333 58000 85820 91021=
202006040900 AAXX 04094 67666 42980 00910 10210 20106 48574
                   333 58002 91025=
202006040600 AAXX 04064 67666 32980 00913 10160 20106 48561
                   333 10249 20140 59003 91024=
202006031200 AAXX 03124 67666 42480 52710 10230 20093 48548 85200
                   333 59016 85820 91021=
202006030900 AAXX 03094 67666 42480 10910 10199 20092 48571 81100
                   333 59014 81812 91025=
202006030600 AAXX 03064 67666 32980 00813 10142 20102 48562
                   333 10230 20129 59014 91024=
202006021200 AAXX 02124 67666 42580 21010 10219 20075 48561 70122 82100
                   333 59005 82825 91025=
202006020600 AAXX 02064 67666 32980 01012 10150 20095 48577 70222
                   333 10240 20120 59008 91026=
202006010600 AAXX 01064 67666 32978 01011 10150 20110 48584 70500
                   333 10250 20132 5//// 91027=

################################################################################
#  SYNOPS from 67667, Mount Makulu (Zambia) | 15-33S | 028-15E | 1213 m
################################################################################
202006261200 AAXX 26124 67667 42680 51303 10218 20122 48582 81150
                   333 59025 81830 85360=
202006260600 AAXX 26064 67667 32980 80905 10142 20125 48593 8805/
                   333 10226 20117 5//// 88360=
202006251200 AAXX 25124 67667 42680 61207 10192 20125 48604 86100
                   333 59013 86830=
202006250900 AAXX 25094 67667 42580 70812 10170 20121 48613 87500
                   333 59013 87628=
202006250600 AAXX 25064 67667 32580 40910 10144 20113 48/// 84500
                   333 10221 20107 5//// 84625=
202006241200 AAXX 24124 67667 42680 51205 10197 20110 48615 85100
                   333 58006 85835=
202006240600 AAXX 24064 67667 32980 10910 10150 20099 48/// 80001
                   333 10245 20102 5//// 81082=
202006231200 AAXX 23124 67667 42680 60905 10222 20093 48611 86100
                   333 58006 86840=
202006230900 AAXX 23094 67667 42680 20910 10192 20085 48645 82100
                   333 58014 82840=
202006230600 AAXX 23064 67667 32980 20910 10152 20089 48641 82030
                   333 10228 20067 5//// 82360=
202006221200 AAXX 22124 67667 42680 71303 10192 20085 48603 87800
                   333 5//// 82835 87640=
202006220600 AAXX 22064 67667 32980 61308 10175 20088 48613 86030
                   333 10242 20067 5//// 86360=
202006191200 AAXX 19124 67667 42680 60906 10202 20100 48614 86800
                   333 59003 83830 86635=
202006190900 AAXX 19094 67667 42680 61007 10185 20110 48641 86500
                   333 58000 86630=
202006190600 AAXX 19064 67667 32680 20905 10132 20115 48/// 82500
                   333 10220 20038 5//// 82630=
202006181200 AAXX 18124 67667 42680 60904 10200 20077 48620 86400
                   333 58003 86640=
202006171200 AAXX 17124 67667 42680 71203 10180 20093 48629 87800
                   333 58004 83835 87640=
202006170900 AAXX 17094 67667 42680 50908 10192 20085 48634 85100
                   333 58002 85835=
202006170600 AAXX 17064 67667 32680 41005 10124 20085 48/// 84500
                   333 10216 20065 5//// 84630=
202006160600 AAXX 16064 67667 32980 31008 10140 20097 48/// 83030
                   333 10235 20085 5//// 83360=
202006151200 AAXX 15124 67667 42680 40903 10213 20110 48618 84100
                   333 5//// 84835=
202006150600 AAXX 15064 67667 32680 60907 10140 20106 48/// 86500
                   333 10218 20090 5//// 86630=
202006120600 AAXX 12064 67667 32980 40903 10182 20115 48608 80002
                   333 10264 20104 5//// 84080=
202006111200 AAXX 11124 67667 42680 10803 10250 20091 48593 81100
                   333 59016 81845=
202006110900 AAXX 11094 67667 42680 43603 10228 20093 48610 84100
                   333 59007 84835=
202006110600 AAXX 11064 67667 32980 00907 10180 20105 48///
                   333 10254 20100 5////=
202006100600 AAXX 10064 67667 32980 00905 10180 20092 48///
                   333 10255 20100 5////=
202006091200 AAXX 09124 67667 42680 31203 10247 20089 48600 83100
                   333 59001 83835=
202006090900 AAXX 09094 67667 42680 21704 10212 20112 48624 82100
                   333 58008 82835=
202006090600 AAXX 09064 67667 32980 00904 10170 20094 48///
                   333 10263 20050 5////=
202006080600 AAXX 08064 67667 32980 00908 10165 20096 48///
                   333 10254 20074 5////=
202006051200 AAXX 05124 67667 42680 60905 10256 20132 48/// 86100
                   333 5//// 83840=
202006050600 AAXX 05064 67667 32680 10908 10175 20128 48/// 81100
                   333 10276 20122 5//// 81830=
202006041200 AAXX 04124 67667 42680 61304 10240 20061 48604 86200
                   333 58002 86840=
202006040600 AAXX 04064 67667 32980 00905 10174 20112 48620
                   333 10264 20120 58002=
202006030600 AAXX 03064 67667 32980 01804 10152 20102 48618
                   333 10258 20112 58018=
202006021200 AAXX 02124 67667 42680 11806 10213 20118 48618 81100
                   333 5//// 81830=
202006020600 AAXX 02064 67667 32980 01504 10146 20120 48536
                   333 10268 20098 58009=
202006010600 AAXX 01064 67667 32980 01806 10170 20124 48645
                   333 10276 20120 59029=

################################################################################
#  SYNOPS from 67673, Petauke (Zambia) | 14-15S | 031-17E | 1035 m
################################################################################
202006261200 AAXX 26124 67673 NIL=
202006260600 AAXX 26064 67673 31575 40801 10166 20132 48/// 70500 82130
                   333 10240 2//// 5//// 82828 84360=
202006250900 AAXX 25094 67673 NIL=
202006241200 AAXX 24124 67673 NIL=
202006240600 AAXX 24064 67673 31560 50901 10172 20135 48/// 70522 83430
                   333 10264 2//// 5//// 81825 82360=
202006230600 AAXX 23064 67673 32980 10602 10170 20120 48/// 70500 81030
                   333 10248 2//// 5//// 81360=
202006221200 AAXX 22124 67673 41675 60901 10229 20090 48/// 70522 86230
                   333 5//// 83832 84360=
202006191200 AAXX 19124 67673 NIL=
202006190600 AAXX 19064 67673 31960 81503 10155 20128 48/// 70522 8807/
                   333 10230 2//// 5//// 88360=
202006181200 AAXX 18124 67673 42675 60804 10219 20100 48/// 70522 84100
                   333 5//// 84830 86360=
202006180900 AAXX 18094 67673 41675 48502 10218 20100 48/// 70500 84130
                   333 5//// 84830 82360=
202006171200 AAXX 17124 67673 41675 50902 10218 20090 48/// 70522 83230
                   333 5//// 83830 85360=
202006170900 AAXX 17094 67673 41575 51005 10194 20105 48/// 70522 83130
                   333 5//// 83830 85360=
202006160600 AAXX 16064 67673 31660 50607 10156 20110 48/// 70522 81130
                   333 10240 2//// 5//// 81827 84360=
202006150900 AAXX 15094 67673 41660 71801 10206 20128 48///
                   333 5//// 81829 87360=
202006150600 AAXX 15064 67673 31960 70901 10156 20120 48/// 70522 8707/
                   333 10210 2//// 5//// 87360=
202006120900 AAXX 12094 67673 41960 10000 10250 20100 48/// 70500 81030
                   333 5//// 81360=
202006120600 AAXX 12064 67673 31960 10000 10202 20115 48/// 70500 81030
                   333 10290 2//// 5//// 81360=
202006110600 AAXX 11064 67673 31959 01701 10186 20122 48/// 70500
                   333 10268 2//// 5////=
202006101200 AAXX 10124 67673 41675 20502 10260 20085 48/// 70500 82100
                   333 5//// 82835=
202006100900 AAXX 10094 67673 41675 20704 10244 20105 48/// 70500 82100
                   333 5//// 82830=
202006100600 AAXX 10064 67673 31975 00902 10186 20120 48/// 70500
                   333 10265 2//// 5////=
202006091200 AAXX 09124 67673 41675 41502 10250 20070 48/// 70500 84100
                   333 5//// 84832=
202006090900 AAXX 09094 67673 41675 40504 10240 20110 48/// 70500 84100
                   333 5//// 84832=
202006090600 AAXX 09064 67673 31975 01502 10188 20120 48/// 70500
                   333 10264 2//// 5////=
202006080600 AAXX 08064 67673 31860 11001 10164 20128 48/// 70500
                   333 10260 2//// 5//// 81360=
202006050900 AAXX 05094 67673 41675 31004 10254 20141 48/// 70500 83100
                   333 5//// 83832=
202006050600 AAXX 05064 67673 31575 21002 10190 20140 48/// 70500 82100
                   333 10274 2//// 5//// 82828=
202006041200 AAXX 04124 67673 42680 70000 10258 20131 48/// 8317/
                   333 5//// 83830 84360=
202006040900 AAXX 04094 67673 41660 53602 10250 20140 48/// 70522 82130
                   333 5//// 82830 83360=
202006040600 AAXX 04064 67673 31960 51002 10198 20125 48/// 70522
                   333 10262 2//// 5//// 85360=
202006031200 AAXX 03124 67673 42680 41802 10250 20130 48/// 82130
                   333 5//// 82834 82460=
202006030900 AAXX 03094 67673 41660 20601 10228 20132 48/// 70500 82100
                   333 5//// 82832=
202006030600 AAXX 03064 67673 31960 00703 10166 20130 48/// 70500
                   333 10264 2//// 5////=
202006020900 AAXX 02094 67673 41675 31002 10220 20120 48/// 70500 83100
                   333 5//// 83830=
202006010600 AAXX 01064 67673 31575 20904 10178 20130 48/// 70500 82100
                   333 10280 2//// 5//// 82825=

################################################################################
#  SYNOPS from 67731, Senanga (Zambia) | 16-06S | 023-16E | 1027 m
################################################################################
202006261200 AAXX 26124 67731 NIL=
202006251200 AAXX 25124 67731 42680 212// 10245 20089 48/// 70100 82200
                   333 59021 82835=
202006250900 AAXX 25094 67731 NIL=
202006241200 AAXX 24124 67731 42980 001// 10248 20070 48/// 70200
                   333 59017=
202006230600 AAXX 23064 67731 32980 018// 10148 20071 48/// 70200
                   333 10254 20105 59002
                   555 00026=
202006220600 AAXX 22064 67731 32980 017// 10106 20058 48/// 70200
                   333 10258 20111 59019
                   555 00029=
202006191200 AAXX 19124 67731 42980 027// 10238 20060 48/// 70200
                   333 5////=
202006190900 AAXX 19094 67731 42980 018// 10211 20048 48/// 70200
                   333 58001=
202006190600 AAXX 19064 67731 32980 010// 10112 20043 48/// 70200
                   333 10238 20071 5////
                   555 00012=
202006180900 AAXX 18094 67731 42580 114// 10211 20061 48/// 70300 81100
                   333 58006 81825=
202006180600 AAXX 18064 67731 32980 016// 10110 20040 48/// 70200
                   333 10246 20073 5////
                   555 00013=
202006171200 AAXX 17124 67731 42580 111// 10241 20048 48/// 70300 81100
                   333 59008 81827=
202006170900 AAXX 17094 67731 42980 018// 10211 20058 48/// 70200
                   333 58007=
202006170600 AAXX 17064 67731 32980 110// 10138 20064 48/// 70100 81010
                   333 10264 20099 58015 81462
                   555 00013=
202006120900 AAXX 12094 67731 42980 014// 10190 20028 48/// 70200
                   333 58026=
202006120600 AAXX 12064 67731 32980 002// 10142 20036 48/// 70200
                   333 10275 20117 58025
                   555 00020=
202006111200 AAXX 11124 67731 42980 027// 10270 20080 48/// 70200
                   333 59008=
202006110900 AAXX 11094 67731 42980 029// 10223 20114 48/// 70200
                   333 59004=
202006110600 AAXX 11064 67731 32980 018// 10116 20069 48/// 70200
                   333 10278 20096 59009
                   555 00017=
202006101200 AAXX 10124 67731 42980 032// 10261 20080 48/// 70200
                   333 59010=
202006100900 AAXX 10094 67731 42980 010// 10254 20077 48/// 70200
                   333 59007=
202006100600 AAXX 10064 67731 32980 002// 10154 20075 48/// 70200
                   333 10286 20090 59001
                   555 00020=
202006091200 AAXX 09124 67731 42580 527// 10269 29041 48/// 84130
                   333 59001 84826 83362=
202006090600 AAXX 09064 67731 32980 009// 10154 20083 48/// 70200
                   333 10275 20099 59018
                   555 00020=
202006080600 AAXX 08064 67731 32980 418// 10163 20069 48/// 84030
                   333 10270 20129 59002 84360
                   555 00023=
202006051200 AAXX 05124 67731 42680 128// 10278 20065 48/// 70522 81100
                   333 58014 81840=
202006050900 AAXX 05094 67731 42980 027// 10239 20134 48/// 70200
                   333 58012=
202006050600 AAXX 05064 67731 32980 002// 10150 20098 48/// 70200
                   333 10281 20106 58009
                   555 00028=
202006041200 AAXX 04124 67731 42680 227// 10271 20135 48/// 70200 82200
                   333 59003 82835=
202006040900 AAXX 04094 67731 42980 016// 10260 20130 48/// 70200
                   333 59005=
202006040600 AAXX 04064 67731 32980 709// 10151 20092 48/// 70222 87030
                   333 10268 20109 59002 87360
                   555 00031=
202006031200 AAXX 03124 67731 42980 027// 10253 20092 48/// 70200
                   333 59026=
202006030900 AAXX 03094 67731 42980 009// 10243 20104 48/// 70200
                   333 59015=
202006030600 AAXX 03064 67731 32980 008// 10144 20087 48/// 70200
                   333 10289 20105 59015
                   555 00020=
202006020600 AAXX 02064 67731 32980 006// 10162 20085 48/// 70200
                   333 10293 20121 58003
                   555 00032=

################################################################################
#  SYNOPS from 67741, Sesheke (Zambia) | 17-28S | 024-18E | 949 m
################################################################################
202006261200 AAXX 26124 67741 42980 21401 10250 20096 48535 82030
                   333 59014 82362=
202006260600 AAXX 26064 67741 32980 60000 10140 20125 48541 86030
                   333 10246 20102 59017 86362=
202006250900 AAXX 25094 67741 42980 11401 10206 20099 48565 81030
                   333 59021 81362=
202006250600 AAXX 25064 67741 32980 10000 10114 20083 48544 81030
                   333 10244 20030 59014 81362=
202006241200 AAXX 24124 67741 42980 10902 10228 20061 48569 81030
                   333 58008 81362=
202006230600 AAXX 23064 67741 32980 00000 10098 20068 48560
                   333 10244 20036 58002=
202006221200 AAXX 22124 67741 42980 01201 10238 20059 48561
                   333 5////=
202006191200 AAXX 19124 67741 42980 11001 10220 2//// 48/// 81030
                   333 5//// 81362=
202006190600 AAXX 19064 67741 32980 00000 10112 20052 48589
                   333 10234 20027 58007=
202006181200 AAXX 18124 67741 42980 11202 10227 20062 48588 81030
                   333 58010 81362=
202006180600 AAXX 18064 67741 32980 00901 10104 20072 48578
                   333 10246 20024 58005=
202006171200 AAXX 17124 67741 42980 50902 10234 20056 48578 85030
                   333 58004 85362=
202006170600 AAXX 17064 67741 32980 01001 10133 20081 48584
                   333 10258 20088 58013=
202006160600 AAXX 16064 67741 32980 10000 10140 20089 48568 81030
                   333 10256 20060 59010 81362=
202006151200 AAXX 15124 67741 42980 31301 10250 20090 48583 83030
                   333 5//// 83362=
202006150900 AAXX 15094 67741 42980 11201 10224 20109 48595 81030
                   333 5//// 81362=
202006150600 AAXX 15064 67741 32980 10000 10142 20102 48578 81030
                   333 10263 20090 59011 81362=
202006120900 AAXX 12094 67741 42980 01402 10174 20014 48584
                   333 58046=
202006120600 AAXX 12064 67741 32980 01401 10121 20025 48564
                   333 10294 20079 58040=
202006111200 AAXX 11124 67741 42980 01501 10276 20072 48541
                   333 5////=
202006110900 AAXX 11094 67741 42980 03601 10263 20074 48556
                   333 5////=
202006110600 AAXX 11064 67741 32980 00602 10164 20089 48536
                   333 10276 20076 59011=
202006100600 AAXX 10064 67741 32980 00000 10148 20084 48543
                   333 10263 20049 59007=
202006090900 AAXX 09094 67741 42980 11401 10226 20108 48569 83030
                   333 5//// 81030=
202006090600 AAXX 09064 67741 32980 00000 10121 20100 48546
                   333 10260 20043 59009=
202006080600 AAXX 08064 67741 32980 00000 10166 20116 48565
                   333 10264 20066 59006=
202006050900 AAXX 05094 67741 42980 10902 10240 20137 48581 81030
                   333 58007 81362=
202006050600 AAXX 05064 67741 32980 50000 10182 20129 48568 85030
                   333 10272 20114 58009 85362=
202006040900 AAXX 04094 67741 42980 00902 10224 20117 48567
                   333 59006=
202006040600 AAXX 04064 67741 32980 10000 10152 20091 48552 80001
                   333 10266 20088 59012 81080=
202006030900 AAXX 03094 67741 42980 01001 10237 20116 48581
                   333 59016=
202006030600 AAXX 03064 67741 32980 00000 10136 20086 48559
                   333 10266 20054 59021=
202006021200 AAXX 02124 67741 42980 01201 10258 20092 48575
                   333 59005=
202006020600 AAXX 02064 67741 32980 00901 10172 20097 48584
                   333 10290 20070 58005=
202006010600 AAXX 01064 67741 32980 00901 10166 20093 48584
                   333 10292 20066 58008=

################################################################################
#  SYNOPS from 67743, Livingstone (Zambia) | 17-49S | 025-49E | 985 m
################################################################################
202006261200 AAXX 26124 67743 NIL=
202006260900 AAXX 26094 67743 42780 70906 10189 20121 48553 8703/
                   333 59012 87359 91022=
202006260600 AAXX 26064 67743 32980 72701 10139 20096 48540 87030
                   333 10250 20082 59016 87359 91022=
202006250900 AAXX 25094 67743 42980 41007 10201 20112 48566 70222 84030
                   333 59020 84360 91024=
202006250600 AAXX 25064 67743 32980 31203 10134 20078 48552 83030
                   333 10247 20070 83360 91024=
202006241200 AAXX 24124 67743 NIL=
202006240600 AAXX 24064 67743 32980 01408 10129 20041 48569 70200
                   333 10246 20068 59002 91026=
202006230600 AAXX 23064 67743 32980 11306 10142 20070 48573 81030
                   333 10246 20084 58015 81359 91026=
202006220900 AAXX 22094 67743 42780 11210 10209 20061 48575 81100
                   333 59012 81856 91024=
202006191200 AAXX 19124 67743 NIL=
202006190900 AAXX 19094 67743 42980 11007 1//// 20074 48607 70200 81030
                   333 58000 81359 91029=
202006190600 AAXX 19064 67743 32980 51404 10106 20062 48589 85030
                   333 10233 20036 59004 85359 91028=
202006170600 AAXX 17064 67743 32980 01107 10154 20069 48595 70200
                   333 10290 20095 58016 91028=
202006160600 AAXX 16064 67743 32980 60905 10145 20102 48579 70200 86030
                   333 10258 20122 59007 86359 91026=
202006150600 AAXX 15064 67743 32980 61006 10152 20108 48587 86030
                   333 10264 20098 59007 91027=
202006110600 AAXX 11064 67743 32980 02702 10147 20096 48540
                   333 10298 20072 59034 91021=
202006090600 AAXX 09064 67743 32980 01107 10151 20079 48556 70200
                   333 10268 20058 59004 91024=
202006050900 AAXX 05094 67743 42980 10305 10235 20138 48581 70222 81030
                   333 58008 81360 91025=
202006041200 AAXX 04124 67743 42780 40804 10264 20114 48553 70220 84200
                   333 59010 84856 91020=
202006040600 AAXX 04064 67743 32980 00905 10161 20086 48560 70200
                   333 10265 20078 59010 91024=
202006030900 AAXX 03094 67743 42980 01108 10224 20109 48581
                   333 59014 91025=
202006010600 AAXX 01064 67743 32980 01107 10175 20107 48584 70200
                   333 10298 20096 58010 91026=

################################################################################
#  SYNOPS from 67751, Magoye (Zambia) | 16-00S | 027-36E | 1018 m
################################################################################
202006261200 AAXX 26124 67751 NIL=
202006250900 AAXX 25094 67751 NIL=
202006241200 AAXX 24124 67751 NIL=
202006230600 AAXX 23064 67751 NIL=
202006191200 AAXX 19124 67751 NIL=
202006190600 AAXX 19064 67751 32980 60708 10154 20119 48/// 86030
                   333 10227 20061 58005 86360=
202006180600 AAXX 18064 67751 32980 71505 10153 20098 48/// 87030
                   333 10229 20077 5//// 87360=
202006160600 AAXX 16064 67751 32980 71204 10147 20085 48/// 87030
                   333 10230 20097 5//// 87360=
202006110600 AAXX 11064 67751 32980 00000 10138 20103 48/// 70200
                   333 10265 20096 58005=
202006100600 AAXX 10064 67751 32980 90801 10141 20076 48/// 70200
                   333 10261 20072 58010=
202006080600 AAXX 08064 67751 32980 11202 10150 20100 48/// 70200 81040
                   333 10279 20086 5//// 81360=
202006050600 AAXX 05064 67751 31980 30131 10155 20125 48/// 70500 83030
                   333 10280 20102 59003 83360=
202006040600 AAXX 04064 67751 32980 40801 10187 20119 48/// 70222
                   333 10262 20106 58007 84360=
202006020600 AAXX 02064 67751 32980 02001 10161 20094 48/// 70200
                   333 10272 20084 58001=
202006010600 AAXX 01064 67751 32980 01102 10180 20118 48/// 70200
                   333 10291 20102 59006=

################################################################################
#  SYNOPS from 67753, Choma (Zambia) | 16-50S | 027-04E | 1213 m
################################################################################
202006261200 AAXX 26124 67753 NIL=
202006250900 AAXX 25094 67753 NIL=
202006241200 AAXX 24124 67753 NIL=
202006230600 AAXX 23064 67753 32980 00000 10129 20076 48561
                   333 10220 20082 58010=
202006220600 AAXX 22064 67753 31980 10000 10122 20070 48551 70200 81030
                   333 10220 20040 59018 81360=
202006191200 AAXX 19124 67753 41680 62708 10195 20090 48577 70222 86100
                   333 59004 86842=
202006190600 AAXX 19064 67753 32980 30000 10111 20092 48/// 83030
                   333 10189 20042 5//// 83360=
202006180600 AAXX 18064 67753 32980 42703 10102 20076 48/// 84030
                   333 10210 20050 5//// 84360=
202006170600 AAXX 17064 67753 32980 20000 10140 20084 48/// 82030
                   333 10203 20110 5//// 82360=
202006160600 AAXX 16064 67753 31980 30000 10110 20103 48/// 70100
                   333 10236 20070 5//// 83360=
202006150600 AAXX 15064 67753 31980 70000 10115 20101 48/// 70222 87050
                   333 10210 20086 5//// 87360=
202006120600 AAXX 12064 67753 31980 00000 10125 20089 48/// 70500
                   333 10266 20076 5////=
202006110600 AAXX 11064 67753 32980 00000 10130 20095 48///
                   333 10236 20066 5////=
202006100600 AAXX 10064 67753 32980 00000 10149 20089 48///
                   333 10241 20060 5////=
202006090600 AAXX 09064 67753 32980 10000 10121 20084 48551 81030
                   333 10237 20060 59006 81360=
202006080600 AAXX 08064 67753 32980 00000 10139 20095 48561
                   333 10233 20074 59006=
202006050600 AAXX 05064 67753 31980 10000 10164 20120 48/// 70200 81030
                   333 10248 20090 5//// 81360=
202006040600 AAXX 04064 67753 32980 60000 10129 20104 48/// 86070
                   333 10236 20074 5//// 86360=
202006030600 AAXX 03064 67753 32980 00000 10144 20104 48///
                   333 10231 20064 5////=
202006020600 AAXX 02064 67753 32980 00000 10154 20094 48///
                   333 10246 20048 5////=
202006010600 AAXX 01064 67753 32980 02708 10171 20110 48///
                   333 10259 20088 5////=

################################################################################
#  SYNOPS from 67855, Lupaki (Zambia) | 17-03-00S | 024-46-00E | 1000 m
################################################################################
202007010600 AAXX 01064 67855 32975 01102 10106 20075 3//// 48///
                   333 20066 5////=
202006290600 AAXX 29064 67855 32975 00000 10048 21005 3//// 48///
                   333 20008 5////=
202006270600 AAXX 27064 67855 32975 10000 10084 20065 3//// 48/// 81030
                   333 20065 5//// 81360=
202006230600 AAXX 23064 67855 32975 01601 10080 20005 3//// 48///
                   333 20024 5////=
202006221200 AAXX 22124 67855 42675 21704 10236 20055 3//// 48/// 82100
                   333 5//// 82835=
202006220600 AAXX 22064 67855 32975 02001 10088 20018 3//// 48///
                   333 20023 5////=
202006201200 AAXX 20124 67855 42975 70201 10214 20093 3//// 48/// 8707/
                   333 5//// 87459=
202006190600 AAXX 19064 67855 32975 60000 10080 20064 3//// 48/// 86070
                   333 20060 5//// 86360=
202006181200 AAXX 18124 67855 42675 50603 10236 20060 3//// 48/// 85100
                   333 5//// 85840=
202006180600 AAXX 18064 67855 31970 01101 10070 20053 3//// 48/// 70500
                   333 20030 5////=
202006170600 AAXX 17064 67855 32975 00702 10098 20048 3//// 48///
                   333 20055 5////=
202006160600 AAXX 16064 67855 32975 21002 10126 20055 3//// 48/// 82030
                   333 20095 5////=
202006151200 AAXX 15124 67855 42675 73601 10236 20090 3//// 48/// 8317/
                   333 5//// 83840 87459=
202006150600 AAXX 15064 67855 32975 70000 10096 20066 3//// 48/// 8707/
                   333 20082 5//// 87459=
202006110600 AAXX 11064 67855 32975 00000 10146 20099 3//// 48///
                   333 20100 5////=
202006100600 AAXX 10064 67855 32975 00000 10094 20078 3//// 48///
                   333 20049 5////=
202006061200 AAXX 06124 67855 42675 70302 10236 20096 3//// 48/// 8527/
                   333 5//// 85840 87360=
202006050600 AAXX 05064 67855 32975 71801 10138 20080 3//// 48/// 8707/
                   333 20090 5//// 87459=
202006030600 AAXX 03064 67855 32975 00602 10118 20078 3//// 48///
                   333 20064 5////=
202006020600 AAXX 02064 67855 0//// 10298=
202006011200 AAXX 01124 67855 42975 00603 10282 20090 3//// 48///
                   333 5////=
