################################################################################
# Query made at 04/10/2022 06:17:36 UTC
# Country like Zamb*
# Time interval: from 09/30/2021 23:30  to 10/31/2021 23:30  UTC
################################################################################

################################################################################
#  SYNOPS from 67403, Kawambwa (Zambia) | 09-48S | 029-05E | 1323 m
################################################################################
202110291200 AAXX 29124 67403 41775 43401 10314 20148 48480 70520 84200
                   333 59006 84850=
202110290600 AAXX 29064 67403 31975 10905 10232 20151 48514 70500 80001
                   333 10327 20186 59011 81080
                   555 00/// 20000=
202110280900 AAXX 28094 67403 NIL=
202110280600 AAXX 28064 67403 31975 30905 10235 20147 48523 70500 83080
                   333 10326 20192 59012 83360
                   555 00/// 20015=
202110270600 AAXX 27064 67403 12980 10903 10230 20166 48535 60154 80001
                   333 10299 20170 58007 81080
                   555 00/// 20001=
202110251200 AAXX 25124 67403 NIL=
202110250900 AAXX 25094 67403 NIL=
202110221200 AAXX 22124 67403 NIL=
202110220600 AAXX 22064 67403 31975 40902 10223 20188 48525 70500 80001
                   333 10318 20189 58002 84080
                   555 00/// 20000=
202110210600 AAXX 21064 67403 31975 20903 10224 20130 48523 70500 82081
                   333 10312 20175 59003 82360 81080
                   555 00/// 20000=
202110200600 AAXX 20064 67403 31975 31203 10217 20137 48525 70500 80001
                   333 10301 20180 58009 83080
                   555 00/// 20000=
202110191200 AAXX 19124 67403 NIL=
202110180900 AAXX 18094 67403 NIL=
202110180600 AAXX 18064 67403 11975 50901 10219 20187 48500 60064 70522 85031
                   333 10296 20176 59001 85360 81080
                   555 00/// 20030=
202110170900 AAXX 17094 67403 NIL=
202110170600 AAXX 17064 67403 11975 60901 10211 20187 48501 60304 70522 86031
                   333 10282 20175 59007 86360 81080
                   555 00/// 20000=
202110151200 AAXX 15124 67403 NIL=
202110150600 AAXX 15064 67403 31975 40901 10242 20147 48510 70522 84031
                   333 10326 20187 59008 84360 81080
                   555 00/// 20000=
202110141200 AAXX 14124 67403 NIL=
202110140900 AAXX 14094 67403 NIL=
202110140600 AAXX 14064 67403 31975 60903 10219 20138 48516 70322 86031
                   333 10304 20186 59007 86360 81080
                   555 00/// 20000=
202110130600 AAXX 13064 67403 31975 40905 10207 20132 48522 70500 84031
                   333 10308 20154 59008 84360 81080
                   555 00/// 20000=
202110121200 AAXX 12124 67403 41770 61202 10300 20115 48503 70542 82231
                   333 58014 82850 84360 82080=
202110120900 AAXX 12094 67403 NIL=
202110120600 AAXX 12064 67403 31975 40905 10216 20136 48531 70520 80001
                   333 10336 20172 58013 84080
                   555 00/// 20000=
202110110900 AAXX 11094 67403 NIL=
202110100900 AAXX 10094 67403 NIL=
202110070900 AAXX 07094 67403 41975 11203 10299 20113 48524 70500 80001
                   333 5//// 81080=
202110060600 AAXX 06064 67403 31975 50601 10231 20144 48521 70520 80001
                   333 10330 20176 58006 85080
                   555 00/// 20000=
202110041200 AAXX 04124 67403 41775 51801 10159 48492 70522 83261
                   333 5//// 83250 83360 81080=
202110040900 AAXX 04094 67403 NIL=

################################################################################
#  SYNOPS from 67413, Mbala (Zambia) | 08-51S | 031-20E | 1673 m
################################################################################
202110291200 AAXX 29124 67413 NIL=
202110280900 AAXX 28094 67413 NIL=
202110280600 AAXX 28064 67413 32980 00710 10210 20124 48539
                   333 10300 20156 59013
                   555 00294 91024=
202110270600 AAXX 27064 67413 32980 60710 10231 20102 48552 8603/
                   333 10298 20181 58013 86359
                   555 00280 910259=
202110251200 AAXX 25124 67413 NIL=
202110250900 AAXX 25094 67413 NIL=
202110221200 AAXX 22124 67413 NIL=
202110210600 AAXX 21064 67413 NIL=
202110200600 AAXX 20064 67413 NIL=
202110191200 AAXX 19124 67413 NIL=
202110190600 AAXX 19064 67413 32975 51008 10207 20122 48535 70522 82031
                   333 10268 20152 5//// 82359 83080
                   555 00224 910238=
202110180900 AAXX 18094 67413 NIL=
202110170900 AAXX 17094 67413 NIL=
202110151200 AAXX 15124 67413 NIL=
202110141200 AAXX 14124 67413 NIL=
202110140900 AAXX 14094 67413 NIL=
202110140600 AAXX 14064 67413 NIL=
202110130600 AAXX 13064 67413 32780 70512 10173 20134 48539 8703/
                   333 10278 20160 59007 87456
                   555 00230 91017=
202110121200 AAXX 12124 67413 NIL=
202110120900 AAXX 12094 67413 NIL=
202110120600 AAXX 12064 67413 32980 50914 10206 20126 48544 80001
                   333 10296 20158 58005 85076
                   555 00300 10249=
202110110900 AAXX 11094 67413 NIL=
202110110600 AAXX 11064 67413 32980 40912 10225 20089 48538 80001
                   333 10320 20168 5//// 84080
                   555 00298 90243=
202110100900 AAXX 10094 67413 NIL=
202110070900 AAXX 07094 67413 NIL=
202110060600 AAXX 06064 67413 NIL=
202110041200 AAXX 04124 67413 NIL=
202110040900 AAXX 04094 67413 NIL=

################################################################################
#  SYNOPS from 67441, Mwinilunga (Zambia) | 11-45S | 024-26E | 1361 m
################################################################################
202110291200 AAXX 29124 67441 NIL=
202110280900 AAXX 28094 67441 NIL=
202110280600 AAXX 28064 67441 12580 31103 10209 20174 48568 69904 82130
                   333 10316 20168 59010 82825 82360=
202110270600 AAXX 27064 67441 12980 31203 10182 20170 48568 60214 83030
                   333 10315 20151 58014 83360
                   555 00/// 20067=
202110251200 AAXX 25124 67441 NIL=
202110250900 AAXX 25094 67441 NIL=
202110221200 AAXX 22124 67441 NIL=
202110210600 AAXX 21064 67441 31980 40903 10200 20174 48549 70500 80007
                   333 10315 20170 59007 84270=
202110200600 AAXX 20064 67441 19805 20000 10201 20170 48562 60044 70500 82030
                   333 10260 20170 58008 82360
                   555 00/// 20018=
202110191200 AAXX 19124 67441 NIL=
202110180900 AAXX 18094 67441 NIL=
202110170900 AAXX 17094 67441 NIL=
202110151200 AAXX 15124 67441 NIL=
202110141200 AAXX 14124 67441 NIL=
202110140900 AAXX 14094 67441 NIL=
202110140600 AAXX 14064 67441 NIL=
202110130600 AAXX 13064 67441 NIL=
202110121200 AAXX 12124 67441 NIL=
202110120900 AAXX 12094 67441 52680 50904 10280 20135 48564 85500
                   333 5//// 85650=
202110120600 AAXX 12064 67441 31975 40000 10210 20133 48570 70500 80008
                   333 10340 20163 58029 84270
                   555 00///=
202110110900 AAXX 11094 67441 NIL=
202110110600 AAXX 11064 67441 31480 70000 10220 20125 48540 875//
                   333 10335 20165 59019 87630
                   555 00///=
202110100900 AAXX 10094 67441 NIL=
202110070900 AAXX 07094 67441 42980 11304 10255 20153 48563 80001
                   333 58009=
202110060600 AAXX 06064 67441 11375 70000 10185 20180 48554 60034 70522 877//
                   333 10306 20166 58011 87710=
202110041200 AAXX 04124 67441 NIL=
202110040900 AAXX 04094 67441 NIL=
202110040600 AAXX 04064 67441 31980 80000 10180 20163 48554 72122 8802/
                   333 10325 20160 5//// 88460
                   555 00/// 20032=
202110010900 AAXX 01094 67441 41980 02605 10290 20126 48/// 70500
                   333 58001=

################################################################################
#  SYNOPS from 67461, Mansa (Zambia) | 11-06S | 028-51E | 1382 m
################################################################################
202110291200 AAXX 29124 67461 NIL=
202110290600 AAXX 29064 67461 31975 01524 10238 20148 48520 70500
                   333 10326 20167 59010
                   555 00/// 91018=
202110280900 AAXX 28094 67461 42980 11732 10297 20133 48521 81030
                   333 5//// 81365 91018=
202110280600 AAXX 28064 67461 31978 11324 10242 20152 48531 70500 81030
                   333 10334 20177 58002 81365
                   555 00/// 91019=
202110270600 AAXX 27064 67461 31960 01212 10250 20156 48525 70500
                   333 10340 20158 58013
                   555 00/// 91019=
202110251200 AAXX 25124 67461 NIL=
202110250900 AAXX 25094 67461 NIL=
202110250600 AAXX 25064 67461 31970 01803 10255 20171 48511 70500
                   333 10358 20159 58000
                   555 00/// 91017=
202110221200 AAXX 22124 67461 NIL=
202110220600 AAXX 22064 67461 31965 21510 10222 20158 48530 70500 80001
                   333 10326 20150 58003 82080
                   555 00/// 91020=
202110211200 AAXX 21124 67461 41775 40805 10307 20121 48497 70500 84200
                   333 58011 84857 91015=
202110210900 AAXX 21094 67461 41778 31916 10282 20130 48528 70500 81201
                   333 59005 81850 83080 91019=
202110210600 AAXX 21064 67461 31975 00810 10223 20150 48527 70500
                   333 10318 20159 59005
                   555 00/// 91019=
202110200600 AAXX 20064 67461 31570 20818 10228 20163 48532 70500 81501
                   333 10316 20161 58007 81630 82080
                   555 00/// 91020=
202110191200 AAXX 19124 67461 NIL=
202110180900 AAXX 18094 67461 NIL=
202110180600 AAXX 18064 67461 32980 02202 10241 20161 48502
                   333 10340 20//0 58017
                   555 00/// 91016=
202110170900 AAXX 17094 67461 NIL=
202110170600 AAXX 17064 67461 11970 52903 10239 20172 48482 69904 70522 83031
                   333 10330 20159 59015 83360 82080 91014=
202110151200 AAXX 15124 67461 41875 71506 10310 20131 48473 70522 81231
                   333 59012 81868 85360 81080 91012=
202110150600 AAXX 15064 67461 31970 11409 10230 2//// 48509 70500 80001
                   333 10312 20142 59008 81080 91017=
202110141200 AAXX 14124 67461 41778 71409 10305 20130 48485 70522 82231
                   333 59003 82865 85360 81080=
202110140900 AAXX 14094 67461 NIL=
202110140600 AAXX 14064 67461 31970 11205 10225 20135 48517 70500 80001
                   333 10304 20140 59001 81080 91018=
202110130900 AAXX 13094 67461 41778 41209 10265 20130 48510 70530 84201
                   333 59024 84850 81080 91017=
202110130600 AAXX 13064 67461 31978 11209 10200 20134 48518 70500 81031
                   333 10296 20124 59023 81360 81080 91019=
202110121200 AAXX 12124 67461 41759 71508 10284 20137 48518 70522 84208
                   333 58013 84856 87280 91017=
202110120900 AAXX 12094 67461 42980 51212 10258 20140 48539 80008
                   333 58010 85280 91020=
202110120600 AAXX 12064 67461 31978 51324 10210 20130 48542 70522 80008
                   333 10314 20152 58009 85280
                   555 00/// 91021=
202110110900 AAXX 11094 67461 41956 01325 10284 20124 48531 70500
                   333 58024 91019=
202110100900 AAXX 10094 67461 41960 41724 10328 20100 48510 70500 80001
                   333 58007 84080 91016=
202110081200 AAXX 08124 67461 41958 61019 10316 20080 48493 70522 80008
                   333 58010 86280 91015=
202110070900 AAXX 07094 67461 41970 31215 10304 20130 48508 70500 80001
                   333 58000 83080 91017=
202110060900 AAXX 06094 67461 41970 01217 10295 20159 48508 70500
                   333 59001 91017=
202110060600 AAXX 06064 67461 31970 11210 10232 20180 48509 70500 81031
                   333 10316 20164 59008 81360 81080 91017=
202110050900 AAXX 05094 67461 41975 01211 10292 20168 48506 70500
                   333 59003 91017=
202110041200 AAXX 04124 67461 41778 61004 10310 20140 48485 70522 84201
                   333 58011 84865 82080 91013=
202110040900 AAXX 04094 67461 41678 70202 10270 20163 48509 70522 81132
                   333 58028 81840 81360 86280 91017=
202110040600 AAXX 04064 67461 11470 70603 10202 20175 48517 69904 70522 8117/
                   333 10310 20165 58019 81810 87360
                   555 00/// 91018=
202110011200 AAXX 01124 67461 41757 21904 10314 20108 48485 70500 81201
                   333 58009 81857 82080 91013=
202110010900 AAXX 01094 67461 41958 31509 10289 20125 48504 70500 80001
                   333 58010 83080 91016=

################################################################################
#  SYNOPS from 67469, Samfya (Zambia) | 11-22S | 029-54E | 1171 m
################################################################################
202110291200 AAXX 29124 67469 NIL=
202110280900 AAXX 28094 67469 NIL=
202110270600 AAXX 27064 67469 NIL=
202110251200 AAXX 25124 67469 NIL=
202110250900 AAXX 25094 67469 NIL=
202110221200 AAXX 22124 67469 NIL=
202110210600 AAXX 21064 67469 NIL=
202110200600 AAXX 20064 67469 NIL=
202110191200 AAXX 19124 67469 NIL=
202110180900 AAXX 18094 67469 NIL=
202110170900 AAXX 17094 67469 NIL=
202110151200 AAXX 15124 67469 NIL=
202110141200 AAXX 14124 67469 NIL=
202110140900 AAXX 14094 67469 NIL=
202110140600 AAXX 14064 67469 NIL=
202110130600 AAXX 13064 67469 NIL=
202110121200 AAXX 12124 67469 NIL=
202110120900 AAXX 12094 67469 NIL=
202110120600 AAXX 12064 67469 NIL=
202110110900 AAXX 11094 67469 NIL=
202110100900 AAXX 10094 67469 NIL=
202110070900 AAXX 07094 67469 NIL=
202110060600 AAXX 06064 67469 NIL=
202110041200 AAXX 04124 67469 NIL=
202110040900 AAXX 04094 67469 NIL=
202110011200 AAXX 01124 67469 40901 4//// 10284 20180 48/// 70522 80008
                   333 5//// 84280=
202110010900 AAXX 01094 67469 41970 50905 10256 20180 48/// 70522 80008
                   333 5//// 85280=

################################################################################
#  SYNOPS from 67475, Kasama (Zambia) | 10-13S | 031-08E | 1382 m
################################################################################
202110291200 AAXX 29124 67475 41680 30901 10315 20110 48487 70500 83200
                   333 59010 83840 91017=
202110290600 AAXX 29064 67475 31980 01203 10220 20142 40530
                   333 1//// 20180 59007 91021=
202110281200 AAXX 28124 67475 41680 51205 10313 20107 48498
                   333 59005 84835 83080 91017=
202110280900 AAXX 28094 67475 41980 01211 10290 20114 48522
                   333 59011 91020=
202110280600 AAXX 28064 67475 11980 01205 10236 20145 48538 69904
                   333 1//// 20189 59010 91022=
202110270900 AAXX 27094 67475 41680 30503 10296 20116 48534
                   333 59001 82830 82080 91021=
202110270600 AAXX 27064 67475 31980 60607 10240 20143 48548 83061
                   333 10/// 20175 58013 83360 83080
                   555 00/// CC175 DD080 91023=
202110251200 AAXX 25124 67475 NIL=
202110250900 AAXX 25094 67475 NIL=
202110221200 AAXX 22124 67475 41760 41004 10314 20125 48505 70521 84200
                   333 58004 81956 84856 91018=
202110220600 AAXX 22064 67475 31960 20710 10222 20145 48537 70500 80001
                   333 10//0 20156 59001 82080
                   555 00/// 91022=
202110211200 AAXX 21124 67475 41760 40406 10306 20113 48501 70500 84200
                   333 59003 84850 91017=
202110210900 AAXX 21094 67475 41660 20913 10276 20137 48530 70500 82100
                   333 59004 82840 91021=
202110210600 AAXX 21064 67475 31960 11012 10216 20130 48537 70500 80001
                   333 1//// 20159 59001 81080 91022=
202110200600 AAXX 20064 67475 31960 00912 10230 20129 48539 70500
                   333 10//0 20174 58008
                   555 00/// 91022=
202110191200 AAXX 19124 67475 41660 70910 10294 20104 48500 70522 85208
                   333 59001 85835 86280
                   555 91017=
202110180900 AAXX 18094 67475 NIL=
202110170900 AAXX 17094 67475 NIL=
202110151200 AAXX 15124 67475 41680 60902 10306 20136 48487 85201
                   333 59013 85830 82080 91016=
202110150600 AAXX 15064 67475 31980 80705 10220 20134 48525 8807/
                   333 1//// 20181 59006 88460 91021=
202110141200 AAXX 14124 67475 41760 71610 10286 20112 48500 70522 8427/
                   333 59002 81950 84850 86460 91017=
202110140900 AAXX 14094 67475 41960 70808 10263 20126 48526 70522 8607/
                   333 58000 86360 91020=
202110140600 AAXX 14064 67475 31960 60509 10226 20138 48532 70522 8607/
                   333 1//// 20176 5//// 86360 91021=
202110130900 AAXX 13094 67475 41660 70909 10251 20129 48525 70522 83238
                   333 59016 83840 84360 86280 91020=
202110130600 AAXX 13064 67475 31960 61013 10197 20132 48/// 70522 84038
                   333 1//// 20151 5//// 84360 86280=
202110121200 AAXX 12124 67475 41760 70914 10274 20120 48515 70522 84208
                   333 5//// 81950 84850 87280 91019=
202110120900 AAXX 12094 67475 41660 71012 10243 20126 48541 70522 84208
                   333 58008 84840 86280 91022=
202110120600 AAXX 12064 67475 31960 21612 10202 20126 48547 70500 80001
                   333 10/// 20176 58008 82080
                   555 00/// 91023=
202110110900 AAXX 11094 67475 41760 70821 10277 20109 48534 70522 82108
                   333 58016 82856 87280 91021=
202110100900 AAXX 10094 67475 41980 80801 10309 20086 48519
                   333 58003 87080 91019=
202110100600 AAXX 10064 67475 31980 83602 10230 20140 48519 80008
                   333 1//// 20155 59004 88280 91020=
202110081200 AAXX 08124 67475 41860 62603 10312 20077 48496 70522 83208
                   333 59010 83857 85280 91017=
202110070900 AAXX 07094 67475 41960 51213 10288 20081 48536 70522 80008
                   333 58002 85280 91021=
202110060900 AAXX 06094 67475 41960 00908 10280 20095 48534 70500
                   333 58063 91021=
202110060600 AAXX 06064 67475 31968 20803 10223 20118 48532 70500 80001
                   333 1//// 20172 58004 82080 91021=
202110041200 AAXX 04124 67475 41680 60000 10280 20155 48499
                   333 58015 83830 82360 84080 91017=
202110040900 AAXX 04094 67475 NIL=
202110040600 AAXX 04064 67475 11570 80000 10185 20165 48535 60214 888//
                   333 10//0 20170 58010 88620
                   555 00170 91022=
202110010900 AAXX 01094 67475 41760 41006 10285 20106 48517 70522 81108
                   333 58002 81856 84280 91019=
202110010600 AAXX 01064 67475 31960 20310 10236 20125 48529 70500 80001
                   333 1//// 20169 58006 82080 91021=

################################################################################
#  SYNOPS from 67476, Misamfu (Zambia) | 10-06S | 031-15E | 1536 m
################################################################################
202110291200 AAXX 29124 67476 NIL=
202110280900 AAXX 28094 67476 NIL=
202110270600 AAXX 27064 67476 NIL=
202110251200 AAXX 25124 67476 NIL=
202110250900 AAXX 25094 67476 NIL=
202110221200 AAXX 22124 67476 NIL=
202110210600 AAXX 21064 67476 NIL=
202110200600 AAXX 20064 67476 NIL=
202110191200 AAXX 19124 67476 NIL=
202110180900 AAXX 18094 67476 NIL=
202110170900 AAXX 17094 67476 NIL=
202110170600 AAXX 17064 67476 12580 40903 10234 20170 48/// 60114 83230
                   333 10325 20115 83826 81360
                   555 00///=
202110151200 AAXX 15124 67476 NIL=
202110141200 AAXX 14124 67476 NIL=
202110140900 AAXX 14094 67476 NIL=
202110140600 AAXX 14064 67476 NIL=
202110130600 AAXX 13064 67476 NIL=
202110121200 AAXX 12124 67476 NIL=
202110120900 AAXX 12094 67476 NIL=
202110120600 AAXX 12064 67476 NIL=
202110110900 AAXX 11094 67476 NIL=
202110100900 AAXX 10094 67476 NIL=
202110070900 AAXX 07094 67476 NIL=
202110060600 AAXX 06064 67476 NIL=
202110041200 AAXX 04124 67476 NIL=
202110040900 AAXX 04094 67476 NIL=
202110040600 AAXX 04064 67476 11965 70000 10181 20179 48/// 60014 76022 8707/
                   333 10323 20154 5//// 87460
                   555 00/// 20990=

################################################################################
#  SYNOPS from 67477, Mpika (Zambia) | 11-54S | 031-26E | 1400 m
################################################################################
202110291200 AAXX 29124 67477 41775 22105 10290 20110 48500 70500 82100
                   333 59016 82850=
202110290600 AAXX 29064 67477 31975 00913 10207 20120 48530 70500
                   333 10284 20168 59015
                   555 00/// 20000=
202110281200 AAXX 28124 67477 41775 41209 10279 20149 48516 70522 84200
                   333 5//// 84845=
202110280900 AAXX 28094 67477 41675 41511 10258 20160 48537 70521 84200
                   333 5//// 84836=
202110280600 AAXX 28064 67477 31575 41213 10223 20150 48546 70500 84500
                   333 10318 20194 5//// 84622
                   555 00/// 20000=
202110270600 AAXX 27064 67477 NIL=
202110251200 AAXX 25124 67477 NIL=
202110250900 AAXX 25094 67477 NIL=
202110221200 AAXX 22124 67477 42680 31204 10301 20121 48505 83101
                   333 59009 83834 82080=
202110220600 AAXX 22064 67477 31978 01209 10218 20134 48536 70500
                   333 10292 20153 58000
                   555 00/// 20000=
202110211200 AAXX 21124 67477 42680 21203 10272 20101 48514 82100
                   333 59003 82830=
202110210900 AAXX 21094 67477 42580 20910 10241 20132 48537 82101
                   333 5//// 82820 81080=
202110210600 AAXX 21064 67477 31478 31211 10212 20152 48560 70500 83501
                   333 10284 20146 58008 83612 82080
                   555 00/// 20000=
202110200600 AAXX 20064 67477 31478 40908 10212 20155 48552 70500 84601
                   333 10290 20176 5//// 84611 82080
                   555 00/// 20000=
202110191200 AAXX 19124 67477 42680 51203 10289 20121 48/// 85100
                   333 5//// 85830=
202110180900 AAXX 18094 67477 41978 01501 10319 20076 48506 70500
                   333 5////=
202110180600 AAXX 18064 67477 31978 01202 10262 20102 48517 70500
                   333 10282 20150 58004
                   555 00/// 20000=
202110170900 AAXX 17094 67477 NIL=
202110170600 AAXX 17064 67477 31978 01202 10243 20108 48513 70500
                   333 10328 20146 59005
                   555 00/// 20000=
202110151200 AAXX 15124 67477 41775 40603 10305 20131 48495 70522 84200
                   333 59012 84857=
202110150600 AAXX 15064 67477 31975 40912 10233 20115 48530 70500 84030
                   333 10299 20179 59004 84360
                   555 00/// 20000=
202110141200 AAXX 14124 67477 41775 40906 10285 20110 48506 70522 84200
                   333 59005 84856=
202110140900 AAXX 14094 67477 41975 00913 10274 20130 48528 70521
                   333 59004=
202110140600 AAXX 14064 67477 31975 40914 10228 20122 48533 70522 84030
                   333 10285 20170 59004 84360
                   555 00/// 20000=
202110130900 AAXX 13094 67477 41575 10912 10250 20120 48531 70500 81100
                   333 59028 81832=
202110130600 AAXX 13064 67477 31975 11213 10195 20123 48535 70500 81030
                   333 10225 20136 59025 81360
                   555 00/// 20000=
202110121200 AAXX 12124 67477 41575 61806 10204 20135 48538 70522 86500
                   333 58013 87627=
202110120900 AAXX 12094 67477 41475 71206 10170 20121 48557 70522 87500
                   333 58009 87615=
202110120600 AAXX 12064 67477 31375 70909 10162 20125 48559 70522 87600
                   333 10283 20148 58009 87709
                   555 00/// 20000=
202110110900 AAXX 11094 67477 41575 61214 10227 20140 48550 70522 86500
                   333 5//// 86629=
202110100900 AAXX 10094 67477 41978 21201 10308 20108 48/// 70500 80001
                   333 5//// 82080=
202110100600 AAXX 10064 67477 31978 00908 10233 20154 48525 70500
                   333 10324 20168 58000
                   555 00/// 20000=
202110081200 AAXX 08124 67477 41680 01202 10289 20116 48510 70500
                   333 59009=
202110070900 AAXX 07094 67477 41578 31206 10271 20138 48539 70500 83101
                   333 58000 83825 82080=
202110060900 AAXX 06094 67477 41578 11210 10259 20134 48539 70500 81101
                   333 59005 81820 81080=
202110060600 AAXX 06064 67477 31978 11202 10224 20148 48535 70500 80001
                   333 10286 20163 58001 81080
                   555 00/// 20000=
202110041200 AAXX 04124 67477 42680 51203 10237 20142 48528 82130
                   333 5//// 82830 83080=
202110040900 AAXX 04094 67477 41578 71204 10227 20154 48534 70500 85131
                   333 5//// 85820 82362 82080=
202110011200 AAXX 01124 67477 41775 31207 19308 20//0 48496 70500 83200
                   333 5//// 83857=
202110010900 AAXX 01094 67477 41975 20911 10274 20//0 48522 70500 80001
                   333 5//// 82080=

################################################################################
#  SYNOPS from 67481, Isoka (Zambia) | 10-07S | 032-38E | 1360 m
################################################################################
202110291200 AAXX 29124 67481 NIL=
202110290600 AAXX 29064 67481 11475 32002 10222 20156 48/// 60124 70500 83100
                   333 10322 20170 59011 83820
                   555 00///=
202110281200 AAXX 28124 67481 41775 52002 10306 20127 48/// 70522 85200
                   333 59002 85857=
202110280900 AAXX 28094 67481 NIL=
202110280600 AAXX 28064 67481 31975 02102 10240 20120 48/// 70500
                   333 10332 20185 5////
                   555 00///=
202110270900 AAXX 27094 67481 41970 33002 10298 20116 48/// 70500 83030
                   333 58003 83861=
202110270600 AAXX 27064 67481 31970 03002 10246 20123 48/// 70500
                   333 10360 20167 5////
                   555 00///=
202110251200 AAXX 25124 67481 NIL=
202110250900 AAXX 25094 67481 NIL=
202110221200 AAXX 22124 67481 NIL=
202110220600 AAXX 22064 67481 31970 00302 10230 20140 48/// 70500
                   333 10330 20160 58004
                   555 00///=
202110210600 AAXX 21064 67481 31970 00302 10220 20107 48/// 70500
                   333 10310 20160 5////
                   555 00///=
202110200600 AAXX 20064 67481 31970 03002 10219 20146 48/// 70500
                   333 10332 20108 5////
                   555 00///=
202110191200 AAXX 19124 67481 NIL=
202110190600 AAXX 19064 67481 31970 13002 10225 20134 48/// 70500 80001
                   333 10342 20112 5//// 81080
                   555 00///=
202110180900 AAXX 18094 67481 NIL=
202110170900 AAXX 17094 67481 NIL=
202110151200 AAXX 15124 67481 NIL=
202110150600 AAXX 15064 67481 11970 00302 10233 20138 48/// 69904 70510
                   333 10302 20172 59008
                   555 00/// 20990=
202110141200 AAXX 14124 67481 NIL=
202110140900 AAXX 14094 67481 41670 61002 10274 20147 48/// 70522 81130
                   333 5//// 81830 86361=
202110140600 AAXX 14064 67481 11970 60902 10228 20135 48/// 69904 70522 86030
                   333 10288 20138 59002 86360
                   555 00///=
202110130600 AAXX 13064 67481 31465 61602 10208 20142 48/// 70522 81130
                   333 10298 20168 5//// 81810 86360
                   555 00///=
202110121200 AAXX 12124 67481 NIL=
202110120900 AAXX 12094 67481 NIL=
202110120600 AAXX 12064 67481 31465 71003 10210 20148 48/// 70522 875//
                   333 10300 20162 5//// 87612
                   555 00///=
202110110900 AAXX 11094 67481 NIL=
202110100900 AAXX 10094 67481 NIL=
202110081200 AAXX 08124 67481 41760 43002 10316 20108 48/// 70500 84200
                   333 5//// 84856=
202110080600 AAXX 08064 67481 11970 02002 10238 20118 48/// 69904 70500
                   333 10333 20188 59012
                   555 00///=
202110070900 AAXX 07094 67481 NIL=
202110070600 AAXX 07064 67481 31970 02002 10242 20142 48/// 70500
                   333 10322 20164 5////
                   555 00///=
202110060600 AAXX 06064 67481 31970 03002 10231 20151 48/// 70500
                   333 10321 20168 5////
                   555 00///=
202110041200 AAXX 04124 67481 41770 63002 10268 20145 48/// 71792 86200
                   333 5//// 81950 86850=
202110040900 AAXX 04094 67481 NIL=
202110010600 AAXX 01064 67481 31970 03002 10221 20144 48/// 70500
                   333 10360 20140 5////
                   555 00///=

################################################################################
#  SYNOPS from 67531, Zambezi (Zambia) | 13-32S | 023-07E | 1077 m
################################################################################
202110291200 AAXX 29124 67531 41675 40000 10304 20199 48/// 70521 8113/
                   333 59014 81844 84361=
202110290600 AAXX 29064 67531 11975 10000 10212 20190 48/// 60204 70500 81030
                   333 10330 20180 59017 81361
                   555 00///=
202110281200 AAXX 28124 67531 41775 53305 10313 20178 48/// 70520 85100
                   333 58002 85850=
202110280900 AAXX 28094 67531 41675 30904 10271 20199 48/// 70520 83100
                   333 58001 83830=
202110280600 AAXX 28064 67531 11975 70000 10210 20188 48/// 69914 70562 8702/
                   333 10336 20201 59001 87460
                   555 00///=
202110270900 AAXX 27094 67531 41975 12402 10275 20188 48/// 70500 80002
                   333 58006 81081=
202110270600 AAXX 27064 67531 11975 50000 10206 20190 48/// 60074 70522 80008
                   333 10341 20185 58014 85281
                   555 00/// 20005 AA325 BB///CC185 DD052=
202110251200 AAXX 25124 67531 41980 72802 10232 20195 48/// 70296 8707/
                   333 58017 87460=
202110250900 AAXX 25094 67531 41380 83004 10190 20183 48/// 79599 8277/
                   333 58005 82708 81956 88460=
202110221200 AAXX 22124 67531 41675 42704 10312 20188 48/// 70521 83101
                   333 59008 83849 82081=
202110220900 AAXX 22094 67531 41675 32704 10285 20193 48/// 70520 81101
                   333 59007 81835 83081=
202110220600 AAXX 22064 67531 31975 70000 10212 20187 48/// 70522 8703/
                   333 10304 20192 59003 87361
                   555 00///=
202110211200 AAXX 21124 67531 41675 71802 10280 20198 48/// 70522 81108
                   333 5//// 81833 87280=
202110210900 AAXX 21094 67531 41675 71803 10255 20190 48/// 70522 81108
                   333 5//// 81838 87280=
202110210600 AAXX 21064 67531 11475 72303 10210 20193 48/// 60044 70522 82508
                   333 10320 20202 5//// 82610 87280
                   555 00///=
202110200600 AAXX 20064 67531 11975 71005 10220 20186 48/// 60074 70522 8703/
                   333 10320 20190 5//// 87361
                   555 00/// 20000=
202110191200 AAXX 19124 67531 41675 33605 10290 20179 48/// 71792 83232
                   333 58016 81945 83845 81361 81080=
202110180900 AAXX 18094 67531 41975 72804 10270 20175 48/// 70522 8703/
                   333 58014 87360=
202110180600 AAXX 18064 67531 11975 73005 10224 20175 48/// 69924 70522 8703/
                   333 10367 20//0 58013 87360
                   555 00///=
202110170900 AAXX 17094 67531 41975 03609 10306 20174 48/// 70500
                   333 59009=
202110170600 AAXX 17064 67531 31975 13304 10215 20162 48/// 70500 81030
                   333 10346 20187 59005 81360
                   555 00/// 20000=
202110151200 AAXX 15124 67531 NIL=
202110150600 AAXX 15064 67531 31975 30104 10215 20094 48/// 70500 80001
                   333 10350 20140 59008 83082
                   555 00/// 20000=
202110141200 AAXX 14124 67531 41975 01004 10341 20066 48/// 70500
                   333 59009=
202110140900 AAXX 14094 67531 41975 00710 10305 20072 48/// 70500
                   333 59005=
202110140600 AAXX 14064 67531 31975 01107 10232 20063 48/// 70500
                   333 10347 20137 59002
                   555 00/// 20000=
202110130900 AAXX 13094 67531 41975 10908 10302 20074 48/// 70500 80001
                   333 59012 81081=
202110130600 AAXX 13064 67531 31975 10910 10227 20109 48/// 70500 80001
                   333 10347 20165 58018 81081
                   555 00/// 20000=
202110121200 AAXX 12124 67531 41975 10910 10335 20095 48/// 70500 81101
                   333 58015 81859 81081=
202110120900 AAXX 12094 67531 41975 10910 10300 20141 48/// 70500 80001
                   333 58018 81081=
202110120600 AAXX 12064 67531 31975 30907 10230 20117 48/// 70500 80001
                   333 10361 20171 58026 83081
                   555 00/// 20000=
202110110900 AAXX 11094 67531 41975 50813 10320 20106 48/// 70521 80008
                   333 58019 85281=
202110100900 AAXX 10094 67531 41975 00607 10351 20131 48/// 70500
                   333 59008=
202110100600 AAXX 10064 67531 31975 10906 10276 20126 48/// 70500 81030
                   333 10369 20190 59010 81361
                   555 00///=
202110070900 AAXX 07094 67531 41975 01804 10270 20191 48/// 70500
                   333 59005=
202110060900 AAXX 06094 67531 41575 73005 10258 20197 48/// 70522 8427/
                   333 58009 84829 87362=
202110060600 AAXX 06064 67531 31375 73605 10211 20182 48/// 70522 8267/
                   333 10306 20201 58004 82707 87362
                   555 00///=
202110041200 AAXX 04124 67531 41570 71802 10211 20180 48/// 72996 8427/
                   333 5//// 81929 84829 86362=
202110040900 AAXX 04094 67531 41775 33004 10286 20199 48/// 70500 83100
                   333 5//// 83856=
202110011200 AAXX 01124 67531 41875 42704 10332 20143 48/// 70500 84200
                   333 58018 84857=
202110010900 AAXX 01094 67531 41975 01804 10300 20154 48/// 70500
                   333 58006=

################################################################################
#  SYNOPS from 67541, Kasempa (Zambia) | 13-32S | 025-51E | 1234 m
################################################################################
202110291200 AAXX 29124 67541 41775 40000 10335 20198 48455 70522 84200
                   333 59018 84856=
202110290600 AAXX 29064 67541 31975 50000 10239 20175 48490 70522 80001
                   333 10338 20170 59009 85080
                   555 00/// 20000=
202110281200 AAXX 28124 67541 41675 604// 10320 20197 48473 70522 86200
                   333 58009 86849=
202110280900 AAXX 28094 67541 41975 204// 10295 20201 48490 70522 82030
                   333 59009 82360=
202110280600 AAXX 28064 67541 31975 204// 10240 20188 48499 70522 82030
                   333 10344 20184 59009 82360
                   555 00/// 20000=
202110270900 AAXX 27094 67541 41975 004// 10300 20199 48499 70500
                   333 58009=
202110270600 AAXX 27064 67541 31975 20000 10220 20174 48508 70522 80001
                   333 10340 20139 58009 82080
                   555 00/// 20000=
202110251200 AAXX 25124 67541 NIL=
202110250900 AAXX 25094 67541 NIL=
202110221200 AAXX 22124 67541 41675 60000 10310 20210 48464 70522 86200
                   333 58000 86840=
202110220600 AAXX 22064 67541 31975 20000 10210 20163 48499 70522 82030
                   333 10321 20140 58000 82360
                   555 00/// 20000=
202110210900 AAXX 21094 67541 41975 309// 10290 20177 48490 70522 80001
                   333 59018 83080=
202110210600 AAXX 21064 67541 31975 20000 10205 20157 48499 70522 80001
                   333 10318 20150 59009 82080
                   555 00/// 20000=
202110200600 AAXX 20064 67541 31975 104// 10220 20174 48508 70522 80001
                   333 10300 20169 58009 81080
                   555 00/// 20001=
202110191200 AAXX 19124 67541 42980 704// 10290 20//0 48473 87030
                   333 5//// 87360=
202110180900 AAXX 18094 67541 NIL=
202110180600 AAXX 18064 67541 31975 20000 10250 20174 48473 70522 82030
                   333 10358 20142 58009 82360
                   555 00/// 20000=
202110170900 AAXX 17094 67541 NIL=
202110170600 AAXX 17064 67541 31975 20000 10215 20160 48464 70522 80001
                   333 10350 20123 59018 82080
                   555 00/// 20000=
202110151200 AAXX 15124 67541 NIL=
202110150600 AAXX 15064 67541 31975 10000 10220 20148 48490 70522 81030
                   333 10330 20112 58000 81360
                   555 00/// 20000=
202110141200 AAXX 14124 67541 41975 00000 10315 20163 48455 70500
                   333 59018=
202110140900 AAXX 14094 67541 41975 006// 10300 20154 48490 70500
                   333 59009=
202110140600 AAXX 14064 67541 31975 00000 10175 20124 48490 70500
                   333 10310 20068 59009
                   555 00/// 20000=
202110130900 AAXX 13094 67541 41975 106// 10280 20182 48499 70522 80001
                   333 59009 81080=
202110130600 AAXX 13064 67541 31975 00000 10199 20144 48499 70500
                   333 10314 20092 59018
                   555 00///=
202110121200 AAXX 12124 67541 41675 40000 10300 20190 48482 70522 84100
                   333 58009 84845=
202110120900 AAXX 12094 67541 41975 305// 10280 20183 48508 70522 80003
                   333 58009 83080=
202110120600 AAXX 12064 67541 31970 305// 10200 20143 48517 70522 80003
                   333 10330 20183 58027 83080
                   555 00/// 20000=
202110110900 AAXX 11094 67541 41975 705// 10285 20181 48499 70522 80007
                   333 5//// 87080=
202110100900 AAXX 10094 67541 NIL=
202110100600 AAXX 10064 67541 31970 00000 10235 20165 48473 70500
                   333 10360 20154 59009
                   555 00///=
202110081200 AAXX 08124 67541 41975 005// 10340 20158 48455 70500
                   333 59018=
202110070900 AAXX 07094 67541 42980 105// 10300 20190 48499 80001
                   333 58000 81082=
202110060900 AAXX 06094 67541 42980 705// 10285 20198 48499 80007
                   333 5//// 87080=
202110060600 AAXX 06064 67541 12980 60000 10220 20183 48490 60034 80006
                   333 10320 20170 58000 86080
                   555 00/// 20002=
202110041200 AAXX 04124 67541 42980 70000 10230 20200 48464 8703/
                   333 5//// 87360=
202110040900 AAXX 04094 67541 NIL=
202110011200 AAXX 01124 67541 41775 10000 10325 20186 48455 70522 81100
                   333 58008 81856=
202110010900 AAXX 01094 67541 41975 305// 10305 20188 48482 70522 80003
                   333 5//// 83080=

################################################################################
#  SYNOPS from 67543, Kabompo (Zambia) | 13-36S | 024-12E | 1075 m
################################################################################
202110291200 AAXX 29124 67543 NIL=
202110290600 AAXX 29064 67543 11975 60801 10224 20191 48/// 60024 70522 86030
                   333 10348 20186 5//// 86360
                   555 00/// 20001=
202110280900 AAXX 28094 67543 NIL=
202110280600 AAXX 28064 67543 11970 50000 10228 20189 48/// 60014 70522 82035
                   333 10340 20182 5//// 82360 84280
                   555 00/// 20002=
202110270900 AAXX 27094 67543 41675 20604 10316 20164 48/// 70511 82101
                   333 5//// 82830 81080=
202110270600 AAXX 27064 67543 11975 40000 10210 20179 48/// 60024 70522 80005
                   333 10364 20170 5//// 84280
                   555 00///=
202110251200 AAXX 25124 67543 NIL=
202110250900 AAXX 25094 67543 NIL=
202110221200 AAXX 22124 67543 41675 73601 10334 20162 48/// 70522 85230
                   333 5//// 85845 84361=
202110220600 AAXX 22064 67543 31970 60000 10226 20173 48/// 70522 86030
                   333 10326 20176 5//// 86360
                   555 00/// 20990=
202110210600 AAXX 21064 67543 11975 71401 10228 20148 48/// 69904 70522 8707/
                   333 10344 20186 5//// 87360
                   555 00/// 20990=
202110201200 AAXX 20124 67543 41675 71001 10320 20162 48/// 70522 84230
                   333 5//// 84845 85360=
202110200600 AAXX 20064 67543 11570 41801 10224 20172 48/// 69904 70522 81105
                   333 10302 20174 5//// 81820 84280
                   555 00/// 20990=
202110191200 AAXX 19124 67543 41675 70000 10300 20163 48/// 71762 8437/
                   333 5//// 81940 84840 87360=
202110190900 AAXX 19094 67543 41672 71105 10302 20167 48/// 70522 84230
                   333 5//// 84835 85360=
202110180900 AAXX 18094 67543 NIL=
202110180600 AAXX 18064 67543 31970 72701 10226 20157 48/// 70522 8707/
                   333 10384 20210 5//// 87360
                   555 00///=
202110170900 AAXX 17094 67543 NIL=
202110170600 AAXX 17064 67543 31970 53602 10222 20157 48/// 70522 80007
                   333 10370 20174 5//// 85280
                   555 00///=
202110151200 AAXX 15124 67543 41672 61201 10356 20101 48/// 70522 86200
                   333 5//// 86845=
202110150600 AAXX 15064 67543 31970 60000 10216 20090 48/// 70522 80007
                   333 10362 20140 5//// 86280
                   555 00///=
202110141200 AAXX 14124 67543 41975 03602 10348 20070 48/// 70500
                   333 5////=
202110140900 AAXX 14094 67543 41972 03605 10324 20072 48/// 70500
                   333 5////=
202110140600 AAXX 14064 67543 31970 00801 10226 20074 48/// 70500
                   333 10344 20130 5////
                   555 00///=
202110130900 AAXX 13094 67543 41975 61204 10304 20062 48/// 70522 80005
                   333 5//// 86280=
202110130600 AAXX 13064 67543 31970 50905 10220 20111 48/// 70510 80005
                   333 10346 20162 5//// 85280
                   555 00///=
202110121200 AAXX 12124 67543 41675 60903 10332 20102 48/// 70522
                   333 5//// 82845 85280=
202110120900 AAXX 12094 67543 41970 41202 10300 20139 48/// 70522 80007
                   333 5//// 84280=
202110120600 AAXX 12064 67543 31970 60804 10226 20127 48/// 70522 80007
                   333 10342 20178 5//// 86280
                   555 00///=
202110110900 AAXX 11094 67543 41975 60909 10322 20105 48/// 70522 80007
                   333 5//// 87280=
202110100900 AAXX 10094 67543 NIL=
202110100600 AAXX 10064 67543 31970 00000 10238 20146 48/// 70500
                   333 10380 20174 5////=
202110081200 AAXX 08124 67543 41676 10901 10360 20099 48/// 70500 81100
                   333 5//// 81850=
202110070900 AAXX 07094 67543 42680 30801 10294 20172 48/// 83100
                   333 5//// 83830=
202110060900 AAXX 06094 67543 41675 70906 10300 20178 48/// 70522 82135
                   333 5//// 82830 82361 85280=
202110060600 AAXX 06064 67543 31978 70000 10220 20186 48/// 70522 8707/
                   333 10340 20194 5//// 87360=
202110041200 AAXX 04124 67543 NIL=
202110040900 AAXX 04094 67543 41675 60000 10300 20182 48/// 70522 84235
                   333 5//// 84835 81362 83280=
202110011200 AAXX 01124 67543 41870 43602 10348 20135 48/// 70510 84200
                   333 5//// 84857=
202110010900 AAXX 01094 67543 41965 01801 10300 20143 48/// 70500
                   333 5////=

################################################################################
#  SYNOPS from 67551, Solwezi (Zambia) | 12-11S | 026-23E | 1386 m
################################################################################
202110291200 AAXX 29124 67551 NIL=
202110290600 AAXX 29064 67551 31970 60905 10220 20138 48518 70500 86030
                   333 10317 20191 59011 86362
                   555 00/// 20000 91019=
202110280900 AAXX 28094 67551 41575 41207 10291 20131 48521 70500 83130
                   333 59007 83825 83362
                   555 91020=
202110280600 AAXX 28064 67551 11975 21206 10229 20156 48535 69954 70500 82030
                   333 10319 20199 59013 82362
                   555 00/// 91020=
202110270900 AAXX 27094 67551 41875 20907 10289 20134 48534 70500 82100
                   333 58002 82857 555 91020=
202110270600 AAXX 27064 67551 31975 43403 10214 20154 48539 70522 80006
                   333 10328 20170 58014 84280
                   555 00/// 91022=
202110251200 AAXX 25124 67551 41770 70807 10324 20127 48499 70522 83207
                   333 58011 83850 87280=
202110250900 AAXX 25094 67551 41970 71305 10287 20161 48513 70522 80007
                   333 59006 87280=
202110250600 AAXX 25064 67551 11970 72005 10224 20164 48519 69954 70522 83036
                   333 10293 20174 59005 83362 87280
                   555 00/// 91019=
202110221200 AAXX 22124 67551 41775 63005 10309 20141 48502 70522 86200
                   333 58002 86850 555 91017=
202110220600 AAXX 22064 67551 31970 60906 10220 20131 48520 70522 80006
                   333 10312 20163 58000 86280
                   555 00//// 91020=
202110210900 AAXX 21094 67551 41970 70306 10274 20124 48525 70522 80007
                   333 59005 87280 555 91020=
202110210600 AAXX 21064 67551 31970 61207 10206 20131 48519 70522 80006
                   333 10304 20186 59007 86280
                   555 00/// 91020=
202110200600 AAXX 20064 67551 31470 40907 10203 20158 48534 70522 83130
                   333 10300 20185 58010 83815 83362
                   555 00/// 91021=
202110191200 AAXX 19124 67551 NIL=
202110180900 AAXX 18094 67551 41970 23004 10284 20152 48500 70500 82030
                   333 58000 82362 555 91017=
202110180600 AAXX 18064 67551 11970 73005 10210 20153 48499 60014 70500 87030
                   333 10324 20179 58000 87362
                   555 00/// 20000 91017=
202110170900 AAXX 17094 67551 41970 13006 10302 20142 48492 70500 81100
                   333 59008 555 91016=
202110170600 AAXX 17064 67551 31970 32406 10212 20160 48499 70500 83030
                   333 10317 20175 59009 83362
                   555 00/// 20000 91017=
202110151200 AAXX 15124 67551 41870 60605 10308 20120 48498 70522 86200
                   333 59008 86859 555 91015=
202110150600 AAXX 15064 67551 31970 30905 10223 20115 48519 70512 83030
                   333 10311 20156 59004 83362
                   555 00/// 91019=
202110141200 AAXX 14124 67551 41870 60905 10304 20089 48481 70522 86100
                   333 59011 86859 555 91015=
202110140900 AAXX 14094 67551 41870 10905 10282 20096 48516 70500 81100
                   333 59007 81859 91019=
202110140600 AAXX 14064 67551 31970 00905 10206 20085 48518 70500
                   333 10301 20118 59005
                   555 00/// 91020=
202110130900 AAXX 13094 67551 41870 71506 10255 20061 48521 70522 81107
                   333 59013 81857 87280
                   555 91020=
202110130600 AAXX 13064 67551 31970 20906 10201 20116 48522 70500 80001
                   333 10298 20163 59014 82080
                   555 00/// 91020=
202110121200 AAXX 12124 67551 NIL=
202110120900 AAXX 12094 67551 NIL=
202110120600 AAXX 12064 67551 31970 01607 10192 20120 48545 70500
                   333 10316 20175 58026
                   555 00/// 20000=
202110110900 AAXX 11094 67551 NIL=
202110100900 AAXX 10094 67551 NIL=
202110100600 AAXX 10064 67551 31970 00905 10265 20110 48515 70500
                   333 10330 20191 59005
                   555 00/// 91018=
202110070900 AAXX 07094 67551 41970 20906 10289 20085 48536 70500 81101
                   333 58003 81859 82080
                   555 91020=
202110060600 AAXX 06064 67551 31960 60906 10218 20160 48524 70500 85030
                   333 10310 20192 59002 85362
                   555 00/// 91020=
202110050900 AAXX 05094 67551 41960 70907 10266 20162 48520 70500 87030
                   333 59007 87362 555 91019=
202110041200 AAXX 04124 67551 41670 70905 10267 20153 48494 70522 82137
                   333 58008 82845 84362 87280
                   555 91015=
202110040900 AAXX 04094 67551 41970 73003 10244 20153 48532 70522 8707/
                   333 58016 87362 555 91020=
202110011200 AAXX 01124 67551 41965 30906 10309 20105 48485 70522 82108
                   333 58007 83280 82858=
202110010900 AAXX 01094 67551 41960 70806 10289 20109 48508 70522 80007
                   333 59001 87280=

################################################################################
#  SYNOPS from 67561, Ndola (Zambia) | 13-00S | 028-39E | 1269 m
################################################################################
202110291200 AAXX 29124 67561 NIL=
202110280900 AAXX 28094 67561 NIL=
202110270600 AAXX 27064 67561 NIL=
202110251200 AAXX 25124 67561 NIL=
202110250900 AAXX 25094 67561 NIL=
202110221200 AAXX 22124 67561 NIL=
202110210600 AAXX 21064 67561 NIL=
202110200600 AAXX 20064 67561 11960 50907 10208 20148 60034 70522 81038
                   333 10//0 20180 58008 81360 85280
                   555 91021=
202110191200 AAXX 19124 67561 NIL=
202110180900 AAXX 18094 67561 NIL=
202110170900 AAXX 17094 67561 NIL=
202110151200 AAXX 15124 67561 NIL=
202110141200 AAXX 14124 67561 NIL=
202110140900 AAXX 14094 67561 NIL=
202110140600 AAXX 14064 67561 NIL=
202110130600 AAXX 13064 67561 NIL=
202110121200 AAXX 12124 67561 NIL=
202110120900 AAXX 12094 67561 NIL=
202110120600 AAXX 12064 67561 NIL=
202110110900 AAXX 11094 67561 NIL=
202110100900 AAXX 10094 67561 NIL=
202110070900 AAXX 07094 67561 NIL=
202110060600 AAXX 06064 67561 NIL=
202110041200 AAXX 04124 67561 41659 61208 10285 20153 48499 71792 862//
                   333 58006 81940 86845
                   555 91016=
202110040900 AAXX 04094 67561 41659 60000 10266 20167 48528 70422 81103
                   333 58015 81830 83360 86280
                   555 91020=
202110011200 AAXX 01124 67561 41660 53604 10318 20113 48490 70522 85201
                   333 58004 85845 81080 91015=
202110010900 AAXX 01094 67561 41959 60709 10286 20141 48518 70422 80008
                   333 59002 86280 91018=

################################################################################
#  SYNOPS from 67563, Kafironda (Zambia) | 12-36S | 028-07E | 1243 m
################################################################################
202110291200 AAXX 29124 67563 NIL=
202110290600 AAXX 29064 67563 11978 00904 10242 20160 48/// 60234 70500
                   333 10331 20153 59011
                   555 00146=
202110280900 AAXX 28094 67563 NIL=
202110280600 AAXX 28064 67563 31678 10708 10252 20140 48/// 70500 81100
                   333 10347 20154 59009 81825
                   555 00141=
202110270600 AAXX 27064 67563 31978 00605 10258 20150 48/// 70500
                   333 10341 20146 58012
                   555 00130 20000=
202110251200 AAXX 25124 67563 NIL=
202110250900 AAXX 25094 67563 NIL=
202110221200 AAXX 22124 67563 NIL=
202110220600 AAXX 22064 67563 31975 00303 10228 20150 48/// 70500
                   333 10327 20132 58003
                   555 00121=
202110210600 AAXX 21064 67563 31975 01605 10226 20150 48/// 70500
                   333 10323 20135 59008
                   555 00119=
202110200600 AAXX 20064 67563 31378 11608 10240 20150 48/// 70500 81600
                   333 10314 20151 58006 81709
                   555 00130 20990=
202110191200 AAXX 19124 67563 NIL=
202110180900 AAXX 18094 67563 NIL=
202110180600 AAXX 18064 67563 11975 30902 10248 20150 48/// 69904 70500 80001
                   333 10361 20156 58013 83080
                   555 00138=
202110170900 AAXX 17094 67563 NIL=
202110151200 AAXX 15124 67563 NIL=
202110150600 AAXX 15064 67563 31975 01006 10250 20140 48/// 70500
                   333 10330 20130 59009
                   555 00114=
202110141200 AAXX 14124 67563 NIL=
202110140900 AAXX 14094 67563 NIL=
202110140600 AAXX 14064 67563 NIL=
202110130600 AAXX 13064 67563 NIL=
202110121200 AAXX 12124 67563 NIL=
202110120900 AAXX 12094 67563 NIL=
202110120600 AAXX 12064 67563 NIL=
202110110900 AAXX 11094 67563 NIL=
202110100900 AAXX 10094 67563 NIL=
202110100600 AAXX 10064 67563 31975 11506 10266 20100 48/// 70500 81030
                   333 10357 20140 59006 81360
                   555 00133=
202110070900 AAXX 07094 67563 NIL=
202110060600 AAXX 06064 67563 NIL=
202110041200 AAXX 04124 67563 NIL=
202110040900 AAXX 04094 67563 NIL=
202110040600 AAXX 04064 67563 11970 70402 10230 20170 48/// 69904 70522 8707/
                   333 10304 20178 58018 87358
                   555 00156 20990=

################################################################################
#  SYNOPS from 67571, Serenje (Zambia) | 13-14S | 030-13E | 1384 m
################################################################################
202110291200 AAXX 29124 67571 NIL=
202110281200 AAXX 28124 67571 42678 71203 10247 20146 48473 70522 875//
                   333 58001 87640=
202110280900 AAXX 28094 67571 42578 81205 10216 20149 48492 70522 885//
                   333 59002 88625=
202110271200 AAXX 27124 67571 42681 40905 10301 20121 48475 84200
                   333 58000 81948 84848=
202110270900 AAXX 27094 67571 42681 41206 10271 20134 48505 84200
                   333 58009 84835=
202110270600 AAXX 27064 67571 32581 10908 10239 20154 48503 81500
                   333 10325 20181 58013 81625
                   555 00/// 20000=
202110251200 AAXX 25124 67571 42678 30905 10312 20074 48454 81101
                   333 58013 81847 83081=
202110250900 AAXX 25094 67571 NIL=
202110250600 AAXX 25064 67571 32978 30905 10260 20107 48484 70500 80001
                   333 10354 20203 58023 83080
                   555 00/// 20000=
202110221200 AAXX 22124 67571 NIL=
202110211200 AAXX 21124 67571 42677 21204 10264 20130 48463 82200
                   333 59012 82845=
202110210900 AAXX 21094 67571 42677 20906 10242 20139 48493 82500
                   333 59010 82630=
202110210600 AAXX 21064 67571 32477 11208 10190 20136 48491 81500
                   333 10271 20141 59008 81615
                   555 00/// 20990=
202110200600 AAXX 20064 67571 12478 20908 10201 20153 48502 69904 82500
                   333 10302 20162 58015 82618
                   555 00/// 20990=
202110191200 AAXX 19124 67571 42578 71203 10229 20160 48473 8153/
                   333 58040 81628 87360=
202110180900 AAXX 18094 67571 NIL=
202110170900 AAXX 17094 67571 NIL=
202110151200 AAXX 15124 67571 NIL=
202110150600 AAXX 15064 67571 12981 00905 10227 20126 48483 69904
                   333 10317 20168 59003
                   555 00/// 20000=
202110141200 AAXX 14124 67571 42681 70000 10290 20107 48433 872//
                   333 59012 81949 87849=
202110140900 AAXX 14094 67571 42681 61502 10280 20086 48474 86200
                   333 59017 81937 86837=
202110140600 AAXX 14064 67571 32981 01202 10245 20111 48483
                   333 10290 20181 59009
                   555 00/// 20000=
202110130600 AAXX 13064 67571 32980 01505 10186 20113 48491
                   333 10251 20123 58020
                   555 00/// 20000=
202110121200 AAXX 12124 67571 42680 51204 10211 20122 48482 85500
                   333 58001 85632=
202110120900 AAXX 12094 67571 42580 71506 10195 20124 48512 875//
                   333 58001 87620=
202110120600 AAXX 12064 67571 32480 71508 10162 20124 48510 875//
                   333 10322 20142 58002 87615
                   555 00/// 20000=
202110110900 AAXX 11094 67571 NIL=
202110100900 AAXX 10094 67571 NIL=
202110070900 AAXX 07094 67571 NIL=
202110060900 AAXX 06094 67571 42970 01506 10261 20129 48494 70500
                   333 58006=
202110060600 AAXX 06064 67571 12970 01205 10220 20141 48492 69904 70500
                   333 10258 20162 58005
                   555 00/// 20994=
202110041200 AAXX 04124 67571 41675 70306 10251 20161 48453 71692 872//
                   333 58005 81940 87840=
202110040900 AAXX 04094 67571 42675 50000 10285 20148 48485 70522 85230
                   333 58012 85835 81360=
202110011200 AAXX 01124 67571 42665 71203 10282 20118 48443 70522 85108
                   333 59002 85842 87280=
202110010900 AAXX 01094 67571 42665 71206 10270 20142 48464 70522 83108
                   333 59006 83831 87280=
202110010600 AAXX 01064 67571 32570 70903 10220 20143 48482 70522 81108
                   333 10319 20178 58002 81821 87280=

################################################################################
#  SYNOPS from 67575, Mkushi (Zambia) | 13-38-00S | 029-26-00E | 1237 m
################################################################################
202110291200 AAXX 29124 67575 NIL=
202110290600 AAXX 29064 67575 32980 21107 10221 20129 48/// 80001
                   333 10284 20154 5//// 82080
                   555 00145=
202110280900 AAXX 28094 67575 41575 71204 10246 20158 48/// 70521 85230
                   333 5//// 85828 83360=
202110280600 AAXX 28064 67575 31475 31104 10228 20161 48/// 70500 83500
                   333 10330 20187 5//// 83615
                   555 00187=
202110270600 AAXX 27064 67575 31475 11207 10248 20153 48/// 70500 81500
                   333 10330 20189 5//// 81615
                   555 00175=
202110251200 AAXX 25124 67575 NIL=
202110250900 AAXX 25094 67575 NIL=
202110221200 AAXX 22124 67575 42680 21801 10320 20107 48/// 82200
                   333 82838=
202110211200 AAXX 21124 67575 41675 11306 10290 20130 48/// 70500 81200
                   333 5//// 81837=
202110210900 AAXX 21094 67575 41675 11205 10266 20137 48/// 70500 81101
                   333 5//// 81830 81080=
202110210600 AAXX 21064 67575 31475 20906 10195 20141 48/// 70500 81501
                   333 10289 20157 5//// 81615 82080
                   555 00153=
202110200900 AAXX 20094 67575 41575 70908 10255 20140 48/// 70522 82508
                   333 5//// 82620 86280=
202110200600 AAXX 20064 67575 31475 71104 10207 20153 48/// 70522 85508
                   333 10283 20172 5//// 85615 83278
                   555 00158=
202110191200 AAXX 19124 67575 41670 71204 10265 20163 48/// 70522 82208
                   333 5//// 82838 86280=
202110180900 AAXX 18094 67575 NIL=
202110180600 AAXX 18064 67575 31970 52701 10228 20127 48/// 70522 80008
                   333 10356 20152 5//// 85280
                   555 00145=
202110170900 AAXX 17094 67575 NIL=
202110151200 AAXX 15124 67575 NIL=
202110150600 AAXX 15064 67575 31975 60908 10244 20132 48/// 70522 80008
                   333 10335 20180 5//// 86278
                   555 00169=
202110141200 AAXX 14124 67575 NIL=
202110140900 AAXX 14094 67575 41675 21402 10296 20080 48/// 70500 82200
                   333 5//// 82832=
202110140600 AAXX 14064 67575 31975 10903 10243 20122 48/// 70500 81030
                   333 10302 20156 5//// 81360
                   555 00142=
202110130600 AAXX 13064 67575 31975 00903 10202 20109 48/// 70500
                   333 10270 20125 5////
                   555 00102=
202110121200 AAXX 12124 67575 41675 51206 10264 20127 48/// 70522 82208
                   333 5//// 82837 84280=
202110120900 AAXX 12094 67575 41675 71205 10224 20138 48/// 70522 81108
                   333 5//// 81830 87280=
202110120600 AAXX 12064 67575 31475 80904 10171 20129 48/// 70522 885//
                   333 10280 20152 5//// 88615
                   555 00139=
202110110900 AAXX 11094 67575 41970 01206 10248 20108 48/// 70500
                   333 5////=
202110100900 AAXX 10094 67575 NIL=
202110081200 AAXX 08124 67575 41580 11002 10316 20093 48/// 70500 81101
                   333 5//// 81837 81080=
202110070900 AAXX 07094 67575 NIL=
202110060600 AAXX 06064 67575 31970 80902 10211 20169 48/// 70522 80007
                   333 10288 20171 5//// 88278
                   555 00162=
202110050600 AAXX 05064 67575 11070 61205 10208 20174 48/// 60153 70522 84071
                   333 10317 20192 5//// 84360 83078
                   555 00181=
202110041200 AAXX 04124 67575 NIL=
202110040900 AAXX 04094 67575 41965 80801 10265 20160 48/// 70500 81037
                   333 5//// 81362 88280=
202110040600 AAXX 04064 67575 31965 73501 10198 20162 48/// 70522 87070
                   333 10250 20170 5//// 87360
                   555 00164=
202110010900 AAXX 01094 67575 41665 71204 10284 20144 48/// 70522 81108
                   333 5//// 81830 87280=
202110010600 AAXX 01064 67575 31465 60903 10230 20165 48/// 70522 81108
                   333 10331 20185 5//// 81815 86280
                   555 00170=

################################################################################
#  SYNOPS from 67580, Msekera (Zambia) | 13-39S | 032-34E | 1025 m
################################################################################
202110291200 AAXX 29124 67580 41778 21803 10314 20112 48/// 70500 82100
                   333 59024 82856=
202110290600 AAXX 29064 67580 31978 01510 10224 20132 48/// 70500
                   333 10318 20178 59010
                   555 00/// 20990=
202110281200 AAXX 28124 67580 41776 61504 10299 20154 48/// 70522
                   333 59002 85856 81361 81080=
202110280900 AAXX 28094 67580 41676 61507 10267 20164 48/// 70522 86100
                   333 59010 86846=
202110280600 AAXX 28064 67580 11575 71510 10222 20171 48/// 69904 70522 878//
                   333 10339 20202 59005 81822 86624
                   555 00/// 20000=
202110270900 AAXX 27094 67580 41675 70907 10308 20171 48/// 70522 872//
                   333 58010 87845=
202110270600 AAXX 27064 67580 31575 50906 10265 20174 48/// 70521 84232
                   333 10362 20213 58015 84825 81360 81080
                   555 00/// 20000=
202110251200 AAXX 25124 67580 41878 30903 10345 20109 48/// 70500 83100
                   333 58014 83857=
202110250900 AAXX 25094 67580 41778 11505 10336 20126 48/// 70500 81100
                   333 58009=
202110250600 AAXX 25064 67580 31978 60806 10289 20141 48/// 70522 80001
                   333 10393 20234 58011 86080
                   555 00/// 20000=
202110221200 AAXX 22124 67580 41775 50304 10336 20140 48/// 70511 85100
                   333 59010 85856=
202110220600 AAXX 22064 67580 31975 00305 10270 20153 48/// 70500
                   333 20190 59019 555 00/// 20000=
202110211200 AAXX 21124 67580 41775 71205 10300 20141 48/// 70522 872//
                   333 59009 87850=
202110210900 AAXX 21094 67580 41675 71204 10289 20155 48/// 70522 872//
                   333 59005 87840=
202110210600 AAXX 21064 67580 31575 21005 10244 20153 48/// 70500 81132
                   333 10335 20172 58001 81825 81360 81080
                   555 00/// 20993=
202110200600 AAXX 20064 67580 11575 31009 10234 20154 48/// 69934 70522 83500
                   333 10279 20184 58016 83622
                   555 00/// 20000=
202110191200 AAXX 19124 67580 41676 72203 10238 20195 48/// 79122 8194/
                   333 58038 81934 87834 85360=
202110190600 AAXX 19064 67580 31676 61506 10250 20175 48/// 70522 83830
                   333 10366 20215 58031 81830 82632 84360
                   555 00/// 20000=
202110180900 AAXX 18094 67580 41770 31504 10323 20155 48/// 70510 81102
                   333 58016 81850 82082=
202110180600 AAXX 18064 67580 31970 13606 10271 20152 48/// 70500 80001
                   333 10375 20204 58009 81080
                   555 00/// 20000=
202110170900 AAXX 17094 67580 41970 10910 10316 20146 48/// 70500 80002
                   333 59010 81080=
202110151200 AAXX 15124 67580 41776 61202 10346 20138 48/// 70511 86230
                   333 59015 86857 81361=
202110150600 AAXX 15064 67580 11976 00903 10266 20146 48/// 69904 70500
                   333 10335 20179 5////
                   555 00/// 20992=
202110141200 AAXX 14124 67580 41775 70902 10309 20130 48/// 70522 87230
                   333 59009 85850 84360=
202110140900 AAXX 14094 67580 41675 61005 10310 20135 48/// 70511 82130
                   333 59008 82844 84360=
202110140600 AAXX 14064 67580 11676 60904 10268 20145 48/// 69924 70522 82130
                   333 10336 20188 59009 82830 85360
                   555 00/// 20000=
202110130900 AAXX 13094 67580 41675 40000 10286 20129 48/// 70510 84130
                   333 5//// 84840 81362=
202110130600 AAXX 13064 67580 31975 11507 10218 20127 48/// 70500 81030
                   333 10260 20146 59026 81360
                   555 00/// 20990=
202110121200 AAXX 12124 67580 41675 71209 10254 20142 48/// 70522 83108
                   333 58004 83840 87280=
202110120900 AAXX 12094 67580 41575 80000 10209 20141 48/// 70552 885//
                   333 5//// 88618=
202110120600 AAXX 12064 67580 11575 81008 10188 20137 48/// 69904 75022 875//
                   333 10295 20176 58009 87620
                   555 00/// 20000=
202110110900 AAXX 11094 67580 41665 71505 10230 20139 48/// 70522 87808
                   333 5//// 83832 84634 85280=
202110100900 AAXX 10094 67580 41970 01003 10344 20095 48/// 70500
                   333 5////=
202110100600 AAXX 10064 67580 31970 60000 10260 20144 48/// 70511 80001
                   333 10368 20194 5//// 86080=
202110081200 AAXX 08124 67580 41975 71507 10333 20091 48/// 70522 80008
                   333 5//// 87280=
202110070900 AAXX 07094 67580 41675 11606 10304 20135 48/// 70500 81100
                   333 58009 81845=
202110070600 AAXX 07064 67580 11975 01507 10260 20144 48/// 69914 70500 80001
                   333 10344 20194 58010 81080=
202110060600 AAXX 06064 67580 31975 01205 10256 20150 48/// 70500
                   333 10336 20178 58000=
202110041200 AAXX 04124 67580 41775 71205 10335 20148 48/// 70522 8523/
                   333 58017 85856 87360=
202110040900 AAXX 04094 67580 60906 10310 10146 48/// 70521 86230
                   333 58017 86850 81360=
202110011200 AAXX 01124 67580 41770 70903 10315 20144 48/// 70522 87200
                   333 59002 87856=
202110010900 AAXX 01094 67580 41670 60903 10302 20150 48/// 70511 86100
                   333 58008 86844=

################################################################################
#  SYNOPS from 67581, Chipata (Zambia) | 13-33S | 032-35E | 1028 m
################################################################################
202110291200 AAXX 29124 67581 NIL=
202110290600 AAXX 29064 67581 31970 01508 10235 20138 48550 70500
                   333 10//0 20182 59019
                   555 00/// 20000 91021=
202110280900 AAXX 28094 67581 NIL=
202110280600 AAXX 28064 67581 31570 71703 10226 20174 48567 70522 84232
                   333 10//0 20208 59006 84823 85360 83360
                   555 00/// 20001 91022=
202110270900 AAXX 27094 67581 41680 70608 10286 20177 48584 70522 872//
                   333 58010 87845 91022=
202110270600 AAXX 27064 67581 11680 50908 10260 20174 48581 60001 70521 84232
                   333 10/// 20220 58017 84835 81360 81080
                   555 00/// 91023=
202110251200 AAXX 25124 67581 NIL=
202110250900 AAXX 25094 67581 NIL=
202110221200 AAXX 22124 67581 41780 50403 10340 20160 48541 70511 85100
                   333 59009 85856 91016=
202110220600 AAXX 22064 67581 31980 00612 10254 20149 48553 70500
                   333 10//0 20199 59020
                   555 00/// 91020=
202110210600 AAXX 21064 67581 31560 31802 10221 20152 48565 70500 83102
                   333 10//0 20174 58004 83822 83080
                   555 00/// 20990 91022=
202110200600 AAXX 20064 67581 11560 50706 10241 20156 48560 69904 70522 82102
                   333 10//0 20184 58016 82825 83080
                   555 00/// 20000 91022=
202110191200 AAXX 19124 67581 NIL=
202110180900 AAXX 18094 67581 42980 10503 10325 20167 48527 80001
                   333 58008 81080 91016=
202110180600 AAXX 18064 67581 32980 00406 10265 20165 48530
                   333 10//0 20234 58007
                   555 00/// 20000 91017=
202110170900 AAXX 17094 67581 NIL=
202110170600 AAXX 17064 67581 31980 03607 10272 20152 48525 70500
                   333 10//0 20238 59005
                   555 00/// 20000 91017=
202110151200 AAXX 15124 67581 NIL=
202110150600 AAXX 15064 67581 11980 00706 10265 20147 48551 69904 70500
                   333 10//0 20206 59004
                   555 00/// 91020=
202110141200 AAXX 14124 67581 NIL=
202110140900 AAXX 14094 67581 NIL=
202110140600 AAXX 14064 67581 32980 70908 10262 20140 48555 8703/
                   333 10//0 20202 59007 87360
                   555 00/// 91020=
202110130900 AAXX 13094 67581 41680 40901 10276 20119 48553 70500 84130
                   333 59032 84840 81360 91020=
202110130600 AAXX 13064 67581 31980 11801 10225 20130 48555 70500 81030
                   333 10//0 20139 59026 81360
                   555 00/// 91021=
202110121200 AAXX 12124 67581 41680 71206 10255 20140 48554 70522 83108
                   333 58007 83840 87280 91021=
202110120900 AAXX 12094 67581 41580 81401 10218 20141 48575 70552 885//
                   333 58004 88618=
202110120600 AAXX 12064 67581 32480 81202 10192 20138 48573 875//
                   333 10//0 20178 58005 87618
                   555 00/// 91024=
202110110900 AAXX 11094 67581 NIL=
202110100900 AAXX 10094 67581 NIL=
202110081200 AAXX 08124 67581 41980 71505 10325 20089 48521 70522 80008
                   333 59015 87280 91015=
202110070900 AAXX 07094 67581 NIL=
202110060900 AAXX 06094 67581 41980 00605 10303 20125 48560 70500
                   333 58004 91020=
202110060600 AAXX 06064 67581 31980 01305 10246 20147 48550 70500
                   333 10//0 20202 59003
                   555 00/// 91020=
202110050600 AAXX 05064 67581 31975 21512 10245 20181 48553 70500 82030
                   333 10//0 20222 58018 82360
                   555 00/// 91021=
202110041200 AAXX 04124 67581 41780 70901 10336 20142 48516 70522 8523/
                   333 58015 85856 87360 91015=
202110040900 AAXX 04094 67581 41680 20604 10320 20162 48548 70500 82100
                   333 58020 82830 91018=
202110010900 AAXX 01094 67581 41680 50708 10293 20153 48549 70522 85200
                   333 58006 85840 91019=
202110010600 AAXX 01064 67581 31980 21206 10246 20158 48548 70500 82030
                   333 10//0 20202 58004 82360
                   555 00/// 91020=

################################################################################
#  SYNOPS from 67583, Lundazi (Zambia) | 12-17S | 033-12E | 1143 m
################################################################################
202110291200 AAXX 29124 67583 NIL=
202110290600 AAXX 29064 67583 31959 11503 10234 20129 48/// 70500 80001
                   333 10310 2//// 5//// 81080
                   555 00/// 20000=
202110281200 AAXX 28124 67583 41759 51506 10296 20162 48/// 70522 85200
                   333 5//// 85850=
202110280900 AAXX 28094 67583 41659 61503 10270 20171 48/// 70522 86200
                   333 5//// 86834=
202110280600 AAXX 28064 67583 11859 81203 10210 20188 48/// 69904 76162 8803/
                   333 10312 2//// 5//// 88358
                   555 00///=
202110270900 AAXX 27094 67583 41759 61205 10300 20159 48/// 70522 86200
                   333 5//// 86850=
202110270600 AAXX 27064 67583 31959 60603 10266 20174 48/// 70522 86030
                   333 10374 2//// 5//// 86359
                   555 00///=
202110251200 AAXX 25124 67583 NIL=
202110250900 AAXX 25094 67583 NIL=
202110221200 AAXX 22124 67583 NIL=
202110210600 AAXX 21064 67583 31560 50904 10230 20159 48/// 70500 85500
                   333 10308 2//// 5//// 85625
                   555 00/// 20000=
202110200600 AAXX 20064 67583 NIL=
202110191200 AAXX 19124 67583 NIL=
202110190600 AAXX 19064 67583 31558 11804 10246 20158 48/// 70500 81202
                   333 10344 2//// 5//// 81825 81080
                   555 00///=
202110180900 AAXX 18094 67583 NIL=
202110180600 AAXX 18064 67583 31958 11001 10246 20160 48/// 70500 81032
                   333 10360 2//// 5//// 81359 81080=
202110170900 AAXX 17094 67583 NIL=
202110170600 AAXX 17064 67583 31958 10902 10274 20148 48/// 70500 80001
                   333 10348 2//// 5//// 81080=
202110151200 AAXX 15124 67583 NIL=
202110150600 AAXX 15064 67583 31958 11703 10262 20143 48/// 70500 81030
                   333 10320 2//// 5//// 81359=
202110141200 AAXX 14124 67583 NIL=
202110140900 AAXX 14094 67583 41658 70902 10304 20138 48/// 70522 82130
                   333 5//// 82835 86359=
202110140600 AAXX 14064 67583 NIL=
202110130900 AAXX 13094 67583 41658 50902 10292 20130 48/// 70522 85231
                   333 5//// 85840 81360 81080=
202110130600 AAXX 13064 67583 31958 40902 10204 20140 48/// 70500 83031
                   333 10300 2//// 5//// 83360 81080=
202110121200 AAXX 12124 67583 41757 72103 10270 20134 48/// 70522 84238
                   333 5//// 84850 81359 87280=
202110120900 AAXX 12094 67583 NIL=
202110120600 AAXX 12064 67583 31457 81205 10192 20143 48/// 70522 885//
                   333 10298 2//// 5//// 88615
                   555 00///=
202110110900 AAXX 11094 67583 41657 71503 10270 20152 48/// 70522 84248
                   333 5//// 84842 81358 87280=
202110100900 AAXX 10094 67583 41758 11604 10346 20078 48/// 70500 81101
                   333 5//// 81856 81080=
202110100600 AAXX 10064 67583 31958 00602 10267 20149 48/// 70500
                   333 10352 2//// 5////
                   555 00///=
202110070900 AAXX 07094 67583 41759 51503 10290 20147 48/// 70510 84101
                   333 5//// 84850 81080=
202110060600 AAXX 06064 67583 31959 00000 10242 20146 48/// 70500
                   333 10322 2//// 5////
                   555 00///=
202110041200 AAXX 04124 67583 NIL=
202110040900 AAXX 04094 67583 41960 00000 10310 20161 48/// 70500
                   333 5////=
202110040600 AAXX 04064 67583 11960 40000 10250 20180 48/// 60034 70500 84030
                   333 10335 20//0 5//// 84360 20000=
202110010600 AAXX 01064 67583 31960 00000 10250 20162 48/// 70500
                   333 10284 20//0 5////
                   555 00///=

################################################################################
#  SYNOPS from 67599, Mfuwe (Zambia) | 13-16S | 031-56E | 568 m
################################################################################
202110291200 AAXX 29124 67599 NIL=
202110280900 AAXX 28094 67599 NIL=
202110280600 AAXX 28064 67599 32980 71311 10261 20184 48569 8707/
                   333 10390 20254 58002 87460 91020=
202110270600 AAXX 27064 67599 32980 20911 10296 20191 48577 81131
                   333 10403 20230 58015 81837 81362 81080
                   555 00/// 91020=
202110251200 AAXX 25124 67599 NIL=
202110250900 AAXX 25094 67599 NIL=
202110221200 AAXX 22124 67599 NIL=
202110210600 AAXX 21064 67599 32680 21403 10243 20169 48566 82100
                   333 10370 20180 58007 82838
                   555 00/// 91021=
202110200600 AAXX 20064 67599 31970 20805 10264 20180 48567 70500 82100
                   333 10380 20210 82838
                   555 00/// 91020=
202110191200 AAXX 19124 67599 NIL=
202110180900 AAXX 18094 67599 NIL=
202110170900 AAXX 17094 67599 NIL=
202110151200 AAXX 15124 67599 NIL=
202110150600 AAXX 15064 67599 11958 61305 10261 20188 48525 60014 70522 86072
                   333 10373 20198 59005 86460 82080
                   555 00/// 20000 91017=
202110141200 AAXX 14124 67599 NIL=
202110140900 AAXX 14094 67599 NIL=
202110140600 AAXX 14064 67599 NIL=
202110130600 AAXX 13064 67599 31970 11402 10224 20141 48547 70500 81030
                   333 10295 20144 59028 81360 91020=
202110121200 AAXX 12124 67599 NIL=
202110120900 AAXX 12094 67599 NIL=
202110120600 AAXX 12064 67599 32580 71806 10220 20158 48571 875//
                   333 10358 20195 58013 87625
                   555 00/// 91022=
202110110900 AAXX 11094 67599 41657 60909 10295 20162 48556 70521 8317/
                   333 58054 83840 86460 91020=
202110100900 AAXX 10094 67599 NIL=
202110070900 AAXX 07094 67599 NIL=
202110070600 AAXX 07064 67599 31970 01804 10276 20161 48556 70500
                   333 10382 20212 58011 91018=
202110060600 AAXX 06064 67599 31959 01804 10268 20166 48546 70500
                   333 10372 20205 58001 91017=
202110041200 AAXX 04124 67599 NIL=
202110040900 AAXX 04094 67599 NIL=
202110010600 AAXX 01064 67599 31958 01006 10275 20177 48541 70500
                   333 10395 20205 58000
                   555 00/// 91017=

################################################################################
#  SYNOPS from 67625, Kalabo (Zambia) | 14-51S | 022-42E | 1033 m
################################################################################
202110291200 AAXX 29124 67625 42782 23613 10320 20164 48/// 82130
                   333 59014 82856 82360=
202110290600 AAXX 29064 67625 12982 73308 10215 20189 48/// 69904 8703/
                   333 10317 20185 59029 87360
                   555 00/// 20997=
202110280900 AAXX 28094 67625 42682 70313 10280 20183 48/// 83103
                   333 59004 83837 87075=
202110280600 AAXX 28064 67625 12982 72007 10215 20189 48/// 69904 86033
                   333 10335 20195 58019 86360 87075
                   555 00/// 20004=
202110270900 AAXX 27094 67625 42982 51018 10292 20167 48/// 81033
                   333 58009 81360 85075=
202110270600 AAXX 27064 67625 12982 72104 10216 20189 48/// 60044 81033
                   333 10335 20184 58018 81360 87075
                   555 00/// 20000=
202110251200 AAXX 25124 67625 NIL=
202110250900 AAXX 25094 67625 NIL=
202110221200 AAXX 22124 67625 41780 73312 10320 20180 48/// 81103
                   333 59017 81850 87075=
202110220600 AAXX 22064 67625 31980 70804 10205 20190 48/// 70522 82033
                   333 10280 20180 59012 83360 87075
                   555 00/// 20001=
202110211200 AAXX 21124 67625 41980 81213 10262 20167 48/// 70522 8803/
                   333 58004 88360=
202110210600 AAXX 21064 67625 11980 82513 10198 20186 48/// 60014 70522 8802/
                   333 10315 20195 58021 88460
                   555 00/// 20990=
202110200600 AAXX 20064 67625 11980 80911 10210 20178 48/// 69904 70522 8803/
                   333 10300 20198 58012 88360
                   555 00/// 20993=
202110191200 AAXX 19124 67625 41980 80105 10265 20174 48/// 70522 8803/
                   333 88360=
202110180900 AAXX 18094 67625 NIL=
202110180600 AAXX 18064 67625 11980 72105 10215 20185 48/// 60024 70522 86033
                   333 10355 20190 58015 86360 87075
                   555 00/// 20000=
202110170900 AAXX 17094 67625 NIL=
202110170600 AAXX 17064 67625 31980 53318 10220 20171 48/// 70522 80003
                   333 10360 20180 59009 85075
                   555 00/// 20000=
202110151200 AAXX 15124 67625 41980 63516 10365 20025 48/// 70522 80003
                   333 59012 86075=
202110150600 AAXX 15064 67625 31980 70615 10220 20049 48/// 70522 80003
                   333 10355 20160 59009 87075
                   555 00/// 20000=
202110141200 AAXX 14124 67625 41980 00315 10350 20031 48/// 70500
                   333 59008=
202110140900 AAXX 14094 67625 41980 00818 10320 20050 48/// 70500
                   333 59010=
202110140600 AAXX 14064 67625 31980 00812 10210 20060 48/// 70500
                   333 10350 20160 59020
                   555 00/// 20000=
202110130900 AAXX 13094 67625 41980 31517 10304 20060 48/// 70500 80003
                   333 59021 83075=
202110130600 AAXX 13064 67625 31980 31220 10225 20081 48/// 70500 80003
                   333 10345 20156 59004 83075
                   555 00/// 20000=
202110121200 AAXX 12124 67625 41880 11618 10335 20079 48/// 70500 81100
                   333 58017 81057=
202110120900 AAXX 12094 67625 41980 00626 10289 20128 48/// 70500
                   333 58023=
202110120600 AAXX 12064 67625 31980 50921 10217 20132 48/// 70522 80003
                   333 10360 20175 58034 85075
                   555 00/// 20000=
202110110900 AAXX 11094 67625 41980 60829 10310 20110 48/// 70522 80003
                   333 86075=
202110100900 AAXX 10094 67625 NIL=
202110081200 AAXX 08124 67625 41880 10606 10349 20090 48/// 70500 81100
                   333 59019 81857=
202110070900 AAXX 07094 67625 41680 21607 10289 20187 48/// 70500 81103
                   333 59006 81839 82075=
202110060600 AAXX 06064 67625 NIL=
202110041200 AAXX 04124 67625 NIL=
202110040900 AAXX 04094 67625 NIL=

################################################################################
#  SYNOPS from 67633, Mongu (Zambia) | 15-15S | 023-09E | 1052 m
################################################################################
202110291200 AAXX 29124 67633 NIL=
202110280900 AAXX 28094 67633 NIL=
202110270900 AAXX 27094 67633 42980 20901 10302 20174 48539 80001
                   333 58007 82080 91019=
202110270600 AAXX 27064 67633 32980 32702 10224 20174 48538 80001
                   333 10352 20186 58021 83080
                   555 00176 20000 91020=
202110251200 AAXX 25124 67633 NIL=
202110250900 AAXX 25094 67633 NIL=
202110221200 AAXX 22124 67633 42680 33303 10340 20146 48512 82201
                   333 59017 82835 81080
                   555 91015=
202110210900 AAXX 21094 67633 42980 71902 10215 20186 48534 70100 8707/
                   333 58020 87360 91020=
202110210600 AAXX 21064 67633 12980 71804 10210 20188 48534 60014 70100 8707/
                   333 10323 20205 58022 87360
                   555 00193 91020=
202110200900 AAXX 20094 67633 42980 60906 10270 20175 70200 86030
                   333 59002 86360 91018=
202110200600 AAXX 20064 67633 32980 70910 10220 20163 48526 70200 8703/
                   333 10313 20200 58019 87360
                   555 00195 20000 91020=
202110191200 AAXX 19124 67633 41980 83005 10260 20177 48508 70522 8803/
                   333 58014 88360 91016=
202110180900 AAXX 18094 67633 41980 81803 10266 20172 48510 8807/
                   333 58011 88460 91016=
202110180600 AAXX 18064 67633 32980 72701 10221 20180 48504 87030
                   333 10363 20204 58023 87360
                   555 00195 20000 91016=
202110170900 AAXX 17094 67633 NIL=
202110151200 AAXX 15124 67633 42980 00000 10365 20069 48485
                   333 59015 91012=
202110150600 AAXX 15064 67633 32980 10906 10244 20059 48509 80001
                   333 10367 20162 59009 81080
                   555 00120 91016=
202110141200 AAXX 14124 67633 42980 03605 10364 20052 48501
                   333 59020 91013=
202110140900 AAXX 14094 67633 NIL=
202110140600 AAXX 14064 67633 32980 00905 10240 20063 48518
                   333 10353 20176 59017
                   555 00150 91017=
202110130900 AAXX 13094 67633 42980 10603 10314 20099 48530 70200
                   333 59021 81080 91018=
202110130600 AAXX 13064 67633 32980 10905 10240 20102 48529 70200 80001
                   333 10348 20180 59018 81080
                   555 00150 91019=
202110121200 AAXX 12124 67633 NIL=
202110120900 AAXX 12094 67633 NIL=
202110120600 AAXX 12064 67633 NIL=
202110110900 AAXX 11094 67633 NIL=
202110100900 AAXX 10094 67633 42980 01003 10361 20132 48518
                   333 5//// 91015=
202110100600 AAXX 10064 67633 32980 40903 10266 20120 48508 84030
                   333 10383 20209 5//// 84360
                   555 00/// 91016=
202110070900 AAXX 07094 67633 42880 10903 10293 20189 48544 81102
                   333 58005 81857 81080 91019=
202110060900 AAXX 06094 67633 42980 70406 10303 20174 48541 83037
                   333 58004 83360 87280 91019=
202110060600 AAXX 06064 67633 12980 70402 10236 20174 48522 69944 8703/
                   333 10350 20220 59003 87360
                   555 00203 91018=
202110041200 AAXX 04124 67633 42680 53602 10335 20177 48505 85200
                   333 58010 85840 555 91014=
202110040900 AAXX 04094 67633 42680 23605 10296 20191 48531 70300 81101
                   333 58020 81835 81080
                   555 91018=

################################################################################
#  SYNOPS from 67641, Kaoma (Zambia) | 14-48S | 024-48E | 1213 m
################################################################################
202110291200 AAXX 29124 67641 42880 23605 10328 20159 48503 82100
                   333 59012 82857 91015=
202110290900 AAXX 29094 67641 42780 22804 10285 20168 48517 81100
                   333 59016 81856 91016=
202110290600 AAXX 29064 67641 11970 21102 10230 20194 48513 60054 70500 81031
                   333 10348 20188 59019 81360 81080
                   555 00/// 20000 91017=
202110280900 AAXX 28094 67641 NIL=
202110280600 AAXX 28064 67641 31975 30902 10255 20174 48534 70510 82031
                   333 10364 20203 58003 82360 81080
                   555 00/// 20000 91020=
202110270900 AAXX 27094 67641 41875 11503 10310 20144 48536 70500 81101
                   333 58011 81857 81080 91018=
202110270600 AAXX 27064 67641 31965 21002 10245 20171 48530 70500 80001
                   333 10355 20192 58010 82080
                   555 00/// 20000 91018=
202110251200 AAXX 25124 67641 41670 71403 10325 20174 48512 70522 83230
                   333 59002 83845 85361
                   555 91016=
202110250900 AAXX 25094 67641 42980 71403 10275 20181 48531 70262 87030
                   333 58000 87361 555 91018=
202110221200 AAXX 22124 67641 NIL=
202110210600 AAXX 21064 67641 31975 40703 10226 20147 48517 70510 81031
                   333 10336 20190 59018 81360 84080
                   555 00/// 20000 91017=
202110200600 AAXX 20064 67641 31970 71105 10212 20164 48533 70522 8707/
                   333 10320 20188 58017 87361
                   555 00/// 20000 91020=
202110191200 AAXX 19124 67641 NIL=
202110180900 AAXX 18094 67641 NIL=
202110170900 AAXX 17094 67641 NIL=
202110151200 AAXX 15124 67641 NIL=
202110150900 AAXX 15094 67641 41970 20803 10320 20117 48505 70500 80001
                   333 59017 82080 91015=
202110150600 AAXX 15064 67641 31970 23602 10238 20103 48500 70500 80001
                   333 10355 20142 59017 82080
                   555 00/// 20000 91015=
202110141200 AAXX 14124 67641 NIL=
202110140900 AAXX 14094 67641 NIL=
202110140600 AAXX 14064 67641 31960 00802 10202 20089 48512 70500
                   333 10335 20124 59014
                   555 00/// 20000 91017=
202110130900 AAXX 13094 67641 41970 11007 10295 20090 48533 70500 80001
                   333 59018 81080 555 91018=
202110130600 AAXX 13064 67641 31970 01003 10222 20123 48528 70500
                   333 10334 20142 59023
                   555 00/// 20000 91019=
202110121200 AAXX 12124 67641 41775 11205 10320 20124 48522 70500 81100
                   333 58008 81856 555 91017=
202110120900 AAXX 12094 67641 41975 01204 10290 20137 48552 70500
                   333 58019 555 91021=
202110120600 AAXX 12064 67641 32980 11004 10218 20135 48551 70100 80001
                   333 10334 20172 58059 81082
                   555 00/// 20000 91022=
202110110900 AAXX 11094 67641 41958 01010 10296 20145 48530 70500
                   333 58029 91018=
202110100900 AAXX 10094 67641 NIL=
202110070900 AAXX 07094 67641 41965 10704 10300 20158 48538 70500 80001
                   333 58009 81080 555 91019=
202110070600 AAXX 07064 67641 31960 62601 10208 20183 48517 70521 80001
                   333 10350 20178 58000 86080
                   555 00/// 20000 91018=
202110060600 AAXX 06064 67641 31965 71302 10232 20179 48520 70522 87030
                   333 10327 20202 58011 87362
                   555 00/// 20155 91018=
202110050600 AAXX 05064 67641 11970 71002 10234 20186 48510 60154 70522 87030
                   333 10345 20183 58003 87360
                   555 00/// 20990 91016=
202110041200 AAXX 04124 67641 NIL=
202110040900 AAXX 04094 67641 NIL=
202110011200 AAXX 01124 67641 41858 10704 10338 20146 48485 70500 81100
                   333 58004 81857 555 91013=
202110010900 AAXX 01094 67641 41958 00406 10305 20140 48516 70500
                   333 58006 91016=

################################################################################
#  SYNOPS from 67655, Mumbwa (Zambia) | 15-04S | 027-11E | 1216 m
################################################################################
202110291200 AAXX 29124 67655 NIL=
202110290600 AAXX 29064 67655 31980 31010 10230 20137 48536 70500 80001
                   333 10330 20160 59015 83080
                   555 00/// 91019=
202110280900 AAXX 28094 67655 NIL=
202110280600 AAXX 28064 67655 32980 00921 10240 20164 48550
                   333 10337 20150 58003
                   555 00/// 91021=
202110270600 AAXX 27064 67655 32980 50916 10255 20172 48548 80001
                   333 10330 20160 58014 85080
                   555 00/// 91021=
202110251200 AAXX 25124 67655 NIL=
202110250900 AAXX 25094 67655 NIL=
202110250600 AAXX 25064 67655 01005 10256 10156 48538 70500
                   333 10350 20213 58001
                   555 00/// 91020=
202110221200 AAXX 22124 67655 NIL=
202110220600 AAXX 22064 67655 32980 00814 10212 20156 48531
                   333 10299 20113 59019
                   555 00/// 91019=
202110210600 AAXX 21064 67655 31980 01012 10180 20141 48543 70500
                   333 10285 20151 58014
                   555 00/// 91021=
202110200600 AAXX 20064 67655 11480 41010 10207 20162 48531 60014 82101
                   333 10251 20161 82820 83080
                   555 00/// 91019=
202110191200 AAXX 19124 67655 NIL=
202110180900 AAXX 18094 67655 NIL=
202110170900 AAXX 17094 67655 NIL=
202110151200 AAXX 15124 67655 NIL=
202110141200 AAXX 14124 67655 NIL=
202110140900 AAXX 14094 67655 NIL=
202110140600 AAXX 14064 67655 NIL=
202110130600 AAXX 13064 67655 31958 00814 10200 20120 48545 70500
                   333 10370 20090 59019 91021=
202110121200 AAXX 12124 67655 NIL=
202110120900 AAXX 12094 67655 NIL=
202110120600 AAXX 12064 67655 NIL=
202110110900 AAXX 11094 67655 NIL=
202110100900 AAXX 10094 67655 NIL=
202110070900 AAXX 07094 67655 NIL=
202110060600 AAXX 06064 67655 31980 41008 10240 20134 48536 70500 80001
                   333 10321 20190 58001 84080
                   555 00/// 91019=
202110041200 AAXX 04124 67655 NIL=
202110040900 AAXX 04094 67655 41658 60608 10272 20166 48538 70522 81130
                   333 58018 81835 86360 91019=

################################################################################
#  SYNOPS from 67659, Kafue Polder (Zambia) | 15-46S | 027-55E | 978 m
################################################################################
202110291200 AAXX 29124 67659 NIL=
202110280900 AAXX 28094 67659 NIL=
202110270600 AAXX 27064 67659 NIL=
202110251200 AAXX 25124 67659 NIL=
202110250900 AAXX 25094 67659 NIL=
202110221200 AAXX 22124 67659 NIL=
202110210600 AAXX 21064 67659 NIL=
202110200600 AAXX 20064 67659 NIL=
202110191200 AAXX 19124 67659 NIL=
202110180900 AAXX 18094 67659 NIL=
202110170900 AAXX 17094 67659 NIL=
202110151200 AAXX 15124 67659 NIL=
202110141200 AAXX 14124 67659 NIL=
202110140900 AAXX 14094 67659 NIL=
202110140600 AAXX 14064 67659 NIL=
202110130600 AAXX 13064 67659 NIL=
202110121200 AAXX 12124 67659 NIL=
202110120900 AAXX 12094 67659 NIL=
202110120600 AAXX 12064 67659 NIL=
202110110900 AAXX 11094 67659 NIL=
202110100900 AAXX 10094 67659 NIL=
202110070900 AAXX 07094 67659 NIL=
202110060600 AAXX 06064 67659 NIL=
202110041200 AAXX 04124 67659 NIL=
202110040900 AAXX 04094 67659 NIL=

################################################################################
#  SYNOPS from 67662, Kabwe Agric (Zambia) | 14-24S | 028-30E | 1165 m
################################################################################
202110291200 AAXX 29124 67662 NIL=
202110280900 AAXX 28094 67662 NIL=
202110270600 AAXX 27064 67662 NIL=
202110251200 AAXX 25124 67662 NIL=
202110250900 AAXX 25094 67662 NIL=
202110221200 AAXX 22124 67662 NIL=
202110210600 AAXX 21064 67662 NIL=
202110200600 AAXX 20064 67662 NIL=
202110191200 AAXX 19124 67662 NIL=
202110180900 AAXX 18094 67662 NIL=
202110170900 AAXX 17094 67662 NIL=
202110151200 AAXX 15124 67662 NIL=
202110141200 AAXX 14124 67662 NIL=
202110140900 AAXX 14094 67662 NIL=
202110140600 AAXX 14064 67662 NIL=
202110130600 AAXX 13064 67662 NIL=
202110121200 AAXX 12124 67662 NIL=
202110120900 AAXX 12094 67662 NIL=
202110120600 AAXX 12064 67662 NIL=
202110110900 AAXX 11094 67662 NIL=
202110100900 AAXX 10094 67662 NIL=
202110070900 AAXX 07094 67662 NIL=
202110060600 AAXX 06064 67662 NIL=
202110041200 AAXX 04124 67662 NIL=
202110040900 AAXX 04094 67662 NIL=

################################################################################
#  SYNOPS from 67663, Kabwe (Zambia) | 14-27S | 028-28E | 1206 m
################################################################################
202110291200 AAXX 29124 67663 NIL=
202110290600 AAXX 29064 67663 31970 20913 10225 20131 48526 70500 80002
                   333 10302 20148 59013 82080
                   555 00314=
202110280900 AAXX 28094 67663 NIL=
202110280600 AAXX 28064 67663 31570 10810 10243 20155 48539 70500 81140
                   333 10385 20099 5//// 81620 81360
                   555 00318=
202110270600 AAXX 27064 67663 NIL=
202110251200 AAXX 25124 67663 NIL=
202110250900 AAXX 25094 67663 NIL=
202110221200 AAXX 22124 67663 NIL=
202110220600 AAXX 22064 67663 31970 00909 10219 20150 48533 70500
                   333 10288 20162 59016
                   555 00///=
202110211200 AAXX 21124 67663 41570 41005 10285 20143 48511 70500 83202
                   333 59019 83824 83080=
202110210900 AAXX 21094 67663 41570 20912 10250 20144 48534 70500 82102
                   333 59010 82820=
202110210600 AAXX 21064 67663 31470 20907 10194 20142 48545 70500 82502
                   333 10284 20110 58005 82616 81060
                   555 00///=
202110200600 AAXX 20064 67663 31470 10907 10214 20158 48541 70500 81100
                   333 10278 20166 59000 81618
                   555 00///=
202110191200 AAXX 19124 67663 41470 61404 10265 20164 48528 70522 83230
                   333 58044 83822 84360=
202110190600 AAXX 19064 67663 31970 81006 10226 20163 48544 70522 8807/
                   333 10357 20211 58032 88460
                   555 00///=
202110180900 AAXX 18094 67663 41970 00306 10319 20157 48513 70500
                   333 58010=
202110180600 AAXX 18064 67663 31970 00204 10255 20133 48516 70500
                   333 10358 20200 58021
                   555 00///=
202110170900 AAXX 17094 67663 NIL=
202110170600 AAXX 17064 67663 31970 50204 10234 20167 48494 70522 85030
                   333 10344 20196 59012 85360
                   555 00///=
202110151200 AAXX 15124 67663 41570 31805 10343 20088 48/// 70500 83202
                   333 59005 83828 81080=
202110150600 AAXX 15064 67663 31970 00405 10235 20132 48530 70500
                   333 10322 20168 58005
                   555 00///=
202110141200 AAXX 14124 67663 41570 22704 10314 20091 48500 70500 82200
                   333 59039 82828=
202110140900 AAXX 14094 67663 NIL=
202110140600 AAXX 14064 67663 31970 00905 10242 20076 48526 70500
                   333 10302 20168 59013
                   555 00///=
202110130900 AAXX 13094 67663 41970 01309 10264 20071 48555 70500
                   333 59001=
202110130600 AAXX 13064 67663 31970 00615 10202 20119 48537 70500
                   333 10282 20131 58000
                   555 00300=
202110121200 AAXX 12124 67663 41570 51009 10277 20111 48530 70522 85102
                   333 5//// 85825 81080=
202110120900 AAXX 12094 67663 41570 10910 10233 48551 81502
                   333 58008 81622 81080=
202110120600 AAXX 12064 67663 31470 80815 10169 20125 48533 70522 886//
                   333 10295 20109 59005 88619
                   555 00202=
202110110900 AAXX 11094 67663 41970 00922 10255 20076 48545 70500
                   333 58034=
202110100900 AAXX 10094 67663 NIL=
202110081200 AAXX 08124 67663 41670 11009 10318 20124 48502 70500 81102
                   333 59025 81830 81080=
202110070900 AAXX 07094 67663 NIL=
202110070600 AAXX 07064 67663 31970 01006 10232 20138 48574 70500
                   333 10328 20174 59000
                   555 00///=
202110060600 AAXX 06064 67663 31970 00904 10231 20150 48574 70500
                   333 10302 20293 59007
                   555 00///=
202110051200 AAXX 05124 67663 41570 41205 10294 20175 48522 70522 82230
                   333 58011 82826 83360
                   555 00///=
202110050600 AAXX 05064 67663 11970 30904 10224 20175 48525 60044 70500 83030
                   333 10248 20192 58003 83360
                   555 00///=
202110041200 AAXX 04124 67663 NIL=
202110040900 AAXX 04094 67663 NIL=
202110040600 AAXX 04064 67663 11970 82907 10213 20179 48522 69974 70562 8807/
                   333 10285 20204 58025 88460
                   555 00212=
202110010900 AAXX 01094 67663 41570 10813 10282 20155 48525 70500 81102
                   333 58012 81828 81080=
202110010600 AAXX 01064 67663 31970 10611 10228 20157 48508 70500 80002
                   333 10333 20184 58003 81080
                   555 00272=

################################################################################
#  SYNOPS from 67665, Lusaka Internationalairport (Zambia) | 15-19S | 028-27E | 1152 m
################################################################################
202110312100 AAXX 31214 67665 41970 09901 10228 20088 48501 70500
                   333 59001=
202110311800 AAXX 31184 67665 41760 49902 10282 20084 48498 70500 84030
                   333 58002 84360 555 91015=
202110311500 AAXX 31154 67665 41660 51105 10338 20055 58483 70522 84320
                   333 59003 84850 82360
                   555 91013=
202110311200 AAXX 31124 67665 41659 59903 10331 20073 48499 70520 84130
                   333 58008 84835 82360
                   555 91015=
202110301800 AAXX 30184 67665 42980 11404 10274 20083 48495 81030
                   333 10350 59018 81360=
202110301500 AAXX 30154 67665 42680 21208 10327 20049 49485 82130
                   333 59022 82845 81360=
202110301200 AAXX 30124 67665 42980 51304 10347 20073 48493 85100
                   333 59024 85835=
202110300900 AAXX 30094 67665 41959 00603 10315 20086 48524 70500
                   333 59023 555 91017=
202110292100 AAXX 29214 67665 42980 09902 10198 20112 48509
                   333 59022=
202110291200 AAXX 29124 67665 41675 39904 10304 20094 48513 70500
                   333 59021 83840 91016=
202110290900 AAXX 29094 67665 42980 01209 10265 20105 48540
                   333 59014=
202110290600 AAXX 29064 67665 32980 20811 10222 20122 48544 80001
                   333 10299 20/// 59018 82080=
202110290300 AAXX 29034 67665 42980 01205 10169 20116 48521
                   333 59014=
202110290000 AAXX 29004 67665 42980 01206 10191 20114 48512
                   333 59024=
202110282100 AAXX 28214 67665 42980 01204 10206 20111 48532 70200
                   333 59012=
202110280900 AAXX 28094 67665 41670 30715 10276 20121 48556 70500 83500
                   333 59010 83630 91021=
202110280600 AAXX 28064 67665 31459 11017 10234 20136 48553 70500 81500
                   333 10320 20//0 59001 81615
                   555 00/// 91023=
202110271800 AAXX 27184 67665 42980 01109 10256 20125 48541
                   333 10324 58008=
202110271500 AAXX 27154 67665 42780 31015 10305 20106 48530 82230
                   333 58005 82850 81360
                   555 10324=
202110271200 AAXX 27124 67665 42680 40915 10302 20125 48540 84200
                   333 58005 84845=
202110270900 AAXX 27094 67665 42680 40718 10291 20170 48567 70322 85135
                   333 58015 85835 91023=
202110270600 AAXX 27064 67665 32980 00915 10251 20167 48566
                   333 10331 20/// 58019 91023=
202110261800 AAXX 26184 67665 42980 01205 10266 20105 48534
                   333 58009 555 91019=
202110260300 AAXX 26034 67665 42980 01003 10196 20123 48526
                   333 58009 555 91019=
202110260000 AAXX 26004 67665 42980 01205 10214 20116 48523
                   333 58019 555 91019=
202110252100 AAXX 25214 67665 42980 01206 10234 20089 48529
                   333 58014 555 91019=
202110251200 AAXX 25124 67665 NIL=
202110250900 AAXX 25094 67665 41959 00813 10//0 20096 48542 70500
                   333 58001 91020=
202110250600 AAXX 25064 67665 31959 71019 10274 20097 48542 80008
                   333 10360 20//0 58001 87280=
202110241800 AAXX 24184 67665 41970 21602 10284 20099 48510 70500 82032
                   333 58002 82360 82080
                   555 91016=
202110241500 AAXX 24154 67665 41659 71407 10327 20081 48497 71722 81932
                   333 59001 81945 84845 83360 82080
                   555 91014=
202110241200 AAXX 24124 67665 41659 51305 10346 20072 48516 70522 84132
                   333 58003 84830 83360 82080
                   555 91016=
202110231800 AAXX 23184 67665 41970 39903 10280 20067 48508 70500 83030
                   333 10351 59014 83360=
202110231200 AAXX 23124 67665 41660 53506 10350 20080 48513 85101
                   333 59009 85840 81080=
202110222100 AAXX 22214 67665 42980 01203 10225 20110 48517
                   333 59016=
202110221200 AAXX 22124 67665 42680 41703 10322 20084 48520 84100
                   333 59020 84835 91017=
202110220900 AAXX 22094 67665 42980 00805 10279 20125 48535
                   333 59019=
202110220600 AAXX 22064 67665 32980 00811 10219 20138 48546
                   333 10293 20/// 59015=
202110220300 AAXX 22034 67665 41960 01303 10153 20128 48519 70500
                   333 59012=
202110220000 AAXX 22004 67665 42980 01205 10160 20125 48519
                   333 59009=
202110212100 AAXX 21214 67665 41960 01204 10188 20128 48536 70500
                   333 59015=
202110211800 AAXX 21184 67665 41960 31206 10227 20129 48535 70500 82031
                   333 59014 82360 82080
                   555 91020=
202110211200 AAXX 21124 67665 41659 50709 10283 20120 48533 70522 85500
                   333 59015 85630 555 91019=
202110210900 AAXX 21094 67665 42580 60612 10245 20132 48561 86500
                   333 59011 86620 91022=
202110210600 AAXX 21064 67665 32380 80913 10184 20135 48555 70200 885//
                   333 10278 20//0 59006 88610
                   555 00/// 91023=
202110201800 AAXX 20184 67665 42980 01110 10214 20122 48546 70200
                   333 10278 59006=
202110201500 AAXX 20154 67665 42980 00913 10262 20111 48539 70200
                   333 58001 555 10278=
202110201200 AAXX 20124 67665 42680 30712 10258 20116 48546 83500
                   333 59007 83635=
202110200900 AAXX 20094 67665 41575 71015 10237 20131 48569 70522 875//
                   333 58004 87620 91024=
202110200600 AAXX 20064 67665 31470 80916 10199 20143 48563 70521 885//
                   333 10242 20//0 58013 88610
                   555 00/// 91024=
202110192100 AAXX 19214 67665 42980 50906 10190 20141 48556 85030
                   333 58014 85360 91023=
202110191800 AAXX 19184 67665 42960 51108 10208 20143 48553 85030
                   333 10242 20//0 58066 85360=
202110191200 AAXX 19124 67665 42560 71111 10229 20148 48539 70200 8453/
                   333 58063 84635 87360 91021=
202110190900 AAXX 19094 67665 42560 80914 10218 20136 48562 70222 885//
                   333 58057 88628=
202110190600 AAXX 19064 67665 32560 80815 10217 20152 48552 885//
                   333 10356 20/// 58047 88618=
202110190300 AAXX 19034 67665 41960 31207 10224 20144 48528 70500 83030
                   333 58040 83360 555 91019=
202110190000 AAXX 19004 67665 41959 31016 10220 20139 48510 70500 83030
                   333 58036 83360 555 91017=
202110182100 AAXX 18214 67665 41959 21118 10238 20131 48522 70500 82030
                   333 58031 82360 555 91018=
202110180900 AAXX 18094 67665 NIL=
202110180600 AAXX 18064 67665 31959 00609 10272 20079 48514 70500
                   333 10362 20/// 58007=
202110172100 AAXX 17214 67665 41965 59901 10242 20082 48491 70520 85030
                   333 59003 85360=
202110171800 AAXX 17184 67665 41959 32004 10280 20066 48483 70500
                   333 59003 83360 555 91013=
202110171500 AAXX 17154 67665 41759 30904 10344 20056 48474 70500 83101
                   333 59003 83850 82080
                   555 91012=
202110171200 AAXX 17124 67665 41659 40303 10347 20066 48487 70500 84101
                   333 59002 84835 82080
                   555 91013=
202110170900 AAXX 17094 67665 41959 23303 10318 20108 48513 70500 80001
                   333 59008 82080 91016=
202110170600 AAXX 17064 67665 31958 63204 10230 20132 48503 70502 85032
                   333 10352 20//0 59016 85360 82080
                   555 00/// 91016=
202110161800 AAXX 16184 67665 42980 01604 10251 20043 48583
                   333 10352 59014=
202110161500 AAXX 16154 67665 42680 21305 10338 20024 48477 82100
                   333 59016 82847=
202110161200 AAXX 16124 67665 42680 43008 10339 20027 48487 84100
                   333 59015 84845=
202110151200 AAXX 15124 67665 42680 50709 10331 20041 48503 85200
                   333 59013 91015=
202110150900 AAXX 15094 67665 42980 10505 10299 20092 48528 80001
                   333 59012 81080=
202110150600 AAXX 15064 67665 32980 01103 10226 20092 48531
                   333 10316 20/// 59010=
202110150300 AAXX 15034 67665 42980 01403 10166 20084 48510 70200
                   333 59009=
202110150000 AAXX 15004 67665 42980 01404 10170 20076 48508 70200
                   333 59003=
202110142100 AAXX 14214 67665 42980 01303 10204 20035 48521 70200
                   333 59006=
202110141200 AAXX 14124 67665 41775 21308 10306 20009 48493 70500 82100
                   333 59017 82856 91016=
202110140900 AAXX 14094 67665 42980 00708 10294 20030 48540
                   333 59016 555 91019=
202110140600 AAXX 14064 67665 31980 01007 10241 20002 48542 70500
                   333 10314 20//0 59013 91021=
202110131800 AAXX 13184 67665 42980 01205 10225 21030 48528 70200
                   333 10314 59028=
202110131200 AAXX 13124 67665 42980 01010 10299 21018 48528 70200
                   333 59022=
202110130900 AAXX 13094 67665 42980 01212 10269 20074 48552 70500
                   333 59026 91021=
202110130600 AAXX 13064 67665 31980 01008 10203 20097 48555
                   333 10292 20//0 59020 91023=
202110121800 AAXX 12184 67665 42980 01005 10196 20065 48554 70200
                   333 10292 20//0 59014
                   555 91021=
202110121200 AAXX 12124 67665 42680 40913 10289 20068 48549 70200 85501
                   333 59008 85645 82080 91021=
202110120900 AAXX 12094 67665 42680 30610 10236 20108 48575 81501
                   333 58002 81630 83080
                   555 91024=
202110120600 AAXX 12064 67665 31460 40913 10179 20109 48571 70500 84501
                   333 10281 20/// 58008 84618 82080
                   555 00/// 91025=
202110120300 AAXX 12034 67665 42980 01010 10157 20107 48552
                   333 58018 555 91023=
202110120000 AAXX 12004 67665 42980 01205 10162 20114 48550
                   333 58035 555 91023=
202110112100 AAXX 11214 67665 42980 01108 10185 20116 48560
                   333 58045 555 91023=
202110110900 AAXX 11094 67665 41370 40822 10241 20105 48572 70500 84500
                   333 58047 84610 91024=
202110110600 AAXX 11064 67665 31370 30925 10207 20112 48567 70500 83500
                   333 10378 20//0 58043 83608=
202110110300 AAXX 11034 67665 41970 01022 10205 20120 48541 70500
                   333 58039=
202110110000 AAXX 11004 67665 41970 01119 10242 20105 48525 70500
                   333 58032=
202110102100 AAXX 10214 67665 41970 01208 10244 20060 48523 70500
                   333 58006=
202110101800 AAXX 10184 67665 41960 01205 10278 20031 48517 70500
                   333 58003 555 91017=
202110101500 AAXX 10154 67665 41759 31110 10351 20016 48507 70500 83100
                   333 58004 83850 555 91015=
202110101200 AAXX 10124 67665 41958 00810 10356 20035 48510 70500
                   333 59001 555 91015=
202110100900 AAXX 10094 67665 41959 00409 10330 20071 48535 70500
                   333 59001 91019=
202110100600 AAXX 10064 67665 31959 01107 10267 20097 48533 70500
                   333 10345 20//0 59001
                   555 00/// 91019=
202110091500 AAXX 09154 67665 41659 21508 10333 20063 48500 70500 82100
                   333 59009 82845=
202110091200 AAXX 09124 67665 41659 51210 10342 20063 48509 70500 85200
                   333 59013 85835=
202110090900 AAXX 09094 67665 41959 00505 10306 20085 48534 70500
                   333 59016 555 91019=
202110081200 AAXX 08124 67665 41870 10807 10313 20067 48521 70500 81100
                   333 59012 81857 91017=
202110080900 AAXX 08094 67665 41959 00510 10276 20072 48547 70500
                   333 59008=
202110080600 AAXX 08064 67665 31959 01109 10220 20098 48541 70500
                   333 10330 20//0 59013=
202110080300 AAXX 08034 67665 42980 01105 10170 20099 48515
                   333 58014=
202110080000 AAXX 08004 67665 42980 01206 10186 20086 48514
                   333 58001=
202110072100 AAXX 07214 67665 42980 00204 10216 20057 48535
                   333 59010=
202110070900 AAXX 07094 67665 41975 00812 10291 20084 48557 70500
                   333 58001 555 91021=
202110070600 AAXX 07064 67665 42980 00811 10231 20124 48555 70200
                   333 10335 20//0 58007 91022=
202110061800 AAXX 06184 67665 42980 01105 10249 20009 48536 70200
                   333 10335 58003=
202110061500 AAXX 06154 67665 42980 21015 10312 21021 48527 80002
                   333 58008 82080 555 10335=
202110061200 AAXX 06124 67665 42680 21016 10327 20031 48535 81130
                   333 58001 81848 81360=
202110060900 AAXX 06094 67665 42680 10614 10295 20078 48556 70300 81530
                   333 59002 81640 81360 91021=
202110060600 AAXX 06064 67665 31960 00912 10233 20126 48548
                   333 10288 20//0 58002 91021=
202110051800 AAXX 05184 67665 41959 01106 10238 20161 48532 70500
                   333 10294 20//0 58005=
202110051500 AAXX 05154 67665 41659 30812 10275 20150 48517 70500 83100
                   333 59001 83845=
202110051200 AAXX 05124 67665 41559 50911 10285 20154 48529 70500 84102
                   333 58001 84838 81080=
202110050900 AAXX 05094 67665 41659 51012 10268 20164 48554 70522 85500
                   333 58003 85630=
202110050600 AAXX 05064 67665 31659 40914 10231 20172 48546 70522 84530
                   333 10290 20/// 58010 84635 82360=
202110050300 AAXX 05034 67665 42980 01105 10193 20144 48520
                   333 58010 555 91019=
202110042100 AAXX 04214 67665 42980 51304 10215 20143 48532 85030
                   333 58011 85360 555 91020=
202110041200 AAXX 04124 67665 41959 71211 10282 20129 48527 70522 87070
                   333 58017 87360 91018=
202110040900 AAXX 04094 67665 41959 71008 10238 20160 48547 70500 87030
                   333 58030 87360=
202110040600 AAXX 04064 67665 11959 81404 10212 20181 48534 60064 71066 8807/
                   333 10291 20/// 58029 88459=
202110040300 AAXX 04034 67665 41959 89901 10204 20160 48512 76122 8807/
                   333 58028 87459=
202110032100 AAXX 03214 67665 42980 69901 10231 20132 48522 86030
                   333 58017 86360=
202110031800 AAXX 03184 67665 42770 62204 10239 20159 48515 82132
                   333 58027 82856 85360 83080
                   555 91017=
202110031500 AAXX 03154 67665 42770 62803 10263 20144 48499 83232
                   333 58031 83856 85360 83080
                   555 91015=
202110031200 AAXX 03124 67665 41659 82507 10263 20154 48507 76022 8524/
                   333 58028 85845 87459
                   555 91016=
202110030900 AAXX 03094 67665 41659 62903 20135 48522 70521 83230
                   333 58998 83840 86360=
202110021800 AAXX 02184 67665 41960 19903 10271 20110 48492 70500 81030
                   333 10335 59016 81360=
202110021200 AAXX 02124 67665 41659 39902 10334 20107 48587 70500 83200
                   333 59019 83832=
202110020900 AAXX 02094 67665 41958 00311 10288 20116 48516 70500
                   333 59014 555 91017=
202110011200 AAXX 01124 67665 41659 40611 10310 20091 48504 70500 84100
                   333 59003 84840 91015=
202110010900 AAXX 01094 67665 41559 10813 10283 20110 48529 70500 81100
                   333 59005 81825 555 91018=
202110010600 AAXX 01064 67665 31959 00813 10227 20137 48539 70500
                   333 10328 20//0 58007=
202110010300 AAXX 01034 67665 41960 01303 10167 20124 48513 70500
                   333 58010=
202110010000 AAXX 01004 67665 41960 10911 10211 20128 48510 70500 81030
                   333 58005 81360=

################################################################################
#  SYNOPS from 67666, Lusaka City Airport (Zambia) | 15-25-00S | 028-28-00E | 1280 m
################################################################################
202110291200 AAXX 29124 67666 NIL=
202110290600 AAXX 29064 67666 32980 11210 10210 20127 48530 80001
                   333 10310 20180 59020 81080 91020=
202110280900 AAXX 28094 67666 NIL=
202110280600 AAXX 28064 67666 32480 11210 10230 20150 48551 81500
                   333 10320 20200 58007 81615 91022=
202110270600 AAXX 27064 67666 32980 10910 10232 20167 48542 80001
                   333 10332 10220 5//// 81080 91022=
202110251200 AAXX 25124 67666 NIL=
202110250900 AAXX 25094 67666 NIL=
202110221200 AAXX 22124 67666 42780 30910 10310 20110 48513 83200
                   333 59018 83858 91017=
202110220600 AAXX 22064 67666 32980 00915 10220 20123 48537
                   333 10282 20168 59013
                   555 00/// 20000 91020=
202110211200 AAXX 21124 67666 42780 41013 10260 20125 48525 83202
                   333 59011 83850 81080 91019=
202110210900 AAXX 21094 67666 42480 40916 10230 20130 48551 84200
                   333 59010 84818 91022=
202110210600 AAXX 21064 67666 31478 70916 10170 20135 48545 70500 875//
                   333 10270 20151 59007 87610
                   555 00/// 20001 91022=
202110200600 AAXX 20064 67666 11480 70912 10190 20145 48548 69904 70322 875//
                   333 10221 20171 87610
                   555 00/// 91023=
202110191200 AAXX 19124 67666 42580 81214 10212 48538 8457/
                   333 59062 84625 87460 91020=
202110190600 AAXX 19064 67666 32475 81208 10200 20150 48549 70522 8357/
                   333 10340 20201 59001 83610 88458
                   555 00/// 91022=
202110180900 AAXX 18094 67666 42980 00616 10310 20090 48512
                   333 58008 91016=
202110180600 AAXX 18064 67666 31970 00712 10270 20095 48507 70522
                   333 10349 20210 58002
                   555 20000 91016=
202110170900 AAXX 17094 67666 41975 83504 10306 20133 48504 70522 80007
                   333 59004 88280 91016=
202110170600 AAXX 17064 67666 31970 80106 10250 20141 48504 70500 81037
                   333 10345 20210 59025 81360 88280
                   555 00/// 20000 91016=
202110151200 AAXX 15124 67666 41678 41103 10320 20080 48500 70500 84200
                   333 59012 84848 91014=
202110150600 AAXX 15064 67666 31975 00906 10230 20117 48527 70500
                   333 10316 20190 59009
                   555 00/// 20000 91019=
202110141200 AAXX 14124 67666 41678 20904 10306 20050 48506 70500 82100
                   333 59013 82845 91016=
202110140900 AAXX 14094 67666 41978 00911 10282 20055 48530 70500
                   333 59012 91019=
202110140600 AAXX 14064 67666 31980 00909 10236 20045 48535 70500
                   333 10300 20158 59014
                   555 00/// 20000 91020=
202110130600 AAXX 13064 67666 NIL=
202110121200 AAXX 12124 67666 NIL=
202110120900 AAXX 12094 67666 NIL=
202110120600 AAXX 12064 67666 32980 31012 10170 20119 48555 83300
                   333 10270 20150 58011 83360 91024=
202110110900 AAXX 11094 67666 42680 11121 10230 20110 48561 81200
                   333 58047 81830 91023=
202110100900 AAXX 10094 67666 42980 00912 10320 20080 48525
                   333 59005 91018=
202110100600 AAXX 10064 67666 31975 00914 10270 20100 48527 70500
                   333 10340 20200 59001
                   555 00/// 91019=
202110070900 AAXX 07094 67666 NIL=
202110060600 AAXX 06064 67666 31970 01012 10223 20122 48531 70500
                   333 10300 20190 58001 91020=
202110050600 AAXX 05064 67666 31975 10221 10168 48536 70522 83038
                   333 10290 20200 58006 83359 87280
                   555 00/// 91020=
202110041200 AAXX 04124 67666 NIL=
202110040900 AAXX 04094 67666 41675 71208 10260 20150 48538 70522 8213/
                   333 58028 82830 87359 91020=
202110010900 AAXX 01094 67666 41778 11013 10270 20140 48525 70522 81100
                   333 59003 81850 91018=

################################################################################
#  SYNOPS from 67667, Mount Makulu (Zambia) | 15-33S | 028-15E | 1213 m
################################################################################
202110291200 AAXX 29124 67667 NIL=
202110290600 AAXX 29064 67667 31570 10902 10224 20161 48580 70500 80001
                   333 10343 20174 59032 81080
                   555 00///=
202110280900 AAXX 28094 67667 NIL=
202110280600 AAXX 28064 67667 31570 20908 10238 20171 48612 70500 81101
                   333 10333 20200 58004 81825 81080
                   555 00///=
202110270600 AAXX 27064 67667 31960 30918 10260 20165 48604 70500 80001
                   333 10367 20215 58009 83083
                   555 00///=
202110251200 AAXX 25124 67667 NIL=
202110250900 AAXX 25094 67667 NIL=
202110221200 AAXX 22124 67667 NIL=
202110220600 AAXX 22064 67667 31970 10908 10230 20152 48582 70500
                   333 10299 20160 59022 81080
                   555 00///=
202110210600 AAXX 21064 67667 31570 10906 10196 20156 48604 70500 81100
                   333 10285 20154 58005 81825
                   555 00///=
202110200600 AAXX 20064 67667 31570 60908 10202 20156 48609 70500 86500
                   333 10225 20172 5//// 86625
                   555 00///=
202110191200 AAXX 19124 67667 NIL=
202110180900 AAXX 18094 67667 NIL=
202110180600 AAXX 18064 67667 31960 10910 10276 20120 40564 70500 80001
                   333 10346 20177 59019 81083
                   555 00///=
202110170900 AAXX 17094 67667 NIL=
202110151200 AAXX 15124 67667 NIL=
202110150600 AAXX 15064 67667 31970 00904 10248 20181 48580 70500
                   333 10331 20196 58010
                   555 00///=
202110141200 AAXX 14124 67667 NIL=
202110140900 AAXX 14094 67667 NIL=
202110140600 AAXX 14064 67667 31970 00906 10258 20092 48590 70500
                   333 10323 20150 59014
                   555 00///=
202110130600 AAXX 13064 67667 31970 00902 10230 20112 48604 70500
                   333 10303 20150 58015
                   555 00///=
202110121200 AAXX 12124 67667 NIL=
202110120900 AAXX 12094 67667 NIL=
202110120600 AAXX 12064 67667 31570 11210 10196 20139 48619 70500 81100
                   333 10292 20146 5//// 81825
                   555 00///=
202110110900 AAXX 11094 67667 NIL=
202110110600 AAXX 11064 67667 31570 11508 10208 20172 48/// 70500 81100
                   333 10336 20186 5//// 81825
                   555 00///=
202110100900 AAXX 10094 67667 NIL=
202110080600 AAXX 08064 67667 31970 00904 10234 20119 48585 70500
                   333 10345 20180 59017
                   555 00///=
202110070900 AAXX 07094 67667 41970 10902 10302 20130 48601 70500 80001
                   333 58001 81080=
202110070600 AAXX 07064 67667 31980 10906 10242 20150 48602 70500 80001
                   333 10362 20176 58009 81080
                   555 00///=
202110060600 AAXX 06064 67667 31960 21010 10239 20165 48593 70500 80001
                   333 10328 20188 59002 82082
                   555 00///=
202110050600 AAXX 05064 67667 31965 50905 10238 20172 48596 70522 80002
                   333 10313 20196 58008 85082
                   555 00///=
202110041200 AAXX 04124 67667 NIL=
202110040900 AAXX 04094 67667 NIL=
202110040600 AAXX 04064 67667 31970 80000 10230 20190 48586 70500 80007
                   333 10302 20198 59028 88280
                   555 00/// 20002=

################################################################################
#  SYNOPS from 67673, Petauke (Zambia) | 14-15S | 031-17E | 1035 m
################################################################################
202110291200 AAXX 29124 67673 NIL=
202110290600 AAXX 29064 67673 31970 01205 10218 20140 48/// 70500
                   333 10300 20//0 5////
                   555 00/// 20000=
202110280900 AAXX 28094 67673 NIL=
202110270900 AAXX 27094 67673 41670 60904 10288 20170 48/// 70522 85120
                   333 5//// 86635=
202110270600 AAXX 27064 67673 NIL=
202110251200 AAXX 25124 67673 NIL=
202110250900 AAXX 25094 67673 NIL=
202110250600 AAXX 25064 67673 31970 53604 10296 20115 48/// 70522
                   333 10388 20//0 5//// 85280
                   555 00/// 20000=
202110221200 AAXX 22124 67673 NIL=
202110210600 AAXX 21064 67673 31580 60901 10190 20140 48/// 70522 86500
                   333 10288 2//// 5//// 86625
                   555 00///=
202110200900 AAXX 20094 67673 41675 60905 10260 20154 48/// 70522 86100
                   333 5//// 86832=
202110200600 AAXX 20064 67673 31560 21205 10244 20155 48/// 70500 81501
                   333 10310 20/// 5//// 81620 81080
                   555 00///=
202110191200 AAXX 19124 67673 41675 30904 10260 20170 48/// 70500
                   333 5//// 83835=
202110180900 AAXX 18094 67673 NIL=
202110180600 AAXX 18064 67673 31970 43602 10258 20155 48/// 70522 82031
                   333 10372 2//// 5//// 82360 82080=
202110170900 AAXX 17094 67673 NIL=
202110170600 AAXX 17064 67673 31970 41803 10250 20121 48/// 70500 83031
                   333 10372 2//// 5//// 83370 81080=
202110151200 AAXX 15124 67673 NIL=
202110150600 AAXX 15064 67673 11975 70402 10220 20175 48/// 60034 70522 8703/
                   333 10330 2//// 5//// 87360=
202110141200 AAXX 14124 67673 NIL=
202110140900 AAXX 14094 67673 NIL=
202110140600 AAXX 14064 67673 NIL=
202110130600 AAXX 13064 67673 31958 40902 10204 20140 48/// 70500 83031
                   333 10300 2//// 5//// 83360 81080=
202110121200 AAXX 12124 67673 41670 40802 10234 20235 48/// 70522 82130
                   333 5//// 82833 82360=
202110120900 AAXX 12094 67673 NIL=
202110120600 AAXX 12064 67673 31670 51803 10200 20135 48/// 70522 81300
                   333 10342 2//// 5//// 81825 85360
                   555 00/// 20000=
202110110900 AAXX 11094 67673 NIL=
202110100900 AAXX 10094 67673 41970 00902 10350 20110 48/// 70500
                   333 5////=
202110100600 AAXX 10064 67673 31970 03602 10268 20129 48/// 70500
                   333 10360 2//// 5////
                   555 00///=
202110070900 AAXX 07094 67673 41975 00901 10300 20128 48/// 70500
                   333 5////=
202110070600 AAXX 07064 67673 31975 00904 10240 20133 48/// 70500
                   333 10350 2//// 5////=
202110060900 AAXX 06094 67673 41970 00804 10296 20120 48/// 70500
                   333 5////=
202110060600 AAXX 06064 67673 31970 00803 10238 20165 48/// 70500
                   333 10360 20//0 5////
                   555 00/// 20003=
202110041200 AAXX 04124 67673 NIL=
202110040900 AAXX 04094 67673 NIL=
202110040600 AAXX 04064 67673 31960 70801 10256 20165 48/// 70522 86031
                   333 10350 20//0 5//// 86360 81080
                   555 00///=
202110010900 AAXX 01094 67673 41975 00903 10290 20150 48/// 70500 84100
                   333 5//// 84836=
202110010600 AAXX 01064 67673 31975 0//// 10250 20160 48/// 70500
                   333 10350 2//// 5////=

################################################################################
#  SYNOPS from 67731, Senanga (Zambia) | 16-06S | 023-16E | 1027 m
################################################################################
202110291200 AAXX 29124 67731 41680 509// 10331 20189 48/// 71799 81902
                   333 5//// 81930 84835 84080=
202110290600 AAXX 29064 67731 12980 413// 10234 20178 48/// 60114 80002
                   333 10345 20189 5//// 84080
                   555 00040 20000=
202110281200 AAXX 28124 67731 42680 310// 10335 20172 48/// 82250
                   333 5//// 82840 81365=
202110280900 AAXX 28094 67731 42680 127// 10306 20178 48/// 81200
                   333 5//// 81830=
202110280600 AAXX 28064 67731 32680 810// 10248 20176 48/// 82230
                   333 10351 20226 5//// 82832 88360
                   555 00049 20240=
202110270900 AAXX 27094 67731 42980 035// 10300 20170 48/// 70200
                   333 5////=
202110270600 AAXX 27064 67731 12980 019// 10230 20177 48/// 60244
                   333 10360 20208 5////
                   555 00041 20000=
202110251200 AAXX 25124 67731 42680 512// 10333 20179 48/// 83102
                   333 5//// 83830 85080=
202110250900 AAXX 25094 67731 42980 504// 10285 20162 48/// 84032
                   333 5//// 84362 86080=
202110250600 AAXX 25064 67731 32980 633// 10230 20152 48/// 85038
                   333 10357 20205 5//// 85360 86280
                   555 00051 20000=
202110221200 AAXX 22124 67731 42580 327// 10355 20160 48/// 82201
                   333 5//// 82828 81080=
202110220600 AAXX 22064 67731 32980 214// 10242 20173 48/// 82050
                   333 10290 20183 5//// 82360
                   555 00052 20000=
202110211200 AAXX 21124 67731 42980 710// 10270 20185 48/// 85032
                   333 5//// 85361 86080=
202110210900 AAXX 21094 67731 42980 524// 10272 20163 48/// 84032
                   333 5//// 84360 85080=
202110210600 AAXX 21064 67731 32980 801// 10226 20151 48/// 86038
                   333 10316 20188 5//// 86360 88280
                   555 00035 20003=
202110200600 AAXX 20064 67731 12980 610// 10214 20169 48/// 60034 86030
                   333 10352 20195 5//// 86360
                   555 00039 20000=
202110191200 AAXX 19124 67731 41978 228// 10340 20164 48/// 70500 82363=
202110190600 AAXX 19064 67731 31975 018// 10239 20112 48/// 70500
                   333 10338 20201 5////
                   555 00061 20000=
202110180900 AAXX 18094 67731 42980 827// 10302 20066 48/// 88030
                   333 5//// 88365=
202110180600 AAXX 18064 67731 31975 110// 10258 20148 48/// 70500 81030
                   333 10383 20200 5//// 81360
                   555 00049 20000=
202110170900 AAXX 17094 67731 41975 001// 10287 20121 48/// 70500
                   333 5////=
202110170600 AAXX 17064 67731 31975 027// 10233 20100 48/// 70500
                   333 10390 20179 5////
                   555 00049 20000=
202110151200 AAXX 15124 67731 NIL=
202110141200 AAXX 14124 67731 42980 003// 10366 20034 48///
                   333 5////=
202110140900 AAXX 14094 67731 42980 027// 10338 20042 48///
                   333 5////=
202110140600 AAXX 14064 67731 32980 018// 10280 20055 48///
                   333 10359 20160 5////
                   555 00048 20000=
202110130900 AAXX 13094 67731 42980 033// 10316 20131 48///
                   333 5////=
202110130600 AAXX 13064 67731 32980 018// 10241 20119 48///
                   333 10341 20189 5////
                   555 00051=
202110121200 AAXX 12124 67731 42980 012// 10333 20070 48///
                   333 5////=
202110120900 AAXX 12094 67731 42980 010// 10314 20124 48///
                   333 5////=
202110120600 AAXX 12064 67731 32980 010// 10230 20127 48///
                   333 10366 20190 5////
                   555 00053 20000=
202110110900 AAXX 11094 67731 41670 318// 10307 20148 48/// 70500 83100
                   333 5//// 83830=
202110100900 AAXX 10094 67731 NIL=
202110100600 AAXX 10064 67731 32980 009// 10247 20120 48///
                   333 10390 20200 555 00055 20000=
202110070900 AAXX 07094 67731 41975 027// 10311 20156 48/// 70500
                   333 5////=
202110070600 AAXX 07064 67731 31970 435// 10239 20167 48/// 70522 84030
                   333 10368 20200 5//// 84360
                   555 00054 20000=
202110060900 AAXX 06094 67731 42980 218// 10322 20175 48/// 82030
                   333 5//// 82362=
202110060600 AAXX 06064 67731 31675 816// 10248 20173 48/// 70500 83130
                   333 10355 20203 5//// 83835 88360
                   555 00055 20000=
202110050600 AAXX 05064 67731 31975 409// 10233 20144 48/// 70522 84030
                   333 10347 20173 5//// 84360
                   555 00044 20000=
202110041200 AAXX 04124 67731 NIL=
202110040900 AAXX 04094 67731 42980 219// 10290 20184 48/// 80008
                   333 5//// 82080=
202110011200 AAXX 01124 67731 41678 409// 10346 20145 48/// 70500 84100
                   333 5//// 84840=
202110010600 AAXX 01064 67731 31970 018// 10227 20103 48/// 70500
                   333 10385 20192 5////
                   555 00061=

################################################################################
#  SYNOPS from 67741, Sesheke (Zambia) | 17-28S | 024-18E | 949 m
################################################################################
202110291200 AAXX 29124 67741 42680 51802 10341 20142 48513 85230
                   333 5//// 85850 81362=
202110280900 AAXX 28094 67741 NIL=
202110270600 AAXX 27064 67741 NIL=
202110251200 AAXX 25124 67741 NIL=
202110250900 AAXX 25094 67741 NIL=
202110221200 AAXX 22124 67741 42680 53601 10350 20143 48515 84130
                   333 59019 84850 82362=
202110220600 AAXX 22064 67741 32980 12001 10254 20156 48535 81030
                   333 10330 20//0 59013 81362
                   555 00/// 20000=
202110211200 AAXX 21124 67741 42680 50000 10327 2//// 48531 81130
                   333 59011 81850 85362=
202110210900 AAXX 21094 67741 42980 20801 10302 20131 48545 81030
                   333 59016 82362=
202110210600 AAXX 21064 67741 32980 10902 10234 20148 48540 81030
                   333 10331 20//0 59013 81362
                   555 00/// 20000=
202110200600 AAXX 20064 67741 32980 60802 10216 20166 48548 86030
                   333 10319 20//0 58017 86362
                   555 00/// 20000=
202110191200 AAXX 19124 67741 42980 30904 10311 20151 48527 83030
                   333 5//// 83362=
202110180900 AAXX 18094 67741 NIL=
202110180600 AAXX 18064 67741 32980 11901 10234 20003 48502 81030
                   333 10370 20//0 58014 81362
                   555 00/// 20000=
202110170900 AAXX 17094 67741 NIL=
202110151200 AAXX 15124 67741 42980 00000 10372 20047 48488
                   333 59021=
202110150600 AAXX 15064 67741 32980 00801 10278 20049 48521
                   333 10351 20//0 59016
                   555 00/// 20000=
202110141200 AAXX 14124 67741 42980 01002 10356 20//0 48506
                   333 5////=
202110140900 AAXX 14094 67741 42980 00902 10348 20//0 48535
                   333 5////=
202110140600 AAXX 14064 67741 32980 00000 10261 20//0 48527
                   333 10348 20//0 59015
                   555 00/// 20000=
202110130600 AAXX 13064 67741 32980 00000 10237 20//0 48542
                   333 10334 20//0 59034
                   555 00/// 20000=
202110121200 AAXX 12124 67741 NIL=
202110120900 AAXX 12094 67741 NIL=
202110120600 AAXX 12064 67741 32980 00901 10215 20/// 48565
                   333 10326 20/// 58014
                   555 00/// 20000=
202110110900 AAXX 11094 67741 NIL=
202110100900 AAXX 10094 67741 NIL=
202110081200 AAXX 08124 67741 42980 11201 10333 20117 48511 81030
                   333 5//// 81362=
202110070900 AAXX 07094 67741 NIL=
202110060600 AAXX 06064 67741 32980 30801 10259 20159 48537 83030
                   333 10339 20//0 59006 83362
                   555 00/// 20000=
202110041200 AAXX 04124 67741 NIL=
202110040900 AAXX 04094 67741 NIL=

################################################################################
#  SYNOPS from 67743, Livingstone (Zambia) | 17-49S | 025-49E | 985 m
################################################################################
202110291200 AAXX 29124 67743 41775 12008 10337 20154 48508 70500 81100
                   333 59029 81836 91014=
202110290900 AAXX 29094 67743 41975 01206 10308 20161 48533 70500
                   333 59028 91017=
202110290600 AAXX 29064 67743 31975 01112 10251 20142 48535 70500
                   333 10350 20206 59023 91019=
202110280900 AAXX 28094 67743 NIL=
202110280600 AAXX 28064 67743 31975 00916 10255 20163 48559 80500
                   333 10365 20225 58005
                   555 00/// 91021=
202110270900 AAXX 27094 67743 31975 11011 10274 20151 48556 70500 81031
                   333 10362 20212 58002 81360 81080
                   555 00/// BB/// CC212 DD/// 20000 91021=
202110270600 AAXX 27064 67743 31975 11011 10274 20151 48556 70500 81031
                   333 10362 20212 58002 81360 81080
                   555 00/// BB/// CC212 DD/// 20000 91021=
202110251200 AAXX 25124 67743 NIL=
202110250900 AAXX 25094 67743 NIL=
202110221200 AAXX 22124 67743 NIL=
202110220900 AAXX 22094 67743 41675 23608 10232 20134 48532 70500 81101
                   333 59025 81845 82080 91017=
202110210900 AAXX 21094 67743 41975 11110 10301 20124 48553 70500 81030
                   333 59022 81360 91020=
202110210600 AAXX 21064 67743 31975 10711 10235 20138 48551 70500 81030
                   333 10330 20169 59013 81360
                   555 00/// 91021=
202110200600 AAXX 20064 67743 31975 31011 10210 20137 48557 70500 83030
                   333 10257 20183 58022 83360
                   555 00/// 91022=
202110191200 AAXX 19124 67743 42780 70612 10236 20160 48541 70222 8703/
                   333 58064 87358=
202110190900 AAXX 19094 67743 42580 60615 10235 20162 48552 70322 8353/
                   333 58064 83619 86358=
202110180900 AAXX 18094 67743 41770 31508 10315 20123 48507 70500 83100
                   333 58020 83845 91014=
202110180600 AAXX 18064 67743 31970 01609 10265 20080 48502 70500
                   333 10400 20205 58012
                   555 00/// 91015=
202110170900 AAXX 17094 67743 NIL=
202110170600 AAXX 17064 67743 31959 40702 10283 20040 48494 70500 84030
                   333 10409 20228 59006 84360 91013=
202110151200 AAXX 15124 67743 31975 02503 10370 20065 48489 70500
                   333 59014 91012=
202110150900 AAXX 15094 67743 41975 02703 10348 20056 48521 70500
                   333 59021 91015=
202110150600 AAXX 15064 67743 31970 01004 10256 20063 48518 70500
                   333 10378 20164 59019
                   555 00/// 91017=
202110141200 AAXX 14124 67743 41975 01601 10345 20020 48510 70500
                   333 59010 91014=
202110140900 AAXX 14094 67743 41975 00608 10330 20040 48538 70500
                   333 59017 91017=
202110140600 AAXX 14064 67743 31975 00805 10250 20040 48534 70500
                   333 10349 20155 59017 91019=
202110131200 AAXX 13124 67743 41975 01510 10328 20065 48526 70500
                   333 59024 91016=
202110130900 AAXX 13094 67743 41975 01407 1//// 20098 48549 70500
                   333 59029 91019=
202110130600 AAXX 13064 67743 31975 00807 10236 20074 48551 70500
                   333 10364 20147 59026 91021=
202110121200 AAXX 12124 67743 41970 10905 10314 20096 48546 70500 81030
                   333 59009 81360 555 91019=
202110120900 AAXX 12094 67743 41970 11010 10288 20115 48576 70500 81030
                   333 59004 81360 91023=
202110120600 AAXX 12064 67743 31970 01106 10216 20124 48570 70500
                   333 10174 20319 59002
                   555 00111 91024=
202110110900 AAXX 11094 67743 NIL=
202110100900 AAXX 10094 67743 31970 30906 10259 20104 48517 70500 83030
                   333 10385 20206 59003 83360 91016=
202110100600 AAXX 10064 67743 31970 30906 10259 20104 48517 70500 83030
                   333 10385 20206 59003 83360
                   555 00/// 91016=
202110081200 AAXX 08124 67743 41970 11704 10340 20126 48510 70500 81031
                   333 59006 81360 81080 91014=
202110080600 AAXX 08064 67743 31970 71810 10190 20141 48534 70511 87030
                   333 10372 20190 58002 87360
                   555 00/// 91020=
202110070900 AAXX 07094 67743 41959 20505 10327 20065 48552 70500 82030
                   333 58002 82360 91019=
202110070600 AAXX 07064 67743 31959 40206 10274 20076 48547 70500 84030
                   333 10369 20199 5//// 84360 91020=
202110060600 AAXX 06064 67743 31959 00607 10250 20164 48535 70500
                   333 10359 20191 59009
                   555 00///=
202110041200 AAXX 04124 67743 41770 40507 10340 20127 48510 70500
                   333 58002 84848 81360 91014=
202110040900 AAXX 04094 67743 41970 11208 10310 20145 48538 70500 81030
                   333 58013 81360 91018=
202110040600 AAXX 04064 67743 31970 11005 10250 20156 48533 70500 81030
                   333 10310 20165 58030 81360
                   555 00/// 20000 91019=
202110011200 AAXX 01124 67743 41775 10510 10355 20115 48490 70500 81100
                   333 59004 81856 91012=
202110010900 AAXX 01094 67743 41975 10112 10325 20126 48516 70500 81030
                   333 59004 81360 91015=
202110010600 AAXX 01064 67743 31975 00613 10255 20134 48508 70500
                   333 10376 20210 58000
                   555 00/// 91017=

################################################################################
#  SYNOPS from 67751, Magoye (Zambia) | 16-00S | 027-36E | 1018 m
################################################################################
202110291200 AAXX 29124 67751 NIL=
202110281200 AAXX 28124 67751 41775 4//// 10315 20159 48/// 70500 84200
                   333 5//// 81856=
202110280900 AAXX 28094 67751 41775 20808 10294 20137 48/// 82100
                   333 5//// 82856=
202110280600 AAXX 28064 67751 31975 20908 10261 20158 48/// 70500 80001
                   333 10//0 20208 5//// 82080
                   555 20000=
202110271200 AAXX 27124 67751 41775 20911 10316 20173 48/// 70500 81101
                   333 5//// 81856 81080=
202110270600 AAXX 27064 67751 31975 10309 10276 20172 48/// 70500 80001
                   333 10/// 20219 5//// 81080
                   555 00/// 20000=
202110251200 AAXX 25124 67751 NIL=
202110250900 AAXX 25094 67751 NIL=
202110221200 AAXX 22124 67751 NIL=
202110210600 AAXX 21064 67751 NIL=
202110200600 AAXX 20064 67751 NIL=
202110191200 AAXX 19124 67751 NIL=
202110190600 AAXX 19064 67751 11978 80000 10195 20172 48/// 60014 76066 8807/
                   333 10//0 20192 5//// 88360
                   555 00/// 20000=
202110180900 AAXX 18094 67751 NIL=
202110180600 AAXX 18064 67751 31975 01402 10290 20135 70500
                   333 10//0 20122 5////
                   555 00/// 20000=
202110170900 AAXX 17094 67751 NIL=
202110170600 AAXX 17064 67751 31975 02704 10257 20091 48/// 70500
                   333 10//0 20132 5////
                   555 00/// 20000=
202110151200 AAXX 15124 67751 NIL=
202110150600 AAXX 15064 67751 31978 02408 10254 20075 48/// 70500
                   333 10//0 20131 5////
                   555 00/// 20000=
202110141200 AAXX 14124 67751 41978 03602 10335 20084 48/// 70500
                   333 5////=
202110140900 AAXX 14094 67751 41978 03607 10315 20045 70500
                   333 5////=
202110140600 AAXX 14064 67751 31978 01901 10231 20045 70500
                   333 20107 555 00///=
202110130900 AAXX 13094 67751 41978 11510 10299 20061 48/// 70500 81100
                   333 5//// 81858=
202110130600 AAXX 13064 67751 31975 00903 10231 20100 48///
                   333 10//0 20184 5////
                   555 00/// 20000=
202110121200 AAXX 12124 67751 NIL=
202110120900 AAXX 12094 67751 41778 11305 10273 20104 48/// 70500 81100
                   333 5//// 81856=
202110120600 AAXX 12064 67751 31978 10809 10257 20115 48/// 70500 80001
                   333 10/// 20157 5//// 81080
                   555 00/// 20000=
202110110900 AAXX 11094 67751 41778 40807 10255 20122 48/// 70522 84200
                   333 5//// 84857=
202110100900 AAXX 10094 67751 NIL=
202110080900 AAXX 08094 67751 41975 00108 10300 20070 70500
                   333 5////=
202110070900 AAXX 07094 67751 41975 00407 10325 20083 48/// 70500
                   333 5////=
202110060900 AAXX 06094 67751 41975 00113 10310 20120 48/// 70500
                   333 5////=
202110060600 AAXX 06064 67751 31975 00903 10255 20173 48/// 70500
                   333 10//0 20183 5////
                   555 00/// 20000=
202110051200 AAXX 05124 67751 41875 20704 10341 20141 48/// 70500 81102
                   333 5//// 81857 81360=
202110041200 AAXX 04124 67751 NIL=
202110040900 AAXX 04094 67751 NIL=

################################################################################
#  SYNOPS from 67753, Choma (Zambia) | 16-50S | 027-04E | 1213 m
################################################################################
202110291200 AAXX 29124 67753 42780 30105 10305 20133 48510 83100
                   333 59020 83856=
202110290600 AAXX 29064 67753 32980 02708 10229 20134 48532
                   333 10307 20170 59022=
202110281200 AAXX 28124 67753 42680 40000 10298 20145 48528 84100
                   333 59007 84845=
202110280900 AAXX 28094 67753 42680 10814 10274 20153 48545 81100
                   333 59001 81835=
202110280600 AAXX 28064 67753 32580 20815 10228 20152 48551 82100
                   333 10320 20190 58005 82825
                   555 00///=
202110270600 AAXX 27064 67753 31980 10916 10254 20164 48505 70500 81030
                   333 10327 20188 58014 81360
                   555 00///=
202110251200 AAXX 25124 67753 41980 10705 10320 20139 48511 70500 81030
                   333 59006 81360=
202110250900 AAXX 25094 67753 41980 10712 10296 20158 48538 70500 81030
                   333 59006 81030=
202110221200 AAXX 22124 67753 42680 31903 10306 20151 48510 83100
                   333 59018 83850=
202110220600 AAXX 22064 67753 42980 51803 10206 20146 48530 85030
                   333 10294 20144 59014 85360
                   555 00///=
202110211200 AAXX 21124 67753 42680 51905 10280 20149 48526 83102
                   333 59023 83848 82080=
202110210900 AAXX 21094 67753 41680 32505 10251 20154 48543 70500 81102
                   333 59017 81835 82080=
202110210600 AAXX 21064 67753 31980 22605 10200 20145 48549 70500 80002
                   333 10260 20142 59013 82080
                   555 00///=
202110200600 AAXX 20064 67753 31480 60000 10178 20157 48556 70500 86530
                   333 10322 20154 58005 85618 81360
                   555 00///=
202110191200 AAXX 19124 67753 41580 80000 10204 20168 48539 70500 8115/
                   333 58072 81825 88360=
202110180900 AAXX 18094 67753 NIL=
202110180600 AAXX 18064 67753 31980 00000 10269 20095 48/// 70500
                   333 10361 20208 555 00///=
202110170900 AAXX 17094 67753 NIL=
202110170600 AAXX 17064 67753 31980 10000 10260 20099 48/// 70500 81030
                   333 10356 20194 5//// 81360
                   555 00///=
202110151200 AAXX 15124 67753 41980 22703 10336 20068 48493 70500 82100
                   333 59016 82859=
202110150600 AAXX 15064 67753 31980 01703 10234 20100 48523 70500
                   333 10330 20122 59012
                   555 00///=
202110141200 AAXX 14124 67753 42980 02608 10318 20016 48501
                   333 59018=
202110140900 AAXX 14094 67753 42980 00000 10296 20045 48528
                   333 59013=
202110140600 AAXX 14064 67753 31980 00000 10234 20044 48532 70500
                   333 10306 20118 59014
                   555 00///=
202110130900 AAXX 13094 67753 42780 12703 10280 20080 48546 81100
                   333 59030 81856=
202110130600 AAXX 13064 67753 31980 02703 10206 20107 48540 70500
                   333 10285 20094 59024
                   555 00///=
202110121200 AAXX 12124 67753 NIL=
202110120900 AAXX 12094 67753 42680 10608 10254 20110 48573 81100
                   333 58003 81830=
202110120600 AAXX 12064 67753 NIL=
202110110900 AAXX 11094 67753 41580 81011 10207 20139 48569 70500 8455/
                   333 58058 84625 88360=
202110100900 AAXX 10094 67753 NIL=
202110100600 AAXX 10064 67753 31980 03613 10276 20096 48518
                   333 10354 20168 59006
                   555 00///=
202110081200 AAXX 08124 67753 41780 31905 10325 20091 48503 70500 82130
                   333 59019 82856 81360=
202110070900 AAXX 07094 67753 41980 20000 10309 20095 48549 70500 80001
                   333 58001 82080=
202110060900 AAXX 06094 67753 41980 01915 10296 20090 48548 70500
                   333 58000=
202110060600 AAXX 06064 67753 31980 20000 10230 20150 48532 70500 80001
                   333 10319 20170 59002 82080
                   555 00///=
202110041200 AAXX 04124 67753 NIL=
202110040900 AAXX 04094 67753 NIL=

################################################################################
#  SYNOPS from 67855, Lupaki (Zambia) | 17-03-00S | 024-46-00E | 1000 m
################################################################################
202110300900 AAXX 30094 67855 42875 63403 10323 20125 3//// 48/// 86200
                   333 5//// 86857=
202110290900 AAXX 29094 67855 42980 01702 10288 20132 3//// 48///
                   333 5////=
202110280900 AAXX 28094 67855 42780 12105 10307 20111 3//// 48/// 81100
                   333 5//// 81857=
202110250900 AAXX 25094 67855 42980 13402 10305 20147 3//// 48/// 81030
                   333 5//// 81360=
202110230900 AAXX 23094 67855 42880 31904 10345 20128 3//// 48/// 83100
                   333 5//// 83857=
202110181500 AAXX 18154 67855 41970 31508 10211 20128 3//// 48/// 70511 83030
                   333 5//// 83360=
202110131500 AAXX 13154 67855 42980 01902 10340 20002 3//// 48///
                   333 5////=
202110130900 AAXX 13094 67855 42980 02103 10302 20056 3//// 48///
                   333 5////=
202110121500 AAXX 12154 67855 42980 01102 10320 20048 3//// 48///
                   333 5////=
202110110900 AAXX 11094 67855 42680 13406 10225 20106 3//// 48/// 81100
                   333 5//// 81835=
202110080900 AAXX 08094 67855 42980 52403 10282 20112 3//// 48/// 81032
                   333 5//// 85080=
202110060900 AAXX 06094 67855 42980 01702 10304 20146 3//// 48///
                   333 5////=
202110050900 AAXX 05094 67855 41680 10902 10280 20164 3//// 48/// 70500 81100
                   333 5//// 81840=
