################################################################################
# Query made at 04/14/2022 03:17:15 UTC
# Country like Zamb*
# Time interval: from 09/01/2017 05:30  to 10/01/2017 06:30  UTC
################################################################################

################################################################################
#  SYNOPS from 67403, Kawambwa (Zambia) | 09-48S | 029-05E | 1323 m
################################################################################
201709291200 AAXX 29124 67403 NIL=
201709281200 AAXX 28124 67403 NIL=
201709280600 AAXX 28064 67403 11975 00905 10215 20139 48523 60034 70500
                   333 10329 20172 59002
                   555 00108=
201709270900 AAXX 27094 67403 NIL=
201709270600 AAXX 27064 67403 31975 00801 10217 20162 48525 70500
                   333 10322 20184 58016
                   555 00124=
201709260600 AAXX 26064 67403 31975 50903 10220 20113 48510 70500 85031
                   333 10336 20188 59002 85360 82080
                   555 00111=
201709251200 AAXX 25124 67403 NIL=
201709221500 AAXX 22154 67403 NIL=
201709191200 AAXX 19124 67403 NIL=
201709190600 AAXX 19064 67403 31975 20905 10204 20082 48528 70500 80001
                   333 10348 20144 59003 82080
                   555 00106=
201709180600 AAXX 18064 67403 31975 00903 10225 20082 48533 70500
                   333 10//0 20//0 5////=
201709150600 AAXX 15064 67403 31975 00905 10202 20072 48524 70500
                   333 10318 20169 59008
                   555 00092=
201709140600 AAXX 14064 67403 31975 00902 10193 20087 48531 70500
                   333 10320 20154 58007
                   555 00082=
201709120600 AAXX 12064 67403 31975 00901 10190 20084 48515 70500
                   333 10317 20162 59008
                   555 00086=
201709070900 AAXX 07094 67403 NIL=
201709070600 AAXX 07064 67403 NIL=
201709060600 AAXX 06064 67403 NIL=

################################################################################
#  SYNOPS from 67413, Mbala (Zambia) | 08-51S | 031-20E | 1673 m
################################################################################
201709291200 AAXX 29124 67413 NIL=
201709281200 AAXX 28124 67413 NIL=
201709270900 AAXX 27094 67413 NIL=
201709251200 AAXX 25124 67413 NIL=
201709221500 AAXX 22154 67413 NIL=
201709191200 AAXX 19124 67413 NIL=
201709190600 AAXX 19064 67413 NIL=
201709080600 AAXX 08064 67413 31979 01007 10200 20094 48546 70500
                   333 10280 20140 58005
                   555 00/// 91025=
201709070900 AAXX 07094 67413 NIL=
201709070600 AAXX 07064 67413 31978 01208 10190 20096 48541 70500
                   333 10280 20144 59017
                   555 00/// 91024=
201709060600 AAXX 06064 67413 NIL=

################################################################################
#  SYNOPS from 67441, Mwinilunga (Zambia) | 11-45S | 024-26E | 1361 m
################################################################################
201709291200 AAXX 29124 67441 NIL=
201709281200 AAXX 28124 67441 NIL=
201709270900 AAXX 27094 67441 NIL=
201709251200 AAXX 25124 67441 NIL=
201709221500 AAXX 22154 67441 NIL=
201709191200 AAXX 19124 67441 NIL=
201709190600 AAXX 19064 67441 NIL=
201709070900 AAXX 07094 67441 NIL=
201709070600 AAXX 07064 67441 NIL=
201709060600 AAXX 06064 67441 NIL=

################################################################################
#  SYNOPS from 67461, Mansa (Zambia) | 11-06S | 028-51E | 1382 m
################################################################################
201709291200 AAXX 29124 67461 NIL=
201709281200 AAXX 28124 67461 41770 11010 10310 20081 48505 70500 81200
                   333 58010 81857 91016=
201709280600 AAXX 28064 67461 31970 21105 10230 20111 48539 70500 80001
                   333 10333 20158 58011 82080
                   555 00127 91020=
201709270900 AAXX 27094 67461 NIL=
201709270600 AAXX 27064 67461 31975 20702 10224 20147 48527 70500 80001
                   333 10330 20154 58014 82080
                   555 00123 91019=
201709260600 AAXX 26064 67461 31970 10604 10229 20102 48513 70500 80001
                   333 10325 20159 59007 81080
                   555 00135 91017=
201709251200 AAXX 25124 67461 NIL=
201709221500 AAXX 22154 67461 NIL=
201709201200 AAXX 20124 67461 41970 30806 10303 20089 48524 70500 80001
                   333 58007 83080 91018=
201709191200 AAXX 19124 67461 41950 00805 10308 2//// 48520 70500
                   333 58007 91017=
201709190600 AAXX 19064 67461 31950 00808 10202 20068 48539 70500
                   333 10328 20143 58001
                   555 00173 91021=
201709180600 AAXX 18064 67461 31955 01302 10205 20065 48538 70500
                   333 10314 20149 58006
                   555 00178 91021=
201709150600 AAXX 15064 67461 31958 00904 10199 20083 48530 70500
                   333 10304 20132 59001
                   555 00160 91020=
201709140600 AAXX 14064 67461 31958 01003 10198 20076 48531 70500
                   333 10294 20128 58001
                   555 00182 91020=
201709120600 AAXX 12064 67461 31955 00905 10187 20132 48524 70500
                   333 10304 20129 59007
                   555 00170 91019=
201709110600 AAXX 11064 67461 31965 01107 10200 20075 48533 70500
                   333 10306 20139 59010
                   555 00177 91020=
201709080600 AAXX 08064 67461 31970 01305 10179 20090 48536 70500
                   333 10305 20130 58004
                   555 00145 91020=
201709070900 AAXX 07094 67461 41965 01006 10260 20085 48534 70500
                   333 59012 91020=
201709070600 AAXX 07064 67461 31958 01202 10188 20104 48529 70500
                   333 10298 20138 59012
                   555 00205 91020=
201709060900 AAXX 06094 67461 41965 11004 10255 20095 48546 70500 80001
                   333 59013 81080 91021=
201709060600 AAXX 06064 67461 31958 21003 10170 20109 48540 70500 80001
                   333 10280 20140 59012 82080
                   555 00149 91021=
201709051200 AAXX 05124 67461 41965 01303 10270 20089 48524 70500
                   333 58000 91019=
201709050600 AAXX 05064 67461 31965 01209 10172 20075 48535 70500
                   333 10275 20118 58011
                   555 00142 91023=
201709040900 AAXX 04094 67461 41965 01010 10230 20111 48546 70500
                   333 59001 91021=
201709040600 AAXX 04064 67461 31960 11206 10165 20120 48540 70500 80001
                   333 10285 20122 58011 81080
                   555 00155 91021=

################################################################################
#  SYNOPS from 67475, Kasama (Zambia) | 10-13S | 031-08E | 1382 m
################################################################################
201709291200 AAXX 29124 67475 NIL=
201709281200 AAXX 28124 67475 41860 60913 10303 20051 48507 70522 81108
                   333 58004 81857 86280 91018=
201709280600 AAXX 28064 67475 31690 31206 10230 20128 48511 70500 83030
                   333 10318 20170 58006 83360 91022=
201709270900 AAXX 27094 67475 41960 40608 10273 20127 48532 70522 84070
                   333 58019 84362 91021=
201709270600 AAXX 27064 67475 11960 70708 10222 20120 48535 69904 70522 8707/
                   333 10323 20170 58014 87360 91021=
201709251200 AAXX 25124 67475 NIL=
201709221500 AAXX 22154 67475 41960 41318 10272 20063 48513 70510 84060
                   333 59004 84359 555 10308 91019=
201709211200 AAXX 21124 67475 41860 11318 10307 20016 48521 70500 81100
                   333 58000 81857 91019=
201709210600 AAXX 21064 67475 31960 01310 10220 20119 48552 70500
                   333 10322 20165 58000 91023=
201709200600 AAXX 20064 67475 31960 01009 10210 20117 48552 70500
                   333 10322 20148 58006 91023=
201709191200 AAXX 19124 67475 41960 00908 10315 20065 48513 70500
                   333 58002 91018=
201709190600 AAXX 19064 67475 31960 00708 10203 20086 48546 70500
                   333 10325 20131 58000 91023=
201709180600 AAXX 18064 67475 31960 00609 10204 20084 48546 70500
                   333 10320 20126 58007 91023=
201709150600 AAXX 15064 67475 31959 01710 10198 20084 48539 70500
                   333 10302 20110 59004 91022=
201709141500 AAXX 14154 67475 41959 01308 10272 20045 48503 70500
                   333 59005=
201709140600 AAXX 14064 67475 31960 01219 10200 20056 48543 70500
                   333 10300 20115 58002 91022=
201709120600 AAXX 12064 67475 31960 14005 10190 20092 48531 70500
                   333 10306 20138 59003 91021=
201709110600 AAXX 11064 67475 31960 00803 10195 20087 48534 70500
                   333 10308 20130 59005 91021=
201709080600 AAXX 08064 67475 31960 00506 10186 20086 48538 70500
                   333 10296 20106 59001 91022=
201709070900 AAXX 07094 67475 NIL=
201709070600 AAXX 07064 67475 31960 12006 10185 20116 70500
                   333 59019 91021=
201709061200 AAXX 06124 67475 41960 12005 10275 20116 48525 70500
                   333 59008 91020=
201709060600 AAXX 06064 67475 31960 00210 10181 20122 48551 70500
                   333 10280 20116 59012 91024=
201709051200 AAXX 05124 67475 31960 12007 10270 20075 48533 70500
                   333 58002 91021=
201709050600 AAXX 05064 67475 31960 01211 10172 20105 48563 70500
                   333 10278 20130 58004
                   555 00/// 91025=
201709040600 AAXX 04064 67475 31960 01214 10170 20109 48558 70500
                   333 10292 20142 58020
                   555 00/// 91024=

################################################################################
#  SYNOPS from 67476, Misamfu (Zambia) | 10-06S | 031-15E | 1536 m
################################################################################
201709291200 AAXX 29124 67476 NIL=
201709281200 AAXX 28124 67476 NIL=
201709270900 AAXX 27094 67476 NIL=
201709260600 AAXX 26064 67476 31980 20904 10205 20114 48/// 70500 80001
                   333 10320 20148 59006 82080
                   555 00122=
201709251200 AAXX 25124 67476 NIL=
201709221500 AAXX 22154 67476 NIL=
201709191200 AAXX 19124 67476 NIL=
201709190600 AAXX 19064 67476 32980 21207 10223 20090 48/// 81031
                   333 10299 20170 5//// 81360 81080=
201709150600 AAXX 15064 67476 31978 01004 10208 20108 48/// 70500
                   333 10297 20103 59004
                   555 00061=
201709120600 AAXX 12064 67476 32980 01504 10189 20084 48///
                   333 10302 20110 59002
                   555 00064=
201709080600 AAXX 08064 67476 32980 00203 10174 20082 48///
                   333 10295 20120 58001
                   555 00070=
201709070900 AAXX 07094 67476 NIL=
201709070600 AAXX 07064 67476 32980 00603 10169 20112 48///
                   333 10276 20108 59009
                   555 00082=
201709060600 AAXX 06064 67476 31974 00904 10245 20126 48/// 70500
                   333 10296 20113 58010
                   555 00078=

################################################################################
#  SYNOPS from 67477, Mpika (Zambia) | 11-54S | 031-26E | 1400 m
################################################################################
201709291200 AAXX 29124 67477 NIL=
201709290600 AAXX 29064 67477 31978 01206 10210 20110 48547 70500
                   333 10296 20162 58001
                   555 00148=
201709281200 AAXX 28124 67477 NIL=
201709280600 AAXX 28064 67477 31978 00906 10226 20120 48547 70500
                   333 10323 20157 59009
                   555 00130=
201709270900 AAXX 27094 67477 NIL=
201709260600 AAXX 26064 67477 31978 30906 10229 20110 48525 70500 80001
                   333 10298 20166 59007
                   555 00148=
201709251200 AAXX 25124 67477 NIL=
201709221500 AAXX 22154 67477 NIL=
201709210600 AAXX 21064 67477 31978 01212 10239 20090 48558 70500
                   333 10296 20183 58001
                   555 00175=
201709191200 AAXX 19124 67477 NIL=
201709190600 AAXX 19064 67477 31978 00903 10222 20100 48548 70500
                   333 10300 20140 58004
                   555 00110=
201709180600 AAXX 18064 67477 31978 00904 10229 20040 48546 70500
                   333 10305 20158 58004
                   555 00128=
201709150600 AAXX 15064 67477 31978 00903 10218 20060 48545 70500
                   333 10289 20120 59008
                   555 00089=
201709140600 AAXX 14064 67477 31978 00903 10218 20060 48553 70500
                   333 10286 20145 58004
                   555 00140=
201709120600 AAXX 12064 67477 31978 01206 10203 20100 48540 70500
                   333 10280 20135 59001
                   555 00115=
201709080600 AAXX 08064 67477 31978 00908 10199 20100 48545 70500
                   333 10270 20114 58005
                   555 00106=
201709070900 AAXX 07094 67477 NIL=
201709070600 AAXX 07064 67477 31978 01203 10193 20090 48548 70500
                   333 10268 20117 59012
                   555 00113=
201709060600 AAXX 06064 67477 31978 00908 10188 20110 48560 70500
                   333 10250 20126 59008
                   555 00121=
201709050600 AAXX 05064 67477 31978 00908 10168 20070 48566 70500
                   333 10240 20117 58005
                   555 00150=
201709040600 AAXX 04064 67477 31975 01212 10157 20060 48528 70500
                   333 10262 20128 58000
                   555 00114=
201709010600 AAXX 01064 67477 31978 00906 10171 20030 48558 70500
                   333 10270 20113 58007
                   555 00109=

################################################################################
#  SYNOPS from 67481, Isoka (Zambia) | 10-07S | 032-38E | 1360 m
################################################################################
201709291200 AAXX 29124 67481 NIL=
201709281200 AAXX 28124 67481 NIL=
201709270900 AAXX 27094 67481 41978 62602 10278 20097 48/// 70522 85030
                   333 5//// 86361=
201709270600 AAXX 27064 67481 31978 52202 10232 20120 48/// 70521 85030
                   333 10316 20180 5//// 85360=
201709261200 AAXX 26124 67481 41978 52502 10312 20025 48/// 70522 83045
                   333 5//// 83361 84080=
201709260600 AAXX 26064 67481 31978 61202 10204 20123 48/// 70522 80002
                   333 10320 20145 5//// 86080=
201709251200 AAXX 25124 67481 41778 11005 10292 20070 48/// 70500 81101
                   333 5//// 81856 81080=
201709221500 AAXX 22154 67481 NIL=
201709211200 AAXX 21124 67481 41878 33302 10308 20065 48/// 70500 83100
                   333 5//// 83857=
201709210600 AAXX 21064 67481 32980 01302 10235 20102 48///
                   333 10318 20137 5////=
201709201200 AAXX 20124 67481 41878 52702 10310 20115 48/// 70521 85100
                   333 5//// 85857=
201709200600 AAXX 20064 67481 31978 00603 10234 20129 48/// 70500
                   333 10322 20178 5////=
201709191200 AAXX 19124 67481 41976 02602 10310 20105 48/// 70500
                   333 5////=
201709190900 AAXX 19094 67481 41976 10602 10278 20090 48/// 70500 80001
                   333 5//// 81080=
201709190600 AAXX 19064 67481 31979 13603 10203 20103 48/// 70500 81040
                   333 10324 20147 5//// 81360=
201709180600 AAXX 18064 67481 31978 00000 10228 20075 48/// 70500
                   333 10318 20130 5////=
201709150600 AAXX 15064 67481 31978 11003 10204 20093 48/// 70500 81040
                   333 10304 20130 5//// 81361=
201709140600 AAXX 14064 67481 31976 02702 10210 20070 48/// 70500
                   333 10312 20130 5////=
201709120600 AAXX 12064 67481 31975 02702 10198 20080 48/// 70500
                   333 10302 20122 5////=
201709080600 AAXX 08064 67481 31976 00904 10205 20100 48/// 70500
                   333 10296 20137 59003=
201709070900 AAXX 07094 67481 41975 00903 10248 20082 48/// 70500
                   333 59017=
201709070600 AAXX 07064 67481 31977 01002 1//// 20106 48/// 70500
                   333 10282 20120 58016=
201709061200 AAXX 06124 67481 40975 02406 10270 20096 48/// 70500
                   333 5////=
201709060600 AAXX 06064 67481 31976 01002 10190 20121 48/// 70500
                   333 10278 20116 5////=
201709050600 AAXX 05064 67481 31978 00904 10172 20120 48/// 70500
                   333 10272 20117 58003
                   555 00///=
201709040900 AAXX 04094 67481 41978 11005 10225 20103 48/// 70500 81030
                   333 5//// 81361=
201709040600 AAXX 04064 67481 31979 13304 10175 20116 48/// 70500 81030
                   333 10284 20120 58015 81361
                   555 00///=
201709010600 AAXX 01064 67481 31976 13302 10186 20086 48/// 70500 80001
                   333 10298 20117 58009 81080
                   555 00///=

################################################################################
#  SYNOPS from 67531, Zambezi (Zambia) | 13-32S | 023-07E | 1077 m
################################################################################
201709291200 AAXX 29124 67531 NIL=
201709281200 AAXX 28124 67531 NIL=
201709280600 AAXX 28064 67531 11975 10000 10226 20158 48/// 60014 70520 80001
                   333 10355 20157 58010 81081
                   555 00150=
201709270900 AAXX 27094 67531 NIL=
201709260600 AAXX 26064 67531 31975 00303 10190 20088 48/// 70500
                   333 10362 20112 59014
                   555 00102=
201709251200 AAXX 25124 67531 NIL=
201709221500 AAXX 22154 67531 NIL=
201709210600 AAXX 21064 67531 31975 00906 10230 20097 48/// 70500
                   333 10355 20170 59001
                   555 00130=
201709201200 AAXX 20124 67531 41975 10906 10350 20069 48/// 70500 80001
                   333 58004 81081=
201709191200 AAXX 19124 67531 41975 22108 10346 20039 48/// 70500 80001
                   333 58008 82081=
201709190600 AAXX 19064 67531 31970 00804 10205 20066 48/// 70500 80001
                   333 10360 20131 58005 82081
                   555 00112=
201709180600 AAXX 18064 67531 31970 00704 10178 20075 48/// 70500
                   333 10352 20106 59003
                   555 00102=
201709150600 AAXX 15064 67531 31975 00904 10196 20070 48/// 70500
                   333 10331 20122 59011
                   555 00101=
201709140600 AAXX 14064 67531 31970 00603 10187 20055 48/// 70500
                   333 10337 20124 58017
                   555 00092=
201709120600 AAXX 12064 67531 31975 00904 10176 20061 48/// 70500
                   333 10340 20115 59006
                   555 00100=
201709110600 AAXX 11064 67531 31970 00904 10195 20069 48/// 70500
                   333 10340 20130 59008
                   555 00110=
201709080600 AAXX 08064 67531 31975 01304 10186 20079 48/// 70500
                   333 10340 20134 58001
                   555 00104=
201709070900 AAXX 07094 67531 NIL=
201709070600 AAXX 07064 67531 31970 00904 10196 20083 48/// 70500
                   333 10342 20102 59021
                   555 00100=
201709060600 AAXX 06064 67531 31975 00904 10192 20095 48/// 70500
                   333 10324 20125 59004
                   555 00125=
201709050600 AAXX 05064 67531 31970 10907 10180 20078 48/// 70500 80001
                   333 10300 20158 58008 81080
                   555 00140=
201709040600 AAXX 04064 67531 31970 21207 10201 20102 48/// 70500 80002
                   333 10326 20156 58015 82081
                   555 00131=

################################################################################
#  SYNOPS from 67541, Kasempa (Zambia) | 13-32S | 025-51E | 1234 m
################################################################################
201709291200 AAXX 29124 67541 NIL=
201709281200 AAXX 28124 67541 NIL=
201709280600 AAXX 28064 67541 31960 20503 10250 20088 48523 70522 80002
                   333 10340 20170 58013 82080=
201709270900 AAXX 27094 67541 NIL=
201709251200 AAXX 25124 67541 NIL=
201709221500 AAXX 22154 67541 NIL=
201709210600 AAXX 21064 67541 31960 00705 10240 20135 48538 70500
                   333 10320 20180 59001=
201709200600 AAXX 20064 67541 31960 50712 10238 20103 48539 70522 80005
                   333 10330 20180 58015 85080=
201709191200 AAXX 19124 67541 NIL=
201709190600 AAXX 19064 67541 31960 00803 10238 20069 48524 70500
                   333 10316 20144 58002=
201709180600 AAXX 18064 67541 31950 00000 10190 20102 48522 70500
                   333 10288 20110 58001=
201709150600 AAXX 15064 67541 31960 00000 10180 20086 48515 70500
                   333 10328 20088 59001=
201709140600 AAXX 14064 67541 31960 00802 10195 20086 48516 70500
                   333 10320 20116 59005=
201709120600 AAXX 12064 67541 31960 00810 10228 20066 48509 70500
                   333 10294 20162 59008=
201709110600 AAXX 11064 67541 31960 00804 10203 20079 48517 70500
                   333 10346 20100 59016=
201709080600 AAXX 08064 67541 31960 00802 10210 20089 48521 70500
                   333 10344 20150 58001=
201709070900 AAXX 07094 67541 NIL=
201709070600 AAXX 07064 67541 31965 00000 10225 20094 48520 70500
                   333 10350 20116 59007
                   555 00///=
201709060600 AAXX 06064 67541 31980 00000 10180 20111 48527 70500
                   333 10294 20109 5////=
201709040600 AAXX 04064 67541 32980 70802 10170 20109 48536 70222 87007
                   333 10278 20148 58010 87080
                   555 00///=

################################################################################
#  SYNOPS from 67543, Kabompo (Zambia) | 13-36S | 024-12E | 1075 m
################################################################################
201709291200 AAXX 29124 67543 NIL=
201709281200 AAXX 28124 67543 NIL=
201709280600 AAXX 28064 67543 31960 00000 10188 20133 48/// 70500
                   333 10370 20144 5////
                   555 00108=
201709270900 AAXX 27094 67543 NIL=
201709260600 AAXX 26064 67543 31965 00000 10188 20104 48/// 70500
                   333 10374 20140 59017
                   555 00106=
201709251200 AAXX 25124 67543 NIL=
201709221500 AAXX 22154 67543 NIL=
201709210600 AAXX 21064 67543 31970 00901 10244 20131 48/// 70500
                   333 10364 20198 59004
                   555 00142=
201709200600 AAXX 20064 67543 31965 50000 10212 20102 48/// 70522 80005
                   333 10368 20178 5//// 85285
                   555 00110=
201709191200 AAXX 19124 67543 41970 60601 10350 20082 48/// 70520 80007
                   333 58004 86285=
201709190600 AAXX 19064 67543 31960 10000 10198 20075 48/// 70500 80001
                   333 10360 20154 58003 81085
                   555 00098=
201709180600 AAXX 18064 67543 31965 00000 10162 20089 48/// 70500
                   333 10354 20122 59001
                   555 00094=
201709150600 AAXX 15064 67543 31970 00000 10160 20086 48/// 70500
                   333 10350 20118 59007
                   555 00084=
201709140600 AAXX 14064 67543 31970 00000 10218 20089 48/// 70500
                   333 10356 20164 58011
                   555 00136=
201709120600 AAXX 12064 67543 31965 00000 10196 20077 48/// 70500
                   333 10350 20160 59007
                   555 00100=
201709110600 AAXX 11064 67543 31960 00000 10198 20086 48/// 70500
                   333 10348 20166 59008
                   555 00128=
201709080600 AAXX 08064 67543 31970 00000 10200 20095 48/// 70500
                   333 10346 20152 59000
                   555 00098=
201709070900 AAXX 07094 67543 NIL=
201709070600 AAXX 07064 67543 31970 10000 10185 20100 48/// 70500 80001
                   333 10348 20150 59019 81085
                   555 00100=
201709060600 AAXX 06064 67543 31970 00000 10180 20117 48/// 70500
                   333 10342 20162 5////
                   555 00126=

################################################################################
#  SYNOPS from 67551, Solwezi (Zambia) | 12-11S | 026-23E | 1386 m
################################################################################
201709291200 AAXX 29124 67551 NIL=
201709281200 AAXX 28124 67551 NIL=
201709280600 AAXX 28064 67551 31958 00904 10216 20106 48536 70500
                   333 10342 20//0 58011
                   555 00224 91021=
201709270900 AAXX 27094 67551 NIL=
201709260600 AAXX 26064 67551 31958 00903 10223 20096 48515 70500
                   333 10326 20//0 59010
                   555 00239 91019=
201709251200 AAXX 25124 67551 NIL=
201709250600 AAXX 25064 67551 31958 00904 10202 20082 48522 70500
                   333 10328 20//0 59018
                   555 00218 91020=
201709221500 AAXX 22154 67551 NIL=
201709210600 AAXX 21064 67551 31958 01506 10200 20114 48544 70500
                   333 10382 20//0 59003
                   555 00220 91022=
201709200600 AAXX 20064 67551 31958 10906 10203 20097 48547 70500 80001
                   333 10348 20//0 58008
                   555 00203 91022=
201709191200 AAXX 19124 67551 NIL=
201709190600 AAXX 19064 67551 31958 00904 10195 20074 48539 70500
                   333 10358 20//0 58005
                   555 00201 91022=
201709180600 AAXX 18064 67551 31980 00903 10214 20066 48536 70500
                   333 10381 20//0 58013
                   555 00202 91021=
201709150600 AAXX 15064 67551 31956 00903 10200 20069 48530 70500
                   333 10371 20//0 59010
                   555 00187 91021=
201709140600 AAXX 14064 67551 31956 00506 10204 20061 48541 70500
                   333 10328 20//0 58002
                   555 00210=
201709120600 AAXX 12064 67551 31956 00903 10181 20070 48529 70500
                   333 10328 20//0 59007
                   555 00210 91020=
201709080600 AAXX 08064 67551 31956 00505 10158 20084 48552 70500
                   333 10318 20//0 58018
                   555 00180 91023=
201709070900 AAXX 07094 67551 NIL=
201709070600 AAXX 07064 67551 31956 01305 10191 20092 48538 70500
                   333 10320 20/// 59018
                   555 00200 91021=
201709060600 AAXX 06064 67551 31956 00504 10186 20108 48554 70500
                   333 10299 20//0 58005
                   555 00200 91023=
201709050600 AAXX 05064 67551 31956 01305 10164 20078 48557 70500
                   333 10282 20//0 59001
                   555 00180 91023=
201709040600 AAXX 04064 67551 31959 41306 10169 20102 48558 70511 80001
                   333 10294 20//0 58016 84080
                   555 00190 91023=

################################################################################
#  SYNOPS from 67561, Ndola (Zambia) | 13-00S | 028-39E | 1269 m
################################################################################
201709291200 AAXX 29124 67561 41875 71114 10294 20090 48517 70522 85201
                   333 58008 85857 83080 91018=
201709281200 AAXX 28124 67561 41858 51015 10331 20058 48511 70411 81102
                   333 58009 81857 85280 91017=
201709280900 AAXX 28094 67561 41959 11107 10296 20085 48541 70400 80001
                   333 58012 81080 91021=
201709280600 AAXX 28064 67561 31958 21010 10238 20101 48543 70400 80002
                   333 10336 20174 58012 82080 91022=
201709271200 AAXX 27124 67561 41975 1//// 10330 20069 48501 70500 81100
                   333 58016 81859 91016=
201709270900 AAXX 27094 67561 41965 00711 10314 20061 48531 70500
                   333 58016 91019=
201709270600 AAXX 27064 67561 31959 00803 10212 20091 48529 70400
                   333 10344 20153 58013 91020=
201709260600 AAXX 26064 67561 31957 00806 10214 20094 48516 70400
                   333 10326 20135 59012 91019=
201709251500 AAXX 25154 67561 41959 11008 10302 20072 48487 70400 81030
                   333 59030 81360=
201709251200 AAXX 25124 67561 41959 10811 10319 20053 48499 70400 81100
                   333 59029 81159 91016=
201709221500 AAXX 22154 67561 NIL=
201709201200 AAXX 20124 67561 41870 30913 10312 20088 48527 70500 83200
                   333 58003 83858 91019=
201709191200 AAXX 19124 67561 41959 30908 10318 20041 48524 70411 80002
                   333 58009 83080 91019=
201709190900 AAXX 19094 67561 41959 60816 10289 20062 48549 70422 80008
                   333 58007 86280 91022=
201709190600 AAXX 19064 67561 31956 50000 10198 20077 48544 70411 80008
                   333 10334 20140 58006 85280 91022=
201709180900 AAXX 18094 67561 41959 00908 10292 20030 48542 70400
                   333 58003 91021=
201709180600 AAXX 18064 67561 31950 00803 10191 20038 48538 70400
                   333 10332 20118 58003 91021=
201709140600 AAXX 14064 67561 31959 00805 10199 20073 48545 70400
                   333 10313 20124 58004 91022=
201709121200 AAXX 12124 67561 41960 00917 10305 20068 48512 70500
                   333 58000 91017=
201709120600 AAXX 12064 67561 31959 01016 10204 20080 48537 70400
                   333 10309 20125 58002 91021=
201709101017 AAXX 10104 67561 41970 51014 10308 20065 48513 70522 85859 91017=
201709100900 AAXX 10094 67561 41970 01015 10270 20094 48544 70500
                   333 58002 555 91021=
201709080600 AAXX 08064 67561 31959 00810 10189 20090 48535 70400
                   333 10313 20125 58005 91022=
201709071500 AAXX 07154 67561 41960 01017 10292 20040 48499 70500
                   333 59009 555 10313 91017=
201709070900 AAXX 07094 67561 41960 01013 10265 20084 48541 70500
                   333 59018 91021=
201709070600 AAXX 07064 67561 31980 00808 10184 20096 48539 70400
                   333 10308 20129 59013 91022=
201709061200 AAXX 06124 67561 41959 00605 10290 20113 48530 70400
                   333 58006 91020=
201709060600 AAXX 06064 67561 31958 00806 10166 20099 48550 70400
                   333 10296 20122 59009 91024=
201709051200 AAXX 05124 67561 41970 09906 10285 20092 48///
                   333 59006 91020=
201709050600 AAXX 05064 67561 31960 00704 10162 20080 48559 70500
                   333 10277 20110 59002
                   555 00/// 91024=
201709041200 AAXX 04124 67561 41775 70603 10272 20090 48542 70522 85208
                   333 58017 85850 85280 91021=
201709040900 AAXX 04094 67561 41970 60908 10242 20102 48568 70522 80008
                   333 58020 86280 91024=
201709040600 AAXX 04064 67561 31959 51412 10183 20104 48563 70411 80008
                   333 10289 20148 58014 85280
                   555 00/// 91024=

################################################################################
#  SYNOPS from 67563, Kafironda (Zambia) | 12-36S | 028-07E | 1243 m
################################################################################
201709291200 AAXX 29124 67563 NIL=
201709281200 AAXX 28124 67563 NIL=
201709270900 AAXX 27094 67563 NIL=
201709270600 AAXX 27064 67563 31970 00000 10205 20140 48/// 70500
                   333 10347 20122 58021
                   555 00118=
201709260600 AAXX 26064 67563 31980 00000 10200 20095 48/// 70500
                   333 10342 20105 59011
                   555 00100=
201709251200 AAXX 25124 67563 NIL=
201709250600 AAXX 25064 67563 31970 00502 10202 20140 48/// 70500
                   333 10323 20086 59026
                   555 00085=
201709221500 AAXX 22154 67563 NIL=
201709210600 AAXX 21064 67563 31970 00906 10232 20110 48/// 70500
                   333 10338 20139 5////
                   555 00136=
201709191200 AAXX 19124 67563 NIL=
201709190600 AAXX 19064 67563 NIL=
201709140600 AAXX 14064 67563 31970 00502 10189 20070 48/// 70500
                   333 10311 20068 58004
                   555 00066=
201709120600 AAXX 12064 67563 31970 01106 10165 20090 48/// 70500
                   333 10316 20084 5////
                   555 00082=
201709110600 AAXX 11064 67563 31970 01004 10167 20100 48/// 70500
                   333 10319 20076 5////
                   555 00073=
201709080600 AAXX 08064 67563 31970 01206 10210 20100 48/// 70500
                   333 10314 20094 58004
                   555 00081=
201709070900 AAXX 07094 67563 NIL=
201709070600 AAXX 07064 67563 31970 01304 10158 20050 48/// 70500
                   333 10310 20075 59016
                   555 00072=
201709060600 AAXX 06064 67563 31960 00602 10122 20060 48/// 70500
                   333 10299 20036 59008
                   555 00035=
201709050600 AAXX 05064 67563 31960 00603 10172 20080 48/// 70500
                   333 10286 20071 59002
                   555 00069=
201709040600 AAXX 04064 67563 31203 ///// 10194 20110 48/// 70500 80001
                   333 10296 20106 58018 83080
                   555 00095=

################################################################################
#  SYNOPS from 67571, Serenje (Zambia) | 13-14S | 030-13E | 1384 m
################################################################################
201709291200 AAXX 29124 67571 42670 40910 10275 20091 48/// 70511 84200
                   333 5//// 84845=
201709281200 AAXX 28124 67571 42670 30910 10295 20080 48/// 70500 83200
                   333 5//// 83845=
201709280900 AAXX 28094 67571 42670 10915 10280 20083 48/// 70500 81100
                   333 5//// 81830=
201709280600 AAXX 28064 67571 32970 00908 10240 20108 48/// 70500
                   333 10340 20175 5//// 00290=
201709270900 AAXX 27094 67571 NIL=
201709270600 AAXX 27064 67571 32970 00303 10234 20070 48/// 70500
                   333 10332 20156 5////
                   555 00300=
201709260600 AAXX 26064 67571 32965 00606 10245 20111 48/// 70500
                   333 10310 20145 5////
                   555 00300=
201709251200 AAXX 25124 67571 42670 11206 10295 20073 48/// 70500 81100
                   333 5//// 81845=
201709221500 AAXX 22154 67571 NIL=
201709210600 AAXX 21064 67571 32970 00905 10212 20135 48/// 70500
                   333 10300 20171 5////
                   555 00266=
201709201200 AAXX 20124 67571 42670 41506 10290 20110 48/// 70500 84200
                   333 5//// 84845=
201709200600 AAXX 20064 67571 32970 01205 10216 20122 48/// 70500
                   333 10300 20181 5////
                   555 00276=
201709191200 AAXX 19124 67571 NIL=
201709190900 AAXX 19094 67571 42965 00910 10268 20067 48/// 70500
                   333 5////=
201709190600 AAXX 19064 67571 32965 01205 10211 20059 48/// 70500
                   333 10305 20115 5////
                   555 00250=
201709180900 AAXX 18094 67571 41965 01206 10281 20035 48/// 70500
                   333 5////=
201709180600 AAXX 18064 67571 31965 00906 10245 20028 48/// 70500
                   333 10316 20189 5////
                   555 00254=
201709150900 AAXX 15094 67571 42970 00905 10268 20055 48/// 70500
                   333 5////=
201709150600 AAXX 15064 67571 32970 00606 10219 20079 48/// 70500
                   333 10298 20151 5////
                   555 00254=
201709140600 AAXX 14064 67571 31965 00906 10220 20062 48/// 70500
                   333 10297 20122 5////
                   555 00263=
201709131200 AAXX 13124 67571 42965 01508 10280 20035 48/// 70500
                   333 5////=
201709120600 AAXX 12064 67571 31965 01203 10200 20080 48/// 70500
                   333 10283 20147 5////
                   555 00243=
201709080600 AAXX 08064 67571 32975 00907 10205 20086 48/// 70500
                   333 10275 20139 5////
                   555 00246=
201709070900 AAXX 07094 67571 42970 00908 10240 20066 48/// 70500
                   333 5////=
201709070600 AAXX 07064 67571 32970 01204 10190 20080 48/// 70500
                   333 10283 20130 5////
                   555 00241=
201709061200 AAXX 06124 67571 41965 71503 10270 20086 48/// 70522 80008
                   333 5//// 87280=
201709060600 AAXX 06064 67571 31965 70903 10204 20087 48/// 70522 80008
                   333 10268 20149 5//// 87280
                   555 00223=
201709051200 AAXX 05124 67571 42970 71503 10250 20076 48/// 70522 80008
                   333 5//// 87280=
201709050600 AAXX 05064 67571 31965 70904 10177 20090 48/// 70522 80008
                   333 1//// 20125 5//// 87280
                   555 00203=
201709040900 AAXX 04094 67571 41565 41206 10201 20100 48/// 70500 81501
                   333 5//// 81625 84080=
201709040600 AAXX 04064 67571 31460 11215 10159 20096 48/// 70733 81500
                   333 10261 20127 5//// 81615
                   555 00192=

################################################################################
#  SYNOPS from 67575, Mkushi (Zambia) | 13-38-00S | 029-26-00E | 1237 m
################################################################################
201709291200 AAXX 29124 67575 NIL=
201709281200 AAXX 28124 67575 NIL=
201709270900 AAXX 27094 67575 NIL=
201709251200 AAXX 25124 67575 NIL=
201709221500 AAXX 22154 67575 NIL=
201709191200 AAXX 19124 67575 NIL=
201709190600 AAXX 19064 67575 NIL=
201709080600 AAXX 08064 67575 31975 00904 10200 20082 48/// 70500
                   333 10292 20132 58008
                   555 00107=
201709070900 AAXX 07094 67575 NIL=
201709070600 AAXX 07064 67575 31970 00908 10198 20077 48/// 70500
                   333 10302 20144 59018
                   555 00///=
201709060600 AAXX 06064 67575 31970 00908 10183 20087 48/// 70500
                   333 10290 20134 59007=
201709050600 AAXX 05064 67575 31970 01010 10164 20071 48/// 70500
                   333 10250 20117 59006
                   555 00///=
201709040600 AAXX 04064 67575 31470 61209 10169 20099 48/// 81508
                   333 10275 20130 58012 81615 86280
                   555 00///=

################################################################################
#  SYNOPS from 67580, Msekera (Zambia) | 13-39S | 032-34E | 1025 m
################################################################################
201709291200 AAXX 29124 67580 NIL=
201709281200 AAXX 28124 67580 NIL=
201709280600 AAXX 28064 67580 31678 20905 10268 20133 48/// 70500 81101
                   333 10354 20200 58030 81834 81080=
201709270900 AAXX 27094 67580 NIL=
201709270600 AAXX 27064 67580 31975 00903 10280 20139 48/// 70500
                   333 10350 20202 58010=
201709260600 AAXX 26064 67580 31975 02202 10243 20133 48///
                   333 10347 20168 59020=
201709251200 AAXX 25124 67580 41875 11102 10330 20111 48/// 70500 81100
                   333 5//// 81857=
201709221500 AAXX 22154 67580 NIL=
201709210600 AAXX 21064 67580 31975 01204 10230 20162 48/// 70500
                   333 10340 20167 58004=
201709191200 AAXX 19124 67580 41775 51205 10316 20110 48/// 70511 85100
                   333 5//// 85856=
201709190900 AAXX 19094 67580 41775 30906 10305 20119 48/// 70500 83100
                   333 58008 83850=
201709190600 AAXX 19064 67580 31975 10905 10257 20111 48/// 70500 80001
                   333 10336 20171 58009=
201709180600 AAXX 18064 67580 31978 00906 10262 20115 48/// 70500
                   333 10337 20174 58008=
201709150600 AAXX 15064 67580 31970 01003 10250 20095 48/// 70500
                   333 10332 20168 59013=
201709140600 AAXX 14064 67580 31975 01204 10250 20095 48/// 70500
                   333 10322 20137 58000=
201709120600 AAXX 12064 67580 31970 00905 10238 20099 48/// 70500
                   333 10318 20148 59002=
201709080900 AAXX 08094 67580 41780 50905 10302 20119 48/// 70500 85100
                   333 58004 85850=
201709080600 AAXX 08064 67580 31960 11205 10257 20104 48/// 70500 81100
                   333 10320 20165 58000 81832=
201709070900 AAXX 07094 67580 41975 00907 10289 20080 48/// 70500
                   333 59020=
201709070600 AAXX 07064 67580 31978 00904 10244 20083 48/// 70500
                   333 10315 20140 59019=
201709061200 AAXX 06124 67580 41978 01203 10304 20090 48/// 70500
                   333 59012=
201709060600 AAXX 06064 67580 31978 00905 10232 20107 48/// 70500
                   333 10300 20139 59017=
201709050600 AAXX 05064 67580 32980 11206 10186 20125 48/// 80001
                   333 10270 20125 59005 81080
                   555 00///=
201709040900 AAXX 04094 67580 41978 01205 10234 20085 48/// 70500
                   333 5////=
201709040600 AAXX 04064 67580 31578 41506 10179 20125 48/// 70511 84800
                   333 10279 20145 59005 82820 82624
                   555 00///=
201709010600 AAXX 01064 67580 31978 02103 10192 20137 48/// 70500
                   333 10298 20122 58011
                   555 00///=

################################################################################
#  SYNOPS from 67581, Chipata (Zambia) | 13-33S | 032-35E | 1028 m
################################################################################
201709291200 AAXX 29124 67581 NIL=
201709290600 AAXX 29064 67581 31660 31204 10244 20147 48573 70500 83100
                   333 10328 20188 58002 83835
                   555 00/// 91023=
201709281200 AAXX 28124 67581 41760 51809 10312 20088 48547 70522 85100
                   333 58023 85859 91018=
201709280600 AAXX 28064 67581 31960 01204 10259 20112 48574 70500
                   333 10339 20205 58028 91022=
201709270900 AAXX 27094 67581 NIL=
201709270600 AAXX 27064 67581 31960 00605 10273 20109 48549 70500
                   333 10342 20222 58012 91019=
201709261200 AAXX 26124 67581 41960 30806 10339 20049 48521 70500 80002
                   333 59046 83080 91014=
201709260600 AAXX 26064 67581 31960 01204 10266 20100 48536 70500
                   333 10332 20169 59017 91018=
201709251200 AAXX 25124 67581 NIL=
201709250600 AAXX 25064 67581 31960 00703 10251 20102 48548 70500
                   333 10331 20168 59025 91020=
201709221500 AAXX 22154 67581 NIL=
201709220600 AAXX 22064 67581 31960 21205 10249 20135 48574 70500 82030
                   333 10364 20176 59012 82360 91023=
201709210600 AAXX 21064 67581 31960 00903 10247 20151 48583 70500
                   333 10321 20174 58002 91024=
201709201200 AAXX 20124 67581 41860 51206 10309 20124 48561 70522 85200
                   333 58010 85857 91020=
201709200600 AAXX 20064 67581 31660 21604 10251 20113 48583 70500 82100
                   333 10324 20195 58010 82830 91024=
201709191200 AAXX 19124 67581 NIL=
201709190600 AAXX 19064 67581 NIL=
201709180600 AAXX 18064 67581 31960 00912 10261 20059 48565 70500
                   333 10312 20206 58006 91022=
201709150600 AAXX 15064 67581 31960 01005 10269 20046 48559 70500
                   333 10326 20168 59009 91021=
201709141200 AAXX 14124 67581 41960 00903 10315 20061 48887 70500
                   333 59009 91018=
201709140600 AAXX 14064 67581 31960 01203 10264 20060 48568 70500
                   333 10341 20143 58004 91022=
201709120600 AAXX 12064 67581 31960 01206 10246 20056 48559 70500
                   333 10323 20165 59002 91021=
201709110600 AAXX 11064 67581 31960 00905 10247 20065 48561 70500
                   333 10319 20167 59005 91021=
201709080900 AAXX 08094 67581 41660 21408 10286 20082 48580 70500 82100
                   333 58003 82840 91022=
201709080600 AAXX 08064 67581 31960 01604 10256 20058 48565 70500
                   333 10329 20154 58000 91022=
201709070900 AAXX 07094 67581 NIL=
201709070600 AAXX 07064 67581 31960 00806 10238 20047 48561 70500
                   333 10301 20154 59020 91022=
201709061019 AAXX 06104 67581 41960 00906 10298 20046 48011 91019=
201709060600 AAXX 06064 67581 31960 21206 10226 20098 48578 70500 80001
                   333 10317 20131 59013 82080=
201709050600 AAXX 05064 67581 31960 31510 10184 20113 48582 70500 80001
                   333 10272 20134 59005 83080
                   555 00/// 91025=
201709040900 AAXX 04094 67581 42660 21904 10249 20066 48598 70500 82100
                   333 58027 82835 91026=
201709040600 AAXX 04064 67581 31660 21208 10182 20102 48587 70500 82100
                   333 10321 20142 58018 82830 91026=

################################################################################
#  SYNOPS from 67583, Lundazi (Zambia) | 12-17S | 033-12E | 1143 m
################################################################################
201709291200 AAXX 29124 67583 NIL=
201709290600 AAXX 29064 67583 31458 41402 10224 20155 48/// 70500 84500
                   333 10312 20142 5//// 84615
                   555 00///=
201709281200 AAXX 28124 67583 NIL=
201709280600 AAXX 28064 67583 31959 00604 10242 20165 48/// 70500
                   333 10342 20152 5////=
201709270900 AAXX 27094 67583 NIL=
201709270600 AAXX 27064 67583 31959 00000 10257 20135 48/// 70500
                   333 10350 20162 5////=
201709260600 AAXX 26064 67583 31958 70000 10220 20142 48/// 70500 80008
                   333 10328 20140 5//// 87280=
201709251200 AAXX 25124 67583 NIL=
201709221500 AAXX 22154 67583 NIL=
201709191200 AAXX 19124 67583 NIL=
201709190600 AAXX 19064 67583 31958 11206 10234 20136 48/// 70500 80001
                   333 10328 20132 5//// 81080=
201709180600 AAXX 18064 67583 31960 01002 10254 20102 48/// 70500
                   333 10346 20126 5////=
201709150600 AAXX 15064 67583 31959 00000 10184 20120 48/// 70500
                   333 10314 20102 5////=
201709140600 AAXX 14064 67583 31959 00000 10198 20128 48/// 70500
                   333 10304 20102 5////=
201709120600 AAXX 12064 67583 31960 00000 10214 20113 48/// 70500
                   333 10302 20108 5////=
201709080600 AAXX 08064 67583 31958 00902 10228 20125 70500
                   333 10288 20118 5////=
201709070900 AAXX 07094 67583 NIL=
201709070600 AAXX 07064 67583 31958 00000 10192 20107 48/// 70500
                   333 10314 20098 5////=
201709060600 AAXX 06064 67583 31970 01302 10212 20100 48/// 70500
                   333 10294 20112 5////=
201709050600 AAXX 05064 67583 31975 01003 10182 20132 48/// 70500
                   333 10340 20118 5////
                   555 00///=
201709040600 AAXX 04064 67583 31559 31803 10178 20118 48/// 70500 83500
                   333 10272 20124 5//// 83625
                   555 00///=

################################################################################
#  SYNOPS from 67599, Mfuwe (Zambia) | 13-16S | 031-56E | 568 m
################################################################################
201709291200 AAXX 29124 67599 NIL=
201709281200 AAXX 28124 67599 NIL=
201709280600 AAXX 28064 67599 31959 11313 10280 20136 48567 70511 81030
                   333 10396 20205 58020 81360
                   555 00190 91019=
201709270900 AAXX 27094 67599 NIL=
201709270600 AAXX 27064 67599 31960 00604 10285 20123 48548 70500
                   333 10380 20160 58010
                   555 00150 91017=
201709251200 AAXX 25124 67599 NIL=
201709221500 AAXX 22154 67599 NIL=
201709191200 AAXX 19124 67599 NIL=
201709190600 AAXX 19064 67599 31975 00000 10257 20074 48566 70500
                   333 10381 20160 58008
                   555 00145 91020=
201709180600 AAXX 18064 67599 31958 00000 10249 20039 48556 70500
                   333 10379 20138 58008
                   555 00128 91019=
201709150600 AAXX 15064 67599 31958 01008 10240 20100 48547 70500
                   333 10355 20145 59015
                   555 00150 91019=
201709140600 AAXX 14064 67599 31956 00000 10225 20070 48533 70500
                   333 10355 20135 58007
                   555 00140 91020=
201709120600 AAXX 12064 67599 32958 01503 10218 20076 48544 70500
                   333 10359 20134 59002
                   555 00132 91019=
201709080600 AAXX 08064 67599 32980 00000 10234 20095 48551
                   333 10352 20148 59002
                   555 00140 91019=
201709070900 AAXX 07094 67599 NIL=
201709070600 AAXX 07064 67599 31980 01905 10213 20076 48545 70500
                   333 10355 20142 59027
                   555 00138 91020=
201709060600 AAXX 06064 67599 31960 01803 10210 20116 48570 70500
                   333 10334 20125 59018
                   555 00120 91022=
201709050600 AAXX 05064 67599 31960 41305 10200 20120 48583 70522
                   333 10310 20130 59004 84080
                   555 00105 91024=
201709040600 AAXX 04064 67599 31660 21211 10215 20114 48590 70522 82130
                   333 10324 20178 58032 82836 81360
                   555 00159 91025=

################################################################################
#  SYNOPS from 67625, Kalabo (Zambia) | 14-51S | 022-42E | 1033 m
################################################################################
201709291200 AAXX 29124 67625 NIL=
201709290600 AAXX 29064 67625 32982 00710 10215 20127 48///
                   333 10353 20185 58002
                   555 00175=
201709281200 AAXX 28124 67625 42982 80110 10345 20073 48/// 80003
                   333 59002 88085=
201709280600 AAXX 28064 67625 32982 72604 10206 20133 48/// 85033
                   333 10352 20180 58016 85360 87075
                   555 00168=
201709271200 AAXX 27124 67625 42782 13109 10343 20181 48/// 81100
                   333 58033 81856=
201709270900 AAXX 27094 67625 42982 03312 10280 20180 48///
                   333 58009=
201709270600 AAXX 27064 67625 32982 73605 10221 20131 48/// 87030
                   333 10372 20204 58011 87361
                   555 00166=
201709260600 AAXX 26064 67625 32982 00607 10210 20069 48///
                   333 10356 20166 59018
                   555 00136=
201709251200 AAXX 25124 67625 42982 01209 10350 20066 48///
                   333 5////=
201709221500 AAXX 22154 67625 NIL=
201709220900 AAXX 22094 67625 42982 00609 10302 20108 48///
                   333 59003=
201709210900 AAXX 21094 67625 42982 00910 10303 20118 48///
                   333 58002=
201709201200 AAXX 20124 67625 42982 00610 10350 20061 48///
                   333 58005=
201709191200 AAXX 19124 67625 42982 81009 10348 20070 48/// 80004
                   333 58011 88075=
201709190900 AAXX 19094 67625 42982 70615 10304 20067 48/// 80004
                   333 58022 87075=
201709190600 AAXX 19064 67625 32982 61107 10188 20066 48/// 80004
                   333 10363 20115 59001 86075
                   555 00132=
201709181200 AAXX 18124 67625 42982 01208 10351 20068 48///
                   333 5////=
201709180900 AAXX 18094 67625 42982 00511 10314 20055 48///
                   333 5////=
201709180600 AAXX 18064 67625 32982 01006 10205 20057 48///
                   333 10350 20139 59002
                   555 00110=
201709140900 AAXX 14094 67625 42982 00612 10299 20084 48///
                   333 58003=
201709140600 AAXX 14064 67625 32982 00910 10184 20093 48///
                   333 10344 20153 58008
                   555 00118=
201709131200 AAXX 13124 67625 42982 00607 10331 20075 48///
                   333 58006=
201709111200 AAXX 11124 67625 42982 00912 10335 20057 48///=
201709080600 AAXX 08064 67625 32982 01109 10186 20079 48///
                   333 10333 20146 59014
                   555 00122=
201709070900 AAXX 07094 67625 42982 40810 10283 20097 48/// 80004
                   333 59009 84075=
201709070600 AAXX 07064 67625 32982 71311 10184 20085 48/// 80004
                   333 10342 20155 59013 87075
                   555 00128=
201709061200 AAXX 06124 67625 42982 01114 10330 20059 48///
                   333 59006=
201709060600 AAXX 06064 67625 32982 41108 10171 20072 48/// 84030
                   333 10315 20153 58002 84361
                   555 00128=
201709051200 AAXX 05124 67625 42982 30506 10304 20095 48/// 80004
                   333 58001 83075=
201709050600 AAXX 05064 67625 32982 70911 10185 20073 48/// 87034
                   333 10310 20146 58011 87361 87075
                   555 00140=
201709040900 AAXX 04094 67625 42982 80817 10256 20109 48/// 80004
                   333 5//// 88075=
201709040600 AAXX 04064 67625 32982 81308 10173 20100 48/// 80004
                   333 10333 20135 5//// 88075
                   555 00128=

################################################################################
#  SYNOPS from 67633, Mongu (Zambia) | 15-15S | 023-09E | 1052 m
################################################################################
201709291200 AAXX 29124 67633 NIL=
201709290600 AAXX 29064 67633 32980 00905 10236 20122 48540
                   333 10238 20210 58009
                   555 00/// 91020=
201709281200 AAXX 28124 67633 NIL=
201709280600 AAXX 28064 67633 32980 60103 10235 20125 48595 70222 80001
                   333 10359 20195 58020 86080=
201709270900 AAXX 27094 67633 NIL=
201709270600 AAXX 27064 67633 32980 53615 10250 20139 48511 70222 85031
                   333 10386 20214 58012 85360 82080 91016=
201709260600 AAXX 26064 67633 32980 00506 10235 20095 48500 70200
                   333 10373 20205 59020 91015=
201709251200 AAXX 25124 67633 NIL=
201709221500 AAXX 22154 67633 NIL=
201709210900 AAXX 21094 67633 42980 00904 10320 20144 48502 70200
                   333 59005 91020=
201709210600 AAXX 21064 67633 32980 00903 10235 20116 48548 70200
                   333 10352 20178 58009 91021=
201709201200 AAXX 20124 67633 42980 00906 10355 20104 48528 70200
                   333 58005 91017=
201709191200 AAXX 19124 67633 NIL=
201709190600 AAXX 19064 67633 32980 00905 10220 20083 48526 70200
                   333 10376 20194 58000 91019=
201709180600 AAXX 18064 67633 32980 00902 10212 20079 48524 70200
                   333 10366 20183 59003 91019=
201709150600 AAXX 15064 67633 32980 00904 10213 20115 48524 70200
                   333 10357 20169 59009 91019=
201709140600 AAXX 14064 67633 32980 00703 10224 20103 48535 70200
                   333 10357 20178 58012
                   555 00158 91020=
201709120600 AAXX 12064 67633 32980 00904 10207 20083 48524 70200
                   333 10340 20178 58012
                   555 00166 91019=
201709080600 AAXX 08064 67633 32980 00904 10216 20086 48535 70200
                   333 10343 20175 59003
                   555 00160 91020=
201709070900 AAXX 07094 67633 NIL=
201709070600 AAXX 07064 67633 32980 00902 10217 20094 48535 70200
                   333 10347 20152 59015
                   555 00143 91020=
201709060600 AAXX 06064 67633 32980 20905 10190 20105 48540 70200 82030
                   333 10326 20153 58005 82360
                   555 00141 91022=
201709050600 AAXX 05064 67633 32980 30906 10193 20096 48540 70200 83030
                   333 10356 20165 59006 83360
                   555 00160 91021=
201709040600 AAXX 04064 67633 32980 40903 10187 20118 48549 70200 80001
                   333 10335 20150 58017 84080
                   555 00141 91022=
201709010600 AAXX 01064 67633 32980 00903 10185 20057 48540
                   333 10341 20137 58008
                   555 00135 91022=

################################################################################
#  SYNOPS from 67641, Kaoma (Zambia) | 14-48S | 024-48E | 1213 m
################################################################################
201709291200 AAXX 29124 67641 NIL=
201709281200 AAXX 28124 67641 NIL=
201709280600 AAXX 28064 67641 31960 60803 10207 20121 48534 70521 80001
                   333 10373 20149 58010 86080
                   555 00100 91020=
201709270900 AAXX 27094 67641 NIL=
201709270600 AAXX 27064 67641 31960 03601 10225 20115 48514 70500
                   333 10366 20137 58007
                   555 00101 91017=
201709260600 AAXX 26064 67641 31965 03602 10197 20111 48504 70500
                   333 10355 20150 59017
                   555 00114 91016=
201709251200 AAXX 25124 67641 NIL=
201709250600 AAXX 25064 67641 31965 00801 10192 20107 48520 70500
                   333 10354 20128 59026
                   555 00090 91018=
201709221500 AAXX 22154 67641 NIL=
201709200600 AAXX 20064 67641 31960 20602 10181 20105 48539 70500 80001
                   333 10350 20136 58013 82080
                   555 00094 91021=
201709191200 AAXX 19124 67641 NIL=
201709190600 AAXX 19064 67641 31960 23601 10194 20100 48529 70500 80001
                   333 10357 20127 59005 82080
                   555 00091 91020=
201709180600 AAXX 18064 67641 31958 00000 10164 20107 48520 70500
                   333 10358 20129 58002
                   555 00090 91018=
201709150600 AAXX 15064 67641 31960 00000 10141 20098 48516 70500
                   333 1//// 20101 59014
                   555 00066 91018=
201709140600 AAXX 14064 67641 31960 00402 10174 20111 48533 70500
                   333 10//0 20124 58015
                   555 00085 91020=
201709120600 AAXX 12064 67641 31960 01002 10174 20099 48519 70500
                   333 10338 20124 58001
                   555 00089 91018=
201709110600 AAXX 11064 67641 31960 00000 10165 20115 48518 70500
                   333 10340 20133 59010
                   555 00098 91018=
201709080600 AAXX 08064 67641 31965 03601 10182 20105 48518 70500
                   333 10300 20140 59002
                   555 00114 91018=
201709070900 AAXX 07094 67641 NIL=
201709070600 AAXX 07064 67641 31970 00802 10170 20112 48519 70500
                   333 10333 20123 59021
                   555 00092 91018=
201709060600 AAXX 06064 67641 31965 00602 10147 20081 48536 70500
                   333 10313 20110 59009
                   555 00081 91021=
201709050600 AAXX 05064 67641 31965 30605 10175 20084 48549 70521 83030
                   333 10301 20149 59003 83360
                   555 00128 91022=
201709040600 AAXX 04064 67641 31960 ///// 10172 20123 48550 70521 80001
                   333 10318 20118 58021 86080
                   555 00084 91022=

################################################################################
#  SYNOPS from 67655, Mumbwa (Zambia) | 15-04S | 027-11E | 1216 m
################################################################################
201709291200 AAXX 29124 67655 NIL=
201709281200 AAXX 28124 67655 NIL=
201709270900 AAXX 27094 67655 NIL=
201709251200 AAXX 25124 67655 NIL=
201709221500 AAXX 22154 67655 NIL=
201709191200 AAXX 19124 67655 NIL=
201709190600 AAXX 19064 67655 NIL=
201709070900 AAXX 07094 67655 NIL=
201709070600 AAXX 07064 67655 NIL=
201709060600 AAXX 06064 67655 NIL=

################################################################################
#  SYNOPS from 67659, Kafue Polder (Zambia) | 15-46S | 027-55E | 978 m
################################################################################
201709291200 AAXX 29124 67659 NIL=
201709281200 AAXX 28124 67659 NIL=
201709280600 AAXX 28064 67659 32980 01503 10230 20144 48/// 70500
                   333 10350 20130 59002=
201709270900 AAXX 27094 67659 NIL=
201709270600 AAXX 27064 67659 32980 01202 10260 20110 48/// 70500
                   333 10357 20120 58007=
201709260600 AAXX 26064 67659 32980 01803 10232 20148 48/// 70500
                   333 10340 20140 59006=
201709251200 AAXX 25124 67659 NIL=
201709221500 AAXX 22154 67659 NIL=
201709210600 AAXX 21064 67659 32980 0//// 10230 20174 48/// 70500
                   333 10328 20149 58002=
201709200600 AAXX 20064 67659 32975 01403 10232 20153 48/// 70500
                   333 10334 20145 58014=
201709191200 AAXX 19124 67659 NIL=
201709190600 AAXX 19064 67659 32975 01703 10218 20118 48/// 70500
                   333 10342 20150 58005=
201709180600 AAXX 18064 67659 32980 02204 10236 20103 48/// 70500
                   333 10325 20130 59003=
201709150600 AAXX 15064 67659 32980 01703 10242 20068 48/// 70500
                   333 10332 20110 59004=
201709140600 AAXX 14064 67659 32980 02103 10235 20108 48/// 70500
                   333 10313 20115 59001=
201709120600 AAXX 12064 67659 32980 01904 10225 20090 48/// 70500
                   333 10315 20125 59006=
201709080600 AAXX 08064 67659 32980 01506 10230 20127 48/// 70500
                   333 10303 20109 58005=
201709070900 AAXX 07094 67659 NIL=
201709070600 AAXX 07064 67659 32980 01403 10200 20122 48/// 70500
                   333 10298 20140 59015=
201709060600 AAXX 06064 67659 32980 01804 10197 20121 48/// 70500
                   333 10280 20141 58005=
201709040600 AAXX 04064 67659 32980 32204 10188 20112 48/// 70222 83030
                   333 10292 20103 58004 83360
                   555 00///=

################################################################################
#  SYNOPS from 67662, Kabwe Agric (Zambia) | 14-24S | 028-30E | 1165 m
################################################################################
201709291200 AAXX 29124 67662 NIL=
201709281200 AAXX 28124 67662 NIL=
201709270900 AAXX 27094 67662 NIL=
201709260600 AAXX 26064 67662 31970 01501 10224 20118 48/// 70500
                   333 10332 20134 5////
                   555 00118=
201709251200 AAXX 25124 67662 NIL=
201709221500 AAXX 22154 67662 NIL=
201709191200 AAXX 19124 67662 NIL=
201709190600 AAXX 19064 67662 NIL=
201709180600 AAXX 18064 67662 31970 00801 10211 20037 48/// 70500
                   333 10331 20110 5////
                   555 00107=
201709140600 AAXX 14064 67662 31970 01001 10209 20077 48/// 70500
                   333 10316 20138 555 00106=
201709120600 AAXX 12064 67662 31970 01002 10191 20081 48/// 70500
                   333 10316 20140 5////
                   555 00102=
201709070900 AAXX 07094 67662 NIL=
201709070600 AAXX 07064 67662 31970 00802 10194 20076 48/// 70500
                   333 10292 20116 5////
                   555 00091=
201709060600 AAXX 06064 67662 31970 00806 10186 20095 48/// 70500
                   333 10283 20118 5////
                   555 00108=
201709050600 AAXX 05064 67662 31970 01006 10175 20072 48/// 70500
                   333 10255 20109 5////
                   555 00082=
201709040600 AAXX 04064 67662 31970 61506 10160 20105 70522 80008
                   333 10295 20095 5//// 86280
                   555 00084=
201709010600 AAXX 01064 67662 31970 00804 10178 20026 48/// 70500
                   333 10290 20070 555 00060=

################################################################################
#  SYNOPS from 67663, Kabwe (Zambia) | 14-27S | 028-28E | 1206 m
################################################################################
201709291200 AAXX 29124 67663 NIL=
201709281200 AAXX 28124 67663 NIL=
201709280600 AAXX 28064 67663 31965 00607 10246 20109 48543 70500
                   333 10352 20//0 58031
                   555 00306=
201709270900 AAXX 27094 67663 NIL=
201709260600 AAXX 26064 67663 31965 00707 10245 20163 48500 70500
                   333 10328 20174 59024
                   555 00320=
201709251200 AAXX 25124 67663 NIL=
201709250600 AAXX 25064 67663 31965 00710 10200 20119 48519 70500
                   333 10320 20156 59024
                   555 00265=
201709221500 AAXX 22154 67663 NIL=
201709210600 AAXX 21064 67663 31965 00922 10223 20152 48557 70500
                   333 10317 20189 58001
                   555 00280=
201709200600 AAXX 20064 67663 31965 01005 10224 20132 48556 70500
                   333 10320 20168 58022
                   555 00290=
201709191200 AAXX 19124 67663 41965 00904 10311 20083 48502 70500
                   333 58013=
201709190600 AAXX 19064 67663 31965 00904 10220 20093 48534 70500
                   333 10330 20152 58002
                   555 00270=
201709180600 AAXX 18064 67663 31965 01004 10225 20050 48533 70500
                   333 10329 20172 58002
                   555 00250=
201709140600 AAXX 14064 67663 31965 00903 10213 20084 48533 70500
                   333 10312 20168 58007
                   555 00260=
201709120600 AAXX 12064 67663 31965 01003 10201 20097 48531 70500
                   333 10306 20150 59001
                   555 00260=
201709110600 AAXX 11064 67663 31965 00915 10217 20089 48534 70500
                   333 10314 20162 59007
                   555 00266=
201709080600 AAXX 08064 67663 31970 00904 10212 20086 48524 70500
                   333 10278 20148 59013=
201709070900 AAXX 07094 67663 NIL=
201709070600 AAXX 07064 67663 31970 00904 10198 20089 48534 70500
                   333 10292 20130 59013
                   555 00///=
201709060600 AAXX 06064 67663 31970 00910 10188 20093 48546 70500
                   333 10277 20124 59012=
201709050600 AAXX 05064 67663 31970 01012 10161 20069 48555 70500
                   333 10257 20108 59004
                   555 00///=
201709040600 AAXX 04064 67663 31970 41019 10162 20105 48558 70500 81032
                   333 10273 20116 58028 81360 83080
                   555 00///=

################################################################################
#  SYNOPS from 67665, Lusaka Internationalairport (Zambia) | 15-19S | 028-27E | 1152 m
################################################################################
201710010600 AAXX 01064 67665 42980 31011 10215 20112 48561 80001
                   333 10//0 20//0 59009 83080=
201710010300 AAXX 01034 67665 42980 31104 10175 20105 48546 80002
                   333 59010 83080=
201710010000 AAXX 01004 67665 42980 00902 10171 20098 48528
                   333 59019=
201709302100 AAXX 30214 67665 42980 01103 10197 20098 48546
                   333 59013=
201709301800 AAXX 30184 67665 42960 01105 10225 20115 48540 70200
                   333 59010=
201709301200 AAXX 30124 67665 41659 40610 10293 20110 48539 70522 84201
                   333 58004 84840 82080=
201709300900 AAXX 30094 67665 41665 10812 10255 20113 48567 70500 81101
                   333 59002 81830 81080=
201709291200 AAXX 29124 67665 NIL=
201709290900 AAXX 29094 67665 41559 60916 10255 20125 48569 70522
                   333 58011 86630=
201709290600 AAXX 29064 67665 31559 50809 10204 20139 48557 70520
                   333 10370 20//0 58008 85620=
201709290300 AAXX 29034 67665 41960 01106 10191 20116 48551 70500
                   333 58018=
201709290000 AAXX 29004 67665 41960 01009 10201 20126 48545 70500
                   333 58017=
201709282100 AAXX 28214 67665 41959 00810 10221 20132 48553 70500
                   333 58022=
201709281500 AAXX 28154 67665 41957 30917 10290 20095 48540 70500 80001
                   333 58035 83080=
201709281200 AAXX 28124 67665 NIL=
201709280900 AAXX 28094 67665 41657 10915 10295 20137 48563 70500 81500
                   333 58025 81650=
201709280600 AAXX 28064 67665 31959 00911 10230 20070 48560 70500
                   333 10355 20//0 58025=
201709280300 AAXX 28034 67665 41959 01005 10185 20049 48534 70500
                   333 58026=
201709280000 AAXX 28004 67665 41959 00903 10200 20045 48531 70500
                   333 58031=
201709272100 AAXX 27214 67665 41959 00602 10227 20040 48533 70500
                   333 58018=
201709271800 AAXX 27184 67665 41959 01004 10257 20013 48532 70500
                   333 10355 58011=
201709271500 AAXX 27154 67665 41959 00807 10336 21042 48511 70500
                   333 58012=
201709271200 AAXX 27124 67665 41958 00906 10340 21013 48517 70500
                   333 58014=
201709270900 AAXX 27094 67665 NIL=
201709270600 AAXX 27064 67665 31965 00203 10240 20054 48536 70500
                   333 10//0 20//0 58008=
201709270300 AAXX 27034 67665 41970 03101 10192 20052 48499 70500
                   333 58003=
201709270000 AAXX 27004 67665 41970 01302 10176 20046 48496 70500
                   333 59009=
201709262100 AAXX 26214 67665 41970 01402 10207 20036 48513 70500
                   333 59004=
201709261800 AAXX 26184 67665 41970 01203 10244 20049 48507 70500
                   333 59008=
201709261500 AAXX 26154 67665 41970 00807 10329 20022 48597 70500
                   333 59015=
201709261200 AAXX 26124 67665 41970 03106 10340 20028 48503 70500
                   333 59018=
201709260900 AAXX 26094 67665 41959 00407 10302 20056 48526 70500
                   333 59021=
201709251200 AAXX 25124 67665 NIL=
201709250900 AAXX 25094 67665 41959 00607 10260 20011 48544 70500
                   333 59034=
201709250600 AAXX 25064 67665 31959 01005 10189 20121 48543 70500
                   333 10324 20//0 59030=
201709250300 AAXX 25034 67665 42980 01203 10142 20096 48528 70500
                   333 59028=
201709250000 AAXX 25004 67665 41960 01203 10169 20075 48531 70500
                   333 59008=
201709242100 AAXX 24214 67665 41960 00806 10180 20071 48544 70500
                   333 59002=
201709241800 AAXX 24184 67665 41965 01006 10222 20060 48545 70500
                   333 5////=
201709241500 AAXX 24154 67665 41970 00910 10297 20050 48551 70500
                   333 58006=
201709241200 AAXX 24124 67665 41970 00910 10310 20048 48553 70500
                   333 58011=
201709240600 AAXX 24064 67665 31980 00816 10227 20074 48587 70500
                   333 58016=
201709240300 AAXX 24034 67665 42980 01105 10174 20015 48549 70200
                   333 58009=
201709231800 AAXX 23184 67665 41959 00607 10231 20040 48542 70500
                   333 59004=
201709231500 AAXX 23154 67665 41959 00910 10309 21001 48537 70500
                   333 59006=
201709231200 AAXX 23124 67665 41959 00914 10312 20000 48542 70500
                   333 59005=
201709230900 AAXX 23094 67665 41959 00808 10287 20034 48565 70500
                   333 59008=
201709230600 AAXX 23064 67665 32960 01106 10226 20072 48561 70200
                   333 59008=
201709222100 AAXX 22214 67665 42980 01304 10184 20100 48545 70200
                   333 59008=
201709221500 AAXX 22154 67665 41680 30810 10285 20073 48542 70500 83100
                   333 10325 20//0 59009 83850=
201709221200 AAXX 22124 67665 41959 50710 10298 20068 48546 70500 85100
                   333 59013 85840=
201709220900 AAXX 22094 67665 41959 00613 10258 20092 48569 70500
                   333 59013=
201709220600 AAXX 22064 67665 32980 01111 10194 20107 48564 70200
                   333 59013=
201709212100 AAXX 21214 67665 42980 01004 10180 20095 48552 70200
                   333 59005=
201709211800 AAXX 21184 67665 42960 01106 10220 20074 48551 70200
                   333 58000 555 10296=
201709211500 AAXX 21154 67665 41659 31011 10283 20096 48549 70500 83100
                   333 58002 83845=
201709211200 AAXX 21124 67665 41659 30812 10286 20090 48556 70500 83100
                   333 58006 83830=
201709210900 AAXX 21094 67665 41380 30714 10255 20113 48581 70500 83500
                   333 58007 83620=
201709210600 AAXX 21064 67665 31465 30915 10210 20107 48579 70500 83500
                   333 10328 58005 83512=
201709210300 AAXX 21034 67665 41960 01105 10173 20106 48549 70500
                   333 59003=
201709210000 AAXX 21004 67665 41960 00904 10179 20069 48547 70500
                   333 59004=
201709202100 AAXX 20214 67665 41960 00904 10203 20065 48559 70500
                   333 58001=
201709201800 AAXX 20184 67665 41959 01006 10230 20076 48553 70500
                   333 58001=
201709201500 AAXX 20154 67665 41957 10816 10293 20074 48546 70500 81030
                   333 58004 81360=
201709201200 AAXX 20124 67665 41757 10917 10320 20069 48554 70500 81100
                   333 58004 81856=
201709200900 AAXX 20094 67665 41659 00814 10280 20114 48577 70500 81500
                   333 58009=
201709200600 AAXX 20064 67665 31959 01004 10205 20130 48574 70500
                   333 10322 20/// 58014=
201709200300 AAXX 20034 67665 42980 00202 10161 20086 48550 70200
                   333 58014=
201709200000 AAXX 20004 67665 42980 01202 10159 20080 48548 70200
                   333 58011=
201709192100 AAXX 19214 67665 41970 01103 10187 20076 48557 70500
                   333 58012=
201709191200 AAXX 19124 67665 NIL=
201709190900 AAXX 19094 67665 41959 00711 10273 20091 48567 70500
                   333 58006=
201709190600 AAXX 19064 67665 NIL=
201709181500 AAXX 18154 67665 41959 00810 10307 20004 48531 70500
                   333 58010=
201709181200 AAXX 18124 67665 41958 00910 10321 20005 48540 70500
                   333 58013=
201709180900 AAXX 18094 67665 41957 00511 10287 20034 48564 70500
                   333 58013=
201709171500 AAXX 17154 67665 41959 01013 10309 20010 48521 70500
                   333 59001=
201709171200 AAXX 17124 67665 41959 00511 10323 20023 48527 70500
                   333 59005=
201709170900 AAXX 17094 67665 41959 00607 10288 20035 48551 70500
                   333 59005=
201709170600 AAXX 17064 67665 31958 00903 10215 20079 48546 70500
                   333 10312 20//0 59011=
201709170300 AAXX 17034 67665 41958 01002 10150 20074 48524 70500
                   333 59007=
201709170000 AAXX 17004 67665 41958 01003 10159 20063 48522 70500
                   333 59006=
201709162100 AAXX 16214 67665 41958 01303 10185 20049 48534 70500
                   333 59008=
201709161800 AAXX 16184 67665 41958 01203 10219 20045 48531 70500
                   333 59007=
201709161500 AAXX 16154 67665 41958 00606 10294 20035 48520 70500
                   333 59006=
201709161200 AAXX 16124 67665 41958 00706 10294 20035 48528 70500
                   333 59006=
201709160900 AAXX 16094 67665 41958 00510 10264 20065 48552 70500
                   333 59006=
201709160600 AAXX 16064 67665 32980 00907 10188 20063 48552 70200
                   333 59006=
201709151800 AAXX 15184 67665 41958 01104 10222 20031 48538 70500
                   333 58007=
201709151500 AAXX 15154 67665 41958 01010 10292 20036 48525 70500
                   333 59005=
201709151200 AAXX 15124 67665 41958 01207 10303 20017 48535 70500
                   333 59004=
201709150900 AAXX 15094 67665 41959 00610 10280 20019 48560 70500
                   333 59007=
201709150300 AAXX 15034 67665 42980 01503 10135 20010 48519 70200
                   333 58005=
201709150000 AAXX 15004 67665 42980 01702 10145 20010 48515 70200
                   333 59016=
201709142100 AAXX 14214 67665 42980 01302 10175 20045 48529 70200
                   333 59016=
201709141800 AAXX 14184 67665 41980 01203 10229 20052 48532 70200
                   333 59012=
201709141500 AAXX 14154 67665 41959 01011 10300 20037 48532 70500
                   333 59005=
201709141200 AAXX 14124 67665 41959 01012 10308 20032 48539 70500
                   333 59004=
201709140600 AAXX 14064 67665 31959 01003 10207 20080 48561 70500
                   333 10311 20//0 58003=
201709140300 AAXX 14034 67665 42980 01101 10157 20060 48536 70200
                   333 59003=
201709140000 AAXX 14004 67665 41960 01102 10171 20070 48536 70500
                   333 58001=
201709132100 AAXX 13214 67665 41959 01204 10185 20063 48546 70500
                   333 58001=
201709131500 AAXX 13154 67665 41959 00908 10290 20034 48536 70500
                   333 58004=
201709131200 AAXX 13124 67665 41959 00611 10288 20021 48542 70500
                   333 58004=
201709130900 AAXX 13094 67665 41959 00312 10265 20039 48565 70500
                   333 58002=
201709130600 AAXX 13064 67665 31959 01006 10205 20065 48558 70500
                   333 10309 20//0 58007=
201709130300 AAXX 13034 67665 41965 01103 10132 20060 48536 70500
                   333 58013=
201709130000 AAXX 13004 67665 41959 01404 10169 20068 48535 70500
                   333 58012=
201709122100 AAXX 12214 67665 41959 01103 10176 20070 48544 70500
                   333 58011=
201709121800 AAXX 12184 67665 41950 01206 10215 20069 48542 70500
                   333 10309 58010=
201709121500 AAXX 12154 67665 41959 00711 10288 20050 48532 70500
                   333 58004=
201709121200 AAXX 12124 67665 41959 00611 10293 20051 48538 70500
                   333 58003=
201709120900 AAXX 12094 67665 42980 00813 10251 20115 48560 70500
                   333 58002=
201709120600 AAXX 12064 67665 32980 00905 10192 20077 48548 70200
                   333 59003=
201709112100 AAXX 11214 67665 42980 01303 10174 20034 48533 70200
                   333 59005=
201709111800 AAXX 11184 67665 41960 01104 10208 20035 48533 70500
                   333 58000=
201709111500 AAXX 11154 67665 41959 01111 10282 20050 48527 70500
                   333 58001=
201709111200 AAXX 11124 67665 41659 11112 10297 20047 48537 70500 81100
                   333 59004 81840=
201709110900 AAXX 11094 67665 41959 00509 10264 20079 48560 70500
                   333 59001=
201709110300 AAXX 11034 67665 41970 01305 10154 20070 48530
                   333 59005=
201709110000 AAXX 11004 67665 41960 01303 10152 20061 48525
                   333 59003=
201709102100 AAXX 10214 67665 41959 01403 10182 20052 48538 70500
                   333 59007=
201709101800 AAXX 10184 67665 41958 01104 10214 20051 48533 70500
                   333 59007=
201709101500 AAXX 10154 67665 41958 01010 10295 20024 48528 70500
                   333 59008=
201709101200 AAXX 10124 67665 41958 01111 10300 20042 48540 70500
                   333 58000=
201709100300 AAXX 10034 67665 01304 10155 20052 48535 58001 70200=
201709090900 AAXX 09094 67665 41959 00612 10275 20071 48566 70500
                   333 59001=
201709090600 AAXX 09064 67665 32980 00710 10212 20099 48558 70200
                   333 10300 20//0 58000
                   555 00///=
201709090300 AAXX 09034 67665 42980 00000 10141 20074 48531 70200
                   333 59002 91021=
201709090000 AAXX 09004 67665 42980 01903 10157 20081 48535 70200
                   333 58003=
201709082100 AAXX 08214 67665 42980 01204 10192 20083 48545 70200
                   333 58002 91022=
201709081800 AAXX 08184 67665 42980 01205 10222 20030 48540 70200
                   333 59001=
201709081200 AAXX 08124 67665 42980 00614 10284 20023 48543 70200
                   333 58005=
201709080900 AAXX 08094 67665 42980 00713 10264 20075 48565 70200
                   333 58016=
201709080600 AAXX 08064 67665 01103 10199 20083 48566 70200
                   333 59002=
201709071800 AAXX 07184 67665 42980 01204 10203 20049 48536
                   333 59006=
201709071500 AAXX 07154 67665 42980 01111 10277 20045 48533
                   333 59009=
201709071200 AAXX 07124 67665 42980 00811 10278 20061 48538
                   333 59011=
201709070900 AAXX 07094 67665 NIL=
201709070600 AAXX 07064 67665 NIL=
201709070300 AAXX 07034 67665 42980 01502 10114 20077 48527
                   333 59020=
201709070000 AAXX 07004 67665 42980 00000 10135 20068 48537
                   333 59011=
201709062100 AAXX 06214 67665 42980 01102 10156 20068 48546
                   333 59009=
201709061800 AAXX 06184 67665 42980 01404 10198 20072 48542 70200
                   333 59019=
201709061200 AAXX 06124 67665 42980 00906 10277 20069 48549 70200
                   333 59011=
201709060900 AAXX 06094 67665 42980 01008 10240 20080 48573
                   333 59009=
201709060600 AAXX 06064 67665 NIL=
201709060300 AAXX 06034 67665 42980 01203 10118 20090 48547 70200
                   333 59004 91023=
201709050900 AAXX 05094 67665 41959 01110 10209 20080 48577 70500
                   333 58016=
201709050600 AAXX 05064 67665 32980 11008 10143 20076 48571 70200 81031
                   333 10246 20//0 59011
                   555 00///=
201709050000 AAXX 05004 67665 42980 01303 10122 20051 48557 70200
                   333 58005=
201709041800 AAXX 04184 67665 42980 11106 10167 20047 48569 70200 81001
                   333 58014 81030 81080=
201709041500 AAXX 04154 67665 42980 21010 10235 20045 48563 70100 82001
                   333 58017 82030=
201709040600 AAXX 04064 67665 32980 30913 10165 20081 48586 80001
                   333 10265 20//0 83080=
201709040000 AAXX 04004 67665 42980 01104 10140 20085 48548
                   333 58014=
201709032100 AAXX 03214 67665 42980 01401 10158 20095 48562
                   333 58010=
201709031800 AAXX 03184 67665 42980 00906 10183 20104 48557
                   333 58010=
201709031500 AAXX 03154 67665 41759 11115 10248 20093 48548 70500 81100
                   333 58005 81856=
201709031200 AAXX 03124 67665 41659 10812 10250 20083 48552 70500 81100
                   333 58003 81840=
201709030600 AAXX 03064 67665 31960 01009 10156 20068 48564 70500
                   333 58002=
201709021800 AAXX 02184 67665 42970 01006 10199 20025 48550 70200
                   333 58004=
201709021500 AAXX 02154 67665 42970 01012 10260 20012 48544 70200
                   333 58004=
201709020900 AAXX 02094 67665 42980 00510 10240 20054
                   333 59001=
201709020300 AAXX 02034 67665 41960 01402 10122 20033 48535 70500
                   333 59013=
201709020000 AAXX 02004 67665 41960 01203 10138 20039 48534 70500
                   333 59014=
201709011800 AAXX 01184 67665 41960 01303 10193 20023 48545 70500
                   333 59012=
201709011500 AAXX 01154 67665 41959 00908 10275 20069 48543 70500
                   333 59008=
201709010900 AAXX 01094 67665 42980 01010 10234 20125 48577 70200
                   333 58012 91025=
201709010600 AAXX 01064 67665 32980 01006 10172 20101 48571 70200
                   333 10200 20//0 58016=

################################################################################
#  SYNOPS from 67666, Lusaka City Airport (Zambia) | 15-25-00S | 028-28-00E | 1280 m
################################################################################
201709291200 AAXX 29124 67666 NIL=
201709290600 AAXX 29064 67666 32480 70910 10192 20144 48558 70500 875//
                   333 10312 20170 59010 87612
                   555 00/// 91023=
201709281200 AAXX 28124 67666 NIL=
201709280600 AAXX 28064 67666 32980 00910 10232 20152 48551 70500
                   333 10340 20192 58020 91022=
201709270900 AAXX 27094 67666 NIL=
201709270600 AAXX 27064 67666 31975 00905 10230 20089 48523 70500
                   333 10320 20200 58009 91019=
201709260600 AAXX 26064 67666 31975 00908 10227 20116 48512 70500
                   333 10311 20149 59019 91018=
201709251200 AAXX 25124 67666 NIL=
201709250600 AAXX 25064 67666 31970 00908 10199 20115 48536 70500
                   333 10307 20150 59032 91020=
201709221500 AAXX 22154 67666 NIL=
201709201200 AAXX 20124 67666 42680 10810 10307 20094 48539 70500 81100
                   333 58006 81850 91020=
201709200600 AAXX 20064 67666 32980 00907 10200 20152 48558 70500
                   333 10312 20180 58012 91024=
201709191200 AAXX 19124 67666 NIL=
201709190600 AAXX 19064 67666 NIL=
201709180600 AAXX 18064 67666 32980 00907 10219 20042 48540 70500
                   333 10322 20193 58010 91022=
201709140600 AAXX 14064 67666 31980 00906 10217 20099 48550 70500
                   333 10335 20179 58003 91022=
201709120600 AAXX 12064 67666 32980 00905 10192 20096 48538 70500
                   333 10298 20146 59002
                   555 00/// 91021=
201709110600 AAXX 11064 67666 31975 01010 10190 20105 48546 70500
                   333 10299 20142 59001 91022=
201709080900 AAXX 08094 67666 41975 00718 10256 20076 48553 70500
                   333 58007 91022=
201709080600 AAXX 08064 67666 31975 00906 10200 20113 48551 70500
                   333 10287 20154 58002 91022=
201709070900 AAXX 07094 67666 NIL=
201709070600 AAXX 07064 67666 31970 00905 10196 20084 48549 70500
                   333 10284 20150 59015 91022=
201709060600 AAXX 06064 67666 31980 00710 10174 20086 48555 70500
                   333 10267 20144 59007 91024=
201709050600 AAXX 05064 67666 32980 00909 10181 20065 48566 70500
                   333 10257 20129 59008
                   555 00/// 91024=

################################################################################
#  SYNOPS from 67667, Mount Makulu (Zambia) | 15-33S | 028-15E | 1213 m
################################################################################
201709291200 AAXX 29124 67667 NIL=
201709281200 AAXX 28124 67667 NIL=
201709280600 AAXX 28064 67667 31970 01508 10240 20144 48/// 70500
                   333 10368 20180 59019=
201709270900 AAXX 27094 67667 NIL=
201709251200 AAXX 25124 67667 NIL=
201709250600 AAXX 25064 67667 31970 01803 10208 20110 48/// 70500
                   333 10324 20128 59032=
201709221500 AAXX 22154 67667 NIL=
201709210600 AAXX 21064 67667 31670 10906 10212 20165 48/// 70500 81100
                   333 10354 20165 58002 81835=
201709200600 AAXX 20064 67667 31970 00901 10220 20141 48/// 70500
                   333 10355 20158 58012=
201709191200 AAXX 19124 67667 NIL=
201709190600 AAXX 19064 67667 31970 00901 10222 20120 48/// 70500
                   333 10350 20150 58008=
201709180600 AAXX 18064 67667 31970 00901 10224 20080 48/// 70500
                   333 10354 20172 58008=
201709150600 AAXX 15064 67667 31970 00901 10224 20082 48/// 70500
                   333 10360 20135 58012=
201709140600 AAXX 14064 67667 31970 00901 10228 20098 48/// 70500
                   333 10330 20144 58003=
201709120600 AAXX 12064 67667 31970 01501 10208 20092 48/// 70500
                   333 10328 20142 58012=
201709110600 AAXX 11064 67667 31970 00902 10202 20100 48/// 70500
                   333 10342 20118 58000=
201709080600 AAXX 08064 67667 31970 00913 10220 20102 48/// 70500
                   333 10316 20129 58002=
201709070900 AAXX 07094 67667 NIL=
201709070600 AAXX 07064 67667 31970 00910 10210 20080 48/// 70500
                   333 10304 20130 59014=
201709060600 AAXX 06064 67667 31970 00908 10190 20085 48/// 70500
                   333 10288 20114 58010=
201709050600 AAXX 05064 67667 31970 10910 10160 20091 48/// 70500 80001
                   333 10280 20102 58011 81080
                   555 00///=

################################################################################
#  SYNOPS from 67673, Petauke (Zambia) | 14-15S | 031-17E | 1035 m
################################################################################
201709291200 AAXX 29124 67673 NIL=
201709281200 AAXX 28124 67673 NIL=
201709280600 AAXX 28064 67673 31970 00504 10264 20173 48577 70500
                   333 10350 20204 58059=
201709270900 AAXX 27094 67673 NIL=
201709260600 AAXX 26064 67673 31960 00204 10255 20130 48522 70500
                   333 10330 20200 59037=
201709251200 AAXX 25124 67673 41670 30802 10318 20120 48520 70500 83100
                   333 59043 83842=
201709250600 AAXX 25064 67673 31970 00501 10230 20143 48554 70500
                   333 10314 20164 59020=
201709221500 AAXX 22154 67673 NIL=
201709210600 AAXX 21064 67673 31970 00804 10244 20167 48595 70500
                   333 10330 20182 58010=
201709201200 AAXX 20124 67673 41670 40904 10324 20103 48560 70500 84200
                   333 58011 84840=
201709191200 AAXX 19124 67673 NIL=
201709190600 AAXX 19064 67673 31940 10903 10250 20132 48561 70544 80001
                   333 10325 20175 58000 81080=
201709180600 AAXX 18064 67673 31940 00902 10245 20105 48559 70544
                   333 10345 20190 58012=
201709150600 AAXX 15064 67673 31950 00902 10270 20085 48554 70544
                   333 10330 20175 59012=
201709140600 AAXX 14064 67673 31950 01002 10255 20110 48562 70544
                   333 10320 20175 59013=
201709121200 AAXX 12124 67673 41970 00804 10290 20078 48540 70500
                   333 59014=
201709120600 AAXX 12064 67673 31970 00902 10240 20095 48565 70500
                   333 10320 20170 58005=
201709080600 AAXX 08064 67673 31970 20502 10248 20097 48615 70500 82030
                   333 10310 20140 58040 82360=
201709070900 AAXX 07094 67673 NIL=
201709070600 AAXX 07064 67673 NIL=
201709060600 AAXX 06064 67673 NIL=
201709051500 AAXX 05154 67673 41970 20801 10252 20105 48564 70500 80001
                   333 59009 82080=
201709050600 AAXX 05064 67673 31570 00502 10190 20122 48589 70500 83101
                   333 10264 20124 59010 83825 84080
                   555 00///=
201709041200 AAXX 04124 67673 41670 40902 10250 20085 48578 70500 82101
                   333 5//// 82835 84080=
201709040900 AAXX 04094 67673 41970 21006 10222 20096 48606 70500 80001
                   333 5//// 82080=
201709040600 AAXX 04064 67673 31970 00904 10190 20094 48599 70500 80001
                   333 10290 20124 58076 82080
                   555 00///=
201709010600 AAXX 01064 67673 31970 01002 10194 20090 48577 70500
                   333 10286 20122 58003
                   555 00///=

################################################################################
#  SYNOPS from 67731, Senanga (Zambia) | 16-06S | 023-16E | 1027 m
################################################################################
201709291200 AAXX 29124 67731 42980 107// 10337 20103 48/// 81100
                   333 58012 81827=
201709290600 AAXX 29064 67731 32980 020// 10246 20122 48///
                   333 10331 20209 59003
                   555 00175=
201709281200 AAXX 28124 67731 NIL=
201709280600 AAXX 28064 67731 32980 010// 10237 20108 48///
                   333 10349 20172 58029
                   555 00142=
201709270900 AAXX 27094 67731 42980 022// 10325 20161 48///
                   333 58025=
201709270600 AAXX 27064 67731 32980 428// 10245 20091 48/// 70122 84020
                   333 10275 20205 58016 84462
                   555 00174=
201709260600 AAXX 26064 67731 32980 027// 10261 20073 48///
                   333 10348 20173 59025
                   555 00152=
201709251200 AAXX 25124 67731 42980 034// 10368 20038 48///
                   333 59039=
201709250600 AAXX 25064 67731 32980 018// 10254 20077 48///
                   333 10369 20174 59026
                   555 00146=
201709221500 AAXX 22154 67731 NIL=
201709201200 AAXX 20124 67731 42980 019// 10357 20073 48///
                   333 58000=
201709191200 AAXX 19124 67731 42980 012// 10362 20060 48///
                   333 58010=
201709190900 AAXX 19094 67731 42980 028// 10328 20080 48///
                   333 58009=
201709190600 AAXX 19064 67731 32980 034// 10241 20069 48///
                   333 10354 20198 58005
                   555 00158=
201709181200 AAXX 18124 67731 42980 033// 10366 20047 48///
                   333 59006=
201709180900 AAXX 18094 67731 42980 018// 10339 20053 48///
                   333 59005=
201709180600 AAXX 18064 67731 32980 003// 10244 20040 48///
                   333 10345 20142 59003
                   555 00104=
201709150600 AAXX 15064 67731 32980 025// 10234 20045 48///
                   333 10337 20179 59006
                   555 00126=
201709140600 AAXX 14064 67731 32980 012// 10213 20066 48///
                   333 10332 20177 58010
                   555 00152=
201709131200 AAXX 13124 67731 42980 006// 10342 20062 48///
                   333 58005=
201709120600 AAXX 12064 67731 32980 012// 10222 20042 48///
                   333 10326 20182 59008
                   555 00145=
201709080600 AAXX 08064 67731 32980 012// 10198 20054 48///
                   333 10320 20151 59003
                   555 00110=
201709070900 AAXX 07094 67731 42980 016// 10290 20053 48///
                   333 59013=
201709070600 AAXX 07064 67731 32980 010// 10184 20063 48///
                   333 10326 20125 59009
                   555 00115=
201709061200 AAXX 06124 67731 42980 003// 10331 20030 48/// 59005=
201709060600 AAXX 06064 67731 32980 023// 10194 20089 48///
                   333 10301 20159 59005
                   555 00125=
201709051200 AAXX 05124 67731 42980 021// 10304 20075 48///
                   333 59005=
201709050600 AAXX 05064 67731 32980 215// 10190 20054 48/// 70200 82050
                   333 10293 20164 58001 82362
                   555 00134=
201709040900 AAXX 04094 67731 42980 103// 10269 20106 48/// 70100 80008
                   333 58013 81080=
201709040600 AAXX 04064 67731 32980 115// 10182 20134 48/// 70200 80008
                   333 10325 20124 58004 81080
                   555 00091=
201709010600 AAXX 01064 67731 32980 027// 10204 20017 48///
                   333 10345 20119 58004
                   555 00089=

################################################################################
#  SYNOPS from 67741, Sesheke (Zambia) | 17-28S | 024-18E | 949 m
################################################################################
201709291200 AAXX 29124 67741 NIL=
201709290600 AAXX 29064 67741 32980 00801 10231 20148 48550
                   333 10375 20164 58014
                   555 00114=
201709281200 AAXX 28124 67741 NIL=
201709280600 AAXX 28064 67741 32980 10801 10245 20117 48542 80001
                   333 10377 20143 58024 81080
                   555 00104=
201709271200 AAXX 27124 67741 42980 00201 10366 20160 48508
                   333 58023=
201709270900 AAXX 27094 67741 42980 13502 10325 20125 48529 81030
                   333 5//// 81362=
201709270600 AAXX 27064 67741 32980 70000 10229 20112 48521 8703/
                   333 10389 20167 58026 87362
                   555 00111=
201709260600 AAXX 26064 67741 32980 00101 10262 20129 48498
                   333 10373 20123 59037
                   555 00082=
201709251200 AAXX 25124 67741 NIL=
201709221500 AAXX 22154 67741 NIL=
201709210600 AAXX 21064 67741 32980 10901 10245 20129 48571 81040
                   333 10360 20154 58002 81362
                   555 00112=
201709201200 AAXX 20124 67741 42980 00903 10356 20135 48546
                   333 5////=
201709200600 AAXX 20064 67741 32980 00901 10224 20140 48557
                   333 10378 20134 5////=
201709191200 AAXX 19124 67741 NIL=
201709190600 AAXX 19064 67741 NIL=
201709150600 AAXX 15064 67741 32980 00801 10195 20088 48532
                   333 10362 20129 59001
                   555 00071=
201709140600 AAXX 14064 67741 32980 00901 10222 20077 48548
                   333 10348 20087 59001=
201709080600 AAXX 08064 67741 32980 00000 10185 20088 48540
                   333 10334 20080 58003
                   555 00078=
201709070900 AAXX 07094 67741 NIL=
201709070600 AAXX 07064 67741 NIL=
201709060600 AAXX 06064 67741 NIL=

################################################################################
#  SYNOPS from 67743, Livingstone (Zambia) | 17-49S | 025-49E | 985 m
################################################################################
201709291200 AAXX 29124 67743 NIL=
201709281200 AAXX 28124 67743 NIL=
201709280600 AAXX 28064 67743 31975 01007 10242 20087 48545 70500
                   333 10380 20167 58031 91020=
201709270900 AAXX 27094 67743 NIL=
201709260600 AAXX 26064 67743 31975 03603 10240 20115 48502 70500
                   333 10370 20140 59030 91015=
201709251200 AAXX 25124 67743 NIL=
201709250600 AAXX 25064 67743 31959 01106 10220 20091 48547 70500
                   333 10364 20146 59029 91019=
201709221500 AAXX 22154 67743 NIL=
201709210600 AAXX 21064 67743 31975 00910 10245 20141 47856 70500
                   333 10359 20141 58007 91023=
201709191200 AAXX 19124 67743 NIL=
201709190600 AAXX 19064 67743 31975 01603 10218 20054 48549 70500
                   333 10377 20143 5//// 91021=
201709150900 AAXX 15094 67743 41970 00512 10315 20071 48554 70500
                   333 59004 91020=
201709150600 AAXX 15064 67743 31975 01004 10220 20061 48543 70500
                   333 10360 20125 59002 91021=
201709141500 AAXX 14154 67743 41970 01213 10340 20036 48525 70500
                   333 59005=
201709140600 AAXX 14064 67743 31975 00000 10225 20027 48549 70500
                   333 10350 20115 58000 91021=
201709120600 AAXX 12064 67743 31975 00510 10221 20084 48537 70500
                   333 10345 20146 59007 91020=
201709111200 AAXX 11124 67743 41975 01211 10335 20071 48530 70500
                   333 59005 91017=
201709110600 AAXX 11064 67743 31975 00907 10226 20080 48546 70500
                   333 10350 20145 59002 91021=
201709101200 AAXX 10124 67743 41975 01013 10333 20064 48535 70500
                   333 59005 91017=
201709081200 AAXX 08124 67743 41975 01214 10322 21002 48540 70500
                   333 58000 91018=
201709080600 AAXX 08064 67743 31975 00701 10227 20068 48552 70500
                   333 10320 20125 59002 91021=
201709070900 AAXX 07094 67743 NIL=
201709070600 AAXX 07064 67743 31975 00805 10185 20102 48546 70500
                   333 10305 20096 59009 91021=
201709061200 AAXX 06124 67743 41975 00909 10292 20017 48550 70500
                   333 59005 91020=
201709060600 AAXX 06064 67743 31975 00806 10190 20030 48557 70500
                   333 10295 20180 59008 91023=
201709050600 AAXX 05064 67743 31975 51108 10174 20028 48560 70500 85010
                   333 10300 20105 59010 85360
                   555 00/// 91024=
201709040600 AAXX 04064 67743 31980 31012 10175 20085 48566 70500 80001
                   333 10310 20110 5//// 83080
                   555 00/// 91025=

################################################################################
#  SYNOPS from 67751, Magoye (Zambia) | 16-00S | 027-36E | 1018 m
################################################################################
201709291200 AAXX 29124 67751 NIL=
201709290600 AAXX 29064 67751 31978 00813 10241 20147 48/// 70500
                   333 10342 20179 5////
                   555 00///=
201709281200 AAXX 28124 67751 NIL=
201709280600 AAXX 28064 67751 31974 01207 10278 20153 48/// 70500
                   333 10362 20204 59025=
201709270900 AAXX 27094 67751 NIL=
201709260600 AAXX 26064 67751 31978 00502 10241 20106 48/// 70500
                   333 10347 20115 58024=
201709251200 AAXX 25124 67751 NIL=
201709250600 AAXX 25064 67751 31978 00000 10200 20133 48/// 70500
                   333 10334 20121 5////=
201709221500 AAXX 22154 67751 NIL=
201709210600 AAXX 21064 67751 31977 01005 10248 20166 48/// 70500
                   333 10340 20184 59013=
201709200600 AAXX 20064 67751 31977 00402 10250 20050 48/// 70500
                   333 10345 20154 59005=
201709191200 AAXX 19124 67751 NIL=
201709190600 AAXX 19064 67751 31976 00405 10252 20120 48/// 70500
                   333 10346 20144 59008=
201709180600 AAXX 18064 67751 31977 00905 10255 20081 48/// 70500
                   333 10350 20136 59009=
201709150600 AAXX 15064 67751 31975 01802 10206 20063 70500
                   333 10337 20102 5////=
201709140600 AAXX 14064 67751 31975 00000 10229 20114 48/// 70500
                   333 10324 20127 5////=
201709120600 AAXX 12064 67751 31978 00918 10247 20098 48/// 70500
                   333 10320 20121 59020=
201709110600 AAXX 11064 67751 31978 00911 10243 20115 48/// 70500
                   333 10333 20125 5////=
201709080600 AAXX 08064 67751 31978 00806 10241 20103 48/// 70500
                   333 10311 20112 59001=
201709070900 AAXX 07094 67751 NIL=
201709070600 AAXX 07064 67751 NIL=
201709060600 AAXX 06064 67751 NIL=
201709050600 AAXX 05064 67751 32980 50403 10186 20093 70200
                   333 10284 20100 58011
                   555 00///=
201709010600 AAXX 01064 67751 32980 00000 10173 20064 48///
                   333 10308 20092 59016
                   555 00///=

################################################################################
#  SYNOPS from 67753, Choma (Zambia) | 16-50S | 027-04E | 1213 m
################################################################################
201709291200 AAXX 29124 67753 NIL=
201709281200 AAXX 28124 67753 NIL=
201709280600 AAXX 28064 67753 31960 10000 10240 20124 48551 70500 81030
                   333 10359 20184 58036 81360=
201709270900 AAXX 27094 67753 NIL=
201709270600 AAXX 27064 67753 31960 00608 10271 20059 48516 70500
                   333 10344 20160 58004=
201709260600 AAXX 26064 67753 31960 00000 10243 20105 48513 70500
                   333 10327 20148 59020=
201709251200 AAXX 25124 67753 NIL=
201709221500 AAXX 22154 67753 NIL=
201709191200 AAXX 19124 67753 NIL=
201709190600 AAXX 19064 67753 31960 00906 10220 20099 48550 70500
                   333 10336 20162 58011=
201709180600 AAXX 18064 67753 31960 00512 10232 20087 48542 70500
                   333 10329 20148 58011=
201709150600 AAXX 15064 67753 31960 00000 10192 20086 48538 70500
                   333 10319 20110 59007=
201709140600 AAXX 14064 67753 31960 03002 10188 20084 48548 70500
                   333 10305 20088 58004=
201709120600 AAXX 12064 67753 31960 009// 10212 20111 48540 70500
                   333 10305 20134 59003=
201709080600 AAXX 08064 67753 31960 02806 10214 20112 48550 70500
                   333 10291 20112 59002=
201709070900 AAXX 07094 67753 NIL=
201709070600 AAXX 07064 67753 31960 03003 10189 20100 48548 70500
                   333 10289 20096 59006=
201709060600 AAXX 06064 67753 31960 02703 10170 20082 48555 70500
                   333 10257 20088 59012=
201709050600 AAXX 05064 67753 31960 10811 10157 20081 48564 70500 80001
                   333 10252 20096 59011 81080
                   555 00///=
201709040600 AAXX 04064 67753 31560 20132 10165 20092 48575 70500 81501
                   333 10257 20114 58015 81620 81080
                   555 00///=

################################################################################
#  SYNOPS from 67855, Lupaki (Zambia) | 17-03-00S | 024-46-00E | 1000 m
################################################################################
201710010600 AAXX 01064 67855 31970 01802 10214 20118 3//// 48/// 70500
                   333 20168 5////=
201709301800 AAXX 30184 67855 NIL=
201709301200 AAXX 30124 67855 NIL=
201709300600 AAXX 30064 67855 12975 20302 10200 20153 3//// 48/// 60034 82030
                   333 20158 5//// 82360=
201709291800 AAXX 29184 67855 NIL=
201709291200 AAXX 29124 67855 41770 23404 10322 20078 3//// 48/// 70500 82100
                   333 5//// 82856=
201709290600 AAXX 29064 67855 31970 00902 10196 20141 3//// 48/// 70500
                   333 20160 5////=
201709281800 AAXX 28184 67855 NIL=
201709281200 AAXX 28124 67855 NIL=
201709280600 AAXX 28064 67855 11970 50603 10226 20158 3//// 48/// 69904 70562 85060
                   333 20182 5//// 85360=
201709271200 AAXX 27124 67855 41870 30303 10370 20015 3//// 48/// 70511 83100
                   333 5//// 83857=
201709270600 AAXX 27064 67855 31970 50000 10222 20050 3//// 48/// 70522 85030
                   333 20159 5//// 85360=
201709261800 AAXX 26184 67855 NIL=
201709261200 AAXX 26124 67855 41970 01107 10368 20025 3//// 48/// 70500
                   333 5////=
201709260600 AAXX 26064 67855 31970 03605 10250 20070 3//// 48/// 70500
                   333 20150 5////=
201709251800 AAXX 25184 67855 NIL=
201709251200 AAXX 25124 67855 NIL=
201709250600 AAXX 25064 67855 31970 00302 10202 20115 3//// 48/// 70500
                   333 20120 5////=
201709241800 AAXX 24184 67855 NIL=
201709241200 AAXX 24124 67855 41970 00000 10334 20107 3//// 48/// 70500
                   333 5////=
201709240600 AAXX 24064 67855 31970 01403 10204 20130 3//// 48/// 70500
                   333 20180 5////=
201709231800 AAXX 23184 67855 NIL=
201709231200 AAXX 23124 67855 41970 00404 10356 20023 3//// 48/// 70500
                   333 5////=
201709230600 AAXX 23064 67855 31970 00000 10198 20065 3//// 48/// 70500
                   333 5////=
201709221800 AAXX 22184 67855 NIL=
201709221200 AAXX 22124 67855 41970 00402 10342 20085 3//// 48/// 70500
                   333 5////=
201709220600 AAXX 22064 67855 31970 00000 10196 20100 3//// 48/// 70500
                   333 20122 5////=
201709211800 AAXX 21184 67855 NIL=
201709211200 AAXX 21124 67855 41770 50602 10324 20104 3//// 48/// 70511 85100
                   333 5//// 85856=
201709201200 AAXX 20124 67855 41770 11305 10342 20119 3//// 48/// 70500 81100
                   333 5//// 81856=
201709200600 AAXX 20064 67855 31970 00702 10192 20131 3//// 48/// 70500
                   333 20132 5////=
201709191800 AAXX 19184 67855 NIL=
201709191200 AAXX 19124 67855 41970 00703 10348 20084 3//// 48/// 70500
                   333 5////=
201709190600 AAXX 19064 67855 31970 00603 10194 20125 3//// 48/// 70500
                   333 20134 5////=
201709181800 AAXX 18184 67855 NIL=
201709181200 AAXX 18124 67855 41970 00403 10350 20063 3//// 48/// 70500
                   333 5////=
201709180600 AAXX 18064 67855 31970 00202 10224 20090 3//// 48/// 70500
                   333 20142 5////=
201709171800 AAXX 17184 67855 NIL=
201709171200 AAXX 17124 67855 NIL=
201709170600 AAXX 17064 67855 31970 01801 10174 20035 3//// 48/// 70500
                   333 20099 5////=
201709161200 AAXX 16124 67855 41970 03207 10340 20070 3//// 48/// 70500
                   333 5////=
201709160600 AAXX 16064 67855 31970 00103 10200 20065 3//// 48/// 70500
                   333 20114 5////=
201709151800 AAXX 15184 67855 NIL=
201709151200 AAXX 15124 67855 NIL=
201709141800 AAXX 14184 67855 NIL=
201709141200 AAXX 14124 67855 41970 01802 10348 20015 3//// 48/// 70500
                   333 5////=
201709140600 AAXX 14064 67855 31970 00000 10156 20021 3//// 48/// 70500
                   333 20085 5////=
201709131200 AAXX 13124 67855 00604 10348 20008 3//// 48/// 70500
                   333 5////=
201709130600 AAXX 13064 67855 31970 00000 10164 20005 3//// 48/// 70500
                   333 20085 5////=
201709121200 AAXX 12124 67855 41970 00709 10338 20005 3//// 48/// 70500
                   333 5////=
201709120600 AAXX 12064 67855 31970 00902 10220 20018 3//// 48/// 70500
                   333 20105 5////=
201709111800 AAXX 11184 67855 NIL=
201709111200 AAXX 11124 67855 NIL=
201709110600 AAXX 11064 67855 31970 00901 10148 20003 3//// 48/// 70500
                   333 20082 5////=
201709101200 AAXX 10124 67855 NIL=
201709100600 AAXX 10064 67855 31970 01001 10168 20038 3//// 48/// 70500
                   333 20092 5////=
201709091800 AAXX 09184 67855 NIL=
201709091200 AAXX 09124 67855 41970 00301 10328 20045 3//// 48/// 70500
                   333 5////=
201709090600 AAXX 09064 67855 31970 00000 10160 20070 3//// 48/// 70500
                   333 20100 5////=
201709081800 AAXX 08184 67855 NIL=
201709081200 AAXX 08124 67855 41970 00403 10336 20060 38/// 48/// 70500
                   333 5////=
201709080600 AAXX 08064 67855 31970 01801 10196 20063 3//// 48/// 70500
                   333 20100 5////=
201709071200 AAXX 07124 67855 41970 01405 10322 20045 3//// 48/// 70500
                   333 5////=
201709070600 AAXX 07064 67855 31970 00000 10154 20036 3//// 48/// 70500
                   333 20065 5////=
201709061800 AAXX 06184 67855 NIL=
201709061200 AAXX 06124 67855 41970 02602 10292 20044 3//// 48/// 70500
                   333 5////=
201709060600 AAXX 06064 67855 31970 10000 10156 20056 3//// 48/// 70511 80002
                   333 20067 5//// 81080=
201709051800 AAXX 05184 67855 NIL=
201709051200 AAXX 05124 67855 41970 31802 10286 20000 3//// 48/// 70500 80002
                   333 5//// 83080=
201709050600 AAXX 05064 67855 31970 20701 10144 20048 3//// 48/// 70500 80002
                   333 20086 5//// 82080=
201709041200 AAXX 04124 67855 NIL=
201709040600 AAXX 04064 67855 31970 50912 10150 20057 3//// 48/// 70511 80001
                   333 20115 5//// 85080=
201709031800 AAXX 03184 67855 NIL=
201709031200 AAXX 03124 67855 41770 50707 10286 20098 3//// 48/// 70522 85200
                   333 5//// 85856=
201709030600 AAXX 03064 67855 31970 00907 10156 20091 3//// 48/// 70500
                   333 20115 5////=
201709021200 AAXX 02124 67855 41970 00302 10300 20095 3//// 48/// 70500
                   333 5////=
201709020600 AAXX 02064 67855 31970 00306 10176 20085 3//// 48/// 70500
                   333 20102 5////=
201709011800 AAXX 01184 67855 NIL=
201709011200 AAXX 01124 67855 NIL=
