################################################################################
# Query made at 04/14/2022 02:54:16 UTC
# Country like Zamb*
# Time interval: from 09/01/2018 05:30  to 10/01/2018 06:30  UTC
################################################################################

################################################################################
#  SYNOPS from 67403, Kawambwa (Zambia) | 09-48S | 029-05E | 1323 m
################################################################################
201810010600 AAXX 01064 67403 31975 10912 10212 20105 48525 70500 80001
                   333 10320 20188 58001 81080
                   555 00172=
201809281200 AAXX 28124 67403 NIL=
201809280600 AAXX 28064 67403 31975 50909 10223 20105 48508 70500 82031
                   333 10352 20188 59006 82360 84080=
201809270600 AAXX 27064 67403 31975 20903 10235 20111 48514 70500 82030
                   333 10344 20188 59003 82360
                   555 00176=
201809260900 AAXX 26094 67403 NIL=
201809251200 AAXX 25124 67403 41775 43601 10313 20113 48492 70500 84200
                   333 59004 84850=
201809250600 AAXX 25064 67403 31975 00905 10223 20099 48518 70500
                   333 10324 20182 59001
                   555 00168=
201809241200 AAXX 24124 67403 NIL=
201809240600 AAXX 24064 67403 31975 10905 10215 20103 48518 70500 81031
                   333 10324 20184 58000 81360 81080
                   555 00169=
201809210900 AAXX 21094 67403 41980 10603 10287 20128 48523 70300 81101
                   333 58001 81830 81080=
201809210600 AAXX 21064 67403 31980 41404 10214 20122 48521 70200 84031
                   333 10327 20178 59007 84360 82080
                   555 00160=
201809200900 AAXX 20094 67403 41975 20801 10287 20085 48522 70500 80001
                   333 58000 82080=
201809200600 AAXX 20064 67403 31975 10901 10207 20096 48527 70500 80001
                   333 10330 20172 58004 81080
                   555 00155=
201809191200 AAXX 19124 67403 41970 02001 10320 20078 48486 70500
                   333 58000=
201809190600 AAXX 19064 67403 31975 01401 10217 20087 48524 70500
                   333 10334 20087 58016
                   555 00158=
201809180900 AAXX 18094 67403 NIL=
201809180600 AAXX 18064 67403 31975 00906 10220 20097 48509 70500
                   333 10320 20184 59005
                   555 00164=
201809171200 AAXX 17124 67403 41775 52701 10313 20139 48491 70320 83201
                   333 5//// 83250 84080=
201809170900 AAXX 17094 67403 NIL=
201809170600 AAXX 17064 67403 31975 50905 10220 20119 48514 70522 80001
                   333 10//0 20187 5//// 85680
                   555 00170=
201809140900 AAXX 14094 67403 41975 20802 10289 20113 48520 70500 80001
                   333 59003 82080=
201809140600 AAXX 14064 67403 31975 21002 10220 20113 48519 70520 80001
                   333 10324 20169 58000 82080
                   555 00166=
201809131200 AAXX 13124 67403 41775 40902 10305 20123 48496 70500 84201
                   333 59002 84850 81080=
201809120600 AAXX 12064 67403 31975 50903 10205 20145 48523 70522 85031
                   333 10306 20184 59002 85360 81080
                   555 00167=
201809110900 AAXX 11094 67403 NIL=
201809110600 AAXX 11064 67403 11975 20901 10196 20164 48525 60034 70520 82031
                   333 10271 20160 58009 82360 81080
                   555 00161=
201809100900 AAXX 10094 67403 NIL=
201809100600 AAXX 10064 67403 11975 22701 10212 20170 48516 60204 70500 82031
                   333 10302 20178 58000 82360 82080
                   555 00170=
201809061200 AAXX 06124 67403 NIL=
201809050900 AAXX 05094 67403 NIL=
201809041200 AAXX 04124 67403 NIL=

################################################################################
#  SYNOPS from 67413, Mbala (Zambia) | 08-51S | 031-20E | 1673 m
################################################################################
201810010600 AAXX 01064 67413 31970 21810 10218 20106 48538 70500 80002
                   333 10//0 20110 58008 82080
                   555 00/// 91024=
201809281200 AAXX 28124 67413 NIL=
201809280900 AAXX 28094 67413 41970 53609 10272 20050 48526 70500 80002
                   333 59003 85080 91023=
201809280600 AAXX 28064 67413 31670 70509 10220 20074 48529 70500 82032
                   333 10//0 20110 59008 82360 85080 91023=
201809270600 AAXX 27064 67413 31970 00910 10218 20106 48538 70500
                   333 1//// 20112 59002 91024=
201809260900 AAXX 26094 67413 NIL=
201809250600 AAXX 25064 67413 31975 00908 10215 20091 48542 70500
                   333 10299 20102 58009
                   555 00102=
201809241200 AAXX 24124 67413 41970 51005 10285 20077 48508 70500 85200
                   333 5//// 85858 91021=
201809240900 AAXX 24094 67413 41970 40000 10266 20076 48537 70500 80001
                   333 5//// 82080 91024=
201809240600 AAXX 24064 67413 31970 20507 10198 20086 48533 70500 80001
                   333 10//0 20090 59002 82080 91023=
201809190900 AAXX 19094 67413 41975 00000 10270 20063 48/// 70500
                   333 5////=
201809190600 AAXX 19064 67413 31975 00806 10203 20074 48543 70500
                   333 1//// 20098 58013
                   555 00098 91024=
201809180900 AAXX 18094 67413 41978 10804 10278 20075 48524 70500 80001
                   333 59002 81080 91022=
201809180600 AAXX 18064 67413 31978 00905 10208 20109 48529 70500
                   333 10288 20096 59003 91023=
201809171200 AAXX 17124 67413 NIL=
201809170900 AAXX 17094 67413 41770 50000 10263 20108 48527 70500 82102
                   333 59017 82856 83080 91023=
201809170600 AAXX 17064 67413 31970 50909 10210 20108 48532 70500 80002
                   333 10290 20100 59003 85080 91023=
201809140900 AAXX 14094 67413 41678 60000 10273 20105 48535 70500 81108
                   333 59002 81850 85280 91024=
201809130900 AAXX 13094 67413 41675 10805 10258 20088 48537 70500 81100
                   333 59001 81850 91024=
201809120900 AAXX 12094 67413 42675 41009 10250 20129 48538 70500 82102
                   333 59006 82848 82080 91024=
201809120600 AAXX 12064 67413 32975 20906 10190 20131 48543 70500 80002
                   333 10//0 20083 58000 82080 91024=
201809110900 AAXX 11094 67413 NIL=
201809110600 AAXX 11064 67413 11975 50905 10185 20135 48543 60164 70500 85030
                   333 10//0 20090 58007 85360 91024=
201809100900 AAXX 10094 67413 NIL=
201809100600 AAXX 10064 67413 11975 50000 10205 20121 48535 60034 70500 80008
                   333 10//0 20098 59005 85280
                   555 00098 91023=
201809061200 AAXX 06124 67413 42480 60000 10260 20099 48514 8414/
                   333 5//// 84835 82360 91021=
201809060900 AAXX 06094 67413 42680 60908 10250 20095 48542 82130
                   333 58001 82835 84360 91025=
201809060600 AAXX 06064 67413 32980 30810 10197 20095 48550 83030
                   333 10//0 20092 58003 83360
                   555 00092 91025=
201809050900 AAXX 05094 67413 41870 40906 10266 20080 48541 70500 84100
                   333 5//// 84857 91024=
201809050600 AAXX 05064 67413 31970 00000 10190 20199 48547 70500
                   333 10//0 20070 58003 91025=
201809041200 AAXX 04124 67413 NIL=

################################################################################
#  SYNOPS from 67441, Mwinilunga (Zambia) | 11-45S | 024-26E | 1361 m
################################################################################
201809281200 AAXX 28124 67441 41670 40000 10330 20100 48512 70500 84100
                   333 59001 84850=
201809280900 AAXX 28094 67441 41970 40901 10300 20105 48543 70500 84010
                   333 59002 84460=
201809280600 AAXX 28064 67441 31970 30000 10185 20125 48538 70500 83010
                   333 10340 20//0 58008 83460=
201809270900 AAXX 27094 67441 41970 00902 10310 20089 48545 70500
                   333 59015=
201809270600 AAXX 27064 67441 31970 40000 10160 20133 48530 70500 84010
                   333 10320 2//// 59011 84460=
201809261200 AAXX 26124 67441 41670 30000 10310 20123 48524 70500 83100
                   333 59008 83850=
201809260900 AAXX 26094 67441 41970 00000 10250 20156 48556 70500
                   333 58001=
201809260600 AAXX 26064 67441 11970 30000 10160 20143 48550 60064 70522 83010
                   333 10310 2//// 58002 83460=
201809251200 AAXX 25124 67441 41670 72701 10260 20141 48528 71722 8736/
                   333 58007 84940 83360=
201809250600 AAXX 25064 67441 31970 00000 10200 20140 48548 70500
                   333 10330 20//0 58001=
201809241200 AAXX 24124 67441 41670 30000 10320 20090 48526 70500 83100
                   333 5//// 83850=
201809240600 AAXX 24064 67441 31970 00000 10180 20103 48547 70500
                   333 10320 20//0 58000=
201809211200 AAXX 21124 67441 41970 00000 10320 20081 48522 70500
                   333 59002=
201809210900 AAXX 21094 67441 41970 00000 10300 20087 48550 70500
                   333 59006=
201809210600 AAXX 21064 67441 31970 00000 10155 20070 48551 70500
                   333 10330 20//0 59002=
201809201200 AAXX 20124 67441 41970 00901 10330 20040 48524 70500
                   333 58001=
201809200900 AAXX 20094 67441 41970 00501 10290 20069 48556 70500
                   333 59003=
201809200600 AAXX 20064 67441 31970 00000 10170 20085 48553 70500
                   333 10340 2//// 58000=
201809190600 AAXX 19064 67441 31970 00000 10160 20083 48553 70500
                   333 10340 2//// 58021=
201809181200 AAXX 18124 67441 41970 00901 10330 20049 48523 70500
                   333 59004=
201809180900 AAXX 18094 67441 41970 00502 10305 20068 48554 70500
                   333 59006=
201809180600 AAXX 18064 67441 31970 00000 10155 20129 48542 70500
                   333 10330 20//0 59014=
201809171200 AAXX 17124 67441 41670 60000 10315 20110 48528 70511 86109
                   333 5//// 84850 82170=
201809170900 AAXX 17094 67441 41970 00000 10275 20130 48555 70500
                   333 5////=
201809170600 AAXX 17064 67441 31970 00000 10170 20119 48555 70500
                   333 10320 20//0 58003=
201809141200 AAXX 14124 67441 41670 60901 10320 20064 48534 70522 86109
                   333 59002 83850 83170=
201809131200 AAXX 13124 67441 41670 50000 10300 20113 48530 70511 85100
                   333 58001 85850=
201809130900 AAXX 13094 67441 41670 11501 10275 20130 48559 70500 81100
                   333 59003 81840=
201809130600 AAXX 13064 67441 31970 00000 10180 20146 48552 70500 10310 20/// 59002 00///=
201809120600 AAXX 12064 67441 31970 00000 10180 20146 48554 70500
                   333 10320 20//0 58002=
201809111200 AAXX 11124 67441 41670 40000 10310 20106 48534 70500 84100
                   333 59008 84850=
201809110900 AAXX 11094 67441 NIL=
201809110600 AAXX 11064 67441 31970 00000 10155 20096 48552 70500
                   333 10300 20//0 59003=
201809100900 AAXX 10094 67441 41970 70000 10245 20092 48565 70522 80008
                   333 5//// 87270=
201809100600 AAXX 10064 67441 11970 70000 10170 20153 48555 60064 70522 8703/
                   333 10310 20//0 58008 87360=
201809071200 AAXX 07124 67441 41670 50501 10315 20111 48509 70522 85200
                   333 59017 85850=
201809070600 AAXX 07064 67441 31970 00000 10190 20139 48533 70500
                   333 10320 20/// 59021=
201809061200 AAXX 06124 67441 41670 40501 10310 20080 48528 70500 84100
                   333 59003 84850=
201809060600 AAXX 06064 67441 31970 00000 10160 20109 48553 70500
                   333 10320 20/// 59003=
201809050900 AAXX 05094 67441 41970 00000 10280 20093 48557 70500
                   333 58003=
201809050600 AAXX 05064 67441 31970 00000 10165 20071 48556 70500
                   333 10330 20//0 58006=
201809041200 AAXX 04124 67441 41670 31301 10310 20089 48527 70500 83100
                   333 58014 83850=
201809040600 AAXX 04064 67441 31970 00000 10185 20100 48550 70500
                   333 10330 20//0 58015=

################################################################################
#  SYNOPS from 67461, Mansa (Zambia) | 11-06S | 028-51E | 1382 m
################################################################################
201810010600 AAXX 01064 67461 31575 11216 10198 20131 48527 70500 81100
                   333 10306 20160 58003 81828
                   555 00/// 91020=
201809281200 AAXX 28124 67461 41775 71310 10324 20060 48487 81108
                   333 59007 81856 86280 91013=
201809280900 AAXX 28094 67461 41975 41012 10300 20094 48505 70500 81031
                   333 59018 81360 83080 91016=
201809280600 AAXX 28064 67461 31975 40609 10238 20101 48512 70500 83031
                   333 10340 20172 59009 83360 82080 91027=
201809270900 AAXX 27094 67461 41980 01204 10306 20085 48524 70500
                   333 59005 91018=
201809270600 AAXX 27064 67461 31975 01306 10246 20106 48522 70500
                   333 10340 20169 59006 91019=
201809260900 AAXX 26094 67461 41975 01105 10299 20090 48528 70500
                   333 59008 91019=
201809250600 AAXX 25064 67461 31970 00802 10206 20105 48532 70500
                   333 10311 20147 58006 91020=
201809241200 AAXX 24124 67461 41959 00803 10302 20079 48508 70500
                   333 58007 91016=
201809240600 AAXX 24064 67461 31960 01305 10206 20095 48526 70500
                   333 10316 20149 59003 91019=
201809210900 AAXX 21094 67461 41960 01014 10294 20100 48523 70500
                   333 5//// 91018=
201809210600 AAXX 21064 67461 31958 01013 10220 20115 48519 70500
                   333 10320 20160 59001 91018=
201809201200 AAXX 20124 67461 41960 01209 10308 20027 48489 70500
                   333 59010 91014=
201809200600 AAXX 20064 67461 31960 01210 10199 20111 48517 70500
                   333 10330 20139 58001=
201809190600 AAXX 19064 67461 31958 01109 10222 20101 48519 70500
                   333 10329 20142 58006 91018=
201809181200 AAXX 18124 67461 41960 01311 10322 20044 48500 70500
                   333 58007 91015=
201809180900 AAXX 18094 67461 41960 01415 10298 20120 48517 70500
                   333 59008 91017=
201809180600 AAXX 18064 67461 31960 01409 10218 20108 48512 70500
                   333 10326 20150 59010 91017=
201809171200 AAXX 17124 67461 41957 40503 10312 20065 48592 70500 80001
                   333 58003 84080 91015=
201809170900 AAXX 17094 67461 41975 70807 10290 20100 48525 70500 80008
                   333 59005 91018=
201809170600 AAXX 17064 67461 31975 60802 10210 20120 48522 70500 80008
                   333 10324 20161 59006 86280 91019=
201809140600 AAXX 14064 67461 31959 21202 10203 20120 48524 70500 80001
                   333 10321 20145 58002 82080 91019=
201809131200 AAXX 13124 67461 41858 21002 10312 20075 48507 70500 82200
                   333 58006 82857 91016=
201809130900 AAXX 13094 67461 41975 01603 10288 20087 48523 70500
                   333 58007 91019=
201809120600 AAXX 12064 67461 31958 21011 10208 20135 48528 70500 80001
                   333 10309 20149 58011 82080 91020=
201809110900 AAXX 11094 67461 41658 11011 10266 20148 48531 70500 81101
                   333 58017 81848 81080 91019=
201809110600 AAXX 11064 67461 11958 21009 10212 20162 48518 60024 70500 81031
                   333 10318 20160 58006 81360 81080 91018=
201809100900 AAXX 10094 67461 41760 41505 10278 20146 48515 81130
                   333 58000 81850 84360 91017=
201809100600 AAXX 10064 67461 31958 73205 10214 20161 48512 70522 8703/
                   333 10308 20172 58000 87360 91017=
201809061200 AAXX 06124 67461 41754 11104 10301 20106 48503 70500 81200
                   333 59006 81856 91016=
201809050900 AAXX 05094 67461 NIL=
201809050600 AAXX 05064 67461 31975 01202 10188 20110 48533 70500
                   333 10316 20130 58006 91020=
201809041200 AAXX 04124 67461 41970 00604 10309 20071 48504 70500
                   333 58018 91016=
201809040600 AAXX 04064 67461 31975 01102 10187 20099 48527 70500
                   333 10309 20131 58015 91020=

################################################################################
#  SYNOPS from 67469, Samfya (Zambia) | 11-22S | 029-54E | 1171 m
################################################################################
201809281200 AAXX 28124 67469 NIL=
201809260900 AAXX 26094 67469 NIL=
201809241200 AAXX 24124 67469 NIL=
201809180900 AAXX 18094 67469 NIL=
201809180600 AAXX 18064 67469 NIL=
201809171200 AAXX 17124 67469 NIL=
201809170900 AAXX 17094 67469 NIL=
201809170600 AAXX 17064 67469 NIL=
201809110900 AAXX 11094 67469 NIL=
201809110600 AAXX 11064 67469 NIL=
201809100900 AAXX 10094 67469 NIL=
201809061200 AAXX 06124 67469 NIL=
201809050900 AAXX 05094 67469 NIL=
201809041200 AAXX 04124 67469 NIL=

################################################################################
#  SYNOPS from 67475, Kasama (Zambia) | 10-13S | 031-08E | 1382 m
################################################################################
201809281200 AAXX 28124 67475 41760 41610 10315 20042 48495 70500 83101
                   333 58000 83850 81080 91016=
201809280600 AAXX 28064 67475 31960 30904 10228 20110 48528 70500 80001
                   333 10333 20175 59007 82080 91021=
201809270900 AAXX 27094 67475 41960 50916 10296 20086 48525 70522 80008
                   333 5////=
201809270600 AAXX 27064 67475 31660 40115 10225 20111 48530 70510 81108
                   333 10331 20176 59006 81835 84280 91021=
201809260900 AAXX 26094 67475 NIL=
201809260600 AAXX 26064 67475 31960 01007 10217 20116 48536 70500
                   333 10320 20150 59004 91021=
201809250600 AAXX 25064 67475 31960 00803 10206 20106 48539 70500
                   333 10314 20155 58007
                   555 00///=
201809241200 AAXX 24124 67475 NIL=
201809240600 AAXX 24064 67475 31960 01011 10204 20105 48532 70500
                   333 10320 20154 59005 91021=
201809211200 AAXX 21124 67475 41660 61007 10302 20054 48505 70522 86201
                   333 58004 86845 83080 91018=
201809210900 AAXX 21094 67475 41660 30912 10280 20088 48536 70520 81101
                   333 58000 81830 83080 91021=
201809210600 AAXX 21064 67475 31960 30912 10215 20134 48538 70500 80001
                   333 10328 20155 59003 83080 91022=
201809201200 AAXX 20124 67475 41960 40907 10314 21005 48501 70522 80008
                   333 59001 84280 91017=
201809200900 AAXX 20094 67475 41960 10912 10271 20065 48535 70500 80001
                   333 58002 81080=
201809200600 AAXX 20064 67475 31960 20911 10207 20081 48540 70500 80001
                   333 10316 20119 58000 82080 91022=
201809190600 AAXX 19064 67475 31960 10909 10221 20061 48541 70510 80001
                   333 10325 20161 58014 81080 91022=
201809181200 AAXX 18124 67475 41960 01408 10305 20037 48502 70500
                   333 58005 91017=
201809180900 AAXX 18094 67475 41960 01007 10295 20077 48525 70500
                   333 58001 91020=
201809180600 AAXX 18064 67475 31960 00904 1//// 20116 48527 70500
                   333 10320 20150 59003=
201809171200 AAXX 17124 67475 NIL=
201809170900 AAXX 17094 67475 NIL=
201809170600 AAXX 17064 67475 31960 31608 10215 20126 48530 70522 80001
                   333 10315 20165 59003 91021=
201809140600 AAXX 14064 67475 31960 50407 10209 20122 48533 70522 80005
                   333 10314 20159 59001 85080 91021=
201809131200 AAXX 13124 67475 41657 71805 10303 20062 48509 70522 84001
                   333 58000 85845 83080 91018=
201809130900 AAXX 13094 67475 41957 30813 10266 20104 48/// 70500 80001
                   333 5//// 83080 9////=
201809120600 AAXX 12064 67475 31960 30814 10199 20134 48541 70521 80001
                   333 10304 20149 5//// 83080 91022=
201809110900 AAXX 11094 67475 41660 30812 10257 20136 48/// 70521 83101
                   333 5//// 83835 82080 9////=
201809110600 AAXX 11064 67475 11560 71407 10190 20159 48/// 60014 70522 81108
                   333 10320 20148 5//// 81820 87280=
201809100900 AAXX 10094 67475 41560 12703 10280 20115 48526 70500 81100
                   333 58002 81825 91020=
201809100600 AAXX 10064 67475 31460 52310 10215 20142 48526 69904 70522 85500
                   333 10325 20165 59003 85615 91020=
201809061200 AAXX 06124 67475 41660 41010 10//0 20103 48507 70522 84200
                   333 59004 84845 91018=
201809050900 AAXX 05094 67475 41960 00912 10261 20110 48539 70500
                   333 59012 91022=
201809050600 AAXX 05064 67475 31960 01408 10188 20133 48543 70500
                   333 10300 20125 58010 91022=
201809041200 AAXX 04124 67475 41660 11610 10295 20063 48503 70500 81100
                   333 58013 91017=
201809040600 AAXX 04064 67475 31960 01405 10200 20104 48534 70500
                   333 10304 20120 58010 91021=

################################################################################
#  SYNOPS from 67476, Misamfu (Zambia) | 10-06S | 031-15E | 1536 m
################################################################################
201810010600 AAXX 01064 67476 31973 11514 10195 20115 48/// 70500 80001
                   333 10325 20157 5//// 81080
                   555 00///=
201809281200 AAXX 28124 67476 41775 70907 10307 20065 48/// 70522 82108
                   333 59000 81856 87280=
201809280900 AAXX 28094 67476 41977 50713 10293 20085 48/// 70510 80008
                   333 59001 85280=
201809280600 AAXX 28064 67476 31975 30912 10125 20103 48/// 70500 80001
                   333 10335 20172 59001 83080=
201809270900 AAXX 27094 67476 41977 00911 10299 20083 48/// 70500
                   333 59006=
201809270600 AAXX 27064 67476 31575 10709 10226 20112 48/// 70500 81100
                   333 10330 20171 59006 81825=
201809261200 AAXX 26124 67476 41774 21508 10322 20065 48/// 70500 82100
                   333 59004 82850=
201809260900 AAXX 26094 67476 41976 00909 10291 20071 48/// 70500
                   333 59007=
201809241200 AAXX 24124 67476 41774 21806 10301 20071 48/// 70500 81100
                   333 5//// 81856=
201809240900 AAXX 24094 67476 42977 61212 10256 20071 48/// 70500
                   333 5////=
201809240600 AAXX 24064 67476 31976 00912 10205 20102 48/// 70500
                   333 10309 20124 5////=
201809210600 AAXX 21064 67476 31975 01003 10238 20055 48/// 70500
                   333 10310 20113 58006=
201809200600 AAXX 20064 67476 31976 01203 10227 20062 48/// 70599
                   333 10330 20108 58002=
201809191200 AAXX 19124 67476 41978 00000 10305 20010 48/// 70500
                   333 58001=
201809190600 AAXX 19064 67476 31976 00903 10208 20101 48/// 70500
                   333 10313 20130 58002=
201809181200 AAXX 18124 67476 41970 01003 10317 20145 48/// 70500
                   333 59004=
201809180900 AAXX 18094 67476 41977 00000 10293 20114 48/// 70500
                   333 59006=
201809180600 AAXX 18064 67476 31976 10902 10212 20083 48/// 70521 80001
                   333 10321 20135 59003 81080=
201809171200 AAXX 17124 67476 41778 40902 10299 20067 48/// 70522 81102
                   333 5//// 81855 84280=
201809170900 AAXX 17094 67476 41977 40803 10278 20099 48/// 70522 80002
                   333 5//// 84280=
201809170600 AAXX 17064 67476 31976 31003 10210 20117 48/// 70522 80002
                   333 10300 20135 5//// 83280=
201809140900 AAXX 14094 67476 41976 10910 10280 20111 48/// 70500 80001
                   333 5//// 81080=
201809140600 AAXX 14064 67476 31972 30905 10211 20126 48/// 70520 80001
                   333 10308 20124 59001=
201809131200 AAXX 13124 67476 41778 41006 10292 20100 48/// 70500 84201
                   333 59005 84850 81080=
201809130900 AAXX 13094 67476 41976 00908 10271 20102 48/// 70500
                   333 59005=
201809130600 AAXX 13064 67476 311974 00608 10197 20121 48/// 70500 10299 20108 59006 00///
                   20000=
201809120600 AAXX 12064 67476 31975 10909 10196 20136 48/// 70500 80001
                   333 10301 20129 59003 81080=
201809111200 AAXX 11124 67476 41778 31403 10292 20104 48/// 70500 83200
                   333 58014 83850=
201809110900 AAXX 11094 67476 41676 10912 10258 20134 48/// 70500 81100
                   333 58016 81835=
201809110600 AAXX 11064 67476 11474 41206 10199 20152 48/// 69904 70521 81401
                   333 10309 20139 58019 81617 84080=
201809100900 AAXX 10094 67476 41675 12703 10277 20126 48/// 70520 81100
                   333 5//// 81840=
201809100600 AAXX 10064 67476 11974 50604 10206 20145 48/// 69924 70522 85060
                   333 10318 20155 5////=
201809061200 AAXX 06124 67476 NIL=
201809060600 AAXX 06064 67476 31975 00803 10176 20135 48/// 70500
                   333 10298 20139 58003=
201809050900 AAXX 05094 67476 NIL=
201809050600 AAXX 05064 67476 31973 00903 10197 20085 48/// 70500
                   333 10300 20138 58003=
201809041200 AAXX 04124 67476 NIL=
201809040600 AAXX 04064 67476 32580 10903 10189 20165 48/// 81500
                   333 10278 20134 5//// 81620=

################################################################################
#  SYNOPS from 67477, Mpika (Zambia) | 11-54S | 031-26E | 1400 m
################################################################################
201810010600 AAXX 01064 67477 31375 71203 10165 20128 48556 70500 87600
                   333 10288 20156 58009 87708
                   555 00114=
201809281200 AAXX 28124 67477 41775 11202 10307 20080 48502 70500 81100
                   333 59003 81856=
201809280900 AAXX 28094 67477 41975 09090 10280 20100 48540 70500
                   333 59003=
201809280600 AAXX 28064 67477 31975 10905 10230 20119 48534 70500 80001
                   333 10320 20185 58000 81080=
201809270900 AAXX 27094 67477 41975 00910 10297 20085 48533 70500
                   333 59005=
201809270600 AAXX 27064 67477 31975 00907 10240 20130 48533 70500
                   333 10320 20198 59005
                   555 00180=
201809261200 AAXX 26124 67477 41975 00602 10309 20100 48509 70500
                   333 59004=
201809260900 AAXX 26094 67477 41975 00904 10289 20095 48538 70500
                   333 58000=
201809250600 AAXX 25064 67477 31975 00909 10220 20109 48541 70500
                   333 10298 20162 58003
                   555 00150=
201809241200 AAXX 24124 67477 41975 01204 10290 20092 48517 70500
                   333 59002=
201809240600 AAXX 24064 67477 31975 01211 10212 20112 48537 70500
                   333 10298 20158 59006
                   555 00150=
201809211200 AAXX 21124 67477 41775 31210 10287 20092 48518 70500 83100
                   333 58002 83856=
201809210900 AAXX 21094 67477 41975 00905 10270 20110 48542 70500
                   333 59001=
201809210600 AAXX 21064 67477 31975 00906 10230 20120 48543 70500
                   333 10294 20167 59006
                   555 00154=
201809201200 AAXX 20124 67477 41775 10609 10285 20092 48516 70500 81100
                   333 59001 81856=
201809200900 AAXX 20094 67477 41975 00910 10267 20090 48543 70500
                   333 59002=
201809200600 AAXX 20064 67477 31975 00904 10217 20086 48549 70500
                   333 10296 20108 58011
                   555 00098=
201809190600 AAXX 19064 67477 31975 01206 10230 20080 48540 70500
                   333 10302 20180 58006
                   555 00156=
201809181200 AAXX 18124 67477 41975 01204 10297 20132 48515 70500
                   333 59006=
201809180900 AAXX 18094 67477 41975 01204 10269 20090 48537 70500
                   333 58004=
201809180600 AAXX 18064 67477 31975 00907 10227 20100 48534 70500
                   333 10312 20138 58001
                   555 00126=
201809171200 AAXX 17124 67477 41978 30903 10308 20122 48511 70500 80000
                   333 58000 83080=
201809170900 AAXX 17094 67477 41978 30906 10273 20112 48533 70522
                   333 59003 83080=
201809170600 AAXX 17064 67477 31978 40914 10223 20102 48533 70500
                   333 10300 20142 59006 84080
                   555 00130=
201809140600 AAXX 14064 67477 31978 01205 10217 20130 48536 70500
                   333 10293 20172 58002
                   555 00154=
201809131200 AAXX 13124 67477 41978 01204 10276 20100 48515 70500
                   333 59013=
201809130900 AAXX 13094 67477 42980 01202 10271 20120 48532
                   333 59005=
201809130600 AAXX 13064 67477 32980 01205 10213 20110 48535
                   333 10280 20140 59007
                   555 00149 20000=
201809120600 AAXX 12064 67477 31978 00905 10199 20140 48540 70500
                   333 10270 20151 59010
                   555 00126=
201809110900 AAXX 11094 67477 41978 10902 10232 20110 48550 70500 80001
                   333 59019 81080=
201809110600 AAXX 11064 67477 31475 31203 10188 20140 48550 70500 83500
                   333 10294 20140 58023 83610
                   555 00135=
201809100900 AAXX 10094 67477 41578 50902 10261 20110 48529 70522 81131
                   333 58000 81820 83361 82080=
201809070600 AAXX 07064 67477 31478 30906 10206 20120 48525 70500 81130
                   333 10292 20135 59016 81813 83360
                   555 00139=
201809061200 AAXX 06124 67477 42680 20904 10287 20070 48515 82100
                   333 59005 82836=
201809050900 AAXX 05094 67477 41578 10907 10257 20110 48545 70500 81100
                   333 58005 81822=
201809050600 AAXX 05064 67477 31978 01208 10207 20090 48548 70500
                   333 10281 20129 5////
                   555 00135=
201809041200 AAXX 04124 67477 41978 00000 10278 20060 48/// 70500
                   333 5////=
201809040600 AAXX 04064 67477 31978 00902 10199 20110 48540 70500
                   333 10281 20130 58014
                   555 00127=
201809030600 AAXX 03064 67477 31970 01204 10206 20120 48525 70500
                   333 10274 20144 59019
                   555 00151=

################################################################################
#  SYNOPS from 67481, Isoka (Zambia) | 10-07S | 032-38E | 1360 m
################################################################################
201810010600 AAXX 01064 67481 31975 03004 10206 20132 48/// 70500
                   333 10328 20154 5////
                   555 00///=
201809281200 AAXX 28124 67481 NIL=
201809280600 AAXX 28064 67481 31975 23002 10220 20122 48/// 70500 80001
                   333 10340 20160 5//// 82080=
201809270900 AAXX 27094 67481 41978 03302 10300 20103 48/// 70500
                   333 5////=
201809270600 AAXX 27064 67481 31978 12202 10238 20130 48/// 70511 81030
                   333 10322 20168 5//// 81360=
201809261200 AAXX 26124 67481 41775 30302 10297 20098 48/// 70500 83100
                   333 5//// 83850=
201809260900 AAXX 26094 67481 NIL=
201809250600 AAXX 25064 67481 31975 03003 10224 20110 48/// 70500
                   333 10312 20142 5////
                   555 00///=
201809241200 AAXX 24124 67481 41775 13003 10304 20093 48/// 70500
                   333 5//// 81850=
201809240600 AAXX 24064 67481 31975 03003 10218 20111 48/// 70500
                   333 10312 20146 5////=
201809210900 AAXX 21094 67481 41678 23003 10282 20133 48/// 70500 81101
                   333 5//// 81830 82080=
201809210600 AAXX 21064 67481 31578 23003 10232 20120 48/// 70500 81131
                   333 10314 20156 5//// 81820 81360 81080=
201809201200 AAXX 20124 67481 41770 33303 10312 20070 48/// 70500 83100
                   333 5//// 83850=
201809200900 AAXX 20094 67481 41975 03003 10274 20076 48/// 70500
                   333 5////=
201809200600 AAXX 20064 67481 31975 03002 10228 20096 48/// 70500
                   333 10308 20153 5////=
201809190600 AAXX 19064 67481 31975 02403 10224 20128 48/// 70500
                   333 10322 20164 5////=
201809181200 AAXX 18124 67481 41975 02406 10310 20076 48/// 70500
                   333 5////=
201809180900 AAXX 18094 67481 41975 02402 10280 20095 48/// 70500
                   333 5////=
201809180600 AAXX 18064 67481 31975 02402 10238 20125 48/// 70500
                   333 10320 20158 5////=
201809171200 AAXX 17124 67481 NIL=
201809170900 AAXX 17094 67481 NIL=
201809170600 AAXX 17064 67481 31975 52502 10225 20127 48/// 70500 80001
                   333 10328 20152 5//// 85080=
201809140600 AAXX 14064 67481 31975 02301 10220 20126 48/// 70500
                   333 10312 20154 5////=
201809131200 AAXX 13124 67481 41775 23004 10292 20071 48/// 70500 82100
                   333 5//// 82850=
201809120600 AAXX 12064 67481 31975 13002 10206 20108 48/// 70500 80001
                   333 10304 20140 5//// 81080=
201809110900 AAXX 11094 67481 NIL=
201809110600 AAXX 11064 67481 11978 13002 10216 20141 48/// 69984 70500 80001
                   333 10310 20152 5//// 81080=
201809100900 AAXX 10094 67481 41778 30301 10278 20126 48/// 70500 82180
                   333 5//// 82850 83361=
201809100600 AAXX 10064 67481 11978 12002 10224 20136 48/// 69904 70500 80001
                   333 10322 20162 5//// 81080=
201809070600 AAXX 07064 67481 31978 50603 10200 20131 48/// 70522 85030
                   333 10292 20142 5//// 85360=
201809061200 AAXX 06124 67481 NIL=
201809060600 AAXX 06064 67481 32980 10301 10218 20132 48/// 81030
                   333 10302 20152 5////=
201809050900 AAXX 05094 67481 NIL=
201809050600 AAXX 05064 67481 31975 02013 10214 20137 48/// 70500
                   333 10296 20142 5////=
201809041200 AAXX 04124 67481 NIL=
201809040600 AAXX 04064 67481 31975 02703 10216 20100 48/// 70500
                   333 10300 20140 5////=
201809030600 AAXX 03064 67481 31975 00000 10212 20105 48/// 70500
                   333 10290 20140 5////=

################################################################################
#  SYNOPS from 67531, Zambezi (Zambia) | 13-32S | 023-07E | 1077 m
################################################################################
201810010600 AAXX 01064 67531 31975 01207 10222 20114 48/// 70500
                   333 10335 20155 58000
                   555 00151=
201809281200 AAXX 28124 67531 41975 10909 10364 20097 48/// 70500 81100
                   333 59006 81860=
201809280900 AAXX 28094 67531 41975 00911 10334 20093 48/// 70500
                   333 59007=
201809280600 AAXX 28064 67531 31975 10903 10230 20097 48/// 70510 81030
                   333 10370 20146 59007 81361=
201809270900 AAXX 27094 67531 41975 00306 10326 20094 48/// 70500
                   333 59026=
201809270600 AAXX 27064 67531 31970 01003 10206 20162 48/// 70500
                   333 10340 20149 59011
                   555 00162=
201809261200 AAXX 26124 67531 41775 31905 10324 20163 48/// 70500 82101
                   333 58007 82857 81080=
201809260900 AAXX 26094 67531 41975 33004 10277 20165 48/// 70500 80001
                   333 58014 83080=
201809250600 AAXX 25064 67531 31975 00804 10226 20137 48/// 70500
                   333 10352 20149 58005
                   555 00120=
201809241200 AAXX 24124 67531 41975 00809 10341 20095 48/// 70500
                   333 58010=
201809240600 AAXX 24064 67531 31970 60910 10231 20078 48/// 70522 86030
                   333 10333 20201 59002 86362=
201809211200 AAXX 21124 67531 41975 00000 10345 20079 48/// 70500
                   333 5////=
201809210900 AAXX 21094 67531 41975 00909 10310 20078 48/// 70500
                   333 5////=
201809210600 AAXX 21064 67531 31970 01005 10210 20057 48/// 70500
                   333 10362 20136 5////
                   555 00113=
201809201200 AAXX 20124 67531 41975 01205 10352 20040 48/// 70500
                   333 5////=
201809200900 AAXX 20094 67531 41975 00908 10316 20060 48/// 70500
                   333 5////=
201809200600 AAXX 20064 67531 31975 01008 10202 20052 48/// 70500
                   333 10365 20143 5////
                   555 00129=
201809190600 AAXX 19064 67531 31975 00905 10197 20062 48/// 70500
                   333 10368 20125 58001
                   555 00110=
201809181200 AAXX 18124 67531 41975 00907 10360 20076 48/// 70500
                   333 59007=
201809180900 AAXX 18094 67531 41975 00906 10311 20063 48/// 70500
                   333 59003=
201809180600 AAXX 18064 67531 31965 00804 10204 20106 48/// 70500
                   333 10356 20116 59010
                   555 00112=
201809171200 AAXX 17124 67531 41975 00305 10347 20085 48/// 70500
                   333 58007=
201809170900 AAXX 17094 67531 41970 03606 10319 20097 48/// 70500
                   333 59004=
201809170600 AAXX 17064 67531 31970 23004 10182 20065 48/// 70500 80001
                   333 10347 20114 58002 82080
                   555 00110=
201809141200 AAXX 14124 67531 41975 00000 10345 20060 48/// 70500
                   333 5////=
201809140900 AAXX 14094 67531 41975 00804 10311 20077 48/// 70500
                   333 10350 20115 59005=
201809140600 AAXX 14064 67531 31975 00903 10211 20058 48/// 70500
                   333 10350 20115 59003
                   555 00089=
201809131200 AAXX 13124 67531 41975 02705 10336 20078 48/// 70500
                   333 58001=
201809130900 AAXX 13094 67531 41975 00904 10290 20148 48/// 70500
                   333 59001=
201809120600 AAXX 12064 67531 31975 01503 10181 20094 48/// 70500
                   333 10345 20102 59006
                   555 00102=
201809110900 AAXX 11094 67531 41975 01305 10282 20124 48/// 70500
                   333 59016=
201809110600 AAXX 11064 67531 31975 01804 10158 20030 48/// 70500
                   333 10333 20060 58000
                   555 00063=
201809100900 AAXX 10094 67531 41975 01405 10267 20025 48/// 70500
                   333 58022=
201809100600 AAXX 10064 67531 31975 03002 10164 20063 48/// 70500
                   333 10312 20066 58007
                   555 00080=
201809070900 AAXX 07094 67531 41975 03603 10294 20163 48/// 70500
                   333 59025=
201809070600 AAXX 07064 67531 31965 10304 10217 20154 48/// 70500 80001
                   333 10355 20125 59022 81081
                   555 00133=
201809061200 AAXX 06124 67531 41975 00907 10345 20084 48/// 70500
                   333 59014=
201809050900 AAXX 05094 67531 NIL=
201809050600 AAXX 05064 67531 31975 00705 10187 20080 48/// 70500
                   333 10345 20124 58007
                   555 00112=
201809041200 AAXX 04124 67531 41975 01607 10333 20096 48/// 70500
                   333 58014=
201809040600 AAXX 04064 67531 31975 00905 10189 20089 48/// 70500
                   333 10341 20102 58009
                   555 00103=
201809030600 AAXX 03064 67531 31975 01002 10162 20099 48/// 70500
                   333 10316 20082 59022
                   555 00092=

################################################################################
#  SYNOPS from 67541, Kasempa (Zambia) | 13-32S | 025-51E | 1234 m
################################################################################
201810010600 AAXX 01064 67541 31970 00703 10201 20133 48524 70500
                   333 10338 20160 59007
                   555 00///=
201809281200 AAXX 28124 67541 41975 20602 10345 20145 48495 70522 82100
                   333 58006 82858=
201809280900 AAXX 28094 67541 41970 30618 10310 20138 48522 70511 80003
                   333 59007 83080=
201809280600 AAXX 28064 67541 31970 50605 10260 20109 48517 70522 85030
                   333 10366 20176 59002 85360=
201809270600 AAXX 27064 67541 31970 00503 10259 20100 48519 70500
                   333 10360 20118 58001=
201809261200 AAXX 26124 67541 41970 10000 10350 20118 48501 70500 81100
                   333 58002 81859=
201809260900 AAXX 26094 67541 NIL=
201809260600 AAXX 26064 67541 31970 20000 10227 20113 48518 70522 80002
                   333 10332 20112 59009 82080=
201809250600 AAXX 25064 67541 31970 00604 10225 20111 48527 70500
                   333 10344 20160 58005=
201809241200 AAXX 24124 67541 41975 00704 10324 20140 48499 70500
                   333 5////=
201809240600 AAXX 24064 67541 31970 00703 10225 20111 48522 70500
                   333 10340 20176 59004=
201809211200 AAXX 21124 67541 41975 00702 10330 20113 48500 70500
                   333 58001=
201809210900 AAXX 21094 67541 41970 00515 10300 20106 48535 70500
                   333 58000=
201809210600 AAXX 21064 67541 31970 00000 10205 20106 48513 70500
                   333 10350 20102 59009=
201809201200 AAXX 20124 67541 41975 00602 10328 20124 48499 70500
                   333 59001=
201809200900 AAXX 20094 67541 41970 00704 10305 20125 48535 70500
                   333 58006=
201809200600 AAXX 20064 67541 31970 00604 10230 20089 48522 70500
                   333 10354 20150 58006=
201809190600 AAXX 19064 67541 31970 00000 10210 20089 48516 70500
                   333 10360 20114 58000=
201809181200 AAXX 18124 67541 41975 00603 10335 20130 48509 70500
                   333 58000=
201809180900 AAXX 18094 67541 NIL=
201809180600 AAXX 18064 67541 31970 00000 10215 20112 48516 70500
                   333 10354 20114 58000=
201809171200 AAXX 17124 67541 41975 10000 10345 20133 48509 70522 80001
                   333 5//// 81080=
201809170900 AAXX 17094 67541 41970 10000 10335 20141 48530 70522 80001
                   333 5//// 81080=
201809170600 AAXX 17064 67541 31970 00000 10208 20107 48516 70500
                   333 10358 20148 59007=
201809141200 AAXX 14124 67541 41975 00000 10340 20115 48501 70500
                   333 59011=
201809140600 AAXX 14064 67541 31970 00000 10230 20114 48520 70500
                   333 10352 20090 58001=
201809131200 AAXX 13124 67541 41875 20503 10315 20144 48498 70522 82100
                   333 59015 82857=
201809130900 AAXX 13094 67541 41970 00604 10305 20106 48527 70500
                   333 58001=
201809130600 AAXX 13064 67541 31970 00000 10220 20099 48519 70500
                   333 10332 20100 59004
                   555 00/// 20000=
201809120600 AAXX 12064 67541 31975 10000 10213 20124 48523 70522 81030
                   333 10346 20150 58002 81360=
201809111200 AAXX 11124 67541 41875 30000 10337 20162 48513 70522 83200
                   333 58002 83857=
201809110900 AAXX 11094 67541 NIL=
201809110600 AAXX 11064 67541 31970 00304 10195 20143 48521 70500
                   333 10340 20160 58006=
201809101200 AAXX 10124 67541 41875 70305 10305 20106 48511 70522 81100
                   333 5//// 81857=
201809100900 AAXX 10094 67541 41970 00303 10300 20073 48528 70500
                   333 5////=
201809100600 AAXX 10064 67541 31970 00000 10190 20055 48515 70500
                   333 10342 20108 58005=
201809061200 AAXX 06124 67541 41875 30604 10328 20156 48492 70522 83100
                   333 59009 83858=
201809050900 AAXX 05094 67541 NIL=
201809050600 AAXX 05064 67541 31970 00000 10213 20104 48518 70500
                   333 10330 20118 58003=
201809041200 AAXX 04124 67541 41970 00702 10313 20137 48495 70500
                   333 58004=
201809040900 AAXX 04094 67541 41970 00705 10295 20137 48530 70500
                   333 58008=
201809040600 AAXX 04064 67541 31970 00000 10180 20120 48515 70500
                   333 10332 20102 58003=
201809030600 AAXX 03064 67541 31970 00000 10175 20124 48512 70500
                   333 10320 20090 59021=

################################################################################
#  SYNOPS from 67543, Kabompo (Zambia) | 13-36S | 024-12E | 1075 m
################################################################################
201810010600 AAXX 01064 67543 31960 00803 10230 20115 48/// 70500
                   333 10352 20196 5////
                   555 00///=
201809281200 AAXX 28124 67543 NIL=
201809280900 AAXX 28094 67543 41965 00605 10336 20078 48/// 70500
                   333 5////=
201809280600 AAXX 28064 67543 31960 00901 10254 20084 48/// 70500
                   333 10384 20198 5////=
201809270900 AAXX 27094 67543 41960 00302 10342 20085 48/// 70500
                   333 5////=
201809270600 AAXX 27064 67543 31958 00000 10188 20108 48/// 70500
                   333 10362 20142 5////=
201809261200 AAXX 26124 67543 41662 20703 10352 20089 48/// 70500 82100
                   333 5//// 82838=
201809260900 AAXX 26094 67543 41960 00602 10316 20110 48/// 70500
                   333 5////=
201809250600 AAXX 25064 67543 31958 40000 10192 20118 48/// 70522 84030
                   333 10350 20160 5//// 84360
                   555 00///=
201809241200 AAXX 24124 67543 41962 00302 10324 20103 48/// 70500
                   333 5////=
201809240600 AAXX 24064 67543 31958 01102 10230 20075 48/// 70500
                   333 10362 20202 5////=
201809211200 AAXX 21124 67543 41662 11204 10354 20051 48/// 70500 81100
                   333 5//// 81835=
201809210900 AAXX 21094 67543 41960 01204 10324 20086 48/// 70500
                   333 5////=
201809210600 AAXX 21064 67543 31958 00000 10206 20055 48/// 70500
                   333 10364 20158 5////=
201809200600 AAXX 20064 67543 31958 00000 10218 20067 48/// 70500
                   333 10218 20178 5////=
201809190600 AAXX 19064 67543 31958 00000 10190 20055 48/// 70500
                   333 10372 20144 5////=
201809181200 AAXX 18124 67543 41960 00302 10360 20036 48/// 70500
                   333 5////=
201809180900 AAXX 18094 67543 41960 00000 10338 20058 48///
                   333 5////=
201809180600 AAXX 18064 67543 NIL=
201809171200 AAXX 17124 67543 NIL=
201809170900 AAXX 17094 67543 41960 00604 10312 20081 48/// 70500
                   333 5////=
201809170600 AAXX 17064 67543 31958 00000 10196 20078 48/// 70500
                   333 10376 20162 5////=
201809140600 AAXX 14064 67543 31958 00000 10168 20071 48/// 70500
                   333 10358 20114 58000=
201809130600 AAXX 13064 67543 31980 00000 10170 20085 48/// 70500
                   333 10348 20134 59005
                   555 00/// 67441 31970 00000 10180 20146 48552
                   70500 10310 20/// 59002 00///=
201809120600 AAXX 12064 67543 31958 00000 10182 20128 48/// 70500
                   333 10350 20148 59006=
201809110900 AAXX 11094 67543 NIL=
201809110600 AAXX 11064 67543 31958 00000 10170 20072 48/// 70500
                   333 10362 20110 58006=
201809100900 AAXX 10094 67543 NIL=
201809070600 AAXX 07064 67543 31958 00000 10174 20110 48/// 70500
                   333 10354 20142 59017=
201809061200 AAXX 06124 67543 NIL=
201809060600 AAXX 06064 67543 31958 00000 10198 20095 48/// 70500
                   333 10342 20162 59012=
201809050900 AAXX 05094 67543 NIL=
201809050600 AAXX 05064 67543 31958 00000 10178 20086 48/// 70500
                   333 10352 20140 58013=
201809041200 AAXX 04124 67543 NIL=
201809040600 AAXX 04064 67543 31958 00602 10230 20085 48/// 70500
                   333 10348 20160 58007=
201809030600 AAXX 03064 67543 31958 00000 10146 20097 48/// 70500
                   333 10334 20110 59019=

################################################################################
#  SYNOPS from 67551, Solwezi (Zambia) | 12-11S | 026-23E | 1386 m
################################################################################
201809281200 AAXX 28124 67551 NIL=
201809280600 AAXX 28064 67551 31960 51205 10224 20094 48518 70500 81032
                   333 10320 20109 58000 81362 85280 91019=
201809270600 AAXX 27064 67551 31960 01205 10221 20072 48515 70500
                   333 10316 20139 59005
                   555 00220 91019=
201809260900 AAXX 26094 67551 41965 00505 10293 20082 48526 70500
                   333 59005 91020=
201809260600 AAXX 26064 67551 31959 00906 10212 20092 48521 70500
                   333 10318 20139 59010
                   555 00218 91020=
201809241200 AAXX 24124 67551 NIL=
201809240600 AAXX 24064 67551 31960 00905 10198 20//0 48524 70500
                   333 10300 20149 59003
                   555 00203=
201809210900 AAXX 21094 67551 41965 01207 10290 20097 48539 70500
                   333 59001 91020=
201809210600 AAXX 21064 67551 31960 00905 10206 20099 48532 70500
                   333 10310 20117 58000
                   555 00220=
201809200900 AAXX 20094 67551 41960 00805 10284 20073 48536 70500
                   333 58001 91020=
201809200600 AAXX 20064 67551 31960 01006 10200 20072 48531 70500
                   333 10320 20129 58004
                   555 00205 91021=
201809190600 AAXX 19064 67551 31958 01205 10216 20072 48529 70500
                   333 10322 20140 58008
                   555 00208 91020=
201809181200 AAXX 18124 67551 41975 01204 10328 20055 48498 70500
                   333 59003 91016=
201809180900 AAXX 18094 67551 41965 00908 10290 20064 48526 70500
                   333 59003 91019=
201809180600 AAXX 18064 67551 31958 21505 10200 20067 48519 70500 80001
                   333 10316 20111 59010 82080
                   555 00198 91019=
201809171200 AAXX 17124 67551 NIL=
201809170900 AAXX 17094 67551 NIL=
201809170600 AAXX 17064 67551 31980 20805 10223 20091 48532 70500 80001
                   333 10325 20153 58001 82080
                   555 00239 91020=
201809140900 AAXX 14094 67551 41959 70906 10289 20082 48542 70522 80007
                   333 58003 87080 555 91021=
201809140600 AAXX 14064 67551 31958 61503 10201 20075 48526 70522 80002
                   333 10310 20137 59004 86080
                   555 00208 91020=
201809130900 AAXX 13094 67551 41958 00605 10264 20096 48537 70500
                   333 59001 555 91023=
201809120600 AAXX 12064 67551 32980 11205 10209 20116 48532 70500 81030
                   333 10312 20158 58000 81380
                   555 00219 91021=
201809110900 AAXX 11094 67551 NIL=
201809110600 AAXX 11064 67551 31857 70804 10188 20152 48535 70522 80007
                   333 10297 20152 58007 87080
                   555 00181 91021=
201809101200 AAXX 10124 67551 42980 70902 10293 20122 48509 80007
                   333 58017 87080 91017=
201809100900 AAXX 10094 67551 41980 71703 10251 20069 48528 80007
                   333 59003 87080 91020=
201809100600 AAXX 10064 67551 11957 50503 10166 20164 48526 60034 72844 80008
                   333 10303 20138 59005 85080
                   555 00198 91020=
201809070900 AAXX 07094 67551 41960 01705 10295 20113 48504 70500
                   333 59026 91017=
201809070600 AAXX 07064 67551 31959 00504 10211 20118 48505 70500
                   333 10306 20164 59021
                   555 00200 91018=
201809061200 AAXX 06124 67551 41760 40903 10310 20111 48495 70511 84100
                   333 59009 84857 91018=
201809060600 AAXX 06064 67551 31958 00903 10202 20121 48525 70500
                   333 10304 20134 59010
                   555 00208 91020=
201809050900 AAXX 05094 67551 NIL=
201809050600 AAXX 05064 67551 31958 00805 10202 20109 48535 70500
                   333 10314 20128 58005
                   555 00232 91021=
201809041200 AAXX 04124 67551 NIL=
201809040600 AAXX 04064 67551 31958 01008 10207 20099 48531 70500
                   333 10317 20144 58016
                   555 00142 91021=
201809031200 AAXX 03124 67551 41960 01505 10310 20100 48487 70500
                   333 59016 91015=
201809030600 AAXX 03064 67551 31958 00504 10191 20102 48519 70500
                   333 10290 20139 59013
                   555 00200 91019=

################################################################################
#  SYNOPS from 67561, Ndola (Zambia) | 13-00S | 028-39E | 1269 m
################################################################################
201809281200 AAXX 28124 67561 41960 59904 10326 20091 48491 70422 85200
                   333 59007 85858 555 91015=
201809280900 AAXX 28094 67561 41959 00708 10298 20102 48521 70444
                   333 59005 91018=
201809280600 AAXX 28064 67561 31959 00706 10216 20102 48524 70400
                   333 10342 20162 59002 91020=
201809270600 AAXX 27064 67561 31958 00000 10226 20106 48528 70400
                   333 10345 20142 59008 91020=
201809260900 AAXX 26094 67561 NIL=
201809260600 AAXX 26064 67561 31958 00605 10205 20100 48533 70500
                   333 10334 20146 58000 91021=
201809250600 AAXX 25064 67561 31958 00904 10189 20091 48532 70400
                   333 10325 20144 58002
                   555 00/// 91021=
201809241200 AAXX 24124 67561 NIL=
201809240600 AAXX 24064 67561 31958 01111 10214 20094 48532 70400
                   333 10328 20152 58002 91020=
201809230600 AAXX 23064 67561 31959 01305 10225 20084 48531 70400
                   333 10318 20184 59001
                   555 91020=
201809210600 AAXX 21064 67561 31960 01117 10236 20106 48540 70500
                   333 10326 20128 59009 91021=
201809200600 AAXX 20064 67561 31958 00805 10216 20076 48547 70400
                   333 10333 20152 58008 91022=
201809190600 AAXX 19064 67561 31959 00708 10218 20071 48539 70400
                   333 19341 20160 58013 91021=
201809181200 AAXX 18124 67561 41960 01306 10331 21010 48502 70500
                   333 59003 91016=
201809180900 AAXX 18094 67561 41959 00905 10302 20058 48531 70400
                   333 59001 91019=
201809180600 AAXX 18064 67561 31959 01112 10236 20076 48528 70400
                   333 10342 20155 59004 91020=
201809171200 AAXX 17124 67561 NIL=
201809170900 AAXX 17094 67561 NIL=
201809170600 AAXX 17064 67561 31959 61509 10242 20103 48533 70422 80008
                   333 59003 86280 91020=
201809140600 AAXX 14064 67561 31959 10708 10214 20069 48528 70400 80001
                   333 10326 20129 59002 81080 91020=
201809131200 AAXX 13124 67561 41959 13006 10321 20041 48508 70400 81100
                   333 59003 81859 555 91017=
201809130600 AAXX 13064 67561 31958 00000 10209 20094 48529 70400
                   333 10318 20135 59011
                   555 91020=
201809120600 AAXX 12064 67561 31659 50406 10194 20119 48538 70422 80008
                   333 10269 20141 85280 91022=
201809110900 AAXX 11094 67561 NIL=
201809110600 AAXX 11064 67561 31959 01009 10200 20126 48455 70400
                   333 10324 20157 58023 91022=
201809100900 AAXX 10094 67561 NIL=
201809100600 AAXX 10064 67561 11956 69901 10216 20153 48523 69904 70422 82038
                   333 10319 20173 58003 82360 86280 91019=
201809061200 AAXX 06124 67561 NIL=
201809060600 AAXX 06064 67561 31959 00810 10200 20123 48535 70400
                   333 10312 20115 59007 91021=
201809050900 AAXX 05094 67561 NIL=
201809050600 AAXX 05064 67561 31959 00806 10201 20117 48542 70400
                   333 10312 20133 58007=
201809041200 AAXX 04124 67561 41965 01410 10308 20042 48510 70500
                   333 59017 91017=
201809040600 AAXX 04064 67561 31959 00000 10185 20099 48534 70400
                   333 10305 20130 58013 91021=
201809031200 AAXX 03124 67561 41975 00000 10308 20067 48492 70500
                   333 59015 91015=
201809030600 AAXX 03064 67561 31957 00703 10205 20087 48523 70400
                   333 10317 20132 59015 91019=

################################################################################
#  SYNOPS from 67563, Kafironda (Zambia) | 12-36S | 028-07E | 1243 m
################################################################################
201809281200 AAXX 28124 67563 NIL=
201809260900 AAXX 26094 67563 NIL=
201809260600 AAXX 26064 67563 31978 00604 10210 20095 48/// 70500
                   333 10335 20115 59002
                   555 00109=
201809241200 AAXX 24124 67563 NIL=
201809210600 AAXX 21064 67563 31978 00702 10225 20105 48/// 70500
                   333 10335 20120 59002
                   555 00105=
201809200600 AAXX 20064 67563 31980 00904 10240 20067 48/// 70500
                   333 10345 20090 5////=
201809180900 AAXX 18094 67563 NIL=
201809180600 AAXX 18064 67563 31980 00902 10225 20082 48/// 70500
                   333 10340 20100 58002
                   555 00090=
201809171200 AAXX 17124 67563 NIL=
201809170900 AAXX 17094 67563 NIL=
201809170600 AAXX 17064 67563 NIL=
201809130600 AAXX 13064 67563 31970 01002 10215 20080 48/// 70500
                   333 10320 20100 59005
                   555 00100=
201809110900 AAXX 11094 67563 NIL=
201809110600 AAXX 11064 67563 NIL=
201809100900 AAXX 10094 67563 NIL=
201809061200 AAXX 06124 67563 NIL=
201809050900 AAXX 05094 67563 NIL=
201809041200 AAXX 04124 67563 NIL=

################################################################################
#  SYNOPS from 67571, Serenje (Zambia) | 13-14S | 030-13E | 1384 m
################################################################################
201810010600 AAXX 01064 67571 32675 21209 10180 20124 48/// 70500 83500
                   333 10295 20151 5//// 82635
                   555 00242=
201809281200 AAXX 28124 67571 NIL=
201809280600 AAXX 28064 67571 32975 00908 10263 20072 48/// 70500
                   333 10332 20181 5////=
201809270900 AAXX 27094 67571 42670 30910 10305 20084 48/// 70500 83100
                   333 5//// 83840=
201809270600 AAXX 27064 67571 32970 00903 10247 20121 48/// 70500
                   333 10326 20183 5////
                   555 00312=
201809261200 AAXX 26124 67571 42965 01503 10310 20064 48/// 70500
                   333 5////=
201809260900 AAXX 26094 67571 NIL=
201809250600 AAXX 25064 67571 32960 00910 10220 20089 48/// 70500
                   333 10302 20170 5////
                   555 00255=
201809241200 AAXX 24124 67571 42957 00906 10297 20065 48/// 70500
                   333 5////=
201809211200 AAXX 21124 67571 41865 50905 10295 20061 48/// 70522 85100
                   333 5//// 85857=
201809200600 AAXX 20064 67571 31958 01208 10230 20072 48/// 70500
                   333 10321 20160 5////
                   555 00285=
201809190600 AAXX 19064 67571 31965 00906 10236 20064 48/// 70500
                   333 10320 20165 5////
                   555 00288=
201809180900 AAXX 18094 67571 NIL=
201809180600 AAXX 18064 67571 NIL=
201809171200 AAXX 17124 67571 NIL=
201809170900 AAXX 17094 67571 NIL=
201809170600 AAXX 17064 67571 NIL=
201809120600 AAXX 12064 67571 31960 71203 10215 20116 48/// 70522 80008
                   333 10294 20156 5//// 87280=
201809110900 AAXX 11094 67571 NIL=
201809110600 AAXX 11064 67571 NIL=
201809100900 AAXX 10094 67571 NIL=
201809070600 AAXX 07064 67571 32980 03603 10219 20119 48/// 70500
                   333 10303 20154 5////
                   555 00254=
201809061200 AAXX 06124 67571 NIL=
201809050900 AAXX 05094 67571 NIL=
201809041200 AAXX 04124 67571 NIL=
201809040600 AAXX 04064 67571 31975 00903 10214 20091 48/// 70500
                   333 10286 20145 5////=

################################################################################
#  SYNOPS from 67575, Mkushi (Zambia) | 13-38-00S | 029-26-00E | 1237 m
################################################################################
201809281200 AAXX 28124 67575 NIL=
201809260900 AAXX 26094 67575 NIL=
201809241200 AAXX 24124 67575 NIL=
201809180900 AAXX 18094 67575 NIL=
201809180600 AAXX 18064 67575 NIL=
201809171200 AAXX 17124 67575 NIL=
201809170900 AAXX 17094 67575 NIL=
201809170600 AAXX 17064 67575 NIL=
201809110900 AAXX 11094 67575 NIL=
201809110600 AAXX 11064 67575 NIL=
201809100900 AAXX 10094 67575 NIL=
201809070600 AAXX 07064 67575 31975 00302 10200 20113 48479 70500
                   333 10310 20135 59017
                   555 00115=
201809061200 AAXX 06124 67575 NIL=
201809050900 AAXX 05094 67575 NIL=
201809041200 AAXX 04124 67575 NIL=
201809030600 AAXX 03064 67575 31975 00903 10211 20058 48481 70500
                   333 10300 20145 59015
                   555 00122=

################################################################################
#  SYNOPS from 67580, Msekera (Zambia) | 13-39S | 032-34E | 1025 m
################################################################################
201810010600 AAXX 01064 67580 12580 41508 10211 20135 48/// 69904 84800
                   333 10349 20169 5//// 82824 82626
                   555 00///=
201809281200 AAXX 28124 67580 NIL=
201809280900 AAXX 28094 67580 41775 10904 10316 20112 48/// 70500 81100
                   333 59003 81856=
201809280600 AAXX 28064 67580 31975 00904 10262 20129 48/// 70500
                   333 10364 20207 58002=
201809270900 AAXX 27094 67580 41878 10902 10335 20130 48/// 70500 81100
                   333 59003 81857=
201809270600 AAXX 27064 67580 33978 00904 10273 20141 48/// 70500
                   333 10367 20224 59004=
201809260900 AAXX 26094 67580 41978 00902 10316 20131 48/// 70500
                   333 5////=
201809241200 AAXX 24124 67580 NIL=
201809240600 AAXX 24064 67580 31978 01205 10260 20098 48/// 70500
                   333 10334 20150 5////=
201809210600 AAXX 21064 67580 31975 00905 10268 20139 48/// 70500
                   333 10337 20198 5////=
201809200600 AAXX 20064 67580 31675 10903 10249 20148 48/// 70500 81100
                   333 10336 20175 58004 81836=
201809190600 AAXX 19064 67580 31975 00904 10260 20095 48/// 70500
                   333 10355 20155 58012=
201809180900 AAXX 18094 67580 NIL=
201809180600 AAXX 18064 67580 31975 00903 10268 20106 48/// 70500
                   333 10356 20177 59001=
201809171200 AAXX 17124 67580 NIL=
201809170900 AAXX 17094 67580 41978 00902 10314 20109 48/// 70500
                   333 5////=
201809170600 AAXX 17064 67580 31978 01202 10259 20121 48/// 70500
                   333 10342 20166 59005=
201809140600 AAXX 14064 67580 31975 01004 10272 20150 48/// 70500 84010
                   333 10320 2//// 58003 84460=
201809131200 AAXX 13124 67580 41659 40000 10324 20112 70500 84200
                   333 5//// 84845=
201809130600 AAXX 13064 67580 31978 00603 10255 20134 48/// 70500
                   333 10324 20175 59013
                   555 00///=
201809120600 AAXX 12064 67580 31975 00904 10239 20145 48/// 70500
                   333 10310 20165 59005=
201809110900 AAXX 11094 67580 41678 71202 10279 20155 48/// 70522 87200
                   333 58023 87848=
201809110600 AAXX 11064 67580 31978 01202 10203 20148 48/// 70500
                   333 10310 20130 58022=
201809100900 AAXX 10094 67580 41778 41203 10303 20159 48/// 70500 84100
                   333 5//// 84856=
201809100600 AAXX 10064 67580 11678 71502 10230 20157 48/// 69904 70522 86131
                   333 10338 20187 58013 86832 82360 83080=
201809070600 AAXX 07064 67580 31978 00904 10252 20136 48/// 70500
                   333 10337 20189 59020=
201809061200 AAXX 06124 67580 NIL=
201809050900 AAXX 05094 67580 41778 71205 10284 20151 48/// 70522 87100
                   333 58011 87850=
201809050600 AAXX 05064 67580 31678 11006 10241 20150 48/// 70500 81100
                   333 10330 20190 58005 81832=
201809041200 AAXX 04124 67580 NIL=

################################################################################
#  SYNOPS from 67581, Chipata (Zambia) | 13-33S | 032-35E | 1028 m
################################################################################
201810010600 AAXX 01064 67581 11660 31506 10208 20124 48568 69904 70500 83100
                   333 10318 20136 59007 83830
                   555 00/// 91023=
201809281200 AAXX 28124 67581 NIL=
201809280600 AAXX 28064 67581 31960 01605 10249 20099 48555 70500
                   333 10370 20184 58004 91021=
201809270600 AAXX 27064 67581 31960 00708 10259 20127 48551 70500
                   333 10348 20190 59006 91020=
201809260900 AAXX 26094 67581 NIL=
201809250600 AAXX 25064 67581 31960 00704 10267 20078 48564 70500
                   333 10328 20155 58003
                   555 00/// 91021=
201809241200 AAXX 24124 67581 NIL=
201809200900 AAXX 20094 67581 41660 31203 10294 20123 48564 70500 83100
                   333 59004 83840 91021=
201809200600 AAXX 20064 67581 31660 11204 10232 20132 48562 70500 81100
                   333 10333 20/// 58004 81830 91022=
201809190600 AAXX 19064 67581 31960 00506 10258 20070 48562 70500
                   333 10339 2//// 58010 91021=
201809181200 AAXX 18124 67581 41960 00904 10329 20052 48537 70500
                   333 58006 91017=
201809180900 AAXX 18094 67581 41960 01208 10316 20066 48557 70500
                   333 58001 91019=
201809180600 AAXX 18064 67581 31960 01605 10266 20079 48554 70500
                   333 10338 20/// 58001 91020=
201809171200 AAXX 17124 67581 NIL=
201809170900 AAXX 17094 67581 NIL=
201809170600 AAXX 17064 67581 31960 20603 10265 20093 48553 70500 80002
                   333 10334 20//0 59008 82080 91020=
201809140900 AAXX 14094 67581 41660 21603 10300 20078 48558 70500 82100
                   333 58000 82840 91019=
201809130600 AAXX 13064 67581 31960 00604 10247 20117 48550 70500
                   333 10308 20153 59014
                   555 00/// 91020=
201809110900 AAXX 11094 67581 NIL=
201809110600 AAXX 11064 67581 NIL=
201809100900 AAXX 10094 67581 NIL=
201809070600 AAXX 07064 67581 32980 00709 10239 20122 48542
                   333 10310 20194 59020 91019=
201809061200 AAXX 06124 67581 41680 30904 10306 20115 48542 83100
                   333 5//// 83845 91018=
201809060600 AAXX 06064 67581 32980 21609 10229 20128 48559 82030
                   333 10302 20184 59002 82360 91022=
201809050900 AAXX 05094 67581 NIL=
201809050600 AAXX 05064 67581 32680 20806 10233 20142 48563 82100
                   333 10308 20188 58003 82832 91022=
201809041200 AAXX 04124 67581 41660 30908 10301 20102 48544 70500 83100
                   333 58016 83846 91018=
201809040600 AAXX 04064 67581 31960 01406 10232 20118 48560 70500
                   333 10306 20149 58022 91022=
201809031200 AAXX 03124 67581 41660 50905 10302 20089 48528 70522 85200
                   333 59002 85838 91016=
201809030600 AAXX 03064 67581 31960 00805 10246 20103 48542 70500
                   333 10306 20148 59023 91019=

################################################################################
#  SYNOPS from 67583, Lundazi (Zambia) | 12-17S | 033-12E | 1143 m
################################################################################
201810010600 AAXX 01064 67583 31459 11504 10210 20136 48/// 70500 81500
                   333 10300 2//// 5//// 81625
                   555 00///=
201809281200 AAXX 28124 67583 NIL=
201809280600 AAXX 28064 67583 31958 10000 10238 20140 48/// 70500 80001
                   333 10344 2//// 5//// 81080=
201809270600 AAXX 27064 67583 31958 00000 10268 20138 48/// 70500
                   333 10350 2//// 5////=
201809260900 AAXX 26094 67583 41959 00601 10318 20112 48/// 70500
                   333 5////=
201809250600 AAXX 25064 67583 31959 01104 10244 20115 48/// 70500
                   333 10342 20//0 5////
                   555 00///=
201809241200 AAXX 24124 67583 NIL=
201809240600 AAXX 24064 67583 31959 01203 10222 20125 48/// 70500
                   333 10314 20//0 5////=
201809210900 AAXX 21094 67583 41659 21006 10288 20152 48/// 70500 82102
                   333 5//// 82840 81080=
201809210600 AAXX 21064 67583 31959 11204 10252 20136 48/// 70500 80001
                   333 10322 2//// 5//// 81080=
201809201200 AAXX 20124 67583 41659 21403 10308 20121 48/// 70500 83100
                   333 5//// 83845=
201809200900 AAXX 20094 67583 41659 21204 10290 20150 48/// 70500 82100
                   333 5//// 82836=
201809200600 AAXX 20064 67583 31659 21505 10230 20155 48/// 70500 83800
                   333 10308 2//// 5//// 82830 81631=
201809190600 AAXX 19064 67583 31958 00000 10220 20112 48/// 70500
                   333 10320 2//// 5////=
201809180900 AAXX 18094 67583 NIL=
201809180600 AAXX 18064 67583 31959 01203 10242 20109 48/// 70500
                   333 10300 2//// 5////=
201809171200 AAXX 17124 67583 41959 30601 10336 20090 48/// 70500 80001
                   333 5//// 83080=
201809170900 AAXX 17094 67583 41959 41201 10308 20110 48/// 70500
                   333 5//// 84080=
201809170600 AAXX 17064 67583 31959 10901 10238 20130 48/// 70500 80001
                   333 10326 20//0 5//// 81080=
201809140900 AAXX 14094 67583 41659 11904 10310 20097 48/// 70500 81100
                   333 5//// 81845=
201809140600 AAXX 14064 67583 31959 11202 10232 20150 48/// 70500 80001
                   333 10336 2//// 5//// 81080=
201809130900 AAXX 13094 67583 41659 21202 10314 20108 48/// 70500 82100
                   333 5//// 82840=
201809130600 AAXX 13064 67583 31959 00603 10234 20132 48/// 70500
                   333 10310 2//// 5////
                   555 00/// 67476 311974 00608 10197 20121 48///
                   70500 10299 20108 59006 00/// 20000=
201809120600 AAXX 12064 67583 31959 20904 10218 20149 48/// 70500 80002
                   333 10302 20//0 5//// 82080=
201809110900 AAXX 11094 67583 NIL=
201809110600 AAXX 11064 67583 11458 31005 10202 20155 48/// 69904 70500 83600
                   333 10312 2//// 5//// 83712=
201809100900 AAXX 10094 67583 NIL=
201809100600 AAXX 10064 67583 11858 50000 10210 20165 48/// 69904 76040 85070
                   333 10348 20//0 5//// 85358=
201809061200 AAXX 06124 67583 NIL=
201809050900 AAXX 05094 67583 NIL=
201809050600 AAXX 05064 67583 31659 10902 10226 20144 48/// 70500 81530
                   333 10300 2//// 5//// 81630 81360=
201809041200 AAXX 04124 67583 NIL=
201809040600 AAXX 04064 67583 31959 01203 10230 20122 48/// 70500
                   333 10314 2//// 5////=

################################################################################
#  SYNOPS from 67599, Mfuwe (Zambia) | 13-16S | 031-56E | 568 m
################################################################################
201810010600 AAXX 01064 67599 51208 00000 10255 20144 48568 85100
                   333 10345 20190 58004 85845
                   555 00190 91021=
201809281200 AAXX 28124 67599 NIL=
201809280600 AAXX 28064 67599 31960 00606 10291 20120 48553 70500
                   333 10395 59002 91017=
201809270600 AAXX 27064 67599 31960 00905 10291 20129 48551 70500
                   333 10390 20218 59007
                   555 00204 91017=
201809260900 AAXX 26094 67599 NIL=
201809250600 AAXX 25064 67599 31960 00806 10267 20095 48535 70500
                   333 10380 20159 59001 91019=
201809241200 AAXX 24124 67599 NIL=
201809240600 AAXX 24064 67599 31958 00000 10260 20109 48560 70500
                   333 10370 20155 59004
                   555 00140 91019=
201809210600 AAXX 21064 67599 31975 00708 10292 20123 48538 70500
                   333 10375 20167 59005
                   555 00161 91019=
201809200600 AAXX 20064 67599 31975 00807 10256 20104 48557 70500
                   333 10375 20175 58006
                   555 00160 91019=
201809190600 AAXX 19064 67599 31970 01006 10247 20083 48557 70500
                   333 10386 20161 58012
                   555 00147 91019=
201809180900 AAXX 18094 67599 NIL=
201809180600 AAXX 18064 67599 31975 00708 10270 20111 48456 70500
                   333 10390 20168 5////
                   555 00155 91017=
201809171200 AAXX 17124 67599 NIL=
201809170900 AAXX 17094 67599 NIL=
201809170600 AAXX 17064 67599 31960 01004 10295 20126 48515 70500
                   333 10385 20170 59005
                   555 00150 91018=
201809140600 AAXX 14064 67599 31975 00807 10279 20114 48552 70500
                   333 10380 20178 59004
                   555 00164 91018=
201809130600 AAXX 13064 67599 31960 09006 10270 20124 48553 70500
                   333 10365 20150 59017
                   555 00155 91018=
201809120600 AAXX 12064 67599 31960 00000 10252 20164 48562 70500
                   333 10350 20170 59010
                   555 00165 91020=
201809110900 AAXX 11094 67599 NIL=
201809110600 AAXX 11064 67599 31970 01806 10218 20112 48559 70500
                   333 10365 20160 58037
                   555 00150 91021=
201809100900 AAXX 10094 67599 NIL=
201809100600 AAXX 10064 67599 31960 41606 10268 20143 48544 70522 84030
                   333 10384 20210 58009 84360
                   555 00195 91017=
201809070600 AAXX 07064 67599 32980 07002 10262 20124 48544
                   333 10374 20161 59023
                   555 00161 91017=
201809061200 AAXX 06124 67599 NIL=
201809060600 AAXX 06064 67599 32680 20709 10254 20160 48562 82130
                   333 10370 20190 59001 82832 81360
                   555 00174 91020=
201809050900 AAXX 05094 67599 NIL=
201809050600 AAXX 05064 67599 32980 00706 10259 20149 48566
                   333 10366 20162 58010
                   555 00151 91020=
201809041200 AAXX 04124 67599 NIL=
201809040600 AAXX 04064 67599 32980 00000 10241 20105 48550
                   333 10355 20146 58017
                   555 00146 91019=
201809030600 AAXX 03064 67599 31970 01902 10247 20102 48538 70500
                   333 10360 20150 59027
                   555 00137 91017=

################################################################################
#  SYNOPS from 67625, Kalabo (Zambia) | 14-51S | 022-42E | 1033 m
################################################################################
201810010600 AAXX 01064 67625 32982 40912 10208 20123 48/// 80001
                   333 10360 20165 58019 84075
                   555 00///=
201809281200 AAXX 28124 67625 42982 20809 10371 20078 48/// 82030
                   333 59006=
201809280600 AAXX 28064 67625 32982 00506 10240 20086 48///
                   333 10372 20190 58000=
201809270900 AAXX 27094 67625 42982 00914 10325 20090 48///
                   333 59017=
201809270600 AAXX 27064 67625 31950 71502 10231 20143 48/// 70542 80004
                   333 10350 20175 59013 87075=
201809261200 AAXX 26124 67625 42882 40509 10336 20135 48/// 81104
                   333 58011 81857 84075=
201809260900 AAXX 26094 67625 42982 00904 10300 20150 48///
                   333 5////=
201809250600 AAXX 25064 67625 32982 70906 10228 20109 48/// 80004
                   333 10340 20186 59003 87075
                   555 00///=
201809241200 AAXX 24124 67625 42982 40307 10339 20086 48/// 84070
                   333 5//// 84360=
201809240600 AAXX 24064 67625 32982 71105 10209 20086 48/// 87030
                   333 10355 20186 58006 87360=
201809211200 AAXX 21124 67625 42982 01214 10350 20048 48///
                   333 58001=
201809210900 AAXX 21094 67625 42982 00617 10315 20083 48///
                   333 5////=
201809210600 AAXX 21064 67625 32982 00609 10202 20050 48///
                   333 10363 20158 59005=
201809201200 AAXX 20124 67625 42982 01211 10358 20039 48///
                   333 58002=
201809200900 AAXX 20094 67625 42982 00914 10321 20059 48///
                   333 5////=
201809200600 AAXX 20064 67625 32982 01206 10205 20059 48///
                   333 10372 20164 58004=
201809190600 AAXX 19064 67625 32982 01503 10200 20078 48///
                   333 10370 20140 58006=
201809181200 AAXX 18124 67625 42982 00910 10365 20054 48///
                   333 5////=
201809180900 AAXX 18094 67625 42982 00312 10319 20072 48///
                   333 5////=
201809180600 AAXX 18064 67625 32982 00903 10235 20067 48///
                   333 10362 20180 59007=
201809171200 AAXX 17124 67625 42982 20910 10346 20075 48/// 80004
                   333 82075=
201809170900 AAXX 17094 67625 42982 30617 10316 20077 48/// 80004
                   333 5//// 83075=
201809170600 AAXX 17064 67625 32982 21108 10212 20052 48/// 80004
                   333 10363 20168 58001 82075=
201809140900 AAXX 14094 67625 41982 00310 10289 20070 48///
                   333 59005=
201809140600 AAXX 14064 67625 32982 01205 10207 20044 48///
                   333 10353 20150 59004=
201809131200 AAXX 13124 67625 42952 01405 10337 20047 48///
                   333 59002=
201809130900 AAXX 13094 67625 42982 00807 10294 20089 48///
                   333 59006=
201809120600 AAXX 12064 67625 32982 01502 10180 20052 48///
                   333 10327 20146 59017=
201809110900 AAXX 11094 67625 42982 00810 10270 20124 48///
                   333 59003=
201809110600 AAXX 11064 67625 32982 01309 10180 21014 48///
                   333 10330 20105 58007=
201809100900 AAXX 10094 67625 42982 01210 10252 21046 48///
                   333 5////=
201809100600 AAXX 10064 67625 32982 01211 10147 21033 48///
                   333 10327 20090 59030=
201809061200 AAXX 06124 67625 42982 73609 10340 20098 48/// 80004
                   333 58001 87075=
201809050900 AAXX 05094 67625 42982 80615 10292 20068 48/// 80004
                   333 58010 88075=
201809050600 AAXX 05064 67625 32982 71208 10185 20090 48/// 80004
                   333 10346 20164 58017 87075=
201809041200 AAXX 04124 67625 42982 70310 10338 20082 48/// 80004
                   333 58017 87075=
201809040600 AAXX 04064 67625 32982 71211 10192 20085 48/// 80004
                   333 10335 20160 58001 87075=

################################################################################
#  SYNOPS from 67633, Mongu (Zambia) | 15-15S | 023-09E | 1052 m
################################################################################
201810010600 AAXX 01064 67633 32980 00907 10225 20124 48540
                   333 10378 20183 59011
                   555 00/// 91020=
201809281200 AAXX 28124 67633 42980 00804 10370 20120 48489 70322 84200
                   333 59009 555 91012=
201809280900 AAXX 28094 67633 42980 00904 10359 20124 48528 70200
                   333 58007 91010=
201809280600 AAXX 28064 67633 32980 00905 10270 20118 48514
                   333 10392 20214 59007 91016=
201809270600 AAXX 27064 67633 32980 00902 10257 20138 48522 70200
                   333 10369 20182 59006 91017=
201809260900 AAXX 26094 67633 NIL=
201809250600 AAXX 25064 67633 32980 70803 10237 20112 48523 80008
                   333 10363 20210 59008 91018=
201809241200 AAXX 24124 67633 42980 00305 10349 20141 48506
                   333 58003 91014=
201809240900 AAXX 24094 67633 42980 01211 10315 20121 48532
                   333 59009 91017=
201809240600 AAXX 24064 67633 32980 20908 10230 20092 48527 70100 82030
                   333 10366 20198 58003 82360 91019=
201809210600 AAXX 21064 67633 32980 00905 10221 20068 48523
                   333 10375 20187 58000 91018=
201809200600 AAXX 20064 67633 32980 00903 10226 20068 48525
                   333 10388 20186 59007 91018=
201809190600 AAXX 19064 67633 32980 00908 10240 20072 48529 70200
                   333 10387 20205 59001 91019=
201809180900 AAXX 18094 67633 NIL=
201809180600 AAXX 18064 67633 32980 00904 10233 20083 48527 70200
                   333 10383 20175 58010 91019=
201809171200 AAXX 17124 67633 NIL=
201809170900 AAXX 17094 67633 NIL=
201809170600 AAXX 17064 67633 32980 00902 10245 20070 48526 70200
                   333 10379 20189 59001 91018=
201809140600 AAXX 14064 67633 32980 00906 10217 20074 48526 70200
                   333 1//// 2//// 58008 91019=
201809131200 AAXX 13124 67633 42980 01606 10350 20069 48519 70200
                   333 59002 91016=
201809130900 AAXX 13094 67633 42980 10319 10319 20095 48543 70200
                   333 58002 91019=
201809130600 AAXX 13064 67633 32980 00904 10214 20088 48514 70200
                   333 10353 20148 59022
                   555 00/// 91018=
201809120600 AAXX 12064 67633 32980 00906 10205 20105 48534 70200
                   333 10345 20160 5//// 91020=
201809110900 AAXX 11094 67633 NIL=
201809110600 AAXX 11064 67633 32980 01302 10169 20028 48539 70200
                   333 10311 20119 59005 91021=
201809100900 AAXX 10094 67633 NIL=
201809070600 AAXX 07064 67633 32980 00902 10240 20110 48529 70200
                   333 10367 20160 91019=
201809061200 AAXX 06124 67633 42980 03604 10354 20104 48505 70200
                   333 59042 91014=
201809050900 AAXX 05094 67633 42980 00905 10320 20082 48552
                   333 58012 91020=
201809050600 AAXX 05064 67633 32980 00903 10220 20094 48516 70200
                   333 10360 20175 59004 91017=
201809041200 AAXX 04124 67633 42980 01703 10345 20104 48511 70200
                   333 58002 91015=
201809040600 AAXX 04064 67633 32980 30903 10211 20101 48519 70200 80001
                   333 10355 20171 58005 83080 91018=
201809030600 AAXX 03064 67633 32980 00902 10210 20112 48514 70200
                   333 10339 20190 59011 91017=

################################################################################
#  SYNOPS from 67641, Kaoma (Zambia) | 14-48S | 024-48E | 1213 m
################################################################################
201809281200 AAXX 28124 67641 NIL=
201809280600 AAXX 28064 67641 31970 00802 10251 20076 48497 70500
                   333 10375 20170 59011 91015=
201809260900 AAXX 26094 67641 NIL=
201809241200 AAXX 24124 67641 NIL=
201809211200 AAXX 21124 67641 41660 11608 10341 20048 48506 70500 81100
                   333 58000 81848 91015=
201809210900 AAXX 21094 67641 41960 01211 10315 20098 48540 70500
                   333 58007 91018=
201809210600 AAXX 21064 67641 31958 00602 10202 20071 48526 70500
                   333 10361 20122 59001 91018=
201809200600 AAXX 20064 67641 31958 00602 10176 20077 48515 70500
                   333 10364 20134 58004 91018=
201809180900 AAXX 18094 67641 NIL=
201809180600 AAXX 18064 67641 NIL=
201809171200 AAXX 17124 67641 NIL=
201809170900 AAXX 17094 67641 41960 10806 10280 20090 48542 70500 80001
                   333 5//// 91017=
201809170600 AAXX 17064 67641 31958 00602 10192 20071 48518 70500
                   333 10361 20141 59007 91018=
201809140600 AAXX 14064 67641 31960 00000 10164 20079 48517 70500
                   333 10356 20120 91018=
201809131200 AAXX 13124 67641 41965 02005 10326 20077 48510 70500
                   333 59013 555 91015=
201809130900 AAXX 13094 67641 41960 01105 10316 20090 48537 70500
                   333 59006 91018=
201809130600 AAXX 13064 67641 31958 00402 10167 20078 48517 70500
                   333 10341 20107 59013
                   555 00/// 910183=
201809120600 AAXX 12064 67641 31960 00603 10185 20110 48533 70500
                   333 10334 20128 59002 91020=
201809111200 AAXX 11124 67641 41765 11205 10324 20117 48522 70500 81100
                   333 58005 81850 91016=
201809110900 AAXX 11094 67641 NIL=
201809110600 AAXX 11064 67641 31960 00402 10158 20065 48530 70500
                   333 10346 20112 58008 91020=
201809100900 AAXX 10094 67641 NIL=
201809070600 AAXX 07064 67641 31965 03602 10201 20124 48501 70500
                   333 10355 20145 59022 91016=
201809061200 AAXX 06124 67641 41875 23002 10342 20094 48499 70500 82100
                   333 59018 82857 91014=
201809060900 AAXX 06094 67641 41975 00406 10309 20137 48528 70500
                   333 59013 91017=
201809060600 AAXX 06064 67641 31965 00804 10206 20118 48522 70500
                   333 10337 20147 59009 91018=
201809051200 AAXX 05124 67641 41975 00806 10326 20079 48516 70500
                   333 58007 91016=
201809050900 AAXX 05094 67641 NIL=
201809050600 AAXX 05064 67641 31960 00602 10164 20089 48525 70500
                   333 10342 20120 59009 91020=
201809041200 AAXX 04124 67641 41965 70704 10329 20089 48510 70521 80001
                   333 58013 87080 91015=
201809040900 AAXX 04094 67641 41965 41106 10315 20103 48537 70500 80001
                   333 5//// 84080 91018=
201809040600 AAXX 04064 67641 31965 30802 10201 20110 48522 70500 80001
                   333 10340 20150 58007 83080 91018=
201809031200 AAXX 03124 67641 41965 01406 10317 20089 48495 70500
                   333 59019 91014=
201809030600 AAXX 03064 67641 31960 00402 10177 20108 48512 70500
                   333 10335 20132 59014 91017=

################################################################################
#  SYNOPS from 67655, Mumbwa (Zambia) | 15-04S | 027-11E | 1216 m
################################################################################
201809281200 AAXX 28124 67655 NIL=
201809280600 AAXX 28064 67655 31959 00906 10260 20103 48527 70500
                   333 10325 20195 59001 91018=
201809270600 AAXX 27064 67655 31959 00718 10257 20089 48528 70500
                   333 10345 20192 59008 91018=
201809260900 AAXX 26094 67655 NIL=
201809250600 AAXX 25064 67655 31960 00912 10222 20094 48535 70500
                   333 10310 20171 59003 91020=
201809241200 AAXX 24124 67655 NIL=
201809240900 AAXX 24094 67655 41959 01012 10287 20092 48546 70500
                   333 59004 91020=
201809240600 AAXX 24064 67655 31959 01008 10217 20085 48537 70500
                   333 10315 20125 59003 91020=
201809190900 AAXX 19094 67655 41959 00918 10318 20039 48545 70500
                   333 58006 91020=
201809190600 AAXX 19064 67655 31959 00448 10240 20042 48539 70500
                   333 10342 20120 58009 91020=
201809180900 AAXX 18094 67655 41970 00915 10315 20055 48539 70500
                   333 59004 91019=
201809180600 AAXX 18064 67655 31959 00412 10254 20051 48531 70500
                   333 10335 20160 59005 91019=
201809171200 AAXX 17124 67655 NIL=
201809170900 AAXX 17094 67655 NIL=
201809170600 AAXX 17064 67655 31959 00910 10244 20074 48535 70500
                   333 10340 20181 59008 91019=
201809130900 AAXX 13094 67655 41959 00926 10296 20033 48524 70500
                   333 59006 91019=
201809130600 AAXX 13064 67655 31959 00905 10235 20053 48536 70500
                   333 10315 20162 59009
                   555 00/// 910199=
201809120900 AAXX 12094 67655 41959 01006 10275 20050 48546 70500
                   333 59018 91020=
201809120600 AAXX 12064 67655 31959 00410 10200 22092 48541 70500
                   333 10308 20150 59014 91020=
201809110900 AAXX 11094 67655 NIL=
201809110600 AAXX 11064 67655 31959 00913 10181 20083 48552 70500
                   333 10308 20146 58020 91022=
201809100900 AAXX 10094 67655 NIL=
201809070600 AAXX 07064 67655 31959 20414 10222 20103 48516 70500 82030
                   333 10312 20200 59012 82360 91017=
201809061200 AAXX 06124 67655 NIL=
201809060900 AAXX 06094 67655 41960 61015 10254 20110 48544 70500 80008
                   333 59010 86280 91020=
201809060600 AAXX 06064 67655 31560 60912 10230 20116 48539 70500 83208
                   333 10312 20191 59006 83825 86280 91020=
201809050900 AAXX 05094 67655 NIL=
201809050600 AAXX 05064 67655 31959 00410 10220 20079 48544 70500
                   333 10315 20175 58007 91020=
201809041200 AAXX 04124 67655 NIL=

################################################################################
#  SYNOPS from 67659, Kafue Polder (Zambia) | 15-46S | 027-55E | 978 m
################################################################################
201809281200 AAXX 28124 67659 NIL=
201809280600 AAXX 28064 67659 32980 01003 10282 20126 48///
                   333 10338 20170 59005=
201809270600 AAXX 27064 67659 32980 00705 10287 20152 48/// 70222
                   333 10355 20168 59007=
201809260900 AAXX 26094 67659 NIL=
201809260600 AAXX 26064 67659 32980 01207 1//// 20143 48/// 70222
                   333 10345 20200 59006=
201809250600 AAXX 25064 67659 32980 00905 10253 20135 48/// 70222
                   333 10333 20150 59001
                   555 00///=
201809241200 AAXX 24124 67659 NIL=
201809240600 AAXX 24064 67659 32980 00908 10240 20130 48/// 70222
                   333 10321 20150 59005=
201809210600 AAXX 21064 67659 32980 30909 10260 20125 48/// 70222 83030
                   333 10350 20120 58004=
201809200600 AAXX 20064 67659 32980 00903 10255 20124 48/// 70222
                   333 10356 20251 58007=
201809190600 AAXX 19064 67659 32980 00705 10257 20126 48/// 70500
                   333 10357 20128 58007=
201809180900 AAXX 18094 67659 NIL=
201809180600 AAXX 18064 67659 32980 01004 1//// 20142 48/// 70500
                   333 10354 20140 59004=
201809171200 AAXX 17124 67659 NIL=
201809170900 AAXX 17094 67659 NIL=
201809170600 AAXX 17064 67659 32980 01206 10250 20139 48/// 70222
                   333 10350 20120 59008=
201809140600 AAXX 14064 67659 32980 01306 10257 20149 48/// 70222
                   333 10335 20119 58006=
201809130600 AAXX 13064 67659 32980 00705 10237 20135 48/// 70222
                   333 10321 20110 59014
                   555 00/// 20000=
201809120600 AAXX 12064 67659 32980 01507 10205 20125 48/// 70222
                   333 10306 20142 59022=
201809110900 AAXX 11094 67659 NIL=
201809110600 AAXX 11064 67659 32980 00905 10188 20068 48/// 70222
                   333 10303 20105 58032=
201809100900 AAXX 10094 67659 NIL=
201809100600 AAXX 10064 67659 32980 00905 10225 20027 48/// 70222
                   333 10349 20181 58009=
201809070600 AAXX 07064 67659 32980 01205 10246 20154 48/// 70222
                   333 10338 20192 59022=
201809061200 AAXX 06124 67659 NIL=
201809060600 AAXX 06064 67659 32980 11006 10254 20142 48/// 70222 81030
                   333 10327 20112 59007=
201809050900 AAXX 05094 67659 NIL=
201809041200 AAXX 04124 67659 NIL=
201809040600 AAXX 04064 67659 32980 00704 10236 20136 48/// 70222
                   333 10320 20121 58011=

################################################################################
#  SYNOPS from 67662, Kabwe Agric (Zambia) | 14-24S | 028-30E | 1165 m
################################################################################
201809281200 AAXX 28124 67662 NIL=
201809260900 AAXX 26094 67662 NIL=
201809241200 AAXX 24124 67662 NIL=
201809211200 AAXX 21124 67662 41875 51011 10321 20068 48/// 70522 85100
                   333 5//// 85858=
201809210900 AAXX 21094 67662 41875 11011 10308 20074 48/// 70500 81100
                   333 5//// 81856=
201809210600 AAXX 21064 67662 31975 10912 10243 20102 48/// 70500 81030
                   333 10335 20169 5//// 81360
                   555 00112=
201809201200 AAXX 20124 67662 41975 00912 10326 20045 48/// 70500
                   333 5////=
201809200600 AAXX 20064 67662 31975 00508 10226 20068 48/// 70500
                   333 10345 20156 555 00090=
201809190600 AAXX 19064 67662 31975 00000 10225 20066 70500
                   333 10342 20154 555 00092=
201809181200 AAXX 18124 67662 41975 01009 10337 20037 48/// 70500
                   333 5////=
201809180900 AAXX 18094 67662 41975 01502 10214 20083 48/// 70500
                   333 5////=
201809180600 AAXX 18064 67662 NIL=
201809171200 AAXX 17124 67662 NIL=
201809170900 AAXX 17094 67662 NIL=
201809170600 AAXX 17064 67662 NIL=
201809110900 AAXX 11094 67662 NIL=
201809110600 AAXX 11064 67662 31975 01306 10182 20078 48/// 70500
                   333 10307 20129 5////=
201809100900 AAXX 10094 67662 NIL=
201809061200 AAXX 06124 67662 NIL=
201809050900 AAXX 05094 67662 NIL=
201809041200 AAXX 04124 67662 NIL=

################################################################################
#  SYNOPS from 67663, Kabwe (Zambia) | 14-27S | 028-28E | 1206 m
################################################################################
201809281200 AAXX 28124 67663 NIL=
201809280600 AAXX 28064 67663 31970 00610 10254 20106 48556 70500
                   333 10346 20//0 59009=
201809270600 AAXX 27064 67663 31970 00907 10256 20112 48546 70500
                   333 10340 2//// 59001
                   555 00304=
201809260900 AAXX 26094 67663 NIL=
201809260600 AAXX 26064 67663 31970 00609 10238 20096 48545 70500
                   333 10332 2//// 59005
                   555 00292=
201809241200 AAXX 24124 67663 NIL=
201809240600 AAXX 24064 67663 31970 00913 10216 20115 48549 70500
                   333 10316 2//// 58001
                   555 00274=
201809210600 AAXX 21064 67663 31970 00609 10241 20051 48555 70500
                   333 10326 2//// 58000
                   555 00288=
201809200600 AAXX 20064 67663 31970 00310 10216 20064 48553 70500
                   333 10338 2//// 58005
                   555 00262=
201809190600 AAXX 19064 67663 31970 00904 10236 20074 48550 70500
                   333 10346 20//0 58006
                   555 00296=
201809180900 AAXX 18094 67663 NIL=
201809180600 AAXX 18064 67663 31970 00809 10242 20085 48540 70500
                   333 10337 20//0 59005
                   555 00294=
201809171200 AAXX 17124 67663 NIL=
201809170900 AAXX 17094 67663 NIL=
201809170600 AAXX 17064 67663 NIL=
201809140900 AAXX 14094 67663 41970 00908 10302 20062 48560 70500
                   333 58006=
201809140600 AAXX 14064 67663 31970 00910 10222 20069 48543 70500
                   333 10325 2//// 59001
                   555 00277=
201809120600 AAXX 12064 67663 31970 00807 10202 20109 48508 70500
                   333 10298 20153 59013
                   555 00258=
201809110900 AAXX 11094 67663 NIL=
201809110600 AAXX 11064 67663 NIL=
201809100900 AAXX 10094 67663 NIL=
201809071200 AAXX 07124 67663 41570 2//// 10320 20103 48503 70500 82100
                   333 59023 82827=
201809070600 AAXX 07064 67663 31970 00903 10211 20111 48532 70500
                   333 10318 20168 59021
                   555 00262=
201809061200 AAXX 06124 67663 NIL=
201809060600 AAXX 06064 67663 32980 00912 10266 20094 48568
                   333 10313 20174 59002
                   555 00262=
201809050900 AAXX 05094 67663 NIL=
201809050600 AAXX 05064 67663 31970 00707 10205 20100 48556 70500
                   333 10307 20115 58010
                   555 00253=
201809041200 AAXX 04124 67663 41970 01709 10298 20067 48533 70500
                   333 58018=
201809040600 AAXX 04064 67663 31970 00609 10213 20084 48507 70500
                   333 10311 20160 58011
                   555 00244=
201809031200 AAXX 03124 67663 41970 00905 10303 20088 48515 70500
                   333 59016=

################################################################################
#  SYNOPS from 67665, Lusaka Internationalairport (Zambia) | 15-19S | 028-27E | 1152 m
################################################################################
201810010600 AAXX 01064 67665 32580 61017 10189 20121 48570 70222 86530
                   333 10278 20//0 59005=
201810010300 AAXX 01034 67665 42980 21111 10174 20119 48550 70200 82030
                   333 58000 82360=
201810010000 AAXX 01004 67665 41970 01111 10178 20118 48555 70500
                   333 58019=
201809301800 AAXX 30184 67665 41970 01105 10209 20094 48563 70500
                   333 58020=
201809301500 AAXX 30154 67665 41680 11015 10259 20084 48561 70500 81100
                   333 58034 81845=
201809301200 AAXX 30124 67665 41659 20918 10275 20084 48564 70500 82100
                   333 58040 82835=
201809300900 AAXX 30094 67665 41559 10820 10261 20088 48586 70500 81100
                   333 58038 81820=
201809300600 AAXX 30064 67665 31459 10920 10228 20087 48580 70500 81100
                   333 10//0 20//0 58040 81815=
201809291800 AAXX 29184 67665 41959 11204 10248 20054 48539 70500 81030
                   333 58023 81360=
201809291500 AAXX 29154 67665 41759 11113 10308 20025 48533 70500 81100
                   333 58027 81850=
201809291200 AAXX 29124 67665 41659 21020 10334 21008 48528 70500 82100
                   333 58015 82835=
201809290900 AAXX 29094 67665 41959 00508 10308 20045 48545
                   333 58007=
201809281200 AAXX 28124 67665 NIL=
201809280900 AAXX 28094 67665 41959 08013 10303 20064 58537 70500
                   333 59010=
201809280600 AAXX 28064 67665 31959 01110 10244 20087 48532 70500
                   333 10344 20/// 59010
                   555 00///=
201809280300 AAXX 28034 67665 42980 01504 10182 20078 48510
                   333 59006=
201809280000 AAXX 28004 67665 42980 00802 10201 20086 48508
                   333 59003=
201809272100 AAXX 27214 67665 42980 01403 10215 20066 48521 70500
                   333 59003=
201809270600 AAXX 27064 67665 31959 01107 10257 20089 48544 70500
                   333 10338 20//0 59005=
201809261500 AAXX 26154 67665 41959 11005 10325 20030 48513 70500 81030
                   333 59003 81360 555 10338=
201809261200 AAXX 26124 67665 41659 10807 10323 20054 48519 70500 81100
                   333 59013 81845=
201809260900 AAXX 26094 67665 NIL=
201809260600 AAXX 26064 67665 31959 01107 10233 20093 48545 70500
                   333 10328 20//0 59004=
201809260300 AAXX 26034 67665 41958 01403 10175 20077 48517 70500
                   333 59010=
201809260000 AAXX 26004 67665 41958 01603 10183 20065 48515 70500
                   333 59012=
201809252100 AAXX 25214 67665 41959 01204 10192 20070 48529 70500
                   333 59004=
201809251500 AAXX 25154 67665 41959 00706 10311 20036 48513 70500
                   333 59006=
201809251200 AAXX 25124 67665 41959 01012 10318 20062 48523 70500
                   333 59008=
201809250900 AAXX 25094 67665 41959 00613 10284 20072 48553 70500
                   333 59001=
201809250600 AAXX 25064 67665 41959 01209 10220 20087 48548 70500
                   333 10318 20//0 59001=
201809250300 AAXX 25034 67665 42960 01303 10157 20083 48523
                   333 58003=
201809242100 AAXX 24214 67665 41959 01206 10187 20051 48533
                   333 59006=
201809241200 AAXX 24124 67665 NIL=
201809240900 AAXX 24094 67665 41958 01016 10277 20084 48556 70500
                   333 59004=
201809240600 AAXX 24064 67665 32980 01009 10204 20109 48546 70200
                   333 10312 20/// 59005=
201809240300 AAXX 24034 67665 42980 01403 10155 20080 48522 70200
                   333 59004=
201809240000 AAXX 24004 67665 42980 01303 10149 20062 48521 70500
                   333 59004=
201809232100 AAXX 23214 67665 41960 01206 10177 20045 48537 70500
                   333 58000=
201809231500 AAXX 23154 67665 41958 01210 10290 20039 48521 70500
                   333 59006=
201809230300 AAXX 23034 67665 41959 01207 10160 20029 48535 70500
                   333 58002=
201809230000 AAXX 23004 67665 41959 01205 10174 20014 48528 70500
                   333 58005=
201809221800 AAXX 22184 67665 41959 21404 10214 20024 48537 70500 82030
                   333 58004 82360=
201809221200 AAXX 22124 67665 41658 31014 10307 20057 48534 70500 83100
                   333 58004 83840=
201809220900 AAXX 22094 67665 41958 00715 10277 20060 48557 70500
                   333 59005=
201809220600 AAXX 22064 67665 31959 01008 10216 20104 48551 70500
                   333 10318 20//0 59004
                   555 00///=
201809220300 AAXX 22034 67665 41959 01803 10189 20066 48527 70500
                   333 59006=
201809220000 AAXX 22004 67665 41959 01206 10199 20101 48526 70500
                   333 58000=
201809212100 AAXX 21214 67665 41959 01206 10207 20091 48539 70500
                   333 59003=
201809211800 AAXX 21184 67665 41959 21107 10242 20042 48536 70500 82030
                   333 58005 82359=
201809211500 AAXX 21154 67665 41959 40812 10300 20042 48524 70500 84030
                   333 58006 84360=
201809211200 AAXX 21124 67665 41660 40713 10314 20034 48530 70500 84100
                   333 58000 84838=
201809210900 AAXX 21094 67665 41558 30820 10293 20045 48563 70500 83130
                   333 58007 83825 81360=
201809210600 AAXX 21064 67665 31958 11004 10232 20068 48557 70500 81030
                   333 10328 58004 81360=
201809202100 AAXX 20214 67665 41956 01604 10191 20025 48540 70500
                   333 58006=
201809201800 AAXX 20184 67665 41959 01403 10233 20005 48529 70500
                   333 10328 58001=
201809201500 AAXX 20154 67665 41958 00812 10314 21020 48518 70500
                   333 59002=
201809201200 AAXX 20124 67665 41958 00910 10316 20010 48532 70500
                   333 59002=
201809200900 AAXX 20094 67665 41957 00813 10292 20043 48556 70500
                   333 58000=
201809200600 AAXX 20064 67665 31956 01205 10231 20025 48553 70500
                   333 10334 20//0 58003=
201809200300 AAXX 20034 67665 41956 00903 10179 20027 48529 70500
                   333 59002=
201809192100 AAXX 19214 67665 41956 01404 10186 20025 48534 70500
                   333 59001=
201809191800 AAXX 19184 67665 41956 01203 10224 20040 48528 70400
                   333 10334 58000=
201809191500 AAXX 19154 67665 41957 00609 10322 21008 48523 70400
                   333 58003=
201809191200 AAXX 19124 67665 41957 00810 10326 20020 48535 70400
                   333 58009=
201809190900 AAXX 19094 67665 41958 00811 10298 20010 48558 70500
                   333 58000=
201809190600 AAXX 19064 67665 31957 01204 10233 20041 48550 70500
                   333 10343 20//0 58011
                   555 00///=
201809182100 AAXX 18214 67665 41959 00000 10182 20015 48534 70500
                   333 58009=
201809181800 AAXX 18184 67665 41958 01203 10231 20004 48529 70500
                   333 58006=
201809181500 AAXX 18154 67665 41958 01008 10323 20020 48519 70500
                   333 59003=
201809181200 AAXX 18124 67665 41958 00414 10335 21008 48527 70500
                   333 59004=
201809180900 AAXX 18094 67665 41957 00812 10305 20050 48550 70400
                   333 59001=
201809180600 AAXX 18064 67665 31959 01403 10231 20054 48539 70400
                   333 10334 20//0 59008=
201809180300 AAXX 18034 67665 42980 01103 10174 20049 48512 70200
                   333 58006=
201809180000 AAXX 18004 67665 42980 01802 10161 20040 48512 70200
                   333 5////=
201809172100 AAXX 17214 67665 42980 01605 10200 20025 48527 70200
                   333 58002=
201809171500 AAXX 17154 67665 41959 00607 10322 20015 48516 70500
                   333 59001=
201809171200 AAXX 17124 67665 41959 01205 10327 20035 48540 70500
                   333 58004=
201809170900 AAXX 17094 67665 NIL=
201809170600 AAXX 17064 67665 NIL=
201809161800 AAXX 16184 67665 42980 01404 10234 21020 48521 70500
                   333 10342 59008=
201809161500 AAXX 16154 67665 41960 01112 10314 21032 48516 70500
                   333 59008=
201809161200 AAXX 16124 67665 41959 00817 10332 21040 48526 70500
                   333 58009=
201809160600 AAXX 16064 67665 31959 01206 10222 20038 48549 70500
                   333 10230 20//0 58000
                   555 00///=
201809160300 AAXX 16034 67665 42980 01803 10138 20031 48520
                   333 58000=
201809160000 AAXX 16004 67665 42980 02102 10171 20026 48524
                   333 58002=
201809152100 AAXX 15214 67665 42980 01702 10187 20012 48529
                   333 59004=
201809151200 AAXX 15124 67665 41959 00812 10328 21004 48531 70500
                   333 58004=
201809150900 AAXX 15094 67665 41959 00512 10301 20045 48556 70500
                   333 58001=
201809150600 AAXX 15064 67665 31959 01208 10228 20064 48550 70500
                   333 10335 20//0 58002=
201809150000 AAXX 15004 67665 41959 01703 10153 20049 48519 70500
                   333 58004=
201809141800 AAXX 14184 67665 41959 01404 10231 20011 48531 70500
                   333 10335 58001=
201809141500 AAXX 14154 67665 41959 01008 10318 21070 48524 70500
                   333 58001 555 10335=
201809141200 AAXX 14124 67665 41959 00811 10327 21010 48530 70500
                   333 59001=
201809140900 AAXX 14094 67665 41980 00505 10288 20033 48554
                   333 58002=
201809140600 AAXX 14064 67665 32980 01007 10220 20034 48547
                   333 10327 20//0 58003=
201809140300 AAXX 14034 67665 42980 02201 10137 20046 48513
                   333 59008=
201809140000 AAXX 14004 67665 42980 01602 10150 20051 48515
                   333 59011=
201809132100 AAXX 13214 67665 42980 01801 10189 20030 48530
                   333 59008=
201809131800 AAXX 13184 67665 42980 01404 10224 20030 48527
                   333 10224 59004=
201809131200 AAXX 13124 67665 42980 00604 10309 20002 48528
                   333 59004=
201809130900 AAXX 13094 67665 42980 01107 10281 20010 48551
                   333 59010=
201809120900 AAXX 12094 67665 42980 01011 10270 20045 48555
                   333 59018=
201809120600 AAXX 12064 67665 32980 01006 10186 20090 48553 70200
                   333 10291 20/// 59010=
201809120300 AAXX 12034 67665 42980 01504 10123 20076 48529 70200
                   333 59009=
201809120000 AAXX 12004 67665 42980 01602 10133 20086 48530 70200
                   333 59014=
201809112100 AAXX 11214 67665 42980 01403 10160 20098 48542 70200
                   333 59006=
201809111800 AAXX 11184 67665 42980 01506 10210 20095 48539
                   333 58000=
201809111500 AAXX 11154 67665 42980 10905 10280 20050 48534 81030
                   333 58005 81359=
201809111200 AAXX 11124 67665 42680 11109 10283 20097 48547 81100
                   333 58014 81830=
201809110900 AAXX 11094 67665 NIL=
201809110600 AAXX 11064 67665 32980 01112 10171 20110 48560 70200
                   333 1//// 2//// 58027=
201809101800 AAXX 10184 67665 42980 11109 10212 20110 48537 70200 80001
                   333 58027 81080=
201809101500 AAXX 10154 67665 42680 21004 10276 20110 48529 70200 82100
                   333 58025 82845=
201809101200 AAXX 10124 67665 42680 21109 10286 20113 48534 70300
                   333 58022 82830=
201809100900 AAXX 10094 67665 NIL=
201809100600 AAXX 10064 67665 32980 11309 10206 21040 48539 70200 80001
                   333 10328 20/// 58009 81080
                   555 00///=
201809100300 AAXX 10034 67665 42980 10905 10198 21042 48516 81030
                   333 58008 81360=
201809092100 AAXX 09214 67665 42980 21404 10213 20065 48527 82030
                   333 58017 82360=
201809091200 AAXX 09124 67665 42680 30000 10317 20101 48515 82101
                   333 58005 82835 81080=
201809090900 AAXX 09094 67665 42980 20903 10292 20085 48540 70200 80001
                   333 58004 82080=
201809082100 AAXX 08214 67665 42980 11704 10200 20098 48509 80001
                   333 59001 81080=
201809081800 AAXX 08184 67665 42980 21502 10251 20084 48498 82031
                   333 10334 59008 82360 81080=
201809080300 AAXX 08034 67665 42980 10165 20072 48498
                   333 59028=
201809080000 AAXX 08004 67665 42980 01003 10//0 20//0 48///
                   333 59030=
201809072100 AAXX 07214 67665 42980 01203 10//0 20//0 48///
                   333 59030=
201809071800 AAXX 07184 67665 42980 30605 10266 20075 48507 70200 83030
                   333 10324 20//0 59022 83060=
201809071200 AAXX 07124 67665 42680 30607 10323 20065 48502 70200 81102
                   333 59021 81838 82060=
201809070900 AAXX 07094 67665 42980 10611 10289 20094 48533 80001
                   333 59022 81080=
201809070600 AAXX 07064 67665 32980 01204 10217 20105 48529 70200
                   333 10318 20//0 59021=
201809070300 AAXX 07034 67665 42980 01602 10174 20105 48504 70200
                   333 59022=
201809062100 AAXX 06214 67665 42980 01502 10196 20099 48526 70200
                   333 59014=
201809061200 AAXX 06124 67665 NIL=
201809060900 AAXX 06094 67665 42680 10813 10282 20096 48554 81130
                   333 59007 81830 81359=
201809060600 AAXX 06064 67665 32580 30905 10230 20100 48551 70200 83500
                   333 10317 20//0 59005 83620=
201809060300 AAXX 06034 67665 42980 01602 10177 20098 48526 70200
                   333 58000=
201809060000 AAXX 06004 67665 42980 01303 10181 20102 48524 70200
                   333 59008=
201809052100 AAXX 05214 67665 42980 01604 10200 20094 48539 70200
                   333 59003=
201809051800 AAXX 05184 67665 42980 11103 10234 20094 48536 81030
                   333 58002 81359=
201809051500 AAXX 05154 67665 42780 10810 10285 20061 48527 81100
                   333 58002 81856=
201809051200 AAXX 05124 67665 42680 10712 10307 20074 48536 81100
                   333 58004 81840=
201809050900 AAXX 05094 67665 NIL=
201809042100 AAXX 04214 67665 42980 01504 10174 20024 49558 70200
                   333 58008=
201809041800 AAXX 04184 67665 42980 01505 10218 20044 48533 70200
                   333 58008=
201809041500 AAXX 04154 67665 42980 01010 10295 21005 49526 70200
                   333 58016=
201809041200 AAXX 04124 67665 NIL=
201809040900 AAXX 04094 67665 42980 00613 10279 20050 48559 70200
                   333 58007=
201809040600 AAXX 04064 67665 32980 01303 10204 20076 48546 70200
                   333 10312 20//0 58014
                   555 00///=
201809040300 AAXX 04034 67665 42980 00000 10163 20075 48521 70200
                   333 58008=
201809040000 AAXX 04004 67665 42980 00000 10170 20065 48523 70200
                   333 58006=
201809031200 AAXX 03124 67665 42980 01009 10298 20005 48517
                   333 59017=
201809030900 AAXX 03094 67665 42560 10609 10271 20079 48541 70300 81100
                   333 59018 81825=
201809030600 AAXX 03064 67665 32980 01204 10215 20091 48535
                   333 10298 59021=
201809030300 AAXX 03034 67665 42980 01603 10142 20082 48510
                   333 59017=
201809030000 AAXX 03004 67665 42980 01703 10169 20078 48517
                   333 59016=
201809022100 AAXX 02214 67665 42980 01302 10179 20079 48530
                   333 59022=
201809021800 AAXX 02184 67665 42980 01206 10218 20054 48530 70200
                   333 10288 59005=
201809021500 AAXX 02154 67665 42980 00609 10286 20031 48525 70200
                   333 58004 555 10288=
201809021200 AAXX 02124 67665 42680 10408 10287 20050 48533 81100
                   333 58001 81845=
201809011800 AAXX 01184 67665 42980 01206 10197 20080 48540
                   333 10284 59004=
201809011500 AAXX 01154 67665 42980 11209 10266 20060 48538 81030
                   333 59001 81360=
201809011200 AAXX 01124 67665 42680 10905 10270 20060 48542 81100
                   333 59004 81845=
201809010900 AAXX 01094 67665 42980 20611 10251 20058 48568 82100
                   333 58002 82830=

################################################################################
#  SYNOPS from 67666, Lusaka City Airport (Zambia) | 15-25-00S | 028-28-00E | 1280 m
################################################################################
201810010600 AAXX 01064 67666 32480 71201 10170 20118 48561 87500
                   333 10270 20165 59005 87612
                   555 00/// 91021=
201809281200 AAXX 28124 67666 NIL=
201809280900 AAXX 28094 67666 41975 00910 10300 20071 48529 70500
                   333 59001 91019=
201809280600 AAXX 28064 67666 31970 00909 10250 20083 48528 70500
                   333 10352 20220 59009 91019=
201809270600 AAXX 27064 67666 31970 00908 10255 20094 48534 70500
                   333 10329 20210 59001 91020=
201809261200 AAXX 26124 67666 41970 00909 10319 20055 48510 70500
                   333 59003 91016=
201809260900 AAXX 26094 67666 41970 00910 10291 20079 48537 70500
                   333 59003 91024=
201809251200 AAXX 25124 67666 41970 50913 10305 20069 48515 70500 80006
                   333 59006 85280 91017=
201809250600 AAXX 25064 67666 31962 01012 10220 20095 48540 70500
                   333 10303 20171 59003 91020=
201809241200 AAXX 24124 67666 41678 11205 10300 20057 48520 70500
                   333 59002 81830 91017=
201809240900 AAXX 24094 67666 41975 00815 10250 20095 48542 70500
                   333 59004 91021=
201809240600 AAXX 24064 67666 31970 01105 10198 20107 48538 70500
                   333 10286 20178 58011 91021=
201809210600 AAXX 21064 67666 31970 30805 10234 20073 48551 70500 83030
                   333 10319 20201 58005 83359 91022=
201809201200 AAXX 20124 67666 41970 00909 10307 20030 48519 70500
                   333 59004 91017=
201809200600 AAXX 20064 67666 31970 00909 10229 20035 48542 70500
                   333 10324 20183 58002 91021=
201809190900 AAXX 19094 67666 41970 00816 10286 20029 48548 70500
                   333 58010 91021=
201809190600 AAXX 19064 67666 31965 00904 10230 2//// 48544 70500
                   333 10312 20184 58010 91031=
201809180900 AAXX 18094 67666 41958 00906 10286 20101 48539 70500
                   333 59004 91020=
201809180600 AAXX 18064 67666 31957 00907 10242 20081 48534 70500
                   333 10325 20199 59005 91020=
201809171200 AAXX 17124 67666 41970 00912 10310 20091 48520 70500
                   333 59001 91007=
201809170900 AAXX 17094 67666 41970 00912 10280 20105 48542 70500
                   333 59001 91020=
201809170600 AAXX 17064 67666 31960 00805 10230 20111 48589 70500
                   333 10328 20200 59004 91020=
201809140900 AAXX 14094 67666 41970 00908 10281 20078 48536 70500
                   333 58003 91021=
201809140600 AAXX 14064 67666 31970 00906 10229 20069 48532 70500
                   333 10312 20155 58000 91020=
201809131200 AAXX 13124 67666 42980 00000 10304 20045 48520
                   333 59002 91017=
201809130900 AAXX 13094 67666 41975 00910 10274 20072 48540 70500
                   333 59007 91020=
201809130600 AAXX 13064 67666 31970 01204 10206 20079 48536 70500
                   333 10270 20142 59009
                   555 00/// 91020=
201809120900 AAXX 12094 67666 41978 00906 10250 20080 48535
                   333 59014 91021=
201809120600 AAXX 12064 67666 31975 01005 10186 20110 48535 70500
                   333 10294 20160 59007 91022=
201809110900 AAXX 11094 67666 NIL=
201809110600 AAXX 11064 67666 31970 00910 10160 20056 48550 70500
                   333 10312 20140 59023 91022=
201809100900 AAXX 10094 67666 NIL=
201809100600 AAXX 10064 67666 31970 01205 10196 20009 48531 70500
                   333 10330 20182 58006 91020=
201809071200 AAXX 07124 67666 42680 70906 10298 20096 48494 70322 82107
                   333 59026 82845 87280 91015=
201809070600 AAXX 07064 67666 31950 10907 10219 20107 48523 70500 80001
                   333 10310 20125 59020 81080 91019=
201809061200 AAXX 06124 67666 42680 11113 10298 20101 48520 70300 81230
                   333 59006 81840 81360 91017=
201809060900 AAXX 06094 67666 41875 11018 10272 20072 48544 70500 81030
                   333 59005 81359 91021=
201809060600 AAXX 06064 67666 31770 30917 10210 20108 48541 70500 83030
                   333 10290 20202 58014 83357 91021=
201809050900 AAXX 05094 67666 41575 11210 10270 20089 48552 70500 81100
                   333 58003 81828 91022=
201809050600 AAXX 05064 67666 31975 00906 10218 20076 48549 70500
                   333 10/// 20158 58006 91022=
201809041200 AAXX 04124 67666 41978 00908 10295 20065 48524 70500
                   333 58018 91018=
201809040600 AAXX 04064 67666 31970 00904 10215 20080 48542 70500
                   333 10295 20180 58016 91021=

################################################################################
#  SYNOPS from 67667, Mount Makulu (Zambia) | 15-33S | 028-15E | 1213 m
################################################################################
201810010600 AAXX 01064 67667 31570 61308 10186 20131 48620 70500 86500
                   333 10306 20166 58021 86625
                   555 00///=
201809281200 AAXX 28124 67667 41670 30906 10325 20120 48533 70500 83100
                   333 58001 83845=
201809280900 AAXX 28094 67667 41970 00905 10312 20140 48544 70500
                   333 59016=
201809280600 AAXX 28064 67667 31970 00908 10264 20115 48557 70500
                   333 10363 20214 59010=
201809270900 AAXX 27094 67667 41670 10404 10314 20121 48558 70500 81100
                   333 81845=
201809270600 AAXX 27064 67667 31970 00605 10270 20105 48567 70500
                   333 10364 20213 58001=
201809260900 AAXX 26094 67667 NIL=
201809260600 AAXX 26064 67667 31970 00902 10240 20111 48589 70500
                   333 10350 20190 58008=
201809250600 AAXX 25064 67667 31970 00902 10238 20110 48597 70500
                   333 10332 20200 58001
                   555 00///=
201809241200 AAXX 24124 67667 41670 11602 10312 20121 48545 70500 81100
                   333 5//// 81845=
201809240900 AAXX 24094 67667 41970 00705 10276 20122 48570 70500
                   333 5////=
201809240600 AAXX 24064 67667 31970 01501 10222 20139 48/// 70500
                   333 10322 20178 58018=
201809211200 AAXX 21124 67667 41670 30906 10298 20112 48549 70500 83100
                   333 58001 83845=
201809210600 AAXX 21064 67667 31970 20906 10255 20102 48584 82030
                   333 10342 20130 58008 82362=
201809201200 AAXX 20124 67667 41970 01404 10320 20089 48548 70500
                   333 59001=
201809200900 AAXX 20094 67667 41970 00508 10292 20091 48572
                   333 59001=
201809200600 AAXX 20064 67667 31970 00905 10240 20087 48585 70500
                   333 10354 20137 58003=
201809190600 AAXX 19064 67667 31970 00601 10254 20180 48598 70500
                   333 10360 20170 58008=
201809180900 AAXX 18094 67667 41975 00801 10296 20140 48595 70500
                   333 58000=
201809180600 AAXX 18064 67667 31975 00904 10258 20156 48590 70500
                   333 10344 20204 58005=
201809171200 AAXX 17124 67667 41775 10902 10324 20118 48575 70500 81100
                   333 5//// 81830 555 00///=
201809170900 AAXX 17094 67667 41975 00601 10294 20112 48595 70500
                   333 5////=
201809170600 AAXX 17064 67667 31975 00901 10252 20120 48595 70500
                   333 10350 20200 58020=
201809140600 AAXX 14064 67667 31970 01203 10242 20085 48575 70500
                   333 10333 20135 59005=
201809131200 AAXX 13124 67667 41975 01501 10288 20090 48577 70500
                   333 58003 555 00///=
201809130600 AAXX 13064 67667 31970 00905 10240 20082 48570 70500
                   333 10166 20166 59009
                   555 00/// 00///=
201809120600 AAXX 12064 67667 31975 00702 10208 20110 48600 70500
                   333 10314 20150 58008=
201809110900 AAXX 11094 67667 42970 01501 10230 20120 48618 70500
                   333 58021=
201809110600 AAXX 11064 67667 32970 00901 10184 20072 48608 70500
                   333 10316 20138 58019=
201809100900 AAXX 10094 67667 42970 01501 10261 20111 48597 70500
                   333 5////=
201809100600 AAXX 10064 67667 32970 01201 10198 20139 48589 70500
                   333 10332 20156 59027=
201809070900 AAXX 07094 67667 41970 20907 10292 20134 48548 70500 80001
                   333 59022 82082=
201809070600 AAXX 07064 67667 31970 13607 10238 20111 48553 70500 81083
                   333 10338 20195 59020=
201809061200 AAXX 06124 67667 41670 40904 10309 20121 48542 70500 84201
                   333 59010 84845 81080=
201809060900 AAXX 06094 67667 41670 20910 10285 20134 48566 70500 81102
                   333 59007 81840 82080=
201809060600 AAXX 06064 67667 31970 40810 10230 20125 48572 70500 84030
                   333 10334 20205 59009 84362=
201809050900 AAXX 05094 67667 NIL=
201809050600 AAXX 05064 67667 31975 00601 10232 20097 48604 70500
                   333 10336 20170 58004=
201809041200 AAXX 04124 67667 NIL=
201809040600 AAXX 04064 67667 31975 02701 10240 20110 48600 70500
                   333 10331 20172 59036=
201809030600 AAXX 03064 67667 31970 01005 10220 20121 48564 70500
                   333 10315 20164 59017=

################################################################################
#  SYNOPS from 67673, Petauke (Zambia) | 14-15S | 031-17E | 1035 m
################################################################################
201809281200 AAXX 28124 67673 NIL=
201809280900 AAXX 28094 67673 41970 00504 10318 20127 48556 70500
                   333 59010 555 00///=
201809280600 AAXX 28064 67673 31970 00507 10270 20130 48559 70500
                   333 10358 20210 59009=
201809270900 AAXX 27094 67673 41670 23603 10312 20143 48568 70500 82100
                   333 59033 82835=
201809260900 AAXX 26094 67673 NIL=
201809241200 AAXX 24124 67673 41970 00902 10320 20182 48541 70500
                   333 59015=
201809240900 AAXX 24094 67673 41970 00503 10288 20180 48572 70500
                   333 58005=
201809240600 AAXX 24064 67673 31970 00504 10250 20172 48572 70500
                   333 10324 20188 58007=
201809201200 AAXX 20124 67673 41670 40904 10326 20157 48540 70500 84100
                   333 59002 84845=
201809200900 AAXX 20094 67673 41670 40507 10299 20155 48572 84100
                   333 58008 84835=
201809200600 AAXX 20064 67673 31970 00503 10260 20134 48575 70500
                   333 10338 20194 58013=
201809190900 AAXX 19094 67673 41970 00502 10310 20125 48566 70500
                   333 59014=
201809190600 AAXX 19064 67673 31970 00503 10270 20115 48564 70500
                   333 10360 20180 59026=
201809180900 AAXX 18094 67673 NIL=
201809180600 AAXX 18064 67673 NIL=
201809171200 AAXX 17124 67673 NIL=
201809170900 AAXX 17094 67673 NIL=
201809170600 AAXX 17064 67673 NIL=
201809131200 AAXX 13124 67673 41670 40902 10300 20130 48541 70500 84100
                   333 59009 84840=
201809120600 AAXX 12064 67673 31970 00502 10230 20152 48573 70500
                   333 10300 20155 58006=
201809111200 AAXX 11124 67673 41970 50902 10284 20152 48546 70522 85100
                   333 59011 85840=
201809110900 AAXX 11094 67673 41670 40803 10254 20154 48574 70500 84100
                   333 58020 84835=
201809110600 AAXX 11064 67673 31570 20802 10204 20146 48562 70500 82100
                   333 10330 20135 82828
                   555 00///=
201809100900 AAXX 10094 67673 NIL=
201809070600 AAXX 07064 67673 31970 00902 10244 20130 48550 70500
                   333 10330 20183 59021=
201809061200 AAXX 06124 67673 NIL=
201809060600 AAXX 06064 67673 32980 03604 10220 20150 48584
                   333 10330 20180 58006=
201809050900 AAXX 05094 67673 NIL=
201809050600 AAXX 05064 67673 32980 00202 10230 20155 48563
                   333 10322 20185 59006=
201809041200 AAXX 04124 67673 41670 20901 10310 20143 48547 70500 82100
                   333 58035 82840=
201809040900 AAXX 04094 67673 41670 30904 10298 20125 48570 70500 83100
                   333 5//// 83835=
201809040600 AAXX 04064 67673 31970 00503 10260 20137 48574 70500
                   333 10320 20170 58024=
201809030600 AAXX 03064 67673 31970 00501 10244 20114 48547 70500
                   333 10310 20160 59028=

################################################################################
#  SYNOPS from 67731, Senanga (Zambia) | 16-06S | 023-16E | 1027 m
################################################################################
201810010600 AAXX 01064 67731 32980 009// 10234 20100 48///
                   333 10391 20196 58008
                   555 00158=
201809281200 AAXX 28124 67731 NIL=
201809280600 AAXX 28064 67731 32980 014// 10291 20103 48///
                   333 10360 20213 58001=
201809270900 AAXX 27094 67731 42980 028// 10329 20104 48/// 70200
                   333 59009=
201809270600 AAXX 27064 67731 32980 008// 10241 20115 48/// 70200
                   333 10372 20189 59017
                   555 00141=
201809260900 AAXX 26094 67731 42980 033// 10318 20096 48/// 70200
                   333 58005=
201809260600 AAXX 26064 67731 31978 024// 10239 2//// 48/// 70500
                   333 10369 20174 59002
                   555 00121=
201809250600 AAXX 25064 67731 32980 128// 10248 20108 48/// 70100 81030
                   333 10352 20189 59005 81360
                   555 00113=
201809241200 AAXX 24124 67731 42980 026// 10366 20095 48/// 70200
                   333 5////=
201809240600 AAXX 24064 67731 32980 023// 10234 20104 48/// 70200
                   333 10354 20172 5////
                   555 00092=
201809210900 AAXX 21094 67731 42980 016// 10328 20131 48/// 70200
                   333 58009=
201809210600 AAXX 21064 67731 31978 019// 10258 20092 48/// 70500
                   333 10375 20189 58000
                   555 00137=
201809201200 AAXX 20124 67731 42980 007// 10367 20018 48/// 70200
                   333 58008=
201809200900 AAXX 20094 67731 42980 027// 10347 20074 48/// 70200
                   333 59004=
201809200600 AAXX 20064 67731 32980 023// 10251 20054 48/// 70200
                   333 10326 20191 58003
                   555 00106=
201809191200 AAXX 19124 67731 42980 001// 10376 20059 48/// 70200
                   333 59002=
201809190600 AAXX 19064 67731 32980 011// 10220 20064 48/// 70200
                   333 10362 20153 58001
                   555 00083=
201809181200 AAXX 18124 67731 42980 001// 10382 20071 48/// 70200
                   333 59005=
201809180900 AAXX 18094 67731 42980 009// 10340 20072 48/// 70200
                   333 59004=
201809180600 AAXX 18064 67731 32980 012// 10228 20090 48/// 70200
                   333 10371 20117 58002
                   555 00083=
201809171200 AAXX 17124 67731 42980 010// 10374 20116 48/// 70200
                   333 5////=
201809170900 AAXX 17094 67731 42980 009// 10348 20056 48/// 70200
                   333 5////=
201809170600 AAXX 17064 67731 32980 018// 10234 20108 48/// 70200
                   333 10371 20175 5////
                   555 00134=
201809140600 AAXX 14064 67731 32980 014// 10163 20046 48/// 70200
                   333 10258 20141 58000
                   555 00099=
201809131200 AAXX 13124 67731 42980 028// 10338 20142 48/// 70200
                   333 59017 555 00///=
201809130900 AAXX 13094 67731 42980 000// 10317 20074 48/// 70200
                   333 59002=
201809120600 AAXX 12064 67731 32980 018// 10206 20084 48/// 70200
                   333 10320 20146 59014
                   555 00078=
201809111200 AAXX 11124 67731 42980 032// 10327 20076 48/// 70200
                   333 59010=
201809110900 AAXX 11094 67731 42980 009// 10278 20099 48/// 70200
                   333 5////=
201809110600 AAXX 11064 67731 32980 007// 10178 21032 48/// 70200
                   333 10291 20073 58001
                   555 000321=
201809100900 AAXX 10094 67731 42980 010// 10254 21055 48/// 70200
                   333 59007=
201809100600 AAXX 10064 67731 32980 003// 10148 21055 48/// 70200
                   333 10242 20093 59032
                   555 00043=
201809071200 AAXX 07124 67731 42580 127// 10344 20134 48/// 70300 81100
                   333 59029 81823=
201809070600 AAXX 07064 67731 32980 018// 10212 20116 48/// 70200
                   333 10301 20200 59014
                   555 00135=
201809061200 AAXX 06124 67731 NIL=
201809060600 AAXX 06064 67731 32980 032// 10256 20127 48/// 70200
                   333 10354 20189 58003
                   555 00139=
201809050900 AAXX 05094 67731 42980 024// 10326 20084 48///
                   333 58007=
201809050600 AAXX 05064 67731 32980 018// 10219 20079 48/// 70200
                   333 10350 20132 58001
                   555 00101=
201809041200 AAXX 04124 67731 42980 032// 10344 20082 48/// 70200
                   333 58008=
201809040600 AAXX 04064 67731 32980 013// 10214 20090 48/// 70200
                   333 10330 20142 58013
                   555 00092=

################################################################################
#  SYNOPS from 67741, Sesheke (Zambia) | 17-28S | 024-18E | 949 m
################################################################################
201810010600 AAXX 01064 67741 32980 00901 10222 20132 48///
                   333 10343 20141 5////
                   555 00///=
201809281200 AAXX 28124 67741 41670 11201 10371 20083 48/// 70500 81100
                   333 5//// 81850=
201809280900 AAXX 28094 67741 41970 00902 10350 20105 48/// 70500
                   333 5////=
201809280600 AAXX 28064 67741 31970 00000 10231 20115 48/// 70500
                   333 10379 20138 5////=
201809270900 AAXX 27094 67741 41970 00801 10350 20090 48/// 70500
                   333 5////=
201809270600 AAXX 27064 67741 31970 00000 10269 20071 48/// 70500
                   333 10378 20150 5////=
201809261200 AAXX 26124 67741 41675 10000 10376 20108 48/// 70500 81101
                   333 5//// 81850 81080=
201809260900 AAXX 26094 67741 41975 00801 10337 20107 48/// 70500
                   333 5////=
201809250600 AAXX 25064 67741 31970 00701 10251 20086 48/// 70500
                   333 10354 20128 5////
                   555 00///=
201809241200 AAXX 24124 67741 41970 01402 10340 20069 48/// 70500
                   333 5////=
201809240600 AAXX 24064 67741 31970 00000 10200 20095 48/// 70500
                   333 10355 20090 5////=
201809211200 AAXX 21124 67741 42980 00904 10358 20052 48///
                   333 5////=
201809210900 AAXX 21094 67741 41975 00602 10330 20068 48/// 70500
                   333 5////=
201809210600 AAXX 21064 67741 31980 00000 10235 20052 48/// 70500
                   333 10365 20128 5////=
201809201200 AAXX 20124 67741 42980 01401 10348 20068 48///
                   333 5////=
201809200900 AAXX 20094 67741 42980 01201 10302 20066 48///
                   333 5////=
201809200600 AAXX 20064 67741 32980 03601 10258 20036 48///
                   333 10376 20126 5////=
201809190600 AAXX 19064 67741 31970 00000 10194 20058 48/// 70500
                   333 10380 20104 5////=
201809181200 AAXX 18124 67741 41970 00905 10368 20024 48/// 70500
                   333 5////=
201809180900 AAXX 18094 67741 NIL=
201809180600 AAXX 18064 67741 31970 00000 10211 20090 48/// 70500
                   333 10374 20107 5////=
201809171200 AAXX 17124 67741 42980 00000 10367 20049 48///
                   333 5////=
201809170900 AAXX 17094 67741 42980 00901 10349 20043 48///
                   333 5////=
201809170600 AAXX 17064 67741 32980 03601 10260 20048 48///
                   333 10366 20131 5////=
201809140600 AAXX 14064 67741 31970 00000 10190 20084 48/// 70500
                   333 10354 20085 5////=
201809131200 AAXX 13124 67741 42980 01001 10339 20106 48///
                   333 5////=
201809110900 AAXX 11094 67741 NIL=
201809110600 AAXX 11064 67741 NIL=
201809100900 AAXX 10094 67741 NIL=
201809070600 AAXX 07064 67741 32980 00000 10243 20137 48494
                   333 10361 20150 59035=
201809061200 AAXX 06124 67741 41670 13601 10351 20152 48515 70400 81100
                   333 59022 81850=
201809060600 AAXX 06064 67741 32980 23601 10252 20139 48535 80001
                   333 10350 20151 59012 82080=
201809050900 AAXX 05094 67741 42980 00603 10327 20121 48560
                   333 58005=
201809050600 AAXX 05064 67741 32980 10000 10218 20100 48538 80001
                   333 10346 20117 58003=
201809041200 AAXX 04124 67741 42980 01201 10330 20121 48531
                   333 58016=
201809040600 AAXX 04064 67741 32980 00000 10192 20109 48532
                   333 10350 20098 58021=

################################################################################
#  SYNOPS from 67743, Livingstone (Zambia) | 17-49S | 025-49E | 985 m
################################################################################
201809281200 AAXX 28124 67743 NIL=
201809280900 AAXX 28094 67743 41075 00808 10337 20029 48529 70500
                   333 59005 91017=
201809260900 AAXX 26094 67743 NIL=
201809260600 AAXX 26064 67743 31959 0//// 10238 20050 48527 70500
                   333 10355 20173 59007 91018=
201809241200 AAXX 24124 67743 NIL=
201809240600 AAXX 24064 67743 31975 01004 10192 20018 70500
                   333 10350 20135 59009 91013=
201809210900 AAXX 21094 67743 41975 01011 10322 20003 48545 70500
                   333 58007 91019=
201809210600 AAXX 21064 67743 31959 00907 10232 20027 48538 70500
                   333 10370 20169 58004 91020=
201809200600 AAXX 20064 67743 31959 00809 10233 21010 48532 70500
                   333 10375 20140 58006 91019=
201809190600 AAXX 19064 67743 31959 01703 10244 20000 48530 70500
                   333 10375 20165 91019=
201809180900 AAXX 18094 67743 NIL=
201809180600 AAXX 18064 67743 31975 01104 10211 20002 48515 70500
                   333 10370 20130 59008 91018=
201809171200 AAXX 17124 67743 NIL=
201809170900 AAXX 17094 67743 NIL=
201809170600 AAXX 17064 67743 31960 01204 10210 20063 48523 70500
                   333 10372 20129 59006 91019=
201809140600 AAXX 14064 67743 31975 02303 10197 20022 48528 70500
                   333 10352 20123 91019=
201809110900 AAXX 11094 67743 NIL=
201809110600 AAXX 11064 67743 19750 01396 19163 21060 48545 70500
                   333 10295 20066 58003 91022=
201809100900 AAXX 10094 67743 NIL=
201809100600 AAXX 10064 67743 32980 01307 10146 21080 48538
                   333 10315 20075 59002 91021=
201809061200 AAXX 06124 67743 41675 33613 10342 20043 48507 70500 83800
                   333 59022 83845 91014=
201809060600 AAXX 06064 67743 31975 0//// 10235 20068 48529 70500
                   333 10350 20154 59013 91019=
201809050900 AAXX 05094 67743 NIL=
201809050600 AAXX 05064 67743 31970 00903 10202 20056 48535 70500
                   333 10345 20150 58007 91020=
201809041200 AAXX 04124 67743 42980 01312 10324 20028 48526
                   333 58016 91016=
201809040600 AAXX 04064 67743 31970 01002 10198 20053 48530 70500
                   333 10340 20120 58018 91019=
201809031200 AAXX 03124 67743 41975 02008 10320 21033 48509 70500
                   333 59019 91015=
201809030600 AAXX 03064 67743 31975 01903 10193 20060 48513 70500
                   333 10325 20131 59025 91017=

################################################################################
#  SYNOPS from 67751, Magoye (Zambia) | 16-00S | 027-36E | 1018 m
################################################################################
201809281200 AAXX 28124 67751 NIL=
201809280600 AAXX 28064 67751 31975 00306 10275 20109 70500
                   333 10362 20177 58005=
201809260900 AAXX 26094 67751 NIL=
201809241200 AAXX 24124 67751 NIL=
201809210600 AAXX 21064 67751 31980 00813 10275 20066 48/// 70500
                   333 10370 20171 59006=
201809190600 AAXX 19064 67751 31975 00512 10230 20090 48/// 70500
                   333 10367 20143 59010=
201809180900 AAXX 18094 67751 NIL=
201809180600 AAXX 18064 67751 31975 00907 10255 20080 48/// 70500
                   333 10370 20142 58009=
201809171200 AAXX 17124 67751 NIL=
201809170900 AAXX 17094 67751 NIL=
201809170600 AAXX 17064 67751 31975 00913 10275 20105 48/// 70500
                   333 10362 20122 58007=
201809110900 AAXX 11094 67751 NIL=
201809110600 AAXX 11064 67751 NIL=
201809100900 AAXX 10094 67751 NIL=
201809070600 AAXX 07064 67751 31975 00212 10253 20125 48/// 70500
                   333 10346 20150 58023=
201809061200 AAXX 06124 67751 NIL=
201809060600 AAXX 06064 67751 31975 00310 10260 20112 48/// 70500
                   333 10342 20160 58006=
201809050900 AAXX 05094 67751 NIL=
201809050600 AAXX 05064 67751 31975 03611 10260 20069 48/// 70500
                   333 10340 20122 59012=
201809041200 AAXX 04124 67751 NIL=
201809040600 AAXX 04064 67751 31975 00712 10250 20073 48/// 70500
                   333 10326 20142 59007=
201809030600 AAXX 03064 67751 31978 00804 10239 20103 48/// 70500
                   333 10312 20090 58020=

################################################################################
#  SYNOPS from 67753, Choma (Zambia) | 16-50S | 027-04E | 1213 m
################################################################################
201810010600 AAXX 01064 67753 31560 61015 10185 20137 48567 70500 86100
                   333 10309 20168 59008 86820
                   555 00///=
201809281200 AAXX 28124 67753 NIL=
201809280600 AAXX 28064 67753 31960 02708 10260 20116 48524 70500
                   333 10344 20182 59005=
201809270600 AAXX 27064 67753 31960 02606 10264 20115 48534 70500
                   333 10335 20170 5////=
201809260900 AAXX 26094 67753 NIL=
201809250600 AAXX 25064 67753 31960 02906 10220 20109 48/// 70500
                   333 10306 20154 5////
                   555 00///=
201809241200 AAXX 24124 67753 NIL=
201809240600 AAXX 24064 67753 31960 02906 10216 20110 48/// 70500
                   333 10304 20140 5////=
201809210600 AAXX 21064 67753 31960 02804 10231 20114 48551 70500
                   333 10342 20152 5////=
201809200600 AAXX 20064 67753 31960 02003 10224 20084 48/// 70500
                   333 10342 20130 5////=
201809190600 AAXX 19064 67753 31960 02404 10241 20081 48533 70500
                   333 10336 20170 58008=
201809180900 AAXX 18094 67753 NIL=
201809180600 AAXX 18064 67753 31960 03004 10200 20094 48520 70500
                   333 10336 20110 59009=
201809171200 AAXX 17124 67753 NIL=
201809170900 AAXX 17094 67753 NIL=
201809170600 AAXX 17064 67753 31960 02704 10236 20110 48533 70500
                   333 10335 20118 59006=
201809140600 AAXX 14064 67753 31960 00000 10207 20079 48530 70500
                   333 10314 20110 59001=
201809130600 AAXX 13064 67753 31960 00000 10197 20096 48529 70500
                   333 10295 20110 59012
                   555 00///=
201809120600 AAXX 12064 67753 31960 03002 10164 20085 48536 70500
                   333 10284 20084 59006=
201809110900 AAXX 11094 67753 NIL=
201809110600 AAXX 11064 67753 31960 02902 10155 20101 48545 70500
                   333 10290 20080 58011=
201809100900 AAXX 10094 67753 NIL=
201809070600 AAXX 07064 67753 31960 31806 10186 20102 48509 70500 80008
                   333 10316 20141 59025 83280=
201809061200 AAXX 06124 67753 41760 50106 10301 20107 48509 70500 85100
                   333 59021 85856=
201809050900 AAXX 05094 67753 NIL=
201809050600 AAXX 05064 67753 31960 23002 10181 20077 48537 70500 80001
                   333 10314 20120 58010 81080=
201809041200 AAXX 04124 67753 41960 12908 10306 20097 48520 70500 80001
                   333 58015 81080=
201809040600 AAXX 04064 67753 31960 11802 10190 20102 48528 70500 80001
                   333 10315 20122 58010 81080=
201809031200 AAXX 03124 67753 41960 00302 10300 20//0 48/// 70500
                   333 59014=

################################################################################
#  SYNOPS from 67855, Lupaki (Zambia) | 17-03-00S | 024-46-00E | 1000 m
################################################################################
201810010600 AAXX 01064 67855 31970 00903 10180 20118 3//// 48/// 70500
                   333 20102 5////=
201809301200 AAXX 30124 67855 41870 21609 10281 20139 3//// 48/// 70500 82100
                   333 5//// 82857=
201809290600 AAXX 29064 67855 31970 00704 10242 20081 3//// 48/// 70500
                   333 20151 5////=
201809281500 AAXX 28154 67855 41970 11102 10354 20100 3//// 48/// 70500 81400
                   333 5//// 81658=
201809281200 AAXX 28124 67855 41970 10403 10356 20091 3//// 48/// 70500 81100
                   333 5//// 81858=
201809280900 AAXX 28094 67855 41970 00605 10335 20164 3//// 48/// 70500
                   333 5////=
201809280600 AAXX 28064 67855 31970 00905 10248 20104 3//// 48/// 70500
                   333 20152 5////=
201809260600 AAXX 26064 67855 31970 00309 10254 20126 3//// 48/// 70500
                   333 20125 5////=
201809250600 AAXX 25064 67855 31970 00000 10194 20070 38/// 48/// 70500
                   333 20115 5////=
201809241200 AAXX 24124 67855 41970 00204 10346 20093 38/// 48/// 70500
                   333 5////=
201809231200 AAXX 23124 67855 41970 01408 10303 20100 3//// 48/// 70500
                   333 5////=
201809230600 AAXX 23064 67855 31971 00410 10226 20033 3//// 48/// 70500
                   333 20160 5////=
201809221200 AAXX 22124 67855 41870 10301 10356 20081 3//// 48/// 70500 81100
                   333 5//// 81857=
201809220900 AAXX 22094 67855 41970 00303 10332 20095 3//// 48/// 70500
                   333 5////=
201809220600 AAXX 22064 67855 31970 00910 10232 20113 3//// 48/// 70500
                   333 20125 5////=
201809210600 AAXX 21064 67855 31970 00802 10216 20151 38/// 48/// 70500
                   333 20125 5////=
201809201200 AAXX 20124 67855 41970 00304 10360 20108 3//// 48/// 70500
                   333 5////=
201809200600 AAXX 20064 67855 31970 01701 10208 20040 3//// 48/// 70500
                   333 20125 5////=
201809191200 AAXX 19124 67855 41970 00402 10360 20093 3//// 48/// 70500
                   333 5////=
201809190600 AAXX 19064 67855 31970 00000 10206 20040 3//// 48/// 70500
                   333 20115 5////=
201809181200 AAXX 18124 67855 41970 00305 10370 20035 3//// 48/// 70500
                   333 5////=
201809180600 AAXX 18064 67855 31970 01801 10194 20054 3//// 48/// 70500
                   333 20120 5////=
201809171500 AAXX 17154 67855 41970 01801 10364 20113 3//// 48/// 70500
                   333 5////=
201809170600 AAXX 17064 67855 31970 00702 10236 20045 3//// 48/// 70500
                   333 20139 5////=
201809160600 AAXX 16064 67855 31970 00000 10200 20038 3//// 48/// 70500
                   333 20094 5////=
201809151200 AAXX 15124 67855 41970 03402 10360 20063 3//// 48/// 70500
                   333 5////=
201809141500 AAXX 14154 67855 41970 03501 10346 20053 3//// 48/// 70500
                   333 5////=
201809141200 AAXX 14124 67855 41970 02503 10353 20008 3//// 48/// 70500
                   333 5////=
201809140600 AAXX 14064 67855 31970 00903 10215 20097 3//// 48/// 70500
                   333 20075 5////=
201809131200 AAXX 13124 67855 41970 01204 10330 20087 3//// 48/// 70500
                   333 5////=
201809121500 AAXX 12154 67855 41970 03402 10316 20105 3//// 48/// 70700
                   333 5////=
201809121200 AAXX 12124 67855 41970 01404 10303 20065 3//// 48/// 70500
                   333 5////=
201809120900 AAXX 12094 67855 41970 00502 10286 20078 3//// 48/// 70500
                   333 5////=
201809111200 AAXX 11124 67855 41970 01903 10302 20035 3//// 48/// 70500
                   333 5////=
201809080600 AAXX 08064 67855 31970 50000 10200 20169 3//// 48/// 70522 85030
                   333 20180 5//// 85360=
201809071200 AAXX 07124 67855 41770 12406 10345 20114 3//// 48/// 70500 81100
                   333 5//// 81850=
201809070600 AAXX 07064 67855 41770 30407 10342 20103 3//// 48/// 70511 83100
                   333 5//// 83850=
201809061500 AAXX 06154 67855 41770 20504 10326 20068 3//// 48/// 70511 82100
                   333 5//// 82850=
201809061200 AAXX 06124 67855 41770 30407 10342 20103 3//// 48/// 70511 83100
                   333 5//// 83850=
201809060900 AAXX 06094 67855 41970 10508 10312 20118 3//// 48/// 70500 80001
                   333 5//// 81080=
201809051200 AAXX 05124 67855 41770 11606 10339 20071 3//// 48/// 70500 81100
                   333 5//// 81850=
201809050900 AAXX 05094 67855 41970 00907 10314 20074 38/// 48/// 70500
                   333 5////=
201809041500 AAXX 04154 67855 41970 01702 10327 20082 3//// 48/// 70500
                   333 5////=
201809041200 AAXX 04124 67855 41770 13105 10337 20081 3//// 48/// 81100
                   333 5//// 81858=
201809040900 AAXX 04094 67855 41970 00408 10303 20091 3//// 48/// 70500
                   333 5////=
201809040600 AAXX 04064 67855 31970 00302 10210 20066 3//// 48/// 70500
                   333 20106 5////=
201809020600 AAXX 02064 67855 31970 00000 10138 20016 3//// 48/// 70500
                   333 20068 5////=
201809011500 AAXX 01154 67855 41970 03601 10296 20028 3//// 48/// 70500
                   333 5////=
201809011200 AAXX 01124 67855 41970 01802 10300 21015 3//// 48/// 70500
                   333 5////=
201809010900 AAXX 01094 67855 41970 00301 10274 20040 3//// 48/// 70500
                   333 5////=
201809010600 AAXX 01064 67855 31970 00000 10134 20080 3//// 48/// 70500
                   333 20075 5////=
