################################################################################
# Query made at 04/15/2022 01:59:26 UTC
# Country like Zamb*
# Time interval: from 02/01/2009 05:30  to 03/03/2009 06:30  UTC
################################################################################

################################################################################
#  SYNOPS from 67441, Mwinilunga (Zambia) | 11-45S | 024-26E | 1361 m
################################################################################
200903030600 AAXX 03064 67441 11480 60000 10200 20185 48541 60014 72840 81130
                   333 10295 20170 59001 81816 86360=
200903020600 AAXX 02064 67441 12980 70000 10183 20178 48551 60014 8703/
                   333 10265 20152 59009 87360=
200902240600 AAXX 24064 67441 11984 60000 10170 20170 48528 60034 74244 86030
                   333 10265 20150 5//// 86360=
200902190600 AAXX 19064 67441 11903 20000 10166 20166 48515 60054 74442 82042
                   333 20145 555 10250 59024 82360 81080=
200902170600 AAXX 17064 67441 32980 30000 10180 20172 48527 83031
                   333 10300 20155 59005 83360 81080=
200902160900 AAXX 16094 67441 42680 10605 10265 20165 48/// 81100
                   333 5//// 81830=
200902160600 AAXX 16064 67441 32980 10608 10220 20182 48510 80001
                   333 10270 20186 5//// 81080=
200902110900 AAXX 11094 67441 42682 70000 10245 20185 48556 81130
                   333 59010 81530 87362=
200902100900 AAXX 10094 67441 42482 80000 10210 20187 48566 886//
                   333 58015 88709=
200902100600 AAXX 10064 67441 12480 70000 10180 20180 48552 60164 8677/
                   333 10280 20165 5//// 86709 87360=
200902090600 AAXX 09064 67441 11480 60000 10190 20182 48/// 60044 72842 81130
                   333 10290 20/// 5//// 81818 86360=
200902030600 AAXX 03064 67441 11975 80000 10180 20176 48/// 6//// 76166 8802/
                   333 10270 20160 5//// 88460=
200902020600 AAXX 02064 67441 12480 80000 10175 20172 48550 60104 886//
                   333 10250 20160 58010 88709=

################################################################################
#  SYNOPS from 67461, Mansa (Zambia) | 11-06S | 028-51E | 1382 m
################################################################################
200903030600 AAXX 03064 67461 32580 70000 10198 20190 48520 82538
                   333 10296 20152 59010 82620 84361 87280=
200903020600 AAXX 02064 67461 12680 80000 10222 20186 48527 60014 8257/
                   333 10258 20175 59004 82624 88461=
200902230900 AAXX 23094 67461 42580 70805 10222 20179 48509 8427/
                   333 59002 84820 87460=
200902100600 AAXX 10064 67461 11560 80000 10185 20182 48535 60144 76266 8257/
                   333 10254 20162 58015 82620 88461=
200902090600 AAXX 09064 67461 12580 60000 10190 20179 48517 60064 82531
                   333 10298 20164 58003 82620 85360 82080=
200902030600 AAXX 03064 67461 11560 73602 10194 20173 48514 60044 71522 8457/
                   333 10251 20166 59009 84620 87461=
200902020600 AAXX 02064 67461 12475 83502 10196 20185 48520 60014 8557/
                   333 10257 20173 58001 85619 88461=

################################################################################
#  SYNOPS from 67475, Kasama (Zambia) | 10-13S | 031-08E | 1382 m
################################################################################
200903030600 AAXX 03064 67475 32480 40905 10227 20188 48520 81102
                   333 10276 20169 59016 81810 84080=
200903020600 AAXX 02064 67475 12480 70000 10187 20170 48524 60244 8267/
                   333 10274 20155 58001 82709 87460=
200902230900 AAXX 23094 67475 42580 72310 10211 20174 48514 875//
                   333 58013 87625=
200902190600 AAXX 19064 67475 12580 60905 10220 20180 48497 60234 85532
                   333 20180 555 10281 59013 85620 85360 83080
                   91017=
200902160900 AAXX 16094 67475 42680 50915 10254 20164 48503 85200
                   333 59013 85838 91018=
200902160600 AAXX 16064 67475 32580 30804 10212 20177 48510 83101
                   333 10285 20144 59016 83820 82080=
200902110900 AAXX 11094 67475 42680 73210 10236 20182 48535 8523/
                   333 59011 85840 87361=
200902100900 AAXX 10094 67475 41580 73608 10212 20173 48544 72066 8357/
                   333 58025 83620 87460=
200902100600 AAXX 10064 67475 11970 83605 10176 20174 48540 60164 76166 8807/
                   333 10240 20162 58015 88460=
200902091200 AAXX 09124 67475 41475 70705 10195 20186 48498 76166 8357/
                   333 58022 83610 87460=
200902090600 AAXX 09064 67475 11480 83608 10276 20176 48521 60164 72166 885//
                   333 10263 20150 58018 88610=
200902030600 AAXX 03064 67475 12480 73305 10188 20177 48523 60114 8153/
                   333 10283 20170 59005 81610 87360=
200902020600 AAXX 02064 67475 12480 73608 10216 20173 48530 60014 8158/
                   333 10252 20163 59001 81615 87360=

################################################################################
#  SYNOPS from 67477, Mpika (Zambia) | 11-54S | 031-26E | 1400 m
################################################################################
200903030600 AAXX 03064 67477 32480 31302 10221 20188 48521 81181
                   333 10275 20170 59016 81817 81361 81080=
200903020600 AAXX 02064 67477 11980 80000 10180 20171 48533 60014 76066 8807/
                   333 10268 20165 58001 82709 87460=
200902230900 AAXX 23094 67477 41580 72102 10222 20181 48508 72162 86231
                   333 5//// 86820 81361 82080=
200902190600 AAXX 19064 67477 32480 60606 10215 20174 48501 84181
                   333 20154 555 10263 59011 84815 81361 81080=
200902170600 AAXX 17064 67477 12480 61207 10206 20170 48510 69904 86108
                   333 10265 20151 58000 86815 86280=
200902160600 AAXX 16064 67477 32480 21509 10210 20163 48510 82100
                   333 10260 20147 59015 82816=
200902110600 AAXX 11064 67477 12380 83502 10186 20178 48535 60074 76062 8577/
                   333 10234 20160 58005 85706 88360=
200902090600 AAXX 09064 67477 32480 70902 10197 20178 48525 875//
                   333 10249 20171 58018 87610=
200902030600 AAXX 03064 67477 11280 82703 10178 20175 48524 60014 72162 8577/
                   333 10260 20150 59003 85703 88460=
200902020600 AAXX 02064 67477 12480 70000 10194 20181 48527 60034 8157/
                   333 10253 20146 58001 81610 87360=

################################################################################
#  SYNOPS from 67481, Isoka (Zambia) | 10-07S | 032-38E | 1360 m
################################################################################
200902090600 AAXX 09064 67481 12480 73602 10182 20161 48538
                   333 10265 20163 5//// 84612 85361 86280=

################################################################################
#  SYNOPS from 67531, Zambezi (Zambia) | 13-32S | 023-07E | 1077 m
################################################################################
200903030600 AAXX 03064 67531 11365 80000 10197 20194 48/// 69904 79599 8477/
                   333 10311 20195 84706 819// 88459=
200903020600 AAXX 02064 67531 11980 80000 10180 20171 48533 60014 76066 8807/
                   333 10246 20186 59010 87460=
200902250900 AAXX 25094 67531 42580 70902 10250 20191 48/// 8117/
                   333 58011 82825 87460=
200902190600 AAXX 19064 67531 12480 21703 10220 20192 48/// 60024 82130
                   333 20176 555 10286 59027 82814 81363=
200902160600 AAXX 16064 67531 32980 20906 10235 20191 48/// 82030
                   333 10311 20175 59015 82360=
200902110600 AAXX 11064 67531 11380 70000 10205 20197 48/// 60214 70362 8167/
                   333 10290 20185 58002 81707 87460=
200902100900 AAXX 10094 67531 42580 53601 10255 20194 48/// 83130
                   333 58012 83826 83362=
200902100600 AAXX 10064 67531 11480 60302 10205 20189 48/// 60084 76022 81170
                   333 10303 20187 58008 81810 86460=
200902090600 AAXX 09064 67531 11480 30000 10230 20202 48/// 60064 70198 81130
                   333 10310 20190 5//// 81811 83360=
200902030600 AAXX 03064 67531 11380 81502 10197 20186 48/// 69924 72992 8767/
                   333 10280 20186 5//// 87707 88460=
200902020900 AAXX 02094 67531 42580 70604 10250 20194 48/// 85130
                   333 5//// 85820 83361=
200902020600 AAXX 02064 67531 11308 70904 10206 20196 48/// 60084 75055 8277/
                   333 10270 20187 5//// 82706 87460=

################################################################################
#  SYNOPS from 67551, Solwezi (Zambia) | 12-11S | 026-23E | 1386 m
################################################################################
200903030600 AAXX 03064 67551 12980 40000 10190 20174 48510 60054 80001
                   333 10294 20160 59016 84080=
200902250900 AAXX 25094 67551 42580 70402 10220 20179 48504 8523/
                   333 59011 85820 86362=
200902231200 AAXX 23124 67551 41680 70000 10223 20288 48485 78082 85230
                   333 59011 85840 84362 91015=
200902230900 AAXX 23094 67551 42580 60000 10235 20174 48499 82320
                   333 59003 82825 85360=
200902100600 AAXX 10064 67551 11670 70000 10181 20178 48515 60014 76062 8417/
                   333 10281 20165 58007 84845 87362=
200902090600 AAXX 09064 67551 32980 50000 10190 20178 48518 85030
                   333 10280 20148 58004 85360=
200902020600 AAXX 02064 67551 12980 70000 10181 20172 48519 60014 8707/
                   333 10269 20164 58011 87362=

################################################################################
#  SYNOPS from 67561, Ndola (Zambia) | 13-00S | 028-39E | 1269 m
################################################################################
200903030600 AAXX 03064 67561 11370 70000 10196 20182 48524 60084 70562 81630
                   333 10294 20174 59005 81708 87360=
200903020600 AAXX 02064 67561 11360 70000 10188 20177 48528 60024 70522 83638
                   333 1028/ 20175 59004 83707 85360 86280=
200902250600 AAXX 25064 67561 11257 81807 10177 20168 48527 60024 76162 8377/
                   333 10266 20174 58019 83705 88459=
200902240600 AAXX 24064 67561 31460 70000 10210 20194 48511 70522 83132
                   333 10266 20176 58005 83810 85560 86280=
200902230900 AAXX 23094 67561 42580 71203 10246 20182 48510 84238
                   333 58008 84820 83360 85280=
200902230600 AAXX 23064 67561 12980 70000 10190 20173 48504 60144 86038
                   333 10282 20171 58000 86360 87280=
200902190600 AAXX 19064 67561 11470 70000 10197 20187 48501 60034 72164 81588
                   333 20169 555 10289 59009 81611 86358 87280
                   91017=
200902170600 AAXX 17064 67561 31960 21805 10214 20180 48506 70511 80002
                   333 10293 20158 59002 82080=
200902160600 AAXX 16064 67561 31980 70000 10194 20173 48507 70522 84038
                   333 10293 20155 59024 84360 86280=
200902110900 AAXX 11094 67561 41460 70000 10219 20189 48528 70522 85278
                   333 59002 85815 85459 87280=
200902110600 AAXX 11064 67561 11960 82503 10200 20183 48533 60044 72022 8707/
                   333 10277 20182 58006 88459=
200902100600 AAXX 10064 67561 11360 70000 10200 20187 48527 60034 70522 85278
                   333 10283 20180 58016 85709 86360 85280=
200902090600 AAXX 09064 67561 31380 50000 10175 20164 48511 70522 83632
                   333 10280 20150 5//// 83609 84360 82080=
200902041500 AAXX 04154 67561 42680 70000 10245 20190 48481 85238
                   333 59009 81950 85850 83360 85280=
200902040600 AAXX 04064 67561 11357 70000 10190 20182 48524 60404 70422 8567/
                   333 10270 20173 58001 85705 88459=
200902030600 AAXX 03064 67561 11460 70403 10192 20178 48518 60124 70522 8553/
                   333 10281 20177 59005 85611 86360=
200902020900 AAXX 02094 67561 41560 70000 10247 20182 48517 70522 86231
                   333 58000 82360 82080=
200902020600 AAXX 02064 67561 11460 70402 10198 20181 48523 60344 70522 86538
                   333 10273 20174 58002 86610 86359 86280=

################################################################################
#  SYNOPS from 67580, Msekera (Zambia) | 13-39S | 032-34E | 1025 m
################################################################################
200903030600 AAXX 03064 67580 32980 40000 10238 20198 48/// 82031
                   333 10276 20197 59008 82361 82080=
200902250900 AAXX 25094 67580 41680 71204 10240 20214 48/// 78022 84238
                   333 58012 84830 81360 86280=
200902230900 AAXX 23094 67580 41480 70000 10239 20206 48/// 71562 8323/
                   333 58017 83825 85360=
200902110600 AAXX 11064 67580 11475 80000 10207 20195 48/// 60454 71522 8657/
                   333 10241 20174 58001 86614 87460=
200902100600 AAXX 10064 67580 11475 70306 10220 20195 48/// 60164 71522 875//
                   333 10282 20193 58003 87614=
200902090600 AAXX 09064 67580 32480 71405 10215 20186 48/// 82532
                   333 10283 20184 58015 82618 85360 82080=

################################################################################
#  SYNOPS from 67581, Chipata (Zambia) | 13-33S | 032-35E | 1028 m
################################################################################
200903030600 AAXX 03064 67581 12580 42603 10238 20196 48533 60404 81130
                   333 10282 20192 59011 81325 83360=
200903020600 AAXX 02064 67581 12584 80000 10210 20186 48538 60034 8117/
                   333 10298 20188 58004 81825 88460=
200902240600 AAXX 24064 67581 12680 70702 10230 20185 48520 60074 81138
                   333 10271 20199 58004 81830 85361 87280=
200902230900 AAXX 23094 67581 41450 70404 10216 20194 48512 8277/
                   333 58009 82710 84832 87459=
200902170600 AAXX 17064 67581 32680 30504 10251 20188 48522 81160
                   333 10285 20194 58000 81833 83360=
200902160600 AAXX 16064 67581 32480 30906 10246 20185 48522 82130
                   333 10295 20195 59001 82820 81360=
200902110600 AAXX 11064 67581 11380 83606 10200 20192 48534 60924 70288 8277/
                   333 10247 20172 58002 82706 87459=
200902100600 AAXX 10064 67581 12580 70806 10215 20194 48537 60454 8657/
                   333 10290 20196 58003 86620 87460=
200902090600 AAXX 09064 67581 32680 60902 10230 20190 48537 83232
                   333 10282 20190 58016 83830 82360 82080=
200902020600 AAXX 02064 67581 12580 60000 10223 20197 48535 60444 82132
                   333 10290 20172 58008 82820 86360 82080=

################################################################################
#  SYNOPS from 67583, Lundazi (Zambia) | 12-17S | 033-12E | 1143 m
################################################################################
200903030600 AAXX 03064 67583 32980 71202 10218 20184 48/// 81037
                   333 10291 20169 5//// 81360 87280=
200902110900 AAXX 11094 67583 41470 83604 10191 20181 48/// 76162 8277/
                   333 59002 82710 88460=
200902110600 AAXX 11064 67583 11460 80103 10189 20184 48/// 60144 76162 8377/
                   333 10277 20177 58002 82709 88460=
200902100600 AAXX 10064 67583 11460 83604 10192 20183 60334 76362 8177/
                   333 10263 20185 58013 81710 88460=
200902090600 AAXX 09064 67583 11580 71501 10209 20182 48/// 69904 81530
                   333 10280 20184 58015 81625 87360=

################################################################################
#  SYNOPS from 67599, Mfuwe (Zambia) | 13-16S | 031-56E | 568 m
################################################################################
200903030600 AAXX 03064 67599 32470 20000 10250 20222 48539 82100
                   333 10314 20/// 59017 82812=
200903020600 AAXX 02064 67599 32380 70000 10225 20211 48544 8477/
                   333 10326 20//0 58005 84709 87460=
200902250900 AAXX 25094 67599 42680 61205 10289 20228 48552 84238
                   333 58010 81930 84835 83360 86280=
200902240900 AAXX 24094 67599 42680 60000 10300 20215 48546 83232
                   333 58009 83835 84360 85080=
200902231200 AAXX 23124 67599 42780 80000 10329 20232 48509 84237
                   333 59003 84850 83360 88280 91011=
200902230600 AAXX 23064 67599 32980 70000 10240 20220 48523 84082
                   333 10337 20//0 58000 84360 86080=
200902220900 AAXX 22094 67599 42560 40906 10290 20219 48531 70222 85200
                   333 59017 85825 91015=
200902161200 AAXX 16124 67599 42680 60403 10325 20222 48520 71792 829//
                   333 59023 829// 86840 91012=
200902110900 AAXX 11094 67599 41459 83606 10239 20212 48550 71622 8657/
                   333 58005 86615 88459=
200902110600 AAXX 11064 67599 11359 80000 10220 20205 48546 60064 75052 8377/
                   333 10302 20//0 58006 83708 88459=
200902101200 AAXX 10124 67599 41360 70104 10293 20219 48535 71722 829//
                   333 58006 82925 87828 91015=
200902100600 AAXX 10064 67599 12359 80603 10238 20219 48547 60134 8777/
                   333 10299 20/// 58002 87706 88460=
200902091200 AAXX 09124 67599 42560 81003 10273 20218 48524 71522 8197/
                   333 59015 81920 87825 88360=
200902030600 AAXX 03064 67599 12960 80000 10233 20216 48532 60034 8807/
                   333 10365 20/// 58003 88360=
200902020600 AAXX 02064 67599 32980 70000 10230 20216 48541 8707/
                   333 10325 20/// 58005 87460=

################################################################################
#  SYNOPS from 67633, Mongu (Zambia) | 15-15S | 023-09E | 1052 m
################################################################################
200903030600 AAXX 03064 67633 11982 70206 10228 20198 48506 69904 71562 8708/
                   333 10296 20213 59004 87360=
200903020600 AAXX 02064 67633 12982 30902 10225 20196 48520 69904 83032
                   333 10280 20189 59001 83361 83080=
200902251200 AAXX 25124 67633 41682 60000 10218 20202 48495 79598 84232
                   333 58012 81930 83830 82361 83080=
200902250900 AAXX 25094 67633 42682 60116 10272 20182 48529 83232
                   333 58015 83830 84360 83080=
200902240600 AAXX 24064 67633 12580 30904 10220 20198 48500 60044 82330
                   333 10290 20200 58003 82620=
200902230900 AAXX 23094 67633 42680 60904 10260 20195 48521 84230
                   333 59001 84830 86360=
200902190600 AAXX 19064 67633 12982 20000 10224 20191 48492 60014 82030
                   333 20183 555 10280 59028 82360 91015=
200902170600 AAXX 17064 67633 12580 73603 10224 20212 48506 60454 82538
                   333 10303 20185 58005 82620 84360 87280=
200902160600 AAXX 16064 67633 32980 40000 10237 20199 48503 84032
                   333 10300 20204 59001 84360 82080=
200902110600 AAXX 11064 67633 11682 61802 10225 20194 48509 60024 71799 81930
                   333 10303 20205 59021 81930 82830 86361=
200902101200 AAXX 10124 67633 42680 53301 10248 20198 48522 82232
                   333 58024 81930 81830 83360 83080 91018=
200902100900 AAXX 10094 67633 41680 63604 10193 20182 48530 79599 81930
                   333 58016 81930 83360=
200902100600 AAXX 10064 67633 11582 71804 10197 20183 48523 75055 85530
                   333 10300 20190 58007 85620 81925 86360=
200902091200 AAXX 09124 67633 41782 63611 10285 20189 48505 71799 85232
                   333 59004 81950 84850 82361 82080=
200902090600 AAXX 09064 67633 12982 30904 10230 20188 48523 60144 83032
                   333 10300 20205 58008 83361 81080=
200902041200 AAXX 04124 67633 42682 63503 10257 20198 48491 83238
                   333 59012 81930 82830 81360 86280=
200902040900 AAXX 04094 67633 41680 80000 10223 20208 48512 76066 8557/
                   333 59004 85630 87260=
200902040600 AAXX 04064 67633 11975 80000 10196 20189 48509 60134 76266 8707/
                   333 10285 20167 59002 88460=
200902030600 AAXX 03064 67633 11980 73602 10200 20188 48512 60074 76066 8702/
                   333 10300 20185 58004 87460=
200902020900 AAXX 02094 67633 42682 50503 10270 20204 48514 83230
                   333 58003 83830 85362=
200902020600 AAXX 02064 67633 12982 70902 10225 20203 48513 60014 8707/
                   333 10286 20195 58007 87461=

################################################################################
#  SYNOPS from 67641, Kaoma (Zambia) | 14-48S | 024-48E | 1213 m
################################################################################
200902170600 AAXX 17064 67641 12980 50802 10219 20192 48493 69944 82032
                   333 10325 20190 59006 82360 83080=
200902160600 AAXX 16064 67641 32980 41201 10206 20189 48488 84032
                   333 10299 20184 59006 84360 81080=
200902100600 AAXX 10064 67641 12982 20901 10221 20188 48514 69904 82080
                   333 10315 20187 58004 82360=
200902090600 AAXX 09064 67641 32980 10701 10226 20189 48512 81032
                   333 10320 20175 58008 81360 81080=
200902030600 AAXX 03064 67641 12682 72604 10200 20187 48504 60014 85530
                   333 10296 20195 58002 85630 86360=
200902020600 AAXX 02064 67641 12682 50802 10220 20198 48504 60144 82530
                   333 10306 20190 58000 82630 83361=

################################################################################
#  SYNOPS from 67655, Mumbwa (Zambia) | 15-04S | 027-11E | 1216 m
################################################################################
200903030600 AAXX 03064 67655 12480 60805 10210 20188 48535 60064 865//
                   333 10235 20/// 59006 86610=
200902230600 AAXX 23064 67655 12780 63602 10200 20169 48550 60084 85071
                   333 10282 20170 59007 85360 84080=
200902180600 AAXX 18064 67655 32380 40904 10211 20187 48530 81531
                   333 10295 20168 58010 81609 81358 83076=
200902110600 AAXX 11064 67655 32780 40302 10204 20173 48545 81031
                   333 10286 20178 58005 81360 83076=
200902100600 AAXX 10064 67655 32380 53005 10192 20179 48540 82601
                   333 10275 20160 58000 82710 84076=

################################################################################
#  SYNOPS from 67659, Kafue Polder (Zambia) | 15-46S | 027-55E | 978 m
################################################################################
200902250900 AAXX 25094 67659 42580 70808 10264 20191 48/// 8457/
                   333 58016 84620 86460=
200902230900 AAXX 23094 67659 42680 50302 10280 20192 48/// 83232
                   333 5//// 83830 82360 81080=

################################################################################
#  SYNOPS from 67663, Kabwe (Zambia) | 14-27S | 028-28E | 1206 m
################################################################################
200903030600 AAXX 03064 67663 12480 70201 10204 20182 48501 69904 8453/
                   333 10276 20181 59010 84610 86360=
200903020600 AAXX 02064 67663 12980 70803 10205 20198 48526 60104 8707/
                   333 10240 20189 59010 87430=
200902240600 AAXX 24064 67663 32480 70903 10201 20192 48496 83538
                   333 10287 20180 58003 83618 82360 87280=
200902161200 AAXX 16124 67663 41680 63302 10297 20195 48486 71799 86230
                   333 59016 81935 85840 82360 91012=
200902160600 AAXX 16064 67663 32480 31204 10217 20194 48496 81532
                   333 10280 20175 59023 81618 81360 83080=
200902100600 AAXX 10064 67663 32380 40902 10200 20187 48525 84732
                   333 10267 20164 59004 84709 82360 81080=
200902090600 AAXX 09064 67663 31380 70604 10194 20198 48257 72842 877//
                   333 10268 20166 58016 87708=
200902030600 AAXX 03064 67663 32980 30903 10209 20187 48504 60014 85530
                   333 10296 20195 58002 85630 86360=
200902020600 AAXX 02064 67663 32480 40802 10207 20179 48503 83532
                   333 10284 20173 58001 83615 83360 82080=

################################################################################
#  SYNOPS from 67665, Lusaka Internationalairport (Zambia) | 15-19S | 028-27E | 1152 m
################################################################################
200903030600 AAXX 03064 67665 32359 73604 10201 20187 48528 876//
                   333 10289 20182 59008 87708=
200903021500 AAXX 02154 67665 41380 70803 10235 20179 48539 71792 8163/
                   333 58034 81610 81945 82850 86360
                   555 10289=
200903021200 AAXX 02124 67665 42680 60905 10275 20198 48515 85230
                   333 59007 85840 82360 84080=
200903020900 AAXX 02094 67665 42580 60405 10256 20197 48540 85232
                   333 59006 85828 82360 83080=
200903020600 AAXX 02064 67665 12980 50000 10219 20191 48539 69964 85030
                   333 10288 20184 58001 85360=
200903010900 AAXX 01094 67665 32680 71309 10255 20178 48546 71522 84202
                   333 58010 84825 86080 91021=
200903010600 AAXX 01064 67665 32480 70000 10205 20196 48537 81632
                   333 10290 20179 58002 81707 84360 86080
                   555 00/// 91020=
200903010400 AAXX 01044 67665 42460 60000 10//0 20//0 48/// 81632
                   333 59001 81608 83360 86080 90192=
200902282100 AAXX 28214 67665 42760 60000 10//0 20//0 48/// 81932
                   333 58008 81950 91019=
200902281800 AAXX 28184 67665 41760 60000 10207 20//0 48511 71322 81933
                   333 10290 58003 81950 83360 86080=
200902281500 AAXX 28154 67665 41760 60307 10250 20194 48493 72922 81933
                   333 58006 81948 85856=
200902280600 AAXX 28064 67665 32480 62904 10197 20177 48532 81632
                   333 10284 20188 58013 81612 85360 84078=
200902280400 AAXX 28044 67665 42380 62704 10195 20187 48521 83630
                   333 58016 83707 86360=
200902280300 AAXX 28034 67665 42480 60000 10//0 20//0 48/// 81530
                   333 58013 81610 86360=
200902272100 AAXX 27214 67665 41775 10000 10//0 20//0 48/// 81930
                   333 58008 81950 81360=
200902271800 AAXX 27184 67665 41775 40000 10216 20//0 45030 71322 81933
                   333 58006 81950 81360 83080=
200902271200 AAXX 27124 67665 42680 61004 10281 20168 48499 70222 86200
                   333 59017 86843=
200902270900 AAXX 27094 67665 42680 50403 10256 20194 48528 85200
                   333 59010 85830=
200902270600 AAXX 27064 67665 12980 20000 10205 20190 48522 60034 81031
                   333 10300 20179 59006 81360 82080=
200902270400 AAXX 27044 67665 42980 10000 10//0 20//0 48/// 81081
                   333 59002 81959 81360 81080=
200902270300 AAXX 27034 67665 42980 00000 10//0 20//0 48///
                   333 59002=
200902270000 AAXX 27004 67665 42980 00000 10//0 20//0 48///
                   333 59005=
200902262100 AAXX 26214 67665 42980 00000 10//0 20//0 48///
                   333 59019=
200902261800 AAXX 26184 67665 42780 30000 10212 20//0 48498 81932
                   333 10270 59016 81956 81360 81080=
200902261200 AAXX 26124 67665 42680 60605 10268 20183 48515 86230
                   333 59009 86840 81360=
200902260900 AAXX 26094 67665 42580 70508 10245 20187 48537 85830
                   333 59007 82825 84627 84360=
200902260600 AAXX 26064 67665 12480 70604 10208 20191 48528 69944 83530
                   333 10265 20179 59014 83610 87360=
200902251800 AAXX 25184 67665 42880 10000 10203 20//0 48512 81030
                   333 10265 58002 81360=
200902251500 AAXX 25154 67665 42680 60908 10240 20188 48502 82132
                   333 58009 83360 86280=
200902251200 AAXX 25124 67665 42680 50410 10255 20183 48522 84232
                   333 58014 84830 83360 84080=
200902250900 AAXX 25094 67665 41460 60511 10230 20186 48541 72056 85530
                   333 58013 85615 84360=
200902250600 AAXX 25064 67665 11360 80904 10181 20180 48537 60144 76166 8277/
                   333 10270 20180 58022 82708 88459=
200902250400 AAXX 25044 67665 41356 70912 10184 20184 48519 76166 8467/
                   333 58021 84706 88459=
200902250300 AAXX 25034 67665 41356 70905 10187 20187 48517 76162 8467/
                   333 58013 84705 87459=
200902242100 AAXX 24214 67665 41760 40000 10//0 20//0 48/// 71322 81930
                   333 59014 81950 84360=
200902241800 AAXX 24184 67665 41760 71004 10199 20//0 48510 72999 81930
                   333 10270 58015 81950 87360=
200902241500 AAXX 24154 67665 41660 71309 10214 20200 48491 71798 8193/
                   333 58008 81940 87360=
200902241200 AAXX 24124 67665 41560 61403 10221 20190 48504 79596 85232
                   333 58011 81925 84925 84360 81080=
200902240900 AAXX 24094 67665 41580 73605 10247 20182 48531 71522 86201
                   333 58009 86820 81080=
200902240600 AAXX 24064 67665 32380 70904 10196 20186 48519 81532
                   333 10297 20175 58003 81709 82360 86280=
200902231800 AAXX 23184 67665 42980 10903 10212 20//0 48497 81031
                   333 10299 59001 81360 81080=
200902231500 AAXX 23154 67665 42780 70809 10244 20181 48586 70322 82238
                   333 58003 81945 82850 85360 86080
                   555 10299=
200902231200 AAXX 23124 67665 42680 50506 10285 20174 48501 85201
                   333 58002 85840 82000 91015=
200902230900 AAXX 23094 67665 42580 50707 10256 20174 48523 84231
                   333 58002 84825 82360 81080=
200902230600 AAXX 23064 67665 31359 40000 10210 20187 48517 74044 81730
                   333 10280 20180 58000 81708 83360 91018=
200902221200 AAXX 22124 67665 42680 60506 10266 20166 48501 85230
                   333 59024 85835 84360 91015=
200902220900 AAXX 22094 67665 42580 60605 10249 20183 48520 70322 84830
                   333 82618 82820 85360 91018=
200902220600 AAXX 22064 67665 11360 60000 10185 20181 48515 60024 72522 82630
                   333 10266 20180 59020 82706 85360
                   555 91018=
200902220400 AAXX 22041 67665 42360 70000 10//0 20//0 48/// 70222 85530
                   333 59013 81606 86360 91017=
200902212100 AAXX 21211 67665 42720 60000 10//0 20//0 48/// 81930
                   333 59010 819// 85605 84360 91018=
200902211800 AAXX 21184 67665 42780 40000 10201 20//0 48506 70122 81930
                   333 10266 58008 81940 84360=
200902211500 AAXX 21154 67665 41680 70504 10206 20189 48507 72962 81930
                   333 58013 81935 84845 85360
                   555 10266=
200902211200 AAXX 21124 67665 41680 70705 10209 20193 48571 72922 8193/
                   333 58013 81932 84835 86360 91018=
200902210600 AAXX 21064 67665 32480 73603 10201 20168 48535 84530
                   333 10298 20177 58004 84615 86360=
200902210400 AAXX 21044 67665 42980 60903 10175 20167 48517 86030
                   333 58012 86360=
200902210300 AAXX 21034 67665 42980 50000 10//0 20//0 48/// 85030
                   333 58011 85360=
200902202100 AAXX 20214 67665 42980 11104 10193 20//0 48521 81030
                   333 58015 81360=
200902201200 AAXX 20124 67665 41675 60604 10266 20175 48510 72922 83930
                   333 58013 82935 82837 85080=
200902200900 AAXX 20094 67665 42580 50305 10243 20172 48537 85201
                   333 58024 85825 83080=
200902200600 AAXX 20064 67665 32480 70603 10192 20180 48530 86530
                   333 10292 20168 58017 85510 83360=
200902200400 AAXX 20044 67665 42480 10000 10//0 20//0 48/// 81631
                   333 59001 81610 81360 81080=
200902200300 AAXX 20034 67665 42980 10000 10//0 20//0 48/// 81030
                   333 58000 81360=
200902192100 AAXX 19214 67665 41980 10000 10//0 20//0 48/// 71321 81931
                   333 59010 81959 81360 81080=
200902191200 AAXX 19124 67665 42680 60305 10270 20189 48499 86200
                   333 59012 86840=
200902190900 AAXX 19094 67665 42580 60410 10252 20184 48515 85232
                   333 59016 85625 83828 81360 83080 91017=
200902190600 AAXX 19064 67665 32480 50863 10213 20191 48516 83532
                   333 10226 20172 59013 83618 81360 86280 91018=
200902181500 AAXX 18154 67665 42660 61806 10219 20187 48488 70222 82232
                   333 59008 82835 83360 85080
                   555 10269 91015=
200902180900 AAXX 18094 67665 42580 70809 10255 20185 48531 85832
                   333 58000 84820 82622 81080=
200902180600 AAXX 18064 67665 32480 70709 10210 20194 48529 82532
                   333 10284 20179 58007 82610 86360 82080=
200902180400 AAXX 18044 67665 42380 50804 10//0 20//0 48/// 70122 81632
                   333 58008 81705 84360 85080=
200902180300 AAXX 18034 67665 42980 30000 10//0 20//0 48/// 70222 83030
                   333 58010 83360=
200902172100 AAXX 17214 67665 42980 40000 10//0 20//0 48/// 82032
                   333 58006 82360 82080=
200902171500 AAXX 17154 67665 42780 71008 10234 20183 48497 81932
                   333 58015 81956 81856 83360 86080=
200902170900 AAXX 17094 67665 42680 60409 10257 20183 48532 86230
                   333 58011 86830 82360 91019=
200902170600 AAXX 17064 67665 32580 30903 10225 20188 48524 81130
                   333 10295 20180 58000 81820 82360 91019=
200902161500 AAXX 16154 67665 42780 60305 10266 20163 48487 70122 82238
                   333 59020 81945 82850 81360 85080
                   555 10295=
200902161200 AAXX 16124 67665 42680 40807 10282 20163 48507 84230
                   333 59016 84840 81360 91016=
200902160900 AAXX 16094 67665 42580 40311 10261 20179 48521 84100
                   333 59024 84828 91018=
200902160600 AAXX 16064 67665 12980 20905 10220 20183 48523 60024 81031
                   333 10286 20170 59019 81360 82080 91019=
200902151200 AAXX 15124 67665 42680 60907 10274 20187 48522 85232
                   333 58014 85830 84360 82080 91018=
200902150900 AAXX 15094 67665 42580 70705 10249 20199 48544 83230
                   333 58013 83820 85360 91021=
200902150600 AAXX 15064 67665 12480 70000 10195 20182 48539 60054 8253/
                   333 10286 20179 58012 82710 87360
                   555 00/// 91021=
200902150400 AAXX 15044 67665 42360 70000 10//0 20//0 48/// 70222 8253/
                   333 58020 82615 86360 91019=
200902150300 AAXX 15034 67665 42360 70000 10//0 20//0 48/// 70222 8353/
                   333 58021 83606 86360 91019=
200902142100 AAXX 14214 67665 41558 70503 10//0 20//0 48/// 76166 84931
                   333 58033 83622 81930 86360 91021=
200902140600 AAXX 14064 67665 12370 73602 10202 20187 48525 60024 81630
                   333 10260 20184 58004 81709 87360=
200902140400 AAXX 14044 67665 42980 70904 10//0 20//0 48/// 87030
                   333 59015 87360=
200902140300 AAXX 14034 67665 41980 60000 10//0 20//0 48/// 72166 86030
                   333 59014 86360=
200902132100 AAXX 13214 67665 42980 31203 10195 20//0 48511 83030
                   333 59009 83360=
200902131500 AAXX 13154 67665 42680 60710 10227 20166 48493 84860
                   333 10250 59015 83840 85360 91015=
200902131200 AAXX 13124 67665 42680 60909 10225 20163 48513 70222 86800
                   333 59007 84628 85830 91017=
200902130900 AAXX 13094 67665 42580 70508 10216 20177 48531 878//
                   333 59007 83625 86828=
200902130600 AAXX 13064 67665 32480 30607 10200 20174 48530 82530
                   333 10272 20167 59006 82615 81360=
200902121500 AAXX 12154 67665 42680 41011 10260 20162 48511 82231
                   333 59002 81945 81845 83080=
200902121200 AAXX 12124 67665 42680 50910 10256 20200 48523 85230
                   333 58003 85830 81360=
200902120900 AAXX 12094 67665 42480 60708 10235 20193 48540 72522 86200
                   333 59001 84610 85812 91020=
200902120600 AAXX 12064 67665 32380 61202 10208 20191 48538 70222 85281
                   333 10244 20168 59005 84608 82810 82360 82080
                   91020=
200902111800 AAXX 11184 67665 42980 50000 10214 20//0 48528 81932
                   333 10289 58000 81959 85360 84080=
200902111500 AAXX 11154 67665 41780 70603 10234 20183 48510 71722 81932
                   333 81950 85850 83359 84080=
200902111200 AAXX 11124 67665 42680 50606 10271 20179 48522 85200
                   333 59007 85840=
200902110900 AAXX 11094 67665 42580 50806 10246 20181 48543 85202
                   333 59002 85825 81080=
200902110600 AAXX 11064 67665 31480 30304 10213 20191 48542 72844 82232
                   333 10289 20180 59003 82810 81360 81080=
200902110400 AAXX 11044 67665 42980 50000 10172 20//0 48514 82032
                   333 59001 83360 83080=
200902110300 AAXX 11034 67665 42980 40000 10//0 20//0 48/// 82032
                   333 59001 82360 82080=
200902110000 AAXX 11004 67665 42980 40000 10//0 20//0 48/// 82032
                   333 59002 82360 82080=
200902102100 AAXX 10214 67665 42780 50000 10/// 20/// 48/// 81932
                   333 58000 81950 84360 83080=
200902101200 AAXX 10124 67665 42680 51006 10266 20163 48528 85200
                   333 58003 85840 91019=
200902100900 AAXX 10094 67665 42580 60609 10242 20170 48543 86100
                   333 59003 86825=
200902100600 AAXX 10064 67665 32380 20000 10204 20180 48538 81130
                   333 10272 20162 59001 81810 81360=
200902091800 AAXX 09184 67665 42980 10000 10201 20//0 48519 80001
                   333 10272 58013 81080=
200902091500 AAXX 09154 67665 42680 41208 10250 20183 48510 82230
                   333 58008 82840 84360=
200902091200 AAXX 09124 67665 42680 50306 10258 20169 48524 85200
                   333 58012 85830=
200902090600 AAXX 09064 67665 12480 40910 10199 20178 48539 69974 84530
                   333 10256 20165 58014 84612 81360=
200902081500 AAXX 08154 67665 41680 70405 10214 20168 48498 78022 81938
                   333 59001 81935 84845 82360 84080=
200902081200 AAXX 08124 67665 41660 70507 10255 48512 78022 86800
                   333 59007 83628 83830 91017=
200902080600 AAXX 08064 67665 12480 70708 10196 20178 48526 60044 8753/
                   333 10272 20168 59007 87610 83360 91019=
200902080400 AAXX 08044 67665 42480 80000 10//0 20//0 48/// 83032
                   333 59017 82608 83360 88080 91010=
200902080000 AAXX 08004 67665 42/80 60000 10//0 20//0 48/// 70222
                   333 59016 83610 83310 82080=
200902071800 AAXX 07184 67665 42/80 41003 10192 20//0 48/// 81930
                   333 10272 59015 819// 82360 83080=
200902071500 AAXX 07154 67665 41658 50707 10258 20258 48502 81930
                   333 59010 81940 84845 82360
                   555 10272 91016=
200902071200 AAXX 07124 67665 42680 50709 10258 20161 48518 85200
                   333 59009 85835 91018=
200902070600 AAXX 07064 67665 12370 61106 10199 20172 48531 60044 82630
                   333 10278 20183 59009 82708 85360=
200902070400 AAXX 07044 67665 42460 50904 10//0 20//0 48/// 82530
                   333 59007 82610 84360=
200902070300 AAXX 07034 67665 42460 70705 10//0 20//0 48/// 81530
                   333 59005 81610 87360=
200902062100 AAXX 06214 67665 41780 60802 10194 20//0 48526 71322 81930
                   333 59007 81950 85360=
200902061200 AAXX 06124 67665 42680 61211 10262 20156 48528 70222 86200
                   333 58003 86835 91019=
200902060900 AAXX 06094 67665 42580 60607 10234 20183 48548 86200
                   333 58010 86828=
200902060400 AAXX 06044 67665 42380 50000 10//0 20//0 48/// 85501
                   333 58017 85606 82080=
200902060300 AAXX 06034 67665 42380 60000 10//0 20//0 48/// 8553/
                   333 58013 85606 83359=
200902052100 AAXX 05214 67665 42980 70000 10//0 20//0 48/// 8703/
                   333 58007 87360=
200902051800 AAXX 05184 67665 41558 71208 10210 20//0 48525 76122 8197/
                   333 10261 58018 81920 87359=
200902051200 AAXX 05124 67665 41570 60302 10198 20198 48518 76162
                   333 85570 555 58018 85620 86359=
200902050900 AAXX 05094 67665 42460 80909 10216 20189 48537 8753/
                   333 58015 87610 86360 91020=
200902050600 AAXX 05064 67665 32460 70703 10208 20192 48532 8753/
                   333 10235 20196 58007 87610 84360 91020=
200902041500 AAXX 04154 67665 42680 60904 10229 20188 48492 81132
                   333 58001 81845 83360 86280=
200902041200 AAXX 04124 67665 41680 72704 10262 20185 48507 71322 84232
                   333 58004 81935 84835 82360 85280=
200902040900 AAXX 04094 67665 42580 73604 10250 20188 48526 85232
                   333 58002 85825 84360 82080=
200902040600 AAXX 04064 67665 11460 73102 10204 20189 48524 60034 72844 87500
                   333 10280 20190 59001 87610=
200902040400 AAXX 04044 67665 41/59 70000 10203 20/// 48512 74442 81938
                   333 58000 82705 819// 84360 86080=
200902040300 AAXX 04034 67665 42/80 50000 10196 20/// 48508 70222 81930
                   333 59003 819// 85360=
200902040000 AAXX 04004 67665 42/80 50000 10193 20//0 48594 70144 81930
                   333 59012 819// 85360=
200902032100 AAXX 03214 67665 41356 60000 10208 20//0 48515 74462 81930
                   333 59008 82704 81940 85360=
200902031200 AAXX 03124 67665 41680 70506 10256 20194 48503 71792 81932
                   333 59008 81938 85840 83360 86080 91016=
200902030900 AAXX 03094 67665 41580 60000 10250 20192 48524 71322 86280
                   333 59012 86825 82360 81080=
200902030600 AAXX 03064 67665 32375 50000 10210 20198 48526 82631
                   333 10290 20167 58004 82608 83360 84080=
200902021500 AAXX 02154 67665 42760 60405 10265 20174 48513 79592 81932
                   333 59004 81940 85845 81360 83080
                   555 10290=
200902021200 AAXX 02124 67665 42680 60404 10268 20188 48513 85231
                   333 58003 85835 81360 81080
                   555 91017=
200902020900 AAXX 02094 67665 41680 60310 10249 20182 48536 71322 82330
                   333 58009 81920 86820 81360=
200902020600 AAXX 02064 67665 12980 20000 10213 20184 48530 60034 81081
                   333 10278 20172 58003 81960 82360 81080=
200902011200 AAXX 01124 67665 41680 73206 10248 20182 48506 71522 85203
                   333 58012 82930 84835 85080=
200902010900 AAXX 01094 67665 41680 70905 10247 20186 48526 78022 81930
                   333 58004 81920 85825 87360 91019=
200902010600 AAXX 01064 67665 12480 70000 10209 20180 48526 60014 70222 81531
                   333 59001 81615 85360 81080
                   555 00/// 91019=

################################################################################
#  SYNOPS from 67666, Lusaka City Airport (Zambia) | 15-25S | 028-19E | 1280 m
################################################################################
200903030600 AAXX 03064 67666 32480 70610 10210 20189 48518 86531
                   333 10275 20180 59013 86618 87359=
200903020600 AAXX 02064 67666 32480 30000 10220 20183 48531 81131
                   333 10280 20160 58004 81812 83360 81080=
200902250900 AAXX 25094 67666 42580 60509 10231 20185 48538 85801
                   333 58021 85620 83822 83080=
200902230900 AAXX 23094 67666 42680 70707 10250 20166 48510 84137
                   333 58002 84835 81360 87280=
200902220900 AAXX 22094 67666 42580 40810 10243 20169 48497 83230
                   333 59033 83825 84360 91015=
200902180600 AAXX 18064 67666 32380 60912 10205 20190 48515 84631
                   333 10275 20185 58003 84705 85359 81080=
200902161200 AAXX 16124 67666 42680 50908 10272 20138 48502 84230
                   333 59017 84838 81360 91015=
200902110900 AAXX 11094 67666 42480 40909 10250 20174 48533 84801
                   333 58001 81818 83825 81080=
200902110600 AAXX 11064 67666 32480 40909 10220 20190 48532 83530
                   333 10280 20165 58003 83615 82360=
200902101200 AAXX 10124 67666 42680 60909 10250 20165 48512 85231
                   333 58001 85838 81360 81080 91017=
200902100600 AAXX 10064 67666 12480 30909 10210 20171 48529 69904 81131
                   333 10255 20160 58001=
200902040900 AAXX 04094 67666 42580 83203 10233 20185 48511 84238
                   333 58004 81920 84820 84360 85280=
200902030600 AAXX 03064 67666 12480 70502 10203 20186 48514 60114 8653/
                   333 10275 20175 59004 86612 82359=
200902020600 AAXX 02064 67666 12580 30610 10214 20172 48518 60014 81131
                   333 10258 20160 58001 81820 82360 81080=

################################################################################
#  SYNOPS from 67673, Petauke (Zambia) | 14-15S | 031-17E | 1035 m
################################################################################
200902230900 AAXX 23094 67673 42680 60905 10272 20196 48523 86200
                   333 58001 81935 86835=
200902110900 AAXX 11094 67673 42684 71203 10249 20196 48540 83232
                   333 59009 83832 86362 81080=
200902110600 AAXX 11064 67673 12584 70202 10220 20203 48545 60114 8653/
                   333 10257 20190 58002 86620 87362=
200902100600 AAXX 10064 67673 12580 70902 10219 20198 48543 69904 85531
                   333 10289 20189 59002 85625 81360 81080=

################################################################################
#  SYNOPS from 67741, Sesheke (Zambia) | 17-28S | 024-18E | 949 m
################################################################################
200902100600 AAXX 10064 67741 32980 20902 10240 20205 48532 81032
                   333 10321 20185 59002 81361 81080=

################################################################################
#  SYNOPS from 67743, Livingstone (Zambia) | 17-49S | 025-49E | 985 m
################################################################################
200903030600 AAXX 03064 67743 31459 80904 10214 20203 48520 75022 885//
                   333 10290 20200 59009 88610=
200903020600 AAXX 02064 67743 12380 71402 10205 20196 48526 60094 82230
                   333 10320 20185 58004 82810 85360=
200902250600 AAXX 25064 67743 32580 60606 10220 20200 48536 81531
                   333 10310 20190 58013 81625 83360 84080=
200902240600 AAXX 24064 67743 32480 71109 10216 20179 48515 83148
                   333 10315 20190 58005 83819 83620 86280=
200902230600 AAXX 23064 67743 32680 21003 10222 20193 48513 81230
                   333 10315 20180 59005 81830 82360=
200902190600 AAXX 19064 67743 12880 60803 10195 48503 60064 70222 83078
                   333 20170 555 10275 59016 83460 85280 91016=
200902171500 AAXX 17154 67743 41581 60806 10247 20177 48490 72999 83273
                   333 58024 81925 83830 85460 83080=
200902170600 AAXX 17064 67743 12480 61005 10220 20198 48514 60014 8177/
                   333 10320 20206 5//// 81710 83360=
200902160600 AAXX 16064 67743 32980 50803 10240 20204 48516 85840
                   333 10315 20205 59019 85360=
200902121200 AAXX 12124 67743 41480 70806 10209 20200 48529 70286 84832
                   333 58028 83410 82830 82360 83080=
200902111500 AAXX 11154 67743 42780 41204 10310 20165 48497 84160
                   333 59015 84856 82360=
200902111200 AAXX 11124 67743 42780 40604 10311 20157 48520 84100
                   333 59011 84850=
200902110900 AAXX 11094 67743 42680 43004 10285 20180 48540 84100
                   333 59004 84840=
200902110600 AAXX 11064 67743 32980 20707 10235 20191 48533 82030
                   333 10323 20180 58001 82360=
200902100900 AAXX 10094 67743 42680 32605 10280 20174 48540 83130
                   333 59003 83840 81360=
200902100600 AAXX 10064 67743 32980 30804 10232 20175 48532 83030
                   333 10310 20160 59005 83360=
200902090600 AAXX 09064 67743 32980 01005 10218 20190 48525
                   333 10300 20175 58007=
200902041500 AAXX 04154 67743 41680 80802 10248 20195 48473 71722 83332
                   333 59006 81935 82840 83360 85080=
200902041200 AAXX 04124 67743 42680 40605 10291 20193 48501 83201
                   333 59001 82845 82080=
200902030600 AAXX 03064 67743 32980 40906 10226 20195 48/// 81032
                   333 10300 20190 59009 81362 84080=
200902020900 AAXX 02094 67743 42680 50507 10260 20178 48524 83130
                   333 58006 83830 85360=
200902020600 AAXX 02064 67743 12480 60905 10210 20194 48523 60064 83530
                   333 10280 20186 59001 83612 85360=

################################################################################
#  SYNOPS from 67751, Magoye (Zambia) | 16-00S | 027-36E | 1018 m
################################################################################
200902110600 AAXX 11064 67751 32980 10312 10229 20193 48/// 81030
                   333 10305 20176 59004 81360=
200902100600 AAXX 10064 67751 12980 10302 10231 20187 48/// 69904 81031
                   333 10286 20165 5//// 81360 81080=

################################################################################
#  SYNOPS from 67753, Choma (Zambia) | 16-50S | 027-04E | 1213 m
################################################################################
200903030600 AAXX 03064 67753 12380 70605 10204 20192 48/// 69964 87508
                   333 10271 20181 5//// 87610 85280=
200903020600 AAXX 02064 67753 31380 70902 10203 20199 48/// 87508
                   333 10282 20171 5//// 87609 87280=
200902230900 AAXX 23094 67753 42580 50603 10263 20187 83202
                   333 5//// 83825 82080=
200902160600 AAXX 16064 67753 12380 10605 10216 20184 48/// 69964 81030
                   333 10282 20169 81360=
200902110900 AAXX 11094 67753 42680 73508 10248 20183 48/// 87200
                   333 5//// 87830=
200902110600 AAXX 11064 67753 32980 23607 10207 20183 48/// 80002
                   333 10281 20148 58020 82080=
200902100600 AAXX 10064 67753 32980 20905 10216 20188 48/// 82030
                   333 10281 20141 5//// 82360=
200902090600 AAXX 09064 67753 32380 70905 10211 20188 48/// 87500
                   333 10261 20149 87609=

################################################################################
#  SYNOPS from 67855, Lupaki (Zambia) | 17-03-00S | 024-46-00E | 1000 m
################################################################################
200902160600 AAXX 16064 67855 NIL=
200902160000 AAXX 16004 67855 NIL=
200902151800 AAXX 15184 67855 NIL=
200902151200 AAXX 15124 67855 NIL=
200902150600 AAXX 15064 67855 NIL=
200902150000 AAXX 15004 67855 NIL=
200902131800 AAXX 13184 67855 NIL=
200902131200 AAXX 13124 67855 NIL=
200902130600 AAXX 13064 67855 32980 20301 10182 20149 3//// 48/// 82030
                   333 20135 5//// 82360=
200902130000 AAXX 13004 67855 NIL=
200902121800 AAXX 12184 67855 NIL=
200902121200 AAXX 12124 67855 NIL=
200902120000 AAXX 12004 67855 NIL=
200902070600 AAXX 07064 67855 NIL=
200902070000 AAXX 07004 67855 NIL=
200902061800 AAXX 06184 67855 NIL=
200902061200 AAXX 06124 67855 41670 71206 10250 20179 3//// 48/// 71522 8727/
                   333 5//// 87830=
200902060600 AAXX 06064 67855 NIL=
200902060000 AAXX 06004 67855 NIL=
200902051800 AAXX 05184 67855 NIL=
200902051200 AAXX 05124 67855 NIL=
200902050600 AAXX 05064 67855 11970 71001 10202 20197 3//// 48/// 60144 72162 8707/
                   333 20197 50000 87460=
200902050000 AAXX 05004 67855 NIL=
200902041200 AAXX 04124 67855 NIL=
200902040600 AAXX 04064 67855 NIL=
200902040000 AAXX 04004 67855 NIL=
200902031800 AAXX 03184 67855 NIL=
200902031200 AAXX 03124 67855 NIL=
200902030600 AAXX 03064 67855 NIL=
200902030000 AAXX 03004 67855 NIL=
200902021800 AAXX 02184 67855 NIL=
200902021200 AAXX 02124 67855 NIL=
200902020600 AAXX 02064 67855 NIL=
200902020000 AAXX 02004 67855 NIL=
200902011800 AAXX 01184 67855 NIL=
200902011200 AAXX 01124 67855 NIL=
200902010600 AAXX 01064 67855 NIL=
