################################################################################
# Query made at 04/10/2022 06:18:42 UTC
# Country like Zamb*
# Time interval: from 10/31/2021 23:30  to 12/01/2021 23:30  UTC
################################################################################

################################################################################
#  SYNOPS from 67403, Kawambwa (Zambia) | 09-48S | 029-05E | 1323 m
################################################################################
202112010900 AAXX 01094 67403 41675 52701 10243 20203 48511 70522 85201
                   333 58004 85840 83080=
202111301500 AAXX 30154 67403 41875 63001 10231 20184 48481 71792 81961
                   333 5//// 81950 82850 85360 82080
                   555 10323=
202111301200 AAXX 30124 67403 41775 63601 10301 20174 48481 70522 86200
                   333 59010 86857=
202111291500 AAXX 29154 67403 NIL=
202111291200 AAXX 29124 67403 41775 62801 10309 20157 48491 70522 86200
                   333 5//// 86856=
202111290900 AAXX 29094 67403 NIL=
202111280900 AAXX 28094 67403 NIL=
202111280600 AAXX 28064 67403 31475 20903 10223 20173 48511 70320 82530
                   333 10300 20176 59023 82612 82360
                   555 00/// 20009=
202111261500 AAXX 26154 67403 NIL=
202111261200 AAXX 26124 67403 NIL=
202111260900 AAXX 26094 67403 NIL=
202111251500 AAXX 25154 67403 NIL=
202111251200 AAXX 25124 67403 NIL=
202111250600 AAXX 25064 67403 11975 70902 10196 20166 48488 60344 70562 8703/
                   333 10305 20176 59014 87360
                   555 00/// 20000=
202111241200 AAXX 24124 67403 NIL=
202111240900 AAXX 24094 67403 NIL=
202111240600 AAXX 24064 67403 31975 40201 10223 20203 48504 70500 84031
                   333 10298 20180 59025 84360 81080
                   555 00/// 20012=
202111231500 AAXX 23154 67403 NIL=
202111231200 AAXX 23124 67403 NIL=
202111230600 AAXX 23064 67403 11970 50901 10196 20189 48526 60124 70542 85831
                   333 10258 20162 58018 85360 82080
                   555 00/// 20003=
202111221500 AAXX 22154 67403 NIL=
202111221200 AAXX 22124 67403 NIL=
202111220900 AAXX 22094 67403 NIL=
202111210900 AAXX 21094 67403 NIL=
202111180600 AAXX 18064 67403 11975 70901 10208 20192 48515 60024 70522 87030
                   333 10268 20184 58006 87360
                   555 00/// 20028=
202111171200 AAXX 17124 67403 41875 72701 10206 20185 48488 72996 81931
                   333 5//// 81957 82857 86360 82080=
202111170900 AAXX 17094 67403 41675 71801 10256 20181 48508 71792 8193/
                   333 58005 81935 84835 86360=
202111170600 AAXX 17064 67403 11975 62701 10199 20173 48509 60284 70522 86031
                   333 10298 20168 58003 86360 81080
                   555 00/// 20004=
202111161200 AAXX 16124 67403 NIL=
202111160900 AAXX 16094 67403 NIL=
202111160600 AAXX 16064 67403 11475 62701 10210 20174 48507 60024 70322 81531
                   333 10304 20176 59011 81610 86360 83080
                   555 00/// 20002=
202111151500 AAXX 15154 67403 41875 60901 10288 20167 48474 70522 81961
                   333 59015 81957 82857 84360 82080
                   555 10304=
202111151200 AAXX 15124 67403 NIL=
202111150900 AAXX 15094 67403 NIL=
202111121200 AAXX 12124 67403 NIL=
202111120600 AAXX 12064 67403 31475 42701 10240 20197 48502 70320 84500
                   333 10346 20192 59005 84610
                   555 00/// 20000=
202111111200 AAXX 11124 67403 NIL=
202111110900 AAXX 11094 67403 NIL=
202111110600 AAXX 11064 67403 31975 50902 10255 20139 48507 70500 80001
                   333 10354 20194 59009 85080
                   555 00/// 20000=
202111101200 AAXX 10124 67403 41875 42701 10334 20112 48514 70520 84201
                   333 59005 84857 81080=
202111100600 AAXX 10064 67403 31975 30901 10259 20162 48516 70500 80001
                   333 10346 20192 58013 83080
                   555 00/// 20000=
202111091500 AAXX 09154 67403 NIL=
202111091200 AAXX 09124 67403 41765 52701 10336 20122 48484 70522 84201
                   333 58015 84850 82080=
202111081200 AAXX 08124 67403 41875 41802 10329 20138 48469 70520 84201
                   333 5//// 84857 81080=
202111080900 AAXX 08094 67403 NIL=
202111080600 AAXX 08064 67403 31975 50901 10256 20165 48503 70520 85031
                   333 10331 20184 59001 85360 81060
                   555 00/// 20000=
202111071200 AAXX 07124 67403 NIL=
202111051200 AAXX 05124 67403 41775 41601 10315 20147 48489 70522 84201
                   333 5//// 84850 82080=
202111041200 AAXX 04124 67403 NIL=
202111040900 AAXX 04094 67403 NIL=
202111040600 AAXX 04064 67403 31910 80900 10195 20194 48525 74244 8803/
                   333 10270 20178 59007 88360
                   555 00/// 20009=
202111030900 AAXX 03094 67403 NIL=
202111021200 AAXX 02124 67403 NIL=
202111011200 AAXX 01124 67403 NIL=

################################################################################
#  SYNOPS from 67413, Mbala (Zambia) | 08-51S | 031-20E | 1673 m
################################################################################
202112010900 AAXX 01094 67413 NIL=
202111301500 AAXX 30154 67413 NIL=
202111301200 AAXX 30124 67413 NIL=
202111291500 AAXX 29154 67413 NIL=
202111291200 AAXX 29124 67413 NIL=
202111290900 AAXX 29094 67413 NIL=
202111280900 AAXX 28094 67413 NIL=
202111261500 AAXX 26154 67413 NIL=
202111261200 AAXX 26124 67413 NIL=
202111260900 AAXX 26094 67413 NIL=
202111251500 AAXX 25154 67413 NIL=
202111251200 AAXX 25124 67413 NIL=
202111250600 AAXX 25064 67413 11456 81006 10151 20149 48/// 60674 76192 885//
                   333 10290 20148 5//// 88615
                   555 00182=
202111241200 AAXX 24124 67413 NIL=
202111240900 AAXX 24094 67413 NIL=
202111240600 AAXX 24064 67413 NIL=
202111231500 AAXX 23154 67413 NIL=
202111231200 AAXX 23124 67413 NIL=
202111230600 AAXX 23064 67413 NIL=
202111221500 AAXX 22154 67413 NIL=
202111221200 AAXX 22124 67413 NIL=
202111220900 AAXX 22094 67413 NIL=
202111210900 AAXX 21094 67413 NIL=
202111180600 AAXX 18064 67413 NIL=
202111170600 AAXX 17064 67413 NIL=
202111161200 AAXX 16124 67413 NIL=
202111160900 AAXX 16094 67413 NIL=
202111160600 AAXX 16064 67413 NIL=
202111151500 AAXX 15154 67413 NIL=
202111151200 AAXX 15124 67413 NIL=
202111150900 AAXX 15094 67413 NIL=
202111121200 AAXX 12124 67413 NIL=
202111111200 AAXX 11124 67413 NIL=
202111110900 AAXX 11094 67413 NIL=
202111110600 AAXX 11064 67413 NIL=
202111100600 AAXX 10064 67413 NIL=
202111091500 AAXX 09154 67413 NIL=
202111091200 AAXX 09124 67413 NIL=
202111081200 AAXX 08124 67413 NIL=
202111080900 AAXX 08094 67413 NIL=
202111080600 AAXX 08064 67413 NIL=
202111071200 AAXX 07124 67413 NIL=
202111051200 AAXX 05124 67413 NIL=
202111041200 AAXX 04124 67413 NIL=
202111040900 AAXX 04094 67413 NIL=
202111040600 AAXX 04064 67413 NIL=
202111030900 AAXX 03094 67413 NIL=
202111021200 AAXX 02124 67413 NIL=
202111011200 AAXX 01124 67413 NIL=

################################################################################
#  SYNOPS from 67441, Mwinilunga (Zambia) | 11-45S | 024-26E | 1361 m
################################################################################
202112010900 AAXX 01094 67441 NIL=
202112010600 AAXX 01064 67441 11480 50903 10185 20179 48545 60034 70522 82730
                   333 10310 20150 59007 83715 84360
                   555 00/// 200012=
202111301500 AAXX 30154 67441 41680 61204 10300 20153 48/// 85202
                   333 5//// 82950 83080
                   555 10310=
202111301200 AAXX 30124 67441 41680 50903 10305 20162 48511 70522 84230
                   333 59011 84850 83360=
202111291500 AAXX 29154 67441 NIL=
202111291200 AAXX 29124 67441 NIL=
202111290900 AAXX 29094 67441 NIL=
202111280900 AAXX 28094 67441 NIL=
202111261500 AAXX 26154 67441 NIL=
202111261200 AAXX 26124 67441 42680 60000 10243 20177 48539 8323/
                   333 58000 83850 86360=
202111260900 AAXX 26094 67441 41580 70000 10215 20195 48565 875//
                   333 87630=
202111260600 AAXX 26064 67441 12980 70000 10182 20179 48558 60174 8703/
                   333 10265 20158 58012 87360
                   555 00/// 20004=
202111251500 AAXX 25154 67441 41680 40000 10221 20184 48518 70500 83231
                   333 58020 83850 84360 81080=
202111251200 AAXX 25124 67441 NIL=
202111250900 AAXX 25094 67441 41350 80000 10190 20190 48561 76366 887//
                   333 58021 88710=
202111250600 AAXX 25064 67441 11365 80000 10185 20185 48546 60044 76366 887/0
                   333 10306 20156 58021 88710=
202111241200 AAXX 24124 67441 42680 52103 10300 20147 48512 85101
                   333 59013 85850 81080=
202111240900 AAXX 24094 67441 41680 42703 10272 20156 48542 70500 83131
                   333 59015 83850 83360 82080=
202111240600 AAXX 24064 67441 11980 60000 10219 20174 48539 60014 70522 86030
                   333 10309 20160 59021 86360
                   555 00/// 20000=
202111231500 AAXX 23154 67441 41680 70000 10234 20168 48514 71799 8423/
                   333 59011 81950 84850 85361=
202111231200 AAXX 23124 67441 42680 52703 10301 20163 48530 85200
                   333 59012 85850=
202111230600 AAXX 23064 67441 31375 40000 10199 20175 48555 70544 82730
                   333 10271 20162 58004 82710 84360
                   555 00/// 20007=
202111221500 AAXX 22154 67441 41680 62303 10265 20161 48525 71799 85230
                   333 58033 81950 85850 83361=
202111221200 AAXX 22124 67441 41680 72703 10251 20172 48537 70522 8423/
                   333 58031 84850 86361=
202111220900 AAXX 22094 67441 41680 72005 10230 20179 48560 70522 875//
                   333 58008 87635=
202111210900 AAXX 21094 67441 NIL=
202111180600 AAXX 18064 67441 11980 50903 10210 20183 48554 60024 70522
                   333 10300 20170 58019 85360 82080
                   555 00/// 20000=
202111171200 AAXX 17124 67441 42680 62701 10352 20139 48495 86100
                   333 59001 86850=
202111170900 AAXX 17094 67441 41680 43603 10270 20158 48537 70500 83130
                   333 58000 83845 82080=
202111170600 AAXX 17064 67441 31980 60903 10195 20169 48535 70500 85037
                   333 10251 20151 59007 85360 83270
                   555 00/// 20010=
202111161200 AAXX 16124 67441 NIL=
202111160900 AAXX 16094 67441 42980 60000 10230 20179 48537 86030
                   333 59025 86360=
202111160600 AAXX 16064 67441 11380 80000 10180 20180 48542 60104 72166 8472/
                   333 10270 20162 59013 84710 88460
                   555 00/// 20990=
202111151500 AAXX 15154 67441 NIL=
202111151200 AAXX 15124 67441 NIL=
202111150900 AAXX 15094 67441 NIL=
202111121200 AAXX 12124 67441 41780 70303 10290 20153 48560 70522 85208
                   333 59032 85850 85280=
202111120600 AAXX 12064 67441 31980 52005 10200 20162 48533 70522 80008
                   333 10335 20157 59010 85280
                   555 00/// 20001=
202111111200 AAXX 11124 67441 41780 40603 10313 20153 48509 70500 84202
                   333 59018 85850 82080=
202111110900 AAXX 11094 67441 41980 21203 10274 20166 48538 70511 80002
                   333 59011 82080=
202111110600 AAXX 11064 67441 11980 51303 10205 20165 48543 60014 70522 85032
                   333 10315 20144 59016 85360 82080
                   555 00/// 20002=
202111100600 AAXX 10064 67441 NIL=
202111091500 AAXX 09154 67441 41780 62703 10249 20186 48505 71592 85230
                   333 58009 81950 85850 83360
                   555 10325=
202111091200 AAXX 09124 67441 41780 62303 10315 20156 48512 70523 85230
                   333 58009 85850 83360=
202111081200 AAXX 08124 67441 41780 62303 10318 20144 48503 71799 85232
                   333 59009 81950 85850 82360 82080=
202111080900 AAXX 08094 67441 41980 32904 10281 20166 48532 70500 80002
                   333 59004 83080=
202111080600 AAXX 08064 67441 31980 31003 10200 20173 48536 70500 80002
                   333 10325 20140 58004 83080
                   555 00/// 20000=
202111071200 AAXX 07124 67441 42780 61004 10315 20127 48515 85230
                   333 59054 81950 85850 83360=
202111070900 AAXX 07094 67441 42680 40703 10290 20144 48534 84130
                   333 59032 84840 82360=
202111070600 AAXX 07064 67441 32980 43503 10191 20150 48532 83032
                   333 10301 20134 5//// 83360 82080
                   555 00/// 20000=
202111051200 AAXX 05124 67441 42780 62303 10283 20178 48537 70322 85230
                   333 58006 81950 85850 83360=
202111041200 AAXX 04124 67441 NIL=
202111040900 AAXX 04094 67441 NIL=
202111040600 AAXX 04064 67441 32580 73403 10190 20179 48533 70222 8557/
                   333 10295 20154 58002 85628 87460
                   555 00/// 20000=
202111030900 AAXX 03094 67441 NIL=
202111021200 AAXX 02124 67441 NIL=
202111011200 AAXX 01124 67441 NIL=

################################################################################
#  SYNOPS from 67461, Mansa (Zambia) | 11-06S | 028-51E | 1382 m
################################################################################
202112010900 AAXX 01094 67461 42680 71705 10286 20175 48526 86201
                   333 58030 86847 83080 91017=
202111301500 AAXX 30154 67461 42780 21009 10305 20140 48479 81231
                   333 58001 81858 81360 81080
                   555 10324 91013=
202111301200 AAXX 30124 67461 42780 31102 10312 20150 48484 83200
                   333 59002 83856 91013=
202111291500 AAXX 29154 67461 42780 10606 10304 20150 48481 81200
                   333 59013 81850 555 10322 91013=
202111291200 AAXX 29124 67461 42780 31808 10305 20153 48485 83201
                   333 59022 83855 81080 91014=
202111290900 AAXX 29094 67461 42680 21211 10287 20168 48495 82100
                   333 59030 82845 91016=
202111280900 AAXX 28094 67461 42580 71323 10263 20174 48530 872//
                   333 59016 87838 91019=
202111280600 AAXX 28064 67461 32480 31414 10217 20170 48533 83500
                   333 10286 20155 59006 83619
                   555 00/// 91020=
202111261500 AAXX 26154 67461 NIL=
202111261200 AAXX 26124 67461 42680 71108 10276 20165 48514 85230
                   333 58012 85845 83360 91017=
202111260900 AAXX 26094 67461 42580 71513 10241 20174 48540 8423/
                   333 58028 84820 87360 91020=
202111260600 AAXX 26064 67461 12380 71012 10197 20176 48533 60014 8653/
                   333 10253 20157 58022 86610 86360
                   555 00/// 91020=
202111251500 AAXX 25154 67461 NIL=
202111251200 AAXX 25124 67461 41680 73108 10248 20186 48499 71799 8197/
                   333 58029 81948 84850 87460 91016=
202111250900 AAXX 25094 67461 42980 81203 10226 20174 48510 8807/
                   333 58030 88460 91017=
202111250600 AAXX 25064 67461 12980 81007 10194 20169 48512 60044 8807/
                   333 10305 20159 58015 88460
                   555 00/// 91017=
202111241200 AAXX 24124 67461 NIL=
202111240900 AAXX 24094 67461 42680 62706 10286 20205 48478 81335
                   333 59031 81935 83838 83360 82080 91014=
202111240600 AAXX 24064 67461 32580 72904 10245 20187 48497 81135
                   333 10320 20185 59020 81825 86360 82080
                   555 00/// 20990 91016=
202111231500 AAXX 23154 67461 41680 62303 10305 20160 48469 71799 81935
                   333 59014 81948 82850 84360 82080
                   555 10320 91012=
202111231200 AAXX 23124 67461 42680 41303 10305 20165 48485 83231
                   333 59002 83848 81360 81080 91014=
202111230600 AAXX 23064 67461 11978 61202 10210 20195 48517 69904 70522 86030
                   333 10270 20155 58008 86360
                   555 00/// 20005 91018=
202111221500 AAXX 22154 67461 NIL=
202111221200 AAXX 22124 67461 41580 62703 10250 20190 48480 71799 8193/
                   333 58013 81925 82828 86360 91014=
202111220900 AAXX 22094 67461 NIL=
202111210900 AAXX 21094 67461 NIL=
202111180600 AAXX 18064 67461 11975 71402 10208 20185 48519 70522 8707/
                   333 10300 20167 58011 87460
                   555 00/// 91019=
202111171200 AAXX 17124 67461 42780 72804 10295 20165 48482 82238
                   333 58001 82850 81360 87280 91013=
202111170900 AAXX 17094 67461 42680 72802 10271 20158 48514 81238
                   333 58008 81848 83360 86280 91017=
202111170600 AAXX 17064 67461 31975 70702 10214 20174 48509 70522 8707/
                   333 10296 20147 59001 87460
                   555 00/// 91017=
202111161200 AAXX 16124 67461 42780 71404 10288 20149 48483 8523/
                   333 59006 85850 83360 91013=
202111160900 AAXX 16094 67461 42780 61311 10274 20156 48506 82231
                   333 59007 82850 84360 82080 91016=
202111160600 AAXX 16064 67461 12980 70802 10214 20172 48510 60034 84031
                   333 10318 20169 59010 84360 84080
                   555 00/// 91017=
202111151500 AAXX 15154 67461 41770 50802 10306 20140 48476 70522 85200
                   333 59018 85856 555 10318 91013=
202111151200 AAXX 15124 67461 41770 61203 10316 20156 48491 70522 84231
                   333 58007 84856 81360 83080 91014=
202111150900 AAXX 15094 67461 41770 61117 10289 20154 48514 70522 81231
                   333 59001 81850 82360 84080 91017=
202111121200 AAXX 12124 67461 41870 40310 10329 20121 48459 70500 83201
                   333 59021 83870 81080 91011=
202111120600 AAXX 12064 67461 31965 11204 10245 20159 48495 70500 80001
                   333 10339 20169 58000 81080 91016=
202111111200 AAXX 11124 67461 41975 11212 10334 20120 48484 70500 81200
                   333 58000 81858 91013=
202111110900 AAXX 11094 67461 41975 11613 10312 20138 48512 70500 80001
                   333 58011 81080 91017=
202111110600 AAXX 11064 67461 NIL=
202111100600 AAXX 10064 67461 NIL=
202111091500 AAXX 09154 67461 NIL=
202111091200 AAXX 09124 67461 NIL=
202111081200 AAXX 08124 67461 NIL=
202111080900 AAXX 08094 67461 NIL=
202111080600 AAXX 08064 67461 31975 11203 10245 20140 48497 70500 81030
                   333 10335 20160 58000 81360
                   555 00/// 91016=
202111071200 AAXX 07124 67461 NIL=
202111070600 AAXX 07064 67461 31970 00806 10250 20127 48497 70500
                   333 10328 20172 58000 91016=
202111051200 AAXX 05124 67461 NIL=
202111041200 AAXX 04124 67461 42880 71604 10312 20164 48496 83208
                   333 59014 83857 85280 91016=
202111040900 AAXX 04094 67461 42780 42002 10285 20172 48525 81101
                   333 59009 81856 84080 91019=
202111040600 AAXX 04064 67461 32980 42102 10237 20181 48526 81031
                   333 10284 20151 59009 81360 84080
                   555 00/// 91019=
202111030900 AAXX 03094 67461 42980 72703 10222 20181 48529 8703/
                   333 58008 87360 91019=
202111030600 AAXX 03064 67461 11980 83605 10180 20175 48530 60794 79396 8807/
                   333 10308 20145 58008 88458
                   555 00/// 91020=
202111021200 AAXX 02124 67461 42780 53103 10297 20171 48493 83230
                   333 58011 83850 83362 91015=
202111011200 AAXX 01124 67461 41975 72106 10316 20155 48477 70522 84201
                   333 58008 84858 84080 91013=

################################################################################
#  SYNOPS from 67469, Samfya (Zambia) | 11-22S | 029-54E | 1171 m
################################################################################
202112010900 AAXX 01094 67469 NIL=
202111301500 AAXX 30154 67469 NIL=
202111301200 AAXX 30124 67469 NIL=
202111291500 AAXX 29154 67469 NIL=
202111291200 AAXX 29124 67469 NIL=
202111290900 AAXX 29094 67469 NIL=
202111280900 AAXX 28094 67469 NIL=
202111261500 AAXX 26154 67469 NIL=
202111261200 AAXX 26124 67469 NIL=
202111260900 AAXX 26094 67469 42680 70905 10235 20190 48/// 70322 85230
                   333 5//// 85830 82360=
202111251500 AAXX 25154 67469 NIL=
202111251200 AAXX 25124 67469 NIL=
202111250600 AAXX 25064 67469 12980 70000 10215 20170 48/// 60104 87030
                   333 10293 20180 5//// 87360=
202111241200 AAXX 24124 67469 NIL=
202111240900 AAXX 24094 67469 NIL=
202111240600 AAXX 24064 67469 NIL=
202111231500 AAXX 23154 67469 NIL=
202111231200 AAXX 23124 67469 NIL=
202111230600 AAXX 23064 67469 NIL=
202111221500 AAXX 22154 67469 NIL=
202111221200 AAXX 22124 67469 NIL=
202111220900 AAXX 22094 67469 NIL=
202111210900 AAXX 21094 67469 NIL=
202111190600 AAXX 19064 67469 12980 72703 10223 20200 48/// 69904 87030
                   333 10293 20208 5//// 87360=
202111180600 AAXX 18064 67469 32980 40903 10250 20170 48/// 84030
                   333 10290 20198 5//// 84360=
202111170900 AAXX 17094 67469 42680 70403 10281 20140 48/// 82108
                   333 5//// 82830 85280=
202111170600 AAXX 17064 67469 32980 61102 10241 20140 48/// 80008
                   333 10279 20140 5//// 86280=
202111161200 AAXX 16124 67469 42680 50907 10270 20180 48/// 83200
                   333 5//// 85840=
202111160900 AAXX 16094 67469 42680 60905 10282 20170 48/// 83231
                   333 5//// 83840 81362 82080=
202111160600 AAXX 16064 67469 NIL=
202111151500 AAXX 15154 67469 42780 70505 10287 20190 48/// 82231
                   333 5//// 81956 81586 84360 81080
                   555 10312=
202111151200 AAXX 15124 67469 42780 60505 10310 20190 48/// 84231
                   333 5//// 84856 81362 81080=
202111150900 AAXX 15094 67469 NIL=
202111121200 AAXX 12124 67469 42780 50402 10300 20220 48/// 82201
                   333 5//// 82856 83080=
202111120600 AAXX 12064 67469 32980 30905 10260 20200 48/// 80001
                   333 10316 20200 5//// 82080=
202111111200 AAXX 11124 67469 NIL=
202111110900 AAXX 11094 67469 NIL=
202111110600 AAXX 11064 67469 NIL=
202111100600 AAXX 10064 67469 NIL=
202111091500 AAXX 09154 67469 NIL=
202111091200 AAXX 09124 67469 NIL=
202111081200 AAXX 08124 67469 42780 00502 10316 20210 48/// 82101
                   333 5//// 82856 81080=
202111080900 AAXX 08094 67469 42980 00902 10285 20180 48///
                   333 5////=
202111080600 AAXX 08064 67469 32980 00910 10268 20180 48///
                   333 10315 20203 5////
                   555 00/// 20000=
202111071200 AAXX 07124 67469 NIL=
202111070900 AAXX 07094 67469 42980 00902 10275 20210 48///
                   333 5////=
202111070600 AAXX 07064 67469 32980 00702 10265 20210 48///
                   333 10315 20223 5////=
202111051200 AAXX 05124 67469 NIL=
202111041200 AAXX 04124 67469 NIL=
202111040900 AAXX 04094 67469 NIL=
202111040600 AAXX 04064 67469 NIL=
202111030900 AAXX 03094 67469 NIL=
202111021200 AAXX 02124 67469 NIL=
202111011200 AAXX 01124 67469 NIL=

################################################################################
#  SYNOPS from 67475, Kasama (Zambia) | 10-13S | 031-08E | 1382 m
################################################################################
202112010900 AAXX 01094 67475 41660 40902 10287 20149 48506 70522 83201
                   333 59004 83845 82080 91019=
202111301500 AAXX 30154 67475 41760 70902 10301 20139 48477 70522 82208
                   333 59005 81956 82856 87280=
202111301200 AAXX 30124 67475 41760 61403 10304 20141 48490 70522 85201
                   333 59005 81950 85850 82080 91016=
202111291500 AAXX 29154 67475 41680 41203 10301 20133 48481 82201
                   333 59015 82830 83080 91015=
202111291200 AAXX 29124 67475 41680 51503 10300 20144 48495 84201
                   333 59012 84830 82080 91017=
202111290900 AAXX 29094 67475 NIL=
202111280900 AAXX 28094 67475 41680 80903 10246 20164 48532 85201
                   333 58000 85830 82080 91021=
202111280600 AAXX 28064 67475 31580 71602 10208 20164 48537 84201
                   333 10//0 20173 59006 84825 83080
                   555 00/// 91022=
202111261500 AAXX 26154 67475 41760 62510 10218 20178 48506 70222 83251
                   333 58027 81950 82850 83360 82080 91018=
202111261200 AAXX 26124 67475 41660 81409 10246 20180 70322 8327/
                   333 59023 81940 82840 87860 91019=
202111260900 AAXX 26094 67475 41560 81605 10231 20182 48/// 70322 8227/
                   333 5//// 82820 87460=
202111251500 AAXX 25154 67475 NIL=
202111251200 AAXX 25124 67475 41660 61503 10270 20178 48489 70522 84201
                   333 58024 81940 83840 83080 91016=
202111250900 AAXX 25094 67475 42560 81406 10225 20177 48518 70522 8227/
                   333 5//// 82825 86460 91019=
202111250600 AAXX 25064 67475 11460 82208 10191 20178 48521 60244 70522 8257/
                   333 1//// 20163 58013 82612 86460 91019=
202111241200 AAXX 24124 67475 42660 51005 10332 20146 48467 84201
                   333 5//// 81945 84845 81080 91013=
202111240900 AAXX 24094 67475 NIL=
202111240600 AAXX 24064 67475 12960 21405 10243 20176 48511 69904 70500 80001
                   333 10//0 20163 59163 82080
                   555 00/// 20000 91018=
202111231500 AAXX 23154 67475 NIL=
202111231200 AAXX 23124 67475 NIL=
202111230600 AAXX 23064 67475 12460 71905 10211 20177 48531 69934 81570
                   333 10/// 20169 58017 81615 86460
                   555 00/// 20003 91021=
202111221500 AAXX 22154 67475 NIL=
202111221200 AAXX 22124 67475 NIL=
202111220900 AAXX 22094 67475 42660 53405 10306 20139 48515 84201
                   333 58012 84830 82080
                   555 91019=
202111211200 AAXX 21124 67475 42680 70702 10316 20136 48476 70222 85201
                   333 59014 81940 84840 83080 91014=
202111210900 AAXX 21094 67475 42680 60901 10270 20165 48501 70222 84201
                   333 59004 84830 82080 91017=
202111210600 AAXX 21064 67475 11970 81803 10220 20175 48511 60014 70222 8707/
                   333 1//// 20177 59005 87360 91019=
202111190600 AAXX 19064 67475 32960 42005 10233 20156 48528 82051
                   333 1//// 20159 59002 82360 83080 91021=
202111181200 AAXX 18124 67475 42760 71807 10309 20128 48487 84208
                   333 58000 81950 83850 85280 91018=
202111180600 AAXX 18064 67475 12960 51803 10231 20166 48530 69944 80008
                   333 1//// 20161 58015 85280 91021=
202111170900 AAXX 17094 67475 42660 70705 10277 20135 48508 84278
                   333 58000 81935 83835 82460 86280 91015=
202111170600 AAXX 17064 67475 32960 71508 10244 20146 48515 84078
                   333 1//// 20166 58002 84460 85280 91019=
202111161200 AAXX 16124 67475 42760 80807 10266 20130 48479 84238
                   333 59004 81950 83850 84460 86280
                   555 91015=
202111160900 AAXX 16094 67475 42660 70811 10266 20131 48507 84238
                   333 59006 84640 84360 86280
                   555 91018=
202111160600 AAXX 16064 67475 NIL=
202111151500 AAXX 15154 67475 41760 81006 10303 20105 48473 70522 8223/
                   333 59005 81950 82850 86360
                   555 10/// 91014=
202111151200 AAXX 15124 67475 41760 81006 10320 20111 48484 70522 85207
                   333 58006 81950 85850 88280 91015=
202111150900 AAXX 15094 67475 41760 81805 10297 20128 48514 70522 83107
                   333 58000 83850 88280 91019=
202111121200 AAXX 12124 67475 42680 71203 10323 20094 48484 70222 84201
                   333 58001 84835 83280 91016=
202111120600 AAXX 12064 67475 32980 00503 10260 20120 48510
                   333 1//// 20170 59009 91018=
202111111200 AAXX 11124 67475 42760 41209 10336 20071 48483 84200
                   333 59007 81950 83850 91016=
202111110900 AAXX 11094 67475 42960 20807 10311 20091 48511 80001
                   333 59006 82080 91018=
202111110600 AAXX 11064 67475 32960 20911 10246 20135 48519 80001
                   333 1//// 20176 59009 82080 91019=
202111100600 AAXX 10064 67475 32960 63304 10249 20115 48526 80008
                   333 10/// 20166 58010 86280
                   555 91020=
202111091500 AAXX 09154 67475 NIL=
202111091200 AAXX 09124 67475 NIL=
202111090600 AAXX 09064 67475 31960 30804 10256 20108 48518 70500 80001
                   333 10/// 20155 58004 83080
                   555 00/// 91019=
202111081200 AAXX 08124 67475 NIL=
202111080900 AAXX 08094 67475 41960 41104 10300 20086 48507 70500 80001
                   333 58009 84280 91018=
202111080600 AAXX 08064 67475 31960 43103 10252 20115 48514 70500 80001
                   333 10//0 80001 555 10/// 20157 58001 83080=
202111071200 AAXX 07124 67475 41660 41706 10323 20179 48484 70500 84200
                   333 59006 84845 91015=
202111070600 AAXX 07064 67475 31960 51408 10256 20118 48513 70500 80001
                   333 1//// 20162 5//// 83080 91019=
202111051200 AAXX 05124 67475 42680 70902 10314 20094 48498 70222
                   333 59002 83830 84080 91017=
202111041200 AAXX 04124 67475 NIL=
202111040900 AAXX 04094 67475 NIL=
202111040600 AAXX 04064 67475 11680 62801 10216 20189 48535 69904 84201
                   333 1//// 20166 59004 91019=
202111030900 AAXX 03094 67475 42560 72704 10256 20174 48/// 82208
                   333 5//// 82825 87280=
202111030600 AAXX 03064 67475 12460 83601 10196 20182 48539 60154 82578
                   333 1//// 20169 58013 82710 85460 87280 91022=
202111021200 AAXX 02124 67475 42660 52707 10296 20160 48489 70122 83208
                   333 58006 555 83840 83080 91016=
202111011200 AAXX 01124 67475 NIL=
202111010600 AAXX 01064 67475 31460 81105 10226 20153 48526 70522 885//
                   333 10//0 20156 88613
                   555 00/// 91020=

################################################################################
#  SYNOPS from 67476, Misamfu (Zambia) | 10-06S | 031-15E | 1536 m
################################################################################
202112010900 AAXX 01094 67476 32680 40903 10285 20182 48/// 84230
                   333 84833 82360=
202111301500 AAXX 30154 67476 32780 60903 10295 20186 48/// 85231
                   333 58010 81950 85850 84360 82080
                   555 10301=
202111301200 AAXX 30124 67476 32680 41003 10310 20188 48/// 84201
                   333 84845 81080=
202111300600 AAXX 30064 67476 32980 00902 10231 20170 48///
                   333 10294 20127 59011
                   555 00/// 20990=
202111291500 AAXX 29154 67476 NIL=
202111291200 AAXX 29124 67476 NIL=
202111290900 AAXX 29094 67476 NIL=
202111280900 AAXX 28094 67476 NIL=
202111261500 AAXX 26154 67476 NIL=
202111261200 AAXX 26124 67476 NIL=
202111260900 AAXX 26094 67476 NIL=
202111251500 AAXX 25154 67476 NIL=
202111251200 AAXX 25124 67476 NIL=
202111250600 AAXX 25064 67476 12580 60902 10210 20158 48/// 60104 84230
                   333 10282 20107 58002 84823 86460
                   555 00/// 20004=
202111241200 AAXX 24124 67476 NIL=
202111240900 AAXX 24094 67476 NIL=
202111240600 AAXX 24064 67476 NIL=
202111231500 AAXX 23154 67476 NIL=
202111231200 AAXX 23124 67476 NIL=
202111230600 AAXX 23064 67476 NIL=
202111221500 AAXX 22154 67476 NIL=
202111221200 AAXX 22124 67476 NIL=
202111220900 AAXX 22094 67476 NIL=
202111220600 AAXX 22064 67476 32580 50903 10226 20170 48/// 83230
                   333 10286 20120 58002 82824 85460
                   555 00/// 20000=
202111210900 AAXX 21094 67476 NIL=
202111180600 AAXX 18064 67476 12580 30903 10224 20176 48/// 60074 82130
                   333 10324 20102 5//// 82824 81360
                   555 00/// 20000=
202111170600 AAXX 17064 67476 32680 20903 10240 20168 48/// 81130
                   333 10306 20114 5//// 81830 82360
                   555 00/// 20990=
202111161200 AAXX 16124 67476 NIL=
202111160900 AAXX 16094 67476 NIL=
202111160600 AAXX 16064 67476 NIL=
202111151500 AAXX 15154 67476 NIL=
202111151200 AAXX 15124 67476 NIL=
202111150900 AAXX 15094 67476 NIL=
202111121200 AAXX 12124 67476 NIL=
202111111200 AAXX 11124 67476 NIL=
202111110900 AAXX 11094 67476 NIL=
202111110600 AAXX 11064 67476 32580 31002 10233 20194 48/// 82130
                   333 10358 20130 58002 82828 83360
                   555 00/// 20000=
202111100600 AAXX 10064 67476 NIL=
202111091500 AAXX 09154 67476 NIL=
202111091200 AAXX 09124 67476 NIL=
202111081200 AAXX 08124 67476 NIL=
202111080900 AAXX 08094 67476 NIL=
202111080600 AAXX 08064 67476 32580 20903 10223 20184 48/// 81130
                   333 10332 20163 5//// 81826 82360
                   555 00/// 20000=
202111071200 AAXX 07124 67476 NIL=
202111051200 AAXX 05124 67476 NIL=
202111041200 AAXX 04124 67476 NIL=
202111040900 AAXX 04094 67476 NIL=
202111040600 AAXX 04064 67476 NIL=
202111030900 AAXX 03094 67476 NIL=
202111030600 AAXX 03064 67476 12580 61002 10203 20186 48/// 60044 83230
                   333 10312 20153 5//// 83826 86360
                   555 00/// 20003=
202111021200 AAXX 02124 67476 NIL=
202111011200 AAXX 01124 67476 NIL=

################################################################################
#  SYNOPS from 67477, Mpika (Zambia) | 11-54S | 031-26E | 1400 m
################################################################################
202112010900 AAXX 01094 67477 41675 40905 10288 20160 48522 70500 84200
                   333 58005 84247=
202111301500 AAXX 30154 67477 NIL=
202111301200 AAXX 30124 67477 41775 30608 10309 20140 48497 70500 83200
                   333 59007 83849=
202111291500 AAXX 29154 67477 41775 21208 10292 20130 48496 70500 82200
                   333 59012 82850 555 10320=
202111291200 AAXX 29124 67477 41775 31205 10301 20142 48505 70500 83200
                   333 59018 83850=
202111290900 AAXX 29094 67477 41675 20910 10270 20163 48533 70500 82100
                   333 59010 82845=
202111290600 AAXX 29064 67477 32980 00904 10237 20152 47532
                   333 10278 20165 59014
                   555 00/// 20000=
202111280900 AAXX 28094 67477 42580 41206 10232 20156 48540 84101
                   333 5//// 84825 81080=
202111280600 AAXX 28064 67477 31478 61210 10188 20152 48544 70522 85501
                   333 10232 20164 5//// 85614 82080
                   555 00/// 20990=
202111261500 AAXX 26154 67477 41680 60902 10203 20160 48525 79596 84271
                   333 5//// 81938 84838 83364 83080
                   555 10257=
202111261200 AAXX 26124 67477 42680 41204 10252 20162 48524 83101
                   333 58015 83830 83080=
202111260900 AAXX 26094 67477 42580 80902 10208 20172 48549 8457/
                   333 58030 84612 87462=
202111251500 AAXX 25154 67477 42680 51203 10247 20164 48/// 84231
                   333 5//// 84830 83364 83080
                   555 10278=
202111251200 AAXX 25124 67477 42680 40902 10254 20166 48493 82131
                   333 58017 82830 82366 82080=
202111250900 AAXX 25094 67477 42580 61207 10229 20157 48519 83170
                   333 58023 83820 85459=
202111250600 AAXX 25064 67477 12478 83002 10189 20176 48525 60214 8457/
                   333 10341 20161 58015 84612 88459
                   555 00/// 20000=
202111241200 AAXX 24124 67477 41680 63001 10321 20136 48476 71799 83231
                   333 59019 81936 83836 83364 82080=
202111240900 AAXX 24094 67477 42580 22202 10318 20121 48496 82101
                   333 59022 82825 81080=
202111240600 AAXX 24064 67477 11478 33301 10231 20154 48510 69904 70500 81131
                   333 10326 20178 59020 81814 82360 82080
                   555 00/// 20000=
202111231500 AAXX 23154 67477 41680 51202 10308 20135 48589 79596 83271
                   333 58008 81936 83836 84464 83080
                   555 10326=
202111231200 AAXX 23124 67477 41680 52203 10308 20143 48495 71799 84231
                   333 81938 84838 82364 81080=
202111230600 AAXX 23064 67477 31978 00902 10221 20154 48531 70500
                   333 10337 20183 58016
                   555 00/// 20000=
202111221500 AAXX 22154 67477 42680 30906 10315 20125 48481 81101
                   333 58006 81836 83080
                   555 10337=
202111221200 AAXX 22124 67477 42680 21208 10328 20116 48488 83101
                   333 58005 83836 81080=
202111220900 AAXX 22094 67477 41578 21203 10299 20136 48513 70500 81101
                   333 58009 81825 82080=
202111210900 AAXX 21094 67477 41578 31205 10272 20143 48504 70500 82101
                   333 5//// 82825 82080=
202111180600 AAXX 18064 67477 31978 20901 10231 20148 48527 70500 81031
                   333 10328 20144 58015 81360 82080
                   555 00/// 20990=
202111171200 AAXX 17124 67477 42680 40902 10302 20122 48485 83131
                   333 58001 83838 82364 82080=
202111170900 AAXX 17094 67477 42580 51202 10298 20136 48509 82131
                   333 58000 82825 84364 82080=
202111170600 AAXX 17064 67477 12980 21202 10243 20153 48512 69904 81031
                   333 10309 20153 59012 81359 82080
                   555 00/// 20990=
202111161200 AAXX 16124 67477 42680 41208 10291 20120 48584 82231
                   333 59016 82836 82364 82080=
202111160900 AAXX 16094 67477 41578 30907 10308 20128 48509 70500 83131
                   333 59009 83825 82364 82080=
202111160600 AAXX 16064 67477 11478 40910 10242 20151 48514 69904 70500 81131
                   333 10320 20178 59015 81813 83362 82080
                   555 00/// 20000=
202111151500 AAXX 15154 67477 42680 51208 10275 20142 48488 82231
                   333 5//// 82833 83364 82080
                   555 10320=
202111151200 AAXX 15124 67477 41678 31208 10308 20101 48496 70500 82231
                   333 58001 82835 81364 81080=
202111150900 AAXX 15094 67477 41578 41208 10302 20131 48518 70500 83131
                   333 58012 83824 82362 81080=
202111121200 AAXX 12124 67477 41775 30905 10325 20100 48484 70500 83200
                   333 59011 83850=
202111120600 AAXX 12064 67477 31975 11212 10254 20140 48508 70500 81030
                   333 10343 20185 59013 81361
                   555 00/// 20000=
202111111200 AAXX 11124 67477 41775 21207 10332 20080 48495 70500 82100
                   333 59010 82856=
202111110900 AAXX 11094 67477 41975 10910 10295 20115 48512 70500 80001
                   333 59009 81080=
202111110600 AAXX 11064 67477 31975 11213 10252 20100 48522 70500 81030
                   333 10344 20170 59011 81360
                   555 00/// 20000=
202111100600 AAXX 10064 67477 31975 21210 10260 20119 48534 70500 80001
                   333 10349 20182 58009 82080
                   555 00/// 20000=
202111091500 AAXX 09154 67477 NIL=
202111091200 AAXX 09124 67477 NIL=
202111081200 AAXX 08124 67477 41775 11209 10330 20065 48486 70500 81100
                   333 5//// 81856=
202111080900 AAXX 08094 67477 41775 10909 10313 20080 48512 70500 81100
                   333 5//// 81850=
202111080600 AAXX 08064 67477 31975 00905 10268 20093 48518 70500
                   333 10321 20145 5////
                   555 00/// 20000=
202111071200 AAXX 07124 67477 42680 23009 10323 20096 48489 82101
                   333 5//// 82836 81080=
202111070900 AAXX 07094 67477 42580 20906 10308 20121 48513 82101
                   333 5//// 82825 82080=
202111070600 AAXX 07064 67477 31978 00910 10236 20152 48517 70500
                   333 10334 20168 5////=
202111051200 AAXX 05124 67477 42680 21210 10323 20094 48504 82101
                   333 58010 82836 82080=
202111041200 AAXX 04124 67477 42680 41202 10326 20114 48494 83231
                   333 59005 83836 81364 82080=
202111040900 AAXX 04094 67477 42580 41206 10308 20122 48525 84101
                   333 59005 84825 82080=
202111040600 AAXX 04064 67477 32980 12101 10228 20171 48537 80001
                   333 10339 20153 58000 81080=
202111030900 AAXX 03094 67477 42580 30908 10278 20144 48530 82101
                   333 58011 82824 82080=
202111021200 AAXX 02124 67477 41680 63202 10302 20126 48586 71799 84231
                   333 58004 81936 84836 82364 82080=
202111011200 AAXX 01124 67477 41680 61202 10311 20139 48502 71799 84231
                   333 5//// 81936 84836 83364 82080=

################################################################################
#  SYNOPS from 67481, Isoka (Zambia) | 10-07S | 032-38E | 1360 m
################################################################################
202112010900 AAXX 01094 67481 NIL=
202112010600 AAXX 01064 67481 12480 13602 10238 20172 48/// 60044 81100
                   333 10333 20180 58000 81810
                   555 00/// 20000=
202111301500 AAXX 30154 67481 NIL=
202111301200 AAXX 30124 67481 42680 33002 10323 20126 48/// 83200
                   333 59005 83847=
202111300600 AAXX 30064 67481 32980 20000 10238 20180 48/// 80001
                   333 10328 20180 59007 82080
                   555 00/// 20002=
202111291500 AAXX 29154 67481 NIL=
202111291200 AAXX 29124 67481 42680 33002 10312 20134 48/// 83100
                   333 5//// 83840=
202111290900 AAXX 29094 67481 42680 20302 10278 20147 48/// 82100
                   333 5//// 82830=
202111290600 AAXX 29064 67481 12980 02002 10240 20173 48/// 60024
                   333 10290 20161 5////
                   555 00/// 20001=
202111280900 AAXX 28094 67481 NIL=
202111261500 AAXX 26154 67481 NIL=
202111261200 AAXX 26124 67481 NIL=
202111260900 AAXX 26094 67481 42580 80902 10220 20185 48/// 885//
                   333 58029 88620=
202111260600 AAXX 26064 67481 12480 81002 10194 20177 48/// 60134 885//
                   333 10320 20184 5//// 88610
                   555 00/// 20990=
202111251500 AAXX 25154 67481 NIL=
202111251200 AAXX 25124 67481 42780 63602 10302 20144 48/// 83230
                   333 58018 81950 83850 84360=
202111250900 AAXX 25094 67481 42680 50302 10258 20168 48/// 85200
                   333 58015 85835=
202111250600 AAXX 25064 67481 12480 32403 10238 20171 48/// 69904 83500
                   333 10350 20200 5//// 83615
                   555 00/// 20000=
202111241200 AAXX 24124 67481 42780 33002 10316 20131 48/// 83100
                   333 59030 83857=
202111240900 AAXX 24094 67481 42780 23602 10300 20142 48/// 82100
                   333 59023 82850=
202111240600 AAXX 24064 67481 12980 03002 10252 20158 48/// 69904
                   333 10320 20181 58017
                   555 00/// 20000=
202111231500 AAXX 23154 67481 41680 53002 10298 20184 48/// 72992 81906
                   333 5//// 81940 81857 84280 10320=
202111231200 AAXX 23124 67481 42780 62702 10300 20142 48/// 86200
                   333 58005 86857=
202111230600 AAXX 23064 67481 32980 02002 10248 20166 48///
                   333 10338 20192 59025
                   555 00/// 20000=
202111221500 AAXX 22154 67481 NIL=
202111221200 AAXX 22124 67481 41775 52002 10320 20128 48/// 70522 85200
                   333 5//// 85850=
202111220900 AAXX 22094 67481 41675 53002 10290 20116 48/// 70500 83101
                   333 5//// 83840 83361=
202111220600 AAXX 22064 67481 31975 23002 10240 20167 48/// 70500 80001
                   333 10334 20178 5//// 82080
                   555 00/// 20000=
202111210900 AAXX 21094 67481 NIL=
202111180600 AAXX 18064 67481 11975 60301 10210 20178 48/// 60114 70522 86030
                   333 10330 20180 5//// 86360
                   555 00/// 20000=
202111171200 AAXX 17124 67481 41775 63002 10300 20137 48/// 70522 86200
                   333 5//// 86856=
202111170600 AAXX 17064 67481 11975 21002 10252 20147 48/// 69904 70500 82030
                   333 10310 20186 5//// 82360
                   555 00/// 20000=
202111161200 AAXX 16124 67481 41775 61002 10280 20132 48/// 70500 86200
                   333 59007 81950 86850=
202111160900 AAXX 16094 67481 41675 30302 10288 20132 48/// 70500 82101
                   333 59010 82840 83080=
202111160600 AAXX 16064 67481 NIL=
202111151500 AAXX 15154 67481 NIL=
202111151200 AAXX 15124 67481 41775 60902 10312 20112 48/// 70500 84230
                   333 5//// 84857 84361=
202111150900 AAXX 15094 67481 41775 32002 10298 20114 48/// 70500 81101
                   333 5//// 81850 83080=
202111150600 AAXX 15064 67481 31475 23002 10268 20135 48/// 70500 81101
                   333 10398 20190 5//// 81815 82080
                   555 00/// 20000=
202111121200 AAXX 12124 67481 41770 50302 10322 20106 48/// 70500 85200
                   333 5//// 85857=
202111120600 AAXX 12064 67481 31970 03002 10252 20132 48/// 70500
                   333 10350 20172 59009
                   555 00/// 20990=
202111111200 AAXX 11124 67481 41770 30302 10312 20086 48/// 70500 83100
                   333 59010 83857=
202111110900 AAXX 11094 67481 41670 11002 10310 20102 48/// 70500 81100
                   333 5//// 81840=
202111110600 AAXX 11064 67481 11970 20302 10260 20146 48/// 69904 70500 80001
                   333 10350 20124 5//// 82080
                   555 00/// 20000=
202111100600 AAXX 10064 67481 31970 30302 10248 20169 48/// 70500 80001
                   333 10328 20168 5//// 83080
                   555 00/// 20000=
202111091500 AAXX 09154 67481 NIL=
202111091200 AAXX 09124 67481 NIL=
202111081200 AAXX 08124 67481 41770 30303 10328 20040 48/// 70500 83100
                   333 5//// 83857=
202111080900 AAXX 08094 67481 41970 13002 10304 20060 48/// 70500 80001
                   333 5//// 81080=
202111080600 AAXX 08064 67481 31970 23002 10250 20172 48/// 70500 80001
                   333 10338 20162 5//// 82080
                   555 00/// 20000=
202111071200 AAXX 07124 67481 NIL=
202111051200 AAXX 05124 67481 NIL=
202111041200 AAXX 04124 67481 NIL=
202111040900 AAXX 04094 67481 41670 10303 10282 20152 48/// 70500 81100
                   333 58007 81830=
202111040600 AAXX 04064 67481 11970 00302 10232 20190 48/// 60044 70500
                   333 10308 20170 58000
                   555 00/// 20007=
202111030900 AAXX 03094 67481 NIL=
202111030600 AAXX 03064 67481 11970 50303 10238 20178 48/// 60074 70522 80002
                   333 10324 20170 59001 85080
                   555 00/// 20990=
202111021200 AAXX 02124 67481 NIL=
202111020600 AAXX 02064 67481 31970 60302 10242 20165 48/// 69904 70522 86030
                   333 10328 20184 58008 86360
                   555 00///=
202111011200 AAXX 01124 67481 41770 60302 10320 20128 48/// 70522 85202
                   333 5//// 85850 83080=

################################################################################
#  SYNOPS from 67531, Zambezi (Zambia) | 13-32S | 023-07E | 1077 m
################################################################################
202112010900 AAXX 01094 67531 42980 62704 10271 20200 48/// 86031
                   333 58007 86362 81081=
202111301500 AAXX 30154 67531 NIL=
202111301200 AAXX 30124 67531 42780 41005 10322 20175 48/// 84201
                   333 59025 84856 81081=
202111291500 AAXX 29154 67531 42680 51803 10282 20202 48/// 84201
                   333 58007 84840 82081
                   555 10307=
202111291200 AAXX 29124 67531 42680 51503 10284 20210 48/// 84201
                   333 58006 84840 82081=
202111290900 AAXX 29094 67531 42580 51805 10248 20203 48/// 84230
                   333 58005 84829 82362=
202111280900 AAXX 28094 67531 42580 40604 10266 20204 48/// 84101
                   333 59010 84826 81081=
202111280600 AAXX 28064 67531 12980 10603 10230 20201 48/// 60114 81031
                   333 10292 20186 59010 81362 81081
                   555 00/// 20990=
202111261500 AAXX 26154 67531 41680 70904 10246 20179 48/// 79599 83282
                   333 58018 81939 83839 82360 82080
                   555 10300=
202111261200 AAXX 26124 67531 42680 50603 10278 20184 48/// 85200
                   333 58015 85839=
202111260900 AAXX 26094 67531 42580 70604 10256 20190 48/// 8217/
                   333 58021 82828 87360=
202111251500 AAXX 25154 67531 42680 50000 10276 20179 48/// 84230
                   333 58012 84839 83362
                   555 10286=
202111251200 AAXX 25124 67531 42680 53604 10282 20196 48/// 84231
                   333 58019 84839 83362 81080=
202111250900 AAXX 25094 67531 42480 63606 10247 20186 48/// 8413/
                   333 58004 84818 85362=
202111250600 AAXX 25064 67531 12380 63606 10216 20193 48/// 69904 8263/
                   333 10327 20196 59001 82708 86362
                   555 00/// 20000=
202111241200 AAXX 24124 67531 42780 53304 10318 20187 48/// 85201
                   333 59025 85856 82081=
202111240900 AAXX 24094 67531 42980 63005 10283 20197 48/// 8603/
                   333 59015 86362=
202111240600 AAXX 24064 67531 32980 63002 10231 20192 48/// 85031
                   333 10324 20201 59012 85362 82080
                   555 00/// 20002=
202111231500 AAXX 23154 67531 42680 52705 10315 20182 48/// 84201
                   333 59013 84845 82081
                   555 10324=
202111231200 AAXX 23124 67531 42680 53603 10285 20194 48/// 83102
                   333 59003 83845 83081=
202111230600 AAXX 23064 67531 12980 43603 10230 20199 48/// 60024 84030
                   333 10289 20184 59008 84362
                   555 00/// 20019=
202111221500 AAXX 22154 67531 42680 53602 10272 20195 48/// 83130
                   333 58051 83840 83362=
202111221200 AAXX 22124 67531 42680 73003 10257 20193 48/// 8423/
                   333 58035 84840 86362=
202111220900 AAXX 22094 67531 41480 70000 10202 20189 48/// 72166 8457/
                   333 58037 84610 87362=
202111211200 AAXX 21124 67531 42780 30000 10315 20178 83130
                   333 59018 83856 81362=
202111210900 AAXX 21094 67531 42680 13603 10286 20186 48/// 81130
                   333 59028 81840 81361=
202111180600 AAXX 18064 67531 12980 20000 10230 20192 48/// 69924 82030
                   333 10327 20194 5//// 82361
                   555 00/// 20000=
202111171200 AAXX 17124 67531 42880 53102 10302 20190 48/// 85200
                   333 59001 85857=
202111170900 AAXX 17094 67531 42780 43603 10272 20202 48/// 83102
                   333 59003 83856 83081=
202111170600 AAXX 17064 67531 32980 33603 10231 20194 48/// 81032
                   333 10320 20192 59007 81362 83080
                   555 00///=
202111161200 AAXX 16124 67531 42780 50000 10291 20187 48/// 85200
                   333 59027 85856=
202111160900 AAXX 16094 67531 42780 33302 10271 20193 48/// 83130
                   333 59020 83856 81362=
202111160600 AAXX 16064 67531 NIL=
202111151500 AAXX 15154 67531 41680 70000 10275 20203 48/// 71799 8527/
                   333 58006 81950 85850 86362
                   555 10310=
202111151200 AAXX 15124 67531 42680 50803 10286 20199 48/// 84230
                   333 58002 84849 82362=
202111150900 AAXX 15094 67531 42680 53002 10257 20208 48/// 83130
                   333 58006 83839 84362=
202111121200 AAXX 12124 67531 42580 72001 10210 20190 48/// 8427/
                   333 58026 84829 87362=
202111120600 AAXX 12064 67531 31970 71902 10216 20171 48/// 76062 8707/
                   333 10347 20197 59001 87361
                   555 00/// 20990=
202111111200 AAXX 11124 67531 42880 30804 10336 20175 48/// 82101
                   333 59025 82858 81081=
202111110900 AAXX 11094 67531 42980 21605 10295 20180 48/// 80001
                   333 59015 82081=
202111110600 AAXX 11064 67531 12980 41203 10234 20170 48/// 69904 84030
                   333 10317 20186 5//// 84362
                   555 00///=
202111100600 AAXX 10064 67531 12980 71804 10211 20180 48/// 60044 8707/
                   333 10351 20202 5//// 87361
                   555 00/// 20000=
202111091500 AAXX 09154 67531 41770 70909 10282 20158 48/// 79596 8527/
                   333 5//// 81956 85856 86362
                   555 10351=
202111091200 AAXX 09124 67531 42780 22702 10334 20180 48/// 82100
                   333 5//// 82857=
202111081200 AAXX 08124 67531 42780 52004 10334 20178 48/// 85201
                   333 5//// 85857 82081=
202111080900 AAXX 08094 67531 42980 53003 10305 20185 48/// 83038
                   333 5//// 83362 84281=
202111080600 AAXX 08064 67531 12980 53004 10240 20183 48/// 69904 85030
                   333 10355 20200 5//// 85362
                   555 00/// 20001=
202111071200 AAXX 07124 67531 42880 30304 10342 20143 48/// 83100
                   333 5//// 83858=
202111070900 AAXX 07094 67531 41975 12703 10303 20158 48/// 70500 81030
                   333 5//// 81362=
202111070600 AAXX 07064 67531 11975 20000 10225 20165 48/// 60014 70500 82030
                   333 10355 20169 5//// 82362
                   555 00///=
202111051200 AAXX 05124 67531 42780 61006 10305 20178 48/// 8423/
                   333 5//// 84857 84362=
202111041200 AAXX 04124 67531 42780 41904 10305 20201 48/// 84200
                   333 58003 84857=
202111040900 AAXX 04094 67531 42780 52102 10266 20205 48/// 83130
                   333 5//// 83856 84362=
202111040600 AAXX 04064 67531 12980 60000 10221 20188 48/// 60084 8607/
                   333 10343 20196 58011 86362
                   555 00///=
202111030900 AAXX 03094 67531 42780 33603 10287 20192 48/// 81101
                   333 58001 81857 83081=
202111021200 AAXX 02124 67531 42780 43609 10257 20188 48/// 84231
                   333 58018 84856 83362 81080=
202111011200 AAXX 01124 67531 42780 22703 10311 20187 48/// 82100
                   333 59021 82857=
202111010600 AAXX 01064 67531 12980 03103 10199 20178 48/// 60014
                   333 10257 20166 5////
                   555 00/// 20029=

################################################################################
#  SYNOPS from 67541, Kasempa (Zambia) | 13-32S | 025-51E | 1234 m
################################################################################
202112010900 AAXX 01094 67541 42980 504// 10290 20169 48482 80001
                   333 58000 85080=
202111301500 AAXX 30154 67541 42780 30000 10310 20136 48446 83200
                   333 59009 83856 555 10320=
202111301200 AAXX 30124 67541 42780 307// 10310 20156 48455 83200
                   333 59009 83856=
202111291500 AAXX 29154 67541 42880 70000 10280 20175 48455 8323/
                   333 5//// 83856 87360
                   555 10310=
202111291200 AAXX 29124 67541 NIL=
202111290900 AAXX 29094 67541 42690 70000 10270 20197 48490 83201
                   333 5//// 83830 84080=
202111280900 AAXX 28094 67541 NIL=
202111280600 AAXX 28064 67541 12980 40000 10215 20176 48499 60194 80001
                   333 10279 20149 59018
                   555 00/// 20002=
202111261500 AAXX 26154 67541 42580 70000 10248 20192 48/// 83230
                   333 5//// 83820 87360
                   555 10256=
202111261200 AAXX 26124 67541 42480 70000 10220 20190 48/// 8323/
                   333 5//// 83815 87360=
202111260900 AAXX 26094 67541 42480 705// 10220 20183 48/// 8323/
                   333 5//// 83815 87360=
202111251500 AAXX 25154 67541 42580 60000 10245 20176 48455 81131
                   333 58017 81825 83360 82080
                   555 10251=
202111251200 AAXX 25124 67541 NIL=
202111250900 AAXX 25094 67541 42580 701// 10235 20183 48482 8323/
                   333 58009 83820 87360=
202111250600 AAXX 25064 67541 12980 70000 10200 20169 48482 60014 8703/
                   333 10320 20160 58009 87360
                   555 00/// 20006=
202111241200 AAXX 24124 67541 41660 809// 10230 20185 48455 79596 8423/
                   333 5//// 81915 83837 87360=
202111240900 AAXX 24094 67541 42680 70000 10285 20190 48473 8213/
                   333 5//// 82837 87360=
202111240600 AAXX 24064 67541 12980 40000 10220 20190 48473 60064 80001
                   333 10311 20150 5//// 84080
                   555 00/// 20032=
202111231500 AAXX 23154 67541 42780 60000 10280 20183 48455 84231
                   333 59018 84856 81360 81080
                   555 10311=
202111231200 AAXX 23124 67541 42780 40000 10300 20154 48/// 82130
                   333 5//// 82856 82360=
202111230600 AAXX 23064 67541 12980 70000 10193 20188 48/// 60324 87030
                   333 10260 20150 5//// 87360
                   555 00/// 20001=
202111221500 AAXX 22154 67541 41460 70000 10195 20195 48473 76066 8423/
                   333 5//// 81912 83815 87360
                   555 10260=
202111221200 AAXX 22124 67541 NIL=
202111220900 AAXX 22094 67541 42680 70000 10225 20188 48490 8323/
                   333 5//// 83815 87360=
202111210900 AAXX 21094 67541 NIL=
202111180600 AAXX 18064 67541 12980 30000 10215 20193 48/// 82031
                   333 10326 20159 5//// 82360 81080
                   555 00/// 20000=
202111170900 AAXX 17094 67541 42680 30000 10300 20215 48473 83201
                   333 58000 83835 81080=
202111170600 AAXX 17064 67541 32980 10000 10221 20173 48473 80001
                   333 10330 20152 59009 81080
                   555 00/// 20000=
202111161200 AAXX 16124 67541 42680 30000 10320 20205 48446 83200
                   333 5//// 83845=
202111160900 AAXX 16094 67541 42680 607// 10290 20203 48473 81105
                   333 5//// 81837 85080=
202111160600 AAXX 16064 67541 32980 60000 10213 20170 48482 80006
                   333 10310 20152 5//// 86080
                   555 00/// 20000=
202111151500 AAXX 15154 67541 NIL=
202111151200 AAXX 15124 67541 42680 404// 10300 20207 48/// 83230
                   333 5//// 83840 81360=
202111150900 AAXX 15094 67541 42680 70000 10275 20202 48/// 8213/
                   333 5//// 82830 87360=
202111121200 AAXX 12124 67541 42980 70000 10290 20195 48455 87030
                   333 58000 87360=
202111120600 AAXX 12064 67541 12980 70000 10202 20176 48482 60144 8703/
                   333 10340 20169 59008 87360
                   555 00/// 20000=
202111111200 AAXX 11124 67541 41775 20000 10330 20192 48455 70522 82100
                   333 58000 82856=
202111110900 AAXX 11094 67541 NIL=
202111110600 AAXX 11064 67541 31975 205// 10240 20162 48490 70522 80002
                   333 10358 20144 58000 82080
                   555 00/// 20000=
202111100600 AAXX 10064 67541 31975 30000 10240 20171 48490 70522 80001
                   333 10356 20170 58017 83080
                   555 00/// 20000=
202111091500 AAXX 09154 67541 41775 20000 10330 20200 48438 70522 82100
                   333 58000 82856 555 10356=
202111091200 AAXX 09124 67541 41775 20000 10350 20208 48455 70522 82100
                   333 58009 82856=
202111081200 AAXX 08124 67541 42680 40000 10330 20209 48446 84200
                   333 84849=
202111080900 AAXX 08094 67541 42980 104// 10320 20205 48464 80001
                   333 5//// 81080=
202111080600 AAXX 08064 67541 32980 10000 10215 20185 48482 80001
                   333 10350 20134 58000 81080
                   555 00/// 20000=
202111071200 AAXX 07124 67541 NIL=
202111070600 AAXX 07064 67541 32980 20000 10225 20171 48482 80001
                   333 10338 20134 5//// 82080
                   555 00/// 20000=
202111051200 AAXX 05124 67541 42980 60000 10260 20193 48482 80006
                   333 58018 86080=
202111041200 AAXX 04124 67541 42680 60000 10310 20210 48464 86200
                   333 58000 86840=
202111040900 AAXX 04094 67541 42580 60000 10275 20211 48490 83201
                   333 58000 83825 83080=
202111040600 AAXX 04064 67541 12980 60000 10205 20190 48482 60174 86001
                   333 10330 20151 59008 86080
                   555 00/// 20002=
202111030900 AAXX 03094 67541 42980 40000 10295 20209 48490 83031
                   333 58000 83360 81080=
202111021200 AAXX 02124 67541 42980 70000 10215 20185 48482 87030
                   333 58036 87360=
202111011200 AAXX 01124 67541 41775 50000 10330 20201 48446 70522 85200
                   333 5//// 85856=

################################################################################
#  SYNOPS from 67543, Kabompo (Zambia) | 13-36S | 024-12E | 1075 m
################################################################################
202112010900 AAXX 01094 67543 NIL=
202111301500 AAXX 30154 67543 42780 40000 10332 20153 48/// 82135
                   333 5//// 82857 82362 83285
                   555 10344=
202111301200 AAXX 30124 67543 42680 50000 10328 20145 48/// 83205
                   333 5//// 83845 84285=
202111291500 AAXX 29154 67543 42780 70000 10280 20198 48/// 83315
                   333 5//// 81956 83856 83262 84285
                   555 10332=
202111291200 AAXX 29124 67543 42680 60000 10300 20196 48/// 84205
                   333 5//// 84845 83281=
202111290900 AAXX 29094 67543 42580 70000 10274 20205 48/// 86231
                   333 5//// 86832 82361 81081=
202111280900 AAXX 28094 67543 NIL=
202111280600 AAXX 28064 67543 12480 30000 10224 20188 48/// 69904 81131
                   333 10302 20178 5//// 81815 82360 81080
                   555 00/// 20005=
202111261500 AAXX 26154 67543 41675 70000 10208 20197 48/// 76169 8221/
                   333 5//// 82850 87462
                   555 10300=
202111261200 AAXX 26124 67543 42680 70000 10284 20191 48/// 85230
                   333 5//// 85840 83360=
202111260900 AAXX 26094 67543 42680 70000 10254 20182 48/// 8217/
                   333 5//// 82830 87360=
202111251500 AAXX 25154 67543 41682 70000 10254 20193 48/// 71722 83330
                   333 5//// 81948 83848 85362
                   555 10294=
202111251200 AAXX 25124 67543 42682 70000 10260 20190 48/// 8215/
                   333 5//// 82835 87362=
202111250900 AAXX 25094 67543 42982 70000 10238 20187 48/// 8707/
                   333 87361=
202111250600 AAXX 25064 67543 11380 80000 10196 20184 48/// 60154 72166 8262/
                   333 10330 20186 5//// 82707 88460
                   555 00///=
202111241200 AAXX 24124 67543 NIL=
202111240900 AAXX 24094 67543 NIL=
202111240600 AAXX 24064 67543 NIL=
202111231500 AAXX 23154 67543 NIL=
202111231200 AAXX 23124 67543 NIL=
202111230600 AAXX 23064 67543 32982 70000 10216 20191 48/// 85035
                   333 10288 20178 5//// 85360 83280
                   555 00/// 20028=
202111221500 AAXX 22154 67543 42682 70000 10260 20202 48/// 84235
                   333 5//// 84835 82362 83285
                   555 10328=
202111221200 AAXX 22124 67543 42580 70000 10250 20188 48/// 84235
                   333 5//// 84828 83360 83280=
202111220900 AAXX 22094 67543 42480 80000 10206 20182 48/// 885//
                   333 5//// 88615=
202111210900 AAXX 21094 67543 NIL=
202111181200 AAXX 18124 67543 42680 60000 10306 20183 48/// 84932
                   333 5//// 81940 84840 82362 82082=
202111180600 AAXX 18064 67543 12980 60000 10234 20188 48/// 69904 86030
                   333 10332 20176 5//// 86360
                   555 00/// 20990=
202111171200 AAXX 17124 67543 41680 70000 10318 20152 48/// 71792 85910
                   333 5//// 81940 85840 84462=
202111170900 AAXX 17094 67543 42680 43202 10288 20181 48/// 70300 81105
                   333 5//// 81830 84282=
202111170600 AAXX 17064 67543 12980 20000 10236 20182 48/// 69904 81031
                   333 10344 20174 5//// 81361 82081
                   555 00/// 20990=
202111161200 AAXX 16124 67543 42680 60000 10330 20154 48/// 86200
                   333 5//// 86840=
202111160900 AAXX 16094 67543 42680 41201 10294 20179 48/// 84201
                   333 5//// 84830 81082=
202111160600 AAXX 16064 67543 12980 70000 10222 20188 48/// 69904 86031
                   333 10274 20176 86360 82080
                   555 00/// 20004=
202111151500 AAXX 15154 67543 41680 80000 10240 20180 48/// 71799 8531/
                   333 5//// 81945 85845 87462
                   555 10344=
202111151200 AAXX 15124 67543 42680 70000 10314 20180 48/// 86201
                   333 5//// 86835 82081=
202111150900 AAXX 15094 67543 42580 70000 10272 20196 48/// 83235
                   333 5//// 83826 85361 82280=
202111121200 AAXX 12124 67543 42980 73001 10280 20174 48/// 8703/
                   333 5//// 87361=
202111120600 AAXX 12064 67543 32980 40000 10234 20175 48/// 84030
                   333 10346 20188 5//// 84360=
202111111200 AAXX 11124 67543 NIL=
202111110900 AAXX 11094 67543 42980 21802 10308 20167 48/// 80001
                   333 5//// 82082=
202111110600 AAXX 11064 67543 12980 62001 10234 20163 48/// 60034 86030
                   333 10360 20190 5//// 86360
                   555 00/// 20006=
202111100600 AAXX 10064 67543 NIL=
202111091500 AAXX 09154 67543 NIL=
202111091200 AAXX 09124 67543 NIL=
202111081200 AAXX 08124 67543 41675 70000 10348 20152 48/// 71722 85370
                   333 5//// 81935 85835 83362=
202111080900 AAXX 08094 67543 41975 00000 10316 20183 48/// 70500
                   333 5////=
202111080600 AAXX 08064 67543 31970 43401 10238 20159 48/// 70522 80005
                   333 10372 20166 5//// 84280
                   555 00///=
202111071200 AAXX 07124 67543 NIL=
202111070600 AAXX 07064 67543 31970 60000 10238 20153 48/// 70522 86030
                   333 10364 20174 5//// 86360
                   555 00///=
202111051200 AAXX 05124 67543 41678 70901 10284 20175 48/// 70522 81170
                   333 5//// 81830 87361=
202111041200 AAXX 04124 67543 NIL=
202111040900 AAXX 04094 67543 NIL=
202111040600 AAXX 04064 67543 12980 70000 10208 20182 48/// 60174 8707/
                   333 10364 20174 5//// 87360
                   555 00///=
202111030900 AAXX 03094 67543 NIL=
202111021200 AAXX 02124 67543 NIL=
202111011200 AAXX 01124 67543 41680 30000 10340 20158 48/// 70500 83230
                   333 5//// 83835 81361=

################################################################################
#  SYNOPS from 67551, Solwezi (Zambia) | 12-11S | 026-23E | 1386 m
################################################################################
202112010900 AAXX 01094 67551 42680 72905 10262 20172 48507 83230
                   333 58007 83830 87362=
202111301500 AAXX 30154 67551 42780 41505 10309 20133 48498 84200
                   333 59020 84550 555 10315 91013=
202111301200 AAXX 30124 67551 42780 61205 10297 20151 48485 86200
                   333 59006 86850=
202111291500 AAXX 29154 67551 NIL=
202111291200 AAXX 29124 67551 42680 61204 10298 20153 48494 86200
                   333 59004 86835 555 91016=
202111290900 AAXX 29094 67551 42580 51505 10269 20174 48512 86230
                   333 59013 86820 82362
                   555 91019=
202111280900 AAXX 28094 67551 42580 70905 10251 20166 48525 85230
                   333 59005 85825 84362
                   555 91020=
202111280600 AAXX 28064 67551 32480 61205 10200 20166 48532 81130
                   333 10265 20170 59005 81810 86362
                   555 00/// 20001 91021=
202111261500 AAXX 26154 67551 42580 60905 10232 20177 48497 72166 84230
                   333 58015 84820 84362
                   555 10262 91017=
202111261200 AAXX 26124 67551 42580 61406 10244 20167 48512 86230
                   333 58000 86820 82362
                   555 91018=
202111260900 AAXX 26094 67551 42480 70905 10219 20186 48532 8357/
                   333 58019 83610 87362
                   555 91021=
202111251500 AAXX 25154 67551 42680 63005 10235 20169 48477 86270
                   333 58019 86830 83362
                   555 91015=
202111251200 AAXX 25124 67551 42680 72005 10257 20171 48507 85270
                   333 58032 85830 87362=
202111250900 AAXX 25094 67551 42580 70705 10211 20171 48518 84270
                   333 58019 84840 87367=
202111250600 AAXX 25064 67551 12280 80905 10173 20178 48513 60694 8367/
                   333 10293 20172 58017 83706 88362
                   555 00/// 20000 91020=
202111241200 AAXX 24124 67551 41680 71806 10195 20193 48479 79599 81930
                   333 59013 81945 84845 86362=
202111240900 AAXX 24094 67551 42680 72705 10276 20181 48506 71799 81930
                   333 59022 81935 84835 87362=
202111240600 AAXX 24064 67551 32980 53005 10215 20165 48505 85030
                   333 10268 20177 59025 85362
                   555 00/// 20090 91018=
202111231500 AAXX 23154 67551 41680 70000 10226 20191 48470 79599 81930
                   333 59022 81935 84840 85362
                   555 91015=
202111231200 AAXX 23124 67551 41680 72004 10251 20174 48496 79592 81930
                   333 59013 81935 85840 84362
                   555 91017=
202111230600 AAXX 23064 67551 12980 73004 10200 20183 48528 60094 86030
                   333 10280 20169 58019 86362
                   555 00/// 20000 91021=
202111221500 AAXX 22154 67551 41580 73003 10190 20183 48502 71799 81930
                   333 58043 81920 82820 87362
                   555 91017=
202111221200 AAXX 22124 67551 NIL=
202111220900 AAXX 22094 67551 NIL=
202111211200 AAXX 21124 67551 42680 41005 10289 20141 48470 84200
                   333 59003 84830 555 91014=
202111210900 AAXX 21094 67551 42580 31205 10232 20157 48503 83100
                   333 59003 83820 555 91017=
202111180600 AAXX 18064 67551 NIL=
202111171200 AAXX 17124 67551 41680 72705 10290 20157 48470 71799 81930
                   333 59004 81935 85840 83362
                   555 91014=
202111170900 AAXX 17094 67551 42580 73005 10276 20157 48503 85230
                   333 59003 85825 84362
                   555 91018=
202111170600 AAXX 17064 67551 32980 53506 10210 20177 48506 85030
                   333 10294 20178 59008 85362
                   555 00/// 20005 91018=
202111161200 AAXX 16124 67551 42680 61505 10300 20140 48503 86200
                   333 59024 86835 555 91014=
202111160900 AAXX 16094 67551 42580 61306 10254 20163 48506 85130
                   333 59017 85820 83362
                   555 91018=
202111160600 AAXX 16064 67551 12980 70000 10186 20173 48520 60054 87030
                   333 10288 20175 59015 87362
                   555 00/// 20002 91019=
202111151500 AAXX 15154 67551 42580 41805 10276 20166 48480 82230
                   333 59021 82820 84362
                   555 10282 91015=
202111151200 AAXX 15124 67551 42980 61205 10261 20170 48506 86030
                   333 59004 86362 555 91017=
202111150900 AAXX 15094 67551 42980 71405 10204 20171 48524 72166 8707/
                   333 59002 87362 555 91020=
202111121200 AAXX 12124 67551 42880 51007 10307 20197 48499 84230
                   333 59011 84857 83362=
202111120900 AAXX 12094 67551 42880 70807 10293 20116 48498 82137
                   333 59007 82857 83362 87280=
202111120600 AAXX 12064 67551 32980 71005 10227 20144 48498 87030
                   333 10323 20184 59010 87362 91018=
202111111200 AAXX 11124 67551 42680 40606 10326 20115 48483 84100
                   333 59005 84840 91015=
202111110900 AAXX 11094 67551 42580 11504 10300 20124 48504 81100
                   333 59011 81825 555 91018=
202111110600 AAXX 11064 67551 32980 63504 10225 20135 48515 86030
                   333 10316 20170 59005 86362
                   555 00/// 20000 91019=
202111100600 AAXX 10064 67551 32980 22703 10229 20157 48520 82030
                   333 10328 20196 58014 82362
                   555 000/// 20000 91020=
202111091500 AAXX 09154 67551 42980 21505 10321 20091 48505 82200
                   333 58004 82859 555 10339 91013=
202111091200 AAXX 09124 67551 42980 32705 10334 20106 48484 83100
                   333 58006 83859 555 91015=
202111081200 AAXX 08124 67551 42980 33405 10326 20096 48496 83100
                   333 59008 83859 555 91014=
202111080900 AAXX 08094 67551 42980 00905 10303 20116 48498
                   333 59006 555 91017=
202111080600 AAXX 08064 67551 32980 33003 10225 20154 48506 83030
                   333 10321 20170 58002 83362
                   555 00/// 20000 91017=
202111071200 AAXX 07124 67551 41880 41506 10320 20093 48486 70500 84200
                   333 58002 84858=
202111070900 AAXX 07094 67551 41880 11007 10306 20109 48501 70500 81100
                   333 59011 81857=
202111070600 AAXX 07064 67551 32980 31006 10257 20110 48498 83030
                   333 10318 20174 59016 83362
                   555 00/// 91017=
202111051200 AAXX 05124 67551 42680 61206 10285 20155 48502 85130
                   333 58005 85830 84362
                   555 91017=
202111041200 AAXX 04124 67551 NIL=
202111040900 AAXX 04094 67551 42580 70000 10263 20171 48522 83130
                   333 59007 83825 87362
                   555 91020=
202111040600 AAXX 04064 67551 32980 43303 10210 20179 48521 84030
                   333 10294 20174 59005 84362
                   555 00/// 20000 91020=
202111030900 AAXX 03094 67551 42680 40905 10269 20163 48535 84230
                   333 58009 84830 81362
                   555 91020=
202111021200 AAXX 02124 67551 42980 50905 10261 20157 48494 85032
                   333 58015 85362 83080
                   555 91017=
202111011200 AAXX 01124 67551 NIL=

################################################################################
#  SYNOPS from 67561, Ndola (Zambia) | 13-00S | 028-39E | 1269 m
################################################################################
202112010900 AAXX 01094 67561 NIL=
202111301500 AAXX 30154 67561 NIL=
202111301200 AAXX 30124 67561 NIL=
202111291500 AAXX 29154 67561 NIL=
202111291200 AAXX 29124 67561 NIL=
202111290900 AAXX 29094 67561 NIL=
202111280900 AAXX 28094 67561 NIL=
202111261500 AAXX 26154 67561 NIL=
202111261200 AAXX 26124 67561 NIL=
202111260900 AAXX 26094 67561 NIL=
202111251500 AAXX 25154 67561 NIL=
202111251200 AAXX 25124 67561 NIL=
202111250600 AAXX 25064 67561 NIL=
202111241200 AAXX 24124 67561 NIL=
202111240900 AAXX 24094 67561 NIL=
202111240600 AAXX 24064 67561 NIL=
202111231500 AAXX 23154 67561 NIL=
202111231200 AAXX 23124 67561 NIL=
202111230600 AAXX 23064 67561 NIL=
202111221500 AAXX 22154 67561 NIL=
202111221200 AAXX 22124 67561 NIL=
202111220900 AAXX 22094 67561 NIL=
202111210900 AAXX 21094 67561 NIL=
202111180600 AAXX 18064 67561 NIL=
202111170600 AAXX 17064 67561 NIL=
202111161200 AAXX 16124 67561 NIL=
202111160900 AAXX 16094 67561 NIL=
202111160600 AAXX 16064 67561 NIL=
202111151500 AAXX 15154 67561 NIL=
202111151200 AAXX 15124 67561 NIL=
202111150900 AAXX 15094 67561 NIL=
202111121200 AAXX 12124 67561 NIL=
202111111200 AAXX 11124 67561 NIL=
202111110900 AAXX 11094 67561 NIL=
202111110600 AAXX 11064 67561 NIL=
202111100600 AAXX 10064 67561 NIL=
202111091500 AAXX 09154 67561 NIL=
202111091200 AAXX 09124 67561 NIL=
202111081200 AAXX 08124 67561 NIL=
202111080900 AAXX 08094 67561 NIL=
202111080600 AAXX 08064 67561 NIL=
202111071200 AAXX 07124 67561 NIL=
202111051200 AAXX 05124 67561 NIL=
202111041200 AAXX 04124 67561 NIL=
202111040900 AAXX 04094 67561 NIL=
202111040600 AAXX 04064 67561 NIL=
202111030900 AAXX 03094 67561 NIL=
202111021200 AAXX 02124 67561 NIL=
202111011200 AAXX 01124 67561 NIL=

################################################################################
#  SYNOPS from 67563, Kafironda (Zambia) | 12-36S | 028-07E | 1243 m
################################################################################
202112010900 AAXX 01094 67563 NIL=
202111301500 AAXX 30154 67563 NIL=
202111301200 AAXX 30124 67563 NIL=
202111291500 AAXX 29154 67563 NIL=
202111291200 AAXX 29124 67563 NIL=
202111290900 AAXX 29094 67563 NIL=
202111290600 AAXX 29064 67563 11978 31503 10214 20160 48/// 69904 70500 80001
                   333 10308 20176 59016 83080
                   555 00160 20000=
202111280900 AAXX 28094 67563 NIL=
202111280600 AAXX 28064 67563 31378 11002 10206 20160 48/// 70500 81600
                   333 10275 20146 59004 81707
                   555 00132 20003=
202111261500 AAXX 26154 67563 NIL=
202111261200 AAXX 26124 67563 41680 71502 10257 20180 48/// 71792 819//
                   333 5//// 81945 87645=
202111260900 AAXX 26094 67563 42480 71204 10242 20180 48/// 877//
                   333 5//// 87715=
202111251500 AAXX 25154 67563 NIL=
202111251200 AAXX 25124 67563 42980 82704 10271 20190 48/// 8807/
                   333 5//// 88360=
202111250900 AAXX 25094 67563 41480 73002 10240 20190 48/// 72162 8477/
                   333 5//// 84712 87360=
202111250600 AAXX 25064 67563 11380 73602 10191 20180 48/// 60534 72166 83770
                   333 10333 20172 58018 83708 87358
                   555 00151=
202111241200 AAXX 24124 67563 41678 70203 10320 20180 48/// 71792 85903
                   333 59043 81942 85842 83080=
202111240900 AAXX 24094 67563 41678 73303 10290 20180 48/// 70522 83170
                   333 59021 83840 86360=
202111240600 AAXX 24064 67563 31978 52803 10240 20180 48/// 70520 85070
                   333 20186 59025 85360
                   555 00170 20003=
202111231500 AAXX 23154 67563 41778 20000 10306 20180 48/// 70500 82200
                   333 59002 82850 555 10347=
202111231200 AAXX 23124 67563 41678 31503 10316 20170 48/// 70510 83200
                   333 58001 83848=
202111230600 AAXX 23064 67563 11978 51901 10214 20190 48/// 60034 70520 85030
                   333 10273 20176 58002 85359
                   555 00159 20032=
202111221500 AAXX 22154 67563 41678 73602 10233 20190 48/// 71792 85903
                   333 58010 82940 84840 86080
                   555 10266=
202111221200 AAXX 22124 67563 41678 72802 10254 20190 48/// 70562 83570
                   333 58006 83630 87360=
202111220900 AAXX 22094 67563 41975 83502 10208 20190 48/// 72192 8807/
                   333 58009 88359=
202111220600 AAXX 22064 67563 11670 83003 10190 20180 48/// 60324 79592 8197/
                   333 10292 20182 58008 81935 88358
                   555 00170 20043=
202111210900 AAXX 21094 67563 NIL=
202111210600 AAXX 21064 67563 11378 72103 10193 20170 48/// 60434 70520 8277/
                   333 10326 20180 5//// 82709 87360
                   555 00162=
202111190600 AAXX 19064 67563 11975 70000 10230 20170 48/// 60024 70520 87070
                   333 10347 20180 5////
                   555 00162=
202111180600 AAXX 18064 67563 31978 10402 10238 20180 48/// 70500 81030
                   333 10334 20154 58009 81360
                   555 00131=
202111170600 AAXX 17064 67563 31978 02101 10240 20180 48/// 70500
                   333 10327 20156 59005
                   555 00148=
202111161200 AAXX 16124 67563 41678 60607 10306 20140 48/// 70522 86200
                   333 59020 86848=
202111160900 AAXX 16094 67563 41678 51106 10292 20160 48/// 70522 85200
                   333 59011 85845=
202111160600 AAXX 16064 67563 NIL=
202111151500 AAXX 15154 67563 41678 71204 10264 20150 48/// 71792 8297/
                   333 58005 82948 87362
                   555 10335=
202111151200 AAXX 15124 67563 41675 70802 10314 20140 48/// 70522 86270
                   333 58004 86848 85362=
202111150900 AAXX 15094 67563 41678 60806 10292 20150 48/// 70522 82170
                   333 58009 82842 85361=
202111150600 AAXX 15064 67563 11978 71202 10236 20170 48/// 69904 70520 87070
                   333 10324 20189 58003 87360
                   555 00173 20990=
202111121200 AAXX 12124 67563 41678 30503 10329 20110 48/// 70500 83200
                   333 59008 83848=
202111120900 AAXX 12094 67563 41978 30604 10312 20130 48/// 70500 83030
                   333 59010 83360=
202111120600 AAXX 12064 67563 31978 21202 10235 20160 48/// 70500 80001
                   333 10356 20236 59009 82080
                   555 00134=
202111111200 AAXX 11124 67563 42680 20705 10350 20100 48/// 82200
                   333 59003 82848=
202111110900 AAXX 11094 67563 41980 00608 10318 20110 48///
                   333 59005=
202111110600 AAXX 11064 67563 31978 00706 10258 20130 48/// 70500
                   333 10376 20136 59008
                   555 00120=
202111101200 AAXX 10124 67563 41675 10503 10353 20080 48/// 70500 81100
                   333 58002 81848=
202111100600 AAXX 10064 67563 31975 00802 10250 20150 48/// 70500
                   333 10358 20137 58014
                   555 00122 20000=
202111091500 AAXX 09154 67563 41675 20802 10301 20120 48/// 70500 82100
                   333 58011 82848 555 10358=
202111091200 AAXX 09124 67563 41975 00706 10347 20090 48/// 70500
                   333 58014=
202111090600 AAXX 09064 67563 31975 10103 10244 20150 48/// 70500 81030
                   333 10356 20144 58006 81360
                   555 00124 20000=
202111081200 AAXX 08124 67563 41675 10603 10344 20120 48/// 70500 81100
                   333 59003 81848=
202111080900 AAXX 08094 67563 41975 00202 10304 20140 48/// 70500
                   333 59001=
202111080600 AAXX 08064 67563 31970 03001 10236 20160 48/// 70500
                   333 10344 20140 59002
                   555 00124 20000=
202111071200 AAXX 07124 67563 NIL=
202111070600 AAXX 07064 67563 31978 10702 10244 20140 48/// 70500 81030
                   333 10352 20138 5//// 81359
                   555 00127=
202111051200 AAXX 05124 67563 41675 30802 10316 20160 48/// 70510 83200
                   333 58001 83845=
202111050600 AAXX 05064 67563 11970 52101 10220 20170 48/// 60024 70520 80002
                   333 10327 20186 58022 85080
                   555 00169=
202111041200 AAXX 04124 67563 NIL=
202111040900 AAXX 04094 67563 NIL=
202111040600 AAXX 04064 67563 11678 72702 10208 20190 48/// 60094 72992 8197/
                   333 10320 20167 59010 81940 87359
                   555 00155=
202111030900 AAXX 03094 67563 NIL=
202111030600 AAXX 03064 67563 11970 83402 10198 20190 48/// 60014 76062 8807/
                   333 10306 20180 5//// 88359
                   555 00166=
202111021200 AAXX 02124 67563 NIL=
202111020600 AAXX 02064 67563 11978 60402 10206 20190 48/// 60264 70520 86070
                   333 10354 20164 5//// 86359
                   555 00156 20990=
202111011200 AAXX 01124 67563 NIL=
202111010600 AAXX 01064 67563 11970 32704 10256 20150 48/// 69904 70500 80001
                   333 10358 58008 83080
                   555 00166 20000=

################################################################################
#  SYNOPS from 67571, Serenje (Zambia) | 13-14S | 030-13E | 1384 m
################################################################################
202112010900 AAXX 01094 67571 42681 60605 10283 20136 48474 86200
                   333 58006 81943 86843=
202111301500 AAXX 30154 67571 42681 11504 10295 20119 48444 81300
                   333 59006 81945 555 10330=
202111301200 AAXX 30124 67571 42681 31204 10307 20116 48444 83200
                   333 59009 83845=
202111291500 AAXX 29154 67571 42780 31204 10288 20131 48443 70100 81901
                   333 59011 81956 81856 83080
                   555 10304=
202111291200 AAXX 29124 67571 42780 71205 10291 20136 48454 70222 85108
                   333 59009 85850 85280=
202111290900 AAXX 29094 67571 42680 71202 10271 20139 48474 70322 85101
                   333 59008 85836 83080=
202111280900 AAXX 28094 67571 NIL=
202111261500 AAXX 26154 67571 42582 41508 10203 20170 48482 82903
                   333 58031 81927 82627 83080
                   555 10230=
202111261200 AAXX 26124 67571 42582 61508 10220 20176 48482 86500
                   333 58030 81920 86620=
202111260900 AAXX 26094 67571 41380 81205 10188 20177 48501 75155 8377/
                   333 58034 83708 88360=
202111251500 AAXX 25154 67571 42982 71205 10224 20170 48452 8703/
                   333 58028 87360 8/9//
                   555 10238=
202111251200 AAXX 25124 67571 NIL=
202111250900 AAXX 25094 67571 42982 80602 10205 20168 48472 8807/
                   333 58024 88360=
202111250600 AAXX 25064 67571 12382 83602 10180 20164 48471 60054 85607
                   333 10298 20170 58019 85708 88280
                   555 00/// 20000=
202111241200 AAXX 24124 67571 NIL=
202111240900 AAXX 24094 67571 41682 72704 10275 20152 48443 72992 872//
                   333 59024 81937 87837=
202111240600 AAXX 24064 67571 32980 11203 10270 20153 48464 81031
                   333 10312 20205 59006 81360 81080
                   555 00/// 20001=
202111231500 AAXX 23154 67571 NIL=
202111231200 AAXX 23124 67571 NIL=
202111230600 AAXX 23064 67571 NIL=
202111221500 AAXX 22154 67571 NIL=
202111221200 AAXX 22124 67571 42780 70000 10289 20158 48443 70522 86238
                   333 58011 81950 86850 81360 87280=
202111220900 AAXX 22094 67571 42680 70603 10281 20152 48464 70522 85208
                   333 58018 81932 85832 87280=
202111210900 AAXX 21094 67571 NIL=
202111181200 AAXX 18124 67571 42679 62102 10320 20094 48444 86200
                   333 58006 81946 86846=
202111180600 AAXX 18064 67571 32976 03303 10216 20154 48472
                   333 10329 20161 58032
                   555 00/// 20000=
202111170600 AAXX 17064 67571 NIL=
202111161200 AAXX 16124 67571 42681 41207 10281 20106 48433 70500 83201
                   333 59020 81943 83843 82080=
202111160900 AAXX 16094 67571 12980 70902 10236 20144 48463 69904 70522 80008
                   333 10307 20167 59004 87280
                   555 00/// 20990=
202111160600 AAXX 16064 67571 12980 70902 10236 20144 48463 69904 70522 80008
                   333 10307 20167 59004 87280
                   555 00/// 20990=
202111151500 AAXX 15154 67571 NIL=
202111151200 AAXX 15124 67571 NIL=
202111150900 AAXX 15094 67571 NIL=
202111121200 AAXX 12124 67571 41679 70902 1//// 20136 48423 71799 872//
                   333 59020 81945 87845=
202111120900 AAXX 12094 67571 42679 30904 1//// 2//// 48454 83200
                   333 59015 83835=
202111120600 AAXX 12064 67571 32979 41803 10234 20141 48462 80001
                   333 10332 20188 59009 84080
                   555 00/// 20000=
202111111200 AAXX 11124 67571 NIL=
202111110900 AAXX 11094 67571 42679 31204 10295 20149 48475 70500 83100
                   333 59006 83836=
202111110600 AAXX 11064 67571 NIL=
202111100600 AAXX 10064 67571 NIL=
202111091500 AAXX 09154 67571 NIL=
202111091200 AAXX 09124 67571 NIL=
202111090600 AAXX 09064 67571 32970 30902 10263 20109 48463 70500 80001
                   333 10351 20198 58002 83080
                   555 00/// 20000=
202111081200 AAXX 08124 67571 42678 50902 10323 20096 48434 85200
                   333 59013 81949 85849=
202111080900 AAXX 08094 67571 42978 00602 10312 20094 48454
                   333 59009=
202111080600 AAXX 08064 67571 32978 00602 10265 20105 48464
                   333 10346 20193 59010
                   555 00/// 20000=
202111071200 AAXX 07124 67571 NIL=
202111051200 AAXX 05124 67571 42775 71804 10313 20114 48454 70522 84108
                   333 58000 84850 87280=
202111050600 AAXX 05064 67571 32975 70902 10254 20166 48494 70522 80008
                   333 10326 20178 58020 87280=
202111041200 AAXX 04124 67571 NIL=
202111040900 AAXX 04094 67571 NIL=
202111040600 AAXX 04064 67571 NIL=
202111030900 AAXX 03094 67571 42579 62703 10269 20164 48474 70522 81108
                   333 58008 81828 86280=
202111021200 AAXX 02124 67571 41656 72710 10188 20151 48451 79596 872//
                   333 58024 81940 87840=
202111011200 AAXX 01124 67571 42676 73304 10317 20194 48434 72992 872//
                   333 59001 81948 87848=
202111010600 AAXX 01064 67571 32978 10000 10248 20148 48463 80001
                   333 10350 20191 58004 81080
                   555 00/// 20000=

################################################################################
#  SYNOPS from 67575, Mkushi (Zambia) | 13-38-00S | 029-26-00E | 1237 m
################################################################################
202112010900 AAXX 01094 67575 42680 20905 10302 20154 48/// 82200
                   333 5//// 82833=
202111301500 AAXX 30154 67575 42680 11203 10307 20105 48/// 81201
                   333 5//// 81843 81080
                   555 10322=
202111301200 AAXX 30124 67575 42680 10903 10310 20137 48/// 81201
                   333 5//// 81838 81080=
202111300600 AAXX 30064 67575 32980 31104 10244 20147 48/// 80001
                   333 10319 20175 5//// 83080
                   555 00150=
202111291500 AAXX 29154 67575 41680 11303 10295 20128 48/// 81201
                   333 5//// 81840 81080
                   555 10319=
202111291200 AAXX 29124 67575 42680 31302 10306 20133 48/// 82201
                   333 5//// 82837 82080=
202111290900 AAXX 29094 67575 42680 30903 10283 20164 48/// 82201
                   333 5//// 82830 82080=
202111280900 AAXX 28094 67575 NIL=
202111280600 AAXX 28064 67575 31980 00903 10210 20153 48///
                   333 10250 20160 5////
                   555 00146=
202111261500 AAXX 26154 67575 42480 61304 10214 20178 48/// 84531
                   333 5//// 84618 81360 82080
                   555 10240=
202111261200 AAXX 26124 67575 NIL=
202111260900 AAXX 26094 67575 42480 80902 10208 20173 48/// 8757/
                   333 5//// 87617 82360=
202111251500 AAXX 25154 67575 42680 83601 10248 20163 48/// 8127/
                   333 5//// 81838 88364
                   555 10277=
202111251200 AAXX 25124 67575 42680 73601 10269 20173 48/// 81271
                   333 5//// 81837 86363 82080=
202111250900 AAXX 25094 67575 42680 70602 10240 20163 48/// 81178
                   333 5//// 81830 81361 87280=
202111250600 AAXX 25064 67575 12380 80301 10199 20169 48/// 69904 81678
                   333 10305 20186 5//// 81708 83360 85278
                   555 00181=
202111241200 AAXX 24124 67575 41660 71302 10249 20183 48/// 71792 83273
                   333 5//// 81935 83835 82360 83080=
202111240900 AAXX 24094 67575 41680 32702 10284 20199 48/// 71721 83273
                   333 5//// 81930 83830 81361 81080=
202111240600 AAXX 24064 67575 32980 62601 10235 20198 48/// 86070
                   333 10316 20185 5//// 86360
                   555 00187=
202111231500 AAXX 23154 67575 NIL=
202111231200 AAXX 23124 67575 NIL=
202111230600 AAXX 23064 67575 12980 73601 10200 20177 48/// 60374 84078
                   333 10278 20157 5//// 84360 84278
                   555 00167=
202111221500 AAXX 22154 67575 41680 81801 10248 20208 48/// 71792 8427/
                   333 5//// 81937 84837 84360
                   555 10278=
202111221200 AAXX 22124 67575 41680 72501 10252 20203 48/// 72996 83273
                   333 5//// 81937 83837 84361 81080=
202111220900 AAXX 22094 67575 42680 72702 10245 20215 48/// 81270
                   333 5//// 81830 87360=
202111210900 AAXX 21094 67575 NIL=
202111210600 AAXX 21064 67575 11365 80000 10175 20165 48/// 60214 76162 8177/
                   333 10313 20168 5//// 81706 88359
                   555 00175=
202111190600 AAXX 19064 67575 32980 62602 10233 20166 48/// 80008
                   333 10341 20175 5//// 86278
                   555 00167=
202111180600 AAXX 18064 67575 32980 13601 10228 20164 48/// 80001
                   333 10332 20162 5//// 81080
                   555 00157=
202111170900 AAXX 17094 67575 42680 11202 10299 20112 48/// 81100
                   333 5//// 81830=
202111170600 AAXX 17064 67575 32980 11201 10232 20140 48/// 80001
                   333 10310 20161 5//// 81080
                   555 00150=
202111161200 AAXX 16124 67575 42680 20903 10300 20133 48/// 82200
                   333 5//// 82838=
202111160900 AAXX 16094 67575 42680 11104 10283 20143 48/// 81200
                   333 5//// 81830=
202111160600 AAXX 16064 67575 32980 21003 10232 20150 48/// 80001
                   333 10310 20166 5//// 82080
                   555 00158=
202111151500 AAXX 15154 67575 42680 71204 10272 20150 48/// 81278
                   333 5//// 81940 81840 81361 86280
                   555 10310=
202111151200 AAXX 15124 67575 42680 61405 10296 20160 48/// 81208
                   333 5//// 81837 86280=
202111150900 AAXX 15094 67575 42680 31205 10286 20166 48/// 82201
                   333 5//// 82830 82080=
202111121200 AAXX 12124 67575 NIL=
202111120600 AAXX 12064 67575 12970 41003 10247 20151 48/// 69914 70510 81081
                   333 10341 20205 5//// 84080
                   555 00185=
202111111200 AAXX 11124 67575 41770 21203 10316 20126 48/// 70500 82200
                   333 5//// 83850=
202111110900 AAXX 11094 67575 41670 11103 10306 20146 48/// 70500 81100
                   333 5//// 81830=
202111110600 AAXX 11064 67575 31970 21207 10256 20162 48/// 70500 80001
                   333 10357 20192 5//// 82080
                   555 00190=
202111100600 AAXX 10064 67575 31970 03401 10268 20120 48/// 70500
                   333 10375 20147 5////
                   555 00146=
202111091500 AAXX 09154 67575 41770 21205 10346 20067 48/// 70500 81201
                   333 5//// 81850 82080
                   555 10375=
202111091200 AAXX 09124 67575 41670 21202 10361 20072 48/// 70500 82200
                   333 5//// 82838=
202111090600 AAXX 09064 67575 31970 00000 10230 20103 48/// 70500
                   333 10359 20142 5////
                   555 00138=
202111081200 AAXX 08124 67575 NIL=
202111080900 AAXX 08094 67575 31670 13601 10330 20071 48/// 70500 81100
                   333 5//// 81830=
202111080600 AAXX 08064 67575 31970 00301 10254 20105 48/// 70500
                   333 10351 20169 5////
                   555 00168=
202111071200 AAXX 07124 67575 NIL=
202111070600 AAXX 07064 67575 31970 01202 10268 20113 48/// 70500
                   333 10345 20162 5////
                   555 00160=
202111051200 AAXX 05124 67575 41665 81203 10335 20130 48/// 70522 82208
                   333 5//// 82838 87280=
202111050600 AAXX 05064 67575 31965 70901 10258 20160 48/// 70522 80008
                   333 10345 20186 5//// 87280
                   555 00184=
202111041200 AAXX 04124 67575 41675 23601 10332 20125 48/// 70521 82200
                   333 5//// 82840=
202111040900 AAXX 04094 67575 41675 50302 10296 20150 48/// 70522 82208
                   333 5//// 82835 84280=
202111040600 AAXX 04064 67575 12980 53601 10232 20167 48/// 69914 80008
                   333 10335 20171 5//// 85280
                   555 00167=
202111030900 AAXX 03094 67575 42680 13403 10300 20169 48/// 81200
                   333 5//// 81830=
202111030600 AAXX 03064 67575 12980 13603 10223 20174 48/// 60044 81081
                   333 10340 20180 5//// 81360 81080
                   555 00179=
202111021200 AAXX 02124 67575 41660 52401 10227 20172 48/// 79596 83273
                   333 5//// 81930 83830 81360 82080=
202111011200 AAXX 01124 67575 41675 31801 10349 20133 48/// 70500 83200
                   333 5//// 83838=

################################################################################
#  SYNOPS from 67580, Msekera (Zambia) | 13-39S | 032-34E | 1025 m
################################################################################
202112010900 AAXX 01094 67580 41676 50903 10325 20174 48/// 70500 85100
                   333 58005 85838=
202111301500 AAXX 30154 67580 41780 40902 10339 20156 48/// 70522 84200
                   333 59009 84850 555 10369=
202111301200 AAXX 30124 67580 41780 61303 10345 20151 48/// 70522
                   333 59009 86856 82080=
202111291500 AAXX 29154 67580 41780 21202 10318 20169 48/// 70511 82100
                   333 5//// 82856 555 10353=
202111291200 AAXX 29124 67580 41780 60603 10340 20161 48/// 70522 86200
                   333 5//// 86856=
202111290900 AAXX 29094 67580 NIL=
202111280900 AAXX 28094 67580 NIL=
202111280600 AAXX 28064 67580 32980 31506 10224 20161 48/// 83031
                   333 5//// 83360 81080
                   555 00/// 20000=
202111261500 AAXX 26154 67580 42680 71504 10218 20192 48/// 8453/
                   333 5//// 84634 87360
                   555 10277=
202111261200 AAXX 26124 67580 42680 71303 10269 20200 48/// 87232
                   333 5//// 87840 84360 83080=
202111260900 AAXX 26094 67580 42680 71004 10253 20197 48/// 87838
                   333 5//// 86832 82634 82360 85280=
202111251500 AAXX 25154 67580 NIL=
202111251200 AAXX 25124 67580 NIL=
202111250600 AAXX 25064 67580 NIL=
202111241200 AAXX 24124 67580 NIL=
202111240900 AAXX 24094 67580 NIL=
202111240600 AAXX 24064 67580 31978 50903 10322 20176 48/// 81031
                   333 10384 20242 59030 81361 84080
                   555 00/// 20000=
202111231500 AAXX 23154 67580 NIL=
202111231200 AAXX 23124 67580 NIL=
202111230600 AAXX 23064 67580 31976 50902 10282 20191 48/// 70522 80008
                   333 10374 20210 58008 85280
                   555 00/// 20000=
202111221500 AAXX 22154 67580 NIL=
202111221200 AAXX 22124 67580 NIL=
202111220900 AAXX 22094 67580 NIL=
202111220600 AAXX 22064 67580 31976 00904 10300 20141 48/// 70500
                   333 10356 20221 5////
                   555 00/// 20000=
202111210900 AAXX 21094 67580 NIL=
202111190600 AAXX 19064 67580 31980 00905 10298 20148 48/// 70500
                   333 10374 20247 59003=
202111180600 AAXX 18064 67580 NIL=
202111171200 AAXX 17124 67580 41780 51102 10349 20127 48/// 70511 85100
                   333 59004 85857=
202111170900 AAXX 17094 67580 41680 10903 10323 20116 48/// 70500 81100
                   333 59006 81844=
202111170600 AAXX 17064 67580 31980 20903 10284 20113 48/// 70500 80001
                   333 10338 20199 59009 82080
                   555 00/// 20015=
202111161200 AAXX 16124 67580 41776 70804 10322 20156 48/// 70522 86202
                   333 59014 86856 83080=
202111160900 AAXX 16094 67580 41676 70903 10286 20180 48/// 70522 87201
                   333 59012 87836 82080=
202111160600 AAXX 16064 67580 11980 51505 10245 20183 48/// 60154 70522 81038
                   333 10334 20189 59009 81360 85280
                   555 00/// 20000=
202111151500 AAXX 15154 67580 41580 81204 10202 20192 48/// 79562 8297/
                   333 5//// 82928 88460
                   555 10334=
202111151200 AAXX 15124 67580 41778 70903 10295 20165 48/// 70522 8527/
                   333 5//// 85850 87460=
202111150900 AAXX 15094 67580 NIL=
202111121200 AAXX 12124 67580 41775 70903 10325 20155 48/// 71722 81932
                   333 59007 81950 87850 82360 83080=
202111120600 AAXX 12064 67580 31975 11206 10285 20165 48/// 70522 80001
                   333 10372 20221 59012 81080
                   555 00/// 20000=
202111111200 AAXX 11124 67580 41770 70903 10344 20142 48/// 70522 87202
                   333 59016 87856 83080=
202111110900 AAXX 11094 67580 41670 40803 10339 20166 48/// 70500 84100
                   333 59008 84844=
202111110600 AAXX 11064 67580 31970 01006 10282 20185 48/// 70500
                   333 10384 20225 59003
                   555 00/// 20000=
202111100600 AAXX 10064 67580 31978 30905 10304 20154 48/// 70511 81031
                   333 10394 20255 58020 81361 82080
                   555 00/// 20000=
202111091500 AAXX 09154 67580 41775 50902 10355 20111 48/// 70522 81101
                   333 58009 81857 84080
                   555 10394=
202111091200 AAXX 09124 67580 41875 70903 10372 20123 48/// 70511 81108
                   333 58012 81857 86290=
202111081200 AAXX 08124 67580 41776 50802 10364 20100 48/// 70511 85100
                   333 5//// 85857=
202111080900 AAXX 08094 67580 41976 00804 10353 20108 48/// 70500
                   333 5////=
202111080600 AAXX 08064 67580 31976 00904 10309 20100 48/// 70500
                   333 10385 20227 5////
                   555 00/// 20000=
202111071200 AAXX 07124 67580 NIL=
202111070600 AAXX 07064 67580 31976 00905 10302 20112 48/// 70500
                   333 10378 20222 5////
                   555 00/// 20000=
202111051200 AAXX 05124 67580 41776 50804 10368 20132 48/// 70522 85100
                   333 58005 85857=
202111041200 AAXX 04124 67580 41778 60903 10359 20149 48/// 70522 86200
                   333 58009 86857=
202111040900 AAXX 04094 67580 41778 40903 10338 20157 48/// 70500 84100
                   333 58006 84850=
202111040600 AAXX 04064 67580 31978 00603 10297 20152 48/// 70511
                   333 10389 20205 58009
                   555 00/// 20000=
202111030900 AAXX 03094 67580 41678 52703 10338 20125 48/// 70500 85100
                   333 58009 85848=
202111021200 AAXX 02124 67580 NIL=
202111011200 AAXX 01124 67580 NIL=
202111010600 AAXX 01064 67580 31978 00906 10292 20166 48/// 70500
                   333 10376 20246 59001
                   555 00/// 20000=

################################################################################
#  SYNOPS from 67581, Chipata (Zambia) | 13-33S | 032-35E | 1028 m
################################################################################
202112010900 AAXX 01094 67581 42680 40804 10310 20159 48538 84102
                   333 58003 84835 82080 91017=
202111301500 AAXX 30154 67581 42680 50906 10335 20145 48504 85208
                   333 59007 85840 85280
                   555 10/// 91013=
202111301200 AAXX 30124 67581 42780 60403 10339 20149 48524 86202
                   333 59011 86850 83080 91014=
202111291500 AAXX 29154 67581 41680 41204 10327 20135 48511 70522 84130
                   333 59017 84845 82360
                   555 10/// 91014=
202111291200 AAXX 29124 67581 41780 61303 10323 20156 48521 70522 86200
                   333 59012 86850 91015=
202111290900 AAXX 29094 67581 41780 60401 10309 20163 48543 70522 86200
                   333 5//// 86850 91018=
202111280900 AAXX 28094 67581 NIL=
202111280600 AAXX 28064 67581 32980 51603 10212 20148 48554 85030
                   333 10//0 20182 59012 85360
                   555 00/// 20000 91021=
202111261500 AAXX 26154 67581 NIL=
202111261200 AAXX 26124 67581 42680 71205 10270 20197 48549 81938
                   333 5//// 81932 84835 83360 87280 91019=
202111260900 AAXX 26094 67581 NIL=
202111251500 AAXX 25154 67581 NIL=
202111251200 AAXX 25124 67581 NIL=
202111250900 AAXX 25094 67581 42480 81205 10250 20206 48531 70222 878//
                   333 58033 83618 87820 91018=
202111250600 AAXX 25064 67581 11475 80000 10210 20201 48530 60234 76066 8357/
                   333 10//0 20202 58026 83610 87460
                   555 00/// 20000 91018=
202111241200 AAXX 24124 67581 42880 70605 10365 20132 48478 872//
                   333 59035 87857 91010=
202111240900 AAXX 24094 67581 42780 60000 10346 20125 48524 81108
                   333 59026 81850 86280 91014=
202111240600 AAXX 24064 67581 32980 70805 10315 20135 48521 80008
                   333 10//0 20230 59028 87280
                   555 00/// 20000 91016=
202111231500 AAXX 23154 67581 NIL=
202111231200 AAXX 23124 67581 NIL=
202111230600 AAXX 23064 67581 31970 41406 10292 20152 48545 70522 80008
                   333 10//0 20221 58008 84280 91018=
202111221500 AAXX 22154 67581 42780 51405 10334 20120 48498 83202
                   333 58006 84856 83080
                   555 10/// 91012=
202111221200 AAXX 22124 67581 42780 60906 10352 20126 48525 85202
                   333 58014 85856 84080 91015=
202111220900 AAXX 22094 67581 42680 60605 10324 20145 48547 81108
                   333 58011 81846 86280 91017=
202111211200 AAXX 21124 67581 42680 61404 10334 20188 48498 84208
                   333 59006 84845 85280 91012=
202111210900 AAXX 21094 67581 NIL=
202111190600 AAXX 19064 67581 32980 63605 10290 20170 48538 80008
                   333 10//0 20252 59001 86280
                   555 00/// 20000 91018=
202111180600 AAXX 18064 67581 31980 03605 10284 20161 48548 70500
                   333 58008 555 00/// 20000 91018=
202111171200 AAXX 17124 67581 41780 51402 10340 20149 48509 70522 85100
                   333 59003 91013=
202111170900 AAXX 17094 67581 41980 40404 10311 20148 48532 70500
                   333 59004 84830 91017=
202111170600 AAXX 17064 67581 31980 00406 10275 20139 48528 70500
                   333 10//0 20205 59006
                   555 00/// 91017=
202111161200 AAXX 16124 67581 42680 50904 10310 20186 48507 84202
                   333 59015 84840 82080 91014=
202111160900 AAXX 16094 67581 42680 51006 10280 20181 48534 84232
                   333 59010 84835 82360 82080 91017=
202111160600 AAXX 16064 67581 31980 41006 10249 20185 48530 60144 83032
                   333 10//0 20192 59013 83360 82080
                   555 00/// 20000 91018=
202111151500 AAXX 15154 67581 NIL=
202111151200 AAXX 15124 67581 42680 70604 10292 20179 48519 8627/
                   333 58004 86840 87460 91016=
202111150900 AAXX 15094 67581 42680 51004 10301 20180 48542 83132
                   333 58004 83838 82360 82080 91018=
202111121200 AAXX 12124 67581 41780 70403 10344 20160 48504 71722 81932
                   333 59007 81950 87850 82360 83080
                   555 91013=
202111120600 AAXX 12064 67581 31980 00913 1//// 20175 48543 70500
                   333 10//0 20232 59011
                   555 00/// 91017=
202111111200 AAXX 11124 67581 41680 50402 10318 20177 48507 70522 81930
                   333 5//// 81940 85845 81360 91013=
202111110900 AAXX 11094 67581 41980 40605 10331 20178 48538 70500 84100
                   333 5//// 84830 91017=
202111110600 AAXX 11064 67581 31980 01607 10274 20188 48542 70500
                   333 10/// 20236 59008
                   555 00/// 91018=
202111100600 AAXX 10064 67581 31950 30810 10295 20165 48553 70522 80002
                   333 10/// 20257 58018 83080
                   555 00/// 20000 91019=
202111091500 AAXX 09154 67581 NIL=
202111091200 AAXX 09124 67581 41980 70906 10374 20148 48515 70522 85038
                   333 5//// 85360 87280 91014=
202111090600 AAXX 09064 67581 31980 70705 10290 20163 48535 70500
                   333 20258 87280 555 00/// 91017=
202111081200 AAXX 08124 67581 41680 40406 10370 20134 48/// 70500 84100
                   333 5//// 84845=
202111080900 AAXX 08094 67581 41980 03606 10340 20137 48/// 70500
                   333 5////=
202111080600 AAXX 08064 67581 31980 00610 10304 20128 48/// 70500
                   333 10//0 20217 5////
                   555 00///=
202111071200 AAXX 07124 67581 41680 51208 10363 20137 48513 70522 85100
                   333 5//// 85845 91013=
202111070900 AAXX 07094 67581 41680 30608 10344 20150 48550 70500 83100
                   333 5//// 83832 91017=
202111070600 AAXX 07064 67581 31980 00607 10297 20133 48540 70500
                   333 10//0 20192 5////
                   555 00/// 91018=
202111051200 AAXX 05124 67581 NIL=
202111050600 AAXX 05064 67581 32980 00805 10302 20148 48560
                   333 10//0 20232 58009
                   555 00/// 20000 91020=
202111041200 AAXX 04124 67581 41780 40405 10355 20160 48532 70500 84200
                   333 58007 84856 91015=
202111040900 AAXX 04094 67581 41780 40904 10338 20165 48556 70522 84100
                   333 58005 84850 91018=
202111040600 AAXX 04064 67581 31980 00404 10294 20158 48549 70500
                   333 10//0 20211 58008
                   555 00/// 91019=
202111030900 AAXX 03094 67581 41680 62106 10336 20146 48540 70522 86100
                   333 58011 86845 91017=
202111021200 AAXX 02124 67581 NIL=
202111011200 AAXX 01124 67581 NIL=
202111010600 AAXX 01064 67581 11980 00804 10284 48543 69904 70500
                   333 10//0 20244 58001
                   555 00/// 20000 91017=

################################################################################
#  SYNOPS from 67583, Lundazi (Zambia) | 12-17S | 033-12E | 1143 m
################################################################################
202112010900 AAXX 01094 67583 NIL=
202112010600 AAXX 01064 67583 31960 01502 10284 20178 48/// 70500
                   333 10350 20//0 5////
                   555 00/// 20000=
202111301500 AAXX 30154 67583 NIL=
202111301200 AAXX 30124 67583 NIL=
202111291500 AAXX 29154 67583 NIL=
202111291200 AAXX 29124 67583 NIL=
202111290900 AAXX 29094 67583 41660 30901 10326 20139 48/// 70500 83100
                   333 5//// 83840=
202111290600 AAXX 29064 67583 31960 00901 10274 20169 48/// 70500
                   333 10324 2//// 5////
                   555 00/// 20000=
202111280900 AAXX 28094 67583 NIL=
202111261500 AAXX 26154 67583 NIL=
202111261200 AAXX 26124 67583 NIL=
202111260900 AAXX 26094 67583 42680 71704 10272 20174 48/// 84131
                   333 5//// 84835 85360 81080=
202111251500 AAXX 25154 67583 NIL=
202111251200 AAXX 25124 67583 NIL=
202111250900 AAXX 25094 67583 42660 50902 10308 20174 48/// 70522 85102
                   333 5//// 85840 81080=
202111250600 AAXX 25064 67583 11960 71302 10272 20172 48/// 69904 70522 86032
                   333 10400 2//// 5//// 86360 81080=
202111241200 AAXX 24124 67583 NIL=
202111240900 AAXX 24094 67583 41560 12702 10346 20135 48/// 70500 81100
                   333 5//// 81850=
202111240600 AAXX 24064 67583 NIL=
202111231500 AAXX 23154 67583 NIL=
202111231200 AAXX 23124 67583 NIL=
202111230600 AAXX 23064 67583 NIL=
202111221500 AAXX 22154 67583 NIL=
202111221200 AAXX 22124 67583 NIL=
202111220900 AAXX 22094 67583 NIL=
202111210900 AAXX 21094 67583 NIL=
202111180600 AAXX 18064 67583 32980 30000 10266 20150 48/// 70200 83031
                   333 10344 2//// 5//// 83360 81080
                   555 00///=
202111171200 AAXX 17124 67583 42780 70000 10328 20137 48/// 70222 86231
                   333 5//// 86856 81358 81080=
202111170900 AAXX 17094 67583 42780 50000 10328 20125 48/// 70222 85201
                   333 5//// 85850 81080=
202111170600 AAXX 17064 67583 32980 10000 10284 20129 48/// 70200 80001
                   333 10320 2//// 5//// 81080
                   555 00///=
202111161200 AAXX 16124 67583 42780 60000 10312 20135 48/// 70222 84202
                   333 5//// 84850 82080=
202111160900 AAXX 16094 67583 42780 61203 10294 20157 48/// 70222 82208
                   333 5//// 83850 86280=
202111160600 AAXX 16064 67583 32980 70902 10256 20164 48/// 70222 81038
                   333 10330 2//// 5//// 81360 86280
                   555 00///=
202111151500 AAXX 15154 67583 NIL=
202111151200 AAXX 15124 67583 42780 70605 10316 20147 48/// 70222 8323/
                   333 5//// 83850 87360=
202111150900 AAXX 15094 67583 42780 61202 10302 20165 48/// 70222 82230
                   333 5//// 82850 84360=
202111121200 AAXX 12124 67583 NIL=
202111111200 AAXX 11124 67583 NIL=
202111110900 AAXX 11094 67583 NIL=
202111110600 AAXX 11064 67583 31960 10604 10286 20165 48/// 70500 80001
                   333 10355 20/// 5//// 81080
                   555 00/// 20000=
202111100600 AAXX 10064 67583 31960 10902 10295 20170 48/// 70500 80001
                   333 10364 20/// 5//// 81080
                   555 00/// 20000=
202111091500 AAXX 09154 67583 NIL=
202111091200 AAXX 09124 67583 41960 61601 10354 20099 48/// 70522 80008
                   333 5//// 86280=
202111090600 AAXX 09064 67583 31960 10901 10288 20128 48/// 70500 80001
                   333 10350 2//// 5//// 81080
                   555 00/// 20000=
202111081200 AAXX 08124 67583 41760 20803 10352 20117 48/// 70500 81101
                   333 5//// 81850 82080=
202111080900 AAXX 08094 67583 41660 11703 10338 20118 48/// 70500 81100
                   333 5//// 81845=
202111080600 AAXX 08064 67583 31960 00201 10288 20138 48/// 70500
                   333 10354 2//// 5////
                   555 00/// 20000=
202111071200 AAXX 07124 67583 NIL=
202111051200 AAXX 05124 67583 NIL=
202111041200 AAXX 04124 67583 NIL=
202111040900 AAXX 04094 67583 41760 31304 10340 20138 48/// 70500 83100
                   333 5//// 83850=
202111040600 AAXX 04064 67583 32960 50000 10290 20150 48/// 70522 81038
                   333 10364 2//// 5//// 81360 85280
                   555 00///=
202111030900 AAXX 03094 67583 41660 41702 10322 20151 48/// 70500 84101
                   333 5//// 84845 81080=
202111030600 AAXX 03064 67583 31960 50000 10274 20169 48/// 70522 80008
                   333 10368 2//// 5//// 85280=
202111021200 AAXX 02124 67583 42780 70000 10368 20129 48/// 70222 871//
                   333 5//// 87856=
202111011200 AAXX 01124 67583 41759 73602 10350 20139 48/// 70522 84108
                   333 5//// 84856 87280=

################################################################################
#  SYNOPS from 67599, Mfuwe (Zambia) | 13-16S | 031-56E | 568 m
################################################################################
202112010900 AAXX 01094 67599 NIL=
202111301500 AAXX 30154 67599 NIL=
202111301200 AAXX 30124 67599 NIL=
202111291500 AAXX 29154 67599 NIL=
202111291200 AAXX 29124 67599 NIL=
202111290900 AAXX 29094 67599 NIL=
202111280900 AAXX 28094 67599 NIL=
202111261500 AAXX 26154 67599 NIL=
202111261200 AAXX 26124 67599 NIL=
202111260900 AAXX 26094 67599 41560 73603 1//// 20212 48546 70522 8527/
                   333 58037 85828 87460 91019=
202111251500 AAXX 25154 67599 NIL=
202111251200 AAXX 25124 67599 NIL=
202111250900 AAXX 25094 67599 41560 71507 10282 20226 70522 8427/
                   333 58047 84827 87460 91015=
202111250600 AAXX 25064 67599 11950 80000 10245 20223 48515 69944 76122 8807/
                   333 10433 20225 58039 88460
                   555 00/// 20000 91016=
202111241200 AAXX 24124 67599 41670 43604 10408 20163 48468 70521 84102
                   333 59041 84845 82080 91006=
202111240900 AAXX 24094 67599 41970 20905 10384 20145 48504 70500 80002
                   333 59035 82080 91010=
202111240600 AAXX 24064 67599 NIL=
202111231500 AAXX 23154 67599 NIL=
202111231200 AAXX 23124 67599 NIL=
202111230600 AAXX 23064 67599 NIL=
202111221500 AAXX 22154 67599 NIL=
202111221200 AAXX 22124 67599 NIL=
202111220900 AAXX 22094 67599 NIL=
202111210900 AAXX 21094 67599 NIL=
202111180600 AAXX 18064 67599 32980 00203 10321 20170 48535
                   333 10404 20200 58000
                   555 00/// 91014=
202111171200 AAXX 17124 67599 42680 22907 10382 20141 48509 82100
                   333 59008 82845 91009=
202111170600 AAXX 17064 67599 NIL=
202111161200 AAXX 16124 67599 42680 50608 10360 20186 48510 85132
                   333 59011 85846 82362 83080 91010=
202111160900 AAXX 16094 67599 42680 50908 10332 20191 48531 83138
                   333 59006 83842 81360 85280 91013=
202111160600 AAXX 16064 67599 NIL=
202111151500 AAXX 15154 67599 41657 71715 10321 20192 48515 79522 8197/
                   333 58017 81948 82848 87359
                   555 10384 91012=
202111151200 AAXX 15124 67599 42680 70210 10350 20184 48518 81178
                   333 58010 81845 85360 85280 91011=
202111150900 AAXX 15094 67599 42680 71011 10350 20182 48543 85108
                   333 58001 85840 86280 91014=
202111121200 AAXX 12124 67599 NIL=
202111120600 AAXX 12064 67599 31975 20908 10306 20188 48527 70500 82030
                   333 10406 20248 59013 82360 91014=
202111111200 AAXX 11124 67599 NIL=
202111110900 AAXX 11094 67599 42680 20909 10363 20184 48537 82100
                   333 59007 82842 91013=
202111110600 AAXX 11064 67599 32980 00807 10320 20184 48544
                   333 10414 20230 59006
                   555 00/// 91015=
202111100600 AAXX 10064 67599 31970 00703 10326 20166 48550 70500
                   333 10430 20207 58015
                   555 00/// 91016=
202111091500 AAXX 09154 67599 42680 50910 10400 20135 48504 81101
                   333 58007 81848 85080
                   555 10430 91008=
202111091200 AAXX 09124 67599 41675 30606 10413 20161 48518 70500 82101
                   333 58013 82846 82080 91009=
202111081200 AAXX 08124 67599 41660 41007 10415 20150 48520 70521 84100
                   333 59015 84840 91007=
202111080900 AAXX 08094 67599 41959 03507 10386 20144 48530 70500
                   333 59005 91011=
202111080600 AAXX 08064 67599 NIL=
202111071200 AAXX 07124 67599 NIL=
202111070600 AAXX 07064 67599 31957 00612 10325 20152 48514 70500
                   333 10415 20215 59020 91014=
202111051200 AAXX 05124 67599 NIL=
202111041200 AAXX 04124 67599 NIL=
202111040900 AAXX 04094 67599 NIL=
202111040600 AAXX 04064 67599 31958 00205 10320 20171 48545 70500
                   333 10413 20242 58004 91015=
202111030900 AAXX 03094 67599 NIL=
202111030600 AAXX 03064 67599 11958 33303 10286 20201 48530 60024 70500 80001
                   333 10415 20223 58009 83080 91015=
202111021200 AAXX 02124 67599 NIL=
202111011200 AAXX 01124 67599 NIL=

################################################################################
#  SYNOPS from 67625, Kalabo (Zambia) | 14-51S | 022-42E | 1033 m
################################################################################
202112010900 AAXX 01094 67625 42982 53310 10300 20181 48/// 80003
                   333 58002 85075=
202111301500 AAXX 30154 67625 42882 71808 10330 20155 48/// 81163
                   333 59029 81857 81360 87075
                   555 10346=
202111301200 AAXX 30124 67625 42782 11214 10335 20152 48/// 81103
                   333 59046 81857 81075=
202111291500 AAXX 29154 67625 42982 71803 10275 20193 48/// 81033
                   333 81360 87075 555 10282=
202111291200 AAXX 29124 67625 42982 71805 10265 20193 48/// 85033
                   333 85360 870/5=
202111290900 AAXX 29094 67625 42482 72205 10230 20200 48/// 8112/
                   333 81815 87460=
202111280900 AAXX 28094 67625 NIL=
202111280600 AAXX 28064 67625 32982 70409 10240 20189 48/// 81033
                   333 10285 20198 59014 81360 87075
                   555 00/// 20993=
202111261500 AAXX 26154 67625 42682 11308 10315 20173 48/// 81363
                   333 58002 81949 81850 81360 81075
                   555 10320=
202111261200 AAXX 26124 67625 42682 20312 10305 20177 48/// 82300
                   333 58010 82948 82850=
202111260900 AAXX 26094 67625 42682 13617 10285 20180 48/// 81130
                   333 58037 81841 81360=
202111251500 AAXX 25154 67625 42682 70927 10240 20171 48/// 82363
                   333 58035 82942 83360 87075
                   555 10330=
202111251200 AAXX 25124 67625 42782 73317 10325 20180 48/// 82103
                   333 59006 82850 87075=
202111250900 AAXX 25094 67625 42682 73425 10290 20187 48/// 81133
                   333 59016 81840 82360 87075=
202111250600 AAXX 25064 67625 32982 70216 10235 20187 48/// 81033
                   333 10342 20200 59022 81360 87075
                   555 00/// 20000=
202111241200 AAXX 24124 67625 42782 71209 10330 20155 48/// 81303
                   333 59022 81950 81856 87075=
202111240900 AAXX 24094 67625 42682 72714 10291 20198 48/// 81103
                   333 59015 81836 87075=
202111240600 AAXX 24064 67625 32982 73509 10230 20208 48/// 82033
                   333 10325 20205 59010 82360 87075
                   555 00/// 20001=
202111231500 AAXX 23154 67625 42682 42003 10310 20170 48/// 82363
                   333 58001 82948 81850 83360 84075
                   555 10325=
202111231200 AAXX 23124 67625 42682 22115 10305 20187 48/// 82133
                   333 58007 82846 82360 82075=
202111230900 AAXX 23094 67625 42682 62814 10265 20184 48/// 81133
                   333 59003 81833 85360 86075=
202111230600 AAXX 23064 67625 12982 73407 10215 20188 48/// 60014 82033
                   333 10280 20175 59005 82360 87075
                   555 00/// 20005=
202111221500 AAXX 22154 67625 41682 73514 10240 20206 48/// 75052 8116/
                   333 81830 87360 555 10280=
202111221200 AAXX 22124 67625 42682 42720 10275 20186 48/// 81133
                   333 81835 82360 84075=
202111220900 AAXX 22094 67625 41482 83317 10215 20195 48/// 75052 8312/
                   333 83815 88460=
202111210900 AAXX 21094 67625 NIL=
202111190600 AAXX 19064 67625 32982 53110 10210 20189 48/// 83033
                   333 10320 20100 58031 83360 85075=
202111180600 AAXX 18064 67625 32982 60318 10225 20185 48/// 8603/
                   333 10335 20185 59006 86360
                   555 00/// 20000=
202111171200 AAXX 17124 67625 42782 33615 10325 20177 48/// 82103
                   333 59015 82856 83075=
202111170900 AAXX 17094 67625 42682 53013 10298 20191 48/// 81103
                   333 59018 81842 85075=
202111170600 AAXX 17064 67625 32982 63110 10230 20199 48/// 80003
                   333 10321 20195 59029 86075
                   555 00/// 20005=
202111161200 AAXX 16124 67625 42782 20614 10307 20177 48/// 81103
                   333 59012 81850 82075=
202111160900 AAXX 16094 67625 42982 60911 10273 20195 48/// 80003
                   333 59019 86075=
202111160600 AAXX 16064 67625 12982 70910 10210 20187 48/// 60054 80003
                   333 10300 20175 59017 87075
                   555 00/// 20029=
202111151500 AAXX 15154 67625 42982 70633 10225 20171 48/// 87023
                   333 87460 87075 555 10300=
202111151200 AAXX 15124 67625 42682 70610 10297 20200 48/// 81133
                   333 81840 81360 87075=
202111150900 AAXX 15094 67625 42982 71114 10248 20201 48/// 85023
                   333 85460 87075=
202111121200 AAXX 12124 67625 NIL=
202111120600 AAXX 12064 67625 32982 83611 10215 20183 48/// 8803/
                   333 10316 20210 58001 88360
                   555 00/// 20002=
202111111200 AAXX 11124 67625 NIL=
202111110900 AAXX 11094 67625 NIL=
202111110600 AAXX 11064 67625 12982 71108 10220 20174 48/// 60024 8702/
                   333 10338 20195 59007 87460
                   555 00/// 20995=
202111100600 AAXX 10064 67625 12982 72408 10220 20182 48/// 69954 85033
                   333 10358 20190 58028 85360 87075
                   555 00/// 20000=
202111091500 AAXX 09154 67625 NIL=
202111091200 AAXX 09124 67625 NIL=
202111081200 AAXX 08124 67625 42882 72807 10350 20153 48/// 81103
                   333 81857 87075=
202111080900 AAXX 08094 67625 42982 71910 10300 20172 48/// 80003
                   333 87075=
202111080600 AAXX 08064 67625 32982 71912 10250 20154 48/// 82033
                   333 10360 20200 59001 82360 87075
                   555 00/// 20000=
202111071200 AAXX 07124 67625 NIL=
202111051200 AAXX 05124 67625 NIL=
202111041200 AAXX 04124 67625 NIL=
202111040900 AAXX 04094 67625 NIL=
202111040600 AAXX 04064 67625 12982 73009 10215 20182 48/// 60114 87023
                   333 10335 20190 59013 87460 87075
                   555 00/// 20017=
202111030900 AAXX 03094 67625 NIL=
202111021200 AAXX 02124 67625 41682 53328 10309 20193 48/// 71522 82333
                   333 59005 82945 82848 83360 85075=
202111011200 AAXX 01124 67625 42982 30311 10320 20160 48/// 83030
                   333 83360=

################################################################################
#  SYNOPS from 67633, Mongu (Zambia) | 15-15S | 023-09E | 1052 m
################################################################################
202112010900 AAXX 01094 67633 42980 23604 10306 20183 48511 80002
                   333 58000 82080 555 91015=
202112010600 AAXX 01064 67633 32980 21502 10250 20186 48506 80002
                   333 10356 20190 59003 82080
                   555 00174 20000 91016=
202111301500 AAXX 30154 67633 42780 50903 10333 20141 48473 83232
                   333 59028 81950 82850 83360 82080
                   555 10356 91011=
202111301200 AAXX 30124 67633 42680 30304 10340 20136 48490 83102
                   333 59032 83840 82080
                   555 91012=
202111291500 AAXX 29154 67633 NIL=
202111291200 AAXX 29124 67633 42680 63304 10282 20202 48513 82108
                   333 58015 82845 86280
                   555 91016=
202111290900 AAXX 29094 67633 42680 72802 10245 20195 48530 82108
                   333 58008 82840 87280
                   555 91019=
202111280900 AAXX 28094 67633 42680 40805 10290 20183 48529 83202
                   333 59023 83840 83080
                   555 91018=
202111280600 AAXX 28064 67633 32980 30612 10245 20162 48528 81032
                   333 10296 20188 59010 81360 82080
                   555 00175 20003 91018=
202111261500 AAXX 26154 67633 NIL=
202111261200 AAXX 26124 67633 42680 60508 10316 20178 48521 70222 86200
                   333 58028 86850 91017=
202111260900 AAXX 26094 67633 42680 40612 10285 20184 48541 70222 83130
                   333 58029 83845 81360
                   555 91019=
202111260600 AAXX 26064 67633 32680 40605 10245 20195 48537 69904 70322 81130
                   333 10316 20185 58032 81840 83360
                   555 00177 20003 91020=
202111251500 AAXX 25154 67633 NIL=
202111251200 AAXX 25124 67633 42680 60612 10310 20198 48491 70322 84231
                   333 58000 84850 82360 83080 91013=
202111250900 AAXX 25094 67633 42980 20110 10286 20191 48512 82031
                   333 59004 82360 82080 91016=
202111250600 AAXX 25064 67633 32980 40515 10240 20189 48505 80001
                   333 10338 20205 59008 84080
                   555 00195 20000 91016=
202111241200 AAXX 24124 67633 NIL=
202111240900 AAXX 24094 67633 42680 52701 10285 20219 48516 81101
                   333 59016 81840 85080
                   555 91016=
202111240600 AAXX 24064 67633 32980 73604 10246 20199 48514 83033
                   333 10321 20216 59008 83360 87080
                   555 00209 20006 91017=
202111231500 AAXX 23154 67633 42880 42501 10317 20188 48498 84132
                   333 59004 84857 82360 84080
                   555 84857 82360 84080
                   555 10321 91014=
202111231200 AAXX 23124 67633 45880 52705 10299 20199 48512 84132
                   333 58001 84857 83360 85280 91016=
202111230600 AAXX 23064 67633 12980 60205 10223 20180 48517 60064 83038
                   333 10292 20186 58002 83360 86280
                   555 00184 20013 91018=
202111221500 AAXX 22154 67633 41580 73205 10272 20189 48496 71799 85238
                   333 58041 81925 84825 83360 85280 91014=
202111221200 AAXX 22124 67633 NIL=
202111220900 AAXX 22094 67633 41480 73407 10219 20197 48521 72166 8457/
                   333 58032 84616 87460 91018=
202111210900 AAXX 21094 67633 NIL=
202111210600 AAXX 21064 67633 32980 33603 10225 20187 48502 70200 83030
                   333 10290 20201 58000 83360
                   555 00185 91016=
202111180900 AAXX 18094 67633 42980 50602 10280 20195 48523 83032
                   333 58011 83360 84080 91017=
202111180600 AAXX 18064 67633 NIL=
202111170900 AAXX 17094 67633 42680 63402 10290 20198 48513 70322 81101
                   333 59005 81845 84080 91016=
202111170600 AAXX 17064 67633 32980 23606 10240 20193 48506 70100 80001
                   333 10326 20197 59014 82080
                   555 00188 91016=
202111161200 AAXX 16124 67633 42680 63605 10315 20195 48492 70222 86202
                   333 59022 86850 81080
                   555 91014=
202111160900 AAXX 16094 67633 42680 20704 10286 20194 48515 70300 81102
                   333 59021 81840 82080
                   555 91017=
202111160600 AAXX 16064 67633 32980 40901 10230 20189 48518 60083 70222 81032
                   333 10308 20178 59013 81360 83080
                   555 00178 20003 91018=
202111151500 AAXX 15154 67633 41680 70715 10241 20156 48498 79599 8193/
                   333 58012 91935 555 10308 91015=
202111151200 AAXX 15124 67633 42680 61702 10300 20196 48513 83232
                   333 58006 83840 82360 86080
                   555 91016=
202111150900 AAXX 15094 67633 42980 60901 10254 20198 48532 84032
                   333 58004 84360 85080
                   555 91019=
202111150600 AAXX 15064 67633 12980 83601 10195 20182 48525 60434 8807/
                   333 10335 20171 58009 88460
                   555 00172 20000 91019=
202111121200 AAXX 12124 67633 42780 73405 10238 20174 48498 8113/
                   333 58010 81856 87360 91015=
202111120600 AAXX 12064 67633 11780 73102 10208 20181 48511 69934 72992 8193/
                   333 10305 20202 59002 81956 87360
                   555 00196 20000 91017=
202111111200 AAXX 11124 67633 42980 71504 10285 20176 48496 83038
                   333 59007 83360 87280
                   555 91014=
202111110900 AAXX 11094 67633 NIL=
202111110600 AAXX 11064 67633 32980 71005 10235 20160 48518 85038
                   333 10336 20210 59007 85360 87280
                   555 00185 20003 91017=
202111100600 AAXX 10064 67633 NIL=
202111091500 AAXX 09154 67633 NIL=
202111091200 AAXX 09124 67633 NIL=
202111081200 AAXX 08124 67633 42680 33002 10356 20149 48481 83200
                   333 59007 83850 555 91011=
202111080900 AAXX 08094 67633 NIL=
202111080600 AAXX 08064 67633 32980 30000 10256 20153 48503 83031
                   333 10380 20198 58006 83360 83080
                   555 00192 20000 91015=
202111071200 AAXX 07124 67633 42680 40903 10369 20126 48491 84200
                   333 59009 84850 91012=
202111070900 AAXX 07094 67633 42980 03601 10350 20141 48511
                   333 59014 91015=
202111070600 AAXX 07064 67633 32980 00902 10280 20180 48500
                   333 10367 20188 59022
                   555 00190 20000 91015=
202111051200 AAXX 05124 67633 42980 71301 10288 20181 48519 8703/
                   333 58010 87360 91017=
202111041200 AAXX 04124 67633 NIL=
202111040900 AAXX 04094 67633 42980 73603 10285 20184 48/// 8707/
                   333 58004 87460 91018=
202111040600 AAXX 04064 67633 12980 73603 10260 20171 48506 60034 83038
                   333 10337 20190 59020 83360 87280
                   555 00200 91016=
202111030900 AAXX 03094 67633 42980 23603 10285 20193 48524 80002
                   333 58042 82080 555 91017=
202111021200 AAXX 02124 67633 NIL=
202111011200 AAXX 01124 67633 NIL=

################################################################################
#  SYNOPS from 67641, Kaoma (Zambia) | 14-48S | 024-48E | 1213 m
################################################################################
202112010900 AAXX 01094 67641 42980 33501 10310 20144 48508 80001
                   333 59010 83080 91015=
202111301500 AAXX 30154 67641 NIL=
202111301200 AAXX 30124 67641 42880 33604 10335 20159 48508 82101
                   333 59007 82857 81080 91015=
202111300900 AAXX 30094 67641 42780 21203 10307 20157 48517 81101
                   333 59018 81856 82080 91016=
202111291500 AAXX 29154 67641 NIL=
202111291200 AAXX 29124 67641 42780 62003 10316 20180 48513 84202
                   333 5//// 84856 82080 91016=
202111290900 AAXX 29094 67641 42680 60000 10283 20185 48531 81138
                   333 5//// 81840 81360 86280 91018=
202111280900 AAXX 28094 67641 NIL=
202111261500 AAXX 26154 67641 NIL=
202111261200 AAXX 26124 67641 42680 61804 10271 20185 48524 82230
                   333 58020 82845 85360 91017=
202111260900 AAXX 26094 67641 42680 71202 10255 20182 48537 83230
                   333 58026 83840 84360 91020=
202111260600 AAXX 26064 67641 32580 33602 10228 20180 48533 81131
                   333 10305 20181 58041 81820 81360 81080
                   555 00/// 20000 91020=
202111251500 AAXX 25154 67641 NIL=
202111251200 AAXX 25124 67641 42680 40503 10285 20184 48506 82130
                   333 58005 82845 82360 91015=
202111250900 AAXX 25094 67641 42680 70602 10247 20189 48511 82138
                   333 58005 82830 82360 85280 91016=
202111250600 AAXX 25064 67641 NIL=
202111241200 AAXX 24124 67641 42780 32204 10324 20169 48505 82231
                   333 59004 82856 81361 81080 91015=
202111240900 AAXX 24094 67641 42680 42802 10290 20184 48512 81132
                   333 59011 81845 83360 81080 91016=
202111240600 AAXX 24064 67641 NIL=
202111231500 AAXX 23154 67641 NIL=
202111231200 AAXX 23124 67641 42680 32706 10305 20183 48507 83131
                   333 59007 83848 81360 81080 91015=
202111230600 AAXX 23064 67641 12980 60000 10205 20190 48516 69944 86030
                   333 10260 20182 59001 86360
                   555 00/// 20066 91017=
202111221500 AAXX 22154 67641 NIL=
202111221200 AAXX 22124 67641 NIL=
202111220900 AAXX 22094 67641 NIL=
202111210900 AAXX 21094 67641 NIL=
202111180900 AAXX 18094 67641 42680 62708 10288 20176 48517 81130
                   333 58019 81845 86360 91016=
202111180600 AAXX 18064 67641 NIL=
202111171200 AAXX 17124 67641 42780 42704 10325 20154 48491 84201
                   333 58004 84856 81080 91013=
202111170900 AAXX 17094 67641 42780 23003 10305 20168 48501 82101
                   333 59013 82856 81080 91015=
202111170600 AAXX 17064 67641 32980 22802 10241 20172 48497 80001
                   333 10346 20180 59016 82080
                   555 00/// 20992 91015=
202111161200 AAXX 16124 67641 42780 31406 10335 20153 48488 83200
                   333 59021 83856 91013=
202111160900 AAXX 16094 67641 NIL=
202111160600 AAXX 16064 67641 12980 40000 10224 20186 48510 60992 80001
                   333 10325 20172 59021 84080
                   555 00/// 20009 91016=
202111151500 AAXX 15154 67641 NIL=
202111151200 AAXX 15124 67641 42780 60602 10310 20193 48508 82231
                   333 5//// 82850 81360 84080 91015=
202111150900 AAXX 15094 67641 42680 61002 10285 20202 48542 82138
                   333 5//// 82845 81360 86280 91018=
202111121200 AAXX 12124 67641 NIL=
202111120600 AAXX 12064 67641 32980 70601 10232 20153 48503 87030
                   333 10324 20202 59014 87360
                   555 00/// 20000 91016=
202111111200 AAXX 11124 67641 42978 70604 10301 20169 48509 87030
                   333 58009 87360 91015=
202111110900 AAXX 11094 67641 NIL=
202111110600 AAXX 11064 67641 32975 71006 10251 20168 48518 87030
                   333 10366 20222 58000 87360
                   555 00/// 20000 91017=
202111101200 AAXX 10124 67641 42880 21603 10357 20172 48504 82100
                   333 58017 82857 91014=
202111100600 AAXX 10064 67641 32980 70000 10254 20172 48518 87030
                   333 10368 20229 58026 87360
                   555 00/// 20000 91017=
202111091500 AAXX 09154 67641 NIL=
202111091200 AAXX 09124 67641 42880 43602 10354 20159 48487 84200
                   333 58002 84857 91013=
202111090900 AAXX 09094 67641 42980 01402 10335 20168 48500
                   333 58006 91014=
202111081200 AAXX 08124 67641 42880 20000 10356 20158 48485 82201
                   333 5//// 82857 81080 91013=
202111080900 AAXX 08094 67641 42980 12812 10318 20172 48492 80001
                   333 5//// 81080 91014=
202111080600 AAXX 08064 67641 31975 30000 10238 20168 48484 70500 80001
                   333 10365 20183 59001 83080
                   555 00/// 20000 91014=
202111071200 AAXX 07124 67641 NIL=
202111051200 AAXX 05124 67641 NIL=
202111050600 AAXX 05064 67641 12980 61404 10220 20188 48531 86030
                   333 10338 20183 58023 86360
                   555 00/// 20000 91020=
202111041200 AAXX 04124 67641 NIL=
202111040900 AAXX 04094 67641 NIL=
202111040600 AAXX 04064 67641 32980 70601 10215 20178 48506 87030
                   333 10350 20180 5//// 87360
                   555 00/// 20006 91016=
202111030900 AAXX 03094 67641 NIL=
202111021200 AAXX 02124 67641 NIL=
202111011200 AAXX 01124 67641 42880 62606 10336 20159 48483 84230
                   333 5//// 84857 82360 91014=

################################################################################
#  SYNOPS from 67655, Mumbwa (Zambia) | 15-04S | 027-11E | 1216 m
################################################################################
202112010900 AAXX 01094 67655 NIL=
202111301500 AAXX 30154 67655 NIL=
202111301200 AAXX 30124 67655 NIL=
202111291500 AAXX 29154 67655 NIL=
202111291200 AAXX 29124 67655 NIL=
202111290900 AAXX 29094 67655 NIL=
202111290600 AAXX 29064 67655 32980 60609 10227 20156 48549 86030
                   333 10292 20179 59012 86359
                   555 00/// 91020=
202111280900 AAXX 28094 67655 NIL=
202111261500 AAXX 26154 67655 NIL=
202111261200 AAXX 26124 67655 NIL=
202111260900 AAXX 26094 67655 NIL=
202111260600 AAXX 26064 67655 11358 80810 10200 20187 48549 60184 76166 8477/
                   333 10319 20132 58031 84708 88458
                   555 00/// 91021=
202111251500 AAXX 25154 67655 NIL=
202111251200 AAXX 25124 67655 NIL=
202111250600 AAXX 25064 67655 NIL=
202111241200 AAXX 24124 67655 NIL=
202111240900 AAXX 24094 67655 NIL=
202111240600 AAXX 24064 67655 NIL=
202111231500 AAXX 23154 67655 NIL=
202111231200 AAXX 23124 67655 NIL=
202111230600 AAXX 23064 67655 NIL=
202111221500 AAXX 22154 67655 NIL=
202111221200 AAXX 22124 67655 NIL=
202111220900 AAXX 22094 67655 NIL=
202111220600 AAXX 22064 67655 31680 70000 10226 20188 48525 8418/
                   333 10347 20139 58005 84830 86360
                   555 00/// 91018=
202111210900 AAXX 21094 67655 NIL=
202111180600 AAXX 18064 67655 NIL=
202111170600 AAXX 17064 67655 NIL=
202111161200 AAXX 16124 67655 NIL=
202111160900 AAXX 16094 67655 NIL=
202111160600 AAXX 16064 67655 NIL=
202111151500 AAXX 15154 67655 NIL=
202111151200 AAXX 15124 67655 NIL=
202111150900 AAXX 15094 67655 NIL=
202111121200 AAXX 12124 67655 NIL=
202111111200 AAXX 11124 67655 NIL=
202111110900 AAXX 11094 67655 NIL=
202111110600 AAXX 11064 67655 NIL=
202111100600 AAXX 10064 67655 NIL=
202111091500 AAXX 09154 67655 NIL=
202111091200 AAXX 09124 67655 NIL=
202111081200 AAXX 08124 67655 NIL=
202111080900 AAXX 08094 67655 41980 00907 10340 20124 48507 70500
                   333 59010 91015=
202111080600 AAXX 08064 67655 31980 21005 10281 20135 45511 70500 82030
                   333 10375 20201 59001 82360 91016=
202111071200 AAXX 07124 67655 NIL=
202111051200 AAXX 05124 67655 NIL=
202111041200 AAXX 04124 67655 NIL=
202111040900 AAXX 04094 67655 NIL=
202111040600 AAXX 04064 67655 NIL=
202111030900 AAXX 03094 67655 NIL=
202111030600 AAXX 03064 67655 31980 41007 10230 20184 48531 70500 82031
                   333 10310 20181 58006 82360 84080
                   555 00/// 91019=
202111021200 AAXX 02124 67655 NIL=
202111011200 AAXX 01124 67655 NIL=

################################################################################
#  SYNOPS from 67659, Kafue Polder (Zambia) | 15-46S | 027-55E | 978 m
################################################################################
202112010900 AAXX 01094 67659 NIL=
202111301500 AAXX 30154 67659 NIL=
202111301200 AAXX 30124 67659 NIL=
202111291500 AAXX 29154 67659 NIL=
202111291200 AAXX 29124 67659 NIL=
202111290900 AAXX 29094 67659 NIL=
202111280900 AAXX 28094 67659 NIL=
202111261500 AAXX 26154 67659 NIL=
202111261200 AAXX 26124 67659 NIL=
202111260900 AAXX 26094 67659 NIL=
202111251500 AAXX 25154 67659 NIL=
202111251200 AAXX 25124 67659 NIL=
202111250600 AAXX 25064 67659 NIL=
202111241200 AAXX 24124 67659 NIL=
202111240900 AAXX 24094 67659 NIL=
202111240600 AAXX 24064 67659 NIL=
202111231500 AAXX 23154 67659 NIL=
202111231200 AAXX 23124 67659 NIL=
202111230600 AAXX 23064 67659 NIL=
202111221500 AAXX 22154 67659 NIL=
202111221200 AAXX 22124 67659 NIL=
202111220900 AAXX 22094 67659 NIL=
202111210900 AAXX 21094 67659 NIL=
202111180600 AAXX 18064 67659 NIL=
202111170600 AAXX 17064 67659 NIL=
202111161200 AAXX 16124 67659 NIL=
202111160900 AAXX 16094 67659 NIL=
202111160600 AAXX 16064 67659 NIL=
202111151500 AAXX 15154 67659 NIL=
202111151200 AAXX 15124 67659 NIL=
202111150900 AAXX 15094 67659 NIL=
202111121200 AAXX 12124 67659 NIL=
202111111200 AAXX 11124 67659 NIL=
202111110900 AAXX 11094 67659 NIL=
202111110600 AAXX 11064 67659 NIL=
202111100600 AAXX 10064 67659 NIL=
202111091500 AAXX 09154 67659 NIL=
202111091200 AAXX 09124 67659 NIL=
202111081200 AAXX 08124 67659 NIL=
202111080900 AAXX 08094 67659 NIL=
202111080600 AAXX 08064 67659 NIL=
202111071200 AAXX 07124 67659 NIL=
202111051200 AAXX 05124 67659 NIL=
202111041200 AAXX 04124 67659 NIL=
202111040900 AAXX 04094 67659 NIL=
202111040600 AAXX 04064 67659 NIL=
202111030900 AAXX 03094 67659 NIL=
202111021200 AAXX 02124 67659 NIL=
202111011200 AAXX 01124 67659 NIL=

################################################################################
#  SYNOPS from 67662, Kabwe Agric (Zambia) | 14-24S | 028-30E | 1165 m
################################################################################
202112010900 AAXX 01094 67662 NIL=
202111301500 AAXX 30154 67662 NIL=
202111301200 AAXX 30124 67662 NIL=
202111291500 AAXX 29154 67662 NIL=
202111291200 AAXX 29124 67662 NIL=
202111290900 AAXX 29094 67662 NIL=
202111280900 AAXX 28094 67662 NIL=
202111261500 AAXX 26154 67662 NIL=
202111261200 AAXX 26124 67662 NIL=
202111260900 AAXX 26094 67662 NIL=
202111251500 AAXX 25154 67662 NIL=
202111251200 AAXX 25124 67662 NIL=
202111250600 AAXX 25064 67662 NIL=
202111241200 AAXX 24124 67662 41680 80908 10280 20136 48/// 71792 87272
                   333 5//// 81930 87830 81360 81080=
202111240900 AAXX 24094 67662 41680 40000 10302 20183 48/// 70322 84201
                   333 5//// 84848 81080=
202111240600 AAXX 24064 67662 31980 70000 10240 20195 48/// 70222 87070
                   333 10314 20163 5//// 87360
                   555 00///=
202111231500 AAXX 23154 67662 NIL=
202111231200 AAXX 23124 67662 41680 50000 10300 20185 48/// 70322 84230
                   333 5//// 84840 81360=
202111230600 AAXX 23064 67662 11580 70000 10227 20194 48/// 60024 70222
                   333 10254 20150 5//// 82360 85060
                   555 00///=
202111221500 AAXX 22154 67662 41980 70000 10225 20188 48/// 70222 87070
                   333 5//// 87360 555 10254=
202111221200 AAXX 22124 67662 41980 70000 10202 20192 48/// 70226 87070
                   333 5//// 87360=
202111220900 AAXX 22094 67662 41980 83002 10209 20196 48/// 72162 8807/
                   333 5//// 88458=
202111210900 AAXX 21094 67662 NIL=
202111180600 AAXX 18064 67662 32980 00000 10267 20164 48///
                   333 10335 20150 5////
                   555 00///=
202111171200 AAXX 17124 67662 41680 30902 10328 20126 48/// 70200 83200
                   333 5//// 83849=
202111170900 AAXX 17094 67662 41680 20000 10310 20129 48/// 70300
                   333 5//// 82840=
202111170600 AAXX 17064 67662 32980 00603 10258 20149 48///
                   333 10320 20144 5////
                   555 00///=
202111161200 AAXX 16124 67662 41680 40901 10310 20156 48/// 70222 84200
                   333 5//// 84848=
202111160900 AAXX 16094 67662 41680 21002 10290 20169 48/// 70300 82200
                   333 5//// 82840=
202111160600 AAXX 16064 67662 31980 10902 10235 20164 48/// 70200 80001
                   333 5//// 81080 555 00///=
202111151500 AAXX 15154 67662 NIL=
202111151200 AAXX 15124 67662 41680 70602 10312 20174 48/// 70222 84232
                   333 5//// 84847 81360 82080=
202111150900 AAXX 15094 67662 41680 40602 10292 20168 48/// 70322 81230
                   333 5//// 81840 83360=
202111121200 AAXX 12124 67662 NIL=
202111111200 AAXX 11124 67662 NIL=
202111110900 AAXX 11094 67662 NIL=
202111110600 AAXX 11064 67662 NIL=
202111100600 AAXX 10064 67662 NIL=
202111091500 AAXX 09154 67662 NIL=
202111091200 AAXX 09124 67662 NIL=
202111081200 AAXX 08124 67662 NIL=
202111080900 AAXX 08094 67662 NIL=
202111080600 AAXX 08064 67662 NIL=
202111071200 AAXX 07124 67662 NIL=
202111051200 AAXX 05124 67662 NIL=
202111041200 AAXX 04124 67662 NIL=
202111040900 AAXX 04094 67662 NIL=
202111040600 AAXX 04064 67662 NIL=
202111030900 AAXX 03094 67662 NIL=
202111021200 AAXX 02124 67662 NIL=
202111011200 AAXX 01124 67662 NIL=

################################################################################
#  SYNOPS from 67663, Kabwe (Zambia) | 14-27S | 028-28E | 1206 m
################################################################################
202112010900 AAXX 01094 67663 41575 10813 10295 20151 48507 70500 81100
                   333 59010 81825=
202111301500 AAXX 30154 67663 NIL=
202111301200 AAXX 30124 67663 NIL=
202111291500 AAXX 29154 67663 NIL=
202111291200 AAXX 29124 67663 41575 50710 10310 20156 48503 70522 81208
                   333 58006 81829 85280=
202111290900 AAXX 29094 67663 41975 50605 10273 20161 48524 70522 80008
                   333 58006 85280=
202111290600 AAXX 29064 67663 31975 40813 10229 20156 48526 70500 80002
                   333 10302 20173 58004 84080
                   555 00///=
202111280900 AAXX 28094 67663 41975 00605 10250 20161 48516 70500
                   333 59025=
202111280600 AAXX 28064 67663 31975 00907 10203 20153 48519 70500
                   333 10244 20162 59004
                   555 00///=
202111261500 AAXX 26154 67663 41575 81308 10199 20179 48502 70522 885//
                   333 58020 88624 555 10226=
202111261200 AAXX 26124 67663 41575 82408 10219 20184 48514 70522 888//
                   333 58023 82822 88624=
202111260900 AAXX 26094 67663 41575 80915 10210 20179 48538
                   333 58029 88620=
202111251500 AAXX 25154 67663 41575 60803 10264 20174 48488 70522 82232
                   333 58008 82824 83360 84080
                   555 10290=
202111251200 AAXX 25124 67663 41575 61004 10272 20179 48496 70522 84232
                   333 58001 84822 84360 82080=
202111250900 AAXX 25094 67663 41475 60904 10253 20186 48514 70522 83280
                   333 58023 81816 85460=
202111250600 AAXX 25064 67663 11975 80805 10211 20193 48514 60324 70522 8808/
                   333 10331 20190 58016 88460
                   555 00///=
202111241200 AAXX 24124 67663 41576 81808 10260 20187 48494 79592 8423/
                   333 59016 81928 85460=
202111240900 AAXX 24094 67663 41575 42704 10300 20199 48493 70522 82232
                   333 59050 82826 82360 82080=
202111240600 AAXX 24064 67663 31975 72703 10238 20193 48501 70522 87030
                   333 10325 20210 59028 87360
                   555 00///=
202111231500 AAXX 23154 67663 41575 42705 10310 20176 48491 70522 82230
                   333 59012 81928 82828 83360
                   555 10325=
202111231200 AAXX 23124 67663 41575 50904 10288 20191 48512 70522 83230
                   333 58012 83826 84360=
202111230600 AAXX 23064 67663 11475 70904 10228 20190 48528 60024 70522 8158/
                   333 10245 20190 58017 81616 87460
                   555 00///=
202111221500 AAXX 22154 67663 41975 72705 10227 20186 48505 70522 8707/
                   333 58016 87460 555 10245=
202111221200 AAXX 22124 67663 41575 72712 10220 20201 48495 70562 81870
                   333 58017 81820 81622 86460=
202111220900 AAXX 22094 67663 41475 82703 10206 20193 48509 76066 8258/
                   333 58015 82618 87460=
202111220600 AAXX 22064 67663 11975 81108 10205 20185 48510 60124 70522 8808/
                   333 10317 20178 58001 88460
                   555 00///=
202111210900 AAXX 21094 67663 NIL=
202111180600 AAXX 18064 67663 31970 12905 1//// 20169 48507 70500 80002
                   333 10346 20199 59002 81080
                   555 00///=
202111171200 AAXX 17124 67663 41670 40609 10323 20112 48489 70500 84200
                   333 59005 84832=
202111170900 AAXX 17094 67663 41570 20805 10306 20146 48524 70500 82100
                   333 58004 82828=
202111170600 AAXX 17064 67663 31970 00605 10252 20146 48508 70500
                   333 10320 20194 59006
                   555 00///=
202111161200 AAXX 16124 67663 41570 40905 10306 20144 48512 70511 84200
                   333 59005 84828=
202111160900 AAXX 16094 67663 NIL=
202111160600 AAXX 16064 67663 NIL=
202111151500 AAXX 15154 67663 NIL=
202111151200 AAXX 15124 67663 41570 50909 10315 20154 48497 70522 83202
                   333 59001 83829 83080=
202111150900 AAXX 15094 67663 41570 51007 10290 20169 48521 70522 81532
                   333 59001 81822 83360 82080=
202111121200 AAXX 12124 67663 41570 50910 10316 20136 48476 70522 83232
                   333 59017 81927 83827 82360 81080=
202111120600 AAXX 12064 67663 11970 60915 10226 20174 48503 60254 70522 86070
                   333 10345 20172 59013 86460=
202111111200 AAXX 11124 67663 41670 51810 10330 20161 48494 70522 85200
                   333 58013 81930 85830=
202111110900 AAXX 11094 67663 41570 31112 10291 20186 48515 70500 83200
                   333 58011 83825=
202111110600 AAXX 11064 67663 31970 00913 10264 20171 48519 70500
                   333 10362 20224 58030=
202111100600 AAXX 10064 67663 31970 01006 10227 20139 48487 70500
                   333 10372 20231 59009
                   555 00///=
202111091500 AAXX 09154 67663 41670 60906 10352 20120 48481 70522 86200
                   333 59010 86836 555 10372=
202111091200 AAXX 09124 67663 41670 20605 10363 20126 48488 70500 82100
                   333 59012 82836=
202111090600 AAXX 09064 67663 31970 00305 10270 20102 48496 70500
                   333 10363 20206 59004
                   555 00///=
202111081200 AAXX 08124 67663 41670 31705 10356 20129 48499 70500 83100
                   333 59004 83832=
202111080900 AAXX 08094 67663 41970 00606 10334 20118 48519 70500
                   333 58011=
202111080600 AAXX 08064 67663 31970 00504 10281 20123 48501 70500
                   333 10356 20211 59008
                   555 00///=
202111071200 AAXX 07124 67663 NIL=
202111051200 AAXX 05124 67663 41570 40905 10329 20161 48508 70511 84230
                   333 58002 84828 82360=
202111050600 AAXX 05064 67663 11970 32703 10242 20188 48532 60014 70511 83030
                   333 10343 20204 58016 83360
                   555 00///=
202111041200 AAXX 04124 67663 NIL=
202111040900 AAXX 04094 67663 41570 50906 10288 20175 48530 70522 81108
                   333 58009 81827 85280=
202111040600 AAXX 04064 67663 11970 63505 10237 20186 48516 60174 70522 80008
                   333 10348 20191 58004 86280
                   555 00///=
202111030900 AAXX 03094 67663 41570 13305 10296 20166 48522 70500 81100
                   333 81128=
202111021200 AAXX 02124 67663 NIL=
202111020600 AAXX 02064 67663 31970 13610 10244 20161 48505 70500 81030
                   333 10363 20205 59011 81360
                   555 00330=
202111011200 AAXX 01124 67663 NIL=
202111010600 AAXX 01064 67663 31970 02708 10250 20163 48517 70500
                   333 10352 20198 59002
                   555 00354=

################################################################################
#  SYNOPS from 67665, Lusaka Internationalairport (Zambia) | 15-19S | 028-27E | 1152 m
################################################################################
202112011800 AAXX 01184 67665 42980 01206 10262 20076 48500 70200
                   333 10345 58005=
202112011500 AAXX 01154 67665 42980 20910 10334 20056 48493 82030
                   333 59010 82360 555 10345=
202112011200 AAXX 01124 67665 42680 30408 10319 20050 48510 83200
                   333 58007 83845=
202112010900 AAXX 01094 67665 42980 00310 10312 20093 48532
                   333 58000 91018=
202111301500 AAXX 30154 67665 42980 11211 10332 20026 40504 80001
                   333 59011 81080 91015=
202111301200 AAXX 30124 67665 42580 20808 10327 20048 48505 81101
                   333 59019 81835 81080 91016=
202111300900 AAXX 30094 67665 42980 10710 10306 20056 48532 80001
                   333 59012 81080=
202111292100 AAXX 29214 67665 42980 21703 10206 20101 48517 80002
                   333 59017 82080 555 91018=
202111291500 AAXX 29154 67665 NIL=
202111291200 AAXX 29124 67665 NIL=
202111290900 AAXX 29094 67665 NIL=
202111290600 AAXX 29064 67665 32980 30712 10232 20113 48544 80002
                   333 10300 30/// 59013 83080=
202111282100 AAXX 28214 67665 42980 01402 10204 20138 48532
                   333 59017=
202111281800 AAXX 28184 67665 42980 21305 10243 20141 48521 82030
                   333 59027 82360 555 91018=
202111281500 AAXX 28154 67665 42680 33605 10295 20126 48515 83100
                   333 59025 83845 555 91017=
202111281200 AAXX 28124 67665 42680 29903 10289 20129 48529 82100
                   333 59022 82830 555 91018=
202111280900 AAXX 28094 67665 NIL=
202111280600 AAXX 28064 67665 32980 00811 10204 20138 48554
                   333 10245 20//0 59014
                   555 00/// 91022=
202111271800 AAXX 27184 67665 42980 30805 10209 20158 48543 83030
                   333 10245 59011 83360=
202111271500 AAXX 27154 67665 42680 40611 10245 20160 48532 83530
                   333 59017 83640 84360
                   555 10245=
202111271200 AAXX 27124 67665 42680 60407 10245 20168 48545 85530
                   333 59013 85635 85360=
202111270900 AAXX 27094 67665 42580 70813 10221 20159 48563 85530
                   333 59004 85625 85360
                   555 91023=
202111270600 AAXX 27064 67665 32380 70814 10199 20150 48566 70322 8557/
                   333 10235 20//0 58005 85612 87460
                   555 00/// 91024=
202111261500 AAXX 26154 67665 42680 81010 10201 20168 48545 8657/
                   333 58050 81940 86645 88460
                   555 10235 91021=
202111261200 AAXX 26124 67665 42680 80914 10214 20166 48555 8687/
                   333 58053 82830 86630 88460=
202111260900 AAXX 26094 67665 42580 80714 10217 20171 48567 8687/
                   333 58041 82820 85620 88360
                   555 91024=
202111260600 AAXX 26064 67665 12480 80914 10203 20181 48561 8657/
                   333 10285 20/// 58034 86612 88460=
202111260300 AAXX 26034 67665 42360 80806 10192 20184 48539 8373/
                   333 58039 83707 88359=
202111260000 AAXX 26004 67665 41360 81109 10189 20181 48481 72162 8577/
                   333 58037 85707 88459=
202111252100 AAXX 25214 67665 41759 80807 10198 20188 48543 79596 8197/
                   333 59040 81956 88459=
202111251500 AAXX 25154 67665 41680 70905 10270 20162 48504 8193/
                   333 58015 72992 819// 86360 91016=
202111251200 AAXX 25124 67665 42680 70409 10282 20149 48511 85232
                   333 58000 85845 82360 83080 91016=
202111250900 AAXX 25094 67665 41675 70605 10252 20168 48532 70522 86530
                   333 58025 86635 81360
                   555 91019=
202111250600 AAXX 25064 67665 12460 60707 10221 20175 48531 69904 86500
                   333 10284 20//0 58017 86618
                   555 00/// 91020=
202111241800 AAXX 24184 67665 41760 72803 10213 20185 48495 71322 8197/
                   333 10306 59012 81950 87459=
202111241500 AAXX 24154 67665 41660 70405 10215 20177 48483 70292 8193/
                   333 59006 81945 87459=
202111241200 AAXX 24124 67665 41660 70911 10263 20165 48491 71792 8193/
                   333 59021 81935 84840 87360=
202111240900 AAXX 24094 67665 21659 69902 10294 20145 48511 70522 86301
                   333 59031 81938 85840 83080 91016=
202111240600 AAXX 24064 67665 11959 32302 10247 20196 48518 69994 70500 83081
                   333 59021 555 10301 20/// 59021 83360 82080
                   91018=
202111231500 AAXX 23154 67665 42680 70904 10294 20148 48497 85230
                   333 59015 85842 82360 91015=
202111231200 AAXX 23124 67665 42580 60703 10297 20169 48516 83230
                   333 59004 83835 84360=
202111230900 AAXX 23094 67665 42580 70504 10244 20176 48535 8453/
                   333 58008 84628 87360=
202111230600 AAXX 23064 67665 32980 73303 10220 20198 48535 85032
                   333 10285 20/// 58010 85360 85080
                   555 00/// 91020=
202111230300 AAXX 23034 67665 42980 89902 10202 20194 48521 88030
                   333 58015 88360 555 91019=
202111230000 AAXX 23004 67665 42980 79902 10202 20187 48520 87030
                   333 58014 87360 555 91028=
202111222100 AAXX 22214 67665 42980 79902 10217 20171 48532 87070
                   333 58019 87360 555 91020=
202111221500 AAXX 22154 67665 42980 62710 10238 20163 48506 8607/
                   333 58027 86360 91016=
202111221200 AAXX 22124 67665 42680 63212 10268 20169 48517 862//
                   333 58023 86838 91017=
202111220900 AAXX 22094 67665 NIL=
202111220600 AAXX 22064 67665 11980 60708 10215 20185 48525 60054 85072
                   333 10300 20//0 59004 85360 86080=
202111212100 AAXX 21214 67665 41/80 70208 10251 20174 48517 71722 8193/
                   333 59001 819// 86360=
202111211800 AAXX 21184 67665 42980 30806 10261 20170 48502 82032
                   333 59004 82360 82080
                   555 91016=
202111210900 AAXX 21094 67665 NIL=
202111201800 AAXX 20184 67665 42980 59902 10231 20186 48503 85050
                   333 10262 58010 85360=
202111201200 AAXX 20124 67665 42680 89902 10233 20182 48508 8257/
                   333 58016 82635 88360=
202111200900 AAXX 20094 67665 42559 81203 10216 20181 48521 8457/
                   333 58006 84620 88459
                   555 91019=
202111190900 AAXX 19094 67665 41660 62708 10309 20126 48527 70500 81102
                   333 58000 81830 86080=
202111190600 AAXX 19064 67665 31960 02807 10261 20142 48526 70500
                   333 10346 20//0 58006=
202111190300 AAXX 19034 67665 42980 32702 10224 20135 48499 83030
                   333 5//// 83360=
202111190000 AAXX 19004 67665 42980 52806 10251 20118 48510 85030
                   333 58003 85360=
202111181500 AAXX 18154 67665 42780 41710 10305 20095 48489 81202
                   333 58009 81856 83080=
202111181200 AAXX 18124 67665 42780 59906 10346 20072 48506 85200
                   333 58004 85856=
202111180600 AAXX 18064 67665 NIL=
202111171800 AAXX 17184 67665 42980 12302 10274 20096 48496 81030
                   333 10344 58001 81360=
202111171500 AAXX 17154 67665 42780 20603 10332 20056 48482 81230
                   333 59003 81856 81360
                   555 10344=
202111171200 AAXX 17124 67665 42680 40404 10329 20068 48499 84200
                   333 58001 84845=
202111170600 AAXX 17064 67665 32980 00510 10274 20128 48526
                   333 10323 20//0 59009 91018=
202111161200 AAXX 16124 67665 42780 50611 10320 20107 48497 85200
                   333 59026 85850 91014=
202111160900 AAXX 16094 67665 42680 20412 10296 20148 48528 82100
                   333 59015 82840 91018=
202111160600 AAXX 16064 67665 NIL=
202111160300 AAXX 16034 67665 42980 01603 10163 20141 48511
                   333 59012 555 91018=
202111160000 AAXX 16004 67665 42980 01305 10197 20139 48514
                   333 59005 555 91018=
202111152100 AAXX 15214 67665 42980 00615 10247 20144 48531
                   333 59003 555 91019=
202111151500 AAXX 15154 67665 NIL=
202111151200 AAXX 15124 67665 42680 51211 10330 20112 48525 70222 84201
                   333 58001 84845 83080 91017=
202111150900 AAXX 15094 67665 42580 50813 10314 20112 48544 70200 83103
                   333 59002 83835 82080 91020=
202111150600 AAXX 15064 67665 32980 51108 10251 20148 48548 82032
                   333 10310 20//0 58009 82360 85080=
202111142100 AAXX 14214 67665 42980 01003 10219 20157 48530
                   333 58020=
202111141800 AAXX 14184 67665 42980 59903 10260 20130 48527 81932
                   333 58023 81956 82360 84080
                   555 91019=
202111141500 AAXX 14154 67665 41759 63505 10295 20135 48509 71792 81902
                   333 58020 81950 83850 84080
                   555 91016=
202111141200 AAXX 14124 67665 41660 40506 10298 20130 48520 70500 84202
                   333 58015 84835 82080
                   555 91017=
202111121200 AAXX 12124 67665 41670 50908 10314 20112 48490 70500 85200
                   333 59020 85840 91014=
202111120900 AAXX 12094 67665 41670 10293 20155 48518 70500 81130
                   333 59020 81830 82360=
202111120600 AAXX 12064 67665 31960 30813 10245 20150 48522 70500 83030
                   333 10325 20/// 59025 83360=
202111120300 AAXX 12034 67665 42980 20807 10210 20154 48508 81031
                   333 59011 81360 81080=
202111120000 AAXX 12004 67665 42980 31105 10234 20155 48506 82031
                   333 59008 82360 81080=
202111112100 AAXX 11214 67665 42980 41207 10257 20148 48511 83032
                   333 59009 83360 81080=
202111111200 AAXX 11124 67665 NIL=
202111110900 AAXX 11094 67665 42660 41109 10280 20147 48537 84200
                   333 58006 84835 91019=
202111110600 AAXX 11064 67665 NIL=
202111101800 AAXX 10184 67665 42780 40503 10300 20074 48509 81330
                   333 10355 81957 83360=
202111101500 AAXX 10154 67665 41759 20912 10351 20016 48499 70500 81130
                   333 58008 81850 81360
                   555 10355=
202111101200 AAXX 10124 67665 41659 30908 10353 20054 48516 70500 83100
                   333 59035 83835=
202111100900 AAXX 10094 67665 41959 00413 10338 20056 48538
                   333 58015 555 91019=
202111100600 AAXX 10064 67665 31980 01109 10296 20112 48544
                   333 10372 20/// 58024 91020=
202111091500 AAXX 09154 67665 NIL=
202111091200 AAXX 09124 67665 42680 40904 10355 20060 48502 70200 84100
                   333 58005 84845 91014=
202111090900 AAXX 09094 67665 42980 00207 10337 20037 48523
                   333 58003=
202111090600 AAXX 09064 67665 32980 00303 10269 20062 48517
                   333 10363 20//0 59002
                   555 00/// 91017=
202111090300 AAXX 09034 67665 42980 01601 10206 20091 48491
                   333 59002 555 91015=
202111090000 AAXX 09004 67665 42980 09901 10230 20065 48484
                   333 59001 555 91014=
202111082100 AAXX 08214 67665 42980 01302 10235 20096 48499
                   333 58005 555 91016=
202111081200 AAXX 08124 67665 41659 30506 10346 20054 48496 70500 83100
                   333 59003 83845 91014=
202111080900 AAXX 08094 67665 41959 00112 10327 20056 48519 70500
                   333 59009 91017=
202111080600 AAXX 08064 67665 31970 00906 10278 20063 48520 70500
                   333 10356 20//0 59006
                   555 00/// 20/// 91017=
202111072100 AAXX 07214 67665 42980 01604 10242 20082 48494
                   333 59017=
202111071200 AAXX 07124 67665 NIL=
202111070900 AAXX 07094 67665 41659 10608 10336 20065 48529 70500 81100
                   333 59012 81830 91018=
202111070600 AAXX 07064 67665 31975 00908 10286 20102 48527 70500
                   333 10350 59018 555 00/// 91018=
202111061800 AAXX 06184 67665 41970 11404 10261 20087 48506 70500 81030
                   333 10350 59009 81360=
202111061500 AAXX 06154 67665 41660 20810 10338 20050 48503 70500 82100
                   333 59007 82848 555 10350=
202111060900 AAXX 06094 67665 41559 20509 10322 20085 48539 70500 81102
                   333 59017 81820 81080
                   555 91019=
202111060600 AAXX 06064 67665 31980 11303 10264 20103 48541 70500 80002
                   333 10345 20//0 59015 81080=
202111052100 AAXX 05214 67665 42980 01406 10233 20092 48523
                   333 59007=
202111051200 AAXX 05124 67665 41670 60905 10327 20119 48528 70521 85202
                   333 58008 85840 83080 91018=
202111050900 AAXX 05094 67665 41560 30708 10302 20146 48553 70522 82291
                   333 58018 83825 82080=
202111050600 AAXX 05064 67665 31980 61405 10265 20147 48557 80002
                   333 10327 20//0 58017 85280=
202111050300 AAXX 05034 67665 42980 51402 10203 20155 48528 85030
                   333 58018 85360=
202111050000 AAXX 05004 67665 42980 50503 10234 20136 48526 70222 85030
                   333 58011 85360=
202111042100 AAXX 04214 67665 42980 51402 10234 20146 48530 70222 85030
                   333 58001 85360=
202111041200 AAXX 04124 67665 41775 50310 10325 20115 48520 70522 85202
                   333 59020 85855 83080 91017=
202111040900 AAXX 04094 67665 41659 50609 10298 20168 48536 70522 83502
                   333 58000 83648 84080 91019=
202111040600 AAXX 04064 67665 11959 71105 10225 20171 48535 60634 70500 83038
                   333 10330 20//0 58003 83360 86080
                   555 00/// 91020=
202111031800 AAXX 03184 67665 42/60 72002 10210 20178 48507 8193/
                   333 10335 819// 87359=
202111031500 AAXX 03154 67665 42660 73005 10230 20185 48497 70296 8197/
                   333 58010 81945 87459
                   555 10335=
202111031200 AAXX 03124 67665 41660 81725 10185 20185 48513 79596 8197/
                   333 58038 81935 86838 87459=
202111030900 AAXX 03094 67665 NIL=
202111021800 AAXX 02184 67665 42980 32104 10229 20145 48516 83030
                   333 10322 20//0 58029 83360
                   555 91018=
202111021200 AAXX 02124 67665 NIL=
202111020900 AAXX 02094 67665 42680 42808 10299 20143 48530 84200
                   333 58001 84830=
202111020600 AAXX 02064 67665 12980 23308 10241 20146 48519 69904 80002
                   333 10339 20//0 59001 82080
                   555 000/// 91018=
202111020300 AAXX 02034 67665 42980 00702 10198 20141 48492
                   333 59009 555 91015=
202111020000 AAXX 02004 67665 42980 21903 10224 20128 48490 82030
                   333 58003 82360 555 91015=
202111011200 AAXX 01124 67665 41659 41005 10337 20110 48495 84200
                   333 59006 84840 91014=
202111010600 AAXX 01064 67665 31960 02408 10267 20127 48524 70500
                   333 10352 20//0 59001=

################################################################################
#  SYNOPS from 67666, Lusaka City Airport (Zambia) | 15-25-00S | 028-28-00E | 1280 m
################################################################################
202112010900 AAXX 01094 67666 42680 11013 10290 20107 48525 81100
                   333 58001 81840 91018=
202111301500 AAXX 30154 67666 NIL=
202111301200 AAXX 30124 67666 NIL=
202111300900 AAXX 30094 67666 42980 21014 10286 20093 48518 80002
                   333 59012 82080 91018=
202111291500 AAXX 29154 67666 NIL=
202111291200 AAXX 29124 67666 42680 70908 10290 20141 48510 83107
                   333 59011 83835 87280 91016=
202111290900 AAXX 29094 67666 42980 70909 10270 20129 48533 80007
                   333 59007 87280 91020=
202111290600 AAXX 29064 67666 32980 60811 10226 20128 48539 80006
                   333 10300 20160 59010 86280
                   555 00/// 20000 91020=
202111280900 AAXX 28094 67666 42980 00905 10250 20165 48533
                   333 59020 91020=
202111280600 AAXX 28064 67666 32980 00907 10200 20185 48539
                   333 10250 20162 59016 91021=
202111261500 AAXX 26154 67666 NIL=
202111261200 AAXX 26124 67666 NIL=
202111260900 AAXX 26094 67666 42480 70908 10198 20173 48549 877//
                   333 58041 87710 91023=
202111251500 AAXX 25154 67666 NIL=
202111251200 AAXX 25124 67666 NIL=
202111250600 AAXX 25064 67666 32480 70908 10215 20185 48522 60024 878//
                   333 10305 20185 58016 84610 83815
                   555 00/// 91019=
202111241200 AAXX 24124 67666 NIL=
202111240900 AAXX 24094 67666 NIL=
202111240600 AAXX 24064 67666 32980 70403 10265 20198 48506 60034 87030
                   333 10305 20205 59022 87360
                   555 00/// 91017=
202111231500 AAXX 23154 67666 NIL=
202111231200 AAXX 23124 67666 NIL=
202111230600 AAXX 23064 67666 32980 70908 10220 20188 48522 70322 85037
                   333 10271 20189 58010 85359 87280
                   555 00/// 91019=
202111221500 AAXX 22154 67666 NIL=
202111221200 AAXX 22124 67666 42680 80310 10256 20174 48507 85237
                   333 58033 81938 85838 81360 88280 91016=
202111220900 AAXX 22094 67666 NIL=
202111210900 AAXX 21094 67666 42680 70904 10255 20160 48513 81138
                   333 59006 81825 83359 84280 91017=
202111180600 AAXX 18064 67666 32980 20403 10264 20142 48521 80001
                   333 10332 20215 58003 82080
                   555 00/// 20000 91018=
202111171200 AAXX 17124 67666 42680 40000 10320 20106 48491 84200
                   333 59003 84845 91014=
202111170600 AAXX 17064 67666 32980 00809 10260 20146 48518
                   333 10320 20210 59007
                   555 00/// 20000 91018=
202111161200 AAXX 16124 67666 42780 50611 10320 20130 48494 84230
                   333 59022 84858 81360 91014=
202111160900 AAXX 16094 67666 42780 40914 10282 20142 48518 84200
                   333 59017 84852 91017=
202111160600 AAXX 16064 67666 31978 00915 10232 20148 48523 70522
                   333 10320 20180 59002
                   555 00/// 20003 91019=
202111151500 AAXX 15154 67666 NIL=
202111151200 AAXX 15124 67666 42780 51212 10308 20138 48514 81930
                   333 59001 81930 83850 81360 91017=
202111150900 AAXX 15094 67666 42680 40913 10280 20156 48534 82202
                   333 59001 82840 82080 91018=
202111121200 AAXX 12124 67666 NIL=
202111120600 AAXX 12064 67666 32980 40913 10248 20170 48515 81036
                   333 10320 20203 59025 81360 84080
                   555 00/// 20000 91017=
202111111200 AAXX 11124 67666 NIL=
202111110900 AAXX 11094 67666 NIL=
202111110600 AAXX 11064 67666 32980 01010 10210 20165 48540
                   333 10346 20218 58009 91020=
202111100600 AAXX 10064 67666 11978 01213 10270 20158 48530 69904 70522
                   333 10360 20250 58025 91019=
202111091500 AAXX 09154 67666 NIL=
202111091200 AAXX 09124 67666 42780 40712 10350 20133 48498 83230
                   333 58009 83856 81360 91014=
202111081200 AAXX 08124 67666 42780 41214 10332 20140 48488 83230
                   333 59009 83850 81360 91013=
202111080900 AAXX 08094 67666 42980 01011 10320 20133 48511
                   333 59009 91016=
202111080600 AAXX 08064 67666 31978 00914 10280 20122 48513 70522
                   333 10348 20230 59006
                   555 00/// 20000 91017=
202111071200 AAXX 07124 67666 42780 40610 10332 20142 48496 83230
                   333 59011 83858 81360 91014=
202111070900 AAXX 07094 67666 42680 20712 10330 20126 48521 81130
                   333 59012 81845 81360 91017=
202111070600 AAXX 07064 67666 31978 01013 10270 20146 48518 70500
                   333 10339 20232 5////
                   555 00/// 20000 91018=
202111051200 AAXX 05124 67666 42690 80806 10320 20153 48620 84207
                   333 58007 84840 88280 91017=
202111041200 AAXX 04124 67666 41678 81006 10320 20157 48513 70522 82107
                   333 5//// 82840 88280 91016=
202111040900 AAXX 04094 67666 41676 81009 10286 20178 48528 70522 81107
                   333 59001 81130 88280 91019=
202111040600 AAXX 04064 67666 81409 11970 10249 20159 48530 60184 70522 80007
                   333 10310 20186 58003 88280
                   555 00/// 20015 91019=
202111030900 AAXX 03094 67666 41975 01602 10296 20180 48530 70500
                   333 58007 91019=
202111021200 AAXX 02124 67666 41680 63614 10318 20150 48496 71722 81930
                   333 58013 81925 84848 81360 91015=
202111011200 AAXX 01124 67666 NIL=
202111010600 AAXX 01064 67666 32980 00907 10260 20169 48513
                   333 10340 20210 59022 91018=

################################################################################
#  SYNOPS from 67667, Mount Makulu (Zambia) | 15-33S | 028-15E | 1213 m
################################################################################
202112010900 AAXX 01094 67667 41670 10904 10316 20139 48582 70500 81100
                   333 58000 81080=
202112010600 AAXX 01064 67667 31970 11508 10286 20142 48582 70500 80001
                   333 10334 20156 58002 81080
                   555 00/// 20000=
202111301500 AAXX 30154 67667 NIL=
202111301200 AAXX 30124 67667 NIL=
202111300600 AAXX 30064 67667 31970 20906 10276 20146 48584 70500 80001
                   333 10344 20154 58008 81080
                   555 00/// 20000=
202111291500 AAXX 29154 67667 NIL=
202111291200 AAXX 29124 67667 41670 50902 10320 20174 48569 70500 81101
                   333 5//// 81830 84080=
202111290900 AAXX 29094 67667 41970 50901 10284 20162 48588 70500 80001
                   333 5//// 85080=
202111290600 AAXX 29064 67667 31970 41204 10248 20162 48592 70500 80001
                   333 10330 20156 58007
                   555 00/// 20000=
202111280900 AAXX 28094 67667 NIL=
202111280600 AAXX 28064 67667 31970 10904 10216 20161 48599 70500 80001
                   333 10324 20158 58012 81080
                   555 00/// 20000=
202111261500 AAXX 26154 67667 NIL=
202111261200 AAXX 26124 67667 NIL=
202111260900 AAXX 26094 67667 41570 70902 10226 20172 48614 70500 87500
                   333 59034 87625=
202111251500 AAXX 25154 67667 NIL=
202111251200 AAXX 25124 67667 41670 60904 10284 20194 48555 70500 86101
                   333 86830 81080=
202111250900 AAXX 25094 67667 41570 70904 10258 20190 48580 70500 87100
                   333 58019 87830=
202111250600 AAXX 25064 67667 11570 61806 10258 20202 48582 60034 70500 84100
                   333 10323 20180 58013 85825 81080
                   555 00/// 20000=
202111241200 AAXX 24124 67667 NIL=
202111240900 AAXX 24094 67667 NIL=
202111240600 AAXX 24064 67667 31970 41501 10286 20190 48569 70500 80001
                   333 10311 20210 59017 81080
                   555 00/// 20000=
202111231500 AAXX 23154 67667 NIL=
202111231200 AAXX 23124 67667 NIL=
202111230600 AAXX 23064 67667 31970 41501 10246 20192 48586 70500 84031
                   333 10281 20206 58015 84360 81080
                   555 00/// 20000=
202111221500 AAXX 22154 67667 NIL=
202111221200 AAXX 22124 67667 NIL=
202111220900 AAXX 22094 67667 NIL=
202111210900 AAXX 21094 67667 NIL=
202111180600 AAXX 18064 67667 31970 10902 10272 20171 48/// 70500 80001
                   333 10372 20206 5////
                   555 00/// 20000=
202111170600 AAXX 17064 67667 31970 00904 10274 20152 48571 70500
                   333 10368 20194 58009
                   555 00///=
202111161200 AAXX 16124 67667 41670 53607 10327 20136 48534 70522 85100
                   333 59031 85840=
202111160900 AAXX 16094 67667 41670 30909 10293 20155 48572 83100
                   333 59018 83840=
202111160600 AAXX 16064 67667 31970 00912 10250 20160 48580 70500
                   333 10366 20180 59015
                   555 00/// 20000=
202111151500 AAXX 15154 67667 NIL=
202111151200 AAXX 15124 67667 NIL=
202111150900 AAXX 15094 67667 NIL=
202111121200 AAXX 12124 67667 NIL=
202111120600 AAXX 12064 67667 31970 20908 10252 20181 48569 70500 80001
                   333 10335 20204 59026 82080
                   555 00/// 20000=
202111111200 AAXX 11124 67667 NIL=
202111110900 AAXX 11094 67667 NIL=
202111110600 AAXX 11064 67667 31970 00904 10244 20171 48595 70500
                   333 10373 20211 58007
                   555 00///=
202111100600 AAXX 10064 67667 31970 00901 10288 20172 48588 70500
                   333 10377 20206 59023
                   555 00///=
202111091500 AAXX 09154 67667 NIL=
202111091200 AAXX 09124 67667 NIL=
202111090600 AAXX 09064 67667 31970 01804 10280 20142 48565 70500
                   333 10368 20220 58009
                   555 00///=
202111081200 AAXX 08124 67667 NIL=
202111080900 AAXX 08094 67667 NIL=
202111080600 AAXX 08064 67667 31970 00902 10294 20138 48574 70500
                   333 10384 20212 58001
                   555 00///=
202111071200 AAXX 07124 67667 NIL=
202111051200 AAXX 05124 67667 NIL=
202111050600 AAXX 05064 67667 12980 10902 10246 20192 48602 60034 80001
                   333 10345 20172 5//// 81080
                   555 00/// 20022=
202111041200 AAXX 04124 67667 41670 50607 10327 20152 48507 70522 84202
                   333 58011 84830 84080=
202111040900 AAXX 04094 67667 NIL=
202111040600 AAXX 04064 67667 NIL=
202111030900 AAXX 03094 67667 NIL=
202111030600 AAXX 03064 67667 11970 10902 10258 20172 48584 60034 70500 80001
                   333 10329 20164 58016 81080
                   555 00///=
202111021200 AAXX 02124 67667 NIL=
202111011200 AAXX 01124 67667 NIL=
202111010600 AAXX 01064 67667 31970 00902 10264 20192 48572 70500
                   333 10352 20174 59040
                   555 00///=

################################################################################
#  SYNOPS from 67673, Petauke (Zambia) | 14-15S | 031-17E | 1035 m
################################################################################
202112010900 AAXX 01094 67673 41670 50902 10324 20151 48/// 70522 85200
                   333 5//// 85835=
202111301500 AAXX 30154 67673 41670 30901 10346 20118 48/// 81101
                   333 5//// 81844 82080
                   555 10364=
202111301200 AAXX 30124 67673 41670 31202 10356 20131 48/// 70500 81131
                   333 5//// 81840 81360 81080=
202111291500 AAXX 29154 67673 NIL=
202111291200 AAXX 29124 67673 41670 41701 10332 20161 48/// 70522 84200
                   333 5//// 84837=
202111290900 AAXX 29094 67673 41670 40901 10306 20170 48/// 70500 84200
                   333 5//// 84830=
202111280900 AAXX 28094 67673 NIL=
202111280600 AAXX 28064 67673 41970 21203 10218 20150 48/// 70500 83030
                   333 10//0 20//0 5//// 82360=
202111261500 AAXX 26154 67673 42680 51803 10228 20172 48/// 83101
                   333 5//// 83827 83080
                   555 10251=
202111261200 AAXX 26124 67673 42680 60903 10236 20182 48/// 85430
                   333 5//// 83837 82628 81360=
202111260900 AAXX 26094 67673 42675 80902 10210 20195 48/// 884//
                   333 5//// 84825 86626=
202111260600 AAXX 26064 67673 12570 80902 10210 20182 48/// 60034 884//
                   333 10292 20//0 5//// 84825 86626
                   555 00/// 20000=
202111251500 AAXX 25154 67673 42680 80801 10223 20195 48/// 82137
                   333 5//// 82825 82360 87280
                   555 10262=
202111251200 AAXX 25124 67673 41970 80000 10228 20218 48/// 76066 8807/
                   333 5//// 88460=
202111250900 AAXX 25094 67673 41670 80902 10240 20212 48/// 71729 81937
                   333 5//// 81925 83827 82360 97280=
202111250600 AAXX 25064 67673 11575 80901 10228 20202 48/// 69904 70522 84407
                   333 10364 20//0 5//// 82825 82626 88280
                   555 00/// 20000=
202111241200 AAXX 24124 67673 41670 83302 10329 20182 48/// 71799 81937
                   333 5//// 81927 83832 82360 97280=
202111240900 AAXX 24094 67673 41670 60901 10338 20182 48/// 70522 84231
                   333 5//// 84835 82360 81080=
202111240600 AAXX 24064 67673 31675 62701 10292 20190 48/// 70522 84231
                   333 10352 20//0 5//// 84827 81360 81080
                   555 00/// 20002=
202111231500 AAXX 23154 67673 41670 50000 10332 20178 48/// 71792 81901
                   333 5//// 81935 84837 83080
                   555 10352=
202111231200 AAXX 23124 67673 41670 33301 19348 20172 48/// 70500
                   333 5//// 82838 81080=
202111230600 AAXX 23064 67673 11975 73601 10214 20202 48/// 60024 70522 8703/
                   333 10344 20/// 5//// 87360
                   555 00/// 20001=
202111221500 AAXX 22154 67673 NIL=
202111221200 AAXX 22124 67673 NIL=
202111220900 AAXX 22094 67673 41675 50504 10310 20160 48/// 70522 85201
                   333 5//// 85835 82080=
202111210900 AAXX 21094 67673 NIL=
202111190600 AAXX 19064 67673 31975 23403 10284 20160 48/// 80001
                   333 10372 2//// 5//// 82080=
202111180900 AAXX 18094 67673 41670 13601 10326 20150 48/// 70500 81100
                   333 5//// 81838=
202111180600 AAXX 18064 67673 31970 01801 10288 20162 48/// 70500
                   333 10352 20//0 5////
                   555 00/// 20000=
202111171200 AAXX 17124 67673 41670 20902 10342 20098 48/// 70500 82100
                   333 5//// 82840=
202111170900 AAXX 17094 67673 41670 10901 10320 20125 48/// 81100
                   333 5//// 81835=
202111170600 AAXX 17064 67673 31970 21802 10274 20135 48/// 70500 81031
                   333 10333 20//0 5//// 81360 81080
                   555 00/// 20009=
202111161200 AAXX 16124 67673 41670 50902 10326 20152 48/// 70522
                   333 5//// 85839=
202111160900 AAXX 16094 67673 NIL=
202111160600 AAXX 16064 67673 11970 30902 10248 20138 48/// 60094 70500 82031
                   333 10350 20//0 5////
                   555 82360 81080 00/// 20000=
202111151500 AAXX 15154 67673 42680 63601 10238 20198 48/// 86231
                   333 5//// 81930 86830 85360 84080
                   555 10350=
202111151200 AAXX 15124 67673 NIL=
202111150900 AAXX 15094 67673 42632 50902 10290 20170 48/// 85131
                   333 5//// 85832 83360 82080=
202111121200 AAXX 12124 67673 NIL=
202111120600 AAXX 12064 67673 11570 60901 10256 20190 48/// 60054 83431
                   333 10358 20//0 5//// 81825 82626 82360 82080
                   555 00/// 20000=
202111111200 AAXX 11124 67673 41670 60901 10333 20180 48/// 71792
                   333 5//// 81930 85833 81360 81080=
202111110900 AAXX 11094 67673 41670 41804 10312 20181 48/// 70500 84200
                   333 5//// 84835=
202111110600 AAXX 11064 67673 31970 30902 10268 20198 48/// 70500 80001
                   333 10374 20/// 5//// 83080
                   555 00/// 20000=
202111100600 AAXX 10064 67673 31970 01803 10292 20135 48/// 70500
                   333 10387 20/// 5////
                   555 00/// 20000=
202111091500 AAXX 09154 67673 NIL=
202111091200 AAXX 09124 67673 NIL=
202111081200 AAXX 08124 67673 NIL=
202111080900 AAXX 08094 67673 41970 03602 10344 20120 48/// 70500
                   333 5////=
202111080600 AAXX 08064 67673 31970 00902 10300 20100 48/// 70500
                   333 10382 20//0 5////
                   555 00/// 20000=
202111071200 AAXX 07124 67673 NIL=
202111070600 AAXX 07064 67673 31975 00302 10318 20120 48/// 70500
                   333 10368 2//// 5////=
202111051200 AAXX 05124 67673 41670 60902 10354 20108 48/// 70522 83205
                   333 83840 85280=
202111041200 AAXX 04124 67673 41670 50904 10364 20150 48/// 84230
                   333 5//// 84847 81360=
202111040900 AAXX 04094 67673 41670 43601 10321 20155 48/// 70500 83230
                   333 5//// 83842 81360=
202111040600 AAXX 04064 67673 31970 40901 10304 20182 48/// 70522 84030
                   333 10390 20//0 5//// 84360
                   555 00/// 20000=
202111030900 AAXX 03094 67673 41675 40702 10340 20180 48/// 70500 84101
                   333 5//// 84842 81080=
202111030600 AAXX 03064 67673 11975 20501 10314 20175 48/// 69904 70500 80001
                   333 10370 2//// 5//// 82080=
202111021200 AAXX 02124 67673 41675 40502 10358 20170 48/// 70500 84231
                   333 5//// 84845 83360 82080=
202111011200 AAXX 01124 67673 NIL=
202111010600 AAXX 01064 67673 31970 53002 10296 20186 48/// 70500 80005
                   333 10322 20//0 85280
                   555 00/// 20000=

################################################################################
#  SYNOPS from 67731, Senanga (Zambia) | 16-06S | 023-16E | 1027 m
################################################################################
202112010900 AAXX 01094 67731 42980 120// 10337 20148 48/// 81030
                   333 5//// 81365=
202111301500 AAXX 30154 67731 42680 510// 10360 20219 48/// 84102
                   333 5//// 84840 84080=
202111301200 AAXX 30124 67731 42680 518// 10352 20199 48/// 84202
                   333 5//// 81930 84840 85080=
202111300600 AAXX 30064 67731 32980 318// 10239 20163 48/// 83030
                   333 10346 20203 5//// 83360
                   555 00052 20002=
202111291500 AAXX 29154 67731 42680 227// 10340 20175 48/// 81201
                   333 5//// 81845 81080=
202111291200 AAXX 29124 67731 42680 423// 10321 20198 48/// 82251
                   333 5//// 82835 82365 81080=
202111290900 AAXX 29094 67731 42680 618// 10268 20209 48/// 81231
                   333 5//// 81830 85365 83080=
202111280900 AAXX 28094 67731 42580 427// 10317 20167 48/// 83132
                   333 5//// 83825 82362 83080=
202111280600 AAXX 28064 67731 32980 309// 10234 20168 48/// 83030
                   333 10324 20201 5//// 83360
                   555 00050 20000=
202111261500 AAXX 26154 67731 42680 409// 10339 20209 48/// 84100
                   333 5//// 84835=
202111261200 AAXX 26124 67731 42680 534// 10341 20194 48/// 84102
                   333 5//// 84845 82080=
202111260900 AAXX 26094 67731 42680 402// 10302 20191 48/// 84100
                   333 5//// 84830=
202111251500 AAXX 25154 67731 42680 610// 10257 20172 48/// 70189 81931
                   333 5//// 81930 82835 86365 82080=
202111251200 AAXX 25124 67731 42680 423// 10352 20191 48/// 81301
                   333 5//// 81930 82835 81080=
202111250900 AAXX 25094 67731 42980 227// 10312 20195 48/// 80008
                   333 5//// 82080=
202111250600 AAXX 25064 67731 32980 418// 10256 20190 48/// 80008
                   333 10357 20199 5//// 84080
                   555 00056 20000=
202111241200 AAXX 24124 67731 42680 415// 10339 20193 48/// 84102
                   333 5//// 84835 81080=
202111240900 AAXX 24094 67731 42580 502// 10309 20181 48/// 83102
                   333 5//// 83825 84080=
202111240600 AAXX 24064 67731 32980 431// 10232 20177 48/// 80002
                   333 10330 20193 5//// 84080
                   555 00045 20001=
202111231500 AAXX 23154 67731 42680 202// 10312 20135 48/// 81250
                   333 5//// 81840 81365=
202111231200 AAXX 23124 67731 42580 427// 10320 20158 48/// 81250
                   333 5//// 81827 83365=
202111230600 AAXX 23064 67731 12980 728// 10231 20187 48/// 60014 86031
                   333 10320 20195 5//// 86360 82080
                   555 00049 20069=
202111221500 AAXX 22154 67731 42680 404// 10305 20222 48/// 84100
                   333 5//// 84830=
202111221200 AAXX 22124 67731 42680 522// 10279 20167 48/// 84102
                   333 5//// 84835 84080=
202111220900 AAXX 22094 67731 NIL=
202111220600 AAXX 22064 67731 11370 809// 10219 20189 48/// 60084 72566 8377/
                   333 10350 20197 5//// 83709 88360
                   555 00039 20000=
202111210900 AAXX 21094 67731 42580 518// 10304 20197 48/// 81130
                   333 5//// 81825 85365=
202111180900 AAXX 18094 67731 42580 503// 10284 20185 48/// 84132
                   333 5//// 84827 84362 84080=
202111180600 AAXX 18064 67731 32480 709// 10224 20193 48/// 83578
                   333 10360 20202 5//// 83613 85360 86280
                   555 00047 20000=
202111171200 AAXX 17124 67731 42680 327// 10348 20182 48/// 83200
                   333 5//// 83835=
202111170900 AAXX 17094 67731 42980 023// 10316 20210 48///
                   333 5////=
202111170600 AAXX 17064 67731 32980 027// 10255 20195 48///
                   333 10351 20200 5////
                   555 00050 20000=
202111161200 AAXX 16124 67731 42680 418// 10341 20190 48/// 84100
                   333 5//// 84840=
202111160900 AAXX 16094 67731 42580 407// 10316 20180 48/// 83102
                   333 5//// 83825 82080=
202111160600 AAXX 16064 67731 NIL=
202111151500 AAXX 15154 67731 42680 607// 10302 20185 48/// 81301
                   333 5//// 81930 81830 86080=
202111151200 AAXX 15124 67731 42980 513// 10308 20184 48/// 80008
                   333 5//// 85080=
202111150900 AAXX 15094 67731 42980 510// 10259 20193 48/// 84031
                   333 5//// 84365 83080=
202111121200 AAXX 12124 67731 42680 628// 10319 20216 48/// 84130
                   333 5//// 84835 86363=
202111120600 AAXX 12064 67731 12480 809// 10229 20175 48/// 60014 83578
                   333 10271 20184 5//// 83613 86360 88280
                   555 00040 20004=
202111111200 AAXX 11124 67731 42980 810// 10265 20189 48/// 88030
                   333 5//// 88365=
202111110900 AAXX 11094 67731 42980 806// 10263 20174 48/// 88030
                   333 5//// 88362=
202111110600 AAXX 11064 67731 12680 810// 10226 20159 48/// 60044 82139
                   333 10364 20204 5//// 82835 87360 88180
                   555 00047 20038=
202111100900 AAXX 10094 67731 42980 634// 10291 20175 48/// 84032
                   333 5//// 84362 86080=
202111100600 AAXX 10064 67731 12480 620// 10240 20184 48/// 60044 83538
                   333 10378 20202 5//// 83613 84360 85280
                   555 00059 20000=
202111091500 AAXX 09154 67731 NIL=
202111091200 AAXX 09124 67731 NIL=
202111081200 AAXX 08124 67731 NIL=
202111080900 AAXX 08094 67731 NIL=
202111080600 AAXX 08064 67731 31975 435// 10241 20172 48/// 70522 83532
                   333 10392 20211 5//// 83612 84360 84280
                   555 00059 20000=
202111071200 AAXX 07124 67731 42680 318// 10373 20117 48/// 83100
                   333 5//// 83835=
202111070600 AAXX 07064 67731 32980 028// 10267 20161 48///
                   333 10382 20201 5////
                   555 00056 20000=
202111051200 AAXX 05124 67731 42680 810// 10313 20179 48/// 81130
                   333 5//// 81835 88365=
202111041200 AAXX 04124 67731 42680 527// 10339 20197 48/// 84202
                   333 5//// 84840 85080=
202111040900 AAXX 04094 67731 42680 631// 10304 20173 48/// 84130
                   333 5//// 84830 86362=
202111040600 AAXX 04064 67731 12480 809// 10221 20166 48/// 69914 83778
                   333 10367 20199 5//// 83610 86460 88280
                   555 00040 20000=
202111030900 AAXX 03094 67731 42980 121// 10325 20184 48/// 80008
                   333 5//// 81080=
202111021200 AAXX 02124 67731 41680 609// 10364 20199 48/// 81902
                   333 5//// 81930 84835 83080=
202111011200 AAXX 01124 67731 42580 106// 10352 20157 48/// 81200
                   333 5//// 81825=

################################################################################
#  SYNOPS from 67741, Sesheke (Zambia) | 17-28S | 024-18E | 949 m
################################################################################
202112010900 AAXX 01094 67741 42980 50000 10338 20128 48523 85030
                   333 59004 85362=
202111301500 AAXX 30154 67741 42980 30902 10356 20122 48496 83031
                   333 59014 83362 81080
                   555 10374=
202111301200 AAXX 30124 67741 42680 51202 10370 20132 48508 81130
                   333 5//// 81850 85362=
202111291500 AAXX 29154 67741 NIL=
202111291200 AAXX 29124 67741 NIL=
202111290900 AAXX 29094 67741 NIL=
202111280900 AAXX 28094 67741 NIL=
202111280600 AAXX 28064 67741 32980 10803 10250 20170 48544 81030
                   333 10324 20//0 59013 81362
                   555 00/// 20000=
202111261500 AAXX 26154 67741 42680 11001 10321 20165 48519 81100
                   333 5//// 81850 555 10326=
202111261200 AAXX 26124 67741 42680 33603 10324 20172 48529 83100
                   333 5//// 83850=
202111260900 AAXX 26094 67741 42680 20904 10294 20177 48552 81100
                   333 5//// 82850=
202111251500 AAXX 25154 67741 NIL=
202111251200 AAXX 25124 67741 NIL=
202111250600 AAXX 25064 67741 32980 33601 10259 20174 48508 83030
                   333 10361 20//0 59024
                   555 00/// 20000=
202111241200 AAXX 24124 67741 42680 42701 10346 20108 48495 81130
                   333 5//// 81850 84362=
202111240900 AAXX 24094 67741 NIL=
202111240600 AAXX 24064 67741 32980 32801 10256 20184 48527 83030
                   333 10346 20//0 59007 83362
                   555 00/// 20990=
202111231500 AAXX 23154 67741 NIL=
202111231200 AAXX 23124 67741 NIL=
202111230600 AAXX 23064 67741 12680 72801 10226 20191 48533 69904 8457/
                   333 10280 20//0 58034 84640 86362
                   555 00/// 20004=
202111221500 AAXX 22154 67741 NIL=
202111221200 AAXX 22124 67741 NIL=
202111220900 AAXX 22094 67741 NIL=
202111210900 AAXX 21094 67741 NIL=
202111190600 AAXX 19064 67741 12980 32801 10254 20176 48516 60014 83030
                   333 10311 20//0 59012 83362
                   555 00/// 20008=
202111180600 AAXX 18064 67741 12980 72703 10228 20178 48521 60054 8707/
                   333 10368 2//// 58028 87460=
202111170600 AAXX 17064 67741 NIL=
202111161200 AAXX 16124 67741 42680 31002 10366 20131 48498 83100
                   333 59035 83850=
202111160900 AAXX 16094 67741 43980 00801 10329 20160 48521
                   333 59029=
202111160600 AAXX 16064 67741 32980 10801 10279 20172 48531 81030
                   333 20//0 59023 81362
                   555 00/// 20003=
202111151500 AAXX 15154 67741 NIL=
202111151200 AAXX 15124 67741 42680 51801 10346 20170 48525 85100
                   333 5//// 85850=
202111150900 AAXX 15094 67741 42980 12701 10304 20182 48545 81130
                   333 5//// 81850 81362=
202111121200 AAXX 12124 67741 42680 20801 10351 20146 48495 82100
                   333 59027 82850=
202111120600 AAXX 12064 67741 32980 11001 10266 20167 48510 81030
                   333 10353 20//0 59025 81362
                   555 00/// 20990=
202111111200 AAXX 11124 67741 42980 13202 10336 20149 48513 81030
                   333 5//// 81362=
202111110900 AAXX 11094 67741 42980 60902 10297 20//0 48535 86070
                   333 5//// 86362=
202111110600 AAXX 11064 67741 12980 70901 10238 20/// 48533 69904 8707/
                   333 10353 20/// 59006 87461
                   555 00/// 20014=
202111100600 AAXX 10064 67741 12980 50000 10252 20/// 48544 60144 85030
                   333 10364 20/// 58038 85362
                   555 00/// 20007=
202111091500 AAXX 09154 67741 NIL=
202111091200 AAXX 09124 67741 42980 61801 10343 20175 48503 87070
                   333 58024 86362=
202111081200 AAXX 08124 67741 42680 31902 10386 20138 48482 83100
                   333 5//// 83850=
202111080900 AAXX 08094 67741 NIL=
202111080600 AAXX 08064 67741 32980 01801 10284 20152 48502
                   333 10393 20//0 59002
                   555 00/// 20000=
202111071200 AAXX 07124 67741 NIL=
202111070600 AAXX 07064 67741 32980 01001 10276 20132 48512
                   333 10380 20//0 5////
                   555 00/// 20000=
202111051200 AAXX 05124 67741 42980 60904 10338 20150 48533 86070
                   333 58019 86362=
202111041200 AAXX 04124 67741 NIL=
202111040900 AAXX 04094 67741 42980 53401 10340 20162 48533 85030
                   333 58000 85362=
202111040600 AAXX 04064 67741 32980 50000 10270 20172 48529 85030
                   333 10391 20//0 58000 85362
                   555 00/// 20000=
202111030900 AAXX 03094 67741 42980 12701 10334 20165 48531 81030
                   333 5//// 81362=
202111021200 AAXX 02124 67741 NIL=
202111011200 AAXX 01124 67741 NIL=

################################################################################
#  SYNOPS from 67743, Livingstone (Zambia) | 17-49S | 025-49E | 985 m
################################################################################
202112010900 AAXX 01094 67743 NIL=
202111301500 AAXX 30154 67743 42780 70810 10355 20101 48493 70222 84232
                   333 59010 84856 83360 81080
                   555 91012=
202111301200 AAXX 30124 67743 42780 61806 10360 20105 48513 70222 84232
                   333 59016 82856 84360 83080
                   555 91013=
202111291500 AAXX 29154 67743 42780 40908 10355 20090 48502 82131
                   333 59008 82857 81360 82080
                   555 10370 91013=
202111291200 AAXX 29124 67743 42780 51109 10355 20103 48518 83101
                   333 59004 83850 84080 91015=
202111290900 AAXX 29094 67743 42780 40305 10310 20129 48537 81101
                   333 59006 81845 84080 91018=
202111280900 AAXX 28094 67743 42980 10207 10300 20144 48541 70200 81030
                   333 59015 81360 91018=
202111261500 AAXX 26154 67743 NIL=
202111261200 AAXX 26124 67743 42680 60613 10302 20174 48538 70122 86801
                   333 58047 85837 81080 91018=
202111260900 AAXX 26094 67743 NIL=
202111251500 AAXX 25154 67743 42780 82008 10346 20089 48486 70222 83831
                   333 59012 83650 82856 82360 82080 91011=
202111251200 AAXX 25124 67743 42780 50512 10340 20163 48498 82101
                   333 58012 82856 83080 91013=
202111250900 AAXX 25094 67743 42980 40311 10315 20157 48515 80001
                   333 58000 84080 91015=
202111250600 AAXX 25064 67743 32980 40317 10256 20171 48514 70222 82031
                   333 10360 20191 59001 82359 83079 91016=
202111241200 AAXX 24124 67743 NIL=
202111240900 AAXX 24094 67743 42780 32201 10310 20155 48515 81101
                   333 59019 81840 82080 91015=
202111240600 AAXX 24064 67743 32980 22606 10257 20179 48513 81030
                   333 10323 20185 59007 81360 82080
                   555 00/// 20002 91016=
202111231500 AAXX 23154 67743 NIL=
202111231200 AAXX 23124 67743 42680 52608 10297 20146 48511 70122 82230
                   333 59002 82848 85360 91015=
202111230600 AAXX 23064 67743 12980 30402 10236 20197 48518 60024 70200 83030
                   333 10269 20//0 58004 83360
                   555 00/// 91017=
202111221500 AAXX 22154 67743 NIL=
202111221200 AAXX 22124 67743 41680 70310 10240 20196 48504 72162
                   333 58036 85830 88458
                   555 66/// 77/// 98/// 91015=
202111220900 AAXX 22094 67743 NIL=
202111210900 AAXX 21094 67743 NIL=
202111190600 AAXX 19064 67743 31975 73014 10270 20172 48518 70500 8707/
                   333 10357 20245 58004 87360 91016=
202111180900 AAXX 18094 67743 42780 33011 10300 20173 48523 81131
                   333 58022 81845 83360 81080 91016=
202111180600 AAXX 18064 67743 NIL=
202111170600 AAXX 17064 67743 31980 00106 10302 20132 48499 70500
                   333 10393 20223 59022=
202111161200 AAXX 16124 67743 41775 31109 10365 20110 48489 70500 83101
                   333 59032 83856 81080 91012=
202111160900 AAXX 16094 67743 41775 20810 10337 20137 48518 70500 81101
                   333 59028 81850 81080 91015=
202111160600 AAXX 16064 67743 NIL=
202111151500 AAXX 15154 67743 NIL=
202111151200 AAXX 15124 67743 NIL=
202111150900 AAXX 15094 67743 41775 31209 10325 20164 48544 70500 82101
                   333 58006 82856 81080 91018=
202111121200 AAXX 12124 67743 41780 70306 10236 20174 48478 72996 81972
                   333 59017 81940 84845 86360 83080 91013=
202111120600 AAXX 12064 67743 31975 00610 10265 20147 48512 70500
                   333 10358 20210 59022=
202111111200 AAXX 11124 67743 NIL=
202111110900 AAXX 11094 67743 NIL=
202111110600 AAXX 11064 67743 NIL=
202111100600 AAXX 10064 67743 11975 11309 10281 20138 48535 69904 70500 81030
                   333 10401 20230 58024 82360
                   555 91018=
202111091500 AAXX 09154 67743 NIL=
202111091200 AAXX 09124 67743 NIL=
202111090900 AAXX 09094 67743 41970 11005 10350 20131 48516 70500 81030
                   333 58014 81360 91015=
202111081200 AAXX 08124 67743 41775 23607 10372 20079 48477 70500 82010
                   333 59012 82856 555 91010=
202111080900 AAXX 08094 67743 41975 13613 10364 20080 48503 75000 80001
                   333 59030 81080 555 91013=
202111080600 AAXX 08064 67743 31975 10108 10285 20103 48620 70500 81100
                   333 10390 20211 59034 81850
                   555 91014=
202111071200 AAXX 07124 67743 NIL=
202111070900 AAXX 07094 67743 41775 10109 10360 20085 48513 70500 81100
                   333 59020 81845 91014=
202111070600 AAXX 07064 67743 31975 00711 10305 20082 48513 70500
                   333 10390 59026 555 00/// 91015=
202111051200 AAXX 05124 67743 42980 61103 10324 20166 48529 86020
                   333 58015 86460 91016=
202111050600 AAXX 05064 67743 12680 80216 10251 20128 48529 60064 8453/
                   333 10360 20203 58008 84645 88360 91018=
202111041200 AAXX 04124 67743 41775 61606 10335 20154 48516 70500 81131
                   333 58015 81850 85360 91015=
202111040900 AAXX 04094 67743 41975 60512 10336 20138 48534 70500 85031
                   333 58003 85360 82080 91017=
202111040600 AAXX 04064 67743 11975 70710 10280 20147 48525 69904 70500 87030
                   333 10383 20249 59006 87360 91017=
202111030900 AAXX 03094 67743 41975 03104 10335 20149 48529 70500
                   333 58023 91016=
202111030600 AAXX 03064 67743 31975 03306 10270 20163 48529 70500
                   333 10380 20201 58030 91018=
202111021200 AAXX 02124 67743 41775 60517 10350 20141 48484 70511 82130
                   333 58004 82850 85360 91011=
202111020900 AAXX 02094 67743 41675 33312 10355 20126 48510 70500 81130
                   333 59004 81840 83360 91014=
202111011200 AAXX 01124 67743 NIL=
202111010600 AAXX 01064 67743 31975 31004 10275 20177 48511 70500 83030
                   333 10385 20225 59001 83360
                   555 00/// 91015=

################################################################################
#  SYNOPS from 67751, Magoye (Zambia) | 16-00S | 027-36E | 1018 m
################################################################################
202112010900 AAXX 01094 67751 NIL=
202112010600 AAXX 01064 67751 32980 00907 10295 20120 48///
                   333 10//0 20179 5////
                   555 00/// 20000=
202111301500 AAXX 30154 67751 42980 11103 10342 20120 48/// 80001
                   333 81080 555 00///=
202111301200 AAXX 30124 67751 42780 11006 10351 20117 48/// 81200
                   333 5//// 81860=
202111291500 AAXX 29154 67751 NIL=
202111291200 AAXX 29124 67751 42680 71804 10325 20178 48/// 81207
                   333 5//// 81840 87280=
202111290900 AAXX 29094 67751 42980 70204 10300 20175 48/// 80007
                   333 5//// 87280=
202111280900 AAXX 28094 67751 NIL=
202111280600 AAXX 28064 67751 32980 00707 10227 20152 48///
                   333 10//0 20172 5////
                   555 00/// 20000=
202111261500 AAXX 26154 67751 NIL=
202111261200 AAXX 26124 67751 NIL=
202111260900 AAXX 26094 67751 NIL=
202111251500 AAXX 25154 67751 NIL=
202111251200 AAXX 25124 67751 41675 73605 10305 20195 48/// 70522 83268
                   333 5//// 83847 81360 86280=
202111250900 AAXX 25094 67751 42680 40107 10211 20198 84230
                   333 5//// 84835 81360=
202111250600 AAXX 25064 67751 32580 30205 10249 20193 48/// 81130
                   333 10//0 20201 5//// 81824 82360
                   555 00/// 20997=
202111241200 AAXX 24124 67751 NIL=
202111240900 AAXX 24094 67751 41680 32804 10304 20201 48/// 83200
                   333 5//// 81943 82844=
202111240600 AAXX 24064 67751 12980 10000 10252 20207 48/// 69974 81041
                   333 10//0 20199 81360 81080
                   555 00/// 20056=
202111231500 AAXX 23154 67751 42680 60805 10311 20195 48/// 82260
                   333 82848 85360 555 10///=
202111231200 AAXX 23124 67751 42680 60104 10311 20195 48/// 83260
                   333 5//// 83848 84360=
202111230900 AAXX 23094 67751 42680 60702 10283 20193 48/// 82232
                   333 5//// 82835 83360 82080=
202111230600 AAXX 23064 67751 12980 70000 10228 20201 60064 87032
                   333 10/// 20195 5//// 87360 81080
                   555 00/// 20023=
202111221500 AAXX 22154 67751 42480 73604 10241 20198 8121/
                   333 5//// 81812 87360
                   555 10///=
202111221200 AAXX 22124 67751 41480 81003 10221 20205 48/// 71799 8221/
                   333 5//// 81912 81812 87460=
202111220900 AAXX 22094 67751 41980 82702 10202 20198 48/// 76066 8807/
                   333 5//// 88360=
202111220600 AAXX 22064 67751 12980 71002 10231 20187 60024 8707/
                   333 10//0 20200 5//// 87360
                   555 00/// 20990=
202111210900 AAXX 21094 67751 NIL=
202111190600 AAXX 19064 67751 31975 72010 10279 20177 48/// 70522 84036
                   333 1//// 20217 5//// 84360 85280
                   555 00/// 20000=
202111180600 AAXX 18064 67751 31975 10809 10270 20165 48/// 81030
                   333 10//0 20213 5//// 81360
                   555 00/// 20000=
202111171200 AAXX 17124 67751 41875 20000 10354 20155 48/// 70500 82200
                   333 5//// 82857=
202111170900 AAXX 17094 67751 41875 13611 10330 20169 48/// 70500 81100
                   333 5//// 81857=
202111170600 AAXX 17064 67751 31980 10814 10291 20162 48/// 70500 81030
                   333 10//0 20187 5//// 81360
                   555 00/// 20000=
202111161200 AAXX 16124 67751 41878 10100 10340 48/// 70500 81100
                   333 5//// 81857=
202111160900 AAXX 16094 67751 41778 13611 10321 20155 48/// 70500 81100
                   333 5//// 81857=
202111160600 AAXX 16064 67751 31978 00806 10265 20101 48/// 70500
                   333 10//0 20182 5////
                   555 00/// 20000=
202111151500 AAXX 15154 67751 42980 21103 10334 20150 81202
                   333 5//// 81858 83080
                   555 10///=
202111151200 AAXX 15124 67751 NIL=
202111150900 AAXX 15094 67751 42780 50904 10330 20165 48/// 82202
                   333 5//// 82856 83360=
202111121200 AAXX 12124 67751 41875 33204 10355 20153 48/// 70500 83200
                   333 5//// 84857=
202111120600 AAXX 12064 67751 31975 10607 10269 20173 48/// 70500 81030
                   333 10//0 20207 5//// 81360
                   555 00/// 20000=
202111111200 AAXX 11124 67751 41975 61303 10312 20160 48/// 70522 86030
                   333 5//// 86360=
202111110900 AAXX 11094 67751 41975 71806 10278 20159 70522 87030
                   333 5//// 87360=
202111110600 AAXX 11064 67751 31975 31803 10248 20168 48/// 83030
                   333 10//0 20219 5//// 83360
                   555 00/// 20000=
202111100600 AAXX 10064 67751 11975 11507 10307 20160 69904 70500 81030
                   333 10/// 20183 5//// 81360
                   555 00/// 20000=
202111091500 AAXX 09154 67751 31975 22703 10290 20104 48/// 70500 82030
                   333 10/// 20182 5//// 82360
                   555 00///=
202111091200 AAXX 09124 67751 NIL=
202111081200 AAXX 08124 67751 NIL=
202111080900 AAXX 08094 67751 NIL=
202111080600 AAXX 08064 67751 NIL=
202111071200 AAXX 07124 67751 NIL=
202111051200 AAXX 05124 67751 NIL=
202111041200 AAXX 04124 67751 NIL=
202111040900 AAXX 04094 67751 NIL=
202111040600 AAXX 04064 67751 NIL=
202111030900 AAXX 03094 67751 NIL=
202111021200 AAXX 02124 67751 41875 33507 10325 20123 48/// 70500 82260
                   333 5//// 82858 82360=
202111011200 AAXX 01124 67751 41975 20105 10369 20165 48/// 70500 82260
                   333 5//// 82858 81360=

################################################################################
#  SYNOPS from 67753, Choma (Zambia) | 16-50S | 027-04E | 1213 m
################################################################################
202112010900 AAXX 01094 67753 42980 12703 10315 20111 48520 80001
                   333 59001 81080=
202111301500 AAXX 30154 67753 42980 02703 10324 20129 48491
                   333 59014 555 10346=
202111301200 AAXX 30124 67753 42780 32708 10336 20127 48503 83100
                   333 59014 83856=
202111291500 AAXX 29154 67753 42680 30000 10307 20116 48510 81101
                   333 58000 81845 83080
                   555 10327=
202111291200 AAXX 29124 67753 42680 40000 10320 20125 48521 81101
                   333 59004 81840 83080=
202111290900 AAXX 29094 67753 42980 30000 10299 20136 48528 80001
                   333 59008 83080=
202111280900 AAXX 28094 67753 42980 00308 10264 20156 48534
                   333 59020=
202111280600 AAXX 28064 67753 32980 00000 10210 20149 48540
                   333 10276 20164 59018
                   555 00///=
202111261500 AAXX 26154 67753 42680 42510 10240 20175 48533 83130
                   333 58045 83840 81360
                   555 10259=
202111261200 AAXX 26124 67753 42680 50309 10250 20183 47543 84230
                   333 58046 84830 81360=
202111260900 AAXX 26094 67753 42580 70211 10229 20177 48560 8315/
                   333 58043 83825 87360=
202111251500 AAXX 25154 67753 41680 70000 10248 20180 48486 71799 82902
                   333 58023 82950 82856 83080
                   555 10301=
202111251200 AAXX 25124 67753 42680 60908 10291 20184 48498 86200
                   333 58019 86845=
202111250900 AAXX 25094 67753 42680 61808 10270 20181 48516 85202
                   333 58011 85830 81080=
202111250600 AAXX 25064 67753 32480 52505 10216 20187 48512 85100
                   333 10321 20168 58013 85815
                   555 00///=
202111241200 AAXX 24124 67753 41680 60000 10306 20168 48481 71799 81902
                   333 59021 81942 84845 81080=
202111240900 AAXX 24094 67753 42680 40000 10291 20178 48508 83202
                   333 59013 83830 81080=
202111240600 AAXX 24064 67753 12480 50000 10249 20201 48512 60094 84230
                   333 10316 20176 59014 84815 81360
                   555 00///=
202111231500 AAXX 23154 67753 41680 70000 10201 20186 48499 71796 82930
                   333 58002 82945 82848 83360
                   555 10316=
202111231200 AAXX 23124 67753 41680 60905 10301 20190 48499 71792 82900
                   333 59010 82940 84842=
202111230600 AAXX 23064 67753 11980 82603 10221 20189 48522 69904 70522 8803/
                   333 10295 20188 58009 88360
                   555 00///=
202111221500 AAXX 22154 67753 42980 80000 10239 20190 48494 8803/
                   333 58025 88360 555 10295=
202111221200 AAXX 22124 67753 41980 81708 10230 20184 48503 78082 8803/
                   333 5//// 88360=
202111220900 AAXX 22094 67753 42480 81808 10229 20179 48523 8453/
                   333 5//// 84618 84360=
202111210900 AAXX 21094 67753 42680 43514 10272 20157 48/// 81130
                   333 5//// 81830 83360=
202111180900 AAXX 18094 67753 42680 20000 10312 20165 48/// 82130
                   333 5//// 82835 81360=
202111180600 AAXX 18064 67753 32980 10000 10265 20162 48506 81030
                   333 10341 20200 58005 81360
                   555 00///=
202111170900 AAXX 17094 67753 41680 31706 10309 20150 48510 70500 83100
                   333 59013 83856=
202111170600 AAXX 17064 67753 31980 01805 10266 20148 48506 70500
                   333 10326 20180 59020=
202111161200 AAXX 16124 67753 42680 32705 10316 20145 48491 82101
                   333 59031 82850 81080=
202111160900 AAXX 16094 67753 42680 22503 10286 20154 48518 81101
                   333 59023 81835 81080=
202111160600 AAXX 16064 67753 32980 20000 10242 20164 48523 80001
                   333 10326 20190 59018 82080
                   555 00///=
202111151500 AAXX 15154 67753 42780 32703 10306 20142 48500 81101
                   333 58001 81856 82080
                   555 10326=
202111151200 AAXX 15124 67753 42680 52708 10310 20147 48520 82101
                   333 58007 82850 83080=
202111150900 AAXX 15094 67753 42680 72505 10281 20172 48536 82101
                   333 58009 82840 85080=
202111121200 AAXX 12124 67753 41680 50000 10286 20173 48479 71792 85300
                   333 59031 81940 84845=
202111120900 AAXX 12094 67753 41680 20000 10286 20178 48508 70500 81130
                   333 59022 81830 81360=
202111120600 AAXX 12064 67753 31980 00105 10233 20175 48513 70500
                   333 10308 20180 59034
                   555 00///=
202111111200 AAXX 11124 67753 NIL=
202111110900 AAXX 11094 67753 41980 80000 10216 20184 48522 79522 8807/
                   333 5//// 88360=
202111110600 AAXX 11064 67753 11460 80000 10181 20175 48537 60154 76162 10356 20170 5////
                   83618 88360 00///=
202111101200 AAXX 10124 67753 41680 20000 10335 20151 48/// 70500 81130
                   333 5//// 81845 81360=
202111100600 AAXX 10064 67753 31980 70000 10246 20161 48/// 70500 8705/
                   333 10366 20228 5//// 87360
                   555 00///=
202111091500 AAXX 09154 67753 41780 12703 10351 20141 48485 70500 81100
                   333 58011 81857 555 10366=
202111091200 AAXX 09124 67753 NIL=
202111081200 AAXX 08124 67753 41780 50903 10351 20101 48485 70522 85100
                   333 59014 85856=
202111080900 AAXX 08094 67753 41980 01815 10326 20110 48512 70500
                   333 59007=
202111080600 AAXX 08064 67753 31980 01805 10275 20094 48505 70500
                   333 10354 20186 59006
                   555 00///=
202111071200 AAXX 07124 67753 41780 52605 10336 20105 48493 70522 85100
                   333 59011 85856=
202111070900 AAXX 07094 67753 41780 12703 10326 20127 48512 70500 81100
                   333 5//// 81856=
202111070600 AAXX 07064 67753 31980 01805 10271 20133 48516 70500
                   333 10346 20180 5////=
202111051200 AAXX 05124 67753 41680 30411 10320 20141 48521 70500 83100
                   333 58011 83845=
202111041200 AAXX 04124 67753 NIL=
202111040900 AAXX 04094 67753 41980 70000 10300 20161 48528 70500 8705/
                   333 5//// 87360=
202111040600 AAXX 04064 67753 11980 70806 10245 20161 48524 69924 70522 8705/
                   333 10339 20200 58002 87360
                   555 00///=
202111030900 AAXX 03094 67753 NIL=
202111021200 AAXX 02124 67753 41680 70000 10305 20145 48490 71792 86330
                   333 58015 81940 85845 81360=
202111011200 AAXX 01124 67753 42780 52705 10338 20136 48484 85100
                   333 59011 85856=

################################################################################
#  SYNOPS from 67855, Lupaki (Zambia) | 17-03-00S | 024-46-00E | 1000 m
################################################################################
202112010900 AAXX 01094 67855 42980 43504 10344 20104 3//// 48/// 84030
                   333 5//// 84360=
202111300900 AAXX 30094 67855 42980 51103 10336 20126 3//// 48/// 85030
                   333 5//// 85360=
202111270900 AAXX 27094 67855 42675 32603 10284 20139 3//// 48/// 83100
                   333 5//// 83840=
202111261500 AAXX 26154 67855 42780 32103 10314 20141 3//// 48/// 83100
                   333 5//// 83856=
202111260900 AAXX 26094 67855 42675 73304 10277 20157 3//// 48/// 875//
                   333 5//// 87635=
202111251500 AAXX 25154 67855 42780 31702 10350 20136 3//// 48/// 83202
                   333 5//// 83856=
202111250900 AAXX 25094 67855 42580 31702 10292 20120 3//// 48/// 83102
                   333 5//// 83840=
202111241500 AAXX 24154 67855 42780 51902 10298 20116 3//// 48/// 81102
                   333 5//// 81856=
202111240900 AAXX 24094 67855 42680 31402 10322 3//// 48/// 83102
                   333 5//// 83840=
202111221500 AAXX 22154 67855 41670 73502 10254 20187 3//// 48/// 75085 875//
                   333 5//// 87645=
202111200900 AAXX 20094 67855 42780 60905 10300 20166 3//// 48/// 81130
                   333 5//// 81856 86360=
202111190900 AAXX 19094 67855 41570 71202 10280 20158 3//// 48/// 70552 875//
                   333 5//// 87625=
202111180900 AAXX 18094 67855 42780 32402 10328 20127 3//// 48/// 81102
                   333 5//// 81856 83080=
202111171500 AAXX 17154 67855 41980 61702 10356 20121 3//// 48/// 72992 81203
                   333 5//// 81940 85080=
202111170900 AAXX 17094 67855 42780 33403 10348 20122 3//// 48/// 83100
                   333 5//// 83856=
202111161500 AAXX 16154 67855 42780 21602 10354 20116 3//// 48/// 82100
                   333 5//// 82858=
202111160900 AAXX 16094 67855 42980 11302 10322 20137 3//// 48/// 80002
                   333 5//// 81080=
202111110900 AAXX 11094 67855 42675 53405 10312 20139 3//// 48/// 81130
                   333 5//// 81840 85080=
202111100900 AAXX 10094 67855 41965 43104 10329 20162 3//// 48/// 70511 84030
                   333 5//// 84360=
202111090900 AAXX 09094 67855 41965 31302 10328 20138 3//// 48/// 70500 83030
                   333 5//// 83360=
202111080900 AAXX 08094 67855 42980 03105 10347 20088 3//// 48///
                   333 5////=
202111051500 AAXX 05154 67855 42780 61302 10340 20137 3//// 48/// 81032
                   333 5//// 86080=
202111050900 AAXX 05094 67855 42980 32402 10326 20203 3//// 48/// 80002
                   333 5//// 83080=
