################################################################################
# Query made at 04/10/2022 06:53:54 UTC
# Country like Zamb*
# Time interval: from 08/01/2019 05:30  to 08/31/2019 06:30  UTC
################################################################################

################################################################################
#  SYNOPS from 67403, Kawambwa (Zambia) | 09-48S | 029-05E | 1323 m
################################################################################
201908271200 AAXX 27124 67403 NIL=
201908260900 AAXX 26094 67403 NIL=
201908221200 AAXX 22124 67403 NIL=
201908091200 AAXX 09124 67403 41770 22001 10295 20077 48525 82100
                   333 58007 82850=
201908081200 AAXX 08124 67403 41770 10902 10301 20073 48517 70500 81100
                   333 59003 81850=
201908080900 AAXX 08094 67403 NIL=
201908080600 AAXX 08064 67403 31975 00902 10195 20087 48538 70500
                   333 10330 20169 58007
                   555 00150=
201908071200 AAXX 07124 67403 41775 53202 10323 20089 48521 85200
                   333 59007 85850=
201908021200 AAXX 02124 67403 NIL=
201908020900 AAXX 02094 67403 NIL=
201908011200 AAXX 01124 67403 NIL=

################################################################################
#  SYNOPS from 67413, Mbala (Zambia) | 08-51S | 031-20E | 1673 m
################################################################################
201908271200 AAXX 27124 67413 NIL=
201908260900 AAXX 26094 67413 NIL=
201908221200 AAXX 22124 67413 NIL=
201908080900 AAXX 08094 67413 NIL=
201908080600 AAXX 08064 67413 NIL=
201908071200 AAXX 07124 67413 NIL=
201908021200 AAXX 02124 67413 NIL=
201908020900 AAXX 02094 67413 NIL=
201908011200 AAXX 01124 67413 NIL=

################################################################################
#  SYNOPS from 67441, Mwinilunga (Zambia) | 11-45S | 024-26E | 1361 m
################################################################################
201908300600 AAXX 30064 67441 31965 60000 10175 20115 48551 70522 86030
                   333 10310 2//// 5//// 86360=
201908290600 AAXX 29064 67441 31965 10000 10170 20131 48/// 70500 80001
                   333 10324 2//// 5//// 81070=
201908280600 AAXX 28064 67441 31965 60000 10165 20139 48558 70522 86030
                   333 10305 2//// 59017 86359=
201908271200 AAXX 27124 67441 NIL=
201908270600 AAXX 27064 67441 11970 00000 10170 20144 48575 69924 70500
                   333 10310 2//// 59005=
201908260900 AAXX 26094 67441 41970 00503 10260 20115 48/// 70511
                   333 5////=
201908230900 AAXX 23094 67441 41975 01505 10210 20056 48603 70500
                   333 5////=
201908221200 AAXX 22124 67441 NIL=
201908220900 AAXX 22094 67441 41975 01004 10220 20056 48/// 70500
                   333 5////=
201908091200 AAXX 09124 67441 41975 00000 10300 20061 48558 70500
                   333 58017=
201908090600 AAXX 09064 67441 31970 00000 10130 20084 48585 70500
                   333 10295 2//// 58012=
201908080900 AAXX 08094 67441 NIL=
201908080600 AAXX 08064 67441 NIL=
201908071200 AAXX 07124 67441 NIL=
201908060600 AAXX 06064 67441 31970 50000 10150 20124 48751 70500 8503/
                   333 10300 2//// 59011=
201908021200 AAXX 02124 67441 NIL=
201908020900 AAXX 02094 67441 NIL=
201908020600 AAXX 02064 67441 31965 00000 10105 20071 48561 70500
                   333 10282 2//// 58002=
201908011200 AAXX 01124 67441 41975 00000 10285 20055 48536 70500
                   333 59003=
201908010600 AAXX 01064 67441 31960 00000 10090 20056 48559 70500
                   333 10270 20333 58005
                   555 00///=

################################################################################
#  SYNOPS from 67461, Mansa (Zambia) | 11-06S | 028-51E | 1382 m
################################################################################
201908300600 AAXX 30064 67461 31958 01309 10169 20110 48515 70500
                   333 10305 20118 58004 91019=
201908280600 AAXX 28064 67461 31965 01206 10175 20105 48518 70500
                   333 10309 20121 59009 91019=
201908271200 AAXX 27124 67461 NIL=
201908260900 AAXX 26094 67461 41970 01010 10265 20136 48546 70500
                   333 58008 91021=
201908260600 AAXX 26064 67461 31970 11306 10180 20130 48542 70500 81030
                   333 10282 20135 58009 81360 91021=
201908221200 AAXX 22124 67461 NIL=
201908210900 AAXX 21094 67461 41970 01013 10220 20063 48569 70500
                   333 58025 91024=
201908081200 AAXX 08124 67461 41975 01208 10295 20095 48525 70500
                   333 59009 91018=
201908080900 AAXX 08094 67461 41970 01509 10260 20105 48550 70500
                   333 59004 91021=
201908080600 AAXX 08064 67461 31958 01405 10169 20095 48541 70500
                   333 10300 20124 58001 91021=
201908071200 AAXX 07124 67461 NIL=
201908070900 AAXX 07094 67461 41975 01205 10265 20056 48554 70500
                   333 59004 91022=
201908021200 AAXX 02124 67461 NIL=
201908020900 AAXX 02094 67461 41970 61208 10235 20138 48524 70522 86030
                   333 58000 86360 91019=
201908011200 AAXX 01124 67461 NIL=

################################################################################
#  SYNOPS from 67469, Samfya (Zambia) | 11-22S | 029-54E | 1171 m
################################################################################
201908300600 AAXX 30064 67469 32980 01210 10201 20140 48///
                   333 10285 20178 5////=
201908280600 AAXX 28064 67469 32980 01307 10197 20130 48///
                   333 10280 20176 5////=
201908271200 AAXX 27124 67469 42980 00604 10265 20170 48///
                   333 5////=
201908270600 AAXX 27064 67469 32980 01507 10211 20160 48///
                   333 10274 20183 5////=
201908260900 AAXX 26094 67469 42980 01004 10176 20140 48///
                   333 5////=
201908221200 AAXX 22124 67469 42680 21106 10220 20140 48/// 82201
                   333 5//// 82838 81080=
201908210900 AAXX 21094 67469 42980 01515 10208 20110 48///
                   333 5////=
201908091200 AAXX 09124 67469 42980 00803 10242 20170 48///
                   333 5////=
201908081200 AAXX 08124 67469 42980 00603 10254 20150 48///
                   333 5////=
201908080900 AAXX 08094 67469 42980 01105 10228 20130 48///
                   333 5////=
201908080600 AAXX 08064 67469 32980 01306 10195 20110 48///
                   333 10258 20160 5////=
201908071200 AAXX 07124 67469 42980 00906 10267 20150 48///
                   333 5////=
201908070900 AAXX 07094 67469 42980 01408 10240 20120 48///
                   333 5////=
201908060900 AAXX 06094 67469 42980 01207 10234 20150 48///
                   333 5////=
201908021200 AAXX 02124 67469 42680 31104 10252 20160 48/// 81231
                   333 5//// 81836 83360 81080=
201908020900 AAXX 02094 67469 42980 01006 10228 20160 48///
                   333 5////=
201908011200 AAXX 01124 67469 42980 00704 10231 20220 48///
                   333 5////=
201908010900 AAXX 01094 67469 32980 01104 10166 20110 48///
                   333 10244 20140 5////=

################################################################################
#  SYNOPS from 67475, Kasama (Zambia) | 10-13S | 031-08E | 1382 m
################################################################################
201908280600 AAXX 28064 67475 31960 01404 10196 20074 48556 70500
                   333 10322 20111 59007 91023=
201908271200 AAXX 27124 67475 NIL=
201908260900 AAXX 26094 67475 NIL=
201908221200 AAXX 22124 67475 41560 10908 10240 20080 48541 81100
                   333 59010 81840 555 91022=
201908220900 AAXX 22094 67475 41560 21009 10216 20085 48571 81201
                   333 59005 82830 81080
                   555 91026=
201908210900 AAXX 21094 67475 01310 01226 10006 48576 70500
                   333 58018 555 91026=
201908120600 AAXX 12064 67475 31960 31406 10171 20054 48557 70500 80001
                   333 10290 20126 59013 83080 91024=
201908091200 AAXX 09124 67475 41960 01110 10280 20091 48536 70500
                   333 58011 91021=
201908090900 AAXX 09094 67475 41960 01109 10254 20098 48558 70500
                   333 58004 91024=
201908081200 AAXX 08124 67475 41960 01004 10286 20080 48524 70500
                   333 59007 91020=
201908080900 AAXX 08094 67475 41960 11103 10256 20110 48555 70522 80001
                   333 58002 81080 91023=
201908080600 AAXX 08064 67475 31960 50903 10180 20114 48553 70522 80008
                   333 10314 20114 58004 85280 91024=
201908071200 AAXX 07124 67475 NIL=
201908070600 AAXX 07064 67475 31960 00903 10197 20090 48531 70500
                   333 10316 20104 59006 91023=
201908060600 AAXX 06064 67475 31960 00904 10186 20091 48556 70500
                   333 10300 20141 59006 91024=
201908021200 AAXX 02124 67475 NIL=
201908020900 AAXX 02094 67475 NIL=
201908011200 AAXX 01124 67475 NIL=

################################################################################
#  SYNOPS from 67476, Misamfu (Zambia) | 10-06S | 031-15E | 1536 m
################################################################################
201908300600 AAXX 30064 67476 31975 00804 10189 20095 48/// 70500
                   333 10303 20071 5////=
201908291200 AAXX 29124 67476 41977 11304 10296 20015 48/// 70500 80001
                   333 5//// 81080=
201908280600 AAXX 28064 67476 31975 00604 10198 20074 48/// 70500
                   333 10301 20073 59007=
201908271200 AAXX 27124 67476 41777 10904 10294 20074 48/// 70500 81100
                   333 5//// 81850=
201908270600 AAXX 27064 67476 31976 10904 10205 20127 48/// 70500 80001
                   333 10305 20091 59013 81080=
201908260900 AAXX 26094 67476 41677 10804 10262 20185 48/// 70500 81100
                   333 5//// 81840=
201908221200 AAXX 22124 67476 41778 11803 10233 20061 48/// 70500 81100
                   333 5//// 81850=
201908210900 AAXX 21094 67476 41976 01505 10217 20052 48/// 70500
                   333 58016=
201908081200 AAXX 08124 67476 41977 00805 10290 20067 48/// 70500
                   333 59005=
201908080900 AAXX 08094 67476 41977 01009 10248 20104 48/// 70500
                   333 59001=
201908080600 AAXX 08064 67476 31976 10704 10175 20111 48/// 70500 81030
                   333 10292 20072 58004 81360=
201908071200 AAXX 07124 67476 41976 01007 10286 20060 48/// 70500
                   333 59006=
201908070900 AAXX 07094 67476 41977 00908 10255 20060 48/// 70500
                   333 59005=
201908070600 AAXX 07064 67476 31976 00905 10185 20092 48/// 70500
                   333 10297 20058 59006=
201908060900 AAXX 06094 67476 41977 00908 10255 20065 48/// 70500
                   333 5////=
201908060600 AAXX 06064 67476 31976 01006 10187 20091 48/// 70500
                   333 10294 20086 59004=
201908021200 AAXX 02124 67476 41678 40907 10270 20115 48/// 70510 84200
                   333 5//// 84848=
201908020900 AAXX 02094 67476 NIL=
201908011200 AAXX 01124 67476 41777 20704 10262 20101 48/// 70500 82200
                   333 58003 82850=
201908010900 AAXX 01094 67476 41976 00707 10243 20099 48/// 70500
                   333 58007=
201908010600 AAXX 01064 67476 31975 10604 10166 20127 48/// 70500 80001
                   333 10272 20079 5//// 81080
                   555 00/// 20000=

################################################################################
#  SYNOPS from 67477, Mpika (Zambia) | 11-54S | 031-26E | 1400 m
################################################################################
201908300600 AAXX 30064 67477 31978 01206 10208 20120 48/// 70500
                   333 10282 20126 5////
                   555 00113=
201908280600 AAXX 28064 67477 31978 01204 10218 20100 48///
                   333 10283 20090 5////
                   555 00091=
201908271200 AAXX 27124 67477 41978 01205 10280 20110 48/// 70500
                   333 5////=
201908260900 AAXX 26094 67477 41578 11203 10248 20080 48/// 70500 81100
                   333 5//// 81820=
201908221200 AAXX 22124 67477 41678 11202 10213 20080 48/// 70500 81100
                   333 5//// 81830=
201908210900 AAXX 21094 67477 41978 00903 10192 20080 48/// 70500
                   333 5////=
201908091200 AAXX 09124 67477 41978 01202 10272 20040 48/// 70500
                   333 5////=
201908081200 AAXX 08124 67477 41978 01202 10283 20030 48/// 70500
                   333 5////=
201908080900 AAXX 08094 67477 41978 01204 10256 20070 48/// 70500
                   333 5////=
201908080600 AAXX 08064 67477 31978 01203 10203 20090 48/// 70500
                   333 10278 20147 5////
                   555 00131=
201908071200 AAXX 07124 67477 41978 00903 10271 20040 48/// 70500
                   333 5////=
201908070900 AAXX 07094 67477 41978 01208 10250 20080 48///
                   333 5////=
201908060900 AAXX 06094 67477 41975 00904 10256 20080 48/// 70500
                   333 5////=
201908021200 AAXX 02124 67477 NIL=
201908020900 AAXX 02094 67477 41975 21214 10225 20123 48/// 70500 82030
                   333 5//// 82360=
201908011200 AAXX 01124 67477 NIL=

################################################################################
#  SYNOPS from 67481, Isoka (Zambia) | 10-07S | 032-38E | 1360 m
################################################################################
201908300900 AAXX 30094 67481 41975 02702 10258 20086 48/// 70500
                   333 5////=
201908300600 AAXX 30064 67481 31975 01202 10206 20109 48/// 70500
                   333 10300 20123 5////=
201908290600 AAXX 29064 67481 31975 01002 10212 20104 48/// 70500
                   333 10300 20138 5////=
201908280600 AAXX 28064 67481 31975 01002 10213 20089 48/// 70500
                   333 10280 20138 5////=
201908271200 AAXX 27124 67481 NIL=
201908270600 AAXX 27064 67481 31970 21503 10218 20130 48/// 70500 80001
                   333 10293 20150 5//// 82080=
201908260900 AAXX 26094 67481 NIL=
201908230900 AAXX 23094 67481 41970 02703 10216 20093 48/// 70500
                   333 5////=
201908230600 AAXX 23064 67481 31970 03303 10154 20111 48/// 70500
                   333 10254 20118 5////=
201908221200 AAXX 22124 67481 NIL=
201908220900 AAXX 22094 67481 41570 43302 10194 20075 48/// 70500 84100
                   333 5//// 84827=
201908220600 AAXX 22064 67481 31470 20602 10148 20087 48/// 70500 82100
                   333 10252 20122 5//// 82810=
201908210900 AAXX 21094 67481 41970 01202 10214 20072 48/// 70500
                   333 5////=
201908090900 AAXX 09094 67481 41975 01302 10236 20107 48/// 70500
                   333 5////=
201908090600 AAXX 09064 67481 31975 02702 10200 20122 48/// 70500
                   333 10300 20123 5////=
201908081200 AAXX 08124 67481 41970 02002 10290 20070 48/// 70500
                   333 5////=
201908080900 AAXX 08094 67481 41970 01204 10252 20090 48/// 70500
                   333 5////=
201908080600 AAXX 08064 67481 31970 01002 10196 20121 48/// 70500
                   333 10294 20130 5////=
201908071200 AAXX 07124 67481 41975 12702 10290 20066 48/// 70500 80001
                   333 5//// 81080=
201908070600 AAXX 07064 67481 31975 02702 10196 20107 48/// 70500
                   333 10290 20131 5////=
201908060600 AAXX 06064 67481 31975 02202 10220 20076 48/// 70500
                   333 10300 20124 5////=
201908021200 AAXX 02124 67481 NIL=
201908020900 AAXX 02094 67481 NIL=
201908011200 AAXX 01124 67481 NIL=
201908010600 AAXX 01064 67481 31970 01002 10182 20132 48/// 70500
                   333 10278 20120 5////
                   555 00///=

################################################################################
#  SYNOPS from 67531, Zambezi (Zambia) | 13-32S | 023-07E | 1077 m
################################################################################
201908301200 AAXX 30124 67531 41975 20805 10329 20099 48/// 70520 82030
                   333 59019 82362=
201908300900 AAXX 30094 67531 41975 60906 10275 20095 48/// 70522 86030
                   333 59018 86362=
201908300600 AAXX 30064 67531 31975 70607 10210 20102 48/// 70522 8703/
                   333 10317 20144 59015 87362
                   555 00149=
201908290900 AAXX 29094 67531 41975 70000 10216 20150 48/// 70522 8707/ 87460=
201908290600 AAXX 29064 67531 31975 70000 10191 20162 48/// 70522 8707/
                   333 10309 20175 59002 87360
                   555 00166=
201908280600 AAXX 28064 67531 12980 50000 10210 20158 48/// 60064 85030
                   333 10328 20185 59014 85360
                   555 00182=
201908271200 AAXX 27124 67531 NIL=
201908260900 AAXX 26094 67531 41975 20908 10256 20123 48/// 70500
                   333 58008 91021=
201908230900 AAXX 23094 67531 41975 01312 10231 20061 48/// 70500
                   333 58011=
201908230600 AAXX 23064 67531 31975 01010 10170 20060 48/// 70500
                   333 10286 20140 58003
                   555 00112=
201908221200 AAXX 22124 67531 NIL=
201908080900 AAXX 08094 67531 42980 31009 10275 20099 48/// 83030
                   333 58005 83362=
201908080600 AAXX 08064 67531 32980 50906 10192 20089 48/// 85030
                   333 10339 20131 58001 85030
                   555 00113=
201908071200 AAXX 07124 67531 42980 10805 10327 20112 48/// 80001
                   333 59007 81081=
201908070900 AAXX 07094 67531 42980 00908 10282 20100 48///
                   333 59007=
201908060900 AAXX 06094 67531 42980 03609 10288 20130 48///
                   333 59010=
201908021200 AAXX 02124 67531 41975 01004 10291 20105 48/// 70500
                   333 59004=
201908020900 AAXX 02094 67531 41975 00809 10251 20102 48/// 70500
                   333 59006=
201908011200 AAXX 01124 67531 41975 00605 10286 20081 48/// 70500
                   333 58001=
201908010900 AAXX 01094 67531 41975 01308 10250 20078 48/// 70500
                   333 58005=

################################################################################
#  SYNOPS from 67541, Kasempa (Zambia) | 13-32S | 025-51E | 1234 m
################################################################################
201908300600 AAXX 30064 67541 32980 30000 10165 20102 48/// 80003
                   333 10330 20104 5//// 83080=
201908280600 AAXX 28064 67541 32980 70000 10200 20115 48/// 87030
                   333 10330 20130 5//// 87360=
201908271200 AAXX 27124 67541 NIL=
201908260900 AAXX 26094 67541 NIL=
201908221200 AAXX 22124 67541 41970 00703 10245 20075 48/// 70500
                   333 5////=
201908210900 AAXX 21094 67541 41965 00805 10230 20035 48/// 70500
                   333 5////=
201908091200 AAXX 09124 67541 42980 20000 10315 20070 48/// 80003
                   333 5//// 83080=
201908081200 AAXX 08124 67541 42980 30503 10310 20061 48/// 80003
                   333 5//// 83080=
201908080900 AAXX 08094 67541 42980 30405 10295 20065 48/// 80003
                   333 5//// 83080=
201908080600 AAXX 08064 67541 32980 40000 10170 20075 48/// 84030
                   333 10320 20110 5//// 84360=
201908071200 AAXX 07124 67541 NIL=
201908070900 AAXX 07094 67541 42980 50605 10260 20085 48/// 82033
                   333 5//// 82360 83080=
201908060900 AAXX 06094 67541 41970 00603 10289 20109 48/// 70500
                   333 5////=
201908021200 AAXX 02124 67541 41970 00603 10275 20085 48/// 70500
                   333 5////=
201908020900 AAXX 02094 67541 42960 20806 10240 20091 48/// 80002
                   333 5//// 82080=
201908011200 AAXX 01124 67541 41970 00803 10285 20071 48/// 70500
                   333 5////=
201908010600 AAXX 01064 67541 32980 10000 10095 20055 48/// 70222 80001
                   333 10298 20014 5//// 81080
                   555 00///=

################################################################################
#  SYNOPS from 67543, Kabompo (Zambia) | 13-36S | 024-12E | 1075 m
################################################################################
201908300600 AAXX 30064 67543 31965 70000 10196 20101 48/// 70522 8703/
                   333 10346 20174 59012 87360=
201908291200 AAXX 29124 67543 41970 60902 10336 20077 48/// 70522 86030
                   333 59004 86361=
201908290600 AAXX 29064 67543 31965 60000 10188 20122 48/// 70522 86030
                   333 10336 20168 59004 86360=
201908280600 AAXX 28064 67543 11970 70000 10214 20147 48/// 69904 70522 8703/
                   333 10340 20190 59013 87360=
201908271200 AAXX 27124 67543 NIL=
201908260900 AAXX 26094 67543 NIL=
201908231200 AAXX 23124 67543 41970 21203 10266 20044 48/// 70500 80001
                   333 59002 82080=
201908221200 AAXX 22124 67543 41970 31803 10268 20050 48/// 70500 83030
                   333 59001=
201908220600 AAXX 22064 67543 31970 00902 10160 20087 48/// 70500
                   333 10290 20118 58002=
201908210900 AAXX 21094 67543 41970 01205 10252 20013 48/// 70500
                   333 58019=
201908120600 AAXX 12064 67543 31970 00000 14017 20085 48/// 70500
                   333 10306 20126 5////=
201908090600 AAXX 09064 67543 31965 00000 10174 20081 48/// 70500
                   333 10340 20140 58012=
201908081200 AAXX 08124 67543 41970 31201 10332 20068 48/// 70522 83030
                   333 59005 83361=
201908080900 AAXX 08094 67543 41970 50000 10292 20099 48/// 70522 85030
                   333 58003 85360=
201908080600 AAXX 08064 67543 31970 60000 10170 20094 48/// 70522 86030
                   333 10340 20126 59001 86360=
201908071200 AAXX 07124 67543 41970 21803 10332 20059 48/// 70500 82030
                   333 59014 82361=
201908070900 AAXX 07094 67543 41970 01204 10290 20083 48/// 70500
                   333 59008=
201908070600 AAXX 07064 67543 31970 00000 10194 20099 48/// 70500
                   333 10336 20148 59004=
201908060900 AAXX 06094 67543 41970 20603 10296 20119 48/// 70500 80001
                   333 5//// 82080=
201908060600 AAXX 06064 67543 31970 50000 10206 20122 48/// 70522 85030
                   333 10340 20122 59009 85360=
201908021200 AAXX 02124 67543 NIL=
201908020900 AAXX 02094 67543 41970 00902 10256 20085 48/// 70500
                   333 59004=
201908011200 AAXX 01124 67543 NIL=

################################################################################
#  SYNOPS from 67551, Solwezi (Zambia) | 12-11S | 026-23E | 1386 m
################################################################################
201908300600 AAXX 30064 67551 31970 70905 10184 20070 48530 70522 87030
                   333 10296 20156 59008 87362 91020=
201908290600 AAXX 29064 67551 31970 70506 10193 20070 70506 87030
                   333 10312 20145 59001 87362 91021=
201908280600 AAXX 28064 67551 31970 00903 10199 20096 48528 70500
                   333 10292 20151 59012 91021=
201908271200 AAXX 27124 67551 NIL=
201908270600 AAXX 27064 67551 31970 31205 10208 2//// 48548 70500 83030
                   333 10300 20130 59006 83360 91023=
201908260900 AAXX 26094 67551 NIL=
201908230600 AAXX 23064 67551 31970 01508 10132 20052 48571 70500
                   333 10227 20090 58003 91026=
201908221200 AAXX 22124 67551 NIL=
201908080900 AAXX 08094 67551 NIL=
201908080600 AAXX 08064 67551 31957 01003 10162 20094 48549 70500 82030
                   333 10304 20120 59004 91023=
201908071200 AAXX 07124 67551 NIL=
201908060600 AAXX 06064 67551 31965 61504 10186 20109 48514 70522 86030
                   333 1//// 2//// 59002 86362 91023=
201908021200 AAXX 02124 67551 NIL=
201908020900 AAXX 02094 67551 NIL=
201908011200 AAXX 01124 67551 NIL=

################################################################################
#  SYNOPS from 67561, Ndola (Zambia) | 13-00S | 028-39E | 1269 m
################################################################################
201908300600 AAXX 30064 67561 31950 00505 10185 20071 48535 70400
                   333 10315 20140 59009 91021=
201908291200 AAXX 29124 67561 41959 10804 10309 20061 48522 70400 80001
                   333 58002 81080 91018=
201908280600 AAXX 28064 67561 31957 00505 10193 20143 48542 70400
                   333 10312 20140 59011 91022=
201908271200 AAXX 27124 67561 41759 39903 10075 48522 70511
                   333 59007 83856 91019=
201908270600 AAXX 27064 67561 31958 00804 10206 20120 48554 70400
                   333 10311 20150 59009 91023=
201908260900 AAXX 26094 67561 41959 00611 10267 20109 48563 70400
                   333 59004 91023=
201908260600 AAXX 26064 67561 31958 10806 10190 20132 48562 70400 80001
                   333 10294 20138 59001 81080 91024=
201908221200 AAXX 22124 67561 NIL=
201908090900 AAXX 09094 67561 41958 01112 10278 20046 48568 70400
                   333 58008 91024=
201908090600 AAXX 09064 67561 31940 09902 10169 20068 48556 70400
                   333 10300 20102 58009 91024=
201908081200 AAXX 08124 67561 41959 00000 10297 20067 48530 70400
                   333 58002 91020=
201908080900 AAXX 08094 67561 41958 01105 10265 20067 48549 70500
                   333 58005 91024=
201908080600 AAXX 08064 67561 31910 00503 10165 20075 48536 70400
                   333 10310 20118 58001 91023=
201908071200 AAXX 07124 67561 41959 02206 10307 20060 48530 70400
                   333 59012=
201908070900 AAXX 07094 67561 41959 01010 10275 20059 48555 70400
                   333 59009=
201908021200 AAXX 02124 67561 NIL=
201908020900 AAXX 02094 67561 NIL=
201908011200 AAXX 01124 67561 NIL=
201908010600 AAXX 01064 67561 31910 00000 10142 20046 48537 70400
                   333 10270 20093 58001
                   555 91022=

################################################################################
#  SYNOPS from 67563, Kafironda (Zambia) | 12-36S | 028-07E | 1243 m
################################################################################
201908300600 AAXX 30064 67563 31930 00401 10190 20100 48/// 70500
                   333 10324 20081 59009
                   555 00080=
201908290600 AAXX 29064 67563 31930 20602 10192 20110 48/// 70500 82030
                   333 10317 20089 58005 82360
                   555 00088=
201908280600 AAXX 28064 67563 31930 00201 10206 20120 48/// 70500
                   333 10322 20098 59010
                   555 00091=
201908271200 AAXX 27124 67563 NIL=
201908270600 AAXX 27064 67563 31930 00303 10203 20130 48/// 70500
                   333 10314 20116 5////
                   555 00109=
201908260900 AAXX 26094 67563 NIL=
201908260600 AAXX 26064 67563 31930 00902 10181 20120 48/// 70500
                   333 10300 20093 5////
                   555 00091=
201908230600 AAXX 23064 67563 31940 32002 10140 20062 48/// 70500 80002
                   333 10260 20044 58001
                   555 00040=
201908221200 AAXX 22124 67563 NIL=
201908220600 AAXX 22064 67563 31950 01504 10160 20086 48/// 70500
                   333 10273 20080 59001=
201908120600 AAXX 12064 67563 31940 00603 10182 20080 48/// 70500
                   333 10286 20094 59014
                   555 00069=
201908090600 AAXX 09064 67563 31940 00000 10145 20110 48/// 70500
                   333 10311 20063 58010
                   555 00062=
201908080900 AAXX 08094 67563 NIL=
201908080600 AAXX 08064 67563 31960 00402 10175 20105 48/// 70540
                   333 10316 20073 59001
                   555 00071=
201908071200 AAXX 07124 67563 NIL=
201908070600 AAXX 07064 67563 31950 00302 10185 20096 48/// 70500
                   333 10310 20075 59004
                   555 00070=
201908060600 AAXX 06064 67563 31940 10802 10195 20118 48/// 70500 81030
                   333 10315 20120 59001 81362
                   555 00110=
201908021200 AAXX 02124 67563 NIL=
201908020900 AAXX 02094 67563 NIL=
201908020600 AAXX 02064 67563 31920 00402 10165 20059 48/// 70540
                   333 10292 20060 5////
                   555 00052=
201908011200 AAXX 01124 67563 NIL=

################################################################################
#  SYNOPS from 67571, Serenje (Zambia) | 13-14S | 030-13E | 1384 m
################################################################################
201908300600 AAXX 30064 67571 31960 01503 10218 20086 48893 70500
                   333 10291 20131 58006
                   555 00///=
201908291200 AAXX 29124 67571 41957 01208 10281 20014 48/// 70500
                   333 5////=
201908290900 AAXX 29094 67571 41958 00902 10265 20049 48/// 70500
                   333 5////=
201908271200 AAXX 27124 67571 42665 11807 10272 20081 48484 70500 81100
                   333 59018 81845=
201908270900 AAXX 27094 67571 42675 11506 10253 20098 48504 70500 81100
                   333 59025 81832=
201908260900 AAXX 26094 67571 42678 20303 10243 20130 48524 70500 82100
                   333 58011 82832=
201908260600 AAXX 26064 67571 32578 10903 10196 20133 48522 70500 81100
                   333 10267 20134 58010 81820=
201908230600 AAXX 23064 67571 32577 60912 10137 20076 48529 70522 81108
                   333 10213 20096 58003 81820 86280=
201908221200 AAXX 22124 67571 42668 31203 10203 20034 48512 70500 83100
                   333 53008 83834=
201908220900 AAXX 22094 67571 42570 11507 10171 20066 48/// 70500 81100
                   333 5//// 81823=
201908210900 AAXX 21094 67571 42570 11210 10188 20034 48551 70500 81100
                   333 58028 80826=
201908091200 AAXX 09124 67571 41960 01207 10262 20019 48494 70500
                   333 58015=
201908081200 AAXX 08124 67571 42965 01806 10276 20051 48484 70500
                   333 59008=
201908080900 AAXX 08094 67571 42965 01205 10258 20044 48504 70500
                   333 58000=
201908080600 AAXX 08064 67571 NIL=
201908071200 AAXX 07124 67571 NIL=
201908070900 AAXX 07094 67571 42970 01205 10257 20057 48504 70500
                   333 59003=
201908060900 AAXX 06094 67571 42075 11207 10223 20121 48513 70500 81030
                   333 58002 81360=
201908060600 AAXX 06064 67571 32975 63603 10206 20096 48512 70522 86030
                   333 10279 20164 58007 86360=
201908021200 AAXX 02124 67571 NIL=
201908020900 AAXX 02094 67571 42970 00911 10227 20112 48503 70500
                   333 58000=
201908011200 AAXX 01124 67571 NIL=
201908010600 AAXX 01064 67571 32980 00906 10194 20085 48501 70500
                   333 10262 20133 58012
                   555 00///=

################################################################################
#  SYNOPS from 67575, Mkushi (Zambia) | 13-38-00S | 029-26-00E | 1237 m
################################################################################
201908300600 AAXX 30064 67575 31970 01005 10201 20086 48/// 70500
                   333 10314 20137 5////
                   555 00116=
201908291200 AAXX 29124 67575 41970 01007 10304 20045 48/// 70500
                   333 5//// 555 5////=
201908280600 AAXX 28064 67575 31970 02701 10195 20085 48502 70500
                   333 10313 20130 59010
                   555 00110=
201908271200 AAXX 27124 67575 41670 11204 10303 20097 48491 70500 81200
                   333 59008 81840 555 5////=
201908270600 AAXX 27064 67575 31970 01205 10202 20128 48513 70500
                   333 10306 20140 59015
                   555 00120=
201908260900 AAXX 26094 67575 41675 10906 10263 20137 48524 70500 81100
                   333 5//// 81832 555 5////=
201908221200 AAXX 22124 67575 NIL=
201908091200 AAXX 09124 67575 41970 01204 10289 20005 48509 70500
                   333 58017=
201908081200 AAXX 08124 67575 41970 01801 10289 20056 48492 70500
                   333 58001=
201908080900 AAXX 08094 67575 41970 00905 10274 20061 48516 70500
                   333 58002=
201908080600 AAXX 08064 67575 31970 01202 10180 20067 48510 70500
                   333 10313 20126 58002
                   555 00114=
201908071200 AAXX 07124 67575 41675 11204 10295 20059 48491 70500 81100
                   333 59011 81845=
201908070900 AAXX 07094 67575 41975 01205 10280 20066 48515 70500
                   333 59003=
201908060900 AAXX 06094 67575 41975 00906 10278 20083 48518 70521
                   333 5////=
201908021200 AAXX 02124 67575 41370 10902 10274 20083 48/// 70500 81200
                   333 5//// 81840=
201908020900 AAXX 02094 67575 41970 01208 10237 20097 48/// 70500
                   333 5////=
201908020600 AAXX 02064 67575 31970 01207 10165 20092 48/// 70500
                   333 10282 20127 5////
                   555 00120=
201908011200 AAXX 01124 67575 41775 10903 10277 20040 48485 70500 81200
                   333 58009 81850 555 5////=

################################################################################
#  SYNOPS from 67580, Msekera (Zambia) | 13-39S | 032-34E | 1025 m
################################################################################
201908300600 AAXX 30064 67580 31975 01202 10227 20099 48/// 70500
                   333 10332 20155 5////=
201908290900 AAXX 29094 67580 41975 00903 10296 20083 48/// 70500
                   333 5////=
201908290600 AAXX 29064 67580 31975 01003 10248 20099 48/// 70500
                   333 10324 20180 5////=
201908280600 AAXX 28064 67580 31970 01204 10238 20101 48/// 70500
                   333 10328 20178 59011=
201908271200 AAXX 27124 67580 NIL=
201908270600 AAXX 27064 67580 31970 01507 10238 20114 48/// 70500
                   333 10330 20163 59011=
201908260900 AAXX 26094 67580 41778 21102 10290 20144 48/// 70500 82100
                   333 58000 82850=
201908221200 AAXX 22124 67580 NIL=
201908210900 AAXX 21094 67580 41975 01213 10234 20056 48/// 70500
                   333 5////=
201908090600 AAXX 09064 67580 31975 20000 10231 20126 48/// 70500 80002
                   333 10328 20155 5//// 82080=
201908080900 AAXX 08094 67580 41975 00904 10288 20109 48/// 70500
                   333 5////=
201908080600 AAXX 08064 67580 31975 00000 10252 20119 48/// 70500
                   333 10336 20178 5////=
201908071200 AAXX 07124 67580 NIL=
201908070900 AAXX 07094 67580 41975 01203 10297 20094 48/// 70500
                   333 5////=
201908070600 AAXX 07064 67580 31975 00903 10234 20105 48/// 70500
                   333 10328 20170 58003=
201908060900 AAXX 06094 67580 41975 00000 10298 20118 48/// 70500
                   333 5////=
201908060600 AAXX 06064 67580 31975 10000 10214 20114 48/// 70500 80002
                   333 10316 20163 59008 81080=
201908021200 AAXX 02124 67580 NIL=
201908020900 AAXX 02094 67580 41675 70904 10268 20145 48/// 70522 8113/
                   333 5//// 81845 87363=
201908020600 AAXX 02064 67580 31575 70000 10226 20150 48/// 70522 8113/
                   333 10302 20175 5//// 81825 87363=
201908011200 AAXX 01124 67580 NIL=
201908010900 AAXX 01094 67580 31975 60000 10190 20122 48/// 70522 84038
                   333 10308 20140 5//// 84362 85282
                   555 00///=

################################################################################
#  SYNOPS from 67581, Chipata (Zambia) | 13-33S | 032-35E | 1028 m
################################################################################
201908301200 AAXX 30124 67581 41970 01507 10317 20070 48530 70500
                   333 59014 91016=
201908300600 AAXX 30064 67581 31970 03604 10255 20068 48556 70500
                   333 10322 20172 5//// 91021=
201908280600 AAXX 28064 67581 32980 00908 10245 20080 48565
                   333 10318 20200 59008 91022=
201908271200 AAXX 27124 67581 41970 01405 10316 20051 48555 70500
                   333 59010 91019=
201908270600 AAXX 27064 67581 31970 01608 10241 20100 48573 70500
                   333 10316 20182 59014 91023=
201908260900 AAXX 26094 67581 42680 10710 10290 20140 48587 81100
                   333 59011 81840 91023=
201908230900 AAXX 23094 67581 41670 21604 10232 20062 48560 70500 82100
                   333 59001 82836 91026=
201908221200 AAXX 22124 67581 NIL=
201908080900 AAXX 08094 67581 NIL=
201908080600 AAXX 08064 67581 32980 00415 10241 20078 48///
                   333 10316 20180 5////=
201908071200 AAXX 07124 67581 NIL=
201908070600 AAXX 07064 67581 32980 01605 10230 20056 48576
                   333 10315 20191 58006 91023=
201908021200 AAXX 02124 67581 NIL=
201908020900 AAXX 02094 67581 NIL=
201908020600 AAXX 02064 67581 32980 00906 10233 20122 48575 82030
                   333 10285 20197 5//// 82360 91024=
201908011200 AAXX 01124 67581 NIL=
201908010600 AAXX 01064 67581 32980 00509 10220 20105 48///
                   333 10288 20180 5////
                   555 00/// 910//=

################################################################################
#  SYNOPS from 67583, Lundazi (Zambia) | 12-17S | 033-12E | 1143 m
################################################################################
201908300600 AAXX 30064 67583 31950 01203 10214 20125 48/// 70500
                   333 10314 2//// 5////=
201908291200 AAXX 29124 67583 41950 11502 10308 20110 48/// 70500
                   333 80001 81080=
201908290900 AAXX 29094 67583 41950 00902 10290 20105 48/// 70500
                   333 5////=
201908290600 AAXX 29064 67583 31950 00903 10224 20108 48/// 70500
                   333 10308 2//// 5////=
201908280600 AAXX 28064 67583 31950 11206 10200 20118 48/// 70500 80001
                   333 10310 2//// 5//// 81080=
201908271200 AAXX 27124 67583 NIL=
201908260900 AAXX 26094 67583 NIL=
201908221200 AAXX 22124 67583 NIL=
201908220900 AAXX 22094 67583 41657 11305 10218 20102 48/// 70500 81100
                   333 5//// 81845=
201908081200 AAXX 08124 67583 41856 12102 10316 20135 48/// 70500 81100
                   333 5//// 81857=
201908080900 AAXX 08094 67583 NIL=
201908080600 AAXX 08064 67583 31950 00000 10184 20132 48/// 70500
                   333 10280 2//// 5////=
201908071200 AAXX 07124 67583 NIL=
201908070900 AAXX 07094 67583 41956 21604 10290 20095 48/// 70500 80002
                   333 5//// 82080=
201908060900 AAXX 06094 67583 41956 01003 10282 20107 48/// 70500
                   333 5////=
201908060600 AAXX 06064 67583 31956 00000 10182 20113 48/// 70500
                   333 10304 2//// 5////=
201908021200 AAXX 02124 67583 NIL=
201908020900 AAXX 02094 67583 41956 10905 10262 20140 48/// 70500 80001
                   333 5//// 81080=
201908011200 AAXX 01124 67583 41656 31052 10274 20131 48/// 70500 81131
                   333 5//// 81835 82360 81080=
201908010900 AAXX 01094 67583 41656 11702 10276 20120 48/// 70500 81131
                   333 5//// 81830 81030 81080=
201908010600 AAXX 01064 67583 31956 21301 10186 20136 48/// 70510 82031
                   333 10300 2//// 5//// 82360 81080
                   555 00///=

################################################################################
#  SYNOPS from 67599, Mfuwe (Zambia) | 13-16S | 031-56E | 568 m
################################################################################
201908300600 AAXX 30064 67599 31956 01003 10238 20094 48548 70500
                   333 10365 20140 59012 91019=
201908290600 AAXX 29064 67599 31959 01004 10240 20092 48559 70500
                   333 10360 20142 58003 91020=
201908280600 AAXX 28064 67599 31957 01006 10246 20112 48556 70500
                   333 10363 20140 59008 91020=
201908271200 AAXX 27124 67599 NIL=
201908260900 AAXX 26094 67599 NIL=
201908260600 AAXX 26064 67599 32980 00000 10255 20154 48587
                   333 10347 20160 59006 91023=
201908221200 AAXX 22124 67599 NIL=
201908080900 AAXX 08094 67599 NIL=
201908080600 AAXX 08064 67599 31960 01602 10208 20055 48552 70500
                   333 10366 20136 59011
                   555 00154=
201908071200 AAXX 07124 67599 NIL=
201908021200 AAXX 02124 67599 NIL=
201908020900 AAXX 02094 67599 NIL=
201908011200 AAXX 01124 67599 NIL=
201908010600 AAXX 01064 67599 31970 01803 10203 20086 48548 70500
                   333 10334 20142 58005
                   555 00160 91021=

################################################################################
#  SYNOPS from 67625, Kalabo (Zambia) | 14-51S | 022-42E | 1033 m
################################################################################
201908300600 AAXX 30064 67625 32982 70604 10210 20091 48/// 8703/
                   333 10345 20200 59012 87360=
201908291200 AAXX 29124 67625 42982 70609 10330 20085 48/// 80004
                   333 59009 87075=
201908280600 AAXX 28064 67625 32982 70804 10205 20131 48/// 86034
                   333 10310 20168 59012 86360 87075=
201908271200 AAXX 27124 67625 42982 70613 10300 20122 48/// 83034
                   333 59002 83361 87075=
201908260900 AAXX 26094 67625 42982 60610 10258 20106 48/// 80004
                   333 86075=
201908221200 AAXX 22124 67625 NIL=
201908210900 AAXX 21094 67625 42682 00820 10249 20016 48///
                   333 58025=
201908091200 AAXX 09124 67625 42982 01015 10330 20002 48///
                   333 59004=
201908081200 AAXX 08124 67625 42982 10609 10327 20073 48/// 81030
                   333 58004 81361=
201908080900 AAXX 08094 67625 42982 60310 10275 20070 48/// 86030
                   333 5//// 86361=
201908080600 AAXX 08064 67625 32982 60903 10175 20083 48/// 86030
                   333 10345 20163 59004 86360=
201908071200 AAXX 07124 67625 42982 00205 10330 20075 48///
                   333 59011=
201908070900 AAXX 07094 67625 42982 00615 10300 20072 48///
                   333 59022=
201908070600 AAXX 07064 67625 32982 11005 10180 20101 48/// 81030
                   333 10335 20120 59007 81361=
201908060900 AAXX 06094 67625 41978 50912 10294 20115 48/// 70544 80004
                   333 5//// 85075=
201908021200 AAXX 02124 67625 NIL=
201908020900 AAXX 02094 67625 41978 70611 10250 20070 48/// 70544 80004
                   333 59008 87075=
201908011200 AAXX 01124 67625 NIL=

################################################################################
#  SYNOPS from 67633, Mongu (Zambia) | 15-15S | 023-09E | 1052 m
################################################################################
201908300600 AAXX 30064 67633 32980 70906 10230 20134 48527 87030
                   333 10352 20180 58002 87360
                   555 00161 91019=
201908271200 AAXX 27124 67633 NIL=
201908270600 AAXX 27064 67633 32980 40000 10174 20109 48555 84030
                   333 10333 20160 59002
                   555 00104 91023=
201908260900 AAXX 26094 67633 NIL=
201908260600 AAXX 26064 67633 31970 02704 10145 20061 48552 70500
                   333 10302 20100 58002 91023=
201908230900 AAXX 23094 67633 42980 80010 10240 20038 48539 70200
                   333 58016 555 91020=
201908230600 AAXX 23064 67633 32980 00902 10158 20060 48572
                   333 10265 20103 58015
                   555 00085 91024=
201908221200 AAXX 22124 67633 NIL=
201908220900 AAXX 22094 67633 41675 50909 10235 20057 48587 70522 85200
                   333 58006 85840 555 91025=
201908220600 AAXX 22064 67633 31975 00904 10172 20080 48568 70500
                   333 10281 20120 59016
                   555 00115 91024=
201908080900 AAXX 08094 67633 NIL=
201908080600 AAXX 08064 67633 32980 70803 10193 20075 48536 87030
                   333 10354 20174 58002 87360 91020=
201908071200 AAXX 07124 67633 NIL=
201908021200 AAXX 02124 67633 NIL=
201908020900 AAXX 02094 67633 NIL=
201908011200 AAXX 01124 67633 NIL=
201908010900 AAXX 01094 67633 42980 00905 10275 20028 48/// 70200
                   333 58008 91021=
201908010600 AAXX 01064 67633 32980 00810 10157 20024 48530
                   333 10304 20125 58005
                   555 00/// 20000 91020=

################################################################################
#  SYNOPS from 67641, Kaoma (Zambia) | 14-48S | 024-48E | 1213 m
################################################################################
201908300900 AAXX 30094 67641 41960 10808 10294 20103 48523 70512 81030
                   333 59012 81361 91017=
201908300600 AAXX 30064 67641 31960 70602 10174 20101 48509 70522 87030
                   333 10330 20133 59008 91017=
201908291200 AAXX 29124 67641 41960 71404 10326 20102 48523 70522 8707/
                   333 59007 87360 91016=
201908290600 AAXX 29064 67641 31960 60000 10170 20130 48519 70501 86030
                   333 10283 20140 59007 86360 91018=
201908280600 AAXX 28064 67641 11970 81902 10193 20146 48529 69934 72162 8703/
                   333 10300 20185 59012 87360 91020=
201908271200 AAXX 27124 67641 NIL=
201908270600 AAXX 27064 67641 11975 70000 10187 20145 48538 69904 70522 87030
                   333 10323 20176 59009 87360 91021=
201908260900 AAXX 26094 67641 NIL=
201908260600 AAXX 26064 67641 31970 03602 10147 20100 48542 70500
                   333 10308 20096 5//// 91022=
201908230900 AAXX 23094 67641 41970 01213 10221 20058 48587 70500
                   333 58006 91025=
201908221200 AAXX 22124 67641 NIL=
201908220900 AAXX 22094 67641 41675 61408 10224 20088 48581 70500 82130
                   333 59002 82840 84360 91025=
201908210900 AAXX 21094 67641 41975 00408 10233 20049 48584 70500
                   333 58025 91025=
201908081200 AAXX 08124 67641 41860 11204 10323 20069 48530 70500 81100
                   333 58008 81857 91017=
201908080900 AAXX 08094 67641 41960 01002 10295 20090 48551 70500
                   333 58003 91021=
201908080600 AAXX 08064 67641 31960 00802 10165 20086 48529 70500
                   333 10337 20129 59003 91020=
201908071200 AAXX 07124 67641 NIL=
201908070900 AAXX 07094 67641 41960 0//// 10297 20098 48546 70500
                   333 59008 91020=
201908060900 AAXX 06094 67641 41970 01006 10288 20130 48554 70500
                   333 59002 91021=
201908060600 AAXX 06064 67641 31958 50000 10140 20109 48537 70522 85030
                   333 10330 20128 59007 85360=
201908021200 AAXX 02124 67641 41975 01802 10291 20091 48525 70500
                   333 59005 91017=
201908020900 AAXX 02094 67641 41975 00806 10250 20094 48544 70500
                   333 59001 91021=
201908011200 AAXX 01124 67641 NIL=
201908010900 AAXX 01094 67641 41960 01202 10270 20067 48548 70500
                   333 58013 91023=

################################################################################
#  SYNOPS from 67655, Mumbwa (Zambia) | 15-04S | 027-11E | 1216 m
################################################################################
201908300600 AAXX 30064 67655 31958 00720 10220 20086 48537 70500
                   333 10328 20140 59004 91020=
201908271200 AAXX 27124 67655 NIL=
201908260900 AAXX 26094 67655 NIL=
201908221200 AAXX 22124 67655 NIL=
201908080900 AAXX 08094 67655 NIL=
201908080600 AAXX 08064 67655 NIL=
201908071200 AAXX 07124 67655 NIL=
201908021200 AAXX 02124 67655 NIL=
201908020900 AAXX 02094 67655 NIL=
201908011200 AAXX 01124 67655 NIL=

################################################################################
#  SYNOPS from 67659, Kafue Polder (Zambia) | 15-46S | 027-55E | 978 m
################################################################################
201908300600 AAXX 30064 67659 32975 00706 10232 20126 48/// 70500
                   333 10331 20145 58003=
201908290600 AAXX 29064 67659 32980 01205 10234 20098 48///
                   333 10329 20131 59009=
201908280600 AAXX 28064 67659 32980 01007 10230 20127 48///
                   333 10326 20130 59016=
201908271200 AAXX 27124 67659 NIL=
201908270600 AAXX 27064 67659 32980 01505 10221 20149 48///
                   333 10310 20138 59017=
201908260900 AAXX 26094 67659 NIL=
201908230600 AAXX 23064 67659 32480 11305 10170 20098 48/// 70222 81100
                   333 10247 20082 5//// 81818
                   555 00/// 20000=
201908221200 AAXX 22124 67659 NIL=
201908220600 AAXX 22064 67659 32980 41807 10180 20094 48/// 84030
                   333 10255 20125 5//// 84360=
201908120600 AAXX 12064 67659 32980 01506 10191 20110 48///
                   333 10275 20101 5////=
201908090600 AAXX 09064 67659 32980 00906 10220 20083 48/// 70500
                   333 10318 20092 58008=
201908080900 AAXX 08094 67659 NIL=
201908080600 AAXX 08064 67659 32980 01405 10211 20101 48///
                   333 10319 20101 58001=
201908071200 AAXX 07124 67659 NIL=
201908070600 AAXX 07064 67659 32975 01007 10213 20099 48/// 70500
                   333 10324 20130 59004=
201908060600 AAXX 06064 67659 32980 01404 10225 20134 48///
                   333 10316 20120 59003=
201908021200 AAXX 02124 67659 NIL=
201908020900 AAXX 02094 67659 NIL=
201908011200 AAXX 01124 67659 NIL=
201908010600 AAXX 01064 67659 32980 00703 10139 20063 48/// 70500
                   333 10285 20045 58012=

################################################################################
#  SYNOPS from 67662, Kabwe Agric (Zambia) | 14-24S | 028-30E | 1165 m
################################################################################
201908300900 AAXX 30094 67662 41975 01002 10275 20101 70500
                   333 5////=
201908300600 AAXX 30064 67662 31975 00902 10199 20099 70500
                   333 10318 20100=
201908291200 AAXX 29124 67662 31975 00904 10305 20090 70500
                   333 10315 20160 555 5////=
201908280600 AAXX 28064 67662 31975 00000 10204 20104 48/// 70500
                   333 10317 20110 5////=
201908271200 AAXX 27124 67662 NIL=
201908260900 AAXX 26094 67662 NIL=
201908260600 AAXX 26064 67662 31975 00602 10185 20141 48/// 70500
                   333 10271 20032 5////=
201908221200 AAXX 22124 67662 NIL=
201908220600 AAXX 22064 67662 31475 61210 10130 20105 48/// 70522 86500
                   333 10243 20060 5//// 86617=
201908080900 AAXX 08094 67662 NIL=
201908080600 AAXX 08064 67662 31975 01402 10186 20063 48/// 70500
                   333 10311 20080 5////=
201908071200 AAXX 07124 67662 NIL=
201908070900 AAXX 07094 67662 41975 01012 10280 48/// 70500
                   333 5////=
201908021200 AAXX 02124 67662 NIL=
201908020900 AAXX 02094 67662 NIL=
201908011200 AAXX 01124 67662 NIL=

################################################################################
#  SYNOPS from 67663, Kabwe (Zambia) | 14-27S | 028-28E | 1206 m
################################################################################
201908300600 AAXX 30064 67663 31970 00906 10192 20086 48527 70500
                   333 10314 20151 59010=
201908291200 AAXX 29124 67663 41970 10812 10302 20086 48513 70500
                   333 59011 91080=
201908280600 AAXX 28064 67663 31970 00907 10207 20102 48537 70500
                   333 10314 20164 59009=
201908271200 AAXX 27124 67663 41570 11006 10302 20130 48520 70500
                   333 5//// 81100=
201908270900 AAXX 27094 67663 41570 10907 10271 20137 48539 70500 81100
                   333 59031 81826=
201908270600 AAXX 27064 67663 31970 00806 10216 20136 48547 70500
                   333 10309 20169 59017=
201908260900 AAXX 26094 67663 NIL=
201908260600 AAXX 26064 67663 31970 00908 10191 20139 48560 70500
                   333 10257 20116 58005=
201908230900 AAXX 23094 67663 41470 10922 10202 20046 48587 70500 81102
                   333 58007 81817 81080=
201908230600 AAXX 23064 67663 31970 00308 10151 20067 48549 70500
                   333 10240 20103 58006=
201908221200 AAXX 22124 67663 NIL=
201908080900 AAXX 08094 67663 NIL=
201908080600 AAXX 08064 67663 31970 00809 10191 20078 48547 70500
                   333 10320 20154 58002
                   555 00183=
201908071200 AAXX 07124 67663 NIL=
201908021200 AAXX 02124 67663 NIL=
201908020900 AAXX 02094 67663 NIL=
201908011200 AAXX 01124 67663 NIL=

################################################################################
#  SYNOPS from 67665, Lusaka Internationalairport (Zambia) | 15-19S | 028-27E | 1152 m
################################################################################
201908301800 AAXX 30184 67665 41959 00903 10227 20030 48525 70500
                   333 59013=
201908301500 AAXX 30154 67665 41759 10910 10297 20020 48513 70500 81100
                   333 59016 81850=
201908301200 AAXX 30124 67665 41680 10611 10300 20044 48527 70500 81100
                   333 59014 81830=
201908300900 AAXX 30094 67665 41959 10274 20070 48550 70500
                   333 59014=
201908300600 AAXX 30064 67665 31959 01206 10186 20077 48544 70500
                   333 10/// 20/// 59005
                   555 00///=
201908300300 AAXX 30034 67665 42980 01204 10152 20056 48527 70200
                   333 58000=
201908300000 AAXX 30004 67665 42980 01602 10166 20060 48528 70200
                   333 59002=
201908292100 AAXX 29214 67665 42980 01302 10184 20045 48535 70200
                   333 59003=
201908291800 AAXX 29184 67665 41970 01105 10233 20041 48538 70500
                   333 10//0 58021=
201908291200 AAXX 29124 67665 41959 00813 10301 20028 48541 70500
                   333 58002 91020=
201908290900 AAXX 29094 67665 41959 00609 10274 20046 48564 70500
                   333 58005=
201908290600 AAXX 29064 67665 31959 01204 10206 20042 48552 70500
                   333 59004 91022=
201908281800 AAXX 28184 67665 41959 01504 10235 20045 48538 70500
                   333 10315 59012=
201908281500 AAXX 28154 67665 41959 00809 10301 20028 48528 70500
                   333 59016 555 10315=
201908281200 AAXX 28124 67665 41959 01006 10297 20047 48538 70500
                   333 59007=
201908280600 AAXX 28064 67665 32980 01307 10206 20079 48554
                   333 10//0 20//0 59012=
201908280300 AAXX 28034 67665 42980 01602 10157 20084 48541
                   333 59009=
201908272100 AAXX 27214 67665 42980 01503 10188 20090 48549
                   333 59014=
201908271200 AAXX 27124 67665 NIL=
201908270900 AAXX 27094 67665 41959 00712 10269 20111 48573 70500
                   333 59012=
201908270600 AAXX 27064 67665 31959 01106 10207 20122 48567
                   333 10303 20/// 59017=
201908270300 AAXX 27034 67665 42980 01902 10159 20125 48541
                   333 59021=
201908262100 AAXX 26214 67665 42980 01403 10169 20115 48559
                   333 59007=
201908260900 AAXX 26094 67665 NIL=
201908260600 AAXX 26064 67665 32980 11106 10173 20132 48577 80001
                   333 10272 20/// 58000 81080
                   555 00///=
201908260300 AAXX 26034 67665 42980 01103 10135 20116 48557 70200
                   333 59001=
201908260000 AAXX 26004 67665 42980 01403 10145 20108 48558 70200
                   333 59004=
201908252100 AAXX 25214 67665 42980 01505 10158 20114 48564 70200
                   333 59008=
201908251800 AAXX 25184 67665 42980 11107 10198 20111 48566 70100 81030
                   333 59011 81360=
201908251500 AAXX 25154 67665 42680 41109 10252 20087 48558 70200 84101
                   333 59007 83845 82080=
201908251200 AAXX 25124 67665 42580 40807 10263 20102 48564 70200 84100
                   333 59009 84830=
201908250600 AAXX 25064 67665 32980 21105 10157 20084 48576 70300 80001
                   333 10260 20//0 59010 82080=
201908250300 AAXX 25034 67665 42980 01303 10101 20045 48553 70200
                   333 59018=
201908250000 AAXX 25004 67665 42980 01302 10121 20050 48558 70200
                   333 59016=
201908242100 AAXX 24214 67665 42980 01406 10149 20035 48574 70200
                   333 59011=
201908241800 AAXX 24184 67665 42980 01105 10174 20016 48572
                   333 59006=
201908241200 AAXX 24124 67665 42980 11012 10240 21011 48570 80001
                   333 59014 81080=
201908240600 AAXX 24064 67665 32980 01111 10147 20058 48584 70200
                   333 10253 59010 555 00/// 91027=
201908231800 AAXX 23184 67665 41980 11504 10161 21005 48577 70100 80001
                   333 59006 81080=
201908231500 AAXX 23154 67665 42980 11010 10231 21019 48573 70200 80001
                   333 59009 81080=
201908231200 AAXX 23124 67665 41660 11010 10243 21004 48583 70500 81500
                   333 59001 81640=
201908230900 AAXX 23094 67665 42680 20916 10207 20028 48609 82500
                   333 58003 82630=
201908221800 AAXX 22184 67665 42980 11604 10151 20039 48581 70121 81030
                   333 10//0 59009 91026=
201908221200 AAXX 22124 67665 41659 61009 10211 20047 48580 86500
                   333 59019 86640 91025=
201908220900 AAXX 22094 67665 41559 50912 10200 20060 48604 70520 85500
                   333 59013 85625=
201908220600 AAXX 22064 67665 32980 01008 10140 20073 48600
                   333 10216 2//// 59003 91029=
201908220300 AAXX 22034 67665 42980 01205 10113 20074 48582
                   333 58006=
201908220000 AAXX 22004 67665 42980 01302 10107 20069 48582
                   333 58013=
201908212100 AAXX 21214 67665 42980 01404 10126 20068 48590
                   333 58016=
201908210900 AAXX 21094 67665 41659 61119 10197 20076 48617 70521 86500
                   333 58033 86635 91030=
201908200600 AAXX 20064 67665 32980 01203 10146 20046 48574 70200
                   333 10256 20//0 59003
                   555 00///=
201908200300 AAXX 20034 67665 42980 01802 10085 20016 48554 70200
                   333 58001=
201908200000 AAXX 20004 67665 42980 00000 10101 20026 48558 70200
                   333 58003=
201908192100 AAXX 19214 67665 42980 01304 10124 20050 48571 70200
                   333 58001=
201908191800 AAXX 19184 67665 42960 01307 10180 20010 48565 70200
                   333 10256 59009 91024=
201908191200 AAXX 19124 67665 41459 50911 10219 20045 48569 70500 85500
                   333 59001 85620=
201908190600 AAXX 19064 67665 31959 01107 10146 20055 48577 70500
                   333 10260 20//0 59002=
201908190300 AAXX 19034 67665 41960 01304 10103 20019 48555 70500
                   333 58007=
201908190000 AAXX 19004 67665 41960 01405 10105 21059 48556 70500
                   333 58010=
201908182100 AAXX 18214 67665 41960 01402 10115 21070 48569 70500
                   333 58013=
201908181800 AAXX 18184 67665 42980 01207 10150 21011 48568 70200
                   333 10260 58009=
201908181500 AAXX 18154 67665 42980 10240 21010 48568 70200
                   333 58011 555 10260=
201908181200 AAXX 18124 67665 41959 00915 10251 21080 48574 70500
                   333 58006=
201908180600 AAXX 18064 67665 31975 01007 10157 20046 48580 70500=
201908171800 AAXX 17184 67665 41959 01105 10180 20010 48563 70500
                   333 59014=
201908171500 AAXX 17154 67665 41659 21012 10246 20035 48558 70500 82500
                   333 59019 82656=
201908171200 AAXX 17124 67665 41659 40612 10245 20034 48568 70500 84500
                   333 59018 84645=
201908170900 AAXX 17094 67665 41659 40713 10220 20056 48592 70500 84500
                   333 59018 84635=
201908160900 AAXX 16094 67665 41559 60920 10213 20075 47608 70522 86500
                   333 59010 86620=
201908160600 AAXX 16064 67665 31460 51017 10165 20103 48600 70500 85500
                   333 10//0 20//0 59004 85610=
201908160300 AAXX 16034 67665 41960 01006 10135 20099 48583 70500
                   333 58013=
201908160000 AAXX 16004 67665 41960 00507 10156 20082 48592 70500
                   333 58019=
201908152100 AAXX 15214 67665 41959 01210 10174 20074 48612 70500
                   333 58021=
201908151500 AAXX 15154 67665 41958 00825 10234 20015 48591 70500
                   333 58017 91026=
201908150900 AAXX 15094 67665 41759 11019 20034 48624 70500 81500
                   333 58020 81650 91030=
201908150600 AAXX 15064 67665 31959 01108 10177 20049 48608 70500
                   333 10//0 20//0 58023
                   555 00///=
201908141800 AAXX 14184 67665 41959 01305 10198 20041 48585 70500
                   333 58019=
201908141200 AAXX 14124 67665 41959 01010 10275 20017 48586 70500
                   333 58020=
201908140300 AAXX 14034 67665 42980 01405 10130 20048 48556 70200
                   333 58013=
201908140000 AAXX 14004 67665 42980 01404 10140 20036 48562 70200
                   333 58012=
201908132100 AAXX 13214 67665 42980 01302 10162 20028 48575 70200
                   333 59019=
201908130600 AAXX 13064 67665 31959 01106 10169 20050 48574 70500
                   333 10//0 20//0 58003=
201908130300 AAXX 13034 67665 41959 01105 10114 20048 48547 70500
                   333 59001=
201908130000 AAXX 13004 67665 41959 01403 10133 20040 48550 70500
                   333 58000=
201908122100 AAXX 12214 67665 41959 01103 10157 20035 48557 70500
                   333 59010=
201908121800 AAXX 12184 67665 41959 01103 10198 20041 48558 70500
                   333 59010=
201908121500 AAXX 12154 67665 41959 00809 10273 20005 48549 70500
                   333 59014 555 10///=
201908121200 AAXX 12124 67665 41959 00912 10263 20058 48557 70500
                   333 59012=
201908120600 AAXX 12064 67665 31959 01305 10165 20085 48571 70500
                   333 10//0 20//0 59017
                   555 00/// 91025=
201908112100 AAXX 11214 67665 41959 01404 10149 20084 48565 70500
                   333 59023 91025=
201908111800 AAXX 11184 67665 41959 01304 10190 20091 48567 70500
                   333 59022=
201908111500 AAXX 11154 67665 41959 00805 10256 20054 48562 70500
                   333 59025=
201908111200 AAXX 11124 67665 41659 01108 10255 20050 48570 70500 81100
                   333 59023 81845=
201908110900 AAXX 11094 67665 41659 30812 10224 20051 48590 70500 83500
                   333 59024 83640=
201908101800 AAXX 10184 67665 41959 41106 10191 20081 48588 70522 84030
                   333 10//0 58021 84360 91027=
201908101500 AAXX 10154 67665 41759 51115 10232 20066 48583 70522 85560
                   333 58029 85650 81360
                   555 10/// 91025=
201908101200 AAXX 10124 67665 41659 50913 10234 20084 48587 70500 85500
                   333 58034 85635 91026=
201908100900 AAXX 10094 67665 41559 30917 10218 20084 48613 70500 83500
                   333 58035 83622=
201908100600 AAXX 10064 67665 31959 11008 10168 20106 48588 70500 81030
                   333 10/// 20/// 59016
                   555 00///=
201908100300 AAXX 10034 67665 41959 01208 10147 20070 48575 70500
                   333 58025=
201908091800 AAXX 09184 67665 41959 10214 20038 48561 70500
                   333 58017=
201908091200 AAXX 09124 67665 41959 01209 10302 20012 48563 70500
                   333 58010 91022=
201908090900 AAXX 09094 67665 41959 01107 10270 20015 48587 70500
                   333 58013 91025=
201908090600 AAXX 09064 67665 42960 01403 10185 20020 48568 70500
                   333 10304 555 20// 58007=
201908082100 AAXX 08214 67665 42960 01603 10163 20014 48549 70200
                   333 59002=
201908081800 AAXX 08184 67665 41959 01703 10214 21008 48554 70500
                   333 58003=
201908081500 AAXX 08154 67665 41959 01109 10289 20003 48546 70500
                   333 58003=
201908081200 AAXX 08124 67665 41959 00809 10300 21012 48553 70500
                   333 58005=
201908080900 AAXX 08094 67665 NIL=
201908080600 AAXX 08064 67665 31960 01405 10193 20048 48561 70500
                   333 10304 20//0 58000
                   555 00///=
201908080300 AAXX 08034 67665 42980 01703 10142 20040 48538 70200
                   333 59001=
201908080000 AAXX 08004 67665 42980 01603 10150 20050 48536
                   333 59008=
201908072100 AAXX 07214 67665 42980 01501 10174 20046 48549 70200
                   333 59006=
201908071800 AAXX 07184 67665 42960 01404 10208 20041 48551 70200
                   333 10304 59003=
201908071200 AAXX 07124 67665 41959 01010 10294 20031 48547 70500
                   333 59011=
201908070600 AAXX 07064 67665 31959 01404 10195 20064 48562 70500
                   333 10302 20//0 58000=
201908070300 AAXX 07034 67665 41960 18001 10150 20055 48542 70200
                   333 58000=
201908070000 AAXX 07004 67665 41960 01802 10157 20060 48545 70200
                   333 59001=
201908062100 AAXX 06214 67665 41960 01802 10156 20060 48553 70100
                   333 58000=
201908061800 AAXX 06184 67665 41960 31303 10223 20068 48555 83030 70500
                   333 10302 58002 83360=
201908061500 AAXX 06154 67665 41960 30605 10283 20054 48553 70100 83030
                   333 58001 83360 555 10302=
201908061200 AAXX 06124 67665 41659 50707 10299 20068 48559 70522 85200
                   333 59003 85845=
201908060600 AAXX 06064 67665 32980 01304 10198 20097 48562 70200
                   333 10299 59010 3=
201908051800 AAXX 05184 67665 42980 31404 10223 20111 48553 70200 83030
                   333 59008 83360=
201908051500 AAXX 05154 67665 41760 51106 10275 20090 48552 70522 85200
                   333 59003 85850=
201908051200 AAXX 05124 67665 41660 40707 10286 20089 48561 70500 84200
                   333 59003 84840=
201908050900 AAXX 05094 67665 42680 20509 10262 20124 48580 70300 82100
                   333 59005 82830=
201908050600 AAXX 05064 67665 32980 01006 10195 20137 48572
                   333 10292 20//0 59002=
201908050300 AAXX 05034 67665 41960 10154 20128 48555 70500
                   333 58000=
201908050000 AAXX 05004 67665 41960 01502 10170 20137 48557 70500
                   333 59003=
201908042100 AAXX 04214 67665 41960 01004 10201 20144 48569 70500
                   333 58001=
201908041800 AAXX 04184 67665 42960 31105 10235 20148 48564 70200 83031
                   333 59002 83360 81080 91023=
201908040900 AAXX 04094 67665 41659 30710 10235 20149 48582 70500 83500
                   333 58008 83630=
201908040600 AAXX 04064 67665 31960 11105 10175 20150 48571 70500 81500
                   333 10277 20//0 58008 81656=
201908040300 AAXX 04034 67665 41959 01405 10150 20133 48664 70500
                   333 58010=
201908040000 AAXX 04004 67665 41959 01102 10152 20135 48560 70500
                   333 58013=
201908032100 AAXX 03214 67665 41959 01102 10161 20136 48562 70500
                   333 58011=
201908031800 AAXX 03184 67665 41959 01205 10198 20132 48560 70500
                   333 58010=
201908031500 AAXX 03154 67665 41659 11010 10266 20107 48555 70500 81500
                   333 58009 81645=
201908031200 AAXX 03124 67665 41659 30507 10264 20116 48561 70520 83500
                   333 58013 83635=
201908030900 AAXX 03094 67665 41959 60614 10228 20141 48573 70522 85530
                   333 59001 85620 82360 91025=
201908030600 AAXX 03064 67665 31960 51106 10161 20144 48560 70522 85030
                   333 10278 20//0 58000 85360
                   555 00///=
201908030300 AAXX 03034 67665 42980 41304 10149 20123 48546 84030
                   333 58000 84360=
201908030000 AAXX 03004 67665 42980 01205 10151 20126 48548 70200
                   333 58007=
201908022100 AAXX 02214 67665 42960 01305 10166 20124 48555 70500
                   333 58007=
201908021500 AAXX 02154 67665 41959 30909 10250 20105 48544 70500 83030
                   333 58008 83360=
201908021200 AAXX 02124 67665 NIL=
201908020900 AAXX 02094 67665 NIL=
201908020600 AAXX 02064 67665 32980 11108 10169 20117 48562 70200 80002
                   333 10278 20//0 58009 81080=
201908011800 AAXX 01184 67665 41959 01205 10191 20045 48541 70500
                   333 10278 58001=
201908011500 AAXX 01154 67665 41959 21013 10260 20030 48537 70500 82030
                   333 59005 82360 555 10278=
201908011200 AAXX 01124 67665 41659 10812 10273 20015 48545 70500 81100
                   333 58008 81850=
201908010900 AAXX 01094 67665 41960 00716 10250 20027 48570 70500
                   333 58008=
201908010600 AAXX 01064 67665 32980 01306 10173 20049 48553 70200
                   333 10271 58008 91023=

################################################################################
#  SYNOPS from 67666, Lusaka City Airport (Zambia) | 15-25-00S | 028-28-00E | 1280 m
################################################################################
201908300600 AAXX 30064 67666 31970 00910 10188 20104 48/// 70500
                   333 1//// 2//// 5////=
201908280600 AAXX 28064 67666 31970 00910 10210 20106 48538 70500
                   333 10310 20173 59015 91022=
201908271200 AAXX 27124 67666 42680 11007 10300 20140 48538 81100
                   333 59011 81840 91020=
201908260900 AAXX 26094 67666 42980 01114 10240 20146 48578 70222
                   333 59009 91024=
201908230900 AAXX 23094 67666 42680 31018 10200 20070 48598 83100
                   333 59001 82830 91028=
201908221200 AAXX 22124 67666 42580 51007 10193 20069 48567 85200
                   333 58/// 85820 91025=
201908210900 AAXX 21094 67666 42480 51218 10180 20093 48609 70300 85800
                   333 58034 82818 83620 91029=
201908120600 AAXX 12064 67666 31978 01011 10170 20080 48567 70500
                   333 10256 20140 59012 91024=
201908090600 AAXX 09064 67666 31980 00908 10203 20037 48558 70500
                   333 58007 91024=
201908080900 AAXX 08094 67666 41975 00910 10255 20035 48566 70500
                   333 58002 91023=
201908080600 AAXX 08064 67666 31975 00907 10200 20045 48558 70500
                   333 10294 20120 58000 91023=
201908071200 AAXX 07124 67666 NIL=
201908070900 AAXX 07094 67666 42980 01010 10260 20060 48563
                   333 59003 91023=
201908021200 AAXX 02124 67666 NIL=
201908020900 AAXX 02094 67666 NIL=
201908011200 AAXX 01124 67666 42980 20910 10260 20035 48538 70222 82030
                   333 58011 82360 91020=
201908010900 AAXX 01094 67666 42480 10910 10220 20050 48559 70300 81100
                   333 58008 81818 91023=
201908010600 AAXX 01064 67666 32980 01507 10180 20025 48551 70500
                   333 10250 20109 58009
                   555 00/// 91022=

################################################################################
#  SYNOPS from 67667, Mount Makulu (Zambia) | 15-33S | 028-15E | 1213 m
################################################################################
201908301200 AAXX 30124 67667 41670 11304 10308 20071 48543 70500 81100
                   333 59014 81840=
201908300900 AAXX 30094 67667 41970 00905 10270 20095 48573 70500
                   333 59012=
201908300600 AAXX 30064 67667 31970 00912 10223 20102 48579 70500
                   333 10332 20127 59009=
201908291200 AAXX 29124 67667 41970 00302 10308 20085 48560 70500 80001
                   333 58001 81082=
201908290600 AAXX 29064 67667 31970 10907 10228 20071 48586 70500 80001
                   333 10332 20125 59001 81082=
201908280600 AAXX 28064 67667 31970 00802 10222 20102 48603 70500
                   333 10330 20172 58015=
201908271200 AAXX 27124 67667 NIL=
201908270600 AAXX 27064 67667 31970 01202 10224 20142 48618 70500
                   333 10320 20144 58001=
201908260900 AAXX 26094 67667 NIL=
201908260600 AAXX 26064 67667 31970 00902 10182 20130 48617 70500
                   333 10284 20156 58001=
201908230600 AAXX 23064 67667 31570 10904 10160 20099 48636 70500 81130
                   333 10280 20085 58000 81825 81360=
201908221200 AAXX 22124 67667 41670 70906 10196 20125 48614 70522 878//
                   333 59014 83835 87640=
201908220900 AAXX 22094 67667 41570 30909 10198 20125 48362 70500 83130
                   333 59013 83828 81360=
201908220600 AAXX 22064 67667 31570 10910 10145 20102 48636 70500 81130
                   333 10250 20115 59008 81825 81360=
201908120600 AAXX 12064 67667 31970 00902 10186 20086 48615 70500
                   333 10280 20132 58010=
201908080900 AAXX 08094 67667 NIL=
201908080600 AAXX 08064 67667 31970 00902 10196 20080 48614 70500
                   333 10316 20156 58005=
201908071200 AAXX 07124 67667 NIL=
201908070600 AAXX 07064 67667 31970 00904 10208 20096 48615 70500
                   333 10318 20154 58011=
201908060600 AAXX 06064 67667 31970 00905 10206 20110 48604 70500
                   333 10312 20182 59002=
201908021200 AAXX 02124 67667 NIL=
201908020900 AAXX 02094 67667 41670 11206 10236 20129 48594 70500 81100
                   333 5//// 81836=
201908020600 AAXX 02064 67667 31970 00905 10178 20130 48594 70500
                   333 10288 20156 5////=
201908011200 AAXX 01124 67667 NIL=
201908010600 AAXX 01064 67667 31970 00905 10188 20061 48/// 70500
                   333 10286 20100 5////
                   555 00///=

################################################################################
#  SYNOPS from 67673, Petauke (Zambia) | 14-15S | 031-17E | 1035 m
################################################################################
201908300900 AAXX 30094 67673 41959 01802 10272 20105 48533 70500
                   333 58032=
201908291200 AAXX 29124 67673 41959 01701 10318 20085 48504 70500
                   333 58002=
201908271200 AAXX 27124 67673 NIL=
201908260900 AAXX 26094 67673 41659 20902 10280 20159 48593 70500 82100
                   333 59002 82840=
201908221200 AAXX 22124 67673 41659 33601 10240 20070 48588 70500 81130
                   333 59004 81830 82360=
201908220900 AAXX 22094 67673 41659 11803 10210 20100 48589 70500
                   333 58002 81830=
201908080900 AAXX 08094 67673 NIL=
201908080600 AAXX 08064 67673 NIL=
201908071200 AAXX 07124 67673 NIL=
201908021200 AAXX 02124 67673 NIL=
201908020900 AAXX 02094 67673 NIL=
201908011200 AAXX 01124 67673 NIL=

################################################################################
#  SYNOPS from 67731, Senanga (Zambia) | 16-06S | 023-16E | 1027 m
################################################################################
201908301200 AAXX 30124 67731 42980 118// 10358 20113 48/// 70300 81100
                   333 59021 81835 555 5////=
201908300600 AAXX 30064 67731 32980 120// 10201 20098 48/// 81010
                   333 10365 20164 5//// 81462
                   555 00102=
201908280600 AAXX 28064 67731 32980 808// 10202 20104 48/// 87089
                   333 10326 20154 59004 87362 88180
                   555 00086=
201908271200 AAXX 27124 67731 42680 118// 10320 20136 48/// 70100 81100
                   333 58001 81835 555 5////=
201908270600 AAXX 27064 67731 32980 113// 10196 20092 48/// 81020
                   333 10316 20165 59010 81462
                   555 00073=
201908260900 AAXX 26094 67731 42980 007// 10264 20107 48/// 70200
                   333 5//// 555 5////=
201908221200 AAXX 22124 67731 NIL=
201908220600 AAXX 22064 67731 32980 412// 10173 20080 48/// 84030
                   333 10281 20125 58006
                   555 00052=
201908120600 AAXX 12064 67731 32980 019// 10209 20094 48/// 70200
                   333 10300 20143 59002
                   555 00099=
201908090600 AAXX 09064 67731 32980 012// 10229 20138 48///
                   333 10356 20149 58002
                   555 00101=
201908080900 AAXX 08094 67731 NIL=
201908080600 AAXX 08064 67731 NIL=
201908071200 AAXX 07124 67731 NIL=
201908070600 AAXX 07064 67731 32980 027// 10198 20138 48///
                   333 10341 20140 59007
                   555 00037=
201908060600 AAXX 06064 67731 32980 008// 10201 20125 48///
                   333 10328 20132 59005
                   555 00042=
201908021200 AAXX 02124 67731 NIL=
201908020900 AAXX 02094 67731 NIL=
201908020600 AAXX 02064 67731 32980 010// 10179 20060 48///
                   333 10305 20089 59001
                   555 00023=
201908011200 AAXX 01124 67731 NIL=
201908010600 AAXX 01064 67731 32980 003// 10122 20062 48/// 70200
                   333 10303 20081 58004
                   555 00034=

################################################################################
#  SYNOPS from 67741, Sesheke (Zambia) | 17-28S | 024-18E | 949 m
################################################################################
201908300600 AAXX 30064 67741 32980 60604 10246 2//// 48/// 86030
                   333 10350 20154 5//// 84362=
201908280600 AAXX 28064 67741 32980 70000 10196 2//// 48/// 87030
                   333 10326 20166 5//// 87362=
201908271200 AAXX 27124 67741 42680 11202 10318 20//0 48/// 81100
                   333 5//// 81850=
201908270600 AAXX 27064 67741 32980 10000 10184 2//// 48/// 81030
                   333 10312 20104 5//// 81362=
201908260900 AAXX 26094 67741 42980 01402 10266 20//0 48///
                   333 5////=
201908221200 AAXX 22124 67741 NIL=
201908120600 AAXX 12064 67741 32980 00000 10166 2//// 48///
                   333 10302 20065 5////=
201908090600 AAXX 09064 67741 32980 00000 10169 2//// 48///
                   333 10344 20091 5////=
201908080900 AAXX 08094 67741 NIL=
201908080600 AAXX 08064 67741 32980 10000 10217 2//// 48/// 81030
                   333 10344 20132 5//// 81362=
201908071200 AAXX 07124 67741 NIL=
201908060600 AAXX 06064 67741 32980 01401 10176 2//// 48///
                   333 10330 20129 5////=
201908021200 AAXX 02124 67741 NIL=
201908020900 AAXX 02094 67741 NIL=
201908020600 AAXX 02064 67741 32980 00000 10151 2//// 48///
                   333 10300 20038 5////=
201908011200 AAXX 01124 67741 NIL=
201908010600 AAXX 01064 67741 32980 00000 10133 20//0 48///
                   333 10294 20028 5////
                   555 5////=

################################################################################
#  SYNOPS from 67743, Livingstone (Zambia) | 17-49S | 025-49E | 985 m
################################################################################
201908300600 AAXX 30064 67743 31959 00808 10220 20029 48530 70500
                   333 10345 20181 58016 91019=
201908280600 AAXX 28064 67743 31959 60103 10202 20051 48538 70500 86030
                   333 10314 20171 59019 86360 91020=
201908271200 AAXX 27124 67743 NIL=
201908270900 AAXX 27094 67743 41959 20503 10264 20065 48566 70500 82030
                   333 59014 82360 91022=
201908270600 AAXX 27064 67743 31960 11601 10184 20070 48549 70500 81030
                   333 10320 20125 59020 81360 91022=
201908260900 AAXX 26094 67743 NIL=
201908221200 AAXX 22124 67743 NIL=
201908220600 AAXX 22064 67743 31960 11209 10140 20030 48591 70500 81030
                   333 10262 20116 59002 81360 91028=
201908210900 AAXX 21094 67743 41759 00615 10215 20047 48613 70500 81100
                   333 58026 81850 91029=
201908120600 AAXX 12064 67743 11975 01403 10146 20045 48559 70500
                   333 10291 20100 59013 91024=
201908080900 AAXX 08094 67743 NIL=
201908080600 AAXX 08064 67743 NIL=
201908071200 AAXX 07124 67743 NIL=
201908021200 AAXX 02124 67743 NIL=
201908020900 AAXX 02094 67743 NIL=
201908011200 AAXX 01124 67743 NIL=
201908010600 AAXX 01064 67743 32980 00000 10125 21005 48532
                   333 10290 20060 58004
                   555 91021=

################################################################################
#  SYNOPS from 67751, Magoye (Zambia) | 16-00S | 027-36E | 1018 m
################################################################################
201908300600 AAXX 30064 67751 31978 00805 10241 20100 48/// 70500
                   333 10326 20090 5////=
201908280600 AAXX 28064 67751 31980 01301 10216 20125 48/// 70500
                   333 10326 20090 58018=
201908271200 AAXX 27124 67751 NIL=
201908260900 AAXX 26094 67751 NIL=
201908260600 AAXX 26064 67751 32980 00802 10214 20134 48///
                   333 10286 20032 58006=
201908221200 AAXX 22124 67751 NIL=
201908120600 AAXX 12064 67751 31979 01001 10178 20098 70500
                   333 10278 20060 5////
                   555 00///=
201908090600 AAXX 09064 67751 31979 00000 10186 20060 48/// 70500
                   333 10320 20062 59011=
201908080900 AAXX 08094 67751 NIL=
201908080600 AAXX 08064 67751 31978 00000 10215 20080 48/// 70500
                   333 10320 20060 5////=
201908071200 AAXX 07124 67751 NIL=
201908070600 AAXX 07064 67751 31978 10802 10238 20074 48/// 70500
                   333 10324 20128 5//// 81360=
201908060600 AAXX 06064 67751 32980 01501 10205 20120 48///
                   333 10350 20080 5////=
201908021200 AAXX 02124 67751 NIL=
201908020900 AAXX 02094 67751 NIL=
201908020600 AAXX 02064 67751 32980 00402 10207 20110 48///
                   333 10271 20068 58001=
201908011200 AAXX 01124 67751 NIL=
201908010600 AAXX 01064 67751 31976 00000 10173 20042 48/// 70500
                   333 10283 20008 5////=

################################################################################
#  SYNOPS from 67753, Choma (Zambia) | 16-50S | 027-04E | 1213 m
################################################################################
201908300600 AAXX 30064 67753 31980 02603 10209 20100 48530 70500
                   333 10316 20180 5////=
201908280600 AAXX 28064 67753 31980 20000 10195 20119 48539 70500 82030
                   333 10300 20160 59016 82360=
201908271200 AAXX 27124 67753 NIL=
201908260900 AAXX 26094 67753 NIL=
201908221200 AAXX 22124 67753 NIL=
201908090600 AAXX 09064 67753 31980 00000 10226 20074 48560 70500
                   333 10299 20094 59015=
201908080900 AAXX 08094 67753 NIL=
201908080600 AAXX 08064 67753 31980 00000 10190 20084 48548
                   333 10300 20114 59003=
201908071200 AAXX 07124 67753 NIL=
201908021200 AAXX 02124 67753 NIL=
201908020900 AAXX 02094 67753 NIL=
201908011200 AAXX 01124 67753 NIL=

################################################################################
#  SYNOPS from 67855, Lupaki (Zambia) | 17-03-00S | 024-46-00E | 1000 m
################################################################################
201908310600 AAXX 31064 67855 31970 50302 10214 20105 3//// 48/// 70522 85030
                   333 20165 5//// 85360=
201908301200 AAXX 30124 67855 41870 03404 10328 20117 3//// 48/// 70500
                   333 5////=
201908300600 AAXX 30064 67855 31970 00603 10206 20080 3//// 48/// 70500
                   333 20170 5////=
201908291200 AAXX 29124 67855 41970 02401 10328 20100 3//// 48/// 70500
                   333 5////=
201908280600 AAXX 28064 67855 31970 70901 10186 20080 3//// 48/// 70522 8707/
                   333 20127 5//// 87360=
201908271200 AAXX 27124 67855 41970 02002 10324 20040 3//// 48/// 70500
                   333 5////=
201908270600 AAXX 27064 67855 31970 00000 10152 20062 3//// 48/// 70500
                   333 20083 5////=
201908260600 AAXX 26064 67855 31970 01101 10120 20023 3//// 48/// 70500
                   333 20062 5////=
201908250600 AAXX 25064 67855 31970 00301 10136 20055 3//// 48/// 70500
                   333 20058 5////=
201908241200 AAXX 24124 67855 42975 00308 10278 21018 3//// 48///
                   333 5////=
201908240600 AAXX 24064 67855 32975 01003 10126 20029 3//// 48///
                   333 20045 5////=
201908230600 AAXX 23064 67855 32975 00000 10086 20030 3//// 48///
                   333 20025 5////=
201908211200 AAXX 21124 67855 41670 50607 10262 20078 3//// 48/// 70511 85500
                   333 85640=
201908201200 AAXX 20124 67855 41970 00410 10294 20003 3//// 48/// 70500
                   333 5////=
201908200600 AAXX 20064 67855 32975 01801 10160 20019 3//// 48///
                   333 20098 5////=
201908190600 AAXX 19064 67855 32975 01801 10124 20048 3//// 48///
                   333 20065 5////=
201908181200 AAXX 18124 67855 41970 00407 10278 20019 3//// 48/// 70500
                   333 5////=
201908180600 AAXX 18064 67855 31970 00606 10144 20010 3//// 48/// 70500
                   333 20080 5////=
201908171200 AAXX 17124 67855 41970 00606 10304 20020 3//// 48/// 70500
                   333 5////=
201908160600 AAXX 16064 67855 31970 01804 10132 20110 3//// 48/// 70500
                   333 20080 5////=
201908151200 AAXX 15124 67855 41970 70610 10276 20077 3//// 48/// 70511 8703/
                   333 5//// 87360=
201908150600 AAXX 15064 67855 31970 00607 10144 20033 3//// 48/// 70500
                   333 20072 5////=
201908141200 AAXX 14124 67855 NIL=
201908140600 AAXX 14064 67855 31970 00302 10136 20083 3//// 48///
                   333 20062 5////=
201908130600 AAXX 13064 67855 32975 00000 10114 20035 3//// 48///
                   333 20062 5////=
201908120600 AAXX 12064 67855 32975 00000 10116 20036 3//// 48///
                   333 20062 5////=
201908111200 AAXX 11124 67855 41970 00601 10278 20055 3//// 48/// 70500
                   333 5////=
201908101200 AAXX 10124 67855 41970 00607 10274 20075 3//// 48/// 70500
                   333 5////=
201908100600 AAXX 10064 67855 31970 00311 10156 20103 3//// 48/// 70500
                   333 20110 5////=
201908090600 AAXX 09064 67855 31970 00000 10140 20039 3//// 48/// 70500
                   333 20085 5////=
201908081200 AAXX 08124 67855 41870 11801 10320 20170 3//// 48/// 70500 81100
                   333 5//// 81857=
201908071200 AAXX 07124 67855 41870 41807 10326 20085 3//// 48/// 70511 84100
                   333 5//// 84857=
201908070600 AAXX 07064 67855 31970 00603 10176 20063 3//// 48/// 70500
                   333 20100 5////=
201908061200 AAXX 06124 67855 41770 50000 10304 20129 3//// 48/// 70511 82100
                   333 5//// 85856=
201908060600 AAXX 06064 67855 31970 11701 10166 20118 3//// 48/// 70500 81030
                   333 20130 5//// 81360=
201908051200 AAXX 05124 67855 41770 51801 10304 20155 3//// 48/// 70511 85200
                   333 5//// 85850=
201908041200 AAXX 04124 67855 41670 51801 10294 20120 38/// 48/// 70511 85100
                   333 5//// 85845=
201908040600 AAXX 04064 67855 31970 01801 10142 20110 3//// 48/// 70500
                   333 20100 5////=
201908031200 AAXX 03124 67855 41670 50303 10282 20125 3//// 48/// 70511 85130
                   333 5//// 85845=
201908030600 AAXX 03064 67855 31970 00308 10174 20105 3//// 48/// 70500
                   333 20114 5////=
201908021200 AAXX 02124 67855 41670 50508 10280 20063 3//// 48/// 70511 85100
                   333 5//// 85840=
201908020600 AAXX 02064 67855 31970 00608 10154 20103 3//// 48/// 70500
                   333 20089 5////=
201908010600 AAXX 01064 67855 32975 00000 10088 21018 3//// 48///
                   333 20030 5////=
