################################################################################
# Query made at 04/17/2022 11:57:47 UTC
# Country like Zamb*
# Time interval: from 09/01/2007 05:30  to 10/01/2007 05:30  UTC
################################################################################

################################################################################
#  SYNOPS from 67461, Mansa (Zambia) | 11-06S | 028-51E | 1382 m
################################################################################
200709270900 AAXX 27094 67461 41965 70907 10270 20121 48536 70522 80007
                   333 59011 87280=

################################################################################
#  SYNOPS from 67561, Ndola (Zambia) | 13-00S | 028-39E | 1269 m
################################################################################
200709270900 AAXX 27094 67561 41765 10812 10274 20124 48540 70500
                   333 59012=
200709241500 AAXX 24154 67561 41950 61026 10295 20096 48485 79582 86400
                   333 59001 81958 86658=
200709241200 AAXX 24124 67561 41860 51408 10331 20085 48489 70511 85200
                   333 59008 85858=

################################################################################
#  SYNOPS from 67581, Chipata (Zambia) | 13-33S | 032-35E | 1028 m
################################################################################
200709270900 AAXX 27094 67581 41775 10906 10270 20133 48563 70500 81100
                   333 59005 81850=
200709131200 AAXX 13124 67581 41770 10804 10289 20098 48531 70500 81100
                   333 58005 81850=
200709050900 AAXX 05094 67581 41775 10706 10270 20097 48557 70500 81100
                   333 59002 81850=
200709050600 AAXX 05064 67581 31975 00610 10237 20094 48557 70500
                   333 10289 20190 59003=

################################################################################
#  SYNOPS from 67599, Mfuwe (Zambia) | 13-16S | 031-56E | 568 m
################################################################################
200709241500 AAXX 24154 67599 41859 10000 10380 20144 48512 70500 81100
                   333 59010 81857=
200709241200 AAXX 24124 67599 41959 00000 10390 20169 48527 70500
                   333 59011=
200709171200 AAXX 17124 67599 41859 30908 10340 20137 48555 70500 83100
                   333 58007 83857=
200709141500 AAXX 14154 67599 41958 11105 10340 20090 48544 70500 81030
                   333 58003 81360=
200709130900 AAXX 13094 67599 41950 00000 10310 20136 48570 70500
                   333 59002=
200709050900 AAXX 05094 67599 41675 31203 10315 20134 48584 70500 83100
                   333 58000 83845=
200709021500 AAXX 02154 67599 41959 30000 10340 20136 48547 70500 83030
                   333 58004 83360=

################################################################################
#  SYNOPS from 67665, Lusaka Internationalairport (Zambia) | 15-19S | 028-27E | 1152 m
################################################################################
200709300900 AAXX 30094 67665 41559 10303 10292 20171 48545 70500 81100
                   333 59002 81825=
200709300600 AAXX 30064 67665 11959 01007 10219 20189 48543 69984 70500
                   333 10290 20158 59011=
200709300400 AAXX 30044 67665 41959 00000 10170 20170 48525 70500
                   333 59016=
200709300300 AAXX 30034 67665 41960 11403 10170 20170 48523 70500 81030
                   333 59019 81360=
200709292100 AAXX 29214 67665 41960 10000 10188 20177 48530 70500 81030
                   333 58015 81360=
200709291500 AAXX 29154 67665 41959 30503 10271 20173 48516 70522 83032
                   333 58013 83360 81080=
200709291200 AAXX 29124 67665 41959 71105 10260 20177 48525 70522 8703/
                   333 87360=
200709271200 AAXX 27124 67665 42765 10804 10286 20155 48530 70500 81100
                   333 59017 81856=
200709270900 AAXX 27094 67665 41960 00811 10250 20165 48560 70500
                   333 59008=
200709270600 AAXX 27064 67665 31459 10917 10183 20164 48560 70500 81100
                   333 10316 20151 59004 81815
                   555 91023=
200709261200 AAXX 26124 67665 41658 30714 10278 20173 48545 70500 83500
                   333 58027 83647=
200709260600 AAXX 26064 67665 31458 60818 10207 20181 48566 70500 86500
                   333 10338 30192 58037 85612=
200709260400 AAXX 26044 67665 41359 10914 10192 20184 48549 70500 81630
                   333 58039 81707 81360=
200709251800 AAXX 25184 67665 41959 11008 10259 20160 48537 70500 81030
                   333 10338 58025 81360 91020=
200709251500 AAXX 25154 67665 41856 10915 10302 20154 48519 70500 81100
                   333 58018 81857 555 10338 91017=
200709251200 AAXX 25124 67665 41756 30809 10322 20153 48525 70500 83100
                   333 58022 83856=
200709250900 AAXX 25094 67665 41956 00714 10308 20155 48546 70500
                   333 59004=
200709241500 AAXX 24154 67665 41758 61404 10335 20140 48506 72522 81931
                   333 59007 81956 86856 83360 81080=
200709241200 AAXX 24124 67665 41959 60702 10348 20127 48506 70522 86200
                   333 59009 86856=
200709240900 AAXX 24094 67665 41959 00605 10321 20142 48533 70522
                   333 59009=
200709240600 AAXX 24064 67665 31960 10000 10254 20135 48521 70522
                   333 10344 20189 59013 81360=
200709232100 AAXX 23214 67665 41960 30000 10231 20141 48518 70500
                   333 59001 83360=
200709231500 AAXX 23154 67665 41760 60000 10309 20124 48509 70522 86030
                   333 58002 86360=
200709230900 AAXX 23094 67665 41659 10316 20145 48542 70500 82130
                   333 59004 82845 81360 91019=
200709230600 AAXX 23064 67665 31959 11002 10251 20139 48536 81030
                   333 10337 20192 59010 81360=
200709230400 AAXX 23044 67665 41980 10000 10195 20127 48519 81030
                   333 59008 81360=
200709230300 AAXX 23034 67665 42980 00000 10201 20127 48513
                   333 59010=
200709230000 AAXX 23004 67665 42980 20000 10203 20118 48506 82031
                   333 59003 81360 81080=
200709222100 AAXX 22214 67665 41980 10000 10223 20120 48519 81030
                   333 59016 81360=
200709221500 AAXX 22154 67665 41970 30000 10324 20136 48508 70500 83200
                   333 59023 819// 83858
                   555 10337 91016=
200709221017 AAXX 22104 67665 41870 20000 10325 20135 48519 70500 82100 91017=
200709220600 AAXX 22064 67665 32965 11005 10241 20153 48544 70500 81030
                   333 10322 20181 59016 81360=
200709220000 AAXX 22004 67665 42975 51402 10201 20131 48521 85031
                   333 59010 85360 81080=
200709211500 AAXX 21154 67665 41759 50804 10300 20123 48525 70500 84230
                   333 59016 84857 82360=
200709210900 AAXX 21094 67665 41959 00613 10276 20139 48555 70500
                   333 59016=
200709210600 AAXX 21064 67665 31959 01005 10200 20162 48555=
200709210400 AAXX 21044 67665 41959 11106 10150 20096 48530 70500 81031
                   333 59008 81360 81080=
200709210300 AAXX 21034 67665 41960 01203 10153 20134 48530 70500
                   333 58016=
200709210000 AAXX 21004 67665 41970 11404 10171 20129 48535 70522 81030
                   333 59015 81360=
200709202100 AAXX 20214 67665 41970 11103 10187 20119 48549 70500 81030
                   333 59005 81360=
200709201800 AAXX 20184 67665 41970 11205 10222 20132 48543 70500 81030
                   333 10308 59013 81360=
200709201500 AAXX 20154 67665 41770 51011 10288 20127 48540 70522 81830
                   333 59013 81856=
200709200600 AAXX 20064 67665 11958 01009 10189 20143 48566 69904 70522
                   333 10296 59002=
200709191800 AAXX 19184 67665 41960 41107 10214 20159 48553 70522 84030
                   333 10296 59008 84360=
200709191500 AAXX 19154 67665 41760 61006 10258 20154 48549 78022 82230
                   333 59005 81950 85360=
200709191200 AAXX 19124 67665 41660 30804 10275 20150 48553 70500 83200
                   333 59014 83845=
200709190900 AAXX 19094 67665 41659 21014 10245 20159 48577 70510 82100
                   333 58003 82830 91024=
200709190600 AAXX 19064 67665 31459 11018 10203 20158 48571 70500 81100
                   333 10302 20142 59011 81815
                   555 00/// 91024=
200709181800 AAXX 18184 67665 41770 11103 10203 20117 48560 70500 80001
                   333 58011 81360=
200709181200 AAXX 18124 67665 41770 40711 10260 20109 48566 70522 81130
                   333 58025 81850 83360=
200709180900 AAXX 18094 67665 42670 20715 10255 20124 48585 82100
                   333 58020 82832=
200709180600 AAXX 18064 67665 31570 40701 10203 20165 48582 70522 84530
                   333 10301 20148 58023 84620 81360=
200709171800 AAXX 17184 67665 42970 10901 10214 20085 48550 81030
                   333 58018 81359=
200709171200 AAXX 17124 67665 41958 01019 10288 20065 48545 70500
                   333 58009=
200709171023 AAXX 17104 67665 41960 00000 10210 20106 48559 70500
                   3/3 10319 20136 58004
                   5/5 00/// 91023=
200709170900 AAXX 17094 67665 41958 00718 10279 20066 48569 70500
                   333 58007 91023=
200709170600 AAXX 17064 67665 41960 00000 10210 20106 48559 70500
                   333 10319 20136 58004
                   5/5 00/// 91023=
200709170300 AAXX 17034 67665 41960 01002 10137 20071 48529 70500
                   333 58000=
200709160900 AAXX 16094 67665 41960 00603 10267 20096 48560 70500
                   333 59014=
200709160600 AAXX 16064 67665 31959 01103 10203 20090 48554 70500
                   333 10292 20121 59012=
200709160400 AAXX 16044 67665 41959 01403 10123 20075 48532 70500
                   333 59010=
200709160300 AAXX 16034 67665 41959 00905 10122 20074 48528 70500
                   333 59007=
200709160000 AAXX 16004 67665 41959 01202 10139 20060 48533 70500
                   333 59005=
200709152100 AAXX 15214 67665 41959 01003 10159 20050 48547 70500
                   333 58000=
200709151500 AAXX 15154 67665 41959 00908 10271 20017 48538 70500
                   333 58004=
200709150900 AAXX 15094 67665 41960 00814 10250 20010 48572 70500
                   333 58009=
200709150600 AAXX 15064 67665 41958 00608 10196 20072 48566 70500
                   333 10305 20130 58008=
200709150400 AAXX 15044 67665 41959 00000 10123 20051 48542 70500
                   333 58005=
200709150300 AAXX 15034 67665 41959 01203 10129 20046 48535 70500
                   333 58001=
200709142100 AAXX 14214 67665 41959 01103 10170 20039 48549 70500
                   333 58007=
200709141500 AAXX 14154 67665 41960 01013 10284 20058 48536 70500
                   333 58004=
200709141200 AAXX 14124 67665 41960 01011 10289 20081 48543 70500
                   333 58005=
200709140900 AAXX 14094 67665 41960 00812 10263 20103 48565 70500
                   333 58004=
200709140600 AAXX 14064 67665 41960 01002 10193 20091 48558 70500
                   333 10315 20127 58007=
200709140300 AAXX 14034 67665 42960 00000 10138 20081 48536
                   333 58011=
200709131800 AAXX 13184 67665 41959 00000 10206 20040 48538 70500
                   333 10315 58000=
200709131200 AAXX 13124 67665 41958 01108 10288 20091 48538 70500
                   333 59006=
200709130900 AAXX 13094 67665 41959 00909 10258 20093 48561 70500
                   333 59005 555 91022=
200709130600 AAXX 13064 67665 31958 00000 10199 20093 48553 70500
                   333 10315 20131 5/5 00/// 91022=
200709121800 AAXX 12184 67665 41958 00000 10213 21006 48538 70500
                   333 10315 59001=
200709121500 AAXX 12154 67665 41959 01113 10288 20034 48537 70500
                   333 58007=
200709121200 AAXX 12124 67665 41959 01014 10310 20031 48546 70500
                   333 58009=
200709120900 AAXX 12094 67665 41960 00716 10279 20048 48578 70500
                   333 58007=
200709120600 AAXX 12064 67665 41958 00903 10203 20097 48556 70500
                   333 10320 20142 58003=
200709120400 AAXX 12044 67665 41958 00000 10142 20075 48533 70500
                   333 58002=
200709111800 AAXX 11184 67665 41957 00000 10218 20096 48537 70500
                   333 10320 58010=
200709111500 AAXX 11154 67665 41957 01112 10311 20296 48532 70500
                   333 58015 555 10320 91019=
200709111200 AAXX 11124 67665 41958 01212 10311 20116 48537 70500
                   333 58010=
200709101200 AAXX 10124 67665 41958 08010 10313 20094 48527 70500
                   333 58007=
200709100900 AAXX 10094 67665 41958 00605 10276 20121 48551 70500
                   333 58008=
200709100600 AAXX 10064 67665 31959 01202 10204 20111 48544 70500
                   333 10327 20134 58007
                   555 00/// 91022=
200709091200 AAXX 09124 67665 41959 01005 10318 20118 48521 70500
                   333 59012 91017=
200709090900 AAXX 09094 67665 41959 00808 10290 20119 48546 70500
                   333 59015=
200709090600 AAXX 09064 67665 31959 01101 10195 20118 48539 70500
                   333 10314 20121 59013
                   555 00/// 91021=
200709081200 AAXX 08124 67665 41959 00605 10295 20147 48530 70500
                   333 59012=
200709080600 AAXX 08064 67665 31959 01107 10189 20136 48550 70500
                   333 10320 20146 59008=
200709080400 AAXX 08044 67665 41959 01105 10152 20129 48534 70500
                   333 59008=
200709080300 AAXX 08034 67665 41959 01104 10158 20132 48531 70500 59009=
200709072100 AAXX 07214 67665 41959 01103 10196 20120 48547 70500
                   333 59003=
200709070900 AAXX 07094 67665 41958 00706 10281 20118 48565 70500
                   333 58003=
200709070600 AAXX 07064 67665 31959 01401 10215 20103 48562 70500
                   333 10308 2//// 58005=
200709061500 AAXX 06154 67665 41959 11410 10284 20085 48536 70500 81030
                   333 58006 81360=
200709061200 AAXX 06124 67665 41859 40703 10300 20073 48539 70500 84200=
200709060600 AAXX 06064 67665 31959 20000 10186 20055 48522 70500 82030
                   333 10299 20//0 58000 82360=
200709060400 AAXX 06044 67665 41959 30000 10147 20092 48537 70500 83030
                   333 59001 83359=
200709060300 AAXX 06034 67665 41960 11803 10156 20093 48533 70500 81030
                   333 59001 81360=
200709052100 AAXX 05214 67665 41960 01405 10173 20069 48540 70500
                   333 59001=
200709051800 AAXX 05184 67665 41959 20000 10205 20100 48528 70522 82030
                   333 10299 59004 82360=
200709051500 AAXX 05154 67665 41759 21002 10273 20093 48528 70522 82030
                   333 59004 82360 555 10299=
200709051200 AAXX 05124 67665 41759 51202 10283 20109 48534 70522 85100
                   333 59008 85857=
200709050900 AAXX 05094 67665 41659 30808 10262 20123 48561 70520 83100
                   333 59006 83840=
200709050600 AAXX 05064 67665 31957 01104 10199 20123 48553 70500
                   333 10298 20119 59006=
200709041800 AAXX 04184 67665 41959 01204 10201 20099 48535 70500
                   333 10298 59005=
200709041500 AAXX 04154 67665 41957 10812 10270 20100 48532 70500 81030
                   333 59009 81360=
200709041200 AAXX 04124 67665 41659 10703 10283 20096 48542 70500 81100
                   333 59004 81845=
200709040900 AAXX 04094 67665 41958 00812 10249 20096 48572 70500
                   333 59003 91023=
200709040600 AAXX 04064 67665 31960 01002 10183 20081 48558 70500
                   333 10310 20135 59005=
200709031500 AAXX 03154 67665 41959 01011 10285 20010 48544 70500
                   333 59001 91020=
200709031200 AAXX 03124 67665 41959 01013 10301 20030 48548 70500
                   333 59001=
200709030900 AAXX 03094 67665 41957 00919 10281 20037 48572 70500
                   333 58003=
200709021500 AAXX 02154 67665 41959 01013 10292 20085 48545 70500
                   333 58010=
200709021200 AAXX 02124 67665 41958 00807 10317 20117 48540 70500
                   333 58013=
200709020900 AAXX 02094 67665 41959 00903 10271 20114 48568 70500
                   333 58003=
200709020600 AAXX 02064 67665 31959 01104 10187 20112 48557 70500
                   333 10294 20//0 58007=
200709020400 AAXX 02044 67665 41959 00000 10140 20084 48541 70500
                   333 58014=
200709020300 AAXX 02034 67665 41959 00000 10150 20085 48536 70500
                   333 59001=
200709012100 AAXX 01214 67665 41958 00804 10176 20062 48549 70500
                   333 58003=
200709011800 AAXX 01184 67665 41958 01104 10218 20056 48547 70500
                   333 5////=
200709011200 AAXX 01124 67665 41958 00708 10306 20069 48536 70500
                   333 59007=
200709010900 AAXX 01094 67665 41958 01004 10259 20108 48562 70500
                   333 59005=
200709010600 AAXX 01064 67665 31959 01305 10200 20094 48553 70500
                   333 10310 20124 59009 91022=

################################################################################
#  SYNOPS from 67743, Livingstone (Zambia) | 17-49S | 025-49E | 985 m
################################################################################
200709261200 AAXX 26124 67743 41970 40612 10318 20148 48532 84030
                   333 58021 84362=
200709241200 AAXX 24124 67743 41958 00806 10370 20060 48514 70500
                   333 58005=
200709211500 AAXX 21154 67743 41865 70605 10310 20095 48520 70500 8127/
                   333 59014 81857 87462=
200709171200 AAXX 17124 67743 41958 00814 10325 20058 48552 70500
                   333 58014=
200709141800 AAXX 14184 67743 41958 01203 10205 20066 48546 70500
                   333 10305 58000=
200709141500 AAXX 14154 67743 41958 01008 10312 20031 48538 70500
                   333 58012=
200709131200 AAXX 13124 67743 41958 01009 10326 20013 48541 70500
                   333 59003=
200709121500 AAXX 12154 67743 41958 01010 10325 20030 48536 70500
                   333 58013=
200709101200 AAXX 10124 67743 41970 00505 10340 20102 48520 70500
                   333 58001=
200709071200 AAXX 07124 67743 41958 31305 10325 20074 48537 70500 83100
                   333 58000 82856=
200709061200 AAXX 06124 67743 41958 01211 10330 21010 48537 70500
                   333 59009=
200709050900 AAXX 05094 67743 41959 00808 10290 20055 48562 70500
                   333 59004=
200709041500 AAXX 04154 67743 41960 01211 10305 21020 48533 70500
                   333 59009=
200709021500 AAXX 02154 67743 41970 01014 10324 21019 48546 70500
                   333 58010=

################################################################################
#  SYNOPS from 67855, Lupaki (Zambia) | 17-03-00S | 024-46-00E | 1000 m
################################################################################
200710010000 AAXX 01004 67855 NIL=
200709301800 AAXX 30184 67855 NIL=
200709301200 AAXX 30124 67855 NIL=
200709300600 AAXX 30064 67855 31665 10501 10218 20142 3//// 48/// 70500 81200
                   333 20142 5//// 81832=
200709300000 AAXX 30004 67855 NIL=
200709291800 AAXX 29184 67855 NIL=
200709291200 AAXX 29124 67855 NIL=
200709290600 AAXX 29064 67855 NIL=
200709290000 AAXX 29004 67855 NIL=
200709281800 AAXX 28184 67855 NIL=
200709281200 AAXX 28124 67855 NIL=
200709280600 AAXX 28064 67855 31965 30405 10218 20111 3//// 48/// 70500 83030
                   333 20159 5//// 83360=
200709280000 AAXX 28004 67855 NIL=
200709271800 AAXX 27184 67855 NIL=
200709271200 AAXX 27124 67855 NIL=
200709270600 AAXX 27064 67855 31965 70801 10198 20127 3//// 48/// 70511 8703/
                   333 20178 5//// 87360=
200709270000 AAXX 27004 67855 NIL=
200709261800 AAXX 26184 67855 NIL=
200709261200 AAXX 26124 67855 NIL=
200709260600 AAXX 26064 67855 31565 10701 10203 20146 3//// 48/// 70500 81100
                   333 20174 5//// 81829=
200709260000 AAXX 26004 67855 NIL=
200709251800 AAXX 25184 67855 NIL=
200709251200 AAXX 25124 67855 NIL=
200709250600 AAXX 25064 67855 NIL=
200709250000 AAXX 25004 67855 NIL=
200709241800 AAXX 24184 67855 NIL=
200709241200 AAXX 24124 67855 NIL=
200709240600 AAXX 24064 67855 31965 01701 10206 20048 3//// 48/// 70500
                   333 20130 5////=
200709240000 AAXX 24004 67855 NIL=
200709231800 AAXX 23184 67855 NIL=
200709231200 AAXX 23124 67855 NIL=
200709230600 AAXX 23064 67855 NIL=
200709230000 AAXX 23004 67855 NIL=
200709221800 AAXX 22184 67855 NIL=
200709221200 AAXX 22124 67855 NIL=
200709220600 AAXX 22064 67855 NIL=
200709220000 AAXX 22004 67855 NIL=
200709211800 AAXX 21184 67855 NIL=
200709211200 AAXX 21124 67855 NIL=
200709210600 AAXX 21064 67855 31965 40601 10200 20062 3//// 48/// 70500 84030
                   333 20094 5//// 84360=
200709210000 AAXX 21004 67855 NIL=
200709201800 AAXX 20184 67855 NIL=
200709201200 AAXX 20124 67855 NIL=
200709200600 AAXX 20064 67855 31965 01502 10180 20082 3//// 48/// 70500
                   333 20104 5////=
200709200000 AAXX 20004 67855 NIL=
200709191800 AAXX 19184 67855 NIL=
200709191200 AAXX 19124 67855 NIL=
200709190600 AAXX 19064 67855 31965 01402 10172 20109 3//// 48/// 70500
                   333 20102 5////=
200709190000 AAXX 19004 67855 NIL=
200709181800 AAXX 18184 67855 NIL=
200709181200 AAXX 18124 67855 NIL=
200709180600 AAXX 18064 67855 31965 00803 10190 20118 3//// 48/// 70500
                   333 20140 5////=
200709180000 AAXX 18004 67855 NIL=
200709171800 AAXX 17184 67855 NIL=
200709171200 AAXX 17124 67855 NIL=
200709170600 AAXX 17064 67855 NIL=
200709170000 AAXX 17004 67855 NIL=
200709161800 AAXX 16184 67855 NIL=
200709161200 AAXX 16124 67855 NIL=
200709160600 AAXX 16064 67855 NIL=
200709160000 AAXX 16004 67855 NIL=
200709151800 AAXX 15184 67855 NIL=
200709151200 AAXX 15124 67855 NIL=
200709150600 AAXX 15064 67855 NIL=
200709150000 AAXX 15004 67855 NIL=
200709141800 AAXX 14184 67855 NIL=
200709141200 AAXX 14124 67855 NIL=
200709140600 AAXX 14063 67855 31965 00000 10174 20001 3//// 48/// 70500
                   333 20079 5////=
200709140000 AAXX 14004 67855 NIL=
200709131800 AAXX 13184 67855 NIL=
200709131200 AAXX 13124 67855 NIL=
200709130600 AAXX 13064 67855 31965 00901 10166 21012 3//// 48/// 70500
                   333 20072 5////=
200709130000 AAXX 13004 67855 NIL=
200709121800 AAXX 12184 67855 NIL=
200709121200 AAXX 12124 67855 NIL=
200709120600 AAXX 12064 67855 31965 00000 10162 20010 3//// 48/// 70500
                   333 20096 5////=
200709120000 AAXX 12004 67855 NIL=
200709111800 AAXX 11184 67855 NIL=
200709111200 AAXX 11124 67855 NIL=
200709110600 AAXX 11064 67855 NIL=
200709110000 AAXX 11004 67855 NIL=
200709101800 AAXX 10184 67855 NIL=
200709101200 AAXX 10124 67855 NIL=
200709100600 AAXX 10064 67855 31965 00801 10207 20077 3//// 48/// 70500
                   333 20128 5////=
200709100000 AAXX 10004 67855 NIL=
200709091800 AAXX 09184 67855 NIL=
200709091200 AAXX 09124 67855 NIL=
200709090600 AAXX 09064 67855 NIL=
200709090000 AAXX 09004 67855 NIL=
200709081800 AAXX 08184 67855 NIL=
200709081200 AAXX 08124 67855 NIL=
200709080600 AAXX 08064 67855 31965 00702 10197 20114 3//// 48/// 70500
                   333 20146 5////=
200709080000 AAXX 08004 67855 NIL=
200709071800 AAXX 07184 67855 NIL=
200709071200 AAXX 07124 67855 NIL=
200709070600 AAXX 07064 67855 31965 01103 10211 20050 38/// 48/// 70500
                   333 20120 5////=
200709070000 AAXX 07004 67855 NIL=
200709061200 AAXX 06124 67855 NIL=
200709060600 AAXX 06064 67855 31965 00000 10151 20041 3//// 48/// 70500
                   333 20093 5////=
200709060000 AAXX 06004 67855 NIL=
200709051800 AAXX 05184 67855 NIL=
200709051200 AAXX 05124 67855 NIL=
200709050600 AAXX 05064 67855 31965 00000 10130 20008 3//// 48/// 70500
                   333 20070 5////=
200709050000 AAXX 05004 67855 NIL=
200709041800 AAXX 04184 67855 NIL=
200709041200 AAXX 04124 67855 NIL=
200709040600 AAXX 04064 67855 31965 01601 10116 20024 3//// 48/// 70500
                   333 20066 5////=
200709040000 AAXX 04004 67855 NIL=
200709031800 AAXX 03184 67855 NIL=
200709020600 AAXX 02064 67855 NIL=
200709020000 AAXX 02004 67855 NIL=
200709011800 AAXX 01184 67855 NIL=
200709011200 AAXX 01124 67855 NIL=
200709010600 AAXX 01064 67855 NIL=
