################################################################################
# Query made at 04/14/2022 03:37:49 UTC
# Country like Zamb*
# Time interval: from 09/01/2016 05:30  to 10/01/2016 06:30  UTC
################################################################################

################################################################################
#  SYNOPS from 67561, Ndola (Zambia) | 13-00S | 028-39E | 1269 m
################################################################################
201609250600 AAXX 25064 67561 31959 00705 10216 20074 48530 70400
                   333 10331 20155 59004
                   555 00240 91020=
201609200600 AAXX 20064 67561 31959 50910 10207 20081 48552 70422 80008
                   333 10319 20136 59001 85280
                   555 00247 91023=
201609150600 AAXX 15064 67561 31958 00503 10186 20047 48534 70400
                   333 10311 20131 59007
                   555 00217=
201609080600 AAXX 08064 67561 31958 00000 10179 20067 48542 70400
                   333 10321 20107 59005
                   555 00231 91022=

################################################################################
#  SYNOPS from 67665, Lusaka Internationalairport (Zambia) | 15-19S | 028-27E | 1152 m
################################################################################
201610010600 AAXX 01064 67665 42980 11006 10231 20152 48525 70200 80001
                   333 59022 81080=
201609302100 AAXX 30214 67665 42980 01604 10195 20104 48517 70200
                   333 59021=
201609301800 AAXX 30184 67665 41959 01206 10239 20114 48516 70500
                   333 59018=
201609301200 AAXX 30124 67665 41959 00414 10318 20158 48523 70500
                   333 59010=
201609300900 AAXX 30094 67665 41959 10286 20155 48554 70500
                   333 59009=
201609300300 AAXX 30034 67665 42980 01504 10185 20105 48528
                   333 58000=
201609300000 AAXX 30004 67665 42980 01303 10182 20091 48523
                   333 59003=
201609292100 AAXX 29214 67665 42980 01604 10212 20097 48538
                   333 58001=
201609291800 AAXX 29184 67665 41970 00903 10250 20119 48535 70500
                   333 58000=
201609291500 AAXX 29154 67665 41959 10911 10310 20115 48527 70500 81031
                   333 58012 81359 81080=
201609281800 AAXX 28184 67665 42980 0//// 10257 20135 48536
                   333 58004=
201609281500 AAXX 28154 67665 41959 00903 10318 20157 48516 70500
                   333 59001=
201609281200 AAXX 28124 67665 41959 11306 10320 20140 48526 70500 80001
                   333 59001 81080=
201609280600 AAXX 28064 67665 32980 21005 10227 20138 48552 70200 80001
                   333 10326 20//0 59001 82080=
201609280300 AAXX 28034 67665 42980 0//// 10180 20120 48529 70200
                   333 58002=
201609272100 AAXX 27214 67665 42980 0//// 10210 20117 48537 70200
                   333 58000=
201609270900 AAXX 27094 67665 41959 00312 10277 20143 48556 70500
                   333 59005=
201609270600 AAXX 27064 67665 31959 01009 10209 20125 48550 70500
                   333 59007=
201609270300 AAXX 27034 67665 42980 0//// 10172 20102 70200
                   333 59001=
201609262100 AAXX 26214 67665 42980 0//// 10206 20117 48535 70200
                   333 59011=
201609261800 AAXX 26184 67665 41959 0//// 10230 20112 48528 70500
                   333 10325 58008=
201609261500 AAXX 26154 67665 41959 00910 10305 20130 48519 70500
                   333 58010=
201609261200 AAXX 26124 67665 41959 00715 10310 20126 48528 70500
                   333 58013=
201609250600 AAXX 25064 67665 31959 00904 10220 20138 48540 70500
                   333 10//0 20//0 59008=
201609250000 AAXX 25004 67665 41959 0//// 10210 20117 48518 70500
                   333 59007=
201609241800 AAXX 24184 67665 41959 0//// 10252 20125 48526 70500
                   333 59013=
201609241500 AAXX 24154 67665 41959 01110 10322 20153 48514 70500
                   333 59012=
201609241200 AAXX 24124 67665 41959 00508 10325 20135 48519 70500
                   333 59019=
201609240600 AAXX 24064 67665 31959 01004 10220 20119 48548 70500
                   333 59006=
201609240300 AAXX 24034 67665 41959 0//// 10154 20065 48523 70500
                   333 59004=
201609240000 AAXX 24004 67665 41959 0//// 10214 20101 48525 70500
                   333 59022=
201609232100 AAXX 23214 67665 41959 0//// 10224 20113 48541 70500
                   333 59003=
201609231800 AAXX 23184 67665 41959 0//// 10243 20118 48535 70500
                   333 59002=
201609231500 AAXX 23154 67665 41959 0//// 10314 20155 48526 70500
                   333 59005=
201609221800 AAXX 22184 67665 41959 0//// 10254 20114 48539 70500
                   333 59011=
201609221500 AAXX 22154 67665 41959 00905 10303 20103 48530 70500
                   333 58008=
201609221200 AAXX 22124 67665 41959 00906 10291 20084 48545 70500
                   333 58005=
201609220900 AAXX 22094 67665 41959 13509 10270 20089 48574 70500 80001
                   333 58005 81080=
201609220600 AAXX 22064 67665 31959 10605 10219 20100 48559 70500 80001
                   333 10306 20/// 59002 81080=
201609220300 AAXX 22034 67665 42980 0//// 10160 20106 48545 70200
                   333 58004=
201609212100 AAXX 21214 67665 41960 10190 20113 48553 70500
                   333 58003=
201609210600 AAXX 21064 67665 31960 10198 20135 48568 70500
                   333 5////=
201609202100 AAXX 20214 67665 42980 0//// 10183 20109 48549 70200
                   333 59008=
201609201800 AAXX 20184 67665 41960 0//// 10220 20120 48552 70500
                   333 10310 59002=
201609201500 AAXX 20154 67665 41959 01009 10280 20104 48543 70500
                   333 58000=
201609201200 AAXX 20124 67665 41958 10914 10285 20100 48548 70500 81030
                   333 59002 81360=
201609192100 AAXX 19214 67665 41957 0//// 10215 20055 48561 70500
                   333 59036=
201609191800 AAXX 19184 67665 41957 01008 10237 20074 48552 70500
                   333 59020=
201609191200 AAXX 19124 67665 41958 00912 10304 20085 48551 70500
                   333 59020=
201609190900 AAXX 19094 67665 41958 00918 10277 20106 48574 70500
                   333 59016=
201609190600 AAXX 19064 67665 31958 01009 10216 20159 48569 70500
                   333 10//0 20//0 58023=
201609190300 AAXX 19034 67665 41959 0//// 10190 20121 48549 70500
                   333 58027=
201609190000 AAXX 19004 67665 41959 0//// 10220 20134 48541 70500
                   333 58025=
201609181800 AAXX 18184 67665 41990 ///// 10249 20135 48541 70500
                   333 58022=
201609181500 AAXX 18154 67665 41958 21012 10329 20165 48530 70500 80001
                   333 58021 82080=
201609181200 AAXX 18124 67665 41958 00908 10330 20174 48535 70500
                   333 58016=
201609180600 AAXX 18064 67665 31959 01104 10220 20129 48547 70500
                   333 58011=
201609180300 AAXX 18034 67665 41959 0//// 10194 20106 48518 70500
                   333 58003=
201609180000 AAXX 18004 67665 41959 0//// 10206 20101 48515 70500
                   333 59002=
201609172100 AAXX 17214 67665 41959 0//// 10234 20106 48528 70500
                   333 58002=
201609171800 AAXX 17184 67665 41959 01102 10260 20108 48518 70500
                   333 10350 59001=
201609171500 AAXX 17154 67665 41959 11107 10318 20104 48504 70500 81030
                   333 59002 81030=
201609171200 AAXX 17124 67665 41959 11703 10320 20081 48517 70500 81030
                   333 58003 81360=
201609170600 AAXX 17064 67665 42980 0//// 10227 20163 48537 70200
                   333 59011=
201609170300 AAXX 17034 67665 42980 0//// 10192 20132 48516 70200=
201609162100 AAXX 16214 67665 42980 0//// 10220 20122 48525 70200
                   333 59005=
201609160900 AAXX 16094 67665 41959 00610 10275 20113 48544 70500
                   333 59009 91020=
201609160600 AAXX 16064 67665 31959 01104 10210 20106 48543 70500
                   333 10315 20//0 59007=
201609160300 AAXX 16034 67665 42970 0//// 10172 20120 48519 70200
                   333 59013=
201609160000 AAXX 16004 67665 42970 0//// 10190 20122 48518 70200
                   333 59012=
201609152100 AAXX 15214 67665 42970 0//// 20123 48527 70200
                   333 59016=
201609151800 AAXX 15184 67665 41959 10238 20132 48524 70500
                   333 59012=
201609151500 AAXX 15154 67665 41959 00903 10296 20138 48512 70500
                   333 59014=
201609151200 AAXX 15124 67665 41959 01005 10295 20132 48525 70500
                   333 59012=
201609150600 AAXX 15064 67665 31959 01009 10191 20133 48545 70500
                   333 10307 20//0 59011=
201609141800 AAXX 14184 67665 42980 0//// 10225 20126 48534 70200
                   333 59013=
201609141500 AAXX 14154 67665 41960 01007 10284 20089 48526 70500
                   333 59005=
201609141200 AAXX 14124 67665 41959 01009 10286 20089 48536 70500
                   333 59006=
201609140900 AAXX 14094 67665 42959 00713 10267 20155 48563 70500
                   333 59006=
201609140600 AAXX 14064 67665 41959 00907 10196 20089 48558 70500
                   333 59006=
201609140300 AAXX 14034 67665 41959 0//// 10164 20080 48531 70500
                   333 59014=
201609132100 AAXX 13214 67665 41959 0//// 10195 20074 48545 70500
                   333 59001=
201609130900 AAXX 13094 67665 41959 10265 20095 48569 70500
                   333 59004=
201609130600 AAXX 13064 67665 41959 01206 10204 20145 48560 70500
                   333 59009=
201609122100 AAXX 12214 67665 41959 0//// 10195 20095 48546 70500
                   333 58011=
201609121800 AAXX 12184 67665 41959 0//// 10235 20119 48551 70500
                   333 58007=
201609121200 AAXX 12124 67665 41959 00908 10285 20134 48558
                   333 70500 59003=
201609120600 AAXX 12064 67665 31959 00909 10201 20116 48573 70500
                   333 10//0 20//0 58000=
201609112100 AAXX 11214 67665 41959 0//// 10195 20099 48561 70500
                   333 58015=
201609111800 AAXX 11184 67665 41959 0//// 10228 20156 48556 70500
                   333 58009=
201609110600 AAXX 11064 67665 31959 00907 10205 20088 48574 70500
                   333 10321 20//0 58015
                   555 00///=
201609110300 AAXX 11034 67665 41959 0//// 10172 20090 48548 70500
                   333 58011 91022=
201609110000 AAXX 11004 67665 41959 0//// 10182 20090 48538 70500
                   333 58006=
201609102100 AAXX 10214 67665 41959 0//// 10202 20095 48547 70500
                   333 58003 91022=
201609101800 AAXX 10184 67665 41959 0//// 10235 20156 48548 70500
                   333 58008=
201609101500 AAXX 10154 67665 41959 0//// 10295 20201 48542 70500
                   333 58013=
201609100600 AAXX 10064 67665 42959 01005 10212 20129 48560 70500
                   333 10327 20//0 58010=
201609100300 AAXX 10034 67665 42980 0//// 10186 20122 48540 70200
                   333 58006=
201609092100 AAXX 09214 67665 42980 0//// 10208 20122 48545 70200
                   333 58002=
201609091800 AAXX 09184 67665 41965 0//// 10240 20124 48540 70500
                   333 58005=
201609091500 AAXX 09154 67665 41970 00507 10303 20113 48529 70500
                   333 58000=
201609091200 AAXX 09124 67665 41970 00208 10310 20110 48533 70500
                   333 59001=
201609090900 AAXX 09094 67665 41970 00209 10280 20131 48556 70500
                   333 59005=
201609090600 AAXX 09064 67665 32980 00904 10220 20107 48551 70200
                   333 10320 20//0 59009=
201609090300 AAXX 09034 67665 42980 0//// 10174 20131 48532 70200
                   333 59001=
201609090000 AAXX 09004 67665 42980 0//// 10190 20118 48532 70200
                   333 58000=
201609082100 AAXX 08214 67665 42980 0//// 10200 20124 48542 70200
                   333 59007=
201609081800 AAXX 08184 67665 42980 0//// 10228 20137 48534 70200
                   333 59007=
201609081500 AAXX 08154 67665 42959 01209 10291 20173 48528 70200
                   333 59003=
201609081200 AAXX 08124 67665 42980 01310 10307 20172 48532 70200
                   333 59007=
201609070600 AAXX 07064 67665 31958 01304 10184 20112 48555 70500
                   333 59005=
201609070300 AAXX 07034 67665 41959 0//// 10164 20090 48538 70500
                   333 59002=
201609062100 AAXX 06214 67665 41959 0//// 10189 20111 48550 70500
                   333 59002=
201609060600 AAXX 06064 67665 42980 01005 10180 20124 48559
                   333 59008=
201609060300 AAXX 06034 67665 42980 0//// 10160 20114 48532
                   333 59009=
201609052100 AAXX 05214 67665 42980 0//// 10180 20115 48544
                   333 59011=
201609051800 AAXX 05184 67665 42980 0//// 10209 20125 48549
                   333 59002=
201609051500 AAXX 05154 67665 42980 01104 10283 20167 48539
                   333 59002=
201609051200 AAXX 05124 67665 41659 10907 10281 20168 48548 70500 81100
                   333 58005 81840=
201609050900 AAXX 05094 67665 41980 00611 10254 20153 48563 70500
                   333 58003=
201609050600 AAXX 05064 67665 31959 00907 10188 20116 48568 70500
                   333 10//0 20//0 58006=
201609041800 AAXX 04184 67665 41959 10/// 10286 20//0 48/// 70500
                   333 58002=
201609041500 AAXX 04154 67665 42959 0//// 10/// 20/// 48/// 70500
                   333 59003=
201609041200 AAXX 04124 67665 41980 10806 10286 20164 48544 70500
                   333 5////=
201609040900 AAXX 04094 67665 42980 00710 10245 20150 48568
                   333 59006=
201609040000 AAXX 04004 67665 42980 0//// 10//0 20//0 48/// 70500
                   333 59017=
201609032100 AAXX 03214 67665 42980 0//// 10//0 20//0 48/// 70500
                   333 59016=
201609030900 AAXX 03094 67665 42980 10237 20155 70500
                   333 59011=
201609030600 AAXX 03064 67665 01208 10175 20099 48563 70200
                   333 58000=
201609021800 AAXX 02184 67665 42980 0//// 10//0 20//0 48///
                   333 59011=
201609021500 AAXX 02154 67665 42980 01009 10231 20111 48547
                   333 59005=
201609021200 AAXX 02124 67665 42780 20910 10248 20128 48553 82100
                   333 59016 82856=
201609020900 AAXX 02094 67665 42980 00413 10231 20114 48582
                   333 59003=
201609020600 AAXX 02064 67665 32980 01006 10170 20088 48562 70200=
201609020300 AAXX 02034 67665 42980 0//// 10//0 20//0 48/// 70200
                   333 59010=
201609020000 AAXX 02004 67665 42980 0//// 10//0 20//0 48/// 70200
                   333 59008=
201609012100 AAXX 01214 67665 42980 0//// 10//0 20//0 48/// 70200
                   333 59003=
201609011800 AAXX 01184 67665 42980 51006 10192 20084 48563 85030
                   333 10278 58001 85360=
201609011500 AAXX 01154 67665 42980 40908 10255 20091 48556 84030
                   333 58001 84360=
201609011200 AAXX 01124 67665 42680 40810 10253 20074 48568 84200
                   333 58008 84845=
201609010600 AAXX 01064 67665 32980 01006 10168 20106 48562 70200
                   333 10278 20//0 59003=

################################################################################
#  SYNOPS from 67855, Lupaki (Zambia) | 17-03-00S | 024-46-00E | 1000 m
################################################################################
201610010600 AAXX 01064 67855 NIL=
201609301800 AAXX 30184 67855 NIL=
201609301200 AAXX 30124 67855 41770 73603 10340 20086 3//// 48/// 70511 81132
                   333 5//// 81856 85360 87080=
201609300600 AAXX 30064 67855 11560 10702 10236 20125 3//// 48/// 69904 70500 81500
                   333 20197 5//// 81620=
201609291200 AAXX 29124 67855 41770 70000 10356 20086 3//// 48/// 70511 84101
                   333 5//// 84856 87080=
201609290600 AAXX 29064 67855 31960 50000 10230 20069 3//// 48/// 70522 85030
                   333 20166 5//// 85360=
201609281800 AAXX 28184 67855 NIL=
201609281200 AAXX 28124 67855 41960 03602 10354 20095 3//// 48/// 70500
                   333 5////=
201609280600 AAXX 28064 67855 31960 02001 10224 20103 3//// 48/// 70500
                   333 20150 5////=
201609271800 AAXX 27184 67855 NIL=
201609271200 AAXX 27124 67855 41960 03603 10346 20068 38/// 48/// 70500
                   333 5////=
201609270600 AAXX 27064 67855 31960 20901 10200 20060 3//// 48/// 70500 80001
                   333 20125 5//// 82080=
201609261800 AAXX 26184 67855 NIL=
201609261200 AAXX 26124 67855 41960 00705 10332 20046 3//// 48/// 70500
                   333 5////=
201609260600 AAXX 26064 67855 31960 00604 10232 20105 3//// 48/// 70500
                   333 20182 5////=
201609251800 AAXX 25184 67855 NIL=
201609251200 AAXX 25124 67855 NIL=
201609250600 AAXX 25064 67855 31960 10601 10244 20059 3//// 48/// 70500 81030
                   333 20190 5//// 81360=
201609241800 AAXX 24184 67855 NIL=
201609241200 AAXX 24124 67855 41760 32202 10358 20073 3//// 48/// 70500 83100
                   333 5//// 83856=
201609240600 AAXX 24064 67855 31960 00303 10256 20058 38/// 48/// 70500
                   333 20152 5////=
201609231800 AAXX 23184 67855 NIL=
201609231200 AAXX 23124 67855 NIL=
201609230600 AAXX 23064 67855 31960 01701 10214 20049 3//// 48/// 70500
                   333 20129 5////=
201609221800 AAXX 22184 67855 NIL=
201609221200 AAXX 22124 67855 NIL=
201609220600 AAXX 22064 67855 31960 00303 10224 20089 3//// 48/// 70500
                   333 20128 5////=
201609211800 AAXX 21184 67855 NIL=
201609211200 AAXX 21124 67855 41760 20202 10330 20098 3//// 48/// 70500 82100
                   333 5//// 82850=
201609210600 AAXX 21064 67855 31960 00901 10216 20105 3//// 48/// 70500
                   333 20160 5////=
201609201800 AAXX 20184 67855 NIL=
201609201200 AAXX 20124 67855 41660 10301 10310 20110 3//// 48/// 70500 81100
                   333 5//// 81840=
201609200600 AAXX 20064 67855 31960 00902 10180 20120 3//// 48/// 70500
                   333 20124 5////=
201609191800 AAXX 19184 67855 NIL=
201609190600 AAXX 19064 67855 NIL=
201609181800 AAXX 18184 67855 NIL=
201609181200 AAXX 18124 67855 NIL=
201609180600 AAXX 18064 67855 31960 00901 10220 20101 3//// 48/// 70500
                   333 20155 5////=
201609171800 AAXX 17184 67855 NIL=
201609171200 AAXX 17124 67855 41960 11402 10360 20078 3//// 48/// 70511 81030
                   333 5//// 81360=
201609170600 AAXX 17064 67855 31960 60302 10254 20073 3//// 48/// 70511 86030
                   333 20168 5//// 86360=
201609161800 AAXX 16184 67855 NIL=
201609161200 AAXX 16124 67855 NIL=
201609160600 AAXX 16064 67855 31960 00302 10236 20098 3//// 48/// 70500
                   333 20123 5////=
201609151800 AAXX 15184 67855 NIL=
201609151200 AAXX 15124 67855 41960 00602 10330 20099 3//// 48/// 70500
                   333 5////=
201609150600 AAXX 15064 67855 31960 00402 10206 20072 3//// 48/// 70500
                   333 20111 5////=
201609141800 AAXX 14184 67855 NIL=
201609141200 AAXX 14124 67855 41960 00303 10322 20063 3//// 48/// 70500
                   333 5////=
201609140600 AAXX 14064 67855 31960 00802 10196 20071 3//// 48/// 70500
                   333 20150 5////=
201609131800 AAXX 13184 67855 NIL=
201609131200 AAXX 13124 67855 NIL=
201609130600 AAXX 13064 67855 31960 00703 10228 20100 3//// 48/// 70500
                   333 20156 5////=
201609121800 AAXX 12184 67855 NIL=
201609121200 AAXX 12124 67855 41960 00901 10318 20080 3//// 48/// 70500
                   333 5////=
201609120600 AAXX 12064 67855 31960 00403 10200 20085 3//// 48/// 70500
                   333 20102 5////=
201609111800 AAXX 11184 67855 NIL=
201609111200 AAXX 11124 67855 41960 00904 10320 20065 3//// 48/// 70500
                   333 5////=
201609110600 AAXX 11064 67855 31960 00909 10202 20125 3//// 48/// 70500
                   333 20164 5////=
201609101800 AAXX 10184 67855 NIL=
201609101200 AAXX 10124 67855 41960 00604 10362 20013 3//// 48/// 70500
                   333 5////=
201609091800 AAXX 09184 67855 NIL=
201609091200 AAXX 09124 67855 41960 00309 10344 20088 3//// 48/// 70500
                   333 5////=
201609090600 AAXX 09064 67855 NIL=
201609081800 AAXX 08184 67855 NIL=
201609081200 AAXX 08124 67855 41960 03603 10344 20082 3//// 48/// 70500
                   333 5////=
201609080600 AAXX 08064 67855 31960 03603 10230 20069 3//// 48/// 70500
                   333 20129 5////=
201609071800 AAXX 07184 67855 NIL=
201609071200 AAXX 07124 67855 41960 00501 10336 20085 3//// 48/// 70500
                   333 5////=
201609070600 AAXX 07064 67855 31970 00000 10174 20038 3//// 48/// 70500
                   333 20108 5////=
201609010600 AAXX 01064 67855 31970 00902 10168 20018 3//// 48/// 70500
                   333 20085 5////=
