################################################################################
# Query made at 04/14/2022 03:20:13 UTC
# Country like Zamb*
# Time interval: from 12/01/2017 05:30  to 12/31/2017 06:30  UTC
################################################################################

################################################################################
#  SYNOPS from 67403, Kawambwa (Zambia) | 09-48S | 029-05E | 1323 m
################################################################################
201712290600 AAXX 29064 67403 32980 81201 10212 20187 48521 8703/
                   333 10276 20192 58007 87360
                   555 00196=
201712280600 AAXX 28064 67403 11380 60903 10210 20183 48504 60154 70322 81631
                   333 10304 20182 58003 81703 86360 81080
                   555 00184=
201712270600 AAXX 27064 67403 32980 70902 10217 20187 48501 8703/
                   333 10306 20191 59019 87360
                   555 00189=
201712260600 AAXX 26064 67403 11480 60902 10209 20184 48519 69934 70322 83531
                   333 10298 20179 58005 83610 86360 81080
                   555 00184=
201712210600 AAXX 21064 67403 12980 51801 10215 20174 48530 85030
                   333 10270 20174 58005 85360
                   555 00177=
201712200900 AAXX 20094 67403 NIL=
201712200600 AAXX 20064 67403 12480 83001 10192 20180 48524 60154 70322 8153/
                   333 10224 20174 58008 81610 87360
                   555 00177=
201712190600 AAXX 19064 67403 11803 80901 10182 20180 48516 60274 76596 8197/
                   333 10306 20182 58006 81958 88459
                   555 00184=
201712180600 AAXX 18064 67403 12980 41801 10225 20179 48512 60054 84031
                   333 10300 20182 59002 84360 82080=
201712130600 AAXX 13064 67403 11980 82201 10204 20191 48529 69974 70262 8703/
                   333 10286 20186 58015 87360
                   555 00102=
201712110600 AAXX 11064 67403 11480 82201 10203 20187 48528 60074 70366 8457/
                   333 10272 20184 58022 84610 87360
                   555 00100=
201712080600 AAXX 08064 67403 12980 71601 10208 20181 48504 60024 8703/
                   333 10298 20178 58009 87360
                   555 00100=
201712070600 AAXX 07064 67403 12980 51802 10227 20173 48497 69944 85031
                   333 10296 20182 59011 85360 82080
                   555 00099=

################################################################################
#  SYNOPS from 67413, Mbala (Zambia) | 08-51S | 031-20E | 1673 m
################################################################################
201712290600 AAXX 29064 67413 NIL=
201712270600 AAXX 27064 67413 NIL=
201712210600 AAXX 21064 67413 12480 31207 10200 20151 48507 60014 82559
                   333 10230 20140 58006 82610 83357 83170 91025=
201712200900 AAXX 20094 67413 NIL=
201712130600 AAXX 13064 67413 11480 70000 10180 20173 48547 60054 70155 878//
                   333 10250 20160 58009 81810 86615
                   555 00/// 91025=

################################################################################
#  SYNOPS from 67441, Mwinilunga (Zambia) | 11-45S | 024-26E | 1361 m
################################################################################
201712290600 AAXX 29064 67441 NIL=
201712270600 AAXX 27064 67441 NIL=
201712210600 AAXX 21064 67441 NIL=
201712200900 AAXX 20094 67441 NIL=

################################################################################
#  SYNOPS from 67461, Mansa (Zambia) | 11-06S | 028-51E | 1382 m
################################################################################
201712290600 AAXX 29064 67461 11380 82706 10194 20188 48527 60014 76122 8667/
                   333 10256 20182 58016 86707 88460
                   555 00182 91020=
201712280600 AAXX 28064 67461 12480 71506 10202 20196 48512 60024 8667/
                   333 10267 20174 58004 86709 87460
                   555 00172 91019=
201712270600 AAXX 27064 67461 32580 71302 10234 20208 48511 8453/
                   333 10300 20179 5//// 84620 84360
                   555 00173 91017=
201712260900 AAXX 26094 67461 42680 70403 10260 20175 48514 8123/
                   333 5//// 81840 87360 91017=
201712260600 AAXX 26064 67461 12980 71902 10221 20181 48523 60064 8707/
                   333 10289 20181 58004 87460
                   555 00180 91019=
201712220900 AAXX 22094 67461 41675 61204 10258 20189 48514 76022 86270
                   333 59008 86832 82460 91017=
201712220600 AAXX 22064 67461 12980 21502 10224 20180 48513 69904 81031
                   333 10290 20159 59018 81360 81080
                   555 00152 91017=
201712210600 AAXX 21064 67461 12480 70403 10199 20185 48528 60184 82530
                   333 10267 20170 58000 82612 86360
                   555 00169 91020=
201712200900 AAXX 20094 67461 NIL=
201712200600 AAXX 20064 67461 11475 80000 10185 20180 48527 60044 76166 8257/
                   333 10258 20169 58011 82612 88460
                   555 00181 91020=
201712190600 AAXX 19064 67461 12480 82002 10200 20190 48518 60504 8257/
                   333 10304 20182 58002 82616 88460
                   555 00173 91019=
201712180600 AAXX 18064 67461 12980 70000 10224 20182 48518 60074 8703/
                   333 10289 20177 59005 87360
                   555 00185 91018=
201712110600 AAXX 11064 67461 12480 72402 10195 20175 48527 60174 8117/
                   333 10296 20165 58017 81818 87360
                   555 00175 91020=
201712080600 AAXX 08064 67461 12480 71304 10215 20187 48515 60084 875//
                   333 10303 20168 58007 87617
                   555 00173 91018=
201712070600 AAXX 07064 67461 32580 70803 10228 20185 48505 83531
                   333 10304 20179 59009 83620 84360 82080
                   555 00177 91017=
201712050600 AAXX 05064 67461 12580 71502 10229 20186 48519 60034 81131
                   333 10292 20174 59001 81820 87360 81080
                   555 00178 91018=
201712010600 AAXX 01064 67461 11580 71002 10200 20185 48529 69904 72844 8157/
                   333 10266 20160 59013 81620 87360
                   555 00164 91020=

################################################################################
#  SYNOPS from 67469, Samfya (Zambia) | 11-22S | 029-54E | 1171 m
################################################################################
201712290600 AAXX 29064 67469 12380 70903 10215 20190 48/// 60064 8244/
                   333 10255 20190 5//// 82609 82815 87460=
201712280600 AAXX 28064 67469 12480 71606 10222 20180 48/// 60154 8413/
                   333 10283 20195 5//// 84813 87360=
201712270600 AAXX 27064 67469 32480 61209 10249 20190 48/// 85132
                   333 10303 20215 5//// 85812 81360=
201712220600 AAXX 22064 67469 32480 21206 10259 20180 48/// 81130
                   333 10272 20186 5//// 81818 81360=
201712210600 AAXX 21064 67469 12480 61004 10230 20210 48/// 60014 85132
                   333 10280 20180 5//// 85812 82360 81080=
201712200900 AAXX 20094 67469 NIL=
201712190600 AAXX 19064 67469 12380 70604 10210 20200 48/// 60124 8453/
                   333 10283 20185 5//// 84609 87360=
201712180600 AAXX 18064 67469 12480 32804 10213 20180 48/// 60084 82132
                   333 10275 20195 5//// 82813 81360 81080=
201712130600 AAXX 13064 67469 12480 72804 10200 20200 48/// 60184 84132
                   333 10280 20190 5//// 84813 87360
                   555 00///=

################################################################################
#  SYNOPS from 67475, Kasama (Zambia) | 10-13S | 031-08E | 1382 m
################################################################################
201712290600 AAXX 29064 67475 31460 61205 10205 20184 48531 60904 70322 83531
                   333 10220 20170 58010 83613 81360 83080 91021=
201712280600 AAXX 28064 67475 12360 80502 10175 20171 48520 60484 72052 8367/
                   333 10288 20169 58005 83708 81820 88460 91020=
201712270600 AAXX 27064 67475 31560 60904 10225 20187 48517 69904 70322 82238
                   333 10304 20180 59013 82825 84360 85280 91019=
201712260600 AAXX 26064 67475 12960 72702 10220 20174 48530 69904 70222 8707/
                   333 10273 20171 58003 87360 91021=
201712240600 AAXX 24064 67475 11460 72308 10205 20185 48512 69914 72162 83478
                   333 10292 20180 58001 83613 85360 86280 91019=
201712220900 AAXX 22094 67475 42660 30905 10260 20199 48518 70300 83231
                   333 59015 83830 81361 81080 91019=
201712210600 AAXX 21064 67475 11260 50904 10189 20184 48540 60034 72842 82631
                   333 10260 20160 58005 82705 82080 91022=
201712200900 AAXX 20094 67475 41560 71506 10223 20179 48535 75055 84278
                   333 58021 84820 84462 87280 91021=
201712200600 AAXX 20064 67475 11360 81606 10173 20173 48533 60174 75064 8167/
                   333 10256 20170 5//// 81706 88460 91021=
201712190900 AAXX 19094 67475 41560 73101 10224 20188 48514 72165 8227/
                   333 58004 82825 83625 87461 91019=
201712181200 AAXX 18124 67475 41660 61405 10285 20170 48474 71522 81973
                   333 59020 81945 83845 83361 83080 91014=
201712180600 AAXX 18064 67475 12460 73501 10203 20186 48518 69904 70322 82478
                   333 10283 20178 59009 82615 84360 86280 91020=
201712130600 AAXX 13064 67475 12360 81204 10194 20186 48539 60024 8127/
                   333 10286 20175 58017 81820 83706 87360
                   555 00/// 91022=
201712110600 AAXX 11064 67475 12360 71802 10187 20179 48524 60104 72166 8367/
                   333 10270 20172 58006 83707 86360
                   555 00/// 91020=
201712080600 AAXX 08064 67475 12460 71210 10212 20178 48515 69924 85578
                   333 10305 20175 58006 85615 84360 86280
                   555 00/// 91019=
201712071200 AAXX 07124 67475 41760 51009 10296 20162 48478 71522 81302
                   333 59006 81950 83850 82080 91015=
201712070600 AAXX 07064 67475 32560 70910 10236 20175 48510 81108
                   333 10298 20187 59009 81825 87280
                   555 00/// 91018=
201712050600 AAXX 05064 67475 12460 60904 10235 20183 48529 60054 81478
                   333 10300 20175 59003 81614 81360 85280
                   555 00/// 91021=

################################################################################
#  SYNOPS from 67476, Misamfu (Zambia) | 10-06S | 031-15E | 1536 m
################################################################################
201712290600 AAXX 29064 67476 NIL=
201712270600 AAXX 27064 67476 NIL=
201712210600 AAXX 21064 67476 12980 30000 10189 20178 48/// 60054 83031
                   333 10255 20160 59001 83359 81080
                   555 00167=
201712200900 AAXX 20094 67476 NIL=
201712200600 AAXX 20064 67476 11460 80101 10192 20179 48/// 60244 76162 8467/
                   333 10243 20174 58000 84712 88459
                   555 00180=
201712190600 AAXX 19064 67476 11465 80201 10195 20182 48/// 60314 76166 8467/
                   333 10268 20176 59002 84715 88459
                   555 00184=
201712110600 AAXX 11064 67476 12480 72302 10200 20177 48/// 60024 81631
                   333 10248 20178 5//// 81715 86360 82080
                   555 00182=
201712080600 AAXX 08064 67476 12580 71703 10210 20173 48/// 69904 86531
                   333 10302 20180 58006 86627 83360 81080
                   555 00172=
201712070600 AAXX 07064 67476 32680 30603 10237 20176 48/// 81131
                   333 10296 20185 59008 81831 82360 82080
                   555 00172=
201712010600 AAXX 01064 67476 12580 70903 10220 20178 48/// 60074 82170
                   333 10273 20168 58001 82825 86460
                   555 00181=

################################################################################
#  SYNOPS from 67477, Mpika (Zambia) | 11-54S | 031-26E | 1400 m
################################################################################
201712290600 AAXX 29064 67477 11480 80000 10198 20190 48530 60164 72122 8457/
                   333 10268 20160 58006 84610 86459
                   555 00143=
201712280600 AAXX 28064 67477 12480 82103 10197 20170 48525 69904 885//
                   333 10269 20179 58003 88612
                   555 00162=
201712270600 AAXX 27064 67477 12480 71203 10207 20180 48521 60044 875//
                   333 10259 20170 59009 87612
                   555 00150=
201712260600 AAXX 26064 67477 12480 62702 10209 20160 48530 69904 84570
                   333 10252 20162 58000 84611 84459
                   555 00143=
201712220600 AAXX 22064 67477 12480 31203 10228 20170 48530 60174 81130
                   333 10269 20170 5//// 81814 83359
                   555 00163=
201712210600 AAXX 21064 67477 12480 51202 10223 20160 48542 60124 82130
                   333 10274 20154 58002 82812 84359
                   555 00147=
201712200900 AAXX 20094 67477 NIL=
201712200600 AAXX 20064 67477 12980 82702 10190 20180 48540 60174 8807/
                   333 10236 20173 58028 88459
                   555 00150=
201712180600 AAXX 18064 67477 32480 61203 10217 20160 48525 82131
                   333 10261 20179 59006 82814 83359 83080
                   555 00160=
201712130600 AAXX 13064 67477 11980 80000 10200 20180 48540 60414 72122 8807/
                   333 10256 20171 58011 88459
                   555 00140=
201712080600 AAXX 08064 67477 32480 51206 10216 20160 48520 84501
                   333 10289 20178 58001 84614 83080
                   555 00171=
201712070600 AAXX 07064 67477 32480 71202 10219 20180 48520 87500
                   333 10296 20186 59004 87612
                   555 00173=
201712050600 AAXX 05064 67477 32480 30000 10239 20160 48530 81101
                   333 10297 20156 59004 81814 83080
                   555 00147=

################################################################################
#  SYNOPS from 67481, Isoka (Zambia) | 10-07S | 032-38E | 1360 m
################################################################################
201712290600 AAXX 29064 67481 12480 73002 10196 20180 48/// 69944 875//
                   333 10218 20176 5//// 87610=
201712280600 AAXX 28064 67481 11378 80000 10178 20173 48/// 60614 76166 8177/
                   333 10278 20168 5//// 81706 88460=
201712270600 AAXX 27064 67481 12480 70302 10206 20184 48/// 60044 82537
                   333 10270 20174 59011 82610 83360 87280=
201712260900 AAXX 26094 67481 41578 70904 10228 20189 48/// 76022 8427/
                   333 5//// 84827 87460=
201712260600 AAXX 26064 67481 12480 72102 10218 20191 48/// 60064 8117/
                   333 10260 20176 58000 81810 87360=
201712210600 AAXX 21064 67481 12480 30000 10214 20181 48/// 60054 81130
                   333 10258 20156 59003 81815 83360=
201712200900 AAXX 20094 67481 NIL=
201712200600 AAXX 20064 67481 12480 73602 10186 20176 48/// 60294 8257/
                   333 10256 20178 58003 82610 87460=
201712190900 AAXX 19094 67481 42580 72203 10232 20178 48/// 8317/
                   333 58001 83820 87460=
201712130600 AAXX 13064 67481 11380 81805 10184 20184 48/// 60584 76366 8377/
                   333 10287 20179 58018 83707 88707 88459
                   555 00///=
201712080600 AAXX 08064 67481 12480 51801 10209 20183 48/// 69904 84520
                   333 10302 20180 58006 84610 82361
                   555 00///=
201712070600 AAXX 07064 67481 12480 13604 10224 20180 48/// 69904 81520
                   333 10298 20170 59011 81616 81361
                   555 00///=
201712010900 AAXX 01094 67481 42580 63601 10244 20186 48/// 86200
                   333 59011 83826 83626=
201712010600 AAXX 01064 67481 12480 71002 10200 20183 48/// 60044 87500
                   333 10254 20167 59008 87610=

################################################################################
#  SYNOPS from 67531, Zambezi (Zambia) | 13-32S | 023-07E | 1077 m
################################################################################
201712290600 AAXX 29064 67531 11380 70000 10210 20191 48/// 60124 70362 8167/
                   333 10270 20178 5//// 81707 87460
                   555 00169=
201712270600 AAXX 27064 67531 12980 73604 10215 20196 48/// 60024 70222 8707/
                   333 10300 20195 59004 87361
                   555 00199=
201712260600 AAXX 26064 67531 32980 63303 10227 20194 48/// 70222 8607/
                   333 10275 20190 59004 86361=
201712220600 AAXX 22064 67531 12980 70302 10220 20198 48/// 60044 8703/
                   333 10286 20189 59013 87361
                   555 00193=
201712210600 AAXX 21064 67531 12380 70000 10215 20193 48/// 60024 8177/
                   333 10275 20170 58008 81707 87361
                   555 00175=
201712200900 AAXX 20094 67531 NIL=
201712190600 AAXX 19064 67531 11360 80000 10195 20189 48/// 60174 79596 8577/
                   333 10362 20176 59010 81910 85706 88460
                   555 00180=
201712180600 AAXX 18064 67531 11375 81302 10196 20187 48/// 60134 76166 8577/
                   333 10328 20187 59001 85707 88460
                   555 00210=
201712070600 AAXX 07064 67531 11480 71204 10220 20191 48/// 60034 70366 8117/
                   333 10302 20185 59010 81813 87360
                   555 00193=
201712010600 AAXX 01064 67531 32980 40704 10230 20196 48/// 70200 84030
                   333 10310 20184 59012 82360
                   555 00190=

################################################################################
#  SYNOPS from 67541, Kasempa (Zambia) | 13-32S | 025-51E | 1234 m
################################################################################
201712290600 AAXX 29064 67541 12380 70000 10185 20185 48513 60254 70222 8703/
                   333 10270 20170 58002 87360=
201712280600 AAXX 28064 67541 12380 70504 10205 20193 48510 60024 70222 8353/
                   333 10264 20178 58004 83606 87360=
201712270600 AAXX 27064 67541 11350 70000 10185 20185 48506 60174 76066 8353/
                   333 10300 20180 58005 83706 87360=
201712260600 AAXX 26064 67541 12980 70503 10199 20185 48501 60024 70222 87030
                   333 10294 20172 58003 87360=
201712210600 AAXX 21064 67541 12980 70502 10210 20198 48508 69924 70222 87030
                   333 10282 20178 58003 87360=
201712200900 AAXX 20094 67541 NIL=
201712200600 AAXX 20064 67541 12380 70000 10205 20194 48505 60034 70222 8253/
                   333 10290 20180 59002 82607 87360=
201712180600 AAXX 18064 67541 12980 60000 10195 20190 48508 60134 70222 86030
                   333 10298 20162 59004 86360=
201712070600 AAXX 07064 67541 11360 70000 10183 20183 48509 60244 76066 8353/
                   333 10280 20170 58008 83706 87360
                   555 00///=

################################################################################
#  SYNOPS from 67543, Kabompo (Zambia) | 13-36S | 024-12E | 1075 m
################################################################################
201712290600 AAXX 29064 67543 12380 80000 10206 20193 48/// 60024 70226 8567/
                   333 10276 20198 58010 85707 88460
                   555 00182=
201712270600 AAXX 27064 67543 11375 80000 10206 20200 48/// 60124 72122 8367/
                   333 10296 20196 59003 83707 88460
                   555 00186=
201712260600 AAXX 26064 67543 12380 70000 10202 20184 48/// 69904 8563/
                   333 10275 20184 58000 85707 86360
                   555 00178=
201712210600 AAXX 21064 67543 12380 70000 10204 20194 48/// 60304 876//
                   333 10302 20192 58008 87707
                   555 00172=
201712200900 AAXX 20094 67543 NIL=
201712190600 AAXX 19064 67543 32383 83001 10212 20195 48/// 886//
                   333 10312 20198 59013 88706
                   555 00178=
201712180600 AAXX 18064 67543 12480 70000 10204 20201 48/// 60054 875//
                   333 10318 20198 59010 87615
                   555 00184=
201712070600 AAXX 07064 67543 12380 70000 10200 20188 48/// 60104 8267/
                   333 10320 20190 59005 82707 87360
                   555 00176=
201712050600 AAXX 05064 67543 11365 70000 10192 20183 48/// 60044 72844 8567/
                   333 10332 20180 58001 85707 87460
                   555 00168=
201712010600 AAXX 01064 67543 12383 70000 10214 20200 48/// 60044 876//
                   333 10302 20194 59014 87707
                   555 00182=

################################################################################
#  SYNOPS from 67551, Solwezi (Zambia) | 12-11S | 026-23E | 1386 m
################################################################################
201712290600 AAXX 29064 67551 11358 70000 10185 20182 48537 60014 76062 877//
                   333 10268 20//0 58015 87706
                   555 00219 91020=
201712280600 AAXX 28064 67551 12380 80000 10201 20186 48513 60024 8677/
                   333 10262 20//0 58004 86706 88360
                   555 00221 91019=
201712270600 AAXX 27064 67551 32375 81730 10191 20183 48514 8677/
                   333 10268 20/// 58002 86704 88362
                   555 00218 91018=
201712260600 AAXX 26064 67551 12980 73003 10190 20175 48512 60094 87030
                   333 10206 20//0 58000 87362
                   555 00200 91018=
201712210600 AAXX 21064 67551 12980 70000 10201 20184 48526 60064 87030
                   333 10231 2//// 59007 87362
                   555 00226 91012=
201712200900 AAXX 20094 67551 NIL=
201712200600 AAXX 20064 67551 12380 83003 10190 20179 48523 60044 8367/
                   333 10314 20//0 58009 83704 88362
                   555 00218 91019=
201712190600 AAXX 19064 67551 11368 80000 10181 20179 48516 60164 76166 8377/
                   333 10360 2//// 59004 83604 88362
                   555 00212 91019=
201712180600 AAXX 18064 67551 32975 73403 10201 20175 48516 86030
                   333 10272 20/// 59007 86362
                   555 00221 91019=
201712010600 AAXX 01064 67551 12975 70000 10188 20179 48531 60064 87030
                   333 10224 20//0 59007 87362
                   555 00220 91020=

################################################################################
#  SYNOPS from 67561, Ndola (Zambia) | 13-00S | 028-39E | 1269 m
################################################################################
201712290600 AAXX 29064 67561 11360 70000 10210 20188 48530 60064 70522 86638
                   333 10253 20177 58015 86708 82360 87280 91020=
201712270600 AAXX 27064 67561 11258 81607 10191 20185 48517 60214 76196 8377/
                   333 10278 20188 59002 83703 88459 91019=
201712260900 AAXX 26094 67561 41570 70406 10232 20193 48515 70522 8623/
                   333 58000 86820 87360 91018=
201712220600 AAXX 22064 67561 11375 21004 10230 20197 48524 60134 72864 81630
                   333 10278 20179 59011 81707 82360 91019=
201712211500 AAXX 21154 67561 41670 60103 10256 20176 48489 70522 83268
                   333 59004 81940 83845 83360 86280 91016=
201712210600 AAXX 21064 67561 11360 62502 10213 20183 48534 60014 70562 83530
                   333 10273 20178 58009 83609 87360 91021=
201712200900 AAXX 20094 67561 NIL=
201712190600 AAXX 19064 67561 11275 70607 10204 20188 48511 60014 70522 85670
                   333 10304 20189 59013 85704 87460 91018=
201712180600 AAXX 18064 67561 11375 70605 10206 20191 48524 60244 70522 876//
                   333 10285 20175 59003 87709 91020=
201712010900 AAXX 01094 67561 42480 70000 10234 20186 48501 70162 84230
                   333 59009 84818 87360 91020=
201712010600 AAXX 01064 67561 11280 71003 10196 20182 48536 60224 76062 8277/
                   333 10270 20179 59003 82705 87460 91021=

################################################################################
#  SYNOPS from 67563, Kafironda (Zambia) | 12-36S | 028-07E | 1243 m
################################################################################
201712290600 AAXX 29064 67563 11978 70201 10212 20190 48/// 60074 72162 87070
                   333 10277 20181 58014 87358
                   555 00181=
201712280600 AAXX 28064 67563 11578 81201 10206 20190 48/// 60424 70522 885//
                   333 10281 20174 5//// 88620
                   555 00124=
201712270600 AAXX 27064 67563 11378 80000 10197 20190 48/// 69904 76062 887//
                   333 10288 20176 5//// 88709
                   555 00177=
201712260600 AAXX 26064 67563 11378 80000 10204 20190 48/// 60114 70522 8377/
                   333 10295 20182 5//// 83709 88358
                   555 00182=
201712220600 AAXX 22064 67563 11978 11802 10230 20200 48/// 69904 72840 81030
                   333 10286 20160 59012 81359
                   555 00163=
201712210600 AAXX 21064 67563 11378 21502 10190 20190 48/// 60014 70500 81630
                   333 10280 20181 5//// 81708 82359
                   555 00182=
201712200900 AAXX 20094 67563 NIL=
201712130600 AAXX 13064 67563 11375 70000 10230 20200 48/// 60104 86630
                   333 10281 20180 58010 86710 81360
                   555 00188=
201712110600 AAXX 11064 67563 11378 82802 10201 20180 48/// 60834 72162 8477/
                   333 10281 20175 5//// 84708 88358
                   555 00180=
201712050600 AAXX 05064 67563 12670 70000 10210 20195 48/// 60034 81970
                   333 10282 20170 59004 81930 87358
                   555 00170=
201712010600 AAXX 01064 67563 11375 70000 10225 20188 48/// 60354 70562 85770
                   333 10265 20173 59007 82708 83610 86359
                   555 00177=

################################################################################
#  SYNOPS from 67571, Serenje (Zambia) | 13-14S | 030-13E | 1384 m
################################################################################
201712290600 AAXX 29064 67571 12582 71205 10220 20171 48/// 60034 70222 8153/
                   333 10261 20181 5//// 81620 87360=
201712280600 AAXX 28064 67571 11582 70906 10195 20172 48/// 60014 72052 875//
                   333 10247 20180 5//// 87620
                   555 00236=
201712270600 AAXX 27064 67571 11481 70908 10200 20177 48/// 60144 75052 875//
                   333 10285 20185 5//// 87615
                   555 00220=
201712260600 AAXX 26064 67571 11375 83003 10187 20182 48/// 60074 76166 8677/
                   333 10263 20181 5//// 86707 88459
                   555 00196=
201712220900 AAXX 22094 67571 41682 73603 10264 20166 48/// 71799 872//
                   333 5//// 81935 87835=
201712220600 AAXX 22064 67571 12982 10903 10245 20196 48/// 69904 70200 81030
                   333 10285 20190 5//// 81360
                   555 00260=
201712210600 AAXX 21064 67571 12482 72702 10196 20182 48/// 60034 70222 875//
                   333 10260 20181 5//// 87617
                   555 00228=
201712200900 AAXX 20094 67571 NIL=
201712181200 AAXX 18124 67571 41682 71205 10220 20198 48/// 72162 8137/
                   333 5//// 81935 81835 87360=
201712180900 AAXX 18094 67571 42682 73602 10250 20177 48/// 70222 872//
                   333 5//// 81930 87830=
201712130600 AAXX 13064 67571 11480 83603 10195 20183 48/// 60034 75052 887//
                   333 10276 20175 5//// 88710
                   555 00214=
201712110600 AAXX 11064 67571 12482 73602 10193 20176 48/// 60344 8153/
                   333 10278 20175 5//// 81615 87360
                   555 00214=
201712070600 AAXX 07064 67571 12582 70908 10211 20173 48/// 69914 875//
                   333 10292 20191 5//// 87620
                   555 00230=
201712010600 AAXX 01064 67571 12582 70902 10197 20176 48/// 60204 70222 8157/
                   333 10247 20176 5//// 81620 87360
                   555 00215=

################################################################################
#  SYNOPS from 67575, Mkushi (Zambia) | 13-38-00S | 029-26-00E | 1237 m
################################################################################
201712290600 AAXX 29064 67575 NIL=
201712270600 AAXX 27064 67575 NIL=
201712210600 AAXX 21064 67575 NIL=
201712200900 AAXX 20094 67575 NIL=

################################################################################
#  SYNOPS from 67580, Msekera (Zambia) | 13-39S | 032-34E | 1025 m
################################################################################
201712290600 AAXX 29064 67580 12680 71503 10220 20200 48/// 60094 83831
                   333 10280 20198 58009 81830 82632 85360 83080=
201712280600 AAXX 28064 67580 12580 71505 10218 20183 48/// 69944 87831
                   333 10269 20193 59003 82820 85622 81360 81080=
201712270600 AAXX 27064 67580 12580 71203 10222 20197 48/// 60034 85838
                   333 10295 20200 59001 81822 83624 83360 84280=
201712220900 AAXX 22094 67580 42780 73603 10280 20194 48/// 87230
                   333 59015 87850 81361=
201712210600 AAXX 21064 67580 12580 30305 10214 20169 48/// 69944 81131
                   333 10295 20189 58001 81824 82361 81080=
201712200900 AAXX 20094 67580 41580 70304 10224 20188 48/// 76022 8213/
                   333 58032 82824 87360=
201712200600 AAXX 20064 67580 12980 70904 10208 20196 48/// 60134 8703/
                   333 10300 20190 58030 87360=
201712190900 AAXX 19094 67580 42680 70303 10254 20205 48/// 87230
                   333 59005 87840 83360=
201712130600 AAXX 13064 67580 11980 80000 10196 20185 48/// 60344 76162 8807/
                   333 10300 20192 58014 88460
                   555 00///=
201712110600 AAXX 11064 67580 12580 71804 10213 20206 48/// 60474 8183/
                   333 10308 20195 58011 81822 81624 87360
                   555 00///=
201712080600 AAXX 08064 67580 12680 51505 10242 20179 48/// 69904 81131
                   333 10299 20200 5//// 81830 82360 83080
                   555 00///=
201712071200 AAXX 07124 67580 41680 70904 10230 20193 48/// 79592 81938
                   333 58010 81948 86848 83360 84280=
201712070600 AAXX 07064 67580 32680 71105 10248 20192 48/// 84801
                   333 10334 20202 59004 82830 82632 86080
                   555 00///=
201712050600 AAXX 05064 67580 32680 41104 10276 20194 48/// 83101
                   333 10344 20207 59002 83834 82080
                   555 00///=

################################################################################
#  SYNOPS from 67581, Chipata (Zambia) | 13-33S | 032-35E | 1028 m
################################################################################
201712290600 AAXX 29064 67581 NIL=
201712270600 AAXX 27064 67581 12580 81503 10228 20193 48531 60244 8557/
                   333 10286 20191 59002 85625 88460 91018=
201712260600 AAXX 26064 67581 11560 80000 10226 20200 48533 69904 76152 8457/
                   333 10283 20177 58014 84625 88459 91018=
201712210600 AAXX 21064 67581 12680 33503 10246 20162 48553 69934 81132
                   333 10280 20192 58000 81835 82360 81080 91021=
201712200900 AAXX 20094 67581 NIL=
201712190600 AAXX 19064 67581 12680 63204 10247 20195 48530 60274 86830
                   333 10266 20187 59005 83832 83635 86360 91018=
201712180600 AAXX 18064 67581 32680 51203 10244 20181 48535 83132
                   333 10289 20179 59016 83830 83360 82080 91018=
201712080600 AAXX 08064 67581 32980 41206 10249 20164 48535 84030
                   333 10320 20199 58004 84360
                   555 00/// 91019=
201712070600 AAXX 07064 67581 12680 71203 10253 20184 48531 69904 83108
                   333 10320 20198 59003 83835 86280
                   555 00/// 91018=
201712050600 AAXX 05064 67581 32680 30603 10278 20186 48544 83102
                   333 10329 20208 59003 83835 82080
                   555 00/// 91017=

################################################################################
#  SYNOPS from 67583, Lundazi (Zambia) | 12-17S | 033-12E | 1143 m
################################################################################
201712290600 AAXX 29064 67583 11380 70000 10212 20196 48/// 60124 76100 8173/
                   333 10268 20174 5//// 81708 87359=
201712270600 AAXX 27064 67583 12980 70000 10218 20206 48/// 60444 8707/
                   333 10320 20160 5//// 87360=
201712260600 AAXX 26064 67583 32980 72802 10230 20198 48/// 8707/
                   333 10280 20196 5//// 87360=
201712210600 AAXX 21064 67583 31980 10000 10258 20195 48/// 81030
                   333 10270 20120 5//// 81360=
201712200900 AAXX 20094 67583 NIL=
201712190600 AAXX 19064 67583 32680 73603 10236 20191 48/// 81138
                   333 10334 20193 5//// 81830 82360 86280=
201712130600 AAXX 13064 67583 11580 80000 10202 20192 48/// 60114 70262 8157/
                   333 10306 20175 5//// 81625 87460
                   555 00///=
201712110600 AAXX 11064 67583 12380 70000 10216 20205 48/// 60024 8177/
                   333 10312 20186 5//// 81708 87359
                   555 00///=
201712080600 AAXX 08064 67583 12580 71602 10228 20191 60064 878//
                   333 10294 20185 5//// 82825 86626
                   555 00///=
201712050600 AAXX 05064 67583 32680 40000 10278 20203 48/// 83201
                   333 10346 20182 5//// 83830 81080
                   555 00///=

################################################################################
#  SYNOPS from 67599, Mfuwe (Zambia) | 13-16S | 031-56E | 568 m
################################################################################
201712290600 AAXX 29064 67599 11380 80000 10235 20221 48528 60024 75022 8277/
                   333 10317 20219 58009 82708 88459
                   555 00221 91017=
201712280600 AAXX 28064 67599 12580 72205 10252 20207 48526 60014 875//
                   333 10300 20212 59002 87625
                   555 00219 91016=
201712270600 AAXX 27064 67599 12280 70000 10244 20228 48536 60234 8173/
                   333 10335 20210 58000 82604 87358
                   555 00220 91016=
201712260600 AAXX 26064 67599 12280 70000 10245 20232 48525 69944 8177/
                   333 10300 20225 58015 81604 86358
                   555 00240 91016=
201712220600 AAXX 22064 67599 32980 50803 10285 20228 48539 85030
                   333 10354 20228 59019 85360
                   555 00224 91016=
201712210600 AAXX 21064 67599 32980 30000 10266 20207 48550 83030
                   333 10319 20202 58000 83360
                   555 00202 91018=
201712200900 AAXX 20094 67599 NIL=
201712200600 AAXX 20064 67599 11360 70000 10233 20214 48540 60474 72162 8157/
                   333 10350 20201 58030 81610 87460
                   555 00206 91018=
201712190600 AAXX 19064 67599 12480 70603 10247 20221 48519 69904 8457/
                   333 10320 20223 59011 84615 87459
                   555 00229 91015=
201712180600 AAXX 18064 67599 12480 60000 10260 20233 48533 60104 86230
                   333 10334 20210 59004 86815 82360
                   555 00215 91016=
201712130600 AAXX 13064 67599 11460 80301 10//0 20207 48535 60104 75052 8552/
                   333 10335 20204 58013 85618 88458
                   555 00219 91018=
201712110600 AAXX 11064 67599 11280 80000 10241 20223 48528 60104 72052 8177/
                   333 10350 20//0 58009 81708 88460
                   555 00220 91017=
201712080600 AAXX 08064 67599 12970 51705 10268 20211 48534 60024 85031
                   333 10316 20208 58006 85360 81080
                   555 00212 91016=
201712070600 AAXX 07064 67599 12670 61503 10272 20207 48528 60014 82131
                   333 10330 20208 59002 82830 83360 86080
                   555 00214=
201712010600 AAXX 01064 67599 12670 61504 10264 20197 48548 60034 83231
                   333 10320 20212 59015 83230 85359 81080
                   555 00225 91018=

################################################################################
#  SYNOPS from 67625, Kalabo (Zambia) | 14-51S | 022-42E | 1033 m
################################################################################
201712290600 AAXX 29064 67625 12982 83603 10205 20190 48/// 60054 87074
                   333 10231 20189 58028 87360 88075
                   555 00192=
201712280600 AAXX 28064 67625 11982 80903 10183 20183 48/// 60954 76166 8802/
                   333 10221 20180 58004 88460
                   555 00186=
201712270600 AAXX 27064 67625 11482 80901 10215 20209 48/// 69964 75052 8562/
                   333 10273 20199 59009 85710 88460
                   555 00198=
201712260900 AAXX 26094 67625 41482 83607 10240 20210 48/// 72052 85223
                   333 5//// 83710 85822 87460 88075=
201712260600 AAXX 26064 67625 12480 81801 10211 20202 48/// 60034 84633
                   333 10296 20200 58002 84710 87360 88075
                   555 00188=
201712210600 AAXX 21064 67625 32480 43507 10229 20196 48/// 83133
                   333 10286 20208 58013 83815 83361 84075
                   555 00200=
201712200900 AAXX 20094 67625 42482 82703 10249 20202 48/// 86133
                   333 59017 81919 86820 86361 88075=
201712200600 AAXX 20064 67625 12982 80603 10209 20196 48/// 60024 87073
                   333 10296 20195 58007 87361 88075
                   555 00194=
201712190900 AAXX 19094 67625 42582 81801 10279 20212 48/// 81133
                   333 59020 81828 86361 88075=
201712180900 AAXX 18094 67625 42982 63504 10269 20196 48/// 85033
                   333 5//// 85361 86075=
201712180600 AAXX 18064 67625 12982 73604 10201 20188 48/// 60154 85073
                   333 10319 20185 59012 85360 87075
                   555 00192=
201712110600 AAXX 11064 67625 12382 83303 10205 20198 48/// 60124 82633
                   333 10278 20188 58006 82709 84361 88075
                   555 00188=
201712080600 AAXX 08064 67625 11382 81702 10205 20195 48/// 69924 75052 8472/
                   333 10292 20200 59017 84708 88460
                   555 00202=
201712070600 AAXX 07064 67625 12982 70304 10210 20188 48/// 60464 8707/
                   333 10311 20186 59012 87360
                   555 00210=
201712050600 AAXX 05064 67625 11982 71306 10200 20196 48/// 60024 72055 86078
                   333 10312 20193 59008 86360 87075
                   555 00199=
201712010900 AAXX 01094 67625 42682 51304 10300 20185 48/// 82104
                   333 5//// 82845 85065=

################################################################################
#  SYNOPS from 67633, Mongu (Zambia) | 15-15S | 023-09E | 1052 m
################################################################################
201712290600 AAXX 29064 67633 12980 70702 10214 20195 48524 60034 70222 8703/
                   333 10256 20197 58014 87360 91019=
201712280600 AAXX 28064 67633 11980 80502 10180 20117 48500 60634 76066 8807/
                   333 10217 20177 58017 88460 91017=
201712270600 AAXX 27064 67633 11980 80000 10211 20204 48495 60014 75022 8807/
                   333 10289 20201 59009 88460 91015=
201712260600 AAXX 26064 67633 11980 83602 10218 20208 48497 60064 75055 8807/
                   333 10289 20200 58006 88460 91016=
201712220600 AAXX 22064 67633 12680 63604 10230 20201 48527 60084 70222 86330
                   333 10302 20205 59013 84730 82360 91017=
201712210600 AAXX 21064 67633 NIL=
201712200900 AAXX 20094 67633 NIL=
201712190600 AAXX 19064 67633 12980 60903 10235 20207 48508 60224 70222 86031
                   333 10309 20205 58003 84360 82080 91016=
201712130600 AAXX 13064 67633 12380 63602 10210 20194 48513 69974 84638
                   333 10304 20187 58005 84709 82360 82280
                   555 00/// 91017=
201712080600 AAXX 08064 67633 32980 80902 10228 20195 48518 8807/
                   333 10303 20205 58006 88460
                   555 00/// 91018=
201712070600 AAXX 07064 67633 12980 70901 10205 20190 48505 60334 8707/
                   333 10304 20186 59007 87460
                   555 00/// 91017=
201712050600 AAXX 05064 67633 11980 81802 10190 20188 48521 60204 76066 87078
                   333 10216 20189 58001 87460 81280
                   555 00/// 91019=
201712010600 AAXX 01064 67633 32980 30305 10260 20204 48543 70200 83031
                   333 10328 20183 59010 82360 81080=

################################################################################
#  SYNOPS from 67641, Kaoma (Zambia) | 14-48S | 024-48E | 1213 m
################################################################################
201712290600 AAXX 29064 67641 12680 71601 10197 20194 48511 60144 70252 83530
                   333 10246 20184 58017 83630 87360 91017=
201712280600 AAXX 28064 67641 12980 70302 10208 20196 48496 60094 8253/
                   333 10248 20192 58003 82630 87360 91015=
201712270600 AAXX 27064 67641 11678 80901 10186 20183 48491 60454 76166 8657/
                   333 10294 20177 58007 86630 87460 91015=
201712260600 AAXX 26064 67641 12580 62902 10213 20194 48487 60054 81530
                   333 10291 20194 59002 81620 86360 91014=
201712210600 AAXX 21064 67641 12680 72701 10217 20200 48509 60054 81532
                   333 10274 20185 58003 81630 81360 85280 91016=
201712200900 AAXX 20094 67641 NIL=
201712200600 AAXX 20064 67641 12680 80000 10210 20203 48506 60084 875//
                   333 10316 20196 58017 87630 91016=
201712190600 AAXX 19064 67641 32980 32704 10255 20201 48493 81031
                   333 10326 20196 59013 81360 82080 91014=
201712130600 AAXX 13064 67641 32980 73202 10214 20179 48504 86032
                   333 10277 20181 58006 86360 82080
                   555 00/// 91016=
201712110600 AAXX 11064 67641 12680 40902 10218 20192 48506 60064 81130
                   333 10232 20185 58003 81830 84360
                   555 00/// 91017=
201712080600 AAXX 08064 67641 12980 70902 10219 20196 48503 8283/
                   333 10276 20191 59007 81820
                   555 00/// 91016=
201712070600 AAXX 07064 67641 11580 71310 10195 20186 48507 60034 75055 8253/
                   333 10316 20186 59001 82620 87360
                   555 00/// 91017=

################################################################################
#  SYNOPS from 67655, Mumbwa (Zambia) | 15-04S | 027-11E | 1216 m
################################################################################
201712290600 AAXX 29064 67655 NIL=
201712270600 AAXX 27064 67655 11558 80000 10185 20185 48534 60424 76162 862//
                   333 10242 20126 58016 86820 91020=
201712210600 AAXX 21064 67655 NIL=
201712200900 AAXX 20094 67655 NIL=
201712180600 AAXX 18064 67655 32480 30609 10225 20198 48541 83600
                   333 10322 20177 59002 83708 91020=
201712130600 AAXX 13064 67655 12980 71009 10204 20186 48532 60154 8603/
                   333 10282 20166 58008 86360
                   555 00/// 91020=
201712110600 AAXX 11064 67655 12380 70000 10205 20194 48525 60144 8162/
                   333 10283 20162 59025 81706 87459
                   555 00/// 91020=
201712080600 AAXX 08064 67655 12980 81209 10202 20182 48541 60014 8603/
                   333 10295 20178 58007 86360
                   555 00/// 91021=
201712071200 AAXX 07124 67655 41680 71005 10265 20192 48509 873//
                   333 59004 82980 85830=
201712070600 AAXX 07064 67655 12480 71008 10220 20197 48536 69904 85238
                   333 10298 20182 59000 85810 83360 86280
                   555 00/// 91020=
201712050600 AAXX 05064 67655 12980 00000 10238 20197 48534 60034 8603/
                   333 10310 20190 59003 86359
                   555 00///=

################################################################################
#  SYNOPS from 67659, Kafue Polder (Zambia) | 15-46S | 027-55E | 978 m
################################################################################
201712290600 AAXX 29064 67659 NIL=
201712280600 AAXX 28064 67659 12480 71504 10217 20194 48/// 60024 70222 84530
                   333 10252 20188 59007 84615 83360=
201712270600 AAXX 27064 67659 12980 71905 10207 20201 48/// 60744 70222 85530
                   333 10324 20190 58017 85610 82360=
201712220600 AAXX 22064 67659 12580 51904 10253 20214 48/// 60014 70322 84230
                   333 10299 20200 59015 84825 81360=
201712210600 AAXX 21064 67659 12480 71703 10220 20206 48/// 60104 70222 84530
                   333 10328 20193 58011 84610 83360=
201712200900 AAXX 20094 67659 NIL=
201712200600 AAXX 20064 67659 31580 82005 10225 20211 48/// 76262 8453/
                   333 10336 20192 58006 81920 83625 84360=
201712180600 AAXX 18064 67659 32580 21505 10252 20195 48/// 70322 82200
                   333 10285 20170 59009 82825=
201712110600 AAXX 11064 67659 12380 81804 10220 20210 48/// 60014 85630
                   333 10310 20190 83360
                   555 00///=
201712080600 AAXX 08064 67659 32480 51806 10249 20185 48/// 84230
                   333 10313 20190 58000 84820 81360
                   555 00///=
201712050600 AAXX 05064 67659 32480 41504 10254 20254 48/// 81201
                   333 10340 20171 59003 81815 83080
                   555 00///=

################################################################################
#  SYNOPS from 67662, Kabwe Agric (Zambia) | 14-24S | 028-30E | 1165 m
################################################################################
201712290600 AAXX 29064 67662 NIL=
201712280600 AAXX 28064 67662 12380 70901 10203 20186 48/// 60024 877//
                   333 10246 20172 5//// 87708
                   555 00168=
201712270600 AAXX 27064 67662 NIL=
201712260600 AAXX 26064 67662 12980 80302 10208 20193 48/// 60464 8807/
                   333 10300 20172 5//// 88460
                   555 00169=
201712210600 AAXX 21064 67662 12480 73602 10206 20183 48/// 60124 84530
                   333 10275 20175 5//// 84616 85360
                   555 00168=
201712200900 AAXX 20094 67662 NIL=
201712200600 AAXX 20064 67662 11660 83604 10180 20173 48/// 60424 79596 8197/
                   333 10295 20176 5//// 81944 88460
                   555 00172=
201712190600 AAXX 19064 67662 32480 70902 10240 20194 48/// 875//
                   333 10300 20199 5//// 87618
                   555 00186=
201712180600 AAXX 18064 67662 32980 60506 10230 20194 48/// 83138
                   333 10273 20166 5//// 83816 82360 86280
                   555 00160=
201712130600 AAXX 13064 67662 12380 73503 10199 20192 48/// 60154 86670
                   333 10265 20184 86708 87360
                   555 00178=
201712050600 AAXX 05064 67662 32680 70904 10230 20193 48/// 8197/
                   333 10313 20184 81940 87360
                   555 00178=
201712010600 AAXX 01064 67662 12480 71504 10224 20197 48/// 60014 85530
                   333 10270 20180 5//// 85615 87360
                   555 00164=

################################################################################
#  SYNOPS from 67663, Kabwe (Zambia) | 14-27S | 028-28E | 1206 m
################################################################################
201712290600 AAXX 29064 67663 NIL=
201712280600 AAXX 28064 67663 12480 80605 10198 20186 48592 60024 8357/
                   333 10241 20182 59006 83618 87460
                   555 00218=
201712270600 AAXX 27064 67663 11980 81909 10185 20181 48597 60754 76166 8807/
                   333 10295 20164 58028 88460
                   555 00202=
201712260600 AAXX 26064 67663 12980 80504 10205 20190 48572 60264 8807/
                   333 10237 20188 59004 88460
                   555 00222=
201712220600 AAXX 22064 67663 12980 30405 10230 20201 48577 69904 83030
                   333 10268 20196 59001 83360
                   555 00264=
201712210600 AAXX 21064 67663 12480 60206 10200 20185 48575 60234 83538
                   333 10270 20180 58011 83618 83360 86280
                   555 00230=
201712200900 AAXX 20094 67663 NIL=
201712190600 AAXX 19064 67663 12480 50812 10228 20197 48553 60014 84532
                   333 10299 20198 59015 84619 81360 81080=
201712180600 AAXX 18064 67663 32480 30813 10221 20186 48566 81102
                   333 10267 20174 58002 81817 82080
                   555 00250=
201712010600 AAXX 01064 67663 11480 50809 10194 20186 48540 60034 72166 82530
                   333 10262 20181 59084 82617 84360
                   555 00212=

################################################################################
#  SYNOPS from 67665, Lusaka Internationalairport (Zambia) | 15-19S | 028-27E | 1152 m
################################################################################
201712310600 AAXX 31064 67665 32980 20903 10228 20178 48532 70200 80001
                   333 59010 82080 91020=
201712300900 AAXX 30094 67665 42680 40608 10257 20172 48545 84501
                   333 58005 84630 82080=
201712300600 AAXX 30064 67665 42980 30503 10224 20179 48541 80002
                   333 10290 58000 83080
                   555 00///=
201712300300 AAXX 30034 67665 42380 22303 10183 20174 48522 81630
                   333 59002 81706 81360 91019=
201712300000 AAXX 30004 67665 42980 21102 10187 20165 48515 82030
                   333 58002 82360=
201712292100 AAXX 29214 67665 42980 30000 10206 20191 48529 83030
                   333 59003 83360 91019=
201712291800 AAXX 29184 67665 42980 20908 10228 20187 48520 70100 80001
                   333 58006 82080 91018=
201712290600 AAXX 29064 67665 NIL=
201712282100 AAXX 28214 67665 42960 30000 10193 20176 48523 83030
                   333 59000 83360=
201712281800 AAXX 28184 67665 42760 31004 10215 20185 48512 81332
                   333 10256 59009 81956 82360 81080=
201712281500 AAXX 28154 67665 42660 61205 10246 20178 48500 83232
                   333 59009 83840 85360 81080
                   555 10256 91016=
201712281200 AAXX 28124 67665 42560 80906 10243 20182 48515 8653/
                   333 58008 86625 88360=
201712280900 AAXX 28094 67665 42860 81111 10226 20187 48526 70222 8657/
                   333 58001 86615 88459 91019=
201712280600 AAXX 28064 67665 12380 81005 10197 20182 48527 60014 70322 8567/
                   333 10247 20//0 59005 85709 87459=
201712280300 AAXX 28034 67665 42980 61007 10186 20174 48514 70322 86030
                   333 59008 86360=
201712280000 AAXX 28004 67665 42980 41105 10190 20175 48514 70222 84030
                   333 58003 84360=
201712271500 AAXX 27154 67665 41660 60104 10226 20178 48507 72522 83231
                   333 10247 20//0 58024 83840 84360 81080=
201712271200 AAXX 27124 67665 42560 71305 10242 20198 48507 70122 8557/
                   333 58009 85630 87459=
201712270900 AAXX 27094 67665 41460 80605 10216 20186 48524 72162 8557/
                   333 58006 85620 88459 91019=
201712270600 AAXX 27064 67665 NIL=
201712270300 AAXX 27034 67665 41359 81105 10181 20181 48520 76166 8377/
                   333 58021 83708 88459=
201712270000 AAXX 27004 67665 41/59 80906 10182 20182 48510 76166 8197/
                   333 58011 85708 819// 87458=
201712262100 AAXX 26214 67665 41/59 81105 10196 20196 48513 79599 8197/
                   333 59001 83706 819// 86458=
201712261800 AAXX 26184 67665 41780 61408 10233 20195 48508 71322 81931
                   333 10290 58000 81956 85360 82080=
201712261500 AAXX 26154 67665 42680 50204 10275 20178 48489 70222 84230
                   333 59003 84845 83360=
201712261200 AAXX 26124 67665 42680 63005 10262 20179 48500 70222 85230
                   333 59007 85830 84360=
201712251800 AAXX 25184 67665 41/80 23603 10200 20185 48504 71320 81332
                   333 58008 819// 81359 82080=
201712251500 AAXX 25154 67665 42680 60202 10225 20187 48486 81302
                   333 58009 81933 86080=
201712251200 AAXX 25124 67665 42580 73105 10197 20179 48500 70192 8137/
                   333 58019 81925 81825 85360 83460=
201712250600 AAXX 25064 67665 32580 81204 10210 20178 48521 70322 84577
                   333 58016 84620 85360 88280=
201712242100 AAXX 24214 67665 42980 03003 10215 20193 48510 70200
                   333 59011 91017=
201712240900 AAXX 24094 67665 42480 42606 10261 20169 48514 82232
                   333 58000 82815 81360 84080=
201712240600 AAXX 24064 67665 12380 62404 10212 20179 48505 60064 81732
                   333 10299 20//0 59007 81708 86360 82080=
201712240000 AAXX 24004 67665 41760 70000 10191 20158 48499 71392 8197/
                   333 58002 81956 87459=
201712231800 AAXX 23184 67665 41759 70307 10209 20187 48499 79592 81971
                   333 58007 81956 85459 83080=
201712231500 AAXX 23154 67665 42680 52103 10291 20162 48481 70222 83230
                   333 59006 83845 85360=
201712231200 AAXX 23124 67665 42680 42604 10283 20161 48491 70300 83130
                   333 59017 83830 82360=
201712222100 AAXX 22214 67665 42980 50000 10213 20182 48501 85030
                   333 59028 85360=
201712221800 AAXX 22184 67665 42760 61502 10231 20186 48495 70282 8197/
                   333 10301 81956 87459=
201712221200 AAXX 22124 67665 42680 50406 10282 20176 48508 85200
                   333 59021 85838=
201712220900 AAXX 22094 67665 42580 60309 10269 20181 48529 85631
                   333 59009 85625 81360 81080=
201712220600 AAXX 22064 67665 31480 50805 10224 20204 48532 60034 70222 84530
                   333 10235 20//0 59009 84618 83360=
201712220300 AAXX 22034 67665 42380 51203 10199 20184 48523 72522 84670
                   333 59005 84609 85459=
201712220000 AAXX 22004 67665 42980 30000 10196 20181 48521 70300 83030
                   333 59004 83360=
201712212100 AAXX 21214 67665 42980 20101 10196 20181 48527 70100 82030
                   333 59010 82360=
201712211800 AAXX 21184 67665 42960 61205 10203 20180 48516 70300 82031
                   333 58004 82360 85080=
201712211200 AAXX 21124 67665 42260 70403 10229 20191 48522 70222 84720
                   333 58001 84720 87459=
201712210900 AAXX 21094 67665 41360 81204 10208 20194 48536 76162 8377/
                   333 58000 83708 81925 88459=
201712210600 AAXX 21064 67665 NIL=
201712210000 AAXX 21004 67665 42980 31302 10206 20196 48526 83030
                   333 58015 83360=
201712202100 AAXX 20214 67665 42980 50802 10220 20202 48540 81930
                   333 58022 819// 84360=
201712201800 AAXX 20184 67665 42780 51803 10243 20191 49519 71322 81931
                   333 10272 81956 83360 82080=
201712201500 AAXX 20154 67665 42780 53102 10265 20183 48510 70222 83231
                   333 58022 83850 83360 83080=
201712201200 AAXX 20124 67665 42680 60203 10259 20194 48525 70322 85230
                   333 58026 85835 84360=
201712200900 AAXX 20094 67665 NIL=
201712200300 AAXX 20034 67665 41580 42703 10204 20189 48508 71390 81300
                   333 58009 81925 84625=
201712200000 AAXX 20004 67665 41/80 10000 10197 20190 48510 71390 81300
                   333 58014 819//=
201712192100 AAXX 19214 67665 42980 00000 10212 20194 48516
                   333 58017=
201712191800 AAXX 19184 67665 42960 32705 10221 20194 48510 81930
                   333 58018 819// 82360=
201712191500 AAXX 19154 67665 42680 60608 10292 20166 48490 81900
                   333 58002 81950 85848=
201712191200 AAXX 19124 67665 42680 50608 10288 20182 48503 85200
                   333 59006 85840=
201712190900 AAXX 19094 67665 42580 60507 10265 20175 48524 70322 85530
                   333 59008 85625 83360=
201712190600 AAXX 19064 67665 32580 20509 10240 20180 48517 70300 82130
                   333 59019 82825 81360 91018=
201712180900 AAXX 18094 67665 42580 50206 10255 20172 48530 85101
                   333 59016 85825 81080=
201712180600 AAXX 18064 67665 32480 20904 10220 20183 48533 81131
                   333 10282 20//0 59010 81810 81360 81080
                   555 00///=
201712180300 AAXX 18034 67665 42980 21701 10170 20155 48516 70300 81031
                   333 59016 81360 81080=
201712180000 AAXX 18004 67665 42980 01202 10177 20161 48513
                   333 59024=
201712172100 AAXX 17214 67665 42980 01303 10191 20166 48524 70200
                   333 59024=
201712170600 AAXX 17064 67665 32459 70710 10192 20174 48539 70222 8557/
                   333 10195 20//0 59005 85712 87459=
201712170000 AAXX 17004 67665 42980 01202 10177 20161 48513
                   333 59024=
201712161800 AAXX 16184 67665 42660 21006 10192 20175 48537 81530
                   333 10235 58000 81648 81360=
201712161500 AAXX 16154 67665 42660 61009 10223 20176 48528 86500
                   333 58014 86635 555 10235=
201712161200 AAXX 16124 67665 42460 81009 10213 20166 48542 8557/
                   333 58011 85625 88459=
201712160900 AAXX 16094 67665 41460 80815 10212 20174 48552 72022 8557/
                   333 58025 85610 88459=
201712160600 AAXX 16064 67665 31459 70813 10200 20176 48545 60094 70222 8557/
                   333 10237 20//0 58018 85710 87459=
201712160300 AAXX 16034 67665 42959 80810 10192 20181 48531 72580 8707/
                   333 58021 87459=
201712160000 AAXX 16004 67665 42960 60908 10193 20181 48527 70222 86030
                   333 58024 86360=
201712152100 AAXX 15214 67665 42960 61107 10193 20181 48541 70122 86070
                   333 58022 86459=
201712151800 AAXX 15184 67665 42360 80812 10211 20194 48539 70322 8267/
                   333 58028 82710 88359 91021=
201712151500 AAXX 15154 67665 42460 60606 10218 20200 48514 70122 82570
                   333 58022 82622 86359 91018=
201712150900 AAXX 15094 67665 41558 81203 10232 20193 48535 79522 8197/
                   333 58013 84615 81920 88459 91020=
201712150000 AAXX 15004 67665 42960 62502 10205 20193 48506 8193/
                   333 59011 819// 86360=
201712142100 AAXX 14214 67665 42960 63403 10213 20196 48522 8193/
                   333 58004 819// 86360=
201712141800 AAXX 14184 67665 41760 61901 10219 20189 48513 71322 81931
                   333 10292 58002 81956 85360 84080=
201712141500 AAXX 14154 67665 42660 61005 10224 20189 48483 70222 81931
                   333 58008 81945 83850 84360 82080=
201712141200 AAXX 14124 67665 41559 72007 10227 20181 48506 71722 81970
                   333 58011 81925 85828 85459=
201712140300 AAXX 14034 67665 41359 83005 10190 20190 48507 76022 8277/
                   333 58000 82707 88459=
201712140000 AAXX 14004 67665 42480 72907 10201 20183 48418 8456/
                   333 59005 84610 85359=
201712131200 AAXX 13124 67665 41540 72608 10236 20189 48496 76022 86231
                   333 59004 86825 85360 82080=
201712130900 AAXX 13094 67665 42480 73509 10253 20177 48525 70222 85830
                   333 59001 83612 85815 83360=
201712130600 AAXX 13064 67665 32380 82906 10205 20176 48528 70322 8457/
                   333 58004 84609 88459 91019=
201712120900 AAXX 12094 67665 42460 70206 10237 20188 48525 8657/
                   333 59023 86615 87459=
201712120600 AAXX 12064 67665 11360 80607 10195 20180 48523 72052 8677/
                   333 10235 20//0 59012 86708 88459
                   555 00///=
201712120000 AAXX 12004 67665 42360 71004 10187 20171 48516 8377/
                   333 58005 83706 87459=
201712111800 AAXX 11184 67665 42480 60708 10194 20174 48519 70222 84570
                   333 58023 84618 86359 91019=
201712111200 AAXX 11124 67665 42380 80111 10217 20183 48521 70266 8567/
                   333 58033 85610 88459 91018=
201712110600 AAXX 11064 67665 42459 80505 10209 20143 48536 8557/
                   333 10212 20//0 58009 85610 87459=
201712110000 AAXX 11004 67665 42360 83006 10193 20142 48511 8577/
                   333 58002 85708 87459=
201712101800 AAXX 10184 67665 42760 71003 10260 20168 48505 8297/
                   333 10318 59008 82957 87459=
201712101500 AAXX 10154 67665 41660 71008 10274 20158 48493 71622 81932
                   333 59004 81948 85459 83080
                   555 10317 91015=
201712101200 AAXX 10124 67665 42680 50806 10289 20149 48497 83231
                   333 59019 83840 82360 81080=
201712100600 AAXX 10064 67665 32980 40807 10229 20166 48521 70122 84030
                   333 10332 20//0 59001 84360=
201712100300 AAXX 10034 67665 42980 51202 10187 20164 48514 70200 84031
                   333 59001 84360 82080=
201712092100 AAXX 09214 67665 42980 31602 10199 20168 48518 70200 80001
                   333 59007 83080=
201712091800 AAXX 09184 67665 42980 41004 10222 20148 48509 70100 80001
                   333 10332 20/// 59003 84080=
201712090900 AAXX 09094 67665 42560 70607 10227 20156 48528 875//
                   333 59007 87628 91019=
201712090000 AAXX 09004 67665 42980 31306 10189 20141 48513 81901
                   333 58001 819// 82080=
201712082100 AAXX 08214 67665 41980 31306 10202 20149 48527 81901
                   333 58001 819// 83080=
201712081500 AAXX 08154 67665 42780 30910 10273 20134 48500 70122 82101
                   333 59004 82850 81080=
201712081200 AAXX 08124 67665 42680 60912 10263 20144 48520 70322 85201
                   333 58011 85835 83080=
201712071500 AAXX 07154 67665 42680 60506 10248 20184 48501 82930
                   333 58007 82945 85359=
201712071200 AAXX 07124 67665 42680 60712 10277 20176 48512 85230
                   333 58000 85838 83360=
201712070900 AAXX 07094 67665 42580 51014 10257 20174 48531 70122 84530
                   333 59004 84628 83360=
201712060900 AAXX 06094 67665 42580 50711 10271 20189 48536 85201
                   333 59002 85825 83080=
201712060300 AAXX 06034 67665 42980 51102 10218 20181 48518 85030
                   333 59006=
201712060000 AAXX 06004 67665 42980 50000 10229 20173 48518 85030
                   333 59004 85360=
201712051800 AAXX 05184 67665 42980 40702 10238 20163 48517 70122 84031
                   333 59007 84360 84080=
201712050000 AAXX 05004 67665 42980 50000 10215 20131 48520 80001
                   333 58018 85080=
201712041800 AAXX 04184 67665 42980 41404 10249 20152 48525 80001
                   333 10317 58008 84080=
201712041200 AAXX 04124 67665 42680 60608 10296 20151 48527 83102
                   333 58001 83838 85080=
201712040600 AAXX 04064 67665 32980 33004 10246 20176 48541 70122 80001
                   333 58003 83080 91020=
201712040300 AAXX 04034 67665 42980 40000 10180 20156 48518 70300 80001
                   333 58009 84080=
201712040000 AAXX 04004 67665 42980 30000 10188 20156 48516 70200 80001
                   333 58017 83080=
201712032100 AAXX 03214 67665 42980 32003 10225 20159 48534 70200 80001
                   333 58014 83080=
201712031800 AAXX 03184 67665 42980 71303 10245 20148 48516 70200 87007
                   333 58007 87080=
201712031500 AAXX 03154 67665 42780 70706 10294 20184 48506 70300 81207
                   333 58010 81850 86080=
201712031200 AAXX 03124 67665 42680 50707 10304 20186 48521 70222 85200
                   333 58015 85845=
201712030900 AAXX 03094 67665 42680 50205 10274 20176 48541 85200
                   333 58010 85830=
201712030600 AAXX 03064 67665 32980 23602 10256 20197 48539 81101
                   333 10312 20//0 59001 81820 82080=
201712030000 AAXX 03004 67665 42980 60000 10193 20171 48499 81032
                   333 59008 81359 86080=
201712022100 AAXX 02214 67665 42/80 60000 10223 20188 48519 81932
                   333 59001 819// 83359 86080=
201712021800 AAXX 02184 67665 42780 60704 10238 20160 48509 71322 81901
                   333 10312 59002 81956 85080=
201712021500 AAXX 02154 67665 42780 51009 10274 20149 48494 70122 83201
                   333 59004 83850 83080=
201712021200 AAXX 02124 67665 42680 60505 10305 20119 48507 70322 85201
                   333 59012 85835 82080=
201712020900 AAXX 02094 67665 42480 50307 10282 20175 48531 70300 85208
                   333 59014 85830 84080=
201712020600 AAXX 02064 67665 32980 20904 10238 20180 48537 81031
                   333 59012 10297 20//0 59012 81360 82080=
201712020300 AAXX 02034 67665 42980 10000 10170 20151 48511 80001
                   333 59013 81080=
201712020000 AAXX 02004 67665 42980 10000 10185 20169 48507 81030
                   333 5//// 81360=
201712012100 AAXX 01214 67665 42980 10000 10209 20163 48519 81031
                   333 59025 81360 81080=
201712011800 AAXX 01184 67665 42980 31103 10233 20167 48510 80001
                   333 59029 83080=
201712011500 AAXX 01154 67665 42680 40607 10283 20154 48499 83202
                   333 59032 83850 82080=
201712011200 AAXX 01124 67665 42680 61004 10283 20161 48516 84201
                   333 59025 84835 82080=
201712010900 AAXX 01094 67665 42580 40904 10245 20160 48543 70122 83501
                   333 59021 83625 82080=
201712010600 AAXX 01064 67665 32980 20508 10217 20167 48547 70300 81601
                   333 59013 81515 82080 91021=

################################################################################
#  SYNOPS from 67666, Lusaka City Airport (Zambia) | 15-25-00S | 028-28-00E | 1280 m
################################################################################
201712290600 AAXX 29064 67666 32480 51008 10210 20178 48532 70300 81531
                   333 10252 20180 58012 82612 83360 81080 91020=
201712280900 AAXX 28094 67666 42480 80910 10217 20183 48520 848//
                   333 59009 84618 83820 88630 91018=
201712280600 AAXX 28064 67666 12480 80912 10192 20174 48519 60084 8553/
                   333 10240 20178 59005 85612 88360 91019=
201712270600 AAXX 27064 67666 11678 80901 10186 20183 48491 60454 76166 8657/
                   333 10294 20177 58007 86630 87460
                   555 00/// 91015=
201712260600 AAXX 26064 67666 31480 80903 10202 20181 48514 8555/
                   333 10240 20187 59001 85612 88359
                   555 00/// 91018=
201712210600 AAXX 21064 67666 12380 73410 10192 20172 48528 60034 70300 8167/
                   333 10285 20180 58004 81705 86360 91020=
201712200900 AAXX 20094 67666 NIL=
201712200600 AAXX 20064 67666 11480 81207 10171 20168 48517 60274 76195 887//
                   333 10299 20170 58020 88708 91019=
201712130600 AAXX 13064 67666 12380 70910 10201 20183 48522 60224 8267/
                   333 10280 20190 58007 82707 86360
                   555 00/// 91019=
201712110600 AAXX 11064 67666 12380 71007 10200 20197 48528 60044 876//
                   333 10300 20190 58011 87706
                   555 00/// 91020=
201712080600 AAXX 08064 67666 32480 60907 10219 20158 48530 83230
                   333 10288 20193 58008 83815 83359
                   555 00/// 91020=
201712050600 AAXX 05064 67666 32980 31010 10249 20156 48532 70500 82071
                   333 10320 20182 59002 82360 81080 91020=

################################################################################
#  SYNOPS from 67667, Mount Makulu (Zambia) | 15-33S | 028-15E | 1213 m
################################################################################
201712290600 AAXX 29064 67667 32580 70905 10220 20185 48569 81108
                   333 10278 20175 58001 81825 87280=
201712280600 AAXX 28064 67667 12580 80906 10200 20180 48557 60034 85508
                   333 10278 20176 58000 85620 88280=
201712270600 AAXX 27064 67667 11580 81801 10//0 20191 48577 60554 76021 84508
                   333 10320 20168 58010 84625 86280=
201712260600 AAXX 26064 67667 32680 71802 10202 20201 48567 70222 87500
                   333 10282 20184 59021 87630=
201712220600 AAXX 22064 67667 12580 30805 10230 20201 48557 60024 81102
                   333 10279 20185 58001 81825 83080=
201712210600 AAXX 21064 67667 11580 73601 10196 20188 48566 60024 75022 84538
                   333 10332 20184 58001 84625 83360 87280=
201712200900 AAXX 20094 67667 NIL=
201712180600 AAXX 18064 67667 32680 11801 10240 20181 48584 70200 81100
                   333 10300 20166 58007 81830=
201712080600 AAXX 08064 67667 32680 60907 10220 20162 48566 85202
                   333 10302 20187 58001 85830 84080
                   555 00///=
201712070600 AAXX 07064 67667 12580 60907 10230 20186 48560 60144 84502
                   333 10326 20184 58000 84620 86080
                   555 00///=
201712010600 AAXX 01064 67667 32680 30906 10234 20145 48577 81101
                   333 10274 20165 59001 81830 83080=

################################################################################
#  SYNOPS from 67673, Petauke (Zambia) | 14-15S | 031-17E | 1035 m
################################################################################
201712290600 AAXX 29064 67673 32980 60000 10225 20190 48530 86030
                   333 10265 20180 58004 86360=
201712281200 AAXX 28124 67673 42684 70802 10246 20192 48511 8613/
                   333 59001 86832 87360=
201712280600 AAXX 28064 67673 12584 70902 10210 20179 48525 69934 875//
                   333 10240 20186 59014 87628=
201712270600 AAXX 27064 67673 12584 80802 10208 20185 48538 60044 885//
                   333 10285 20198 58022 88628=
201712210600 AAXX 21064 67673 12680 40202 10235 20200 48544 69904 81132
                   333 10284 20200 59006 81830 81360 83080=
201712201200 AAXX 20124 67673 42684 53601 10260 20188 48528 85231
                   333 58038 85832 84360 83080=
201712200900 AAXX 20094 67673 42584 63602 10224 20193 48539
                   333 58030 86630 84360 82080=
201712200600 AAXX 20064 67673 12584 63602 10210 20193 48546 60044 85530
                   333 10308 20188 86628 84360=
201712190900 AAXX 19094 67673 42684 63602 10264 20200 48516 86231
                   333 58002 86835 84360 82080=
201712190600 AAXX 19064 67673 12584 63602 10240 20203 48523 69934 86231
                   333 10305 20202 59005 86830 84360 82080=
201712180600 AAXX 18064 67673 12680 30000 10250 20200 48530 69904 81101
                   333 10295 20185 59012 81830 82080=
201712130600 AAXX 13064 67673 11480 80102 10200 20196 48527 69904 75022 8377/
                   333 10274 20190 59011 83710 88460
                   555 00///=
201712080600 AAXX 08064 67673 32584 41203 10242 20176 48540 84531
                   333 10304 20202 58010 84628 83360 82080
                   555 00///=
201712071200 AAXX 07124 67673 42684 60901 10288 20170 48517 86201
                   333 58001 86832 82080=
201712070600 AAXX 07064 67673 12584 60503 10242 20177 48539 60034 85431
                   333 10315 20214 58014 82825 83629 84360 86080
                   555 00///=
201712010600 AAXX 01064 67673 12580 40000 10240 20190 48562 60464 83530
                   333 10240 20205 59035 83630 81360=

################################################################################
#  SYNOPS from 67731, Senanga (Zambia) | 16-06S | 023-16E | 1027 m
################################################################################
201712290600 AAXX 29064 67731 12980 608// 10216 20193 48/// 60014 70222 84038
                   333 10259 20201 58011 84360 85280
                   555 00199=
201712280600 AAXX 28064 67731 11370 819// 10214 20198 48/// 60054 75155 83778
                   333 10256 20202 58002 83708 86460 87280
                   555 00201=
201712270600 AAXX 27064 67731 12480 810// 10217 20198 48/// 60034 70322 83520
                   333 10256 20207 58002 83615 87460
                   555 00206=
201712260900 AAXX 26094 67731 42980 608// 10256 20187 48/// 70122 87031
                   333 59015 87362 82080=
201712260600 AAXX 26064 67731 12580 828// 10205 20189 48/// 60034 70282 84582
                   333 10242 20193 58017 84627 85360 83080
                   555 00197=
201712220900 AAXX 22094 67731 42580 222// 10288 20209 48/// 70122 82100
                   333 59008 82823=
201712220600 AAXX 22064 67731 12980 320// 10254 20214 48/// 60074 70200 82031
                   333 10265 20200 59003 82360 81080
                   555 00200=
201712210600 AAXX 21064 67731 12480 624// 10249 20207 48/// 60044 70222 83102
                   333 10285 20201 58005 83815 85080
                   555 00186=
201712200900 AAXX 20094 67731 NIL=
201712200600 AAXX 20064 67731 12480 80911 10217 20199 48/// 60024 70266 83778
                   333 10305 20187 58006 83709 86760 85280
                   555 00162=
201712190900 AAXX 19094 67731 42580 204// 10293 20200 48/// 70300 82200
                   333 59009 82825=
201712190600 AAXX 19064 67731 12980 135// 10256 20205 48/// 60014 70200 80008
                   333 10321 20207 59010 81080
                   555 00210=
201712181200 AAXX 18124 67731 42680 318// 10322 20210 48/// 70200 83200
                   333 59027 83830=
201712180600 AAXX 18064 67731 12980 113// 10244 20197 48/// 60234 70200 80008
                   333 10296 20195 59013 81080
                   555 00198=
201712130600 AAXX 13064 67731 32480 418// 10243 20205 48/// 82501
                   333 10305 20196 58003 82617 82080
                   555 00192=
201712080600 AAXX 08064 67731 11370 803// 10221 20197 48/// 60014 76166 8377/
                   333 10315 20209 83709 88760
                   555 00180=
201712071200 AAXX 07124 67731 42680 307// 10314 20177 48/// 70122 82201
                   333 59008 82832 81080=
201712070600 AAXX 07064 67731 12980 812// 10210 20188 48/// 60014 87082
                   333 10299 20194 59004 87360 84080
                   555 00191=
201712050600 AAXX 05064 67731 11370 809// 10214 20188 48/// 69944 76166 8377/
                   333 10309 20191 58007 83708 88760
                   555 00189=

################################################################################
#  SYNOPS from 67741, Sesheke (Zambia) | 17-28S | 024-18E | 949 m
################################################################################
201712290600 AAXX 29064 67741 32980 52701 10238 20208 48533 85030
                   333 10297 20200 59009 85362
                   555 00167=
201712280600 AAXX 28064 67741 32680 50801 10228 20202 48521 84531
                   333 10271 20188 58007 84640 82362 81080
                   555 00159=
201712270600 AAXX 27064 67741 12680 70901 10219 20205 48510 69904 8553/
                   333 10262 20209 58014 85640 84362
                   555 00190=
201712210600 AAXX 21064 67741 NIL=
201712200900 AAXX 20094 67741 NIL=
201712130600 AAXX 13064 67741 32680 52301 10237 20209 48523 84530
                   333 10329 20217 58005 84645 82362
                   555 00182=
201712110600 AAXX 11064 67741 32980 33201 10246 20209 48525 83031
                   333 10325 20185 59001 83362 81080
                   555 00///=
201712080600 AAXX 08064 67741 12680 70901 10217 20194 48531 60034 8157/
                   333 10301 20201 58002 81640 87461
                   555 00173=
201712070600 AAXX 07064 67741 12980 70901 10232 20201 48533 60014 8707/
                   333 10329 20206 59004 87362
                   555 00182=
201712050600 AAXX 05064 67741 12680 61901 10234 20194 48533 69904 81570
                   333 10368 20194 5//// 81645 86362
                   555 00168=
201712010600 AAXX 01064 67741 32980 13601 10261 20200 48546 81031
                   333 10350 20189 59014 81362 81080
                   555 00154=

################################################################################
#  SYNOPS from 67743, Livingstone (Zambia) | 17-49S | 025-49E | 985 m
################################################################################
201712290600 AAXX 29064 67743 12580 62303 10231 20187 48532 60024 70222 83531
                   333 10300 20184 58009 83625 82359 82080 91019=
201712280600 AAXX 28064 67743 32480 71105 10215 20193 48520 8353/
                   333 10255 20175 58002 83615 87359 91018=
201712270600 AAXX 27064 67743 32480 81012 10216 20185 48500 8457/
                   333 10281 20195 58022 84610 87358 91018=
201712260600 AAXX 26064 67743 12480 61003 10204 20189 48498 60314 70200 86630
                   333 10314 20172 58004 86615 83358 91015=
201712210600 AAXX 21064 67743 NIL=
201712201200 AAXX 20124 67743 42680 71606 10275 20169 48514 82231
                   333 58017 82845 86360 83080 91016=
201712200900 AAXX 20094 67743 NIL=
201712200600 AAXX 20064 67743 12380 70916 10220 20185 48522 69904 83581
                   333 10345 20200 58023 83615 84358 81080 91018=
201712180600 AAXX 18064 67743 32580 20705 10280 20152 48/// 81130
                   333 10344 20194 59018 81826 81360 91017=
201712010600 AAXX 01064 67743 32980 00810 10257 20150 48532 70200
                   333 10346 20198 59019 91019=

################################################################################
#  SYNOPS from 67751, Magoye (Zambia) | 16-00S | 027-36E | 1018 m
################################################################################
201712290600 AAXX 29064 67751 32980 42001 10230 20200 48/// 70222 84041
                   333 10285 20184 59010 83360 84080=
201712280600 AAXX 28064 67751 12980 80404 10216 20187 48/// 60024 70222 8801/
                   333 10238 20198 58001 88460=
201712270600 AAXX 27064 67751 12980 70403 10206 20188 48/// 60094 70222 8701/
                   333 10288 20196 59019 87460=
201712260600 AAXX 26064 67751 12980 70102 10220 20198 48/// 60304 70222 86070
                   333 10288 20199 58003 86360=
201712220600 AAXX 22064 67751 12480 10702 10245 20209 48/// 69904 81100
                   333 10317 20194 58011 81813=
201712210600 AAXX 21064 67751 12480 63602 10230 20201 48/// 60034 86500
                   333 10271 20196 59010 86612=
201712200900 AAXX 20094 67751 NIL=
201712200600 AAXX 20064 67751 32980 70000 10244 20199 48/// 87070
                   333 10324 20195 59015=
201712190600 AAXX 19064 67751 32980 20207 10256 20198 48/// 82030
                   333 10318 20175 5//// 82360=
201712010600 AAXX 01064 67751 32980 30402 10244 20163 48/// 70300
                   333 10284 20130 58009 83360=

################################################################################
#  SYNOPS from 67753, Choma (Zambia) | 16-50S | 027-04E | 1213 m
################################################################################
201712290600 AAXX 29064 67753 12560 80000 10197 20193 48529 60024 8257/
                   333 10255 20172 58013 82620 86360=
201712270600 AAXX 27064 67753 11560 80000 10190 20190 48519 60114 76162 8257/
                   333 10280 20180 58019 82630=
201712260600 AAXX 26064 67753 11460 83605 10195 20193 48500 60634 76062 8177/
                   333 10305 20180 58000 81710 87360=
201712240600 AAXX 24064 67753 32960 70000 10200 20185 48490 87030
                   333 10296 20170 5//// 87360=
201712210600 AAXX 21064 67753 12360 73302 10206 20197 48530 60034 83600
                   333 10280 20176 58011 83708 84820=
201712200900 AAXX 20094 67753 NIL=
201712200600 AAXX 20064 67753 11560 70000 10204 20192 48520 69904 78085 8225/
                   333 10300 20186 58015 82820 85360=
201712130600 AAXX 13064 67753 32460 61208 10215 20186 48516 84530
                   333 10280 20182 59005 84610 82360
                   555 00///=
201712110600 AAXX 11064 67753 12560 60000 10216 20192 48522 60284 83230
                   333 10260 20180 58002 83825 83360
                   555 00///=
201712080600 AAXX 08064 67753 32660 63003 10219 20181 48531 86200
                   333 10276 20194 58004 86830
                   555 00///=
201712070600 AAXX 07064 67753 12960 72906 10215 20180 48492 69904 87030
                   333 10295 20190 58010 87360
                   555 00///=
201712050600 AAXX 05064 67753 32960 20000 10239 20188 48523 80001
                   333 10295 20178 59019 82080
                   555 00///=

################################################################################
#  SYNOPS from 67855, Lupaki (Zambia) | 17-03-00S | 024-46-00E | 1000 m
################################################################################
201712231200 AAXX 23124 67855 NIL=
201712230600 AAXX 23064 67855 12975 72101 10250 20202 3//// 48/// 69904 83088
                   333 20204 5//// 83360 87280=
201712221200 AAXX 22124 67855 NIL=
201712220600 AAXX 22064 67855 11975 33601 10222 20202 3//// 48/// 60284 70198 81032
                   333 20204 5//// 81360 83080=
201712211200 AAXX 21124 67855 41670 70000 10234 20220 3//// 48/// 71798 84273
                   333 5//// 81930 83835 87360=
201712210600 AAXX 21064 67855 12975 70602 10232 20188 3//// 48/// 69904 87072
                   333 20210 5//// 87360=
201712201200 AAXX 20124 67855 42775 53607 10330 20176 3//// 48/// 83271
                   333 5//// 83850 85360=
201712200600 AAXX 20064 67855 12975 53601 10256 20183 3//// 48/// 69904 85032
                   333 20210 5//// 85360=
201712191200 AAXX 19124 67855 41772 50000 10189 20189 38/// 48/// 71895 85230
                   333 5//// 85850=
201712190600 AAXX 19064 67855 32975 13604 10262 20186 3//// 48/// 80001
                   333 20185 5//// 81080=
201712181200 AAXX 18124 67855 42775 50301 10346 20171 3//// 48/// 85200
                   333 5//// 85856=
201712180600 AAXX 18064 67855 32975 03608 10250 20188 3//// 48///
                   333 20178 5////=
201712171200 AAXX 17124 67855 42775 50602 10346 20166 3//// 48/// 85200
                   333 5//// 85856=
201712170600 AAXX 17064 67855 32575 10702 10240 20181 3//// 48/// 81030
                   333 20172 5//// 81360=
201712161200 AAXX 16124 67855 NIL=
201712160600 AAXX 16064 67855 12975 20606 10230 20156 3//// 48/// 69904 82031
                   333 20168 5//// 82360=
201712150600 AAXX 15064 67855 32975 30602 10250 20185 3//// 48/// 81038
                   333 20184 81360 83280=
201712141200 AAXX 14124 67855 42775 72001 10330 20171 3//// 48/// 85238
                   333 5//// 85850 87280=
201712140600 AAXX 14064 67855 12975 70000 10232 20203 3//// 48/// 69904 85078
                   333 20185 5//// 85360 87280=
201712131200 AAXX 13124 67855 42775 71811 10292 20188 38/// 48/// 85208
                   333 5//// 85850 87280=
201712130600 AAXX 13064 67855 NIL=
201712121200 AAXX 12124 67855 42775 50103 10322 20164 3//// 48/// 85208
                   333 5//// 85856 83280=
201712120600 AAXX 12064 67855 12975 33603 10224 20163 3//// 48/// 69904 81038
                   333 20165 5//// 81360 83280=
201712111200 AAXX 11124 67855 41775 73402 10302 20186 3//// 48/// 72592 85238
                   333 5//// 85850 87280=
201712110600 AAXX 11064 67855 32975 30504 10252 20150 3//// 48/// 80008
                   333 20176 5//// 83280=
201712101200 AAXX 10124 67855 NIL=
201712091200 AAXX 09124 67855 42675 70000 10250 20186 3//// 48/// 8527/
                   333 5//// 85830 87360=
201712090600 AAXX 09064 67855 11575 70000 10180 20173 3//// 48/// 60024 72162 8557/
                   333 20172 5//// 85620 87459=
201712081200 AAXX 08124 67855 41570 80000 10238 20178 3//// 48/// 75052 8557/
                   333 5//// 85625 88360=
201712080600 AAXX 08064 67855 11570 81303 10200 20157 3//// 48/// 69904 71562 8557/
                   333 20180 5//// 85625 88360=
201712071200 AAXX 07124 67855 41675 70701 10254 20183 3//// 48/// 70162 8217/
                   333 5//// 81830 87360=
201712070600 AAXX 07064 67855 11970 80901 10204 20186 3//// 48/// 60064 76162 88071
                   333 20200 5//// 88457=
201712061200 AAXX 06124 67855 42775 52701 10318 20167 3//// 48/// 83232
                   333 5//// 83850 85360=
201712060600 AAXX 06064 67855 12975 60704 10236 20139 3//// 48/// 86071
                   333 20179 5//// 86360 83080=
201712051200 AAXX 05124 67855 NIL=
201712050600 AAXX 05064 67855 32975 70603 10248 20123 3//// 48/// 84072
                   333 20182 5//// 84360 87080=
201712041200 AAXX 04124 67855 42775 70000 10338 20173 3//// 48/// 83208
                   333 5//// 83856 87280=
201712040600 AAXX 04064 67855 32975 80000 10238 20178 3//// 48/// 83038
                   333 20214 5//// 85459 88280=
201712021200 AAXX 02124 67855 42875 50602 10350 20148 3//// 48/// 85202
                   333 5//// 85865 83080=
201712020600 AAXX 02064 67855 32975 70103 10254 20166 3//// 48/// 80002
                   333 20161 5//// 87080=
201712011200 AAXX 01124 67855 NIL=
201712010600 AAXX 01064 67855 32975 00000 10238 20174 3//// 48///
                   333 20160 5////=
