################################################################################
# Query made at 04/14/2022 03:49:26 UTC
# Country like Zamb*
# Time interval: from 02/01/2015 05:30  to 03/03/2015 06:30  UTC
################################################################################

################################################################################
#  SYNOPS from 67403, Kawambwa (Zambia) | 09-48S | 029-05E | 1323 m
################################################################################
201503030600 AAXX 03064 67403 11980 80903 10187 20177 48517 69944 70222 8703/
                   333 10/// 20161 58010 87361=
201503030300 AAXX 03034 67403 NIL=
201503021500 AAXX 02154 67403 NIL=
201503020600 AAXX 02064 67403 12980 70902 10187 20163 48507 69954 86031
                   333 10//0 20165 59003 86360 82080=
201503011500 AAXX 01154 67403 NIL=
201502270600 AAXX 27064 67403 32980 40903 10215 20184 48506 84030
                   333 10/// 20164 59004 84360=
201502270300 AAXX 27034 67403 NIL=
201502260900 AAXX 26094 67403 NIL=
201502251500 AAXX 25154 67403 NIL=
201502251200 AAXX 25124 67403 NIL=
201502250600 AAXX 25064 67403 12480 80902 10182 20176 48520 60984 70366 8803/
                   333 10/// 20164 58006 81610 88360=
201502250300 AAXX 25034 67403 NIL=
201502231500 AAXX 23154 67403 NIL=
201502191200 AAXX 19124 67403 NIL=
201502190600 AAXX 19064 67403 11365 40901 10188 20177 48501 60014 70542 82631
                   333 10/// 20165 59018 82708 84360 83080
                   555 00/// 20014=
201502181200 AAXX 18124 67403 NIL=
201502180900 AAXX 18094 67403 NIL=
201502180600 AAXX 18064 67403 11975 80901 10189 20176 48519 60144 76166 8803/
                   333 10/// 20179 59005 88359
                   555 00/// 20011=
201502171500 AAXX 17154 67403 NIL=
201502170900 AAXX 17094 67403 NIL=
201502170600 AAXX 17064 67403 12980 60000 10189 20177 48524 60114 70262 85081
                   333 10/// 20169 58004 85360 85080
                   555 00/// 20021=
201502170300 AAXX 17034 67403 NIL=
201502160900 AAXX 16094 67403 NIL=
201502160600 AAXX 16064 67403 12975 80902 10189 20178 48522 60214 70562 86037
                   333 10/// 20167 58000 86360 88281
                   555 00/// 20000=
201502131500 AAXX 13154 67403 NIL=
201502130600 AAXX 13064 67403 32780 22002 10212 20186 48521 81980
                   333 10/// 20169 59004 81957 82360
                   555 00/// 20000=
201502130300 AAXX 13034 67403 NIL=
201502120600 AAXX 12064 67403 32980 20906 10215 20186 48525 81031
                   333 10/// 20182 81360 82080
                   555 00/// 20004=
201502110900 AAXX 11094 67403 NIL=
201502101500 AAXX 10154 67403 NIL=
201502100900 AAXX 10094 67403 NIL=
201502100600 AAXX 10064 67403 11975 70000 10195 20179 48515 60044 70562 8703/
                   333 10/// 20175 58009 87360
                   555 00/// 20005=
201502091200 AAXX 09124 67403 NIL=
201502090900 AAXX 09094 67403 NIL=
201502090600 AAXX 09064 67403 12480 60902 10188 20171 48505 60054 70320 83532
                   333 10/// 20172 58004 80610 84360 83080
                   555 00/// 20003=
201502090300 AAXX 09034 67403 NIL=
201502061500 AAXX 06154 67403 NIL=
201502060600 AAXX 06064 67403 31470 42203 10221 20200 48512 70500 81531
                   333 10/// 20193 59003 81615 81360 84080
                   555 00/// 20000=
201502040600 AAXX 04064 67403 32975 43402 10221 20198 48516 70520 82031
                   333 10/// 20187 58002 82360 85080
                   555 00/// 20000=
201502020900 AAXX 02094 67403 NIL=
201502020600 AAXX 02064 67403 11975 80902 10196 20179 48502 60024 70562 8703/
                   333 10/// 20182 59015 87360
                   555 00/// 20000=

################################################################################
#  SYNOPS from 67413, Mbala (Zambia) | 08-51S | 031-20E | 1673 m
################################################################################
201503030300 AAXX 03034 67413 NIL=
201503021500 AAXX 02154 67413 NIL=
201503011500 AAXX 01154 67413 NIL=
201502270300 AAXX 27034 67413 NIL=
201502260900 AAXX 26094 67413 NIL=
201502251500 AAXX 25154 67413 NIL=
201502251200 AAXX 25124 67413 NIL=
201502250300 AAXX 25034 67413 NIL=
201502231500 AAXX 23154 67413 NIL=
201502191200 AAXX 19124 67413 NIL=
201502181200 AAXX 18124 67413 NIL=
201502180900 AAXX 18094 67413 NIL=
201502171500 AAXX 17154 67413 NIL=
201502170900 AAXX 17094 67413 NIL=
201502170300 AAXX 17034 67413 NIL=
201502160900 AAXX 16094 67413 NIL=
201502131500 AAXX 13154 67413 NIL=
201502130600 AAXX 13064 67413 NIL=
201502130300 AAXX 13034 67413 NIL=
201502110900 AAXX 11094 67413 NIL=
201502101500 AAXX 10154 67413 NIL=
201502100900 AAXX 10094 67413 NIL=
201502100600 AAXX 10064 67413 NIL=
201502091200 AAXX 09124 67413 NIL=
201502090900 AAXX 09094 67413 NIL=
201502090300 AAXX 09034 67413 NIL=
201502061500 AAXX 06154 67413 NIL=
201502050600 AAXX 05064 67413 12580 60305 10200 20185 48540 60014 85530
                   333 10260 20/// 58000 85610 81359 91024=
201502020900 AAXX 02094 67413 NIL=

################################################################################
#  SYNOPS from 67441, Mwinilunga (Zambia) | 11-45S | 024-26E | 1361 m
################################################################################
201503030300 AAXX 03034 67441 NIL=
201503021500 AAXX 02154 67441 NIL=
201503020600 AAXX 02064 67441 31470 832// 10180 20172 48528 70522 886//
                   333 10270 20/// 59014 88613=
201503011500 AAXX 01154 67441 NIL=
201502270300 AAXX 27034 67441 NIL=
201502260900 AAXX 26094 67441 NIL=
201502251500 AAXX 25154 67441 NIL=
201502251200 AAXX 25124 67441 41575 627// 10248 20184 48518 70522 8213/
                   333 5//// 82840 85360=
201502250600 AAXX 25064 67441 11575 70000 10183 20178 48547 60054 70522 8364/
                   333 10280 20/// 5//// 83625 87460=
201502250300 AAXX 25034 67441 NIL=
201502231500 AAXX 23154 67441 NIL=
201502200600 AAXX 20064 67441 11960 718// 10190 20183 48532 60164 76166 8702/
                   333 10290 20/// 59004 87460=
201502191200 AAXX 19124 67441 NIL=
201502190600 AAXX 19064 67441 11/02 900// 10170 20170 48536 60024 74344 89///
                   333 10290 20/// 59010=
201502181200 AAXX 18124 67441 NIL=
201502180900 AAXX 18094 67441 NIL=
201502171500 AAXX 17154 67441 NIL=
201502170900 AAXX 17094 67441 42682 706// 10235 20192 48557 81135
                   333 58000 81830 83360 86280=
201502170600 AAXX 17064 67441 12380 827// 10185 20170 48550 60074 886//
                   333 10285 20/// 58000 88709=
201502170300 AAXX 17034 67441 NIL=
201502160900 AAXX 16094 67441 NIL=
201502160600 AAXX 16064 67441 32480 606// 10195 20180 48550 81130
                   333 10290 20/// 58000 81818 86360=
201502131500 AAXX 13154 67441 NIL=
201502130600 AAXX 13064 67441 32980 700// 10162 20165 48549 8703/
                   333 10300 20/// 59001 87360=
201502130300 AAXX 13034 67441 NIL=
201502120600 AAXX 12064 67441 11/02 900// 10165 20157 48550 60034 74344 89///
                   333 10275 20/// 59020=
201502110900 AAXX 11094 67441 41960 800// 10190 20175 48588 76162 8807/
                   333 58036 88460=
201502101500 AAXX 10154 67441 NIL=
201502100900 AAXX 10094 67441 NIL=
201502100600 AAXX 10064 67441 11958 10000 10170 20162 48551 69904 74244 81034
                   333 10295 20/// 58009 81360 81080=
201502091200 AAXX 09124 67441 NIL=
201502090900 AAXX 09094 67441 42682 500// 10250 20185 48541 84131
                   333 5//// 84830 81361 82080=
201502090600 AAXX 09064 67441 12480 700// 10185 20177 48543 60014 81135
                   333 10290 20/// 59015 81818 82360 86280=
201502090300 AAXX 09034 67441 NIL=
201502061500 AAXX 06154 67441 NIL=
201502060600 AAXX 06064 67441 12980 400// 10185 20170 48540 69904 83030
                   333 10290 20/// 59001 83360 81080=
201502040600 AAXX 04064 67441 11960 70000 10190 20183 48547 60024 76162 8702/
                   333 10260 20/// 58012 87460=
201502020900 AAXX 02094 67441 NIL=
201502020600 AAXX 02064 67441 11960 80000 10175 20167 48549 60274 76166 8802/
                   333 10255 20/// 58001 88460=

################################################################################
#  SYNOPS from 67461, Mansa (Zambia) | 11-06S | 028-51E | 1382 m
################################################################################
201503030600 AAXX 03064 67461 32480 80000 10194 20180 48524 8807/
                   333 10298 20175 58019 83617 88459 91019=
201503030300 AAXX 03034 67461 NIL=
201503021500 AAXX 02154 67461 NIL=
201503020600 AAXX 02064 67461 12480 60000 10190 20199 48506 60194 81570
                   333 10276 20165 59003 81616 86459 91017=
201503011500 AAXX 01154 67461 NIL=
201502270600 AAXX 27064 67461 32980 70000 10210 20187 48512 8707/
                   333 10300 20165 59003 87463 91017=
201502270300 AAXX 27034 67461 NIL=
201502260900 AAXX 26094 67461 NIL=
201502251500 AAXX 25154 67461 NIL=
201502251200 AAXX 25124 67461 NIL=
201502250600 AAXX 25064 67461 12380 80000 10180 20176 48524 60094 8267/
                   333 10279 20167 58009 83705 88459 91019=
201502250300 AAXX 25034 67461 NIL=
201502231500 AAXX 23154 67461 NIL=
201502200600 AAXX 20064 67461 11360 80000 10176 20171 48509 60064 79596 8667/
                   333 10288 20174 59002 81910 85706 88457 91017=
201502191200 AAXX 19124 67461 NIL=
201502190600 AAXX 19064 67461 12480 7//// 10185 20180 48512 60064 81570
                   333 10275 20170 58003 81618 86459 91018=
201502181200 AAXX 18124 67461 NIL=
201502180900 AAXX 18094 67461 NIL=
201502180600 AAXX 18064 67461 12980 70000 10190 20182 48510 60364 8707/
                   333 10263 20170 59011 87459 91017=
201502171500 AAXX 17154 67461 NIL=
201502170900 AAXX 17094 67461 NIL=
201502170600 AAXX 17064 67461 12380 80000 10190 20183 48520 60084 8467/
                   333 10293 20170 58006 84706 88458 91019=
201502170300 AAXX 17034 67461 NIL=
201502160900 AAXX 16094 67461 NIL=
201502131500 AAXX 13154 67461 NIL=
201502130600 AAXX 13064 67461 32980 71402 10210 20188 48514 83038
                   333 10308 20165 59017 83360 85280 91018=
201502130300 AAXX 13034 67461 NIL=
201502110900 AAXX 11094 67461 NIL=
201502101500 AAXX 10154 67461 NIL=
201502100900 AAXX 10094 67461 NIL=
201502100600 AAXX 10064 67461 NIL=
201502091200 AAXX 09124 67461 NIL=
201502090900 AAXX 09094 67461 NIL=
201502090300 AAXX 09034 67461 NIL=
201502061500 AAXX 06154 67461 NIL=
201502050600 AAXX 05064 67461 12980 72902 10205 20190 48514 60034 8707/
                   333 10289 20174 58005 87460 91018=
201502040600 AAXX 04064 67461 32980 70000 10210 20184 48510 8707/
                   333 10279 20174 59003 87460 91017=
201502020900 AAXX 02094 67461 NIL=
201502020600 AAXX 02064 67461 12980 70602 10196 20187 48506 60064 8703/
                   333 10295 20175 59016 87360 91017=

################################################################################
#  SYNOPS from 67475, Kasama (Zambia) | 10-13S | 031-08E | 1382 m
################################################################################
201503030600 AAXX 03064 67475 12980 72008 10204 20166 48531 69914 86078
                   333 10280 20180 58019 86460 85280 91021=
201503030300 AAXX 03034 67475 NIL=
201503021500 AAXX 02154 67475 NIL=
201503020600 AAXX 02064 67475 11980 73103 10176 20171 48511 60214 70262 8707/
                   333 10265 20155 59002 87459 91019=
201503011500 AAXX 01154 67475 NIL=
201502270600 AAXX 27064 67475 12980 62503 10210 20166 48516 80008
                   333 10291 20160 59006 86280 91019=
201502270300 AAXX 27034 67475 NIL=
201502260900 AAXX 26094 67475 NIL=
201502251500 AAXX 25154 67475 42780 52104 10224 20166 48484 81908
                   333 58002 81950 85280 91016=
201502251200 AAXX 25124 67475 41680 81905 10218 20163 48507 75065 8127/
                   333 58008 81835 88462 91018=
201502250600 AAXX 25064 67475 12280 82704 10176 20171 48528 60054 8167/
                   333 10275 20159 58002 81704 88459 91021=
201502250300 AAXX 25034 67475 NIL=
201502231500 AAXX 23154 67475 NIL=
201502200600 AAXX 20064 67475 12980 73502 10198 20186 48507 60384 8707/
                   333 10290 20161 59006 87459
                   555 00/// 91018=
201502191200 AAXX 19124 67475 NIL=
201502190600 AAXX 19064 67475 11350 80904 10170 20170 48492 60064 74644 886//
                   333 10270 20160 59014 88705
                   555 00/// 91019=
201502181200 AAXX 18124 67475 NIL=
201502180900 AAXX 18094 67475 NIL=
201502180600 AAXX 18064 67475 11380 73501 10180 48526 60074 75055 82770
                   333 10272 20164 59004 82709 81825 86459
                   555 00/// 91021=
201502171500 AAXX 17154 67475 NIL=
201502170900 AAXX 17094 67475 42580 71504 10224 20179 48523 8647/
                   333 58003 86625 82820 87460=
201502170300 AAXX 17034 67475 NIL=
201502160900 AAXX 16094 67475 42580 82209 10244 20176 48530 70322 83277
                   333 59001 83825 86360 88280 91021=
201502160600 AAXX 16064 67475 12480 83307 10176 20173 48527 60044 70322 82677
                   333 10265 20158 59006 82710 84359 88280
                   555 91021=
201502131500 AAXX 13154 67475 NIL=
201502131200 AAXX 13124 67475 42780 31705 10292 20175 48488 81903
                   333 59021 81950 82850 81080 91016=
201502130600 AAXX 13064 67475 32580 41805 10205 20182 48525 81561
                   333 10290 20160 59010 81620 81359 84080
                   555 00/// 91020=
201502130300 AAXX 13034 67475 NIL=
201502120600 AAXX 12064 67475 11980 60909 10211 20187 48535 60014 70242 81031
                   333 10281 20156 59011 81359 86080
                   555 00/// 91021=
201502110900 AAXX 11094 67475 NIL=
201502101500 AAXX 10154 67475 NIL=
201502101200 AAXX 10124 67475 41680 60906 10284 20183 48491 71722 81902
                   333 58007 81950 86850 82080
                   555 91016=
201502100900 AAXX 10094 67475 42580 50807 10256 20187 48519 82271
                   333 58016 82825 83460 82080=
201502100600 AAXX 10064 67475 12980 70706 10210 20179 48525 69914 80002
                   333 10290 20157 58009 87080
                   555 00/// 91020=
201502091200 AAXX 09124 67475 NIL=
201502090900 AAXX 09094 67475 42580 63411 10248 20175 48503 85271
                   333 59014 85835 86460 82080=
201502090600 AAXX 09064 67475 12480 72302 10184 20172 48525 69904 8267/
                   333 10273 20157 59009 82715 82825 87459
                   555 00/// 91019=
201502090300 AAXX 09034 67475 NIL=
201502061500 AAXX 06154 67475 NIL=
201502061200 AAXX 06124 67475 41780 70111 10243 20168 48/// 72999 8627/
                   333 5//// 81950 85850 87461=
201502051200 AAXX 05124 67475 42680 82809 10269 20174 48499 71722 85277
                   333 59013 81945 84845 84460 88280 91017=
201502050900 AAXX 05094 67475 42680 82715 10264 20186 48518 70322 83277
                   333 58002 83830 82360 88280 91019=
201502040600 AAXX 04064 67475 12980 73508 10207 20183 48528 69904 85072
                   333 10285 20169 58009 85359 87080
                   555 00/// 91021=
201502021200 AAXX 02124 67475 41770 62112 10231 20166 48487 71792 8427/
                   333 59005 81950 83850 85463 91016=
201502020900 AAXX 02094 67475 42680 73303 10243 20188 48519 8127/
                   333 59001 81835 87361 91020=
201502020600 AAXX 02064 67475 12380 73301 10183 20178 48514 60064 8177/
                   333 10286 20164 59012 81708 87360
                   555 00/// 91019=

################################################################################
#  SYNOPS from 67476, Misamfu (Zambia) | 10-06S | 031-15E | 1536 m
################################################################################
201503030300 AAXX 03034 67476 NIL=
201503021500 AAXX 02154 67476 NIL=
201503020600 AAXX 02064 67476 12980 70000 10174 20169 48/// 60354 87071
                   333 10271 20161 5//// 87459 83080=
201503011500 AAXX 01154 67476 NIL=
201502270600 AAXX 27064 67476 32980 50000 10205 20181 48/// 85030
                   333 10293 20166 5//// 85360=
201502270300 AAXX 27034 67476 NIL=
201502260900 AAXX 26094 67476 NIL=
201502260600 AAXX 26064 67476 12980 80801 10186 20174 48/// 60034 84078
                   333 10238 20157 5//// 84459 88280=
201502251500 AAXX 25154 67476 NIL=
201502251200 AAXX 25124 67476 NIL=
201502250600 AAXX 25064 67476 12480 80000 10175 20170 48/// 60064 8367/
                   333 10279 20165 58000 83715 88459=
201502250300 AAXX 25034 67476 NIL=
201502231500 AAXX 23154 67476 NIL=
201502191200 AAXX 19124 67476 NIL=
201502181200 AAXX 18124 67476 NIL=
201502180900 AAXX 18094 67476 NIL=
201502171500 AAXX 17154 67476 NIL=
201502170900 AAXX 17094 67476 NIL=
201502170300 AAXX 17034 67476 NIL=
201502160900 AAXX 16094 67476 NIL=
201502131500 AAXX 13154 67476 NIL=
201502130600 AAXX 13064 67476 32980 42903 10201 20179 48/// 84030
                   333 10294 20165 59009 84360
                   555 00/// 20990=
201502130300 AAXX 13034 67476 NIL=
201502120600 AAXX 12064 67476 12980 40000 10200 20187 48/// 69904 84030
                   333 10294 20177 59009 84360
                   555 00/// 20006=
201502110900 AAXX 11094 67476 NIL=
201502101500 AAXX 10154 67476 NIL=
201502100900 AAXX 10094 67476 NIL=
201502100600 AAXX 10064 67476 12980 40000 10199 20176 48/// 69904 84030
                   333 10289 20172 58010 84360
                   555 00/// 20990=
201502091200 AAXX 09124 67476 NIL=
201502090900 AAXX 09094 67476 NIL=
201502090600 AAXX 09064 67476 12480 60000 10183 20164 48/// 69904 82631
                   333 10283 20165 5//// 82715 86359 83080
                   555 00/// 20049=
201502090300 AAXX 09034 67476 NIL=
201502061500 AAXX 06154 67476 NIL=
201502020900 AAXX 02094 67476 NIL=

################################################################################
#  SYNOPS from 67477, Mpika (Zambia) | 11-54S | 031-26E | 1400 m
################################################################################
201503030300 AAXX 03034 67477 NIL=
201503021500 AAXX 02154 67477 NIL=
201503020600 AAXX 02064 67477 11478 80000 10187 20172 48413 60024 72842 8457/
                   333 10236 20161 5//// 84610 86459=
201503011500 AAXX 01154 67477 NIL=
201502270600 AAXX 27064 67477 11480 40000 10226 20176 48/// 69904 72842 82101
                   333 10274 20163 5//// 82812 84080=
201502270300 AAXX 27034 67477 NIL=
201502260900 AAXX 26094 67477 NIL=
201502260600 AAXX 26064 67477 11480 70000 10207 20185 48/// 60014 72842 81570
                   333 10236 20168 5//// 81610 87459=
201502251500 AAXX 25154 67477 NIL=
201502251200 AAXX 25124 67477 NIL=
201502250600 AAXX 25064 67477 11480 80000 10174 20171 48528 60304 72161 8457/
                   333 10267 20158 59003 84610 86459=
201502250300 AAXX 25034 67477 NIL=
201502231500 AAXX 23154 67477 NIL=
201502200600 AAXX 20064 67477 12980 10000 10225 20185 48506 60034 80001
                   333 10280 20179 59010 81080=
201502191200 AAXX 19124 67477 NIL=
201502190600 AAXX 19064 67477 32480 60000 10200 20177 48515 81130
                   333 10250 20170 59010 81825 85359=
201502181200 AAXX 18124 67477 NIL=
201502180900 AAXX 18094 67477 NIL=
201502180600 AAXX 18064 67477 32980 80000 10195 20180 48525 887//
                   333 10260 20174 59006 88459=
201502171500 AAXX 17154 67477 NIL=
201502170900 AAXX 17094 67477 NIL=
201502170600 AAXX 17064 67477 11480 71202 10193 20185 48531 60084 72842 8557/
                   333 10258 20158 58009 85611 84459=
201502170300 AAXX 17034 67477 NIL=
201502160900 AAXX 16094 67477 NIL=
201502160600 AAXX 16064 67477 11478 80000 10181 20180 48521 60034 72842 8457/
                   333 10270 20162 59009 84611 86459=
201502131500 AAXX 13154 67477 NIL=
201502130600 AAXX 13064 67477 32980 00000 10220 20190 48526
                   333 10290 20165 59010=
201502130300 AAXX 13034 67477 NIL=
201502120600 AAXX 12064 67477 12980 00000 10220 20185 48536 60024
                   333 10290 20165 59012=
201502110900 AAXX 11094 67477 NIL=
201502101500 AAXX 10154 67477 NIL=
201502100900 AAXX 10094 67477 NIL=
201502100600 AAXX 10064 67477 11480 60000 10207 20178 48532 60074 72842 81131
                   333 10252 20168 58006 81811 85359 82080=
201502091200 AAXX 09124 67477 NIL=
201502090900 AAXX 09094 67477 NIL=
201502090600 AAXX 09064 67477 11478 80000 10188 20175 48528 69904 76061 8554/
                   333 10258 20173 59003 85610 84459=
201502090300 AAXX 09034 67477 NIL=
201502061500 AAXX 06154 67477 NIL=
201502060600 AAXX 06064 67477 12980 80000 10205 20187 48515 69904 8807/
                   333 10280 20170 59004 88459=
201502050600 AAXX 05064 67477 11980 80000 10185 20179 48481 60034 72161 8807/
                   333 10283 20171 58002 88459=
201502040600 AAXX 04064 67477 11480 72702 10204 20167 48516 69904 72842 8657/
                   333 10278 20168 59010 86610 83460=
201502020900 AAXX 02094 67477 NIL=
201502020600 AAXX 02064 67477 12980 80000 10190 20175 48514 60064 8807/
                   333 10265 20167 59013 88359=

################################################################################
#  SYNOPS from 67481, Isoka (Zambia) | 10-07S | 032-38E | 1360 m
################################################################################
201503030600 AAXX 03064 67481 32980 51503 10203 20183 48/// 83034
                   333 10272 20174 58015 83360 83080=
201503030300 AAXX 03034 67481 NIL=
201503021500 AAXX 02154 67481 NIL=
201503020600 AAXX 02064 67481 12980 80601 10186 20168 48/// 60094 8807/
                   333 10275 20165 58002 88459=
201503011500 AAXX 01154 67481 NIL=
201502270600 AAXX 27064 67481 12480 42401 10220 20198 48/// 60234 84500
                   333 10292 20179 5//// 84611=
201502270300 AAXX 27034 67481 NIL=
201502260900 AAXX 26094 67481 NIL=
201502260600 AAXX 26064 67481 12480 60000 10205 20176 48/// 60034 81530
                   333 10244 20164 5//// 81612 86360=
201502251500 AAXX 25154 67481 NIL=
201502251200 AAXX 25124 67481 NIL=
201502250600 AAXX 25064 67481 12380 70601 10182 20168 60054 84670
                   333 10275 20174 58002 84706 86360=
201502250300 AAXX 25034 67481 NIL=
201502241200 AAXX 24124 67481 41680 61802 10270 20195 48/// 71722 85931
                   333 59007 81930 84830 82361 81080=
201502231500 AAXX 23154 67481 NIL=
201502200600 AAXX 20064 67481 12980 31101 10225 20196 69994 82031
                   333 10283 20180 59006 82361 82080
                   555 00/// 20013=
201502191200 AAXX 19124 67481 NIL=
201502190600 AAXX 19064 67481 12380 60000 10199 20184 60134 82630
                   333 10265 20162 59018 82706 85360
                   555 00/// 20000=
201502181200 AAXX 18124 67481 41480 7//// 10201 20188 48/// 71798 84990
                   333 58006 81915 83616 86361=
201502180900 AAXX 18094 67481 42580 63001 10240 20177 84220
                   333 58001 84828 85361=
201502180600 AAXX 18064 67481 31380 83601 10184 20178 75052 85797
                   333 10261 20172 59001 85709 83460 88280
                   555 00/// 20000=
201502171500 AAXX 17154 67481 NIL=
201502171200 AAXX 17124 67481 42580 71202 10246 20183 71799 85920
                   333 59011 81927 83827 82629 83361=
201502170900 AAXX 17094 67481 42580 70301 10241 20180 87880
                   333 59002 83825 86627 82361=
201502170600 AAXX 17064 67481 32480 72102 10204 20174 81590
                   333 10277 20184 58000 81612 87360
                   555 00/// 20000=
201502170300 AAXX 17034 67481 NIL=
201502160900 AAXX 16094 67481 42580 73402 10236 20175 81590
                   333 59003 81625 87361=
201502160600 AAXX 16064 67481 32980 73601 10214 20168 87090
                   333 10262 20184 59007 87361
                   555 00/// 20990=
201502131500 AAXX 13154 67481 NIL=
201502130600 AAXX 13064 67481 32480 20201 10215 20201 82501
                   333 10299 20181 59014 82612 81080
                   555 00/// 20000=
201502130300 AAXX 13034 67481 NIL=
201502120600 AAXX 12064 67481 32980 70000 10200 20184 82098
                   333 10294 20183 59012 82361 87280
                   555 00/// 20000=
201502110900 AAXX 11094 67481 42580 61501 10261 20192 86800
                   333 58023 84829 83630=
201502101500 AAXX 10154 67481 NIL=
201502101200 AAXX 10124 67481 42580 51701 10272 20187 85801
                   333 58006 85832 82635=
201502100900 AAXX 10094 67481 42580 32701 10242 20188 83120
                   333 58013 83824 81361=
201502100600 AAXX 10064 67481 12980 60000 10210 20180 60134 86090
                   333 10276 20166 58010 86361
                   555 00/// 20011=
201502091200 AAXX 09124 67481 NIL=
201502090900 AAXX 09094 67481 NIL=
201502090600 AAXX 09064 67481 12380 70000 10190 20170 60114 84630
                   333 10248 20175 59002 84706 84706 86360
                   555 00/// 20014=
201502090300 AAXX 09034 67481 NIL=
201502061500 AAXX 06154 67481 NIL=
201502060600 AAXX 06064 67481 12980 70000 10210 20196 69904 87090
                   333 10299 20190 59002 87360
                   555 00/// 20002=
201502051200 AAXX 05124 67481 41680 62803 10292 20181 71722 86902
                   333 59004 81943 83843 83645 83080=
201502050600 AAXX 05064 67481 32980 72704 10215 20185 87090
                   333 10306 20193 59001 87361
                   555 00/// 20001=
201502040600 AAXX 04064 67481 12480 70000 10215 20197 60014 81520
                   333 10286 20186 58002 81610 87360
                   555 00/// 20012=
201502020900 AAXX 02094 67481 NIL=
201502020600 AAXX 02064 67481 32380 60000 10198 20178 82630
                   333 10258 20183 59007 82707 86360
                   555 00/// 20000=

################################################################################
#  SYNOPS from 67531, Zambezi (Zambia) | 13-32S | 023-07E | 1077 m
################################################################################
201503030600 AAXX 03064 67531 12380 71401 10197 20188 48/// 60024 70222 8267/
                   333 10270 20175 58013 82706 87360=
201503030300 AAXX 03034 67531 NIL=
201503021500 AAXX 02154 67531 NIL=
201503020600 AAXX 02064 67531 12380 63002 10196 20187 48/// 60414 70222 83630
                   333 10260 20176 59007 83707 86362=
201503011500 AAXX 01154 67531 NIL=
201502270600 AAXX 27064 67531 32980 30801 10207 20188 48/// 70200 82031
                   333 10302 20171 58006 82362 81082=
201502270300 AAXX 27034 67531 NIL=
201502261200 AAXX 26124 67531 41680 70304 10263 20203 48/// 71792 8527/
                   333 59010 81940 85840 83362=
201502260900 AAXX 26094 67531 42680 63607 10278 20177 48/// 82131
                   333 59010 82840 85362 81082=
201502260600 AAXX 26064 67531 32980 30403 10191 20188 48/// 70200 81032
                   333 10278 20169 59006 81362 83082=
201502251500 AAXX 25154 67531 NIL=
201502251200 AAXX 25124 67531 42580 73604 10257 20197 48/// 70222 8487/
                   333 59008 82626 82828 86362=
201502250600 AAXX 25064 67531 12380 70602 10206 20197 48/// 60074 70222 8167/
                   333 10280 20190 59019 81707 87360=
201502250300 AAXX 25034 67531 NIL=
201502231500 AAXX 23154 67531 NIL=
201502231200 AAXX 23124 67531 42680 51207 10285 20186 48/// 70222 84231
                   333 58023 84840 81360 81082=
201502200600 AAXX 20064 67531 32980 70702 10210 20194 48/// 70222 8707/
                   333 10323 20195 59003 87361=
201502191200 AAXX 19124 67531 42780 31804 10306 20168 48/// 70200 83200
                   333 59009 83850=
201502190600 AAXX 19064 67531 32980 20803 10206 20189 48/// 70200 80001
                   333 10315 20169 59015 81082=
201502181200 AAXX 18124 67531 42780 43603 10297 20177 48/// 70222 84200
                   333 59004 84850=
201502180900 AAXX 18094 67531 42680 31702 10268 20190 48/// 70200 83100
                   333 59001 83830=
201502180600 AAXX 18064 67531 12380 20901 10199 20192 48/// 60104 70200 81631
                   333 10320 20169 58004 81706 81362 81080=
201502171500 AAXX 17154 67531 NIL=
201502171200 AAXX 17124 67531 42780 41503 10305 20174 48/// 70222 84202
                   333 59003 84850 81080=
201502170900 AAXX 17094 67531 42680 40903 10281 20193 48/// 70200 81108
                   333 58001 81838 84280=
201502170300 AAXX 17034 67531 NIL=
201502160900 AAXX 16094 67531 42680 53105 10275 20180 48/// 70222 84230
                   333 5//// 84838 81362=
201502160600 AAXX 16064 67531 32980 40601 10194 20180 48/// 70211 84030
                   333 10315 20178 5//// 84362=
201502131500 AAXX 13154 67531 NIL=
201502130600 AAXX 13064 67531 32980 50602 10209 20184 48/// 70222 82038
                   333 10315 20170 59012 82362 84282=
201502130300 AAXX 13034 67531 NIL=
201502120600 AAXX 12064 67531 32980 51102 10180 20173 48/// 74021 85030
                   333 10295 20160 59006 85362=
201502110900 AAXX 11094 67531 42580 63604 10249 20186 48/// 70222 82138
                   333 58021 82826 83362 84282=
201502101500 AAXX 10154 67531 NIL=
201502100900 AAXX 10094 67531 42680 11005 10265 20183 48/// 81131
                   333 58014 81840 81362 81082=
201502100600 AAXX 10064 67531 32980 10902 10244 20189 48/// 81034
                   333 10312 20175 58011 81362 81082=
201502091200 AAXX 09124 67531 42780 31003 10303 20177 48/// 70200 83200
                   333 59008 83860=
201502090900 AAXX 09094 67531 42680 20903 10280 20184 48/// 70200 81101
                   333 58011 81840 81082=
201502090600 AAXX 09064 67531 12980 43601 10202 20186 48/// 60084 70222 84030
                   333 10330 20175 58006 84362=
201502090300 AAXX 09034 67531 NIL=
201502061500 AAXX 06154 67531 NIL=
201502061200 AAXX 06124 67531 42780 33403 10323 20189 48/// 70300 83200
                   333 59006 83858=
201502060600 AAXX 06064 67531 32980 23602 10221 20197 48/// 70200 81032
                   333 10330 20182 59003 81362 82082=
201502051200 AAXX 05124 67531 42780 42905 10315 20164 48/// 70211 82132
                   333 58002 82850 81362 83082=
201502040600 AAXX 04064 67531 12980 60402 10213 20197 48/// 60034 70222 86030
                   333 10250 20182 58014 86362=
201502020900 AAXX 02094 67531 42480 73603 10123 20199 48/// 70222 8457/
                   333 59012 84615 87361=
201502020600 AAXX 02064 67531 12380 73302 10203 20194 48/// 60604 70222 8467/
                   333 10295 20187 59020 84707 87360=

################################################################################
#  SYNOPS from 67541, Kasempa (Zambia) | 13-32S | 025-51E | 1234 m
################################################################################
201503030300 AAXX 03034 67541 NIL=
201503021500 AAXX 02154 67541 NIL=
201503011500 AAXX 01154 67541 NIL=
201502270300 AAXX 27034 67541 NIL=
201502260900 AAXX 26094 67541 NIL=
201502251500 AAXX 25154 67541 NIL=
201502251200 AAXX 25124 67541 NIL=
201502250300 AAXX 25034 67541 NIL=
201502231500 AAXX 23154 67541 NIL=
201502200600 AAXX 20064 67541 12580 70104 10200 20185 48515 60074 70222 8707/
                   333 10/// 20/// 58021 87360=
201502191200 AAXX 19124 67541 NIL=
201502190600 AAXX 19064 67541 32980 10000 10199 20186 48494 70222 81030
                   333 10/// 20/// 59020 81360=
201502181200 AAXX 18124 67541 NIL=
201502180900 AAXX 18094 67541 NIL=
201502171500 AAXX 17154 67541 NIL=
201502170900 AAXX 17094 67541 NIL=
201502170600 AAXX 17064 67541 12980 40000 10197 20180 48517 60084 70222 84030
                   333 10/// 20/// 58009 84360=
201502170300 AAXX 17034 67541 NIL=
201502160900 AAXX 16094 67541 NIL=
201502160600 AAXX 16064 67541 12980 70000 10203 20191 48508 60084 70222 87030
                   333 10/// 20/// 59006 87360=
201502131500 AAXX 13154 67541 NIL=
201502130600 AAXX 13064 67541 NIL=
201502130300 AAXX 13034 67541 NIL=
201502120600 AAXX 12064 67541 12380 70403 10192 20185 48500 60064 8353/
                   333 10/// 20/// 59006 83606 87360=
201502110900 AAXX 11094 67541 NIL=
201502101500 AAXX 10154 67541 NIL=
201502100900 AAXX 10094 67541 NIL=
201502100600 AAXX 10064 67541 32980 20000 10217 20179 48517 80002
                   333 10/// 20/// 58009 82080=
201502091200 AAXX 09124 67541 NIL=
201502090900 AAXX 09094 67541 NIL=
201502090600 AAXX 09064 67541 32980 20000 10228 20194 48508 70222 80002
                   333 10/// 20/// 59003 82080=
201502090300 AAXX 09034 67541 NIL=
201502061500 AAXX 06154 67541 NIL=
201502050600 AAXX 05064 67541 12980 70000 10200 20193 48505 60114 70222 8703/
                   333 10/// 20/// 59002 87360=
201502040600 AAXX 04064 67541 11360 70000 10171 20171 48507 60274 76062 8363/
                   333 10/// 20/// 58012 83706 87360=
201502020900 AAXX 02094 67541 NIL=
201502020600 AAXX 02064 67541 11360 80000 10180 20180 48502 60154 76062 83630
                   333 10/// 20/// 59006 83706 87360=

################################################################################
#  SYNOPS from 67543, Kabompo (Zambia) | 13-36S | 024-12E | 1075 m
################################################################################
201503030300 AAXX 03034 67543 NIL=
201503021500 AAXX 02154 67543 NIL=
201503020600 AAXX 02064 67543 32480 7//00 10200 20191 48/// 875//
                   333 10304 20186 5//// 87615=
201503011500 AAXX 01154 67543 NIL=
201502270600 AAXX 27064 67543 31975 5//00 10200 20189 48/// 72844 85030
                   333 10300 20169 5//// 85360=
201502270300 AAXX 27034 67543 NIL=
201502261200 AAXX 26124 67543 42683 6//00 10282 20186 48/// 85130
                   333 5//// 85830 82361=
201502260900 AAXX 26094 67543 42580 7//01 10272 20181 48/// 8703/
                   333 5//// 87360=
201502260600 AAXX 26064 67543 11380 4//00 10212 20194 48/// 60144 72844 81645
                   333 10290 20172 5//// 81708 81360 84280=
201502251500 AAXX 25154 67543 NIL=
201502251200 AAXX 25124 67543 42683 7//00 10266 20189 48/// 8413/
                   333 5//// 84830 86360=
201502250600 AAXX 25064 67543 12375 8//00 10190 20182 48/// 60064 70222 886//
                   333 10293 20175 5//// 88708=
201502250300 AAXX 25034 67543 NIL=
201502231500 AAXX 23154 67543 NIL=
201502231200 AAXX 23124 67543 42683 7//00 10274 20198 48/// 85234
                   333 5//// 85830 81361 82085=
201502200600 AAXX 20064 67543 11975 7//00 10203 20196 48/// 60084 76122 8707/
                   333 10320 20191 5//// 87360=
201502191200 AAXX 19124 67543 NIL=
201502190600 AAXX 19064 67543 32983 1//00 10202 20194 48/// 80001
                   333 10318 20167 5//// 81080=
201502181200 AAXX 18124 67543 42683 5//00 10298 20172 48/// 85200
                   333 5//// 85835=
201502180900 AAXX 18094 67543 42680 5//00 10268 20180 48/// 85100
                   333 5//// 85830=
201502180600 AAXX 18064 67543 12980 3//00 10195 20178 48/// 69904 83030
                   333 10315 20164 5//// 83360=
201502171500 AAXX 17154 67543 NIL=
201502170900 AAXX 17094 67543 42980 3//00 10160 20195 48/// 80005
                   333 5//// 83280=
201502170600 AAXX 17064 67543 31/80 ///// 10184 20178 48/// 74544
                   333 10315 20168 5////=
201502170300 AAXX 17034 67543 NIL=
201502160900 AAXX 16094 67543 NIL=
201502131500 AAXX 13154 67543 NIL=
201502130600 AAXX 13064 67543 12980 7//00 10216 20193 48/// 60014 8703/
                   333 10323 20190 5//// 87360=
201502130300 AAXX 13034 67543 NIL=
201502120600 AAXX 12064 67543 11380 7//00 10178 20172 48/// 60284 72844 876//
                   333 10320 20168 5//// 87707=
201502110900 AAXX 11094 67543 42980 7//00 10268 20181 48/// 70322 84137
                   333 5//// 84828 81360 85280=
201502101500 AAXX 10154 67543 NIL=
201502100900 AAXX 10094 67543 42680 2//// 10281 20183 48/// 82100
                   333 5//// 82823=
201502100600 AAXX 10064 67543 32975 4//// 10198 20179 48/// 84030
                   333 10346 20170 5//// 84360=
201502091200 AAXX 09124 67543 42680 4//00 10307 20185 48/// 84100
                   333 5//// 84835=
201502090900 AAXX 09094 67543 NIL=
201502090600 AAXX 09064 67543 11960 10000 10196 20183 48/// 60064 74240 80001
                   333 10345 20167 5//// 81080=
201502090300 AAXX 09034 67543 NIL=
201502061500 AAXX 06154 67543 NIL=
201502040600 AAXX 04064 67543 12580 7//00 10184 20176 48/// 60314 8351/
                   333 10273 20170 5//// 83620 87460=
201502020900 AAXX 02094 67543 41378 8//00 10214 20199 48/// 76166 886//
                   333 5//// 88709=
201502020600 AAXX 02064 67543 12380 8//00 10200 20191 48/// 60124 8467/
                   333 10290 20187 5//// 84708 88360=

################################################################################
#  SYNOPS from 67551, Solwezi (Zambia) | 12-11S | 026-23E | 1386 m
################################################################################
201503030600 AAXX 03064 67551 12475 70000 10186 20169 48525 60124 83630
                   333 10255 20169 58008 82710 87362 91020=
201503030300 AAXX 03034 67551 NIL=
201503021500 AAXX 02154 67551 NIL=
201503011500 AAXX 01154 67551 NIL=
201502270300 AAXX 27034 67551 NIL=
201502260900 AAXX 26094 67551 NIL=
201502251500 AAXX 25154 67551 NIL=
201502251200 AAXX 25124 67551 NIL=
201502250600 AAXX 25064 67551 31380 80000 10164 20162 48539 76066 8277/
                   333 10270 20150 58019 82707 88460 91021=
201502250300 AAXX 25034 67551 NIL=
201502231500 AAXX 23154 67551 NIL=
201502191200 AAXX 19124 67551 NIL=
201502181200 AAXX 18124 67551 NIL=
201502180900 AAXX 18094 67551 NIL=
201502171500 AAXX 17154 67551 NIL=
201502170900 AAXX 17094 67551 NIL=
201502170600 AAXX 17064 67551 12980 60000 10180 20172 48533 60364 85030
                   333 10288 20160 58017 85362 91021=
201502170300 AAXX 17034 67551 NIL=
201502160900 AAXX 16094 67551 NIL=
201502160600 AAXX 16064 67551 32980 43204 10203 20172 48509 84030
                   333 10272 20170 58009 84362
                   555 00/// 20000 91019=
201502131500 AAXX 13154 67551 NIL=
201502130600 AAXX 13064 67551 12980 40000 10195 20179 48512 60014 82030
                   333 10295 20165 59007 82362 82080 91019=
201502130300 AAXX 13034 67551 NIL=
201502120600 AAXX 12064 67551 32380 70904 10173 20169 48527 72542 867//
                   333 10257 20159 58013 86707
                   555 00/// 20005 91019=
201502110900 AAXX 11094 67551 NIL=
201502101500 AAXX 10154 67551 NIL=
201502100900 AAXX 10094 67551 NIL=
201502100600 AAXX 10064 67551 43982 60000 10191 20182 48523 80630
                   333 10287 20177 58003 86362
                   555 00/// 20000 91020=
201502091200 AAXX 09124 67551 NIL=
201502090900 AAXX 09094 67551 NIL=
201502090600 AAXX 09064 67551 43982 50903 10202 20169 48521 80530
                   333 10288 20155 59006 85362 91019=
201502090300 AAXX 09034 67551 NIL=
201502061500 AAXX 06154 67551 NIL=
201502060600 AAXX 06064 67551 12982 70506 10195 20173 48517 60064 80730
                   333 10291 20173 59012 87362
                   555 00/// 20000 91017=
201502040600 AAXX 04064 67551 32475 82702 10187 20172 48524 8367/
                   333 10274 20172 58016 83710 87362
                   555 00/// 20006 91020=
201502020900 AAXX 02094 67551 NIL=

################################################################################
#  SYNOPS from 67561, Ndola (Zambia) | 13-00S | 028-39E | 1269 m
################################################################################
201503030600 AAXX 03064 67561 11359 70804 10191 20183 48529 69904 70422 8567/
                   333 10278 20174 58024 85706 87459
                   555 00/// 91020=
201503030300 AAXX 03034 67561 41260 70000 10184 20180 48489 70522 8363/
                   333 58008 83605 87360=
201503021500 AAXX 02154 67561 41759 70000 10199 20176 48479 79599 8347/
                   333 58009 81950 83656 87460=
201503021200 AAXX 02124 67561 41675 60000 10270 20173 48486 70522 86200
                   333 58003 81938 86840 91015=
201503020600 AAXX 02064 67561 31259 60000 10197 20171 48506 70522 82688
                   333 10266 20165 59001 82706 84360 86280
                   555 00/// 20124 91018=
201503020300 AAXX 02034 67561 41260 80000 10182 20177 48502 70522 8567/
                   333 59001 85705 81950 88459=
201503011500 AAXX 01154 67561 NIL=
201503010600 AAXX 01064 67561 11360 60000 10192 20177 48499 60124 70522 83638
                   333 10272 20164 59014 83709 85360 86280
                   555 00/// 20006 91018=
201502280600 AAXX 28064 67561 11460 62704 10206 20187 48522 60064 70522 85532
                   333 10300 20180 58012 85610 86360 83080
                   555 00/// 20007 91019=
201502271200 AAXX 27124 67561 41565 70000 10264 48487 71792 86238
                   333 58003 81935 86838 81360 84280
                   555 66/// 77038 8889/ 98010=
201502270600 AAXX 27064 67561 41960 60000 10193 20183 48509 60094 70522 86030
                   333 10291 20175 59001 86360
                   555 00/// 91018=
201502270300 AAXX 27034 67561 41960 50000 10176 20173 48492 70522 85030
                   333 58000 85360 91016=
201502260900 AAXX 26094 67561 41470 70000 19235 20184 48514 70522 83270
                   333 59022 83810 87460 91018=
201502260600 AAXX 26064 67561 31960 70000 10195 20186 48511 60094 70522 87080
                   333 10247 20165 59019 87360
                   555 00/// 20130 91018=
201502251500 AAXX 25154 67561 42680 70000 10231 20178 48487 70322 81970
                   333 59005 81940 87460=
201502251200 AAXX 25124 67561 41575 73007 10226 20186 48510 70566 8627/
                   333 58004 81925 86830 87460
                   555 66/// 77030 8891/ 98014 91018=
201502250600 AAXX 25064 67561 11358 70000 10181 20176 48527 60134 76166 8577/
                   333 10280 20170 59004 85705 87459
                   555 00/// 91020=
201502250300 AAXX 25034 67561 41260 5//// 10180 20177 48514 76162 8573/
                   333 59006 85703 81910 88359 91018=
201502241200 AAXX 24124 67561 42680 72104 10275 20201 48510 86232
                   333 59007 81930 86832 85362 81080 91017=
201502240600 AAXX 24064 67561 31360 70902 10188 20173 48532 70522 82688
                   333 10270 20159 59002 82703 86360 86280
                   555 00/// 20370 91021=
201502231500 AAXX 23154 67561 41675 71406 10256 20183 48507 70522 83538
                   333 58008 81940 83345 84360 87280=
201502231200 AAXX 23124 67561 41575 70000 10261 20185 48517 70522 86238
                   333 58030 86830 83360 87280
                   555 66/// 77083 8884/ 98012=
201502200600 AAXX 20064 67561 31359 70000 10210 20202 48507 60074 76162 8267/
                   333 10300 20181 58001 82704 819// 87459
                   555 00/// 91018=
201502191200 AAXX 19124 67561 42680 60404 10276 20184 48489 70322 86202
                   333 59010 81935 86840 82080
                   555 66/// 77061 8879/ 98015 91015=
201502190600 AAXX 19064 67561 31460 70804 10210 20184 48506 70522 85530
                   333 10289 20175 59014 85610 85360
                   555 00/// 20004 91018=
201502181200 AAXX 18124 67561 NIL=
201502180900 AAXX 18094 67561 41470 60805 10240 20182 48528 70522 85288
                   333 59004 85815 84360 84280 91020=
201502180600 AAXX 18064 67561 31960 60000 10186 20178 48517 60034 70522 86080
                   333 10265 20160 59007 86360
                   555 00/// 20001 91019=
201502171500 AAXX 17154 67561 41660 70407 10182 20177 48494 79599 8247/
                   333 5//// 81935 84645 87459=
201502170900 AAXX 17094 67561 NIL=
201502170600 AAXX 17064 67561 11360 60000 10183 20179 48524 60014 70522 83638
                   333 10266 20176 58009 83708 85360 86280
                   555 00/// 91020=
201502170300 AAXX 17034 67561 41260 70000 10177 20176 48515 70522 8377/
                   333 58006 83708 83708 87360=
201502160900 AAXX 16094 67561 NIL=
201502160600 AAXX 16064 67561 31359 70000 10208 20182 48518 70422 82638
                   333 10295 20168 58000 82708 85360 87280
                   555 00/// 20001 88066 91019=
201502150600 AAXX 15064 67561 11360 70000 10201 20177 48518 60014 70562 84638
                   333 10287 20178 59002 83606 86360 87280
                   555 20007 91019=
201502131500 AAXX 13154 67561 42680 70000 10286 20183 48471 70322 83238
                   333 59010 81950 83855 82359 87280=
201502131200 AAXX 13124 67561 42680 50000 10290 20174 48490 70322 84208
                   333 59020 81935 84840 84280
                   555 66/// 77104 8879/ 98016 91015=
201502130600 AAXX 13064 67561 11959 30000 10206 20177 48515 60094 70492 83038
                   333 10317 20166 59011 83360 87280 91019=
201502130300 AAXX 13034 67561 41260 80000 10175 20166 48493 72196
                   333 59023 85705 819// 88459 91016=
201502120600 AAXX 12064 67561 41958 60000 10206 20183 48526 69904 70422 80008
                   333 10274 20159 59016 86280
                   555 00/// 91020=
201502110900 AAXX 11094 67561 41575 70203 10223 20177 48547 70522 8657/
                   333 58030 86620 87460 91022=
201502101500 AAXX 10154 67561 41675 79902 10226 20169 48495 71799 86238
                   333 58011 81945 86250 83360 87280=
201502100900 AAXX 10094 67561 NIL=
201502100600 AAXX 10064 67561 NIL=
201502091200 AAXX 09124 67561 NIL=
201502090900 AAXX 09094 67561 NIL=
201502090600 AAXX 09064 67561 31960 79902 10200 20183 48518 70522 83038
                   333 10303 20180 59003 83360 87280
                   555 00/// 20006 91019=
201502090300 AAXX 09034 67561 41975 00000 10189 20173 48509 70500
                   333 59004 555 91018=
201502061500 AAXX 06154 67561 42880 70000 10305 20171 48466 83238
                   333 59011 81957 83857 81360 86280=
201502060600 AAXX 06064 67561 31970 70000 10189 20176 48501 60084 72166 8707/
                   333 10296 20179 59011 87459
                   555 00/// 91017=
201502051200 AAXX 05124 67561 42680 70000 10270 20172 48496 70322 82238
                   333 58003 81940 82840 85360 85280
                   555 66/// 77086 88/// 98047 91016=
201502050600 AAXX 0506/ 67561 31360 72703 10209 20184 48514 70522 84638
                   333 10278 20181 58008 84709 85360 85280
                   555 00/// 20001 91018=
201502041200 AAXX 04124 67561 42580 73005 10248 20183 48491 70322 8623/
                   333 58011 81930 86835 84360
                   555 66/// 77053 8880/ 98023 91015=
201502040600 AAXX 04064 67561 11970 70104 10216 20183 48507 60014 70522 86038
                   333 10274 20174 59003 86360 87280
                   555 00/// 20010 91018=
201502031200 AAXX 03124 67561 41560 70104 10270 20180 48482 70562 86238
                   333 59014 81920 86825 84360 86280
                   555 66/// 77038 8888/ 98018 91014=
201502030600 AAXX 03064 67561 11253 80000 10183 20178 48507 60104 76166 8577/
                   333 10252 20172 58005 85704 88459
                   555 00/// 20058 91018=
201502021200 AAXX 02124 67561 41565 70110 10236 20177 48493 72052 8327/
                   333 58008 83825 87459
                   555 66/// 77023 8889/ 98002 91016=
201502020900 AAXX 02094 67561 41460 70205 10232 20189 48515 70522 8657/
                   333 59005 86612 87459 91018=

################################################################################
#  SYNOPS from 67563, Kafironda (Zambia) | 12-36S | 028-07E | 1243 m
################################################################################
201503030300 AAXX 03034 67563 NIL=
201503021500 AAXX 02154 67563 NIL=
201503011500 AAXX 01154 67563 NIL=
201502270300 AAXX 27034 67563 NIL=
201502260900 AAXX 26094 67563 NIL=
201502251500 AAXX 25154 67563 NIL=
201502251200 AAXX 25124 67563 NIL=
201502250300 AAXX 25034 67563 NIL=
201502231500 AAXX 23154 67563 NIL=
201502191200 AAXX 19124 67563 NIL=
201502181200 AAXX 18124 67563 NIL=
201502180900 AAXX 18094 67563 NIL=
201502171500 AAXX 17154 67563 NIL=
201502170900 AAXX 17094 67563 NIL=
201502170300 AAXX 17034 67563 NIL=
201502160900 AAXX 16094 67563 NIL=
201502131500 AAXX 13154 67563 NIL=
201502130600 AAXX 13064 67563 NIL=
201502130300 AAXX 13034 67563 NIL=
201502110900 AAXX 11094 67563 NIL=
201502101500 AAXX 10154 67563 NIL=
201502100900 AAXX 10094 67563 NIL=
201502100600 AAXX 10064 67563 NIL=
201502091200 AAXX 09124 67563 NIL=
201502090900 AAXX 09094 67563 NIL=
201502090300 AAXX 09034 67563 NIL=
201502061500 AAXX 06154 67563 NIL=
201502020900 AAXX 02094 67563 NIL=

################################################################################
#  SYNOPS from 67571, Serenje (Zambia) | 13-14S | 030-13E | 1384 m
################################################################################
201503030600 AAXX 03064 67571 11682 81205 10175 20164 48531 60644 75052 8247/
                   333 10278 20158 5//// 82630 88460=
201503030300 AAXX 03034 67571 NIL=
201503021500 AAXX 02154 67571 NIL=
201503020600 AAXX 02064 67571 12382 70000 10187 20170 48501 60054 70222 8164/
                   333 10248 20165 59002 81708 87360=
201503011500 AAXX 01154 67571 NIL=
201502270600 AAXX 27064 67571 12982 30000 10211 20182 48502 60214 70300 82041
                   333 10266 20160 59004 82360 81080=
201502270300 AAXX 27034 67571 NIL=
201502261200 AAXX 26124 67571 41680 71802 10170 20161 48481 79196 8427/
                   333 59007 81935 84837 87460=
201502260900 AAXX 26094 67571 NIL=
201502260600 AAXX 26064 67571 12982 70000 10183 20178 48501 60124 70222 8704/
                   333 10238 20157 59019 87360=
201502251500 AAXX 25154 67571 NIL=
201502251200 AAXX 25124 67571 NIL=
201502250600 AAXX 25064 67571 11280 82704 10159 20154 48520 60394 76566 887//
                   333 10267 20159 59006 88703=
201502250300 AAXX 25034 67571 NIL=
201502231500 AAXX 23154 67571 NIL=
201502200600 AAXX 20064 67571 12382 70903 10208 20188 48502 69954 70222 8163/
                   333 10266 20180 58002 81709 87360
                   555 00/// 20000=
201502191200 AAXX 19124 67571 41681 71204 10221 20196 48482 76196 81348
                   333 59013 81935 81835 81360 87280=
201502190600 AAXX 19064 67571 32482 31205 10210 20178 48492 70200 81541
                   333 10271 20166 59022 81616 82360 82080
                   555 00/// 20990=
201502181200 AAXX 18124 67571 42682 40905 10246 20174 48494 70111 83241
                   333 59005 81930 83830 82361 81081=
201502180900 AAXX 18094 67571 42482 70906 10226 20166 48523 70222 8454/
                   333 58001 84618 87360=
201502180600 AAXX 18064 67571 12381 70905 10183 20167 48511 69904 70222 8164/
                   333 10265 20150 59007 81708 87360
                   555 00/// 20003=
201502171500 AAXX 17154 67571 NIL=
201502170900 AAXX 17094 67571 42582 70905 10234 20166 48513 70222 8554/
                   333 58007 85620 86360=
201502170300 AAXX 17034 67571 NIL=
201502160900 AAXX 16094 67571 41365 81506 10182 20169 48521 75555 8577/
                   333 58017 85708 88460=
201502160600 AAXX 16064 67571 12380 83602 10179 20170 48521 60144 70222 886//
                   333 10274 20168 58004 88708
                   555 00/// 20031=
201502131500 AAXX 13154 67571 NIL=
201502131200 AAXX 13124 67571 41682 71503 10233 20190 48483 71799 84208
                   333 59013 81940 84840 87280=
201502130600 AAXX 13064 67571 12982 71204 10228 20173 48513 60014 70222 81048
                   333 10298 20154 59016 81360 87280
                   555 00/// 20012=
201502130300 AAXX 13034 67571 NIL=
201502120600 AAXX 12064 67571 12982 21502 10219 20188 48523 60124 70300 82040
                   333 10265 20156 59015 82360
                   555 00/// 20006=
201502110900 AAXX 11094 67571 41982 83005 10211 20177 48532 72052 8807/
                   333 58025 88460=
201502101500 AAXX 10154 67571 NIL=
201502100900 AAXX 10094 67571 42682 73305 10248 20175 48514 70222 8454/
                   333 58001 81930 84630 87360=
201502100600 AAXX 10064 67571 12982 70903 10197 20179 48512 69904 70222 81048
                   333 10265 20183 58002 81360 87280
                   555 00/// 20000=
201502091200 AAXX 09124 67571 42682 50906 10242 20156 48493 70222 84540
                   333 59001 81935 84635 84360=
201502090900 AAXX 09094 67571 NIL=
201502090600 AAXX 09064 67571 32582 70906 10206 20170 48512 70222 82548
                   333 10279 20153 58001 81620 81360 87280
                   555 00/// 20990=
201502090300 AAXX 09034 67571 NIL=
201502061500 AAXX 06154 67571 NIL=
201502060600 AAXX 06064 67571 12382 73003 10196 20187 48502 69904 70222 8164/
                   333 10290 20174 59002 81708 87360
                   555 00/// 20998=
201502040600 AAXX 04064 67571 12381 83006 10181 20168 48501 60014 70222 886//
                   333 10269 20169 59005 88708
                   555 00/// 20034=
201502021200 AAXX 02124 67571 41680 72703 10200 20193 48472 78188 84208
                   333 59007 81935 84835 87280=
201502020900 AAXX 02094 67571 42581 72706 10241 20189 48503 70222 8154/
                   333 59008 81625 87360=
201502020600 AAXX 02064 67571 12380 72703 10179 20171 48501 60074 70222 8263/
                   333 10257 20166 59013 82706 87360
                   555 00/// 20024=

################################################################################
#  SYNOPS from 67575, Mkushi (Zambia) | 13-38-00S | 029-26-00E | 1237 m
################################################################################
201503030600 AAXX 03064 67575 11380 80000 10191 20177 48/// 60034 76162 8677/
                   333 10291 20180 5//// 86706 82358=
201503030300 AAXX 03034 67575 NIL=
201503021500 AAXX 02154 67575 NIL=
201503020600 AAXX 02064 67575 32480 50000 10205 20174 48/// 69904 70122 83531
                   333 10275 20175 5//// 83612 82360 81080=
201503011500 AAXX 01154 67575 NIL=
201502270600 AAXX 27064 67575 12980 50000 10195 20179 48/// 60064 70222 82072
                   333 10270 20160 5//// 85360 81080=
201502270300 AAXX 27034 67575 NIL=
201502260900 AAXX 26094 67575 NIL=
201502260600 AAXX 26064 67575 12980 40000 10202 20176 48/// 69914 70222 83072
                   333 10245 20/// 5//// 83360 81080=
201502251500 AAXX 25154 67575 NIL=
201502251200 AAXX 25124 67575 NIL=
201502250600 AAXX 25064 67575 11370 80000 10180 20180 48/// 69984 76162 887//
                   333 10275 20180 5//// 88704=
201502250300 AAXX 25034 67575 NIL=
201502231500 AAXX 23154 67575 NIL=
201502200600 AAXX 20064 67575 12480 30000 10230 20201 48/// 69964 70300 81271
                   333 10295 20188 5//// 81815 82360 81080
                   555 00/// 20000=
201502191200 AAXX 19124 67575 NIL=
201502190600 AAXX 19064 67575 32980 21001 10218 20184 48/// 69904 70200 82072
                   333 10285 20170 5//// 82360 81080
                   555 00/// 20000=
201502181200 AAXX 18124 67575 NIL=
201502180900 AAXX 18094 67575 NIL=
201502171500 AAXX 17154 67575 NIL=
201502170900 AAXX 17094 67575 NIL=
201502170300 AAXX 17034 67575 NIL=
201502160900 AAXX 16094 67575 NIL=
201502160600 AAXX 16064 67575 32380 80602 10190 20174 48/// 69904 70222 81672
                   333 10290 20170 5//// 81606 86360 82080
                   555 00/// 20025=
201502131500 AAXX 13154 67575 NIL=
201502130600 AAXX 13064 67575 12980 50000 10200 20169 48/// 69954 70222 83072
                   333 10305 20165 5//// 83360 83080
                   555 00/// 20013=
201502130300 AAXX 13034 67575 NIL=
201502120600 AAXX 12064 67575 11360 50000 10197 20182 48/// 60014 71122 83672
                   333 10270 20160 5//// 83704 83360 82080
                   555 00/// 20006=
201502110900 AAXX 11094 67575 NIL=
201502101500 AAXX 10154 67575 NIL=
201502100900 AAXX 10094 67575 NIL=
201502100600 AAXX 10064 67575 12980 70902 10215 20185 48/// 69904 70222 82572
                   333 10285 20190 5//// 82612 85360 81080=
201502091200 AAXX 09124 67575 NIL=
201502090900 AAXX 09094 67575 NIL=
201502090300 AAXX 09034 67575 NIL=
201502061500 AAXX 06154 67575 NIL=
201502060600 AAXX 06064 67575 12980 73601 10207 20174 48/// 60014 70222 85072
                   333 10292 20180 5//// 85360 82080
                   555 00/// 20000=
201502040600 AAXX 04064 67575 11480 70302 10210 20184 48/// 60024 70222 85672
                   333 10260 20175 5//// 85706 83360 81080
                   555 00/// 20064=
201502020900 AAXX 02094 67575 NIL=
201502020600 AAXX 02064 67575 11980 83601 10194 20172 48/// 60044 70222 8807/
                   333 10260 20175 5//// 88360
                   555 00/// 20280=

################################################################################
#  SYNOPS from 67580, Msekera (Zambia) | 13-39S | 032-34E | 1025 m
################################################################################
201503030600 AAXX 03064 67580 32480 71504 10220 20187 48/// 82178
                   333 10314 20/// 58028 82816 85360 87280=
201503030300 AAXX 03034 67580 NIL=
201503021500 AAXX 02154 67580 NIL=
201503020900 AAXX 02094 67580 42680 72702 10264 20206 48/// 86201
                   333 58010 86842 83080=
201503020600 AAXX 02064 67580 32580 30302 10220 20195 48/// 81131
                   333 10299 20//0 58001 81820 81361 82080=
201503011500 AAXX 01154 67580 NIL=
201502270900 AAXX 27094 67580 42680 70000 10272 20201 48/// 8427/
                   333 59001 84835 87362=
201502270600 AAXX 27064 67580 32480 70000 10225 20203 48/// 8117/
                   333 10290 20/// 58006 81815 87460=
201502270300 AAXX 27034 67580 NIL=
201502261200 AAXX 26124 67580 42780 72703 10270 20194 48/// 86232
                   333 59017 86856 81362 81080=
201502260900 AAXX 26094 67580 42680 71603 10243 20191 48/// 85238
                   333 59002 85840 83362 87280=
201502260600 AAXX 26064 67580 12480 70000 10204 20193 48/// 60264 8117/
                   333 10254 20/// 59013 81812 87460=
201502251500 AAXX 25154 67580 NIL=
201502251200 AAXX 25124 67580 NIL=
201502250600 AAXX 25064 67580 11580 70000 10219 20199 48/// 69904 76022 83531
                   333 10300 20/// 59014 83620 86360 82080=
201502250300 AAXX 25034 67580 NIL=
201502231500 AAXX 23154 67580 NIL=
201502200600 AAXX 20064 67580 12980 33302 10244 20202 48/// 60024 81031
                   333 10290 20/// 59011 81361 82080
                   555 00/// 20000=
201502191200 AAXX 19124 67580 NIL=
201502190600 AAXX 19064 67580 32580 70000 10221 20197 48/// 81131
                   333 10270 20/// 59022 81826 85360 82080
                   555 00/// 20000=
201502181200 AAXX 18124 67580 41680 71203 10255 20193 48/// 71522 872//
                   333 58000 81946 86850=
201502180900 AAXX 18094 67580 42680 81204 10236 20182 48/// 875//
                   333 58005 87635=
201502180600 AAXX 18064 67580 32480 71803 10214 20177 48/// 8117/
                   333 10269 20/// 58005 81818 87460
                   555 00/// 20023=
201502171500 AAXX 17154 67580 NIL=
201502170900 AAXX 17094 67580 42580 72404 10250 20186 48/// 878//
                   333 58004 84835 87640=
201502170600 AAXX 17064 67580 11475 71603 10204 20189 48/// 60234 72162 8217/
                   333 10260 20/// 58007 82815 87460
                   555 00/// 20006=
201502170300 AAXX 17034 67580 NIL=
201502160900 AAXX 16094 67580 42680 72703 10236 20190 48/// 86138
                   333 58003 86836 82361 84280=
201502160600 AAXX 16064 67580 12580 73602 10214 20198 48/// 60064 84138
                   333 10270 20/// 58000 84824 83360 85280
                   555 00/// 20018=
201502131500 AAXX 13154 67580 NIL=
201502130600 AAXX 13064 67580 32980 70000 10240 20214 48/// 81038
                   333 10310 20/// 59013 81362 87280
                   555 00/// 20001=
201502130300 AAXX 13034 67580 NIL=
201502120600 AAXX 12064 67580 12480 5//// 10234 20212 48/// 60014 81138
                   333 10293 20/// 59025 81816 82362 85280
                   555 00/// 20015=
201502110900 AAXX 11094 67580 42680 70000 10244 20207 48/// 81131
                   333 58024 81832 84361 83080=
201502101500 AAXX 10154 67580 NIL=
201502100900 AAXX 10094 67580 NIL=
201502100600 AAXX 10064 67580 12980 71202 10224 20188 48/// 60014 87031
                   333 10313 20/// 59003 87360 82080
                   555 00/// 20000=
201502091200 AAXX 09124 67580 41780 71203 10289 20190 48/// 71522 84232
                   333 58000 81950 83856 84362 82080=
201502090900 AAXX 09094 67580 42680 61203 10268 20189 48/// 83132
                   333 58007 83845 82361 83080=
201502090600 AAXX 09064 67580 32580 71203 10225 20195 48/// 86238
                   333 10308 20/// 58006 86820 83360 87280
                   555 00/// 20000=
201502090300 AAXX 09034 67580 NIL=
201502061500 AAXX 06154 67580 NIL=
201502061200 AAXX 06124 67580 42880 72703 10300 20199 48/// 84101
                   333 59005 84857 84080=
201502050600 AAXX 05064 67580 11480 73303 10210 20196 48/// 69954 76052 82538
                   333 10292 20/// 58004 82616 84360 87280
                   555 00/// 20002=
201502040600 AAXX 04064 67580 11980 73603 10232 20190 48/// 60024 70196 82038
                   333 10284 20/// 58001 82360 87280
                   555 00/// 20001=
201502020900 AAXX 02094 67580 NIL=
201502020600 AAXX 02064 67580 11980 80302 10209 20196 48/// 60204 70262 8803/
                   333 10250 20/// 59014 88360
                   555 00/// 20026=

################################################################################
#  SYNOPS from 67581, Chipata (Zambia) | 13-33S | 032-35E | 1028 m
################################################################################
201503030600 AAXX 03064 67581 32680 63403 10220 20183 48543 82238
                   333 10291 20175 58024 82830 83359 85280
                   555 00190 91020=
201503030300 AAXX 03034 67581 NIL=
201503021500 AAXX 02154 67581 NIL=
201503020600 AAXX 02064 67581 32480 51602 10214 20186 48520 85131
                   333 10290 20150 58000 85820 82360 82080 91017=
201503011500 AAXX 01154 67581 NIL=
201502270600 AAXX 27064 67581 32980 60000 10219 20200 48521 70222 83038
                   333 10282 20166 59004 83360 85280
                   555 00191 91018=
201502270300 AAXX 27034 67581 NIL=
201502260900 AAXX 26094 67581 42580 51203 10247 20193 48521 85230
                   333 59003 83830 81360 91017=
201502260600 AAXX 26064 67581 12580 80000 10202 20186 48569 60444 70222 82538
                   333 10261 20159 59004 82820 83360 88280 91018=
201502251500 AAXX 25154 67581 NIL=
201502251200 AAXX 25124 67581 NIL=
201502250600 AAXX 25064 67581 32680 70000 10215 20194 48528 8327/
                   333 10281 20168 59014 83240 87459 91018=
201502250300 AAXX 25034 67581 NIL=
201502231500 AAXX 23154 67581 NIL=
201502200600 AAXX 20064 67581 12980 40000 10240 20195 48506 60144 81032
                   333 10285 20171 59010 81360 83080
                   555 00196 91016=
201502191200 AAXX 19124 67581 NIL=
201502190600 AAXX 19064 67581 12660 60000 10221 20192 48520 60014 81130
                   333 10268 20159 59014 81830 86359
                   555 00188 91017=
201502181200 AAXX 18124 67581 NIL=
201502180900 AAXX 18094 67581 42580 83402 10234 20176 48541 8527/
                   333 58002 85825 88459 91019=
201502180600 AAXX 18064 67581 42580 73302 10210 20173 48532 8327/
                   333 10273 20170 59001 83825 87459
                   555 00186 20029 91019=
201502171500 AAXX 17154 67581 NIL=
201502170900 AAXX 17094 67581 NIL=
201502170300 AAXX 17034 67581 NIL=
201502160900 AAXX 16094 67581 NIL=
201502131500 AAXX 13154 67581 NIL=
201502130600 AAXX 13064 67581 32980 50000 10229 20203 48527 70222 82038
                   333 10302 20175 59014 82360 84280
                   555 00196 20000 91018=
201502130300 AAXX 13034 67581 NIL=
201502110900 AAXX 11094 67581 NIL=
201502101500 AAXX 10154 67581 NIL=
201502100900 AAXX 10094 67581 42580 52002 10272 20179 48537 83132
                   333 58003 83825 83360 83080 91018=
201502100600 AAXX 10064 67581 12980 60000 10225 20179 48535 60054 86030
                   333 10290 20156 59004 86359
                   555 00190 20004 91019=
201502091200 AAXX 09124 67581 NIL=
201502090900 AAXX 09094 67581 42580 52703 10264 20190 48532 84130
                   333 58003 84830 84360 91018=
201502090600 AAXX 09064 67581 12580 62702 10222 20187 48539 60044 84230
                   333 10288 20156 58008 84828 86360
                   555 00152 91019=
201502090300 AAXX 09034 67581 NIL=
201502061500 AAXX 06154 67581 NIL=
201502021200 AAXX 02124 67581 41660 72703 10276 20194 70522 81108
                   333 5//// 81838 87280=
201502020900 AAXX 02094 67581 NIL=
201502020600 AAXX 02064 67581 12380 70000 10206 20197 48513 60084 8367/
                   333 10225 20174 59017 83706 87459
                   555 00200 20021 91017=

################################################################################
#  SYNOPS from 67583, Lundazi (Zambia) | 12-17S | 033-12E | 1143 m
################################################################################
201503030600 AAXX 03064 67583 32580 71504 10220 20193 48/// 85531
                   333 10306 20/// 59008 85627 81360 81080=
201503030300 AAXX 03034 67583 NIL=
201503021500 AAXX 02154 67583 NIL=
201503020600 AAXX 02064 67583 32680 73502 10210 20172 81137
                   333 10305 20//0 5//// 81835 81360 87280=
201503011500 AAXX 01154 67583 NIL=
201502270600 AAXX 27064 67583 32980 51801 10250 20174 48/// 81031
                   333 10300 20/// 59003 81360 84080=
201502270300 AAXX 27034 67583 NIL=
201502260900 AAXX 26094 67583 NIL=
201502260600 AAXX 26064 67583 12980 83501 10205 20182 60044 8807/
                   333 10230 20/// 58001 88460=
201502251500 AAXX 25154 67583 NIL=
201502251200 AAXX 25124 67583 NIL=
201502250600 AAXX 25064 67583 31570 82701 10200 20193 74042 84507
                   333 10285 20/// 58000 84625 88280=
201502250300 AAXX 25034 67583 NIL=
201502231500 AAXX 23154 67583 NIL=
201502191200 AAXX 19124 67583 NIL=
201502181200 AAXX 18124 67583 NIL=
201502180900 AAXX 18094 67583 NIL=
201502171500 AAXX 17154 67583 NIL=
201502170900 AAXX 17094 67583 NIL=
201502170300 AAXX 17034 67583 NIL=
201502160900 AAXX 16094 67583 NIL=
201502131500 AAXX 13154 67583 NIL=
201502130600 AAXX 13064 67583 NIL=
201502130300 AAXX 13034 67583 NIL=
201502110900 AAXX 11094 67583 NIL=
201502101500 AAXX 10154 67583 NIL=
201502100900 AAXX 10094 67583 NIL=
201502100600 AAXX 10064 67583 12980 71201 10210 20195 48/// 60294 87031
                   333 10305 20//0 5//// 87360 81080=
201502091200 AAXX 09124 67583 NIL=
201502090900 AAXX 09094 67583 NIL=
201502090600 AAXX 09064 67583 11678 70000 10280 20187 48/// 60094 75052 81170
                   333 10295 20/// 5//// 81827 87460=
201502090300 AAXX 09034 67583 NIL=
201502061500 AAXX 06154 67583 NIL=
201502060600 AAXX 06064 67583 12980 70201 10250 20190 60024 87031
                   333 10290 20//0 59004 87360 82080=
201502050600 AAXX 05064 67583 11980 83502 10220 20190 48/// 60024 72992 85037
                   333 10320 20/// 59002 85360 87280=
201502040600 AAXX 04064 67583 12980 70000 10230 20189 48/// 60034 84031
                   333 10305 20/// 58002 84360 83080=
201502020900 AAXX 02094 67583 NIL=

################################################################################
#  SYNOPS from 67599, Mfuwe (Zambia) | 13-16S | 031-56E | 568 m
################################################################################
201503030600 AAXX 03064 67599 12370 72702 10228 20216 48540 60114 70222 81734
                   333 10333 20240 58033 81706 83359 86072 91018=
201503030300 AAXX 03034 67599 NIL=
201503021500 AAXX 02154 67599 NIL=
201503011500 AAXX 01154 67599 NIL=
201502270600 AAXX 27064 67599 12380 60000 10240 20219 48514 69994 70222 81731
                   333 10330 20235 59008 81706 84358 81070 91015=
201502270300 AAXX 27034 67599 NIL=
201502260900 AAXX 26094 67599 NIL=
201502260600 AAXX 26064 67599 11058 80000 10220 20213 48514 69994 76062 8472/
                   333 10263 20245 59006 84701 88358 91015=
201502251500 AAXX 25154 67599 NIL=
201502251200 AAXX 25124 67599 NIL=
201502250600 AAXX 25064 67599 12380 70000 10226 20218 48523 60044 70222 877//
                   333 10311 20240 59011 87706 91016=
201502250300 AAXX 25034 67599 NIL=
201502231500 AAXX 23154 67599 NIL=
201502200600 AAXX 20064 67599 32980 40000 10265 20230 48510 84030
                   333 10335 20260 59016 84360 91013=
201502191200 AAXX 19124 67599 NIL=
201502181200 AAXX 18124 67599 NIL=
201502180900 AAXX 18094 67599 NIL=
201502171500 AAXX 17154 67599 NIL=
201502170900 AAXX 17094 67599 NIL=
201502170300 AAXX 17034 67599 NIL=
201502160900 AAXX 16094 67599 NIL=
201502131500 AAXX 13154 67599 NIL=
201502130600 AAXX 13064 67599 NIL=
201502130300 AAXX 13034 67599 NIL=
201502110900 AAXX 11094 67599 NIL=
201502101500 AAXX 10154 67599 NIL=
201502100900 AAXX 10094 67599 NIL=
201502100600 AAXX 10064 67599 12980 71803 10220 20211 48523 60144 70222 8703/
                   333 10336 20240 58000 87359
                   555 00/// 91017=
201502091200 AAXX 09124 67599 NIL=
201502090900 AAXX 09094 67599 NIL=
201502090600 AAXX 09064 67599 11359 70000 10235 20221 48530 60064 74144 8273/
                   333 10320 20210 58007 82706 87358
                   555 00/// 91017=
201502090300 AAXX 09034 67599 NIL=
201502061500 AAXX 06154 67599 NIL=
201502020900 AAXX 02094 67599 NIL=
201502020600 AAXX 02064 67599 11380 80000 10235 20221 48506 60034 75066 8357/
                   333 10290 20216 59013 83608 88459
                   555 00/// 20001 91014=

################################################################################
#  SYNOPS from 67625, Kalabo (Zambia) | 14-51S | 022-42E | 1033 m
################################################################################
201503030600 AAXX 03064 67625 32982 60904 10210 20196 48/// 8605/
                   333 10300 20185 59009 86360=
201503030300 AAXX 03034 67625 NIL=
201503021500 AAXX 02154 67625 NIL=
201503020600 AAXX 02064 67625 12482 61807 10210 20204 48/// 60504 8664/
                   333 10275 20180 58001 83720 83360=
201503011500 AAXX 01154 67625 NIL=
201502270600 AAXX 27064 67625 32982 43605 10220 20198 48/// 84031
                   333 10325 20190 59008 83360 81075=
201502270300 AAXX 27034 67625 NIL=
201502260900 AAXX 26094 67625 42682 53604 10275 20196 48/// 85201
                   333 58012 83830 81075=
201502260600 AAXX 26064 67625 32982 22806 10220 20191 48/// 82001
                   333 10/// 20/// 58017 82075=
201502251500 AAXX 25154 67625 NIL=
201502251200 AAXX 25124 67625 NIL=
201502250600 AAXX 25064 67625 12382 50404 10219 20205 48/// 60014 85361
                   333 10320 20179 59016 85706 81360=
201502250300 AAXX 25034 67625 NIL=
201502231500 AAXX 23154 67625 NIL=
201502191200 AAXX 19124 67625 NIL=
201502181200 AAXX 18124 67625 NIL=
201502180900 AAXX 18094 67625 NIL=
201502180600 AAXX 18064 67625 12982 30601 10223 20202 48/// 60024 80003
                   333 10348 20221 58008 83075
                   555 00/// 20000=
201502171500 AAXX 17154 67625 NIL=
201502170900 AAXX 17094 67625 NIL=
201502170300 AAXX 17034 67625 NIL=
201502160900 AAXX 16094 67625 NIL=
201502160600 AAXX 16064 67625 32982 33601 10213 20193 48/// 83030
                   333 10304 20174 59005 83360
                   555 00/// 20000=
201502131500 AAXX 13154 67625 NIL=
201502130600 AAXX 13064 67625 32482 70902 10233 20211 48/// 83633
                   333 10330 20200 59004 83710 87360 83075
                   555 00/// 20000=
201502130300 AAXX 13034 67625 NIL=
201502110900 AAXX 11094 67625 NIL=
201502101500 AAXX 10154 67625 NIL=
201502100900 AAXX 10094 67625 NIL=
201502100600 AAXX 10064 67625 12982 10904 10214 20203 48/// 60124 80001
                   333 10339 20167 58011 81075
                   555 00///=
201502091200 AAXX 09124 67625 NIL=
201502090900 AAXX 09094 67625 NIL=
201502090600 AAXX 09064 67625 32982 73601 10220 20194 48/// 87033
                   333 10357 20184 59012 87360 82075=
201502090300 AAXX 09034 67625 NIL=
201502061500 AAXX 06154 67625 NIL=
201502060600 AAXX 06064 67625 32982 23304 10233 20215 48/// 80001
                   333 10359 20190 59006 82075=
201502050600 AAXX 05064 67625 32982 63204 10229 20197 48/// 81033
                   333 10349 20184 58008 81360 86075=
201502040600 AAXX 04064 67625 32982 63604 10216 20206 48/// 86033
                   333 10307 20189 58006 86360 84075=
201502020900 AAXX 02094 67625 NIL=
201502020600 AAXX 02064 67625 11282 73301 10209 20206 48/// 60174 72166 84723
                   333 10300 20182 58003 84703 87460 85075=

################################################################################
#  SYNOPS from 67633, Mongu (Zambia) | 15-15S | 023-09E | 1052 m
################################################################################
201503030600 AAXX 03064 67633 12980 70902 10216 20202 48516 60034 70222 8707/
                   333 10309 20194 58013 87460 91017=
201503030300 AAXX 03034 67633 NIL=
201503021500 AAXX 02154 67633 NIL=
201503020600 AAXX 02064 67633 32975 73305 10208 20199 48495 70222 87070
                   333 10270 20190 59004 87460 91016=
201503011500 AAXX 01154 67633 NIL=
201502270600 AAXX 27064 67633 32980 50606 10239 20191 48503 70222 85030
                   333 10320 20204 58006 85360 91016=
201502270300 AAXX 27034 67633 NIL=
201502260900 AAXX 26094 67633 NIL=
201502260600 AAXX 26064 67633 32980 30000 10231 20194 48496 70200 83030
                   333 10310 20189 59012 83361 91015=
201502251500 AAXX 25154 67633 NIL=
201502251200 AAXX 25124 67633 NIL=
201502250600 AAXX 25064 67633 12980 30603 10220 20198 48506 60014 82032
                   333 10320 20185 59024 82360 83080 91016=
201502250300 AAXX 25034 67633 NIL=
201502231500 AAXX 23154 67633 NIL=
201502200600 AAXX 20064 67633 32980 33602 10245 20202 48498 70200 83030
                   333 10323 20186 58004 83361 91015=
201502191200 AAXX 19124 67633 NIL=
201502190600 AAXX 19064 67633 32980 10903 10220 20176 48470 70200 80002
                   333 10322 20174 59028 81080 91015=
201502181200 AAXX 18124 67633 NIL=
201502180900 AAXX 18094 67633 NIL=
201502171500 AAXX 17154 67633 NIL=
201502170900 AAXX 17094 67633 NIL=
201502170600 AAXX 17064 67633 32980 60504 10241 20187 48519 70122 83030
                   333 10330 20182 58015 83360 91018=
201502170300 AAXX 17034 67633 NIL=
201502160900 AAXX 16094 67633 42680 23004 10275 20208 48518 70300 81130
                   333 59014 81840 82360 91016=
201502160600 AAXX 16064 67633 32980 53606 10235 20192 48506 70222 85030
                   333 10310 20195 59009 85360 91016=
201502131500 AAXX 13154 67633 NIL=
201502130600 AAXX 13064 67633 12980 73605 10230 20194 48514 60034 70222 8707/
                   333 10310 20195 59007 87460 91017=
201502130300 AAXX 13034 67633 NIL=
201502110900 AAXX 11094 67633 42680 50703 10290 20195 48540 70322 82132
                   333 58011 82840 82361 81080 91019=
201502101500 AAXX 10154 67633 NIL=
201502100900 AAXX 10094 67633 NIL=
201502100600 AAXX 10064 67633 12980 10904 10235 20151 48521 60014 70200 80002
                   333 10335 20205 58013 81080 91018=
201502091200 AAXX 09124 67633 42780 50903 10312 20185 48501 70222 84202
                   333 58000 84850 82080 91014=
201502090900 AAXX 09094 67633 NIL=
201502090600 AAXX 09064 67633 12980 30604 10230 20189 48507 60234 70111 83030
                   333 10348 20178 59010 83360 91016=
201502090300 AAXX 09034 67633 NIL=
201502061500 AAXX 06154 67633 NIL=
201502060600 AAXX 06064 67633 32980 23602 10245 20202 48495 70200 80002
                   333 10352 20200 59002 82080 91015=
201502050600 AAXX 05064 67633 32980 23603 10236 20198 48497 70200 82030
                   333 10338 20202 58003 82361 91015=
201502040600 AAXX 04064 67633 32980 53607 10220 20188 48491 70222 84032
                   333 10313 20200 58008 84360 83080 91014=
201502020900 AAXX 02094 67633 NIL=
201502020600 AAXX 02064 67633 12958 73604 10215 20206 48492 60014 76062 8367/
                   333 10300 20192 59012 83710 84360 91015=

################################################################################
#  SYNOPS from 67641, Kaoma (Zambia) | 14-48S | 024-48E | 1213 m
################################################################################
201503030600 AAXX 03064 67641 12580 70905 10210 20189 48490 69954 85530
                   333 10301 20191 58000 85630 82360 91015=
201503030300 AAXX 03034 67641 NIL=
201503021500 AAXX 02154 67641 NIL=
201503020600 AAXX 02064 67641 12980 7//// 10212 20197 48490 60024 87030
                   333 10252 20195 59010 87360 91015=
201503011500 AAXX 01154 67641 NIL=
201502270300 AAXX 27034 67641 NIL=
201502260900 AAXX 26094 67641 NIL=
201502251500 AAXX 25154 67641 NIL=
201502251200 AAXX 25124 67641 NIL=
201502250300 AAXX 25034 67641 NIL=
201502231500 AAXX 23154 67641 NIL=
201502191200 AAXX 19124 67641 NIL=
201502181200 AAXX 18124 67641 NIL=
201502180900 AAXX 18094 67641 NIL=
201502171500 AAXX 17154 67641 NIL=
201502170900 AAXX 17094 67641 NIL=
201502170300 AAXX 17034 67641 NIL=
201502160900 AAXX 16094 67641 NIL=
201502131500 AAXX 13154 67641 NIL=
201502130600 AAXX 13064 67641 NIL=
201502130300 AAXX 13034 67641 NIL=
201502120600 AAXX 12064 67641 32980 71701 10202 20191 48508 86560
                   333 10315 20187 58010 86640 81360
                   555 00/// 91017=
201502110900 AAXX 11094 67641 NIL=
201502101500 AAXX 10154 67641 NIL=
201502100900 AAXX 10094 67641 NIL=
201502100600 AAXX 10064 67641 NIL=
201502091200 AAXX 09124 67641 NIL=
201502090900 AAXX 09094 67641 NIL=
201502090600 AAXX 09064 67641 12982 10804 10226 20188 48505 69954 81030
                   333 10332 20184 59001 81360
                   555 00/// 20995 91016=
201502090300 AAXX 09034 67641 NIL=
201502061500 AAXX 06154 67641 NIL=
201502020900 AAXX 02094 67641 NIL=

################################################################################
#  SYNOPS from 67655, Mumbwa (Zambia) | 15-04S | 027-11E | 1216 m
################################################################################
201503030300 AAXX 03034 67655 NIL=
201503021500 AAXX 02154 67655 NIL=
201503011500 AAXX 01154 67655 NIL=
201502270300 AAXX 27034 67655 NIL=
201502260900 AAXX 26094 67655 NIL=
201502260600 AAXX 26064 67655 12980 60806 10207 20184 48521 69934 8603/
                   333 10279 20/// 59003 86359 91018=
201502251500 AAXX 25154 67655 NIL=
201502251200 AAXX 25124 67655 NIL=
201502250300 AAXX 25034 67655 NIL=
201502231500 AAXX 23154 67655 NIL=
201502191200 AAXX 19124 67655 NIL=
201502181200 AAXX 18124 67655 NIL=
201502180900 AAXX 18094 67655 NIL=
201502171500 AAXX 17154 67655 NIL=
201502170900 AAXX 17094 67655 NIL=
201502170300 AAXX 17034 67655 NIL=
201502160900 AAXX 16094 67655 NIL=
201502131500 AAXX 13154 67655 NIL=
201502130600 AAXX 13064 67655 NIL=
201502130300 AAXX 13034 67655 NIL=
201502110900 AAXX 11094 67655 NIL=
201502101500 AAXX 10154 67655 NIL=
201502100900 AAXX 10094 67655 NIL=
201502100600 AAXX 10064 67655 NIL=
201502091200 AAXX 09124 67655 NIL=
201502090900 AAXX 09094 67655 NIL=
201502090300 AAXX 09034 67655 NIL=
201502061500 AAXX 06154 67655 NIL=
201502020900 AAXX 02094 67655 NIL=

################################################################################
#  SYNOPS from 67659, Kafue Polder (Zambia) | 15-46S | 027-55E | 978 m
################################################################################
201503030300 AAXX 03034 67659 NIL=
201503021500 AAXX 02154 67659 NIL=
201503011500 AAXX 01154 67659 NIL=
201502271200 AAXX 27124 67659 42680 30000 10303 20177 48/// 70222 83200
                   333 58002 83835=
201502270300 AAXX 27034 67659 NIL=
201502260900 AAXX 26094 67659 NIL=
201502251500 AAXX 25154 67659 NIL=
201502251200 AAXX 25124 67659 NIL=
201502250300 AAXX 25034 67659 NIL=
201502231500 AAXX 23154 67659 NIL=
201502191200 AAXX 19124 67659 NIL=
201502181200 AAXX 18124 67659 NIL=
201502180900 AAXX 18094 67659 NIL=
201502171500 AAXX 17154 67659 NIL=
201502170900 AAXX 17094 67659 NIL=
201502170300 AAXX 17034 67659 NIL=
201502160900 AAXX 16094 67659 NIL=
201502131500 AAXX 13154 67659 NIL=
201502130600 AAXX 13064 67659 NIL=
201502130300 AAXX 13034 67659 NIL=
201502110900 AAXX 11094 67659 NIL=
201502101500 AAXX 10154 67659 NIL=
201502100900 AAXX 10094 67659 NIL=
201502100600 AAXX 10064 67659 NIL=
201502091200 AAXX 09124 67659 NIL=
201502090900 AAXX 09094 67659 NIL=
201502090300 AAXX 09034 67659 NIL=
201502061500 AAXX 06154 67659 NIL=
201502020900 AAXX 02094 67659 NIL=

################################################################################
#  SYNOPS from 67662, Kabwe Agric (Zambia) | 14-24S | 028-30E | 1165 m
################################################################################
201503030300 AAXX 03034 67662 NIL=
201503021500 AAXX 02154 67662 NIL=
201503011500 AAXX 01154 67662 NIL=
201502270600 AAXX 27064 67662 12480 70502 10212 20192 48/// 60354 82130
                   333 10273 20/// 5//// 82816 87360=
201502270300 AAXX 27034 67662 NIL=
201502260900 AAXX 26094 67662 NIL=
201502260600 AAXX 26064 67662 12480 71502 10208 20188 48/// 60024 81130
                   333 10262 20//0 5//// 81818 87360=
201502251500 AAXX 25154 67662 NIL=
201502251200 AAXX 25124 67662 NIL=
201502250600 AAXX 25064 67662 32480 73004 10195 20180 84530
                   333 10265 20/// 5//// 84614 87360=
201502250300 AAXX 25034 67662 NIL=
201502231500 AAXX 23154 67662 NIL=
201502191200 AAXX 19124 67662 NIL=
201502181200 AAXX 18124 67662 NIL=
201502180900 AAXX 18094 67662 NIL=
201502171500 AAXX 17154 67662 NIL=
201502170900 AAXX 17094 67662 NIL=
201502170300 AAXX 17034 67662 NIL=
201502160900 AAXX 16094 67662 NIL=
201502131500 AAXX 13154 67662 NIL=
201502130600 AAXX 13064 67662 NIL=
201502130300 AAXX 13034 67662 NIL=
201502110900 AAXX 11094 67662 NIL=
201502101500 AAXX 10154 67662 NIL=
201502100900 AAXX 10094 67662 NIL=
201502100600 AAXX 10064 67662 32480 61103 10195 20164 48/// 81132
                   333 10290 20/// 5//// 81818 83360 82080=
201502091200 AAXX 09124 67662 NIL=
201502090900 AAXX 09094 67662 NIL=
201502090600 AAXX 09064 67662 32480 51006 10236 20175 48/// 81102
                   333 10313 20/// 5//// 81816 84080=
201502090300 AAXX 09034 67662 NIL=
201502061500 AAXX 06154 67662 NIL=
201502050600 AAXX 05064 67662 12980 70902 10200 20187 48/// 60054 8707/
                   333 10272 20/// 5//// 87360=
201502020900 AAXX 02094 67662 NIL=
201502020600 AAXX 02064 67662 12980 81102 10202 20184 48/// 60064 8807/
                   333 10257 20/// 5//// 88460=

################################################################################
#  SYNOPS from 67663, Kabwe (Zambia) | 14-27S | 028-28E | 1206 m
################################################################################
201503030600 AAXX 03064 67663 11480 80906 10184 20180 48559 60224 76166 885//
                   333 10287 20179 58030 88618=
201503030300 AAXX 03034 67663 NIL=
201503021500 AAXX 02154 67663 NIL=
201503020600 AAXX 02064 67663 12980 70304 10102 20186 48532 60094 84038
                   333 10268 20175 58002 84360 87280=
201503011500 AAXX 01154 67663 NIL=
201502270600 AAXX 27064 67663 12980 70000 10208 20189 48528 60034 87070
                   333 10276 20174 58005 87460=
201502270300 AAXX 27034 67663 NIL=
201502260900 AAXX 26094 67663 NIL=
201502260600 AAXX 26064 67663 12980 53604 10195 20183 48520 60214 70222 85030
                   333 10266 20174 59011 85360=
201502251500 AAXX 25154 67663 NIL=
201502251200 AAXX 25124 67663 NIL=
201502250600 AAXX 25064 67663 32480 82705 10199 20182 48531 70322 8357/
                   333 10268 20191 59018 83618 87460=
201502250300 AAXX 25034 67663 NIL=
201502231500 AAXX 23154 67663 NIL=
201502200600 AAXX 20064 67663 32580 43603 10223 20192 48503 70300 83502
                   333 10292 20179 59021 83620 83080
                   555 00/// 20000=
201502191200 AAXX 19124 67663 NIL=
201502190600 AAXX 19064 67663 32580 30603 10206 20186 48523 70300 83500
                   333 10299 20179 59009 83620
                   555 00/// 20000=
201502181200 AAXX 18124 67663 NIL=
201502180900 AAXX 18094 67663 NIL=
201502180600 AAXX 18064 67663 32580 32106 10210 20189 48532 81532
                   333 10286 20165 58000 81620 82360 82080
                   555 00/// 20990=
201502171500 AAXX 17154 67663 NIL=
201502170900 AAXX 17094 67663 NIL=
201502170600 AAXX 17064 67663 12980 61805 10200 20185 48531 69904 80008
                   333 10287 20170 58003 86280
                   555 00/// 20003=
201502170300 AAXX 17034 67663 NIL=
201502160900 AAXX 16094 67663 NIL=
201502160600 AAXX 16064 67663 11480 81807 10201 20186 48528 60034 72166 8257/
                   333 10270 20182 58011 82617 88460
                   555 00/// 20992=
201502131500 AAXX 13154 67663 NIL=
201502130600 AAXX 13064 67663 32980 61303 10203 20184 48525 70222 83038
                   333 10310 20183 59011 83360 86280
                   555 00/// 20013=
201502130300 AAXX 13034 67663 NIL=
201502120600 AAXX 12064 67663 12980 60404 10199 20185 48534 60134 70322 81038
                   333 10285 20172 59015 81360 86280
                   555 00/// 20252=
201502110900 AAXX 11094 67663 NIL=
201502101500 AAXX 10154 67663 NIL=
201502100900 AAXX 10094 67663 NIL=
201502100600 AAXX 10064 67663 32980 40912 10208 20169 48533 83032
                   333 10285 20162 58002 83360 82080
                   555 00/// 20000=
201502091200 AAXX 09124 67663 NIL=
201502090900 AAXX 09094 67663 NIL=
201502090600 AAXX 09064 67663 32980 41605 10210 20179 48531 82032
                   333 10292 20180 58003 82360 83080
                   555 00/// 20000=
201502090300 AAXX 09034 67663 NIL=
201502061500 AAXX 06154 67663 NIL=
201502060600 AAXX 06064 67663 12980 52704 10216 20181 48504 60134 70222 84032
                   333 10253 20186 59001 84360 84080
                   555 00/// 20018=
201502050600 AAXX 05064 67663 12980 63604 10212 20189 48505 60024 70322 86030
                   333 10274 20180 58011 86360
                   555 00/// 20040=
201502040600 AAXX 04064 67663 12480 83007 10202 20191 48493 60044 8567/
                   333 10277 20191 58009 85617 87460
                   555 00/// 20025=
201502020900 AAXX 02094 67663 NIL=
201502020600 AAXX 02064 67663 12480 72704 10199 20184 48499 60074 70322 8653/
                   333 10246 20182 59039 86619 86360
                   555 00/// 20020=

################################################################################
#  SYNOPS from 67665, Lusaka Internationalairport (Zambia) | 15-19S | 028-27E | 1152 m
################################################################################
201503030300 AAXX 03034 67665 NIL=
201503021500 AAXX 02154 67665 NIL=
201503021200 AAXX 02124 67665 42680 72803 10271 20222 48497 862//
                   333 58004 86835=
201503020900 AAXX 02094 67665 22580 73002 10236 20205 48519 70222 8483/
                   333 58007 81825 84628 87359=
201503020600 AAXX 02064 67665 12480 73005 10191 20175 48510 60034 70322 8653/
                   333 10278 20/// 59003 86615 86359=
201503020300 AAXX 02034 67665 42959 60000 10187 20171 48491 70222 86030
                   333 59008 86360=
201503020000 AAXX 02004 67665 41359 70000 10189 20173 48499 75022 8467/
                   333 59004 84709 87459=
201503012100 AAXX 01214 67665 42960 53104 10191 20170 48507 70222 85030
                   333 59014 85359=
201503011500 AAXX 01154 67665 NIL=
201503010300 AAXX 01034 67665 41356 81802 10172 20151 48497 74242 8563/
                   333 59007 85708 83360=
201502282100 AAXX 28214 67665 42960 62602 10196 20174 48522 8603/
                   333 58012 86360=
201502281800 AAXX 28184 67665 42960 50000 10201 20178 48512 70222 83032
                   333 10294 58009 83360 85080=
201502281500 AAXX 28154 67665 42760 70000 10219 20197 48494 70222 81930
                   333 58006 81950 87360=
201502281200 AAXX 28124 67665 41660 70000 10197 20197 48507 79599 8194/
                   333 58015 81935 87459=
201502280600 AAXX 28064 67665 32580 71203 10210 20174 48530 8125/
                   333 10//0 20//0 58010 81820 87360=
201502271500 AAXX 27154 67665 42660 71310 10250 20174 48491 8193/
                   333 58001 81940 83842 85360=
201502271200 AAXX 27124 67665 42680 51004 10275 20168 48501 84230
                   333 59001 84838 81360=
201502270900 AAXX 27094 67665 42580 50702 10247 20179 48523 84630
                   333 58001 84625 83360=
201502270300 AAXX 27034 67665 NIL=
201502262100 AAXX 26214 67665 42980 62002 10181 20158 48503 70222 86030
                   333 58005 86360=
201502261800 AAXX 26184 67665 42660 53005 10205 20176 48499 82930
                   333 82950 84360=
201502261500 AAXX 26154 67665 42680 61105 10240 20212 48489 82932
                   333 59012 82940 82845 84360 82080=
201502260900 AAXX 26094 67665 NIL=
201502251500 AAXX 25154 67665 NIL=
201502251200 AAXX 25124 67665 NIL=
201502250900 AAXX 25094 67665 41458 80304 10209 20179 48525 76022 8657/
                   333 58034 86615 87459=
201502250300 AAXX 25034 67665 NIL=
201502241200 AAXX 24124 67665 42580 60706 10255 20188 48530 85200
                   333 59011 85825=
201502240600 AAXX 24064 67665 11358 80905 10190 20182 48550 8674/
                   333 10250 20/// 58006 86709 88359=
201502240300 AAXX 24034 67665 42360 41009 10181 20165 48529 70200 83630
                   333 59004 83708 83360=
201502232100 AAXX 23214 67665 42960 71306 10186 20165 48535 72052 8702/
                   333 58004 87459=
201502231800 AAXX 23184 67665 41760 71008 10191 20176 48536 71322 81932
                   333 58028 81956 86360 84080=
201502231500 AAXX 23154 67665 42380 81203 10214 20194 48543 70262 82933
                   333 58036 83608 81938 82359 87080=
201502230300 AAXX 23034 67665 41359 80715 10194 20194 48534 78186 8677/
                   333 58026 86715 87459=
201502230000 AAXX 23004 67665 42960 71305 10202 20194 48523 72586 8707/
                   333 58016 87459=
201502221800 AAXX 22184 67665 41760 61003 10218 20180 48518 71322 81902
                   333 10302 58018 81956 85080=
201502221500 AAXX 22154 67665 41780 61104 10257 20182 48504 71799 81901
                   333 58017 81940 84850 83080=
201502221200 AAXX 22124 67665 42680 51204 10286 20184 48510 70122 85201
                   333 58005 85840 82080=
201502211800 AAXX 21184 67665 42680 40304 10222 20165 48501 72992 82930
                   333 58008 82948 83360=
201502211500 AAXX 21154 67665 42680 41206 10271 20173 48489 82960
                   333 58003 82942 83845 82360=
201502211200 AAXX 21124 67665 42680 50806 10272 20183 48505 81901
                   333 58005 81935 84840 82080=
201502210900 AAXX 21094 67665 42680 60910 10260 20177 48520 70322 85501
                   333 59003 85630 84080=
201502210300 AAXX 21034 67665 42980 61204 10176 20135 48499 70222 80001
                   333 58000 86080=
201502210000 AAXX 21004 67665 42980 41602 10185 20140 48496 70222 80001
                   333 58003 84080=
201502201800 AAXX 20184 67665 42680 31003 10231 20169 48493 82902
                   333 58007 82945 82080=
201502201500 AAXX 20154 67665 42680 31405 10273 48486 82902
                   333 58005 82935 82838 81080=
201502201200 AAXX 20124 67665 42680 50906 10281 20176 48502 70322 83202
                   333 59006 83830 83080=
201502200600 AAXX 20064 67665 31960 11105 10213 20183 48513 71000 81031
                   333 10242 20//0 58000 81360 81080=
201502191500 AAXX 19154 67665 42680 41707 10275 20177 48492 70222 84202
                   333 59014 84840 81080=
201502191200 AAXX 19124 67665 NIL=
201502190900 AAXX 19094 67665 42580 40905 10251 20175 48525 70100 84200
                   333 59011 84825 91018=
201502181200 AAXX 18124 67665 NIL=
201502180900 AAXX 18094 67665 NIL=
201502180600 AAXX 18064 67665 12580 51303 10205 20190 48534 69914 70200 82131
                   333 10286 20//0 59004 82820 84360 82080=
201502180300 AAXX 18034 67665 42980 10000 10170 20162 48514 70200 80001
                   333 59002 81080=
201502172100 AAXX 17214 67665 42980 20000 10180 20162 48523 70200 80001
                   333 59003 82080=
201502171500 AAXX 17154 67665 NIL=
201502171200 AAXX 17124 67665 42680 60507 10265 20183 48522 70222 86200
                   333 58011 86838=
201502170900 AAXX 17094 67665 42580 50609 10245 20186 48543 85200
                   333 58005 85825=
201502170600 AAXX 17064 67665 31359 60605 10185 20162 48535 74644 86530
                   333 58021 86610 82360=
201502170300 AAXX 17034 67665 NIL=
201502170000 AAXX 17004 67665 42980 22603 10172 20139 48515 82030
                   333 58022 82360=
201502162100 AAXX 16214 67665 42960 21803 10190 20166 48527 82030
                   333 58015 82360=
201502161800 AAXX 16184 67665 42960 43003 10213 20186 48511 70122 82032
                   333 10295 58018 82360 84080=
201502161500 AAXX 16154 67665 41760 62705 10219 20191 48494 71782 81902
                   333 58013 81950 85850 84080=
201502161200 AAXX 16124 67665 42680 63104 10267 20176 48511 70222 86202
                   333 58005 86840 83080=
201502160900 AAXX 16094 67665 NIL=
201502151800 AAXX 15184 67665 42680 32605 10208 20160 48494 81930
                   333 59004 81950 82360=
201502151500 AAXX 15154 67665 42680 52506 10250 20181 48484 83232
                   333 10270 20//0 58000 83840 81360 82080=
201502150000 AAXX 15004 67665 41680 72804 10200 20164 48498 71322 8193/
                   333 59006 81940 87359=
201502141200 AAXX 14124 67665 42380 52610 10289 20194 48508 83202
                   333 59003 83820 83080=
201502131500 AAXX 13154 67665 NIL=
201502131200 AAXX 13124 67665 42680 70503 10287 20183 48504 70222 85202
                   333 59019 81940 85840 82080=
201502130600 AAXX 13064 67665 NIL=
201502130300 AAXX 13034 67665 NIL=
201502121200 AAXX 12124 67665 42680 71204 10275 20186 48522 84231
                   333 59022 84845 82359 83080=
201502120900 AAXX 12094 67665 42580 70806 10249 20205 48541 70222 872//
                   333 59017 87825=
201502112100 AAXX 11214 67665 42980 41201 10216 20160 48546 70222 84030
                   333 58017 84360=
201502111800 AAXX 11184 67665 42980 30000 10222 20160 48534 70100 83030
                   333 10284 58013 83360=
201502111500 AAXX 11154 67665 42680 42503 10267 20190 48526 70100 82932
                   333 58005 82948 81360 83080 91018=
201502111200 AAXX 11124 67665 42660 73303 10240 20186 48538 70322 8323/
                   333 58026 83835 87360=
201502110900 AAXX 11094 67665 42460 80205 10210 20195 48552 8657/
                   333 58017 86620 87459=
201502110300 AAXX 11034 67665 42980 70603 10200 20176 48527 8703/
                   333 58006 87360=
201502110000 AAXX 11004 67665 42980 61403 10197 20174 48517 86030
                   333 59003 86360=
201502102100 AAXX 10214 67665 42980 40604 10202 20171 48527 84030
                   333 58000 84360=
201502101500 AAXX 10154 67665 NIL=
201502101200 AAXX 10124 67665 42680 61008 10278 20198 48518 70222 86200
                   333 58000 86840=
201502100900 AAXX 10094 67665 NIL=
201502100600 AAXX 10064 67665 NIL=
201502091200 AAXX 09124 67665 42680 50811 10270 20173 48517 70222 85200
                   333 59003 85840=
201502090900 AAXX 09094 67665 42580 50609 10254 20191 48538 70322 83800
                   333 59003 83825 82628 91020=
201502090300 AAXX 09034 67665 NIL=
201502081200 AAXX 08124 67665 42680 50708 10287 20179 48522 70322 85100
                   333 58002 85830=
201502071200 AAXX 07124 67665 42680 53103 10287 20191 48520 70301 84201
                   333 58026 84835 82080=
201502070300 AAXX 07034 67665 42980 51002 10186 20163 48500 85030
                   333 58011 85360=
201502070000 AAXX 07004 67665 42980 73503 10208 20185 48499 8703/
                   333 58002 87360=
201502062100 AAXX 06214 67665 41680 71003 10216 20194 48510 71322 8193/
                   333 58004 81940 87360=
201502061800 AAXX 06184 67665 41680 61202 10234 20217 48490 71322 8193/
                   333 58002 81945 86360=
201502061500 AAXX 06154 67665 NIL=
201502060900 AAXX 06094 67665 42980 62608 10267 20226 48516 70122 83031
                   333 58002 83360 85080=
201502051500 AAXX 05154 67665 42680 52512 10291 20205 48477 81902
                   333 59009 81940 83845 85080=
201502051200 AAXX 05124 67665 42680 52604 10288 20224 48497 85102
                   333 59008 85838 82080=
201502050900 AAXX 05094 67665 42680 42713 10255 20204 48512 70100 82132
                   333 59003 82830 81360 83080 91017=
201502050600 AAXX 05064 67665 12580 31704 10205 20190 48510 60064 70200 82231
                   333 10258 20//0 58007 82820 81360 83080=
201502050300 AAXX 05034 67665 42980 30000 10176 20160 48490 70200 83030
                   333 58007 83360=
201502042100 AAXX 04214 67665 42960 42502 10189 20174 48506 70222 84030
                   333 58012 84360=
201502041800 AAXX 04184 67665 42760 73103 10198 20167 48493 70222 8703/
                   333 10258 58012 81956 87560=
201502041500 AAXX 04154 67665 42660 72707 10214 20192 48477 70222 8353/
                   333 58015 83640 87360=
201502041200 AAXX 04124 67665 41559 72606 10195 20186 48496 79522 8197/
                   333 58002 81920 85825 87459=
201502040900 AAXX 04094 67665 42460 82307 10234 20219 48512 8783/
                   333 58014 84815 85618 86359=
201502040600 AAXX 04064 67665 12360 82704 10207 20194 48502 60114 8863/
                   333 10225 20//0 58015 88708 86360=
201502031800 AAXX 03184 67665 42760 72603 10210 20195 48483 70222 81930
                   333 58011 81956 85360=
201502031500 AAXX 03154 67665 42670 72605 10232 20186 48465 72522 84839
                   333 58011 83630 83835 84360=
201502031200 AAXX 03124 67665 42570 62910 10249 20198 48480 70222 85530
                   333 59013 85725 85360=
201502021800 AAXX 02184 67665 41/60 52304 10213 20175 48472 72582 85030
                   333 10270 59022 819// 85360=
201502021500 AAXX 02154 67665 42660 52909 10264 20168 48564 70122 83231
                   333 58007 83840 82360 81080=
201502021200 AAXX 02124 67665 42560 73014 10254 20181 48491 70122 83532
                   333 59010 83628 84360 86080=
201502020900 AAXX 02094 67665 NIL=
201502020600 AAXX 02064 67665 12360 72708 10205 20191 48508 60014 75022 8563/
                   333 10270 20//0 59013 85708 87459=
201502011200 AAXX 01124 67665 42580 73008 10228 20190 48500 70282 8227/
                   333 59016 82825 87458=
201502010600 AAXX 01064 67665 12360 83103 10199 20173 48520 8763/
                   333 59004 87708 87360=

################################################################################
#  SYNOPS from 67666, Lusaka City Airport (Zambia) | 15-25-00S | 028-28-00E | 1280 m
################################################################################
201503030600 AAXX 03064 67666 11370 81010 10176 20167 48526 60094 75121 887//
                   333 10259 20120 58033 88708 91021=
201503030300 AAXX 03034 67666 NIL=
201503021500 AAXX 02154 67666 NIL=
201503020600 AAXX 02064 67666 12380 70905 1//// 20175 48500 60084 8457/
                   333 10256 20121 59001 84610 83359 91017=
201503011500 AAXX 01154 67666 NIL=
201502270600 AAXX 27064 67666 11970 50902 10200 20185 48510 60124 71122 84032
                   333 10249 20100 59001 84360 82080 91018=
201502270300 AAXX 27034 67666 NIL=
201502260900 AAXX 26094 67666 NIL=
201502260600 AAXX 26064 67666 12980 60905 10209 20178 48510 60054 86050
                   333 10239 20105 59014 86360 91018=
201502251500 AAXX 25154 67666 NIL=
201502251200 AAXX 25124 67666 NIL=
201502250600 AAXX 25064 67666 31480 80703 10197 20195 48520 70322 877//
                   333 10236 20120 59020 87708 91019=
201502250300 AAXX 25034 67666 NIL=
201502231500 AAXX 23154 67666 NIL=
201502230600 AAXX 23064 67666 11480 80906 10196 20192 48538 60054 71222 8377/
                   333 10248 20125 58027 83710 88358 91021=
201502200900 AAXX 20094 67666 42580 50906 10254 20195 48514 82101
                   333 59004 82825 85080 91017=
201502200600 AAXX 20064 67666 32980 21204 10215 20185 48502 80001
                   333 10281 20115 58005 82080 91017=
201502191200 AAXX 19124 67666 NIL=
201502190600 AAXX 19064 67666 11475 30908 10203 20185 48510 60064 71100 83530
                   333 10265 20119 59016 83616 81360 91017=
201502181200 AAXX 18124 67666 NIL=
201502180900 AAXX 18094 67666 NIL=
201502180600 AAXX 18064 67666 12375 60000 10/// 20189 48520 60064 8467/
                   333 10261 20/// 59004 84707 83358 91019=
201502171500 AAXX 17154 67666 NIL=
201502170900 AAXX 17094 67666 NIL=
201502170600 AAXX 17064 67666 32980 21206 10214 20178 48530 81071
                   333 10275 20157 58010 81359 82080 91020=
201502170300 AAXX 17034 67666 NIL=
201502160900 AAXX 16094 67666 42480 70000 10246 20178 48524 82231
                   333 58009 82820 83359 83080 91019=
201502160600 AAXX 16064 67666 12380 71005 10196 20173 48519 60054 8367/
                   333 10269 20115 58004 83708 86358 91019=
201502131500 AAXX 13154 67666 NIL=
201502130600 AAXX 13064 67666 12980 70904 10219 20194 48511 60014 82038
                   333 10275 20122 59012 82360 85280 91018=
201502130300 AAXX 13034 67666 NIL=
201502120900 AAXX 12094 67666 42580 60806 10253 20190 48524 85208
                   333 59017 85820 82280 91020=
201502120600 AAXX 12064 67666 32480 61005 10216 20192 48530 81138
                   333 10259 20130 59007 81815 83358 84280 91020=
201502110900 AAXX 11094 67666 NIL=
201502101500 AAXX 10154 67666 NIL=
201502100900 AAXX 10094 67666 NIL=
201502100600 AAXX 10064 67666 12980 60810 10200 20169 48529 60084 80008
                   333 10270 20160 5//// 86280 91020=
201502091200 AAXX 09124 67666 42680 60912 10264 20173 48505 85230
                   333 59002 85840 81360 91017=
201502090900 AAXX 09094 67666 42580 60912 10242 20185 48523 86200
                   333 58003 86825 91019=
201502090600 AAXX 09064 67666 32480 40803 10215 20182 48522 82571
                   333 10270 20176 58011 82612 82358 82080 91020=
201502090300 AAXX 09034 67666 NIL=
201502061500 AAXX 06154 67666 NIL=
201502060900 AAXX 06094 67666 42580 53008 10266 20184 48518 81532
                   333 5//// 81620 83360 81080 91016=
201502060600 AAXX 06064 67666 12980 70000 10201 20170 48493 60014 87070
                   333 10290 20180 59011 87360 91016=
201502050600 AAXX 05064 67666 12480 40000 10210 20187 48501 60244 82231
                   333 10239 20165 58008 82812 83358 86080 91017=
201502040600 AAXX 04064 67666 12380 83206 10203 20189 48490 60024 886//
                   333 10264 20179 58014 88709 91016=
201502020900 AAXX 02094 67666 41480 3//// 10215 20177 48501 75052 8367/
                   333 59009 83707 83610 84358 91016=
201502020600 AAXX 02064 67666 12380 70000 10200 20176 48553 69904 877//
                   333 10265 20180 59012 87708
                   555 00/// 91017=

################################################################################
#  SYNOPS from 67667, Mount Makulu (Zambia) | 15-33S | 028-15E | 1213 m
################################################################################
201503030300 AAXX 03034 67667 NIL=
201503021500 AAXX 02154 67667 NIL=
201503011500 AAXX 01154 67667 NIL=
201502270300 AAXX 27034 67667 NIL=
201502260900 AAXX 26094 67667 NIL=
201502251500 AAXX 25154 67667 NIL=
201502251200 AAXX 25124 67667 NIL=
201502250300 AAXX 25034 67667 NIL=
201502231500 AAXX 23154 67667 NIL=
201502191200 AAXX 19124 67667 NIL=
201502181200 AAXX 18124 67667 NIL=
201502180900 AAXX 18094 67667 NIL=
201502171500 AAXX 17154 67667 NIL=
201502170900 AAXX 17094 67667 NIL=
201502170300 AAXX 17034 67667 NIL=
201502160900 AAXX 16094 67667 NIL=
201502131500 AAXX 13154 67667 NIL=
201502130600 AAXX 13064 67667 NIL=
201502130300 AAXX 13034 67667 NIL=
201502110900 AAXX 11094 67667 NIL=
201502101500 AAXX 10154 67667 NIL=
201502100900 AAXX 10094 67667 NIL=
201502100600 AAXX 10064 67667 NIL=
201502091200 AAXX 09124 67667 NIL=
201502090900 AAXX 09094 67667 NIL=
201502090300 AAXX 09034 67667 NIL=
201502061500 AAXX 06154 67667 NIL=
201502020900 AAXX 02094 67667 NIL=

################################################################################
#  SYNOPS from 67673, Petauke (Zambia) | 14-15S | 031-17E | 1035 m
################################################################################
201503030300 AAXX 03034 67673 NIL=
201503021500 AAXX 02154 67673 NIL=
201503011500 AAXX 01154 67673 NIL=
201502271200 AAXX 27124 67673 41680 63601 10270 20212 48504 78022 86231
                   333 59002 86840 82360 81080=
201502270600 AAXX 27064 67673 12584 60901 10220 20205 48531 60014 84130
                   333 10290 20180 59003 84828 86360=
201502270300 AAXX 27034 67673 NIL=
201502261200 AAXX 26124 67673 42680 51801 10270 20192 48506 85831
                   333 59015 85840 81360 82080=
201502260900 AAXX 26094 67673 42680 60901 10245 20193 48535 86231
                   333 59001 86832 82360 81080=
201502260600 AAXX 26064 67673 12580 63602 10220 20190 48532 60174 84533
                   333 10255 20185 59011 84625 86360 81080=
201502251500 AAXX 25154 67673 41580 61501 10196 20187 48507 76066 8317/
                   333 59005 83829 88459=
201502251200 AAXX 25124 67673 41560 80000 10198 20185 48509 76322 8557/
                   333 59010 85630 87459=
201502250600 AAXX 25064 67673 12584 60801 10223 20202 48543 69994 84131
                   333 10280 20195 59019 84828 86360 83080=
201502250300 AAXX 25034 67673 NIL=
201502241200 AAXX 24124 67673 41680 60901 10250 20198 48533 71522 84230
                   333 59025 84835 86360=
201502231500 AAXX 23154 67673 NIL=
201502200600 AAXX 20064 67673 12980 20901 10258 20204 48528 60114 82031
                   333 10295 20190 59001 82360 81080
                   555 00/// 20990=
201502191200 AAXX 19124 67673 NIL=
201502181200 AAXX 18124 67673 NIL=
201502180900 AAXX 18094 67673 NIL=
201502171500 AAXX 17154 67673 NIL=
201502171200 AAXX 17124 67673 42684 63601 10258 20187 48533 85231
                   333 58018 85840 86360 84080=
201502170900 AAXX 17094 67673 12584 60902 10205 20183 48550 60014 82131
                   333 10240 20188 58012 82828 86360 84080=
201502170300 AAXX 17034 67673 NIL=
201502160900 AAXX 16094 67673 NIL=
201502131500 AAXX 13154 67673 NIL=
201502130600 AAXX 13064 67673 NIL=
201502130300 AAXX 13034 67673 NIL=
201502110900 AAXX 11094 67673 NIL=
201502101500 AAXX 10154 67673 NIL=
201502100900 AAXX 10094 67673 NIL=
201502100600 AAXX 10064 67673 12580 40502 10240 20194 48544 60024 84131
                   333 10293 20185 59006 84828 83360 82080=
201502091200 AAXX 09124 67673 NIL=
201502090900 AAXX 09094 67673 NIL=
201502090600 AAXX 09064 67673 32580 60402 10237 20183 48550 82808
                   333 10307 20202 58012 82629 86280=
201502090300 AAXX 09034 67673 NIL=
201502061500 AAXX 06154 67673 NIL=
201502060600 AAXX 06064 67673 32980 83601 10225 20200 48522 82037
                   333 10305 20219 58003 82360 88280=
201502050600 AAXX 05064 67673 12580 73601 10219 20202 48518 60094 8157/
                   333 10271 20203 59003 81626 87360=
201502040600 AAXX 04064 67673 12580 73401 10230 20209 48522 69924 82132
                   333 10275 20212 59003 82825 85360 87080
                   555 00/// 20007=
201502020900 AAXX 02094 67673 NIL=
201502020600 AAXX 02064 67673 12980 83301 10216 20192 48522 69904 8807/
                   333 10281 20186 59020 88360=

################################################################################
#  SYNOPS from 67731, Senanga (Zambia) | 16-06S | 023-16E | 1027 m
################################################################################
201503030600 AAXX 03064 67731 12580 613// 10221 20195 48/// 60074 70322 81911
                   333 10291 20197 58011 81920 82622 83460 81080=
201503030300 AAXX 03034 67731 NIL=
201503021500 AAXX 02154 67731 NIL=
201503020600 AAXX 02064 67731 32580 426// 10220 20201 48/// 70300 82910
                   333 10283 20189 59014 82923 82625 81460=
201503011500 AAXX 01154 67731 NIL=
201502270600 AAXX 27064 67731 32980 117// 10254 20205 48/// 70200 81010
                   333 10321 20205 58004 81462=
201502270300 AAXX 27034 67731 NIL=
201502260900 AAXX 26094 67731 NIL=
201502260600 AAXX 26064 67731 12980 120// 10239 20202 48/// 60114 70200 80008
                   333 10342 20202 59037 81080=
201502251500 AAXX 25154 67731 NIL=
201502251200 AAXX 25124 67731 NIL=
201502250300 AAXX 25034 67731 NIL=
201502231500 AAXX 23154 67731 NIL=
201502200600 AAXX 20064 67731 32980 117// 10252 20189 48/// 70200 80008
                   333 10338 20156 59006 81080
                   555 00/// 20000=
201502191200 AAXX 19124 67731 NIL=
201502190600 AAXX 19064 67731 32980 027// 10238 20149 48/// 70200
                   333 10323 20168 59019
                   555 00/// 20029=
201502181200 AAXX 18124 67731 NIL=
201502180900 AAXX 18094 67731 NIL=
201502180600 AAXX 18064 67731 12980 016// 10235 20190 48/// 60034 70200
                   333 10239 20182 58002
                   555 00/// 20000=
201502171500 AAXX 17154 67731 NIL=
201502170900 AAXX 17094 67731 NIL=
201502170600 AAXX 17064 67731 32980 018// 10239 20184 48/// 70200
                   333 10342 20186 58012
                   555 00/// 20000=
201502170300 AAXX 17034 67731 NIL=
201502160900 AAXX 16094 67731 NIL=
201502160600 AAXX 16064 67731 32980 021// 10230 20197 48/// 70200
                   333 10282 20187 59005
                   555 00/// 20012=
201502131500 AAXX 13154 67731 NIL=
201502130600 AAXX 13064 67731 12980 713// 10234 20204 48/// 69964 70222 86028
                   333 10237 20208 59014 86460 84280
                   555 00/// 20000=
201502130300 AAXX 13034 67731 NIL=
201502110900 AAXX 11094 67731 NIL=
201502101500 AAXX 10154 67731 NIL=
201502100900 AAXX 10094 67731 NIL=
201502100600 AAXX 10064 67731 32980 019// 10227 20194 48/// 70200
                   333 10329 20183 58013
                   555 00/// 20000=
201502091200 AAXX 09124 67731 NIL=
201502090900 AAXX 09094 67731 NIL=
201502090600 AAXX 09064 67731 12980 427// 10250 20181 48/// 60024 70222 83032
                   333 10356 20174 58007 83360 82080=
201502090300 AAXX 09034 67731 NIL=
201502061500 AAXX 06154 67731 NIL=
201502060600 AAXX 06064 67731 32980 113// 10230 20196 48/// 70200 80008
                   333 10356 20191 59002 81080
                   555 00/// 20000=
201502050600 AAXX 05064 67731 32980 310// 10249 20199 48/// 70222 80008
                   333 10348 20204 59014 83080=
201502020900 AAXX 02094 67731 NIL=
201502020600 AAXX 02064 67731 12470 820// 10221 20214 48/// 60044 70222 84518
                   333 10253 20205 59023 84617 85462 83275
                   555 00/// 20022=

################################################################################
#  SYNOPS from 67741, Sesheke (Zambia) | 17-28S | 024-18E | 949 m
################################################################################
201503030300 AAXX 03034 67741 NIL=
201503021500 AAXX 02154 67741 NIL=
201503011500 AAXX 01154 67741 NIL=
201502270300 AAXX 27034 67741 NIL=
201502260900 AAXX 26094 67741 NIL=
201502251500 AAXX 25154 67741 NIL=
201502251200 AAXX 25124 67741 41582 72706 10217 20169 48492 75052 83648
                   333 59005 83620 85360 87280=
201502250600 AAXX 25064 67741 32980 12701 10240 20206 48514 81030
                   333 10335 20193 59032 81362=
201502250300 AAXX 25034 67741 NIL=
201502231500 AAXX 23154 67741 NIL=
201502191200 AAXX 19124 67741 NIL=
201502181200 AAXX 18124 67741 NIL=
201502180900 AAXX 18094 67741 NIL=
201502171500 AAXX 17154 67741 NIL=
201502170900 AAXX 17094 67741 NIL=
201502170300 AAXX 17034 67741 NIL=
201502160900 AAXX 16094 67741 NIL=
201502131500 AAXX 13154 67741 NIL=
201502130600 AAXX 13064 67741 NIL=
201502130300 AAXX 13034 67741 NIL=
201502110900 AAXX 11094 67741 NIL=
201502101500 AAXX 10154 67741 NIL=
201502100900 AAXX 10094 67741 NIL=
201502100600 AAXX 10064 67741 NIL=
201502091200 AAXX 09124 67741 NIL=
201502090900 AAXX 09094 67741 NIL=
201502090300 AAXX 09034 67741 NIL=
201502061500 AAXX 06154 67741 NIL=
201502050600 AAXX 05064 67741 32980 23401 10244 20189 48485 81031
                   333 10343 20195 5//// 81360 81082=
201502020900 AAXX 02094 67741 NIL=

################################################################################
#  SYNOPS from 67743, Livingstone (Zambia) | 17-49S | 025-49E | 985 m
################################################################################
201503030300 AAXX 03034 67743 NIL=
201503021500 AAXX 02154 67743 NIL=
201503020600 AAXX 02064 67743 42680 51207 10259 20192 48518 81631
                   333 58001 81715 82830 81080 91017=
201503011500 AAXX 01154 67743 41680 43207 10296 20158 48463 71711 82931
                   333 59030 81950 82850 82360 82080=
201502280600 AAXX 28064 67743 11459 72407 10218 20188 48515 60014 76022 8457/
                   333 10360 20198 58006 84610 87359
                   555 00/// 20000 910176=
201502271200 AAXX 27124 67743 42680 50405 10337 20154 48499 70322 84231
                   333 58003 84855 81360 91013=
201502270300 AAXX 27034 67743 NIL=
201502260900 AAXX 26094 67743 NIL=
201502251500 AAXX 25154 67743 NIL=
201502251200 AAXX 25124 67743 NIL=
201502250300 AAXX 25034 67743 NIL=
201502231500 AAXX 23154 67743 NIL=
201502191200 AAXX 19124 67743 NIL=
201502181200 AAXX 18124 67743 NIL=
201502180900 AAXX 18094 67743 NIL=
201502171500 AAXX 17154 67743 NIL=
201502170900 AAXX 17094 67743 NIL=
201502170300 AAXX 17034 67743 NIL=
201502160900 AAXX 16094 67743 NIL=
201502131500 AAXX 13154 67743 NIL=
201502130600 AAXX 13064 67743 NIL=
201502130300 AAXX 13034 67743 NIL=
201502110900 AAXX 11094 67743 NIL=
201502101500 AAXX 10154 67743 42780 21209 10317 20103 48509 70100 82200
                   333 59001 82856 91014=
201502100900 AAXX 10094 67743 42680 40904 10278 20173 48539 70322 84200
                   333 58006 84840 91019=
201502100600 AAXX 10064 67743 32980 30000 10248 20177 48535 70222 83030
                   333 10330 20179 59013 83358
                   555 00/// 20000 91019=
201502091200 AAXX 09124 67743 NIL=
201502090900 AAXX 09094 67743 42680 20711 10287 20178 48533 70300 81130
                   333 59004 81835 81360 91018=
201502090600 AAXX 09064 67743 32980 30706 10236 20176 48519 70200 83031
                   333 10345 20193 58001 83360 81080 91017=
201502090300 AAXX 09034 67743 NIL=
201502061500 AAXX 06154 67743 NIL=
201502020900 AAXX 02094 67743 NIL=

################################################################################
#  SYNOPS from 67751, Magoye (Zambia) | 16-00S | 027-36E | 1018 m
################################################################################
201503030600 AAXX 03064 67751 11380 80000 10200 20192 48/// 60044 75052 8171/
                   333 10279 20187 58028 81706 88460=
201503030300 AAXX 03034 67751 NIL=
201503021500 AAXX 02154 67751 NIL=
201503011500 AAXX 01154 67751 NIL=
201502270600 AAXX 27064 67751 12980 33602 10223 20197 48/// 60024 70200 83040
                   333 10305 20165 5//// 83360=
201502270300 AAXX 27034 67751 NIL=
201502260900 AAXX 26094 67751 NIL=
201502260600 AAXX 26064 67751 12980 43602 10217 20192 48/// 60024 70222 84040
                   333 10285 20155 5//// 84360=
201502251500 AAXX 25154 67751 NIL=
201502251200 AAXX 25124 67751 NIL=
201502250600 AAXX 25064 67751 12980 62003 10216 20195 48/// 60104 70222 86070
                   333 10275 20223 58025 86360=
201502250300 AAXX 25034 67751 NIL=
201502231500 AAXX 23154 67751 NIL=
201502200600 AAXX 20064 67751 32980 10000 10241 20195 48/// 80001
                   333 10320 20165 58008 81080=
201502191200 AAXX 19124 67751 NIL=
201502181200 AAXX 18124 67751 NIL=
201502180900 AAXX 18094 67751 NIL=
201502180600 AAXX 18064 67751 32980 31004 10218 20183 83030
                   333 10304 20193 58004 83360
                   555 00/// 20990=
201502171500 AAXX 17154 67751 NIL=
201502170900 AAXX 17094 67751 NIL=
201502170600 AAXX 17064 67751 12480 20000 10230 20201 69904 82101
                   333 10315 20168 59012 81803 81080=
201502170300 AAXX 17034 67751 NIL=
201502160900 AAXX 16094 67751 NIL=
201502131500 AAXX 13154 67751 NIL=
201502130600 AAXX 13064 67751 NIL=
201502130300 AAXX 13034 67751 NIL=
201502110900 AAXX 11094 67751 NIL=
201502101500 AAXX 10154 67751 NIL=
201502100900 AAXX 10094 67751 NIL=
201502100600 AAXX 10064 67751 32980 01806 10231 20180 48/// 70222
                   333 10302 20158 58001
                   555 00/// 20000=
201502091200 AAXX 09124 67751 NIL=
201502090900 AAXX 09094 67751 NIL=
201502090600 AAXX 09064 67751 32980 61802 10237 20186 48/// 70222 86002
                   333 10/// 20/// 59012 86280=
201502090300 AAXX 09034 67751 NIL=
201502061500 AAXX 06154 67751 NIL=
201502050600 AAXX 05064 67751 12980 40000 10219 20205 48/// 60074 81031
                   333 10255 20171 5//// 81360 83080=
201502020900 AAXX 02094 67751 NIL=
201502020600 AAXX 02064 67751 11980 80102 10206 20197 69984 76062 8807/
                   333 10299 20196 58014 88360=

################################################################################
#  SYNOPS from 67753, Choma (Zambia) | 16-50S | 027-04E | 1213 m
################################################################################
201503030600 AAXX 03064 67753 11360 80612 10181 20173 48537 60294 76062 8672/
                   333 10257 20176 58032 86709 82460=
201503030300 AAXX 03034 67753 NIL=
201503021500 AAXX 02154 67753 NIL=
201503020600 AAXX 02064 67753 12960 63610 10207 20188 48501 60044 86030
                   333 10271 20171 58001 86360=
201503011500 AAXX 01154 67753 NIL=
201502270600 AAXX 27064 67753 32960 10000 10225 20196 48513 80001
                   333 10295 20166 58002 81080
                   555 00///=
201502270300 AAXX 27034 67753 NIL=
201502260900 AAXX 26094 67753 NIL=
201502260600 AAXX 26064 67753 11960 70000 10182 20180 48502 60104 72820 8703/
                   333 10265 20150 59013 87360=
201502251500 AAXX 25154 67753 NIL=
201502251200 AAXX 25124 67753 NIL=
201502250600 AAXX 25064 67753 32560 40113 10205 20195 48521 83830
                   333 10275 20165 59021 81620 82822 81360
                   555 00///=
201502250300 AAXX 25034 67753 NIL=
201502231500 AAXX 23154 67753 NIL=
201502200600 AAXX 20064 67753 32960 50000 10205 20174 48501 81032
                   333 10284 20146 59013 81360 84080=
201502191200 AAXX 19124 67753 NIL=
201502190600 AAXX 19064 67753 32960 11004 10210 20173 48/// 81040
                   333 10274 20141 5//// 81360=
201502181200 AAXX 18124 67753 NIL=
201502180900 AAXX 18094 67753 NIL=
201502180600 AAXX 18064 67753 32960 11306 10186 20159 48/// 81031
                   333 10266 20146 5//// 81360 81080=
201502171500 AAXX 17154 67753 NIL=
201502170900 AAXX 17094 67753 NIL=
201502170600 AAXX 17064 67753 12560 70809 10192 20187 48/// 60074 8583/
                   333 10281 20170 5//// 84620 81825 82360=
201502170300 AAXX 17034 67753 NIL=
201502160900 AAXX 16094 67753 NIL=
201502160600 AAXX 16064 67753 12960 20000 10201 20191 48520 69964 80002
                   333 10275 20159 58015 82080=
201502131500 AAXX 13154 67753 NIL=
201502130600 AAXX 13064 67753 32960 31210 10222 20197 48522 81032
                   333 10294 20166 59006 81360 82080=
201502130300 AAXX 13034 67753 NIL=
201502120600 AAXX 12064 67753 31960 21808 10216 20195 48530 81031
                   333 10289 20161 59011 81360 81080=
201502110900 AAXX 11094 67753 NIL=
201502101500 AAXX 10154 67753 NIL=
201502100900 AAXX 10094 67753 NIL=
201502100600 AAXX 10064 67753 32960 10612 10214 20186 48530 80001
                   333 10286 20156 58001 81080=
201502091200 AAXX 09124 67753 NIL=
201502090900 AAXX 09094 67753 NIL=
201502090600 AAXX 09064 67753 12560 53308 10191 20176 48528 60024 81532
                   333 10301 20166 58012 81620 81360 83080=
201502090300 AAXX 09034 67753 NIL=
201502061500 AAXX 06154 67753 NIL=
201502060600 AAXX 06064 67753 32560 23012 10236 20188 48495 81131
                   333 10302 20183 59006 81825 81360 81080=
201502050600 AAXX 05064 67753 12960 33408 10225 20192 48503 60024 83030
                   333 10284 20175 58002 83360
                   555 00///=
201502040600 AAXX 04064 67753 12560 80807 10208 20202 48491 60424 8383/
                   333 10277 20185 58015 82620 81825 85360
                   555 00///=
201502020900 AAXX 02094 67753 NIL=

################################################################################
#  SYNOPS from 67855, Lupaki (Zambia) | 17-03-00S | 024-46-00E | 1000 m
################################################################################
201503030600 AAXX 03064 67855 12575 71005 10145 20148 3//// 48/// 69924 8457/
                   333 20185 5//// 84620 87359=
201503021800 AAXX 02184 67855 NIL=
201503021200 AAXX 02124 67855 41675 70807 10271 20162 3//// 48/// 71722 85273
                   333 5//// 81935 85840 86459=
201503020600 AAXX 02064 67855 11970 61202 10198 20188 38/// 48/// 60014 70262 86081
                   333 20194 5//// 87359=
201503011200 AAXX 01124 67855 NIL=
201503010600 AAXX 01064 67855 11975 60401 10209 20196 3//// 48/// 60184 70362 86032
                   333 20193 5//// 86360=
201502281200 AAXX 28124 67855 41670 80301 10243 20211 3//// 48/// 79596 83273
                   333 5//// 81935 83840=
201502280600 AAXX 28064 67855 NIL=
201502271200 AAXX 27124 67855 42675 50000 10334 20158 3//// 48/// 85262
                   333 5//// 85850=
201502270600 AAXX 27064 67855 NIL=
201502261800 AAXX 26184 67855 NIL=
201502261200 AAXX 26124 67855 NIL=
201502260600 AAXX 26064 67855 32975 00601 10210 20178 3//// 48///
                   333 20170 5////=
201502251800 AAXX 25184 67855 NIL=
201502251200 AAXX 25124 67855 42775 51203 10329 20142 3//// 48/// 85200
                   333 5//// 85856=
201502250600 AAXX 25064 67855 12975 20402 10214 20164 3//// 48/// 69904 82030
                   333 20170 5//// 82360=
201502241200 AAXX 24124 67855 NIL=
201502240600 AAXX 24064 67855 32475 10804 10202 20167 3//// 48/// 81601
                   333 20157 5//// 81715=
201502231200 AAXX 23124 67855 42775 70605 10331 20159 3//// 48/// 83108
                   333 5//// 83856 87280=
201502230600 AAXX 23064 67855 32975 81006 10212 20154 3//// 48/// 80007
                   333 20180 5//// 88280=
201502221200 AAXX 22124 67855 NIL=
201502220600 AAXX 22064 67855 32975 11203 10215 20164 3//// 48/// 80001
                   333 20162 5//// 81080=
201502211200 AAXX 21124 67855 NIL=
201502210600 AAXX 21064 67855 31970 61402 10190 20148 3//// 48/// 70511 80008
                   333 20145 5//// 86280=
201502201200 AAXX 20124 67855 42975 20605 10347 20138 3//// 48/// 81130
                   333 5//// 81858=
201502200600 AAXX 20064 67855 31970 20000 10198 20117 3//// 48/// 70500 82031
                   333 20130 5//// 82360=
201502191800 AAXX 19184 67855 NIL=
201502191200 AAXX 19124 67855 42975 20601 10324 20085 3//// 48/// 80001
                   333 5//// 82080=
201502190600 AAXX 19064 67855 32975 10000 10170 20123 3//// 48/// 80001
                   333 20107 5//// 81080=
201502181800 AAXX 18184 67855 NIL=
201502181200 AAXX 18124 67855 42975 11001 10304 20115 3//// 48/// 80001
                   333 5//// 81080=
201502180600 AAXX 18064 67855 31950 11004 10179 20141 3//// 48/// 70540 80001
                   333 20135 5//// 81080=
201502171800 AAXX 17184 67855 NIL=
201502171200 AAXX 17124 67855 42775 30402 10300 20151 3//// 48/// 83100
                   333 5//// 83856=
201502170600 AAXX 17064 67855 NIL=
201502161800 AAXX 16184 67855 NIL=
201502161200 AAXX 16124 67855 42775 40000 10301 20176 3//// 48/// 84102
                   333 5//// 84850=
201502160600 AAXX 16064 67855 NIL=
201502151800 AAXX 15184 67855 NIL=
201502151200 AAXX 15124 67855 NIL=
201502150600 AAXX 15064 67855 12575 83601 10206 20196 3//// 48/// 60074 8557/
                   333 20192 5//// 85620 88459=
201502141200 AAXX 14124 67855 NIL=
201502140600 AAXX 14064 67855 32975 70201 10222 20195 3//// 48/// 80008
                   333 20187 5//// 87280=
201502131800 AAXX 13184 67855 NIL=
201502131200 AAXX 13124 67855 42775 50000 10324 20167 3//// 48/// 85201
                   333 5//// 85850 83080=
201502130600 AAXX 13064 67855 32975 50302 10222 20178 3//// 48/// 80001
                   333 20175 5//// 85080=
201502121200 AAXX 12124 67855 NIL=
201502120600 AAXX 12064 67855 32975 20301 10206 20156 3//// 48/// 80001
                   333 20168 5//// 82080=
201502111200 AAXX 11124 67855 42775 30000 10327 20168 3//// 48/// 83101
                   333 5//// 83850=
201502110600 AAXX 11064 67855 32975 10000 10202 20162 3//// 48/// 80002
                   333 20150 5//// 81080=
201502101200 AAXX 10124 67855 42775 40402 10323 20166 3//// 48/// 84100
                   333 5//// 84850=
201502100600 AAXX 10064 67855 32975 00000 10200 20142 3//// 48///
                   333 2//// 5////=
201502091200 AAXX 09124 67855 42775 40604 10327 20162 3//// 48/// 84100
                   333 5//// 84856=
201502090600 AAXX 09064 67855 32975 10603 10233 20185 3//// 48/// 80001
                   333 20185 5//// 81080=
201502081200 AAXX 08124 67855 NIL=
201502080600 AAXX 08064 67855 12975 10000 10228 20193 3//// 48/// 60024 80001
                   333 20186 5//// 81080=
201502071800 AAXX 07184 67855 NIL=
201502071200 AAXX 07124 67855 42775 50602 10346 20196 3//// 48/// 85100
                   333 5//// 85856=
201502070600 AAXX 07064 67855 NIL=
201502061800 AAXX 06184 67855 NIL=
201502061200 AAXX 06124 67855 42775 23201 10334 20183 3//// 48/// 82230
                   333 5//// 82856=
201502060600 AAXX 06064 67855 32975 40000 10223 20184 3//// 48/// 84032
                   333 20185 5//// 84360=
201502051200 AAXX 05124 67855 42675 70000 10306 20213 3//// 48/// 82238
                   333 5//// 82845 84360 86280=
201502050600 AAXX 05064 67855 12975 60000 10222 20195 3//// 48/// 69904 84038
                   333 20177 5//// 84360 85280=
201502041800 AAXX 04184 67855 NIL=
201502041200 AAXX 04124 67855 41675 70404 10305 20209 3//// 48/// 71792 83273
                   333 5//// 81930 83835 87280=
201502031200 AAXX 03124 67855 NIL=
201502030600 AAXX 03064 67855 NIL=
201502021800 AAXX 02184 67855 NIL=
201502021200 AAXX 02124 67855 NIL=
201502020600 AAXX 02064 67855 NIL=
201502011800 AAXX 01184 67855 NIL=
201502011200 AAXX 01124 67855 NIL=
201502010600 AAXX 01064 67855 NIL=
