################################################################################
# Query made at 04/14/2022 03:19:22 UTC
# Country like Zamb*
# Time interval: from 11/01/2017 05:30  to 12/01/2017 06:30  UTC
################################################################################

################################################################################
#  SYNOPS from 67403, Kawambwa (Zambia) | 09-48S | 029-05E | 1323 m
################################################################################
201711301200 AAXX 30124 67403 NIL=
201711300900 AAXX 30094 67403 NIL=
201711300600 AAXX 30064 67403 11480 80901 10206 20189 48534 60024 70322 875//
                   333 10278 20182 58006 87610
                   555 00101=
201711271200 AAXX 27124 67403 NIL=
201711270600 AAXX 27064 67403 11480 70901 10197 20184 48540 60124 70362 8257/
                   333 10277 20176 58015 82610 87360
                   555 00104=
201711241500 AAXX 24154 67403 NIL=
201711241200 AAXX 24124 67403 NIL=
201711240600 AAXX 24064 67403 11980 73602 10197 20182 48516 60044 72166 8707/
                   333 10287 20180 58004 87360
                   555 00100=
201711230600 AAXX 23064 67403 11975 80901 10192 20180 48512 60054 70522 8703/
                   333 10292 20178 58004 87360
                   555 00092=
201711210900 AAXX 21094 67403 NIL=
201711210600 AAXX 21064 67403 11480 32001 10212 20163 48516 60094 70362 81530
                   333 10314 20176 59005 81615 83360
                   555 00092=
201711200600 AAXX 20064 67403 32980 40902 10238 20163 48522 83081
                   333 10320 20194 58013 83860 82080
                   555 00094=
201711170900 AAXX 17094 67403 NIL=
201711170600 AAXX 17064 67403 32980 51203 10219 20173 48506 82061
                   333 10319 20182 58003 82360 84080
                   555 00094=
201711160600 AAXX 16064 67403 31460 60902 10217 20199 48503 70542 82531
                   333 10302 20176 59005 82610 81360 85080
                   555 00098=
201711150600 AAXX 15064 67403 31580 30903 10230 20192 48509 70300 81501
                   333 10313 20182 58002 81620 83080
                   555 00101=
201711140600 AAXX 14064 67403 12980 40903 10212 20173 48506 69984 82031
                   333 10290 20167 59004 82360 84080
                   555 00095=
201711130600 AAXX 13064 67403 11980 62001 10217 20191 48510 60044 70262 86031
                   333 10286 20181 59008 86360 81080
                   555 00112=
201711101200 AAXX 10124 67403 NIL=
201711100600 AAXX 10064 67403 12880 80902 10204 20174 48510 69914 8193/
                   333 10284 20179 58002 81958 87360
                   555 00114=
201711070600 AAXX 07064 67403 12980 82701 10199 20169 48504 69944 8703/
                   333 10241 20178 59016 87360=
201711060900 AAXX 06094 67403 NIL=
201711060600 AAXX 06064 67403 11980 80902 10189 20154 48519 60214 72166
                   333 10//0 20174 58010 87690=
201711030600 AAXX 03064 67403 11980 70902 10206 20167 48518 60084 70252 87031
                   333 10312 20184 87360 81080=
201711020600 AAXX 02064 67403 11975 40906 10240 20154 48519 60014 70522 84030
                   333 10308 20194 59004 84360=
201711010600 AAXX 01064 67403 31980 30910 10225 20146 48522 70500 83030
                   333 10302 20184 59013 83360=

################################################################################
#  SYNOPS from 67413, Mbala (Zambia) | 08-51S | 031-20E | 1673 m
################################################################################
201711301200 AAXX 30124 67413 NIL=
201711300900 AAXX 30094 67413 NIL=
201711271200 AAXX 27124 67413 NIL=
201711270600 AAXX 27064 67413 NIL=
201711241500 AAXX 24154 67413 NIL=
201711241200 AAXX 24124 67413 NIL=
201711240600 AAXX 24064 67413 NIL=
201711210900 AAXX 21094 67413 NIL=
201711210600 AAXX 21064 67413 NIL=
201711170900 AAXX 17094 67413 NIL=
201711160600 AAXX 16064 67413 NIL=
201711150600 AAXX 15064 67413 NIL=
201711130900 AAXX 13094 67413 42982 53606 10274 20188 48/// 84104
                   333 5//// 84835 85075=
201711101200 AAXX 10124 67413 NIL=
201711100600 AAXX 10064 67413 NIL=
201711060900 AAXX 06094 67413 NIL=
201711030600 AAXX 03064 67413 32980 51207 10225 20126 48535 85005
                   333 10295 20154 59004 85070 91024=

################################################################################
#  SYNOPS from 67441, Mwinilunga (Zambia) | 11-45S | 024-26E | 1361 m
################################################################################
201711301200 AAXX 30124 67441 NIL=
201711300900 AAXX 30094 67441 NIL=
201711271200 AAXX 27124 67441 NIL=
201711270600 AAXX 27064 67441 NIL=
201711241500 AAXX 24154 67441 NIL=
201711241200 AAXX 24124 67441 NIL=
201711240600 AAXX 24064 67441 NIL=
201711210900 AAXX 21094 67441 NIL=
201711210600 AAXX 21064 67441 NIL=
201711170900 AAXX 17094 67441 NIL=
201711160600 AAXX 16064 67441 NIL=
201711150600 AAXX 15064 67441 NIL=
201711101200 AAXX 10124 67441 NIL=
201711100600 AAXX 10064 67441 NIL=
201711060900 AAXX 06094 67441 NIL=

################################################################################
#  SYNOPS from 67461, Mansa (Zambia) | 11-06S | 028-51E | 1382 m
################################################################################
201712010600 AAXX 01064 67461 11580 71002 10200 20185 48529 69904 72844 8157/
                   333 10266 20160 59013 81620 87360
                   555 00164 91020=
201711301200 AAXX 30124 67461 NIL=
201711300900 AAXX 30094 67461 NIL=
201711300600 AAXX 30064 67461 11375 80802 10179 20173 48539 60374 76166 8467/
                   333 10281 20166 58006 84707 88460
                   555 00171 91021=
201711290600 AAXX 29064 67461 11480 81202 10192 20181 48535 60274 72166 8257/
                   333 10298 20157 58012 82610 88460
                   555 00175 91020=
201711280600 AAXX 28064 67461 11480 71102 10185 20177 48522 60204 76166 8357/
                   333 10262 20157 59022 83616 87460
                   555 00161 91019=
201711271200 AAXX 27124 67461 NIL=
201711270600 AAXX 27064 67461 11380 80802 10182 20179 48544 60064 79196 819//
                   333 10283 20169 58028 81910 87705
                   555 00173 91021=
201711241500 AAXX 24154 67461 NIL=
201711241200 AAXX 24124 67461 NIL=
201711240900 AAXX 24094 67461 41580 72903 10229 20198 48513 72166 8213/
                   333 58012 82826 87360 91017=
201711240600 AAXX 24064 67461 11980 71502 10192 20177 48516 60244 72166 8707/
                   333 10270 20158 58006 87460
                   555 00159 91018=
201711230600 AAXX 23064 67461 11375 80000 10179 20171 48508 60034 76166 8662/
                   333 10300 20164 58002 86709 88460
                   555 00165 91017=
201711220600 AAXX 22064 67461 32980 32702 10229 20182 48511 81031
                   333 10308 20170 59006 81360 82080
                   555 00168 91017=
201711210900 AAXX 21094 67461 42680 61503 10272 20179 48514 86201
                   333 59010 86842 81080 91017=
201711210600 AAXX 21064 67461 32680 20302 10229 20183 48517 81130
                   333 10304 20152 59011 81832 81360
                   555 00148 91018=
201711200600 AAXX 20064 67461 32580 61302 10222 20177 48528 84531
                   333 10309 20182 58010 84620 83360 82080
                   555 00178 91019=
201711170900 AAXX 17094 67461 NIL=
201711170600 AAXX 17064 67461 12980 70000 10202 20167 48506 60154 8707/
                   333 10302 20167 58006 87459
                   555 00173 91017=
201711160600 AAXX 16064 67461 32980 71102 10231 20183 48502 83038
                   333 10314 20173 59011 83360 86280
                   555 00170 91016=
201711150900 AAXX 15094 67461 42680 73020 10270 20180 48504 84504
                   333 5//// 84840 86280 91015=
201711150600 AAXX 15064 67461 32980 71502 10220 20178 48513 81048
                   333 10300 20164 59001 81360 87280
                   555 00154 91017=
201711140600 AAXX 14064 67461 12980 70603 10218 20179 48513 60094 82038
                   333 10264 20160 59005 82360 86280
                   555 00158 91017=
201711130600 AAXX 13064 67461 12580 70000 10219 20181 48518 69904 8117/
                   333 10284 20175 59010 81820 87360
                   555 00170 91018=
201711101200 AAXX 10124 67461 NIL=
201711100600 AAXX 10064 67461 12980 73602 10224 20182 48510 69904 8703/
                   333 10310 20174 59002 87360
                   555 00167 91017=
201711070600 AAXX 07064 67461 12580 73102 10218 20166 48506 69904 8153/
                   333 10268 20167 59022 91017=
201711060900 AAXX 06094 67461 NIL=
201711060600 AAXX 06064 67461 32980 70202 10198 20174 48526 8707/
                   333 10292 20170 58011 87460 91019=
201711030900 AAXX 03094 67461 42680 11006 10279 20154 48520 81131
                   333 59001 81843 81360 81080 91018=
201711030600 AAXX 03064 67461 31975 11308 10228 20166 48517 81031
                   333 10308 20159 59002 81360 82080 91018=
201711010900 AAXX 01094 67461 42680 40806 10270 20159 48521 81131
                   333 59017 81842 83360 81080 91018=

################################################################################
#  SYNOPS from 67469, Samfya (Zambia) | 11-22S | 029-54E | 1171 m
################################################################################
201711301200 AAXX 30124 67469 NIL=
201711300900 AAXX 30094 67469 NIL=
201711271200 AAXX 27124 67469 NIL=
201711270600 AAXX 27064 67469 NIL=
201711241200 AAXX 24124 67469 NIL=
201711240600 AAXX 24064 67469 NIL=

################################################################################
#  SYNOPS from 67475, Kasama (Zambia) | 10-13S | 031-08E | 1382 m
################################################################################
201711301200 AAXX 30124 67475 41660 71506 10208 20185 48508 76092 8197/
                   333 58009 81935 82835 87461 91018=
201711300900 AAXX 30094 67475 41557 70708 10226 20181 48536 71522 8197/
                   333 58002 81920 84822 86461 91021=
201711271200 AAXX 27124 67475 NIL=
201711270600 AAXX 27064 67475 12360 71809 10182 20174 48552 60224 70322 876//
                   333 10276 20174 58021 87708 91024=
201711241500 AAXX 24154 67475 41659 83411 10231 20183 48487 71799 81978
                   333 59002 81945 83845 84460 88280
                   555 10280 91016=
201711241200 AAXX 24124 67475 41660 61004 10226 20172 48483 72999 81978
                   333 58003 81943 82843 83461 86280=
201711240900 AAXX 24094 67475 41660 61405 10261 20178 48513 71510 81301
                   333 59001 81930 84830 82080 91019=
201711240600 AAXX 24064 67475 12560 33604 10216 20185 48521 60124 70122 81471
                   333 10306 20175 58003 81620 81360 83080 91020=
201711231200 AAXX 23124 67475 41660 63408 10287 20180 48481 71522 81378
                   333 58000 81945 83845 81360 85280 91015=
201711230600 AAXX 23064 67475 12460 82605 10217 20186 48517 60144 70122 82578
                   333 10322 20177 58000 82613 82460 88280 91019=
201711210900 AAXX 21094 67475 41660 51010 10278 20146 48/// 70521 85201
                   333 59006 85840 81080 91019=
201711210600 AAXX 21064 67475 32560 30905 10//0 20153 48521 70500 81101
                   333 10319 20182 58008 81825 82080 91020=
201711200600 AAXX 20064 67475 32560 21414 10226 20162 48531 70300 81101
                   333 10325 20184 58008 81825 82080 91021=
201711190600 AAXX 19064 67475 32960 51415 10235 20150 48523 70222 80008
                   333 10328 20181 58006 85280 91020=
201711170900 AAXX 17094 67475 42660 20808 10280 20165 48508 70300 82102
                   333 58007 82840 81080 91018=
201711170600 AAXX 17064 67475 32560 21908 10211 20169 48517 70322 81101
                   333 10326 20179 58009 81825 82080 91019=
201711160600 AAXX 16064 67475 31960 63303 10260 20150 48510 70522 80008
                   333 10330 20175 59011 86280 91017=
201711150600 AAXX 15064 67475 31660 43505 10240 20142 48513 70522 81208
                   333 10319 20155 58003 81830 84280 91020=
201711141500 AAXX 14154 67475 42760 10307 10297 20100 48464 70100 81233
                   333 59016 81956 81360 81080=
201711141200 AAXX 14124 67475 41760 33509 10305 20132 48478 70511 83231
                   333 58006 83850 81363 81080 91015=
201711140600 AAXX 14064 67475 11960 40603 10231 20171 48517 60064 70141 84031
                   333 10307 20168 59002 84360 81080 91019=
201711131200 AAXX 13124 67475 41760 40807 10298 20132 48472 71522 83203
                   333 59023 81950 83850 83080 91014=
201711130600 AAXX 13064 67475 31560 10808 10231 20171 48519 70500 81161
                   333 10298 20167 59015 81825 83360 81080 91019=
201711101200 AAXX 10124 67475 NIL=
201711100600 AAXX 10064 67475 NIL=
201711081200 AAXX 08124 67475 41660 72608 10255 20153 48488 71722 82278
                   333 58011 81947 81847 81362 87280 91016=
201711070900 AAXX 07094 67475 41660 62502 10261 20166 48505 70522 83271
                   333 5//// 83830 82080 91018=
201711070600 AAXX 07064 67475 11360 71906 10200 20174 48513 60034 70522 8177/
                   333 10258 20161 59010 81707 87360 91019=
201711060900 AAXX 06094 67475 NIL=
201711060600 AAXX 06064 67475 11960 81504 10194 20171 48522 60084 70522 8707/
                   333 10290 20171 59002 87460 91020=
201711011200 AAXX 01124 67475 41760 60909 10300 20129 48502 76022 84271
                   333 59005 84856 82460 81080 91017=
201711010900 AAXX 01094 67475 41760 21210 10282 20137 48584 70500 82100
                   333 59003 82850 81080 91021=

################################################################################
#  SYNOPS from 67476, Misamfu (Zambia) | 10-06S | 031-15E | 1536 m
################################################################################
201712010600 AAXX 01064 67476 12580 70903 10220 20178 48/// 60074 82170
                   333 10273 20168 58001 82825 86460
                   555 00181=
201711301200 AAXX 30124 67476 NIL=
201711300900 AAXX 30094 67476 NIL=
201711300600 AAXX 30064 67476 11773 80903 10140 20140 48/// 60124 79596 8527/
                   333 10275 20137 58000 82951 85851 88459
                   555 00147=
201711271200 AAXX 27124 67476 NIL=
201711270600 AAXX 27064 67476 NIL=
201711241500 AAXX 24154 67476 NIL=
201711241200 AAXX 24124 67476 NIL=
201711240600 AAXX 24064 67476 12580 30000 10218 20196 48/// 60054 81561
                   333 10299 20188 58003 81624 83360 81080
                   555 00188=
201711230600 AAXX 23064 67476 12580 43101 10213 20179 48/// 60204 81562
                   333 10315 20182 58000 81625 82360 83080
                   555 00183=
201711210900 AAXX 21094 67476 NIL=
201711210600 AAXX 21064 67476 NIL=
201711200600 AAXX 20064 67476 32980 11105 10230 20158 48/// 80001
                   333 10327 20160 5////
                   555 00143=
201711170900 AAXX 17094 67476 NIL=
201711160600 AAXX 16064 67476 NIL=
201711150600 AAXX 15064 67476 NIL=
201711140600 AAXX 14064 67476 12580 31004 10223 20143 48/// 60034 83230
                   333 10294 20156 58002 83828 81360
                   555 00183=
201711101200 AAXX 10124 67476 NIL=
201711100600 AAXX 10064 67476 12980 70601 10205 20166 48/// 69904 87071
                   333 10297 20174 58000 87460 81080
                   555 00178=
201711070600 AAXX 07064 67476 11978 60000 10213 20161 48/// 60034 70522 86031
                   333 10257 20170 59012 86360 82080=
201711060900 AAXX 06094 67476 NIL=
201711060600 AAXX 06064 67476 11976 80000 10194 20175 48/// 60014 70522 8803/
                   333 10318 20180 5//// 88359=

################################################################################
#  SYNOPS from 67477, Mpika (Zambia) | 11-54S | 031-26E | 1400 m
################################################################################
201711301200 AAXX 30124 67477 NIL=
201711300900 AAXX 30094 67477 NIL=
201711271200 AAXX 27124 67477 NIL=
201711270600 AAXX 27064 67477 NIL=
201711241500 AAXX 24154 67477 NIL=
201711241200 AAXX 24124 67477 NIL=
201711240600 AAXX 24064 67477 NIL=
201711220600 AAXX 22064 67477 32480 30000 10249 20090 48520 81101
                   333 10298 20159 59013 83080
                   555 00147=
201711210900 AAXX 21094 67477 NIL=
201711210600 AAXX 21064 67477 32480 31204 10228 20160 48530 83100
                   333 10280 20173 59007 83812
                   555 00163=
201711200600 AAXX 20064 67477 32480 61206 10208 20150 48540 86500
                   333 10284 20178 58008 86612
                   555 00169=
201711170900 AAXX 17094 67477 NIL=
201711160600 AAXX 16064 67477 32980 50000 10241 20160 48510 80001
                   333 10311 20178 5////
                   555 00173=
201711150600 AAXX 15064 67477 32980 30000 10220 20140 48/// 82031
                   333 10302 20166 5//// 82359 82080
                   555 00155=
201711140600 AAXX 14064 67477 12980 61202 10227 20130 48516 60124 86070
                   333 10304 20168 59004 86459
                   555 00156=
201711130600 AAXX 13064 67477 31478 21202 10231 20170 48520 70500 82131
                   333 10300 20154 58000 82814 81359 81080
                   555 00165=
201711101200 AAXX 10124 67477 NIL=
201711100600 AAXX 10064 67477 12480 70000 10231 20080 48520 69904 72122 81170
                   333 10302 20179 59005 81812 87459
                   555 00172=
201711070600 AAXX 07064 67477 12980 72702 10197 20140 48518 69904 8707/
                   333 10276 20160 59012 87459=
201711060900 AAXX 06094 67477 NIL=
201711060600 AAXX 06064 67477 11980 70902 10201 20160 48530 69904 72122 87070
                   333 10258 20162 58002 87459=
201711030600 AAXX 03064 67477 32480 41206 10230 20140 48536 81101
                   333 10334 20159 59002 81812 84080=
201711020600 AAXX 02064 67477 32480 21208 10227 20120 48538 82101
                   333 10346 20192 59005=
201711010600 AAXX 01064 67477 32480 11208 10218 20120 48540 81100
                   333 10293 20179 59014 81810=

################################################################################
#  SYNOPS from 67481, Isoka (Zambia) | 10-07S | 032-38E | 1360 m
################################################################################
201712010600 AAXX 01064 67481 12480 71002 10200 20183 48/// 60044 87500
                   333 10254 20167 59008 87610=
201711301200 AAXX 30124 67481 NIL=
201711300900 AAXX 30094 67481 42480 70000 10230 20186 48/// 8424/
                   333 58005 84819 81619 87361=
201711271200 AAXX 27124 67481 NIL=
201711270900 AAXX 27094 67481 42480 70302 10219 20190 48/// 8557/
                   333 5//// 85615 87360=
201711270600 AAXX 27064 67481 11379 80304 10192 20181 48/// 69904 72162 887//
                   333 10270 20188 58017 88706=
201711241500 AAXX 24154 67481 NIL=
201711241200 AAXX 24124 67481 42780 62402 10296 20157 48/// 86200
                   333 5//// 81956 86856=
201711240600 AAXX 24064 67481 12580 10000 10233 20177 48/// 69954 81101
                   333 10318 20177 5//// 81825 81080=
201711210900 AAXX 21094 67481 NIL=
201711210600 AAXX 21064 67481 32480 10000 10228 20176 48/// 81580
                   333 10315 20170 59005 81618 81361=
201711200600 AAXX 20064 67481 32580 20000 10230 20175 48/// 81501
                   333 10325 20192 58002 81620 81080=
201711170900 AAXX 17094 67481 NIL=
201711160600 AAXX 16064 67481 32980 52003 10244 20127 48/// 80002
                   333 10340 20178 59008 85080=
201711150600 AAXX 15064 67481 32980 52103 10240 20140 48/// 80001
                   333 10322 20187 59002 85080=
201711130600 AAXX 13064 67481 12980 53003 10234 20137 48/// 69934 82081
                   333 10300 20178 5//// 82360 84080=
201711101200 AAXX 10124 67481 42780 22103 10304 20127 48/// 82101
                   333 59010 82856 82080=
201711100900 AAXX 10094 67481 42680 20403 10282 20159 48/// 81140
                   333 59008 81849 81361=
201711100600 AAXX 10064 67481 12980 13601 10219 20164 48/// 60204 81040
                   333 10302 20172 59004 81360
                   555 00///=
201711091200 AAXX 09124 67481 42780 30304 10296 20156 48/// 81230
                   333 59006 82850 82361=
201711081200 AAXX 08124 67481 42680 72106 10274 20167 48/// 8427/
                   333 58015 84840 87361=
201711070900 AAXX 07094 67481 42780 30000 10290 20138 48/// 83240
                   333 59027 83850 81361=
201711070600 AAXX 07064 67481 12980 50000 10232 20164 48/// 69904 85040
                   333 10256 20180 59014 85361=
201711061200 AAXX 06124 67481 42680 72103 10250 20144 48/// 8317/
                   333 58013 83840 87461=
201711060900 AAXX 06094 67481 41580 83301 10228 20178 48/// 76022 8357/
                   333 58001 83624 88460=
201711060600 AAXX 06064 67481 12980 70301 10218 20163 69904 87030
                   333 10326 20192 59002 87360=
201711030600 AAXX 03064 67481 32980 52102 10178 20111 48/// 80001
                   333 10316 20170 59005 85080=
201711010900 AAXX 01094 67481 42780 42602 10285 20136 48/// 84100
                   333 59005 84850=
201711010600 AAXX 01064 67481 32680 23003 10234 20147 48/// 82100
                   333 10302 20175 59010 83833=

################################################################################
#  SYNOPS from 67531, Zambezi (Zambia) | 13-32S | 023-07E | 1077 m
################################################################################
201712010600 AAXX 01064 67531 32980 40704 10230 20196 48/// 70200 84030
                   333 10310 20184 59012 82360
                   555 00190=
201711301200 AAXX 30124 67531 NIL=
201711300900 AAXX 30094 67531 NIL=
201711290600 AAXX 29064 67531 32980 50303 10232 20201 48/// 70222 82038
                   333 10320 20182 58011 82362 84281
                   555 00189=
201711271200 AAXX 27124 67531 NIL=
201711270600 AAXX 27064 67531 32980 73602 10206 20185 48/// 70222 8707/
                   333 10267 20182 58017 87361=
201711241500 AAXX 24154 67531 NIL=
201711241200 AAXX 24124 67531 NIL=
201711240600 AAXX 24064 67531 12980 70000 10206 20197 48/// 60034 8707/
                   333 10320 20190 58004 87360
                   555 00190=
201711230600 AAXX 23064 67531 12480 62602 10222 20190 48/// 60064 70222 83530
                   333 10300 20181 59013 83615 84362
                   555 00198=
201711220600 AAXX 22064 67531 12380 70905 10206 20190 48/// 69954 70222 8367/
                   333 10320 20190 58007 83707 87361
                   555 00194=
201711210900 AAXX 21094 67531 NIL=
201711210600 AAXX 21064 67531 12980 20602 10235 20178 48/// 69904 70200 82030
                   333 10295 20160 59018 82362
                   555 00160=
201711200600 AAXX 20064 67531 11375 73602 10201 20185 48/// 69904 76066 8377/
                   333 10290 20175 58023 83707 87360
                   555 00192=
201711170900 AAXX 17094 67531 NIL=
201711170600 AAXX 17064 67531 11980 70000 10195 20181 48/// 60254 70266 8707/
                   333 10304 20179 5//// 87460
                   555 00192=
201711160600 AAXX 16064 67531 12980 23604 10235 20184 48/// 69924 82030
                   333 10325 20186 59003 82361
                   555 00182=
201711150600 AAXX 15064 67531 12980 63603 10215 20178 48/// 60024 70222 86070
                   333 10256 20182 59009 86361
                   555 00180=
201711140600 AAXX 14064 67531 32980 73003 10221 20184 48/// 70222 8707/
                   333 10303 20180 59014 87361
                   555 00182=
201711130600 AAXX 13064 67531 32980 63304 10225 20175 48/// 70222 83038
                   333 10310 20176 59003 83362 84280=
201711101200 AAXX 10124 67531 NIL=
201711100600 AAXX 10064 67531 NIL=
201711070600 AAXX 07064 67531 11975 33004 10211 20161 48/// 69954 70500 82031
                   333 10350 20163 5//// 82362 82081=
201711060900 AAXX 06094 67531 NIL=
201711030600 AAXX 03064 67531 12980 70000 10210 20185 48/// 60064 8707/
                   333 10346 20190 58015 87460=
201711020600 AAXX 02064 67531 32980 70303 10246 20154 48/// 8707/
                   333 10350 20182 59009 87360=
201711010600 AAXX 01064 67531 32980 20906 10226 20139 48/// 80001
                   333 10321 20168 58003 82081=

################################################################################
#  SYNOPS from 67541, Kasempa (Zambia) | 13-32S | 025-51E | 1234 m
################################################################################
201711301200 AAXX 30124 67541 NIL=
201711300900 AAXX 30094 67541 NIL=
201711271200 AAXX 27124 67541 NIL=
201711270600 AAXX 27064 67541 12380 70602 10200 20192 48513 60014 70222 8153/
                   333 10272 20180 58006 81606 87360=
201711241500 AAXX 24154 67541 NIL=
201711241200 AAXX 24124 67541 NIL=
201711240600 AAXX 24064 67541 12380 70902 10204 20183 48504 60034 70222 82530
                   333 10296 20174 58002 82606 85360=
201711230600 AAXX 23064 67541 12980 10903 10193 20178 48502 60114 70222 8703/
                   333 10348 20160 58005 87360=
201711220600 AAXX 22064 67541 12980 70000 10206 20196 48497 69954 70222 8703/
                   333 10320 20172 59014 87360=
201711210900 AAXX 21094 67541 NIL=
201711210600 AAXX 21064 67541 12980 20302 10226 20189 48511 60014 70222 80002
                   333 10300 20170 59007 82080=
201711200600 AAXX 20064 67541 12980 60503 10207 20181 48518 60334 70222 86030
                   333 10296 20162 58002 86360=
201711170900 AAXX 17094 67541 NIL=
201711170600 AAXX 17064 67541 11360 70000 10188 20183 48506 60184 76066 8353/
                   333 10320 20174 58012 83706 87360=
201711160600 AAXX 16064 67541 12980 60000 10221 20183 48494 60104 70222 86030
                   333 10312 20172 59005 86360=
201711150600 AAXX 15064 67541 12980 70000 10201 20191 48489 60294 70222 8703/
                   333 10300 20178 59012 87360=
201711140600 AAXX 14064 67541 32980 70503 10218 20190 48501 70222 84033
                   333 10270 20174 59005 84360 83080=
201711130600 AAXX 13064 67541 12380 70000 10192 20187 48506 60064 70222 8253/
                   333 10320 20182 58000 82606 87360=
201711101200 AAXX 10124 67541 NIL=
201711100600 AAXX 10064 67541 NIL=
201711070600 AAXX 07064 67541 31960 70000 10208 20164 48504 70522 87030
                   333 10330 20170 59004 87360=
201711060900 AAXX 06094 67541 NIL=
201711060600 AAXX 06064 67541 31960 70603 10210 20106 48508 70522 80007
                   333 10348 20144 59015 87080=
201711030600 AAXX 03064 67541 31960 70504 10257 20146 48521 70522 80007
                   333 10350 20172 58005 87080=

################################################################################
#  SYNOPS from 67543, Kabompo (Zambia) | 13-36S | 024-12E | 1075 m
################################################################################
201712010600 AAXX 01064 67543 12383 70000 10214 20200 48/// 60044 876//
                   333 10302 20194 59014 87707
                   555 00182=
201711301200 AAXX 30124 67543 NIL=
201711300900 AAXX 30094 67543 NIL=
201711290600 AAXX 29064 67543 32382 70000 10214 20191 48/// 83607
                   333 10322 20186 58004 83708 87280
                   555 00180=
201711271200 AAXX 27124 67543 NIL=
201711270600 AAXX 27064 67543 32983 70000 10212 2//// 48/// 8705/
                   333 10318 20192 58022 87360
                   555 00178=
201711241500 AAXX 24154 67543 NIL=
201711241200 AAXX 24124 67543 NIL=
201711240600 AAXX 24064 67543 12375 70000 10216 20197 48/// 60144 82750
                   333 10324 20194 5//// 82708 86360
                   555 00172=
201711230600 AAXX 23064 67543 11365 70000 10198 20188 48/// 60114 72844 876//
                   333 10288 20184 5//// 87707
                   555 00176=
201711220600 AAXX 22064 67543 11480 70000 10210 20188 48/// 60134 72999 875//
                   333 10338 20194 5//// 87615 81915
                   555 00182=
201711210900 AAXX 21094 67543 NIL=
201711210600 AAXX 21064 67543 32983 70000 10218 20185 48/// 8703/
                   333 10332 20180 5//// 87360
                   555 00168=
201711170900 AAXX 17094 67543 NIL=
201711170600 AAXX 17064 67543 12380 70000 10201 20183 48/// 60054 876//
                   333 10302 20178 5//// 87707
                   555 00162=
201711160600 AAXX 16064 67543 12980 40000 10222 20189 48/// 60084 82035
                   333 10310 20180 5//// 82360 84280
                   555 00164=
201711150600 AAXX 15064 67543 12383 60000 10218 20188 48/// 60114 82630
                   333 10304 20184 5//// 82708 86360
                   555 00172=
201711140600 AAXX 14064 67543 12983 70000 10218 20182 48/// 69904 8703/
                   333 10308 20176 5//// 87360
                   555 00164=
201711101200 AAXX 10124 67543 NIL=
201711100600 AAXX 10064 67543 NIL=
201711070600 AAXX 07064 67543 12980 70000 10216 20155 48/// 60014 8703/
                   333 10352 20180 5//// 87360=
201711060900 AAXX 06094 67543 NIL=

################################################################################
#  SYNOPS from 67551, Solwezi (Zambia) | 12-11S | 026-23E | 1386 m
################################################################################
201712010600 AAXX 01064 67551 12975 70000 10188 20179 48531 60064 87030
                   333 10224 20//0 59007 87362
                   555 00220 91020=
201711301200 AAXX 30124 67551 NIL=
201711300900 AAXX 30094 67551 NIL=
201711300600 AAXX 30064 67551 12360 70000 10191 20184 48538 60054 86730
                   333 10286 20//0 58003 86705 87362
                   555 00224 91021=
201711290600 AAXX 29064 67551 11258 80803 10190 20177 48535 60094 70550 887//
                   333 10310 20//0 58010 88704
                   555 00210 91021=
201711280600 AAXX 28064 67551 12380 71504 10210 20172 48522 60084 83530
                   333 10272 20//0 59018 83601 87362
                   555 00248 91020=
201711271200 AAXX 27124 67551 NIL=
201711270600 AAXX 27064 67551 11957 70000 10194 20187 48539 60124 76166 87030
                   333 10232 20//0 58017 87362
                   555 00222 91022=
201711241500 AAXX 24154 67551 NIL=
201711241200 AAXX 24124 67551 NIL=
201711240600 AAXX 24064 67551 12960 71506 10201 20181 48522 60034 87030
                   333 10232 20/// 58011 87362
                   555 00225 91019=
201711230600 AAXX 23064 67551 11975 70803 10192 20171 48511 60134 75050 8707/
                   333 10258 20/// 59005 87362
                   555 00219 91018=
201711220600 AAXX 22064 67551 31975 83603 10207 20177 48512 71792 8197/
                   333 10330 20/// 59010 81959 88360
                   555 00222 91018=
201711210900 AAXX 21094 67551 NIL=
201711210600 AAXX 21064 67551 32980 30903 10218 20175 48519 83030
                   333 10332 20//0 59019 83362
                   555 00230 91020=
201711200600 AAXX 20064 67551 11356 83504 10164 20161 48541 60144 76166 8677/
                   333 10263 2//// 58021 86704 88360
                   555 00178 91022=
201711170900 AAXX 17094 67551 NIL=
201711170600 AAXX 17064 67551 11275 71203 10176 20173 48529 60064 76066 8377/
                   333 10319 20//0 58028 83703 87362
                   555 00200 91020=
201711160600 AAXX 16064 67551 12980 73204 10196 20172 48498 60014 8707/
                   333 10328 20//0 59005 87362
                   555 00202 91017=
201711150600 AAXX 15064 67551 12980 63203 10194 20174 48500 60074 86030
                   333 10300 20//0 59003 86362
                   555 00203 91017=
201711140600 AAXX 14064 67551 32980 70000 10222 20181 48505 87030
                   333 10280 20/// 59019 87360
                   555 00252 91017=
201711130600 AAXX 13064 67551 12380 71704 10198 20179 48522 60074 86730
                   333 10220 20//0 58000 86705 87360
                   555 00238 91020=
201711101200 AAXX 10124 67551 NIL=
201711100600 AAXX 10064 67551 NIL=
201711070600 AAXX 07064 67551 32980 80000 10193 20156 48506 8807/
                   333 10289 20//0 59014 88360 91018=
201711060900 AAXX 06094 67551 NIL=
201711060600 AAXX 06064 67551 32980 73003 10204 20159 48521 87030
                   333 10288 20//0 59009 87362 91020=
201711030600 AAXX 03064 67551 32980 40504 10223 20162 48527 84030
                   333 10329 20//0 58002 84362 91020=
201711020600 AAXX 02064 67551 32980 00506 10224 20147 48538
                   333 10321 20//0 59009 91020=
201711010600 AAXX 01064 67551 32980 01807 10219 20147 48533
                   333 10296 20//0 59015 91021=

################################################################################
#  SYNOPS from 67561, Ndola (Zambia) | 13-00S | 028-39E | 1269 m
################################################################################
201712010600 AAXX 01064 67561 11280 71003 10196 20182 48536 60224 76062 8277/
                   333 10270 20179 59003 82705 87460 91021=
201711301200 AAXX 30124 67561 NIL=
201711300900 AAXX 30094 67561 NIL=
201711300600 AAXX 30064 67561 11375 70912 10201 20183 48539 69904 70522 8767/
                   333 10259 20182 58008 87703 87460 91021=
201711290600 AAXX 29064 67561 11360 80903 10195 20186 48534 60254 75065
                   333 10266 20178 58006 87707 88459 91021=
201711271200 AAXX 27124 67561 NIL=
201711270600 AAXX 27064 67561 NIL=
201711241500 AAXX 24154 67561 NIL=
201711241200 AAXX 24124 67561 NIL=
201711240600 AAXX 24064 67561 11370 70000 10206 20188 48524 60154 70562 81638
                   333 10292 20183 58008 81708 86360 87280 91020=
201711230600 AAXX 23064 67561 11360 80303 10204 20188 48516 60074 70522 8567/
                   333 10314 20185 58003 85708 88460 91019=
201711220600 AAXX 22064 67561 11970 50605 10232 20182 48515 69904 70522 80008
                   333 10307 20169 59012 85280 91018=
201711210900 AAXX 21094 67561 NIL=
201711210600 AAXX 21064 67561 31975 10706 10234 20176 48527 70500 80001
                   333 10292 20168 59007 81080 91020=
201711200600 AAXX 20064 67561 12980 61306 10230 20168 48533 60104 86031
                   333 10304 20119 58007 86360 81080 91020=
201711170900 AAXX 17094 67561 NIL=
201711170600 AAXX 17064 67561 11970 82806 10198 20167 48521 60164 70562 8807/
                   333 10317 20196 58016 88460 91019=
201711160600 AAXX 16064 67561 31970 60703 10221 20175 48507 70522 86302
                   333 10306 20190 59003 86361 82080 91018=
201711150600 AAXX 15064 67561 11260 60604 10189 20178 48509 60014 76122 81732
                   333 10302 20185 58001 81704 819// 86360 81080
                   91018=
201711140600 AAXX 14064 67561 31975 70904 10216 20168 48508 70522 86032
                   333 10279 20176 59016 86361 82080 91018=
201711130600 AAXX 13064 67561 11360 72208 10198 20184 48523 60024 72166 8377/
                   333 10284 20183 59003 83708 87459 91020=
201711101200 AAXX 10124 67561 NIL=
201711100600 AAXX 10064 67561 31675 72105 10209 20171 48514 70522 8153/
                   333 10329 20175 59003 81635 87360
                   555 00/// 91019=
201711060900 AAXX 06094 67561 NIL=
201711060600 AAXX 06064 67561 31960 70706 10217 20121 48530 70522 81038
                   333 10324 20166 58008 81361 87280 91020=

################################################################################
#  SYNOPS from 67563, Kafironda (Zambia) | 12-36S | 028-07E | 1243 m
################################################################################
201712010600 AAXX 01064 67563 11375 70000 10225 20188 48/// 60354 70562 85770
                   333 10265 20173 59007 82708 83610 86359
                   555 00177=
201711301200 AAXX 30124 67563 NIL=
201711300900 AAXX 30094 67563 NIL=
201711290600 AAXX 29064 67563 11378 80000 10207 20190 48/// 60104 72162 8477/
                   333 10274 20180 58011 84708 88358
                   555 00180=
201711280600 AAXX 28064 67563 11378 61202 10224 20190 48/// 69904 70522 83630
                   333 10253 20180 5//// 83708 84359
                   555 00179=
201711271200 AAXX 27124 67563 NIL=
201711270600 AAXX 27064 67563 11370 80301 10185 20178 48/// 60454 76062 887//
                   333 10290 20180 58015 88708
                   555 00175=
201711241500 AAXX 24154 67563 NIL=
201711241200 AAXX 24124 67563 NIL=
201711240600 AAXX 24064 67563 11378 70000 10203 20180 48/// 60304 72162 8277/
                   333 10289 20168 58010 82709 87360
                   555 00167=
201711230600 AAXX 23064 67563 11378 80901 10212 20190 48/// 60114 72162 8372/
                   333 10319 20180 58003 83709 88460
                   555 00180=
201711220600 AAXX 22064 67563 32980 70201 10235 20182 48/// 70222 80008
                   333 10321 20165 5//// 87270
                   555 00165=
201711210900 AAXX 21094 67563 NIL=
201711210600 AAXX 21064 67563 NIL=
201711170900 AAXX 17094 67563 NIL=
201711160600 AAXX 16064 67563 32980 70000 10220 20190 48/// 70522 87030
                   333 10305 20175 59007 87358
                   555 00170=
201711150600 AAXX 15064 67563 11980 60000 10210 20180 48/// 60244 70522 80008
                   333 10300 20165 58003 86270
                   555 00165=
201711101200 AAXX 10124 67563 NIL=
201711100600 AAXX 10064 67563 31470 80000 10195 20172 48/// 70522 885//
                   333 10330 20175 59001 88615
                   555 00170=
201711070600 AAXX 07064 67563 32980 70202 10220 20165 48/// 70522 87070
                   333 10290 20165 59018 87458=
201711060900 AAXX 06094 67563 NIL=
201711060600 AAXX 06064 67563 32980 70302 10225 20128 48/// 70522 81038
                   333 10310 20155 58005 81362 86270=

################################################################################
#  SYNOPS from 67571, Serenje (Zambia) | 13-14S | 030-13E | 1384 m
################################################################################
201712010600 AAXX 01064 67571 12582 70902 10197 20176 48/// 60204 70222 8157/
                   333 10247 20176 5//// 81620 87360
                   555 00215=
201711301200 AAXX 30124 67571 41560 71502 10220 20180 48/// 76366 872//
                   333 5//// 81925 87825=
201711300900 AAXX 30094 67571 41582 73605 10218 20181 48/// 76166 875//
                   333 5//// 87623=
201711291200 AAXX 29124 67571 41478 71505 10197 20187 48/// 79596 8267/
                   333 5//// 81918 82618 87460=
201711271200 AAXX 27124 67571 NIL=
201711270900 AAXX 27094 67571 41482 72705 10202 20176 48/// 72162 875//
                   333 5//// 87617=
201711270600 AAXX 27064 67571 11378 83302 10180 20172 48/// 60054 76166 8177/
                   333 10250 20169 5//// 81708 88459
                   555 00190=
201711241500 AAXX 24154 67571 NIL=
201711241200 AAXX 24124 67571 41682 72705 10208 20166 48/// 72992 82308
                   333 5//// 81932 82832 87280=
201711240600 AAXX 24064 67571 12582 71206 10220 20181 48/// 60034 70222 8123/
                   333 10277 20180 5//// 81820 87360
                   555 00246=
201711230600 AAXX 23064 67571 12982 72702 10202 20174 48/// 69914 70222 8707/
                   333 10310 20182 5//// 87360
                   555 00228=
201711221200 AAXX 22124 67571 41682 71203 10286 20145 48/// 71799 872//
                   333 5//// 81945 87545=
201711210900 AAXX 21094 67571 NIL=
201711210600 AAXX 21064 67571 32982 11205 10240 20166 48/// 70100 81030
                   333 10274 20169 5//// 81360
                   555 00284=
201711200600 AAXX 20064 67571 12982 71506 10195 20160 48/// 60014 70222 8707/
                   333 10290 20166 5//// 87360
                   555 00204=
201711170900 AAXX 17094 67571 42682 51506 10249 20150 48/// 70222 82231
                   333 5//// 82830 84360 81080=
201711161200 AAXX 16124 67571 42682 72706 10290 20162 48/// 70322 872//
                   333 5//// 81945 87845=
201711160600 AAXX 16064 67571 12682 71802 10230 20168 48/// 60284 70222 84208
                   333 10286 20168 5//// 81930 84530 87280
                   555 00174=
201711150600 AAXX 15064 67571 NIL=
201711140600 AAXX 14064 67571 12982 70902 10217 20161 48/// 60624 70222 8703/
                   333 10276 20169 5//// 87360
                   555 00234=
201711130600 AAXX 13064 67571 12582 20906 10230 20178 48/// 60154 70111 81131
                   333 10282 20191 5//// 81820 81360 81030
                   555 00170=
201711101200 AAXX 10124 67571 NIL=
201711100900 AAXX 10094 67571 42578 73008 10242 20162 48/// 72052 875//
                   333 5//// 87620=
201711100600 AAXX 10064 67571 12978 71206 10231 20159 48/// 69904 8703/
                   333 10321 20195 5//// 87360
                   555 00///=
201711091200 AAXX 09124 67571 42680 73602 10302 20121 48/// 70522 872//
                   333 5//// 87840=
201711070600 AAXX 07064 67571 32965 72702 10201 20155 48/// 70522 8703/
                   333 10280 20149 5//// 87360=
201711060900 AAXX 06094 67571 41670 73606 10254 20114 48/// 70522 81238
                   333 5//// 81830 82360 87280=
201711060600 AAXX 06064 67571 32980 71206 10221 20131 48/// 70522 8709/
                   333 10305 20166 5//// 87360=
201711011200 AAXX 01124 67571 42680 31506 10298 20104 48/// 70500 83200
                   333 5//// 83840=
201711010600 AAXX 01064 67571 32980 01206 10221 20108 48/// 70500
                   333 10272 20170 5////=

################################################################################
#  SYNOPS from 67575, Mkushi (Zambia) | 13-38-00S | 029-26-00E | 1237 m
################################################################################
201711301200 AAXX 30124 67575 NIL=
201711300900 AAXX 30094 67575 NIL=
201711271200 AAXX 27124 67575 NIL=
201711270600 AAXX 27064 67575 NIL=
201711241500 AAXX 24154 67575 NIL=
201711241200 AAXX 24124 67575 NIL=
201711240600 AAXX 24064 67575 NIL=
201711210900 AAXX 21094 67575 NIL=
201711210600 AAXX 21064 67575 NIL=
201711170900 AAXX 17094 67575 NIL=
201711160600 AAXX 16064 67575 NIL=
201711150600 AAXX 15064 67575 NIL=
201711101200 AAXX 10124 67575 NIL=
201711100600 AAXX 10064 67575 NIL=
201711060900 AAXX 06094 67575 NIL=

################################################################################
#  SYNOPS from 67580, Msekera (Zambia) | 13-39S | 032-34E | 1025 m
################################################################################
201711301200 AAXX 30124 67580 NIL=
201711300900 AAXX 30094 67580 NIL=
201711280600 AAXX 28064 67580 11980 81202 10200 20193 48/// 60054 76162 8807/
                   333 10296 20192 5//// 88460=
201711271200 AAXX 27124 67580 NIL=
201711270900 AAXX 27094 67580 42680 73005 10238 20180 48/// 8213/
                   333 5//// 82834 87360=
201711270600 AAXX 27064 67580 12580 73005 10209 20187 48/// 60084 84831
                   333 10308 20196 5//// 81822 83624 85360 83080=
201711241500 AAXX 24154 67580 NIL=
201711241200 AAXX 24124 67580 NIL=
201711240600 AAXX 24064 67580 12680 51504 10260 20194 48/// 60024 82831
                   333 10350 20217 5//// 81832 81634 82361 83080=
201711210900 AAXX 21094 67580 42780 73004 10293 20167 48/// 87100
                   333 59021 87850=
201711210600 AAXX 21064 67580 32980 01204 10264 20185 48///
                   333 10323 20192 59018=
201711200600 AAXX 20064 67580 32580 71204 10237 20181 48/// 87831
                   333 10332 20197 5//// 82824 85628 81360 81080=
201711170900 AAXX 17094 67580 NIL=
201711170600 AAXX 17064 67580 32980 11507 10269 20178 48/// 80001
                   333 10357 20213 59020 81080=
201711160600 AAXX 16064 67580 32980 70903 10289 20149 48/// 80001
                   333 10350 20210 5//// 87080=
201711150900 AAXX 15094 67580 42980 70903 10307 20159 48/// 80002
                   333 58001 87080=
201711150600 AAXX 15064 67580 12980 53604 10273 20159 48/// 60014 81031
                   333 10342 20220 5//// 81361 84080=
201711141200 AAXX 14124 67580 42780 73604 10333 20153 48/// 84230
                   333 5//// 84856 85361=
201711101200 AAXX 10124 67580 NIL=
201711100900 AAXX 10094 67580 42780 70304 10302 20169 48/// 83131
                   333 59001 83850 87360 83080=
201711100600 AAXX 10064 67580 12980 73004 10250 20183 48/// 60194 87031
                   333 10359 20218 59004 87360 82080
                   555 00///=
201711081200 AAXX 08124 67580 42880 63602 10346 20134 48/// 86201
                   333 5//// 86857 81080=
201711061200 AAXX 06124 67580 41780 73604 10297 20125 48/// 70522
                   333 5//// 85856 83360 85280=
201711060900 AAXX 06094 67580 41780 72103 10303 20129 48/// 70522 83138
                   333 5//// 83858 83361 84281=
201711060600 AAXX 06064 67580 31980 41205 10259 20124 48/// 70511 81031
                   333 10337 20177 59010 81361 84080=
201711030900 AAXX 03094 67580 42780 71104 10296 20164 48/// 87100
                   333 59003 87850=
201711030600 AAXX 03064 67580 32680 61205 10258 20161 48/// 86100
                   333 10338 20200 59002 86832=

################################################################################
#  SYNOPS from 67581, Chipata (Zambia) | 13-33S | 032-35E | 1028 m
################################################################################
201711301200 AAXX 30124 67581 42680 70000 10262 20186 48529 8427/
                   333 5//// 84840 87460 91017=
201711300900 AAXX 30094 67581 42680 71402 10246 20186 48555 70222 8317/
                   333 58010 83835 87460 91021=
201711300600 AAXX 30064 67581 12580 71603 10221 20192 48558 60184 70222 8357/
                   333 10260 20178 58008 83625 87460 91022=
201711280600 AAXX 28064 67581 11457 81502 10204 20191 48545 60054 76166 8677/
                   333 10284 20186 59011 86715 88459 91021=
201711271200 AAXX 27124 67581 NIL=
201711270600 AAXX 27064 67581 11680 73202 10201 20181 48554 69904 70255 81170
                   333 10306 20186 58025 81830 87460 91022=
201711241500 AAXX 24154 67581 NIL=
201711241200 AAXX 24124 67581 NIL=
201711240600 AAXX 24064 67581 32680 41406 10267 20184 48537 70222 81132
                   333 10337 20215 58006 81835 81360 83080 91018=
201711230600 AAXX 23064 67581 32680 40704 10285 20165 48543 81132
                   333 10338 20200 59001 81835 81360 83080 91017=
201711221200 AAXX 22124 67581 42780 51208 10331 20131 48499 85200
                   333 59015 85858 91013=
201711220600 AAXX 22064 67581 32680 31602 10278 20158 48532 82100
                   333 10364 20186 59015 82835 91017=
201711210900 AAXX 21094 67581 NIL=
201711210600 AAXX 21064 67581 12680 10703 10269 20163 48544 60024 81100
                   333 10312 20186 59014 81835 91019=
201711200600 AAXX 20064 67581 32680 41203 10246 20166 48553 82132
                   333 10364 20194 58008 82835 81360 82080 91021=
201711170900 AAXX 17094 67581 NIL=
201711170600 AAXX 17064 67581 32980 21505 10278 20174 48530 81032
                   333 10351 20209 58016 81360 82080 91017=
201711161200 AAXX 16124 67581 42680 41608 10345 20112 48487 70222 82132
                   333 59009 82848 82360 83080 91011=
201711160600 AAXX 16064 67581 32680 61206 10283 20122 48516 70222 81102
                   333 10338 20196 59013 81835 85080 91016=
201711150600 AAXX 15064 67581 12980 60503 10276 20144 48527 60024 81032
                   333 10330 20211 59002 81360 85080 91017=
201711141200 AAXX 14124 67581 42680 51608 10322 20146 48595 82130
                   333 59009 82845 84360 91012=
201711140600 AAXX 14064 67581 32680 60903 10250 20193 48525 70222 82132
                   333 10316 20164 59009 82830 84360 82060 91017=
201711130600 AAXX 13064 67581 12680 40604 10270 20176 48535 60214 70222 83132
                   333 10302 20163 5//// 83835 82360 82080 91018=
201711101200 AAXX 10124 67581 NIL=
201711100600 AAXX 10064 67581 NIL=
201711070600 AAXX 07064 67581 31960 70703 10260 20158 48524 70522 87070
                   333 10302 20158 59016 87460 91017=
201711060900 AAXX 06094 67581 NIL=
201711030600 AAXX 03064 67581 31660 50906 10252 20149 48556 70522 85130
                   333 10326 20198 59007 85835 81360 91021=
201711020600 AAXX 02064 67581 31660 60805 10248 20157 48561 70500 85230
                   333 10320 20199 59001 85235 81360 91021=

################################################################################
#  SYNOPS from 67583, Lundazi (Zambia) | 12-17S | 033-12E | 1143 m
################################################################################
201711301200 AAXX 30124 67583 NIL=
201711300900 AAXX 30094 67583 NIL=
201711290600 AAXX 29064 67583 12480 70000 10246 20208 48/// 60144 70200 8323/
                   333 10278 20184 5//// 83818 87359=
201711271200 AAXX 27124 67583 NIL=
201711270600 AAXX 27064 67583 12978 80000 10198 20185 48/// 60084 72122 81037
                   333 10302 20182 5//// 81360 87280=
201711241500 AAXX 24154 67583 NIL=
201711241200 AAXX 24124 67583 NIL=
201711240600 AAXX 24064 67583 11558 71102 10248 20178 48/// 69904 70500 84506
                   333 10336 20194 5//// 84620 86275=
201711230600 AAXX 23064 67583 31960 70202 10276 20188 48/// 70522 81037
                   333 10346 20184 5//// 81360 87280=
201711210900 AAXX 21094 67583 NIL=
201711210600 AAXX 21064 67583 31559 21202 10264 20185 48/// 70500 82460
                   333 10318 20185 5//// 82624 81360=
201711170900 AAXX 17094 67583 NIL=
201711170600 AAXX 17064 67583 31959 70000 10284 20157 48/// 70522 80007
                   333 10368 20184 5//// 87280=
201711160600 AAXX 16064 67583 32980 70101 10286 20143 48/// 81037
                   333 10356 20169 5//// 81360 87280=
201711150600 AAXX 15064 67583 32980 50000 10/// 20/// 48/// 81035
                   333 10358 20172 5//// 81360 85280=
201711140600 AAXX 14064 67583 12975 40000 10254 20193 48/// 60024 82064
                   333 10326 20162 5//// 82360 82080=
201711130600 AAXX 13064 67583 12580 30000 10256 20195 48/// 69904 70200 81201
                   333 10298 20172 5//// 81825 81080=
201711101200 AAXX 10124 67583 NIL=
201711100600 AAXX 10064 67583 11965 61004 10268 20182 48/// 60044 86031
                   333 10316 20196 5//// 86360 81080
                   555 00///=
201711070600 AAXX 07064 67583 12980 70000 10254 20162 69904 8703/
                   333 10302 20178 5//// 87359=
201711060900 AAXX 06094 67583 NIL=
201711060600 AAXX 06064 67583 32975 70000 10240 20148 8703/
                   333 10314 20166 5//// 87359=

################################################################################
#  SYNOPS from 67599, Mfuwe (Zambia) | 13-16S | 031-56E | 568 m
################################################################################
201712010600 AAXX 01064 67599 12670 61504 10264 20197 48548 60034 83231
                   333 10320 20212 59015 83230 85359 81080
                   555 00225 91018=
201711301200 AAXX 30124 67599 NIL=
201711300900 AAXX 30094 67599 NIL=
201711300600 AAXX 30064 67599 12570 72102 10230 20208 48551 69904 8227/
                   333 10311 20207 58010 82825 87358
                   555 00203 91019=
201711290600 AAXX 29064 67599 31980 71903 10231 20197 48542 70522 8707/
                   333 10311 20218 58003 87460
                   555 00222 91018=
201711280600 AAXX 28064 67599 12470 71703 10225 20211 48537 69944 8357/
                   333 10305 20208 59011 83618 87458
                   555 00217 91018=
201711271200 AAXX 27124 67599 NIL=
201711270600 AAXX 27064 67599 12380 73103 10220 20197 48546 60084 8177/
                   333 10334 20210 58030 81710 87459
                   555 00220 91019=
201711241500 AAXX 24154 67599 NIL=
201711241200 AAXX 24124 67599 NIL=
201711240600 AAXX 24064 67599 31670 51205 10281 20201 48532 60094 82131
                   333 10365 20228 58011 82847 85360 82080
                   555 00221 91015=
201711230600 AAXX 23064 67599 32980 60806 10294 20191 48525 81038
                   333 10381 20235 58001 81360 86280
                   555 00241 91014=
201711210900 AAXX 21094 67599 NIL=
201711210600 AAXX 21064 67599 12980 00000 10265 20196 48536 69904
                   333 10340 20200 59018
                   555 00205 91016=
201711200600 AAXX 20064 67599 12580 61705 10265 20213 48552 69954 83132
                   333 10365 20210 83360 84080
                   555 00220 91018=
201711170900 AAXX 17094 67599 NIL=
201711170600 AAXX 17064 67599 32980 22205 10293 20185 48526 82030
                   333 10386 20232 58016 82360
                   555 00222 91014=
201711160600 AAXX 16064 67599 32980 71503 10270 20188 48506 80007
                   333 10370 20203 59013 87280
                   555 00206 91013=
201711150600 AAXX 15064 67599 32980 60000 10290 20194 48524 80002
                   333 10350 20210 59005 86080
                   555 00200 91014=
201711140600 AAXX 14064 67599 12980 60000 10239 20211 48508 60114 86030
                   333 10375 20205 59009 86360
                   555 00210 91014=
201711130600 AAXX 13064 67599 12980 30000 10273 20204 48530 69904 83030
                   333 10299 20198 59026 83360
                   555 00195 91015=
201711101200 AAXX 10124 67599 NIL=
201711100600 AAXX 10064 67599 32680 70607 10292 20171 48528 81131
                   333 10375 20240 59004 81830 87360 81080
                   555 00244 91015=
201711070600 AAXX 07064 67599 31975 50403 10280 20159 48519 70522 8503/
                   333 10350 20210 59028 85360 91014=
201711060900 AAXX 06094 67599 NIL=
201711060600 AAXX 06064 67599 11960 60000 10280 20155 48544 69904 70522 84031
                   333 10375 20190 59005 84360 84080 91017=
201711030600 AAXX 03064 67599 11670 31013 10296 20147 48557 69904 82131
                   333 10375 20207 59006 82830 81360 83080 91018=

################################################################################
#  SYNOPS from 67625, Kalabo (Zambia) | 14-51S | 022-42E | 1033 m
################################################################################
201711301200 AAXX 30124 67625 NIL=
201711300900 AAXX 30094 67625 NIL=
201711271200 AAXX 27124 67625 42682 33603 10300 20184 48/// 83131
                   333 5//// 83847 83361 82075=
201711270900 AAXX 27094 67625 41482 72705 10202 20194 48/// 8413/
                   333 5//// 84822 88360=
201711270600 AAXX 27064 67625 32482 73305 10215 20196 48/// 8167/
                   333 10296 20199 58013 87460
                   555 00210=
201711241500 AAXX 24154 67625 NIL=
201711241200 AAXX 24124 67625 NIL=
201711240600 AAXX 24064 67625 12382 80912 10210 20200 48/// 60054 8672/
                   333 10311 20190 58018 86708 88460
                   555 00194=
201711221200 AAXX 22124 67625 41982 81205 10242 20199 48/// 72052 86073
                   333 58007 86360 88075=
201711211200 AAXX 21124 67625 42782 30304 10320 20163 48/// 83260
                   333 5//// 82956 83856 81360=
201711210900 AAXX 21094 67625 42782 22705 10300 20177 48/// 81130
                   333 5//// 81850 82361=
201711210600 AAXX 21064 67625 32982 40604 10313 20180 48/// 84034
                   333 10313 20200 5//// 84360 81075
                   555 00208=
201711170900 AAXX 17094 67625 NIL=
201711160600 AAXX 16064 67625 12482 71506 10236 20193 48/// 69904 81633
                   333 10340 20183 58017 81710 84360 87075
                   555 00178=
201711150900 AAXX 15094 67625 42682 73203 10280 20182 48/// 81134
                   333 59007 81840 86361 87075=
201711150600 AAXX 15064 67625 12982 73306 10220 20191 48/// 69904 81034
                   333 10293 20186 59022 81361 87075
                   555 00180=
201711141200 AAXX 14124 67625 41982 73603 10248 20192 48/// 75052 86023
                   333 58003 86460 87075=
201711131200 AAXX 13124 67625 42682 63606 10312 20180 48/// 83104
                   333 5//// 83849 86075=
201711130600 AAXX 13064 67625 12482 73306 10225 20183 48/// 60034 87500
                   333 10310 20190 59010 87615
                   555 00186=
201711101200 AAXX 10124 67625 NIL=
201711100600 AAXX 10064 67625 NIL=
201711070600 AAXX 07064 67625 32982 33008 10220 20159 48/// 82035
                   333 10344 20166 59007 82360 83275=
201711060900 AAXX 06094 67625 NIL=
201711020600 AAXX 02064 67625 32982 70506 10243 20137 48/// 81084
                   333 10358 20190 59011 81360 87075=

################################################################################
#  SYNOPS from 67633, Mongu (Zambia) | 15-15S | 023-09E | 1052 m
################################################################################
201712010600 AAXX 01064 67633 32980 30305 10260 20204 48543 70200 83031
                   333 10328 20183 59010 82360 81080=
201711301200 AAXX 30124 67633 NIL=
201711300900 AAXX 30094 67633 NIL=
201711290600 AAXX 29064 67633 32980 33604 10250 20193 48540 70200 83001
                   333 10331 20190 58005 83080 91020=
201711280600 AAXX 28064 67633 12980 20903 10244 20213 48529 60044 70200 80001
                   333 10307 20174 58002 82080 91019=
201711271200 AAXX 27124 67633 NIL=
201711270600 AAXX 27064 67633 32980 73603 10216 20188 48526 70222 8703/
                   333 10280 20203 58025 87360 91019=
201711241500 AAXX 24154 67633 NIL=
201711241200 AAXX 24124 67633 NIL=
201711240600 AAXX 24064 67633 11680 81801 10205 20200 48524 60124 72966 8197/
                   333 10322 20195 58000 81935 88460 91019=
201711220600 AAXX 22064 67633 32980 73605 10225 20186 48536 70222 87030
                   333 10345 20205 59003 87360 91019=
201711210900 AAXX 21094 67633 NIL=
201711210600 AAXX 21064 67633 NIL=
201711200600 AAXX 20064 67633 32980 60302 10254 20180 48530 70222 85031
                   333 10345 20199 58028 85360 82080 91019=
201711170900 AAXX 17094 67633 NIL=
201711170600 AAXX 17064 67633 32980 41001 10221 20142 48526 70200 82031
                   333 10303 20166 58019 82360 83080 91019=
201711160600 AAXX 16064 67633 32980 70000 10230 20189 48508 70222 8707/
                   333 10337 20192 58024 87460 91016=
201711150600 AAXX 15064 67633 32980 73606 10225 20196 48489 70222 87001
                   333 10317 20205 59027 87080 91015=
201711140600 AAXX 14064 67633 32980 63605 10216 20193 48505 70222 86031
                   333 10335 20195 59007 84360 82080 91017=
201711130600 AAXX 13064 67633 32980 00903 10255 20182 48522 70200
                   333 10316 20195 58003 91017=
201711101200 AAXX 10124 67633 NIL=
201711100600 AAXX 10064 67633 12980 70202 10216 20169 48506 60174 8703/
                   333 10344 20182 58008 87460
                   555 00/// 91016=
201711070600 AAXX 07064 67633 32980 33602 10235 20168 48508 82031
                   333 10355 20165 59013 82360 83080 91016=
201711060900 AAXX 06094 67633 NIL=
201711060600 AAXX 06064 67633 32980 23602 10254 20125 48521 70100 82030
                   333 10363 20192 59012 82360 91018=
201711030600 AAXX 03064 67633 32980 53602 10245 20187 48532 70300 85030
                   333 10365 20205 58005 85360 91019=
201711020600 AAXX 02064 67633 32980 20908 10271 20157 48573 70222 80001
                   333 10384 20200 58026 82080 91023=
201711010600 AAXX 01064 67633 32980 00908 10255 20159 48542 70200
                   333 10341 20191 59024 91019=

################################################################################
#  SYNOPS from 67641, Kaoma (Zambia) | 14-48S | 024-48E | 1213 m
################################################################################
201711301200 AAXX 30124 67641 NIL=
201711300900 AAXX 30094 67641 NIL=
201711280600 AAXX 28064 67641 12680 21204 10228 20193 48523 69904 70101 81101
                   333 10291 20182 59002 81840 81080 91018=
201711271200 AAXX 27124 67641 NIL=
201711270600 AAXX 27064 67641 12980 71902 10213 20191 48522 69914 87080
                   333 10281 20200 58021 87360 91018=
201711241500 AAXX 24154 67641 NIL=
201711241200 AAXX 24124 67641 NIL=
201711240600 AAXX 24064 67641 11610 80402 10185 20180 48528 60184 79598 8497/
                   333 10306 20182 58028 84940 88458 91020=
201711230600 AAXX 23064 67641 12680 70000 10205 20//0 48503 60074 70222 84081
                   333 10295 20186 59004 84360 85080 91016=
201711220600 AAXX 22064 67641 11680 72108 10241 20189 48511 69964 70298 8227/
                   333 10320 20201 59008 82840 87359 91016=
201711210900 AAXX 21094 67641 NIL=
201711210600 AAXX 21064 67641 NIL=
201711200600 AAXX 20064 67641 12980 60602 10222 20184 48519 69904 86030
                   333 10301 20194 58010 86360 91017=
201711170900 AAXX 17094 67641 NIL=
201711170600 AAXX 17064 67641 12980 71102 10206 20197 48512 60174 70222 84031
                   333 10282 20180 58031 84360 83080 91017=
201711160600 AAXX 16064 67641 32980 50304 10237 20189 48585 70122 85080
                   333 10314 20190 58003 85359 91014=
201711150600 AAXX 15064 67641 32980 73502 10220 20183 48481 87030
                   333 10300 20198 59011 87360 91013=
201711140600 AAXX 14064 67641 12980 70201 10217 20195 48490 69924 97032
                   333 10305 20191 59013 87360 82080 91015=
201711130600 AAXX 13064 67641 12580 62602 10220 20197 48503 60014 81180
                   333 10300 20195 59011 81820 86360 91016=
201711101200 AAXX 10124 67641 NIL=
201711100600 AAXX 10064 67641 12980 70000 10215 20178 48510 60174 8703/
                   333 10341 20181 58009 87360
                   555 00/// 91017=
201711060900 AAXX 06094 67641 NIL=

################################################################################
#  SYNOPS from 67655, Mumbwa (Zambia) | 15-04S | 027-11E | 1216 m
################################################################################
201711301200 AAXX 30124 67655 NIL=
201711300900 AAXX 30094 67655 NIL=
201711300600 AAXX 30064 67655 32480 60908 10195 20179 48560 8453/
                   333 10268 20121 58000 84616 85360
                   555 00088 91023=
201711290600 AAXX 29064 67655 32480 80806 10200 20176 48561 8457/
                   333 10200 20132 58015 84610 87360
                   555 00081 91023=
201711271200 AAXX 27124 67655 NIL=
201711270600 AAXX 27064 67655 32480 73308 10212 20194 48550 875//
                   333 10282 20177 58017 87620 91021=
201711241500 AAXX 24154 67655 NIL=
201711241200 AAXX 24124 67655 NIL=
201711240600 AAXX 24064 67655 NIL=
201711210900 AAXX 21094 67655 NIL=
201711210600 AAXX 21064 67655 32980 10000 10250 20177 48534 81030
                   333 10250 20212 59011 81360 91020=
201711200600 AAXX 20064 67655 32280 60000 10201 20183 48540 82130
                   333 10261 20174 58004 82806 85360 91021=
201711170900 AAXX 17094 67655 NIL=
201711160600 AAXX 16064 67655 12480 72007 10236 20181 48596 69944 8217/
                   333 10309 20191 59013 82820 86360 91016=
201711150900 AAXX 15094 67655 42480 73007 10226 20204 48597 8117/
                   333 59004 81820 86360 91016=
201711150600 AAXX 15064 67655 32480 72706 10216 20191 48500 8267/
                   333 10312 20184 59008 82715 86359 91017=
201711101200 AAXX 10124 67655 NIL=
201711100600 AAXX 10064 67655 NIL=
201711060900 AAXX 06094 67655 NIL=

################################################################################
#  SYNOPS from 67659, Kafue Polder (Zambia) | 15-46S | 027-55E | 978 m
################################################################################
201711301200 AAXX 30124 67659 NIL=
201711300900 AAXX 30094 67659 NIL=
201711290600 AAXX 29064 67659 32360 82005 10215 20189 48/// 70322 8357/
                   333 10259 20190 58004 83610 85460=
201711280600 AAXX 28064 67659 12480 51804 10210 20188 48/// 60024 70222 83530
                   333 10264 20188 58008 83610 82360=
201711271200 AAXX 27124 67659 NIL=
201711270600 AAXX 27064 67659 NIL=
201711241500 AAXX 24154 67659 NIL=
201711241200 AAXX 24124 67659 NIL=
201711240600 AAXX 24064 67659 11375 72503 10198 20189 48/// 69934 75052 83710
                   333 10337 20185 5//// 83706 84460=
201711230600 AAXX 23064 67659 12980 31403 10235 20198 48/// 60044 70222 83030
                   333 10337 20172 58007 83360=
201711220600 AAXX 22064 67659 32980 51905 10270 20183 48/// 70222 85030
                   333 10331 20168 5//// 85360=
201711210900 AAXX 21094 67659 NIL=
201711210600 AAXX 21064 67659 32980 12103 10255 20190 48/// 70222 81030
                   333 10305 20175 5//// 81360=
201711200600 AAXX 20064 67659 32480 71805 10228 20190 48/// 70222 85630
                   333 10260 20192 58011 85710 82360=
201711170900 AAXX 17094 67659 NIL=
201711170600 AAXX 17064 67659 12980 73603 10227 20195 48/// 60074 70222 83031
                   333 10306 20182 58035 83360 84080=
201711160600 AAXX 16064 67659 12380 72704 10220 20198 48/// 60104 70222 83730
                   333 10305 20192 58000 83706 84360=
201711150600 AAXX 15064 67659 31380 82702 10215 20201 48/// 60024 70222 8674/
                   333 10290 20192 59008 86703 82360=
201711130600 AAXX 13064 67659 31480 81005 10214 20203 48/// 60114 75255 8571/
                   333 10285 20192 59006 85708 83460=
201711101200 AAXX 10124 67659 NIL=
201711100600 AAXX 10064 67659 NIL=
201711070600 AAXX 07064 67659 32980 50904 10263 20//0 48/// 85030
                   333 10338 20170 59029 85361=
201711060900 AAXX 06094 67659 NIL=
201711030600 AAXX 03064 67659 32980 11504 10//0 20175 48/// 81030
                   333 10330 20181 58001 81360=

################################################################################
#  SYNOPS from 67662, Kabwe Agric (Zambia) | 14-24S | 028-30E | 1165 m
################################################################################
201712010600 AAXX 01064 67662 12480 71504 10224 20197 48/// 60014 85530
                   333 10270 20180 5//// 85615 87360
                   555 00164=
201711301200 AAXX 30124 67662 NIL=
201711300900 AAXX 30094 67662 NIL=
201711271200 AAXX 27124 67662 NIL=
201711270600 AAXX 27064 67662 NIL=
201711241500 AAXX 24154 67662 NIL=
201711241200 AAXX 24124 67662 NIL=
201711240600 AAXX 24064 67662 NIL=
201711230600 AAXX 23064 67662 12980 70000 10232 20193 48/// 60054 83037
                   333 10320 20186 5//// 81360 87280
                   555 00180=
201711220600 AAXX 22064 67662 32980 60904 10276 20191 48/// 82031
                   333 10320 20178 5//// 82360 85080
                   555 00166=
201711210900 AAXX 21094 67662 NIL=
201711210600 AAXX 21064 67662 32980 00702 10245 20191 48/// 80001
                   333 10296 20176 5//// 81080
                   555 00158=
201711200600 AAXX 20064 67662 32480 70908 10232 20182 48/// 875//
                   333 10281 20178 5//// 87616
                   555 00174=
201711170900 AAXX 17094 67662 NIL=
201711160600 AAXX 16064 67662 NIL=
201711150600 AAXX 15064 67662 NIL=
201711130600 AAXX 13064 67662 11365 80000 10200 20184 48/// 60054 76166 8377/
                   333 10300 20174 5//// 83707 88460
                   555 00171=
201711101200 AAXX 10124 67662 NIL=
201711100600 AAXX 10064 67662 NIL=
201711060900 AAXX 06094 67662 NIL=
201711060600 AAXX 06064 67662 32980 70904 10248 20155 82038
                   333 10329 20161 82360 86280=
201711030600 AAXX 03064 67662 32980 11008 10260 20151 80001
                   333 10326 20182 81080=
201711010600 AAXX 01064 67662 32980 00903 10236 20119
                   333 10299 20151=

################################################################################
#  SYNOPS from 67663, Kabwe (Zambia) | 14-27S | 028-28E | 1206 m
################################################################################
201712010600 AAXX 01064 67663 11480 50809 10194 20186 48540 60034 72166 82530
                   333 10262 20181 59084 82617 84360
                   555 00212=
201711301200 AAXX 30124 67663 NIL=
201711300900 AAXX 30094 67663 NIL=
201711300600 AAXX 30064 67663 12380 81012 10159 20183 48611 69904 8667/
                   333 10262 20172 58013 86708 87460
                   555 00216=
201711290600 AAXX 29064 67663 11480 80706 10194 20176 48597 69904 75055 8457/
                   333 10255 20174 58016 84618 88460
                   555 00212=
201711280600 AAXX 28064 67663 11480 70610 10202 20191 48583 60044 72162 8557/
                   333 10262 20//0 58002 85618 86460
                   555 00228=
201711271200 AAXX 27124 67663 NIL=
201711270600 AAXX 27064 67663 NIL=
201711241500 AAXX 24154 67663 NIL=
201711241200 AAXX 24124 67663 NIL=
201711240600 AAXX 24064 67663 11480 80405 10200 20193 48569 60144 76166 8457/
                   333 10300 20186 58027 84618 88460
                   555 00222=
201711230600 AAXX 23064 67663 12980 50804 10225 20197 48546 60044 80008
                   333 10333 20190 58003 85280
                   555 00282=
201711220600 AAXX 22064 67663 32980 20904 10260 20177 48547 81032
                   333 10314 20192 59019 81360 81080
                   555 00322=
201711210900 AAXX 21094 67663 NIL=
201711210600 AAXX 21064 67663 NIL=
201711200600 AAXX 20064 67663 32480 50813 10220 20184 48571 84532
                   333 10274 20181 59020 84619 81360 81080
                   555 00254=
201711170900 AAXX 17094 67663 NIL=
201711170600 AAXX 17064 67663 12980 83704 10192 20179 48502 60094 76166 8807/
                   333 10278 20184 58049 88460
                   555 00208=
201711160600 AAXX 16064 67663 11480 82904 10204 20189 48567 60234 72166 8357/
                   333 10305 20180 59008 86618 88460
                   555 00218=
201711150600 AAXX 15064 67663 12480 60605 10216 20196 48543 60164 84570
                   333 10330 20186 58002 84618 86460
                   555 00258=
201711140600 AAXX 14064 67663 12980 33504 10225 20177 48542 69904 82032
                   333 10278 20180 59026 82360 83080
                   555 00284=
201711101200 AAXX 10124 67663 NIL=
201711100600 AAXX 10064 67663 NIL=
201711060900 AAXX 06094 67663 NIL=
201711060600 AAXX 06064 67663 31965 41108 10240 20103 48554 70511 82032
                   333 10316 20//0 59003 82360 84080=

################################################################################
#  SYNOPS from 67665, Lusaka Internationalairport (Zambia) | 15-19S | 028-27E | 1152 m
################################################################################
201712010600 AAXX 01064 67665 32980 20508 10217 20167 48547 70300 81601
                   333 59013 81515 82080 91021=
201712010000 AAXX 01004 67665 42980 40904 10175 20159 48522 70222 84030
                   333 59008 84360 91019=
201711302100 AAXX 30214 67665 42980 41402 10184 20157 48539 70222 84030
                   333 59002 84360=
201711301200 AAXX 30124 67665 NIL=
201711300900 AAXX 30094 67665 NIL=
201711300600 AAXX 30064 67665 32360 80807 10184 20167 48554 70222 8467/
                   333 10256 20//0 58005 84709 88459=
201711300000 AAXX 30004 67665 42980 20702 10172 20156 48532 80001
                   333 58004 82080=
201711291500 AAXX 29154 67665 42560 40912 10235 20169 48526
                   333 70122 88008 83230 81360 84080 91019=
201711291200 AAXX 29124 67665 42560 61307 10240 20172 48534 70225 85230
                   333 58002 85820 85359 91020=
201711290600 AAXX 29064 67665 41359 70809 10191 20168 48549 78082 8667/
                   333 10225 20//0 58004 86708 87359=
201711290000 AAXX 29004 67665 42980 20702 10172 20156 48532 80001
                   333 58004 82080=
201711282100 AAXX 28214 67665 42980 21005 10173 20168 48536 70100 82030
                   333 59003 82360=
201711281500 AAXX 28154 67665 42680 41011 10220 20164 48515 84032 80002 81940 83360
                   555 10245 91018=
201711281200 AAXX 28124 67665 42660 70910 10223 20161 48531 8653/
                   333 58009 86625 86360=
201711280900 AAXX 28094 67665 42460 71012 10229 20177 48545 70222 86630
                   333 58001 86510 86360 91021=
201711280600 AAXX 28064 67665 12360 70814 10186 20170 48546 69904 70322 86630
                   333 10236 20//0 58010 86708 87360=
201711280300 AAXX 28034 67665 42980 50904 10189 20181 48533 70222 85030
                   333 58005 85360=
201711280000 AAXX 28004 67665 42980 51004 10191 20176 48531 70222 85030
                   333 58008 85360=
201711272100 AAXX 27214 67665 42780 51104 10195 20180 48543 70222 81930
                   333 58006 81957 85360=
201711271800 AAXX 27184 67665 42980 71003 10206 20168 48529 70300 87030
                   333 58002 87360=
201711271500 AAXX 27154 67665 42580 52103 10223 20170 48519 70100 81230
                   333 58000 81840 82360 84080=
201711271200 AAXX 27124 67665 NIL=
201711270600 AAXX 27064 67665 NIL=
201711262100 AAXX 26214 67665 42260 70802 10192 20186 48536 8467/
                   333 58018 84705 87459=
201711261800 AAXX 26184 67665 42759 73202 10188 20180 48526 70222 81970
                   333 10259 58020 81956 86459=
201711261500 AAXX 26154 67665 41659 80608 10196 20181 48515 76162 8557/
                   333 58016 85640 87459=
201711261200 AAXX 26124 67665 42660 81309 10199 20168 48517 72166 8527/
                   333 58006 85830 87459=
201711251800 AAXX 25184 67665 42980 71602 10218 20187 48510 8703/
                   333 59008 87360=
201711251200 AAXX 25124 67665 42480 60809 10227 20179 48515 72052 85532
                   333 58005 85718 84360 84080=
201711250900 AAXX 25094 67665 42460 82406 10220 20181 48533 70222 8557/
                   333 58000 85710 88459=
201711250300 AAXX 25034 67665 42960 50000 10194 20178 85030
                   333 59013 85360 91018=
201711250000 AAXX 25004 67665 42960 50000 10194 20178 48510 85030
                   333 59008 85360=
201711242100 AAXX 24214 67665 42660 72703 10205 20190 48529 8197/
                   333 58017 81945 87459 91019=
201711241500 AAXX 24154 67665 NIL=
201711241200 AAXX 24124 67665 NIL=
201711240900 AAXX 24094 67665 42460 80806 10243 20187 48535 8557/
                   333 58017 85615 88459=
201711240600 AAXX 24064 67665 NIL=
201711231800 AAXX 23184 67665 41760 70906 10240 20179 48571 71322 8193/
                   333 10306 58007 81956 87360=
201711231500 AAXX 23154 67665 42660 61105 10285 20144 48491 81932
                   333 58001 81945 85360 84080
                   555 10306 91014=
201711231200 AAXX 23124 67665 42560 70507 10292 20145 48504 85232
                   333 58006 85825 82360 83080 91016=
201711230600 AAXX 23064 67665 12480 51108 10228 20174 48523 60174 70122 83130
                   333 10311 20//0 58002 83815 84360=
201711230300 AAXX 23034 67665 42980 00000 10202 20179 48504 70200
                   333 58000=
201711230000 AAXX 23004 67665 42980 22703 10203 20179 48504 70200 82030
                   333 58007 82360=
201711222100 AAXX 22214 67665 42980 23302 10216 20171 48513 81930
                   333 58008 819// 82360=
201711220900 AAXX 22094 67665 42680 50405 10291 20160 48573 81101
                   333 59010 81835 85080 91018=
201711220600 AAXX 22064 67665 32980 51005 10235 20155 48523 80001
                   333 59019 85080=
201711211800 AAXX 21184 67665 42980 21102 10242 20159 48498 70200 82030
                   333 10310 59029 82360=
201711211500 AAXX 21154 67665 42780 31108 10293 20134 48493 70122 83100
                   333 59027 83850=
201711211200 AAXX 21124 67665 42680 50805 10297 20129 48514 70320 85200
                   333 59023 85835=
201711210900 AAXX 21094 67665 NIL=
201711210600 AAXX 21064 67665 NIL=
201711210300 AAXX 21034 67665 42980 11202 10181 20158 48520 81030
                   333 59016 81359=
201711210000 AAXX 21004 67665 42980 01202 10186 20163 48515
                   333 59016=
201711202100 AAXX 20214 67665 42980 01303 10201 20176 48535
                   333 59001=
201711201800 AAXX 20184 67665 42980 11003 10235 20183 48527 80001
                   333 59010 81080=
201711201200 AAXX 20124 67665 42680 50609 10274 20174 48533 85200
                   333 59002 85830=
201711200900 AAXX 20094 67665 42480 60611 10251 20166 48549 70222 86500
                   333 59002 86618=
201711200600 AAXX 20064 67665 32380 50713 10215 20175 48552 85600
                   333 10261 20//0 58007 85708=
201711200300 AAXX 20034 67665 42980 11105 10178 20165 48535 81031
                   333 58013 81359 81080=
201711200000 AAXX 20004 67665 42980 01005 10184 20170 48530
                   333 58008=
201711192100 AAXX 19214 67665 42980 11005 10194 20173 48535 81030
                   333 58001 81359=
201711191800 AAXX 19184 67665 42980 31304 10210 20171 48533 83030
                   333 58005 83359=
201711191500 AAXX 19154 67665 42660 41010 10244 20175 48517 84130
                   333 58006 84845 82459=
201711190900 AAXX 19094 67665 42460 80711 10224 20180 48547 8657/
                   333 58007 86618 88459=
201711190600 AAXX 19064 67665 32360 80908 10202 20178 48543 8577/
                   333 10250 58011 85707 88459
                   555 00///=
201711190000 AAXX 19004 67665 42960 71106 10185 20169 48523 8703/
                   333 58009 87360=
201711180900 AAXX 18094 67665 42559 71212 10227 20175 48541 8557/
                   333 58006 85620 87459=
201711180600 AAXX 18064 67665 42460 80910 10201 20187 48532 60024 8557/
                   333 10204 20//0 58003 85612 88459=
201711171800 AAXX 17184 67665 42760 70603 10217 20188 48513 8707/
                   333 10257 58006 81950 87459=
201711171500 AAXX 17154 67665 42660 70303 10242 20164 48507 82532
                   333 58010 82635 85360 83080=
201711171200 AAXX 17124 67665 42560 83304 10240 20171 48523 8487/
                   333 58034 81623 83825 88459=
201711170900 AAXX 17094 67665 NIL=
201711170600 AAXX 17064 67665 11/58 83012 10178 20178 48527 60254 79595 8197/
                   333 10250 20//0 58031 819// 85812 88459=
201711170300 AAXX 17034 67665 42980 70000 10186 20176 48511 70322 87030
                   333 58028 87360=
201711170000 AAXX 17004 67665 42970 52102 10195 20188 48511 70222 85030
                   333 58017 85360=
201711162100 AAXX 16214 67665 42760 70000 10197 20190 48524 70222 8197/
                   333 58004 81957 87459=
201711161800 AAXX 16184 67665 42960 71204 10204 20185 48502 70222 83032
                   333 58018 83359 84080=
201711161500 AAXX 16154 67665 41660 70000 10209 20187 48498 76062 8123/
                   333 58020 81845 87459=
201711160900 AAXX 16094 67665 41560 71206 10229 20184 48506 78022 8453/
                   333 59006 84620 87459 91017=
201711160600 AAXX 16064 67665 NIL=
201711152100 AAXX 15214 67665 41/40 80905 10176 20168 48518 79599 8197/
                   333 58019 819// 87459=
201711151800 AAXX 15184 67665 41770 61404 10215 20177 48490 71322 81932
                   333 10266 59007 81956 85360 84080=
201711151500 AAXX 15154 67665 42670 50904 10238 20177 48478 70222 83231
                   333 58010 83845 83360 83080=
201711151200 AAXX 15124 67665 41560 73409 10207 20151 48488 71792 81942
                   333 58017 81925 85828 85360 82080=
201711150900 AAXX 15094 67665 42360 70100 10242 20175 48513 70100 81530
                   333 58004 82615 85360=
201711150600 AAXX 15064 67665 31360 70502 10206 20192 48505 70222 8163/
                   333 59008 81708 87459=
201711150300 AAXX 15034 67665 41359 72102 10181 20174 48492 76022 81631
                   333 59014 81706 87459=
201711142100 AAXX 14214 67665 42/60 41205 10202 20171 48501 70200 81931
                   333 59016 819// 84360 82080=
201711141800 AAXX 14184 67665 41960 70810 10224 20177 48497 71322 81932
                   333 59015 819// 84360 85080=
201711141200 AAXX 14124 67665 42680 60805 10309 20138 48482 84202
                   333 59027 84835 85080=
201711140900 AAXX 14094 67665 42580 50207 10292 20125 48515 70300 82131
                   333 59026 82825 83360 82080=
201711140600 AAXX 14064 67665 32480 30407 10225 20171 48516 81132
                   333 10300 20//0 59028 81811 82359 83080=
201711140300 AAXX 14034 67665 42980 40903 10190 20067 48509 84030
                   333 59006 84359=
201711140000 AAXX 14004 67665 42380 20804 10198 20171 48505 81630
                   333 59005 81308 82359=
201711132100 AAXX 13214 67665 41/80 50802 10202 20167 48517 71300 81960
                   333 59009 819// 85359=
201711131500 AAXX 13154 67665 42680 73507 10275 20109 48502 70322 82231
                   333 59001 82850 86360 84080=
201711131200 AAXX 13124 67665 42680 63307 10272 20165 48505 83231
                   333 59011 83835 83360 82080=
201711130900 AAXX 13094 67665 42580 83203 10245 20169 48536 8127/
                   333 59011 81820 83459 86359=
201711130600 AAXX 13064 67665 32360 82906 10211 20172 48534 8177/
                   333 10287 20//0 59007 81707 88459
                   555 00///=
201711130300 AAXX 13034 67665 42980 53303 10205 20174 48518 85030
                   333 59012 85360 91018=
201711130000 AAXX 13004 67665 42980 33302 10212 20172 48511 83030
                   333 59012 83360=
201711122100 AAXX 12214 67665 41660 60703 10225 20195 48529 71322 81930
                   333 59007 81956 85360 91019=
201711121800 AAXX 12184 67665 41680 61104 10233 20183 48516 71322 81362
                   333 59006 81945 86359 81080=
201711121500 AAXX 12154 67665 42680 51104 10273 20184 48503 82262
                   333 59009 82836 85359 82080=
201711121200 AAXX 12124 67665 42580 50408 10266 20183 48516 85230
                   333 59009 85828 83360=
201711120900 AAXX 12094 67665 42480 70710 10222 20177 48543 70222 8653/
                   333 58008 86715 87360=
201711120600 AAXX 12064 67665 31470 61106 10196 20155 48539 60094 70222 8354/
                   333 10270 20//0 58004 82780 86359=
201711112100 AAXX 11214 67665 42960 51503 10193 20163 48531 85030
                   333 58012 85360=
201711111800 AAXX 11184 67665 42960 60908 10204 20165 48518 86030
                   333 10268 58003 86360=
201711111500 AAXX 11154 67665 42660 61202 10264 20146 48509 81932
                   333 58001 81945 86360 81080=
201711111200 AAXX 11124 67665 42660 71804 10255 20144 48519 84230
                   333 59019 84830 86459=
201711110600 AAXX 11064 67665 11460 80301 10189 20154 48532 69954 76052 8354/
                   333 10288 20//0 58003 83612 88459=
201711110300 AAXX 11034 67665 42970 62804 10185 20139 58516 72055 83540
                   333 58005 83610 86459=
201711110000 AAXX 11004 67665 41970 63105 10187 20137 48520 75022 86040
                   333 58023 86459=
201711102100 AAXX 10214 67665 42980 60805 10196 20133 48521 70322 86030
                   333 58026 86360=
201711101200 AAXX 10124 67665 42960 51104 10201 20106 48515 70100 85360
                   333 58034 85360=
201711100900 AAXX 10094 67665 42660 72002 10266 20157 48528 83102
                   333 58010 83835 86259 91019=
201711100600 AAXX 10064 67665 NIL=
201711092100 AAXX 09214 67665 42980 32802 10237 20152 48500 81031
                   333 58004 81360 83080=
201711091800 AAXX 09184 67665 42980 51605 10264 20148 48489 70122 82032
                   333 10326 58002 82360 85080=
201711091200 AAXX 09124 67665 42680 60304 10317 20101 48494 70322 85201
                   333 58005 85835 82080=
201711090900 AAXX 09094 67665 42560 33406 10309 20124 48523 70300 83100
                   333 58009 83825=
201711081800 AAXX 08184 67665 42980 11402 10271 20042 48488 81030
                   333 59002 81360=
201711081500 AAXX 08154 67665 42780 21005 10343 20037 48476 82200
                   333 59005 82856=
201711081200 AAXX 08124 67665 42680 43506 10342 20051 48491 84100
                   333 59005 84840=
201711080900 AAXX 08094 67665 42580 23205 10327 20094 48517 70300 82100
                   333 59001 82828=
201711080600 AAXX 08064 67665 32980 02906 10256 20089 48519
                   333 10339 20//0 58004=
201711080300 AAXX 08034 67665 42980 12903 10198 20074 48500 81030
                   333 58008 81359=
201711072100 AAXX 07214 67665 42980 00000 10230 20065 48500
                   333 59009=
201711071800 AAXX 07184 67665 42960 21404 10263 20064 48489 82031
                   333 59015 85830 82360 82080=
201711071200 AAXX 07124 67665 42680 61204 10319 20032 44940 85231
                   333 59017 85830 81360 82080=
201711070900 AAXX 07094 67665 42680 42306 10306 20100 48515 81131
                   333 59022 81830 82360 82080=
201711070600 AAXX 07064 67665 32980 62906 10240 20135 48514 70322 84032
                   333 10327 20//0 59027 84360 83080
                   555 00///=
201711070300 AAXX 07034 67665 42980 42703 10198 20121 48493 70100 84032
                   333 59029 82360 82080 91015=
201711070000 AAXX 07004 67665 42980 53401 10216 20068 48495 85030
                   333 59023 85360=
201711062100 AAXX 06214 67665 42980 01503 10210 20085 48506 70200
                   333 59019 91017=
201711061800 AAXX 06184 67665 42980 01104 10243 20063 48496
                   333 59020=
201711061500 AAXX 06154 67665 42780 11104 10301 20043 48495 81100
                   333 59016 81856=
201711060900 AAXX 06094 67665 NIL=
201711052100 AAXX 05214 67665 42980 01503 10193 20071 48519 70200
                   333 59007=
201711051800 AAXX 05184 67665 42980 01106 10234 20070 48520 70100
                   333 10320 59008=
201711051500 AAXX 05154 67665 42680 21007 10299 20096 48511 70100 81130
                   333 59009 81845 81360=
201711051200 AAXX 05124 67665 42580 30808 10310 20045 48521 70200 83100
                   333 59007 83825=
201711050600 AAXX 05064 67665 32980 00910 10227 20060 48545 70200
                   333 10326 20//0 59011=
201711050300 AAXX 05034 67665 42980 01106 10175 20080 48525 70200
                   333 59004=
201711050000 AAXX 05004 67665 42980 01102 10192 20095 48522 70200
                   333 58000=
201711042100 AAXX 04214 67665 42980 01303 10201 20086 48527 70200
                   333 59004=
201711041800 AAXX 04184 67665 42980 01503 10237 20084 48525
                   333 58004=
201711041500 AAXX 04154 67665 42980 21213 10300 20100 48520 82300
                   333 58004 82359=
201711041200 AAXX 04124 67665 42680 40910 10308 20097 48527 84200
                   333 59001 84840=
201711040600 AAXX 04064 67665 32980 10813 10235 20128 48557 80001
                   333 10320 20//0 58006 81080=
201711040300 AAXX 04034 67665 42980 01102 10170 20119 48528
                   333 58012=
201711040000 AAXX 04004 67665 42980 00903 10194 20120 48522
                   333 58004=
201711032100 AAXX 03214 67665 42980 01501 10216 20111 48534
                   333 58001=
201711031800 AAXX 03184 67665 42980 31004 10244 20120 80001
                   333 58002 82080=
201711031500 AAXX 03154 67665 42780 41006 10292 20106 48515 70122 83101
                   333 58001 83850 82080=
201711030900 AAXX 03094 67665 41560 20613 10281 20137 48550 70500 82100
                   333 58002 82830=
201711030600 AAXX 03064 67665 32960 00713 10240 20134 48551 70244
                   333 10318 20//0 58000=
201711021500 AAXX 02154 67665 42780 40712 10301 20112 48517 82201
                   333 59006 82850 83080=
201711021200 AAXX 02124 67665 42680 50510 10306 20117 48524 85201
                   333 59008 85840 83080=
201711020900 AAXX 02094 67665 42580 20713 10271 20125 48546 70300 81101
                   333 59009 81825 82080=
201711020600 AAXX 02064 67665 32980 10913 10225 20134 48550 80001
                   333 10311 20//0 59008 81080=
201711020300 AAXX 02034 67665 42980 01205 10180 20128 48529
                   333 59002=
201711020000 AAXX 02004 67665 42980 01304 10186 20125 48525
                   333 59003=
201711012100 AAXX 01214 67665 42980 01105 10210 20127 49533
                   333 59013=
201711011500 AAXX 01154 67665 42660 20907 10295 20105 48523 70200 82100
                   333 59017 82848=
201711011200 AAXX 01124 67665 42680 20508 10301 20101 48531 70300 82100
                   333 59015 82135=
201711010900 AAXX 01094 67665 42980 10265 20116 48555
                   333 59013=
201711010600 AAXX 01064 67665 32980 00812 10208 20114 48555 70200
                   333 10289 20//0 59023
                   555 00///=

################################################################################
#  SYNOPS from 67666, Lusaka City Airport (Zambia) | 15-25-00S | 028-28-00E | 1280 m
################################################################################
201711301200 AAXX 30124 67666 NIL=
201711300900 AAXX 30094 67666 NIL=
201711300600 AAXX 30064 67666 32380 81010 10180 20164 48547 886//
                   333 10264 20160 58005 88704 91022=
201711290600 AAXX 29064 67666 32380 70908 10192 20164 48538 877//
                   333 10233 20169 58005 87708 91022=
201711271200 AAXX 27124 67666 42480 73006 10208 20182 48515 70122 81970
                   333 58005 81912 82615 84815 83360 91018=
201711270900 AAXX 27094 67666 42480 71209 10228 20174 48531 71729 819//
                   333 58023 91910 83818 91020=
201711270600 AAXX 27064 67666 12380 71007 10198 20163 48539 60134 70300 82670
                   333 10250 20180 58017 82708 85360 91021=
201711241500 AAXX 24154 67666 NIL=
201711241200 AAXX 24124 67666 NIL=
201711240600 AAXX 24064 67666 11480 70908 10199 20180 48528 60014 76122 82570
                   333 10302 20193 58020 82610 85359 91020=
201711230600 AAXX 23064 67666 12360 61210 10248 20162 48516 60044 70300 81571
                   333 10297 20190 58000 81610 84360 91018=
201711220900 AAXX 22094 67666 42580 40907 10285 20163 48507 70500 83201
                   333 59017 83820 81080 91017=
201711210900 AAXX 21094 67666 NIL=
201711210600 AAXX 21064 67666 32980 00708 10230 20152 48532
                   333 10280 20177 58030 91020=
201711200600 AAXX 20064 67666 32480 70908 10200 20169 48529 84530
                   333 10260 20180 58007 84613 83360 91021=
201711170900 AAXX 17094 67666 NIL=
201711170600 AAXX 17064 67666 11480 70202 10183 20154 48519 60044 72052 8447/
                   333 10241 20177 58035 84612 87458 91019=
201711160600 AAXX 16064 67666 12980 70407 10215 20165 48491 60094 70221 87030
                   333 10269 20169 59007 87359 91015=
201711150900 AAXX 15094 67666 42480 71210 10233 20187 48505 70221 82570
                   333 58003 82612 85360 91016=
201711150600 AAXX 15064 67666 12380 80000 10220 20161 48502 70300 8157/
                   333 10301 20180 59006 81609 87360 91016=
201711130600 AAXX 13064 67666 12880 83402 10200 20176 48520 69904 70222 8213/
                   333 10272 20194 58012 82840 88359 91020=
201711101200 AAXX 10124 67666 NIL=
201711100600 AAXX 10064 67666 NIL=
201711091200 AAXX 09124 67666 42680 51509 10322 20132 48491 70500 84200
                   333 58005 84845 91014=
201711060900 AAXX 06094 67666 NIL=
201711060600 AAXX 06064 67666 32980 20706 10230 20064 48523 82030
                   333 10310 20174 58009 82359 91020=
201711030600 AAXX 03064 67666 32980 00912 10230 20151 48542
                   333 10310 20200 58002 91021=
201711020600 AAXX 02064 67666 32980 10910 10220 20139 48541 80001
                   333 10300 20190 59007 81080 91021=
201711010600 AAXX 01064 67666 32980 00908 10212 20105 48540
                   333 10281 20172 59023 91022=

################################################################################
#  SYNOPS from 67667, Mount Makulu (Zambia) | 15-33S | 028-15E | 1213 m
################################################################################
201712010600 AAXX 01064 67667 32680 30906 10234 20145 48577 81101
                   333 10274 20165 59001 81830 83080=
201711301200 AAXX 30124 67667 NIL=
201711300900 AAXX 30094 67667 NIL=
201711300600 AAXX 30064 67667 32580 80906 10190 20161 48560 885//
                   333 10278 20155 59001 88625=
201711290600 AAXX 29064 67667 32580 71201 10196 20171 48598 70222 87600
                   333 10260 20164 58003 87715=
201711280600 AAXX 28064 67667 12580 81201 10187 20172 48595 60014 75022 886//
                   333 10262 20178 58007 88715=
201711271200 AAXX 27124 67667 NIL=
201711270600 AAXX 27064 67667 12580 71807 10210 20181 48588 60194 70222 87530
                   333 10264 20176 59024 85625 81360=
201711241500 AAXX 24154 67667 NIL=
201711241200 AAXX 24124 67667 NIL=
201711240600 AAXX 24064 67667 12580 83601 10202 20200 48557 60074 84508
                   333 10334 20180 58001 84625 88280=
201711230600 AAXX 23064 67667 32980 50903 10242 20130 48549 80002
                   333 10324 20174 58000 85080=
201711220600 AAXX 22064 67667 32980 30901 10270 20156 48576 70200 80001
                   333 10334 20180 59013 83080=
201711210900 AAXX 21094 67667 NIL=
201711210600 AAXX 21064 67667 NIL=
201711200600 AAXX 20064 67667 32580 70902 10212 20181 48602 70222 87500
                   333 10278 20180 59030 87625=
201711170900 AAXX 17094 67667 NIL=
201711170600 AAXX 17064 67667 12980 73601 10204 20155 48562 60024 84038
                   333 10272 20180 58003 84360 87280=
201711160600 AAXX 16064 67667 12980 73602 10240 20165 48530 60244 82032
                   333 10304 20163 58001 82360 87280=
201711150600 AAXX 15064 67667 11670 72201 10248 20180 48557 60074 70522 85508
                   333 10334 20216 58004 85630 82280=
201711140600 AAXX 14064 67667 31970 31201 10224 20159 48561 70500 82031
                   333 10310 20176 58002 82360 81080=
201711101200 AAXX 10124 67667 NIL=
201711100600 AAXX 10064 67667 31970 82701 10200 20171 48561 70522 82038
                   333 10354 20188 58001 82362 88283
                   555 00///=
201711070600 AAXX 07064 67667 31970 62707 10254 20141 48542 70522 80002
                   333 10342 20200 59002 86082=
201711060900 AAXX 06094 67667 NIL=
201711060600 AAXX 06064 67667 31970 20907 10240 20088 48561 70500 80001
                   333 10336 20187 59001 82080=
201711010600 AAXX 01064 67667 31970 10906 10220 20115 48580 70500 80001
                   333 10310 20168 59002 81082=

################################################################################
#  SYNOPS from 67673, Petauke (Zambia) | 14-15S | 031-17E | 1035 m
################################################################################
201712010600 AAXX 01064 67673 12580 40000 10240 20190 48562 60464 83530
                   333 10240 20205 59035 83630 81360=
201711301200 AAXX 30124 67673 42684 60902 10252 20194 48533 86231
                   333 59011 86832 84360 82080=
201711300900 AAXX 30094 67673 42584 60000 10242 20177 48562 86500
                   333 59005 86630=
201711300600 AAXX 30064 67673 32584 60802 10234 20192 48574 86531
                   333 10246 20186 58009 86630 84360 82080=
201711291200 AAXX 29124 67673 42684 70702 10224 20188 48539 875//
                   333 58009 87632=
201711290600 AAXX 29064 67673 32584 70803 10200 20175 48542 875//
                   333 10255 20194 58023 87625=
201711271200 AAXX 27124 67673 NIL=
201711270600 AAXX 27064 67673 NIL=
201711241500 AAXX 24154 67673 NIL=
201711241200 AAXX 24124 67673 NIL=
201711240600 AAXX 24064 67673 NIL=
201711220600 AAXX 22064 67673 32984 23602 10270 20180 48531 84130
                   333 10330 20220 59013 81360 82080=
201711211200 AAXX 21124 67673 42684 63001 10316 20170 48515 86200
                   333 59026 86840=
201711210900 AAXX 21094 67673 NIL=
201711210600 AAXX 21064 67673 NIL=
201711170900 AAXX 17094 67673 NIL=
201711170600 AAXX 17064 67673 12980 71303 10230 20188 48570 69904 8703/
                   333 10350 20205 58004 87360=
201711160600 AAXX 16064 67673 NIL=
201711150600 AAXX 15064 67673 NIL=
201711101200 AAXX 10124 67673 NIL=
201711100600 AAXX 10064 67673 NIL=
201711060900 AAXX 06094 67673 NIL=
201711011200 AAXX 01124 67673 41675 50501 10310 20157 48544 70522 85100
                   333 59012 85840=
201711010900 AAXX 01094 67673 41675 40901 10284 20155 48563 70500 84100
                   333 59011 84835=
201711010600 AAXX 01064 67673 31980 00902 10250 20142 48572 70500
                   333 10320 20182 59012=

################################################################################
#  SYNOPS from 67731, Senanga (Zambia) | 16-06S | 023-16E | 1027 m
################################################################################
201711301200 AAXX 30124 67731 NIL=
201711300900 AAXX 30094 67731 NIL=
201711300600 AAXX 30064 67731 32980 509// 10249 20166 48/// 70222 83038
                   333 10326 20186 58000 83360 85280
                   555 00171=
201711291200 AAXX 29124 67731 42680 304// 10316 20137 48/// 70200 83200
                   333 58010 83830=
201711281200 AAXX 28124 67731 42680 302// 10312 20160 48/// 83200
                   333 59013 83832=
201711271200 AAXX 27124 67731 NIL=
201711270600 AAXX 27064 67731 12480 802// 10204 20197 48/// 60174 70222 83578
                   333 10301 20179 58014 83611 84760 87280
                   555 00163=
201711241500 AAXX 24154 67731 NIL=
201711241200 AAXX 24124 67731 NIL=
201711240600 AAXX 24064 67731 11360 803// 10194 20182 48/// 60034 76466 8377/
                   333 10315 20171 58019 83709 88760
                   555 00149=
201711230600 AAXX 23064 67731 12980 812// 10234 20188 48/// 69924 70222 88030
                   333 10245 20198 59012 88360
                   555 00190=
201711221200 AAXX 22124 67731 42980 834// 10240 20185 48/// 70222 87032
                   333 58031 87360 84080=
201711220600 AAXX 22064 67731 11560 804// 10202 20187 48/// 60074 76066 82982
                   333 10315 20193 58004 82925 86360 85080
                   555 00192=
201711210900 AAXX 21094 67731 42580 127// 10294 20192 48/// 70200 81100
                   333 59014 81823=
201711210600 AAXX 21064 67731 12980 702// 10234 20183 48/// 60014 70222 87030
                   333 10271 20183 59010 87360
                   555 00172=
201711200600 AAXX 20064 67731 32980 128// 10255 20193 48/// 70122 81010
                   333 10260 20189 58015 81462
                   555 00172=
201711170900 AAXX 17094 67731 NIL=
201711170600 AAXX 17064 67731 32980 409// 10229 20169 48/// 70222 83038
                   333 10279 20147 58021 83360 83280
                   555 00138=
201711160600 AAXX 16064 67731 12480 709// 10159 20125 48/// 60184 70222 83530
                   333 10340 20099 58019 83612 86360
                   555 00121=
201711151200 AAXX 15124 67731 42680 318// 10331 20186 48/// 70122
                   333 83833=
201711150900 AAXX 15094 67731 42580 427// 10302 20201 48/// 70300 81131
                   333 59006 81823 81360 82080=
201711150600 AAXX 15064 67731 32480 518// 10225 20198 48/// 70322 81509
                   333 10306 20185 59011 81615 84180
                   555 00178=
201711140600 AAXX 14064 67731 32980 519// 10240 20193 48/// 70322 83081
                   333 10310 20204 59010 83360 82080
                   555 00193=
201711131200 AAXX 13124 67731 42680 410// 10326 20184 48/// 83201
                   333 59018 83832 81080=
201711130600 AAXX 13064 67731 32980 118// 10252 20189 48/// 70122 81030
                   333 10257 20//0 59008 81360
                   555 00183=
201711101200 AAXX 10124 67731 42680 115// 10308 20177 48/// 81100
                   333 58001 81830=
201711100600 AAXX 10064 67731 NIL=
201711081200 AAXX 08124 67731 42680 220// 10360 20161 48/// 82200
                   333 59003 81831=
201711070900 AAXX 07094 67731 42980 023// 10308 20164 48///
                   333 59010=
201711070600 AAXX 07064 67731 32980 024// 10242 20161 48/// 70000
                   333 10290 20184 59016=
201711060900 AAXX 06094 67731 NIL=
201711060600 AAXX 06064 67731 32480 407// 10254 20134 48/// 83130
                   333 10346 20182 59019 83815 82360=
201711030900 AAXX 03094 67731 42580 227// 10311 20163 48/// 70300 81230
                   333 59001 81823 81360=
201711020600 AAXX 02064 67731 32980 018// 10272 20211 48///
                   333 10350 20189 58002=

################################################################################
#  SYNOPS from 67741, Sesheke (Zambia) | 17-28S | 024-18E | 949 m
################################################################################
201712010600 AAXX 01064 67741 32980 13601 10261 20200 48546 81031
                   333 10350 20189 59014 81362 81080
                   555 00154=
201711301200 AAXX 30124 67741 NIL=
201711300900 AAXX 30094 67741 NIL=
201711290600 AAXX 29064 67741 32980 13601 10259 20192 48546 80001
                   333 10328 20176 58005 81080
                   555 00128=
201711280600 AAXX 28064 67741 32680 10901 10238 20201 48542 81501
                   333 10334 20168 58008 81645 81080
                   555 00120=
201711271200 AAXX 27124 67741 NIL=
201711270600 AAXX 27064 67741 32980 70901 10246 20196 48535 8707/
                   333 10321 20204 58004 87362=
201711241500 AAXX 24154 67741 NIL=
201711241200 AAXX 24124 67741 NIL=
201711240600 AAXX 24064 67741 32980 53601 10261 20202 48537 85030
                   333 10342 20194 5//// 85362=
201711210900 AAXX 21094 67741 NIL=
201711210600 AAXX 21064 67741 32980 30000 10227 20182 48521 83030
                   333 10350 20181 59021 83362=
201711200600 AAXX 20064 67741 32980 10801 10251 20198 48544 81030
                   333 10350 20155 5//// 81362=
201711170900 AAXX 17094 67741 NIL=
201711160600 AAXX 16064 67741 NIL=
201711150600 AAXX 15064 67741 12980 63301 10228 20192 48485 60084 85031
                   333 10324 20178 5//// 85362 82080
                   555 00150=
201711130600 AAXX 13064 67741 32980 13601 10257 20193 48517 80001
                   333 10318 20183 59018 81080=
201711101200 AAXX 10124 67741 NIL=
201711100600 AAXX 10064 67741 32980 60801 10232 20179 48512 86030
                   333 10362 20192 58009 86362
                   555 00156=
201711070600 AAXX 07064 67741 32980 03402 10257 20167 48498
                   333 10364 20136 59032=
201711060900 AAXX 06094 67741 NIL=
201711060600 AAXX 06064 67741 32980 00000 10238 20144 48523
                   333 10348 20120 59012=
201711030600 AAXX 03064 67741 32980 10901 10259 20179 48537 81030
                   333 10357 20161 58000 81362=
201711010600 AAXX 01064 67741 32980 00901 10251 20173 48544
                   333 10320 20141 5////=

################################################################################
#  SYNOPS from 67743, Livingstone (Zambia) | 17-49S | 025-49E | 985 m
################################################################################
201712010600 AAXX 01064 67743 32980 00810 10257 20150 48532 70200
                   333 10346 20198 59019 91019=
201711301200 AAXX 30124 67743 NIL=
201711300900 AAXX 30094 67743 NIL=
201711300600 AAXX 30064 67743 32580 10708 10250 20169 48556 80001
                   333 10325 20180 58009 81080 91021=
201711290600 AAXX 29064 67743 32580 20607 10235 20174 48543 81501
                   333 10320 20175 58003 81625 81080 91020=
201711280600 AAXX 28064 67743 12680 41010 10219 20186 48538 69904 84530
                   333 10335 20178 58007 84630 81359 91020=
201711271200 AAXX 27124 67743 NIL=
201711270600 AAXX 27064 67743 32680 70906 10237 20189 48530 83231
                   333 10330 20200 59001 83835 84358 83080 91019=
201711241500 AAXX 24154 67743 NIL=
201711241200 AAXX 24124 67743 NIL=
201711240600 AAXX 24064 67743 32980 60707 10241 20162 48527 86030
                   333 10353 20215 58014 86360 91018=
201711210900 AAXX 21094 67743 NIL=
201711210600 AAXX 21064 67743 31975 21204 10265 20165 48535 70500 81031
                   333 10349 20175 59016 81360 81080 91018=
201711200600 AAXX 20064 67743 32980 31909 10243 20177 48536 83030
                   333 10346 20193 58012 83358 91020=
201711170900 AAXX 17094 67743 NIL=
201711160600 AAXX 16064 67743 NIL=
201711150600 AAXX 15064 67743 12780 73605 10235 20167 48481 60054 81031
                   333 10274 20188 59023 81359 86080 91013=
201711130600 AAXX 13064 67743 12980 71009 10220 20190 48515 60114 87080
                   333 10315 20165 59014 87359 91017=
201711101200 AAXX 10124 67743 NIL=
201711100600 AAXX 10064 67743 NIL=
201711060900 AAXX 06094 67743 NIL=
201711030600 AAXX 03064 67743 31975 20716 10270 20129 48546 70500 80001
                   333 10360 20194 58005 91020=
201711010900 AAXX 01094 67743 42980 10811 10292 20117 48549 80001
                   333 59019 81080 91020=

################################################################################
#  SYNOPS from 67751, Magoye (Zambia) | 16-00S | 027-36E | 1018 m
################################################################################
201712010600 AAXX 01064 67751 32980 30402 10244 20163 48/// 70300
                   333 10284 20130 58009 83360=
201711301200 AAXX 30124 67751 NIL=
201711300900 AAXX 30094 67751 NIL=
201711300600 AAXX 30064 67751 32980 50802 10236 20171 48/// 70222 80002
                   333 10288 20173 59004 85080=
201711290600 AAXX 29064 67751 32980 60404 10220 20170 48/// 70222 86070
                   333 10266 20116 59003 86360=
201711280600 AAXX 28064 67751 12980 61208 10211 20186 48/// 60344 70222 86070
                   333 10258 20182 58052 86360=
201711271200 AAXX 27124 67751 NIL=
201711270600 AAXX 27064 67751 12980 70204 10221 20198 48/// 60204 87070
                   333 10242 20191 59010 87360=
201711241500 AAXX 24154 67751 NIL=
201711241200 AAXX 24124 67751 NIL=
201711240600 AAXX 24064 67751 11980 80302 10206 20191 48/// 69904 76062 8801/
                   333 10330 20197 59021 88460=
201711230600 AAXX 23064 67751 12980 70000 10218 20187 48/// 69904 86070
                   333 10322 20185 59001 86360=
201711220600 AAXX 22064 67751 32980 70902 10254 20173 48/// 87030
                   333 10339 20179 5//// 87360=
201711210900 AAXX 21094 67751 NIL=
201711210600 AAXX 21064 67751 NIL=
201711200600 AAXX 20064 67751 32980 50803 10233 20180 48/// 85080
                   333 10292 20176 59006 85360=
201711170900 AAXX 17094 67751 NIL=
201711160600 AAXX 16064 67751 12980 51905 10221 20190 48/// 60074 70222 85070
                   333 10296 20194 58075 85360=
201711150600 AAXX 15064 67751 12980 63506 10230 20183 48/// 60014 70222 86010
                   333 10322 20200 59011 86460=
201711140600 AAXX 14064 67751 12980 40109 10246 20183 48/// 60024 70222 84041
                   333 10290 20132 58041 83360 83080=
201711101200 AAXX 10124 67751 NIL=
201711100600 AAXX 10064 67751 NIL=
201711060900 AAXX 06094 67751 NIL=

################################################################################
#  SYNOPS from 67753, Choma (Zambia) | 16-50S | 027-04E | 1213 m
################################################################################
201711301200 AAXX 30124 67753 NIL=
201711300900 AAXX 30094 67753 NIL=
201711271200 AAXX 27124 67753 NIL=
201711270600 AAXX 27064 67753 11359 81702 10189 20189 48528 69904 75155 886//
                   333 10255 20180 58012 88707=
201711241500 AAXX 24154 67753 NIL=
201711241200 AAXX 24124 67753 NIL=
201711240600 AAXX 24064 67753 12560 73605 10210 20195 48530 60024 8155/
                   333 10//0 20192 58018 81620 86360=
201711230600 AAXX 23064 67753 31960 30000 10236 20146 48513 70500 80001
                   333 10321 20176 59009 83080=
201711210900 AAXX 21094 67753 NIL=
201711210600 AAXX 21064 67753 NIL=
201711200600 AAXX 20064 67753 32660 62902 10209 20180 48530 86200
                   333 10278 20182 58009 86825=
201711170900 AAXX 17094 67753 NIL=
201711160600 AAXX 16064 67753 31560 80000 10180 20146 48508 78082 8125/
                   333 10275 20180 58021 81820 87360=
201711150600 AAXX 15064 67753 12360 73515 10202 20184 48490 60044 8165/
                   333 10345 20184 59010 81710 86360=
201711130600 AAXX 13064 67753 31460 71804 10208 20181 48521 75052 83530
                   333 10285 20182 59012 83610 84360=
201711101200 AAXX 10124 67753 NIL=
201711100600 AAXX 10064 67753 32960 71806 10206 20151 48521 87030
                   333 10342 20202 58015 87360
                   555 00///=
201711070600 AAXX 07064 67753 32960 13110 10260 20134 48506 80001
                   333 10326 20166 59022 81080=
201711060900 AAXX 06094 67753 NIL=
201711060600 AAXX 06064 67753 32960 00809 10237 20105 48523
                   333 10306 20142 59013=

################################################################################
#  SYNOPS from 67855, Lupaki (Zambia) | 17-03-00S | 024-46-00E | 1000 m
################################################################################
201712010600 AAXX 01064 67855 32975 00000 10238 20174 3//// 48///
                   333 20160 5////=
201711301800 AAXX 30184 67855 NIL=
201711301200 AAXX 30124 67855 42675 50703 10324 20153 3//// 48/// 85200
                   333 5//// 85840=
201711300600 AAXX 30064 67855 32975 10701 10243 20177 3//// 48/// 81030
                   333 20184 5//// 81360=
201711291200 AAXX 29124 67855 42675 53601 10302 20165 3//// 48/// 85230
                   333 5//// 85835=
201711281200 AAXX 28124 67855 42675 50402 10286 20173 3//// 48/// 85200
                   333 5//// 85830=
201711280600 AAXX 28064 67855 12575 61603 10206 20160 3//// 48/// 69904 86530
                   333 20172 5//// 86620 83360=
201711271800 AAXX 27184 67855 NIL=
201711271200 AAXX 27124 67855 42775 71801 10314 20167 3//// 48/// 85202
                   333 5//// 85850 87080=
201711270600 AAXX 27064 67855 NIL=
201711261800 AAXX 26184 67855 NIL=
201711261200 AAXX 26124 67855 NIL=
201711260600 AAXX 26064 67855 11575 70000 10182 20167 3//// 48/// 60664 70262 875//
                   333 20160 5//// 87620=
201711251200 AAXX 25124 67855 41970 70101 10228 20197 3//// 48/// 71598 8707/
                   333 5//// 87360=
201711250600 AAXX 25064 67855 12975 71401 10238 20178 3//// 48/// 69904 8707/
                   333 20195 5//// 87360=
201711241800 AAXX 24184 67855 NIL=
201711241200 AAXX 24124 67855 42775 50103 10326 20170 3//// 48/// 85238
                   333 5//// 85850=
201711240600 AAXX 24064 67855 12975 20410 10242 20163 3//// 48/// 69904 80008
                   333 20172 5//// 82280=
201711231800 AAXX 23184 67855 NIL=
201711231200 AAXX 23124 67855 42775 71801 10344 20156 3//// 48/// 84208
                   333 5//// 84856 87280=
201711230600 AAXX 23064 67855 32975 71801 10218 20143 3//// 48/// 80002
                   333 20145 5//// 87080=
201711221800 AAXX 22184 67855 NIL=
201711221200 AAXX 22124 67855 42775 72801 10326 20139 3//// 48/// 83202
                   333 5//// 83850 87080=
201711220600 AAXX 22064 67855 32975 60000 10214 20118 3//// 48/// 80002
                   333 20153 5//// 86080=
201711211200 AAXX 21124 67855 42775 42002 10342 20093 3//// 48/// 84200
                   333 5//// 84856=
201711210600 AAXX 21064 67855 32975 10201 10242 20118 3//// 48/// 80001
                   333 20132 5//// 81080=
201711201200 AAXX 20124 67855 42775 51204 10346 20133 3//// 48/// 85200
                   333 5//// 85856=
201711200600 AAXX 20064 67855 32975 10302 10240 20173 3//// 48/// 81030
                   333 20176 5//// 81360=
201711191200 AAXX 19124 67855 NIL=
201711190600 AAXX 19064 67855 42575 10305 10236 20169 3//// 48/// 81530
                   333 20165 5//// 81620=
201711181800 AAXX 18184 67855 NIL=
201711181200 AAXX 18124 67855 42675 50000 10308 20143 3//// 48/// 85203
                   333 5//// 85840 83080=
201711180600 AAXX 18064 67855 32975 70304 10226 20163 3//// 48/// 80001
                   333 20139 5//// 87080=
201711171800 AAXX 17184 67855 NIL=
201711171200 AAXX 17124 67855 42975 02302 10300 20045 3//// 48///
                   333 5////=
201711170600 AAXX 17064 67855 32975 01804 10198 20040 3//// 48///
                   333 20090 5////=
201711161800 AAXX 16184 67855 NIL=
201711161200 AAXX 16124 67855 42975 51802 10262 20058 3//// 48/// 80002
                   333 5//// 85080=
201711160600 AAXX 16064 67855 NIL=
201711151200 AAXX 15124 67855 42675 73413 10316 20165 3//// 48/// 84202
                   333 5//// 84840 87080=
201711140600 AAXX 14064 67855 12575 60602 10220 20198 3//// 48/// 60034 86532
                   333 20175 5//// 86620 83360=
201711131200 AAXX 13124 67855 41670 73601 10258 20210 3//// 48/// 79598 85273
                   333 5//// 81925 84830 87080=
201711130600 AAXX 13064 67855 11975 70602 10196 20188 3//// 48/// 60444 72162 8707/
                   333 20183 5//// 87360=
201711121800 AAXX 12184 67855 NIL=
201711121200 AAXX 12124 67855 NIL=
201711120600 AAXX 12064 67855 12575 70000 10218 20198 3//// 48/// 60044 8357/
                   333 20200 5//// 83620 87360=
201711111800 AAXX 11184 67855 NIL=
201711111200 AAXX 11124 67855 41675 70000 10232 20203 3//// 48/// 72592 8327/
                   333 5//// 83830 87360=
201711110600 AAXX 11064 67855 12975 70301 10210 20180 3//// 48/// 60164 8707/
                   333 20172 5//// 87360=
201711101800 AAXX 10184 67855 NIL=
201711101200 AAXX 10124 67855 41975 80000 10200 20182 3//// 45/// 70262 8807/=
201711100600 AAXX 10064 67855 11570 71703 10176 20167 3//// 48/// 60214 76062 8557/
                   333 20175 5//// 85620 87458=
201711091800 AAXX 09184 67855 NIL=
201711091200 AAXX 09124 67855 42975 70803 10322 20165 3//// 48/// 8707/
                   333 5//// 87360=
201711090600 AAXX 09064 67855 11975 70708 10236 20149 3//// 48/// 69904 70262 8707/
                   333 20205 5//// 87360=
201711081800 AAXX 08184 67855 NIL=
201711081200 AAXX 08124 67855 41870 51308 10390 20095 3//// 48/// 70511 85100
                   333 5//// 85857=
201711080600 AAXX 08064 67855 31970 70000 10236 20100 3//// 48/// 70522 8707/
                   333 20160 5//// 87360=
201711071200 AAXX 07124 67855 41870 33402 10374 20040 3//// 48/// 70500 83100
                   333 5//// 83857=
201711070600 AAXX 07064 67855 31970 02001 10252 20098 3//// 48/// 70500
                   333 20130 5////=
201711061800 AAXX 06184 67855 NIL=
201711061200 AAXX 06124 67855 41870 11802 10350 20058 3//// 48/// 70500 81100
                   333 5//// 81857=
201711060600 AAXX 06064 67855 31970 00305 10232 20109 3//// 48/// 70500
                   333 20122 5////=
201711051200 AAXX 05124 67855 NIL=
201711050600 AAXX 05064 67855 31970 01707 10226 20098 3//// 48/// 70500
                   333 20101 5////=
201711041200 AAXX 04124 67855 41870 42002 10340 20085 3//// 48/// 70500 84100
                   333 5//// 84857=
201711040600 AAXX 04064 67855 31970 30404 10252 20133 3//// 48/// 70511 83030
                   333 20187 5//// 83360=
201711031800 AAXX 03184 67855 NIL=
201711031200 AAXX 03124 67855 NIL=
201711030600 AAXX 03064 67855 31970 10502 10242 20138 3//// 48/// 70500 81030
                   333 20163 5//// 81360=
201711021200 AAXX 02124 67855 42875 53602 10326 20100 3//// 48/// 85231
                   333 5//// 85857=
201711020600 AAXX 02064 67855 32975 20605 10230 20110 3//// 48/// 80002
                   333 20148 5//// 82080=
201711011800 AAXX 01184 67855 NIL=
201711011200 AAXX 01124 67855 NIL=
201711010600 AAXX 01064 67855 32975 01603 10214 20088 3//// 48///
                   333 20130 5////=
