################################################################################
# Query made at 04/18/2022 00:41:18 UTC
# Country like Zamb*
# Time interval: from 03/01/2006 05:30  to 03/31/2006 05:30  UTC
################################################################################

################################################################################
#  SYNOPS from 67413, Mbala (Zambia) | 08-51S | 031-20E | 1673 m
################################################################################
200603251200 AAXX 25124 67413 42480 62703 10233 20160 48495 86203
                   333 58001 81919 85819 83080=
200603060600 AAXX 06064 67413 12370 80000 10187 20176 48528 60014 8167/
                   333 10220 20150 58005 81709 88459=

################################################################################
#  SYNOPS from 67441, Mwinilunga (Zambia) | 11-45S | 024-26E | 1361 m
################################################################################
200603060600 AAXX 06064 67441 11380 70000 10188 20192 48534 60134 75155 876//
                   333 10250 20170 58008 88808=
200603021200 AAXX 02124 67441 41680 62709 10250 20175 48512 71522 82232
                   333 59012 82830 86362 81080=

################################################################################
#  SYNOPS from 67461, Mansa (Zambia) | 11-06S | 028-51E | 1382 m
################################################################################
200603300900 AAXX 30094 67461 42580 70906 10246 20181 48548 8457/
                   333 58012 84630 87463=
200603300600 AAXX 30064 67461 12380 70903 10193 20181 48538 60074 8257/
                   333 10269 20173 58009 82606 87461=
200603280900 AAXX 28094 67461 41480 73510 10228 20174 48521 71522 83238
                   333 58014 81362=
200603280600 AAXX 28064 67461 32980 70907 10194 20186 48521 58038
                   333 10286 20166 88409 85361 82280=
200603250600 AAXX 25064 67461 12480 60806 10205 20186 48516 60054 84501
                   333 10286 20166 59026 84610 86080=
200603060900 AAXX 06094 67461 41375 81301 10186 20184 48524 76066 8462/
                   333 5//// 84706 87360=
200603060600 AAXX 06064 67461 11965 80000 10191 20186 48508 60074 76066 8802/
                   333 10240 20180 58008 88460=

################################################################################
#  SYNOPS from 67475, Kasama (Zambia) | 10-13S | 031-08E | 1382 m
################################################################################
200603300600 AAXX 30064 67475 12480 70407 10180 20176 48547 60364 875//
                   333 10280 20164 58008 87610=
200603280600 AAXX 28064 67475 12480 72705 10167 20185 48527 60044 875//
                   333 10270 20172 58007 87610=
200603170600 AAXX 17064 67475 32480 61012 10203 20183 48520 83532
                   333 10265 20170 59009 83610 82360 84080=
200603060600 AAXX 06064 67475 11370 80000 10182 20180 48519 60234 76166 8477/
                   333 10235 20173 58014 84708 88460=

################################################################################
#  SYNOPS from 67477, Mpika (Zambia) | 11-54S | 031-26E | 1400 m
################################################################################
200603300600 AAXX 30064 67477 11980 80603 10180 20173 48546 60074 82162
                   333 10275 20160 58009 88460=
200603281200 AAXX 28124 67477 42680 40304 10269 20171 48/// 84102
                   333 5//// 84845 81080=
200603280900 AAXX 28094 67477 41680 70000 10240 20186 48518 71522 85230
                   333 58001 85830=
200603251200 AAXX 25124 67477 42680 61004 10244 20167 48501 85201
                   333 58002 85833 82080=
200603170600 AAXX 17064 67477 11480 51003 10210 20187 48523 60014 70162 82131
                   333 10255 20160 59005 82810 82361 81080=
200603151200 AAXX 15124 67477 71006 10240 20179 48524 71792 85207
                   333 58011 81930 85830 87280=
200603060900 AAXX 06094 67477 41480 73304 10216 20184 48520 76062 8417/
                   333 58014 84819 87360=
200603060600 AAXX 06064 67477 11480 80702 10185 20177 48520 60204 75065 8652/
                   333 10197 20174 58016 86610 88459=
200603021200 AAXX 02124 67477 41680 72905 10262 20198 48466 71792 83237
                   333 59019 81942 83842 81362 87280=

################################################################################
#  SYNOPS from 67531, Zambezi (Zambia) | 13-32S | 023-07E | 1077 m
################################################################################
200603300900 AAXX 30094 67531 42680 71208 10270 20197 48/// 86130
                   333 5//// 86830 82360=
200603300600 AAXX 30064 67531 12380 61607 10212 20196 48/// 69914 81138
                   333 10305 20181 5//// 81808 82362 85281=
200603281200 AAXX 28124 67531 42680 50000 10310 20176 48/// 85101
                   333 5//// 85848 81082=
200603280900 AAXX 28094 67531 42680 41102 10286 20199 84101
                   333 5//// 84835 81082=
200603280600 AAXX 28064 67531 32980 20000 10220 20191 48032 5////
                   333 10315 20160 81300 82082=
200603170600 AAXX 17064 67531 32980 11306 10206 20185 48/// 81032
                   333 10311 20164 5//// 81362 81082=
200603151200 AAXX 15124 67531 42680 21508 10286 20185 48/// 82102
                   333 5//// 82840 81081=
200603060900 AAXX 06094 67531 42480 81803 10198 20170 48/// 8752/
                   333 5//// 87611 88460=
200603060600 AAXX 06064 67531 11380 81806 10180 20169 48/// 60104 70262 8677/
                   333 10218 20170 5//// 86706 88360=
200603021200 AAXX 02124 67531 42680 73006 10288 20188 48/// 84102
                   333 5//// 84840 84081=

################################################################################
#  SYNOPS from 67551, Solwezi (Zambia) | 12-11S | 026-23E | 1386 m
################################################################################
200603130600 AAXX 13064 67551 12982 70000 10186 20174 48512 87030
                   333 10248 20166 58007 87362=
200603100600 AAXX 10064 67551 12482 70000 10183 20181 48528 60254 8467/
                   333 10256 20173 58007 84710 87362=
200603060600 AAXX 06064 67551 12380 71202 10178 20178 48516 60194 876//
                   333 10226 20169 58013 87708=

################################################################################
#  SYNOPS from 67561, Ndola (Zambia) | 13-00S | 028-39E | 1269 m
################################################################################
200603300600 AAXX 30064 67561 11375 71004 10201 20187 48542 69904 70522 85630
                   333 10258 20181 58007 85707 87361=
200603281200 AAXX 28124 67561 42680 70000 10261 20179 48495 86208
                   333 58002 81936 86836 87280=
200603280900 AAXX 28094 67561 42580 70306 10250 20176 48523 85232
                   333 58002 85818 81360 82080=
200603270600 AAXX 27064 67561 32480 40703 10206 20181 48517 82101
                   333 10299 20174 59012 82810 82080=
200603251200 AAXX 25124 67561 42680 60000 10267 20164 48504 85200
                   333 58001 81937 85837=
200603170600 AAXX 17064 67561 12480 61504 10204 20176 48521 60054 81138
                   333 10285 20170 59009 81810 82361 86280=
200603151200 AAXX 15124 67561 41556 71404 10241 20144 48533 79598 86231
                   333 58024 81930 86830 82362 83080=
200603060900 AAXX 06094 67561 41340 80000 10200 20188 48515 76065 8577/
                   333 58010 85707 88459=
200603060600 AAXX 06064 67561 11350 80804 10186 20181 48514 60224 75865 8677/
                   333 10236 20180 58013 86705 88459=
200603021200 AAXX 02124 67561 42580 70000 10250 20199 48473 85238
                   333 59021 85830 83360 87280=

################################################################################
#  SYNOPS from 67581, Chipata (Zambia) | 13-33S | 032-35E | 1028 m
################################################################################
200603300600 AAXX 30064 67581 12484 70000 10205 20193 48555 69904 8157/
                   333 10278 20186 58014 81610 87460=
200603281200 AAXX 28124 67581 41684 52605 10287 20187 48499 71522 85202
                   333 59007 85840 81080=
200603280600 AAXX 28064 67581 12984 71002 10211 20211 48524 60824 81080
                   333 10297 20165 59004 81359 87280=
200603251200 AAXX 25124 67581 41684 51704 10260 20201 48517 71522 85202
                   333 58009 85840 81080=
200603100600 AAXX 10064 67581 11680 80000 10200 20196 48541 60394 76166 8177/
                   333 10275 20190 58015 81708 88460=
200603060900 AAXX 06094 67581 41580 71904 10234 20190 48524 71522 8427/
                   333 58008 84824 87461=
200603060600 AAXX 06064 67581 11584 71204 10205 20189 48525 60644 72162 82537
                   333 10267 20187 58012 81620 85361 87280=
200603021200 AAXX 02124 67581 41675 71803 10235 20215 48476 79599 8297/
                   333 59013 82935 81840 87460=

################################################################################
#  SYNOPS from 67599, Mfuwe (Zambia) | 13-16S | 031-56E | 568 m
################################################################################
200603100600 AAXX 10064 67599 12380 80000 10230 20221 48553 60044 8677/
                   333 10300 20/// 58013 86709 88459=
200603060600 AAXX 06064 67599 11375 80000 10226 20217 48532 60064 76062 8177/
                   333 10230 20/// 58025 81709 88459=

################################################################################
#  SYNOPS from 67633, Mongu (Zambia) | 15-15S | 023-09E | 1052 m
################################################################################
200603300900 AAXX 30094 67633 42682 53608 10260 20185 48552 83132
                   333 58011 83830 81361 84080=
200603300600 AAXX 30064 67633 12982 60208 10221 20181 48537 69904 86032
                   333 10282 20184 58013 86361 82080=
200603281200 AAXX 28124 67633 41682 73606 10273 20189 48501 72999 83208
                   333 59009 81935 82835 86280=
200603170600 AAXX 17064 67633 32982 40306 10221 20173 48524 80002
                   333 10315 20183 59003 84080=
200603151200 AAXX 15124 67633 42682 63605 10291 20196 48541 82832
                   333 58011 85830 82361 83080=
200603060900 AAXX 06094 67633 41580 81504 10195 20155 48531 75055 8667/
                   333 58005 86620 87460=
200603060600 AAXX 06064 67633 11480 81606 10169 20156 48527 60074 75055 886//
                   333 10191 20/// 58012 88615=
200603021200 AAXX 02124 67633 41582 43605 10283 20195 48490 71792 83232
                   333 59010 81930 82835 81362 81080=

################################################################################
#  SYNOPS from 67663, Kabwe (Zambia) | 14-27S | 028-28E | 1206 m
################################################################################
200603280900 AAXX 28094 67663 42682 43302 10273 20194 48522 83202
                   333 59005 83830 84080=
200603280600 AAXX 28064 67663 32982 80391 10242 20193 48509 82080
                   333 10300 20194 59012 82361=
200603170600 AAXX 17064 67663 12480 40704 10201 20188 48522 69984 83530
                   333 10211 20173 59009 83618 82360=
200603060900 AAXX 06094 67663 41475 70903 10202 20180 48517 75065 875//
                   333 58007 87618=
200603021200 AAXX 02124 67663 41680 60000 10261 20192 48468 70262 84238
                   333 59019 81930 84360 84280=

################################################################################
#  SYNOPS from 67665, Lusaka Internationalairport (Zambia) | 15-19S | 028-27E | 1152 m
################################################################################
200603301800 AAXX 30184 67665 42780 21102 10196 20196 48539 81230
                   333 10264 20191 59001 81856 81360=
200603301500 AAXX 30154 67665 42680 61107 10221 20221 48528 81940
                   333 84840 83360 82080
                   555 10264 91019=
200603301200 AAXX 30124 67665 42580 71012 10241 20234 48546 87200
                   333 58013 87825=
200603300900 AAXX 30094 67665 42480 60610 10238 20216 48566 86800
                   333 58011 82815 84617=
200603300600 AAXX 30064 67665 12380 61009 10192 20192 48557 69904 84630
                   333 10252 20/// 58013 84705 83359=
200603300400 AAXX 30044 67665 42380 51007 10179 20179 48547 84630
                   333 58022 84704 81359=
200603300300 AAXX 30034 67665 42380 41304 10180 20180 48534 83632
                   333 58007 83705 83359 81080=
200603292100 AAXX 29214 67665 42680 31401 10191 20191 48551 81932
                   333 58024 81940 82360 81080=
200603291800 AAXX 29184 67665 42380 50805 10194 20194 48537 81932
                   333 10252 58022 81705 81930 83360 84080=
200603290900 AAXX 29094 67665 42480 70707 10219 20201 48551 86530
                   333 58016 84610 87360=
200603290600 AAXX 29064 67665 12370 70000 10221 20221 48567 60114 70366 81630
                   333 10295 20149 58025 81706 87360=
200603281800 AAXX 28184 67665 41680 60000 10201 20201 48519 76292 81931
                   333 10295 58012 81940 83845 86360 84080=
200603281500 AAXX 28154 67665 41680 61611 10219 20219 48502 71722 81931
                   333 58010 81940 83830 86360 84080=
200603281200 AAXX 28124 67665 42680 53304 10281 20225 48506 84321
                   333 59013 84835 81360 82080=
200603280900 AAXX 28094 67665 41580 70504 10247 20239 48530 71522 87200
                   333 86825 81925 91019=
200603280600 AAXX 28064 67665 32380 10218 10403 20202 48548 81531
                   333 10270 20156 81615 83360 81080=
200603270900 AAXX 27094 67665 42580 50807 10241 20220 48535 70322 85100
                   333 59020 85825 555 91020=
200603270600 AAXX 27064 67665 32480 31402 10196 20196 48530 81102
                   333 10276 20126 59014 81810 82080=
200603261700 AAXX 26174 67665 42780 41209 10260 20224 48522 70122 81200
                   333 59001 84850 555 10276=
200603261200 AAXX 26124 67665 42680 61107 10258 20214 48534 86200
                   333 58004 86835=
200603260600 AAXX 26064 67665 32480 21008 10191 20191 48544 81131
                   333 10269 20128 58001 81812 81360 81080=
200603252100 AAXX 25214 67665 42980 21203 10172 20172 48536 82032
                   333 58008 82360 81080=
200603251200 AAXX 25124 67665 42580 50809 10257 20208 48528 85200
                   333 58003 85830=
200603250900 AAXX 25094 67665 42580 50812 10236 20205 48548 85800
                   333 58001 84825 82626=
200603250600 AAXX 25064 67665 32480 41007 10193 20193 48543 84532
                   333 10272 20146 58005 84618 81360 81080=
200603230600 AAXX 23064 67665 32380 41008 10201 20201 48538 70322 81832
                   333 10277 20163 58000 81807 82360 84080 91021=
200603221800 AAXX 22184 67665 41780 31303 10208 20208 48521 71322 81932
                   333 10281 58007 81950 82360 83080 91019=
200603221200 AAXX 22124 67665 42680 60908 10262 20225 48527 86200
                   333 59006 86835=
200603220900 AAXX 22094 67665 42580 50805 10247 20237 48548
                   333 59001 85502 85620 81080=
200603220600 AAXX 22064 67665 42480 41106 10203 20203 48538 69954 70322 82132
                   333 10277 20165 82808 81360 83080
                   555 91021=
200603220400 AAXX 22044 67665 42980 41302 10173 20173 48527 83032
                   333 59001 83359 85080
                   555 91020=
200603220300 AAXX 22034 67665 42980 41604 10170 20170 48524 83032
                   333 59001 83360 83080
                   555 91019=
200603210600 AAXX 21064 67665 31460 31005 10201 20201 48541 72844 81532
                   333 10282 20170 58000 81610 82360 81080=
200603210400 AAXX 21044 67665 41959 21404 10186 20186 48530 74200 81032
                   333 58003 81359 81080=
200603201800 AAXX 20184 67665 42780 41502 10203 20203 48519 81932
                   333 10282 20162 58001 81950 82360 83080
                   555 91018=
200603201200 AAXX 20124 67665 42680 50606 10273 20239 48529 85200
                   333 59001 85835 555 91019=
200603200900 AAXX 20094 67665 42580 60610 10244 20214 85200
                   333 59009 86820=
200603191200 AAXX 19124 67665 42580 51107 10254 20225 48528 85330
                   333 58004 81925 84825 81360=
200603190900 AAXX 19094 67665 42480 60709 10226 20218 48555 86830
                   333 58010 86815 81360 91022=
200603190600 AAXX 19064 67665 12375 40806 10190 20193 48538 60014 70322 81532
                   333 10268 20160 58001 81408 83360 81080=
200603181800 AAXX 18184 67665 41680 51103 10194 20194 48514 71702 81932
                   333 10273 58003 81945 84847 82360 82080=
200603180900 AAXX 18094 67665 42580 50712 10251 20222 48549 85200
                   333 59004 85820=
200603180600 AAXX 18064 67665 12480 40809 10205 20190 48539 60034 83530
                   333 10272 20165 59005 83612 84360=
200603170600 AAXX 17064 67665 32480 41006 10201 20201 48543 84530
                   333 10282 20//0 59004 84612 81360=
200603170400 AAXX 17044 67665 42980 31503 10179 20179 48527 83032
                   333 59007 83360 81080=
200603161800 AAXX 16184 67665 41680 41502 10212 20212 48529 71322 81932
                   333 59016 81950 82845 83360 82080=
200603161500 AAXX 16154 67665 42680 41206 10267 20209 48526 70122 84232
                   333 59011 83845 81360 82080
                   555 10282 91018=
200603161200 AAXX 16124 67665 42680 51108 10259 20216 48538 85200
                   333 59007 85838=
200603151200 AAXX 15124 67665 42680 60710 10272 20241 48554 86232
                   333 58024 86838 81360 82080=
200603141200 AAXX 14124 67665 42680 40713 10279 20216 48534 83202
                   333 58022 81935 83835 82080 91019=
200603140900 AAXX 14094 67665 42580 40710 10243 20232 48559 82101
                   333 59025 82825 82080 91022=
200603140600 AAXX 14064 67665 32580 51004 10213 20213 48546 82232
                   333 10287 20187 82820 81360 83080=
200603131200 AAXX 13124 67665 42680 60107 10264 20214 48509 84232
                   333 58023 84835 83360 85080=
200603130600 AAXX 13064 67665 11380 10198 20198 48517 60204 70322 82532
                   333 10215 20185 58011 82710 84360 83080=
200603130400 AAXX 13044 67665 42380 62906 10195 20195 48407 82530
                   333 58008 82610 85360=
200603130300 AAXX 13034 67665 42380 63404 10229 20229 48409 8193/
                   333 58009 85610 81920 82360=
200603121200 AAXX 12124 67665 42680 53604 10271 20243 48488 85200
                   333 59023 85830=
200603120900 AAXX 12094 67665 42480 70206 10237 20237 48513 875//
                   333 59020 87615=
200603120600 AAXX 12064 67665 11380 10204 20204 48508 60024 72620 877//
                   333 59025 88705=
200603120400 AAXX 12044 67665 41357 10193 20193 48499 72166 887//
                   333 59025 88705 555 91016=
200603120300 AAXX 12034 67665 41375 10203 20203 48498 72152 85732
                   333 59030 85707 85359 83080
                   555 91016=
200603112100 AAXX 11214 67665 41780 51303 10192 20192 48508 71322 81932
                   333 59023 81950 84360 82080
                   555 91017=
200603111800 AAXX 11184 67665 42680 60502 10205 20205 48498 81932
                   333 59021 81945 86360 82080=
200603111500 AAXX 11154 67665 42680 61702 10230 20230 48487 83932
                   333 59013 83940 84360 82080=
200603111200 AAXX 11124 67665 42680 50608 10262 20227 48509 81902
                   333 59015 81935 84835 81080=
200603110900 AAXX 11094 67665 42580 50712 10255 20227 48535 85202
                   333 59014 85825 81080=
200603101800 AAXX 10184 67665 41680 51303 10217 20217 48520 71322 81932
                   333 10277 20196 58005 81945 82845 83460 83080
                   555 91018=
200603100600 AAXX 10064 67665 12380 60404 10214 20214 48544 60054 8473/
                   333 10271 20191 58011 84708 85360=
200603091800 AAXX 09184 67665 41680 60602 10205 20205 48512 71392 81932
                   333 58009 81940 82845 82360 85080=
200603091200 AAXX 09124 67665 42580 60711 10267 20238 48512 81932
                   333 58011 81928 85830 81360 82080=
200603090900 AAXX 09094 67665 42480 60809 10242 20228 48536 85630
                   333 58011 85515 83820 84360=
200603081200 AAXX 08124 67665 42680 60909 10248 20228 48500 59003 70322 81932
                   555 81930 85835 81360=
200603080900 AAXX 08094 67665 42580 70708 10230 20230 48524 877//
                   333 87625=
200603080600 AAXX 08064 67665 12480 60907 10207 20203 48519 60184 86530
                   333 10309 20175 58004 86618 83360=
200603061800 AAXX 06184 67665 41580 71404 10195 20195 48523 71322 8193/
                   333 10223 20172 58002 819// 84625 83830 83360
                   555 91019=
200603061500 AAXX 06154 67665 41580 71107 10216 20216 48510 70282 8683/
                   333 10223 20172 58000 85620 85825 83360
                   555 91017=
200603061200 AAXX 06124 67665 42480 71309 10212 20198 48522 878//
                   333 58008 85618 86820=
200603060900 AAXX 06094 67665 42480 71209 10206 20206 48536 875//
                   333 58011 87610=
200603060600 AAXX 06064 67665 12380 71208 10181 20181 48529 60034 8473/
                   333 10251 20168 58012 84706 87359=
200603060400 AAXX 06044 67665 42380 81307 10170 20170 48519 8477/
                   333 58014 84705 88459=
200603060300 AAXX 06034 67665 42480 71207 10169 20169 48516 8357/
                   333 58026 83610 87459=
200603052100 AAXX 05214 67665 42580 71406 10181 20181 48523 8457/
                   333 58021 84622 87459=
200603041500 AAXX 04154 67665 41680 71406 10218 20218 48472 72562 8553/
                   333 58014 85635 87360=
200603041200 AAXX 04124 67665 41580 71308 10227 20227 48473 71522 8193/
                   333 59006 81928 86830 83360=
200603040600 AAXX 04064 67665 71305 10201 20201 48483 60354 70322 84532
                   333 10271 20185 59009 84610 84360 86080=
200603030900 AAXX 03094 67665 42380 70703 10216 20216 48498 8673/
                   333 59009 86709 84360 91016=
200603021800 AAXX 02184 67665 42680 62801 10213 20213 48487 71392 81930
                   333 59009 81945 84360 83080=
200603021500 AAXX 02154 67665 41680 73305 10219 20219 48468 71799 83232
                   333 59014 81942 82842 84360 83080=
200603021200 AAXX 02124 67665 42680 62604 10266 20244 48481 85232
                   333 59021 81935 81360 81080=
200603020600 AAXX 02064 67665 32380 10210 20210 48506 70322 83632
                   333 10265 20199 59010 83608 85360 84080
                   555 91017=
200603020300 AAXX 02034 67665 41780 60000 10199 20199 48497 81932
                   333 59001 81950 84359 85080
                   555 91016=
200603011800 AAXX 01184 67665 41680 61405 10224 20224 48497 71522 81932
                   333 10282 58007 81935 84840 85360 86080 91016=
200603011500 AAXX 01154 67665 42680 52306 10259 20246 48486 84232
                   333 58002 84283=
200603010900 AAXX 01094 67665 42480 72706 10224 20224 48521 83832
                   333 58014 81818 82618 85360 83080=

################################################################################
#  SYNOPS from 67666, Lusaka City Airport (Zambia) | 15-25S | 028-19E | 1280 m
################################################################################
200603280900 AAXX 28094 67666 41580 70504 10247 20239 48530 71522 87200
                   333 86825 81925 91019=
200603280600 AAXX 28064 67666 32484 50658 10220 20199 48514 83572
                   333 10270 20143 55905 83610 82358 81078=

################################################################################
#  SYNOPS from 67743, Livingstone (Zambia) | 17-49S | 025-49E | 985 m
################################################################################
200603300900 AAXX 30094 67743 42680 70406 10231 20170 48566 87501
                   333 58014 87630 81080=
200603300600 AAXX 30064 67743 32480 61010 10188 20157 48555 86631
                   333 10265 20175 58018 81710 86520 83360 81080=
200603281200 AAXX 28124 67743 42780 62902 10311 20177 48503 86262
                   333 59010 86850 82360 83080=
200603280900 AAXX 28094 67743 42680 40703 10290 20290 48525 84800
                   333 48000 84830=
200603280600 AAXX 28064 67743 32980 10000 10221 20187 48509 80001
                   333 10310 20178 59013 81080=
200603270600 AAXX 27064 67743 32980 30000 10222 20188 48517 81071
                   333 10302 20172 5//// 81360 82080=
200603251200 AAXX 25124 67743 42680 60906 10267 20188 48527 86100
                   333 58002 86830=
200603250900 AAXX 25094 67743 42480 61008 10233 20188 48545 86500
                   333 58004 86618=
200603250600 AAXX 25064 67743 12480 30909 10197 20184 48536 60134 83500
                   333 10295 20174 58003 83614=
200603170600 AAXX 17064 67743 32480 51103 10229 20200 48533 83830
                   333 10301 20//0 59007 81615 83815 83360=
200603060900 AAXX 06094 67743 42580 81107 10206 20150 48553 885//
                   333 58002 88620=
200603060600 AAXX 06064 67743 12380 71406 10165 20142 48541 8367/
                   333 10186 20151 58007 83709 87360=

################################################################################
#  SYNOPS from 67753, Choma (Zambia) | 16-50S | 027-04E | 1213 m
################################################################################
200603300900 AAXX 30094 67753 42480 80908 10205 20174 48/// 8757/
                   333 5//// 87612 88459=
200603300600 AAXX 30064 67753 11359 80908 10169 20163 48/// 69904 75152 887//
                   333 10234 20165 5//// 88708=
200603281200 AAXX 28124 67753 42680 40304 10269 20171 48/// 84102
                   333 5//// 84845 81080=
200603280900 AAXX 28094 67753 42680 84031 84031 10236 20182 48/// 84100
                   333 5//// 84835=
200603170600 AAXX 17064 67753 32480 60704 10201 20193 48/// 83108
                   333 10276 20161 5//// 83815 86280=
200603060600 AAXX 06064 67753 12380 81106 10151 20138 48/// 60014 8777/
                   333 10176 20142 5//// 87708 88459=
200603021200 AAXX 02124 67753 41580 71804 10205 20194 48/// 71798 8327/
                   333 5//// 81920 83820 87459=

################################################################################
#  SYNOPS from 67855, Lupaki (Zambia) | 17-03-00S | 024-46-00E | 1000 m
################################################################################
200603310000 AAXX 31004 67855 NIL=
200603301800 AAXX 30184 67855 NIL=
200603301200 AAXX 30124 67855 NIL=
200603300600 AAXX 30064 67855 32480 71202 10181 20140 3//// 48/// 87532
                   333 20140 5//// 87618 87080=
200603300000 AAXX 30004 67855 NIL=
200603291800 AAXX 29184 67855 NIL=
200603291200 AAXX 29124 67855 NIL=
200603290600 AAXX 29064 67855 12480 70901 10180 20146 38/// 48/// 69904 86532
                   333 20153 5//// 86615=
200603261200 AAXX 26124 67855 NIL=
200603260600 AAXX 26064 67855 NIL=
200603260000 AAXX 26004 67855 NIL=
200603251800 AAXX 25184 67855 NIL=
200603251200 AAXX 25124 67855 NIL=
200603250600 AAXX 25064 67855 NIL=
200603250000 AAXX 25004 67855 NIL=
200603241800 AAXX 24184 67855 NIL=
200603241200 AAXX 24124 67855 NIL=
200603240600 AAXX 24064 67855 32380 70801 10186 20153 3//// 48/// 81602
                   333 20149 5//// 81708=
200603240000 AAXX 24004 67855 NIL=
200603231800 AAXX 23184 67855 NIL=
200603231200 AAXX 23124 67855 NIL=
200603230600 AAXX 23064 67855 12980 23601 10186 20176 3//// 48/// 60024 81031
                   333 20165 5//// 81360=
200603230000 AAXX 23004 67855 NIL=
200603221800 AAXX 22184 67855 NIL=
200603221200 AAXX 22124 67855 NIL=
200603220600 AAXX 22064 67855 12980 11201 10192 20181 3//// 48/// 60034 81030
                   333 20175 5//// 81360=
200603220000 AAXX 22004 67855 NIL=
200603211800 AAXX 21184 67855 NIL=
200603211200 AAXX 21124 67855 NIL=
200603210600 AAXX 21064 67855 NIL=
200603210000 AAXX 21004 67855 NIL=
200603201800 AAXX 20184 67855 NIL=
200603201200 AAXX 20124 67855 NIL=
200603200600 AAXX 20064 67855 32980 50000 10181 20171 3//// 48/// 84031
                   333 20150 5//// 84360=
200603200000 AAXX 20004 67855 NIL=
200603191800 AAXX 19184 67855 NIL=
200603191200 AAXX 19124 67855 NIL=
200603190600 AAXX 19064 67855 NIL=
200603190000 AAXX 19004 67855 NIL=
200603181800 AAXX 18184 67855 NIL=
200603181200 AAXX 18124 67855 NIL=
200603180600 AAXX 18064 67855 NIL=
200603180000 AAXX 18004 67855 NIL=
200603171800 AAXX 17184 67855 NIL=
200603171200 AAXX 17124 67855 NIL=
200603170600 AAXX 17064 67855 32980 71001 10205 20191 3//// 48/// 80001
                   333 20182 5//// 87080=
200603170000 AAXX 17004 67855 NIL=
200603161800 AAXX 16184 67855 NIL=
200603161200 AAXX 16124 67855 NIL=
200603160600 AAXX 16064 67855 12980 10000 10202 20197 3//// 48/// 60044 80001
                   333 20175 5//// 81080=
200603160000 AAXX 16004 67855 NIL=
200603151800 AAXX 15184 67855 NIL=
200603151200 AAXX 15124 67855 NIL=
200603150600 AAXX 15064 67855 12980 71901 10198 20180 3//// 48/// 60074 81032
                   333 20180 5//// 81360 87080=
200603150000 AAXX 15004 67855 NIL=
200603141800 AAXX 14184 67855 NIL=
200603141200 AAXX 14124 67855 NIL=
200603140600 AAXX 14064 67855 NIL=
200603140000 AAXX 14004 67855 NIL=
200603131800 AAXX 13184 67855 NIL=
200603131200 AAXX 13124 67855 NIL=
200603130600 AAXX 13064 67855 11580 80701 10214 20197 3//// 48/// 69904 75052 8627/
                   333 20205 5//// 86820=
200603130000 AAXX 13004 67855 NIL=
200603121800 AAXX 12184 67855 NIL=
200603121200 AAXX 12124 67855 NIL=
200603120600 AAXX 12064 67855 NIL=
200603120000 AAXX 12004 67855 NIL=
200603111800 AAXX 11184 67855 NIL=
200603111200 AAXX 11124 67855 NIL=
200603110600 AAXX 11064 67855 NIL=
200603110000 AAXX 11004 67855 NIL=
200603101800 AAXX 10184 67855 NIL=
200603101200 AAXX 10124 67855 NIL=
200603100600 AAXX 10064 67855 32580 71601 10198 20179 3//// 48/// 8227/
                   333 20176 5//// 81709 87460=
200603100000 AAXX 10004 67855 NIL=
200603091800 AAXX 09184 67855 NIL=
200603091200 AAXX 09124 67855 NIL=
200603090600 AAXX 09064 67855 32980 70901 10194 20164 3//// 48/// 81032
                   333 20154 5//// 81360 87080=
200603090000 AAXX 09004 67855 NIL=
200603081800 AAXX 08184 67855 NIL=
200603081200 AAXX 08124 67855 NIL=
200603080600 AAXX 08064 67855 32980 51101 10176 20153 3//// 48/// 80002
                   333 20140 5//// 85080=
200603080000 AAXX 08004 67855 NIL=
200603071800 AAXX 07184 67855 NIL=
200603071200 AAXX 07124 67855 NIL=
200603070600 AAXX 07064 67855 11380 70101 10184 20149 3//// 48/// 69904 70362 8667/
                   333 20153 5//// 86707 87460=
200603070000 AAXX 07004 67855 NIL=
200603061800 AAXX 06184 67855 NIL=
200603061200 AAXX 06124 67855 NIL=
200603060600 AAXX 06064 67855 32980 71803 10176 20138 3//// 48/// 87072
                   333 20160 5//// 87460=
200603060000 AAXX 06004 67855 NIL=
200603051800 AAXX 05184 67855 NIL=
200603051200 AAXX 05124 67855 NIL=
200603050600 AAXX 05064 67855 NIL=
200603050000 AAXX 05004 67855 NIL=
200603041800 AAXX 04184 67855 NIL=
200603041200 AAXX 04124 67855 NIL=
200603040600 AAXX 04064 67855 NIL=
200603040000 AAXX 04004 67855 NIL=
200603031800 AAXX 03184 67855 NIL=
200603031200 AAXX 03124 67855 NIL=
200603030600 AAXX 03064 67855 32580 70000 10216 20201 3//// 48/// 82232
                   333 20204 5//// 82820=
200603030000 AAXX 03004 67855 NIL=
200603021800 AAXX 02184 67855 NIL=
200603021200 AAXX 02124 67855 NIL=
200603020600 AAXX 02064 67855 12980 71401 10202 20199 3//// 48/// 60194 81032
                   333 20186 5//// 81360 87080=
200603020000 AAXX 02004 67855 NIL=
200603011800 AAXX 01184 67855 NIL=
200603011200 AAXX 01124 67855 NIL=
200603010600 AAXX 01064 67855 NIL=
