################################################################################
# Query made at 04/14/2022 02:48:26 UTC
# Country like Zamb*
# Time interval: from 03/01/2018 05:30  to 03/31/2018 06:30  UTC
################################################################################

################################################################################
#  SYNOPS from 67403, Kawambwa (Zambia) | 09-48S | 029-05E | 1323 m
################################################################################
201803140600 AAXX 14064 67403 11980 70901 10188 20178 48514 60154 70262 8703/
                   333 10280 20178 59008 87360
                   555 00154=

################################################################################
#  SYNOPS from 67477, Mpika (Zambia) | 11-54S | 031-26E | 1400 m
################################################################################
201803140600 AAXX 14064 67477 11470 71202 10202 20180 48530 60254 72122 8557/
                   333 10262 20176 59007 85610 84459
                   555 00182=

################################################################################
#  SYNOPS from 67481, Isoka (Zambia) | 10-07S | 032-38E | 1360 m
################################################################################
201803140600 AAXX 14064 67481 31460 73002 10206 20184 48/// 78022 875//
                   333 10262 20184 59010 87610
                   555 00///=

################################################################################
#  SYNOPS from 67551, Solwezi (Zambia) | 12-11S | 026-23E | 1386 m
################################################################################
201803140600 AAXX 14064 67551 12375 71206 10194 20181 48523 60034 876//
                   333 10279 20//0 59004 87706
                   555 00202 91020=

################################################################################
#  SYNOPS from 67571, Serenje (Zambia) | 13-14S | 030-13E | 1384 m
################################################################################
201803140600 AAXX 14064 67571 11256 80903 10190 20182 48/// 60254 75355 887//
                   333 10264 20179 5//// 88706
                   555 00252=

################################################################################
#  SYNOPS from 67575, Mkushi (Zambia) | 13-38-00S | 029-26-00E | 1237 m
################################################################################
201803140600 AAXX 14064 67575 11358 71303 10198 20178 48488 60074 71552 87770
                   333 10272 20177 59006 87708 81360
                   555 00182=

################################################################################
#  SYNOPS from 67580, Msekera (Zambia) | 13-39S | 032-34E | 1025 m
################################################################################
201803140600 AAXX 14064 67580 12580 71203 10222 20204 48/// 60194 84831
                   333 10286 20198 59016 82824 82626 83360 82080
                   555 00///=

################################################################################
#  SYNOPS from 67665, Lusaka Internationalairport (Zambia) | 15-19S | 028-27E | 1152 m
################################################################################
201803310600 AAXX 31064 67665 11459 81308 10175 20167 48542 60094 79599 8197/
                   333 10290 20//0 819// 84410 87459=
201803310300 AAXX 31034 67665 41/80 50000 10192 20176 48524 71322 81930
                   333 59013 819// 84360=
201803310000 AAXX 31004 67665 42980 61602 10202 20184 48528 70222 85030
                   333 59010 85360=
201803302100 AAXX 30214 67665 42980 61902 10196 20180 48530 70222 85030
                   333 59012 85360=
201803301500 AAXX 30154 67665 42660 51310 10222 20176 48514 79592 81930
                   333 58003 81940 84842 82360 83080=
201803300900 AAXX 30094 67665 42680 60407 10271 20155 48528 70322 86230
                   333 58000 86835 83360=
201803300600 AAXX 30064 67665 42380 60803 10217 20186 48552 82632
                   333 10289 58009 82709 84360 81080
                   555 00///=
201803300300 AAXX 30034 67665 42380 50000 10191 20184 48537 81630
                   333 58010 81706 85360 91021=
201803300000 AAXX 30004 67665 42380 52603 10197 20181 48538 83630
                   333 58015 83706 85360=
201803292100 AAXX 29214 67665 42980 30000 10198 20183 48542 83030
                   333 58009 83360 91021=
201803291800 AAXX 29184 67665 41780 40304 10214 20177 48530 71300 81931
                   333 10289 58009 81956 83360 82080=
201803291500 AAXX 29154 67665 42780 41110 10262 20180 48516 70200 84201
                   333 58009 84850 82080=
201803291200 AAXX 29124 67665 42680 50406 10265 20174 48528 70122 85830
                   333 59001 85835 82360=
201803290900 AAXX 29094 67665 42580 70611 10253 20176 48551 86830
                   333 58003 82623 84825 82080=
201803281800 AAXX 28184 67665 42780 31103 10209 20186 48521 81932
                   333 10272 58000 81950 81360 82080=
201803281200 AAXX 28124 67665 41559 70403 10240 20196 48524 81900
                   333 59003 81925 86828=
201803280900 AAXX 28094 67665 42480 60811 10238 20184 48546 70122 85530
                   333 59009 85618 83360=
201803280600 AAXX 28064 67665 12380 10209 20194 48540 60114 85632
                   333 10278 20//0 59006 85708 83359 84080=
201803271500 AAXX 27154 67665 42780 40000 10247 20178 48513 83202
                   333 58002 83840 81080=
201803270900 AAXX 27094 67665 42480 10214 20166 48551 82532
                   333 58010 82615 85360 82080 91022=
201803262100 AAXX 26214 67665 41980 31602 10202 20182 48535 81901
                   333 58001 819// 83080=
201803251800 AAXX 25184 67665 42980 41702 10224 20171 48526 80002
                   333 58001 84080=
201803251500 AAXX 25154 67665 42680 50704 10281 20163 48512 82202
                   333 59008 82850 84080=
201803251200 AAXX 25124 67665 42680 60406 10277 20176 48527 83231
                   333 58012 83838 83360 84080=
201803250600 AAXX 25064 67665 42980 62402 10196 20174 48531 85031
                   333 58008 85360 83080=
201803250300 AAXX 25034 67665 42980 30000 10177 20171 48516 83030
                   333 58012 83360=
201803242100 AAXX 24214 67665 42980 60000 10195 20180 48559 86030
                   333 59004 86360=
201803240900 AAXX 24094 67665 42580 50705 10262 20195 48535 85201
                   333 58000 85825 83080=
201803240600 AAXX 24064 67665 12480 52104 10227 20189 48529 60024 84501
                   333 10294 20//0 59003 84615 83080=
201803240300 AAXX 24034 67665 42980 42602 10195 20180 48507 70200 83030
                   333 59004 83360=
201803240000 AAXX 24004 67665 42980 41303 10195 20180 48508 70200 84030
                   333 59011 84360=
201803232100 AAXX 23214 67665 42780 41502 10194 20179 48513 70222 81930
                   333 59015 81956 84360=
201803231800 AAXX 23184 67665 42660 51303 10194 20178 48501 8197/
                   333 59012 81935 85459=
201803231500 AAXX 23154 67665 42660 71205 10197 20181 48498 81971
                   333 58004 81935 82835 85459 84080=
201803231200 AAXX 23124 67665 42680 60605 10282 20176 48510
                   333 59016 83822 81930 84830 83359 83080=
201803230900 AAXX 23094 67665 42580 60509 10262 20197 48535 86800
                   333 59011 83822 84623=
201803230600 AAXX 23064 67665 32480 21204 10223 20188 48531 81531
                   333 10304 20//0 81615 81360 81080=
201803230300 AAXX 23034 67665 42980 21303 10183 20165 48509 82030
                   333 58021 82360=
201803230000 AAXX 23004 67665 42/80 21701 10198 20183 48519 82030
                   333 59016 819// 82360=
201803221800 AAXX 22184 67665 42780 31403 10216 20181 48516 71300 81901
                   333 10304 59005 81956 82080=
201803221500 AAXX 22154 67665 42780 40508 10297 20169 48506 70222 83201
                   333 59013 83850 82080=
201803221200 AAXX 22124 67665 42680 50706 10284 20161 48526 70122 85200
                   333 59004 85838=
201803220900 AAXX 22094 67665 42580 60507 10273 20184 48547 86200
                   333 59008 86825=
201803220600 AAXX 22064 67665 42980 11005 10217 20194 48543 80001
                   333 10218 20//0 59004 81080=
201803220000 AAXX 22004 67665 42980 20000 10188 20127 48532 82030
                   333 58013 82360=
201803211800 AAXX 21184 67665 42980 21104 10225 20187 48522 82030
                   333 10303 58015 82360=
201803211500 AAXX 21154 67665 42680 41005 10287 20162 48518 82231
                   333 58014 81945 81360 82080
                   555 10303 91017=
201803210900 AAXX 21094 67665 42580 51010 10250 20174 48553 70122 84500
                   333 58018 84620=
201803210600 AAXX 21064 67665 32980 10909 10217 20183 48547 70200 81030
                   333 10220 58022 81360 91021=
201803201800 AAXX 20184 67665 42980 30000 10214 20183 48505 82031
                   333 58005 82360 81080=
201803200900 AAXX 20094 67665 42580 60906 10254 20178 48535 86500
                   333 58011 86625 91020=
201803200600 AAXX 20064 67665 32980 11004 10205 20179 48524 80001
                   333 10289 20//0 59003 81080=
201803200300 AAXX 20034 67665 42980 01603 10170 20160 48510
                   333 58007=
201803200000 AAXX 20004 67665 42980 01601 10174 20160 48507
                   333 58004=
201803192100 AAXX 19214 67665 42980 01503 10190 20175 48515
                   333 58003=
201803191800 AAXX 19184 67665 42680 21505 10212 20178 48500 70101 80001
                   333 58006 82080 91016=
201803190600 AAXX 19064 67665 32480 11206 10200 20169 48526 81101
                   333 10275 20//0 58008 81810 81080=
201803190300 AAXX 19034 67665 42980 01801 10162 20149 48505
                   333 58001=
201803190000 AAXX 19004 67665 42980 01602 10172 20157 48504
                   333 58003=
201803182100 AAXX 18214 67665 42980 01403 10176 20161 48511
                   333 58004=
201803181800 AAXX 18184 67665 42980 21702 10207 20170 48506 82030
                   333 58001 82360=
201803181500 AAXX 18154 67665 42780 41210 10265 20157 48495 84201
                   333 58006 84850 81080=
201803181200 AAXX 18124 67665 42680 50906 10263 20157 48506 85501
                   333 58001 85640 81080=
201803180300 AAXX 18034 67665 42980 11305 10170 20145 48504 80001
                   333 58001 82080=
201803180000 AAXX 18004 67665 42980 11105 10187 20171 48509 80001
                   333 58005 81080=
201803171800 AAXX 17184 67665 41/80 11505 10219 20191 48507 71390 81300
                   333 58007 819//=
201803171500 AAXX 17154 67665 42680 41111 10282 20183 48490 81301
                   333 59003 81940 83842 82080=
201803171200 AAXX 17124 67665 42680 71010 10269 20188 48507 70222 85202
                   333 58000 85035 87080=
201803170900 AAXX 17094 67665 42580 70911 10255 20195 48530 85501
                   333 59004 85625 86080=
201803170600 AAXX 17064 67665 32480 51005 10216 20200 48515 70222 83531
                   333 10305 20//0 59011 83615 84080=
201803170300 AAXX 17034 67665 42980 10000 10186 20178 48506 70200 81030
                   333 58000 81360=
201803170000 AAXX 17004 67665 42980 20000 10193 20185 48504 70200 82030
                   333 59004 82360=
201803161800 AAXX 16184 67665 42980 21003 10221 20199 48500 82030
                   333 59036 82360=
201803161500 AAXX 16154 67665 42680 50910 10262 20179 48491 81331
                   333 59017 81943 82845 85360 82080=
201803161200 AAXX 16124 67665 42680 50605 10288 20174 48509 85200
                   333 59004 85830=
201803160900 AAXX 16094 67665 42480 50404 10259 20194 48525 85201
                   333 59007 85818 81080=
201803160600 AAXX 16064 67665 12280 20502 10207 20195 49526 60034 70300 81630
                   333 10289 20//0 81704 82360=
201803160300 AAXX 16034 67665 42980 40000 10192 20184 48506 84030
                   333 59009 84360=
201803160000 AAXX 16004 67665 42/60 20000 10194 20188 48510 82030
                   333 59004 819// 82360=
201803152100 AAXX 15214 67665 42760 50000 10201 20194 48516 81930
                   333 59008 81957 84360=
201803151500 AAXX 15154 67665 41658 71105 10239 20203 48505 79592 81970
                   333 59003 81945 85848 84459=
201803151200 AAXX 15124 67665 42680 61203 10278 20180 48512 70222 85230
                   333 59015 85835 83360=
201803150600 AAXX 15064 67665 42980 40904 10196 20178 48531 70200 84030
                   333 10267 59012 84360 91020=
201803141800 AAXX 14184 67665 42980 11006 10208 20178 48521 81030
                   333 10267 59011 81360=
201803141500 AAXX 14154 67665 42680 40910 10252 20176 48509 82230
                   333 59016 82845 83360
                   555 10267 91017=
201803140900 AAXX 14094 67665 42580 60813 10233 20166 48547 70222 86500
                   333 59009 86620=
201803140600 AAXX 14064 67665 42380 61013 10200 20173 48543 70322 86500
                   333 10290 20/// 59009 86610 91021=
201803131800 AAXX 13184 67665 42780 21304 10200 20122 48530 81930
                   333 58004 81950 81360=
201803131200 AAXX 13124 67665 42680 60811 10256 20153 48537 85230
                   333 58013 85838 81360=
201803130900 AAXX 13094 67665 42580 60912 10235 20166 48556 86530
                   333 58010 86625 83360=
201803130600 AAXX 13064 67665 12480 51013 10202 20180 48552 60074 84531
                   333 10292 20//0 58014 84610 84359 84080=
201803130000 AAXX 13004 67665 42380 50907 10193 20185 48534 82630
                   333 58017 82707 84360=
201803122100 AAXX 12214 67665 42380 41304 10202 20191 48544 81930
                   333 58017 82707 81950 84360=
201803121800 AAXX 12184 67665 42680 31203 10210 20189 48528 70222 81331
                   333 58019 81935 82360 83080 91019=
201803121200 AAXX 12124 67665 42680 40510 10270 20180 48526 70222 84230
                   333 58010 84835 82360=
201803111200 AAXX 11124 67665 42680 61206 10263 20174 48514 85230
                   333 58016 85835 82360=
201803110900 AAXX 11094 67665 42460 61107 10229 20177 48534 70122 85530
                   333 58010 85620 83360=
201803110600 AAXX 11064 67665 42960 70910 10192 20169 48530 70322 8763/
                   333 58014 87706 84360=
201803110300 AAXX 11034 67665 42980 21004 10180 20172 48513 70200 82030
                   333 58024 82360 91018=
201803100900 AAXX 10094 67665 42580 61008 10242 20191 48526 85231
                   333 58012 85820 86360 84080=
201803100600 AAXX 10064 67665 12480 51007 10209 20183 48519 60414 70122 81130
                   333 10304 20//0 58018 81815 85360=
201803100300 AAXX 10034 67665 42/80 52502 10192 20184 48490 71322 81930
                   333 59001 819// 85360=
201803100000 AAXX 10004 67665 42960 63002 10195 20188 48507 70222 86030
                   333 58012 86360=
201803092100 AAXX 09214 67665 42760 83303 10201 20186 48512 70222 8707/
                   333 58009 87459=
201803091500 AAXX 09154 67665 42555 72012 10214 20214 48483 79562 81931
                   333 59002 86830 85359 84080 91014=
201803091200 AAXX 09124 67665 42680 63007 10283 20194 48487 70322 86231
                   333 59006 86830 82360 81080 91014=
201803090600 AAXX 09064 67665 12980 60000 10201 20198 48501 60034 85032
                   333 10301 20//0 85360 82080
                   555 00///=
201803090300 AAXX 09034 67665 42980 32702 10190 20184 48491 83030
                   333 59015 83360 91015=
201803090000 AAXX 09004 67665 42/80 43003 10202 20186 48493 84030
                   333 59002 819// 84360=
201803082100 AAXX 08214 67665 42/60 40602 10206 20191 48504 84030
                   333 59013 819// 84360=
201803081800 AAXX 08184 67665 41760 61802 10215 20185 48493 71399 81930 10302 59018 81956
                   84360=
201803081500 AAXX 08154 67665 41759 72212 10232 20188 48487 76162 81930
                   333 59003 81950 85850 83359=
201803081200 AAXX 08124 67665 50304 10286 20163 48494 70222 85200
                   333 59019 85842=
201803080900 AAXX 08094 67665 42560 50403 10267 20180 48524 84530
                   333 59012 84630 82360=
201803080600 AAXX 08064 67665 42960 30000 10227 20214 48521 83030
                   333 59012 83360=
201803071800 AAXX 07184 67665 41760 50000 10206 20191 48509 71799 81930
                   333 10306 59011 81956 83360=
201803071200 AAXX 07124 67665 42680 60604 10279 20164 48511 85230
                   333 59010 85830 81360=
201803070900 AAXX 07094 67665 42580 40505 10258 20183 48534 70122 83130
                   333 58001 83820 81360=
201803060900 AAXX 06094 67665 41520 82015 10197 20184 48526 79562 8197/
                   333 58007 81925 84825 87459=
201803060600 AAXX 06064 67665 32380 13403 10215 20193 48526 81630
                   333 10//0 20//0 58006 81703 81360=
201803060300 AAXX 06034 67665 42980 10000 10183 20176 48507 81030
                   333 58007 81360=
201803060000 AAXX 06004 67665 42980 21502 10186 20177 48508 82030
                   333 58012 82359=
201803052100 AAXX 05214 67665 41/80 23304 10203 20191 48516 71392 81330
                   333 58009 819// 82359=
201803050900 AAXX 05094 67665 42580 63204 10246 20190 48525 83232
                   333 58010 83820 85360 84080=
201803050300 AAXX 05034 67665 42980 51302 10179 20175 48500 85030
                   333 58009 85360=
201803050000 AAXX 05004 67665 42980 52902 10178 20172 48495 85030
                   333 58007 85360=
201803042100 AAXX 04214 67665 42380 22702 10186 20179 48501 70260 82730
                   333 58005 82708 82359=
201803041500 AAXX 04154 67665 42660 73305 10234 20188 48485 8197/
                   333 58000 81935 84835 86459=
201803040900 AAXX 04094 67665 42460 70510 10217 20192 48511 70366 8677/
                   333 58002 86710 87358 91017=
201803030600 AAXX 03064 67665 12460 80704 10199 20191 48502 8657/
                   333 10253 20//0 58004 86610 87459=
201803030300 AAXX 03034 67665 41359 81602 10183 20183 48488 76166 8477/
                   333 58003 84709 87459=
201803030000 AAXX 03004 67665 41358 80505 10194 20194 48495 76162 8477/
                   333 58014 84709 87459=
201803022100 AAXX 02214 67665 42460 71004 10201 20194 48507 70222 83632
                   333 58007 83709 83360 85080=
201803021800 AAXX 02184 67665 42760 70906 10201 20194 48492 70222 8193/
                   333 59001 81956 86360=
201803021500 AAXX 02154 67665 42660 71308 10223 20192 48472 70322 81331
                   333 58001 81942 82845 83360 84080=
201803021200 AAXX 02124 67665 42580 70507 10254 20204 48470 70222 8133/
                   333 59012 81925 83830 86360=
201803020900 AAXX 02094 67665 42480 70206 10235 20182 48508 8683/
                   333 59013 84615 83815 86360=
201803020600 AAXX 02064 67665 12380 70203 10205 20182 48507 69944 8663/
                   333 10264 20//0 5//// 86707 87360=
201803020000 AAXX 02004 67665 41260 70203 10197 20190 48483 8263/
                   333 59009 82705 87459=
201803012100 AAXX 01214 67665 42/80 61004 10205 20198 48501 81932
                   333 59011 819// 85360 84080 91016=
201803011800 AAXX 01184 67665 42780 71602 10227 20181 48496 70222 81932
                   333 10264 59007 81956 84360 86080=
201803011500 AAXX 01154 67665 42680 63206 10248 20177 48475 70222 85231
                   333 59011 83845 83360 85080=
201803011200 AAXX 01124 67665 42580 63106 10251 20191 48491 70222 85530
                   333 59003 85722 87360=
201803010900 AAXX 01094 67665 41460 83507 10222 20192 48518 71622 8657/
                   333 59002 83612 88459 91018=

################################################################################
#  SYNOPS from 67666, Lusaka City Airport (Zambia) | 15-25-00S | 028-28-00E | 1280 m
################################################################################
201803140600 AAXX 14064 67666 32380 80911 10190 20169 48536 886//
                   333 10258 20180 59006 88708
                   555 00/// 91021=

################################################################################
#  SYNOPS from 67667, Mount Makulu (Zambia) | 15-33S | 028-15E | 1213 m
################################################################################
201803140600 AAXX 14064 67667 32580 41204 10204 20132 48592 83130
                   333 10296 20130 58007 83825 81360
                   555 00///=

################################################################################
#  SYNOPS from 67673, Petauke (Zambia) | 14-15S | 031-17E | 1035 m
################################################################################
201803140600 AAXX 14064 67673 12584 70901 10210 20195 48555 69904 8703/
                   333 10282 20198 59006 87360
                   555 00///=

################################################################################
#  SYNOPS from 67855, Lupaki (Zambia) | 17-03-00S | 024-46-00E | 1000 m
################################################################################
201803300600 AAXX 30064 67855 12575 70000 10212 20195 3//// 48/// 60404 8558/
                   333 20189 5//// 85620 87360=
201803281500 AAXX 28154 67855 41775 40000 10282 20184 3//// 48/// 70198 84262
                   333 5//// 84850=
201803281200 AAXX 28124 67855 41670 72001 10272 20188 3//// 48/// 79598 85273
                   333 5//// 81940 84845 87458=
201803280600 AAXX 28064 67855 12975 70401 10200 20179 3//// 48/// 69904 8707/
                   333 20173 5//// 87459=
201803271500 AAXX 27154 67855 41675 30000 10282 20193 3//// 48/// 70198 83261
                   333 5//// 83845=
201803271200 AAXX 2712/ 67855 41670 51102 10276 20203 3//// 48/// 79598 85233
                   333 5//// 81940 84845=
201803270900 AAXX 27094 67855 42675 60503 10264 20188 3//// 48/// 83272
                   333 5//// 83830 86459=
201803270600 AAXX 27064 67855 32975 61601 10210 20188 3//// 48/// 86080
                   333 20176 5//// 86459=
201803261500 AAXX 26154 67855 41775 70000 10240 20193 3//// 48/// 72992 83232
                   333 5//// 83850 85360 87080=
201803251200 AAXX 25124 67855 42775 53205 10318 20185 3//// 48/// 85201
                   333 5//// 85856 83080=
201803241500 AAXX 24154 67855 41775 70000 10236 20213 3//// 48/// 72998 83232
                   333 5//// 83850 85360 87080=
201803231500 AAXX 23154 67855 41770 73601 10304 20191 3//// 48/// 70522 83262
                   333 5//// 83856 87080=
201803231200 AAXX 23124 67855 42775 73301 10316 20183 3//// 48/// 85201
                   333 5//// 85856 87080=
201803230900 AAXX 23094 67855 42675 70601 10280 20202 3//// 48/// 85231
                   333 5//// 85845 87080=
201803230600 AAXX 23064 67855 11970 70000 10226 20188 3//// 48/// 69904 70262 85078
                   333 20100 5//// 85459 87280=
201803221500 AAXX 22154 67855 41770 50000 10310 20310 3//// 48/// 70522 85261
                   333 5//// 85856 83360=
201803221200 AAXX 22124 67855 41770 53604 10324 20173 3//// 48/// 70511 85200
                   333 5//// 85856=
201803220900 AAXX 2209/ 67855 41770 50105 10300 20187 3//// 48/// 70511 85230
                   333 5//// 85850=
201803211200 AAXX 21124 67855 42775 53302 10312 20168 3//// 48/// 85200
                   333 5//// 85856=
201803210600 AAXX 21064 67855 11970 00301 10222 20186 38/// 48/// 69904 70500
                   333 20170 5////=
201803200900 AAXX 20094 67855 41770 53601 10284 20178 3//// 48/// 70511 85200
                   333 5//// 85850=
201803200600 AAXX 20064 67855 31970 10204 20171 3//// 48/// 70500 81030
                   333 20151 5//// 81360=
201803191500 AAXX 19154 67855 41870 21901 10296 20141 3//// 48/// 70500 82260
                   333 5//// 82857=
201803191200 AAXX 19124 67855 41770 42001 10290 20146 3//// 48/// 70511 84200
                   333 5//// 84856=
201803190900 AAXX 19094 67855 41670 30000 10282 20173 3//// 48/// 83130
                   333 5//// 83845=
201803190600 AAXX 19064 67855 31970 50704 10188 20156 3//// 48/// 70511 80001
                   333 20139 5//// 85080=
201803171500 AAXX 17154 67855 41770 71806 10302 20155 3//// 48/// 70522 81262
                   333 5//// 81856 83360=
201803170600 AAXX 17064 67855 31970 31406 10210 20158 3//// 48/// 70500 81032
                   333 20170 5//// 81360 83080=
201803161500 AAXX 16154 67855 42775 32001 10326 20165 3//// 48/// 81232
                   333 5//// 81856 83360=
201803161200 AAXX 16124 67855 42775 51901 10234 20148 3//// 48/// 85200
                   333 5//// 85856=
201803160900 AAXX 16094 67855 42775 33101 10304 20185 3//// 48/// 83200
                   333 5//// 83850=
201803160600 AAXX 16064 67855 12972 00000 10196 20175 38/// 48/// 70500
                   333 20164 5////=
201803151200 AAXX 15124 67855 42775 51701 10304 20156 38/// 48/// 85200
                   333 5//// 85856=
201803150900 AAXX 15094 67855 42675 53101 10292 20193 38/// 48/// 85200
                   333 5//// 85840=
201803141200 AAXX 14124 67855 42775 40000 10298 20153 3//// 48/// 84200
                   333 5//// 84856=
201803140900 AAXX 14094 67855 42675 10402 10280 20163 3//// 48/// 81201
                   333 5//// 81840=
201803131200 AAXX 13124 67855 42775 50203 10302 20168 3//// 48/// 85208
                   333 5//// 85850=
201803130900 AAXX 13094 67855 42675 41406 10280 20163 3//// 48/// 84208
                   333 84840=
201803121500 AAXX 12154 67855 42975 41601 10288 20156 3//// 48/// 84078
                   333 5//// 84459 83280=
201803120600 AAXX 12064 67855 32975 11701 10198 20163 3//// 48/// 70511 81030
                   333 20160 5//// 81360=
201803111200 AAXX 11124 67855 42675 40301 10308 20175 3//// 48/// 84200
                   333 5//// 84840=
201803101500 AAXX 10154 67855 42675 31702 10308 20175 3//// 48/// 81262
                   333 5//// 81840 83360=
201803100900 AAXX 10094 67855 42675 70605 10276 20179 3//// 48/// 8117/
                   333 5//// 81830 87360=
201803091200 AAXX 09124 67855 42775 51602 10310 20186 3//// 48/// 75202
                   333 5//// 85850 83080=
201803090900 AAXX 09094 67855 42675 31801 10186 20183 3//// 48/// 73201
                   333 5//// 83840=
201803081500 AAXX 08154 67855 41670 71801 10288 20199 3//// 48/// 71792 84233
                   333 5//// 81920 83845 87080=
201803081200 AAXX 08124 67855 42675 23602 10314 20188 3//// 48/// 85202
                   333 5//// 85845=
201803080600 AAXX 08064 67855 32975 53601 10212 20188 3//// 48/// 80001
                   333 20172 5//// 85080=
201803071500 AAXX 07154 67855 42675 53302 10216 20191 3//// 48/// 82272
                   333 5//// 82845 85459=
201803071200 AAXX 07124 67855 42775 52001 10314 20170 3//// 48/// 85230
                   333 5//// 85850=
201803060600 AAXX 06064 67855 12975 31501 10216 20194 3//// 48/// 69904 83080
                   333 20190 5//// 83360=
201803051200 AAXX 05124 67855 42680 61102 10275 20187 3//// 48/// 83132
                   333 5//// 83836 85360=
201803050600 AAXX 05064 67855 11975 71801 10200 20194 3//// 48/// 60354 70262 8707/
                   333 20188 5//// 87459=
201803040600 AAXX 04064 67855 11575 7401 10208 20168 3//// 48/// 60154 70262 8557/
                   333 20193 85620 87459=
201803031500 AAXX 03154 67855 42675 51303 10304 20185 3//// 48/// 83232
                   333 5//// 83845=
201803031200 AAXX 03124 67855 41675 40604 10292 20191 3//// 48/// 70152 84231
                   333 5//// 84840=
201803021500 AAXX 02154 67855 41670 70000 10210 20203 3//// 48/// 78098 8427/
                   333 5//// 84840 87458=
201803011500 AAXX 01154 67855 41670 70000 10268 20203 3//// 48/// 71792 84273
                   333 5//// 81935 83840 87360=
201803011200 AAXX 01124 67855 41675 51501 10286 20200 3//// 48/// 70152 85238
                   333 5//// 85840 83360=
201803010900 AAXX 01094 67855 41670 60302 10258 20204 3//// 48/// 75052 86538
                   333 5//// 86630 83360=
