################################################################################
# Query made at 04/14/2022 12:07:54 UTC
# Country like Zamb*
# Time interval: from 02/01/2013 05:30  to 03/03/2013 06:30  UTC
################################################################################

################################################################################
#  SYNOPS from 67561, Ndola (Zambia) | 13-00S | 028-39E | 1269 m
################################################################################
201302090900 AAXX 09094 67561 42580 71304 10251 20186 48517 83232
                   333 58005 83830 86360 84080 91018=
201302081200 AAXX 08124 67561 42680 60305 10270 20189 48483 84232
                   333 59005 84835 85361 84080=
201302070600 AAXX 07064 67561 11256 72106 10198 20186 48527 74222 8567/
                   333 10290 20190 59011 85704 87460=

################################################################################
#  SYNOPS from 67599, Mfuwe (Zambia) | 13-16S | 031-56E | 568 m
################################################################################
201302120900 AAXX 12094 67599 42580 62006 10288 20221 48523 86202
                   333 59010 86828=
201302120600 AAXX 12064 67599 12980 70000 10250 20228 48530 69904 87030
                   333 10320 20215 58002 87360=
201302100600 AAXX 10064 67599 12470 62003 10235 20221 48521 60024 70322 81230
                   333 10290 20215 59023 81815 86360=
201302081200 AAXX 08124 67599 42680 53604 10311 20211 48520 84202
                   333 58008 81940 83845=
201302070600 AAXX 07064 67599 32470 82005 10236 20219 48534 8227/
                   333 10322 20220 59029 82815 88459=

################################################################################
#  SYNOPS from 67665, Lusaka Internationalairport (Zambia) | 15-19S | 028-27E | 1152 m
################################################################################
201303030600 AAXX 03064 67665 12380 40908 10120 20190 48550 69904 83632
                   333 10285 20174 58002 83707 81360 82080
                   555 00/// 91022=
201303021800 AAXX 02184 67665 41760 21404 10198 20174 48519 71399 81932
                   333 10285 58019 81956 82360 81080=
201303020600 AAXX 02064 67665 32480 60907 10221 20199 48540 70322 83530
                   333 10308 20191 58020 83615 85360=
201303011800 AAXX 01184 67665 41780 31303 10242 20228 48505 71322 81930
                   333 10308 59013 81956 83360=
201303010600 AAXX 01064 67665 12380 20902 10209 20183 48519 60024 81630
                   333 10296 20183 58000 81709 82360=
201302281200 AAXX 28124 67665 42680 62904 10268 20211 48527 84230
                   333 59014 84830 82360 91018=
201302280600 AAXX 28064 67665 32980 51204 10224 20202 48530 85030
                   333 59024 85360=
201302280300 AAXX 28034 67665 42980 30000 10184 20166 48522 83030
                   333 59016 83360 91019=
201302280000 AAXX 28004 67665 42980 50000 10186 20157 48525 85030
                   333 59017 85360=
201302271200 AAXX 27124 67665 42580 61507 10274 20209 58541 84130
                   333 59011 84835 83360=
201302270900 AAXX 27094 67665 42580 50506 10243 20192 48561 85230
                   333 59006 85820 81360
                   555 91023=
201302270600 AAXX 27064 67665 32980 11403 10189 20158 48556 81080
                   333 10275 20139 59005 81360
                   555 00/// 91023=
201302261800 AAXX 26184 67665 42980 11203 10199 20176 48541 81030
                   333 10275 58004 81360=
201302261500 AAXX 26154 67665 42680 21106 10265 20151 48531 82200
                   333 58006 82845 91019=
201302261200 AAXX 26124 67665 42680 40908 10269 20196 48552 84200
                   333 58014 84830 91021=
201302260600 AAXX 26064 67665 32480 20907 10190 20174 48561 82130
                   333 10230 20180 58024 82812 81360=
201302250900 AAXX 25094 67665 42480 60910 10234 20183 48551 86800
                   333 58015 81618 85820=
201302250600 AAXX 25064 67665 32380 31109 10192 20170 48538 83601
                   333 10289 20155 58007 83607 81080
                   555 91021=
201302241200 AAXX 24124 67665 42680 40809 10282 20185 48520 84200
                   333 58000 84840=
201302240600 AAXX 24064 67665 41960 31207 10214 20191 48534 70500 81031
                   333 58000 81360 83080=
201302231200 AAXX 23124 67665 42680 50904 10282 20194 48520 70222 85200
                   555 59024 81932 85835=
201302221800 AAXX 22184 67665 42780 20000 10213 20154 48509 81901
                   333 10275 59007 81957 81080=
201302221500 AAXX 22154 67665 42680 30605 10255 20186 48495 83200
                   333 59010 83845 555 10275 91015=
201302221200 AAXX 22124 67665 42680 60505 10262 48521 85231
                   333 58006 85830 84360 81080 91018=
201302220600 AAXX 22064 67665 32960 71105 10190 20174 48521 87030
                   333 10285 20172 58003 87360=
201302211800 AAXX 21184 67665 41780 61209 10220 20213 48517 71792 81902
                   333 58014 81956 86080=
201302211500 AAXX 21154 67665 42780 72704 10254 20218 48505 72999 81932
                   333 58014 81950 82360 86080=
201302211200 AAXX 21124 67665 41680 71712 10250 20206 48517 71722 86202
                   333 58013 81940 85842 85080=
201302210600 AAXX 21064 67665 32980 41305 10234 20212 48523 81032
                   333 10302 20183 58000 81360 84080=
201302200300 AAXX 20034 67665 42980 32905 10185 20178 48503 83030
                   333 58010 83360 91017=
201302192100 AAXX 19214 67665 41780 33002 10196 20174 48504 71300 81930
                   333 58006 81956 83360 91017=
201302191200 AAXX 19124 67665 42680 52705 10304 20243 48494 85201
                   333 58005 85840 81080=
201302190900 AAXX 19094 67665 42580 53305 10273 20184 48511 85200
                   333 59004 85825 91017=
201302190600 AAXX 19064 67665 32480 40303 10230 20223 48510 81131
                   333 10291 2//// 58003 81815 83360 82080=
201302180600 AAXX 18064 67665 32480 51104 10224 20202 48506 82132
                   333 10280 20182 59015 82812 82360 84080=
201302171200 AAXX 17124 67665 41680 60306 10272 20252 48499 86201
                   333 59011 86840 83080=
201302170600 AAXX 17064 67665 11357 70602 10195 20192 48518 60064 74244 877//
                   333 10265 20175 58004 87706
                   555 00/// 91018=
201302170300 AAXX 17034 67665 41/10 90502 10183 20166 48490 74444 89///
                   333 59012=
201302170000 AAXX 17004 67665 41980 13302 10190 20166 48499 74222 81030
                   333 59010 81360=
201302161200 AAXX 16124 67665 42480 71803 10257 20219 48507 70222 8357/
                   333 58017 83615 81940 87460=
201302160900 AAXX 16094 67665 41359 83003 10206 20198 48532 76162 8677/
                   333 58017 86706 88459=
201302160600 AAXX 16064 67665 32360 73008 10196 20189 48514 82632
                   333 10279 2//// 58004 82709 86359 83080=
201302151800 AAXX 15184 67665 42760 70000 10199 20191 48493 70222 8293/
                   333 10279 58007 82956 87360=
201302151500 AAXX 15154 67665 42680 73107 10249 20196 48486 8293/
                   333 58006 82945 87360
                   555 10279 91014=
201302151200 AAXX 15124 67665 42680 63011 10269 20174 48493 83232=
201302150600 AAXX 15064 67665 32380 72605 10231 20224 48514 81131
                   333 10270 20190 58002 81810 85360 83080=
201302150300 AAXX 15034 67665 42980 52803 10214 20207 48496 82031
                   333 58007 81360 85280=
201302141200 AAXX 14124 67665 42680 62710 10264 20243 48504 81132
                   333 58011 81830 82360 84080 91016=
201302131800 AAXX 13184 67665 42980 31801 10225 20203 48485 81031
                   333 10252 59012 81360 83080=
201302131500 AAXX 13154 67665 42680 62503 10234 20205 48473 82132
                   333 59006 82840 83360 85280=
201302130600 AAXX 13064 67665 31357 80304 10200 20200 48526 76122 8577/
                   333 10265 2//// 58020 819// 85706 87459=
201302121800 AAXX 1218/ 67665 41357 80912 10215 20200 48496 76166 8577/
                   333 10265 85707 81930 87459=
201302121200 AAXX 12124 67665 41680 70603 10254 20202 48489 71522 81970
                   333 58009 81930 85835 84360=
201302120900 AAXX 12094 67665 42480 10243 20193 48512 85231
                   333 59003 85825 83360 85280=
201302120300 AAXX 12034 67665 42980 31801 10//0 20//0 48/// 83030
                   333 59007 83360 91015=
201302112100 AAXX 11214 67665 41780 31303 10//0 20//0 48/// 81930
                   333 59011 81956 83360 91016=
201302110900 AAXX 11094 67665 42580 70307 10226 20181 48514 86830
                   333 59005 83615 85818 84360=
201302110600 AAXX 11064 67665 12360 70905 10200 20193 48509 60024 8263/
                   333 10249 20180 59005 82709 87359=
201302101800 AAXX 10184 67665 41760 70703 10199 20186 48497 71799 8193/
                   333 10249 58001 81950 87360=
201302101500 AAXX 10154 67665 41660 71306 10214 20196 48485 71722 8193/
                   333 58016 81940 87360
                   555 10249 91014=
201302101200 AAXX 10124 67665 41560 71306 10239 20232 48495 71622 81932
                   333 59007 81925 84830 85360 82080 91015=
201302100300 AAXX 10034 67665 41958 81201 10180 20180 48495 76066 8807/
                   333 59008 88459=
201302092100 AAXX 09214 67665 42380 61002 10220 20213 48518 86631
                   333 58010 86606 82360 82080=
201302091200 AAXX 09124 67665 42680 70504 10276 20232 48507 84232
                   333 58017 84835 85360 81080=
201302090900 AAXX 09094 67665 42480 70706 10242 20215 48529 85830
                   333 58013 82618 83820 86360 91019=
201302090600 AAXX 09064 67665 12380 70302 10191 20176 48522 60074 8363/
                   333 10296 20179 58012 83709 87360=
201302081800 AAXX 08184 67665 41780 71802 10209 20209 48507 71796 81950 84360 85280=
201302081500 AAXX 08154 67665 41680 53604 10275 20194 48480 71422 84845=
201302081200 AAXX 08124 67665 41580 53604 10282 20157 48490 71422 84231
                   333 59023 84830 83360 83080=
201302080600 AAXX 08064 67665 12380 70603 10200 20200 48512 69934 82631
                   333 10298 20175 59024 82708 86360 82080=
201302071800 AAXX 07184 67665 41780 31507 10243 20190 48507 71300 81931
                   333 10298 59015 81956 82360 81080=
201302070900 AAXX 07094 67665 41459 73004 10211 20181 48526 76166
                   333 59017 81710 87460 85280=
201302070600 AAXX 07064 67665 11359 22404 10199 20199 48535 60314 76166 8177/
                   333 10261 20161 59011 81706 87459=
201302070300 AAXX 07034 67665 41356 72712 10180 20180 48525 76022 8477/
                   333 58000 84705 87459 91018=
201302070000 AAXX 07004 67665 42980 31302 10183 20150 48512 83030
                   333 59022 83360=
201302061800 AAXX 06184 67665 42980 51302 10202 20195 48515 82032
                   333 59021 82360 85280=
201302061500 AAXX 06154 67665 42680 51003 10226 20187 48514 83132
                   333 59002 83835 83360 85280=
201302061200 AAXX 06124 67665 42480 50302 10266 20156 48524 82131
                   333 59005 82820 84359 85280=
201302060900 AAXX 06094 67665 41458 71410 10206 20184 48551 76022 8557/
                   333 58021 85609 86359=
201302060600 AAXX 06064 67665 11359 80705 10195 20188 48544 60014 75155 8463/
                   333 10275 20180 5//// 84708 87359=
201302051800 AAXX 05184 67665 41660 70303 10199 20192 48537 76022 8197/
                   333 10275 58028 81945 87360 91021=
201302051500 AAXX 05154 67665 41660 72309 10215 20175 48513 72582 8193/
                   333 58020 81930 87360
                   555 10275 91018=
201302051200 AAXX 05124 67665 41580 72712 10244 20191 48524 71722 84932
                   333 58028 81925 85828 86360 82080=
201302050000 AAXX 05004 67665 42358 63004 10200 20193 48512 82632
                   333 58012 82608 84360 85280=
201302042100 AAXX 04214 67665 41358 73005 10219 20212 48529 76062 8573/
                   333 58019 85707 85460=
201302040900 AAXX 04094 67665 42580 63206 10254 20226 48535 81102
                   333 58015 81820 85080 91019=
201302030600 AAXX 03064 67665 32480 41205 10222 20197 48513 70344 83531
                   333 10294 20180 59008 83612 82360 81080=
201302030300 AAXX 03034 67665 42980 00000 10204 20195 48497
                   333 59002=
201302022100 AAXX 02214 67665 42980 01902 10205 20197 48503
                   333 59005=
201302021500 AAXX 02154 67665 42680 53304 10284 20179 48475 85300
                   333 59013 81940 85845=
201302021200 AAXX 02124 67665 42680 53005 10296 20168 48500 85200
                   333 59002 85845=
201302011200 AAXX 01124 67665 42680 50105 10278 20197 48500 70222 85200=
201302010600 AAXX 01064 67665 32980 20903 10219 20191 48517 80001
                   333 10284 20165 59003 82080=

################################################################################
#  SYNOPS from 67743, Livingstone (Zambia) | 17-49S | 025-49E | 985 m
################################################################################
201303020600 AAXX 02064 67743 32980 10907 10230 20166 48528 81030
                   333 10348 20//0 58020 81360=
201302081200 AAXX 08124 67743 42480 60903 10258 20201 48487 71722 81930
                   333 59022 81920 85820 81360=
201302070900 AAXX 07094 67743 41470 83604 10202 20199 48526 8254/
                   333 59013 82615 88460=
201302070600 AAXX 07064 67743 12480 80902 10210 20195 48526 60214 8755/
                   333 10300 20/// 59009 87610 81260=
201302061500 AAXX 06154 67743 41680 73507 10217 20207 48499 71722 8393/
                   333 59008 83915 85025 81360=

################################################################################
#  SYNOPS from 67855, Lupaki (Zambia) | 17-03-00S | 024-46-00E | 1000 m
################################################################################
201303030600 AAXX 03064 67855 12350 10602 10204 20182 38/// 48/// 60334 81601
                   333 20170 5//// 81707=
201303021200 AAXX 02124 67855 41670 63602 10312 20188 38/// 48/// 71792 86233
                   333 5//// 81925 85830=
201303020600 AAXX 02064 67855 32980 62003 10214 20162 3//// 48/// 86070
                   333 20180 5//// 86459=
201303011200 AAXX 01124 67855 42680 42701 10330 20145 3//// 48/// 84200
                   333 5//// 84840=
201303010600 AAXX 01064 67855 32980 01102 10218 20170 3//// 48///
                   333 20160 5////=
201302281800 AAXX 28184 67855 NIL=
201302281200 AAXX 28124 67855 42780 33301 10322 20111 3//// 48/// 83200
                   333 5//// 83850=
201302280600 AAXX 28064 67855 32980 00000 10196 20171 38/// 48///
                   333 20150 5////=
201302271800 AAXX 27184 67855 NIL=
201302271200 AAXX 27124 67855 42680 41401 10320 20144 38/// 48/// 84200
                   333 5//// 84840=
201302270600 AAXX 27064 67855 32980 03601 10198 20154 3//// 48///
                   333 20126 5////=
201302261800 AAXX 26184 67855 NIL=
201302261200 AAXX 26124 67855 NIL=
201302260600 AAXX 26064 67855 NIL=
201302251800 AAXX 25184 67855 NIL=
201302251200 AAXX 25124 67855 42780 30303 10330 20160 3//// 48/// 83200
                   333 5//// 83840=
201302250600 AAXX 25064 67855 32980 01005 10206 20163 3//// 48///
                   333 20165 5////=
201302241800 AAXX 24184 67855 NIL=
201302241200 AAXX 24124 67855 NIL=
201302240600 AAXX 24064 67855 32980 00303 10206 20143 3//// 48///
                   333 20139 5////=
201302231800 AAXX 23184 67855 NIL=
201302231200 AAXX 23124 67855 42680 31901 10320 20129 3//// 48/// 83200
                   333 5//// 83840=
201302230600 AAXX 23064 67855 31980 10301 10190 20184 38/// 48/// 72840 81030
                   333 20150 5//// 81360=
201302221500 AAXX 22154 67855 41670 73603 10256 20193 38/// 48/// 71792 85263
                   333 5//// 81925 84830=
201302221200 AAXX 22124 67855 42680 53202 10318 20188 38/// 48/// 85200
                   333 5//// 85830=
201302220600 AAXX 22064 67855 12380 10603 10208 20176 3//// 48/// 69904 81630
                   333 20170 5//// 81707=
201302211800 AAXX 21184 67855 NIL=
201302211200 AAXX 21124 67855 41680 60701 10290 20191 3//// 48/// 70162 82270
                   333 5//// 82830 86459=
201302210600 AAXX 21064 67855 11980 73601 10210 20192 3//// 48/// 69904 72998 85072
                   333 20190 5//// 85459 87080=
201302201800 AAXX 20184 67855 NIL=
201302201200 AAXX 20124 67855 NIL=
201302200600 AAXX 20064 67855 32680 30000 10204 20161 3//// 48/// 81501
                   333 20145 5//// 81630 83080=
201302191800 AAXX 19184 67855 NIL=
201302191200 AAXX 19124 67855 42680 32101 10322 20105 3//// 48/// 81201
                   333 5//// 81830 83080=
201302190600 AAXX 19064 67855 32980 11801 10190 20150 3//// 48/// 80001
                   333 20132 5//// 81080=
201302181800 AAXX 18184 67855 NIL=
201302180600 AAXX 18064 67855 12380 10406 10198 20174 38/// 48/// 69904 81600
                   333 20150 5//// 81707=
201302171800 AAXX 17184 67855 NIL=
201302171200 AAXX 17124 67855 42680 50901 10312 20178 38/// 48/// 85200
                   333 5//// 85830=
201302170600 AAXX 17064 67855 32980 10606 10200 20165 3//// 48/// 80001
                   333 20150 5//// 81080=
201302161800 AAXX 16184 67855 NIL=
201302161200 AAXX 16124 67855 NIL=
201302160600 AAXX 16064 67855 32980 70602 10210 20174 3//// 48/// 80001
                   333 20168 5//// 87080=
201302151200 AAXX 15124 67855 42680 31902 10314 20134 3//// 48/// 83231
                   333 5//// 83840=
201302150600 AAXX 15064 67855 NIL=
201302141200 AAXX 14124 67855 41370 53603 10286 20203 3//// 48/// 71582 85201
                   333 5//// 85830=
201302140600 AAXX 14064 67855 32380 71401 10206 20194 3//// 48/// 81632
                   333 20184 5//// 81707 83360 87080=
201302131800 AAXX 13184 67855 NIL=
201302131200 AAXX 13124 67855 42680 40302 10294 20188 3//// 48/// 84231
                   333 5//// 84830 83360=
201302130600 AAXX 13064 67855 11380 71801 10206 20198 38/// 48/// 60214 72162 85631
                   333 20188 5//// 85707 83360 87080=
201302121800 AAXX 12184 67855 NIL=
201302121200 AAXX 12124 67855 41680 71404 10296 20193 38/// 48/// 72162 85232
                   333 5//// 85830 87080=
201302120600 AAXX 12064 67855 12980 71002 10222 20181 3//// 48/// 69904 8707/
                   333 20194 5//// 87459=
201302111800 AAXX 11184 67855 NIL=
201302111200 AAXX 11124 67855 41680 71602 10268 20190 3//// 48/// 72052 8427/
                   333 5//// 84830 87459=
201302110600 AAXX 11064 67855 12980 70000 10202 20198 3//// 48/// 60174 8707/
                   333 20191 5//// 87459=
201302101800 AAXX 10184 67855 NIL=
201302101200 AAXX 10124 67855 NIL=
201302100600 AAXX 10064 67855 12380 70000 10212 20203 3//// 48/// 69904 8467/
                   333 20190 5//// 84707 87459=
201302090600 AAXX 09064 67855 32980 63601 10224 20189 3//// 48/// 86030
                   333 20186 5//// 86360=
201302081800 AAXX 08184 67855 NIL=
201302081200 AAXX 08124 67855 41680 63602 10298 20177 3//// 48/// 71792 84273
                   333 5//// 81930 83835 86459=
201302080600 AAXX 08064 67855 11380 30301 10222 20198 38/// 48/// 60084 72162 8567/
                   333 20188 5//// 85707 87458=
201302071800 AAXX 07184 67855 NIL=
201302071200 AAXX 07124 67855 41670 73602 10258 20195 38/// 48/// 71798 84273
                   333 5//// 81925 83830 87458=
201302070600 AAXX 07064 67855 11380 70601 10210 20199 3//// 48/// 72161 8367/
                   333 20194 5//// 83707 87459=
201302061200 AAXX 06124 67855 NIL=
201302060600 AAXX 06064 67855 12380 71102 10216 20201 3//// 48/// 60014 8467/
                   333 20198 5//// 8707/ 87459=
201302051200 AAXX 05124 67855 41670 71202 10250 20186 38/// 48/// 78082 85202
                   333 5//// 85830 87080=
201302050600 AAXX 05064 67855 NIL=
201302041200 AAXX 04124 67855 41680 72701 10300 20208 3//// 48/// 72992 83232
                   333 5//// 83830 85360 87080=
201302040600 AAXX 04064 67855 32680 70000 10222 20186 3//// 48/// 83501
                   333 20176 5//// 83630 87080=
201302031200 AAXX 03124 67855 42680 42401 10324 20179 3//// 48/// 84202
                   333 5//// 84830=
201302030600 AAXX 03064 67855 32980 30302 10240 20188 38/// 48/// 80001
                   333 20164 5//// 83080=
201302021200 AAXX 02124 67855 42680 61801 10318 20193 38/// 48/// 86200
                   333 5//// 86830=
201302020600 AAXX 02064 67855 11370 20602 10224 20180 3//// 48/// 69964 70511 83620
                   333 20176 5//// 82707=
201302011200 AAXX 01124 67855 42680 43601 10334 20159 3//// 48/// 84200
                   333 5//// 84830=
201302010600 AAXX 01064 67855 32980 30601 10234 20170 3//// 48/// 83030
                   333 20187 5//// 83360=
