################################################################################
# Query made at 04/14/2022 06:34:28 UTC
# Country like Zamb*
# Time interval: from 09/01/2014 05:30  to 10/01/2014 06:30  UTC
################################################################################

################################################################################
#  SYNOPS from 67403, Kawambwa (Zambia) | 09-48S | 029-05E | 1323 m
################################################################################
201410010600 AAXX 01064 67403 31475 13510 10222 20183 48521 70500 81500
                   333 10/// 20192 58005 81615=
201409290600 AAXX 29064 67403 31975 00902 10217 20146 48530 70544 80001
                   333 10/// 20157 58009=
201409260600 AAXX 26064 67403 31980 20908 10222 20116 48521 70520 80001
                   333 10/// 20183 59005 82080=
201409250600 AAXX 25064 67403 31980 40904 10220 20124 48526 70522 83081
                   333 10/// 20173 59017 83360 82080=
201409241200 AAXX 24124 67403 NIL=
201409240600 AAXX 24064 67403 31980 20904 10213 20108 48542 70520 82030
                   333 10/// 20169 58007 82360=
201409230900 AAXX 23094 67403 NIL=
201409230600 AAXX 23064 67403 31975 30910 10208 20112 48534 70500 80001
                   333 10/// 20170 59001 83080
                   555 00///=
201409180900 AAXX 18094 67403 NIL=
201409180600 AAXX 18064 67403 31960 30905 10207 20144 48512 74044 80001
                   333 10/// 20167 59007=
201409160600 AAXX 16064 67403 31980 21208 10220 20132 48528 70500 80001
                   333 10/// 20176 59004 82080=
201409131500 AAXX 13154 67403 NIL=
201409110600 AAXX 11064 67403 NIL=
201409100900 AAXX 10094 67403 NIL=
201409090900 AAXX 09094 67403 NIL=
201409090600 AAXX 09064 67403 11975 71404 10194 20134 48541 69904 70500 86037
                   333 10/// 20180 86359 85259=
201409081500 AAXX 08154 67403 NIL=
201409081200 AAXX 08124 67403 NIL=
201409080300 AAXX 08034 67403 NIL=
201409040900 AAXX 04094 67403 NIL=
201409040600 AAXX 04064 67403 31975 00903 10162 20075 48535 70500
                   333 10/// 20128 58000=
201409030600 AAXX 03064 67403 NIL=
201409030300 AAXX 03034 67403 NIL=
201409011200 AAXX 01124 67403 NIL=
201409010600 AAXX 01064 67403 31470 20905 10167 20133 48540 70540 82500
                   333 10/// 20141 58028 82615=

################################################################################
#  SYNOPS from 67413, Mbala (Zambia) | 08-51S | 031-20E | 1673 m
################################################################################
201410010600 AAXX 01064 67413 NIL=
201409241200 AAXX 24124 67413 NIL=
201409230900 AAXX 23094 67413 NIL=
201409180900 AAXX 18094 67413 NIL=
201409160600 AAXX 16064 67413 NIL=
201409131500 AAXX 13154 67413 NIL=
201409110600 AAXX 11064 67413 NIL=
201409100900 AAXX 10094 67413 NIL=
201409090900 AAXX 09094 67413 NIL=
201409090600 AAXX 09064 67413 12980 61210 10170 20128 48560 60204 8607/
                   333 10270 20/// 59008 86359 91026=
201409081500 AAXX 08154 67413 NIL=
201409081200 AAXX 08124 67413 NIL=
201409080300 AAXX 08034 67413 NIL=
201409040900 AAXX 04094 67413 NIL=
201409040600 AAXX 04064 67413 NIL=
201409030600 AAXX 03064 67413 NIL=
201409030300 AAXX 03034 67413 NIL=
201409011200 AAXX 01124 67413 NIL=
201409010600 AAXX 01064 67413 NIL=

################################################################################
#  SYNOPS from 67441, Mwinilunga (Zambia) | 11-45S | 024-26E | 1361 m
################################################################################
201410010600 AAXX 01064 67441 31665 336// 10190 20151 48548 70522 86600
                   333 10340 20/// 58012 86635=
201409290600 AAXX 29064 67441 31965 134// 10195 20157 48587 80001
                   333 10320 20/// 59001 81080=
201409260600 AAXX 26064 67441 31965 112// 10203 20113 48555 70500 81030
                   333 10325 20/// 5//// 81360=
201409241200 AAXX 24124 67441 NIL=
201409230900 AAXX 23094 67441 NIL=
201409180900 AAXX 18094 67441 NIL=
201409170600 AAXX 17064 67441 31970 728// 10170 20102 48550 70500 80008
                   333 10325 20/// 59007 87280=
201409160600 AAXX 16064 67441 31975 112// 10225 20095 48556 70500 80001
                   333 10325 20/// 59005 81080=
201409150600 AAXX 15064 67441 31975 012// 10230 20097 48561 70500
                   333 10320 20/// 58003=
201409131500 AAXX 13154 67441 NIL=
201409120600 AAXX 12064 67441 11965 40000 10185 20137 48554 69984 70512 84030
                   333 10270 20/// 59004 84360=
201409110600 AAXX 11064 67441 11965 708// 10165 20141 48558 69904 70522 8707/
                   333 10300 20/// 58003 87360=
201409100900 AAXX 10094 67441 NIL=
201409100600 AAXX 10064 67441 31970 70000 10160 20109 48555 70522 8703/
                   333 10305 20/// 59019 87360=
201409090900 AAXX 09094 67441 NIL=
201409090600 AAXX 09064 67441 31960 ///// 10160 20090 48574 70500
                   333 10300 20/// 59016=
201409081500 AAXX 08154 67441 NIL=
201409081200 AAXX 08124 67441 NIL=
201409080600 AAXX 08064 67441 31970 10000 10170 20082 48590 70500 80001
                   333 10295 20/// 58008 81080=
201409080300 AAXX 08034 67441 NIL=
201409040900 AAXX 04094 67441 NIL=
201409040600 AAXX 04064 67441 NIL=
201409030600 AAXX 03064 67441 NIL=
201409030300 AAXX 03034 67441 NIL=
201409011200 AAXX 01124 67441 NIL=
201409010600 AAXX 01064 67441 NIL=

################################################################################
#  SYNOPS from 67461, Mansa (Zambia) | 11-06S | 028-51E | 1382 m
################################################################################
201410010600 AAXX 01064 67461 NIL=
201409241200 AAXX 24124 67461 NIL=
201409240600 AAXX 24064 67461 31975 00805 10202 20101 48547 70500
                   333 10296 20/// 58002 91022=
201409230900 AAXX 23094 67461 NIL=
201409230600 AAXX 23064 67461 31975 11109 10200 20121 48545 70500 80001
                   333 10300 20/// 58003 81080 91021=
201409220600 AAXX 22064 67461 31970 40810 10215 20124 48544 70500 80001
                   333 10340 20/// 5//// 84080 91021=
201409180900 AAXX 18094 67461 NIL=
201409180600 AAXX 18064 67461 31930 40000 10195 20098 48515 70500 80001
                   333 10315 20/// 59008 91018=
201409160600 AAXX 16064 67461 31975 00805 10226 20135 48527 70500
                   333 10314 20/// 59005 91020=
201409131500 AAXX 13154 67461 NIL=
201409110600 AAXX 11064 67461 NIL=
201409100900 AAXX 10094 67461 NIL=
201409100600 AAXX 10064 67461 31975 70000 10180 20141 48526 70522 8707/
                   333 10286 20/// 59026 87462 91020=
201409090900 AAXX 09094 67461 NIL=
201409090600 AAXX 09064 67461 31475 70000 10175 20160 48551 71799 8457/
                   333 10290 20/// 59004 81915 84618 86762 91023=
201409081500 AAXX 08154 67461 NIL=
201409081200 AAXX 08124 67461 NIL=
201409080300 AAXX 08034 67461 NIL=
201409040900 AAXX 04094 67461 NIL=
201409040600 AAXX 04064 67461 NIL=
201409030600 AAXX 03064 67461 31977 00806 10166 20061 48546 70500
                   333 10263 20/// 58006 91022=
201409030300 AAXX 03034 67461 NIL=
201409020600 AAXX 02064 67461 31970 50708 10175 20075 48541 70522 85030
                   333 10279 20/// 59009 85361 91021=
201409011200 AAXX 01124 67461 NIL=
201409010600 AAXX 01064 67461 31975 01107 10175 20115 48550 70500
                   333 10322 20/// 5//// 91023=

################################################################################
#  SYNOPS from 67475, Kasama (Zambia) | 10-13S | 031-08E | 1382 m
################################################################################
201410010600 AAXX 01064 67475 31975 03413 10217 20090 48528 70500
                   333 10331 20150 59002 91021=
201409290600 AAXX 29064 67475 31970 00603 10218 20100 48/// 70500
                   333 10322 20140 5////=
201409260600 AAXX 26064 67475 31975 00906 10206 20112 48539 70500
                   333 10312 20149 59002 91022=
201409250600 AAXX 25064 67475 31975 00914 10205 20115 48541 70500
                   333 10300 20131 59018 91022=
201409241200 AAXX 24124 67475 41875 21511 10287 20072 48519 70500 82200
                   333 58003 82857 91019=
201409240900 AAXX 24094 67475 41775 10917 10267 20101 48551 70500 81100
                   333 58004 81856 91024=
201409240600 AAXX 24064 67475 31975 01116 10201 20105 48559 70500
                   333 10295 20152 58009 91024=
201409230900 AAXX 23094 67475 41775 11516 10246 20089 48546 70500 81101
                   333 58004 81850 81080 91022=
201409230600 AAXX 23064 67475 31975 11216 10194 20111 48549 70500 80001
                   333 10300 20149 59001 81080
                   555 00/// 91023=
201409220600 AAXX 22064 67475 31970 11007 10200 20115 48580 70500 80001
                   333 10300 20155 58004 81080 91023=
201409180900 AAXX 18094 67475 41975 20813 10275 20069 48527 70500 82002
                   333 59004 82080 91020=
201409180600 AAXX 18064 67475 31970 20509 10203 20084 48527 70500 82004
                   333 10308 20117 59008 82080 91021=
201409160900 AAXX 16094 67475 41975 10805 10274 20078 48540 70500 81001
                   333 59007 81080 91022=
201409160600 AAXX 16064 67475 31975 10809 10217 20119 48548 70500 81001
                   333 10309 20143 59004 81080 91023=
201409151500 AAXX 15154 67475 41875 31011 10282 20083 48516 70522 81261
                   333 59001 81858 82359 81080 91019=
201409131500 AAXX 13154 67475 NIL=
201409110600 AAXX 11064 67475 NIL=
201409100900 AAXX 10094 67475 NIL=
201409090900 AAXX 09094 67475 NIL=
201409090600 AAXX 09064 67475 31970 70808 10188 20129 48588 70502 8707/
                   333 10278 20146 59010 87360
                   555 00/// 91024=
201409081500 AAXX 08154 67475 41875 61208 10249 20109 48537 70522 81274
                   333 58001 81858 82362 85080=
201409081200 AAXX 08124 67475 41775 61010 10257 20094 48542 70522 82278
                   333 58007 83856 84361 84280 91022=
201409080300 AAXX 08034 67475 NIL=
201409060600 AAXX 06064 67475 31975 01215 10175 20107 48554 70521
                   333 10264 20128 58003
                   555 00/// 91024=
201409040900 AAXX 04094 67475 41775 11516 10219 20090 48550 70500 81100
                   333 58007 81850 91023=
201409040600 AAXX 04064 67475 31975 01013 10156 20081 48548 70500
                   333 10262 20129 59001
                   555 00/// 91023=
201409030600 AAXX 03064 67475 31975 11619 10154 20049 48549 70500 81031
                   333 10262 20116 58008 81360 81080
                   555 00/// 91023=
201409030300 AAXX 03034 67475 NIL=
201409011200 AAXX 01124 67475 41775 41204 10249 20103 48526 70522 84201
                   333 58012 84856 81080 91020=
201409010600 AAXX 01064 67475 31670 21319 10173 20128 48550 70500 82100
                   333 10293 20136 58006 82840
                   555 00/// 91023=

################################################################################
#  SYNOPS from 67476, Misamfu (Zambia) | 10-06S | 031-15E | 1536 m
################################################################################
201410010600 AAXX 01064 67476 NIL=
201409290600 AAXX 29064 67476 31970 00703 10216 20105 48/// 70500
                   333 10313 20162 5////=
201409241200 AAXX 24124 67476 NIL=
201409230900 AAXX 23094 67476 NIL=
201409180900 AAXX 18094 67476 NIL=
201409160600 AAXX 16064 67476 31975 00903 10224 20129 48/// 70500
                   333 10303 20/// 5////=
201409131500 AAXX 13154 67476 NIL=
201409120600 AAXX 12064 67476 31970 00804 10207 20115 48/// 70500
                   333 10311 20155 58000
                   555 00///=
201409110600 AAXX 11064 67476 31970 00303 10210 20115 48/// 70500
                   333 10300 20169 58000=
201409100900 AAXX 10094 67476 NIL=
201409100600 AAXX 10064 67476 31970 00502 10198 20119 48/// 70500
                   333 10277 20161 59019=
201409090900 AAXX 09094 67476 NIL=
201409090600 AAXX 09064 67476 31970 70902 10180 20128 48/// 70500 87030
                   333 10275 20155 5//// 87359=
201409081500 AAXX 08154 67476 NIL=
201409081200 AAXX 08124 67476 NIL=
201409080600 AAXX 08064 67476 31570 80902 10167 20137 48/// 70500 885//
                   333 10273 20146 5//// 88628=
201409080300 AAXX 08034 67476 NIL=
201409040900 AAXX 04094 67476 NIL=
201409040600 AAXX 04064 67476 31970 01001 10151 20088 48/// 70500
                   333 10262 20137 59002=
201409030600 AAXX 03064 67476 31970 51006 10162 20066 48/// 70500 85030
                   333 10263 20133 58006 85359=
201409030300 AAXX 03034 67476 NIL=
201409020600 AAXX 02064 67476 31970 20903 10171 20085 48/// 70500 82030
                   333 10260 20135 59010 82359=
201409011200 AAXX 01124 67476 NIL=
201409010600 AAXX 01064 67476 31670 30906 10185 20133 48/// 70500 83530
                   333 10283 20144 5//// 83630 81359=

################################################################################
#  SYNOPS from 67477, Mpika (Zambia) | 11-54S | 031-26E | 1400 m
################################################################################
201410010600 AAXX 01064 67477 31978 01206 10239 20090 48521 70500
                   333 10317 20170 59011=
201409260600 AAXX 26064 67477 31978 00910 10220 20097 48541 70500
                   333 10290 20162 59009
                   555 00///=
201409250600 AAXX 25064 67477 31978 01201 10208 20105 48548 70500
                   333 10280 20155 59016=
201409241200 AAXX 24124 67477 NIL=
201409240600 AAXX 24064 67477 31978 01209 10194 20086 48563 70500
                   333 10265 20149 58004=
201409230900 AAXX 23094 67477 NIL=
201409220600 AAXX 22064 67477 31478 01206 10202 20114 48561 70500 81100
                   333 10279 20151 58009 81816=
201409180900 AAXX 18094 67477 NIL=
201409180600 AAXX 18064 67477 31978 21026 10220 20059 48530 70500 80001
                   333 10290 20120 59005 82080=
201409170600 AAXX 17064 67477 31978 01209 10228 20035 48535 70500
                   333 10289 20126 59013=
201409160600 AAXX 16064 67477 31978 01210 10229 20099 48551 70500
                   333 10292 20177 59008
                   555 00///=
201409131500 AAXX 13154 67477 NIL=
201409110600 AAXX 11064 67477 31978 01201 10210 20115 48537
                   333 10293 20165 59005=
201409100900 AAXX 10094 67477 NIL=
201409100600 AAXX 10064 67477 31978 01206 10206 20111 48541 70500
                   333 10272 20151 59015
                   555 00///=
201409090900 AAXX 09094 67477 NIL=
201409090600 AAXX 09064 67477 32980 11205 10197 20122 48556 81030
                   333 10269 20144 59011 81359=
201409081500 AAXX 08154 67477 NIL=
201409081200 AAXX 08124 67477 NIL=
201409080300 AAXX 08034 67477 NIL=
201409040900 AAXX 04094 67477 NIL=
201409040600 AAXX 04064 67477 31478 11206 10155 20090 48555 70500 81100
                   333 10240 20104 58001 81812=
201409030600 AAXX 03064 67477 31978 01204 10143 20139 48553 70500
                   333 10225 20101 58002=
201409030300 AAXX 03034 67477 NIL=
201409020600 AAXX 02064 67477 31978 01206 10140 20071 48550 70500
                   333 10235 20131 59004=
201409011200 AAXX 01124 67477 NIL=
201409010600 AAXX 01064 67477 31378 81206 10145 20089 48555 70522 885//
                   333 10225 20130 58005 88607=

################################################################################
#  SYNOPS from 67481, Isoka (Zambia) | 10-07S | 032-38E | 1360 m
################################################################################
201410010600 AAXX 01064 67481 NIL=
201409300600 AAXX 30064 67481 32980 03602 10238 20102
                   333 10330 20151 59014=
201409250600 AAXX 25064 67481 31975 00000 10220 20127 70500
                   333 10295 20155 59014
                   555 00///=
201409241200 AAXX 24124 67481 NIL=
201409240600 AAXX 24064 67481 31975 01303 10208 20122 70500
                   333 10289 20150 58006
                   555 00///=
201409230900 AAXX 23094 67481 NIL=
201409180900 AAXX 18094 67481 NIL=
201409160600 AAXX 16064 67481 NIL=
201409131500 AAXX 13154 67481 NIL=
201409120600 AAXX 12064 67481 31975 00402 10220 20118 70500
                   333 10324 20135 555 00///=
201409110600 AAXX 11064 67481 NIL=
201409100900 AAXX 10094 67481 NIL=
201409100600 AAXX 10064 67481 31975 00502 10219 20104 70500
                   333 10296 20152 59018
                   555 00///=
201409090900 AAXX 09094 67481 NIL=
201409090600 AAXX 09064 67481 NIL=
201409081500 AAXX 08154 67481 NIL=
201409081200 AAXX 08124 67481 NIL=
201409080300 AAXX 08034 67481 NIL=
201409060600 AAXX 06064 67481 32980 01102 10181 20113
                   333 10256 20116 58007
                   555 00///=
201409040900 AAXX 04094 67481 NIL=
201409040600 AAXX 04064 67481 32980 03301 10169 20101
                   333 10254 20126 58003
                   555 00///=
201409030600 AAXX 03064 67481 NIL=
201409030300 AAXX 03034 67481 NIL=
201409011200 AAXX 01124 67481 NIL=
201409010600 AAXX 01064 67481 32380 82702 10164 20144 48/// 886//
                   333 10275 20080 5//// 88709
                   555 00///=

################################################################################
#  SYNOPS from 67531, Zambezi (Zambia) | 13-32S | 023-07E | 1077 m
################################################################################
201410010600 AAXX 01064 67531 31975 33602 10236 20154 48/// 70500 80008
                   333 10373 20195 58000 83280
                   555 00176=
201409290600 AAXX 29064 67531 31978 01402 10197 20151 48/// 70500
                   333 10336 20146 58006
                   555 00132=
201409261200 AAXX 26124 67531 41978 21303 10335 20095 48/// 70500 82031
                   333 59008 81362 81080=
201409260600 AAXX 26064 67531 31975 01002 10202 20057 48/// 70500
                   333 10340 20137 59003
                   555 00096=
201409250600 AAXX 25064 67531 31978 21108 10220 20081 48/// 70500 80002
                   333 10342 20153 59021 82082
                   555 00131=
201409241200 AAXX 24124 67531 41778 21004 10333 20096 48/// 70500 82100
                   333 58000 82858=
201409240900 AAXX 24094 67531 41978 01105 10300 20114 48/// 70500
                   333 58003=
201409240600 AAXX 24064 67531 31978 20905 10220 20096 48/// 70500 80001
                   333 10350 20176 58015 81082
                   555 00162=
201409230900 AAXX 23094 67531 NIL=
201409220600 AAXX 22064 67531 31975 01104 10211 20115 48/// 70500
                   333 10350 20192 58004
                   555 00161=
201409180900 AAXX 18094 67531 NIL=
201409180600 AAXX 18064 67531 31960 00000 10185 20102 48/// 70500
                   333 10354 20125 59003
                   555 00110=
201409170600 AAXX 17064 67531 31978 10602 10221 20095 48/// 70500 81030
                   333 10354 20141 59011 81362=
201409160600 AAXX 16064 67531 31978 01104 10207 20096 48/// 70500
                   333 10345 20130 59003
                   555 00110=
201409150600 AAXX 15064 67531 31978 00904 10206 20090 48/// 70500
                   333 10350 20153 58004
                   555 00133=
201409131500 AAXX 13154 67531 NIL=
201409120600 AAXX 12064 67531 31976 01202 10193 20141 48/// 70522 84030
                   333 10333 20142 59009 84362
                   555 00136=
201409110600 AAXX 11064 67531 31978 40902 10184 20120 48/// 70522 84030
                   333 10333 20129 58012 84362
                   555 00122=
201409100900 AAXX 10094 67531 NIL=
201409100600 AAXX 10064 67531 31980 01103 10194 20108 48/// 70200
                   333 10330 20142 59027
                   555 00110=
201409090900 AAXX 09094 67531 NIL=
201409090600 AAXX 09064 67531 31980 00902 10186 20083 48/// 70200
                   333 10329 20140 59016
                   555 00120=
201409081500 AAXX 08154 67531 NIL=
201409081200 AAXX 08124 67531 NIL=
201409080300 AAXX 08034 67531 NIL=
201409040900 AAXX 04094 67531 NIL=
201409040600 AAXX 04064 67531 31975 00903 10152 20054 48/// 70500
                   333 10302 20094 5//// 82701 87613=
201409030600 AAXX 03064 67531 31975 00902 10134 20048 48/// 70500
                   333 10302 20077 5////
                   555 00040=
201409030300 AAXX 03034 67531 NIL=
201409020600 AAXX 02064 67531 31970 01301 10156 20067 48/// 70500
                   333 10301 20112 5////
                   555 00080=
201409011200 AAXX 01124 67531 NIL=
201409010600 AAXX 01064 67531 31965 10902 10164 20105 48/// 87050
                   333 10300 20106 5//// 81080
                   555 00089=

################################################################################
#  SYNOPS from 67541, Kasempa (Zambia) | 13-32S | 025-51E | 1234 m
################################################################################
201410010600 AAXX 01064 67541 NIL=
201409241200 AAXX 24124 67541 NIL=
201409230900 AAXX 23094 67541 NIL=
201409180900 AAXX 18094 67541 NIL=
201409160600 AAXX 16064 67541 NIL=
201409131500 AAXX 13154 67541 NIL=
201409110600 AAXX 11064 67541 NIL=
201409100900 AAXX 10094 67541 NIL=
201409090900 AAXX 09094 67541 NIL=
201409090600 AAXX 09064 67541 NIL=
201409081500 AAXX 08154 67541 NIL=
201409081200 AAXX 08124 67541 NIL=
201409080300 AAXX 08034 67541 NIL=
201409040900 AAXX 04094 67541 NIL=
201409040600 AAXX 04064 67541 NIL=
201409030600 AAXX 03064 67541 NIL=
201409030300 AAXX 03034 67541 NIL=
201409011200 AAXX 01124 67541 NIL=
201409010600 AAXX 01064 67541 NIL=

################################################################################
#  SYNOPS from 67543, Kabompo (Zambia) | 13-36S | 024-12E | 1075 m
################################################################################
201410010600 AAXX 01064 67543 NIL=
201409241200 AAXX 24124 67543 NIL=
201409230900 AAXX 23094 67543 NIL=
201409180900 AAXX 18094 67543 NIL=
201409160600 AAXX 16064 67543 NIL=
201409131500 AAXX 13154 67543 NIL=
201409110600 AAXX 11064 67543 NIL=
201409100900 AAXX 10094 67543 NIL=
201409090900 AAXX 09094 67543 NIL=
201409090600 AAXX 09064 67543 NIL=
201409081500 AAXX 08154 67543 NIL=
201409081200 AAXX 08124 67543 NIL=
201409080300 AAXX 08034 67543 NIL=
201409040900 AAXX 04094 67543 NIL=
201409040600 AAXX 04064 67543 NIL=
201409030600 AAXX 03064 67543 NIL=
201409030300 AAXX 03034 67543 NIL=
201409011200 AAXX 01124 67543 NIL=
201409010600 AAXX 01064 67543 NIL=

################################################################################
#  SYNOPS from 67551, Solwezi (Zambia) | 12-11S | 026-23E | 1386 m
################################################################################
201410010600 AAXX 01064 67551 NIL=
201409290600 AAXX 29064 67551 31960 03503 10202 20131 48537 70500 80000
                   333 10322 20143 59004 91021=
201409241200 AAXX 24124 67551 NIL=
201409240600 AAXX 24064 67551 31970 01805 10186 20105 48489 70500 80000
                   333 10296 20159 58001 91022=
201409230900 AAXX 23094 67551 NIL=
201409230600 AAXX 23064 67551 31975 00905 10187 20092 48548 70500 80000
                   333 10310 20154 59003
                   555 00/// 91022=
201409220600 AAXX 22064 67551 31958 01006 10182 20109 48551 70500
                   333 10314 20166 58009 91023=
201409190600 AAXX 19064 67551 41965 18003 10222 20139 48533 70500 81003
                   333 10322 20176 58002 81362 91020=
201409180900 AAXX 18094 67551 NIL=
201409160600 AAXX 16064 67551 NIL=
201409131500 AAXX 13154 67551 NIL=
201409120600 AAXX 12064 67551 31960 01004 10184 20119 48537 70500
                   333 10282 20130 59007
                   555 00/// 20993 91021=
201409110600 AAXX 11064 67551 NIL=
201409100900 AAXX 10094 67551 NIL=
201409090900 AAXX 09094 67551 41975 20904 10258 20084 48554 70522 82030
                   333 59019 82312 91023=
201409090600 AAXX 09064 67551 NIL=
201409081500 AAXX 08154 67551 NIL=
201409081200 AAXX 08124 67551 NIL=
201409080600 AAXX 08064 67551 31958 11304 10161 20079 48545 70500 80001
                   333 10285 20137 58013 81080
                   555 00/// 91024=
201409080300 AAXX 08034 67551 NIL=
201409040900 AAXX 04094 67551 NIL=
201409040600 AAXX 04064 67551 32980 01206 10147 20043 48550 70500
                   333 10270 20110 58000 91023=
201409030600 AAXX 03064 67551 31958 01305 10141 20036 48549 70500
                   333 10270 20099 58003
                   555 00/// 91023=
201409030300 AAXX 03034 67551 NIL=
201409011200 AAXX 01124 67551 NIL=
201409010600 AAXX 01064 67551 NIL=

################################################################################
#  SYNOPS from 67561, Ndola (Zambia) | 13-00S | 028-39E | 1269 m
################################################################################
201410010600 AAXX 01064 67561 42930 00000 10204 20078 48518 70400
                   333 10346 20127 59003
                   555 00/// 91019=
201409300600 AAXX 30064 67561 31959 00705 10234 20083 48528 70400
                   333 10331 20154 59015
                   555 00/// 91020=
201409290600 AAXX 29064 67561 31757 00405 10209 20081 48540 70400
                   333 10335 20147 58000
                   555 00/// 91022=
201409260600 AAXX 26064 67561 31958 00708 10204 20088 48534 70400
                   333 10319 20139 59006 91021=
201409251200 AAXX 25124 67561 41860 20304 10311 20079 48521 70500 81101
                   333 59003 81857 81080 91018=
201409241200 AAXX 24124 67561 41860 10000 10293 20082 48522 70500 81100
                   333 59006 81857 91019=
201409240600 AAXX 24064 67561 31959 00904 10193 20083 48555 70400
                   333 10295 20140 58002
                   555 00/// 91023=
201409230900 AAXX 23094 67561 NIL=
201409230600 AAXX 23064 67561 41959 12005 10235 20107 48537 70400
                   333 10312 58018 555 00/// 91020=
201409230300 AAXX 23034 67561 41959 00000 10149 20113 48533 70400
                   333 59010 555 91021=
201409190300 AAXX 19034 67561 41950 40000 10152 20058 48514 70400 84030
                   333 58008 84360 91019=
201409180900 AAXX 18094 67561 41957 00805 10292 20005 48528 70400
                   333 59014=
201409160600 AAXX 16064 67561 NIL=
201409131500 AAXX 13154 67561 41959 12008 10311 20087 48513 70400
                   333 58005 555 10325 91017=
201409110600 AAXX 11064 67561 32980 60000 10179 20149 48537 70422 81038
                   333 10269 20143 59004 81360 85280 91021=
201409100900 AAXX 10094 67561 NIL=
201409090900 AAXX 09094 67561 41659 51009 10261 20114 48560 70522 85232
                   333 59011 85845 83360 82080 91023=
201409090600 AAXX 09064 67561 31958 60807 10188 20116 48557 70422 85032
                   333 10303 20135 59008 85360 83080 91024=
201409081500 AAXX 08154 67561 NIL=
201409081200 AAXX 08124 67561 41760 51005 10297 20083 48544 70522 85200
                   333 59001 85856 91021=
201409080300 AAXX 08034 67561 41959 30000 10152 20092 48550 70400 83030
                   333 58005 91023=
201409070600 AAXX 07064 67561 42956 00912 10190 20103 48565 70400
                   333 10274 20145 58001
                   555 00/// 91024=
201409051200 AAXX 05124 67561 41770 11904 10270 20052 48527 70500 81100
                   333 58007 81856 91020=
201409050600 AAXX 05064 67561 31970 01008 10175 20052 48553 70500
                   333 10271 20103 58001
                   555 00/// 91023=
201409040900 AAXX 04094 67561 NIL=
201409040600 AAXX 04064 67561 31960 00000 10155 20080 48549 70500
                   333 10270 20090 58001
                   555 00/// 91023=
201409031200 AAXX 03124 67561 41970 00000 10260 20029 48524 70500
                   333 59005 555 91019=
201409030600 AAXX 03064 67561 31953 00000 10137 20056 48547 70400
                   333 10266 20077 58001
                   555 91023=
201409030300 AAXX 03034 67561 41959 03005 10085 20042 48535 70400
                   333 58005 91022=
201409021200 AAXX 02124 67561 41960 02213 10262 20052 48529 70500
                   333 58005 91020=
201409020900 AAXX 02094 67561 41959 01210 10222 20070 48555 70400
                   333 59008 555 91023=
201409020600 AAXX 02064 67561 31958 11206 10162 20065 48549 70411 81030
                   333 10278 20124 59011 81360 91023=
201409011200 AAXX 01124 67561 41770 11410 10275 20069 48534 70400 81100
                   333 58001 81856 91020=
201409010600 AAXX 01064 67561 NIL=

################################################################################
#  SYNOPS from 67563, Kafironda (Zambia) | 12-36S | 028-07E | 1243 m
################################################################################
201410010600 AAXX 01064 67563 NIL=
201409241200 AAXX 24124 67563 NIL=
201409230900 AAXX 23094 67563 NIL=
201409180900 AAXX 18094 67563 NIL=
201409160600 AAXX 16064 67563 NIL=
201409131500 AAXX 13154 67563 NIL=
201409110600 AAXX 11064 67563 11940 31602 10190 20140 48/// 69904 70510 83020
                   333 10273 20130 59001 83460
                   555 00128 20005=
201409100900 AAXX 10094 67563 NIL=
201409100600 AAXX 10064 67563 11940 60402 10162 20140 48/// 60054 70520 86070
                   333 10296 20129 59016 86360
                   555 00127=
201409090900 AAXX 09094 67563 NIL=
201409090600 AAXX 09064 67563 31930 30302 10193 20120 48/// 70500 83030
                   333 10306 20111 5//// 83360
                   555 00108=
201409081500 AAXX 08154 67563 NIL=
201409081200 AAXX 08124 67563 NIL=
201409080300 AAXX 08034 67563 NIL=
201409040900 AAXX 04094 67563 NIL=
201409040600 AAXX 04064 67563 NIL=
201409030600 AAXX 03064 67563 NIL=
201409030300 AAXX 03034 67563 NIL=
201409011200 AAXX 01124 67563 NIL=
201409010600 AAXX 01064 67563 31930 00203 10144 20090 48/// 70500
                   333 10276 20068 58016
                   555 00066=

################################################################################
#  SYNOPS from 67571, Serenje (Zambia) | 13-14S | 030-13E | 1384 m
################################################################################
201410010600 AAXX 01064 67571 32980 00000 10227 20094 48513 70500
                   333 10328 20137 59006
                   555 00///=
201409290600 AAXX 29064 67571 32977 00903 10238 20076 48534 70500
                   333 10318 20174 58003
                   555 00///=
201409261200 AAXX 26124 67571 42980 00906 10299 20028 48506 70500
                   333 59009=
201409260600 AAXX 26064 67571 32980 00605 10221 20091 48533 70500
                   333 10296 20175 59006
                   555 00///=
201409250600 AAXX 25064 67571 32980 01204 10206 20112 48542 70500
                   333 10284 20151 58020
                   555 00///=
201409241200 AAXX 24124 67571 NIL=
201409240900 AAXX 24094 67571 42578 10907 10251 20079 48554 70500 81100
                   333 59002 81825=
201409240600 AAXX 24064 67571 32978 01204 10203 20072 48561 70500
                   333 10269 20149 58003=
201409230900 AAXX 23094 67571 41670 50905 10237 20109 48554 70511 85500
                   333 58004 85638=
201409230600 AAXX 23064 67571 31570 11208 10198 20104 48561 70500 81500
                   333 10271 20137 59004 81625
                   555 00///=
201409180900 AAXX 18094 67571 42978 70302 10282 20066 48526 70522 80008
                   333 59004 87281=
201409170900 AAXX 17094 67571 42977 00905 10280 20016 48526 70500
                   333 59014=
201409160600 AAXX 16064 67571 32978 00903 10222 20120 48553 70500
                   333 10305 20151 59004
                   555 00///=
201409131500 AAXX 13154 67571 NIL=
201409120600 AAXX 12064 67571 32975 01203 10243 20103 48534 70500
                   333 10303 20160 59006
                   555 00///=
201409111200 AAXX 11124 67571 42775 71203 10296 20098 48516 70522 81108
                   333 58006 81856 87280=
201409110600 AAXX 11064 67571 NIL=
201409100900 AAXX 10094 67571 NIL=
201409090900 AAXX 09094 67571 NIL=
201409090600 AAXX 09064 67571 32980 70905 10184 20125 48550 8703/
                   333 10272 20147 59010 87360
                   555 00///=
201409081500 AAXX 08154 67571 NIL=
201409081200 AAXX 08124 67571 42780 61206 10253 20092 48544 70522 86260
                   333 58002 86850 82359=
201409080300 AAXX 08034 67571 NIL=
201409040900 AAXX 04094 67571 42480 11206 10200 20061 48552 70200 81500
                   333 58009 81618=
201409040600 AAXX 04064 67571 32280 11213 10139 20086 48548 70200 81600
                   333 10233 20116 58002 81706
                   555 00///=
201409030600 AAXX 03064 67571 32978 01209 10143 20051 48548 70500
                   333 10227 20112 59001
                   555 00///=
201409030300 AAXX 03034 67571 NIL=
201409020600 AAXX 02064 67571 32978 01210 10160 20054 48549 70500
                   333 10233 20110 59010
                   555 00/// 20990=
201409011200 AAXX 01124 67571 NIL=
201409010600 AAXX 01064 67571 12975 01208 10150 20042 48558 69904 70500
                   333 10259 20119 58012
                   555 00/// 20990=

################################################################################
#  SYNOPS from 67575, Mkushi (Zambia) | 13-38S | 029-53E | 1237 m
################################################################################
201410010600 AAXX 01064 67575 31975 00000 10210 20072 48/// 70500
                   333 10340 20120 5////=
201409290600 AAXX 29064 67575 31965 03201 10222 20067 48/// 70500
                   333 10330 20138 5////=
201409241200 AAXX 24124 67575 NIL=
201409240600 AAXX 24064 67575 31975 01204 10200 20065 48/// 70500
                   333 10275 20150 5////
                   555 00///=
201409230900 AAXX 23094 67575 NIL=
201409220600 AAXX 22064 67575 31975 00000 10203 20116 48/// 70500
                   333 10285 20145 5////=
201409180900 AAXX 18094 67575 NIL=
201409180600 AAXX 18064 67575 31975 00000 10217 20076 48/// 70500
                   333 10320 20145 5////
                   555 00///=
201409170600 AAXX 17064 67575 31975 00000 10220 20049 48/// 70500
                   333 10320 20130 5////=
201409160600 AAXX 16064 67575 31975 00000 10220 20127 48/// 70500
                   333 10320 20155 5////
                   555 00///=
201409150600 AAXX 15064 67575 31975 00905 10235 20138 48/// 70500
                   333 10290 20160 5////
                   555 00///=
201409131500 AAXX 13154 67575 NIL=
201409110600 AAXX 11064 67575 NIL=
201409100900 AAXX 10094 67575 NIL=
201409100600 AAXX 10064 67575 11975 51202 10182 20141 48/// 62064 70522 85030
                   333 10260 20130 5//// 85360=
201409090900 AAXX 09094 67575 NIL=
201409090600 AAXX 09064 67575 NIL=
201409081500 AAXX 08154 67575 NIL=
201409081200 AAXX 08124 67575 NIL=
201409080300 AAXX 08034 67575 NIL=
201409040900 AAXX 04094 67575 NIL=
201409040600 AAXX 04064 67575 NIL=
201409030600 AAXX 03064 67575 32975 00000 10138 20052 48/// 70500
                   333 10250 20070 5////
                   555 00///=
201409030300 AAXX 03034 67575 NIL=
201409020600 AAXX 02064 67575 32975 11403 10150 20063 48/// 70500 81030
                   333 10255 20176 5//// 81360
                   555 00///=
201409011200 AAXX 01124 67575 NIL=
201409010600 AAXX 01064 67575 32475 11404 10153 20083 48/// 70500 81500
                   333 10290 20110 5//// 81612
                   555 00///=

################################################################################
#  SYNOPS from 67580, Msekera (Zambia) | 13-39S | 032-34E | 1025 m
################################################################################
201410010600 AAXX 01064 67580 41975 00903 10290 20107 48/// 70500
                   333 10347 20/// 59012=
201409290600 AAXX 29064 67580 31980 00903 10276 20114 48/// 70500
                   333 20/// 59008=
201409260600 AAXX 26064 67580 31975 01603 10260 20114 48/// 70500
                   333 10323 20/// 59011
                   555 00///=
201409251200 AAXX 25124 67580 41875 21604 10314 20073 48/// 70500 82100
                   333 5//// 82857=
201409250600 AAXX 25064 67580 31975 01503 10232 20067 48/// 70500
                   333 10314 20/// 59017
                   555 00///=
201409241200 AAXX 24124 67580 NIL=
201409240900 AAXX 24094 67580 41675 30902 10289 20093 48/// 70500 83100
                   333 59001 83840=
201409240600 AAXX 24064 67580 31975 01503 10224 20105 48/// 70500
                   333 10300 20/// 58004
                   555 00///=
201409230900 AAXX 23094 67580 41675 31504 10259 20121 48/// 70500 83100
                   333 59001 83834=
201409230600 AAXX 23064 67580 31975 12003 10200 20132 48/// 70500 81031
                   333 10287 20/// 59004 81361 81080
                   555 00///=
201409180900 AAXX 18094 67580 NIL=
201409180600 AAXX 18064 67580 31975 00902 10269 20099 48/// 70500
                   333 10330 20/// 59013
                   555 00///=
201409160600 AAXX 16064 67580 31975 01204 10258 20115 48/// 70500
                   333 10335 20/// 59002
                   555 00///=
201409131500 AAXX 13154 67580 NIL=
201409111200 AAXX 11124 67580 41875 10904 10330 20110 48/// 70500 81100
                   333 58005 81857=
201409110600 AAXX 11064 67580 NIL=
201409100900 AAXX 10094 67580 41970 01004 10290 20119 48/// 70500
                   333 59030=
201409090900 AAXX 09094 67580 NIL=
201409090600 AAXX 09064 67580 31975 71004 10220 20123 48/// 70522 87030
                   333 10298 20/// 59008 87360
                   555 00///=
201409081500 AAXX 08154 67580 NIL=
201409081200 AAXX 08124 67580 41775 70904 10271 20126 48/// 70522 878//
                   333 58002 82856 87657=
201409080300 AAXX 08034 67580 NIL=
201409040900 AAXX 04094 67580 NIL=
201409040600 AAXX 04064 67580 31980 21208 10180 20089 48/// 70511 82030
                   333 10264 20/// 58002 82361
                   555 00///=
201409030600 AAXX 03064 67580 31475 11510 10174 20092 48/// 81130
                   333 10250 20/// 58001 81814 81361
                   555 00///=
201409030300 AAXX 03034 67580 NIL=
201409011200 AAXX 01124 67580 NIL=
201409010600 AAXX 01064 67580 31970 21507 10169 20074 48/// 70500 82030
                   333 10265 20/// 58001 82360
                   555 00///=

################################################################################
#  SYNOPS from 67581, Chipata (Zambia) | 13-33S | 032-35E | 1028 m
################################################################################
201410010600 AAXX 01064 67581 NIL=
201409290600 AAXX 29064 67581 31970 01604 10259 20102 48557 70500
                   333 10335 20194 59008
                   555 00197 91021=
201409260600 AAXX 26064 67581 31970 00406 10256 20102 48559 70500
                   333 10320 20148 59010
                   555 00152 91021=
201409241200 AAXX 24124 67581 41670 40903 10300 20072 48554 70522 84100
                   333 58001 84840 91019=
201409240900 AAXX 24094 67581 41670 30204 10290 20084 48593 70500 83100
                   333 58001 83840 91023=
201409240600 AAXX 24064 67581 31970 01607 10214 20092 48575 70500
                   333 10296 20154 58004
                   555 00156 91023=
201409230900 AAXX 23094 67581 NIL=
201409230600 AAXX 23064 67581 31960 01806 10192 20123 48567 70500
                   333 10285 20146 59011
                   555 00156 91023=
201409180900 AAXX 18094 67581 41960 10904 10300 20059 48547 70500 80001
                   333 5//// 81080 91019=
201409180600 AAXX 18064 67581 31970 00403 10250 20071 48544 70500
                   333 10322 20175 5////
                   555 00151 91019=
201409160600 AAXX 16064 67581 NIL=
201409131500 AAXX 13154 67581 NIL=
201409121200 AAXX 12124 67581 41960 01304 10320 20043 48/// 70500
                   333 5//// 9////=
201409110600 AAXX 11064 67581 NIL=
201409100900 AAXX 10094 67581 NIL=
201409090900 AAXX 09094 67581 41560 30904 10270 20123 48/// 70500
                   333 5//// 82830 82360 9////=
201409090600 AAXX 09064 67581 NIL=
201409081500 AAXX 08154 67581 42980 61604 10250 20137 48/// 86030
                   333 5//// 86360=
201409081200 AAXX 08124 67581 42580 71205 10260 20131 48/// 8413/
                   333 5//// 84835 87360 9////=
201409080300 AAXX 08034 67581 NIL=
201409040900 AAXX 04094 67581 NIL=
201409040600 AAXX 04064 67581 NIL=
201409030600 AAXX 03064 67581 31960 01308 10175 20096 48/// 70500
                   333 10251 20120 5////
                   555 9////=
201409030300 AAXX 03034 67581 NIL=
201409011200 AAXX 01124 67581 NIL=
201409010600 AAXX 01064 67581 NIL=

################################################################################
#  SYNOPS from 67583, Lundazi (Zambia) | 12-17S | 033-12E | 1143 m
################################################################################
201410010600 AAXX 01064 67583 NIL=
201409241200 AAXX 24124 67583 NIL=
201409230900 AAXX 23094 67583 NIL=
201409180900 AAXX 18094 67583 NIL=
201409160600 AAXX 16064 67583 41975 02403 10235 20138 70500
                   333 10305 20/// 58003
                   555 00///=
201409131500 AAXX 13154 67583 NIL=
201409110600 AAXX 11064 67583 NIL=
201409100900 AAXX 10094 67583 NIL=
201409090900 AAXX 09094 67583 NIL=
201409090600 AAXX 09064 67583 31975 11205 10234 20119 70510 81030
                   333 10285 20/// 5//// 81360
                   555 00///=
201409081500 AAXX 08154 67583 NIL=
201409081200 AAXX 08124 67583 NIL=
201409080300 AAXX 08034 67583 NIL=
201409060600 AAXX 06064 67583 31978 01803 10204 20127 70500
                   333 10280 20/// 5////
                   555 00///=
201409040900 AAXX 04094 67583 41675 11204 10235 20096 70500 81100
                   333 58007 81830=
201409040600 AAXX 04064 67583 31975 31504 10180 20110 70510 83030
                   333 10275 20/// 58002 83360
                   555 00///=
201409030600 AAXX 03064 67583 41975 00903 10170 20087 70500
                   333 10270 20/// 59001
                   555 00///=
201409030300 AAXX 03034 67583 NIL=
201409011200 AAXX 01124 67583 NIL=
201409010600 AAXX 01064 67583 31975 31502 10185 20115 70521 83030
                   333 10250 20/// 59002 83360
                   555 00///=

################################################################################
#  SYNOPS from 67599, Mfuwe (Zambia) | 13-16S | 031-56E | 568 m
################################################################################
201410010600 AAXX 01064 67599 31956 00000 10272 20117 48533 70544
                   333 10386 20162 59010
                   555 00148 91016=
201409290600 AAXX 29064 67599 31958 00904 10272 20113 48554 70500
                   333 10375 20164 59006
                   555 00168 91018=
201409260600 AAXX 26064 67599 31956 01506 10260 20130 48557 70500
                   333 10366 20155 59012
                   555 00138 91019=
201409250600 AAXX 25064 67599 32975 01802 10242 20078 48561 70200
                   333 10357 20155 59023
                   555 00135 91020=
201409241200 AAXX 24124 67599 NIL=
201409230900 AAXX 23094 67599 NIL=
201409230600 AAXX 23064 67599 31980 01708 10232 20139 48564
                   333 10333 20200 59003
                   555 00184 91022=
201409180900 AAXX 18094 67599 NIL=
201409180600 AAXX 18064 67599 31950 00000 10226 20114 48534 70544
                   333 10368 20150 555 00145 91018=
201409160600 AAXX 16064 67599 31975 00607 10265 20154 48570 70500
                   333 10378 20165 58000
                   555 00155 91020=
201409131500 AAXX 13154 67599 NIL=
201409110600 AAXX 11064 67599 31957 01007 10250 20138 48553 70500
                   333 10365 20165 59008 91019=
201409100900 AAXX 10094 67599 NIL=
201409100600 AAXX 10064 67599 31958 00902 10236 20137 48557 70544
                   333 10342 20145 59019
                   555 00148 91020=
201409090900 AAXX 09094 67599 NIL=
201409090600 AAXX 09064 67599 32980 40000 10252 20176 48570 70122 84030
                   333 10348 20206 59013 84360
                   555 00210 91022=
201409081500 AAXX 08154 67599 NIL=
201409081200 AAXX 08124 67599 NIL=
201409080300 AAXX 08034 67599 NIL=
201409050600 AAXX 05064 67599 32980 01803 10205 20126 48575
                   333 10310 20136 58001
                   555 00130 91023=
201409040900 AAXX 04094 67599 NIL=
201409040600 AAXX 04064 67599 32980 11805 10206 20120 48575 70200 81050
                   333 10314 20170 58001 81362
                   555 00155 91023=
201409030600 AAXX 03064 67599 31970 01805 10202 20096 48570 70500
                   333 10294 20100 59004 91023=
201409030300 AAXX 03034 67599 NIL=
201409020600 AAXX 02064 67599 31970 01805 10196 20101 48570 70500
                   333 10307 20142 59004
                   555 00124 91023=
201409011200 AAXX 01124 67599 NIL=
201409010600 AAXX 01064 67599 NIL=

################################################################################
#  SYNOPS from 67625, Kalabo (Zambia) | 14-51S | 022-42E | 1033 m
################################################################################
201410010600 AAXX 01064 67625 NIL=
201409241200 AAXX 24124 67625 NIL=
201409230900 AAXX 23094 67625 NIL=
201409180900 AAXX 18094 67625 NIL=
201409160600 AAXX 16064 67625 NIL=
201409131500 AAXX 13154 67625 NIL=
201409110600 AAXX 11064 67625 NIL=
201409100900 AAXX 10094 67625 NIL=
201409090900 AAXX 09094 67625 NIL=
201409090600 AAXX 09064 67625 NIL=
201409081500 AAXX 08154 67625 NIL=
201409081200 AAXX 08124 67625 NIL=
201409080300 AAXX 08034 67625 NIL=
201409040900 AAXX 04094 67625 NIL=
201409040600 AAXX 04064 67625 NIL=
201409030600 AAXX 03064 67625 NIL=
201409030300 AAXX 03034 67625 NIL=
201409011200 AAXX 01124 67625 NIL=
201409010600 AAXX 01064 67625 NIL=

################################################################################
#  SYNOPS from 67633, Mongu (Zambia) | 15-15S | 023-09E | 1052 m
################################################################################
201410010600 AAXX 01064 67633 32980 01810 10253 20023 48511
                   333 10385 20177 58001 91017=
201409290600 AAXX 29064 67633 31980 43602 10230 20136 48518 70500 84031
                   333 10360 20183 58011 84360 82080 91018=
201409260600 AAXX 26064 67633 32980 00905 10229 20041 48520 70200
                   333 10356 20180 59021 91018=
201409241200 AAXX 24124 67633 NIL=
201409240600 AAXX 24064 67633 31960 00906 10218 20080 48542
                   333 10345 20171 58009 91020=
201409230900 AAXX 23094 67633 NIL=
201409180900 AAXX 18094 67633 NIL=
201409180600 AAXX 18064 67633 32980 00903 10219 20063 48515 70200
                   333 10370 20189 58004 91018=
201409170600 AAXX 17064 67633 32980 00907 10230 20097 48513 70200
                   333 10360 20185 59028 91017=
201409160600 AAXX 16064 67633 NIL=
201409131500 AAXX 13154 67633 NIL=
201409120600 AAXX 12064 67633 32980 01803 10204 20129 48523 69984 70512 84030
                   333 10270 20/// 59004 84360=
201409110600 AAXX 11064 67633 NIL=
201409100900 AAXX 10094 67633 NIL=
201409090900 AAXX 09094 67633 NIL=
201409090600 AAXX 09064 67633 31980 00903 10208 20080 48547 70500
                   333 10335 20155 59018 91021=
201409081500 AAXX 08154 67633 NIL=
201409081200 AAXX 08124 67633 NIL=
201409080600 AAXX 08064 67633 31980 01003 10210 20080 48564 70500
                   333 10325 20140 58000 91023=
201409080300 AAXX 08034 67633 NIL=
201409050600 AAXX 05064 67633 31980 00905 10175 20088 48548 70500
                   333 10299 20137 59002 91022=
201409040900 AAXX 04094 67633 NIL=
201409040600 AAXX 04064 67633 32980 00804 10172 20048 48546 70200
                   333 10298 20105 59001 91022=
201409030600 AAXX 03064 67633 NIL=
201409030300 AAXX 03034 67633 NIL=
201409020600 AAXX 02064 67633 32980 00904 10184 20062 48557 70200
                   333 10320 20132 58104 91023=
201409011200 AAXX 01124 67633 NIL=
201409010600 AAXX 01064 67633 32980 00913 10171 20087 48537 70500
                   333 10316 20150 58012 91021=

################################################################################
#  SYNOPS from 67641, Kaoma (Zambia) | 14-48S | 024-48E | 1213 m
################################################################################
201410010600 AAXX 01064 67641 NIL=
201409290600 AAXX 29064 67641 31975 00000 10187 20116 48507 70500
                   333 10335 20148 58002 91017=
201409260600 AAXX 26064 67641 31975 00000 10182 20080 48515 70500
                   333 10345 20126 59008 91018=
201409241200 AAXX 24124 67641 NIL=
201409230900 AAXX 23094 67641 NIL=
201409220600 AAXX 22064 67641 31975 01204 10195 20124 48527 70500
                   333 10346 20152 58031 91020=
201409190600 AAXX 19064 67641 31975 30702 10179 20111 48517 70500 83030
                   333 10357 20108 58017 91018=
201409180900 AAXX 18094 67641 NIL=
201409180600 AAXX 18064 67641 31975 00000 10180 20067 48501 70500
                   333 10352 20138 59007 91017=
201409160600 AAXX 16064 67641 31975 00000 10180 20120 48525 70500
                   333 10340 20145 58000 91020=
201409150600 AAXX 15064 67641 31975 00000 10185 20120 48525 70500
                   333 10337 20146 58013 91020=
201409131500 AAXX 13154 67641 NIL=
201409110600 AAXX 11064 67641 NIL=
201409100900 AAXX 10094 67641 NIL=
201409100600 AAXX 10064 67641 31975 01802 10186 20108 48505 70500
                   333 10320 20133 59039
                   555 00/// 91017=
201409090900 AAXX 09094 67641 NIL=
201409090600 AAXX 09064 67641 31975 00902 10175 20088 48542 70500
                   333 10318 20115 59013
                   555 00/// 91022=
201409081500 AAXX 08154 67641 NIL=
201409081200 AAXX 08124 67641 NIL=
201409080600 AAXX 08064 67641 31975 01201 10145 20080 48549 70500
                   333 10304 20102 58008
                   555 00/// 91023=
201409080300 AAXX 08034 67641 NIL=
201409040900 AAXX 04094 67641 NIL=
201409040600 AAXX 04064 67641 31975 00702 10145 20101 48520 70500
                   333 10282 20076 58001
                   555 00/// 91020=
201409030600 AAXX 03064 67641 31975 00906 10145 20030 48520 70500
                   333 10283 20073 59001
                   555 00/// 91020=
201409030300 AAXX 03034 67641 NIL=
201409011200 AAXX 01124 67641 NIL=
201409010600 AAXX 01064 67641 31975 00604 10165 20082 48543 70500
                   333 10300 20119 58015
                   555 00/// 91022=

################################################################################
#  SYNOPS from 67655, Mumbwa (Zambia) | 15-04S | 027-11E | 1216 m
################################################################################
201410010600 AAXX 01064 67655 NIL=
201409241200 AAXX 24124 67655 NIL=
201409240900 AAXX 24094 67655 42980 00905 10295 20059 48548 70200
                   333 58002 91020=
201409230900 AAXX 23094 67655 NIL=
201409180900 AAXX 18094 67655 NIL=
201409160600 AAXX 16064 67655 32980 00908 10226 20100 48565
                   333 10332 20/// 59006 91023=
201409131500 AAXX 13154 67655 NIL=
201409110600 AAXX 11064 67655 NIL=
201409100900 AAXX 10094 67655 NIL=
201409090900 AAXX 09094 67655 NIL=
201409090600 AAXX 09064 67655 NIL=
201409081500 AAXX 08154 67655 NIL=
201409081200 AAXX 08124 67655 NIL=
201409080300 AAXX 08034 67655 NIL=
201409040900 AAXX 04094 67655 NIL=
201409040600 AAXX 04064 67655 NIL=
201409030600 AAXX 03064 67655 NIL=
201409030300 AAXX 03034 67655 NIL=
201409011200 AAXX 01124 67655 NIL=
201409010600 AAXX 01064 67655 NIL=

################################################################################
#  SYNOPS from 67659, Kafue Polder (Zambia) | 15-46S | 027-55E | 978 m
################################################################################
201410010600 AAXX 01064 67659 NIL=
201409241200 AAXX 24124 67659 NIL=
201409230900 AAXX 23094 67659 NIL=
201409180900 AAXX 18094 67659 NIL=
201409160600 AAXX 16064 67659 NIL=
201409131500 AAXX 13154 67659 NIL=
201409110600 AAXX 11064 67659 NIL=
201409100900 AAXX 10094 67659 NIL=
201409090900 AAXX 09094 67659 NIL=
201409090600 AAXX 09064 67659 NIL=
201409081500 AAXX 08154 67659 NIL=
201409081200 AAXX 08124 67659 NIL=
201409080300 AAXX 08034 67659 NIL=
201409040900 AAXX 04094 67659 NIL=
201409040600 AAXX 04064 67659 NIL=
201409030600 AAXX 03064 67659 NIL=
201409030300 AAXX 03034 67659 NIL=
201409011200 AAXX 01124 67659 NIL=
201409010600 AAXX 01064 67659 NIL=

################################################################################
#  SYNOPS from 67662, Kabwe Agric (Zambia) | 14-24S | 028-30E | 1165 m
################################################################################
201410010600 AAXX 01064 67662 NIL=
201409241200 AAXX 24124 67662 NIL=
201409230900 AAXX 23094 67662 NIL=
201409180900 AAXX 18094 67662 NIL=
201409160600 AAXX 16064 67662 NIL=
201409131500 AAXX 13154 67662 NIL=
201409110600 AAXX 11064 67662 NIL=
201409100900 AAXX 10094 67662 NIL=
201409100600 AAXX 10064 67662 11970 70502 10152 20132 69904 70522 87030
                   333 10272 20/// 5//// 87360
                   555 00///=
201409090900 AAXX 09094 67662 NIL=
201409090600 AAXX 09064 67662 NIL=
201409081500 AAXX 08154 67662 NIL=
201409081200 AAXX 08124 67662 NIL=
201409080300 AAXX 08034 67662 NIL=
201409040900 AAXX 04094 67662 NIL=
201409040600 AAXX 04064 67662 NIL=
201409030600 AAXX 03064 67662 NIL=
201409030300 AAXX 03034 67662 NIL=
201409011200 AAXX 01124 67662 NIL=
201409010600 AAXX 01064 67662 NIL=

################################################################################
#  SYNOPS from 67663, Kabwe (Zambia) | 14-27S | 028-28E | 1206 m
################################################################################
201410010600 AAXX 01064 67663 NIL=
201409241200 AAXX 24124 67663 NIL=
201409230900 AAXX 23094 67663 NIL=
201409180900 AAXX 18094 67663 NIL=
201409160600 AAXX 16064 67663 NIL=
201409131500 AAXX 13154 67663 NIL=
201409110600 AAXX 11064 67663 NIL=
201409100900 AAXX 10094 67663 NIL=
201409090900 AAXX 09094 67663 NIL=
201409090600 AAXX 09064 67663 NIL=
201409081500 AAXX 08154 67663 NIL=
201409081200 AAXX 08124 67663 NIL=
201409080300 AAXX 08034 67663 NIL=
201409040900 AAXX 04094 67663 NIL=
201409040600 AAXX 04064 67663 NIL=
201409030600 AAXX 03064 67663 NIL=
201409030300 AAXX 03034 67663 NIL=
201409011200 AAXX 01124 67663 NIL=
201409010600 AAXX 01064 67663 NIL=

################################################################################
#  SYNOPS from 67665, Lusaka Internationalairport (Zambia) | 15-19S | 028-27E | 1152 m
################################################################################
201410010600 AAXX 01064 67665 NIL=
201410010300 AAXX 01034 67665 41959 00903 10155 20077 48494 70500
                   333 59017=
201409302100 AAXX 30214 67665 41959 01202 10197 20067 48512 70500
                   333 59014=
201409301800 AAXX 30184 67665 41958 01005 10262 20084 48511 70500
                   333 59009=
201409301500 AAXX 30154 67665 41958 00607 10322 20109 48503 70500
                   333 59008=
201409301200 AAXX 30124 67665 41958 00411 10328 20119 48511 70500
                   333 59010=
201409300900 AAXX 30094 67665 41960 00303 10310 20095 48531 70500
                   333 59016=
201409300600 AAXX 30064 67665 31960 00804 10240 20091 48532 70500
                   333 10340 59014=
201409300300 AAXX 30034 67665 41960 01303 10174 20093 48504 70500
                   333 59006=
201409300000 AAXX 30004 67665 41960 01202 10184 20117 48506 70500
                   333 59008=
201409292100 AAXX 29214 67665 41960 01304 10205 20105 48519 70500 89004=
201409291800 AAXX 29184 67665 41960 01203 10241 20136 48518 70500
                   333 59008=
201409291500 AAXX 29154 67665 41960 00603 10318 20126 48511 70500
                   333 59001=
201409291200 AAXX 29124 67665 41960 00607 10327 20129 48521 70500
                   333 58001=
201409290900 AAXX 29094 67665 41960 00612 10304 20137 48548 70500
                   333 59001=
201409290600 AAXX 29064 67665 31960 00902 10239 20099 48547 70500
                   333 10343 20//0 59001=
201409290000 AAXX 29004 67665 41970 01504 10181 20066 47518 70500
                   333 58005=
201409282100 AAXX 28214 67665 41970 01304 10209 20071 48531 70500
                   333 58000 91020=
201409281800 AAXX 28184 67665 41960 01502 10240 20068 48523 70500
                   333 58008=
201409281500 AAXX 28154 67665 41960 20607 10325 20107 48512 70500 82030
                   333 58003=
201409281200 AAXX 28124 67665 41670 10332 20102 48514 70500 81100
                   333 59003 81835=
201409280900 AAXX 28094 67665 41960 00404 10298 20095 48549 70500
                   333 58005=
201409280600 AAXX 28064 67665 31960 01003 10230 20089 48543 70500
                   333 59006=
201409280300 AAXX 28034 67665 41960 01303 10159 20094 48518 70500
                   333 58001=
201409280000 AAXX 28004 67665 41970 01303 10183 20093 48514 70500
                   333 59009=
201409272100 AAXX 27214 67665 41970 01304 10199 20080 48529 70500
                   333 59000=
201409271800 AAXX 27184 67665 41970 01004 10246 20101 48519 70500
                   333 10330 59003=
201409271500 AAXX 27154 67665 41970 10805 10314 20097 48510 70500 81030
                   333 59009 81360=
201409271200 AAXX 27124 67665 41970 01107 10314 20074 48520 70500
                   333 59009=
201409261800 AAXX 26184 67665 41975 01205 10220 20074 48518 70500
                   333 59019=
201409261500 AAXX 26154 67665 41975 01009 10303 20104 48516 70500
                   333 59016=
201409261200 AAXX 26124 67665 41975 00912 10313 20107 48529 70500
                   333 59013=
201409260600 AAXX 26064 67665 31960 01104 10211 20072 48538 70500
                   333 10310 20//0 59013=
201409252100 AAXX 25214 67665 41960 01305 10174 20093 48539 70500
                   333 59009=
201409251800 AAXX 25184 67665 41960 01008 10208 20103 48529 70500
                   333 59013=
201409251500 AAXX 25154 67665 41960 10907 10290 20140 48531 70500 80001
                   333 59009 81080=
201409251200 AAXX 25124 67665 41960 10804 10294 20145 48540 70500 80001
                   333 59004 81080=
201409250600 AAXX 25064 67665 31970 00908 10202 20716 48558 70500
                   333 10300 20//0 59012=
201409250300 AAXX 25034 67665 41970 01002 10119 20070 48535 70500
                   333 59012=
201409242100 AAXX 24214 67665 41970 00902 10153 20055 48545 70500
                   333 59010=
201409241200 AAXX 24124 67665 NIL=
201409240900 AAXX 24094 67665 41980 06005 10251 20096 48573 70500
                   333 59009=
201409232100 AAXX 23214 67665 41970 01202 10153 20066 48549 70500
                   333 58007=
201409231800 AAXX 23184 67665 41970 01104 10195 20099 48554 70500
                   333 58002=
201409231500 AAXX 23154 67665 41760 21105 10264 20125 48543 70500 82100
                   333 59003 82856=
201409230900 AAXX 23094 67665 41660 30608 10235 20137 48582 70511 83800
                   333 58013 81830 82635=
201409230600 AAXX 23064 67665 31959 10911 10189 20125 48577 70500 81500
                   333 10295 20//0 58005 81615=
201409230300 AAXX 23034 67665 41960 01006 10152 20082 48546 70500
                   333 59010 91022=
201409222100 AAXX 22214 67665 41960 01208 10178 20065 48552 70500
                   333 59004 91023=
201409221800 AAXX 22184 67665 41970 00905 10196 20064 48541 70500
                   333 58002=
201409221500 AAXX 22154 67665 40980 00909 10257 20105 48545 70110
                   333 58009=
201409221200 AAXX 22124 67665 41770 60709 10279 20114 48548 70510 86100
                   333 58008 86855=
201409220900 AAXX 22094 67665 41960 00710 10253 20115 48514 70500
                   333 58003=
201409220300 AAXX 22034 67665 41959 01505 10145 20094 48550 70500
                   333 58020=
201409212100 AAXX 21214 67665 41959 01007 10170 20088 48554 70500
                   333 58015=
201409211800 AAXX 21184 67665 41959 01007 10212 20098 48551 70500
                   333 10295 58018=
201409211500 AAXX 21154 67665 41959 00912 10274 20099 48538 70350
                   333 58016=
201409211200 AAXX 21124 67665 41959 00611 10279 20099 48542 70500
                   333 58021=
201409210900 AAXX 21094 67665 41959 00916 10245 20110 48560 70500
                   333 58022=
201409210600 AAXX 21064 67665 31959 00912 10215 20139 48566 70500
                   333 58024=
201409202100 AAXX 20214 67665 41959 01003 10203 20096 48544 70500
                   333 58023=
201409201800 AAXX 20184 67665 41958 01005 10227 20092 48538 70500
                   333 58018=
201409201500 AAXX 20154 67665 41959 00912 10305 20095 48527 70500
                   333 58014=
201409201200 AAXX 20124 67665 41960 00614 10325 20102 48524 70500
                   333 58013=
201409200900 AAXX 20094 67665 41959 00514 10304 20105 48550 70500
                   333 58014=
201409200600 AAXX 20064 67665 31958 00704 10226 20052 48541 70500
                   333 10355 20/// 58009=
201409200000 AAXX 20004 67665 41959 02203 10175 20072 48504 70500
                   333 59010=
201409191500 AAXX 19154 67665 41960 21203 10336 20131 48515 70500 80001
                   333 58002 82080=
201409191200 AAXX 19124 67665 41960 30303 10337 20097 48515 70500 83030
                   333 58000 83360=
201409190900 AAXX 19094 67665 41957 30502 10321 20108 48543 70500 80001
                   333 58001 83080=
201409190600 AAXX 19064 67665 31950 32903 10202 20096 48532 70500 83031
                   333 10326 20/// 58005 81360 83031=
201409190300 AAXX 19034 67665 41958 01002 10138 20121 48507 70500
                   333 59002=
201409181800 AAXX 18184 67665 41958 01203 10240 20066 48520 70500
                   333 58003=
201409181200 AAXX 18124 67665 41958 01206 10321 20080 48514 70500
                   333 59005=
201409180900 AAXX 18094 67665 41958 00805 10293 20093 48538 70500
                   333 59012=
201409180600 AAXX 18064 67665 31958 00502 10227 20075 48453
                   333 10331 20//0 59022=
201409180300 AAXX 18034 67665 42980 01703 10156 20108 48511 70200
                   333 59014=
201409180000 AAXX 18004 67665 41975 01404 10180 20103 48509 70200
                   333 59020=
201409172100 AAXX 17214 67665 41960 00803 10180 20103 48517 70500
                   333 59022=
201409171500 AAXX 17154 67665 41959 00706 10300 20060 48509 70500
                   333 59023=
201409170900 AAXX 17094 67665 41959 00507 10288 20151 48550 70500
                   333 59012=
201409170600 AAXX 17064 67665 31959 00905 10226 20168 48553 70500
                   333 10322 20//0 59016=
201409170000 AAXX 17004 67665 42980 01405 10184 20104 48528 70200
                   333 59013=
201409162100 AAXX 16214 67665 42980 00708 10181 20095 48538 70200
                   333 59010=
201409161800 AAXX 16184 67665 41970 01204 10226 20118 48549 70500
                   333 59008=
201409161500 AAXX 16154 67665 41970 01008 10303 20126 48532 70500
                   333 59010=
201409161200 AAXX 16124 67665 41670 11108 10307 20121 48540 70500 81100
                   333 59007 81840=
201409160900 AAXX 16094 67665 41670 10907 10280 20122 48569 70500 81100
                   333 59003 81840=
201409160600 AAXX 16064 67665 NIL=
201409160300 AAXX 16034 67665 42980 01204 10165 20102 48541
                   333 59003=
201409160000 AAXX 16004 67665 42980 00804 10177 20105 48540
                   333 59005=
201409152100 AAXX 15214 67665 41960 01304 10192 20104 48549 70500
                   333 59002=
201409151800 AAXX 15184 67665 41775 01005 10231 20112 48546 70500
                   333 10321 59001=
201409151500 AAXX 15154 67665 41975 00707 10302 20090 48542 70500
                   333 58001=
201409151200 AAXX 15124 67665 41775 10807 10305 20151 48547 70500 8100/
                   333 58002 81850=
201409150900 AAXX 15094 67665 41765 10913 10280 20137 48572 70500 81100
                   333 58002 81856=
201409141800 AAXX 14184 67665 41959 01206 10203 20060 48544 70500
                   333 58004=
201409141500 AAXX 14154 67665 41959 01915 10282 48539 70500
                   333 10327 20/// 58009=
201409141200 AAXX 14124 67665 41959 00914 10293 20088 48543 70500
                   333 58006=
201409140600 AAXX 14064 67665 31959 00905 10196 20085 48565 70500
                   333 10327 20//0 58016=
201409131500 AAXX 13154 67665 NIL=
201409131200 AAXX 13124 67665 41959 01210 10313 20127 48539 70500
                   333 58002=
201409130900 AAXX 13094 67665 41959 01012 10282 20106 48560 70500
                   333 58002=
201409130600 AAXX 13064 67665 31959 01107 10222 20141 48552 70500
                   333 10335 20//0 58003=
201409121800 AAXX 12184 67665 41959 00903 10231 20082 48537 70500
                   333 10335 59003=
201409121200 AAXX 12124 67665 41959 01210 10317 20114 48539 70500
                   333 59003=
201409120900 AAXX 12094 67665 41959 00811 10285 20100 48560 70500
                   333 59007=
201409120600 AAXX 12064 67665 31959 01006 10220 20098 48549 70500
                   333 10330 20//0 58000=
201409120300 AAXX 12034 67665 42980 01503 10156 20103 48527 70200
                   333 58004=
201409112100 AAXX 11214 67665 42975 01503 10193 20115 48542 70200
                   333 58004=
201409111800 AAXX 11184 67665 42960 01203 10234 20070 48540
                   333 58008=
201409111500 AAXX 11154 67665 41760 10706 10300 20111 48528 70500 81100
                   333 59003 81856=
201409111200 AAXX 11124 67665 41759 10905 10300 20123 48539 70500 81100
                   333 59002 81850=
201409110900 AAXX 11094 67665 41960 00704 10274 20147 48564 70500
                   333 58000=
201409110600 AAXX 11064 67665 31959 41202 10200 20104 48547 70500 84030
                   333 10295 20/// 59003 84360=
201409110300 AAXX 11034 67665 42980 11304 10146 20091 48522 70200 81030
                   333 59008 81360=
201409110000 AAXX 11004 67665 42980 11203 10171 20120 48530 70200 81030
                   333 59005 81360=
201409102100 AAXX 10214 67665 42980 21303 10180 20120 48536 70200 82030
                   333 59028 82360=
201409101800 AAXX 10184 67665 41960 41104 10219 20156 48531 70522 84030
                   333 59021 84360=
201409101500 AAXX 10154 67665 41760 60703 10273 20121 48527 70522 81232
                   333 59019 81850 85360 84080=
201409101200 AAXX 10124 67665 41660 60507 10276 20123 48539 70500 81132
                   333 59018 81840 83360 86080=
201409100900 AAXX 10094 67665 41959 70712 10235 20116 48560 85032
                   333 59033 85362 84080=
201409100600 AAXX 10064 67665 32980 51106 10176 20106 48551 83034
                   333 10300 20//0 59020 83362 84080=
201409100300 AAXX 10034 67665 42980 31204 10143 20106 46538 83030
                   333 59023 83360=
201409092100 AAXX 09214 67665 42980 53412 10189 20119 48565 83030
                   333 59004 85360=
201409091800 AAXX 09184 67665 42780 31306 10225 20135 48553 70200 83030
                   333 10300 5//// 81957 83360=
201409091500 AAXX 09154 67665 42780 21009 10251 20105 48553 70200 81130
                   333 5//// 81856 81360=
201409091200 AAXX 09124 67665 42680 60913 10270 20105 48555 70222 86200
                   333 5//// 86842=
201409090900 AAXX 09094 67665 42680 60512 10251 20120 48580 86200
                   333 59013 86840=
201409090600 AAXX 09064 67665 NIL=
201409090300 AAXX 09034 67665 42980 01204 10147 20066 48549 70200
                   333 5////=
201409090000 AAXX 09004 67665 42980 01302 10144 20054 48548 70200
                   333 5////=
201409081500 AAXX 08154 67665 NIL=
201409081200 AAXX 08124 67665 NIL=
201409080900 AAXX 08094 67665 42680 11211 10260 20103 48595 70200 81100
                   333 59001 81830 91026=
201409080600 AAXX 08064 67665 32980 10910 10180 20095 48586 70200 81030
                   333 10280 58002=
201409080300 AAXX 08034 67665 NIL=
201409071800 AAXX 07184 67665 42980 01405 10183 20071 48566
                   333 58009=
201409071500 AAXX 07154 67665 42680 31208 10248 20080 48558 83130
                   333 10280 20/// 58009 83845 81360=
201409071200 AAXX 07124 67665 42680 61809 10264 20103 48566 70322 86200
                   333 58011 86838=
201409070900 AAXX 07094 67665 42580 41208 10232 20092 48592 70220 84100
                   333 58007 84825=
201409070600 AAXX 07064 67665 32980 11004 10174 20093 48581 70300 81030
                   333 10285 20//0 59002 81360=
201409070300 AAXX 07034 67665 42980 01003 10125 20099 48556
                   333 59001=
201409062100 AAXX 06214 67665 42980 01003 10147 20056 48567
                   333 58002=
201409061800 AAXX 06184 67665 42980 01405 10175 20072 48558
                   333 59008=
201409061500 AAXX 06154 67665 42680 30907 10237 20087 48549 85200
                   333 10/// 20/// 59008 83840=
201409061200 AAXX 06124 67665 42680 41108 10240 20108 48554 84200
                   333 59018 84845=
201409060600 AAXX 06064 67665 32580 50910 10173 20112 48583 70300 85500
                   333 10270 20/// 58003 85620=
201409060300 AAXX 06034 67665 42980 01204 10101 20061 48551 70200
                   333 58001=
201409052100 AAXX 05214 67665 42980 01704 10118 20057 48561 70200
                   333 58000=
201409051800 AAXX 05184 67665 42980 01405 10155 20056 48562
                   333 58003=
201409051500 AAXX 05154 67665 42980 30810 10227 20045 48556 83030
                   333 58002 83360=
201409051200 AAXX 05124 67665 42680 60911 10238 20088 48562 86200
                   333 58006 86845=
201409050900 AAXX 05094 67665 42680 60713 10214 20132 48582 86200
                   333 58005 86830=
201409050600 AAXX 05064 67665 32480 01010 10156 20089 48579 81100
                   333 10255 20//0 58006 81815=
201409050300 AAXX 05034 67665 42980 01204 10110 20060 48552 70200
                   333 58000=
201409050000 AAXX 05004 67665 42980 01502 10114 20064 48547 70200
                   333 58002=
201409042100 AAXX 04214 67665 42980 01602 10137 20081 48563 70200
                   333 58008=
201409041800 AAXX 04184 67665 42980 21204 10160 20096 70200 82030
                   333 58010 82360=
201409041500 AAXX 04154 67665 42780 31207 10222 20108 48552 70100 83100
                   333 58008 83850=
201409041200 AAXX 04124 67665 42680 50908 10229 20113 48555 70222 85100
                   333 58005 85835=
201409040900 AAXX 04094 67665 42680 50510 10202 20106 48576 85100
                   333 58003 85830=
201409040600 AAXX 04064 67665 NIL=
201409031500 AAXX 03154 67665 42980 00907 10231 20039 48546 70200
                   333 59004=
201409031200 AAXX 03124 67665 42770 11209 10235 20035 48547 81100
                   333 58000 81850=
201409030900 AAXX 03094 67665 41670 10911 10207 20068 48574 70500 81100
                   333 59004 81835=
201409030600 AAXX 03064 67665 NIL=
201409030300 AAXX 03034 67665 NIL=
201409021800 AAXX 02184 67665 41975 00904 10139 20094 48554 70500
                   333 59004=
201409021500 AAXX 02154 67665 41975 01708 10222 48549 70500
                   333 58003=
201409021200 AAXX 02124 67665 41975 01506 10232 20080 48550 70500
                   333 59005=
201409020900 AAXX 02094 67665 41975 00807 10199 20056 48577 70500
                   333 59004=
201409020600 AAXX 02064 67665 31980 00908 10146 20067 48568 70500
                   333 10265 20//0 59012
                   555 00///=
201409020300 AAXX 02034 67665 41970 01106 10118 20045 48545 70500
                   333 58007=
201409012100 AAXX 01214 67665 41970 01402 10132 20020 48556 70500
                   333 58001=
201409011200 AAXX 01124 67665 NIL=
201409010900 AAXX 01094 67665 41960 00510 10210 20106 48582 70500
                   333 58009=
201409010600 AAXX 01064 67665 NIL=

################################################################################
#  SYNOPS from 67666, Lusaka City Airport (Zambia) | 15-25S | 028-19E | 1280 m
################################################################################
201410010600 AAXX 01064 67666 NIL=
201409290600 AAXX 29064 67666 31980 01012 10245 20086 48540 70500
                   333 10332 20180 59003 91020=
201409260600 AAXX 26064 67666 31970 ///// 10221 20086 48543 70500
                   333 10300 20144 59011 91021=
201409250600 AAXX 25064 67666 32980 01213 10196 20050 48555
                   333 10288 20145 59018 91022=
201409241200 AAXX 24124 67666 NIL=
201409230900 AAXX 23094 67666 NIL=
201409220600 AAXX 22064 67666 31960 00914 10195 20118 48557 70500
                   333 10301 20152 5//// 91024=
201409180900 AAXX 18094 67666 NIL=
201409180600 AAXX 18064 67666 41960 00805 10225 20087 70500
                   333 20175 555 00/// 91019=
201409160600 AAXX 16064 67666 32980 30708 10211 20135 48559 83030
                   333 10304 20185 59003 83360 91023=
201409131500 AAXX 13154 67666 NIL=
201409121200 AAXX 12124 67666 42580 11211 10310 20147 48529 81100
                   333 59004 81820 91018=
201409120600 AAXX 12064 67666 31959 00906 10234 20123 48546 70500
                   333 10303 20162 59005 91021=
201409110600 AAXX 11064 67666 32980 30906 10215 20122 48543 83070
                   333 10280 20155 58000 83360 91022=
201409100900 AAXX 10094 67666 NIL=
201409090900 AAXX 09094 67666 NIL=
201409090600 AAXX 09064 67666 32980 30911 10206 20128 48569 83030
                   333 10285 20112 59014 83360 91024=
201409081500 AAXX 08154 67666 NIL=
201409081200 AAXX 08124 67666 42580 51009 10280 20115 48557 85200
                   333 58004 85825 91023=
201409080300 AAXX 08034 67666 NIL=
201409050600 AAXX 05064 67666 32480 10405 10155 20102 48565
                   333 10205 20109 58006 91025=
201409040900 AAXX 04094 67666 NIL=
201409040600 AAXX 04064 67666 NIL=
201409030600 AAXX 03064 67666 32980 10150 20050 48569
                   333 10235 20110 58001 91024=
201409030300 AAXX 03034 67666 NIL=
201409020600 AAXX 02064 67666 32980 00611 10140 20062 48560
                   333 10250 20115 58009 91024=
201409011200 AAXX 01124 67666 NIL=
201409010600 AAXX 01064 67666 32980 12008 10147 20054 48565
                   333 10254 20115 58012 91025=

################################################################################
#  SYNOPS from 67667, Mount Makulu (Zambia) | 15-33S | 028-15E | 1213 m
################################################################################
201410010600 AAXX 01064 67667 NIL=
201409241200 AAXX 24124 67667 NIL=
201409230900 AAXX 23094 67667 NIL=
201409180900 AAXX 18094 67667 NIL=
201409160600 AAXX 16064 67667 NIL=
201409131500 AAXX 13154 67667 NIL=
201409110600 AAXX 11064 67667 NIL=
201409100900 AAXX 10094 67667 NIL=
201409090900 AAXX 09094 67667 NIL=
201409090600 AAXX 09064 67667 NIL=
201409081500 AAXX 08154 67667 NIL=
201409081200 AAXX 08124 67667 NIL=
201409080300 AAXX 08034 67667 NIL=
201409040900 AAXX 04094 67667 NIL=
201409040600 AAXX 04064 67667 NIL=
201409030600 AAXX 03064 67667 NIL=
201409030300 AAXX 03034 67667 NIL=
201409011200 AAXX 01124 67667 NIL=
201409010600 AAXX 01064 67667 NIL=

################################################################################
#  SYNOPS from 67673, Petauke (Zambia) | 14-15S | 031-17E | 1035 m
################################################################################
201410010600 AAXX 01064 67673 31970 03604 10270 20085 48547 70500
                   333 10352 20212 59021
                   555 00///=
201409250600 AAXX 25064 67673 31970 00406 10230 20065 48577 70500
                   333 10309 20168 59020
                   555 00///=
201409241200 AAXX 24124 67673 41675 10301 10297 20071 48561 70500 81100
                   333 59039 81835=
201409240600 AAXX 24064 67673 31975 00903 10204 48590 70500
                   333 10292 20168 58000
                   555 00///=
201409230900 AAXX 23094 67673 NIL=
201409230600 AAXX 23064 67673 31970 00904 10200 20106 48590 70500
                   333 10277 20160 58000
                   555 00///=
201409181200 AAXX 18124 67673 41965 00502 10337 20030 48542 70500
                   333 58004=
201409180900 AAXX 18094 67673 41965 03604 10295 20050 48556 70500
                   333 59010=
201409160600 AAXX 16064 67673 NIL=
201409131500 AAXX 13154 67673 NIL=
201409111200 AAXX 11124 67673 41675 21801 10319 20088 48549 70500 82100
                   333 58002 82837=
201409110600 AAXX 11064 67673 NIL=
201409100900 AAXX 10094 67673 41970 00303 10273 20089 48573 70500
                   333 59029=
201409091200 AAXX 09124 67673 41675 60904 10280 20090 48564 86230
                   333 59010 86835 84360=
201409090900 AAXX 09094 67673 41575 50208 10270 20100 48601 84131
                   333 59009 84830 83360 82080=
201409090600 AAXX 09064 67673 31975 80503 10210 20111 48591 70522 8803/
                   333 10300 20200 59010 88360
                   555 00///=
201409081500 AAXX 08154 67673 NIL=
201409081200 AAXX 08124 67673 41675 60702 10280 20095 48574 86230
                   333 59007 86835 84360=
201409080600 AAXX 08064 67673 31975 40502 10230 20125 48604 70500 84030
                   333 10295 20175 58004 84360
                   555 00///=
201409080300 AAXX 08034 67673 NIL=
201409071200 AAXX 07124 67673 41675 50502 10278 20070 48577 70522 83130
                   333 58010 83835 85360
                   555 10295=
201409070600 AAXX 07064 67673 31975 60902 10194 20120 48592 70522 86030
                   333 10270 20163 59001 86360
                   555 00///=
201409060900 AAXX 06094 67673 41570 40902 10238 20105 48597 84100
                   333 58000 84830=
201409060600 AAXX 06064 67673 31570 20906 10186 20115 48593 70500 82100
                   333 10257 20155 58003 82825
                   555 00///=
201409041200 AAXX 04124 67673 42580 41001 10239 20045 48566 84100
                   333 58005 84829 555 10257=
201409040900 AAXX 04094 67673 42580 30709 10224 20073 48591 83100
                   333 59001 83828=
201409040600 AAXX 04064 67673 NIL=
201409031500 AAXX 03154 67673 41670 40806 10230 20065 48560 70500 84200
                   333 58005 84832 555 10250=
201409030600 AAXX 03064 67673 31970 00906 10165 20092 48587 70500
                   333 10250 20110 58000
                   555 00///=
201409030300 AAXX 03034 67673 NIL=
201409021200 AAXX 02124 67673 41970 00902 10240 20053 48560 70500
                   333 59007=
201409020600 AAXX 02064 67673 31970 00905 10165 20055 48587 70500
                   333 10259 20120 59006
                   555 00///=
201409011200 AAXX 01124 67673 41975 01103 10247 20036 48569 70500
                   333 58000=
201409010600 AAXX 01064 67673 31675 10805 10169 20054 48593 70500 81530
                   333 10232 20130 59002 81632 81360
                   555 00///=

################################################################################
#  SYNOPS from 67731, Senanga (Zambia) | 16-06S | 023-16E | 1027 m
################################################################################
201410010600 AAXX 01064 67731 NIL=
201409241200 AAXX 24124 67731 NIL=
201409230900 AAXX 23094 67731 NIL=
201409180900 AAXX 18094 67731 NIL=
201409160600 AAXX 16064 67731 NIL=
201409150600 AAXX 15064 67731 32980 010// 10235 20104 48///
                   333 10349 20168 5////=
201409131500 AAXX 13154 67731 NIL=
201409110600 AAXX 11064 67731 12980 028// 10229 20119 48/// 69904
                   333 10337 20161 5////=
201409100900 AAXX 10094 67731 NIL=
201409090900 AAXX 09094 67731 NIL=
201409090600 AAXX 09064 67731 NIL=
201409081500 AAXX 08154 67731 NIL=
201409081200 AAXX 08124 67731 NIL=
201409080300 AAXX 08034 67731 NIL=
201409040900 AAXX 04094 67731 NIL=
201409040600 AAXX 04064 67731 NIL=
201409030600 AAXX 03064 67731 NIL=
201409030300 AAXX 03034 67731 NIL=
201409011200 AAXX 01124 67731 NIL=
201409010600 AAXX 01064 67731 NIL=

################################################################################
#  SYNOPS from 67741, Sesheke (Zambia) | 17-28S | 024-18E | 949 m
################################################################################
201410010600 AAXX 01064 67741 NIL=
201409290600 AAXX 29064 67741 32980 03604 10265 20111 48517
                   333 10375 20139 58006=
201409241200 AAXX 24124 67741 NIL=
201409230900 AAXX 23094 67741 NIL=
201409180900 AAXX 18094 67741 NIL=
201409160600 AAXX 16064 67741 NIL=
201409131500 AAXX 13154 67741 NIL=
201409110600 AAXX 11064 67741 NIL=
201409100900 AAXX 10094 67741 NIL=
201409090900 AAXX 09094 67741 NIL=
201409090600 AAXX 09064 67741 NIL=
201409081500 AAXX 08154 67741 NIL=
201409081200 AAXX 08124 67741 NIL=
201409080300 AAXX 08034 67741 NIL=
201409040900 AAXX 04094 67741 NIL=
201409040600 AAXX 04064 67741 32980 01001 10140 20079 48568
                   333 10275 20046 58000
                   555 00///=
201409030600 AAXX 03064 67741 32980 00901 10130 20054 48566
                   333 10281 20029 58002
                   555 00///=
201409030300 AAXX 03034 67741 NIL=
201409011200 AAXX 01124 67741 NIL=
201409010600 AAXX 01064 67741 31670 00000 10120 20084 48555 70500
                   333 10299 20074 58017
                   555 00///=

################################################################################
#  SYNOPS from 67743, Livingstone (Zambia) | 17-49S | 025-49E | 985 m
################################################################################
201410010600 AAXX 01064 67743 NIL=
201409241200 AAXX 24124 67743 NIL=
201409240900 AAXX 24094 67743 42980 00708 10294 20052 48578 70200
                   333 59008 91023=
201409230900 AAXX 23094 67743 NIL=
201409180900 AAXX 18094 67743 NIL=
201409180600 AAXX 18064 67743 41958 02404 10227 20031 48520 70500
                   333 10363 20135 59012
                   555 00/// 91018=
201409160600 AAXX 16064 67743 NIL=
201409131500 AAXX 13154 67743 NIL=
201409110600 AAXX 11064 67743 NIL=
201409100900 AAXX 10094 67743 41975 10512 10289 20091 48561 70500 80001
                   333 59023 81080 91022=
201409090900 AAXX 09094 67743 NIL=
201409090600 AAXX 09064 67743 NIL=
201409081500 AAXX 08154 67743 NIL=
201409081200 AAXX 08124 67743 NIL=
201409080300 AAXX 08034 67743 NIL=
201409040900 AAXX 04094 67743 NIL=
201409040600 AAXX 04064 67743 NIL=
201409030600 AAXX 03064 67743 NIL=
201409030300 AAXX 03034 67743 NIL=
201409011200 AAXX 01124 67743 41975 01110 10257 20042 48568 70500
                   333 58016 91023=
201409010600 AAXX 01064 67743 31975 01008 10146 20008 48570
                   333 10285 20105 58016
                   555 00/// 91021=

################################################################################
#  SYNOPS from 67751, Magoye (Zambia) | 16-00S | 027-36E | 1018 m
################################################################################
201410010600 AAXX 01064 67751 NIL=
201409241200 AAXX 24124 67751 NIL=
201409230900 AAXX 23094 67751 NIL=
201409180900 AAXX 18094 67751 NIL=
201409160600 AAXX 16064 67751 NIL=
201409131500 AAXX 13154 67751 NIL=
201409110600 AAXX 11064 67751 NIL=
201409100900 AAXX 10094 67751 NIL=
201409090900 AAXX 09094 67751 NIL=
201409090600 AAXX 09064 67751 NIL=
201409081500 AAXX 08154 67751 NIL=
201409081200 AAXX 08124 67751 NIL=
201409080300 AAXX 08034 67751 NIL=
201409040900 AAXX 04094 67751 NIL=
201409040600 AAXX 04064 67751 NIL=
201409030600 AAXX 03064 67751 NIL=
201409030300 AAXX 03034 67751 NIL=
201409011200 AAXX 01124 67751 NIL=
201409010600 AAXX 01064 67751 NIL=

################################################################################
#  SYNOPS from 67753, Choma (Zambia) | 16-50S | 027-04E | 1213 m
################################################################################
201410010600 AAXX 01064 67753 31960 00000 10248 20079 48524 70500
                   333 10349 20156 58008=
201409290600 AAXX 29064 67753 31960 00512 10253 20084 48524 70500
                   333 10346 20166 59005=
201409250600 AAXX 25064 67753 31960 00916 10212 20055 48550 70500
                   333 10284 20114 59018=
201409241200 AAXX 24124 67753 NIL=
201409240600 AAXX 24064 67753 32960 00806 10212 20074 48569
                   333 10280 20120 58003=
201409230900 AAXX 23094 67753 NIL=
201409180900 AAXX 18094 67753 NIL=
201409180600 AAXX 18064 67753 31950 03609 10240 20064 48523 70500
                   333 10325 20130 59011
                   555 00///=
201409170600 AAXX 17064 67753 31960 00511 10242 20080 48532 70500
                   333 10312 20170 59021
                   555 00///=
201409160600 AAXX 16064 67753 31960 00617 10242 20112 48551 70500
                   333 10280 20174 59007
                   555 00///=
201409150600 AAXX 15064 67753 31960 00821 10225 20124 48560 70500
                   333 10310 20162 58004
                   555 00///=
201409131500 AAXX 13154 67753 NIL=
201409110600 AAXX 11064 67753 31960 50000 10225 20119 48551 70500 83032
                   333 10274 20135 59005 83360 82080=
201409100900 AAXX 10094 67753 NIL=
201409100600 AAXX 10064 67753 31960 60811 10199 20114 48549 70500 86030
                   333 10282 20128 59021 86360=
201409090900 AAXX 09094 67753 NIL=
201409090600 AAXX 09064 67753 31960 00633 10215 20124 48570 70500
                   333 10289 20104 59011=
201409081500 AAXX 08154 67753 NIL=
201409081200 AAXX 08124 67753 NIL=
201409080600 AAXX 08064 67753 31960 00920 10207 20103 48578 70500
                   333 10272 20090 58002=
201409080300 AAXX 08034 67753 NIL=
201409050600 AAXX 05064 67753 31560 30908 10162 20081 48574 70500 81130
                   333 10226 20082 58007 81820 82360=
201409040900 AAXX 04094 67753 NIL=
201409040600 AAXX 04064 67753 31960 11211 10151 20095 48573 70500 81040
                   333 10228 20090 58004 81360=
201409030600 AAXX 03064 67753 31960 01302 10140 20070 48562 70500
                   333 10278 20068 59004
                   555 00///=
201409030300 AAXX 03034 67753 NIL=
201409020600 AAXX 02064 67753 31960 01513 10137 20065 48572 70500
                   333 10245 20078 59005=
201409011200 AAXX 01124 67753 NIL=
201409010600 AAXX 01064 67753 31960 00714 10159 20053 48574 70500
                   333 10246 20095 58017
                   555 00///=

################################################################################
#  SYNOPS from 67855, Lupaki (Zambia) | 17-03-00S | 024-46-00E | 1000 m
################################################################################
201410010600 AAXX 01064 67855 31970 12001 10220 20005 3//// 48/// 70500 81030
                   333 20135 5//// 81360=
201409301800 AAXX 30184 67855 NIL=
201409301200 AAXX 30124 67855 41970 62803 10356 20111 3//// 48/// 70511 81032
                   333 5//// 80360 86080=
201409300600 AAXX 30064 67855 NIL=
201409291800 AAXX 29184 67855 NIL=
201409291200 AAXX 29124 67855 41970 03307 10358 20100 3//// 48/// 70500
                   333 5////=
201409290600 AAXX 29064 67855 31970 00606 10240 20098 3//// 48/// 70500
                   333 20143 5////=
201409281800 AAXX 28184 67855 NIL=
201409281200 AAXX 28124 67855 NIL=
201409280600 AAXX 28064 67855 31970 01002 10220 20078 3//// 48/// 70500
                   333 20138 5////=
201409271800 AAXX 27184 67855 NIL=
201409271200 AAXX 27124 67855 NIL=
201409270600 AAXX 27064 67855 31970 00305 10234 20069 3//// 48/// 70500
                   333 20125 5////=
201409261800 AAXX 26184 67855 NIL=
201409261200 AAXX 26124 67855 NIL=
201409260600 AAXX 26064 67855 31970 03601 10216 20046 3//// 48/// 70500
                   333 20094 5////=
201409251800 AAXX 25184 67855 NIL=
201409251200 AAXX 25124 67855 41970 01802 10328 20038 3//// 48/// 70500
                   333 5////=
201409250600 AAXX 25064 67855 31970 00000 10184 20060 3//// 48/// 70500
                   333 20091 5////=
201409241800 AAXX 24184 67855 NIL=
201409241200 AAXX 24124 67855 41970 00706 10316 20053 3//// 48/// 70500
                   333 5////=
201409240600 AAXX 24064 67855 31970 00607 10198 20063 3//// 48/// 70500
                   333 20098 5////=
201409231800 AAXX 23184 67855 NIL=
201409231200 AAXX 23124 67855 41770 30603 10314 20084 3//// 48/// 70500 83100
                   333 5//// 83850=
201409230600 AAXX 23064 67855 31970 01701 10200 20121 3//// 48/// 70500
                   333 20132 5////=
201409221800 AAXX 22184 67855 NIL=
201409221200 AAXX 22124 67855 NIL=
201409220600 AAXX 22064 67855 31970 01703 10182 20155 3//// 48/// 70500
                   333 20143 5////=
201409211800 AAXX 21184 67855 NIL=
201409211200 AAXX 21124 67855 NIL=
201409210600 AAXX 21064 67855 NIL=
201409201800 AAXX 20184 67855 NIL=
201409201200 AAXX 20124 67855 NIL=
201409200600 AAXX 20064 67855 NIL=
201409191200 AAXX 19124 67855 41970 02602 10358 20070 3//// 48/// 70500
                   333 5////=
201409190600 AAXX 19064 67855 31970 11901 10210 20025 3//// 48/// 70500 80002
                   333 20126 5//// 81080=
201409181800 AAXX 18184 67855 NIL=
201409181200 AAXX 18124 67855 41970 03101 10348 20054 3//// 48/// 70500
                   333 5////=
201409180600 AAXX 18064 67855 31970 00000 10198 20068 3//// 48/// 70500
                   333 20124 5////=
201409171200 AAXX 17124 67855 41970 00204 10346 20055 3//// 48/// 70500
                   333 5////=
201409170600 AAXX 17064 67855 31970 00701 10230 20054 3//// 48/// 70500
                   333 20123 5////=
201409161800 AAXX 16184 67855 NIL=
201409161200 AAXX 16124 67855 NIL=
201409160600 AAXX 16064 67855 NIL=
201409151200 AAXX 15124 67855 41970 03607 10328 20085 3//// 48/// 70500
                   333 5////=
201409150600 AAXX 15064 67855 31970 00603 10220 20089 3//// 48/// 70500
                   333 20138 5////=
201409141800 AAXX 14184 67855 NIL=
201409141200 AAXX 14124 67855 NIL=
201409140600 AAXX 14064 67855 31970 00705 10190 20104 3//// 48/// 70500
                   333 20133 5////=
201409131800 AAXX 13184 67855 NIL=
201409131200 AAXX 13124 67855 41770 13602 10340 20108 3//// 48/// 70500 81100
                   333 5//// 81850=
201409130600 AAXX 13064 67855 31970 00000 10194 20095 3//// 48/// 70500
                   333 20122 5////=
201409121800 AAXX 12184 67855 NIL=
201409121200 AAXX 12124 67855 41770 22004 10346 20091 3//// 48/// 70500 82500
                   333 5//// 82650=
201409120600 AAXX 12064 67855 31970 30000 10170 20091 3//// 48/// 70511 83031
                   333 20129 5//// 83360=
201409111800 AAXX 11184 67855 NIL=
201409111200 AAXX 11124 67855 42675 63402 10326 20161 3//// 48///
                   333 5//// 81645 86080=
201409110600 AAXX 11064 67855 31970 10000 10172 20077 3//// 48/// 70500 80001
                   333 20118 5//// 81080=
201409101800 AAXX 10184 67855 NIL=
201409101200 AAXX 10124 67855 42975 43601 10320 20099 3//// 48/// 80002
                   333 5//// 84080=
201409100600 AAXX 10064 67855 31970 21801 10174 20105 3//// 48/// 70500 80002
                   333 20120 5//// 82080=
201409091200 AAXX 09124 67855 41970 11803 10306 20074 3//// 48/// 70500 81100
                   333 5//// 81850=
201409090600 AAXX 09064 67855 31970 00000 10180 20080 3//// 48/// 70500
                   333 20084 5////=
201409081800 AAXX 08184 67855 NIL=
201409081200 AAXX 08124 67855 NIL=
201409080600 AAXX 08064 67855 31970 01702 10138 20025 3//// 48/// 70500
                   333 20081 5////=
201409071800 AAXX 07184 67855 NIL=
201409071200 AAXX 07124 67855 41970 01801 10302 20063 3//// 48///
                   333 5////=
201409070600 AAXX 07064 67855 31970 00000 10140 20035 3//// 48/// 70500
                   333 20066 5////=
201409061200 AAXX 06124 67855 NIL=
201409060600 AAXX 06064 67855 31970 00000 10142 20092 3//// 48/// 70500
                   333 20089 5////=
201409051800 AAXX 05184 67855 NIL=
201409051200 AAXX 05124 67855 42775 42402 10260 20029 3//// 48/// 84100
                   333 5//// 84850=
201409050600 AAXX 05064 67855 32975 00903 10132 20058 3//// 48///
                   333 20068 5////=
201409041800 AAXX 04184 67855 NIL=
201409041200 AAXX 04124 67855 42775 11804 10248 20040 3//// 48/// 81100
                   333 5//// 81850=
201409040600 AAXX 04064 67855 31970 00901 10100 20073 3//// 48/// 70500
                   333 20049 5////=
201409031200 AAXX 03124 67855 42975 01403 10252 20020 3//// 48///
                   333 5////=
201409030600 AAXX 03064 67855 NIL=
201409021800 AAXX 02184 67855 NIL=
201409021200 AAXX 02124 67855 42975 01805 10248 20010 3//// 48///
                   333 5////=
201409020600 AAXX 02064 67855 31970 00910 10120 20048 3//// 48/// 70500
                   333 20059 5////=
201409011200 AAXX 01124 67855 42975 00603 10258 20062 3//// 48///
                   333 5////=
201409010600 AAXX 01064 67855 31970 00707 10116 20035 3//// 48/// 70500
                   333 20084 5////=
