################################################################################
# Query made at 04/14/2022 16:38:09 UTC
# Country like Zamb*
# Time interval: from 10/01/2012 05:30  to 10/31/2012 05:30  UTC
################################################################################

################################################################################
#  SYNOPS from 67441, Mwinilunga (Zambia) | 11-45S | 024-26E | 1361 m
################################################################################
201210190600 AAXX 19064 67441 ///// ///// 48/// 60151 10315 20/// 5////=
201210010600 AAXX 01064 67441 NIL=

################################################################################
#  SYNOPS from 67461, Mansa (Zambia) | 11-06S | 028-51E | 1382 m
################################################################################
201210190600 AAXX 19064 67461 31965 73602 10240 20162 48499 70522 84038
                   333 10355 20145 59005 84364 86280=
201210010600 AAXX 01064 67461 31970 20810 10190 20144 48505 70500 80002
                   333 10342 20150 59008 82080=

################################################################################
#  SYNOPS from 67475, Kasama (Zambia) | 10-13S | 031-08E | 1382 m
################################################################################
201210250600 AAXX 25064 67475 31970 61414 10235 20147 48517 70522 86030
                   333 10346 20190 58014 86360=
201210190600 AAXX 19064 67475 31970 33503 10240 20155 48507 70500 80001
                   333 10320 20174 58000 83080=
201210010600 AAXX 01064 67475 31970 61212 10235 20128 48543 70522 80001
                   333 10338 20170 58009 86080=

################################################################################
#  SYNOPS from 67477, Mpika (Zambia) | 11-54S | 031-26E | 1400 m
################################################################################
201210250600 AAXX 25064 67477 11476 71210 10195 20155 48530 69904 70522 875//
                   333 10326 20166 58024 87614=
201210190600 AAXX 19064 67477 31965 20000 10235 20097 48498 70500 80001
                   333 10346 20136 59002 82080=
201210081200 AAXX 08124 67477 42880 10806 10320 20050 48498 81100
                   333 5//// 81857=
201210010600 AAXX 01064 67477 31565 21210 10220 20118 48549 70500 82101
                   333 10310 20160 58024 82820 81080=

################################################################################
#  SYNOPS from 67531, Zambezi (Zambia) | 13-32S | 023-07E | 1077 m
################################################################################
201210290600 AAXX 29064 67531 31978 60608 10270 20130 48/// 70522 86030
                   333 10371 20173 59015 86360=
201210250600 AAXX 25064 67531 11978 73602 10215 20178 48/// 69904 70522 8703/
                   333 10274 20180 59004 87360=
201210190600 AAXX 19064 67531 31978 70905 10216 20155 48/// 70522 8707/
                   333 10326 20189 58007 87360=
201210010600 AAXX 01064 67531 31975 11504 10251 20084 48/// 70500 80002
                   333 10350 20180 59011 81081=

################################################################################
#  SYNOPS from 67541, Kasempa (Zambia) | 13-32S | 025-51E | 1234 m
################################################################################
201210301200 AAXX 30124 67541 41775 50000 10320 20147 48468 70522 85200
                   333 59013 85850=
201210290600 AAXX 29064 67541 31570 20000 10238 20124 48520 70522 81101
                   333 10//0 20180 59009 81820 81080=
201210250600 AAXX 25064 67541 31970 70000 10219 20176 48525 70522 8703/
                   333 10/// 20194 58017 87360=
201210220600 AAXX 22064 67541 11970 70000 10219 20189 48513 60084 70522 8703/
                   333 10//0 20169 58014 87360=
201210190600 AAXX 19064 67541 11970 70000 10224 20172 48482 69904 70522 8703/
                   333 10/// 20180 59009 87360=
201210010600 AAXX 01064 67541 31970 00000 10231 20157 48523 70500
                   333 10/// 20200 59001=

################################################################################
#  SYNOPS from 67561, Ndola (Zambia) | 13-00S | 028-39E | 1269 m
################################################################################
201210301200 AAXX 30124 67561 42880 60105 10328 20118 48474 86202
                   333 59017 86857 82080 91013=
201210300600 AAXX 30064 67561 31970 60000 10220 20120 48512 70522 80008
                   333 10335 20165 59015 86280=
201210250600 AAXX 25064 67561 11570 71011 10229 48528 60014 70522
                   333 10340 20196 58017 81820 82360 86280=
201210220600 AAXX 22064 67561 11956 60000 10283 20121 48576 70422 85038
                   333 10340 20180 58004 85360 85280=
201210201500 AAXX 20154 67561 41970 70000 10315 20144 48480 70522 82438
                   333 58034 81958 82658 85360 87280=
201210190600 AAXX 19064 67561 31930 30000 10229 20136 48495 70411 83031
                   333 10338 20175 59005 83360 81080=
201210180900 AAXX 18094 67561 41959 60105 10305 20088 48502 70400 80008
                   333 59009 86280=
201210121500 AAXX 12154 67561 41960 30908 10320 20109 48495 70500 83400
                   333 58012 83659 555 10335 91015=
201210081200 AAXX 08124 67561 41959 40000 10331 20097 48501 70400 84200
                   333 58011 81858=
201210070600 AAXX 07064 67561 31960 10810 10215 20096 48524 70500 80001
                   333 10335 20160 58001 81080=
201210060900 AAXX 06094 67561 41960 01210 10306 20081 48527
                   333 58006=
201210060600 AAXX 06064 67561 31960 30606 10220 20095 48523 70500 83030
                   333 10345 20170 58007 83360=
201210021200 AAXX 02124 67561 41865 61410 10314 20079 48528 70511 86200
                   333 59003 86857=
201210010900 AAXX 01094 67561 41657 60712 10279 20127 48552 70422 86200
                   333 58020 86840=
201210010600 AAXX 01064 67561 31956 01015 10234 20148 48548 70400
                   333 10347 20172 58015=

################################################################################
#  SYNOPS from 67563, Kafironda (Zambia) | 12-36S | 028-07E | 1243 m
################################################################################
201210220600 AAXX 22064 67563 31960 20902 10242 20170 48/// 70500 82030
                   333 10335 20152 58007 82360=
201210081200 AAXX 08124 67563 41660 20602 10330 20120 48/// 70500 82200
                   333 58013 82845=
201210040900 AAXX 04094 67563 41960 01207 10293 20130 48/// 70500
                   333 59001=
201210021200 AAXX 02124 67563 41670 31304 10321 20130 48/// 70500 83200
                   333 58000 83845=
201210010600 AAXX 01064 67563 31950 00906 10246 20160 48/// 70500
                   333 10350 20192 58018=

################################################################################
#  SYNOPS from 67571, Serenje (Zambia) | 13-14S | 030-13E | 1384 m
################################################################################
201210181200 AAXX 18124 67571 41675 71203 10390 20069 48455 70522 83108
                   333 59012 83845 87281=
201210010600 AAXX 01064 67571 31565 70905 10205 20173 48552 70522 875//
                   333 10335 20184 58030 87628=

################################################################################
#  SYNOPS from 67580, Msekera (Zambia) | 13-39S | 032-34E | 1025 m
################################################################################
201210290600 AAXX 29064 67580 31975 01511 10251 20124 48/// 70500
                   333 10336 20/// 59011=
201210010600 AAXX 01064 67580 31475 71208 10240 20171 48/// 70522 85531
                   333 10349 20/// 58032 85618 82360=

################################################################################
#  SYNOPS from 67581, Chipata (Zambia) | 13-33S | 032-35E | 1028 m
################################################################################
201210250600 AAXX 25064 67581 31660 51009 10226 20168 48551 70522 84530
                   333 10/// 20203 58021 84630 82360=
201210190600 AAXX 19064 67581 31960 00803 10291 20139 48507 70500
                   333 10/// 20253 59010=
201210081200 AAXX 08124 67581 41660 21205 10375 20038 48528 70500 82100
                   333 58004 82845=
201210010600 AAXX 01064 67581 31660 51209 10239 20169 48572 70522 83102
                   333 10/// 20207 58032 83835 85080=

################################################################################
#  SYNOPS from 67599, Mfuwe (Zambia) | 13-16S | 031-56E | 568 m
################################################################################
201210301200 AAXX 30124 67599 42980 61706 10370 20171 48507 70222 862//
                   333 59033 86858 91009=
201210141500 AAXX 14154 67599 42980 70506 10360 20166 48523 8707/
                   333 59012 87460=

################################################################################
#  SYNOPS from 67633, Mongu (Zambia) | 15-15S | 023-09E | 1052 m
################################################################################
201210290600 AAXX 29064 67633 32980 20903 10265 20123 48508 81031
                   333 10373 20210 59032 81360 82080=
201210250600 AAXX 25064 67633 12982 60907 10238 20173 48521 69904 85032
                   333 10335 20194 59003 85361 83080=
201210190600 AAXX 19064 67633 31980 70404 10230 20166 48485 70522 80007
                   333 10355 20206 59006 87280=
201210081200 AAXX 08124 67633 41775 12704 10355 20165 48596 70500 81100
                   333 58010 81856=
201210010600 AAXX 01064 67633 31975 31306 10247 20101 48537 70500 83030
                   333 10354 20201 59008 83361=

################################################################################
#  SYNOPS from 67641, Kaoma (Zambia) | 14-48S | 024-48E | 1213 m
################################################################################
201210250600 AAXX 25064 67641 31975 20802 10246 20176 48515 70500 82030
                   333 10300 29104 58009 82360=
201210190600 AAXX 19064 67641 31975 40602 10254 20167 48482 70500 80002
                   333 10350 20194 59004 84080=
201210010600 AAXX 01064 67641 31975 00802 10244 20137 48531 70500 10364 20185 58001=

################################################################################
#  SYNOPS from 67655, Mumbwa (Zambia) | 15-04S | 027-11E | 1216 m
################################################################################
201210290600 AAXX 29064 67655 32980 01006 10225 20129 48541
                   333 10340 20/// 58007=
201210220600 AAXX 22064 67655 11970 71210 10236 20178 48531 60234 70500 80001
                   333 10345 20//0 58992 82989=

################################################################################
#  SYNOPS from 67663, Kabwe (Zambia) | 14-27S | 028-28E | 1206 m
################################################################################
201210250600 AAXX 25064 67663 31565 80920 10194 20167 48531 70522 885//
                   333 10335 20183 58027 88627=
201210190600 AAXX 19064 67663 31965 23207 10268 20134 48483 70500 82030
                   333 10357 20202 59013 82360=
201210021200 AAXX 02124 67663 41675 11808 10355 20104 48521 70500 81100
                   333 58007 81845=
201210010600 AAXX 01064 67663 31965 00918 10226 20164 48546 70500
                   333 10350 20190 58024=

################################################################################
#  SYNOPS from 67665, Lusaka Internationalairport (Zambia) | 15-19S | 028-27E | 1152 m
################################################################################
201210301800 AAXX 30184 67665 42980 21202 10252 20073 48521 82030
                   333 58023 82080 91013=
201210301500 AAXX 30154 67665 42980 31503 10312 20081 48472 83031
                   333 59031 83360 81080
                   555 10335 91012=
201210301200 AAXX 30124 67665 42780 51204 10307 20070 48491 85200
                   333 58024 85850 91014=
201210300900 AAXX 30094 67665 42680 11207 10287 20102 48521 81101
                   333 59026 81845 81080=
201210300600 AAXX 30064 67665 32980 10708 10240 20102 48525 80001
                   333 10320 20//0 59027 81080=
201210290900 AAXX 29094 67665 42680 20709 10271 20114 48544 82200
                   333 58001 82830=
201210290600 AAXX 29064 67665 32980 00811 10230 20132 48541
                   333 10325 20//0 58000=
201210281800 AAXX 28184 67665 42980 11105 10241 20105 48524 81030
                   333 58004 81360=
201210280900 AAXX 28094 67665 42680 10910 10293 20123 48546 81100
                   333 58001 81830=
201210280600 AAXX 28064 67665 32980 00812 10251 20128 48553
                   333 10349 20//0 58006=
201210280300 AAXX 28034 67665 42980 11202 10176 20107 48526 81030
                   333 58014 81359=
201210280000 AAXX 28004 67665 42980 01603 10198 20067 48517
                   333 58012=
201210272100 AAXX 27214 67665 42980 00000 10206 20066 48524
                   333 58005=
201210271800 AAXX 27184 67665 42980 11502 10244 20030 48520 81030
                   333 10349 59001 81360=
201210271200 AAXX 27124 67665 42780 31104 10341 20062 48522 83101
                   333 59002 83856 81080=
201210251800 AAXX 25184 67665 42980 10403 10199 20164 48530 81030
                   333 10250 58008 81360=
201210251500 AAXX 25154 67665 42680 20610 10242 20164 48525 70200 81130
                   333 58019 81845 81360
                   555 10250 91019=
201210251200 AAXX 25124 67665 42680 70612 10229 20165 48533 70222 87200
                   333 58028 87832 91020=
201210250900 AAXX 25094 67665 41570 80909 10209 20170 48554 70500 881//
                   333 58031 88820=
201210250600 AAXX 25064 67665 32460 80911 10194 20171 48549 885//
                   333 10320 20/// 58026 88510=
201210241800 AAXX 24184 67665 41960 21509 10254 20163 48524 70500 80002
                   333 10320 58025 82080=
201210241500 AAXX 24154 67665 41960 31210 10297 20149 48512 70500 81032
                   333 58017 81360 83080
                   555 10320 91016=
201210241200 AAXX 24124 67665 41760 51214 10304 20149 48534 70522 82232
                   333 58014 82850 81360 83080 91017=
201210240900 AAXX 24094 67665 41960 20716 10282 20150 48533 70500 80002
                   333 58009 82080=
201210231800 AAXX 23184 67665 41960 01518 10249 20164 48504 70500
                   333 58008=
201210231200 AAXX 23124 67665 41860 51006 10333 20117 48504 70522 85230
                   333 58001 85856 81360=
201210230600 AAXX 23064 67665 31960 01306 10275 20140 48527 70500
                   333 10344 59008=
201210221200 AAXX 22124 67665 41759 50608 10333 20148 48502 70522 85200
                   333 58000 85850=
201210220600 AAXX 22064 67665 31559 41213 10263 20172 48534 70500 83130
                   333 10352 20//0 58013 82820 84360=
201210220300 AAXX 22034 67665 41960 51206 10209 20169 48513 70500 80002
                   333 58012 85080=
201210220000 AAXX 22004 67665 41960 01705 10220 20179 48506 70500
                   333 58006=
201210212100 AAXX 21214 67665 41960 22104 10253 20151 48522 70500 82030
                   333 58013 82360=
201210210600 AAXX 21064 67665 31980 61505 10261 20161 48521 70500 86030
                   333 10340 20//0 58007 83660=
201210210300 AAXX 21034 67665 41960 51902 10225 20154 48502 70522 85030
                   333 58006 85360=
201210210000 AAXX 21004 67665 41959 21805 10216 20181 48501 70500 82030
                   333 58023 82080=
201210202100 AAXX 20214 67665 41959 10304 10238 20151 48524 70500 81030
                   333 58044 81360=
201210201800 AAXX 20184 67665 41959 21803 10258 20147 48505 70500 81031
                   333 10340 58035 81360 81080=
201210201500 AAXX 20154 67665 41959 52703 10319 20129 48491 70500 83031
                   333 58034 83359 84080=
201210201200 AAXX 20124 67665 41759 63003 10324 20113 48494 70522 83102
                   333 58020 83856 86280=
201210200600 AAXX 20064 67665 31957 72706 10249 20142 48513 70522 83032
                   333 10364 20//0 58018 83360 86280=
201210200300 AAXX 20034 67665 41960 02405 10239 20120 48499 70500
                   333 58028=
201210192100 AAXX 19214 67665 41960 01802 10236 20075 48481 70500
                   333 58000=
201210191800 AAXX 19184 67665 41950 21602 10262 20075 48471 70500
                   333 59004 81360 82080=
201210191200 AAXX 19124 67665 41658 63305 10336 20081 48476 70522 82302
                   333 59006 83838 86280 91012=
201210190900 AAXX 19094 67665 41957 53003 10321 20106 48503 70500 80002
                   333 59007=
201210190600 AAXX 19064 67665 31958 33103 10253 20120 48495 70500 80001
                   333 10360 20/// 59012 83080=
201210181800 AAXX 18184 67665 41960 01603 10247 20090 48474 70500
                   333 10360 59021=
201210181500 AAXX 1815/ 67665 41960 23304 10341 20061 48470 70510 81032
                   333 59016 81360 82080
                   555 10360 91011=
201210181200 AAXX 18124 67665 41960 40505 10344 20067 48482 70522 82032
                   333 59015 82360 82080 91013=
201210180900 AAXX 18094 67665 41960 60111 10321 20070 48510 70522 82032
                   333 59090 82360 85080=
201210180600 AAXX 18064 67665 31959 60603 10250 20094 48507 70522 86032
                   333 10389 20//0 59014 86360 82080=
201210171800 AAXX 17184 67665 41960 11305 10265 20068 48497 70500 81030
                   333 59011 81360=
201210171500 AAXX 17154 67665 41960 41008 10333 20074 48486 70500 84030
                   333 59019 84360=
201210171200 AAXX 17124 67665 41760 30906 10340 20044 48498 70500 83100
                   333 59021 83856=
201210170900 AAXX 17094 67665 41960 01007 10314 20082 48518 70500
                   333 59026=
201210170600 AAXX 17064 67665 31960 00808 10266 20106 48524 70500
                   333 10340 20//0 59024=
201210161200 AAXX 16124 67665 41775 40309 10312 20117 48515 70500 84201
                   333 59006 84850 81080=
201210160900 AAXX 16094 67665 41975 00808 10293 20129 48552 70500
                   333 59006=
201210150000 AAXX 15004 67665 42980 21502 10172 20165 48508 82030
                   333 59001 82360 91018=
201210142100 AAXX 14214 67665 42980 41801 10197 20189 48531 84031
                   333 58003 84360 91080 91020=
201210141800 AAXX 14184 67665 42980 41802 10206 20183 48522 84030
                   333 10304 58003 84360=
201210141500 AAXX 14154 67665 41758 79903 10219 20189 48514 70592 81956
                   333 85857 84360 84080=
201210140600 AAXX 14064 67665 31960 50910 10226 20164 48547 70522 85030
                   333 10347 20//0 58002 85360=
201210140300 AAXX 14034 67665 41960 21006 10212 20165 48526 70500 82030
                   333 58002 82360=
201210140000 AAXX 14004 67665 41960 01207 10212 20165 48520 70500
                   333 59003=
201210132100 AAXX 13214 67665 41960 01207 10225 20179 48532 70500
                   333 58000=
201210131800 AAXX 13184 67665 41960 11007 10259 20158 48525 70500 81030
                   333 10335 59003 81360=
201210130900 AAXX 13094 67665 41959 10613 10289 20146 48550 70500 81100
                   333 58014 81848=
201210130600 AAXX 13064 67665 31970 00912 10237 20184 48546 70500
                   333 10346 20//0 58002=
201210121800 AAXX 12184 67665 41960 01209 10259 20129 48528 70500
                   333 10340 58012=
201210121500 AAXX 12154 67665 41760 20609 10232 20109 48510 70500 82200
                   333 58006 82858 555 10340 91016=
201210120900 AAXX 12094 67665 41770 10618 10307 20121 48548 70500 81100
                   333 58017 81850=
201210101800 AAXX 10184 67665 41960 11305 10256 20091 48501 70500 81030
                   333 59012 81360=
201210100600 AAXX 10064 67665 31959 00803 10254 20133 48531 70500
                   333 10318 20//0 59009=
201210100300 AAXX 10034 67665 41959 01003 10188 20110 48506 70500
                   333 59009=
201210100000 AAXX 10004 67665 41959 01402 10202 20099 48513 70500
                   333 58000=
201210092100 AAXX 09214 67665 41959 00802 10219 20106 48516 70500
                   333 59006=
201210091800 AAXX 09184 67665 41959 11203 10263 20102 48513 70500 81030
                   333 59002 81360=
201210091500 AAXX 09154 67665 41958 20305 10326 20080 48505 70500 82030
                   333 59004 82362=
201210091200 AAXX 09124 67665 41858 31504 10327 20095 48513 70500 83100
                   333 59005 83856=
201210090600 AAXX 09064 67665 31959 00703 10264 20092 48541 70500
                   333 10350 20/// 58000=
201210090300 AAXX 09034 67665 41960 01402 10198 20078 48515 70500
                   333 59001 91018=
201210082100 AAXX 08214 67665 41959 01302 10227 20085 48523 70500
                   333 58000 91019=
201210081800 AAXX 08184 67665 41958 01602 10253 20086 48514 70500
                   333 10350 58000=
201210081500 AAXX 08154 67665 41959 21003 10326 20085 48509 70500 82030
                   333 58006 82359=
201210081200 AAXX 08124 67665 41757 41005 10327 20067 48518 70522 84200
                   333 58007 84857=
201210080600 AAXX 08064 67665 31959 00905 10246 20101 48520 70500
                   333 10345 20//0 58001=
201210080300 AAXX 08034 67665 41959 01603 10180 20090 48515 70500
                   333 58004=
201210072100 AAXX 07214 67665 41959 01603 10214 20065 48521 70500
                   333 58001=
201210071800 AAXX 07184 67665 41959 01402 10244 20059 48513 70500
                   333 10335 59001=
201210071500 AAXX 07154 67665 41959 00707 10319 20014 48501 70500
                   333 59003 555 10335 91015=
201210071200 AAXX 07124 67665 41759 10906 10315 20056 48509 70500 81030
                   333 59005 81360 91016=
201210070900 AAXX 07094 67665 41959 00605 10287 20049 48536 70500
                   333 59006=
201210070600 AAXX 07064 67665 31957 00902 10244 20126 48537 70500
                   333 10340 20/// 59012=
201210061800 AAXX 06184 67665 41958 01304 10233 20040 48513 70500
                   333 10340 58007=
201210061500 AAXX 06154 67665 41960 01107 10322 20016 70500
                   333 58005 555 10340 91015=
201210061200 AAXX 06124 67665 41760 10606 10323 20055 48514 70500 81100
                   333 58013 81850 91016=
201210060900 AAXX 06094 67665 41960 10711 10287 20071 48541 70500
                   333 58010=
201210060600 AAXX 06064 67665 31958 00603 10251 20071 48541 70500
                   333 10355 20//0 58011=
201210051200 AAXX 05124 67665 41760 10304 10331 20056 48505 70500 81100
                   333 59015 81856=
201210050900 AAXX 05094 67665 41960 02602 10314 20070 48533 70500
                   333 59011=
201210050600 AAXX 05064 67665 31959 01802 10262 20064 48531 70500
                   333 10340 20//0 59014=
201210042100 AAXX 04214 67665 41970 00000 10226 20045 58517 70500
                   333 59015=
201210040900 AAXX 04094 67665 41970 20604 10303 20065 48543 70500
                   333 59022 82830=
201210040600 AAXX 04064 67665 31970 01002 10247 20091 48544 70500
                   333 10320 20//0 59026=
201210040000 AAXX 04004 67665 41958 10175 20105 48543 70500
                   333 59026=
201210031800 AAXX 03184 67665 41970 10903 10244 20098 48531 70500 81030
                   333 10320 59021 81360=
201210031200 AAXX 03124 67665 41670 40304 10304 20075 48536 70522 84200
                   333 59016 84845=
201210030600 AAXX 03064 67665 31960 01003 10217 20136 48565 70500
                   333 10314 20//0 59013=
201210030300 AAXX 03034 67665 41960 00905 10168 20143 48536 70500
                   333 59020 91021=
201210030000 AAXX 03004 67665 41960 01303 10183 20143 48539 70500
                   333 59012 91021=
201210022100 AAXX 02214 67665 41960 01302 10187 20118 48552 70500
                   333 59011 91023=
201210021800 AAXX 02184 67665 41960 01201 10228 20061 48550 70500
                   333 10314 59006=
201210021500 AAXX 02154 67665 41860 21005 10293 20087 48546 70511 85100
                   333 59006 82857=
201210021200 AAXX 02124 67665 41660 50908 10301 20100 48552 70522 85100
                   333 59005 85846=
201210020900 AAXX 02094 67665 41660 30905 10264 20145 48580 70500 83200
                   333 58010 83840=
201210020600 AAXX 02064 67665 31960 00906 10215 20160 48578 70500
                   333 10300 20//0 58009=
201210020300 AAXX 02034 67665 41960 01303 10160 20152 48554 70500
                   333 58016=
201210020000 AAXX 02004 67665 41960 01104 10174 20165 48550 70500
                   333 58021=
201210012100 AAXX 01214 67665 41960 01303 10196 20156 48563 70500
                   333 58027=
201210011800 AAXX 01184 67665 41960 01304 10226 20145 48556 70500
                   333 10300 58028=
201210011500 AAXX 01154 67665 41960 11110 10276 20131 48549 70500 81030
                   333 58033 81360 555 10300 91021=
201210011200 AAXX 01124 67665 41659 31208 10288 20136 48553 70500 83200
                   333 58036 83840 91021=
201210010900 AAXX 01094 67665 41559 50908 10260 20150 48571 70500 85100
                   333 58029 85825=
201210010600 AAXX 01064 67665 31459 31010 10214 20176 48524 70510 83500
                   333 10349 20/// 58027 83515=

################################################################################
#  SYNOPS from 67666, Lusaka City Airport (Zambia) | 15-25S | 028-19E | 1280 m
################################################################################
201210290600 AAXX 29064 67666 32980 00912 10220 20120 48541
                   333 10318 20145 58000=
201210220600 AAXX 22064 67666 11980 60908 10250 20164 48526 60014 84031
                   333 10319 20205 58013 84360 82080=
201210181200 AAXX 18124 67666 42780 40000 10330 20084 48579 81101
                   333 59010 81856 83080=
201210081200 AAXX 08124 67666 42680 30000 10315 20191 48510 83100
                   333 58009 83856=
201210040900 AAXX 04094 67666 42680 20909 10300 20135 48536 82100
                   333 59020 82850=
201210021200 AAXX 02124 67666 42680 50910 10290 20178 48543 85200
                   333 59004 85840=
201210010600 AAXX 01064 67666 31480 10907 10205 20169 48560 70500 81100
                   333 10336 20180 58024 81818=

################################################################################
#  SYNOPS from 67743, Livingstone (Zambia) | 17-49S | 025-49E | 985 m
################################################################################
201210280600 AAXX 28064 67743 32980 31011 10277 20124 48547 80303
                   333 10376 20//0 58005 83360
                   555 00/// 91019=
201210250600 AAXX 25064 67743 32980 10912 10210 20160 48542 80001
                   333 10329 20/// 58012 81080=
201210220600 AAXX 22064 67743 32980 71206 10230 20168 48523 87030
                   333 10317 20//0 58000 87360=
201210201200 AAXX 20124 67743 42980 82704 10253 20160 48500 88030
                   333 58056 88360=
201210190600 AAXX 19064 67743 11975 63407 10290 20114 48478 69904 70500 86030
                   333 10386 20/// 59017 86360=
201210180900 AAXX 18094 67743 41975 10506 10355 20113 48499 70500 81100
                   333 59036 81858=
201210111500 AAXX 11154 67743 41870 40902 10344 20100 48508 70500 84130
                   333 58026 81858 83360
                   555 10369 91014=
201210081500 AAXX 08154 67743 41980 00911 10369 20059 48502 70500
                   333 58002=
201210081200 AAXX 08124 67743 41870 10908 10380 20078 48513 70500 81100
                   333 58008 81858=
201210071200 AAXX 07124 67743 41959 01006 10362 20086 48502 70500
                   333 58003 91013=
201210070600 AAXX 07064 67743 31970 00907 10255 20012 48524 70500
                   333 10391 20194 59001=
201210060900 AAXX 06094 67743 41975 00907 10348 20082 48532 70500
                   333 58002=
201210050600 AAXX 05064 67743 31975 01003 10261 20051 48520 70500
                   333 10376 20181 59016=
201210040900 AAXX 04094 67743 41975 00705 10340 20036 48540 70500
                   333 59020=
201210021500 AAXX 02154 67743 42980 11009 10340 20066 48544 81030
                   333 58004 81360=
201210021200 AAXX 02124 67743 42880 21507 10340 20089 48558 81100
                   333 58010 82858=
201210010900 AAXX 01094 67743 41975 00810 10305 20146 48571 70500
                   333 58011=
201210010600 AAXX 01064 67743 31875 40912 10241 20138 48560 70522 82037
                   333 10357 20224 58008 82359 28080=

################################################################################
#  SYNOPS from 67753, Choma (Zambia) | 16-50S | 027-04E | 1213 m
################################################################################
201210190600 AAXX 19064 67753 31960 30506 10258 20134 48/// 70500 82031
                   333 10337 20161 5//// 82360 81080=
201210010600 AAXX 01064 67753 31960 10610 10224 20157 48/// 70500 81030
                   333 10336 20196 5//// 81360=

################################################################################
#  SYNOPS from 67855, Lupaki (Zambia) | 17-03-00S | 024-46-00E | 1000 m
################################################################################
201210301200 AAXX 30124 67855 41670 51802 10340 20075 38/// 48/// 70511 85200
                   333 5//// 85840=
201210300600 AAXX 30064 67855 31970 00603 10238 20109 3//// 48/// 70500
                   333 20155 5////=
201210291200 AAXX 29124 67855 41670 31103 10340 20101 3//// 48/// 70500 83131
                   333 5//// 83840=
201210290600 AAXX 29064 67855 31970 10602 10232 20126 3//// 48/// 70500 81031
                   333 20155 5//// 81360=
201210281200 AAXX 28124 67855 NIL=
201210241200 AAXX 24124 67855 NIL=
201210231200 AAXX 23124 67855 41970 70302 10246 20174 3//// 48/// 72162 8707/
                   333 5//// 87459=
201210211200 AAXX 21124 67855 NIL=
201210210600 AAXX 21064 67855 31970 71001 10236 20179 3//// 48/// 70511 8703/
                   333 20204 5//// 87360=
201210201200 AAXX 20124 67855 41670 73004 10336 20118 3//// 48/// 70511 83272
                   333 5//// 83840 87080=
201210191200 AAXX 19124 67855 41670 33604 10360 20124 3//// 48/// 70500 83200
                   333 5//// 83840=
201210190600 AAXX 19064 67855 31970 10101 10266 20118 3//// 48/// 70500 81030
                   333 20170 5//// 81360=
201210181200 AAXX 18124 67855 41670 43102 10370 20125 3//// 48/// 70500 84202
                   333 5//// 84840=
201210180600 AAXX 18064 67855 31970 10401 10254 20156 3//// 48/// 70500 81030
                   333 20184 5//// 81360=
201210171200 AAXX 17124 67855 41670 73301 10310 20153 3//// 48/// 70511 8113/
                   333 5//// 81840 87360=
201210170600 AAXX 17064 67855 11970 61802 10230 20161 3//// 48/// 60064 70511 86030
                   333 20170 5//// 86360=
201210161200 AAXX 16124 67855 41670 40303 10346 20148 3//// 48/// 70500 84200
                   333 5//// 84840=
201210160600 AAXX 16064 67855 31970 13603 10260 20145 38/// 48/// 70500 81030
                   333 20170 5//// 81360=
201210151200 AAXX 15124 67855 41670 50302 10320 20148 38/// 48/// 70511 85200
                   333 5//// 85840=
201210150600 AAXX 15064 67855 31970 10603 10230 20160 38/// 48/// 70500 81030
                   333 20185 5//// 81360=
201210141200 AAXX 14124 67855 NIL=
201210140600 AAXX 14064 67855 11970 20604 10206 20163 3//// 48/// 60504 70511 82030
                   333 20130 5//// 82360=
201210131200 AAXX 13124 67855 41670 33603 10330 20160 3//// 48/// 70500 83130
                   333 5//// 83840=
201210130600 AAXX 13064 67855 NIL=
201210121200 AAXX 12124 67855 41770 13602 10354 20130 3//// 48/// 70500 81100
                   333 5//// 81850=
201210120600 AAXX 12064 67855 42970 00603 10236 20123 3//// 48/// 70500
                   333 20195 5////=
201210111200 AAXX 11124 67855 41770 20302 10372 20100 3//// 48/// 70500 82100
                   333 5//// 82850=
201210110600 AAXX 11064 67855 11970 41104 10266 20085 3//// 48/// 69904 70500 84030
                   333 20210 5//// 84360=
201210101200 AAXX 10124 67855 41670 32002 10376 20167 38/// 48/// 70500 83100
                   333 5//// 83840=
201210100600 AAXX 10064 67855 31970 03604 10264 20119 3//// 48/// 70500
                   333 20169 5////=
201210091200 AAXX 09124 67855 41670 50303 10358 20093 3//// 48/// 70511 85100
                   333 5//// 85840=
201210090600 AAXX 09064 67855 31970 00604 10252 20153 3//// 48/// 70500
                   333 20205 5////=
201210081200 AAXX 08124 67855 41770 20702 10378 20080 3//// 48/// 70500 82100
                   333 5//// 82850=
201210080600 AAXX 08064 67855 31970 00603 10270 20100 3//// 48/// 70500
                   333 20165 5////=
201210071200 AAXX 07124 67855 NIL=
201210070600 AAXX 07064 67855 31970 00603 10248 20072 3//// 48/// 70500
                   333 20160 5////=
201210061200 AAXX 06124 67855 41760 12901 10366 20093 3//// 48/// 70500 81100
                   333 5//// 81857=
201210060600 AAXX 06064 67855 31970 00603 10256 20094 38/// 48/// 70500
                   333 20179 5////=
201210051200 AAXX 05124 67855 41960 00301 10374 20064 38/// 48/// 70500
                   333 5////=
201210050600 AAXX 05064 67855 31970 00000 10232 20020 3//// 48/// 70500
                   333 20135 5////=
201210041200 AAXX 04124 67855 41970 01801 10354 20054 3//// 48/// 70500
                   333 5////=
201210040600 AAXX 04064 67855 31970 00000 10218 20056 3//// 48/// 70500
                   333 20128 5////=
201210031200 AAXX 03124 67855 NIL=
201210030600 AAXX 03064 67855 31970 00000 10220 20139 3//// 48/// 70500
                   333 20139 5////=
201210021200 AAXX 02124 67855 41770 11801 10346 20106 3//// 48/// 70500 81100
                   333 5//// 81856=
201210020600 AAXX 02064 67855 31970 00702 10218 20119 3//// 48/// 70500
                   333 20158 5////=
201210011200 AAXX 01124 67855 41770 31003 10326 20146 3//// 48/// 70500 83200
                   333 5//// 83850=
201210010600 AAXX 01064 67855 31970 01301 10220 20134 3//// 48/// 70500
                   333 20158 5////=
