################################################################################
# Query made at 04/14/2022 02:59:07 UTC
# Country like Zamb*
# Time interval: from 02/01/2017 05:30  to 03/03/2017 06:30  UTC
################################################################################

################################################################################
#  SYNOPS from 67403, Kawambwa (Zambia) | 09-48S | 029-05E | 1323 m
################################################################################
201703030600 AAXX 03064 67403 11980 62201 10203 20183 48515 60224 70322 81531
                   333 10228 20170 59007 81610 84360 83080
                   555 00174=
201703021500 AAXX 02154 67403 NIL=
201703020600 AAXX 02064 67403 11480 83003 10211 20196 48523 60014 71722 81931
                   333 10250 20186 58005 82610 81920 83820 87360
                   555 00188=
201703010600 AAXX 01064 67403 12980 50901 10194 20173 48517 69994 85031
                   333 10264 20173 58007 85360 82380
                   555 00182=
201702280600 AAXX 28064 67403 11975 80901 10184 20178 48509 60054 76066 8807/
                   333 10278 20177 58009 88460
                   555 00181=
201702270600 AAXX 27064 67403 12475 70902 10199 20192 48501 69934 8453/
                   333 10254 20184 59016 84610 87360
                   555 00188=
201702240600 AAXX 24064 67403 11475 82702 10192 20183 48511 69994 8453/
                   333 10270 20184 59002 84610 87360
                   555 00190=
201702230600 AAXX 23064 67403 12980 70901 10196 20187 48516 60084 8703/
                   333 10284 20170 59002 87360
                   555 00182=
201702220600 AAXX 22064 67403 NIL=
201702210600 AAXX 21064 67403 11475 80000 10182 20178 48526 60174 70362 8253/
                   333 10290 20176 58011 83610 87360
                   555 00184=
201702201200 AAXX 20124 67403 NIL=
201702200600 AAXX 20064 67403 11880 80000 10193 20182 48516 60514 70296 8133/
                   333 10312 20175 59011 81958 87360
                   555 00178=
201702171200 AAXX 17124 67403 NIL=
201702170600 AAXX 17064 67403 11380 80901 10187 20181 48531 60024 70322 8553/
                   333 10252 20178 58018 85608 87360
                   555 00184=
201702160600 AAXX 16064 67403 11980 63601 10197 20191 48514 60254 76066 86030
                   333 10322 20178 58004 86360
                   555 00178=
201702150600 AAXX 15064 67403 12980 30903 10235 20189 48512 69964 83084
                   333 10322 20186 59001 83360 81080
                   555 00187=
201702130600 AAXX 13064 67403 12980 30901 10219 20184 48511 69914 83030
                   333 10296 20183 59001
                   555 00187=
201702090600 AAXX 09064 67403 11480 72701 10202 20177 48514 60034 70352 82530
                   333 10305 20178 58012 82612 87360
                   555 00178=
201702071500 AAXX 07154 67403 NIL=
201702070600 AAXX 07064 67403 12980 51205 10216 20186 48510 69904 85080
                   333 10294 20184 59007 85360
                   555 00179=

################################################################################
#  SYNOPS from 67413, Mbala (Zambia) | 08-51S | 031-20E | 1673 m
################################################################################
201703030600 AAXX 03064 67413 12980 80000 10190 20166 48540 60014 84037
                   333 10245 20164 59004 84359 88270
                   555 00160 91024=
201703021500 AAXX 02154 67413 NIL=
201702240600 AAXX 24064 67413 12980 70000 10180 20156 48536 60014 8707/
                   333 10240 20162 59007 87460
                   555 00165 91024=
201702230600 AAXX 23064 67413 12980 80000 10170 20154 48544 60784 8807/
                   333 10240 20144 58009 86359 88460
                   555 00150 91025=
201702220600 AAXX 22064 67413 NIL=
201702201200 AAXX 20124 67413 NIL=
201702171200 AAXX 17124 67413 NIL=
201702071500 AAXX 07154 67413 NIL=

################################################################################
#  SYNOPS from 67441, Mwinilunga (Zambia) | 11-45S | 024-26E | 1361 m
################################################################################
201703030600 AAXX 03064 67441 NIL=
201703021500 AAXX 02154 67441 NIL=
201702220600 AAXX 22064 67441 NIL=
201702201200 AAXX 20124 67441 NIL=
201702171200 AAXX 17124 67441 NIL=
201702071500 AAXX 07154 67441 NIL=

################################################################################
#  SYNOPS from 67461, Mansa (Zambia) | 11-06S | 028-51E | 1382 m
################################################################################
201703030600 AAXX 03064 67461 11915 80000 10180 20180 48517 60504 76366 8802/
                   333 10248 20175 58010 88460
                   555 00180 91020=
201703021500 AAXX 02154 67461 NIL=
201703010600 AAXX 01064 67461 12480 70000 10195 20195 48509 60124 8157/
                   333 10258 20175 58013 81610 87360
                   555 00179 91018=
201702240600 AAXX 24064 67461 12580 73503 10214 20189 48514 60034 8553/
                   333 10265 20184 59005 85620 84360
                   555 00182 91019=
201702230600 AAXX 23064 67461 12980 70000 10192 20176 48526 60024 8703/
                   333 10280 20174 58007 87360
                   555 00176 91020=
201702220600 AAXX 22064 67461 NIL=
201702210600 AAXX 21064 67461 12360 83106 10186 20176 48517 60344 8467/
                   333 10264 20174 58004 84708 88460
                   555 00176 91019=
201702201200 AAXX 20124 67461 NIL=
201702200600 AAXX 20064 67461 32580 60000 10217 20189 48516 83531
                   333 10284 20179 59015 83620 84360 83080 91020=
201702171200 AAXX 17124 67461 NIL=
201702170600 AAXX 17064 67461 12980 70904 10196 20171 48530 60024 8707/
                   333 10//0 20174 58000 87460
                   555 00178 91020=
201702160600 AAXX 16064 67461 12980 81304 10200 20174 48521 60024 8807/
                   333 10302 20183 59002 88460
                   555 00192 91019=
201702130600 AAXX 13064 67461 12580 70502 10202 20186 48514 60044 8157/
                   333 10304 20182 58001 81620 87360
                   555 00/// 91019=
201702100600 AAXX 10064 67461 12480 70602 10200 20185 48507 60134 8353/
                   333 10294 20177 59009 83615 86360
                   555 00184 91017=
201702071500 AAXX 07154 67461 NIL=
201702070600 AAXX 07064 67461 11380 80000 10190 20187 48534 60064 76166 8267/
                   333 10294 20184 58010 82708 88460
                   555 00196 91020=

################################################################################
#  SYNOPS from 67475, Kasama (Zambia) | 10-13S | 031-08E | 1382 m
################################################################################
201703030600 AAXX 03064 67475 12260 73504 10191 20182 48524 60074 8167/
                   333 10270 20166 59005 81704 87360
                   555 00164 91020=
201703021500 AAXX 02154 67475 NIL=
201703021200 AAXX 02124 67475 41340 82318 10210 20186 48497 76222 8427/
                   333 58008 81930 81709 88460 91017=
201703020600 AAXX 02064 67475 11460 80000 10191 20183 48529 60024 70242 886//
                   333 10254 20176 58006 88710
                   555 00180 91021=
201703010600 AAXX 01064 67475 11360 70000 10192 20180 48523 60044 71522 8177/
                   333 10258 20169 58004 81707 81615 87460
                   555 00168 91020=
201702280600 AAXX 28064 67475 12260 80000 10176 20171 48519 60034 8567/
                   333 10280 20156 58007 85703 87360
                   555 00157 91020=
201702271200 AAXX 27124 67475 42760 81508 10251 20174 48477 70222 85208
                   333 59018 83850 88280 91015=
201702270900 AAXX 27094 67475 42660 81207 10227 20188 48514 70322 82177
                   333 5//// 82835 84360 88280 91019=
201702270600 AAXX 27064 67475 11260 70103 10178 20178 48512 60084 72844 8377/
                   333 10278 20157 59021 83705 87360
                   555 00170 91019=
201702240600 AAXX 24064 67475 12960 70000 10204 20186 48519 69914 8707/
                   333 10278 20170 59009
                   555 00170 91020=
201702230600 AAXX 23064 67475 12980 73509 10183 20166 48527 60014 8707/
                   333 10270 20156 59002 87460
                   555 00/// 91021=
201702220600 AAXX 22064 67475 12960 73001 10194 20187 48529 60034 70222 8707/
                   333 10249 20163 58000 87460 91021=
201702210600 AAXX 21064 67475 12360 83004 10182 20175 48529 60084 70325 83678
                   333 10171 20//0 58008 83709 86460 87280
                   555 00171 91021=
201702201200 AAXX 20124 67475 NIL=
201702200600 AAXX 20064 67475 12460 60501 10207 20186 48523 60134 70322 83671
                   333 10290 20167 59018 83620 84460 83080
                   555 00174 91020=
201702171200 AAXX 17124 67475 NIL=
201702170600 AAXX 17064 67475 12260 81305 10169 20169 48538 60484 70362 8467/
                   333 10284 20163 58014 84705 88460
                   555 00171 91022=
201702161200 AAXX 16124 67475 41760 80000 10275 20186 48498 71722 85278
                   333 58011 81950 84850 82462 87280 91017=
201702160900 AAXX 16094 67475 42660 80000 10241 20182 48522 70322 84278
                   333 58007 84840 83360 88280 91020=
201702160600 AAXX 16064 67475 12560 81701 10205 20177 48526 69904 81578
                   333 10310 20177 58008 81620 83359 88280
                   555 00177 91020=
201702150600 AAXX 15064 67475 32980 80305 10213 20176 48518 81038
                   333 10305 20171 59007 81361 88280
                   555 00154 91020=
201702100600 AAXX 10064 67475 14460 80000 10191 20180 48512 60144 70258 8367/
                   333 10281 20166 59010 83615 87460
                   555 00163 91019=
201702071500 AAXX 07154 67475 NIL=
201702070600 AAXX 07064 67475 12250 80104 10181 20181 48521 60214 70288 8467/
                   333 10288 20170 58001 84705 88460
                   555 00176 91020=

################################################################################
#  SYNOPS from 67476, Misamfu (Zambia) | 10-06S | 031-15E | 1536 m
################################################################################
201703030600 AAXX 03064 67476 NIL=
201703021500 AAXX 02154 67476 NIL=
201703010600 AAXX 01064 67476 12475 60000 10193 20177 48/// 60074 83531
                   333 10258 20175 58005 83618 84360 82080
                   555 00186=
201702270600 AAXX 27064 67476 11450 80000 10170 20176 48/// 60344 71022 885//
                   333 10275 20161 5//// 88614
                   555 00161=
201702220600 AAXX 22064 67476 NIL=
201702201200 AAXX 20124 67476 NIL=
201702171200 AAXX 17124 67476 NIL=
201702170600 AAXX 17064 67476 12480 71902 10172 20169 48/// 60274 8757/
                   333 10280 20165 58015 87619 88459
                   555 00179=
201702160600 AAXX 16064 67476 12980 21603 10205 20179 48/// 69904 80001
                   333 10305 20183 58007 82080
                   555 00183=
201702150600 AAXX 15064 67476 12980 30603 10212 20182 48/// 60024 81032
                   333 10298 20177 59007 81360 83080
                   555 00166=
201702130600 AAXX 13064 67476 12980 60000 10197 20182 48511 69914 83030
                   333 10280 20171 5//// 86359
                   555 00167=
201702071500 AAXX 07154 67476 NIL=
201702070600 AAXX 07064 67476 12467 80000 10180 20167 48/// 60234 8657/
                   333 10285 20172 58001 86618 88459
                   555 00172=

################################################################################
#  SYNOPS from 67477, Mpika (Zambia) | 11-54S | 031-26E | 1400 m
################################################################################
201703030600 AAXX 03064 67477 11470 80000 10188 20170 48525 60214 72842 8357/
                   333 10248 20158 59003 83610 87459
                   555 00132=
201703021500 AAXX 02154 67477 NIL=
201703020600 AAXX 02064 67477 11480 80000 10179 20160 48530 60654 72122 8807/
                   333 10272 20166 58000 88459
                   555 00170=
201703010600 AAXX 01064 67477 11980 80000 10170 20170 48532 60234 79599 8807/
                   333 10258 20159 58010 88459
                   555 00159=
201702240600 AAXX 24064 67477 11478 60000 10211 20180 48520 60044 72822 83570
                   333 10256 20157 59004 83610 84459
                   555 00163=
201702230600 AAXX 23064 67477 11475 80000 10194 20170 48522 60024 74042 8357/
                   333 10258 20174 59006 83610 86459
                   555 00172=
201702220600 AAXX 22064 67477 11470 83203 10188 20180 48530 60044 76022 8457/
                   333 10255 20177 58001 84610 85459
                   555 00169=
201702210600 AAXX 21064 67477 11470 80000 10187 20180 48530 60014 74042 8457/
                   333 10293 20173 58003 84510 86459
                   555 00158=
201702201200 AAXX 20124 67477 NIL=
201702200600 AAXX 20064 67477 32480 50906 10226 20180 48525 85530
                   333 10282 20142 58000 85610 81359
                   555 00173=
201702171200 AAXX 17124 67477 NIL=
201702170600 AAXX 17064 67477 11980 80000 10174 20160 48550 60624 72122 8807/
                   333 10274 20159 58022 88459
                   555 00168=
201702160600 AAXX 16064 67477 12478 60000 10205 20170 48530 69904 72822 84530
                   333 10289 20178 58006 84610 83359
                   555 00170=
201702130600 AAXX 13064 67477 12480 40000 10236 20170 48520 69904 81130
                   333 10292 20162 59004 81810 84359
                   555 00181=
201702100600 AAXX 10064 67477 12980 80000 10193 20180 48518 69904 8807/
                   333 10269 20161 59006 88459
                   555 00170=
201702071500 AAXX 07154 67477 NIL=
201702070600 AAXX 07064 67477 11980 80000 10198 20180 48522 60064 72822 8807/
                   333 10282 20163 58000 88459
                   555 00158=

################################################################################
#  SYNOPS from 67481, Isoka (Zambia) | 10-07S | 032-38E | 1360 m
################################################################################
201703030600 AAXX 03064 67481 12980 80000 10195 20173 48/// 60014 8809/
                   333 10253 20170 59005 88360=
201703021500 AAXX 02154 67481 NIL=
201703020600 AAXX 02064 67481 12480 72701 10192 20183 48/// 60104 83540
                   333 10270 20180 58005 83610 86361
                   555 00172=
201703010600 AAXX 01064 67481 11380 70000 10190 20178 48/// 60154 72052 82680
                   333 10264 20170 58013 82709 87360
                   555 00170=
201702280600 AAXX 28064 67481 32480 70000 10193 20181 48/// 82590
                   333 10254 20176 59003 82610 87360
                   555 00170=
201702270600 AAXX 27064 67481 12380 80000 10182 20179 48/// 60224 8167/
                   333 10268 20168 5//// 81708 88259
                   555 00160=
201702240600 AAXX 24064 67481 12470 70903 10198 20190 48/// 60104 86550
                   333 10282 20180 59007 86614 82360
                   555 00///=
201702230600 AAXX 23064 67481 12980 73003 10187 20169 48/// 60054 8703/
                   333 10262 20170 58002 87360
                   555 00170=
201702220600 AAXX 22064 67481 12980 73001 10196 20181 48/// 60024 87030
                   333 10234 20172 5//// 87360
                   555 00165=
201702201200 AAXX 20124 67481 NIL=
201702171200 AAXX 17124 67481 NIL=
201702170600 AAXX 17064 67481 12480 82703 10188 20170 48/// 60174 8459/
                   333 10300 20165 58010 84610 88360
                   555 00155=
201702160600 AAXX 16064 67481 12580 60000 10238 20194 48/// 69904 81140
                   333 10310 20180 5//// 81820 86361
                   555 00170=
201702130600 AAXX 13064 67481 12980 50000 10222 20180 48/// 69984 85030
                   333 10300 20172 5//// 85361
                   555 00170=
201702071500 AAXX 07154 67481 NIL=
201702070600 AAXX 07064 67481 11965 70000 10185 20185 48/// 60544 76366 87030
                   333 10220 20185 5////=

################################################################################
#  SYNOPS from 67531, Zambezi (Zambia) | 13-32S | 023-07E | 1077 m
################################################################################
201703030600 AAXX 03064 67531 12980 70000 10201 20192 48/// 60424 70222 8707/
                   333 10275 20191 59020 87361
                   555 00198=
201703021500 AAXX 02154 67531 NIL=
201703020600 AAXX 02064 67531 12380 70301 10202 20193 48/// 60044 70222 8467/
                   333 10298 20191 58014 84706
                   555 00199=
201702270600 AAXX 27064 67531 11380 70000 10205 20198 48/// 60094 71522 8257/
                   333 10267 20187 59028 82608 87460
                   555 00190=
201702220600 AAXX 22064 67531 12380 70301 10196 20181 48/// 60104 70212 8267/
                   333 10250 20179 59007 82707 87360
                   555 00183=
201702210600 AAXX 21064 67531 12380 73503 10197 20181 48/// 60044 70222 8467/
                   333 10266 20191 58001 84706 87460
                   555 00197=
201702201200 AAXX 20124 67531 NIL=
201702200600 AAXX 20064 67531 32980 51202 10230 20196 48/// 85031
                   333 10310 20185 59013 85361 81081
                   555 00193=
201702171200 AAXX 17124 67531 NIL=
201702170600 AAXX 17064 67531 11378 80602 10190 20183 48/// 60404 76166 8477/
                   333 10273 20176 59003 84706 88460
                   555 00189=
201702160600 AAXX 16064 67531 11370 80000 10195 20189 48/// 60204 76166 8477/
                   333 10302 20188 58024 84706 88460
                   555 00202=
201702130600 AAXX 13064 67531 12980 70301 10216 20205 48/// 60074 8707/
                   333 10302 20195 5//// 87460
                   555 00196=
201702100600 AAXX 10064 67531 12380 71206 10219 20205 48/// 60044 70222 8367/
                   333 10308 20202 59004 83707 87360
                   555 00210=
201702071500 AAXX 07154 67531 NIL=
201702070600 AAXX 07064 67531 12380 73601 10204 20185 48/// 60024 70222 8267/
                   333 10301 20186 58011 82707 87361
                   555 00190=

################################################################################
#  SYNOPS from 67541, Kasempa (Zambia) | 13-32S | 025-51E | 1234 m
################################################################################
201703030600 AAXX 03064 67541 12380 70000 10186 20186 48508 60174 70222 8353/
                   333 10250 20178 59008 83606 87360=
201703021500 AAXX 02154 67541 NIL=
201703010600 AAXX 01064 67541 12980 00000 10193 20188 48510 60204 8703/
                   333 10246 20180 58012 87360
                   555 00///=
201702280600 AAXX 28064 67541 12980 70102 10189 20186 48498 60104 8703/
                   333 10206 20164 58004 87360
                   555 00///=
201702270600 AAXX 27064 67541 12880 70104 10205 20194 48480 60084 8353/
                   333 10258 20170 59004 83636 87360
                   555 00///=
201702240600 AAXX 24064 67541 12980 70000 10200 20193 48499 60044 87070
                   333 10306 20180 58011 87360
                   555 00///=
201702220600 AAXX 22064 67541 12980 70302 10196 20191 48511 60014 70222 87030
                   333 10270 20174 59001 87360=
201702210600 AAXX 21064 67541 12380 70102 10175 20175 48512 60064 70222 8353/
                   333 10250 20172 59002 83606 87360
                   555 00///=
201702201200 AAXX 20124 67541 NIL=
201702200600 AAXX 20064 67541 12980 70000 10199 20187 48514 60344 70222 87030
                   333 10306 20180 59009 87360=
201702171200 AAXX 17124 67541 NIL=
201702160600 AAXX 16064 67541 11360 70000 10185 20185 48525 60364 76066 8353/
                   333 10330 20180 5//// 83706 87360=
201702100600 AAXX 10064 67541 12980 70000 10196 20191 48502 60274 70222 8703/
                   333 10280 20180 59006 87360
                   555 00///=
201702071500 AAXX 07154 67541 NIL=
201702070600 AAXX 07064 67541 12980 70303 10197 20189 48498 60134 70222 87030
                   333 10288 20180 59029 87360
                   555 00///=

################################################################################
#  SYNOPS from 67543, Kabompo (Zambia) | 13-36S | 024-12E | 1075 m
################################################################################
201703030600 AAXX 03064 67543 NIL=
201703021500 AAXX 02154 67543 NIL=
201703010600 AAXX 01064 67543 12980 70000 10//0 20//0 48/// 60134 8707/
                   333 10284 20182 87360
                   555 00162=
201702280600 AAXX 28064 67543 12380 70000 10//0 20//0 48/// 60204 8167/
                   333 10298 20188 5//// 81708 87360
                   555 00150=
201702240600 AAXX 24064 67543 12375 70000 10//0 20//0 48/// 60074 8267/
                   333 10278 20188 5//// 82707 87360
                   555 00166=
201702220600 AAXX 22064 67543 12380 70000 10195 20186 48/// 60014 8163/
                   333 10264 20184 5//// 81708 87360
                   555 00158=
201702210600 AAXX 21064 67543 11375 80000 10194 20189 48/// 60234 76162 85621
                   333 10298 20188 5//// 85706 88460
                   555 00165=
201702201200 AAXX 20124 67543 NIL=
201702200600 AAXX 20064 67543 12380 70000 10207 20194 48/// 60034 8567/
                   333 10298 20176 5//// 85706 87360
                   555 00170=
201702171200 AAXX 17124 67543 NIL=
201702100600 AAXX 10064 67543 12380 70000 10208 20198 48/// 60124 70222 8367/
                   333 10310 20194 5//// 83707 87360
                   555 00180=
201702090600 AAXX 09064 67543 32380 70000 10214 20203 48/// 8267/
                   333 10294 20196 5//// 82708 87360
                   555 00178=
201702071500 AAXX 07154 67543 NIL=
201702070600 AAXX 07064 67543 11360 80000 10200 20194 48/// 60144 76166 886//
                   333 10324 20196 5//// 88707
                   555 00180=

################################################################################
#  SYNOPS from 67551, Solwezi (Zambia) | 12-11S | 026-23E | 1386 m
################################################################################
201703030600 AAXX 03064 67551 11960 83203 10172 20169 48509 60144 76166 8807/
                   333 10244 20169 59015 88362
                   555 00191 91019=
201703021500 AAXX 02154 67551 NIL=
201703010600 AAXX 01064 67551 11360 80000 10173 20172 48537 60584 76166 8477/
                   333 10272 20169 58022 84605 88362
                   555 00193 91020=
201702270600 AAXX 27064 67551 32980 73003 10200 20183 48500 87030
                   333 10261 20168 59022 87362
                   555 00218 91017=
201702240600 AAXX 24064 67551 12480 73204 10181 20172 48514 60454 81530
                   333 10254 20169 59002 81610 87362
                   555 00199 91018=
201702230600 AAXX 23064 67551 12980 70000 10194 20188 48512 60114 87030
                   333 10246 20162 59006 87363
                   555 00208 91019=
201702220600 AAXX 22064 67551 12980 62703 10192 20182 48522 60064 86030
                   333 10254 20170 59018 85362
                   555 00210 91019=
201702210600 AAXX 21064 67551 11360 80000 10170 20168 48538 60234 76166 8577/
                   333 10275 20164 58019 85704 88360
                   555 00201 91021=
201702201200 AAXX 20124 67551 NIL=
201702200600 AAXX 20064 67551 32380 63002 10183 20178 48521 83630
                   333 10279 20160 59022 83705 85362
                   555 00206 91019=
201702171200 AAXX 17124 67551 NIL=
201702160600 AAXX 16064 67551 11358 80000 10175 20//0 48537 60134 76066 8177/
                   333 10302 20169 59006 81706 88362
                   555 00201 91020=
201702071500 AAXX 07154 67551 NIL=
201702070600 AAXX 07064 67551 32975 70000 10196 20177 48508 60034 8707/
                   333 10252 20168 59011 87362
                   555 00213 91018=

################################################################################
#  SYNOPS from 67561, Ndola (Zambia) | 13-00S | 028-39E | 1269 m
################################################################################
201703030600 AAXX 03064 67561 11258 83106 10178 20174 48510 60304 76166 8477/
                   333 10275 20173 59014 84703 88459 91018=
201703021500 AAXX 02154 67561 41660 81105 10195 20191 48485 79599 8197/
                   333 59002 81935 88459=
201703021200 AAXX 02124 67561 41675 62906 10264 20184 48490 70522 86232
                   333 59009 81930 86835 82360 83080
                   555 66020 77/// 8891/ 98025=
201703020600 AAXX 02064 67561 11265 60503 10196 48525 60084 70522 85632
                   333 10246 20173 58000 85708 85360 83080 91020=
201702270600 AAXX 27064 67561 11160 60906 10189 20185 48504 69904 72844 86730
                   333 10226 20174 59020 86702 85360
                   555 00/// 20011 91018=
201702251200 AAXX 25124 67561 41570 70802 10234 20205 48491 79566 86202
                   333 58005 81917 86820 83080
                   555 66034 77/// 888// 98029=
201702250600 AAXX 25064 67561 11159 80704 10185 20184 48520 74244 887//
                   333 10279 20174 58013 88702
                   555 00/// 20010 91019=
201702230600 AAXX 23064 67561 11265 70403 10191 20184 48510 60014 70542 8567/
                   333 10274 20179 59008 85704 87459
                   555 00/// 20002 91018=
201702220600 AAXX 22064 67561 11360 69903 10209 20180 48519 60024 70522 81630
                   333 10249 20175 59004 81707 86360 91019=
201702201200 AAXX 20124 67561 NIL=
201702200600 AAXX 20064 67561 11460 60000 10221 20183 48518 60014 70594 81108
                   333 10296 20175 59015 81810 86280
                   555 00/// 20003 91019=
201702171200 AAXX 17124 67561 41675 70303 10245 20165 48523 70522 8523/
                   333 58004 85835 87361
                   555 66095 77/// 8884/ 98035 91019=
201702170900 AAXX 17094 67561 41475 60407 10235 20166 48541 70522 86152
                   333 58009 86820 85361 83080 91021=
201702170600 AAXX 17064 67561 11365 70703 10192 20177 48542 60024 70562 83738
                   333 10252 20174 58014 83708 85360 87280 91022=
201702160600 AAXX 16064 67561 11360 72706 10200 20183 48529 69904 70522 82638
                   333 10289 20176 58007 82706 85360 87280
                   555 00/// 20019 91020=
201702151200 AAXX 15124 67561 41670 60000 10265 20191 48499 70522 85238
                   333 58006 81925 85830 84360 85280
                   555 66054 77/// 8880/ 98041 91016=
201702150600 AAXX 15064 67561 11965 89902 10196 20184 48522 60194 72196 8707/
                   333 10311 20178 58005 88459
                   555 00/// 20007 91019=
201702101200 AAXX 10124 67561 41680 61106 10278 20179 48486 70322 86232
                   555 66020 77/// 8890/ 98028 91015=
201702100600 AAXX 10064 67561 11360 71804 10204 20196 48514 60064 72196 82738
                   333 10286 20//0 58001 82706 86359 87280 91018=
201702090600 AAXX 09064 67561 11270 70903 10192 20189 48512 60764 70522 83632
                   333 10266 20//0 59002 83704 87360 82080
                   555 00/// 91018=
201702071500 AAXX 07154 67561 41670 62404 10271 20192 48479 70522 84268
                   333 59002 81935 84840 81360 86280=
201702070600 AAXX 07064 67561 11360 80000 10191 20184 70599 82738
                   333 10289 20//0 58007 82705 85359 88280
                   555 00/// 91019=
201702060600 AAXX 06064 67561 11358 79903 10190 20182 48507 69904 72844 8467/
                   333 10236 20//0 59001 84708 87459
                   555 00/// 20007=
201702021200 AAXX 02124 67561 41675 72607 10224 20175 48504 70522 86230
                   333 58016 81930 85835
                   555 66082 77/// 98004 91017=

################################################################################
#  SYNOPS from 67563, Kafironda (Zambia) | 12-36S | 028-07E | 1243 m
################################################################################
201703030600 AAXX 03064 67563 NIL=
201703021500 AAXX 02154 67563 NIL=
201702240600 AAXX 24064 67563 32970 70000 10205 20182 48/// 87030
                   333 10250 20165 58005 86360=
201702230600 AAXX 23064 67563 12680 70000 10210 20188 48/// 60034 81530
                   333 10260 20175 58011 81610 86360=
201702220600 AAXX 22064 67563 32970 70000 10205 20190 48/// 70222 87030
                   333 10270 20180 58000 87360=
201702210600 AAXX 21064 67563 11970 83602 10185 20178 48/// 60214 76096 8807/
                   333 10295 20175 58010 88458=
201702201200 AAXX 20124 67563 NIL=
201702200600 AAXX 20064 67563 11970 70000 10210 20195 48/// 60044 70292 81530
                   333 10280 20//0 5//// 81610 86360=
201702171200 AAXX 17124 67563 NIL=
201702071500 AAXX 07154 67563 NIL=

################################################################################
#  SYNOPS from 67571, Serenje (Zambia) | 13-14S | 030-13E | 1384 m
################################################################################
201703030600 AAXX 03064 67571 11282 82704 10176 20176 48/// 72842 885//
                   333 10225 20170 5//// 88705
                   555 00196=
201703021500 AAXX 02154 67571 NIL=
201703021200 AAXX 02124 67571 41475 81802 10200 20185 48/// 76166 8132/
                   333 5//// 81918 81618 88459=
201703020600 AAXX 02064 67571 11482 73002 10192 20181 48/// 75155 8257/
                   333 10257 20172 5//// 82615 87360
                   555 00212=
201703010600 AAXX 01064 67571 32482 70905 10204 20183 48/// 8457/
                   333 10275 20176 5//// 84615 87360
                   555 00224=
201702280600 AAXX 28064 67571 12482 70905 10203 20175 48/// 69914 86508
                   333 10271 20180 5//// 86619 87280
                   555 00226=
201702270600 AAXX 27064 67571 12482 72702 10190 20178 48/// 60024 81538
                   333 10255 20165 5//// 81615 81360 87280
                   555 00212=
201702240600 AAXX 24064 67571 11/10 90000 10180 20178 48/// 60014 74344 8////
                   333 10251 20167 5////
                   555 00190=
201702220600 AAXX 22064 67571 12482 72702 10197 20180 48/// 69904 70222 875//
                   333 10269 20182 5//// 87615
                   555 00220=
201702210900 AAXX 21094 67571 42582 72706 10235 20182 48/// 70222 875//
                   333 5//// 87626=
201702201200 AAXX 20124 67571 41682 70605 10242 20178 48/// 71799 872//
                   333 5//// 81940 87840=
201702200600 AAXX 20064 67571 12482 71206 10205 20182 48/// 69914 70222 86508
                   333 10280 20180 5//// 86618 87280
                   555 00218=
201702171200 AAXX 17124 67571 41982 70304 10225 20179 48/// 72162 8707/
                   333 5//// 87360=
201702170900 AAXX 17094 67571 42982 83605 10221 20166 48/// 70222 8807/
                   333 5//// 88460=
201702170600 AAXX 17064 67571 11980 81202 10167 20159 48/// 60674 76166 8807/
                   333 10280 20155 5//// 88459
                   555 00178=
201702161200 AAXX 16124 67571 41682 72706 10256 20179 48/// 71799 8123/
                   333 5//// 81935 81835 87360=
201702160600 AAXX 16064 67571 12982 80000 10193 20179 48/// 60014 70222 8807/
                   333 10281 20178 5//// 88360
                   555 00204=
201702130600 AAXX 13064 67571 12982 71802 10199 20184 48/// 60054 8707/
                   333 10285 20175 5//// 87360
                   555 00220=
201702100600 AAXX 10064 67571 12982 71505 10186 20177 48/// 60984 70222 8707/
                   333 10284 20170 5//// 87360
                   555 00202=
201702071500 AAXX 07154 67571 NIL=
201702070600 AAXX 07064 67571 42582 63606 10245 20172 48/// 70122 83230
                   333 5//// 81927 83827 85360=

################################################################################
#  SYNOPS from 67575, Mkushi (Zambia) | 13-38-00S | 029-26-00E | 1237 m
################################################################################
201703030600 AAXX 03064 67575 NIL=
201703021500 AAXX 02154 67575 NIL=
201702220600 AAXX 22064 67575 NIL=
201702201200 AAXX 20124 67575 NIL=
201702171200 AAXX 17124 67575 NIL=
201702071500 AAXX 07154 67575 NIL=

################################################################################
#  SYNOPS from 67580, Msekera (Zambia) | 13-39S | 032-34E | 1025 m
################################################################################
201703030600 AAXX 03064 67580 12580 70603 10215 20191 48/// 60054 81130
                   333 10298 20195 59008 81826 87360=
201703021500 AAXX 02154 67580 NIL=
201703020600 AAXX 02064 67580 12580 70903 10230 20201 48/// 60314 83131
                   333 10294 20191 58001 83822 83360 82080=
201703010600 AAXX 01064 67580 12580 61202 10228 20207 48/// 60344 83131
                   333 10298 20192 58011 83824 82361 82080
                   555 00///=
201702270600 AAXX 27064 67580 12580 71503 10207 20194 48/// 60274 83830
                   333 10306 20185 5//// 81820 82622 87360
                   555 00///=
201702240600 AAXX 24064 67580 12980 71203 10230 20199 48/// 69924 84038
                   333 10287 20198 59004 84360 85280
                   555 00///=
201702230600 AAXX 23064 67580 12580 53603 10235 20198 48/// 60054 84830
                   333 10280 20200 59005 83524 81626 82360
                   555 00///=
201702220600 AAXX 22064 67580 12580 73003 10226 20203 48/// 60204 86831
                   333 10292 20195 58000 84820 83622 83360 81080=
201702210600 AAXX 21064 67580 12580 70000 10213 20201 48/// 60104 82130
                   333 10305 20190 59002 82824 87360=
201702201200 AAXX 20124 67580 NIL=
201702200600 AAXX 20064 67580 12580 71302 10226 20200 48/// 60274 81101
                   333 10302 20180 59017 81830 87080=
201702171200 AAXX 17124 67580 NIL=
201702170900 AAXX 17094 67580 42680 73603 10250 20190 48/// 81131
                   333 58024 81836 87361 82080=
201702170600 AAXX 17064 67580 12480 71703 10195 20189 48/// 60224 75062 86538
                   333 10324 20184 58027 86614 83360 84280=
201702071500 AAXX 07154 67580 NIL=

################################################################################
#  SYNOPS from 67581, Chipata (Zambia) | 13-33S | 032-35E | 1028 m
################################################################################
201703030600 AAXX 03064 67581 NIL=
201703021500 AAXX 02154 67581 NIL=
201702220600 AAXX 22064 67581 NIL=
201702210600 AAXX 21064 67581 12570 63605 10212 20180 48528 60254 83570
                   333 10290 20212 58002 83620 86460 91019=
201702201200 AAXX 20124 67581 NIL=
201702171200 AAXX 17124 67581 NIL=
201702170600 AAXX 17064 67581 11580 73602 10208 20162 48546 60214 72166 8257/
                   333 10240 20175 58023 82620 87459 91021=
201702160600 AAXX 16064 67581 12660 50903 10251 20199 48532 60034 82132
                   333 10302 20132 58000 82835 81360 83280 91018=
201702130600 AAXX 13064 67581 12480 61902 10259 20224 48535 69904 84131
                   333 10322 20222 59001 84820 83360 82080
                   555 00213 91015=
201702090600 AAXX 09064 67581 12580 50803 10240 20195 48522 60094 81131
                   333 10260 20188 59001 81820 84360 85080=
201702071500 AAXX 07154 67581 NIL=
201702070600 AAXX 07064 67581 11560 70000 10227 20191 48538 60104 78022 8227/
                   333 10250 20194 58002 82820 87460 91020=

################################################################################
#  SYNOPS from 67583, Lundazi (Zambia) | 12-17S | 033-12E | 1143 m
################################################################################
201703030600 AAXX 03064 67583 NIL=
201703021500 AAXX 02154 67583 NIL=
201703010600 AAXX 01064 67583 12978 80000 10210 20195 48/// 69994 82038
                   333 10290 20180 5//// 82360 88280
                   555 00///=
201702280600 AAXX 28064 67583 31578 80000 10208 20195 48/// 75052 8157/
                   333 10292 20190 5//// 81622 88460=
201702270600 AAXX 27064 67583 11978 8//// 10196 20194 60014 78082 8807/
                   333 10288 20186 5//// 88459
                   555 00///=
201702240600 AAXX 24064 67583 12480 70000 10228 20202 69904 8473/
                   333 10286 20180 5//// 84710 87360
                   555 00///=
201702220600 AAXX 22064 67583 NIL=
201702201200 AAXX 20124 67583 NIL=
201702171200 AAXX 17124 67583 NIL=
201702170600 AAXX 17064 67583 12580 70000 10192 20179 48/// 60244 83437
                   333 10322 20172 5//// 83627 82360 87280=
201702130600 AAXX 13064 67583 12980 70000 10248 20248 48/// 69904 87030
                   333 10292 20190 5//// 87360
                   555 00///=
201702071500 AAXX 07154 67583 NIL=
201702070600 AAXX 07064 67583 12980 70000 10200 20198 48/// 74242 86031
                   333 10288 20172 5//// 86360 81080=

################################################################################
#  SYNOPS from 67599, Mfuwe (Zambia) | 13-16S | 031-56E | 568 m
################################################################################
201703030600 AAXX 03064 67599 12380 73403 10230 20215 48519 60184 8353/
                   333 10311 20202 59014 83610 87360
                   555 00202 91016=
201703021500 AAXX 02154 67599 NIL=
201703010600 AAXX 01064 67599 12480 60000 10245 20223 48528 60044 86200
                   333 10309 20220 58008 86812
                   555 00210 91017=
201702280600 AAXX 28064 67599 11259 70000 10220 20220 48514 60034 76062 8277/
                   333 10324 20220 58005 82705 87458
                   555 00210 91016=
201702240600 AAXX 24064 67599 32480 50603 10264 20229 48520 82131
                   333 10320 20220 59006 82819 85360 82080
                   555 00210 91015=
201702220600 AAXX 22064 67599 NIL=
201702210600 AAXX 21064 67599 31360 71001 10223 20208 48517 60154 8257/
                   333 10335 20212 58001 82610 87459
                   555 00210 91016=
201702201200 AAXX 20124 67599 NIL=
201702171200 AAXX 17124 67599 NIL=
201702071500 AAXX 07154 67599 NIL=
201702070600 AAXX 07064 67599 12380 70902 10228 20213 48521 60414 8487/
                   333 10330 20204 58011 81808 83609 87458
                   555 00202 91016=

################################################################################
#  SYNOPS from 67625, Kalabo (Zambia) | 14-51S | 022-42E | 1033 m
################################################################################
201703030600 AAXX 03064 67625 NIL=
201703021500 AAXX 02154 67625 NIL=
201703010600 AAXX 01064 67625 12982 70604 10205 20190 48/// 60354 83033
                   333 10252 20192 58009 83360 87075
                   555 00184=
201702220600 AAXX 22064 67625 NIL=
201702201200 AAXX 20124 67625 NIL=
201702171200 AAXX 17124 67625 NIL=
201702071500 AAXX 07154 67625 NIL=
201702070600 AAXX 07064 67625 12382 70306 10201 20198 48/// 60234 83623
                   333 10264 20187 58031 83706 86460 87075
                   555 00181=

################################################################################
#  SYNOPS from 67633, Mongu (Zambia) | 15-15S | 023-09E | 1052 m
################################################################################
201703030600 AAXX 03064 67633 NIL=
201703021500 AAXX 02154 67633 NIL=
201703020600 AAXX 02064 67633 32980 60203 10222 20195 48526 70222 84038
                   333 10296 20198 58019 84361 86280 91019=
201703010600 AAXX 01064 67633 12980 60903 10205 20193 48505 60344 86030
                   333 10254 20187 58010 86360
                   555 00209 91017=
201702280600 AAXX 28064 67633 12980 80902 10189 20183 48492 60304 8807/
                   333 10242 20189 58008 88460
                   555 00187 91016=
201702270600 AAXX 27064 67633 11480 80000 10212 20200 48486 69904 75022 8657/
                   333 10280 20205 59009 85620 84460
                   555 00208 91015=
201702240600 AAXX 24064 67633 11980 73605 10217 20214 48487 60204 8707/
                   333 10300 20201 59017 87460
                   555 00216 91014=
201702230600 AAXX 23064 67633 12980 63602 10217 20201 48497 60114 86070
                   333 10302 20187 59007 87460
                   555 00220 91016=
201702220600 AAXX 22064 67633 12980 73602 10195 20188 48513 60024 70222 8707/
                   333 10256 20188 58006 87460
                   555 00192 91018=
201702201200 AAXX 20124 67633 NIL=
201702200600 AAXX 20064 67633 12980 70000 10203 20191 48513 60084 70222 8707/
                   333 10297 20191 59007 87460
                   555 00202 91018=
201702171200 AAXX 17124 67633 NIL=
201702160600 AAXX 16064 67633 11980 73603 10210 20203 48516 60944 72162 8707/
                   333 10330 20185 58019 87460
                   555 00204 91018=
201702150600 AAXX 15064 67633 32980 70904 10238 20205 48503 82038
                   333 10326 20212 59013 82361 87280
                   555 00221 91016=
201702100600 AAXX 10064 67633 12980 61603 10250 20208 48501 60074 70222 86060
                   333 10313 20210 59009 86360
                   555 00230 91016=
201702090600 AAXX 09064 67633 32480 60902 10255 20222 48513 70322 82538
                   333 10320 20211 58007 82680 84360 86280
                   555 00224 91017=
201702071500 AAXX 07154 67633 NIL=
201702070600 AAXX 07064 67633 12980 70903 10210 20203 48511 60194 70222 8707/
                   333 10273 20194 58025 87460
                   555 00200 91017=

################################################################################
#  SYNOPS from 67641, Kaoma (Zambia) | 14-48S | 024-48E | 1213 m
################################################################################
201703030600 AAXX 03064 67641 12680 72702 10205 20195 48498 60154 82530
                   333 10//0 20184 59016 82630 85360 91015=
201703021500 AAXX 02154 67641 NIL=
201702270600 AAXX 27064 67641 11678 80202 10195 20191 48486 60064 75096 8457/
                   333 10//0 20185 59011 84630 87460
                   555 00/// 91015=
201702220600 AAXX 22064 67641 NIL=
201702210600 AAXX 21064 67641 32680 83202 10200 20188 48508 84530
                   333 10//0 20186 59002 84630 86360 91017=
201702201200 AAXX 20124 67641 NIL=
201702200600 AAXX 20064 67641 12680 72602 10227 20198 48514 60044 84830
                   333 10//0 20199 59009 81830 83640 83360 91017=
201702171200 AAXX 17124 67641 NIL=
201702170600 AAXX 17064 67641 12580 83404 10192 20180 48521 60034 70262 8657/
                   333 10//0 20180 59002 86620 88459
                   555 00/// 91018=
201702130600 AAXX 13064 67641 11680 70000 10184 20179 48494 60354 76096 8357/
                   333 10//0 20179 59009 83930 87460
                   555 00/// 91016=
201702090600 AAXX 09064 67641 12980 60301 10225 20205 48497 60042 82032
                   333 10//0 20194 59005 82360 84080 91015=
201702071500 AAXX 07154 67641 NIL=
201702070600 AAXX 07064 67641 12680 70000 10205 20198 48489 60204 865//
                   333 10//0 20194 59008 86630 91015=

################################################################################
#  SYNOPS from 67655, Mumbwa (Zambia) | 15-04S | 027-11E | 1216 m
################################################################################
201703030600 AAXX 03064 67655 NIL=
201703021500 AAXX 02154 67655 NIL=
201702220600 AAXX 22064 67655 NIL=
201702201200 AAXX 20124 67655 NIL=
201702171200 AAXX 17124 67655 NIL=
201702071500 AAXX 07154 67655 NIL=

################################################################################
#  SYNOPS from 67659, Kafue Polder (Zambia) | 15-46S | 027-55E | 978 m
################################################################################
201703030600 AAXX 03064 67659 12480 71202 10220 20209 48/// 60044 70322 84431
                   333 10277 20218 5//// 83620 81820 83360=
201703021500 AAXX 02154 67659 NIL=
201702230600 AAXX 23064 67659 32480 70802 10218 20//0 48/// 82531
                   333 10280 20203 58005 82620 84360 81080
                   555 00///=
201702220600 AAXX 22064 67659 NIL=
201702201200 AAXX 20124 67659 NIL=
201702200600 AAXX 20064 67659 32580 61203 10243 20229 48/// 70322 85401
                   333 10275 20190 5//// 83620 82825 81080=
201702171200 AAXX 17124 67659 NIL=
201702160600 AAXX 16064 67659 12480 80702 10196 20189 48/// 60054 70322 85510
                   333 10307 20221 58011 85615 83460=
201702150600 AAXX 15064 67659 32980 51403 10245 20245 48/// 81031
                   333 10300 20231 58005 81360 84080=
201702071500 AAXX 07154 67659 NIL=
201702070600 AAXX 07064 67659 32480 51803 10242 20212 48/// 70322 83230
                   333 10272 20230 58004 83820 82360=

################################################################################
#  SYNOPS from 67662, Kabwe Agric (Zambia) | 14-24S | 028-30E | 1165 m
################################################################################
201703030600 AAXX 03064 67662 NIL=
201703021500 AAXX 02154 67662 NIL=
201703020600 AAXX 02064 67662 12380 70000 10205 20190 48/// 60154 876//
                   333 10270 20178 5//// 87708
                   555 00172=
201703010600 AAXX 01064 67662 11360 80000 10204 20198 48/// 60024 76266 887//
                   333 10270 20191 88707
                   555 00184=
201702230600 AAXX 23064 67662 32980 80000 10201 20184 48/// 8807/
                   333 10275 20184 88460
                   555 00183=
201702220600 AAXX 22064 67662 NIL=
201702201200 AAXX 20124 67662 NIL=
201702200600 AAXX 20064 67662 12480 70000 10231 20198 48/// 60014 82532
                   333 10290 20178 5//// 82614 83360 82080
                   555 00172=
201702171200 AAXX 17124 67662 NIL=
201702160600 AAXX 16064 67662 12980 80000 10200 20185 48/// 60014 8807/
                   333 10295 20184 5//// 88460
                   555 00179=
201702150600 AAXX 15064 67662 12480 71802 10204 20186 48/// 60024 81138
                   333 10305 20188 81814 85360
                   555 00180=
201702130600 AAXX 13064 67662 12480 73306 10231 20194 48/// 60024 85530
                   333 10295 20172 85615 87360
                   555 00170=
201702090600 AAXX 09064 67662 12480 70000 10205 20196 48/// 60014 85530
                   333 10295 20174 5//// 85615 87360
                   555 00171=
201702071500 AAXX 07154 67662 NIL=
201702070600 AAXX 07064 67662 32480 70000 10230 20193 48/// 83530
                   333 10283 20181 5//// 83616 86360
                   555 00171=

################################################################################
#  SYNOPS from 67663, Kabwe (Zambia) | 14-27S | 028-28E | 1206 m
################################################################################
201703030600 AAXX 03064 67663 NIL=
201703021500 AAXX 02154 67663 NIL=
201702220600 AAXX 22064 67663 NIL=
201702201200 AAXX 20124 67663 NIL=
201702171200 AAXX 17124 67663 NIL=
201702071500 AAXX 07154 67663 NIL=
201702070600 AAXX 07064 67663 12480 50705 10212 20187 48512 69904 82532
                   333 10281 20180 59002 82618 83360 81080=

################################################################################
#  SYNOPS from 67665, Lusaka Internationalairport (Zambia) | 15-19S | 028-27E | 1152 m
################################################################################
201703030600 AAXX 03064 67665 NIL=
201703030300 AAXX 03034 67665 42360 50000 10178 20172 48504 70222 82502
                   333 59012 83703 84080=
201703021800 AAXX 02184 67665 41760 61202 10198 20190 48508 71322 81930
                   333 59013 81930 81956 86360=
201703021500 AAXX 02154 67665 NIL=
201703021200 AAXX 02124 67665 42660 71404 10255 20188 48514 70222 86832
                   333 58000 82620 85825 82360 83080=
201703020900 AAXX 02094 67665 41560 70706 10231 20186 48537 76022 86832
                   333 58002 83618 85820 82359 84080=
201703020600 AAXX 02064 67665 11360 60902 10202 20173 48530 60034 72842 83632
                   333 10274 20//0 59003 83706 84360 82080
                   555 00///=
201703020000 AAXX 02004 67665 42980 20702 10186 20171 48516 82030
                   333 58000 82360=
201703010900 AAXX 01094 67665 41458 73306 10211 20189 48533 78062 86570
                   333 58011 86615 85459=
201703010600 AAXX 01064 67665 42460 70000 10201 20177 48534 70222 86530
                   333 10208 58015 86620 83360
                   555 91020=
201703010000 AAXX 01004 67665 42960 41401 10187 20179 48516 70200 84030
                   333 58005 84360 555 91018=
201702282100 AAXX 28214 67665 42760 61103 10202 20190 48526 70222 81930
                   333 58007 81956 86360=
201702281800 AAXX 28184 67665 41760 61402 10212 20176 48512 71322 81932
                   333 10269 58008 81956 86360 81080=
201702281500 AAXX 28154 67665 41660 51203 10253 20176 48502 71522 81932
                   333 58019 81940 84360 82080 91016=
201702281200 AAXX 28124 67665 41560 60705 10262 20171 48505 71522 85200
                   333 58004 81925 85830=
201702280600 AAXX 28064 67665 12480 61005 10196 20180 48520 60074 70222 82530
                   333 10268 20//0 58008 82615 86360=
201702280300 AAXX 28034 67665 42359 80905 10184 20176 48507 70222 8677/
                   333 59012 86706 87459=
201702280000 AAXX 28004 67665 41659 80303 10183 20183 48510 76166 8707/
                   333 58003 87459=
201702272100 AAXX 27214 67665 42960 52708 10192 20176 48517 70222 85030
                   333 58007 85360=
201702271800 AAXX 27184 67665 42460 40406 10215 20176 48507 70200 81930
                   333 59005 81930 83235 81360
                   555 91017=
201702271500 AAXX 27154 67665 42460 61206 10257 20173 48484 70200 82132
                   333 10268 59008 82825 83360 81280=
201702271200 AAXX 27124 67665 42460 71108 10242 20174 48519 70222 85532
                   333 59003 85625 83360 83280
                   555 91016=
201702270900 AAXX 27094 67665 42460 70806 10211 20174 48524 8357/
                   333 59005 83615 87459 91019=
201702270600 AAXX 27064 67665 11359 71103 10192 20184 48511 60314 74144 82771
                   333 59013 82708 87460 85080=
201702261800 AAXX 26184 67665 42380 82603 10185 20185 48497 72586 8177/
                   333 59016 82707 88459=
201702261200 AAXX 26124 67665 42580 63204 10253 20172 48503 85232
                   333 59006 84825 81360 86080=
201702260900 AAXX 26094 67665 42460 73404 10227 20183 48531 70222 81530
                   333 59002 81620 86360=
201702260600 AAXX 26064 67665 42480 72907 10189 20189 48524 70222 8657/
                   333 59001 86705 88459=
201702260300 AAXX 26034 67665 42380 50000 10198 20185 48515 71322 81901
                   333 5//// 82920 81822 83080=
201702252100 AAXX 25214 67665 42980 30000 10200 20193 48518 70122 80001
                   333 5//// 83080=
201702251800 AAXX 25184 67665 42760 50903 10210 20195 48518 70122 81931
                   333 58007 81956 83360 84080=
201702251500 AAXX 25154 67665 42760 71006 10233 20203 48493 70222 81931
                   333 59008 81942 83840 86360 84080=
201702251200 AAXX 25124 67665 42560 70805 10251 20192 48508 70222 8623/
                   333 59001 86832 84360=
201702250900 AAXX 25094 67665 42580 70605 10257 20194 48533 70322 86502
                   333 58006 86620 82080=
201702250600 AAXX 25064 67665 12360 50903 10199 20159 48526 60284 82632
                   333 10268 20//0 58014 82709 83360 82080
                   555 00///=
201702250300 AAXX 25034 67665 41358 41402 10170 20164 48515 74244 84700
                   333 58018 84704 91018=
201702250000 AAXX 25004 67665 42980 10000 10182 20157 48514 81030
                   333 58008 81360=
201702242100 AAXX 24214 67665 42780 30000 10193 20160 48524 83032
                   333 58012 81956 83360 81080 91019=
201702241800 AAXX 24184 67665 42980 60905 10207 20175 48515 80002
                   333 58012 86080=
201702240600 AAXX 24064 67665 32460 70000 10201 20194 48508 70244 85730
                   333 10206 58003 85408 83560
                   555 91018=
201702232100 AAXX 23214 67665 42660 50802 10198 20182 48514 70222 83032
                   333 58002 81645 83360 84080=
201702231800 AAXX 23184 67665 42/60 50501 10202 20171 48498 83032
                   333 10258 58006 819// 83360 84080=
201702231500 AAXX 23154 67665 41660 71503 10209 20204 48489 72162 81532
                   333 58014 81635 83360 86279=
201702230600 AAXX 23064 67665 12480 72703 10201 20186 48509 60124 70222 84532
                   333 10276 20//0 59006 84615 86359 84080=
201702230300 AAXX 23034 67665 42980 52705 10185 20169 48495 70322 85030
                   333 59019 85360=
201702230000 AAXX 23004 67665 42960 10191 20176 48499 70122 83030
                   333 59009 83360=
201702222100 AAXX 22214 67665 42960 60000 10202 20187 48512 70222 85030
                   333 59004 85360=
201702221800 AAXX 22184 67665 41460 73203 10203 20193 48489 70266 81570
                   333 59010 81708 85459
                   555 91015=
201702221500 AAXX 22154 67665 42460 71504 10270 20188 48482 70222 81271
                   333 10276 59009 81825 83459 81080=
201702220900 AAXX 22094 67665 41359 83103 10206 20198 48519 75862 8577/
                   333 85708 88458 91018=
201702220600 AAXX 22064 67665 NIL=
201702211500 AAXX 21154 67665 42780 61604 10212 20165 48494 70122 85202
                   333 59005 81945 85850 83080=
201702211200 AAXX 21124 67665 42680 72207 10276 20194 48506 70222 86202
                   333 59014 86830 83080=
201702210900 AAXX 21094 67665 42480 72409 10225 20200 48525 70222 84570
                   333 59001 84709 86459=
201702210600 AAXX 21064 67665 42480 83403 10198 20185 48500 8657/
                   333 59006 86709 88459=
201702202100 AAXX 20214 67665 42980 40000 10203 20195 48521 70100 80001
                   333 59012 84080=
201702201200 AAXX 20124 67665 NIL=
201702200900 AAXX 20094 67665 42580 60707 10253 20189 48532 70222 85531
                   333 59017 85625 83360 83080=
201702200600 AAXX 20064 67665 32480 40910 10220 20182 48531 82531
                   333 59013 82615 82359 81080=
201702200000 AAXX 20004 67665 42980 60000 10202 20192 48521
                   333 59017 86359=
201702192100 AAXX 19214 67665 42980 21503 10205 20180 48534 70199 82031
                   333 59013 82359 81080=
201702191800 AAXX 19184 67665 42680 61303 10223 20151 48523 71322 82330
                   333 59023 82940 83850 83360=
201702191500 AAXX 19154 67665 42680 51105 10265 20155 48510 70100 85202
                   333 59021 85842 83080=
201702191200 AAXX 19124 67665 42480 60508 10268 20166 48533 70322 86530
                   333 59023 86620 84360=
201702190600 AAXX 19064 67665 12980 31002 10214 20144 48543 70200 83032
                   333 10235 20//0 59011 82360 81080
                   555 00///=
201702182100 AAXX 18214 67665 42980 71203 10189 20157 48544 8703/
                   333 58010 87360 91021=
201702181800 AAXX 18184 67665 42480 60905 10198 20179 48543 70322 82570
                   333 59019 82615 86459=
201702181500 AAXX 18154 67665 42580 60303 10220 20183 48525 70222 81171
                   333 59010 81830 86459 83080=
201702180900 AAXX 18094 67665 42480 82805 10208 20185 48564 70222 8557/=
201702180600 AAXX 18064 67665 32460 70702 10201 20186 48553 60104 70222 83430
                   333 10248 20//0 59013 83709 83625 85360
                   555 91022=
201702171800 AAXX 17184 67665 42/60 71002 10202 20165 48525 81932
                   333 10253 819// 83360 86280=
201702171500 AAXX 17154 67665 42660 70106 10225 20181 48517 83532
                   333 58010 83630 87360 81080 91018=
201702171200 AAXX 17124 67665 NIL=
201702170600 AAXX 17064 67665 11359 83603 10196 20189 48540 60014 76166 8567/
                   333 10281 20//0 58009 85703 87459=
201702170300 AAXX 17034 67665 41359 72605 10200 20185 48526 76022 84670
                   333 58006 84708 86459=
201702170000 AAXX 17004 67665 42980 43002 10205 20174 48519 70200 84030
                   333 58009 84360=
201702162100 AAXX 16214 67665 42980 43002 10215 20177 48535 70200 84030
                   333 58016 84360=
201702161800 AAXX 16184 67665 42560 62307 10226 20179 48523 70222 83230
                   333 58014 83825 83360
                   555 91019=
201702161200 AAXX 16124 67665 42560 62810 10255 20164 48524 70222 83232
                   333 58017 83825 83360 82080
                   555 91018=
201702160900 AAXX 16094 67665 42460 72510 10230 20167 48539 85532
                   333 58010 85615 84360 82080 91020=
201702151800 AAXX 15184 67665 41760 71703 10213 20183 48509 71322 81930
                   333 81956 86360=
201702151500 AAXX 15154 67665 42660 71504 10222 20184 48489 71792 81932
                   333 5//// 81940 85359 82080=
201702141800 AAXX 14184 67665 42980 40806 10225 20196 48511 70122 85030
                   333 5//// 85360=
201702141500 AAXX 14154 67665 42680 71504 10249 20197 48488 70322 82231
                   333 82850 81360 86080=
201702141200 AAXX 14124 67665 42680 62704 10280 20179 48505 70322 85201
                   333 85835 82080=
201702140900 AAXX 14094 67665 42580 43502 10274 20195 48526 70222 83530
                   333 5//// 83620 83360=
201702140600 AAXX 14064 67665 32280 50402 10209 20175 48518 70222 82630
                   333 10244 20//0 5//// 82706 85360=
201702131800 AAXX 13184 67665 42980 80904 10206 20135 48504 70222 8807/
                   333 58001 88459=
201702131200 AAXX 13124 67665 42580 63008 10287 20190 48515 70322 85230
                   333 59004 85232 82360=
201702130600 AAXX 13064 67665 42480 53001 10237 20176 48525 70300 81632
                   333 10299 20//0 59005 81610 83360 82080
                   555 00///=
201702130300 AAXX 13034 67665 42980 50000 10199 20168 48510 85032
                   333 58000 85360 81080 91017=
201702130000 AAXX 13004 67665 42980 52001 10202 20179 48510 85032
                   333 58005 85360 81080=
201702122100 AAXX 12214 67665 42760 33002 10218 20179 48518 83032
                   333 58008 81956 83360 81080 91018=
201702121800 AAXX 12184 67665 41680 40804 10223 20191 48507 71390 81962
                   333 59002 81940 81359 83080=
201702121500 AAXX 12154 67665 42680 30503 10297 20181 48503 81902
                   333 5//// 81933 82835 83080=
201702121200 AAXX 12124 67665 42580 50403 10282 20181 48512 70222 81301
                   333 59002 81923 85825 81080=
201702120600 AAXX 12064 67665 41480 83603 10201 20194 48517 70244 87530
                   333 10300 5//// 87408 81360
                   555 91019=
201702112100 AAXX 11214 67665 42480 51002 10204 20188 48511 70222 82230
                   333 59014 82830 83360=
201702111800 AAXX 11184 67665 41760 30904 10221 20184 48499 71792 81932
                   333 10296 59001 81950 82360 81080=
201702111500 AAXX 11154 67665 42680 61108 10267 20194 48490 83202
                   333 59054 81040 83845 82080=
201702111200 AAXX 11124 67665 42680 60507 10274 20184 48513 70322 86200
                   333 58002 86830=
201702110900 AAXX 11094 67665 42580 60412 10262 20173 48530 70222 86531
                   333 59004 86625 81360 81080=
201702110600 AAXX 11064 67665 32480 30406 10220 20187 48522 70200 81532
                   333 10//0 20//0 59009 81615 81360 83080=
201702110300 AAXX 11034 67665 42980 31202 10183 20166 48515 70200 80001
                   333 59006 83080=
201702110000 AAXX 11004 67665 42980 01203 10183 20166 48512 70100
                   333 59001=
201702102100 AAXX 10214 67665 42980 21203 10198 20174 48515 70200 80001
                   333 59003 82080=
201702101200 AAXX 10124 67665 42580 61111 10272 20173 48511 70222 85232
                   333 58004 85830 81360 84030
                   555 91017=
201702100600 AAXX 10064 67665 32980 61005 10208 20184 60094 70222 84031
                   333 10321 20//0 58010 84360 85080=
201702091800 AAXX 09184 67665 41780 10227 20190 48503 71322 81932
                   333 10286 58003 81956 85360 83080=
201702091500 AAXX 09154 67665 42780 60505 10243 20183 48496 70222 84232
                   333 58011 84850 82360 83080=
201702091200 AAXX 09124 67665 42680 61104 10264 20181 48509 70222 85202
                   333 58014 85830 83080=
201702090900 AAXX 09094 67665 42480 70708 10219 20197 48529 70222 82670
                   333 59008 82708 87360=
201702090000 AAXX 09004 67665 42980 50000 10208 20204 48506 70122 85602
                   333 58002 85709 83080=
201702081800 AAXX 08184 67665 42960 41102 10221 20214 48499 70122 81932
                   333 58002 819// 83360 83080=
201702081200 AAXX 08124 67665 42560 60904 10283 20187 48502 70322 86202
                   333 59013 86830 82080=
201702080600 AAXX 08064 67665 41205 80506 10197 20192 48522 74442 886//
                   333 59001 88705=
201702080000 AAXX 08004 67665 42360 61003 10200 20188 48512 70321 86600
                   333 59009 86709=
201702072100 AAXX 07214 67665 42980 21103 10198 20179 48520 70112 80001
                   333 59001 82080=
201702071500 AAXX 07154 67665 NIL=
201702070600 AAXX 07064 67665 11358 80303 10207 20170 48524 76022 8577/
                   333 10255 20/// 58007 85705 88458=
201702070300 AAXX 07034 67665 41358 81502 10199 20192 48505 76162 8577/
                   333 58004 85706 88459 91017=
201702070000 AAXX 07004 67665 42360 00000 10197 20181 48506 81630
                   333 58003 81706 81360=
201702060900 AAXX 06094 67665 41560 82002 10231 20197 48521 76122 8657/
                   333 58009 86620 88459=
201702060600 AAXX 06064 67665 41460 83503 10202 20195 48517 60124 70266 85570
                   333 10287 20//0 59004 85708 87459
                   555 91018=
201702060300 AAXX 06034 67665 42460 73103 10199 20191 48501 70222 83570
                   333 59002 83708 87459=
201702060000 AAXX 06004 67665 41460 73602 10195 20187 48503 78062 83570
                   333 59006 83708 87459
                   555 91017=
201702052100 AAXX 05214 67665 42480 73503 10202 20195 48516 70222 83530
                   333 59007 83708 87459=
201702051800 AAXX 05184 67665 41760 70000 10200 20185 48498 8197/
                   333 59006 81956 87459=
201702051500 AAXX 05154 67665 41658 72308 10206 20191 48484 76022 8527/
                   333 58000 85840 87459 91014=
201702051200 AAXX 05124 67665 42660 62003 10265 20174 48493 84232
                   333 59013 84830 86360 81080=
201702050900 AAXX 05094 67665 42880 62503 10265 20188 48517 70222 86231
                   333 59011 82823 85623 82360 83080=
201702050600 AAXX 05064 67665 12460 70000 10208 20184 48513 60094 70222 86530
                   333 10269 20//0 59005 86618 83360=
201702050300 AAXX 05034 67665 42980 30502 10179 20171 48497 70200 83030
                   333 59008 83360=
201702042100 AAXX 04214 67665 42980 50803 10206 20191 48510 70122 85030
                   333 59005 85360=
201702041800 AAXX 04184 67665 42480 60703 10221 20199 48506 70222 84530
                   333 59007 84615 82820 82360
                   555 91017=
201702041200 AAXX 04124 67665 42480 73505 10222 20200 48450 70266 86530
                   333 59010 85620 82825
                   555 91016=
201702040900 AAXX 04094 67665 42460 70607 10242 20181 48524 70122 8453/
                   333 59011 84618 87360 91018=
201702031800 AAXX 03184 67665 41760 61602 10205 20180 48511 71322 8193/
                   333 10262 59002 81956 87359=
201702031500 AAXX 03154 67665 42660 71202 10220 20174 48503 72999 81970
                   333 58004 81935 87459=
201702031200 AAXX 03124 67665 41580 73109 10228 20174 48511 71722 82930
                   333 58004 82920 84822 86360=
201702030900 AAXX 03094 67665 42480 73303 10233 20197 48533 70222 82530
                   333 58000 82708 84620 84360=
201702021800 AAXX 02184 67665 41659 80000 10192 20192 48511 72966 8597/
                   333 59002 819// 85840 88458=
201702020900 AAXX 02094 67665 42560 71504 10226 20189 48533 72562 86830
                   333 58011 84620 85825 83360=
201702020600 AAXX 02064 67665 42580 10220 20190 48536 70321 83531
                   333 10240 20/// 58016 83620 81360 82080=
201702012100 AAXX 01214 67665 41580 20602 10205 20174 48526 71300 81930
                   333 58012 81930 82080=
201702011500 AAXX 01154 67665 42580 61110 10251 20174 48495 86501
                   333 58008 83609 83840 82080=
201702010900 AAXX 01094 67665 42580 60510 10259 20176 48526 86500
                   333 59001 86625=
201702010600 AAXX 01064 67665 32460 70506 10205 20149 48519 875//
                   333 10271 20//0 59005 87612
                   555 00///=

################################################################################
#  SYNOPS from 67666, Lusaka City Airport (Zambia) | 15-25-00S | 028-28-00E | 1280 m
################################################################################
201703030600 AAXX 03064 67666 12580 61702 10204 20179 48500 69904 83171
                   333 10261 20168 59020 83825 85356 91017=
201703021500 AAXX 02154 67666 NIL=
201703020600 AAXX 02064 67666 12380 70906 10201 20195 48520 60074 8463/
                   333 10252 20179 58001 84708 83459 91019=
201702280600 AAXX 28064 67666 12480 60907 10190 20174 48514 69934
                   333 10255 20178 58006 81612 86360
                   555 00/// 91018=
201702270600 AAXX 27064 67666 12380 80603 10194 20176 48508 60064 8167/
                   333 10264 20174 59009 81708 88458
                   555 00/// 91018=
201702240600 AAXX 24064 67666 12480 70605 10201 20193 48511 60204 86538
                   333 10244 20178 58007 86612 83360 87280
                   555 00/// 91018=
201702230600 AAXX 23064 67666 12880 82704 10198 20170 48500 60014 8807/
                   333 10260 20178 59005 88358
                   555 00/// 91017=
201702220600 AAXX 22064 67666 11380 80000 10191 20188 48499 60434 75052 887//
                   333 10260 20183 59011 88707 91017=
201702210600 AAXX 21064 67666 11380 80000 10197 20179 48519 60214 71722 877//
                   333 10264 20188 59007 87708 8/9// 91019=
201702201200 AAXX 20124 67666 NIL=
201702171200 AAXX 17124 67666 NIL=
201702170600 AAXX 17064 67666 11380 81406 10189 20175 48527 60104 75552 8467/
                   333 10268 20189 58007 84708 87458
                   555 00111 91020=
201702160600 AAXX 16064 67666 11480 83307 10190 20174 48528 69934 72055 8667/
                   333 10276 20188 58008 86610 88458
                   555 00/// 91020=
201702150600 AAXX 15064 67666 32480 70607 10209 20175 48522 82538
                   333 10278 20188 59009 82615 83360 87280
                   555 00/// 91019=
201702130600 AAXX 13064 67666 32780 50604 10224 20184 48521 85031
                   333 10281 20180 59003 85362 81080
                   555 00/// 91018=
201702100600 AAXX 10064 67666 12980 70906 10207 20178 48527 60024 8703/
                   333 10280 20194 58009 87359 91019=
201702071500 AAXX 07154 67666 NIL=
201702070600 AAXX 07064 67666 32480 50912 10206 20178 48516 85830
                   333 10287 20180 58000 85615 81818 82360
                   555 00179 91018=

################################################################################
#  SYNOPS from 67667, Mount Makulu (Zambia) | 15-33S | 028-15E | 1213 m
################################################################################
201703030600 AAXX 03064 67667 12580 70000 10198 20186 48/// 60154 82508
                   333 10252 20180 59022 82625 87280
                   555 00165=
201703021500 AAXX 02154 67667 NIL=
201703020600 AAXX 02064 67667 12580 70000 10205 20181 48/// 60054 87502
                   333 10260 20181 58003 87620 85080
                   555 00166=
201703010600 AAXX 01064 67667 12580 70000 10204 20200 48/// 60044 85508
                   333 10274 20172 58015 85620 87280
                   555 00163=
201702280600 AAXX 28064 67667 12980 60801 10204 20186 48/// 60034 80002
                   333 10275 20178 58002 86080
                   555 00160=
201702240600 AAXX 24064 67667 12580 60901 10226 20201 48/// 60124 81132
                   333 10254 20184 59001 81820 82360 86080
                   555 00158=
201702230600 AAXX 23064 67667 32980 82701 10200 20185 48/// 80008
                   333 10266 20181 58002 88280
                   555 00176=
201702220600 AAXX 22064 67667 11580 80000 10194 20176 48/// 60384 72162 82508
                   333 10254 20182 59011 82620 88280
                   555 00170=
201702210600 AAXX 21064 67667 11580 82701 10185 20185 48/// 60384 79522 885//
                   333 10284 20184 59007 81950 88620
                   555 00175=
201702201200 AAXX 20124 67667 NIL=
201702200600 AAXX 20064 67667 12580 40901 10225 20187 48/// 60024 82502
                   333 10291 20198 59008 82625 84080=
201702171200 AAXX 17124 67667 NIL=
201702170600 AAXX 17064 67667 11480 83401 10194 20190 48/// 60024 75062 85608
                   333 10276 20180 58004 85718 88280
                   555 00175=
201702160600 AAXX 16064 67667 12980 82701 10197 20179 48/// 60344 80008
                   333 10282 20195 5//// 88280
                   555 00175=
201702150600 AAXX 15064 67667 32980 70802 10222 20178 48/// 80008
                   333 10292 20192 59004 87280
                   555 00180=
201702100600 AAXX 10064 67667 12980 80901 10216 20192 48/// 60214 82038
                   333 10282 20193 58014 82360 88280
                   555 00188=
201702090600 AAXX 09064 67667 12480 80000 10202 20200 48/// 69904 82738
                   333 10265 20175 59001 82715 82360 88280
                   555 00170=
201702071500 AAXX 07154 67667 NIL=
201702070600 AAXX 07064 67667 32580 30901 10222 20174 48/// 81102
                   333 10269 20190 58001 81825 83080
                   555 00175=

################################################################################
#  SYNOPS from 67673, Petauke (Zambia) | 14-15S | 031-17E | 1035 m
################################################################################
201703030600 AAXX 03064 67673 NIL=
201703021500 AAXX 02154 67673 NIL=
201703020600 AAXX 02064 67673 12584 50000 10220 20190 48541 60294 83132
                   333 10280 20180 58012 83828 84360 85080=
201703010600 AAXX 01064 67673 12580 70000 10220 20206 48541 60034 8357/
                   333 10270 20190 59003 83620 85360
                   555 00///=
201702280600 AAXX 28064 67673 32584 70901 10224 20195 48535 8413/
                   333 10302 20198 58014 84825 87360
                   555 00///=
201702230600 AAXX 23064 67673 11580 70000 10200 20194 48533 60054 76062 8417/
                   333 10308 20192 58019 84825 87459
                   555 00///=
201702220600 AAXX 22064 67673 NIL=
201702201200 AAXX 20124 67673 NIL=
201702200600 AAXX 20064 67673 12584 60802 10234 20192 48536 69984 86801
                   333 10305 20196 59023 83828 83630 82080=
201702171200 AAXX 17124 67673 NIL=
201702170900 AAXX 17094 67673 42680 73001 10224 20180 48547 8417/
                   333 58041 84835 87360=
201702170600 AAXX 17064 67673 11580 73602 10190 20182 48560 60344 76166 8457/
                   333 10302 20178 58044 84825 87459=
201702161200 AAXX 16124 67673 42684 52701 10288 20212 48524 85231
                   333 58040 85835 84360 83080=
201702160900 AAXX 16094 67673 42680 70000 10260 20215 48538 84138
                   333 59013 84830 82360 85280=
201702150600 AAXX 15064 67673 12584 50000 10242 20199 48533 60014 82131
                   333 10320 20196 58005 82830 83360 85080
                   555 00///=
201702090600 AAXX 09064 67673 12584 60000 10230 20185 48531 69904 86501
                   333 10330 20198 58016 86628 84080=
201702071500 AAXX 07154 67673 NIL=
201702070600 AAXX 07064 67673 12584 50000 10234 20200 48536 60264 84131
                   333 10305 20180 58018 84828 85360 83080=

################################################################################
#  SYNOPS from 67731, Senanga (Zambia) | 16-06S | 023-16E | 1027 m
################################################################################
201703030600 AAXX 03064 67731 11459 812// 10201 20191 48/// 60024 72566 8357/
                   333 10302 20149 59014 83610 88760
                   555 00144=
201703021500 AAXX 02154 67731 NIL=
201702230600 AAXX 23064 67731 12980 18/// 10226 20178 48/// 60024 70222 84032
                   333 10312 20189 59018 84360 85080
                   555 00178=
201702220600 AAXX 22064 67731 12480 810// 10191 20176 48/// 60164 70222 82102
                   333 10278 20179 5//// 82814 87080
                   555 00171=
201702201200 AAXX 20124 67731 NIL=
201702171200 AAXX 17124 67731 NIL=
201702170600 AAXX 17064 67731 12480 810// 10220 20164 48/// 60454 70322 83577
                   333 10254 20177 59004 83613 85460 87280=
201702071500 AAXX 07154 67731 NIL=

################################################################################
#  SYNOPS from 67741, Sesheke (Zambia) | 17-28S | 024-18E | 949 m
################################################################################
201703030600 AAXX 03064 67741 NIL=
201703021500 AAXX 02154 67741 NIL=
201702240600 AAXX 24064 67741 12680 60000 10220 20210 48500 60504 82570
                   333 10290 20197 58002 82640 85362
                   555 00196=
201702220600 AAXX 22064 67741 12980 70000 10215 20195 48498 60234 8703/
                   333 10274 20191 59007 87362
                   555 00189=
201702201200 AAXX 20124 67741 NIL=
201702171200 AAXX 17124 67741 NIL=
201702170600 AAXX 17064 67741 32680 53401 10244 20198 48523 81530
                   333 10276 20187 59005 81640 85362
                   555 00178=
201702071500 AAXX 07154 67741 NIL=
201702070600 AAXX 07064 67741 12680 80901 10207 20203 48508 60474 885//
                   333 10298 20191 59003 88635
                   555 00194=

################################################################################
#  SYNOPS from 67743, Livingstone (Zambia) | 17-49S | 025-49E | 985 m
################################################################################
201703030600 AAXX 03064 67743 NIL=
201703021500 AAXX 02154 67743 NIL=
201702220600 AAXX 22064 67743 NIL=
201702201200 AAXX 20124 67743 NIL=
201702171200 AAXX 17124 67743 NIL=
201702071500 AAXX 07154 67743 NIL=

################################################################################
#  SYNOPS from 67751, Magoye (Zambia) | 16-00S | 027-36E | 1018 m
################################################################################
201703030600 AAXX 03064 67751 NIL=
201703021500 AAXX 02154 67751 NIL=
201702240600 AAXX 24064 67751 32980 70303 10230 20204 48/// 82307
                   333 10294 20194 59004 82360 86280
                   555 00192=
201702230600 AAXX 23064 67751 12980 70000 10214 20203 48/// 60044 8707/
                   333 10280 20190 58000 87360
                   555 00187=
201702220600 AAXX 22064 67751 NIL=
201702201200 AAXX 20124 67751 NIL=
201702171200 AAXX 17124 67751 NIL=
201702090600 AAXX 09064 67751 11980 71702 10217 20203 48/// 69984 87019
                   333 10302 20179 59004 87080
                   555 00177=
201702071500 AAXX 07154 67751 NIL=

################################################################################
#  SYNOPS from 67753, Choma (Zambia) | 16-50S | 027-04E | 1213 m
################################################################################
201703030600 AAXX 03064 67753 11356 83504 10179 20179 48508 60364 76166 887//
                   333 10250 20170 59018 88706=
201703021500 AAXX 02154 67753 NIL=
201703020600 AAXX 02064 67753 12360 72802 10204 20198 48529 60174 84630
                   333 10269 20170 58002 84709 83360=
201703010600 AAXX 01064 67753 12460 71804 10201 20135 48520 60144 84530
                   333 10264 20184 58014 84615 83360
                   555 00///=
201702280600 AAXX 28064 67753 12360 50000 10194 20191 48509 60134 81602
                   333 10249 20172 58005 81709 84080=
201702270600 AAXX 27064 67753 12560 70000 10190 20184 48499 60084 83530
                   333 10272 20178 59009 83625 84360
                   555 00///=
201702240600 AAXX 24064 67753 12560 73606 10206 20196 48511 60014 8283/
                   333 10247 20188 58008 81620 81825 85360
                   555 00///=
201702220600 AAXX 22064 67753 12360 31602 10294 20190 48499 60384 83630
                   333 10271 20182 59008 83708 83360=
201702210600 AAXX 21064 67753 32360 71602 10201 20180 48510 82630
                   333 10278 20184 58031 82709 85360=
201702201200 AAXX 20124 67753 NIL=
201702200600 AAXX 20064 67753 11560 80000 10188 20186 48528 60014 8225/
                   333 10280 20180 59010 82825 85360=
201702171200 AAXX 17124 67753 NIL=
201702170600 AAXX 17064 67753 12560 73514 10196 20187 48520 60024 8355/
                   333 10244 20174 59002 83620 84360=
201702160600 AAXX 16064 67753 11359 82007 10204 20197 48520 60164 75155 886//
                   333 10278 20192 58000 88707=
201702100600 AAXX 10064 67753 11560 80000 10184 20179 48518 60084 76062 8257/
                   333 10290 20172 58014 82625 86360=
201702071500 AAXX 07154 67753 NIL=
201702070600 AAXX 07064 67753 32360 72703 10203 48510 87600
                   333 10262 20182 59002 87708=

################################################################################
#  SYNOPS from 67855, Lupaki (Zambia) | 17-03-00S | 024-46-00E | 1000 m
################################################################################
201703030600 AAXX 03064 67855 32575 70302 10222 20199 3//// 48/// 81531
                   333 20196 5//// 81625 83360=
201703021200 AAXX 02124 67855 42775 51102 10310 20182 3//// 48/// 85232
                   333 5//// 85850=
201703020600 AAXX 02064 67855 NIL=
201703011200 AAXX 01124 67855 42675 53301 10294 20194 3//// 48/// 85200
                   333 5//// 85840=
201703010600 AAXX 01064 67855 12975 41105 10202 20172 3//// 48/// 69904 84070
                   333 20168 5//// 84360=
201702281200 AAXX 28124 67855 NIL=
201702280600 AAXX 28064 67855 NIL=
201702271200 AAXX 27124 67855 41670 63303 10260 20205 3//// 48/// 79598 85233
                   333 5//// 81930 84835 86080=
201702270600 AAXX 27064 67855 NIL=
201702261200 AAXX 26124 67855 41670 80000 10212 20204 3//// 48/// 79598 8527/
                   333 5//// 81930 84835 88458=
201702260600 AAXX 26064 67855 11970 80000 10202 20199 3//// 48/// 60374 76062 8807/
                   333 20200 5//// 88458=
201702251200 AAXX 25124 67855 NIL=
201702250600 AAXX 25064 67855 11975 60303 10200 20208 3//// 48/// 69904 70162 86071
                   333 20200 5//// 86360=
201702241200 AAXX 24124 67855 42775 50103 10288 20198 3//// 48/// 85202
                   333 5//// 85850 83080=
201702240600 AAXX 24064 67855 12975 70000 10214 20200 3//// 48/// 60054 8707/
                   333 20184 5//// 87360=
201702231200 AAXX 23124 67855 NIL=
201702230600 AAXX 23064 67855 12575 70603 10210 20204 3//// 48/// 8557/
                   333 20204 5//// 85625 87360=
201702221200 AAXX 22124 67855 41675 73302 10288 20198 3//// 48/// 71582 85232
                   333 5//// 85845 87080=
201702220600 AAXX 22064 67855 12975 73601 10212 20195 3//// 48/// 70154 85072
                   333 20200 5//// 85360 87080=
201702211200 AAXX 21124 67855 41675 70301 10236 20213 3//// 48/// 72998 8327/
                   333 5//// 83835 87360=
201702210600 AAXX 21064 67855 11575 71203 10222 20202 3//// 48/// 60034 72052 82572
                   333 20204 5//// 82625 85459 87080=
201702201200 AAXX 20124 67855 41670 73603 10242 20213 3//// 48/// 8527/
                   333 5//// 85840 87359=
201702200600 AAXX 20064 67855 11575 70000 10210 20198 3//// 48/// 60034 70262 8257/
                   333 20195 5//// 82620 87360=
201702191200 AAXX 19124 67855 NIL=
201702190600 AAXX 19064 67855 32575 70601 10216 20193 3//// 48/// 8157/
                   333 20194 5//// 81620 87360=
201702181200 AAXX 18124 67855 42675 73608 10272 20184 3//// 48/// 85232
                   333 5//// 85845 87080=
201702180600 AAXX 18064 67855 11575 70202 10210 20193 3//// 48/// 60024 70262 8557/
                   333 20202 5//// 85620 87360=
201702171200 AAXX 17124 67855 41670 73601 10230 20195 3//// 48/// 76162 83572
                   333 5//// 83635 87458=
201702170600 AAXX 17064 67855 32575 73603 10222 20197 3//// 48/// 83572
                   333 20210 5//// 83625 85459 87080=
201702161200 AAXX 16124 67855 42775 73601 10298 20203 3//// 48/// 85232
                   333 5//// 85850 87080=
201702160600 AAXX 16064 67855 32975 70301 10222 20183 3//// 48/// 82031
                   333 20195 5//// 82360 87080=
201702151200 AAXX 15124 67855 41775 53201 10292 20184 3//// 48/// 70192 83202
                   333 5//// 83850 85080=
201702150600 AAXX 15064 67855 12575 60000 10222 20205 3//// 48/// 69904 83531
                   333 20200 5//// 83625 86360=
201702140600 AAXX 14064 67855 11575 60000 10216 20207 3//// 48/// 60024 70342 86531
                   333 20208 5//// 86620 83360=
201702131200 AAXX 13124 67855 41670 60102 10326 20195 3//// 48/// 71798 85203
                   333 5//// 81940 84845 86080=
201702130600 AAXX 13064 67855 32975 30000 10228 20196 38/// 48/// 81031
                   333 20199 5//// 81360 83080=
201702121200 AAXX 12124 67855 42775 50000 10306 20198 3//// 48/// 85232
                   333 5//// 85856=
201702120600 AAXX 12064 67855 32975 00303 10218 20188 3//// 48///
                   333 20175 5////=
201702111800 AAXX 11184 67855 NIL=
201702111200 AAXX 11124 67855 42775 53602 10312 20188 3//// 48/// 85200
                   333 85856=
201702110600 AAXX 11064 67855 32975 10903 10228 20168 3//// 48/// 80001
                   333 20175 5//// 81080=
201702101200 AAXX 10124 67855 42775 40602 10316 20185 38/// 48/// 84201
                   333 5//// 84856 83080=
201702100600 AAXX 10064 67855 32575 50603 10230 20198 3//// 48/// 81501
                   333 20190 5//// 81625 85080=
201702091200 AAXX 09124 67855 NIL=
201702090600 AAXX 09064 67855 12975 70501 10210 20199 3//// 48/// 80002
                   333 20188 5//// 87080=
201702081800 AAXX 08184 67855 NIL=
201702081200 AAXX 08124 67855 NIL=
201702080600 AAXX 08064 67855 12575 70402 10228 20209 3//// 48/// 60164 82531
                   333 20208 5//// 82625 87080=
201702071800 AAXX 07184 67855 NIL=
201702071200 AAXX 07124 67855 41775 50602 10310 20192 3//// 48/// 85201
                   333 5//// 85850 83080=
201702070600 AAXX 07064 67855 12575 61402 10224 20210 3//// 48/// 60024 81531
                   333 20199 5//// 81625 83360 86080=
201702061200 AAXX 06124 67855 41670 71104 10290 20201 38/// 48/// 79598 84273
                   333 5//// 81935 83840 87359=
201702060600 AAXX 06064 67855 NIL=
201702051800 AAXX 05184 67855 NIL=
201702050600 AAXX 05064 67855 12575 70402 10220 20213 3//// 48/// 60034 8457/
                   333 20200 5//// 84620 87360=
201702041200 AAXX 04124 67855 42775 71403 10286 20208 3//// 48/// 84232
                   333 5//// 84850 87080=
201702040600 AAXX 04064 67855 12575 60602 10216 20199 3//// 48/// 60284 81531
                   333 20194 5//// 81620 83360 85080=
201702031200 AAXX 03124 67855 41670 72301 10268 20214 3//// 48/// 71798 84273
                   333 5//// 81930 83835 87360=
201702030600 AAXX 03064 67855 32975 20402 10228 20196 3//// 48/// 82031
                   333 20195 5//// 82360=
201702021200 AAXX 02124 67855 42775 63401 10302 20190 3//// 48/// 86500
                   333 5//// 86650=
201702020600 AAXX 02064 67855 11975 30301 10208 20199 3//// 48/// 60144 70161 81031
                   333 20192 5//// 81360 83080=
201702011800 AAXX 01184 67855 NIL=
201702011200 AAXX 01124 67855 41775 40602 10296 20203 3//// 48/// 70161 84231
                   333 5//// 84850=
201702010600 AAXX 01064 67855 11970 71401 10200 20193 3//// 48/// 60064 76062 8707/
                   333 20200 5//// 87458=
