################################################################################
# Query made at 04/10/2022 06:38:22 UTC
# Country like Zamb*
# Time interval: from 03/01/2020 05:30  to 03/31/2020 06:30  UTC
################################################################################

################################################################################
#  SYNOPS from 67403, Kawambwa (Zambia) | 09-48S | 029-05E | 1323 m
################################################################################
202003270600 AAXX 27064 67403 11480 72702 10193 20188 48523 60114 72166 8653/
                   333 10302 20174 59022 86610 87360
                   555 00182=
202003261200 AAXX 26124 67403 NIL=
202003260900 AAXX 26094 67403 NIL=
202003260600 AAXX 26064 67403 11475 60901 10210 20203 48502 60064 70342 82531
                   333 10308 20186 59003 82510 83360 84080
                   555 00181=
202003251200 AAXX 25124 67403 NIL=
202003250900 AAXX 25094 67403 NIL=
202003230600 AAXX 23064 67403 12980 50901 10203 20186 48528 69984 85031
                   333 10222 20176 5//// 85360 81080
                   555 00182=
202003200600 AAXX 20064 67403 11430 80000 10192 20188 48513 60144 71666 8657/
                   333 10214 20182 59003 86610 88360
                   555 00184=
202003191200 AAXX 19124 67403 NIL=
202003190600 AAXX 19064 67403 11930 82202 10188 20187 48516 60194 76166 8807/
                   333 10246 20186 58000 88460
                   555 00198=
202003181200 AAXX 18124 67403 NIL=
202003180600 AAXX 18064 67403 11475 81202 10202 20194 48517 60054 70362 875//
                   333 10242 20189 58005 87615=
202003170600 AAXX 17064 67403 11920 80901 10190 20188 48512 60284 76166 8807/
                   333 10296 20178 58000 88460=
202003130600 AAXX 13064 67403 11475 70901 10207 20203 48515 60024 70322 8363/
                   333 10276 20190 59001 83710 87360=
202003101200 AAXX 10124 67403 NIL=
202003060600 AAXX 06064 67403 11480 70602 10195 20183 48521 60054 70322 82530
                   333 10298 20179 59012 82612 87360=
202003051200 AAXX 05124 67403 NIL=
202003040900 AAXX 04094 67403 NIL=
202003040600 AAXX 04064 67403 11330 82701 10188 20184 48543 60244 70342 8253/
                   333 10242 20178 58020 82608 88360
                   555 00188=
202003030600 AAXX 03064 67403 11930 83303 10188 20184 48523 60234 76166 8807/
                   333 10236 20180 58003 88460
                   555 00182=
202003020600 AAXX 02064 67403 11956 80901 10185 20182 48521 60904 76166 8807/
                   333 10282 20187 58001 88460=

################################################################################
#  SYNOPS from 67413, Mbala (Zambia) | 08-51S | 031-20E | 1673 m
################################################################################
202003270600 AAXX 27064 67413 NIL=
202003261200 AAXX 26124 67413 NIL=
202003260900 AAXX 26094 67413 NIL=
202003251200 AAXX 25124 67413 NIL=
202003250900 AAXX 25094 67413 NIL=
202003240600 AAXX 24064 67413 12480 71208 10192 20166 48537 60204 874//
                   333 10266 20161 58001 87610 91024=
202003191200 AAXX 19124 67413 NIL=
202003181200 AAXX 18124 67413 NIL=
202003180600 AAXX 18064 67413 11475 83202 10170 20162 48549 60954 76066 887//
                   333 10238 20164 58016 88710 91025=
202003170600 AAXX 17064 67413 11780 80704 10180 20171 48532 60384 72166 8807/
                   333 10236 20168 58002 88456 91023=
202003110600 AAXX 11064 67413 12780 60902 10186 20167 48531 60304 8607/
                   333 10275 20164 59002 86456 91023=
202003101200 AAXX 10124 67413 NIL=
202003051200 AAXX 05124 67413 NIL=
202003040900 AAXX 04094 67413 NIL=
202003020600 AAXX 02064 67413 11475 70202 10176 20173 48540 60764 78066 877//
                   333 10266 20164 5//// 87710 91024=

################################################################################
#  SYNOPS from 67441, Mwinilunga (Zambia) | 11-45S | 024-26E | 1361 m
################################################################################
202003270900 AAXX 27094 67441 42680 60903 10250 20173 48570 83138
                   333 5//// 83840 83362 85272=
202003270600 AAXX 27064 67441 12680 70000 10185 20176 48558 60174 8213/
                   333 10290 2//// 82840 87360=
202003261200 AAXX 26124 67441 NIL=
202003260900 AAXX 26094 67441 42680 60000 10235 20176 48/// 84107
                   333 5//// 84840 86270=
202003260600 AAXX 26064 67441 12980 80000 10190 20182 48/// 60164 8802/
                   333 10300 2//// 5//// 88460=
202003251200 AAXX 25124 67441 NIL=
202003250900 AAXX 25094 67441 NIL=
202003240900 AAXX 24094 67441 42680 50000 10250 20173 48566 84107
                   333 59004 84840 85270=
202003240600 AAXX 24064 67441 11380 70000 10180 20172 48/// 60424 72166 8372/
                   333 10310 2//// 5//// 83707 87460=
202003230900 AAXX 23094 67441 42680 60000 10260 20184 48570 85104
                   333 5//// 85845 86075=
202003230600 AAXX 23064 67441 11340 60000 10190 20181 48565 60084 74244 83604
                   333 10277 2//// 58012 83709 85070=
202003200600 AAXX 20064 67441 11309 70000 10180 20176 48/// 60294 74244 877//
                   333 10230 2//// 5//// 87708=
202003191200 AAXX 19124 67441 NIL=
202003181200 AAXX 18124 67441 NIL=
202003180600 AAXX 18064 67441 11310 80000 10192 20187 48/// 60034 74244 8372/
                   333 10270 2//// 5//// 83707 88460=
202003170900 AAXX 17094 67441 72680 70503 10235 20184 48551 8513/
                   333 5//// 85840 86361=
202003170600 AAXX 17064 67441 12980 70000 10190 20181 48542 60054 8703/
                   333 10270 2//// 5//// 87360=
202003130600 AAXX 13064 67441 12380 80000 10190 20190 48540 60404 887//
                   333 10288 2//// 5//// 88709=
202003111200 AAXX 11124 67441 42680 63103 10245 20173 48520 85260
                   333 58010 85845 84362=
202003101200 AAXX 10124 67441 NIL=
202003100900 AAXX 10094 67441 42680 70000 10241 20183 48547 8523/
                   333 5//// 85840 85360=
202003100600 AAXX 10064 67441 12380 80000 10195 20186 48538 60074 8372/
                   333 10292 2//// 59004 83707 88460=
202003060600 AAXX 06064 67441 12380 60000 10195 20186 48555 60014 83630
                   333 10260 2//// 5//// 83709 86360=
202003051200 AAXX 05124 67441 42680 70000 10220 20177 48540 8413/
                   333 58010 84840 87360=
202003040900 AAXX 04094 67441 NIL=
202003040600 AAXX 04064 67441 31309 70000 10180 20168 48560 74244 8463/
                   333 10270 2//// 58004 84708 87360=
202003030600 AAXX 03064 67441 32380 83203 10195 20186 48555 886//
                   333 10280 2//// 58009 88708=
202003020600 AAXX 02064 67441 12380 70000 10200 20192 48546 69984 8473/
                   333 10270 2//// 59005 84707 87360=

################################################################################
#  SYNOPS from 67461, Mansa (Zambia) | 11-06S | 028-51E | 1382 m
################################################################################
202003271200 AAXX 27124 67461 42580 72707 10240 20195 48488 82531
                   333 58026 82620 86360 82080 91015=
202003270900 AAXX 27094 67461 42480 73207 10220 20184 48521 8157/
                   333 58037 81615 87360 91019=
202003270600 AAXX 27064 67461 11280 82805 10180 20180 48512 60374 76166 8762/
                   333 10300 20164 58029 87703 88460 91018=
202003261200 AAXX 26124 67461 41480 72713 10246 20209 48462 71792 81931
                   333 59011 81918 84820 86360 81080 91012=
202003260900 AAXX 26094 67461 42680 51009 10275 20194 48489 84131
                   333 59001 84835 81360 81080 91014=
202003260600 AAXX 26064 67461 32380 60208 10210 20195 48486 81138
                   333 10282 20162 59001 81806 81360 85280 91015=
202003251200 AAXX 25124 67461 42680 21010 10285 20175 48476 82101
                   333 59013 82845 81080 91013=
202003250900 AAXX 25094 67461 42680 41310 10269 20189 48489 84800
                   333 59028 83630 81832 91015=
202003241200 AAXX 24124 67461 42680 41213 10280 20183 48489 84201
                   333 59016 84840 81080 91014=
202003240900 AAXX 24094 67461 42580 61413 10260 20194 48516 85231
                   333 59001 85828 81360 81080 91017=
202003230600 AAXX 23064 67461 12380 61208 10205 20190 48519 60214 83531
                   333 10272 20168 58006 83606 83360 82080 91019=
202003201200 AAXX 20124 67461 42680 71012 10270 20189 48476 81331
                   333 59015 81932 85835 84360 81080 91013=
202003200900 AAXX 20094 67461 42580 71113 10245 20175 48488 8583/
                   333 59028 84625 81828 86360 91015=
202003200600 AAXX 20064 67461 12280 71411 10198 20194 48486 60124 876//
                   333 10250 20174 59018 87703 91015=
202003191200 AAXX 19124 67461 41473 71309 10215 20200 48486 75166 8557/
                   333 58001 85610 87460 91015=
202003190600 AAXX 19064 67461 11248 81802 10186 20186 48502 60214 76166 8762/
                   333 10210 20168 58002 87703 88460 91017=
202003181200 AAXX 18124 67461 41265 71503 10205 20197 48485 76166 8662/
                   333 58001 86705 87460 91015=
202003180900 AAXX 18094 67461 41268 71810 10205 20197 48501 76166 8662/
                   333 58000 86705 87460 91016=
202003180600 AAXX 18064 67461 11280 80906 10195 20187 48501 60214 72166 8667/
                   333 10265 20168 58016 86704 88360 91016=
202003170900 AAXX 17094 67461 42480 70913 10222 20181 48503 8657/
                   333 58016 86618 87360 91016=
202003170600 AAXX 17064 67461 12280 71209 10183 20172 48485 60284 8357/
                   333 10280 20158 59026 83705 87360 91015=
202003130900 AAXX 13094 67461 42580 70808 10256 20195 48503 81331
                   333 59002 81925 85828 83360 81080 91016=
202003130600 AAXX 13064 67461 12380 70805 10210 20195 48502 60074 8457/
                   333 10278 20174 58016 84606 87360 91016=
202003111200 AAXX 11124 67461 42580 70812 10260 20195 48474 84231
                   333 59001 84826 85360 82080 91013=
202003110600 AAXX 11064 67461 12480 71205 10219 20186 48486 60014 8467/
                   333 10289 20179 59001 84712 87360 91015=
202003101200 AAXX 10124 67461 42680 71406 10275 20186 48476 8133/
                   333 5//// 86840 83360 91013=
202003100900 AAXX 10094 67461 42580 70611 10255 20188 48488 84231
                   333 59017 84820 86360 81080 91015=
202003061200 AAXX 06124 67461 42680 51209 10274 20178 48488 81300
                   333 59001 81938 84840 91014=
202003060600 AAXX 06064 67461 12280 71208 10194 20186 48513 60724 8453/
                   333 10274 20160 59006 84605 87360 91018=
202003051200 AAXX 05124 67461 42680 71512 10260 20185 48488 8137/
                   333 59019 81930 84832 86360 91014=
202003040900 AAXX 04094 67461 NIL=
202003030900 AAXX 03094 67461 41380 70202 10213 20201 48502 72166 8137/
                   333 59001 81906 83809 87460 91016=
202003030600 AAXX 03064 67461 12380 70000 10208 20194 48501 60024 8587/
                   333 10280 20179 59011 84606 81809 87360 91016=
202003020600 AAXX 02064 67461 NIL=

################################################################################
#  SYNOPS from 67469, Samfya (Zambia) | 11-22S | 029-54E | 1171 m
################################################################################
202003270900 AAXX 27094 67469 41580 72705 10223 20190 48/// 76066 8217/
                   333 5//// 82813 87460=
202003270600 AAXX 27064 67469 11980 72604 10203 20190 48/// 60214 72166 8707/
                   333 10287 20194 5//// 87460=
202003261200 AAXX 26124 67469 NIL=
202003260900 AAXX 26094 67469 42580 40604 10274 20210 48/// 84202
                   333 5//// 84820 84080=
202003251200 AAXX 25124 67469 42480 30904 10278 20190 48/// 83100
                   333 5//// 83813=
202003250900 AAXX 25094 67469 42480 30908 10272 20210 48/// 83100
                   333 5//// 83813=
202003241200 AAXX 24124 67469 42480 40907 10268 20190 48/// 83202
                   333 5//// 83816 82080=
202003240900 AAXX 24094 67469 42480 41008 10262 20190 48/// 83102
                   333 5//// 83814 83080=
202003240600 AAXX 24064 67469 32480 51010 10246 20200 48/// 84538
                   333 10269 20213 5//// 84612 81360 85280=
202003230600 AAXX 23064 67469 12480 40503 10228 20200 48/// 60194 82132
                   333 10274 20190 5//// 82810 82360 84080=
202003201200 AAXX 20124 67469 42480 40910 10262 20210 48/// 83232
                   333 5//// 83820 83360 81080=
202003200900 AAXX 20094 67469 42480 70716 10245 20200 48/// 84232
                   333 5//// 84814 86360 83080=
202003200600 AAXX 20064 67469 12480 70710 10233 20210 48/// 60374 83532
                   333 10255 20195 5//// 83813 86360 83080=
202003191200 AAXX 19124 67469 42480 70806 10251 20210 48/// 85238
                   333 5//// 81915 84816 83360 86280=
202003190900 AAXX 19094 67469 41280 80906 10213 20200 48/// 76166 8677/
                   333 5//// 84703 83609 87460=
202003181200 AAXX 18124 67469 NIL=
202003180900 AAXX 18094 67469 41280 70618 10200 20200 48/// 76166 8677/
                   333 5//// 84703 86606 87460=
202003180600 AAXX 18064 67469 11280 81801 10194 20190 48/// 60924 76166 8677/
                   333 10251 20188 5//// 86703 84606 87460=
202003170900 AAXX 17094 67469 42480 70618 10242 20200 48/// 70222 85838
                   333 5//// 83813 82614 86360 86280=
202003170600 AAXX 17064 67469 11980 80816 10226 20190 48/// 60034 72166 8707/
                   333 10255 20198 5//// 87460=
202003131200 AAXX 13124 67469 42580 61304 10253 20210 48/// 81938
                   333 5//// 81930 83830 82360 86280=
202003130900 AAXX 13094 67469 41480 61002 10253 20210 48/// 71699 81938
                   333 5//// 81912 83360 82360 86280=
202003130600 AAXX 13064 67469 11480 72501 10206 20190 48/// 60524 79599 81968
                   333 10289 20181 5//// 5//// 81912 86360 86280=
202003101200 AAXX 10124 67469 NIL=
202003051200 AAXX 05124 67469 NIL=
202003040900 AAXX 04094 67469 42480 61308 10244 20200 48/// 84832
                   333 5//// 84617 86820 84360 81080=
202003040600 AAXX 04064 67469 12380 62501 10205 20200 48/// 60564 83632
                   333 10260 20200 5//// 83707 84610 84812 86360=
202003030900 AAXX 03094 67469 42480 60503 10236 20230 48/// 81932
                   333 5//// 81913 84613 86813 84360=
202003030600 AAXX 03064 67469 12280 72404 10205 20200 48/// 60144 8563/
                   333 10266 20194 5//// 85702 85610 83812 87360=
202003020600 AAXX 02064 67469 NIL=

################################################################################
#  SYNOPS from 67475, Kasama (Zambia) | 10-13S | 031-08E | 1382 m
################################################################################
202003270600 AAXX 27064 67475 12960 73603 10199 20187 48533 60364 8707/
                   333 10310 20161 58023 87460 91021=
202003261200 AAXX 26124 67475 NIL=
202003260900 AAXX 26094 67475 NIL=
202003260600 AAXX 26064 67475 32560 60903 10233 20196 48511 83572
                   333 10299 20163 59005 83620 81460 82080 91019=
202003251200 AAXX 25124 67475 NIL=
202003250900 AAXX 25094 67475 NIL=
202003250600 AAXX 25064 67475 32360 80704 10198 20192 48515 70322 876//
                   333 10294 20156 59021 87709 91019=
202003241200 AAXX 24124 67475 42680 61005 10265 20178 48507 70322 85201
                   333 59009 85835 84080 91018=
202003240900 AAXX 24094 67475 42680 81211 10256 20181 48536 70322 86201
                   333 59011 86830 82080 91021=
202003230600 AAXX 23064 67475 32580 81005 10205 20190 48546 70322 85231
                   333 10282 20180 58011 85820 83360 84280 91023=
202003191200 AAXX 19124 67475 41560 80611 10212 20188 48503 78162 8527/
                   333 58012 81920 84820 88460 91018=
202003190900 AAXX 19094 67475 42560 70411 10243 20189 48527 70322 8527/
                   333 59008 81920 85820 87360 91020=
202003190600 AAXX 19064 67475 12360 70208 10196 20193 48527 60684 70362 8467/
                   333 10278 20168 58006 84709 87360 91021=
202003181200 AAXX 18124 67475 NIL=
202003180600 AAXX 18064 67475 11350 83007 10191 20188 48533 60044 78088 877//
                   333 10269 20184 5//// 87706 91021=
202003170600 AAXX 17064 67475 11350 80907 10177 20177 48/// 60104 78088 877//
                   333 10282 20166 5//// 87707=
202003160600 AAXX 16064 67475 11960 80000 10187 20187 48522 60324 78188 8707/
                   333 10318 20160 58000 87460 91020=
202003130900 AAXX 13094 67475 42580 70505 10256 20195 48526 70322 85231
                   333 58002 85827 82360 84080 91020=
202003130600 AAXX 13064 67475 11570 80904 10210 20196 48524 60034 70324 84271
                   333 10288 20182 58005 84820 82360 84080 91020=
202003111200 AAXX 11124 67475 42660 51906 10251 20203 48494 70322 84268
                   333 58003 84835 83360 85280 91017=
202003110600 AAXX 11064 67475 11360 81808 10184 20184 48523 60284 76166 8277/
                   333 10294 20174 58002 83706 88460 91020=
202003101200 AAXX 10124 67475 42660 61607 10261 20191 48491 70322 85261
                   333 59010 81940 85840 82360 81080 91016=
202003100900 AAXX 10094 67475 42560 60204 10242 20189 48520 70322 8523/
                   333 59003 85825 86360 91020=
202003061200 AAXX 06124 67475 42680 71804 10269 20187 48502 70322 86200
                   333 59010 86835 91017=
202003060600 AAXX 06064 67475 11470 70705 10205 20185 48/// 60134 8551/
                   333 10276 20174 5//// 85720 84360=
202003051200 AAXX 05124 67475 42680 60602 10250 20198 48511 70326 84201
                   333 59003 84830 81080 91019=
202003040900 AAXX 04094 67475 42680 72803 10240 20187 48544 70322 85231
                   333 58017 85230 83360 83080 91022=
202003040600 AAXX 04064 67475 11970 83202 10190 20188 48543 60074 8707/
                   333 10289 20166 58020 87459 91022=
202003030600 AAXX 03064 67475 12460 80703 10203 20186 48524 60064 82542
                   333 10283 20161 59006 82615 83460 83080 91020=
202003020600 AAXX 02064 67475 11450 80704 10209 20195 48530 60034 72666 8657/
                   333 10322 20171 5//// 86510 87460 91021=

################################################################################
#  SYNOPS from 67476, Misamfu (Zambia) | 10-06S | 031-15E | 1536 m
################################################################################
202003271200 AAXX 27124 67476 41680 61802 10265 20188 48/// 72992 83278
                   333 5//// 83848 81360 85280=
202003270900 AAXX 27094 67476 42680 60000 10250 20182 48/// 70322 83232
                   333 58034 83835 82360 82080=
202003270600 AAXX 27064 67476 12480 53602 10189 20176 48/// 60194 82672
                   333 10295 20122 58025 82710 81847 83360 83080=
202003261200 AAXX 26124 67476 NIL=
202003260900 AAXX 26094 67476 42680 61103 10265 20195 48/// 70322 85201
                   333 59006 85835 82080=
202003260600 AAXX 26064 67476 32580 60903 10223 20195 48/// 70310 81108
                   333 10284 20125 59006 81820 86280=
202003251200 AAXX 25124 67476 NIL=
202003250900 AAXX 25094 67476 42680 41104 10263 20182 48/// 84100
                   333 59025 84835=
202003250600 AAXX 25064 67476 31480 51303 10203 20195 48/// 72844 85400
                   333 10279 20120 59020 85615=
202003241200 AAXX 24124 67476 42780 51705 10265 20186 48/// 70122 84232
                   333 59007 84850 81360 81080=
202003240900 AAXX 24094 67476 42680 60905 10251 20179 48/// 70322 85202
                   333 5//// 85835 82080=
202003240600 AAXX 24064 67476 12580 71302 10204 20192 48/// 69914 874//
                   333 10274 20140 5//// 87620=
202003191200 AAXX 19124 67476 NIL=
202003181200 AAXX 18124 67476 NIL=
202003180900 AAXX 18094 67476 11680 80903 10200 20186 48/// 60034 76166 8227/
                   333 10256 20138 5//// 82840 88460=
202003180600 AAXX 18064 67476 11680 80903 10200 20186 48/// 60034 76166 8227/
                   333 10256 20138 5//// 82840 88460=
202003170600 AAXX 17064 67476 11359 81003 10180 20177 48/// 60284 76186 8577/
                   333 10271 20135 58003 85709 88460=
202003160600 AAXX 16064 67476 11480 80000 10190 20180 48/// 60364 75022 81677
                   333 10287 20132 59003 81712 85460 88280=
202003130900 AAXX 13094 67476 41660 70804 10242 20195 48/// 71552 84278
                   333 5//// 84832 83632 82360 85280=
202003130600 AAXX 13064 67476 12480 80802 10206 20198 48/// 60054 70322 82437
                   333 10275 20146 58004 82617 81820 81360 88280=
202003111200 AAXX 11124 67476 41680 61803 10275 20197 48/// 70322 84238
                   333 58000 84847 81360 84280=
202003110600 AAXX 11064 67476 11478 71702 10186 20180 48/// 60134 75866 8177/
                   333 10276 20140 58001 81710 87460=
202003101200 AAXX 10124 67476 41670 51103 10252 20203 48/// 72552 81372
                   333 5//// 81843 83845 81460 82080=
202003100900 AAXX 10094 67476 41680 61203 10255 20204 48/// 70322 85230
                   333 5//// 85833 84360=
202003100600 AAXX 10064 67476 11480 70401 10193 20188 48/// 60104 72844 876//
                   333 10258 20135 58004 87710=
202003061200 AAXX 06124 67476 41659 60802 10263 20197 48/// 78022 81370
                   333 5//// 81940 85843 81460=
202003060600 AAXX 06064 67476 12480 70802 10199 20185 48/// 60154 72052 874//
                   333 10260 20135 59005 87618=
202003051200 AAXX 05124 67476 41680 41202 10241 20195 48/// 72582 81973
                   333 59001 81940 82842 81460 81080=
202003050900 AAXX 05094 67476 42680 60702 10240 20189 48/// 84200
                   333 5//// 84833 82633=
202003050600 AAXX 05064 67476 12480 71603 10193 20182 48/// 60014 70322 8657/
                   333 10266 20139 58001 86618 87360=
202003041200 AAXX 04124 67476 41665 62504 10257 20181 48/// 71522 81372
                   333 58004 81942 84845 81360 82080=
202003040900 AAXX 04094 67476 41680 62805 10233 20170 48/// 72055 84231
                   333 5//// 84832 83360 81080=
202003040600 AAXX 04064 67476 12380 70101 10189 20181 48/// 60114 70242 8167/
                   333 10257 20161 5//// 81708 81615 87360=
202003031200 AAXX 03124 67476 41662 70000 10222 20194 48/// 71722 8197/
                   333 5//// 81940 81843 87460=
202003030900 AAXX 03094 67476 41659 72803 10225 20189 48/// 78022 8197/
                   333 5//// 81928 85830 86460=
202003030600 AAXX 03064 67476 12480 30702 10207 20176 48/// 69924 81472
                   333 10255 20127 5//// 81615 81820 82360 82080=
202003021200 AAXX 02124 67476 41460 70103 10220 20187 48/// 79522 8167/
                   333 5//// 81712 81940 81842 87460=
202003020600 AAXX 02064 67476 12480 70503 10204 20196 48/// 60174 70282 8547/
                   333 10255 20145 5//// 81613 81845 87360=

################################################################################
#  SYNOPS from 67477, Mpika (Zambia) | 11-54S | 031-26E | 1400 m
################################################################################
202003271200 AAXX 27124 67477 41680 73201 10178 20170 48/// 72796 83271
                   333 5//// 81936 83836 84464 82080=
202003270900 AAXX 27094 67477 42580 53001 10258 20160 48/// 85201
                   333 5//// 85825 82080=
202003270600 AAXX 27064 67477 12480 63001 10191 20180 48/// 60124 83531
                   333 10286 20169 5//// 83612 84359 83080
                   555 00157=
202003261200 AAXX 26124 67477 41680 63001 10258 20190 48/// 71799 84231
                   333 5//// 81936 84836 83364 83080=
202003260900 AAXX 26094 67477 42580 31202 10272 20170 48/// 82101
                   333 5//// 83825 82080=
202003260600 AAXX 26064 67477 12480 31202 10231 20180 48/// 69904 81131
                   333 10281 20172 5//// 81812 82359 82080
                   555 00162=
202003251200 AAXX 25124 67477 42680 31202 10264 20160 48/// 83201
                   333 5//// 83836 82080=
202003250900 AAXX 25094 67477 42580 40903 10252 20170 48/// 84101
                   333 5//// 84820 82080=
202003241200 AAXX 24124 67477 42680 52202 10262 20170 48/// 84231
                   333 5//// 84836 81360 82080=
202003240900 AAXX 24094 67477 42580 40902 10252 20170 48/// 84101
                   333 5//// 84822 82080=
202003230600 AAXX 23064 67477 12480 71803 10205 20190 48/// 60014 875//
                   333 10273 20158 5//// 86512
                   555 00143=
202003200600 AAXX 20064 67477 12480 42702 10206 20170 48/// 60024 82531
                   333 10254 20174 5//// 82612 82359 82080
                   555 00160=
202003191200 AAXX 19124 67477 NIL=
202003190600 AAXX 19064 67477 12380 61506 10195 20176 48/// 60034 84630
                   333 10244 20180 5//// 84707 83359
                   555 00166=
202003181200 AAXX 18124 67477 NIL=
202003180900 AAXX 18094 67477 41480 71203 10212 20180 48/// 72166 85570
                   333 5//// 85412 87460=
202003180600 AAXX 18064 67477 12980 81203 10186 20171 48/// 60014 8807/
                   333 10270 20177 5//// 88459
                   555 00170=
202003170900 AAXX 17094 67477 41578 61204 10231 20170 48/// 70522 84530
                   333 5//// 85625 86360=
202003170600 AAXX 17064 67477 12480 61210 10205 20170 48/// 69904 84507
                   333 10286 20184 5//// 84615 86280
                   555 00172=
202003130900 AAXX 13094 67477 42580 63001 10229 20180 48/// 86131
                   333 5//// 83820 81362 82080=
202003130600 AAXX 13064 67477 11480 70000 10208 20180 48/// 69904 72842 8557/
                   333 10282 20171 5//// 85612 86459
                   555 00171=
202003111200 AAXX 11124 67477 42680 42202 10278 20180 48/// 84231
                   333 5//// 84836 81364 82080=
202003110600 AAXX 11064 67477 32480 72701 10216 20180 48/// 83530
                   333 10278 20173 5//// 82613 85359
                   555 00157=
202003101200 AAXX 10124 67477 42680 41202 10268 20150 48/// 83231
                   333 5//// 83830 81364 82080=
202003100900 AAXX 10094 67477 42580 40902 10251 20160 48/// 83201
                   333 5//// 83822 83080=
202003100600 AAXX 10064 67477 32480 41203 10218 20180 48/// 82131
                   333 10261 20168 5//// 82813 81359 82080
                   555 00151=
202003060600 AAXX 06064 67477 32480 30902 10199 20160 48/// 82501
                   333 10241 20153 5//// 82613 82080
                   555 00142=
202003051200 AAXX 05124 67477 NIL=
202003040900 AAXX 04094 67477 NIL=
202003040600 AAXX 04064 67477 11970 81203 1//// 20168 48/// 60284 76166 8707/
                   333 10262 20170 5//// 88459
                   555 00167=
202003030900 AAXX 03094 67477 42580 70302 10222 20190 48/// 85570
                   333 5//// 85617 87360=
202003030600 AAXX 03064 67477 12380 80904 10187 20177 48/// 60014 8667/
                   333 10259 20174 5//// 86706 88459
                   555 00166=
202003020600 AAXX 02064 67477 32980 71208 10190 20170 48/// 87070
                   333 10268 20170 5//// 87459
                   555 00164=

################################################################################
#  SYNOPS from 67481, Isoka (Zambia) | 10-07S | 032-38E | 1360 m
################################################################################
202003270600 AAXX 27064 67481 12480 50302 10215 20196 48/// 60024 81102
                   333 10295 20180 5//// 81810 85080=
202003261200 AAXX 26124 67481 NIL=
202003260900 AAXX 26094 67481 41678 60302 10250 20192 48/// 78022 86200
                   333 5//// 86830=
202003260600 AAXX 26064 67481 12480 31002 10200 20185 48/// 60014 81131
                   333 10290 20172 5//// 81810 81360 83080=
202003251200 AAXX 25124 67481 NIL=
202003250900 AAXX 25094 67481 NIL=
202003230600 AAXX 23064 67481 12480 41002 10208 20184 48/// 60024 83530
                   333 10252 20188 5//// 83610 83360=
202003200600 AAXX 20064 67481 12480 61002 10197 20176 48/// 60074 83530
                   333 10258 20180 5//// 83610 86360=
202003191200 AAXX 19124 67481 NIL=
202003181200 AAXX 18124 67481 NIL=
202003180600 AAXX 18064 67481 11980 80000 10200 20185 48/// 60014 72162 8807/
                   333 10275 20190 5//// 88460=
202003170600 AAXX 17064 67481 11377 83001 10185 20178 48/// 60204 76162 8157/
                   333 10280 20175 5//// 81609 88460=
202003160600 AAXX 16064 67481 12480 70000 10202 20179 48/// 60324 8121/
                   333 10282 20181 5//// 81810 87460=
202003130600 AAXX 13064 67481 12480 51002 10218 20193 48/// 60074 85500
                   333 10282 20178 5//// 85610=
202003101200 AAXX 10124 67481 NIL=
202003060600 AAXX 06064 67481 12480 52402 10218 20174 48/// 60024 84501
                   333 10246 20186 5//// 84610 83080=
202003051200 AAXX 05124 67481 NIL=
202003050600 AAXX 05064 67481 11305 83002 10182 20179 48/// 60124 74444 887//
                   333 10262 20172 5//// 88706=
202003040900 AAXX 04094 67481 NIL=
202003040600 AAXX 04064 67481 11480 83002 10196 20187 48/// 60164 72166 8157/
                   333 10270 20180 5//// 81610 88460=
202003030600 AAXX 03064 67481 12480 53002 10220 20190 48/// 60014 83131
                   333 10277 20172 5//// 83810 82360 85080=
202003020600 AAXX 02064 67481 12480 72002 10198 20189 48/// 60024 8657/
                   333 10262 20178 5//// 86610 87460=

################################################################################
#  SYNOPS from 67531, Zambezi (Zambia) | 13-32S | 023-07E | 1077 m
################################################################################
202003270900 AAXX 27094 67531 42580 73602 10265 20206 48/// 8513/
                   333 58013 85825 87361=
202003270600 AAXX 27064 67531 32380 70000 10207 20204 48/// 8263/
                   333 10289 20180 58023 81707 87361=
202003261200 AAXX 26124 67531 NIL=
202003260900 AAXX 26094 67531 41480 73304 10222 20186 48/// 70392 8157/
                   333 58002 81615 87460=
202003260600 AAXX 26064 67531 31680 73603 10196 20181 48/// 71799 8197/
                   333 10320 20186 59007 81939 83660=
202003251200 AAXX 25124 67531 NIL=
202003250900 AAXX 25094 67531 42680 52703 10266 20201 48/// 84230
                   333 59008 84838 82362=
202003250600 AAXX 25064 67531 32980 53304 10222 20202 48/// 85030
                   333 10313 20185 59015 85362=
202003241200 AAXX 24124 67531 42780 30907 10298 20204 48/// 83100
                   333 59008 83857=
202003240900 AAXX 24094 67531 42980 60906 10250 20200 48/// 85031
                   333 59013 85362 82080=
202003230900 AAXX 23094 67531 42980 52707 10276 20207 48/// 85030
                   333 5//// 85362=
202003230600 AAXX 23064 67531 12980 40903 10219 20199 48/// 60034 84030
                   333 10281 20182 58009 84362=
202003201200 AAXX 20124 67531 42680 52703 10292 20202 48/// 85230
                   333 59017 85838 82362=
202003200900 AAXX 20094 67531 42580 50304 10269 20207 48/// 84230
                   333 59015 84828 83362=
202003200600 AAXX 20064 67531 12380 60802 10209 20202 48/// 60014 8267/
                   333 10286 20185 59008 82706 86362=
202003191200 AAXX 19124 67531 NIL=
202003181200 AAXX 18124 67531 41680 60000 10287 20208 48/// 70266 85230
                   333 59004 85830 83362=
202003180900 AAXX 18094 67531 42480 70905 10236 20208 48/// 8427/
                   333 58014 84819 85362=
202003170900 AAXX 17094 67531 41380 70902 10232 20208 48/// 75155 8377/
                   333 58007 83706 87360=
202003170600 AAXX 17064 67531 11380 70902 10205 20202 48/// 60494 72166 8267/
                   333 10302 20190 59002 82706 87260=
202003130900 AAXX 13094 67531 42680 50902 10268 20202 48/// 82131
                   333 5//// 82830 83362 82081=
202003130600 AAXX 13064 67531 32980 61002 10212 20201 48/// 8607/
                   333 10302 20191 59002 86362=
202003110600 AAXX 11064 67531 12980 70000 10211 20195 48/// 69904 8707/
                   333 10305 20191 58005 87361=
202003101200 AAXX 10124 67531 NIL=
202003100900 AAXX 10094 67531 42680 53605 10281 20204 48/// 83131
                   333 5//// 83839 83362 81081=
202003051200 AAXX 05124 67531 NIL=
202003050600 AAXX 05064 67531 12380 60901 10205 20198 48/// 60154 8367/
                   333 10309 20181 5//// 83707 86361=
202003041200 AAXX 04124 67531 42680 42002 10287 20211 48/// 84200
                   333 58004 84839=
202003040900 AAXX 04094 67531 41580 50000 10236 20219 48/// 72166 84230
                   333 58013 84829 83362=
202003030600 AAXX 03064 67531 32380 43005 10227 20210 48/// 82630
                   333 10326 20175 59002 82708 83362=
202003020600 AAXX 02064 67531 32980 50000 10203 20200 48/// 85030
                   333 10275 20175 59013 85362=

################################################################################
#  SYNOPS from 67541, Kasempa (Zambia) | 13-32S | 025-51E | 1234 m
################################################################################
202003270900 AAXX 27094 67541 42980 70000 10240 20188 48/// 70222 8703/
                   333 5//// 87360=
202003270600 AAXX 27064 67541 12980 70000 10186 20177 48/// 60114 70222 8703/
                   333 10300 20160 5//// 87360=
202003261200 AAXX 26124 67541 42580 70000 10275 20211 48/// 70222 85231
                   333 5//// 85826 81360 81080=
202003260900 AAXX 26094 67541 42580 70000 10270 20213 48/// 70222 83204
                   333 5//// 83825 84080=
202003260600 AAXX 26064 67541 12980 70000 10205 20197 48/// 60014 70222 82035
                   333 10300 20150 5//// 82360 85080=
202003251200 AAXX 25124 67541 42680 60000 10285 20213 48/// 70222 86200
                   333 5//// 86837=
202003250900 AAXX 25094 67541 42680 40000 10280 20208 48/// 70222 84200
                   333 5//// 84830=
202003230600 AAXX 23064 67541 12980 70000 10189 20189 48/// 60164 70222 82035
                   333 10296 20154 5//// 82360 85080=
202003200600 AAXX 20064 67541 12980 70000 10191 20191 48/// 60344 70222 8703/
                   333 10290 20154 5//// 87360=
202003191200 AAXX 19124 67541 NIL=
202003190900 AAXX 19094 67541 41460 80000 10205 20190 48/// 76062 8323/
                   333 5//// 83812 87360=
202003190600 AAXX 19064 67541 12380 80000 10200 20200 48/// 60144 70222 8353/
                   333 10290 20158 5//// 83607 87360=
202003181200 AAXX 18124 67541 42680 60000 10280 20208 48/// 70222 86200
                   333 5//// 86830=
202003180900 AAXX 18094 67541 42580 70402 10255 20204 48/// 70222 8323/
                   333 5//// 83820 87360=
202003180600 AAXX 18064 67541 32980 70000 10200 20188 48/// 70222 8703/
                   333 10280 20160 5//// 87360=
202003170600 AAXX 17064 67541 12980 70000 10210 20195 48/// 60034 70222 87030
                   333 10288 20160 5//// 87360=
202003130900 AAXX 13094 67541 42580 70504 10260 20209 48/// 70222 84231
                   333 5//// 84820 83360 81080=
202003130600 AAXX 13064 67541 32980 70000 10205 20205 48/// 70222 8703/
                   333 10292 20158 5//// 87360=
202003110600 AAXX 11064 67541 12980 70000 10200 20200 48/// 60074 70222 8703/
                   333 10310 20164 5//// 87360=
202003101200 AAXX 10124 67541 42680 50000 10280 20192 48/// 70222 85200
                   333 5//// 85835=
202003060600 AAXX 06064 67541 12380 80000 10195 20188 48/// 60054 70222 8253/
                   333 10260 20156 5//// 82606 87360=
202003051200 AAXX 05124 67541 NIL=
202003050600 AAXX 05064 67541 12380 70000 10180 20180 48/// 60654 70222 8253/
                   333 10280 20140 5//// 82606 87360=
202003040900 AAXX 04094 67541 42480 70000 10230 20201 48/// 70222 8223/
                   333 5//// 82812 87360=
202003030900 AAXX 03094 67541 42480 70000 10250 20206 48/// 70222 8323/
                   333 5//// 83818 87360=
202003030600 AAXX 03064 67541 12980 50000 10200 20200 48/// 60014 70222 85030
                   333 10284 20162 5//// 85360=
202003020600 AAXX 02064 67541 12980 70000 10190 20190 48/// 69904 70222 8703/
                   333 10272 20162 5//// 87360=

################################################################################
#  SYNOPS from 67543, Kabompo (Zambia) | 13-36S | 024-12E | 1075 m
################################################################################
202003270600 AAXX 27064 67543 11375 80000 10204 20199 48/// 60134 72844 886//
                   333 10276 20190 58030 88706=
202003261200 AAXX 26124 67543 41680 80000 10282 20199 48/// 71792 8437/
                   333 58000 81930 84830 87462=
202003260900 AAXX 26094 67543 42580 70000 10260 20194 48/// 8217/
                   333 59001 82820 87461=
202003260600 AAXX 26064 67543 32980 80000 10210 20200 48/// 8801/
                   333 10274 20198 59010 88460=
202003251200 AAXX 25124 67543 42682 70000 10302 20189 48/// 86201
                   333 59018 86830 82085=
202003250900 AAXX 25094 67543 42582 70901 10290 20198 48/// 84205
                   333 59017 84820 85285=
202003241200 AAXX 24124 67543 42682 61502 10296 20184 48/// 84205
                   333 59009 84835 83285=
202003240900 AAXX 24094 67543 42580 70901 10262 20177 48/// 8213/
                   333 59014 82820 87361=
202003230600 AAXX 23064 67543 12380 70000 10198 20192 48/// 60204 8663/
                   333 10296 20188 58011=
202003200600 AAXX 20064 67543 12380 70000 10202 20196 48/// 60044 8267/
                   333 10302 20190 5//// 82707 87360=
202003191200 AAXX 19124 67543 NIL=
202003190900 AAXX 19094 67543 42480 70000 10234 20201 48/// 8661/
                   333 5//// 86615 87360=
202003190600 AAXX 19064 67543 12380 80000 10198 20190 48/// 60114 8467/
                   333 10298 20188 5//// 84706 87360=
202003181200 AAXX 18124 67543 42580 70000 10270 20197 48/// 8423/
                   333 5//// 84828 87361=
202003180900 AAXX 18094 67543 42480 70000 10230 20203 48/// 875//
                   333 5//// 87614=
202003180600 AAXX 18064 67543 11370 80000 10198 20195 48/// 60334 75155 887//
                   333 10292 20190 5//// 88706=
202003170900 AAXX 17094 67543 42482 70000 10256 20199 48/// 8457/
                   333 5//// 84618 87361=
202003170600 AAXX 17064 67543 12982 80000 10216 20207 48/// 69924 8807/
                   333 10310 20202 5//// 88360=
202003130600 AAXX 13064 67543 12980 80000 10210 20205 48/// 60024 8807/
                   333 10298 20200 5//// 88360=
202003110600 AAXX 11064 67543 12380 70000 10204 20195 48/// 60034 8567/
                   333 10310 20196 5//// 85707 87360=
202003101200 AAXX 10124 67543 NIL=
202003100900 AAXX 10094 67543 42580 70000 10286 20203 48/// 85231
                   333 5//// 85825 83361 81080=
202003051200 AAXX 05124 67543 NIL=
202003040900 AAXX 04094 67543 42480 70000 10256 20204 48/// 875//
                   333 5//// 87618=
202003020600 AAXX 02064 67543 12378 70000 10210 20200 48/// 60044 8263/
                   333 10284 20192 5//// 82707 87360=

################################################################################
#  SYNOPS from 67551, Solwezi (Zambia) | 12-11S | 026-23E | 1386 m
################################################################################
202003270600 AAXX 27064 67551 11970 71505 10176 20168 48536 60344 76166 86036
                   333 10226 20165 58032 86360 86280 91021=
202003261200 AAXX 26124 67551 NIL=
202003260900 AAXX 26094 67551 NIL=
202003260600 AAXX 26064 67551 12970 63403 10201 20182 48501 60014 83036
                   333 10284 20171 59011 83362 86280 91017=
202003251200 AAXX 25124 67551 42670 61204 10286 20182 48490 70222 86200
                   333 59022 86840 91015=
202003250900 AAXX 25094 67551 42670 70905 10255 20194 48522 70222 87200
                   333 59016 87830 91019=
202003250600 AAXX 25064 67551 12570 30804 10198 20186 48512 60034 70311 81101
                   333 10285 20160 59027 81820 82080 91019=
202003241200 AAXX 24124 67551 42670 70904 10262 20193 48509 72582 87200
                   333 59010 87840 91017=
202003230600 AAXX 23064 67551 12303 70304 10183 20182 48540 60084 86630
                   333 10260 20165 58003 86706 86362 91022=
202003200900 AAXX 20094 67551 42470 70505 10242 20184 48519 82536
                   333 59019 82613 82820 85362 86280 91019=
202003200600 AAXX 20064 67551 12270 70000 10185 20182 48523 60164 81636
                   333 10244 20170 59010 81705 86362 86280 91019=
202003191200 AAXX 19124 67551 42570 73503 10207 20193 48506 72196 81933
                   333 58006 81920 83820 86362 82080 91018=
202003190900 AAXX 19094 67551 42470 70000 10223 20186 48537 8457/
                   333 58007 84615 87362 91021=
202003190600 AAXX 19064 67551 11270 80000 10189 20184 48553 60014 76066 8477/
                   333 10276 20174 58001 84704 88362=
202003181200 AAXX 18124 67551 NIL=
202003180600 AAXX 18064 67551 31604 80000 10178 20178 48531 74042 85530
                   333 10264 20161 58019 85630 87362 91021=
202003170600 AAXX 17064 67551 32970 70906 10186 20171 48518 8707/
                   333 10268 20176 59004 87362 91018=
202003130900 AAXX 13094 67551 42480 50902 10268 20202 48/// 82131
                   333 5//// 82830 83362 82081=
202003130600 AAXX 13064 67551 12270 71204 10200 20186 48519 69904 70322 8167/
                   333 10277 20178 59007 81706 87362 91019=
202003110600 AAXX 11064 67551 12370 80504 10188 20184 48516 60434 8367/
                   333 10265 20170 58003 83706 88362 91018=
202003101200 AAXX 10124 67551 NIL=
202003100900 AAXX 10094 67551 42470 70905 10257 20188 48518 84130
                   333 59006 84818 84362 91018=
202003061200 AAXX 06124 67551 42678 71406 10271 20191 48495 70222 87200
                   333 59006 87835 91017=
202003060600 AAXX 06064 67551 12270 70904 10180 20174 48534 60044 70322 81630
                   333 10285 20171 59005 82706 87362 91021=
202003051200 AAXX 05124 67551 42670 73404 10252 20183 48509 70222 87200
                   333 59005 87835 91017=
202003050600 AAXX 05064 67551 12370 70804 10184 20176 48540 60104 70222 86530
                   333 10242 20174 59001 86610 86362 91021=
202003040900 AAXX 04094 67551 NIL=
202003030600 AAXX 03064 67551 12370 80000 10194 20194 48518 60014 8567/
                   333 10219 20182 58005 85708 87362 91020=
202003020600 AAXX 02064 67551 12370 70000 10198 20186 48513 60014 8367/
                   333 10264 20175 59002 83707 87362 91019=

################################################################################
#  SYNOPS from 67561, Ndola (Zambia) | 13-00S | 028-39E | 1269 m
################################################################################
202003270600 AAXX 27064 67561 11256 72806 10189 20179 48538 60014 70422 84368
                   333 10305 20185 58037 84705 85360 87280 91021=
202003261200 AAXX 26124 67561 41660 60805 10291 20179 48482 70522 86201
                   333 59012 86835 83080 91014=
202003260900 AAXX 26094 67561 NIL=
202003260600 AAXX 26064 67561 11959 59903 10229 20207 48505 60184 72842 81038
                   333 10305 20174 59013 81360 85280 91017=
202003251200 AAXX 25124 67561 41675 69904 10297 20192 48495 70522 83202
                   333 59017 86845 82080 91015=
202003250900 AAXX 25094 67561 41670 50706 10272 20188 48520 70522 85202
                   333 59020 85830 82080 91018=
202003240900 AAXX 24094 67561 41560 50904 10260 20184 48539 70522 84230
                   333 59010 84360 91021=
202003240600 AAXX 24064 67561 11959 60905 10200 20185 48539 60024 70422 85038
                   333 10293 20165 59005 85360 86280 91022=
202003230600 AAXX 23064 67561 11959 60000 10203 20175 48545 60034 70422 85038
                   333 10289 20178 58009 85360 86280 91022=
202003200600 AAXX 20064 67561 11460 51208 10208 20190 48523 69904 70522 83238
                   333 10265 20182 59012 83810 83810 84360 85280
                   91019=
202003191200 AAXX 19124 67561 NIL=
202003181200 AAXX 18124 67561 41560 61005 10280 20165 48504 70522 85230
                   333 59001 85830 83360 91017=
202003180900 AAXX 18094 67561 41459 61108 10245 20174 48533 70422 84230
                   333 58008 84810 86360 91020=
202003180600 AAXX 18064 67561 31558 60805 10200 20185 48533 70422 84530
                   333 10278 20170 58013 84615 86360 91021=
202003170900 AAXX 17094 67561 41459 70910 10243 20169 48526 70422 83538
                   333 58008 83620 83360 87280 91019=
202003170600 AAXX 17064 67561 31958 70803 10195 20177 48520 70422 81038
                   333 10274 20170 59008 81360 87280 91019=
202003160600 AAXX 16064 67561 11358 80505 10180 20177 48526 60094 76166 8477/
                   333 10303 20188 58003 84706 88459 91020=
202003130900 AAXX 13094 67561 42580 60609 10258 20187 48530 70222 85208
                   333 58003 85825 86280 91020=
202003130600 AAXX 13064 67561 11475 61205 10221 20189 48524 60064 70522 81538
                   333 10295 20192 59003 81610 82360 86280 91019=
202003110600 AAXX 11064 67561 11960 60903 10203 20181 48522 69904 70522 86038
                   333 10299 20182 58003 86360 85280 91019=
202003101200 AAXX 10124 67561 NIL=
202003100600 AAXX 10064 67561 31459 60805 10197 20188 48516 72842 85532
                   333 10292 20169 58001 83706 85610 83360 91019=
202003060600 AAXX 06064 67561 11360 79903 10193 20181 48536 60064 70522 85631
                   333 10259 2//// 59007 85708 85360 91021=
202003051200 AAXX 05124 67561 41560 60703 10253 20182 48520 70522 85232
                   333 58000 81925 85830 85360 81080 91019=
202003040900 AAXX 04094 67561 41460 70807 10225 20181 48547 70522 8653/
                   333 58017 86610 87360 91022=
202003030900 AAXX 03094 67561 41580 70504 10221 20181 48531 75022 875//
                   333 58007 87625 91020=
202003030600 AAXX 03064 67561 31460 70806 10200 20178 48531 70522 8653/
                   333 10276 20182 58007 86610 87360 91020=
202003020600 AAXX 02064 67561 11360 71006 10192 20177 48524 60024 70522 85630
                   333 10275 20172 59003 85707 86360 91020=

################################################################################
#  SYNOPS from 67563, Kafironda (Zambia) | 12-36S | 028-07E | 1243 m
################################################################################
202003270600 AAXX 27064 67563 11380 82503 10196 20190 48/// 60204 72166 8377/
                   333 10307 20177 5//// 83708 88359
                   555 00161=
202003261200 AAXX 26124 67563 NIL=
202003260900 AAXX 26094 67563 NIL=
202003260600 AAXX 26064 67563 12980 20202 10224 20190 48/// 60094 82030
                   333 10314 20174 5//// 82359
                   555 00149=
202003251200 AAXX 25124 67563 NIL=
202003250900 AAXX 25094 67563 NIL=
202003250600 AAXX 25064 67563 11380 20802 10220 20190 48/// 60024 72842 81601
                   333 10302 20164 5//// 81708 82080
                   555 00150=
202003240600 AAXX 24064 67563 11380 60902 10212 20200 48/// 60174 72842 83630
                   333 10307 20180 5//// 83707 84359
                   555 00161=
202003230600 AAXX 23064 67563 12980 61302 10217 20200 48/// 60284 86070
                   333 10304 20177 5//// 86359
                   555 00163=
202003200600 AAXX 20064 67563 11380 61403 10213 20200 48/// 60034 72864 82770
                   333 10273 20184 5//// 82707 85359
                   555 00168=
202003191200 AAXX 19124 67563 NIL=
202003190600 AAXX 19064 67563 12360 70703 10214 20190 48/// 69904 84770
                   333 10186 2//// 5//// 84707 86359
                   555 00174=
202003181200 AAXX 18124 67563 NIL=
202003180600 AAXX 18064 67563 11380 70302 10202 20190 48/// 69904 72842 82770
                   333 10281 20172 5//// 82708 87358
                   555 00161=
202003170600 AAXX 17064 67563 11380 82003 10204 20190 48/// 60234 72862 8572/
                   333 10280 20176 5//// 85708 88460
                   555 00156=
202003130600 AAXX 13064 67563 12380 71302 10222 20200 48/// 69904 82770
                   333 10290 20185 5//// 82708 87359
                   555 00176=
202003110600 AAXX 11064 67563 12980 70402 10212 20190 48/// 60074 87070
                   333 10311 20186 58002 87359
                   555 00172=
202003101200 AAXX 10124 67563 NIL=
202003100600 AAXX 10064 67563 32980 30602 10226 20190 48/// 83030
                   333 10300 20162 59001 83360
                   555 00148=
202003060600 AAXX 06064 67563 12380 41406 10220 20180 48/// 60014 83630
                   333 10270 20176 5//// 83708 83360
                   555 00165=
202003051200 AAXX 05124 67563 NIL=
202003050600 AAXX 05064 67563 11380 80203 10194 20170 48/// 60074 72162 887//
                   333 10275 20174 5//// 88708
                   555 00167=
202003040900 AAXX 04094 67563 NIL=
202003040600 AAXX 04064 67563 11380 73602 10202 20190 48/// 60054 72162 84770
                   333 10276 20180 5//// 84707 87359
                   555 00172=
202003030600 AAXX 03064 67563 11378 80000 10194 20190 48/// 60234 76166 8672/
                   333 10292 20184 58007 86708 88460
                   555 00175=
202003020600 AAXX 02064 67563 11380 70603 10202 20190 48/// 60014 72162 83770
                   333 10280 20180 59004 83708 87358
                   555 00174=

################################################################################
#  SYNOPS from 67571, Serenje (Zambia) | 13-14S | 030-13E | 1384 m
################################################################################
202003271200 AAXX 27124 67571 41670 71504 10213 20159 48462 72996 875//
                   333 58028 81930 87630=
202003270900 AAXX 27094 67571 42582 73302 10224 20180 48492 70222 83238
                   333 58037 81921 83821 84360 87280=
202003270600 AAXX 27064 67571 12277 83303 10189 20181 48481 60164 70222 886//
                   333 10292 20167 58035 88706=
202003261200 AAXX 26124 67571 41575 73002 10211 20181 48442 79596 872//
                   333 59005 81921 87821=
202003260900 AAXX 26094 67571 42582 70902 10265 20183 48/// 70322 86108
                   333 5//// 86823 86280=
202003260600 AAXX 26064 67571 32379 60902 10213 20178 48/// 70222 81608
                   333 10287 20174 5//// 81710 86280=
202003251200 AAXX 25124 67571 42682 21207 10269 20171 48443 70100 82101
                   333 59021 82834 81080=
202003250900 AAXX 25094 67571 42582 50904 10258 20178 48474 70311 85501
                   333 59020 85626 82080=
202003241200 AAXX 24124 67571 42682 31808 10265 20179 48464 83200
                   333 59020 81945 83846=
202003240900 AAXX 24094 67571 42682 51205 10245 20175 48494 85230
                   333 59017 85830 81360=
202003230600 AAXX 23064 67571 12582 71203 10202 20174 48502 60014 875//
                   333 10258 20171 58015 87620=
202003200900 AAXX 20094 67571 42582 70604 10246 20183 48473 70222 85531
                   333 59009 81921 85621 81360 83080=
202003200600 AAXX 20064 67571 12378 71205 10200 20175 48482 60154 70222 8263/
                   333 10262 20175 59001 82708 86360=
202003191200 AAXX 19124 67571 NIL=
202003190900 AAXX 19094 67571 41482 71204 10232 20171 48473 72052 83538
                   333 59004 83618 83360 87280=
202003190600 AAXX 19064 67571 32379 70902 10201 20161 48482 70222 8167/
                   333 10259 20171 59006 81708 87460=
202003181200 AAXX 18124 67571 42680 71204 10238 20169 48463 872//
                   333 58004 81935 87835=
202003180900 AAXX 18094 67571 42580 61206 10232 20164 48483 8653/
                   333 58009 86627 83360=
202003180600 AAXX 18064 67571 32480 71206 10190 20168 48491 8553/
                   333 10284 20169 58011 85617 87360=
202003170900 AAXX 17094 67571 42680 51206 10231 20151 48473 85500
                   333 58005 85630=
202003170600 AAXX 17064 67571 32480 21208 10195 20159 48482 82500
                   333 10264 20156 5//// 82618=
202003160600 AAXX 16064 67571 12482 70000 10200 20185 48/// 60074 72162 875//
                   333 10294 20165 5//// 87618=
202003131200 AAXX 13124 67571 41670 71803 10255 20182 48453 71622 84538
                   333 58000 81934 84634 81360 87280=
202003130900 AAXX 13094 67571 42582 70602 10251 20183 48483 70222 86538
                   333 58006 86626 83360 87280=
202003130600 AAXX 13064 67571 12482 70902 10208 20182 48482 69904 70222 8653/
                   333 10272 20177 58009 86618 85360=
202003111200 AAXX 11124 67571 42682 71506 10270 20174 48443 872//
                   333 58010 81945 87845=
202003110600 AAXX 11064 67571 32982 71203 10225 20169 48473 81038
                   333 10282 20170 58004 81360 87280=
202003101200 AAXX 10124 67571 42682 71205 10264 20174 48/// 85208
                   333 5//// 81942 85842 87280=
202003060600 AAXX 06064 67571 32982 11208 10191 20146 48491 81030
                   333 10234 20151 59006 81360=
202003051200 AAXX 05124 67571 42582 71207 10210 20159 48472 875//
                   333 59006 87627=
202003050600 AAXX 05064 67571 12280 81205 10173 20156 48500 60014 886//
                   333 10223 20160 58005 88705=
202003040900 AAXX 04094 67571 NIL=
202003040600 AAXX 04064 67571 11280 81206 10171 20164 48491 60294 76166 887//
                   333 10253 20156 58011 88705=
202003030900 AAXX 03094 67571 42682 80302 10228 20171 48483 70322 885//
                   333 58008 88635=
202003030600 AAXX 03064 67571 12582 80902 10194 20162 48481 69904 70222 885//
                   333 10257 20165 58002 88625=
202003020900 AAXX 02094 67571 42582 73603 10235 20167 48473 70222 86501
                   333 59009 86621 83080=
202003020600 AAXX 02064 67571 11378 81203 10182 20155 48481 69904 75055 887//
                   333 10254 20159 58000 88708=

################################################################################
#  SYNOPS from 67575, Mkushi (Zambia) | 13-38-00S | 029-26-00E | 1237 m
################################################################################
202003271200 AAXX 27124 67575 41680 42703 10265 20197 48469 71721 82273
                   333 58032 81937 82837 81362 82080=
202003270900 AAXX 27094 67575 42680 72803 10250 20198 48501 82278
                   333 58033 82825 82361 84278=
202003270600 AAXX 27064 67575 32380 83601 10191 20187 48494 81678
                   333 10311 20167 58034 81708 83560 84276
                   555 00165=
202003261200 AAXX 26124 67575 42680 32602 10306 20178 48440 83201
                   333 59012 83838 81080=
202003260900 AAXX 26094 67575 42680 31203 10284 20190 48471 82201
                   333 59008 82832 82080=
202003260600 AAXX 26064 67575 32980 33601 10206 20197 48461 80001
                   333 10303 20150 59014 83080
                   555 00158=
202003251200 AAXX 25124 67575 42680 21203 10291 20193 48450 82201
                   333 59021 82838=
202003250900 AAXX 25094 67575 42680 20907 10276 20200 48479 82201
                   333 5//// 82832 81080=
202003241200 AAXX 24124 67575 42680 21203 10284 20195 48471 82200
                   333 5//// 82838=
202003230600 AAXX 23064 67575 12480 50901 10209 20191 48506 60064 82571
                   333 10280 20167 58010 82613 83360 82078
                   555 00173=
202003200900 AAXX 20094 67575 42680 40906 10271 20191 48483 83231
                   333 59009 83830 81361 81080=
202003200600 AAXX 20064 67575 32480 50902 10208 20184 48483 81571
                   333 10291 20175 59006 81612 84360 81078
                   555 00180=
202003191200 AAXX 19124 67575 NIL=
202003190900 AAXX 19094 67575 42680 70905 10266 20181 48492 82238
                   333 59001 82830 81361 87280=
202003190600 AAXX 19064 67575 32480 30904 10210 20178 48489 81578
                   333 10284 20170 59003 81615 81360 87278
                   555 00164=
202003181200 AAXX 18124 67575 42680 41002 10270 20183 48466 84200
                   333 58000 84840=
202003180900 AAXX 18094 67575 42680 30906 10254 20180 48495 83201
                   333 58007 83830 81080=
202003180600 AAXX 18064 67575 32480 41405 10205 20181 48492 82571
                   333 10273 20162 58006 82612 81360 82080
                   555 00158=
202003170900 AAXX 17094 67575 42580 31205 10242 20177 48487 83500
                   333 58007 83620=
202003170600 AAXX 17064 67575 12480 51202 10196 20179 48485 60024 85500
                   333 10277 20145 58002 85612
                   555 00152=
202003160600 AAXX 16064 67575 11380 80801 10196 20185 48483 60104 72162 8167/
                   333 10290 20177 59001 81708 88360
                   555 00181=
202003130900 AAXX 13094 67575 42680 71105 10265 20193 48490 85273
                   333 5//// 81932 85832 81361 82080=
202003130600 AAXX 13064 67575 32480 70902 10211 2//// 48486 86571
                   333 10307 20182 58004 86615 81360 82078
                   555 00183=
202003111200 AAXX 11124 67575 42780 61205 10286 20177 48456 83208
                   333 59001 83245 84280=
202003101200 AAXX 10124 67575 42680 70803 10285 20189 48457 82208
                   333 5//// 82839 86280=
202003100900 AAXX 10094 67575 42680 70903 10268 20176 48478 82208
                   333 5//// 82830 86280=
202003060600 AAXX 06064 67575 32480 11205 10207 20165 48497 81130
                   333 10250 20156 59007 81815 81360
                   555 00160=
202003051200 AAXX 05124 67575 42680 71103 10231 20178 48483 86270
                   333 58000 86836 83360=
202003040900 AAXX 04094 67575 41480 71105 10212 20178 48505 72162 84570
                   333 5//// 84618 84360=
202003040600 AAXX 04064 67575 11360 81103 10181 20172 48/// 60454 76062 8377/
                   333 10270 20167 58019 83708 86460
                   555 00166=
202003030600 AAXX 03064 67575 12480 70905 10206 20175 48486 69974 81578
                   333 10280 20169 58001 81612 81360 87278=
202003020600 AAXX 02064 67575 32480 60907 10190 20165 48482 86501
                   333 10277 20171 59006 86612 81078
                   555 00175=

################################################################################
#  SYNOPS from 67580, Msekera (Zambia) | 13-39S | 032-34E | 1025 m
################################################################################
202003270900 AAXX 27094 67580 42680 72702 10278 20204 48/// 82238
                   333 5//// 82834 81361 87280=
202003270600 AAXX 27064 67580 12980 70000 10230 20200 48/// 60014 80008
                   333 10313 20189 5//// 87280=
202003261200 AAXX 26124 67580 NIL=
202003260900 AAXX 26094 67580 42680 70304 10283 20213 48/// 87280
                   333 5//// 87836=
202003260600 AAXX 26064 67580 12980 40000 10234 20213 48/// 60024 84030
                   333 10310 20189 5//// 84360=
202003251200 AAXX 25124 67580 41680 71503 10298 20200 48/// 71522 86208
                   333 59013 81945 86850 87280=
202003250900 AAXX 25094 67580 41680 71604 10270 20205 48/// 71522 872//
                   333 59028 87840=
202003250600 AAXX 25064 67580 12580 61203 10242 20210 48/// 69924 81108
                   333 10320 20196 59025 81820 86280=
202003241200 AAXX 24124 67580 41680 70000 10277 20198 48/// 72582 872//
                   333 5//// 87835=
202003240900 AAXX 24094 67580 42680 70000 10272 20214 48/// 872//
                   333 5//// 87830=
202003240600 AAXX 24064 67580 12480 50000 10232 20202 48/// 60124 82132
                   333 10284 20183 5//// 82818 81362 84080=
202003230600 AAXX 23064 67580 12580 31202 10215 20200 48/// 60194 83800
                   333 10279 20183 5//// 81826 82628=
202003200900 AAXX 20094 67580 42680 71002 10268 20206 48/// 87230
                   333 59007 87838 84360=
202003200600 AAXX 20064 67580 12980 71203 10225 20200 48/// 69944 8703/
                   333 10328 20195 59003 87360=
202003191200 AAXX 19124 67580 NIL=
202003181200 AAXX 18124 67580 NIL=
202003180600 AAXX 18064 67580 32680 41003 10218 20190 48/// 84800
                   333 10316 20183 5//// 82830 82632=
202003170600 AAXX 17064 67580 31980 31203 10218 20196 48/// 70500 81031
                   333 10300 20180 5//// 81361 83080=
202003130900 AAXX 13094 67580 41680 71210 10274 20214 48/// 71522 86208
                   333 58010 81930 86835 87280=
202003130600 AAXX 13064 67580 12480 71207 10234 20209 48/// 60234 83138
                   333 10310 20194 58012 83818 81360 87280=
202003110600 AAXX 11064 67580 32980 71604 10236 20202 48/// 81037
                   333 10302 20192 5//// 81362 87280=
202003101200 AAXX 10124 67580 42680 71205 10284 20190 48/// 83207
                   333 59003 83845 87280=
202003100900 AAXX 10094 67580 42680 72006 10268 20188 48/// 81107
                   333 59009 81835 87280=
202003100600 AAXX 10064 67580 32980 70906 10238 20185 48/// 80008
                   333 10299 20178 59003 87280=
202003060600 AAXX 06064 67580 32580 21203 10214 20174 48/// 81130
                   333 10254 20181 59010 81826 82360=
202003051200 AAXX 05124 67580 NIL=
202003050600 AAXX 05064 67580 12580 71504 10199 20169 48/// 60014 8453/
                   333 10228 20182 58002 84620 87360=
202003041200 AAXX 04124 67580 41575 81203 10200 20191 48/// 76162 8657/
                   333 58028 86625 88458=
202003040900 AAXX 04094 67580 41675 80000 10204 20190 48/// 76166 8677/
                   333 58024 86709 88460=
202003030900 AAXX 03094 67580 42680 70000 10272 20172 48/// 83237
                   333 5//// 83835 81362 87280=
202003030600 AAXX 03064 67580 32980 71204 10217 20171 48/// 8707/
                   333 10292 20174 58005 87360=
202003020600 AAXX 02064 67580 32580 71503 10216 20179 48/// 85131
                   333 10278 20182 59001 83820 82622 82360 87080=

################################################################################
#  SYNOPS from 67581, Chipata (Zambia) | 13-33S | 032-35E | 1028 m
################################################################################
202003271200 AAXX 27124 67581 41680 71705 10291 20189 48524 72991 81902
                   333 5//// 81930 83832 87280 91016=
202003270600 AAXX 27064 67581 12980 70000 10222 20198 48535 60104 81032
                   333 1//// 20187 58019 81360 87080 91019=
202003261200 AAXX 26124 67581 NIL=
202003260900 AAXX 26094 67581 NIL=
202003260600 AAXX 26064 67581 12980 31403 10240 20198 48520 69904 82032
                   333 1//// 20188 59013 82360 82080 91017=
202003251200 AAXX 25124 67581 NIL=
202003250900 AAXX 25094 67581 41580 71005 10275 20192 48531 72922 819//
                   333 59032 81928 87830 91017=
202003250600 AAXX 25064 67581 12580 10000 10250 20188 48536 69904 70200 81102
                   333 1//// 20200 59026 81820 81080 91018=
202003240600 AAXX 24064 67581 12480 31205 10240 20186 48557 60254 82102
                   333 1//// 20192 59003 82825 82080 91021=
202003230600 AAXX 23064 67581 12480 11604 10220 20190 48557 60014 70200 81100
                   333 1//// 20180 58008 81810 91021=
202003200900 AAXX 20094 67581 42580 60904 10270 20191 48547 84230
                   333 59007 84830 82360 91019=
202003200600 AAXX 20064 67581 12580 61604 10230 20193 48544 69904 82130
                   333 1//// 20194 59003 82825 84360 91019=
202003191200 AAXX 19124 67581 NIL=
202003181200 AAXX 18124 67581 NIL=
202003180600 AAXX 18064 67581 32580 31206 10231 20182 48549 82102
                   333 1//// 20198 5//// 83825 82080 91020=
202003170900 AAXX 17094 67581 42680 40806 10280 20156 48/// 70322 82102
                   333 5//// 82835 84080=
202003170600 AAXX 17064 67581 32980 41205 10245 20166 48/// 80002
                   333 1//// 20192 5//// 84080=
202003110600 AAXX 11064 67581 32980 70000 10230 20188 48/// 80002
                   333 1//// 20180 5//// 87080=
202003101200 AAXX 10124 67581 NIL=
202003060900 AAXX 06094 67581 42680 41006 1//// 20168 48551 83132
                   333 59012 83835 82360 82080 91020=
202003060600 AAXX 06064 67581 32680 31604 10230 20155 48553 82132
                   333 1//// 20188 59011 82830 81360 82080 91021=
202003051200 AAXX 05124 67581 NIL=
202003050600 AAXX 05064 67581 12480 71606 10202 20170 48559 60054 70222 8257/
                   333 1//// 20184 58003 82610 87459 91022=
202003040900 AAXX 04094 67581 NIL=
202003040600 AAXX 04064 67581 11360 81803 10188 20186 48555 60474 76066 8577/
                   333 1//// 20191 58016 85706 88459 91022=
202003030600 AAXX 03064 67581 32980 70000 10218 20162 48545 8703/
                   333 1//// 20176 58007 87360 91020=
202003020600 AAXX 02064 67581 32580 51604 10221 20169 48539 82102
                   333 1//// 20186 59002 82825 82080 91019=

################################################################################
#  SYNOPS from 67583, Lundazi (Zambia) | 12-17S | 033-12E | 1143 m
################################################################################
202003270900 AAXX 27094 67583 42680 70000 10274 20198 48/// 70222 86201
                   333 5//// 83830 81080=
202003270600 AAXX 27064 67583 12480 70000 10222 20192 48/// 60024 70222 81238
                   333 10320 2//// 5//// 81812 82359 87280=
202003261200 AAXX 26124 67583 42780 70000 10312 20194 48/// 70222 872//
                   333 5//// 87850=
202003260900 AAXX 26094 67583 NIL=
202003260600 AAXX 26064 67583 32980 60000 10236 20198 48/// 70222 82036
                   333 10326 2//// 5//// 82359 84280=
202003251200 AAXX 25124 67583 NIL=
202003250900 AAXX 25094 67583 42680 50000 10286 20205 48/// 70211 85201
                   333 5//// 85835 81080=
202003250600 AAXX 25064 67583 32980 30000 10228 20187 48/// 70200 81031
                   333 10310 2//// 5//// 81359 82080=
202003241200 AAXX 24124 67583 42680 52102 10272 20198 48/// 70211 84202
                   333 5//// 84835 81080=
202003240600 AAXX 24064 67583 12480 72102 10222 20192 48/// 69904 70222 81208
                   333 10294 2//// 5//// 81812 87280=
202003200900 AAXX 20094 67583 42680 70904 10270 20197 48/// 84130
                   333 5//// 84835 87360=
202003200600 AAXX 20064 67583 12980 60000 10234 20202 48/// 60104 86030
                   333 10268 2//// 5//// 86360=
202003191200 AAXX 19124 67583 NIL=
202003190600 AAXX 19064 67583 12580 71802 10218 20196 48/// 60504 82530
                   333 10290 2//// 5//// 82625 87360=
202003181200 AAXX 18124 67583 NIL=
202003180900 AAXX 18094 67583 42680 71103 10282 20191 48/// 82130
                   333 5//// 82835 87360=
202003180600 AAXX 18064 67583 32980 71703 10224 20188 48/// 8707/
                   333 10278 2//// 5//// 87360=
202003170900 AAXX 17094 67583 42680 70902 10282 20174 48/// 83107
                   333 5//// 83840 87280=
202003170600 AAXX 17064 67583 31680 70000 10218 20183 48/// 81537
                   333 10312 2//// 5//// 81630 81360 87280=
202003110600 AAXX 11064 67583 32980 70000 10234 20187 48/// 70222 82038
                   333 10312 2//// 5//// 82359 87280=
202003101200 AAXX 10124 67583 NIL=
202003100900 AAXX 10094 67583 42680 70000 10276 20193 48/// 70222 84238
                   333 5//// 84835 81361 87280=
202003060600 AAXX 06064 67583 32980 70000 10204 20192 48/// 8703/
                   333 10264 2//// 5//// 87359=
202003051200 AAXX 05124 67583 NIL=
202003050600 AAXX 05064 67583 12380 80000 10202 20192 48/// 60454 70222 8173/
                   333 10200 2//// 5//// 81706 88359=
202003040900 AAXX 04094 67583 NIL=
202003040600 AAXX 04064 67583 11830 80000 10186 20186 48/// 60184 76362 8802/
                   333 10298 2//// 5//// 88458=
202003030600 AAXX 03064 67583 12980 70000 10204 20196 48/// 69904 8703/
                   333 10284 2//// 5//// 87359=
202003020600 AAXX 02064 67583 32480 70000 10208 20182 48/// 872//
                   333 10292 2//// 5//// 87812=

################################################################################
#  SYNOPS from 67599, Mfuwe (Zambia) | 13-16S | 031-56E | 568 m
################################################################################
202003270600 AAXX 27064 67599 32680 71602 10230 2//// 48529 82138
                   333 10360 20210 58022 82830 82360 87280
                   555 00210 91016=
202003261200 AAXX 26124 67599 NIL=
202003260900 AAXX 26094 67599 NIL=
202003260600 AAXX 26064 67599 12980 41403 10238 20226 48504 60014 84030
                   333 10295 20208 59017 84360
                   555 00208 91014=
202003251200 AAXX 25124 67599 NIL=
202003250900 AAXX 25094 67599 NIL=
202003250600 AAXX 25064 67599 32680 21502 10253 20215 48524 82131
                   333 10350 20210 59028 82830 81360 81080
                   555 00220=
202003200600 AAXX 20064 67599 32980 61802 10237 20224 48533 86030
                   333 10327 20205 59006 86360
                   555 00212 91017=
202003191200 AAXX 19124 67599 NIL=
202003181200 AAXX 18124 67599 NIL=
202003170600 AAXX 17064 67599 31958 30000 10247 20195 48535 74242 80001
                   333 10334 20179 58012 83080
                   555 00175 91017=
202003130600 AAXX 13064 67599 12680 52002 10253 20229 48531 60104 82130
                   333 10330 20199 58009 82838 85359
                   555 00200 91016=
202003101200 AAXX 10124 67599 NIL=
202003051200 AAXX 05124 67599 NIL=
202003040900 AAXX 04094 67599 NIL=
202003040600 AAXX 04064 67599 11259 81904 10208 20208 48545 60434 76162 8177/
                   333 10330 20195 58014 81703 88458
                   555 00198 91020=
202003030600 AAXX 03064 67599 32680 61202 10230 20200 48541 86500
                   333 10300 20195 58006 86649
                   555 00190 91018=
202003020600 AAXX 02064 67599 32480 40000 10236 20194 48535 81130
                   333 10310 20180 58002 81818 83360
                   555 00180 91018=

################################################################################
#  SYNOPS from 67625, Kalabo (Zambia) | 14-51S | 022-42E | 1033 m
################################################################################
202003270600 AAXX 27064 67625 32982 71901 10210 20202 48/// 85073
                   333 10295 20190 58015 85360 87075=
202003261200 AAXX 26124 67625 NIL=
202003260900 AAXX 26094 67625 NIL=
202003260600 AAXX 26064 67625 32982 80000 10210 20202 48/// 81033
                   333 10310 20189 59011 81360 88075=
202003251200 AAXX 25124 67625 NIL=
202003250900 AAXX 25094 67625 NIL=
202003230600 AAXX 23064 67625 12982 70306 10210 20202 48/// 60024 87033
                   333 10245 20203 58018 87360 87075=
202003200600 AAXX 20064 67625 12982 70000 10227 20214 48/// 69954 87073
                   333 10280 20215 59005 87360 87075=
202003191200 AAXX 19124 67625 NIL=
202003181200 AAXX 18124 67625 NIL=
202003180600 AAXX 18064 67625 11982 70906 10210 20203 48/// 60244 75052 87073
                   333 10280 20195 58023 87360 87075=
202003170600 AAXX 17064 67625 11982 70902 10220 20205 48/// 60284 75052 87023
                   333 10285 20206 59003 87460 87075=
202003130600 AAXX 13064 67625 32982 73506 10250 20214 48/// 85073
                   333 10306 20204 59005 85360 87075=
202003101200 AAXX 10124 67625 NIL=
202003060600 AAXX 06064 67625 12482 51005 10215 20208 48/// 60174 84633
                   333 10272 20195 58005 84710 84360 85075=
202003051200 AAXX 05124 67625 NIL=
202003040900 AAXX 04094 67625 42982 63602 10250 20198 48/// 81333
                   333 58014 81920 83822 84361 86075=
202003040600 AAXX 04064 67625 12482 71801 10215 20208 48/// 60014 876//
                   333 10306 20200 58010 87710=
202003030600 AAXX 03064 67625 32982 32703 10220 20182 48/// 83070
                   333 10310 20196 5//// 83361=
202003020600 AAXX 02064 67625 NIL=

################################################################################
#  SYNOPS from 67633, Mongu (Zambia) | 15-15S | 023-09E | 1052 m
################################################################################
202003270600 AAXX 27064 67633 32980 60901 10232 20196 48529 70200 80002
                   333 10296 20185 58028
                   555 00175 91019=
202003261200 AAXX 26124 67633 NIL=
202003260900 AAXX 26094 67633 NIL=
202003251200 AAXX 25124 67633 NIL=
202003250900 AAXX 25094 67633 NIL=
202003230600 AAXX 23064 67633 12980 70902 10206 20198 48530 60074 70222 83038
                   333 1//// 20186 5//// 83360 87280 91019=
202003191200 AAXX 19124 67633 NIL=
202003181200 AAXX 18124 67633 NIL=
202003180900 AAXX 18094 67633 42580 70906 10220 20198 48528 8357/
                   333 58015 83625 87460 91019=
202003170600 AAXX 17064 67633 NIL=
202003130600 AAXX 13064 67633 32980 50803 10245 20195 48/// 82032
                   333 10312 20212 59010 82360 85080
                   555 00210 91016=
202003110600 AAXX 11064 67633 11980 70602 10210 20203 48505 60074 76066 8707/
                   333 10323 20200 59009 87460
                   555 00205 91016=
202003101200 AAXX 10124 67633 NIL=
202003060900 AAXX 06094 67633 42680 60903 10265 20201 48539 85202
                   333 59009 81940 85840 83080 91019=
202003060600 AAXX 06064 67633 12580 70904 10210 20196 48528 60024 8357/
                   333 10287 20197 59004 83615 87460
                   555 00205 91019=
202003051200 AAXX 05124 67633 42680 71808 10275 20205 48516 85230
                   333 58014 81940 85840 83360 91016=
202003040900 AAXX 04094 67633 42580 62702 10250 20208 48529 85802
                   333 58010 83620 82825 83080=
202003040600 AAXX 04064 67633 11480 81802 10210 20204 48518 60244 76066 8357/
                   333 10307 20195 58011 83612 87460
                   555 00220 91018=
202003020600 AAXX 02064 67633 32980 30806 10232 20201 48519 83032
                   333 10309 20193 59007 83360 83080
                   555 00202 91018=

################################################################################
#  SYNOPS from 67641, Kaoma (Zambia) | 14-48S | 024-48E | 1213 m
################################################################################
202003270600 AAXX 27064 67641 NIL=
202003261200 AAXX 26124 67641 NIL=
202003260900 AAXX 26094 67641 NIL=
202003260600 AAXX 26064 67641 32980 70702 10220 20190 48484 81038
                   333 10315 20189 59019 81360 86280 91014=
202003251200 AAXX 25124 67641 NIL=
202003250900 AAXX 25094 67641 NIL=
202003250600 AAXX 25064 67641 32960 33601 10230 20202 48505 80001
                   333 10300 20183 59030 83080 91016=
202003241200 AAXX 24124 67641 42680 30804 10290 20206 48510 83202
                   333 58000 83832 81080 91016=
202003240900 AAXX 24094 67641 42580 6//// 10246 20203 48533 86230
                   333 58009 86828 82360 91020=
202003230600 AAXX 23064 67641 12980 70000 10196 20192 48530 60504 70228
                   333 10300 20182 58016 87360 91020=
202003200600 AAXX 20064 67641 12980 70000 10209 20202 48500 60074 87030
                   333 10275 20198 59009 87360 91016=
202003191200 AAXX 19124 67641 NIL=
202003181200 AAXX 18124 67641 NIL=
202003180900 AAXX 18094 67641 42680 70402 10241 20202 48525 70152 8457/
                   333 58021 84630 87460 91018=
202003170900 AAXX 17094 67641 42680 71406 10270 20199 48508 70222 83230
                   333 58002 83836 86360 91016=
202003170600 AAXX 17064 67641 12580 60802 10220 20207 48499 69904 70310 81530
                   333 10290 20199 59006 81628 86361 91016=
202003160600 AAXX 16064 67641 12980 82702 10207 20198 48504 60034 8807/
                   333 10310 20197 58008 88459 91016=
202003110600 AAXX 11064 67641 32580 70000 10215 20203 48507 81531
                   333 10322 20192 58003 81628 82361 86080=
202003101200 AAXX 10124 67641 NIL=
202003100900 AAXX 10094 67641 42680 41304 10285 20192 48534 83201
                   333 58017 83832 82080 91018=
202003100600 AAXX 10064 67641 32980 11103 10220 20193 48500 81031
                   333 10314 20188 5//// 81361 81080 91016=
202003051200 AAXX 05124 67641 42580 71002 10260 20200 48511 8423/
                   333 58011 84838 83369 91016=
202003050600 AAXX 05064 67641 12580 71203 10195 20190 48585 60194 875//
                   333 10277 20182 58008 87626 91018=
202003040900 AAXX 04094 67641 41580 80000 10210 20202 48524 76062 8657/
                   333 58013 86636 88460 91018=
202003040600 AAXX 04064 67641 11958 80202 10197 20192 48577 60084 76062 8807/
                   333 10306 20187 58027 88458=
202003030600 AAXX 03064 67641 12680 73502 10215 20196 48498 60014 875//
                   333 10300 20200 59003 87630 91016=
202003020600 AAXX 02064 67641 12580 63602 10210 20195 48501 60024 81130
                   333 10292 20200 59006 81825 86360 91016=

################################################################################
#  SYNOPS from 67655, Mumbwa (Zambia) | 15-04S | 027-11E | 1216 m
################################################################################
202003270600 AAXX 27064 67655 NIL=
202003261200 AAXX 26124 67655 NIL=
202003260900 AAXX 26094 67655 NIL=
202003251200 AAXX 25124 67655 NIL=
202003250900 AAXX 25094 67655 NIL=
202003191200 AAXX 19124 67655 NIL=
202003181200 AAXX 18124 67655 NIL=
202003170600 AAXX 17064 67655 NIL=
202003101200 AAXX 10124 67655 NIL=
202003100900 AAXX 10094 67655 42580 53610 10264 20184 48527 85200
                   333 59002 91018=
202003060600 AAXX 06064 67655 12480 2//// 10199 20173 48539 60994 8267/
                   333 10242 20162 58000 82715 86359 91021=
202003051200 AAXX 05124 67655 NIL=
202003050600 AAXX 05064 67655 12380 71007 10186 20179 48544 60084 876//
                   333 10215 20159 59001 87710 91021=
202003040900 AAXX 04094 67655 NIL=
202003040600 AAXX 04064 67655 11380 80711 10193 20182 48557 60124 885//
                   333 10260 20157 58020 88610 91021=
202003030600 AAXX 03064 67655 32480 70714 10196 20174 48538 875//
                   333 10307 20168 59001 87615 91019=
202003020600 AAXX 02064 67655 NIL=

################################################################################
#  SYNOPS from 67659, Kafue Polder (Zambia) | 15-46S | 027-55E | 978 m
################################################################################
202003270600 AAXX 27064 67659 32980 73603 10227 20202 48/// 70222 87030
                   333 10332 20190 5//// 87360=
202003261200 AAXX 26124 67659 NIL=
202003260900 AAXX 26094 67659 42680 41505 10304 20200 48/// 70222 82232
                   333 5//// 82820 81360 82080=
202003260600 AAXX 26064 67659 32980 11003 10227 20202 48/// 70222 81030
                   333 10334 20170 5//// 81360=
202003251200 AAXX 25124 67659 NIL=
202003250900 AAXX 25094 67659 NIL=
202003250600 AAXX 25064 67659 32480 10903 10241 20198 48/// 70222 81130
                   333 10310 20170 5//// 81820 81360=
202003240600 AAXX 24064 67659 32480 20704 10220 20194 48/// 70222 81230
                   333 10307 20170 5//// 81815 82360=
202003230900 AAXX 23094 67659 42580 71204 10264 20190 48/// 70222 81230
                   333 5//// 81825 87360 87360=
202003230600 AAXX 23064 67659 12980 71405 10221 20152 48/// 60024 70222 87030
                   333 10304 20200 5//// 87360=
202003191200 AAXX 19124 67659 NIL=
202003181200 AAXX 18124 67659 NIL=
202003170900 AAXX 17094 67659 42580 80906 10249 20192 48/// 70222 8357/
                   333 5//// 83625 85460=
202003170600 AAXX 17064 67659 32480 80906 10208 20196 48/// 70222 8257/
                   333 10307 20180 5//// 82615 87460=
202003160600 AAXX 16064 67659 12980 71504 10237 20201 48/// 70322 86032
                   333 10336 20195 5//// 86360 81080=
202003130900 AAXX 13094 67659 42580 61005 10278 20195 48/// 70222 84230
                   333 5//// 84830 82360=
202003110600 AAXX 11064 67659 32980 31203 10220 20207 48/// 70322 81033
                   333 10319 20175 5//// 81360 82080=
202003101200 AAXX 10124 67659 NIL=
202003100900 AAXX 10094 67659 42580 31005 10285 20193 48/// 70222 81202
                   333 5//// 81825 82080=
202003100600 AAXX 10064 67659 32980 20504 10243 20188 48/// 70222 80002
                   333 10307 20162 5//// 82080=
202003051200 AAXX 05124 67659 NIL=
202003050600 AAXX 05064 67659 32380 70905 10210 20182 48/// 70222 82830
                   333 10250 20180 5//// 81707 81610 86360=
202003040900 AAXX 04094 67659 NIL=
202003040600 AAXX 04064 67659 12480 81206 10210 20197 48/// 69904 70222 8257/
                   333 10270 20195 5//// 82610 86460=
202003030900 AAXX 03094 67659 42580 61005 10259 20185 48/// 70222 81232
                   333 5//// 81820 83360 82080=
202003030600 AAXX 03064 67659 32480 50906 10207 20176 48/// 70322 81532
                   333 10281 20170 5//// 81615 83360 82080=
202003020600 AAXX 02064 67659 NIL=

################################################################################
#  SYNOPS from 67662, Kabwe Agric (Zambia) | 14-24S | 028-30E | 1165 m
################################################################################
202003270600 AAXX 27064 67662 NIL=
202003261200 AAXX 26124 67662 NIL=
202003260900 AAXX 26094 67662 41680 41801 10285 20172 48/// 70320 82201
                   333 5//// 82847 82080=
202003260600 AAXX 26064 67662 31980 20000 10213 20194 48/// 70200 80001
                   333 10305 20188 5//// 82080=
202003251200 AAXX 25124 67662 NIL=
202003250900 AAXX 25094 67662 41580 51203 10267 20182 48/// 70320 84201
                   333 5//// 84834 81080=
202003240600 AAXX 24064 67662 31980 20903 10216 20184 48/// 70200 82070
                   333 10285 20115 5//// 82360=
202003200900 AAXX 20094 67662 41580 70904 10251 20182 48/// 70322 85272
                   333 5//// 85825 81360 81080=
202003200600 AAXX 20064 67662 31980 50702 10215 20184 48/// 70222 83072
                   333 10292 20130 5//// 83360 82080=
202003191200 AAXX 19124 67662 NIL=
202003190600 AAXX 19064 67662 31480 31203 10200 20177 48/// 70300 81572
                   333 10280 20120 5//// 81612 81360 82080=
202003181200 AAXX 18124 67662 41680 50804 10258 20179 48/// 70222 85200
                   333 5//// 85830=
202003180900 AAXX 18094 67662 41680 50905 10248 20175 48/// 70322 85200
                   333 5//// 85830=
202003180600 AAXX 18064 67662 11480 30902 10202 20181 48/// 69944 70300 81572
                   333 10273 20118 5//// 81612 81360 81080=
202003170600 AAXX 17064 67662 NIL=
202003160600 AAXX 16064 67662 11480 80602 10215 20198 48/// 69904 75022 885//
                   333 10310 20130 5//// 88612=
202003101200 AAXX 10124 67662 NIL=
202003060600 AAXX 06064 67662 31980 40904 10215 20160 48/// 70222 84070
                   333 10230 20130 5//// 84360=
202003051200 AAXX 05124 67662 NIL=
202003050600 AAXX 05064 67662 11480 70903 10197 20170 48/// 69904 70322 83572
                   333 10240 20133 5//// 83612 82360 82080=
202003040900 AAXX 04094 67662 41480 81404 10212 20170 48/// 70322 885//
                   333 5//// 88612=
202003040600 AAXX 04064 67662 11380 70903 10187 20168 48/// 60694 70222 81772
                   333 10275 20142 5//// 81705 87358 81080=
202003030600 AAXX 03064 67662 31480 50903 10202 20191 48/// 70222 81572
                   333 10280 20128 5//// 81607 82360 82080=
202003020600 AAXX 02064 67662 NIL=

################################################################################
#  SYNOPS from 67663, Kabwe (Zambia) | 14-27S | 028-28E | 1206 m
################################################################################
202003270600 AAXX 27064 67663 NIL=
202003261200 AAXX 26124 67663 NIL=
202003260900 AAXX 26094 67663 NIL=
202003260600 AAXX 26064 67663 32980 30705 10233 20191 48498 80002
                   333 10302 20170 59012 83080=
202003251200 AAXX 25124 67663 NIL=
202003250900 AAXX 25094 67663 NIL=
202003250600 AAXX 25064 67663 32980 21008 10235 20202 48510 80002
                   333 10295 20171 59020 82080=
202003191200 AAXX 19124 67663 NIL=
202003181200 AAXX 18124 67663 NIL=
202003180600 AAXX 18064 67663 32480 50907 10207 20182 48507 82531
                   333 10270 20168 59001 82618 83360 81080
                   555 00282=
202003170600 AAXX 17064 67663 NIL=
202003130600 AAXX 13064 67663 32480 70906 10215 20195 48513 82530
                   333 10320 20198 59002 82618 87360
                   555 00257=
202003110600 AAXX 11064 67663 32980 60909 10222 20195 48508 81032
                   333 10290 20164 59009 81360 85080
                   555 00300=
202003101200 AAXX 10124 67663 42680 60306 10280 20188 48494 84208
                   333 59002 84837 86280=
202003100900 AAXX 10094 67663 42580 70908 10245 20177 48504 82507
                   333 5//// 82626 87280=
202003060600 AAXX 06064 67663 32980 60909 10217 20160 48530 83030
                   333 10232 20166 58002 86360
                   555 00260=
202003051200 AAXX 05124 67663 NIL=
202003050600 AAXX 05064 67663 32480 70711 10195 20171 48528 86530
                   333 10236 20169 59010 86616 85360
                   555 00218=
202003040900 AAXX 04094 67663 42580 70911 10206 20172 48533 875//
                   333 58016 87623=
202003040600 AAXX 04064 67663 12480 71209 10185 20172 48537 60264 8557/
                   333 10274 20174 58025 85619 87360
                   555 00206=
202003030600 AAXX 03064 67663 12480 50608 10197 20174 48513 69904 84502
                   333 10252 20161 58011 84619 82080
                   555 00256=
202003020600 AAXX 02064 67663 32480 80906 10185 20161 48502 885//
                   333 10267 20169 59024 88618
                   555 00218=

################################################################################
#  SYNOPS from 67665, Lusaka Internationalairport (Zambia) | 15-19S | 028-27E | 1152 m
################################################################################
202003270600 AAXX 27064 67665 NIL=
202003261200 AAXX 26124 67665 NIL=
202003260900 AAXX 26094 67665 NIL=
202003251200 AAXX 25124 67665 NIL=
202003250900 AAXX 25094 67665 NIL=
202003250600 AAXX 25064 67665 32980 21403 10217 20199 48530 70200 80001
                   333 10290 20159 59026 82080 91019=
202003241200 AAXX 24124 67665 42680 50908 10280 20156 48533 70301 85100
                   333 59018 85840 91019=
202003240600 AAXX 24064 67665 31980 21106 10207 20183 48554 72842 82030
                   333 10282 20157 59010 82360
                   555 00///=
202003240300 AAXX 24034 67665 42980 11303 10169 20161 48538 81030
                   333 58002 81360=
202003240000 AAXX 24004 67665 42980 10000 10184 20160 48542 81030
                   333 58006 81360=
202003232100 AAXX 23214 67665 42980 11305 10193 20161 48553 81030
                   333 58008 81360=
202003231800 AAXX 23184 67665 42980 31403 10210 20173 48547 70200 81901
                   333 58006 81956 83080=
202003231500 AAXX 23154 67665 42780 41108 10263 20163 48535 70222 83531
                   333 58009 83650 83360 83080=
202003231200 AAXX 23124 67665 42680 70808 10266 20158 48549 70222 85530
                   333 58007 85635 86360 91021=
202003230900 AAXX 23094 67665 42580 10124 20163 48568 70322 83130
                   333 58012 83825 87361 91023=
202003221800 AAXX 22184 67665 42680 61303 10219 20196 48543 81932
                   333 10263 58021 81950 85359 81080=
202003221500 AAXX 22154 67665 42680 61204 10238 20195 48524 81932
                   333 58005 81940 83359 81080
                   555 10263=
202003221200 AAXX 22124 67665 41559 70208 10207 20192 48535 79596 81972
                   333 58018 81928 83830 85459 81080=
202003220900 AAXX 22094 67665 42580 70809 10252 20186 48559 70222 85530
                   333 58008 85622 86360=
202003220600 AAXX 22064 67665 31959 70805 10206 20191 48552 70522 8703/
                   333 10269 20195 58012 87360
                   555 00/// 91022=
202003210900 AAXX 21094 67665 42580 80810 10229 20174 48549 8453/
                   333 58006 84620 88359=
202003210600 AAXX 21064 67665 32980 71109 10207 20176 48540 70322 8707/
                   333 10275 20//0 58000 87459 91021=
202003201800 AAXX 20184 67665 42780 11405 10211 20180 48525 70121 84500
                   333 10277 5//// 81650 91019=
202003201200 AAXX 20124 67665 42580 70809 10262 20169 48527 70322 86530
                   333 5//// 86620 83361=
202003200600 AAXX 20064 67665 32380 71107 10197 20166 48539 70321 82630
                   333 10//0 20//0 59006 82708 87380
                   555 00///=
202003200000 AAXX 20004 67665 42980 09902 10172 20155 48524 70200
                   333 58006 91019=
202003192100 AAXX 19214 67665 42980 09901 10185 20169 48537 70200
                   333 58006 91021=
202003191800 AAXX 19184 67665 42780 11504 10210 20184 48529 70200 81900
                   333 5//// 81950 91019=
202003191200 AAXX 19124 67665 NIL=
202003190900 AAXX 19094 67665 42980 60606 10236 20157 48557 70222 86500
                   333 58001 86625=
202003190600 AAXX 19064 67665 32980 11107 10193 20170 48544 70200 80001
                   333 10262 20216 59001 81080=
202003190300 AAXX 19034 67665 42980 01403 10165 20154 48521 70200
                   333 59004=
202003182100 AAXX 18214 67665 42980 11601 10188 20172 48531 70200 81030
                   333 59004 81360=
202003181500 AAXX 18154 67665 42680 41107 10252 20168 48518 70122 83230
                   555 58001 83845 81360
                   555 10262 91018=
202003181200 AAXX 18124 67665 NIL=
202003180900 AAXX 18094 67665 42580 70711 10228 20169 48555 70222 8557/
                   333 58005 85620 87360 91022=
202003180600 AAXX 18064 67665 12380 71009 10191 20166 48545 69904 82631
                   333 10//0 20//0 58009 82709 86360 81080
                   555 00///=
202003180300 AAXX 18034 67665 42980 11204 10171 20163 48525 81030
                   333 58018 81360=
202003180000 AAXX 18004 67665 42/80 21304 10177 20161 48528 82030
                   333 58020 819// 82360=
202003172100 AAXX 17214 67665 42/80 21203 10188 20174 48535 82030
                   333 58015 819// 82360=
202003171800 AAXX 17184 67665 42780 31202 10203 20179 48522 70200 81930
                   333 58022 81956 83360=
202003171500 AAXX 17154 67665 42670 70810 10229 20181 48515 72562 84232
                   333 58009 84840 85360 84080=
202003170600 AAXX 17064 67665 NIL=
202003161800 AAXX 16184 67665 42780 71403 10220 20190 48503 82032
                   333 59004 81956 82360 85280=
202003161500 AAXX 16154 67665 42680 61207 10266 20166 48501 82032
                   333 58010 81945 82360 85280=
202003161200 AAXX 16124 67665 42680 60708 10268 20168 48515 84532
                   333 58009 84630 85360 82080=
202003160900 AAXX 16094 67665 42580 70507 10246 20186 48536 70222 84530
                   333 58002 84620 86360=
202003160600 AAXX 16064 67665 11960 81503 10194 20183 48524 60084 75066 8807/
                   333 59008 88459=
202003150900 AAXX 15094 67665 42580 60707 10276 20193 48538 85532
                   333 59008 85628 82360 82080=
202003150600 AAXX 15064 67665 32480 79902 10221 20192 48536 70321 83538
                   333 10//0 20//0 59003 83610 84360 86280
                   555 91020=
202003150000 AAXX 15004 67665 42980 29901 10195 20179 48522 70200 82030
                   333 59007 82360 91019=
202003142100 AAXX 14214 67665 41/80 29903 10212 20192 48531 71300 81930
                   333 59007 819// 82360 91020=
202003140300 AAXX 14034 67665 42980 31403 10178 20162 48523 70200 80002
                   333 58005 83080=
202003140000 AAXX 14004 67665 42980 11502 10184 20169 48526 70200 80002
                   333 58014 81080=
202003132100 AAXX 13214 67665 42980 11104 10203 20184 48536 70200 80002
                   333 58015 81080=
202003131800 AAXX 13184 67665 42980 31204 10226 20182 48521 70121 80002
                   333 10273 58007 83080 91018=
202003131500 AAXX 13154 67665 42680 61107 10284 20162 48507 70122 84230
                   333 59003 84845 81360
                   555 10273=
202003131200 AAXX 13124 67665 42680 70809 10282 20176 48529 70322 86230
                   333 58005 86830 85360 9101=
202003130900 AAXX 13094 67665 42580 60813 10249 20190 48551 86500
                   333 58010 85620 91021=
202003130600 AAXX 13064 67665 32380 50807 10214 20193 48533 83731
                   333 10289 20182 59005 83708 82360 81080
                   555 000//=
202003130300 AAXX 13034 67665 42380 61102 10192 20175 48519 83630
                   333 58010 83708 85360=
202003130000 AAXX 13004 67665 42980 11303 10190 20174 48514 81030
                   333 58007 81360=
202003122100 AAXX 12214 67665 42980 21302 10195 20182 48522 82030
                   333 58007 82360=
202003121800 AAXX 12184 67665 42980 21206 10221 20184 48513 70200 80002
                   333 10289 58009 82080=
202003121500 AAXX 12154 67665 42780 41107 10261 20170 48507 70100 82802
                   333 58012 82850 84080=
202003121200 AAXX 12124 67665 42680 61009 10278 20163 48524 70122 84508
                   333 58000 84640 85280=
202003120900 AAXX 12094 67665 42680 70709 10258 20174 48542 70121 85508
                   333 58002 85630 86280 91020=
202003111800 AAXX 11184 67665 42980 11104 10233 20184 48505 81030
                   333 10294 59003 81360=
202003111500 AAXX 11154 67665 42680 30808 10279 20154 48498 82231
                   333 10294 59014 81945 82850 81360=
202003111200 AAXX 11124 67665 42680 50408 10278 20155 48524 83502
                   333 58006 83635 85280=
202003110900 AAXX 11094 67665 42580 50609 10266 20166 48541 70300 83501
                   333 58004 83620 83080=
202003110600 AAXX 11064 67665 32980 21005 10214 20184 48534 70200 80001
                   333 10218 20170 58006 82080 91020=
202003101200 AAXX 10124 67665 NIL=
202003100900 AAXX 10094 67665 42580 40410 10259 20158 48536 82532
                   333 59008 82625 81360 83080=
202003100600 AAXX 10064 67665 32980 21106 10215 20168 48529 70200 81032
                   333 10287 20167 59005 82080
                   555 00///=
202003100000 AAXX 10004 67665 42980 19902 10174 20158 48516 70300 80001
                   333 59012 81080 91019=
202003092100 AAXX 09214 67665 42980 19902 10193 20171 48525 70100 80001
                   333 59015 81080 91019=
202003091800 AAXX 09184 67665 42980 11304 10220 20178 48521 70200 81030
                   333 59008 81359 91018=
202003091500 AAXX 09154 67665 42680 21009 10268 20163 48511 70112 82200
                   333 59013 82845 91017=
202003090600 AAXX 09064 67665 32980 11106 10204 20167 48531 70300 80001
                   333 20164 59016 81080=
202003090300 AAXX 09034 67665 42980 01503 10169 20152 48518 70200
                   333 59009=
202003090000 AAXX 09004 67665 42980 09901 10173 20156 48528 70200
                   333 59007=
202003082100 AAXX 08214 67665 42980 01204 10186 20164 48540 70200
                   333 59005=
202003081800 AAXX 08184 67665 42980 21306 10212 20174 48523 70321 82060
                   333 10281 59010 82360 Q1019.2=
202003081500 AAXX 08154 67665 42780 41105 10260 20159 48516 70322 86100
                   333 59016 86850 555 10281 91017=
202003081200 AAXX 08124 67665 42680 60809 10264 20164 48526 70321 86500
                   333 59008 86635 91018=
202003080900 AAXX 08094 67665 42480 41113 10245 20168 48551 84500
                   333 59005 84625 91021=
202003080600 AAXX 08064 67665 32480 61011 10199 20168 48547 85502
                   333 10269 20164 59001 85610 82080
                   555 00///=
202003080300 AAXX 08034 67665 42980 11305 10168 20151 48527 81030
                   333 59006 81360=
202003080000 AAXX 08004 67665 42980 01404 10174 20158 48534
                   333 58005=
202003072100 AAXX 07214 67665 42980 11103 10187 20162 48545 81030
                   333 59006 81360=
202003071800 AAXX 07184 67665 42780 61106 10214 20168 48533 70222 84130
                   333 10269 59001 84856 84360=
202003071500 AAXX 07154 67665 42680 71110 10246 20151 48531 70222 86530
                   333 58005 86645 83360=
202003071200 AAXX 07124 67665 42680 70910 10255 20153 48534 70322 87500
                   333 59003 87632=
202003070900 AAXX 07094 67665 42580 50814 10242 20156 48554 70202 85500
                   333 58012 85625 91022=
202003061800 AAXX 06184 67665 42680 71105 10218 20156 48535 8153/
                   333 10270 59009 81656 87360=
202003061500 AAXX 06154 67665 42580 71009 10254 20143 48526 8253/
                   333 59009 82645 87360
                   555 10270=
202003061200 AAXX 06124 67665 42580 61109 10253 20140 48536 85530
                   333 59004 85630 82360=
202003060900 AAXX 06094 67665 42480 40712 10241 20149 48557 70300 83530
                   333 59009 83618 83360=
202003060600 AAXX 06064 67665 32980 21208 10192 20163 48553 70200 82030
                   333 59004 82360 91023=
202003060300 AAXX 06034 67665 42980 21405 10157 20146 48537 70200 82030
                   333 59006 82360 91021=
202003051200 AAXX 05124 67665 NIL=
202003050900 AAXX 05094 67665 42580 80508 10211 20151 48562 70322 8557/
                   333 58001 85620 88459=
202003050600 AAXX 05064 67665 32480 70911 10189 20174 48556 70322 8667/
                   333 10//0 20175 58003 86709 87459=
202003041200 AAXX 04124 67665 42580 71011 10203 20163 48543 70222 8657/
                   333 58023 86622 87460=
202003040900 AAXX 04094 67665 NIL=
202003040600 AAXX 04064 67665 11460 81008 10186 20172 48554 60034 75052 83542
                   333 10262 20159 58018 83459 85459 87280=
202003040300 AAXX 04034 67665 42980 71007 10189 20174 48536 70222 80008
                   333 58014 87280=
202003040000 AAXX 04004 67665 41960 71204 10191 20184 48538 75155 84048
                   333 58016 84459 87280=
202003032100 AAXX 03214 67665 41759 70907 10194 20184 48550 76162 84508
                   333 58017 84650 87280=
202003031800 AAXX 03184 67665 41775 71107 10210 20179 48541 72162 83508
                   333 10262 58018 83650 86280 91021=
202003031500 AAXX 03154 67665 42680 71207 10237 20184 48520 70322 86508
                   333 58008 81940 86645 87280
                   555 10262 91018=
202003031200 AAXX 03124 67665 42680 60807 10247 20172 48527 70221 86500
                   333 59005 86630 91019=
202003030900 AAXX 03094 67665 42580 60710 10236 20162 48546 70222 86500
                   333 58002 86620 91021=
202003030600 AAXX 03064 67665 12380 41006 10187 20171 48537 69904 83631
                   333 10251 20159 58002 83709 82360 81080
                   555 00///=
202003030300 AAXX 03034 67665 42980 11004 10160 20152 48519 81030
                   333 58000 81360=
202003030000 AAXX 03004 67665 42980 01204 10168 20158 48520 81030
                   333 58000 81360=
202003022100 AAXX 02214 67665 42980 21104 10179 20165 48533 82030
                   333 59001 82360=
202003021800 AAXX 02184 67665 42980 21204 10201 20174 48523 70100 82030
                   333 10251 58006 82360=
202003021500 AAXX 02154 67665 42680 50909 10247 20161 48513 70122 83230
                   333 59001 83845 83360=
202003021200 AAXX 02124 67665 42680 70306 10231 20152 48529 70222 8567/
                   333 58001 86630 87459=
202003020900 AAXX 02094 67665 41480 80811 10219 20164 48542 72855 8657/
                   333 59004 86615 88459 91021=
202003020600 AAXX 02064 67665 NIL=
202003011800 AAXX 01184 67665 42/80 21104 10209 20184 48518 81030
                   333 59007 819// 81360=
202003011500 AAXX 01154 67665 42680 10250 20156 48514 82230
                   333 58001 81940 82845 83360=
202003011200 AAXX 01124 67665 42680 60709 10264 20164 48532 86500
                   333 58009 86630=
202003010900 AAXX 01094 67665 42480 60812 10242 20156 48547 70222 86500
                   333 58000 86618=
202003010600 AAXX 01064 67665 32480 21011 10210 20179 48546 70300 82500
                   333 58009 82610=

################################################################################
#  SYNOPS from 67666, Lusaka City Airport (Zambia) | 15-25-00S | 028-28-00E | 1280 m
################################################################################
202003270900 AAXX 27094 67666 42480 83603 10260 2//// 48541 83237
                   333 58023 83820 81359 88280 91020=
202003270600 AAXX 27064 67666 31460 80803 10223 20187 48530 74442 83237
                   333 10280 2//// 58013 83818 82359 88280 91019=
202003261200 AAXX 26124 67666 42680 60902 10288 20143 48498 84203
                   333 59009 84835 83080 91015=
202003260900 AAXX 26094 67666 43680 40905 10270 20155 48520 82103
                   333 59009 82830 83080 91018=
202003260600 AAXX 26064 67666 32980 30907 10237 20167 48504 80003
                   333 10295 2//// 59019 83080 91017=
202003251200 AAXX 25124 67666 42580 51405 10275 20160 48505 84201
                   333 58019 84830 81080 91016=
202003250900 AAXX 25094 67666 42480 31003 10252 20165 48527 82101
                   333 58020 82820 81080 91019=
202003250600 AAXX 25064 67666 32980 11005 10235 20156 48527 80001
                   333 10285 2//// 59023 81080 91019=
202003240900 AAXX 24094 67666 42480 51008 10250 20155 48546 85800
                   333 59012 82620 83825 91021=
202003230600 AAXX 23064 67666 12980 71006 10200 20172 48556 60014 8707/
                   333 10270 2//// 58012 87359 91023=
202003200900 AAXX 20094 67666 42580 70912 10240 20172 48535 84830
                   333 58011 82620 83825 84359 91020=
202003200600 AAXX 20064 67666 32980 71008 10200 20152 48532 8703/
                   333 10269 2//// 58005 87359 91020=
202003191200 AAXX 19124 67666 42680 50803 10255 20164 48519 85231
                   333 58004 85830 81359 81080 91018=
202003190900 AAXX 19094 67666 42580 60808 10228 20162 48546 86801
                   333 59003 83615 83818 81080 91021=
202003190600 AAXX 19064 67666 32480 50910 10195 20154 48528 83501
                   333 10255 20//0 59003 83610 81030 91021=
202003181200 AAXX 18124 67666 42680 70905 10245 20168 48523 81930
                   333 59008 81935 86835 81359 91018=
202003180900 AAXX 18094 67666 42580 70912 10225 20163 48533 86830
                   333 59012 81618 85825 82359 91021=
202003170900 AAXX 17094 67666 42580 70811 10233 20181 48532 85830
                   333 58005 84520 83825 86359 91020=
202003170600 AAXX 17064 67666 11380 80907 10180 20174 48528 60014 75052 887//
                   333 10270 2//// 58015 88709 91020=
202003130600 AAXX 13064 67666 32910 61005 10215 20185 48526 86030
                   333 10289 2//// 58008 86359 91019=
202003110600 AAXX 11064 67666 32980 50909 10224 20180 48525 80006
                   333 10280 2//// 58004 85080=
202003101200 AAXX 10124 67666 42680 41005 10270 20145 48508 84201
                   333 59006 84832 82080 91016=
202003100900 AAXX 10094 67666 42580 20910 10254 20153 48524 81101
                   333 59010 81820 82080 91019=
202003100600 AAXX 10064 67666 32980 30908 10218 20160 48521 80002
                   333 10285 2//// 59004 84080 91018=
202003051200 AAXX 05124 67666 42580 80910 10216 20160 48530 868//
                   333 59001 86620 84825 91020=
202003050600 AAXX 05064 67666 32380 80809 10185 20163 48538 887//
                   333 10201 2//// 58001 88706 91022=
202003040900 AAXX 04094 67666 42480 70913 10190 20175 48551 875//
                   333 58019 87612 91022=
202003031200 AAXX 03124 67666 42580 60905 10240 20172 48513 85231
                   333 59003 85830 81360 81080 91018=
202003030900 AAXX 03094 67666 42480 70912 10220 20166 48531 8483/
                   333 58001 84612 82815 81360 91020=
202003030600 AAXX 03064 67666 32480 70806 10182 20153 48528 70300 8773/
                   333 10289 2//// 58006 87708 81356 91020=
202003020600 AAXX 02064 67666 11380 80811 10180 20167 48518 69904 75022 886//
                   333 1//// 2//// 59014 88707 91019=

################################################################################
#  SYNOPS from 67667, Mount Makulu (Zambia) | 15-33S | 028-15E | 1213 m
################################################################################
202003271200 AAXX 27124 67667 41680 70000 10190 20190 48/// 72962 85208
                   333 5//// 81950 85830 87280=
202003270900 AAXX 27094 67667 42680 72503 10256 20202 48575 85208
                   333 58025 85830 87280=
202003270600 AAXX 27064 67667 32680 72702 10220 20189 48/// 82108
                   333 10327 20167 5//// 82830 87280=
202003261200 AAXX 26124 67667 NIL=
202003260900 AAXX 26094 67667 NIL=
202003260600 AAXX 26064 67667 32980 31201 10248 20185 48/// 80001
                   333 10326 20144 5//// 83080=
202003251200 AAXX 25124 67667 NIL=
202003250900 AAXX 25094 67667 NIL=
202003250600 AAXX 25064 67667 32680 22302 10230 20188 48/// 81101
                   333 10316 20128 5//// 81830 82080=
202003240600 AAXX 24064 67667 32980 41602 1//// 20192 48/// 80001
                   333 10304 20130 5//// 84080=
202003230600 AAXX 23064 67667 32980 71501 10208 20166 48/// 80008
                   333 10302 20168 5//// 87280=
202003201200 AAXX 20124 67667 42680 61802 10268 20190 48553 86202
                   333 59002 86835 83080=
202003200900 AAXX 20094 67667 42680 61207 10254 20190 48/// 83202
                   333 5//// 83830 86080=
202003200600 AAXX 20064 67667 32980 70906 10210 20174 48/// 80008
                   333 10296 20150 5//// 87280=
202003191200 AAXX 19124 67667 42680 40905 10268 20176 48557 84202
                   333 59006 84835 82070=
202003190900 AAXX 19094 67667 42680 60910 10240 20175 48/// 84232
                   333 5//// 84830 83359 83080=
202003190600 AAXX 19064 67667 32580 20905 10202 20171 48/// 81102
                   333 10252 20145 5//// 81825 82080=
202003181200 AAXX 18124 67667 NIL=
202003180900 AAXX 18094 67667 42680 50906 10238 20175 48/// 85202
                   333 5//// 85830 82080=
202003180600 AAXX 18064 67667 32580 60910 10200 20169 48/// 81102
                   333 10296 20150 5//// 81825 86080=
202003170600 AAXX 17064 67667 NIL=
202003160600 AAXX 16064 67667 32980 71307 10210 20189 48/// 82038
                   333 10322 20170 5//// 82360 87280=
202003131200 AAXX 13124 67667 42680 50906 10282 20192 48///
                   333 5//// 84835 83080=
202003130900 AAXX 13094 67667 42680 70907 10258 20202 48/// 85202
                   333 5//// 85830 86080=
202003130600 AAXX 13064 67667 32580 61008 10220 20191 48573 86501
                   333 10308 20163 5//// 86625 82080=
202003110600 AAXX 11064 67667 32980 21605 10230 20189 48/// 80001
                   333 10310 20154 5//// 81080=
202003101200 AAXX 10124 67667 NIL=
202003100900 AAXX 10094 67667 42680 31305 10258 20172 48/// 81101
                   333 5//// 81830 82080=
202003060600 AAXX 06064 67667 32980 21604 10201 48/// 80001
                   333 10270 20130 5//// 82080=
202003051200 AAXX 05124 67667 NIL=
202003040900 AAXX 04094 67667 NIL=
202003040600 AAXX 04064 67667 12580 71402 10182 20180 48/// 60064 78021 87021
                   333 10272 20150 5//// 85625 87080=
202003030600 AAXX 03064 67667 32580 41808 10190 20161 48/// 81101
                   333 10272 20161 5//// 81825 84080=
202003020600 AAXX 02064 67667 32580 71802 10194 20180 48/// 84508
                   333 10286 20146 5//// 84625 87280=

################################################################################
#  SYNOPS from 67673, Petauke (Zambia) | 14-15S | 031-17E | 1035 m
################################################################################
202003270900 AAXX 27094 67673 42680 61701 10300 20225 48/// 83231
                   333 5//// 83835 83360 81080=
202003270600 AAXX 27064 67673 32980 40000 10260 20201 48/// 83031
                   333 10324 2//// 5//// 83360 81080=
202003261200 AAXX 26124 67673 42680 63201 10318 20190 48/// 85231
                   333 5//// 85840 81360 81080=
202003260900 AAXX 26094 67673 42680 40901 10298 20200 48/// 83201
                   333 5//// 83835 81360=
202003260600 AAXX 26064 67673 12980 31301 10254 20200 48/// 60044 82031
                   333 10320 2//// 5//// 82360 81080=
202003251200 AAXX 25124 67673 NIL=
202003250900 AAXX 25094 67673 42684 60902 10298 20200 48/// 86201
                   333 5//// 86834 82080=
202003250600 AAXX 25064 67673 32584 21001 10248 20208 48/// 82101
                   333 10310 2//// 5//// 82828 81080=
202003230900 AAXX 23094 67673 42680 61503 10278 20192 48/// 85230
                   333 5//// 85832 81360=
202003230600 AAXX 23064 67673 32980 31802 10222 20185 48/// 81031
                   333 10290 2//// 5//// 81360 82080=
202003200900 AAXX 20094 67673 42680 60504 10274 20213 48/// 86231
                   333 5//// 83832 83360 82080=
202003200600 AAXX 20064 67673 12584 50902 10240 20195 48/// 60304 83531
                   333 10310 2//// 5//// 83628 85360=
202003191200 AAXX 19124 67673 NIL=
202003181200 AAXX 18124 67673 42680 60000 10294 20185 48/// 85230
                   333 5//// 85838 82360=
202003180900 AAXX 18094 67673 42680 41302 10279 20185 48/// 82130
                   333 5//// 82835 82360=
202003170600 AAXX 17064 67673 32680 33603 10232 20193 48/// 81130
                   333 10320 2//// 5//// 81827 82360=
202003130900 AAXX 13094 67673 42684 61005 10290 20205 48/// 85230
                   333 5//// 85835 86360=
202003130600 AAXX 13064 67673 12584 50902 10240 20210 48/// 69904 85230
                   333 10316 2//// 5//// 85828 83360=
202003111200 AAXX 11124 67673 42684 60901 10303 20199 48/// 86201
                   333 5//// 83835 84080=
202003110600 AAXX 11064 67673 32584 30000 10254 20190 48/// 81131
                   333 10320 2//// 5//// 81828 82360 83080=
202003101200 AAXX 10124 67673 42680 70000 10300 20182 48/// 85231
                   333 5//// 85836 82360 82080=
202003051200 AAXX 05124 67673 NIL=
202003050600 AAXX 05064 67673 32580 51804 10202 20180 48/// 84130
                   333 10270 20142 5//// 84820 82360=
202003040900 AAXX 04094 67673 41584 70904 10210 20185 48/// 75155 875//
                   333 5//// 87626=
202003040600 AAXX 04064 67673 12584 70902 10198 20175 48/// 60024 8513/
                   333 10288 20155 5//// 85825 87360=
202003030900 AAXX 03094 67673 42684 50502 10260 20185 48/// 85131
                   333 5//// 85830 84360 82080=
202003030600 AAXX 03064 67673 32584 60000 10224 20165 48/// 82130
                   333 10252 20144 5//// 82825 86360=
202003020600 AAXX 02064 67673 NIL=

################################################################################
#  SYNOPS from 67731, Senanga (Zambia) | 16-06S | 023-16E | 1027 m
################################################################################
202003270900 AAXX 27094 67731 42980 527// 10268 20199 48/// 84032
                   333 5//// 84360 84080=
202003270600 AAXX 27064 67731 32980 514// 10241 20191 48/// 84032
                   333 10313 20197 5//// 84360 84080
                   555 00097=
202003261200 AAXX 26124 67731 NIL=
202003260900 AAXX 26094 67731 42980 527// 10279 20199 48/// 84032
                   333 5//// 84362 84080=
202003260600 AAXX 26064 67731 32980 609// 10241 20199 48/// 84038
                   333 10309 20179 5//// 84360 86280
                   555 00097=
202003251200 AAXX 25124 67731 NIL=
202003250900 AAXX 25094 67731 42580 525// 10277 20204 48/// 84132
                   333 59004 84826 84362 84080=
202003240600 AAXX 24064 67731 32980 210// 10226 20194 48/// 70200 82010
                   333 10289 20196 5//// 82462
                   555 00096=
202003230600 AAXX 23064 67731 12680 812// 10202 20199 48/// 60354 70226 86539
                   333 10281 20192 5//// 86634 87360 88180
                   555 00043=
202003200600 AAXX 20064 67731 12980 809// 10231 20184 48/// 60014 85037
                   333 10261 20169 5//// 85360 88280
                   555 00059=
202003191200 AAXX 19124 67731 NIL=
202003190600 AAXX 19064 67731 12480 807// 10231 20195 48/// 69904 84578
                   333 10280 20171 59006 84616 85460 88280
                   555 00063=
202003181200 AAXX 18124 67731 NIL=
202003180900 AAXX 18094 67731 42580 831// 10237 20204 48/// 70222 82439
                   333 5//// 82620 87362 88180=
202003180600 AAXX 18064 67731 12580 827// 10206 20196 48/// 60144 70226 82939
                   333 10290 20183 5//// 82923 87360 88180
                   555 00052=
202003170900 AAXX 17094 67731 42580 611// 10268 20207 48/// 70222 81350
                   333 5//// 81920 84823 82365=
202003170600 AAXX 17064 67731 12980 810// 10210 20199 48/// 60134 70222 87037
                   333 10309 20195 5//// 87362 88280
                   555 00058=
202003160600 AAXX 16064 67731 12480 819// 10236 20216 48/// 60034 70322 82930
                   333 10324 20220 59023 82915 84620 88362
                   555 00063=
202003130600 AAXX 13064 67731 32980 313// 10239 20181 48/// 80002
                   333 10326 20184 59003 83080
                   555 00079=
202003111200 AAXX 11124 67731 42680 527// 10293 20217 48/// 70122 82251
                   333 59024 82832 83365 82080=
202003110600 AAXX 11064 67731 12480 821// 10237 20210 48/// 60014 70222 82530
                   333 10330 20222 58016 82617 88360
                   555 00081=
202003101200 AAXX 10124 67731 NIL=
202003100600 AAXX 10064 67731 32980 403// 10234 20183 48/// 84030
                   333 10321 20199 59036 84360
                   555 000094=
202003060600 AAXX 06064 67731 12480 509// 10226 20193 48/// 60094 83102
                   333 10290 20163 58003 83816 84080
                   555 00059=
202003051200 AAXX 05124 67731 NIL=
202003050600 AAXX 05064 67731 12480 809// 10229 20177 48/// 60054 84518
                   333 10263 20149 58006 84615 86460 88280
                   555 00049=
202003040900 AAXX 04094 67731 42475 812// 10223 20206 48/// 75022 85459
                   333 58018 85617 87362 87180=
202003040600 AAXX 04064 67731 12480 810// 10208 20193 48/// 60304 70222 82939
                   333 10302 20195 58019 82915 84618 87360 88180
                   555 00052=
202003030900 AAXX 03094 67731 42580 514// 10268 20199 48/// 70122 81350
                   333 59001 81923 81827 83365=
202003030600 AAXX 03064 67731 12580 702// 10220 20191 48/// 60044 70328 81930
                   333 10322 20198 59007 81923 83628 86360
                   555 00062=
202003020600 AAXX 02064 67731 32680 121// 10241 20206 48/// 70300 81200
                   333 10302 20195 58011 81832
                   555 00072=

################################################################################
#  SYNOPS from 67741, Sesheke (Zambia) | 17-28S | 024-18E | 949 m
################################################################################
202003270600 AAXX 27064 67741 12980 50000 10226 20205 48521 60074 85030
                   333 10324 20192 58016 85362=
202003261200 AAXX 26124 67741 42680 50000 10320 20172 48499 85130
                   333 5//// 85850 82362=
202003260900 AAXX 26094 67741 42680 50000 10296 20191 48525 81130
                   333 5//// 81850 85362=
202003260600 AAXX 26064 67741 32980 60000 10238 20205 48504 86030
                   333 10304 20196 59022 86362=
202003251200 AAXX 25124 67741 NIL=
202003250900 AAXX 25094 67741 NIL=
202003241200 AAXX 24124 67741 42680 31202 10284 20199 48531 82130
                   333 5//// 82850 82362=
202003240900 AAXX 24094 67741 42680 50901 10258 20198 48556 81530
                   333 5//// 81640 85362=
202003240600 AAXX 24064 67741 12980 60801 10212 20195 48546 60034 86030
                   333 10258 20183 59007 86362=
202003230600 AAXX 23064 67741 11680 70000 10198 20195 48553 60124 76162 8457/
                   333 10290 20187 58026 84630 87460=
202003200600 AAXX 20064 67741 12980 70000 10214 20211 48529 60084 8707/
                   333 10271 20196 59006 87262=
202003191200 AAXX 19124 67741 42680 70401 10224 20194 48510 8357/
                   333 59004 83640 86461=
202003190900 AAXX 19094 67741 42680 70901 10261 20208 48546 8157/
                   333 59006 81640 87461=
202003190600 AAXX 19064 67741 12980 70901 10224 20210 48531 60214 8707/
                   333 10279 20205 59006 87461=
202003181200 AAXX 18124 67741 42680 60901 10261 20197 48517 85530
                   333 5//// 85640 83362=
202003180900 AAXX 18094 67741 42680 70901 10240 20212 48542 8457/
                   333 58014 84640 87461=
202003180600 AAXX 18064 67741 32680 70000 10221 20201 48538 8257/
                   333 10286 20204 58015 82640 87461=
202003170900 AAXX 17094 67741 42980 70902 10258 20189 48537 8707/
                   333 58013 87362=
202003170600 AAXX 17064 67741 32980 70000 10226 20202 48521 8707/
                   333 10323 20199 58012 87362=
202003130600 AAXX 13064 67741 32980 50901 10250 20202 48535 85030
                   333 10329 20186 58006 85362=
202003111200 AAXX 11124 67741 42680 60000 10306 20193 48507 82130
                   333 59001 82850 85365=
202003110600 AAXX 11064 67741 32980 50602 10252 20201 48525 85030
                   333 10316 20185 58001 85360=
202003101200 AAXX 10124 67741 42680 31401 10302 20186 48505 83130
                   333 5//// 83850 81362=
202003100900 AAXX 10094 67741 42680 50901 10296 20201 48535 85130
                   333 5//// 85850 81362=
202003060900 AAXX 06094 67741 42680 50802 10266 20182 48558 85530
                   333 59012 85640 81362=
202003060600 AAXX 06064 67741 32980 70000 10206 20193 48546 8703/
                   333 10263 20177 59004 87362=
202003051200 AAXX 05124 67741 42680 70801 10226 20197 48533 875//
                   333 58005 87630=
202003041200 AAXX 04124 67741 42680 61202 10240 20191 48533 86500
                   333 58017 86625=
202003040900 AAXX 04094 67741 42680 71202 10220 20191 48548 875//
                   333 58023 87620=
202003040600 AAXX 04064 67741 12680 71002 10198 20185 48544 60034 875//
                   333 10220 20189 58025 87620=
202003030900 AAXX 03094 67741 42680 70901 10210 20197 48529 875//
                   333 58012 87620=
202003030600 AAXX 03064 67741 11680 70901 10196 20189 48516 60934 76362 875//
                   333 10294 20190 58005 87620=
202003021200 AAXX 02124 67741 42680 70901 10282 20213 48492 875//
                   333 5//// 87648=
202003020600 AAXX 02064 67741 12980 50901 10236 20199 48523 69944 85030
                   333 10258 20197 59021 85362=

################################################################################
#  SYNOPS from 67743, Livingstone (Zambia) | 17-49S | 025-49E | 985 m
################################################################################
202003270900 AAXX 27094 67743 42680 52902 10281 20194 49541 83130
                   333 58024 83835 82360 91019=
202003270600 AAXX 27064 67743 31580 62802 10204 20187 48514 60014 70222 82530
                   333 10330 20178 58013 82625 84360 91017=
202003261200 AAXX 26124 67743 NIL=
202003260900 AAXX 26094 67743 NIL=
202003260600 AAXX 26064 67743 32980 62602 10230 20198 48505 86030
                   333 10310 20174 59020 86360 91016=
202003251200 AAXX 25124 67743 NIL=
202003250900 AAXX 25094 67743 42980 51205 10276 20192 48537 84031
                   333 59024 84360 82080 91018=
202003250600 AAXX 25064 67743 32980 30702 10221 20181 48524 83031
                   333 10302 20159 59032 83359 81080 91018=
202003240900 AAXX 24094 67743 42580 50805 10251 20187 48556 83530
                   333 58019 83620 83360 91025=
202003240600 AAXX 24064 67743 12359 71204 10200 20188 48542 60114 82670
                   333 10245 20168 59005 82710 83359 91021=
202003230600 AAXX 23064 67743 11356 80404 10219 20201 48557 60144 76162 8557/
                   333 10275 20186 58022 81705 85607 86457 85358
                   91022=
202003200600 AAXX 20064 67743 32680 51305 10223 20199 48532 81530
                   333 10303 20188 5//// 81640 85359 91019=
202003191200 AAXX 19124 67743 NIL=
202003181200 AAXX 18124 67743 42580 51307 10295 20184 48523 83231
                   333 5//// 83835 81360 83080 91017=
202003180600 AAXX 18064 67743 32980 70706 10220 20190 48534 87031
                   333 10304 20185 58007 87360 82080 91019=
202003170600 AAXX 17064 67743 32980 61010 10226 20174 48531 86030
                   333 10345 20186 58017 86359 91019=
202003160600 AAXX 16064 67743 32680 50803 10247 20204 48518 83130
                   333 10331 20204 59010 83835 85359 91017=
202003130600 AAXX 13064 67743 12880 41303 10230 20205 48529 60154 84030
                   333 10316 20182 58003 84359 91018=
202003110600 AAXX 11064 67743 31980 51702 10222 20199 48516 70222 85030
                   333 10325 20179 59003 85358 91017=
202003101200 AAXX 10124 67743 42680 60104 10306 20178 48511 86201
                   333 59010 86845 81080 91015=
202003061200 AAXX 06124 67743 42580 70911 10265 20192 48531 70222 83230
                   333 59014 83825 87360 91018=
202003060600 AAXX 06064 67743 12380 70803 10195 20184 48546 60014 81630
                   333 10230 20164 59006 81708 87359 91021=
202003051200 AAXX 05124 67743 42580 81308 10211 20190 48537 8451/
                   333 58001 83620 88459 91020=
202003050900 AAXX 05094 67743 41357 81109 10191 20185 48555 72162 8677/
                   333 58010 86707 88458 91022=
202003050600 AAXX 05064 67743 11320 81306 10182 20179 48550 60134 76062 8577/
                   333 10204 20159 5//// 85705 88458 91022=
202003040900 AAXX 04094 67743 NIL=
202003040600 AAXX 04064 67743 11359 81107 10185 20177 48545 60144 76062 8567/
                   333 10245 20160 58029 85608 88458 91021=
202003030600 AAXX 03064 67743 11359 71008 10204 20194 48521 60064 76062 84670
                   333 10280 20176 58001 84708 87458 91018=
202003020600 AAXX 02064 67743 NIL=

################################################################################
#  SYNOPS from 67751, Magoye (Zambia) | 16-00S | 027-36E | 1018 m
################################################################################
202003270600 AAXX 27064 67751 12980 70000 10216 20198 48/// 69904 8707/
                   333 10305 20187 59022 87360=
202003261200 AAXX 26124 67751 NIL=
202003260900 AAXX 26094 67751 41680 63603 10289 20190 48/// 71799 82207
                   333 58015 81040=
202003260600 AAXX 26064 67751 12980 20000 10228 20204 48/// 60034 80001
                   333 10324 20169 58020 82360=
202003251200 AAXX 25124 67751 NIL=
202003250900 AAXX 25094 67751 NIL=
202003250600 AAXX 25064 67751 32980 21301 10224 20197 48/// 82030
                   333 10306 20167 5//// 82360=
202003230600 AAXX 23064 67751 12980 70000 10217 20177 48/// 60244 8707/
                   333 10298 20191 59014 87360=
202003200900 AAXX 20094 67751 42580 40000 10265 20207 48/// 70222 84200
                   333 5//// 84825=
202003191200 AAXX 19124 67751 NIL=
202003190900 AAXX 19094 67751 42980 70403 10245 20191 8705/
                   333 5//// 87360=
202003190600 AAXX 19064 67751 32980 60000 10215 20181 86050
                   333 10250 20168 58012 86360=
202003181200 AAXX 18124 67751 NIL=
202003180600 AAXX 18064 67751 12480 20000 10224 20190 48/// 60024 81101
                   333 10285 20177 5//// 81812 81080=
202003170600 AAXX 17064 67751 NIL=
202003110600 AAXX 11064 67751 32980 11005 10230 20188 48/// 80002
                   333 10315 20166 5//// 81360=
202003101200 AAXX 10124 67751 NIL=
202003100900 AAXX 10094 67751 42680 10708 10279 20188 48/// 81101
                   333 5//// 81835 81080=
202003060600 AAXX 06064 67751 12980 20000 10207 20180 48/// 60024 82040
                   333 10232 20155 58002 82360=
202003051200 AAXX 05124 67751 NIL=
202003050600 AAXX 05064 67751 12480 70803 10200 20179 48/// 60014 83530
                   333 10214 20175 58001 83610 85360=
202003040900 AAXX 04094 67751 NIL=
202003040600 AAXX 04064 67751 11980 80805 10208 20182 48/// 60014 76066 8807/
                   333 10257 20191 5//// 88360=
202003030600 AAXX 03064 67751 32980 30802 10205 20174 48/// 83030
                   333 10290 20160 5//// 83360=
202003020600 AAXX 02064 67751 NIL=

################################################################################
#  SYNOPS from 67753, Choma (Zambia) | 16-50S | 027-04E | 1213 m
################################################################################
202003270600 AAXX 27064 67753 12980 70000 10211 20189 48/// 60014 70222 87030
                   333 10299 20174 5//// 87360=
202003261200 AAXX 26124 67753 NIL=
202003260900 AAXX 26094 67753 NIL=
202003251200 AAXX 25124 67753 NIL=
202003250900 AAXX 25094 67753 NIL=
202003250600 AAXX 25064 67753 31580 10000 10205 20185 48/// 70200 81130
                   333 10280 20158 5//// 81820 81360=
202003230600 AAXX 23064 67753 11380 70000 10195 20187 48/// 60024 70222 8165/
                   333 10266 20186 5//// 81709 87360=
202003200600 AAXX 20064 67753 31975 82603 10196 20177 48529 70522 8803/
                   333 10270 20180 59005 88360=
202003191200 AAXX 19124 67753 NIL=
202003181200 AAXX 18124 67753 NIL=
202003180600 AAXX 18064 67753 11980 60000 10186 20176 48538 60034 86030
                   333 10251 20170 58006 86360=
202003170600 AAXX 17064 67753 31580 70000 10210 20186 48530 70522 85130
                   333 10279 20180 58010 85825 82360=
202003160600 AAXX 16064 67753 31980 60000 10209 20189 48/// 70522 86030
                   333 10295 20178 5//// 86360=
202003130600 AAXX 13064 67753 32980 32608 10215 20205 48/// 70222 81102
                   333 10299 20172 5//// 81820 82080=
202003110600 AAXX 11064 67753 11980 11803 10214 20194 48/// 60034 70200 80001
                   333 10286 20168 5//// 81080=
202003101200 AAXX 10124 67753 NIL=
202003051200 AAXX 05124 67753 NIL=
202003040900 AAXX 04094 67753 NIL=
202003030600 AAXX 03064 67753 12380 70000 10180 20174 48/// 69904 83630
                   333 10244 20150 5//// 83707 84360=
202003020600 AAXX 02064 67753 12380 81903 10181 20178 48/// 69974 886//
                   333 10250 20156 5//// 88706=

################################################################################
#  SYNOPS from 67855, Lupaki (Zambia) | 17-03-00S | 024-46-00E | 1000 m
################################################################################
202003290600 AAXX 29064 67855 32975 00501 10196 20180 3//// 48///
                   333 20165 5////=
202003281200 AAXX 28124 67855 42675 52701 10284 20178 3//// 48/// 85200
                   333 5//// 85835=
202003280600 AAXX 28064 67855 11975 70101 10206 20190 3//// 48/// 60184 72162 8707/
                   333 20186 5//// 87459=
202003271200 AAXX 27124 67855 42675 50000 10310 20188 3//// 48/// 83272
                   333 5//// 83840 85360=
202003270600 AAXX 27064 67855 12975 61801 10228 20190 3//// 48/// 69904 70162 8607/
                   333 20200 5//// 86459=
202003261200 AAXX 26124 67855 42675 71901 10302 20165 3//// 48/// 8327/
                   333 5//// 83840 87360=
202003250600 AAXX 25064 67855 32975 30000 10206 20159 3//// 48/// 83031
                   333 20168 5//// 83360=
202003241200 AAXX 24124 67855 42675 51801 10300 20150 3//// 48/// 85230
                   333 5//// 85835 83360=
202003240600 AAXX 24064 67855 12975 71601 10198 20171 3//// 48/// 60014 8707/
                   333 20180 5//// 87459=
202003231200 AAXX 23124 67855 41970 73601 10240 20178 3//// 48/// 76062 8707/
                   333 5//// 87458=
202003221200 AAXX 22124 67855 41670 73401 10282 20194 3//// 48/// 79598 84233
                   333 5//// 81935 83840 87360=
202003220600 AAXX 22064 67855 12975 70601 10220 20151 3//// 48/// 8707/
                   333 20195 5//// 87360=
202003211200 AAXX 21124 67855 42775 50602 10318 20168 3//// 48/// 8////
                   333 5//// 85850=
202003200600 AAXX 20064 67855 12975 51801 10206 20182 3//// 48/// 69904 85070
                   333 20185 5//// 85360=
202003190600 AAXX 19064 67855 12975 60000 10200 20165 3//// 48/// 69904 86030
                   333 20158 5//// 86360=
202003181200 AAXX 18124 67855 41670 71601 10286 20165 3//// 48/// 72582 8523/
                   333 5//// 85845 87360=
202003180600 AAXX 18064 67855 11970 21404 10214 20163 3//// 48/// 69904 82030
                   333 20179 5//// 82360=
202003171200 AAXX 17124 67855 41675 50406 10316 20145 3//// 48/// 70151 85230
                   333 5//// 85845 83360=
202003170600 AAXX 17064 67855 11970 00604 10216 20163 3//// 48/// 69904
                   333 20150 5////=
202003161200 AAXX 16124 67855 41770 53401 10328 20149 3//// 48/// 70511 85231
                   333 5//// 85850=
202003151200 AAXX 15124 67855 42775 51801 10330 20155 3//// 48/// 83271
                   333 5//// 83850 85360=
202003150600 AAXX 15064 67855 12975 71801 10234 20190 3//// 48/// 69904 8707/
                   333 20219 5//// 87459=
202003131200 AAXX 13124 67855 42775 53303 10330 20153 3//// 48/// 85231
                   333 5//// 85850=
202003130600 AAXX 13064 67855 32575 50702 10242 20188 3//// 48/// 81230
                   333 20200 5//// 81825 85360=
202003121200 AAXX 12124 67855 41670 71401 10320 20183 3//// 48/// 71792 84233
                   333 5//// 81940 83845 87080=
202003120600 AAXX 12064 67855 12975 00000 10204 20183 3//// 48/// 60044
                   333 20165 5////=
202003111200 AAXX 11124 67855 41670 70000 10228 20195 3//// 48/// 79598 85233
                   333 5//// 81930 85835 87360=
202003110600 AAXX 11064 67855 12975 20000 10222 20148 3//// 48/// 69904 82031
                   333 20174 5//// 82360=
202003091200 AAXX 09124 67855 42775 71901 10302 20158 3//// 48/// 8527/
                   333 5//// 85850 87360=
202003090600 AAXX 09064 67855 32975 00301 10204 20160 3//// 48///
                   333 20148 5////=
202003080600 AAXX 08064 67855 32575 10602 10194 20153 3//// 48/// 81500
                   333 20141 5//// 81620=
202003070600 AAXX 07064 67855 32975 01003 10186 20140 3//// 48///
                   333 20134 5////=
202003060600 AAXX 06064 67855 12975 71101 10196 20163 3//// 48/// 60014 8707/
                   333 20180 5//// 87459=
202003051200 AAXX 05124 67855 42975 70000 10262 20158 3//// 48/// 8707/
                   333 5//// 87360=
202003050600 AAXX 05064 67855 11975 70000 10190 20163 3//// 48/// 60014 70262 8707/
                   333 20174 5//// 87459=
202003041200 AAXX 04124 67855 41975 70202 10210 20158 3//// 48/// 75052 875//
                   333 5//// 87635=
202003040600 AAXX 04064 67855 12975 70603 10190 20150 3//// 48/// 60014 8707/
                   333 20165 5//// 87360=
202003031200 AAXX 03124 67855 41670 81502 10222 20168 3//// 48/// 75052 885//
                   333 5//// 88635=
202003030600 AAXX 03064 67855 10274 23045 30000=
202003021200 AAXX 02124 67855 42675 73503 10254 20164 3//// 48/// 8327/
                   333 5//// 83835 87459=
202003020600 AAXX 02064 67855 32975 70602 10190 20133 3//// 48/// 8707/
                   333 20153 5//// 87459=
202003010600 AAXX 01064 67855 32575 30302 10210 20140 3//// 48/// 83530
                   333 20180 5//// 83620=
