################################################################################
# Query made at 04/15/2022 02:00:48 UTC
# Country like Zamb*
# Time interval: from 04/01/2009 05:30  to 05/01/2009 06:30  UTC
################################################################################

################################################################################
#  SYNOPS from 67441, Mwinilunga (Zambia) | 11-45S | 024-26E | 1361 m
################################################################################
200904290600 AAXX 29064 67441 32982 10000 10150 20141 48563 80001
                   333 10295 20095 59002 81080=
200904280600 AAXX 28064 67441 32980 30000 10165 20149 48575 83031
                   333 10300 20115 58014 83360 81080=
200904270600 AAXX 27064 67441 32982 10000 10170 20154 48551 80001
                   333 10302 20/// 59001 81080=
200904240600 AAXX 24064 67441 32982 10000 10157 20139 48558 80001
                   333 10280 20115 58001 81080=
200904230900 AAXX 23094 67441 42682 10603 10230 20141 48564 81101
                   333 58009 81830 81080=
200904220600 AAXX 22064 67441 32982 20000 10185 20135 48554 81041
                   333 10300 20120 59014 81360 82080=
200904170600 AAXX 17064 67441 32980 00000 10170 20131 48566
                   333 10280 20120 5////=
200904030600 AAXX 03064 67441 12382 70607 10195 20187 48546 60104 8463/
                   333 10267 20166 5//// 84709 87360=

################################################################################
#  SYNOPS from 67461, Mansa (Zambia) | 11-06S | 028-51E | 1382 m
################################################################################
200904280600 AAXX 28064 67461 32980 40902 10215 20155 48531 81032
                   333 10291 20155 58003 81360 84080=
200904270600 AAXX 27064 67461 31582 50902 10208 20154 48529 72844 82502
                   333 10300 20140 58003 82620 83080=
200904240600 AAXX 24064 67461 32580 81203 10162 20151 48522 885//
                   333 10249 20113 58008 88620=
200904220900 AAXX 22094 67461 42580 40907 10240 20157 48546 84200
                   333 59001 84830=
200904171200 AAXX 17124 67461 42680 51203 10256 20160 48530 85200
                   333 59022 85835 Q1019.6=

################################################################################
#  SYNOPS from 67475, Kasama (Zambia) | 10-13S | 031-08E | 1382 m
################################################################################
200904290600 AAXX 29064 67475 32480 60908 10208 20167 48539 82530
                   333 10272 20155 59001 82610 86360 Q1022.3=
200904280600 AAXX 28064 67475 32980 70205 10195 20180 48540 8703/
                   333 10290 20156 58009 87360=
200904161200 AAXX 16124 67475 42780 51205 10258 20142 48525 85102
                   333 59013 85856 84080=
200904090900 AAXX 09094 67475 42680 61208 10235 20157 48527 86200
                   333 59012 86835 Q1022.8=

################################################################################
#  SYNOPS from 67477, Mpika (Zambia) | 11-54S | 031-26E | 1400 m
################################################################################
200904280600 AAXX 28064 67477 32980 40807 10212 20168 48534 84230
                   333 10280 20150 58009 84360=

################################################################################
#  SYNOPS from 67531, Zambezi (Zambia) | 13-32S | 023-07E | 1077 m
################################################################################
200904280600 AAXX 28064 67531 32980 11203 10219 20146 48/// 81030
                   333 10320 20125 5//// 81363=

################################################################################
#  SYNOPS from 67561, Ndola (Zambia) | 13-00S | 028-39E | 1269 m
################################################################################
200904290600 AAXX 29064 67561 32960 40000 10182 20157 48542 70500 84030
                   333 10285 20150 58006 84360 Q1022.4=
200904280600 AAXX 28064 67561 31975 60000 10185 20152 48545 70522 81038
                   333 10302 20134 58010 81360 86280=
200904270600 AAXX 27064 67561 31975 30000 10183 20154 48527 70500 81032
                   333 10292 20134 59003 81360 83080=
200904230900 AAXX 23094 67561 42680 81105 10200 48552 8753/
                   333 58006 87615 88360 Q1023.7=
200904220600 AAXX 22064 67561 32980 11010 10190 20142 48552 81031
                   333 10294 20142 59002 81360 81080=
200904210900 AAXX 21094 67561 42980 00606 10265 20114 48555
                   333 58002 Q1023.0=
200904161200 AAXX 16124 67561 42680 60000 10254 20127 48534 86201
                   333 59017 86840 81080=
200904160900 AAXX 16094 67561 42580 41105 10226 20124 48562 81302
                   333 59007 83825 81080=
200904160600 AAXX 16064 67561 32980 40000 10164 20134 48580 80002
                   333 10254 20109 58000 84080=
200904150600 AAXX 15064 67561 31475 51205 10161 20121 48561 70522 81132
                   333 10267 20109 58014 81812 83360 82080
                   555 00/// BB113 CC109 DD/// Q1024.8=
200904100400 AAXX 10044 67561 41975 10142 20129 48519 70500 80001
                   333 59010 81080=
200904071200 AAXX 07124 67561 42580 61005 10262 20137 48517 86200
                   333 59030 86835=
200904070900 AAXX 07094 67561 42580 41206 10237 20136 48534 84200
                   333 59011 84820 Q1020.9=

################################################################################
#  SYNOPS from 67580, Msekera (Zambia) | 13-39S | 032-34E | 1025 m
################################################################################
200904290600 AAXX 29064 67580 12482 21508 10227 20184 58/// 69904 81130
                   333 10305 20175 58018 81818 81362=
200904280600 AAXX 28064 67580 32480 30000 1023020182 48/// 81131
                   333 10312 20173 58011 81823 81360 81080=
200904271200 AAXX 27124 67580 42780 60000 10297 20159 48/// 85202
                   333 59002 85856 82080=
200904220900 AAXX 22094 67580 42680 61211 10236 20145 48/// 81130 58010 81835 86362=
200904220600 AAXX 22064 67580 32580 21212 10200 20147 48/// 81530
                   333 10298 20177 58011 81620 81360=
200904170600 AAXX 17064 67580 32480 11208 10184 20131 48/// 81100
                   333 10247 20132 59020 81815=
200904161200 AAXX 16124 67580 42680 81806 10227 20142 48/// 88///
                   333 5//// 86835 87640=
200904160900 AAXX 16094 67580 42682 32006 10228 20145 48/// 81131
                   333 5//// 81835 81360 82080=
200904160600 AAXX 16064 67580 32482 21603 10187 20137 48/// 81131
                   333 10249 20165 59003 81818 81360 81080=
200904070900 AAXX 07094 67580 42682 52012 10238 20142 48/// 85100
                   333 59004 85835=
200904030900 AAXX 0309/ 67580 42680 71601 10256 20188 48/// 872//
                   333 58008 87835=
200904030600 AAXX 03064 67580 12480 71806 10209 20180 48/// 60174 84538
                   333 10249 20182 58007 84618 85360 86280=

################################################################################
#  SYNOPS from 67581, Chipata (Zambia) | 13-33S | 032-35E | 1028 m
################################################################################
200904300600 AAXX 30064 67581 32684 60308 10242 20168 48548 81130
                   333 10306 20179 58012 81830 86360=
200904080600 AAXX 08064 67581 32480 41305 10190 20158 48544 83530
                   333 10259 20129 58001 83620 81360=
200904030600 AAXX 03064 67581 12580 61602 10215 20185 48543 60114 82830
                   333 10221 20199 58010 81822 81625 84360 Q1020.5=

################################################################################
#  SYNOPS from 67583, Lundazi (Zambia) | 12-17S | 033-12E | 1143 m
################################################################################
200904280600 AAXX 28064 67583 12980 72102 10202 20183 48/// 60264 87030
                   333 10333 20155 5//// 87360=
200904170600 AAXX 17064 67583 32980 01203 10180 20144
                   333 10262 20120 5////=
200904160900 AAXX 16094 67583 42680 71303 10233 20153 48/// 83107
                   333 5//// 83830 87280=

################################################################################
#  SYNOPS from 67599, Mfuwe (Zambia) | 13-16S | 031-56E | 568 m
################################################################################
200904290900 AAXX 29094 67599 42680 31207 10302 20201 48585 82180
                   333 58005 82835 82360 Q1020.1=
200904290600 AAXX 29064 67599 32980 11807 10234 20191 48565 81030
                   333 10350 20//0 58011 81360 Q1021.4=
200904281200 AAXX 28124 67599 42680 40000 10335 20207 48558 70222 84200
                   333 58012 84832 Q1016.8=
200904280600 AAXX 28064 67599 32980 11203 10245 20201 48558 81030
                   333 10340 20//0 58011 81360=
200904271200 AAXX 27124 67599 42680 40000 10330 20209 48546 83200 59005 83840=
200904270600 AAXX 27064 67599 32980 30000 10215 20184 48538 80002
                   333 10335 20//0 59009 58009 83080=
200904250600 AAXX 25064 67599 32980 00000 10196 20161 48551
                   333 10310 20/// 59020 Q1021.4=
200904230600 AAXX 23064 67599 12980 21805 10205 20166 48574 69904 70122 82030
                   333 10310 20//0 58005 82360 Q1023.8=
200904220900 AAXX 22094 67599 42580 51510 10275 20180 85200
                   333 58011 85825=
200904220600 AAXX 22064 67599 32980 71805 10220 20190 48574 8707/
                   333 10350 20//0 58013 87460=
200904210900 AAXX 21094 67599 24680 20000 10300 20190 48587 70322 82200
                   333 59003 82832 Q1021.2=
200904161200 AAXX 16124 67599 42680 72203 10270 20180 48573 84523/
                   333 59020 84840 87360=
200904160900 AAXX 16094 67599 42580 52704 10255 20170 48607 8523/
                   333 59006 85830 83360=
200904160600 AAXX 16064 67599 32580 30000 10212 20160 48579 81131 10295 20/// 59003 81830
                   83360 82080=
200904150600 AAXX 15064 67599 32980 12006 10200 20163 48585 70200 81080
                   333 10300 20/// 58012 81360
                   555 00/// 20000 Q1025.1=
200904130600 AAXX 13064 67599 32980 00000 10210 20173 48561
                   333 10312 20/// 59006=
200904121500 AAXX 12154 67599 42980 30000 10285 20189 48549 84549 83030
                   333 59002 83360 555 10312 Q1017.6=
200904081300 AAXX 08134 67599 42689 41810 10285 20189 48549 70122 82400
                   333 59001 84828 Q1017.6=
200904071500 AAXX 07154 67599 42980 41606 10274 20178 48545 84030
                   333 58003 84360=
200904071200 AAXX 07124 67599 42680 41507 10299 20182 48556 84100
                   333 58000 84845=
200904030900 AAXX 03094 67599 030900Z 00000KT 9999 TSRA FEW018CB BKN020TCU 27/22 Q1020=

################################################################################
#  SYNOPS from 67633, Mongu (Zambia) | 15-15S | 023-09E | 1052 m
################################################################################
200904290900 AAXX 29094 67633 42982 50908 10300 20116 48561 85030 58002 85361 Q1021.5=
200904280600 AAXX 28064 67633 312980 30905 10217 20125 48537 69904 83031
                   333 10319 20166 58012 83362 82080=
200904271200 AAXX 27124 67633 41880 42705 10260 20164 48517 72588 84200
                   333 58005 84856=
200904270600 AAXX 27064 67633 32982 31101 10224 20144 48527 80001
                   333 10307 20173 58005 83080=
200904230900 AAXX 23094 67633 42582 20911 10233 20139 48547 82501
                   333 58011 82625 82080 Q1021.2=
200904220900 AAXX 22094 67633 41975 40920 10270 20123 48543 70522 84030
                   333 59006 84361=
200904220600 AAXX 22064 67633 32980 50915 10205 20115 48528 83031
                   333 10330 20175 59010 83361 84080=
200904210900 AAXX 21094 67633 42980 00810 10290 20140 48552
                   333 70200 59008 Q1020.7=
200904170600 AAXX 17064 67633 32982 10908 10182 20119 81030
                   333 10295 20140 59014 81360=
200904161200 AAXX 16124 67633 42780 10906 10285 20074 48546 81100
                   333 59010 81850=
200904160900 AAXX 16094 67633 42682 10908 10252 20105 48570 81100
                   333 59005 81830=
200904130600 AAXX 13064 67633 32982 10906 10205 20127 48540 81030
                   333 10301 20140 59005 81361=
200904070900 AAXX 07094 67633 42982 11008 10285 20120 48551 70200 81030
                   555 59004 81361 Q1020.8=

################################################################################
#  SYNOPS from 67641, Kaoma (Zambia) | 14-48S | 024-48E | 1213 m
################################################################################
200904270600 AAXX 27064 67641 32982 20201 10190 20158 48517 80001
                   333 10319 20131 58006 82080=
200904240600 AAXX 24064 67641 32982 20802 10161 20135 48527 82030
                   333 10270 20126 58001 82360=

################################################################################
#  SYNOPS from 67655, Mumbwa (Zambia) | 15-04S | 027-11E | 1216 m
################################################################################
200904280600 AAXX 28064 67655 32980 10902 10210 20136 48558 80001
                   333 10297 20126 58016 81077=
200904220900 AAXX 22094 67655 42480 70907 10219 20149 48566 86801
                   333 58011 86620 82823 82077=

################################################################################
#  SYNOPS from 67665, Lusaka Internationalairport (Zambia) | 15-19S | 028-27E | 1152 m
################################################################################
200905010600 AAXX 01064 67665 32980 61002 10168 20168 48528 86030
                   333 10285 20135 59022 86360
                   555 00120 Q1020.3=
200905010300 AAXX 01034 67665 42980 01404 10131 20131 48506
                   333 59020 Q1018.5=
200904302100 AAXX 30214 67665 42980 01303 10146 20146 48518
                   333 59020 Q1019.6=
200904301800 AAXX 30184 67665 42980 21403 10179 20174 48521 82030
                   333 59017 82359=
200904301200 AAXX 30124 67665 42680 51006 10260 20174 48531 85200
                   333 58011 85840=
200904300900 AAXX 30094 67665 42580 10407 10252 20192 48554 81100
                   333 59014 81825=
200904300600 AAXX 30064 67665 32980 11004 10180 20156 48550 81030
                   333 10294 20134 59009 81360=
200904300400 AAXX 30044 67665 42980 11204 10135 20135 48531 81030
                   333 59008 81360=
200904300300 AAXX 30034 67665 42980 01204 10145 20145 48528
                   333 58007=
200904300000 AAXX 30004 67665 42980 01204 10147 20147 48530
                   333 59009=
200904292100 AAXX 29214 67665 42980 01205 10161 20161 48539
                   333 59004=
200904291800 AAXX 29184 67665 42980 11003 10183 20183 48538 81030
                   333 10294 58005 81359=
200904291200 AAXX 29124 67665 42680 50708 10261 20177 48542 85200
                   333 59001 85832=
200904290900 AAXX 29094 67665 42480 30609 10258 20200 48570 83100
                   333 58003 83815 Q1023.8=
200904290600 AAXX 29064 67665 32980 10904 10182 20155 48559 81030
                   333 10293 20138 58009 81360 Q1023.8=
200904281500 AAXX 28154 67665 42680 40704 10255 20180 48540 83220
                   333 10293 58019 82845 83360 Q1020.4=
200904281200 AAXX 28124 67665 50708 10278 20163 48546 85200
                   333 58016 85838 Q1020.8=
200904280900 AAXX 28094 67665 42580 20807 10265 20182 48568 81100
                   333 58016 81828 Q1023.5=
200904280600 AAXX 28064 67665 32980 01103 10192 20184 48551
                   333 10295 20135 58014
                   555 00115 Q1022.8=
200904280300 AAXX 28034 67665 42980 00903 10132 20132 48523
                   333 58011=
200904272100 AAXX 27214 67665 42980 11003 10144 20144 48528 81030
                   333 58009 81360=
200904271200 AAXX 27124 67665 42680 31204 10281 20156 48530 83100
                   333 58003 82848 Q1019.0=
200904270900 AAXX 27094 67665 42680 10204 10259 20184 48551 81100
                   333 58003 81835=
200904270600 AAXX 27064 67665 32980 22702 10184 20146 48536 80002
                   333 10290 20129 58000 82080=
200904261800 AAXX 26184 67665 42980 11204 10186 20186 48524 81030
                   333 10290 59006 81360=
200904261200 AAXX 26124 67665 42680 20305 10266 20156 48526 81130
                   333 59013 81847 81360=
200904260600 AAXX 26064 67665 32980 00902 10182 20137 48536
                   333 10264 20120 59012=
200904252100 AAXX 25214 67665 42980 01204 10143 20143 48549
                   333 59016 Q1021.1=
200904251200 AAXX 25124 67665 42580 30806 10244 20167 48534 83100
                   333 59010 83829=
200904250900 AAXX 25094 67665 42480 10708 10221 20175 48557 81100
                   333 59011 81815 Q1023.0=
200904250600 AAXX 25064 67665 32980 01007 10151 48544
                   333 10249 20099 59017 Q1022.6=
200904241800 AAXX 24184 67665 42980 01205 10150 20150 48541
                   333 10249 59014 Q1022.2=
200904241500 AAXX 24154 67665 42680 10807 10232 20162 48539 81200
                   333 59016 81842 Q1020.8=
200904241200 AAXX 24124 67665 42580 31009 10241 20164 48548 70122 83200
                   333 83835 Q1021.7=
200904240600 AAXX 24064 67665 32480 11008 10157 20119 48560 81530
                   333 10205 20158 59004 81610 81360=
200904240400 AAXX 24044 67665 42380 51203 10123 20123 48545 85531
                   333 59001 85608 83360 82080=
200904240300 AAXX 24034 67665 42980 51203 10126 20126 48546 85031
                   333 5805 85360 82080=
200904240000 AAXX 24004 67665 42980 00000 10120 20120 48544
                   333 58005=
200904232100 AAXX 23214 67665 42680 60804 10154 20154 48528 86530
                   333 58003 86645 83360=
200904231200 AAXX 23124 67665 42580 70709 10202 20171 48549 875//
                   333 59001 87620 Q1022.4=
200904230900 AAXX 23094 67665 42460 71010 10175 20159 48570 875//
                   333 58001 87712 Q1025.2=
200904230600 AAXX 23064 67665 31360 70713 10152 20152 48564 75055 875//
                   333 10240 20152 58000 87706 Q1021.9=
200904230400 AAXX 23044 67665 42380 60910 10155 20155 48550 86600
                   333 58000 86706=
200904230300 AAXX 23034 67665 42980 21008 10155 20155 48544 82030
                   333 58001 82360=
200904222100 AAXX 22214 67665 42980 20906 10166 20166 48549 82030
                   333 58010 82360=
200904221200 AAXX 22124 67665 41680 42680 60514 10224 20174 48552 86201
                   333 58009 86835 82080 Q1022.5=
200904220900 AAXX 22094 67665 42580 60816 10221 20175 48577 86802
                   333 58009 81822 85623 82080=
200904220600 AAXX 22064 67665 32480 20910 10181 20182 48568 82501
                   333 10276 20136 58011 82610 81080=
200904220400 AAXX 22044 67665 42380 30804 10158 20158 48550 83500
                   333 58010 83605=
200904220300 AAXX 22034 67665 42980 0//// 10156 20156 48544
                   333 58009=
200904220000 AAXX 22004 67665 42980 1//// 10138 20138 48538 81030
                   333 59009 81360=
200904212100 AAXX 21214 67665 42980 1//// 10158 20158 48546 81030
                   333 59001 81360=
200904211500 AAXX 21154 67665 42780 11209 10253 20145 48543 81230
                   333 58005 81850 81360=
200904211200 AAXX 21124 67665 42680 20909 10271 20135 48550 82200
                   333 59006 82845=
200904210900 AAXX 21094 67665 42680 10610 10253 20151 48582 70300 81100
                   333 58004 81830 Q1024.3=
200904201200 AAXX 20124 67665 42780 11203 10272 20156 48544 81100
                   333 58001 81845 Q1020.8=
200904200600 AAXX 20064 67665 32980 01102 10180 20124 48563 70200
                   333 10276 20117 58009=
200904200400 AAXX 20044 67665 42980 0//// 10115 20115 48542
                   333 58007 Q1022.8=
200904192100 AAXX 19214 67665 42980 0//// 10149 20132 48547
                   333 58088 Q1022.9=
200904190900 AAXX 19094 67665 42480 11804 10236 20140 48567 81100
                   333 58010 81810 Q1023.8=
200904190600 AAXX 19064 67665 32980 01504 10158 20125 48551
                   333 10223 20103 58004 Q1023.2=
200904181200 AAXX 18124 67665 42680 11103 10247 20158 48533 81100
                   333 59014 81842=
200904180900 AAXX 18094 67665 42480 12005 1022 20148 48554 81100
                   333 81815 Q1022.7=
200904180600 AAXX 18064 67665 32980 00703 10152 20144 48546
                   333 10244 20111 59013 Q1022.8=
200904180400 AAXX 18044 67665 42980 00905 10100 20100 48526
                   333 59015=
200904180300 AAXX 18034 67665 42980 11106 10116 20116 48526 81030
                   333 59010 81360=
200904172100 AAXX 17214 67665 42980 1//// 10134 20134 48543 81030
                   333 59020 81360=
200904171200 AAXX 17124 67665 42680 40709 10237 20141 48545 84100
                   333 59019 84835 Q1021.4=
200904170900 AAXX 17094 67665 42580 30610 10215 20160 48566 83100
                   333 59023 83825 Q1024.0=
200904170600 AAXX 17064 67665 32480 10805 10147 20112 48558 81100
                   333 10245 20104 59021 81818 Q1024.3=
200904170300 AAXX 17034 67665 42980 00000 10110 20110 48535
                   333 59022=
200904170000 AAXX 17004 67665 42980 0//// 10114 20114 48546
                   333 59018=
200904162100 AAXX 16214 67665 42980 00000 10131 20131 48562
                   333 59010=
200904161200 AAXX 16124 67665 42680 50908 10229 20160 48562 85100
                   333 59011 85835 Q1023.5=
200904160900 AAXX 16094 67665 42580 60810 10199 20163 48585 86500
                   333 58046 86625=
200904160600 AAXX 16064 67665 32480 20805 10151 20130 48578 82500
                   333 10242 20105 58001 82610=
200904160400 AAXX 16044 67665 42980 1//// 10117 20117 48560 81030
                   333 59001 81360=
200904160300 AAXX 16034 67665 42980 0//// 10118 20118 48555
                   333 59001=
200904152100 AAXX 15214 67665 42980 0//// 10225 20125 48571
                   333 58010=
200904151200 AAXX 15124 67665 42680 60710 10227 20173 48573 86100
                   333 58005 86830 Q1024.7=
200904150600 AAXX 15064 67665 32380 70906 10161 20161 48579 875//
                   333 10270 20115 58008 87508
                   555 00/// Q1026.5=
200904141800 AAXX 14184 67665 42980 2//// 10150 20150 48565 80002
                   333 10270 58027 82080=
200904141400 AAXX 14144 67665 42980 10910 10232 20096 48565 80001
                   333 58004 81080 555 10270=
200904141200 AAXX 14124 67665 42680 10811 10244 20148 48570 81100
                   333 58001 81825 Q1024.1=
200904140600 AAXX 14064 67665 31380 71012 10159 20131 48569 70300 876//
                   333 10275 20116 58014 87706=
200904140300 AAXX 14034 67665 41960 10609 10139 20139 48553 72800 81030
                   333 58015 81360 Q1023.8=
200904131800 AAXX 13184 67665 42980 00000 10171 20152 48542
                   333 58002 Q1022.0=
200904131200 AAXX 13124 67665 42680 10709 10267 20084 48543 81100
                   333 59005 81845=
200904130900 AAXX 13094 67665 42580 30909 10236 20192 48568 83100
                   333 59005 83820=
200904130600 AAXX 13064 67665 32380 11005 10179 20152 48558 81500
                   333 10260 20122 59006 81607=
200904130400 AAXX 13044 67665 41959 10000 10131 20131 48537 74100 81030
                   333 59009 81360=
200904130300 AAXX 13034 67665 42980 1//// 10137 20137 48534 81030
                   333 59012 81360=
200904122100 AAXX 12214 67665 42980 1//// 10155 20155 48549 81030
                   333 59010 81360=
200904121800 AAXX 12184 67665 42980 11202 10180 20180 48541 81030
                   333 10258 59011 81360=
200904121500 AAXX 12154 67665 42680 30504 10239 20173 48539 83200
                   333 59009 83838 555 10258 Q1020.7=
200904121200 AAXX 12124 67665 42680 51108 10243 20180 48547 85800
                   333 59004 85832 81634 Q1021.6=
200904120900 AAXX 12094 67665 42580 50811 10220 20181 48569 85500
                   333 58007 85625=
200904120600 AAXX 12064 67665 32480 11107 10175 20175 48562 81500
                   333 10250 20120 58009 81612=
200904111800 AAXX 11184 67665 42980 10903 10159 20159 48549 81030
                   333 10250 58008 81360=
200904111500 AAXX 11154 67665 42680 21210 10234 20152 48547 82200 58018 81845=
200904111200 AAXX 11124 67665 42680 41010 10238 20165 48551 84200
                   333 58022 84830=
200904110600 AAXX 11064 67665 32480 21503 10167 20149 48553 81130
                   333 10242 20134 58019 81810 81360 Q1023.4 NOSIG=
200904110400 AAXX 11044 67665 42980 1//// 10141 20141 48537 81030
                   333 58019 81360=
200904110300 AAXX 11034 67665 42980 2//// 10142 20142 48532 82030
                   333 58016 82360=
200904110000 AAXX 11004 67665 42980 2//// 10146 20146 48530 82030
                   333 58010 82360=
200904102100 AAXX 10214 67665 42980 2//// 10147 20147 48538 82030
                   333 58011 82360=
200904100900 AAXX 10094 67665 42580 50706 10224 20159 48545 85200
                   333 59020 85825=
200904100600 AAXX 10064 67665 32480 31004 10180 20156 48536 83830
                   333 10249 20131 59010 81810 83612 81360=
200904100400 AAXX 10044 67665 42980 1//// 20/// 48/// 81030
                   333 59014 81360=
200904100300 AAXX 10034 67665 42980 1//// 10//0 20//0 48/// 81030
                   333 59014 81360=
200904092100 AAXX 09214 67665 42980 1//// 10//0 20//0 48/// 81030
                   333 59007 81360=
200904091800 AAXX 09184 67665 42980 7//// 10//0 20//0 8703/
                   333 10249 59012 87359=
200904091500 AAXX 09154 67665 42780 71306 10227 20146 81130
                   333 59010 81845 85360
                   555 10276=
200904091200 AAXX 09124 67665 42680 710006 10230 20148 84230
                   333 59001 84830 85360 Q1020.0=
200904090900 AAXX 09094 67665 41560 71109 10198 20152 48553 71522 8623/
                   333 59008 86823 84360 Q1022.8=
200904090600 AAXX 09064 67665 32580 61003 10190 20162 48547 82130
                   333 10260 20150 59009 82822 85360 Q1022.4=
200904081800 AAXX 08184 67665 42980 4//// 10//0 20//0 48/// 81031
                   333 10260 5//// 81360 83080=
200904081500 AAXX 08154 67665 42780 40807 10240 20122 48535 84231
                   333 5//// 82845 81360 82080
                   555 10260=
200904081300 AAXX 08134 67665 42680 50909 10248 20104 48540 70322 85200
                   333 59028 85840 Q1020.9=
200904081200 AAXX 08124 67665 42680 50909 10248 20104 48540 70322 85200
                   333 59028 85840 Q1020.9=
200904080600 AAXX 08064 67665 32980 01004 10173 20138 48553 70200
                   333 10270 20120 58006=
200904080400 AAXX 08044 67665 42980 22204 10142 20135 48543
                   333 59004 81810 81380 Q1022.7=
200904071800 AAXX 07184 67665 42980 11003 10172 20//0 48534 81030
                   333 10270 59003 81360=
200904071500 AAXX 07154 67665 42680 21009 10240 20140 48537 82100
                   333 59001 82345=
200904071200 AAXX 07124 67665 42680 51008 10252 20152 48543 85100
                   333 59003 85830=
200904070900 AAXX 07094 67665 42580 51006 10237 20174 48558 85100
                   333 59010 85820 Q1022.8=
200904070400 AAXX 07044 67665 41980 10000 10140 20131 48533 74100 81030
                   333 59011 81360=
200904070300 AAXX 07034 67665 42980 11004 10//0 20//0 48/// 81030
                   333 59009 81360=
200904061200 AAXX 06124 67665 42680 61606 10252 20157 48540 86200
                   333 59015 86837=
200904060900 AAXX 06094 67665 42580 40908 10230 20165 48566 84100
                   333 59003 84825 Q1023.9=
200904060600 AAXX 06064 67665 32980 11507 10184 20156 48563 81100
                   333 10242 20139 58002 81810 Q1024.4=
200904051500 AAXX 05154 67665 42680 21009 10235 20155 48543
                   333 58007 82840 81360=
200904051200 AAXX 05124 67665 42680 60708 10236 20156 48555 86500
                   333 58004 86630=
200904050900 AAXX 05094 67665 42580 60609 10214 20158 48567 86600
                   333 58014 86820 Q1024.3=
200904050400 AAXX 05044 67665 42980 2//// 10//0 20//0 48/// 81030
                   333 59007 82360=
200904050300 AAXX 05034 67665 42980 1//// 10//0 20//0 48/// 81030
                   333 58005 81360=
200904050000 AAXX 05004 67665 42980 1//// 10//0 20//0 48/// 81030
                   333 58002 81360=
200904042100 AAXX 04214 67665 42380 4//// 10//0 20//0 48/// 84530
                   333 58004 84607 81360=
200904041200 AAXX 04124 67665 42680 70812 1010228 20152 48538 87500
                   333 59003 87630 Q1020.7=
200904040900 AAXX 04094 67665 42580 60913 10220 20148 48554 86530
                   333 59007 86625 81360=
200904040600 AAXX 04064 67665 32480 60710 10190 20165 48553 86530
                   333 10256 20161 58003 86610 82360=
200904031200 AAXX 03124 67665 42580 61111 10240 20171 48542 86800
                   333 58009 82625 83828 Q1021.0=
200904030600 AAXX 03064 67665 32380 70707 10194 20174 48550 86530
                   333 10249 20125 59003 86606 81360
                   555 00/// Q1022.7=
200904030400 AAXX 03044 67665 42380 11003 10//0 20//0 48/// 81530
                   333 58010 81606 81360 81080=
200904030300 AAXX 03034 67665 42980 00000 10//0 20//0 48///
                   333 58007=
200904030000 AAXX 03004 67665 42980 00000 10//0 20//0 48///
                   333 58011=
200904022100 AAXX 02214 67665 42980 00000 10//0 20//0 48///
                   333 58008=
200904021800 AAXX 02184 67665 42980 11004 10178 20//0 48529 80001
                   333 10//0 58019 81080=
200904021200 AAXX 02124 67665 42680 60608 10249 20160 48533 85802
                   333 58022 85622 83825 83080=
200904020900 AAXX 02094 67665 42480 70809 10232 20182 48555 70122 875//
                   333 58010 87612 Q1022.6=
200904011800 AAXX 01184 67665 42980 10804 10189 20/// 48503 81031
                   333 10275 58012 81360 81080=
200904011500 AAXX 01154 67665 41680 31011 10250 20160 48507 71522 83231
                   333 58014 83845 81360 81080=
200904011200 AAXX 01124 67665 42680 60910 10256 20167 48514 86200
                   333 58012 86830=
200904010600 AAXX 01064 67665 32980 61211 10193 20186 48522 70310 85500
                   333 10285 20160 58004 85610=

################################################################################
#  SYNOPS from 67666, Lusaka City Airport (Zambia) | 15-25S | 028-19E | 1280 m
################################################################################
200904300600 AAXX 30064 67666 32980 00909 10195 20163 48542
                   333 10276 20156 59013=
200904290900 AAXX 29094 67666 42580 20410 10249 20152 4858 82100
                   333 58007 82823 Q1023.0=
200904290600 AAXX 29064 67666 32980 00903 10215 20143 48556
                   333 10279 20133 58009 Q1023.0=
200904281200 AAXX 28124 67666 42680 40907 10275 20135 48535 84100
                   333 58016 84840 Q1020.0=
200904280600 AAXX 28064 67666 32980 00904 10215 20143 48547
                   333 10286 20128 58014=
200904271200 AAXX 27124 67666 42680 30603 10280 20160 48520 83100
                   333 59001 83840=
200904230900 AAXX 23094 67666 42580 80910 10165 20116 48559 885//
                   333 59004 88620 Q1023.9=
200904220900 AAXX 22094 67666 42580 50516 10205 20130 48565 85800
                   333 58007 85620 83822=
200904220600 AAXX 22064 67666 32480 40913 10179 20130 48561 84500
                   333 10265 20180 59012 84615=
200904210900 AAXX 21094 67666 42680 10712 10247 20102 48561 81100
                   333 58007 81830 Q1023.4=
200904171800 AAXX 17184 67666 42980 01204 10152 20152 48542 10249 59020 Q1022.4=
200904171200 AAXX 17124 67666 42580 31304 10225 20115 48534 83100
                   333 59019 83828 Q1020.3=
200904170600 AAXX 17064 67666 32980 00905 10165 20118 48552
                   333 10260 20118 59020=
200904161200 AAXX 16124 67666 42680 41506 10215 20124 48551 84200
                   333 59012 84840=
200904160900 AAXX 16094 67666 42580 40908 10195 20134 48536 84200
                   333 59005 84825=
200904160600 AAXX 16064 67666 32480 10910 10160 20126 48571 81100
                   333 10232 20125 59002 81812=
200904090900 AAXX 09094 67666 41480 81214 10285 20184 48545 75022 8683/
                   333 59008 83618 83820 88360=
200904081300 AAXX 08134 67666 42680 50701 10245 20122 48533 85100
                   333 59001 85840 Q1020.0=
200904070900 AAXX 07094 67666 42580 40504 10225 20150 48547 85200
                   333 59010 85825 Q1021.9=
200904030900 AAXX 0309/ 67666 42580 70913 10225 20163 48551 87800
                   333 58005 85622 86825 Q1022.4=
200904030600 AAXX 03064 67666 32480 60712 12185 20163 48542 70300 85530
                   333 10245 20160 58009 85615 81360 Q1021.8=

################################################################################
#  SYNOPS from 67673, Petauke (Zambia) | 14-15S | 031-17E | 1035 m
################################################################################
200904280600 AAXX 28064 67673 32980 30102 10237 20181 48557 81031
                   333 10315 20182 58001 81360 81080=
200904220900 AAXX 22094 67673 42680 60909 10220 20148 48581 85530
                   333 58016 85630 82360=

################################################################################
#  SYNOPS from 67743, Livingstone (Zambia) | 17-49S | 025-49E | 985 m
################################################################################
200904280600 AAXX 28064 67743 32980 53201 10190 20130 48545 85030
                   333 10340 20152 85360=
200904271200 AAXX 27124 67743 42780 30000 10320 20080 48531 83100
                   333 58003 83856=
200904270600 AAXX 27064 67743 32980 00000 10186 20113 48527
                   333 10300 20144 58001=
200904250600 AAXX 25064 67743 32980 00000 10165 20123 48534 70200
                   333 10285 20125 Q1012.6=
200904230900 AAXX 23094 67743 42680 60710 10213 20136 48566 85560
                   333 59011 85830 Q1023.7=
200904220600 AAXX 22064 67743 32980 10806 10180 20139 48564 81030
                   333 10315 20151 58022 81362=
200904160600 AAXX 16064 67743 32980 01003 10170 20136 48579
                   333 10310 20130 58001=
200904130600 AAXX 13064 67743 32980 01302 10180 20139 48549
                   333 10300 20120 59012=
200904121500 AAXX 12154 67743 42980 30908 10274 20109 48543 70200 83060
                   333 59012 83362 555 1019.4=
200904121200 AAXX 12124 67743 42780 30908 10281 20094 48555 70200 83100
                   333 59009 83856 Q1020.6=
200904090600 AAXX 09064 67743 32980 10605 10189 20134 48549 81030
                   333 10288 20149 59010 81360
                   555 00124 BB/// CC149 DD/// Q1022.2=
200904081300 AAXX 08134 67743 42680 50806 10265 20104 48544 82500
                   333 58003 85845 Q1020.0=
200904071200 AAXX 07124 67743 42980 00913 10290 20070 48548
                   333 58006=

################################################################################
#  SYNOPS from 67753, Choma (Zambia) | 16-50S | 027-04E | 1213 m
################################################################################
200904280600 AAXX 28064 67753 32980 01806 10186 20133 48///
                   333 10291 20097 5////=
200904270600 AAXX 27064 67753 32980 00000 1-174 20133 48///
                   333 10281 20099 5////=
200904240600 AAXX 24064 67753 32980 10905 10155 20114 48/// 80002
                   333 10209 20096 5//// 81080=
200904160900 AAXX 16094 67753 42580 70905 10211 20121 48/// 82200
                   333 5//// 87825=
200904160600 AAXX 16064 67753 31480 10905 10145 20140 48/// 72842 81500
                   333 10236 20076 5//// 81610=

################################################################################
#  SYNOPS from 67855, Lupaki (Zambia) | 17-03-00S | 024-46-00E | 1000 m
################################################################################
200905010600 AAXX 01064 67855 NIL=
200905010000 AAXX 01004 67855 NIL=
200904301800 AAXX 30184 67855 NIL=
200904301200 AAXX 30124 67855 42980 32901 10318 20114 3//// 48/// 83160
                   333 5//// 83859=
200904300600 AAXX 30064 67855 32980 00000 10152 20114 38/// 48///
                   333 20104 5////=
200904300000 AAXX 30004 67855 NIL=
200904291800 AAXX 29184 67855 NIL=
200904291200 AAXX 29124 67855 NIL=
200904290600 AAXX 29064 67855 NIL=
200904290000 AAXX 29004 67855 NIL=
200904281800 AAXX 28184 67855 NIL=
200904280600 AAXX 28064 67855 NIL=
200904280000 AAXX 28004 67855 NIL=
200904271800 AAXX 27184 67855 NIL=
200904271200 AAXX 27124 67855 NIL=
200904270600 AAXX 27064 67855 NIL=
200904270000 AAXX 27004 67855 NIL=
200904261800 AAXX 26184 67855 NIL=
200904261200 AAXX 26124 67855 NIL=
200904260600 AAXX 26064 67855 NIL=
200904260000 AAXX 26004 67855 NIL=
200904251800 AAXX 25184 67855 NIL=
200904251200 AAXX 25124 67855 NIL=
200904250600 AAXX 25064 67855 NIL=
200904250000 AAXX 25004 67855 NIL=
200904241800 AAXX 24184 67855 NIL=
200904241200 AAXX 24124 67855 NIL=
200904240600 AAXX 24064 67855 NIL=
200904240000 AAXX 24004 67855 NIL=
200904231800 AAXX 23184 67855 NIL=
200904231200 AAXX 23124 67855 NIL=
200904230600 AAXX 23064 67855 NIL=
200904230000 AAXX 23004 67855 NIL=
200904221800 AAXX 22184 67855 NIL=
200904221200 AAXX 22124 67855 NIL=
200904220600 AAXX 22064 67855 NIL=
200904220000 AAXX 22004 67855 NIL=
200904211800 AAXX 21184 67855 NIL=
200904211200 AAXX 21124 67855 NIL=
200904210600 AAXX 21064 67855 NIL=
200904210000 AAXX 21004 67855 NIL=
200904201800 AAXX 20184 67855 NIL=
200904201200 AAXX 20124 67855 NIL=
200904200600 AAXX 20064 67855 32980 01701 10130 20096 38/// 48///
                   333 20080 5////=
200904200000 AAXX 20004 67855 NIL=
200904191800 AAXX 19184 67855 NIL=
200904191200 AAXX 19124 67855 NIL=
200904190600 AAXX 19064 67855 NIL=
200904190000 AAXX 19004 67855 NIL=
200904181800 AAXX 18184 67855 NIL=
200904180600 AAXX 18064 67855 NIL=
200904180000 AAXX 18004 67855 NIL=
200904171800 AAXX 17184 67855 NIL=
200904171200 AAXX 17124 67855 NIL=
200904170600 AAXX 17064 67855 NIL=
200904161800 AAXX 16184 67855 NIL=
200904161200 AAXX 16124 67855 NIL=
200904160600 AAXX 16064 67855 NIL=
200904160000 AAXX 16004 67855 NIL=
200904151800 AAXX 15184 67855 NIL=
200904151200 AAXX 15124 67855 NIL=
200904150600 AAXX 15064 67855 NIL=
200904150000 AAXX 15004 67855 NIL=
200904141800 AAXX 14184 67855 NIL=
200904141200 AAXX 14124 67855 NIL=
200904140600 AAXX 14064 67855 NIL=
200904140000 AAXX 14004 67855 NIL=
200904131800 AAXX 13184 67855 NIL=
200904131200 AAXX 13124 67855 NIL=
200904130000 AAXX 13004 67855 NIL=
200904121800 AAXX 12184 67855 NIL=
200904121200 AAXX 12124 67855 NIL=
200904120600 AAXX 12064 67855 NIL=
200904120000 AAXX 12004 67855 NIL=
200904111800 AAXX 11184 67855 NIL=
200904111200 AAXX 11124 67855 NIL=
200904110000 AAXX 11004 67855 NIL=
200904101800 AAXX 10184 67855 NIL=
200904101200 AAXX 10124 67855 NIL=
200904100600 AAXX 10064 67855 NIL=
200904100000 AAXX 10004 67855 NIL=
200904091800 AAXX 09184 67855 NIL=
200904091200 AAXX 09124 67855 NIL=
200904090600 AAXX 09064 67855 NIL=
200904090000 AAXX 09004 67855 NIL=
200904081800 AAXX 08184 67855 NIL=
200904080000 AAXX 08004 67855 NIL=
200904071800 AAXX 07184 67855 NIL=
200904071200 AAXX 07124 67855 NIL=
200904070600 AAXX 07064 67855 NIL=
200904070000 AAXX 07004 67855 NIL=
200904061800 AAXX 06184 67855 NIL=
200904061200 AAXX 06124 67855 NIL=
200904060600 AAXX 06064 67855 NIL=
200904060000 AAXX 06004 67855 NIL=
200904051800 AAXX 05184 67855 NIL=
200904051200 AAXX 05124 67855 NIL=
200904050600 AAXX 05064 67855 32980 01602 10158 20135 38/// 48///
                   333 20105 5////=
200904050000 AAXX 05004 67855 NIL=
200904041800 AAXX 04184 67855 NIL=
200904041200 AAXX 04124 67855 NIL=
200904040600 AAXX 04064 67855 NIL=
200904031800 AAXX 03184 67855 NIL=
200904031200 AAXX 03124 67855 42680 71801 10270 20157 3//// 48/// 87262
                   333 5//// 87845=
200904030600 AAXX 03064 67855 NIL=
200904030000 AAXX 03004 67855 NIL=
200904021800 AAXX 02184 67855 NIL=
200904021200 AAXX 02124 67855 NIL=
200904020600 AAXX 02064 67855 NIL=
200904020000 AAXX 02004 67855 NIL=
200904011800 AAXX 01184 67855 NIL=
200904011200 AAXX 01124 67855 NIL=
