################################################################################
# Query made at 04/15/2022 01:52:28 UTC
# Country like Zamb*
# Time interval: from 05/01/2010 05:30  to 05/31/2010 06:30  UTC
################################################################################

################################################################################
#  SYNOPS from 67441, Mwinilunga (Zambia) | 11-45S | 024-26E | 1361 m
################################################################################
201005310600 AAXX 31064 67441 32982 60000 10176 20186 48569
                   333 10275 20/// 58003=
201005240900 AAXX 24094 67441 42980 70604 10250 20128 48674 80008
                   333 5//// 87280=
201005240600 AAXX 24064 67441 32980 70000 10126 20111 48569 81038
                   333 10280 20//0 58000 81360 87280=
201005210600 AAXX 21064 67441 32980 00000 1016/ 20116 48563
                   333 10290 20/// 58002=
201005200600 AAXX 20064 67441 NIL=
201005181200 AAXX 18124 67441 42680 41203 10260 20115 48546 84100
                   333 59003 84835=
201005180600 AAXX 18064 67441 32980 00000 10110 20106 48565
                   333 10260 20//0 59007=
201005171200 AAXX 17124 67441 42680 11504 10254 20104 48549 81100
                   333 5//// 81835=
201005130600 AAXX 13064 67441 32982 00000 10121 20094 48576
                   333 10290 20/// 58009=
201005110600 AAXX 11064 67441 32982 00000 10125 20111 48563
                   333 10280 20/// 58000=
201005061200 AAXX 06124 67441 42682 30000 10290 20134 48532 81104
                   333 59001 81480 83080=
201005060600 AAXX 06064 67441 32980 50000 10162 20145 48549 81044
                   333 10296 20/// 59002 83080=
201005050600 AAXX 05064 67441 32980 70000 10165 20157 48551 8703/
                   333 10300 20/// 5//// 87360=
201005040900 AAXX 04094 67441 42680 20000 10270 20171 48554 81130
                   333 59004 81830 82362=
201005030600 AAXX 03064 67441 32980 70000 10175 20146 48551 81038
                   333 10285 20//0 59012 81360 87280=

################################################################################
#  SYNOPS from 67461, Mansa (Zambia) | 11-06S | 028-51E | 1382 m
################################################################################
201005210600 AAXX 21064 67461 32980 01003 10167 20145 48542
                   333 10285 20/// 59005=
201005200600 AAXX 20064 67461 NIL=
201005130600 AAXX 13064 67461 32980 00902 10175 20135 48554
                   333 10290 20063 58014=
201005110600 AAXX 11064 67461 32980 01002 10182 20155 48537
                   333 10294 20118 58003=
201005060600 AAXX 06064 67461 32980 50904 10209 20176 48524 81034
                   333 10305 20148 59001 81362 84080=
201005050600 AAXX 05064 67461 32980 50902 10190 20175 48530 80008
                   333 10310 20140 58001 85280=

################################################################################
#  SYNOPS from 67475, Kasama (Zambia) | 10-13S | 031-08E | 1382 m
################################################################################
201005240600 AAXX 24064 67475 32980 51309 10213 20147 48545 81031
                   333 10288 20129 58000 81361 85080=
201005210600 AAXX 21064 67475 NIL=
201005200600 AAXX 20064 67475 NIL=
201005130600 AAXX 13064 67475 32980 01808 10198 20119 48554
                   333 10290 20116 58007=
201005110600 AAXX 11064 67475 32980 10206 10190 20152 48535 81030
                   333 10289 20120 58003 81361=
201005060600 AAXX 06064 67475 32980 60605 10229 20170 48529 80002
                   333 10286 20136 59005 86080=
201005050600 AAXX 05064 67475 31978 60305 10207 20162 48533 72842 81032
                   333 10282 20148 58004 81361 86080=

################################################################################
#  SYNOPS from 67477, Mpika (Zambia) | 11-54S | 031-26E | 1400 m
################################################################################
201005310600 AAXX 31064 67477 32480 81414 10171 20146 48552 885//
                   333 10277 20159 58010 88610=
201005240600 AAXX 24064 67477 32480 41107 10192 20155 48547 81101
                   333 10265 20148 58006 81815 84080=
201005210600 AAXX 21064 67477 32580 21007 10185 20134 48552 82500
                   333 10239 20129 58001 82620=
201005200600 AAXX 20064 67477 32480 21108 10184 20136 48551 82500
                   333 10224 20129 59002 82618=
201005130600 AAXX 13064 67477 32580 11505 10205 20140 48553 81130
                   333 10269 20107 58007 81824 81362=
201005110600 AAXX 11064 67477 NIL=
201005060600 AAXX 06064 67477 NIL=
201005050600 AAXX 05064 67477 32980 40904 10215 20151 48532 80001
                   333 10290 20134 58001 84080=

################################################################################
#  SYNOPS from 67531, Zambezi (Zambia) | 13-32S | 023-07E | 1077 m
################################################################################
201005310600 AAXX 31064 67531 12980 11205 10200 20163 48/// 69904 81030
                   333 10315 20145 58005 81363=
201005240900 AAXX 24094 67531 42980 11505 10254 20135 48/// 81131
                   333 5//// 81363 81080=
201005240600 AAXX 24064 67531 32980 51201 10166 20121 48/// 85280=
201005210600 AAXX 21064 67531 32980 00910 10176 20123 48///
                   333 10281 20121 58001=
201005200600 AAXX 20064 67531 32980 11007 10165 20120 48/// 82130
                   333 10270 20091 59008 81363=
201005181200 AAXX 18124 67531 42780 21704 10252 20116 48/// 82100
                   333 58001 82550=
201005130600 AAXX 13064 67531 32980 00705 10201 20131 48///
                   333 10307 20103 58015=
201005110600 AAXX 11064 67531 32980 00704 10210 20130 48///
                   333 10298 20088 59002=
201005060600 AAXX 06064 67531 32980 30000 10185 20157 48/// 80002
                   333 10320 20190 58006 83082=
201005050600 AAXX 05064 67531 32980 20904 10191 20166 48/// 80002
                   333 10321 20125 58004 82084=

################################################################################
#  SYNOPS from 67541, Kasempa (Zambia) | 13-32S | 025-51E | 1234 m
################################################################################
201005210600 AAXX 21064 67541 NIL=
201005200600 AAXX 20064 67541 NIL=
201005130600 AAXX 13064 67541 NIL=
201005110600 AAXX 11064 67541 NIL=
201005060600 AAXX 06064 67541 NIL=
201005050600 AAXX 05064 67541 NIL=

################################################################################
#  SYNOPS from 67561, Ndola (Zambia) | 13-00S | 028-39E | 1269 m
################################################################################
201005280600 AAXX 28064 67561 31959 30000 10175 20144 48541 70400
                   333 10286 20118 58000 83360 81080=
201005241500 AAXX 24154 67561 42780 60000 10259 20130 48517 83368
                   333 58003 83850 83360 85280=
201005241200 AAXX 24124 67561 42680 60000 10285 20116 48526 83208
                   333 58004 83835 86280=
201005240600 AAXX 24064 67561 31958 60000 10164 20132 48541 70411 81038
                   333 10287 20100 59005 81360 86280=
201005210600 AAXX 21064 67561 31975 00000 10169 20122 48544 70500
                   333 10280 20099 59003=
201005200600 AAXX 20064 67561 32980 00000 10160 20123 48548
                   333 10276 20102 58004=
201005181200 AAXX 18124 67561 41565 41205 10243 20089 48529 70500 84200
                   333 59006 84825=
201005180600 AAXX 18064 67561 31970 00603 10152 20116 48543 70500
                   333 10253 20107 91023=
201005130600 AAXX 13064 67561 31970 00000 10167 20122 48554 70500
                   333 10288 20091 58015=
201005120600 AAXX 12064 67561 31957 00000 10157 20118 48538 70408
                   333 10286 20085 58003=
201005110600 AAXX 11064 67561 31965 00000 10164 20104 48546 70500
                   333 10280 20082 58003=
201005060600 AAXX 06064 67561 31960 50000 10199 20158 48528 70500 82038
                   333 10302 20138 59002 82360 85280=
201005050600 AAXX 05064 67561 31960 60000 10186 20151 48538 70422 81038
                   333 10307 20130 58006 81362 85280=

################################################################################
#  SYNOPS from 67580, Msekera (Zambia) | 13-39S | 032-34E | 1025 m
################################################################################
201005280900 AAXX 28094 67580 42680 61203 10264 20166 48/// 86100
                   333 58002 86836=
201005240900 AAXX 24094 67580 42680 70603 10259 20174 48/// 86101
                   333 58016 86835 83080=
201005240600 AAXX 24064 67580 32480 71304 10205 20172 48/// 84501
                   333 10282 20160 58006 84616 85080=
201005180600 AAXX 18064 67580 32480 61508 10175 20138 48/// 86500
                   333 10244 20123 59010 86616=
201005171200 AAXX 17124 67580 42780 51204 10239 20138 48/// 85200
                   333 58015 85850=
201005060600 AAXX 06064 67580 32980 11203 10230 20175 48/// 80001
                   333 10314 20150 58002 81080=
201005040900 AAXX 04094 67580 42980 40903 10265 20146 48/// 82030
                   333 59014 82362 83080=
201005040600 AAXX 04064 67580 32980 50902 10202 20136 48/// 82031
                   333 10276 20129 59015 82361 84080=
201005040400 AAXX 04044 67580 32980 50902 10202 20136 48/// 82031
                   333 10276 20129 59015 82361 84080=
201005030600 AAXX 03064 67580 31980 71004 10194 20133 48/// 80008
                   333 10260 20125 59013 87280=

################################################################################
#  SYNOPS from 67581, Chipata (Zambia) | 13-33S | 032-35E | 1028 m
################################################################################
201005310600 AAXX 31064 67581 12680 21408 10200 20158 48564 69904 82100
                   333 10300 20173 58005 82830=
201005240600 AAXX 24064 67581 32580 31204 10212 20173 48559 81102
                   333 10306 20154 58007 81825 83080=
201005210600 AAXX 21064 67581 32980 21206 10212 20155 48565 82030
                   333 10254 20168 59004 82360=
201005200600 AAXX 20064 67581 32982 01608 10208 20132 48500
                   333 10270 20160 58001=
201005130600 AAXX 13064 67581 32980 00805 10250 20142 48576
                   333 10310 20142 58016=
201005110600 AAXX 11064 67581 32982 02802 10215 20135 48547
                   333 10305 20129 58008=
201005060600 AAXX 06064 67581 32980 10903 10240 20172 48548 80002
                   333 10312 20145 58000 81080=
201005050600 AAXX 05064 67581 32980 10904 10224 20177 48545 80002
                   333 10299 20127 58004 81080=

################################################################################
#  SYNOPS from 67599, Mfuwe (Zambia) | 13-16S | 031-56E | 568 m
################################################################################
201005210600 AAXX 21064 67599 42780 40000 10307 20182 48564 84100
                   333 59010 84850 91018=
201005201500 AAXX 20154 67599 42980 10000 10292 20169 48561 81030
                   333 59009 81360=
201005150900 AAXX 15094 67599 42580 20404 10289 20180 48588 82200
                   333 58004 82830=
201005150600 AAXX 15064 67599 32980 10000 10220 20174 48576 81030
                   333 10335 20170 58016 81360=
201005141500 AAXX 14154 67599 42780 60000 10310 20207 48568
                   333 59008 82857 86360=
201005131500 AAXX 13154 67599 42780 31209 10315 20164 48571 87230
                   333 58020 82850 82360=
201005131200 AAXX 13124 67599 42680 51010 10330 20164 48582 85200
                   333 58020 85845=
201005110600 AAXX 11064 67599 32980 10000 10180 20148 48539
                   333 10342 20120 59000 81080=
201005101200 AAXX 10124 67599 42780 30000 10315 20173 48547 83200
                   333 59015 83850=
201005070600 AAXX 07064 67599 32980 00000 10215 20184 48554
                   333 10350 20150 58007 91020=
201005061200 AAXX 06124 67599 42780 31305 10340 20196 48547 83101
                   333 58001 83856 81080=
201005051500 AAXX 05154 67599 42980 30000 10320 20206 48536 80001
                   333 59005 83080=
201005040900 AAXX 04094 67599 42980 21505 10275 20179 48557 82030
                   333 59016 82360=
201005040600 AAXX 04064 67599 32980 70000 10191 20152 48540 83038
                   333 10314 20098 59016 83360 87280=
201005040400 AAXX 04044 67599 32980 70000 10191 20152 48540 83038
                   333 10314 20098 59016 83360 87280=

################################################################################
#  SYNOPS from 67633, Mongu (Zambia) | 15-15S | 023-09E | 1052 m
################################################################################
201005310600 AAXX 31064 67633 32982 01206 10177 20143 48546
                   333 10311 20161 58009=
201005280900 AAXX 28094 67633 42980 60305 10281 20124 48539 86030
                   333 59004 86361=
201005240600 AAXX 24064 67633 32980 70902 10171 20108 48545 87030
                   333 10280 20155 58000 87360=
201005210600 AAXX 21064 67633 32980 00908 10170 20124 48535
                   333 10295 20140 59006=
201005200600 AAXX 20064 67633 32982 60906 10168 20124 48514 86030
                   333 10280 20140 59002 86361=
201005180600 AAXX 18064 67633 32982 00902 10134 20094 48544 70200
                   333 10268 20104 59000=
201005171200 AAXX 17124 67633 42682 21204 10253 20097 48552 82100
                   333 58005 82845=
201005130600 AAXX 13064 67633 32982 20000 10220 20133 48554 82030
                   333 10330 20175 58017 82361=
201005110900 AAXX 11094 67633 42982 00304 10292 20108 48549
                   333 59006=
201005110600 AAXX 11064 67633 32982 00000 10216 20098 48531
                   333 10320 20153 58000=
201005060600 AAXX 06064 67633 32982 13604 10212 20152 48525 80001
                   333 10319 20180 58011 81080=
201005050600 AAXX 05064 67633 32982 20000 10208 20153 48513 82030
                   333 10300 20162 59001 82360=

################################################################################
#  SYNOPS from 67641, Kaoma (Zambia) | 14-48S | 024-48E | 1213 m
################################################################################
201005310600 AAXX 31064 67641 12682 20903 10174 20160 48541 60094 82500
                   333 10311 20155 58012 82630=
201005240600 AAXX 24064 67641 32980 21203 10196 20141 48540 80001
                   333 10292 20136 58000 82080=
201005210600 AAXX 21064 67641 32982 00901 10135 20126 48528
                   333 10272 20107 58002=
201005200600 AAXX 20064 67641 32982 50201 10149 20124 48528 85030
                   333 10263 20115 59002 85360=
201005130600 AAXX 13064 67641 32982 30000 10160 20132 48537 83030
                   333 10305 20111 58010 83360=
201005110600 AAXX 11064 67641 32982 00000 10147 20110 48516
                   333 10302 20104 59005=
201005060600 AAXX 06064 67641 32982 20000 10154 20131 48514 80002
                   333 10315 20122 58003 82080=
201005050600 AAXX 05064 67641 32982 30401 10194 20147 48516 81032
                   333 10310 20134 58004 81360 82080=

################################################################################
#  SYNOPS from 67659, Kafue Polder (Zambia) | 15-46S | 027-55E | 978 m
################################################################################
201005310600 AAXX 31064 67659 32480 50908 10184 20155 48/// 83530
                   333 10268 20158 58015 83615 85362=
201005240600 AAXX 24064 67659 32980 50903 10176 20141 48/// 81038
                   333 10253 20092 58001 81362 85280=
201005180600 AAXX 18064 67659 32980 30904 10178 20138 48/// 83030
                   333 10244 20088 59009 83362=
201005171200 AAXX 17124 67659 42780 51204 10239 20138 48/// 85200
                   333 59015 85850=

################################################################################
#  SYNOPS from 67663, Kabwe (Zambia) | 14-27S | 028-28E | 1206 m
################################################################################
201005310600 AAXX 31064 67663 32480 60904 10172 20157 48550 86530
                   333 10280 20152 58023 86618 82360=
201005240600 AAXX 24064 67663 32980 50902 10160 20136 48530 81032
                   333 10270 20132 59007 81360=
201005210600 AAXX 21064 67663 32980 00903 10161 20132 48536
                   333 10258 20115 58003=
201005200600 AAXX 20064 67663 32980 11008 10166 20102 48547 81030
                   333 10250 20120 58001 81360=
201005130600 AAXX 13064 67663 32980 00302 10181 20127 48545
                   333 10299 20127 58017=
201005110600 AAXX 11064 67663 32980 00201 10183 20120 48527
                   333 10276 20112 59000=
201005060600 AAXX 06064 67663 32980 41803 10206 20153 48514 80002
                   333 10297 20150 59010 84080=
201005050600 AAXX 05064 67663 32980 60303 10193 20146 48521 81038
                   333 10297 20139 58000 81360 86280=

################################################################################
#  SYNOPS from 67665, Lusaka Internationalairport (Zambia) | 15-19S | 028-27E | 1152 m
################################################################################
201005310600 AAXX 31064 67665 32380 70609 10195 20195 48576 70322 87630
                   333 10141 58009 87708 81360=
201005281200 AAXX 28124 67665 42680 53305 10289 20167 48540 85200
                   333 58001 85840=
201005280900 AAXX 28094 67665 42680 50207 10255 20205 48561 85030
                   333 59002 85360 91022=
201005280600 AAXX 28064 67665 32980 70803 10178 20141 48546 87030
                   333 10285 20140 59001 87360=
201005271800 AAXX 27184 67665 42980 01304 10172 20172 48533
                   333 10285 59003=
201005271500 AAXX 27154 67665 42880 43604 10249 20125 48530 84100
                   333 59003 84858=
201005271200 AAXX 27124 67665 42780 30406 10273 20126 48538 83100
                   333 59006 83850=
201005270900 AAXX 27094 67665 42980 00608 10244 20158 48510 70200
                   333 59007=
201005270600 AAXX 27064 67665 32980 01104 10145 20127 48543
                   333 59010 555 00109=
201005261500 AAXX 26154 67665 42980 21208 10254 20122 48533 82030
                   333 59005=
201005261200 AAXX 26124 67665 42680 20906 10264 20115 48543 82100
                   333 58005 82848=
201005260600 AAXX 26064 67665 32480 20906 10171 20136 48555 70300 81530
                   333 10275 20122 59001 81709 81360=
201005250900 AAXX 25094 67665 42580 20809 10235 20151 48566 82100
                   333 59003 82825=
201005250600 AAXX 25064 67665 32980 31005 10150 20135 48553 83031
                   333 10264 20113 59001 83360 81080=
201005241800 AAXX 24184 67665 42980 30902 10176 20176 48545 83031
                   333 10264 58000 83360 82080=
201005241500 AAXX 24154 67665 42780 41206 10236 20125 48536 84101
                   333 58002 84856 81080=
201005241200 AAXX 24124 67665 42680 51403 10248 20127 48545 85101
                   333 58007 85840 83080=
201005240900 AAXX 24094 67665 42580 60508 10232 20184 48571 83101
                   333 58008 83822 85080=
201005240600 AAXX 24064 67665 32980 70903 10145 20136 48554 81038
                   333 10268 20108 58003 81360 87280=
201005240400 AAXX 24044 67665 42980 61202 10118 20118 48538 81032
                   333 59003 81360 85280=
201005240300 AAXX 24034 67665 42980 11204 10123 20123 48535 81030
                   333 59001 81360=
201005240000 AAXX 24004 67665 42980 11403 10119 20119 48536 81030
                   333 59009 81360=
201005232100 AAXX 23214 67665 42980 11303 10169 20168 48547 81030
                   333 59001 81360=
201005231800 AAXX 23184 67665 42980 41303 10179 20164 48545 83031
                   333 10268 59002 83360 81080=
201005231200 AAXX 23124 67665 42680 51406 10258 20156 48539 85200
                   333 59008 85845 91020=
201005230600 AAXX 23064 67665 32980 41204 10166 20166 48554 81032
                   333 10275 20091 59005 81360 84080=
201005230400 AAXX 23044 67665 41960 11201 10119 20119 48542 71000 81032
                   333 58001 81360 81080=
201005230300 AAXX 23034 67665 42980 11301 10130 20130 48537 81030
                   333 58000 81360=
201005222100 AAXX 22214 67665 42980 11503 10154 20154 48550 81030
                   333 59003 81360=
201005221800 AAXX 22184 67665 42980 31304 10178 20162 48543 70200 83030
                   333 10275 59013 83360=
201005221500 AAXX 22154 67665 42980 31306 10248 20154 48543 83030
                   333 59010 83360 555 10275=
201005221200 AAXX 22124 67665 42680 40804 10263 20134 48546 83131
                   333 59005 83894 81360 81080=
201005220900 AAXX 22094 67665 42680 10605 10231 20144 48570 81100
                   333 59002 81830=
201005220600 AAXX 22064 67665 32980 00902 10157 20157 48558
                   333 10256 20101 59005=
201005220400 AAXX 22044 67665 42980 10903 10099 20099 48533 81030
                   333 59006 81360=
201005220300 AAXX 22034 67665 42980 01303 10099 20099 48533
                   333 59007=
201005220000 AAXX 22004 67665 42980 01302 10114 20114 48535
                   333 59007=
201005212100 AAXX 21214 67665 42980 01403 10134 20134 48549
                   333 59002=
201005211800 AAXX 21184 67665 42980 11208 10156 20156 48551 81030
                   333 10256 58002 81360=
201005211500 AAXX 21154 67665 41759 20806 10234 20146 70422 81130
                   333 58002 81850 81360
                   555 10256=
201005211200 AAXX 21124 67665 42680 30808 10243 20156 48549 70122 83100
                   333 58003 83835=
201005210900 AAXX 21094 67665 42580 31010 10210 20169 48569 83800
                   333 59001 83825 81627=
201005210600 AAXX 21064 67665 32480 10906 10139 20105 48559 81500
                   333 10260 20098 58001 81610=
201005201800 AAXX 20184 67665 42980 01204 10153 20153 48549
                   333 58001=
201005201500 AAXX 20154 67665 42780 20909 10235 20109 48549 58003 81359=
201005200600 AAXX 20064 67665 32380 20907 10155 20133 48560 72844 81630
                   333 10257 20095 58002 81705 82360=
201005191200 AAXX 19124 67665 42680 20710 10238 20130 48546 82100
                   333 59008 83839=
201005190900 AAXX 19094 67665 42470 50710 10218 20172 48568 70222 85100
                   333 59004 85825 91024=
201005181200 AAXX 18124 67665 42680 50608 10226 20134 48554 85100
                   333 59009 85835 91022=
201005180900 AAXX 18094 67665 42380 50807 10199 20151 48569 70322 85100
                   333 59011 85820 91024=
201005180600 AAXX 18064 67665 32365 30904 10145 20145 48562 70322 83500
                   333 10231 20098 83608
                   555 00094 91024=
201005180400 AAXX 18044 67665 42980 11002 10103 20103 48546 70200 81030
                   333 58012 81360=
201005180300 AAXX 18034 67665 42980 11203 10107 20107 48542 70200 81030
                   333 58013 81360=
201005180000 AAXX 18004 67665 42980 11403 10115 20115 48543 70200 81030
                   333 58018 81360=
201005172100 AAXX 17214 67665 42980 11204 10123 20123 48551 70200 81030
                   333 58012 81360=
201005171800 AAXX 17184 67665 42980 01004 10141 20132 48555
                   333 10231 59012=
201005171500 AAXX 17154 67665 42880 20809 10214 20104 48524 82100
                   333 59010 82857=
201005171200 AAXX 17124 67665 42680 50811 10228 20100 48562 85100
                   333 59013 85840=
201005170900 AAXX 17094 67665 42580 50613 10211 20128 48581 85200
                   333 58014 85828=
201005170600 AAXX 17064 67665 32980 10805 10139 20125 48571 81030
                   333 10240 20092 58010 81360=
201005170400 AAXX 17044 67665 42980 11204 10094 20094 48555 81030
                   333 58000 81359=
201005170300 AAXX 17034 67665 42980 00903 10103 20103 48554
                   333 58005=
201005162100 AAXX 16214 67665 42980 01302 10119 20119 48563
                   333 58007=
201005161800 AAXX 16184 67665 42980 11403 10146 20138 48566 70200 81030
                   333 10240 58016 81360=
201005161500 AAXX 16154 67665 42980 20807 10217 20136 48565 70200 81031
                   333 58020 81360 81080
                   555 10240=
201005161200 AAXX 16124 67665 42680 40710 10223 20142 48574 70100 84200
                   333 58023 84832=
201005160900 AAXX 16094 67665 42580 40612 10205 20157 48593 84200
                   333 58020 84825=
201005151500 AAXX 15154 67665 42980 10707 10243 20184 48548 70100 81030
                   333 59006 81360 555 10269=
201005151200 AAXX 15124 67665 42680 30409 10247 20178 48555 70200 83100
                   333 59003 83840=
201005150900 AAXX 15094 67665 42580 30511 10236 20183 48580 83500
                   333 59003 83625=
201005150600 AAXX 15064 67665 31460 21006 10160 20144 48564 70500 83530
                   333 10268 20124 59003 83610 81360=
201005141800 AAXX 14184 67665 42980 01205 10164 20164 48558
                   333 10268 59006=
201005141500 AAXX 14154 67665 42780 20809 10242 20141 48554 82100
                   333 59011 82850=
201005141200 AAXX 14124 67665 42680 40810 10246 20138 48558 84100
                   333 59010 84840=
201005140600 AAXX 14064 67665 31480 20807 10179 20147 48569 70300 81600
                   333 10282 20119 58000 81709=
201005131500 AAXX 13154 67665 42980 10711 10250 20106 48566 81030
                   333 58022 81359=
201005131200 AAXX 13124 67665 42780 10713 10273 20106 48571 81100
                   333 58021 81850=
201005130600 AAXX 13064 67665 32980 01004 10198 20139 48522
                   333 10296 20137 58020=
201005121200 AAXX 12124 67665 42680 41010 10281 20147 48552 84100
                   333 58017 84949=
201005120600 AAXX 12064 67665 32980 01202 10186 20179 48552
                   333 10295 20115 58009=
201005120400 AAXX 12044 67665 42980 01702 10110 20110 48527 70200
                   333 58008=
201005120300 AAXX 12034 67665 42980 00000 10119 20119 48534 70200
                   333 58005=
201005120000 AAXX 12004 67665 42980 01503 10128 20128 48524 70100
                   333 58006=
201005112100 AAXX 11214 67665 42980 11502 10163 20163 48540 70200 81030
                   333 58011 81360=
201005111200 AAXX 11124 67665 42880 11207 10282 20119 48535 81100
                   333 58000 81857=
201005110900 AAXX 11094 67665 42970 02903 10261 20121 48554
                   333 59007=
201005110600 AAXX 11064 67665 32970 00000 10173 20136 48541
                   333 10286 20105 59024=
201005110400 AAXX 11044 67665 41980 00000 10113 20113 48520 70500
                   333 59008=
201005110300 AAXX 11034 67665 42980 00000 10112 20112 48518
                   333 59007=
201005102100 AAXX 10214 67665 42980 01502 10141 20129 48527
                   333 59013=
201005101800 AAXX 10184 67665 42958 01502 10183 20150 48529 70400
                   333 10286 59018=
201005101500 AAXX 10154 67665 42880 10906 10264 20106 48523 81100
                   333 59019 81858=
201005101200 AAXX 10124 67665 42780 10805 10275 20124 48535 81100
                   333 59029 81850=
201005100600 AAXX 10064 67665 32980 01002 10164 20125 48531
                   333 10280 20105 59022
                   555 00100 91022=
201005091800 AAXX 09184 67665 42980 00602 10179 20164 48546
                   333 10278 59002=
201005091500 AAXX 09154 67665 42980 00607 10258 20128 48541 70100
                   333 58008 555 10278=
201005090900 AAXX 09094 67665 42980 00706 10235 20128 48577
                   333 58009=
201005090600 AAXX 09064 67665 32980 20904 10170 20111 48564 80001
                   333 10189 20114 58010 82080=
201005081200 AAXX 08124 67665 42680 11009 10284 20146 48550 81100
                   333 58011 81840=
201005080900 AAXX 08094 67665 42580 10811 10255 20170 48571 81101
                   333 58015 81825 81080=
201005080600 AAXX 08064 67665 32980 00905 10175 20146 48555
                   333 10294 20135 58011=
201005071800 AAXX 07184 67665 42980 01303 10185 20170 48540
                   333 10294 58006=
201005071500 AAXX 07154 67665 42880 10607 10270 20145 48535 81100
                   333 58003 81857=
201005071200 AAXX 07124 67665 42680 30608 10278 20148 48539 83100
                   333 58009 83849=
201005070600 AAXX 07064 67665 32980 01005 10204 20189 48548
                   333 10299 20135 58007
                   555 00139 910222=
201005061800 AAXX 06184 67665 42980 01103 10187 20179 48534
                   333 10299 58012=
201005061500 AAXX 06154 67665 42880 20910 10255 20144 48531 81101
                   333 58009 81857 82080=
201005061200 AAXX 06124 67665 42780 30407 10285 20133 48531 81101
                   333 58003 81856 83080=
201005060900 AAXX 06094 67665 42980 50710 10255 20163 48554 80001
                   333 58005 85080 91022=
201005060600 AAXX 06064 67665 32980 51203 10195 20149 48540 80001
                   333 10295 20130 58005 85080=
201005060000 AAXX 06004 67665 42980 01503 10137 20137 48517
                   333 58006=
201005052100 AAXX 05214 67665 42980 01202 10146 20146 48524
                   333 58007=
201005051800 AAXX 05184 67665 42980 01104 10185 20185 48522
                   333 10295 58009=
201005051500 AAXX 05154 67665 42680 31106 10284 20095 48527 81102
                   333 58004 81848 83080=
201005051200 AAXX 05124 67665 42680 31106 10284 20095 48527 81102
                   333 58004 81848 83080=
201005050900 AAXX 05094 67665 41970 40605 10251 20166 58548 70500 80002
                   333 58006 84080=
201005050600 AAXX 05064 67665 31960 53602 10178 20149 48543 70500 80002
                   333 10293 20105 58000 85080=
201005050400 AAXX 05044 67665 41980 21002 10122 20122 48517 70500 80001
                   333 58001 82080=
201005050300 AAXX 05034 67665 42980 00000 10137 20137 48511
                   333 58000=
201005042100 AAXX 04214 67665 42980 01202 10158 20158 48520
                   333 59007=
201005041800 AAXX 04184 67665 42980 01204 10189 20189 48514
                   333 10293 59017=
201005041200 AAXX 04124 67665 42980 12103 10266 20150 48522 81030
                   333 59019 81360=
201005040900 AAXX 04094 67665 41980 00206 10239 20162 48540
                   333 59020 91020=
201005040600 AAXX 04064 67665 32980 10903 10162 20134 48531 81030
                   333 10248 20105 59017 81360
                   555 00110 91020=
201005040400 AAXX 04044 67665 32980 10903 10162 20134 48531 81030
                   333 10248 20105 59017 81360
                   555 00110 91020=
201005031800 AAXX 03184 67665 42980 21003 10174 20174 48528 80002
                   333 10248 59011 82280=
201005031500 AAXX 03154 67665 42980 70904 10226 20128 48528 83032
                   333 59007 83360 85280=
201005031200 AAXX 03124 67665 42680 70306 10234 20120 48535 81132
                   333 59007 81835 81360 87280=
201005030900 AAXX 03094 67665 42980 70508 10212 20113 48556 70322 80008
                   333 59008 87280 91023=
201005030600 AAXX 03064 67665 41960 60704 10154 20126 48546 70500 80002
                   333 10266 20175 59012 85080
                   555 00105=
201005021200 AAXX 02124 67665 42680 51010 10255 20119 48545 81102
                   333 59005 81835 85080=
201005020900 AAXX 02094 67665 42580 10612 10234 20100 48568 81102
                   333 59001 81820 81080=
201005020600 AAXX 02064 67665 31960 20905 10153 20136 48557 70500 80002
                   333 10263 20120 58003 82080=
201005020400 AAXX 02044 67665 41958 11103 10130 20130 48544 71000 80001
                   333 58004 81080=
201005020300 AAXX 02034 67665 42980 01104 10131 20131 48540 71000
                   333 58014=
201005020000 AAXX 02004 67665 42980 01103 10141 20141 48543
                   333 58001=
201005012100 AAXX 01214 67665 42980 01203 10153 20153 48548
                   333 59001=
201005011800 AAXX 01184 67665 42980 41403 10165 20165 48546 82031
                   333 58001 82860=
201005010600 AAXX 01064 67665 32380 31006 10183 20158 48559 81631
                   333 10265 20149 58003 81707 81360 82080=

################################################################################
#  SYNOPS from 67666, Lusaka City Airport (Zambia) | 15-25S | 028-19E | 1280 m
################################################################################
201005310600 AAXX 31064 67666 32380 70909 10158 20145 48556 70222 84630
                   333 10260 20140 58003 82706 82615 83360 91023=
201005280900 AAXX 28094 67666 42980 40903 10245 20147 48549 84030
                   333 59004 84361=
201005280600 AAXX 28064 67666 32980 70905 10190 20131 48543 87030
                   333 10265 20140 58000 87360=
201005240900 AAXX 24094 67666 42580 40904 10224 20148 48/// 82102
                   333 58007=
201005240600 AAXX 24064 67666 32980 50906 10185 20150 48552 80002
                   333 10260 20110 59001 85780=
201005210900 AAXX 21094 67666 42580 20909 10215 20134 48562 82800
                   333 81622 82825=
201005210600 AAXX 21064 67666 42680 31006 10235 20129 48451 83100
                   333 58001 83835 91021=
201005181200 AAXX 18124 67666 42680 40903 10215 20091 48542 82200
                   333 59010 82840=
201005180600 AAXX 18064 67666 32460 50902 10145 20129 48555 83500
                   333 10240 20100 59011 85614=
201005171200 AAXX 17124 67666 42680 50911 10210 20106 48551 85200
                   333 59013 85835=
201005110900 AAXX 11094 67666 42980 00702 10254 20105 48545
                   333 59004=
201005110600 AAXX 11064 67666 31975 01203 10195 20119 48538 70540
                   333 10270 20100 59004=
201005061200 AAXX 06124 67666 42780 30902 10270 20144 48522 82101
                   333 58003 82850 82080=
201005060600 AAXX 06064 67666 32980 41202 10210 20136 48537 80002
                   333 10280 20165 58002 84080=
201005051200 AAXX 05124 67666 42680 40903 10274 20120 48518 81101
                   333 58004 81840 83080=
201005040900 AAXX 04094 67666 42980 00905 10230 20141 48532
                   333 59017=
201005040600 AAXX 04064 67666 32980 10906 10175 20134 48528 81030
                   333 10235 20100 59015 81360=
201005040400 AAXX 04044 67666 32980 10906 10175 20134 48528 81030
                   333 10235 20100 59015 81360=
201005030600 AAXX 03064 67666 32980 70908 10170 20119 48542 80008
                   333 10260 20125 59013 87280=

################################################################################
#  SYNOPS from 67673, Petauke (Zambia) | 14-15S | 031-17E | 1035 m
################################################################################
201005280900 AAXX 28094 67673 42680 50304 10274 20155 48574 85100
                   333 58002 85830=
201005240900 AAXX 24094 67673 41575 60903 10255 20154 48580 70500 85101
                   333 5//// 85825 86080=
201005240600 AAXX 24064 67673 31575 60904 10188 20167 48571 70522 86501
                   333 10278 20155 58008 86626 84080=
201005210900 AAXX 21094 67673 42580 60502 10245 20146 48580 86100
                   333 59010 86830=
201005180600 AAXX 18064 67673 32580 60903 10160 20133 48565 84530
                   333 10248 20165 59017 84620 86360=
201005171200 AAXX 17124 67673 42680 60904 10232 20138 48566 86200
                   333 5//// 86840=
201005110900 AAXX 11094 67673 41675 10502 10288 20081 48566 70500 81100
                   333 58006 81830=
201005040900 AAXX 04094 67673 42980 42602 10260 20134 48554 83031
                   333 59020 83360 84080=

################################################################################
#  SYNOPS from 67741, Sesheke (Zambia) | 17-28S | 024-18E | 949 m
################################################################################
201005060600 AAXX 06064 67741 32980 20903 10194 20139 48531 82030
                   333 10320 20144 58010 82362=
201005040600 AAXX 04064 67741 32980 00902 10178 20140 48516
                   333 10286 20144 59008=
201005040400 AAXX 04044 67741 32980 00902 10178 20140 48516
                   333 10286 20144 59008=
201005030600 AAXX 03064 67741 32980 60403 10183 20155 48543 81038
                   333 10183 20157 59016 81360 86280=

################################################################################
#  SYNOPS from 67743, Livingstone (Zambia) | 17-49S | 025-49E | 985 m
################################################################################
201005310600 AAXX 31064 67743 67743 32380 10158 20145 48561 8663/
                   333 10269 20/// 58004 85706 84360=
201005280600 AAXX 28064 67743 32980 60000 10178 20121 48527 86030
                   333 10291 20/// 59016 86360=
201005271500 AAXX 27154 67743 42780 71903 10264 20130 48526 83130
                   333 59008 83857 82060=
201005271200 AAXX 27124 67743 42780 51708 10274 20112 48535 84100
                   333 59009 84857=
201005250900 AAXX 25094 67743 42980 01207 10250 20116 48568
                   333 59005=
201005250600 AAXX 25064 67743 32980 20000 10165 20131 48552 82030
                   333 10276 20//0 59007 82360=
201005241500 AAXX 24154 67743 42780 50000 10258 20105 48539 83130
                   333 59004 83857 82360=
201005241200 AAXX 24124 67743 42780 52703 10261 20106 48549 83130
                   333 59001 84857 82360=
201005240900 AAXX 24094 67743 42780 11003 10230 20136 48571 81100=
201005240600 AAXX 24064 67743 32980 01306 10151 20126 48552
                   333 10271 20111 59004=
201005221200 AAXX 22124 67743 42780 40705 10263 20132 48545 84130
                   333 59002 84856 82360 91020=
201005210900 AAXX 21094 67743 42680 10910 10238 20138 48572 81100
                   333 59001 81838=
201005210600 AAXX 21064 67743 32980 10906 10158 20137 48558 80001
                   333 10266 20/// 59002 81080=
201005200600 AAXX 20064 67743 NIL=
201005181200 AAXX 18124 67743 42780 31008 10252 20096 48559 83100
                   333 59010 83857=
201005180900 AAXX 18094 67743 42980 00808 10202 20106 48575
                   333 59010 91025=
201005180600 AAXX 18064 67743 32980 01106 10139 20093 48561 70200
                   333 10250 20//0 59011 91024=
201005150900 AAXX 15094 67743 42980 11008 10268 20109 48585 81100
                   333 59001 81856=
201005150600 AAXX 15064 67743 32980 01002 10178 20109 48563
                   333 10300 20//0 59001=
201005141200 AAXX 14124 67743 42780 21109 10285 20112 48566 82200
                   333 58007 82858=
201005131500 AAXX 13154 67743 42880 60705 10283 20149 48554 83160
                   333 58015 83857 83359=
201005131200 AAXX 13124 67743 42880 30305 10305 20130 48561 83100
                   333 58011 83857=
201005130600 AAXX 13064 67743 32980 20804 10188 20144 48558 82030
                   333 10322 20/// 58016 82360=
201005120600 AAXX 12064 67743 32780 30000 10196 20134 48545 83030
                   333 10325 20111 58023 83360=
201005110900 AAXX 11094 67743 42980 02705 10284 20126 48550
                   333 59004=
201005110600 AAXX 11064 67743 32980 00000 10190 20132 48523
                   333 10315 20/// 58012=
201005101500 AAXX 10154 67743 42980 11405 10296 20125 48519 81030
                   333 59022 81360=
201005101200 AAXX 10124 67743 42780 10805 10299 20105 48529 81100
                   333 59024 81856=
201005090900 AAXX 09094 67743 42980 00408 10278 20130 48576
                   333 58008=
201005071500 AAXX 07154 67743 42780 20908 10290 20147 48529 82100
                   333 58002 82856=
201005071200 AAXX 07124 67743 42980 00809 10305 20132 48537
                   333 58006=
201005070600 AAXX 07064 67743 32980 00000 10194 20138 48538
                   333 10328 20//0 58006 91020=
201005061500 AAXX 06154 67743 42780 11105 10291 20139 48527 70200 81030
                   333 58009 81360=
201005061200 AAXX 06124 67743 42780 10312 20112 48529 81100
                   333 58010 81858=
201005060600 AAXX 06064 67743 32980 51003 10185 20156 48532 84032
                   333 10355 20/// 58012 84360 82080=
201005051200 AAXX 05124 67743 42880 41004 10310 20126 48523 82230
                   333 58000 82857 82364=
201005050600 AAXX 05064 67743 32980 41203 10185 20163 48522 84030
                   333 10310 20/// 58003 84362=
201005040900 AAXX 04094 67743 42980 00000 10262 20136 48534
                   333 59018=
201005040600 AAXX 04064 67743 32980 00000 10165 20156 48514
                   333 20111 58001=
201005040400 AAXX 04044 67743 32980 00000 10165 20156 48514
                   333 20111 58001=

################################################################################
#  SYNOPS from 67753, Choma (Zambia) | 16-50S | 027-04E | 1213 m
################################################################################
201005240600 AAXX 24064 67753 32980 10905 10153 20137 80002
                   333 10254 20101 81080=
201005210600 AAXX 21064 67753 NIL=
201005200600 AAXX 20064 67753 31475 71006 10149 20134 48/// 70522 85508
                   333 10/// 20/// 85612 87280=
201005130600 AAXX 13064 67753 32980 70904 10162 20139 48/// 87030
                   333 10294 20109 5//// 87360=
201005110600 AAXX 11064 67753 NIL=
201005060600 AAXX 06064 67753 32980 50000 10182 20147 48/// 80008
                   333 10291 20104 85280=
201005050600 AAXX 05064 67753 32980 70604 10171 20157 48/// 87030
                   333 10282 20104 5//// 87360=
201005040900 AAXX 04094 67753 42680 10907 10244 20167 81100
                   333 81825=
201005040600 AAXX 04064 67753 32980 00904 10164 20149 48///
                   333 10248 20083 5////=
201005040400 AAXX 04044 67753 32980 00904 10164 20149 48///
                   333 10248 20083 5////=
201005030600 AAXX 03064 67753 32980 70605 10166 20137 48/// 80008
                   333 10//0 20//0 87280=

################################################################################
#  SYNOPS from 67855, Lupaki (Zambia) | 17-03-00S | 024-46-00E | 1000 m
################################################################################
201005310600 AAXX 31064 67855 11970 81801 10150 20145 38/// 48/// 60044 70522 8263/
                   333 20133 5//// 82707 88358=
201005300600 AAXX 30064 67855 NIL=
201005291200 AAXX 29124 67855 NIL=
201005290600 AAXX 29064 67855 NIL=
201005281200 AAXX 28124 67855 NIL=
201005280600 AAXX 28064 67855 31970 80000 10134 20113 38/// 48/// 70522 8803/
                   333 20095 5//// 88358=
201005271200 AAXX 27124 67855 42980 50000 10270 20126 3//// 48/// 85030
                   333 5//// 85359=
201005270600 AAXX 27064 67855 31970 01901 10096 20063 3//// 48/// 70500
                   333 20060 5////=
201005261200 AAXX 26124 67855 42880 20301 10280 20102 3//// 48/// 82100
                   333 5//// 82857=
201005260600 AAXX 26064 67855 31970 01701 10100 20093 3//// 48/// 70500
                   333 20060 5////=
201005251200 AAXX 25124 67855 NIL=
201005250600 AAXX 25064 67855 31970 01801 10098 20095 38/// 48/// 70500
                   333 20064 5////=
201005241200 AAXX 24124 67855 42780 30201 10254 20131 38/// 48/// 82100
                   333 5//// 82850=
201005240600 AAXX 24064 67855 11970 01301 10118 20116 3//// 48/// 60014 70500
                   333 20086 5////=
201005231200 AAXX 23124 67855 NIL=
201005230600 AAXX 23064 67855 NIL=
201005221800 AAXX 22184 67855 NIL=
201005221200 AAXX 22124 67855 NIL=
201005220600 AAXX 22064 67855 NIL=
201005211200 AAXX 21124 67855 NIL=
201005210600 AAXX 21064 67855 31970 70901 10152 20133 3//// 48/// 70522 8703/
                   333 20104 5//// 87358=
201005201200 AAXX 20124 67855 NIL=
201005200600 AAXX 20064 67855 31970 71701 10126 20124 3//// 48/// 70522 82031
                   333 20095 5//// 82358 87080=
201005191200 AAXX 19124 67855 42880 62402 10248 20109 38/// 48/// 86101
                   333 5//// 86857=
201005190600 AAXX 19064 67855 31970 12001 10108 20106 38/// 48/// 70500 80001
                   333 20070 5//// 81080=
201005181200 AAXX 18124 67855 NIL=
201005180600 AAXX 18064 67855 31970 00901 10104 20084 3//// 48/// 70500
                   333 20055 5////=
201005171200 AAXX 17124 67855 NIL=
201005170600 AAXX 17064 67855 NIL=
201005161200 AAXX 16124 67855 NIL=
201005160600 AAXX 16064 67855 NIL=
201005151200 AAXX 15124 67855 42980 20904 10298 20110 3//// 48/// 82100
                   333 5//// 82859=
201005150600 AAXX 15064 67855 31970 00901 10132 20130 3//// 48/// 70500
                   333 20094 5////=
201005141200 AAXX 14124 67855 42880 20903 10302 20126 38/// 48/// 82100
                   333 5//// 82857=
201005140600 AAXX 14064 67855 31970 01802 10158 20150 18/// 70500
                   333 20123 5////=
201005131200 AAXX 13124 67855 42780 60903 10300 20159 38/// 48/// 86100
                   333 5//// 86856=
201005130600 AAXX 13064 67855 31970 21501 10176 20162 3//// 48/// 70500 82030
                   333 20130 5//// 82358=
201005121200 AAXX 12124 67855 42980 51801 10312 20119 3//// 48/// 85100
                   333 5//// 85858=
201005120600 AAXX 12064 67855 31970 21001 10162 20120 3//// 48/// 70500 82030
                   333 20110 5//// 82359=
201005111200 AAXX 11124 67855 42980 42702 10310 20134 3//// 48/// 84100
                   333 5//// 84858=
201005110600 AAXX 11064 67855 31970 03601 10156 20130 3//// 48/// 70500
                   333 20105 5////=
201005100600 AAXX 10064 67855 31970 31501 10158 20123 3//// 48/// 70500 83030
                   333 20110 5//// 83359=
201005091200 AAXX 09124 67855 42880 33301 10302 20150 38/// 48/// 83100
                   333 5//// 83857=
201005090600 AAXX 09064 67855 NIL=
201005081200 AAXX 08124 67855 NIL=
201005080600 AAXX 08064 67855 NIL=
201005071800 AAXX 07184 67855 NIL=
201005071200 AAXX 07124 67855 NIL=
201005070600 AAXX 07064 67855 31970 30901 10180 20139 3//// 48/// 70511 83030
                   333 20150 5//// 83358=
201005061200 AAXX 06124 67855 NIL=
201005060600 AAXX 06064 67855 31970 11501 10164 20124 3//// 48/// 70511 81030
                   333 20120 5//// 81358=
201005051200 AAXX 05124 67855 42780 52402 10314 20126 3//// 48/// 85100
                   333 5//// 85850=
201005050600 AAXX 05064 67855 31970 61801 10150 20136 38/// 48/// 70522 86040
                   333 20100 5//// 86358=
201005041200 AAXX 04124 67855 42680 12702 10296 20134 38/// 48/// 81100
                   333 5//// 81830=
201005040600 AAXX 04064 67855 NIL=
201005031200 AAXX 03124 67855 NIL=
201005030600 AAXX 03064 67855 NIL=
201005021200 AAXX 02124 67855 NIL=
201005020600 AAXX 02064 67855 31970 70901 10154 20130 3//// 48/// 70522 80001
                   333 20105 5//// 87080=
201005011200 AAXX 01124 67855 42680 70701 10278 20157 3//// 48/// 85101
                   333 5//// 85835 87080=
201005010600 AAXX 01064 67855 NIL=
