################################################################################
# Query made at 04/10/2022 06:51:18 UTC
# Country like Zamb*
# Time interval: from 05/01/2019 05:30  to 05/31/2019 06:30  UTC
################################################################################

################################################################################
#  SYNOPS from 67403, Kawambwa (Zambia) | 09-48S | 029-05E | 1323 m
################################################################################
201905300600 AAXX 30064 67403 31975 10902 10194 20139 48529 70500 81031
                   333 10278 20158 59003 81360 81080
                   555 00155=
201905290900 AAXX 29094 67403 NIL=
201905290600 AAXX 29064 67403 31975 50901 10188 20153 48/// 70522 85030
                   333 10286 20168 58005 85360
                   555 00154=
201905280600 AAXX 28064 67403 31975 10902 10186 20153 48527 70500 80001
                   333 10288 20156 59001 81080
                   555 00158=
201905270600 AAXX 27064 67403 31975 61203 10173 20144 48527 70520 86030
                   333 10290 20150 59002 86360
                   555 00154=
201905240600 AAXX 24064 67403 31975 11202 10177 20127 48536 70500 80001
                   333 10290 20146 58002 81080=
201905231200 AAXX 23124 67403 NIL=
201905230600 AAXX 23064 67403 31975 31402 10185 20134 48536 70500 80001
                   333 10300 20157 58008 83080
                   555 00154=
201905220900 AAXX 22094 67403 NIL=
201905220600 AAXX 22064 67403 31975 20903 10208 20142 48528 70500 82030
                   333 10310 20167 59001 82360
                   555 00158=
201905210600 AAXX 21064 67403 31975 30903 10210 20158 48530 70500 83030
                   333 10304 20164 59004 83360
                   555 00164=
201905200900 AAXX 20094 67403 NIL=
201905170900 AAXX 17094 67403 NIL=
201905161200 AAXX 16124 67403 NIL=
201905160600 AAXX 16064 67403 31975 20905 10203 20151 48533 70500 82031
                   333 10304 20164 58002 82360 81080
                   555 00158=
201905150900 AAXX 15094 67403 NIL=
201905141200 AAXX 14124 67403 NIL=
201905140600 AAXX 14064 67403 31975 31603 10181 20142 48527 70500 80001
                   333 10288 20154 58001 83080
                   555 00135=
201905130900 AAXX 13094 67403 NIL=
201905130600 AAXX 13064 67403 NIL=
201905101200 AAXX 10124 67403 NIL=
201905100900 AAXX 10094 67403 NIL=
201905080600 AAXX 08064 67403 NIL=
201905060600 AAXX 06064 67403 NIL=
201905020900 AAXX 02094 67403 NIL=

################################################################################
#  SYNOPS from 67413, Mbala (Zambia) | 08-51S | 031-20E | 1673 m
################################################################################
201905290900 AAXX 29094 67413 NIL=
201905270600 AAXX 27064 67413 NIL=
201905231200 AAXX 23124 67413 NIL=
201905220900 AAXX 22094 67413 NIL=
201905200900 AAXX 20094 67413 NIL=
201905170900 AAXX 17094 67413 NIL=
201905161200 AAXX 16124 67413 NIL=
201905160600 AAXX 16064 67413 NIL=
201905150900 AAXX 15094 67413 NIL=
201905141200 AAXX 14124 67413 NIL=
201905130900 AAXX 13094 67413 NIL=
201905130600 AAXX 13064 67413 NIL=
201905101200 AAXX 10124 67413 NIL=
201905100900 AAXX 10094 67413 NIL=
201905080600 AAXX 08064 67413 32480 20810 10176 20142 48553 82500
                   333 1//// 2//// 5//// 82615 91025=
201905060600 AAXX 06064 67413 NIL=
201905020900 AAXX 02094 67413 NIL=

################################################################################
#  SYNOPS from 67441, Mwinilunga (Zambia) | 11-45S | 024-26E | 1361 m
################################################################################
201905290900 AAXX 29094 67441 NIL=
201905270600 AAXX 27064 67441 NIL=
201905231200 AAXX 23124 67441 NIL=
201905220900 AAXX 22094 67441 NIL=
201905210600 AAXX 21064 67441 32980 00000 10150 20141 48///
                   333 10287 2//// 5////=
201905200900 AAXX 20094 67441 42680 51003 10250 20156 48/// 82130
                   333 5//// 82840 85360=
201905200600 AAXX 20064 67441 32980 60000 10180 20163 48/// 86030
                   333 10292 2//// 5//// 86358=
201905170900 AAXX 17094 67441 NIL=
201905161200 AAXX 16124 67441 NIL=
201905160600 AAXX 16064 67441 NIL=
201905150900 AAXX 15094 67441 NIL=
201905150600 AAXX 15064 67441 32980 10000 10170 20161 48551 80001
                   333 10282 2//// 59008 81070=
201905141200 AAXX 14124 67441 NIL=
201905140600 AAXX 14064 67441 32980 30000 10150 20141 48559 83030
                   333 10283 2//// 59004 83359=
201905130900 AAXX 13094 67441 42680 10904 10240 20146 48570 81100
                   333 5//// 81840=
201905130600 AAXX 13064 67441 NIL=
201905101200 AAXX 10124 67441 NIL=
201905100900 AAXX 10094 67441 NIL=
201905080600 AAXX 08064 67441 NIL=
201905060600 AAXX 06064 67441 NIL=
201905020900 AAXX 02094 67441 42680 30000 10265 20153 48578 82101
                   333 5//// 82850 83075=
201905020600 AAXX 02064 67441 32980 20000 10175 20149 48571 80001
                   333 10286 2//// 5//// 82070=

################################################################################
#  SYNOPS from 67461, Mansa (Zambia) | 11-06S | 028-51E | 1382 m
################################################################################
201905300600 AAXX 30064 67461 32980 20803 10161 20131 48533 80001
                   333 10278 20124 59006 82080 91020=
201905290900 AAXX 29094 67461 NIL=
201905290600 AAXX 29064 67461 32980 71202 10175 20145 48540 8703/
                   333 10268 20132 58007 87360 91021=
201905281200 AAXX 28124 67461 42580 40805 10263 20145 48519 83201
                   333 58002 83836 83080 91018=
201905280600 AAXX 28064 67461 32980 11108 10172 20146 48533 81031
                   333 10268 20130 58012 81360 81080 91020=
201905270900 AAXX 27094 67461 42580 31310 10237 20150 48541 82231
                   333 5//// 82820 81360 81080 91021=
201905270600 AAXX 27064 67461 32480 71210 10163 20141 48520 81531
                   333 10260 20130 58002 81612 86360 81080 91019=
201905240600 AAXX 24064 67461 32980 11506 10160 20111 48528 80001
                   333 10278 20109 59002 81080 91020=
201905231200 AAXX 23124 67461 NIL=
201905230600 AAXX 23064 67461 32980 31207 10165 20131 48530 81041
                   333 10283 20128 59013 81360 82080 91020=
201905220900 AAXX 22094 67461 42580 11307 10259 20157 48548 81200
                   333 58001 81830 91021=
201905220600 AAXX 22064 67461 32980 00705 10197 20166 48546
                   333 10288 20147 58011 91021=
201905210600 AAXX 21064 67461 32980 11103 10201 20179 48536 80001
                   333 10284 20153 59006 81080 91020=
201905200900 AAXX 20094 67461 42580 21205 10250 20172 48549 82500
                   333 58006 82620 91021=
201905170900 AAXX 17094 67461 NIL=
201905161200 AAXX 16124 67461 NIL=
201905160600 AAXX 16064 67461 32980 11306 10175 20145 48529 80001
                   333 10280 20126 58010 81080 91020=
201905150900 AAXX 15094 67461 42680 40911 10232 20150 48524 81501
                   333 58006 81635 84080 91019=
201905141200 AAXX 14124 67461 NIL=
201905130900 AAXX 13094 67461 42680 51509 10230 20150 48522 85500
                   333 59024 85630 91019=
201905130600 AAXX 13064 67461 32480 21411 10182 20155 48519 81541
                   333 10269 20139 59016 81616 81360 81080 91019=
201905101200 AAXX 10124 67461 NIL=
201905100900 AAXX 10094 67461 42580 31110 10250 20156 48533 83201
                   333 59003 83830 81080 91020=
201905100600 AAXX 10064 67461 32980 31205 10183 20156 48528 80001
                   333 10276 20128 58001 83080 91020=
201905091200 AAXX 09124 67461 42680 11005 10269 20139 48514 81200
                   333 59021 81843 91017=
201905080600 AAXX 08064 67461 32480 11308 10187 20150 48549 81501
                   333 10278 20134 58010 81616 81080 91022=
201905060900 AAXX 06094 67461 42680 51309 10250 20165 48534 85800
                   333 59006 84636 81840 81080 91020=
201905060600 AAXX 06064 67461 32580 31308 10202 20172 48529 81501
                   333 10285 20152 58010 81620 82080 91020=
201905030900 AAXX 03094 67461 42680 51210 10260 20168 48522 85500
                   333 59037 85638 91018=
201905020900 AAXX 02094 67461 42580 41108 10250 20175 48558 84200
                   333 58013 84835 91023=
201905020600 AAXX 02064 67461 32580 11110 10205 20170 48551 81500
                   333 10277 20194 58010 81620 91022=

################################################################################
#  SYNOPS from 67469, Samfya (Zambia) | 11-22S | 029-54E | 1171 m
################################################################################
201905300600 AAXX 30064 67469 32980 11209 10205 20150 48/// 81031
                   333 10252 20170 5//// 81360 81080=
201905290900 AAXX 29094 67469 NIL=
201905280600 AAXX 28064 67469 32480 21410 10195 20150 48/// 82100
                   333 10243 20171 5//// 82813=
201905270600 AAXX 27064 67469 32480 41509 10182 20150 48/// 82480
                   333 10258 20160 5//// 82613 86830=
201905240600 AAXX 24064 67469 42980 50904 10246 20130 48/// 80008
                   333 10//0 20//0 5//// 85280=
201905231200 AAXX 23124 67469 42980 50904 10246 20130 48/// 80008
                   333 5//// 85280=
201905220900 AAXX 22094 67469 42580 10910 10245 20170 48/// 81100
                   333 5//// 81826=
201905220600 AAXX 22064 67469 32980 01004 10218 20160 48///
                   333 10265 20193 5////=
201905211200 AAXX 21124 67469 42680 30704 10260 20190 48/// 83100
                   333 5//// 83830=
201905200900 AAXX 20094 67469 42580 10907 10248 20170 48/// 81101
                   333 5//// 81824 81080=
201905200600 AAXX 20064 67469 32980 11008 10215 20170 48/// 81501
                   333 10251 20183 5//// 81613 81080=
201905170900 AAXX 17094 67469 NIL=
201905161200 AAXX 16124 67469 NIL=
201905160600 AAXX 16064 67469 32480 51306 10203 20160 48/// 82532
                   333 10245 20180 5//// 85618 82360 81080=
201905150900 AAXX 15094 67469 NIL=
201905141200 AAXX 14124 67469 NIL=
201905140600 AAXX 14064 67469 32980 30501 10230 20090 48/// 81032
                   333 10293 20202 5//// 81360 83080=
201905130900 AAXX 13094 67469 NIL=
201905130600 AAXX 13064 67469 32480 51306 10203 20160 48/// 82532
                   333 10257 20182 5//// 85618 82360 81080=
201905101200 AAXX 10124 67469 NIL=
201905100900 AAXX 10094 67469 42580 30913 10244 20170 48/// 82102
                   333 5//// 82824 83080=
201905100600 AAXX 10064 67469 32980 50913 10210 20160 48/// 80008
                   333 10257 20183 5//// 85280=
201905091200 AAXX 09124 67469 42980 01004 10256 20170 48///
                   333 5////=
201905081200 AAXX 08124 67469 42980 11010 10232 20160 48/// 80001
                   333 5//// 81080=
201905080900 AAXX 08094 67469 42580 51216 10228 20160 48/// 85100
                   333 5//// 85825=
201905080600 AAXX 08064 67469 32480 20918 10204 20150 48/// 82100
                   333 10263 20185 5//// 82818=
201905060900 AAXX 06094 67469 42580 51018 10253 20190 48/// 85102
                   333 5//// 85820 82080=
201905060600 AAXX 06064 67469 32980 50918 10224 20180 48/// 82108
                   333 10282 20201 5//// 82818 85280=
201905020900 AAXX 02094 67469 NIL=
201905020600 AAXX 02064 67469 32480 61405 10207 20160 48/// 86100
                   333 10264 20190 5//// 86313=

################################################################################
#  SYNOPS from 67475, Kasama (Zambia) | 10-13S | 031-08E | 1382 m
################################################################################
201905300600 AAXX 30064 67475 32960 40903 10190 20132 48538 80001
                   333 10278 20120 59010 84280 91022=
201905291200 AAXX 29124 67475 42660 61209 10244 20151 48521 85208
                   333 58004 85835 86280 91020=
201905290900 AAXX 29094 67475 42560 41008 10241 20136 48550 83238
                   333 58006 82825 83360 84280 91023=
201905290600 AAXX 29064 67475 32960 70905 10196 20134 48548 84038
                   333 10276 20133 58005 84360 86280 91023=
201905281200 AAXX 28124 67475 42660 71003 10253 20135 48518 85208
                   333 58001 85840 87280 91019=
201905280900 AAXX 28094 67475 42560 50908 10233 20132 48543 83108
                   333 59002 83830 85280 91022=
201905280600 AAXX 28064 67475 32960 41007 10189 20136 48543 82038
                   333 10260 20133 59003 82360 84280 91022=
201905270600 AAXX 27064 67475 NIL=
201905240600 AAXX 24064 67475 32960 61410 10177 20122 48555 80008
                   333 10282 20112 58013 86280 91024=
201905231200 AAXX 23124 67475 NIL=
201905230600 AAXX 23064 67475 32960 01711 10189 20132 48548
                   333 10282 20138 58005 91023=
201905220900 AAXX 22094 67475 42460 11217 10250 20135 48544 81500
                   333 59001 81614 91022=
201905220600 AAXX 22064 67475 32360 20910 10199 20156 48544 82600
                   333 10288 20136 59001 82709 91022=
201905210600 AAXX 21064 67475 32960 00911 10198 20157 48545
                   333 10282 20142 59004 91023=
201905200900 AAXX 20094 67475 42560 40802 10258 20153 48546 83100
                   333 58009 83825 91022=
201905170900 AAXX 17094 67475 NIL=
201905161200 AAXX 16124 67475 NIL=
201905160600 AAXX 16064 67475 32960 10711 10194 20140 48547 80001
                   333 10272 20123 58001 81080 91023=
201905150900 AAXX 15094 67475 NIL=
201905141200 AAXX 14124 67475 NIL=
201905140600 AAXX 14064 67475 32960 40503 10185 20137 48535 80001
                   333 10272 20130 59009 84280=
201905130900 AAXX 13094 67475 42560 31010 10241 20146 48538 83101
                   333 59002 83820 82080 91020=
201905130600 AAXX 13064 67475 32360 41011 10179 20139 48543 69904 82604
                   333 10264 20149 58000 82708 83080 91022=
201905101200 AAXX 10124 67475 NIL=
201905100900 AAXX 10094 67475 42460 41016 10248 20148 48535 84200
                   333 58003 84818 91021=
201905100600 AAXX 10064 67475 32480 21109 10192 20150 48536 82600
                   333 10280 20149 58002 82710 91022=
201905081200 AAXX 08124 67475 42660 30905 10260 20112 48535 82100
                   333 59007 82835 91021=
201905080600 AAXX 08064 67475 32460 40905 10171 20139 48548 84500
                   333 10278 20126 59016 84610 91023=
201905060900 AAXX 06094 67475 42560 61813 10240 20160 48554 85201
                   333 58012 85820 83080 91023=
201905060600 AAXX 06064 67475 32460 51011 10196 20166 48552 83508
                   333 10282 20159 58005 83612 85280 91023=
201905030900 AAXX 03094 67475 42560 41208 10268 20148 48549 84200
                   333 59008 84825 91023=
201905020900 AAXX 02094 67475 NIL=
201905020600 AAXX 02064 67475 32460 41206 10204 20165 48558 83530
                   333 10289 2//// 58012 83615 81360 91024=

################################################################################
#  SYNOPS from 67476, Misamfu (Zambia) | 10-06S | 031-15E | 1536 m
################################################################################
201905300900 AAXX 30094 67476 42680 11208 10241 20128 48/// 81101
                   333 59009 81837 81080=
201905300600 AAXX 30064 67476 32980 30905 10185 20142 48/// 80001
                   333 10269 20092 59010 83080=
201905291200 AAXX 29124 67476 42680 61310 10261 20130 48/// 71522 85231
                   333 58006 85848 81360 81080=
201905290900 AAXX 29094 67476 42680 21308 10242 20140 48/// 81231
                   333 58007 81835 81360 81080=
201905290600 AAXX 29064 67476 32980 21004 10176 20148 48/// 82051
                   333 10273 20094 58006 82360 81080=
201905281200 AAXX 28124 67476 42780 50805 10264 20144 48/// 85201
                   333 59002 85850 81080=
201905280900 AAXX 28094 67476 42680 31307 10241 20140 48/// 83130
                   333 58005 83835 81360=
201905280600 AAXX 28064 67476 32980 11206 10168 20150 48/// 81031
                   333 10255 20082 58003 81360 81080=
201905270900 AAXX 27094 67476 42680 61208 10210 20142 48/// 865//
                   333 5//// 86633=
201905270600 AAXX 27064 67476 32580 81605 10170 20140 48/// 885//
                   333 10257 20104 5//// 88620=
201905240600 AAXX 24064 67476 32980 21605 10172 20130 48/// 81051
                   333 10273 20080 58009 81360 82080=
201905231200 AAXX 23124 67476 NIL=
201905230600 AAXX 23064 67476 32980 11206 10180 20136 48/// 80001
                   333 10276 20087 58004 81080=
201905221200 AAXX 22124 67476 42780 21308 10270 20136 48/// 82100
                   333 58002 82850=
201905220900 AAXX 22094 67476 42680 10909 10255 20139 48/// 81100
                   333 59004 81835=
201905220600 AAXX 22064 67476 32580 10907 10187 20160 48/// 81100
                   333 10290 20102 59001 81820=
201905200900 AAXX 20094 67476 NIL=
201905170900 AAXX 17094 67476 42680 30708 10251 20163 48/// 83101
                   333 59006 83835 81080=
201905161200 AAXX 16124 67476 NIL=
201905160600 AAXX 16064 67476 32980 10905 10181 20150 48/// 81031
                   333 10280 20090 58000 81360 81080=
201905150900 AAXX 15094 67476 42680 31206 10236 20147 48/// 81101
                   333 58008 81838 83080=
201905141200 AAXX 14124 67476 42680 70905 10245 20152 48/// 871//
                   333 59001 87846=
201905140600 AAXX 14064 67476 32980 41206 10181 20143 48/// 80001
                   333 10265 20092 59009 84080=
201905131200 AAXX 13124 67476 42780 41409 10256 20151 48/// 84101
                   333 5//// 84850 81080=
201905130900 AAXX 13094 67476 NIL=
201905130600 AAXX 13064 67476 12580 21206 10183 20145 48/// 69904 81101
                   333 10250 20127 5//// 81820 82080=
201905101200 AAXX 10124 67476 NIL=
201905100900 AAXX 10094 67476 42680 21211 10240 20152 48/// 82101
                   333 58004 82835 81080=
201905100600 AAXX 10064 67476 32580 10907 10191 20154 48/// 81101
                   333 10274 20109 58003 81820 81080=
201905091200 AAXX 09124 67476 42780 11907 10265 20131 48/// 81100
                   333 59025=
201905090600 AAXX 09064 67476 32580 11806 10174 20145 48/// 81100
                   333 10264 20081 5//// 81820=
201905080900 AAXX 08094 67476 42680 21807 10234 20139 48/// 82101
                   333 5//// 82837 81080=
201905080600 AAXX 08064 67476 NIL=
201905060600 AAXX 06064 67476 NIL=
201905030600 AAXX 03064 67476 32580 11206 10206 20172 48/// 81100
                   333 10272 20121 59009 81820=
201905020900 AAXX 02094 67476 NIL=
201905020600 AAXX 02064 67476 32580 20906 10191 20167 48/// 81170
                   333 10279 20118 58011 81820 82360=

################################################################################
#  SYNOPS from 67477, Mpika (Zambia) | 11-54S | 031-26E | 1400 m
################################################################################
201905300900 AAXX 30094 67477 42580 31204 10216 20140 48550 83101
                   333 59002 83820 81080=
201905300600 AAXX 30064 67477 32480 21203 10176 20130 48550 82500
                   333 10263 20136 59008 82612
                   555 00128=
201905291200 AAXX 29124 67477 42680 20905 10240 20140 48530 81131
                   333 58006 81830 81363 81080=
201905290900 AAXX 29094 67477 42980 71202 10206 20140 48557 87030
                   333 58014 87361=
201905290600 AAXX 29064 67477 32980 10903 10172 20130 48556 80001
                   333 10253 20131 5//// 81080
                   555 00121=
201905281200 AAXX 28124 67477 42680 20905 10236 20140 48524 81131
                   333 58000 81830 81363 81080=
201905280900 AAXX 28094 67477 42580 21204 10206 20150 48545 82101
                   333 59006 82820 82080=
201905280600 AAXX 28064 67477 32480 41204 10172 20130 48/// 83501
                   333 10242 20140 5//// 83612 82080
                   555 00143=
201905270900 AAXX 27094 67477 42580 31201 10213 20110 48552 81131
                   333 59003 81820 82361 82080=
201905270600 AAXX 27064 67477 32480 70000 10169 20130 48550 82570
                   333 10231 20137 59006 82612 86459
                   555 00130=
201905240600 AAXX 24064 67477 32980 21212 10164 20100 48562 80001
                   333 10240 20120 58005 82080=
201905231200 AAXX 23124 67477 42980 10905 10234 20121 48537 80001
                   333 59004 81080=
201905230600 AAXX 23064 67477 32980 01213 10161 20080 48558
                   333 10258 20112 58014
                   555 00104=
201905220900 AAXX 22094 67477 NIL=
201905220600 AAXX 22064 67477 32580 21513 10172 20150 48545 82500
                   333 10268 20150 58001 82616
                   555 00146=
201905200900 AAXX 20094 67477 NIL=
201905170900 AAXX 17094 67477 42580 10902 10247 20130 48549 81101
                   333 5//// 81822 81080=
201905161200 AAXX 16124 67477 NIL=
201905160600 AAXX 16064 67477 32980 01204 10183 20120 48554
                   333 10243 20137 58001
                   555 00126=
201905150900 AAXX 15094 67477 42580 21203 10217 20110 48553 82100
                   333 58006 82822=
201905141200 AAXX 14124 67477 42980 20000 10234 20100 48525 80001
                   333 59005 82080=
201905140900 AAXX 14094 67477 42980 11201 10223 20110 48547 80001
                   333 59001 81080=
201905130900 AAXX 13094 67477 42580 20904 10213 20140 48545 81101
                   333 59009 81820 82080=
201905130600 AAXX 13064 67477 32480 10906 10178 20140 48553 81500
                   333 10241 20146 58000 81612
                   555 00139=
201905101200 AAXX 10124 67477 42680 31503 10253 20163 48529 83800
                   333 58006 81836 82640=
201905100900 AAXX 10094 67477 42680 31210 10233 20149 48543 83500
                   333 58002 83632=
201905100600 AAXX 10064 67477 32480 20913 10196 20150 48536 82500
                   333 10250 20143 58005 82616
                   555 00140=
201905091200 AAXX 09124 67477 42680 11802 10245 20150 48522 81100
                   333 59021 81841=
201905081200 AAXX 08124 67477 42680 10904 10230 20140 48543 81100
                   333 59012 81835=
201905080900 AAXX 08094 67477 42580 50905 10208 20139 48570 85500
                   333 59007 85626=
201905080600 AAXX 08064 67477 32480 71209 10164 20135 48558 87500
                   333 10252 20142 59016 87611
                   555 00130=
201905060600 AAXX 06064 67477 12480 50804 10195 20167 48560 69904 85500
                   333 10266 20143 58002 85614
                   555 00138=
201905030900 AAXX 03094 67477 42580 40903 10234 20160 48554 84101
                   333 59007 84820 81080=
201905020900 AAXX 02094 67477 42580 40903 10241 20180 48565 84101
                   333 58009 84820 81080=
201905020600 AAXX 02064 67477 32480 61202 10189 20160 48563 86500
                   333 10261 20151 58011 86612
                   555 00152=

################################################################################
#  SYNOPS from 67481, Isoka (Zambia) | 10-07S | 032-38E | 1360 m
################################################################################
201905310600 AAXX 31064 67481 32480 83004 10170 20135 48/// 885//
                   333 10242 20136 5//// 88610=
201905300600 AAXX 30064 67481 32480 23006 10188 20142 48/// 82100
                   333 10262 20140 5//// 82810=
201905290900 AAXX 29094 67481 42580 33006 10225 20153 48/// 83131
                   333 5//// 83820 81360 81080=
201905290600 AAXX 29064 67481 32480 23002 10190 20143 48/// 81101
                   333 10262 20132 5//// 81810 82080=
201905280600 AAXX 28064 67481 32980 23002 10187 20151 48/// 82030
                   333 10242 20158 5//// 82360=
201905270600 AAXX 27064 67481 32480 51003 10184 20156 48/// 85500
                   333 10245 20150 5//// 85610=
201905231200 AAXX 23124 67481 NIL=
201905230600 AAXX 23064 67481 32480 13004 10188 20142 48/// 81500
                   333 10275 20150 5//// 81610=
201905220900 AAXX 22094 67481 NIL=
201905220600 AAXX 22064 67481 32480 12702 10200 20161 48/// 81100
                   333 10285 20135 5//// 81810=
201905210600 AAXX 21064 67481 32480 12702 10198 20170 48/// 81100
                   333 10280 20150 5//// 81810=
201905200900 AAXX 20094 67481 42580 23003 10242 20158 48/// 82101
                   333 5//// 82825 81080=
201905200600 AAXX 20064 67481 32480 23002 10210 20160 48/// 81101
                   333 10290 20150 5//// 81810 82080=
201905170900 AAXX 17094 67481 NIL=
201905170600 AAXX 17064 67481 32480 13002 10218 20166 48/// 81131
                   333 10270 20150 5//// 81810 81360 81080=
201905161200 AAXX 16124 67481 NIL=
201905160600 AAXX 16064 67481 32480 23006 10190 20158 48/// 81530
                   333 10252 20148 5//// 81610 81360=
201905150900 AAXX 15094 67481 NIL=
201905150600 AAXX 15064 67481 32480 73005 10180 20148 48/// 875//
                   333 10238 20150 5//// 87610=
201905141200 AAXX 14124 67481 NIL=
201905140600 AAXX 14064 67481 32480 70304 10178 20148 48/// 875//
                   333 10242 20151 5//// 87610=
201905130900 AAXX 13094 67481 42580 50906 10216 20143 48/// 85500
                   333 5//// 85620=
201905130600 AAXX 13064 67481 32480 52505 10180 20152 48/// 85500
                   333 10253 20165 5//// 85610=
201905101200 AAXX 10124 67481 NIL=
201905100900 AAXX 10094 67481 NIL=
201905100600 AAXX 10064 67481 32480 23003 10192 20166 48/// 81130
                   333 10265 20148 5//// 81810 82360=
201905091200 AAXX 09124 67481 42680 33003 10254 20146 48/// 83100
                   333 5//// 83830=
201905090600 AAXX 09064 67481 32480 12103 10184 20148 48/// 81100
                   333 10250 20128 5//// 81810=
201905080900 AAXX 08094 67481 42580 33002 10215 20158 48/// 83100
                   333 5//// 83820=
201905080600 AAXX 08064 67481 32480 73005 10170 20150 48/// 875//
                   333 10270 20150 5//// 87610=
201905060600 AAXX 06064 67481 12480 60303 10195 20182 48/// 60014 81530
                   333 10278 20112 5//// 81610 86360=
201905030900 AAXX 03094 67481 42580 53003 10245 20173 48/// 85100
                   333 5//// 85820=
201905030600 AAXX 03064 67481 32480 30303 10210 20176 48/// 835//
                   333 10272 20152 5//// 83610=
201905020900 AAXX 02094 67481 42580 63006 10246 20165 48/// 86200
                   333 5//// 83820=
201905020600 AAXX 02064 67481 32480 33003 10210 20207 48/// 83500
                   333 10270 20142 5//// 83610=

################################################################################
#  SYNOPS from 67531, Zambezi (Zambia) | 13-32S | 023-07E | 1077 m
################################################################################
201905310600 AAXX 31064 67531 32980 00903 10150 20098 48///
                   333 10284 20089 58001
                   555 00081=
201905300600 AAXX 30064 67531 32980 00908 10176 20111 48///
                   333 10301 20122 59004
                   555 00102=
201905290900 AAXX 29094 67531 42980 20708 10252 20134 48/// 80001
                   333 58005 82081=
201905290600 AAXX 29064 67531 32980 21006 10147 20119 48/// 80001
                   333 10301 20086 58006 82080
                   555 00089=
201905280900 AAXX 28094 67531 42980 11208 10243 20132 48/// 80001
                   333 59001 81081=
201905270900 AAXX 27094 67531 42980 21010 10241 20133 48/// 82030
                   333 59008 82362=
201905270600 AAXX 27064 67531 32980 40909 10172 20126 48/// 84030
                   333 10262 20096 59008 84361
                   555 00092=
201905240600 AAXX 24064 67531 32980 10908 10165 20076 48/// 80001
                   333 10300 20105 58016 80001=
201905231200 AAXX 23124 67531 NIL=
201905220900 AAXX 22094 67531 NIL=
201905200900 AAXX 20094 67531 42980 01207 10273 20174 48///
                   333 58005=
201905170900 AAXX 17094 67531 42980 00802 10256 20140 48///
                   333 59003=
201905161200 AAXX 16124 67531 NIL=
201905160600 AAXX 16064 67531 32980 11103 10168 20122 48/// 81031
                   333 10306 20101 58009 81363 81081
                   555 00091=
201905150900 AAXX 15094 67531 42980 11209 10256 20127 48/// 80001
                   333 58005 81081=
201905141200 AAXX 14124 67531 NIL=
201905130900 AAXX 13094 67531 42980 01008 10270 20158 48///
                   333 59008=
201905130600 AAXX 13064 67531 32980 20909 10191 20151 48/// 82030
                   333 10289 20152 59008 82362
                   555 00142=
201905101200 AAXX 10124 67531 NIL=
201905100900 AAXX 10094 67531 42980 11107 10255 20220 48/// 80001
                   333 59006 81081=
201905100600 AAXX 10064 67531 32980 00903 10160 20100 48///
                   333 10306 20082 59004
                   555 00063=
201905080600 AAXX 08064 67531 32980 10806 10181 20147 48/// 80001
                   333 10312 20122 59008 81080
                   555 00110=
201905060600 AAXX 06064 67531 32980 10907 10203 20160 48/// 80001
                   333 10296 20159 58009 81080
                   555 00152=
201905030900 AAXX 03094 67531 42980 00904 10270 20158 48///
                   333 59007=
201905020900 AAXX 02094 67531 42980 10707 10270 20151 48/// 81030
                   333 5//// 81363=
201905020600 AAXX 02064 67531 32980 10904 10190 20138 48/// 81030
                   333 10306 20122 58008 81363=

################################################################################
#  SYNOPS from 67541, Kasempa (Zambia) | 13-32S | 025-51E | 1234 m
################################################################################
201905290900 AAXX 29094 67541 NIL=
201905280900 AAXX 28094 67541 42980 50000 10250 20137 48/// 85030
                   333 5//// 85360=
201905280600 AAXX 28064 67541 32980 50000 10170 20110 48/// 82033
                   333 10282 20110 5//// 82360 83080=
201905270900 AAXX 27094 67541 42980 10705 10235 20129 48/// 80001
                   333 5//// 81080=
201905270600 AAXX 27064 67541 32980 20000 10160 20125 48/// 82030
                   333 10278 20108 5//// 82360=
201905240600 AAXX 24064 67541 32980 40000 10160 20096 48/// 80004
                   333 10292 20092 5//// 84080=
201905231200 AAXX 23124 67541 NIL=
201905230600 AAXX 23064 67541 32980 20704 10190 20079 48/// 80002
                   333 10302 20136 5//// 82080=
201905220900 AAXX 22094 67541 42980 50604 10260 20140 48/// 85030
                   333 5//// 85360=
201905220600 AAXX 22064 67541 32980 10000 10175 20143 48/// 80001
                   333 10300 20104 5//// 81080=
201905200900 AAXX 20094 67541 42980 10702 10270 20169 48/// 81030
                   333 5//// 81360=
201905170900 AAXX 17094 67541 42980 10000 10260 20159 48/// 80001
                   333 5//// 81080=
201905161200 AAXX 16124 67541 NIL=
201905160600 AAXX 16064 67541 32980 20000 10165 20126 48/// 80002
                   333 10284 20070 5//// 82080=
201905150900 AAXX 15094 67541 42680 60605 10247 20133 48/// 80006
                   333 5//// 86080=
201905141200 AAXX 14124 67541 NIL=
201905130900 AAXX 13094 67541 42980 20604 10253 20155 48/// 80002
                   333 5//// 82080=
201905130600 AAXX 13064 67541 32980 20000 10180 20148 48/// 80002
                   333 10278 20140 5//// 82080=
201905101200 AAXX 10124 67541 NIL=
201905100900 AAXX 10094 67541 42980 10704 10260 20140 48/// 80001
                   333 5//// 81080=
201905100600 AAXX 10064 67541 32980 10000 10170 20118 48/// 80001
                   333 10300 20064 5//// 81080=
201905091200 AAXX 09124 67541 42980 00000 10290 20106 48///
                   333 5////=
201905081200 AAXX 08124 67541 42980 10000 10280 20136 48/// 80001
                   333 5//// 81080=
201905080900 AAXX 08094 67541 42980 10704 10250 20116 48/// 80001
                   333 5//// 81080=
201905080600 AAXX 08064 67541 32980 10000 10195 20137 48/// 80001
                   333 10292 20100 5//// 81080=
201905060900 AAXX 06094 67541 42980 10604 10270 20180 48/// 80001
                   333 5//// 81080=
201905060600 AAXX 06064 67541 32980 10603 10215 20176 48/// 80001
                   333 10302 20150 5//// 81080=
201905030900 AAXX 03094 67541 42980 10000 10265 20165 48/// 80001
                   333 5//// 81080=
201905020900 AAXX 02094 67541 42980 10000 10270 20162 48/// 81030
                   333 5//// 81360=
201905020600 AAXX 02064 67541 32980 10000 10190 20149 48/// 81030
                   333 10290 20106 5//// 81360=

################################################################################
#  SYNOPS from 67543, Kabompo (Zambia) | 13-36S | 024-12E | 1075 m
################################################################################
201905290900 AAXX 29094 67543 NIL=
201905270600 AAXX 27064 67543 NIL=
201905231200 AAXX 23124 67543 NIL=
201905220900 AAXX 22094 67543 NIL=
201905200900 AAXX 20094 67543 NIL=
201905170900 AAXX 17094 67543 NIL=
201905161200 AAXX 16124 67543 NIL=
201905160600 AAXX 16064 67543 NIL=
201905150900 AAXX 15094 67543 NIL=
201905141200 AAXX 14124 67543 NIL=
201905130900 AAXX 13094 67543 NIL=
201905130600 AAXX 13064 67543 NIL=
201905101200 AAXX 10124 67543 NIL=
201905100900 AAXX 10094 67543 NIL=
201905080600 AAXX 08064 67543 NIL=
201905060600 AAXX 06064 67543 NIL=
201905020900 AAXX 02094 67543 NIL=

################################################################################
#  SYNOPS from 67551, Solwezi (Zambia) | 12-11S | 026-23E | 1386 m
################################################################################
201905290900 AAXX 29094 67551 NIL=
201905290600 AAXX 29064 67551 32980 21504 10158 20122 48549 82031
                   333 10236 20110 58005 82362 81080 91022=
201905280600 AAXX 28064 67551 32975 30904 10154 20123 48538 83030
                   333 10231 20121 58001 83362 91021=
201905270600 AAXX 27064 67551 32980 60806 10152 20124 48536 81032
                   333 10253 20124 58001 81362 86280 91021=
201905240600 AAXX 24064 67551 32980 41205 10136 20076 48552 83031
                   333 10256 20106 58012 83362 81080 91024=
201905231200 AAXX 23124 67551 NIL=
201905230600 AAXX 23064 67551 32980 51006 10147 20125 48541 83031
                   333 10271 20136 59001 83362 81080 91022=
201905220900 AAXX 22094 67551 NIL=
201905210600 AAXX 21064 67551 32975 11006 10185 20153 48538 81030
                   333 10271 20138 59009 81362 91021=
201905200900 AAXX 20094 67551 42480 51506 10254 20163 48541 82530
                   333 58001 82615 82820 85362 91022=
201905170900 AAXX 17094 67551 NIL=
201905170600 AAXX 17064 67551 32970 00904 10159 20124 48533
                   333 10272 20098 59011 91021=
201905161200 AAXX 16124 67551 NIL=
201905160600 AAXX 16064 67551 NIL=
201905150900 AAXX 15094 67551 NIL=
201905150600 AAXX 15064 67551 32975 21005 10156 20106 48550 80001
                   333 10272 20090 58007 82080 91022=
201905141200 AAXX 14124 67551 42980 01805 10264 20116 48514
                   333 59002 91018=
201905140900 AAXX 14094 67551 42980 01805 10234 20125 48536
                   333 59002 91021=
201905130900 AAXX 13094 67551 42580 31605 10245 20141 48539 83230
                   333 59007 83820 81360 91022=
201905130600 AAXX 13064 67551 32980 11805 10165 20140 48537 81030
                   333 10284 20140 59003 81360 91022=
201905101200 AAXX 10124 67551 NIL=
201905100900 AAXX 10094 67551 NIL=
201905100600 AAXX 10064 67551 32975 10906 10166 20121 48532 80001
                   333 10275 20112 59004 81080 91021=
201905081200 AAXX 08124 67551 42980 10905 10275 20098 48531 80001
                   333 59008 81080 91020=
201905080600 AAXX 08064 67551 NIL=
201905060600 AAXX 06064 67551 32980 01206 10180 20153 48545
                   333 10292 20145 59001 91022=
201905020900 AAXX 02094 67551 NIL=
201905020600 AAXX 02064 67551 32680 10903 10171 20143 48549 81200
                   333 10282 20124 58007 81840 91023=

################################################################################
#  SYNOPS from 67561, Ndola (Zambia) | 13-00S | 028-39E | 1269 m
################################################################################
201905310600 AAXX 31064 67561 31960 00000 10144 20095 48541 70500
                   333 10270 20092 58001 91022=
201905301200 AAXX 30124 67561 41770 39904 10266 20080 48528 70500 81102
                   333 59004 81856 83080 91020=
201905300900 AAXX 30094 67561 41970 00804 10240 20070 48548 70500
                   333 59005 91022=
201905300600 AAXX 30064 67561 31959 10000 10150 20100 48542 70400 80001
                   333 10266 20106 59005 81080 91022=
201905290900 AAXX 29094 67561 NIL=
201905290600 AAXX 29064 67561 31958 30000 10155 20113 48547 70411 83030
                   333 10270 20111 58004 83360 91023=
201905280900 AAXX 28094 67561 41960 61805 10235 20117 48548 70500 80008
                   333 58001 86280 91022=
201905280600 AAXX 28064 67561 31960 60000 10154 20116 48542 70500 84038
                   333 10259 20115 58007 84360 86280 91022=
201905270600 AAXX 27064 67561 31959 30000 10155 20122 48536 70400 80002
                   333 10251 59008 91022=
201905231200 AAXX 23124 67561 NIL=
201905230600 AAXX 23064 67561 31959 30000 10145 20069 48551 70400 80002
                   333 10278 20102 58016 83080 91023=
201905220900 AAXX 22094 67561 NIL=
201905220600 AAXX 22064 67561 31959 00805 10179 20130 48540 70400
                   333 10290 20139 58001 91022=
201905210600 AAXX 21064 67561 11959 30404 10179 20149 48540 60014 70422 83030
                   333 10286 20145 59008 83360 91022=
201905200900 AAXX 20094 67561 41670 30805 10261 20152 48556 70500 83230
                   333 58005 83835 81360 91023=
201905200600 AAXX 20064 67561 32959 39904 10184 20162 48548 72944 83030
                   333 10273 20158 58013 83360 91023=
201905170900 AAXX 17094 67561 NIL=
201905170600 AAXX 17064 67561 31959 09904 10166 20130 48538 70400
                   333 10287 20145 59006 91022=
201905161200 AAXX 16124 67561 NIL=
201905160600 AAXX 16064 67561 31959 10303 10171 20124 48544 70400 80001
                   333 10281 20109 59004 81080 91022=
201905150900 AAXX 15094 67561 41970 31206 10237 20118 70500 80002
                   333 58007 83080 91023=
201905141200 AAXX 14124 67561 NIL=
201905140600 AAXX 14064 67561 31958 10000 10168 20133 48510 70400
                   333 10280 20110 59006 81360 91022=
201905130900 AAXX 13094 67561 NIL=
201905130600 AAXX 13064 67561 31960 09904 10178 20142 48522 72840
                   333 10281 20130 59009 91022=
201905101200 AAXX 10124 67561 41670 61212 10274 20127 48524 70522 86202
                   333 58004 86845 83080 91019=
201905100900 AAXX 10094 67561 NIL=
201905100600 AAXX 10064 67561 31959 61010 10189 20121 48537 70422 80008
                   333 10283 20131 58000 86280 91021=
201905081200 AAXX 08124 67561 41960 31305 10280 20080 48542 70522 80002
                   333 59012 83080 91021=
201905080900 AAXX 08094 67561 41960 41205 10236 20106 48547 70500 80002
                   333 59002 84080 91024=
201905080600 AAXX 08064 67561 31960 09904 10160 20118 48527 70500
                   333 10286 20100 59005 91024=
201905060600 AAXX 06064 67561 41560 11206 10205 20166 48556 70500 81130
                   333 10296 20156 58006 81820 81360 91023=
201905030600 AAXX 03064 67561 31959 00907 10172 20146 48541 70400
                   333 10281 20132 59015 91022=
201905020900 AAXX 02094 67561 NIL=
201905020600 AAXX 02064 67561 31960 59903 10192 20153 48557 70522 85030
                   333 10278 20140 58012 85360 91024=

################################################################################
#  SYNOPS from 67563, Kafironda (Zambia) | 12-36S | 028-07E | 1243 m
################################################################################
201905310600 AAXX 31064 67563 31970 02102 10135 20088 48/// 70500
                   333 10282 20050 58003
                   555 00040=
201905300600 AAXX 30064 67563 31970 00000 10145 20119 48/// 70500
                   333 10280 20065 59002
                   555 00060=
201905290900 AAXX 29094 67563 NIL=
201905290600 AAXX 29064 67563 31970 11202 10155 20114 48/// 70500 81030
                   333 10280 20085 58002 81360
                   555 00076=
201905280600 AAXX 28064 67563 31970 61502 10160 20126 48/// 70522 86038
                   333 10271 20089 59003 81360 85270
                   555 00082=
201905270600 AAXX 27064 67563 31970 11702 10158 20130 48/// 70500 81030
                   333 10260 20094 58005 81360
                   555 00087=
201905231200 AAXX 23124 67563 NIL=
201905220900 AAXX 22094 67563 NIL=
201905200900 AAXX 20094 67563 NIL=
201905200600 AAXX 20064 67563 11904 10000 10140 20140 48/// 69904 74444 81030
                   333 10264 20123 58007 81360
                   555 00120=
201905170900 AAXX 17094 67563 NIL=
201905170600 AAXX 17064 67563 31970 10401 10160 20135 48/// 70500 81030
                   333 10295 20090 59010 81362
                   555 00085=
201905161200 AAXX 16124 67563 NIL=
201905160600 AAXX 16064 67563 31970 10000 10145 20128 48/// 70500 80006
                   333 10280 20075 59001 81080
                   555 00055=
201905150900 AAXX 15094 67563 NIL=
201905141200 AAXX 14124 67563 NIL=
201905140600 AAXX 14064 67563 31970 00000 10165 20140 48/// 70500
                   333 10200 20086 59005
                   555 00082=
201905130900 AAXX 13094 67563 NIL=
201905130600 AAXX 13064 67563 31970 10902 10191 20160 48/// 70500 81030
                   333 10282 20103 59004 81360
                   555 00096=
201905101200 AAXX 10124 67563 NIL=
201905100900 AAXX 10094 67563 NIL=
201905100600 AAXX 10064 67563 31970 31303 10184 20150 48/// 70500 80001
                   333 10290 20087 58001 83080
                   555 00080=
201905080600 AAXX 08064 67563 31970 01003 10186 20130 48/// 70500
                   333 10290 20092 58003
                   555 00078=
201905060600 AAXX 06064 67563 31970 01401 10211 20170 48/// 70500
                   333 10297 20136 58005
                   555 00130=
201905030600 AAXX 03064 67563 31960 00602 10196 20170 48/// 72840
                   333 10293 20107 59009
                   555 00102=
201905020900 AAXX 02094 67563 NIL=
201905020600 AAXX 02064 67563 31450 20901 10190 20160 48/// 72840 82600
                   333 10290 20120 58008 82712
                   555 00113=

################################################################################
#  SYNOPS from 67571, Serenje (Zambia) | 13-14S | 030-13E | 1384 m
################################################################################
201905310600 AAXX 31064 67571 32980 00910 10153 20073 48/// 70500
                   333 10231 20114 5////=
201905300600 AAXX 30064 67571 32980 01208 10171 20100 48///
                   333 10239 20131 5////=
201905291200 AAXX 29124 67571 42680 41215 10228 20113 48/// 84230
                   333 5//// 84845 81360=
201905290900 AAXX 29094 67571 42680 10610 10208 20118 48/// 81100
                   333 5//// 81830=
201905290600 AAXX 29064 67571 32980 60604 10166 20097 48/// 70522 81038
                   333 10240 20121 5//// 81360 86280=
201905281200 AAXX 28124 67571 42682 70903 10220 20121 48/// 82108
                   333 5//// 82808=
201905280900 AAXX 28094 67571 42582 41203 10210 20119 48/// 81101
                   333 5//// 81823 84080=
201905280600 AAXX 28064 67571 32480 60903 10168 20116 48/// 81538
                   333 10236 20141 5//// 81615 81360 86280=
201905270900 AAXX 27094 67571 42482 70904 10190 20116 48/// 81508
                   333 5//// 81619 87280=
201905270600 AAXX 27064 67571 32482 70906 10154 20119 48/// 83508
                   333 10206 20126 5//// 83618 86280=
201905240600 AAXX 24064 67571 32982 11207 10155 20085 48/// 80001
                   333 10231 20122 5//// 81081=
201905231200 AAXX 23124 67571 42982 01206 10223 20071 48///
                   333 5////=
201905230600 AAXX 23064 67571 32982 00912 10150 20044 48///
                   333 10257 20100 5////=
201905220900 AAXX 22094 67571 42682 10915 10230 20134 48/// 81100
                   333 5//// 81830=
201905200900 AAXX 20094 67571 42582 41206 10224 20153 48/// 82531
                   333 5//// 82628 81360 82080=
201905170900 AAXX 17094 67571 42982 01806 10245 20135 48///
                   333 5////=
201905170600 AAXX 17064 67571 32982 01206 10195 20128 48///
                   333 10264 20144 5////=
201905161200 AAXX 16124 67571 NIL=
201905160600 AAXX 16064 67571 32982 01208 10190 20116 48///
                   333 10250 20140 5////=
201905150900 AAXX 15094 67571 42582 30904 10214 20124 48/// 81501
                   333 5//// 81625 83080=
201905141200 AAXX 14124 67571 NIL=
201905130900 AAXX 13094 67571 NIL=
201905130600 AAXX 13064 67571 NIL=
201905101200 AAXX 10124 67571 42682 70910 10245 20143 48/// 875//
                   333 5//// 87640=
201905100900 AAXX 10094 67571 42682 71508 10225 20144 48/// 86508
                   333 5//// 86630 87281=
201905100600 AAXX 10064 67571 32982 71510 10191 20140 48/// 80008
                   333 10251 20146 5//// 87281=
201905080900 AAXX 08094 67571 42982 51507 10214 20111 48/// 80008
                   333 5//// 85280=
201905080600 AAXX 08064 67571 32378 31206 10147 20116 48/// 83600
                   333 10263 20115 5//// 83708=
201905060600 AAXX 06064 67571 NIL=
201905020900 AAXX 02094 67571 NIL=

################################################################################
#  SYNOPS from 67575, Mkushi (Zambia) | 13-38-00S | 029-26-00E | 1237 m
################################################################################
201905290900 AAXX 29094 67575 NIL=
201905280600 AAXX 28064 67575 32980 20902 10168 20116 48509 82081
                   333 10255 20116 58003 81360 81078
                   555 00106=
201905270600 AAXX 27064 67575 NIL=
201905231200 AAXX 23124 67575 NIL=
201905220900 AAXX 22094 67575 NIL=
201905220600 AAXX 22064 67575 32980 01203 10192 20121 48502
                   333 10295 20125 58003
                   555 00112=
201905200900 AAXX 20094 67575 42680 11403 10247 20157 48513 81200
                   333 5//// 81830=
201905200600 AAXX 20064 67575 32480 10902 10195 20157 48508 81570
                   333 10277 20146 58007 81615 81360
                   555 00142=
201905170900 AAXX 17094 67575 42680 10904 10258 20131 48504 81100
                   333 59009 81830=
201905161200 AAXX 16124 67575 42680 10902 10269 20124 48485 81100
                   333 59008 81837=
201905160600 AAXX 16064 67575 32980 10903 10175 20114 48505 80001
                   333 10263 20110 59005 81080
                   555 00104=
201905150900 AAXX 15094 67575 42680 21206 10220 20126 48514 81101
                   333 58004 81830 82080=
201905141200 AAXX 14124 67575 NIL=
201905140600 AAXX 14064 67575 32980 11203 10164 20117 48500 81030
                   333 10267 20098 59004 81360
                   555 00072=
201905130900 AAXX 13094 67575 NIL=
201905130600 AAXX 13064 67575 32980 11004 10185 20135 48507 80001
                   333 10256 20131 59008 81080
                   555 00115=
201905101200 AAXX 10124 67575 42680 61305 10260 20130 48487 83208
                   333 58006 83837 84280=
201905100900 AAXX 10094 67575 42680 61306 10244 20140 48508 82208
                   333 58006 82830 85280=
201905100600 AAXX 10064 67575 32480 60901 10191 20140 48501 81108
                   333 10280 20127 58003 81815 86280
                   555 00100=
201905091200 AAXX 09124 67575 42680 11602 10264 20129 48481 81100
                   333 59019 81836=
201905081200 AAXX 08124 67575 42980 11203 10271 20082 48501 80001
                   333 59012 81080=
201905080600 AAXX 08064 67575 32980 01202 10165 20124 48517
                   333 10287 20090 59013
                   555 00072=
201905060900 AAXX 06094 67575 42580 41107 10246 20152 48527 84200
                   333 5//// 84825=
201905060600 AAXX 06064 67575 32480 72701 10186 20165 48516 87500
                   333 10297 20145 58009 87615
                   555 00132=
201905030900 AAXX 03094 67575 42680 11206 10259 20152 48/// 81200
                   333 5//// 81830=
201905020900 AAXX 02094 67575 NIL=
201905020600 AAXX 02064 67575 32480 11204 10196 20145 48518 81130
                   333 10288 20140 58011 81815 81360
                   555 00124=

################################################################################
#  SYNOPS from 67580, Msekera (Zambia) | 13-39S | 032-34E | 1025 m
################################################################################
201905310600 AAXX 31064 67580 31975 51804 10175 20086 48/// 70510 84032
                   333 10262 20125 59001 84362 81080=
201905300900 AAXX 30094 67580 41675 41605 10232 20127 48/// 70510 81130
                   333 5//// 81835 83360=
201905300600 AAXX 30064 67580 31975 51803 10184 20135 48/// 70521 85030
                   333 10277 20147 59004 85360=
201905290900 AAXX 29094 67580 41675 71603 10250 20142 48/// 70522 83232
                   333 58004 83845 85362 82080=
201905290600 AAXX 29064 67580 31975 61203 10188 20132 48/// 70521 81038
                   333 10284 20136 58000 81362 85280=
201905270900 AAXX 27094 67580 41675 71203 10233 20134 48/// 70522 81131
                   333 5//// 81835 86362 82080=
201905270600 AAXX 27064 67580 31575 71204 10190 20136 48/// 70522 81132
                   333 10280 20154 58000 81820 84360 81080=
201905240600 AAXX 24064 67580 31975 61203 10//0 20129 48/// 70522 86030
                   333 10272 20123 58008 86360=
201905231200 AAXX 23124 67580 NIL=
201905230600 AAXX 23064 67580 31975 01203 10166 20105 48/// 70500
                   333 10282 20115 58010=
201905220900 AAXX 22094 67580 41675 11203 10264 20127 48/// 70500 81100
                   333 58009 81845=
201905220600 AAXX 22064 67580 31975 00203 10210 20116 48/// 70500
                   333 10318 20154 58008=
201905210600 AAXX 21064 67580 31575 10000 10214 20168 48/// 70500 81100
                   333 10295 20162 59005 81825=
201905200900 AAXX 20094 67580 NIL=
201905170900 AAXX 17094 67580 41775 60304 10277 20152 48/// 70510 86100
                   333 59011 86856=
201905161200 AAXX 16124 67580 NIL=
201905160600 AAXX 16064 67580 31975 11203 10184 20145 48/// 70500 81032
                   333 10280 20132 59002 81360 81080=
201905151200 AAXX 15124 67580 41875 61803 10264 20136 48/// 70521 86100
                   333 58005 86857=
201905150900 AAXX 15094 67580 NIL=
201905141200 AAXX 14124 67580 NIL=
201905131200 AAXX 13124 67580 41875 72703 10255 20142 48/// 70500 81100
                   333 5//// 81857=
201905130900 AAXX 13094 67580 NIL=
201905130600 AAXX 13064 67580 NIL=
201905101200 AAXX 10124 67580 NIL=
201905100900 AAXX 10094 67580 41775 71203 10267 20158 48/// 70521 82138
                   333 58006 82850 81362 86280=
201905100600 AAXX 10064 67580 31975 31603 10210 20163 48/// 70500 81032
                   333 10307 20156 59021 81362 83080=
201905090600 AAXX 09064 67580 31975 10903 10208 20150 48/// 70500 80002
                   333 10300 20134 59021 81080=
201905080900 AAXX 08094 67580 41675 10303 10255 20136 48/// 70500 81102
                   333 59005 81845 81080=
201905080600 AAXX 08064 67580 31575 10903 10178 20145 48/// 70500 81130
                   333 10294 20133 59020 81820 81360=
201905060900 AAXX 06094 67580 41680 51203 10272 20174 48/// 70510 85200
                   333 5//// 85845=
201905060600 AAXX 06064 67580 31675 40000 10232 20184 48/// 70510 84130
                   333 10324 20164 58011 84830 81362=
201905030900 AAXX 03094 67580 42680 60000 10268 20180 48/// 86200
                   333 59009 86845=
201905030600 AAXX 03064 67580 32680 11203 10226 20181 48/// 81100
                   333 10318 20167 59004 81830=
201905020900 AAXX 02094 67580 42680 60603 10275 20172 48/// 86200
                   333 5//// 86845=
201905020600 AAXX 02064 67580 32580 11203 10223 20179 48/// 81180
                   333 10296 20168 58008 81825 81358=

################################################################################
#  SYNOPS from 67581, Chipata (Zambia) | 13-33S | 032-35E | 1028 m
################################################################################
201905310600 AAXX 31064 67581 32980 31203 10188 20053 48558 83030
                   333 10265 20151 59004 83360 91022=
201905300600 AAXX 30064 67581 32580 21712 10202 20119 48565 81130
                   333 10264 20162 59004 81825 82360 91023=
201905290900 AAXX 29094 67581 NIL=
201905280600 AAXX 28064 67581 32982 21610 10190 20122 48565 82030
                   333 10267 20152 58000 82360 91023=
201905270600 AAXX 27064 67581 32580 31605 10184 20131 48563 82130
                   333 10250 20162 5//// 82825 82360 91023=
201905231200 AAXX 23124 67581 NIL=
201905230600 AAXX 23064 67581 32980 01604 10186 20150 48569
                   333 10290 20140 58012 91023=
201905220900 AAXX 22094 67581 NIL=
201905220600 AAXX 22064 67581 32980 01805 10217 20105 48565
                   333 10294 20156 58005 91022=
201905210600 AAXX 21064 67581 32980 00405 10230 20157 48562
                   333 10270 20145 59006 91022=
201905200900 AAXX 20094 67581 NIL=
201905200600 AAXX 20064 67581 32980 01805 10230 20158 48///
                   333 10294 20174 5//// 91022=
201905170900 AAXX 17094 67581 NIL=
201905170600 AAXX 17064 67581 32680 21604 10229 20151 48561 82100
                   333 10291 20140 59009 82830 91022=
201905161200 AAXX 16124 67581 NIL=
201905160600 AAXX 16064 67581 32980 01807 10200 20124 48564
                   333 10272 20149 59003 91023=
201905150900 AAXX 15094 67581 NIL=
201905150600 AAXX 15064 67581 32680 21504 10188 20139 48563 82100
                   333 10275 20150 58011 82830 91023=
201905141200 AAXX 14124 67581 NIL=
201905140600 AAXX 14064 67581 32980 01607 10190 20095 48555
                   333 10285 20148 59009 91022=
201905130900 AAXX 13094 67581 NIL=
201905130600 AAXX 13064 67581 32980 01604 10204 20123 48566
                   333 10280 20151 59001 91023=
201905101200 AAXX 10124 67581 NIL=
201905100900 AAXX 10094 67581 NIL=
201905090600 AAXX 09064 67581 32980 00906 10207 20142 48553
                   333 10280 20137 59022 91021=
201905080600 AAXX 08064 67581 32980 01604 10196 20132 48571
                   333 10290 20200 59016 91024=
201905060600 AAXX 06064 67581 32480 11710 10215 20167 48581 81500
                   333 10304 20175 58006 81615 91023=
201905030600 AAXX 03064 67581 32980 00906 10235 20172 48568
                   333 10298 20178 59005 91022=
201905020900 AAXX 02094 67581 NIL=
201905020600 AAXX 02064 67581 32980 01804 10225 20166 48571
                   333 10299 20169 58006 91023=

################################################################################
#  SYNOPS from 67583, Lundazi (Zambia) | 12-17S | 033-12E | 1143 m
################################################################################
201905290900 AAXX 29094 67583 NIL=
201905290600 AAXX 29064 67583 32980 22102 10178 20132 48/// 80001
                   333 10290 2//// 5//// 82080=
201905280600 AAXX 28064 67583 32380 51202 10174 20156 48/// 81630
                   333 10290 2//// 5//// 81706 85360=
201905270600 AAXX 27064 67583 32980 71203 10178 20132 48/// 8703/
                   333 10276 2//// 5//// 87358=
201905240600 AAXX 24064 67583 32380 51802 10174 20145 48/// 81630
                   333 10298 2//// 5//// 81706 84358=
201905231200 AAXX 23124 67583 NIL=
201905230600 AAXX 23064 67583 32980 01802 10178 20132 48///
                   333 10300 2//// 5////=
201905220900 AAXX 22094 67583 NIL=
201905220600 AAXX 22064 67583 32480 11802 10202 20172 48/// 81100
                   333 10310 2//// 5//// 81812=
201905210600 AAXX 21064 67583 32980 10902 10200 20172 48/// 81030
                   333 10310 2//// 5//// 81359=
201905200900 AAXX 20094 67583 NIL=
201905170900 AAXX 17094 67583 NIL=
201905161200 AAXX 16124 67583 NIL=
201905160600 AAXX 16064 67583 32980 11802 10188 20155 48/// 81030
                   333 10288 2//// 5//// 81359=
201905150900 AAXX 15094 67583 NIL=
201905141200 AAXX 14124 67583 NIL=
201905130900 AAXX 13094 67583 NIL=
201905130600 AAXX 13064 67583 32980 21702 10182 20152 48/// 81031
                   333 10270 2//// 5//// 81359 81080=
201905101200 AAXX 10124 67583 NIL=
201905100900 AAXX 10094 67583 NIL=
201905100600 AAXX 10064 67583 32480 10902 10205 20166 48/// 81100
                   333 10306 2//// 5//// 81815=
201905080600 AAXX 08064 67583 32480 71503 10172 20138 48/// 875//
                   333 10298 2//// 5//// 87612=
201905060600 AAXX 06064 67583 32380 41204 10202 20186 48/// 81630
                   333 10290 2//// 5//// 81706 84359=
201905020900 AAXX 02094 67583 NIL=
201905020600 AAXX 02064 67583 32480 11802 10206 20183 48/// 81600
                   333 10300 2//// 5//// 81710=

################################################################################
#  SYNOPS from 67599, Mfuwe (Zambia) | 13-16S | 031-56E | 568 m
################################################################################
201905300600 AAXX 30064 67599 32980 41705 10200 20144 48553 84030
                   333 10315 20125 59005 84359
                   555 00120 91021=
201905290900 AAXX 29094 67599 NIL=
201905290600 AAXX 29064 67599 32980 41703 10200 20131 48558 84030
                   333 10320 20130 58001 84360
                   555 00125 91021=
201905280600 AAXX 28064 67599 32980 41505 1//// 20144 48560 84030
                   333 10309 20140 84360
                   555 00140 91021=
201905270600 AAXX 27064 67599 32980 51705 10207 20134 48560 85030
                   333 10293 20157 59006 85360
                   555 00165 91021=
201905240600 AAXX 24064 67599 32980 52002 10176 20106 48589 85030
                   333 10310 20110 58006 85359 91023=
201905231200 AAXX 23124 67599 NIL=
201905230600 AAXX 23064 67599 32980 02002 10185 20076 48562
                   333 10329 20098 5////
                   555 00104 91023=
201905220900 AAXX 22094 67599 NIL=
201905210600 AAXX 21064 67599 32980 21603 10149 48546 82030
                   333 10341 20160 59006 82360
                   555 00175=
201905200900 AAXX 20094 67599 NIL=
201905170900 AAXX 17094 67599 NIL=
201905161200 AAXX 16124 67599 NIL=
201905160600 AAXX 16064 67599 32989 21604 10208 20143 48558 82030
                   333 10314 20150 59004 82360
                   555 00160 91021=
201905150900 AAXX 15094 67599 NIL=
201905141200 AAXX 14124 67599 NIL=
201905130900 AAXX 13094 67599 NIL=
201905130600 AAXX 13064 67599 32980 41405 10222 20151 48561 84031
                   333 10314 20165 59003 84359 81080
                   555 00175 91021=
201905101200 AAXX 10124 67599 NIL=
201905100900 AAXX 10094 67599 NIL=
201905080600 AAXX 08064 67599 31960 00000 10202 20150 48566 70500
                   333 10345 20120 59009
                   555 00135 91022=
201905060600 AAXX 06064 67599 32680 21904 10232 20179 48566 82100
                   333 10350 20170 58007 82830
                   555 00180 91021=
201905020900 AAXX 02094 67599 NIL=
201905020600 AAXX 02064 67599 32980 31804 10229 20177 48568 83030
                   333 10330 20160 58010 83359
                   555 00170 91021=

################################################################################
#  SYNOPS from 67625, Kalabo (Zambia) | 14-51S | 022-42E | 1033 m
################################################################################
201905300900 AAXX 30094 67625 42982 00914 10255 20076 48///
                   333 58003=
201905300600 AAXX 30064 67625 32982 01206 10155 20090 48///
                   333 10299 20134 58000=
201905291200 AAXX 29124 67625 42782 51205 10270 20120 48/// 81134
                   333 58000 81856 82360 85075=
201905290900 AAXX 29094 67625 42982 50608 10250 20113 48/// 81034
                   333 58001 81361 85075=
201905290600 AAXX 29064 67625 32982 51208 10166 20102 48/// 85034
                   333 10295 20160 59003 85360 85075=
201905281200 AAXX 28124 67625 42782 31205 10274 20120 48/// 82134
                   333 59007 82856 82360 83075=
201905280600 AAXX 28064 67625 32982 31206 10161 20092 48/// 82034
                   333 10285 20145 58000 82361 83075=
201905270900 AAXX 27094 67625 42982 40911 10246 20100 48/// 80004
                   333 5//// 84075=
201905270600 AAXX 27064 67625 32982 01207 10155 20102 48///
                   333 10270 20120 59023=
201905231200 AAXX 23124 67625 NIL=
201905220900 AAXX 22094 67625 42982 00615 10269 20124 48///
                   333 5////=
201905200900 AAXX 20094 67625 NIL=
201905170900 AAXX 17094 67625 NIL=
201905161200 AAXX 16124 67625 NIL=
201905160600 AAXX 16064 67625 32982 21207 10170 20115 48/// 80004
                   333 10310 20135 59002 82075=
201905150900 AAXX 15094 67625 42982 60610 10267 20110 48/// 80004
                   333 58007 86075=
201905141200 AAXX 14124 67625 NIL=
201905140900 AAXX 14094 67625 42982 01210 10270 20132 48///
                   333 59012=
201905130900 AAXX 13094 67625 42982 00811 10255 20143 48///
                   333 5////=
201905130600 AAXX 13064 67625 32982 01208 10176 20138 48///
                   333 10294 20154 59002=
201905101200 AAXX 10124 67625 NIL=
201905100900 AAXX 10094 67625 NIL=
201905100600 AAXX 10064 67625 32982 00608 10170 20087 48///
                   333 10310 20135 58006=
201905091200 AAXX 09124 67625 42982 41013 10306 20102 48/// 81104
                   333 5//// 81858 84075=
201905081200 AAXX 08124 67625 42982 70910 10305 20094 48/// 80004
                   333 59013 87075=
201905080900 AAXX 08094 67625 42982 50811 10274 20126 48/// 80004
                   333 5//// 85075=
201905080600 AAXX 08064 67625 32982 00907 10191 20131 48///
                   333 10316 20145 5////=
201905060900 AAXX 06094 67625 42982 00614 10276 20162 48///
                   333 5////=
201905060600 AAXX 06064 67625 32982 00706 10205 20148 48///
                   333 10313 20158 5////=
201905020900 AAXX 02094 67625 42982 60511 10260 20140 48/// 8603/
                   333 5//// 86361=
201905020600 AAXX 02064 67625 32982 70908 10210 20136 48/// 8703/
                   333 10310 20154 87360=

################################################################################
#  SYNOPS from 67633, Mongu (Zambia) | 15-15S | 023-09E | 1052 m
################################################################################
201905310600 AAXX 31064 67633 32980 00905 10155 20111 48516
                   333 10302 20130 59013 91019=
201905300900 AAXX 30094 67633 42980 00906 10263 20104 48553
                   333 59009 91021=
201905290900 AAXX 29094 67633 NIL=
201905290600 AAXX 29064 67633 32980 70910 10195 20097 48542 87070
                   333 10297 20164 59002 87460 91021=
201905280600 AAXX 28064 67633 32980 40903 10185 20123 48538 84030
                   333 10285 20155 59001 84360 91021=
201905270600 AAXX 27064 67633 32980 00907 10168 20099 48541
                   333 10276 20131 59007 91021=
201905240600 AAXX 24064 67633 32980 00912 10155 20069 48539
                   333 10302 20130 5//// 91021=
201905231200 AAXX 23124 67633 NIL=
201905230600 AAXX 23064 67633 32980 10910 10176 20123 48519 80001
                   333 10320 20157 59001 81080 91020=
201905220900 AAXX 22094 67633 NIL=
201905220600 AAXX 22064 67633 32980 20905 10190 20123 48530 82030
                   333 10315 20156 5//// 82360 91020=
201905210600 AAXX 21064 67633 32980 70912 10214 20127 48531 8707/
                   333 10319 20190 59011 87360 91019=
201905200900 AAXX 20094 67633 NIL=
201905200600 AAXX 20064 67633 32980 60902 10208 20127 48541 86030
                   333 10311 20171 58011 86360 91021=
201905170900 AAXX 17094 67633 NIL=
201905161200 AAXX 16124 67633 NIL=
201905160600 AAXX 16064 67633 32980 00905 10177 20131 48538
                   333 10315 20144 58003 91021=
201905150900 AAXX 15094 67633 NIL=
201905141200 AAXX 14124 67633 42980 00902 10305 20132 48531
                   333 59013 91018=
201905140900 AAXX 14094 67633 42980 00902 10274 20146 48548
                   333 59010 91020=
201905130900 AAXX 13094 67633 NIL=
201905130600 AAXX 13064 67633 32980 00905 10186 20141 48530
                   333 10311 20150 59011 91020=
201905101200 AAXX 10124 67633 NIL=
201905100900 AAXX 10094 67633 NIL=
201905100600 AAXX 10064 67633 32980 00905 10183 20102 48529
                   333 10317 20133 58008 91020=
201905090600 AAXX 09064 67633 32980 10902 10188 20120 48529 81030
                   333 10321 20145 59015 81360 91019=
201905081200 AAXX 08124 67633 42980 00804 10310 20112 48540
                   333 59003 91019=
201905080900 AAXX 08094 67633 42980 00903 10286 20147 48566
                   333 59008 91022=
201905080600 AAXX 08064 67633 32980 00903 10197 20122 48545
                   333 10322 20152 59006 91021=
201905060600 AAXX 06064 67633 32980 00905 10207 20177 48524 83030
                   333 10331 20176 59007 91019=
201905030900 AAXX 03094 67633 42980 00604 10282 20141 48552
                   333 59004 91020=
201905020900 AAXX 02094 67633 NIL=
201905020600 AAXX 02064 67633 32980 70905 10209 20132 48547 87030
                   333 10314 20197 58010 87360 91021=

################################################################################
#  SYNOPS from 67641, Kaoma (Zambia) | 14-48S | 024-48E | 1213 m
################################################################################
201905310600 AAXX 31064 67641 32980 00802 10110 20092 48525
                   333 10290 20092 58002 91020=
201905290900 AAXX 29094 67641 NIL=
201905290600 AAXX 29064 67641 32980 20901 10132 20104 48525 82030
                   333 10296 20126 58004 82360 91020=
201905270600 AAXX 27064 67641 32980 11403 10145 20113 48525 81030
                   333 10280 20097 59014 81360 91020=
201905240600 AAXX 24064 67641 32980 00000 10120 20084 48531
                   333 10292 20092 58001 91021=
201905231200 AAXX 23124 67641 NIL=
201905230600 AAXX 23064 67641 32980 10602 10150 20121 48533 81030
                   333 10310 20121 58008 81360 91021=
201905220900 AAXX 22094 67641 NIL=
201905220600 AAXX 22064 67641 32980 00901 10156 20130 48526
                   333 10316 20120 58005 91020=
201905210600 AAXX 21064 67641 32980 00801 10165 20133 48522
                   333 10316 20124 59010 91020=
201905200900 AAXX 20094 67641 NIL=
201905170900 AAXX 17094 67641 NIL=
201905170600 AAXX 17064 67641 32980 03602 10154 20112 48521
                   333 10301 20100 58000 91020=
201905161200 AAXX 16124 67641 NIL=
201905160900 AAXX 16094 67641 42980 01205 10252 20146 48547
                   333 58001 91021=
201905160600 AAXX 16064 67641 32980 00801 10146 20119 48523
                   333 10301 20104 59005 91020=
201905150900 AAXX 15094 67641 42980 10606 10244 20125 48544 80001
                   333 58005 81080 91021=
201905150600 AAXX 15064 67641 32980 20601 10143 20113 48528 80001
                   333 10308 20119 58001 82080 91020=
201905141200 AAXX 14124 67641 42980 00907 10298 20141 48519
                   333 58000 91017=
201905140900 AAXX 14094 67641 42980 00902 10263 20152 48540
                   333 59002 91028=
201905130900 AAXX 13094 67641 42980 11007 10265 20152 48546 81030
                   333 59008 81362 91009=
201905130600 AAXX 13064 67641 32980 50000 10160 20139 48533 85030
                   333 10300 20129 59006 85360 91021=
201905101200 AAXX 10124 67641 NIL=
201905100900 AAXX 10094 67641 NIL=
201905100600 AAXX 10064 67641 32980 00801 10138 20105 48518
                   333 10307 20086 59003 91018=
201905081200 AAXX 08124 67641 42980 21005 10300 20126 48540 80001
                   333 59006 82080 91018=
201905080600 AAXX 08064 67641 32980 01407 10172 20125 48541
                   333 10317 20118 59011 91021=
201905060900 AAXX 06094 67641 42680 11208 10268 20176 48565 81100
                   333 58019 81842 91022=
201905060600 AAXX 06064 67641 32980 00000 10175 20153 48543
                   333 10322 20144 58016 91021=
201905020900 AAXX 02094 67641 42580 10805 10278 20162 48555 81100
                   333 58007 81838 91021=
201905020600 AAXX 02064 67641 32980 10902 10259 48538 80001
                   333 10310 20134 58007 81080 91021=

################################################################################
#  SYNOPS from 67655, Mumbwa (Zambia) | 15-04S | 027-11E | 1216 m
################################################################################
201905290900 AAXX 29094 67655 NIL=
201905270600 AAXX 27064 67655 NIL=
201905231200 AAXX 23124 67655 NIL=
201905220900 AAXX 22094 67655 NIL=
201905210600 AAXX 21064 67655 32980 01005 10190 20127 48544
                   333 10300 20112 59009 91021=
201905200900 AAXX 20094 67655 NIL=
201905170900 AAXX 17094 67655 NIL=
201905170600 AAXX 17064 67655 32980 01005 10159 20107 48537
                   333 10255 20140 59015 91020=
201905161200 AAXX 16124 67655 NIL=
201905160600 AAXX 16064 67655 NIL=
201905150900 AAXX 15094 67655 NIL=
201905141200 AAXX 14124 67655 NIL=
201905130900 AAXX 13094 67655 NIL=
201905130600 AAXX 13064 67655 NIL=
201905101200 AAXX 10124 67655 NIL=
201905100900 AAXX 10094 67655 42980 00908 10252 20101 48554
                   333 59007 91021=
201905100600 AAXX 10064 67655 32980 00915 10199 20112 48545
                   333 10286 20113 59001 91021=
201905090600 AAXX 09064 67655 32980 30906 10185 20114 48544 80001
                   333 10256 20135 59015 91021=
201905080600 AAXX 08064 67655 NIL=
201905060600 AAXX 06064 67655 32980 10910 10196 20152 48563 81030
                   333 10306 20150 58017 81360 91023=
201905020900 AAXX 02094 67655 NIL=

################################################################################
#  SYNOPS from 67659, Kafue Polder (Zambia) | 15-46S | 027-55E | 978 m
################################################################################
201905310600 AAXX 31064 67659 32980 01709 10178 20115 48/// 70500
                   333 10265 20085 58001=
201905290900 AAXX 29094 67659 NIL=
201905290600 AAXX 29064 67659 32980 01007 10180 20114 48///
                   333 10264 20091 58003=
201905280600 AAXX 28064 67659 32980 11508 10180 20135 48/// 81030
                   333 10261 20090 59005 81360=
201905270600 AAXX 27064 67659 NIL=
201905231200 AAXX 23124 67659 NIL=
201905230600 AAXX 23064 67659 32980 01706 10180 20104 48///
                   333 10286 20110 58026=
201905220900 AAXX 22094 67659 NIL=
201905220600 AAXX 22064 67659 32980 01408 10204 20134 48///
                   333 10300 20135 58001=
201905210600 AAXX 21064 67659 32980 00804 10190 20143 48///
                   333 10296 20110 59010=
201905200900 AAXX 20094 67659 NIL=
201905200600 AAXX 20064 67659 32980 01304 10196 20148 48/// 70500
                   333 10296 20110 58006=
201905170900 AAXX 17094 67659 NIL=
201905170600 AAXX 17064 67659 32980 01504 10190 20132 48///
                   333 10273 20092 59011=
201905161200 AAXX 16124 67659 NIL=
201905160600 AAXX 16064 67659 32980 00904 10184 20127 48///
                   333 10268 20090 59010=
201905150900 AAXX 15094 67659 NIL=
201905150600 AAXX 15064 67659 32480 31505 10192 20135 48/// 83200
                   333 10274 20104 58011 83820=
201905141200 AAXX 14124 67659 NIL=
201905140600 AAXX 14064 67659 32980 00906 10182 20131 48///
                   333 10275 20111 59007=
201905130900 AAXX 13094 67659 NIL=
201905130600 AAXX 13064 67659 32980 31407 10190 20151 48/// 83030
                   333 10280 20110 59007 83360=
201905101200 AAXX 10124 67659 NIL=
201905100900 AAXX 10094 67659 NIL=
201905080600 AAXX 08064 67659 32980 00705 10194 20166 48///
                   333 10295 20110 59008=
201905060600 AAXX 06064 67659 32980 01006 10212 20160 48///
                   333 10314 20171 58014=
201905030600 AAXX 03064 67659 32380 11406 10210 20158 48/// 81100
                   333 10299 20116 59004 81815=
201905020900 AAXX 02094 67659 NIL=
201905020600 AAXX 02064 67659 32980 00805 10210 20115 48///
                   333 10300 20115 58006=

################################################################################
#  SYNOPS from 67662, Kabwe Agric (Zambia) | 14-24S | 028-30E | 1165 m
################################################################################
201905290900 AAXX 29094 67662 NIL=
201905290600 AAXX 29064 67662 32980 40000 10172 20101 48/// 84030
                   333 10260 20065 5//// 84360=
201905270600 AAXX 27064 67662 32980 10902 10161 20123 48/// 81030
                   333 10246 20061 5//// 81360=
201905231200 AAXX 23124 67662 NIL=
201905220900 AAXX 22094 67662 NIL=
201905200900 AAXX 20094 67662 NIL=
201905170900 AAXX 17094 67662 NIL=
201905161200 AAXX 16124 67662 NIL=
201905160600 AAXX 16064 67662 32970 10902 10166 20121 48/// 80001
                   333 10256 20068 5//// 81080=
201905150900 AAXX 15094 67662 NIL=
201905150600 AAXX 15064 67662 32480 31002 10162 20121 48/// 82501
                   333 10257 20056 5//// 82613 81082=
201905141200 AAXX 14124 67662 NIL=
201905140600 AAXX 14064 67662 32980 40000 10164 20122 48/// 84030
                   333 10266 20056 5//// 84360=
201905130900 AAXX 13094 67662 NIL=
201905130600 AAXX 13064 67662 32980 01502 10172 20136 48///
                   333 10280 20076 5////=
201905101200 AAXX 10124 67662 NIL=
201905100900 AAXX 10094 67662 NIL=
201905090600 AAXX 09064 67662 32980 10901 10163 20125 80001
                   333 10272 20060 5//// 81080=
201905080600 AAXX 08064 67662 NIL=
201905060900 AAXX 06094 67662 42580 71206 10225 20164 48/// 875//
                   333 5//// 87625=
201905060600 AAXX 06064 67662 32980 21503 10185 20155 82030
                   333 10295 20076 5//// 82360=
201905020900 AAXX 02094 67662 NIL=

################################################################################
#  SYNOPS from 67663, Kabwe (Zambia) | 14-27S | 028-28E | 1206 m
################################################################################
201905310600 AAXX 31064 67663 32980 00918 10163 20084 48543
                   333 10255 20106 58002
                   555 00237=
201905300600 AAXX 30064 67663 32980 01009 10182 20087 48543
                   333 10263 20113 58000
                   555 00254=
201905290900 AAXX 29094 67663 NIL=
201905270600 AAXX 27064 67663 32980 10909 10163 20117 48542 81030
                   333 10245 20119 58009 81360
                   555 00230=
201905240600 AAXX 24064 67663 32980 01209 10151 20079 48551
                   333 10242 20101 59005=
201905231200 AAXX 23124 67663 NIL=
201905230600 AAXX 23064 67663 32980 00910 10152 20066 48555
                   333 10273 20116 58015
                   555 00208=
201905220900 AAXX 22094 67663 NIL=
201905220600 AAXX 22064 67663 32980 01009 10187 20122 48544
                   333 10292 20142 5////
                   555 00242=
201905210600 AAXX 21064 67663 32980 00907 10199 20141 48556
                   333 10285 20143 59004=
201905200900 AAXX 20094 67663 NIL=
201905200600 AAXX 20064 67663 32480 10910 10181 20139 48555 81500
                   333 10283 20149 58013 81619
                   555 00231=
201905170900 AAXX 17094 67663 NIL=
201905170600 AAXX 17064 67663 32980 00908 10176 20126 48527
                   333 10268 20127 59009
                   555 00294=
201905161200 AAXX 16124 67663 NIL=
201905160600 AAXX 16064 67663 32980 00308 10169 20116 48535
                   333 10251 20119 59009
                   555 00205=
201905150900 AAXX 15094 67663 NIL=
201905141200 AAXX 14124 67663 NIL=
201905130900 AAXX 13094 67663 NIL=
201905130600 AAXX 13064 67663 32980 00916 10172 20132 48528
                   333 10258 20148 59007
                   555 00191=
201905101200 AAXX 10124 67663 NIL=
201905100900 AAXX 10094 67663 NIL=
201905100600 AAXX 10064 67663 32980 20905 10171 20129 48554 80002
                   333 10290 20129 58005 82080
                   555 00179=
201905090600 AAXX 09064 67663 32980 10908 10169 20126 48548 80002
                   333 10282 20118 58003
                   555 00196=
201905080600 AAXX 08064 67663 32980 00507 10164 20116 48544
                   333 10283 20114 59007
                   555 00188=
201905060600 AAXX 06064 67663 32980 21007 10191 20157 48540 81030
                   333 10289 20148 59003 81360=
201905020900 AAXX 02094 67663 NIL=
201905020600 AAXX 02064 67663 32980 00906 10196 20147 48552
                   333 10272 20141 59007=

################################################################################
#  SYNOPS from 67665, Lusaka Internationalairport (Zambia) | 15-19S | 028-27E | 1152 m
################################################################################
201905310300 AAXX 31034 67665 42980 21502 10108 20070 48535 70300 82030
                   333 59003 82360=
201905310000 AAXX 31004 67665 42980 01801 10114 20075 48535 70200
                   333 59004=
201905302100 AAXX 30214 67665 42980 01802 10127 20071 48545 70200
                   333 59009=
201905301800 AAXX 30184 67665 42980 01504 10156 20082 48551
                   333 59001=
201905301500 AAXX 30154 67665 42980 31211 10232 20067 48546 83030
                   333 58001 83358=
201905301200 AAXX 30124 67665 42680 41010 10244 20073 48546
                   333 58001 84840=
201905300900 AAXX 30094 67665 42580 30811 10226 20106 48572 70200 83100
                   333 59003 83825=
201905300600 AAXX 30064 67665 32980 01206 10147 20093 48557 70200
                   333 10272 20//0 59003
                   555 00/// 91024=
201905292100 AAXX 29214 67665 42980 11702 10126 20078 48554 70200 81030
                   333 58010 91024=
201905291800 AAXX 29184 67665 42980 21504 10178 20066 48555 70200 82030
                   333 10272 58009 82360=
201905291500 AAXX 29154 67665 42980 21408 10237 20051 48548 70100 82030
                   333 58007 82360 555 10272=
201905291200 AAXX 29124 67665 42680 20910 10249 20071 48551 70200 82100
                   333 59004 82840=
201905290900 AAXX 29094 67665 NIL=
201905290600 AAXX 29064 67665 42980 01205 10152 20088 48560 70200
                   333 10250 20//0 58001 91024=
201905282100 AAXX 28214 67665 42980 31502 10146 20089 48547 70200 83030
                   333 58002 83360 91022=
201905281800 AAXX 28184 67665 42880 41404 10164 20102 48543 70111 81462
                   333 10250 59001 81657 81360 82080 91022=
201905281500 AAXX 28154 67665 42780 41205 10232 20091 48540 70111 84200
                   333 58002 84856=
201905280900 AAXX 28094 67665 42680 20910 10201 20117 48566 70100 82100
                   333 59004 82830=
201905270600 AAXX 27064 67665 NIL=
201905261800 AAXX 26184 67665 42980 01305 10161 20108 48556
                   333 59009=
201905261500 AAXX 26154 67665 42680 11011 10228 20087 48547 81100
                   333 59013 81845=
201905261200 AAXX 26124 67665 42680 21309 10237 20099 48550 82100
                   333 59007 82835=
201905260900 AAXX 26094 67665 42580 60811 10198 20114 48576 70122 86500
                   333 59009 86625 91025=
201905260600 AAXX 26064 67665 32480 60810 10147 20121 48566 86500
                   333 10238 20//0 59008 86610=
201905260300 AAXX 26034 67665 42980 01303 10108 20091 48547
                   333 59007=
201905252100 AAXX 25214 67665 42980 01603 10129 20102 48556
                   333 59003=
201905250600 AAXX 25064 67665 32480 71204 10139 20111 48572 70322 87600
                   333 10245 20//0 58001 87712=
201905241500 AAXX 24154 67665 42780 11010 10228 20073 48556 70200 81100
                   333 58001 81850=
201905241200 AAXX 24124 67665 42680 10910 10236 20074 48559 70100 81100
                   333 58003 81835=
201905240600 AAXX 24064 67665 32980 01006 10141 20086 48571 70100
                   333 10253 20//0 59003
                   555 00///=
201905240300 AAXX 24034 67665 42980 01402 10100 20056 48596 70200
                   333 58006=
201905240000 AAXX 24004 67665 42980 01004 10108 20057 48545 70200
                   333 58011=
201905232100 AAXX 23214 67665 42980 01206 10121 20052 48557
                   333 58006=
201905231800 AAXX 23184 67665 42980 01405 10153 20054 48557
                   333 58010=
201905231200 AAXX 23124 67665 42980 01206 10121 20052 48557
                   333 58006=
201905230900 AAXX 23094 67665 42980 01016 10216 20044 48578 70200
                   333 58005=
201905230600 AAXX 23064 67665 32980 01105 10141 20063 48574 70200
                   333 58022 555 00/// 91026=
201905230000 AAXX 23004 67665 42980 01004 10108 20057 48545 70200
                   333 58011=
201905222100 AAXX 22214 67665 42980 01603 10141 20062 48554 70200
                   333 58013 91023=
201905221800 AAXX 22184 67665 42980 01206 10173 20072 48551 70200
                   333 10270 58011=
201905221200 AAXX 22124 67665 42680 21010 10264 20081 48561 70200 82100
                   333 58014=
201905220900 AAXX 22094 67665 NIL=
201905220600 AAXX 22064 67665 32980 01210 10168 20112 48557 70100
                   333 10291 58005=
201905211800 AAXX 21184 67665 42980 11404 10181 20090 48541 70200 81030
                   333 58001 81360=
201905211500 AAXX 21154 67665 42980 10808 10255 20067 48550 70200 81030
                   333 58011 81360 555 10270=
201905211200 AAXX 21124 67665 42780 30605 10270 20089 48548 70200 83100
                   333 59001 83850=
201905210900 AAXX 21094 67665 42980 00708 10249 20116 48569
                   333 59004=
201905201800 AAXX 20184 67665 42980 21103 10187 20119 48542 70100 82030
                   333 59004 82360=
201905201500 AAXX 20154 67665 42780 31505 10255 20102 48535 70200 83100
                   333 59016 83856=
201905201200 AAXX 20124 67665 42680 41005 10267 20097 48546 70300 84100
                   333 59002 84840=
201905200900 AAXX 20094 67665 42980 00808 10237 20129 48522 70200
                   333 58001 91024=
201905200600 AAXX 20064 67665 31980 01208 10167 20134 48564 70200
                   333 10277 58010 555 00/// 91024=
201905190600 AAXX 19064 67665 32980 11206 10175 20133 48554 81030
                   333 10275 20//0 58008 81360=
201905190300 AAXX 19034 67665 42980 0//// 10//0 20//0 48///
                   333 58010=
201905182100 AAXX 18214 67665 42980 11602 10151 20120 48538 80001
                   333 58001 81080=
201905181800 AAXX 18184 67665 42980 11203 10182 20112 48536 80001
                   333 58003 81080=
201905180600 AAXX 18064 67665 32980 71004 10167 20115 48547 70222 87030
                   333 10283 59002 87360=
201905172100 AAXX 17214 67665 42980 01405 10164 20100 48539
                   333 59005=
201905171800 AAXX 17184 67665 42980 11503 10194 20115 48535 70100 80002
                   333 59010 81080=
201905171500 AAXX 17154 67665 42780 1107 10266 20086 48530 70200 81100
                   333 59012 81856=
201905170900 AAXX 17094 67665 NIL=
201905170300 AAXX 17034 67665 42980 01602 10113 20086 48534 70200
                   333 59013=
201905170000 AAXX 17004 67665 42980 01601 10123 20086 48527 70200
                   333 59016=
201905161800 AAXX 16184 67665 42980 01203 10182 20104 48543
                   333 59004=
201905161200 AAXX 16124 67665 NIL=
201905160900 AAXX 16094 67665 42580 10811 10231 20091 48570 70300 81100
                   333 59002 81825=
201905160600 AAXX 16064 67665 32980 01106 10153 20109 48556 70200
                   333 10257 20/// 59006
                   555 00/// 91024=
201905151800 AAXX 15184 67665 42980 01502 10175 20106 48547
                   333 10257 58000=
201905151500 AAXX 15154 67665 42980 01009 10242 20113 48541 70100
                   333 58004=
201905151200 AAXX 15124 67665 42980 11011 10248 20104 48548 70100 81100
                   333 58003 81845=
201905150900 AAXX 15094 67665 42680 08012 10217 20116 48571 70222 86500
                   333 58005 86625=
201905150600 AAXX 15064 67665 42480 61112 10157 20126 48563 70300 85600
                   333 58006 85710 91024=
201905141500 AAXX 14154 67665 42980 11009 10252 20061 48537 70200 81030
                   333 59002 81360=
201905141200 AAXX 14124 67665 42980 11009 10248 20094 48545 70200 81030
                   333 59001 81360 91021=
201905140900 AAXX 14094 67665 42980 11109 10216 20094 48566 81030
                   333 59003 81360=
201905131500 AAXX 13154 67665 42980 10708 10249 20105 48541 70100 80001
                   333 59013 81080 Q1020=
201905131200 AAXX 13124 67665 42680 11107 10250 20127 48546 70122 81100
                   333 59012 81835 Q1021=
201905130900 AAXX 13094 67665 NIL=
201905130600 AAXX 13064 67665 NIL=
201905121800 AAXX 12184 67665 42980 11304 10195 20118 48561 81030
                   333 59002 81359=
201905121500 AAXX 12154 67665 42680 31109 10244 20110 48552 83500
                   333 59004 83548=
201905121200 AAXX 12124 67665 42680 40710 10247 20131 48557 84500
                   333 59002 84635=
201905120900 AAXX 12094 67665 42480 50913 10207 20132 48579 70321 86500
                   333 58002 86618=
201905120600 AAXX 12064 67665 32480 11108 10162 20130 48570 81501
                   333 10269 20//0 59004 81510 81080=
201905120300 AAXX 12034 67665 42980 01407 10139 20115 48552
                   333 59002=
201905120000 AAXX 12004 67665 42980 01505 10151 20124 48550
                   333 58005=
201905112100 AAXX 11214 67665 42980 01603 10149 20125 48559
                   333 58008=
201905111800 AAXX 11184 67665 42980 01104 10182 20133 48561
                   333 58010=
201905111500 AAXX 11154 67665 42680 30810 10246 20132 48557 83501
                   333 58015 83640 81080=
201905102100 AAXX 10214 67665 42980 01303 10145 20100 48552
                   333 58011=
201905101200 AAXX 10124 67665 42680 21011 10274 20070 48545 70300 82100
                   333 58005 82840 91020=
201905100900 AAXX 10094 67665 NIL=
201905100600 AAXX 10064 67665 32980 01004 10163 20128 48553 70200
                   333 10283 58002 555 00///=
201905100000 AAXX 10004 67665 42980 01202 10136 20102 48533 70200
                   333 59006=
201905092100 AAXX 09214 67665 42980 01802 10137 20093 48541 70200
                   333 59003=
201905091500 AAXX 09154 67665 42680 16007 10255 20051 48540 70200 81100
                   333 59004 81848=
201905090600 AAXX 09064 67665 32980 11205 10167 20114 48552 70200 80001
                   333 10276 20//0 59021 81080 91023=
201905090000 AAXX 09004 67665 42980 01504 10230 20085 48536 70200
                   333 59015 91022=
201905082100 AAXX 08214 67665 42980 01503 10140 20104 48544 70200
                   333 59017 91022=
201905081800 AAXX 08184 67665 42980 01304 10182 20122 48547
                   333 10276 59014=
201905081500 AAXX 08154 67665 42980 01107 10265 20068 48545
                   333 59020 555 10276=
201905081200 AAXX 08124 67665 42980 00910 10264 20081 48553
                   333 59014 91022=
201905080600 AAXX 08064 67665 NIL=
201905070900 AAXX 07094 67665 42580 10910 10246 20113 48593 70200 81500
                   333 58005 81825=
201905061800 AAXX 06184 67665 42980 11206 10190 20147 48565 70200 81030
                   333 58009 81360 91024=
201905060600 AAXX 06064 67665 NIL=
201905051800 AAXX 05184 67665 42980 11206 10209 20115 48559 81030
                   333 58006 81360=
201905051200 AAXX 05124 67665 42680 30712 10282 20128 48555 83100
                   333 58011 83840=
201905050900 AAXX 05094 67665 42980 00813 10258 20148 48573 70200
                   333 58005 91024=
201905050600 AAXX 05064 67665 32980 01109 10198 20121 48564
                   333 10//0 20//0 58006=
201905042100 AAXX 04214 67665 42980 01404 10174 20134 48546
                   333 58001=
201905041800 AAXX 04184 67665 42980 01502 10199 20142 48542
                   333 58007=
201905041500 AAXX 04154 67665 42680 21310 10268 20133 48537 82230
                   333 58002 82840 81360=
201905041200 AAXX 04124 67665 42680 40206 10279 20116 48544 84200
                   333 59006 84830=
201905040600 AAXX 04064 67665 32380 71206 10181 20158 48556 70322 84630
                   333 10273 20//0 59006 84708 86360=
201905031800 AAXX 03184 67665 42980 21403 10188 20139 48534 70200 82030
                   333 59016 82360=
201905031500 AAXX 03154 67665 42780 41204 10255 20134 48534 70100 84200
                   333 59015 84850=
201905031200 AAXX 03124 67665 42680 50809 10262 20121 48547 70200 85100
                   333 59007 85835=
201905030600 AAXX 03064 67665 32480 21107 10178 20146 48562 70300 82500
                   333 10286 20//0 59008 82610
                   555 00///=
201905030300 AAXX 03034 67665 42980 01403 10132 20107 48536
                   333 59007=
201905030000 AAXX 03004 67665 42980 01503 10146 20101 48542
                   333 59002=
201905022100 AAXX 02214 67665 42980 11604 10156 48554 81030
                   333 58001=
201905021800 AAXX 02184 67665 42980 11503 10188 20110 48549 70200 81030
                   333 58000 81360=
201905021500 AAXX 02154 67665 42780 41106 10250 20109 48548 70200 84100
                   333 58017 84850=
201905021200 AAXX 02124 67665 42680 41006 10270 20075 48555 70122 84100
                   333 58005 84840=
201905020900 AAXX 02094 67665 42980 20910 10255 20113 48598 70300 82100
                   333 58030 82830=
201905020600 AAXX 02064 67665 32980 11105 10185 20126 48571 70100 81030
                   333 10282 20//0 58008 81360
                   555 00/// 91025=
201905020000 AAXX 02004 67665 42980 01503 10146 20101 48542
                   333 59002=
201905011800 AAXX 01184 67665 42980 31404 10202 20118 48551 83030
                   333 10282 59006 83360=
201905011500 AAXX 01154 67665 42980 20908 10268 20086 48543 82030
                   333 59011 82360 555 10282=
201905010900 AAXX 01094 67665 42580 10910 10236 20130 48571 70200 81100
                   333 59012 81825=

################################################################################
#  SYNOPS from 67666, Lusaka City Airport (Zambia) | 15-25-00S | 028-28-00E | 1280 m
################################################################################
201905300600 AAXX 30064 67666 32980 01015 10161 20089 48545
                   333 10252 20149 59003 91023=
201905290900 AAXX 29094 67666 NIL=
201905290600 AAXX 29064 67666 32980 00910 10166 20085 48555
                   333 10249 20133 58004 91023=
201905280600 AAXX 28064 67666 32980 00908 10151 20111 48551
                   333 10232 20135 59004 91023=
201905270600 AAXX 27064 67666 32480 31212 1//// 20116 48553 82500
                   333 10240 20130 59007 85610 91023=
201905240600 AAXX 24064 67666 32980 01210 10152 20096 48563
                   333 10268 20131 58002 91025=
201905231200 AAXX 23124 67666 NIL=
201905230600 AAXX 23064 67666 32980 00911 10149 20063 48563
                   333 10262 20115 58013 91024=
201905220900 AAXX 22094 67666 NIL=
201905220600 AAXX 22064 67666 32980 01210 10199 20091 48549
                   333 10272 20160 58005 91022=
201905200900 AAXX 20094 67666 NIL=
201905200600 AAXX 20064 67666 32980 00910 10172 20131 48555
                   333 10269 20154 58006 91023=
201905170900 AAXX 17094 67666 42980 00910 10225 20107 48552
                   333 59007 91022=
201905161200 AAXX 16124 67666 NIL=
201905160600 AAXX 16064 67666 32980 01212 10169 20119 48542
                   333 10256 20143 59016 91021=
201905150900 AAXX 15094 67666 NIL=
201905150600 AAXX 15064 67666 32480 80913 10150 20127 48555 885//
                   333 10253 20137 58006 88612 91023=
201905141200 AAXX 14124 67666 42980 10809 10248 20095 48534 81030
                   333 59002 81360 91020=
201905140900 AAXX 14094 67666 42980 10912 10210 20106 48557 81030
                   333 59003 81360 91023=
201905130900 AAXX 13094 67666 NIL=
201905130600 AAXX 13064 67666 32980 00906 10171 20133 48555
                   333 10246 20149 59010 91023=
201905101200 AAXX 10124 67666 NIL=
201905100900 AAXX 10094 67666 NIL=
201905100600 AAXX 10064 67666 32980 01012 10180 20129 48547
                   333 10263 20152 58001 91022=
201905080600 AAXX 08064 67666 32980 01013 10167 20116 48564
                   333 10272 20140 5//// 91024=
201905060900 AAXX 06094 67666 42580 70810 10208 20152 48576 878//
                   333 58017 86620 84825 91025=
201905060600 AAXX 06064 67666 32580 61008 10175 20147 48566 86500
                   333 10285 20160 58011 86615 91024=
201905030900 AAXX 03094 67666 42580 40909 10225 20154 48560 84200
                   333 59009 84820 91023=
201905030600 AAXX 03064 67666 32480 51010 10186 20158 48557 85500
                   333 10272 20163 59006 85612 91023=
201905020900 AAXX 02094 67666 42680 11010 10230 20132 48569 81100
                   333 58010 81830 91024=

################################################################################
#  SYNOPS from 67667, Mount Makulu (Zambia) | 15-33S | 028-15E | 1213 m
################################################################################
201905301200 AAXX 30124 67667 42680 41401 10240 20120 48581 84100
                   333 58001 84830=
201905300900 AAXX 30094 67667 42680 10905 10220 20122 48596 81100
                   333 58001 81830=
201905300600 AAXX 30064 67667 32980 00907 10168 20102 48599
                   333 10275 20128 59003=
201905291200 AAXX 29124 67667 42680 20902 10249 20101 48579 82100
                   333 58007 82835=
201905290900 AAXX 29094 67667 42980 00906 10236 20114 48598
                   333 58006=
201905290600 AAXX 29064 67667 32980 00904 10180 20092 48594
                   333 10260 20112 58007=
201905281200 AAXX 28124 67667 42680 51401 10228 20117 48576 85101
                   333 58002 85835 81080=
201905280900 AAXX 28094 67667 42680 1//// 10212 20130 48597 81101
                   333 58000 81830 82080=
201905280600 AAXX 28064 67667 32980 30905 10168 20121 48591 80001
                   333 10265 20130 59005 83080=
201905270900 AAXX 27094 67667 42580 20905 10208 20130 48597 82100
                   333 5//// 82828=
201905270600 AAXX 27064 67667 32580 20907 10160 20129 48601 82100
                   333 10258 20122 59007 82825=
201905240600 AAXX 24064 67667 32680 10910 10168 20101 48607 81100
                   333 10263 20105 59001 81830=
201905231200 AAXX 23124 67667 NIL=
201905230600 AAXX 23064 67667 32980 00906 10164 20090 48///
                   333 10290 20125 5////=
201905221200 AAXX 22124 67667 52680 31604 10264 20132 48580 83100
                   333 58010 83835=
201905220900 AAXX 22094 67667 42980 03607 10244 20126 48595
                   333 58010=
201905220600 AAXX 22064 67667 32980 00902 10198 20119 48589
                   333 10296 20155 58005=
201905210900 AAXX 21094 67667 42680 10902 10260 20132 48586 81100
                   333 59017 81830=
201905200900 AAXX 20094 67667 NIL=
201905200600 AAXX 20064 67667 32980 00902 10190 20142 48599
                   333 10290 20132 59006=
201905171200 AAXX 17124 67667 42680 11701 10263 20132 48566 81100
                   333 59008 81835=
201905170900 AAXX 17094 67667 NIL=
201905170600 AAXX 17064 67667 32980 00904 10190 20124 48588
                   333 10280 20109 59016=
201905161200 AAXX 16124 67667 NIL=
201905160600 AAXX 16064 67667 32980 00907 10186 20123 48597
                   333 10272 20110 59009=
201905150900 AAXX 15094 67667 NIL=
201905150600 AAXX 15064 67667 32580 70908 10160 20129 48604 87500
                   333 10264 20116 5//// 87625=
201905141200 AAXX 14124 67667 NIL=
201905140900 AAXX 14094 67667 42980 00902 10319 20121 48///
                   333 5////=
201905140600 AAXX 14064 67667 32980 01302 10170 20123 48///
                   333 10280 20136 5////=
201905131200 AAXX 13124 67667 42680 10902 10250 20160 48573 81100
                   333 5//// 81830=
201905130900 AAXX 13094 67667 NIL=
201905130600 AAXX 13064 67667 32680 30901 10178 20131 48594 81102
                   333 10284 20133 59007 81830 83080=
201905101200 AAXX 10124 67667 42780 21803 10266 20128 48/// 82100
                   333 5//// 82830=
201905100900 AAXX 10094 67667 42680 10903 10244 20149 48/// 81101
                   333 5//// 81830 81080=
201905100600 AAXX 10064 67667 32980 01012 10180 20129 48547
                   333 10263 20152 58001 91022=
201905090600 AAXX 09064 67667 32980 20907 10188 20122 48592 80001
                   333 10299 20138 59028 82080=
201905081200 AAXX 08124 67667 42980 00905 10272 20128 48573
                   333 59018=
201905080900 AAXX 08094 67667 42980 0//// 10238 20130 48612
                   333 59009=
201905080600 AAXX 08064 67667 32980 00903 10184 20115 48609
                   333 10302 20124 59012=
201905060900 AAXX 06094 67667 42680 60902 10221 20160 48607 86500
                   333 5//// 86630=
201905060600 AAXX 06064 67667 32680 60902 10190 20161 48665 86500
                   333 10312 20152 58007 86630=
201905030900 AAXX 03094 67667 42680 40905 10248 20148 48593 84200
                   333 59010 84830=
201905030600 AAXX 03064 67667 32580 20908 10194 20161 48601 82100
                   333 10300 20153 59005 82825=
201905020900 AAXX 02094 67667 42680 20903 10252 20132 48602 82100
                   333 5//// 82830=
201905020600 AAXX 02064 67667 32980 00905 10200 20138 48600
                   333 10296 20156 58008=

################################################################################
#  SYNOPS from 67673, Petauke (Zambia) | 14-15S | 031-17E | 1035 m
################################################################################
201905300600 AAXX 30064 67673 32680 20902 10190 20135 48543 82100
                   333 10290 20120 59018 82830=
201905290900 AAXX 29094 67673 NIL=
201905290600 AAXX 29064 67673 32980 01301 10182 20130 48563
                   333 10270 20125 59016=
201905280600 AAXX 28064 67673 32680 21804 10186 20160 48578 81130
                   333 10270 20146 58009 81827 81360=
201905270900 AAXX 27094 67673 42684 20504 10250 20110 48577 82130
                   333 59001 82830 81360=
201905270600 AAXX 27064 67673 32584 20804 10198 20120 48571 82130
                   333 10250 20139 58005 82825 81360=
201905231200 AAXX 23124 67673 NIL=
201905220900 AAXX 22094 67673 42684 30806 10244 20100 48568 82130
                   333 58016 82832 83360=
201905220600 AAXX 22064 67673 32984 40904 10214 20123 48575 84131
                   333 10310 20144 58035 84360 82080=
201905200900 AAXX 20094 67673 NIL=
201905170900 AAXX 17094 67673 NIL=
201905161200 AAXX 16124 67673 NIL=
201905160600 AAXX 16064 67673 32680 10901 10185 20148 48571 81100
                   333 10274 20125 58006 81830=
201905150900 AAXX 15094 67673 42684 53602 10244 20133 48568 85100
                   333 59002 85830=
201905141200 AAXX 14124 67673 42675 30902 10260 20110 48552 83131
                   333 59003 83832 82360 81080=
201905140900 AAXX 14094 67673 42684 20905 10226 20113 48568 82131
                   333 58004 82830 81360 81080=
201905140600 AAXX 14064 67673 32584 10904 10184 20112 48562 81100
                   333 10290 20100 59016 81825=
201905130900 AAXX 13094 67673 NIL=
201905130600 AAXX 13064 67673 NIL=
201905101200 AAXX 10124 67673 NIL=
201905100900 AAXX 10094 67673 42684 30903 10274 20150 48565 83131
                   333 59010 83832 82360 81080=
201905100600 AAXX 10064 67673 32584 30803 10230 20151 48556 81131
                   333 10290 20160 59032 81828 83360 82080=
201905080600 AAXX 08064 67673 NIL=
201905060900 AAXX 06094 67673 42684 50906 10270 20166 48587 85200
                   333 5//// 85832=
201905060600 AAXX 06064 67673 32584 50904 10240 20173 48580 85100
                   333 10320 20156 58010 85828=
201905030900 AAXX 03094 67673 42684 50202 10264 20188 48577 85200
                   333 58006 85830=
201905030600 AAXX 03064 67673 32584 60502 10240 20180 48581 85530
                   333 10306 20170 58005 85628 82360=
201905020900 AAXX 02094 67673 42684 60802 10268 20168 48573 86200
                   333 5//// 86832=
201905020600 AAXX 02064 67673 32584 30902 10244 20172 48576 83100
                   333 10295 20152 58013 83828=

################################################################################
#  SYNOPS from 67731, Senanga (Zambia) | 16-06S | 023-16E | 1027 m
################################################################################
201905310600 AAXX 31064 67731 32980 007// 10182 20089 48///
                   333 10286 20117 59001
                   555 00034=
201905290900 AAXX 29094 67731 NIL=
201905290600 AAXX 29064 67731 32980 210// 10178 20100 48/// 82030
                   333 10310 20113 58005 82360
                   555 00085=
201905280600 AAXX 28064 67731 32980 026// 10178 20096 48///
                   333 10282 20120 59005
                   555 00052=
201905270600 AAXX 27064 67731 32980 114// 10172 20112 48/// 81020
                   333 10281 20128 59006 81460
                   555 00061=
201905231200 AAXX 23124 67731 NIL=
201905230600 AAXX 23064 67731 32980 232// 10188 20108 48/// 82030
                   333 10323 20130 58010 82360
                   555 00068=
201905220900 AAXX 22094 67731 NIL=
201905220600 AAXX 22064 67731 32680 128// 10207 20104 48/// 81100
                   333 10306 20136 58004 81832
                   555 00089=
201905210600 AAXX 21064 67731 32980 809// 10229 20147 48/// 84038
                   333 10326 20142 59009 84360 88280
                   555 00041=
201905200900 AAXX 20094 67731 42980 602// 10295 20119 48/// 84032
                   333 5//// 84362 84080=
201905200600 AAXX 20064 67731 32980 709// 10240 20116 48/// 85038
                   333 10312 20149 58000 85360 86280
                   555 00036=
201905170900 AAXX 17094 67731 NIL=
201905170600 AAXX 17064 67731 32980 029// 10182 20101 48///
                   333 10307 20132 58005
                   555 00042=
201905161200 AAXX 16124 67731 NIL=
201905160600 AAXX 16064 67731 32980 027// 10180 20110 48///
                   333 10305 20132 58010
                   555 00057=
201905150900 AAXX 15094 67731 NIL=
201905150600 AAXX 15064 67731 32980 00000 10159 2//// 48///
                   333 10304 20063 5////=
201905141200 AAXX 14124 67731 NIL=
201905140600 AAXX 14064 67731 32980 009// 10209 20124 48///
                   333 10319 20159 59009
                   555 00039=
201905130900 AAXX 13094 67731 42980 019// 10268 20144 48///
                   333 59001=
201905130600 AAXX 13064 67731 32980 004// 10236 20127 48///
                   333 10307 20137 59001
                   555 00039=
201905101200 AAXX 10124 67731 NIL=
201905100900 AAXX 10094 67731 NIL=
201905100600 AAXX 10064 67731 32980 027// 10229 20166 48/// 81130
                   333 10265 20139 58001
                   555 00059=
201905080600 AAXX 08064 67731 32980 020// 10194 20113 48///
                   333 10327 20130 59012
                   555 00023=
201905060900 AAXX 06094 67731 42980 019// 10268 20159 48///
                   333 58012=
201905060600 AAXX 06064 67731 32980 209// 10230 20147 48/// 82030
                   333 10309 20186 58010 82360
                   555 00076=
201905030600 AAXX 03064 67731 32980 410// 10208 20121 48/// 84030
                   333 10308 20160 58006 84362
                   555 00042=
201905020900 AAXX 02094 67731 42980 424// 10270 20178 48/// 83032
                   333 58000 83361 83080=
201905020600 AAXX 02064 67731 32980 719// 10228 20157 48/// 85038
                   333 10305 20155 58003 85360 87280
                   555 00081=

################################################################################
#  SYNOPS from 67741, Sesheke (Zambia) | 17-28S | 024-18E | 949 m
################################################################################
201905310600 AAXX 31064 67741 32980 00901 10127 2//// 48///
                   333 10282 20057 4////=
201905300600 AAXX 30064 67741 32980 00801 10168 2//// 48///
                   333 10286 20050 5////=
201905290900 AAXX 29094 67741 NIL=
201905290600 AAXX 29064 67741 32980 00000 10146 2//// 48///
                   333 10280 20066 5////=
201905280600 AAXX 28064 67741 32980 00000 10159 2//// 48///
                   333 10274 20058 5////=
201905270600 AAXX 27064 67741 32980 00901 10160 2//// 48///
                   333 10270 20056 5////=
201905240600 AAXX 24064 67741 32980 21201 10151 20//0 48/// 80001
                   333 10294 20060 5//// 82080=
201905231200 AAXX 23124 67741 NIL=
201905230600 AAXX 23064 67741 32980 01001 10166 2//// 48///
                   333 10308 20084 5////=
201905220900 AAXX 22094 67741 NIL=
201905220600 AAXX 22064 67741 32980 00000 10182 2//// 48///
                   333 10304 20079 5////=
201905210600 AAXX 21064 67741 32980 00000 10179 2//// 48///
                   333 10306 20082 5////=
201905200900 AAXX 20094 67741 42980 01401 10260 2//// 48///
                   333 5////=
201905200600 AAXX 20064 67741 32980 00901 10182 2//// 48///
                   333 10306 20096 5////=
201905170900 AAXX 17094 67741 42980 00901 10271 2//// 48///
                   333 5////=
201905161200 AAXX 16124 67741 NIL=
201905160600 AAXX 16064 67741 32980 00000 10166 2//// 48///
                   333 10296 20066 5////=
201905150900 AAXX 15094 67741 NIL=
201905150600 AAXX 15064 67741 32980 00000 10159 2//// 48///
                   333 10304 20063 5////=
201905141200 AAXX 14124 67741 42980 21603 10280 20127 48543 80001
                   333 58003 82075=
201905140600 AAXX 14064 67741 32980 30000 10161 2//// 48/// 83030
                   333 10298 20090 5//// 83362=
201905130900 AAXX 13094 67741 NIL=
201905130600 AAXX 13064 67741 32980 00000 10178 2//// 48///
                   333 10294 20092 5////=
201905101200 AAXX 10124 67741 NIL=
201905100900 AAXX 10094 67741 NIL=
201905100600 AAXX 10064 67741 32980 00601 10204 2//// 48///
                   333 10328 20095 5////=
201905080600 AAXX 08064 67741 32980 10801 10196 2//// 48/// 80001
                   333 10342 20096 5//// 81080=
201905060600 AAXX 06064 67741 32980 00802 10216 2//// 48///
                   333 10314 20150 5////=
201905020900 AAXX 02094 67741 42680 11001 10286 20//0 48/// 81100
                   333 5//// 81850=
201905020600 AAXX 02064 67741 32980 60901 10211 2//// 48/// 86040
                   333 10320 20115 5//// 86362=

################################################################################
#  SYNOPS from 67743, Livingstone (Zambia) | 17-49S | 025-49E | 985 m
################################################################################
201905290900 AAXX 29094 67743 NIL=
201905270600 AAXX 27064 67743 32980 11106 10138 20053 48547 80001
                   333 10257 20112 59012 81080 91023=
201905231200 AAXX 23124 67743 NIL=
201905230600 AAXX 23064 67743 32980 00903 10301 20057 48557
                   333 10301 20110 58015 91024=
201905220900 AAXX 22094 67743 NIL=
201905200900 AAXX 20094 67743 NIL=
201905170900 AAXX 17094 67743 NIL=
201905170600 AAXX 17064 67743 32980 01801 10182 20092 48539
                   333 10301 20109 59008 91021=
201905161200 AAXX 16124 67743 NIL=
201905160600 AAXX 16064 67743 NIL=
201905150900 AAXX 15094 67743 NIL=
201905141200 AAXX 14124 67743 NIL=
201905140900 AAXX 14094 67743 42980 11010 10231 20070 48560 81030
                   333 59002 91028=
201905130900 AAXX 13094 67743 NIL=
201905130600 AAXX 13064 67743 NIL=
201905101200 AAXX 10124 67743 NIL=
201905100900 AAXX 10094 67743 NIL=
201905100600 AAXX 10064 67743 32980 00804 10185 20071 48538
                   333 10320 20120 58004 91022=
201905080600 AAXX 08064 67743 32780 10807 10178 20064 48557 81031
                   333 10320 20120 59018 81359 81079 91023=
201905060600 AAXX 06064 67743 32980 10103 10199 20131 48563 81030
                   333 10305 20158 58011 81360 91023=
201905020900 AAXX 02094 67743 NIL=
201905020600 AAXX 02064 67743 32980 23410 10177 20104 48560 82030
                   333 10304 20131 58012 82360 91023=

################################################################################
#  SYNOPS from 67751, Magoye (Zambia) | 16-00S | 027-36E | 1018 m
################################################################################
201905310600 AAXX 31064 67751 32980 00802 10183 20093 48///
                   333 1//// 20080 58002=
201905300600 AAXX 30064 67751 32980 00903 10178 20095 48/// 70500
                   333 1//// 20068 59001=
201905290900 AAXX 29094 67751 NIL=
201905290600 AAXX 29064 67751 32980 01001 10182 20101 48///
                   333 1//// 20092 59004=
201905280600 AAXX 28064 67751 32980 01201 10190 20120 48///
                   333 1//// 20074 58004=
201905270600 AAXX 27064 67751 32980 01303 10190 20126 48///
                   333 1//// 20080 58008=
201905231200 AAXX 23124 67751 NIL=
201905230600 AAXX 23064 67751 32980 00811 10190 20085 48///
                   333 1//// 20095 59022=
201905220900 AAXX 22094 67751 NIL=
201905220600 AAXX 22064 67751 32980 00000 10190 20135 48///
                   333 1//// 20119 59004=
201905210600 AAXX 21064 67751 32980 00000 10190 20125 48///
                   333 1//// 20112 58009=
201905200900 AAXX 20094 67751 NIL=
201905200600 AAXX 20064 67751 32980 00907 10200 20135 48///
                   333 1//// 20127 59006=
201905170900 AAXX 17094 67751 NIL=
201905170600 AAXX 17064 67751 32980 00801 10214 20124 48///
                   333 1//// 20060 58010=
201905161200 AAXX 16124 67751 NIL=
201905160600 AAXX 16064 67751 32980 00000 10166 20105 48///
                   333 1//// 20110 58007=
201905150900 AAXX 15094 67751 NIL=
201905150600 AAXX 15064 67751 32980 01302 10190 20117 48///
                   333 1//// 20044 59008=
201905141200 AAXX 14124 67751 NIL=
201905140600 AAXX 14064 67751 32980 11102 10195 20118 48/// 81040
                   333 1//// 20020 58007 81360=
201905130900 AAXX 13094 67751 NIL=
201905130600 AAXX 13064 67751 32980 10902 10205 20182 81040
                   333 10//0 20115 58005 81360=
201905101200 AAXX 10124 67751 NIL=
201905100900 AAXX 10094 67751 NIL=
201905100600 AAXX 10064 67751 32980 00000 10201 20136 48///
                   333 1//// 20103 59001=
201905090600 AAXX 09064 67751 32980 00000 10197 20118
                   333 1//// 20197 58022=
201905080600 AAXX 08064 67751 32980 00509 10201 20146 48///
                   333 1//// 20125 58010=
201905060600 AAXX 06064 67751 32980 00000 10211 20149 48///
                   333 1//// 20165 59016=
201905030600 AAXX 03064 67751 32980 31102 10226 20150 48/// 83040
                   333 10//0 20100 58003 83360=
201905020900 AAXX 02094 67751 NIL=

################################################################################
#  SYNOPS from 67753, Choma (Zambia) | 16-50S | 027-04E | 1213 m
################################################################################
201905310600 AAXX 31064 67753 31980 02803 10134 20087 48542 70500
                   333 10243 20060 59007=
201905300600 AAXX 30064 67753 31980 00000 10146 20096 48552 70500
                   333 10256 20078 58003=
201905290900 AAXX 29094 67753 NIL=
201905280600 AAXX 28064 67753 31980 10000 10145 20107 48544 70500 81030
                   333 10250 20078 59005 81360=
201905270600 AAXX 27064 67753 31680 22703 10140 20116 48552 70500 82100
                   333 10223 20078 59018 82830=
201905231200 AAXX 23124 67753 NIL=
201905220900 AAXX 22094 67753 NIL=
201905210600 AAXX 21064 67753 31980 00000 10195 20129 48549 70500
                   333 10275 20106 59006=
201905200900 AAXX 20094 67753 NIL=
201905170900 AAXX 17094 67753 NIL=
201905161200 AAXX 16124 67753 NIL=
201905160600 AAXX 16064 67753 31980 02803 10170 20120 48555 70500
                   333 10258 20074 58001=
201905150900 AAXX 15094 67753 NIL=
201905141200 AAXX 14124 67753 NIL=
201905130900 AAXX 13094 67753 NIL=
201905130600 AAXX 13064 67753 31980 00000 10165 20140 48555 70500
                   333 10250 20090 59007=
201905101200 AAXX 10124 67753 NIL=
201905100900 AAXX 10094 67753 NIL=
201905100600 AAXX 10064 67753 31980 00413 10190 20132 48548 70500
                   333 10281 20100 59001=
201905080600 AAXX 08064 67753 31980 00809 10185 20126 48557 70500
                   333 10270 20122 59019=
201905060600 AAXX 06064 67753 31980 02710 10189 20144 48567 70500
                   333 10295 20146 58013=
201905020900 AAXX 02094 67753 NIL=
201905020600 AAXX 02064 67753 31980 30000 10152 20106 48553 70500 83030
                   333 10272 20108 58010 83360=

################################################################################
#  SYNOPS from 67855, Lupaki (Zambia) | 17-03-00S | 024-46-00E | 1000 m
################################################################################
201905300600 AAXX 30064 67855 32975 01801 10090 20040 3//// 48///
                   333 20040 5////=
201905291200 AAXX 29124 67855 42675 43504 10268 20063 3//// 48/// 84100
                   333 5//// 84840=
201905290600 AAXX 29064 67855 32975 01801 10102 20053 3//// 48///
                   333 20044 5////=
201905281200 AAXX 28124 67855 42675 21703 10266 20058 3//// 48/// 82100
                   333 5//// 82840=
201905280600 AAXX 28064 67855 32975 00303 10096 20055 3//// 48///
                   333 20048 5////=
201905271200 AAXX 27124 67855 42675 20301 10260 20078 3//// 48/// 82100
                   333 5//// 82840=
201905270600 AAXX 27064 67855 32975 10902 10106 20078 3//// 48/// 81030
                   333 20060 5//// 81360=
201905260600 AAXX 26064 67855 12975 02001 10100 20053 3//// 48/// 69904
                   333 20050 5////=
201905250600 AAXX 25064 67855 32975 70000 10150 20100 3//// 48/// 8707/
                   333 20118 5//// 87360=
201905241200 AAXX 24124 67855 42675 50603 10266 20074 3//// 48/// 85100
                   333 5//// 85845=
201905240600 AAXX 24064 67855 32975 20000 10124 20090 3//// 48/// 80001
                   333 20086 5////=
201905231200 AAXX 23124 67855 42975 00304 10274 20065 3//// 48///
                   333 5////=
201905230600 AAXX 23064 67855 32975 00000 10118 20093 3//// 48///
                   333 20073 5////=
201905190600 AAXX 19064 67855 32975 30000 10102 20090 3//// 48/// 83030
                   333 20093 5//// 83360=
201905181200 AAXX 18124 67855 42675 70000 10250 20128 3//// 48/// 8227/
                   333 5//// 82840 87459=
201905180600 AAXX 18064 67855 32975 70000 10166 20090 3//// 48/// 8707/
                   333 20120 5//// 87459=
201905151200 AAXX 15124 67855 42975 01607 10276 20073 3//// 48///
                   333 5////=
201905150600 AAXX 15064 67855 32975 01002 10132 20092 3//// 48///
                   333 20068 5////=
201905130600 AAXX 13064 67855 32975 01801 10126 20104 3//// 48///
                   333 20074 5////=
201905120600 AAXX 12064 67855 31970 00901 10164 20115 3//// 48/// 70500
                   333 20112 5////=
201905110600 AAXX 11064 67855 32975 00000 10152 20128 3//// 48///
                   333 20070 5////=
201905101200 AAXX 10124 67855 42875 21809 10304 20065 3//// 48/// 82100
                   333 5//// 82857=
201905100600 AAXX 10064 67855 32975 01801 10138 20070 3//// 48///
                   333 20070 5////=
201905061200 AAXX 06124 67855 42875 10901 10324 20098 3//// 48/// 81100
                   333 5//// 81857=
201905060600 AAXX 06064 67855 32975 50000 10160 20108 3//// 48/// 85030
                   333 20118 5//// 85360=
201905051200 AAXX 05124 67855 42875 60301 10310 20108 3//// 4//// 83130
                   333 5//// 83857=
201905050600 AAXX 05064 67855 32975 70000 10156 20090 3//// 48/// 8703/
                   333 20119 87360=
201905041200 AAXX 04124 67855 42775 53605 10312 20085 3//// 48/// 85100
                   333 5//// 85856=
201905031200 AAXX 03124 67855 42775 43301 10304 20110 3//// 48/// 84100
                   333 5//// 84856=
201905030600 AAXX 03064 67855 32975 00000 10140 20088 3//// 48///
                   333 20079 5////=
201905021200 AAXX 02124 67855 42775 33101 10300 20093 3//// 48/// 83100
                   333 5//// 83856=
201905011200 AAXX 01124 67855 42975 41601 10286 20105 3//// 48/// 84100
                   333 5//// 84856=
