################################################################################
# Query made at 04/17/2022 11:27:01 UTC
# Country like Zamb*
# Time interval: from 05/01/2008 05:30  to 05/31/2008 05:30  UTC
################################################################################

################################################################################
#  SYNOPS from 67413, Mbala (Zambia) | 08-51S | 031-20E | 1673 m
################################################################################
200805280600 AAXX 28064 67413 32480 71214 10155 20120 48542 8153/
                   333 10250 20124 58003 81610 87359=
200805270600 AAXX 27064 67413 12980 61412 10180 20129 48538 60064 8603/
                   333 10250 20134 58006 86359=
200805120600 AAXX 12064 67413 12980 30000 10190 20141 48538 60054 80001
                   333 10270 20140 59005 83080=
200805080600 AAXX 08064 67413 31980 01410 10201 20136 48535 70500
                   333 10280 20141 59001=
200805020600 AAXX 02064 67413 32980 31218 10195 20127 48526 80001
                   333 10270 20149 5//// 83080=

################################################################################
#  SYNOPS from 67441, Mwinilunga (Zambia) | 11-45S | 024-26E | 1361 m
################################################################################
200805300600 AAXX 30064 67441 31975 21403 10141 20118 48/// 70500 82030
                   333 10285 20092 82360=
200805280600 AAXX 28064 67441 31965 00000 10163 20072 48/// 70500
                   333 10265 20058 5////=

################################################################################
#  SYNOPS from 67461, Mansa (Zambia) | 11-06S | 028-51E | 1382 m
################################################################################
200805300600 AAXX 30064 67461 31970 21003 10162 20142 48529 70500 80001
                   333 10207 20113 59003 82080=
200805280600 AAXX 28064 67461 31970 51204 10166 20122 48528 70522 80008
                   333 10270 20118 59011 85280=
200805270600 AAXX 27064 67461 31965 60902 10155 20116 48535 70522 83038
                   333 10266 20100 58011 83363 83280=
200805220600 AAXX 22064 67461 31970 50905 10162 20124 48523 70500 80001
                   333 20112 59006 82080=
200805210600 AAXX 21064 67461 31965 21203 10160 20116 48523 70500 80001
                   333 10260 20114 59007 82080=
200805200900 AAXX 20094 67461 41670 20910 10220 20109 48541 70500 81101
                   333 59014 81835 82080=
200805200600 AAXX 20064 67461 31965 20904 10155 20129 48530 80001
                   333 10260 20110 59005 82080=
200805141200 AAXX 14124 67461 41775 31204 10278 20083 48538 70500 83101
                   333 58009 83857 82080=
200805140600 AAXX 14064 67461 31975 20902 10175 20124 48549 70500 80001
                   333 10295 20103 58016 82080=
200805070600 AAXX 07064 67461 31965 20902 10180 20156 48522 70500 80001
                   333 10302 20140 59018 82080=

################################################################################
#  SYNOPS from 67475, Kasama (Zambia) | 10-13S | 031-08E | 1382 m
################################################################################
200805270600 AAXX 27064 67475 31975 31212 10181 20122 48537 70521 83030
                   333 10262 20114 58011 83361=
200805140600 AAXX 14064 67475 32980 61207 10210 20149 48551 82038
                   333 10282 20119 58010 82360 86280=
200805120600 AAXX 12064 67475 31970 61408 10210 20146 48535 70522 86030
                   333 10289 20137 58000 86361=
200805070600 AAXX 07064 67475 32975 10807 10217 20157 48535 70500 80001
                   333 10290 20126 59022 81080=
200805020600 AAXX 02064 67475 32480 50914 10182 20155 48526 81101
                   333 10251 20148 58000 81818 85080=

################################################################################
#  SYNOPS from 67476, Misamfu (Zambia) | 10-06S | 031-15E | 1536 m
################################################################################
200805200600 AAXX 20064 67476 32980 01308 10175 20108 48///
                   333 10250 20114 59007=
200805140600 AAXX 14064 67476 32980 10904 10197 20146 48/// 81030
                   333 10280 20113 59011 81361=
200805120600 AAXX 12064 67476 32980 41707 10210 20168 48/// 84030
                   333 10285 20130 59003 84361=
200805060600 AAXX 06064 67476 32980 10000 10204 20158 48/// 80002
                   333 10295 20105 58006 81080=

################################################################################
#  SYNOPS from 67477, Mpika (Zambia) | 11-54S | 031-26E | 1400 m
################################################################################
200805200600 AAXX 20064 67477 32480 71012 10150 20113 48548 87500
                   333 10226 20115 5//// 87615=

################################################################################
#  SYNOPS from 67531, Zambezi (Zambia) | 13-32S | 023-07E | 1077 m
################################################################################
200805300600 AAXX 30064 67531 32980 11306 10166 20115 48/// 81030
                   333 10276 20110 5//// 81363=
200805280600 AAXX 28064 67531 31978 01205 10138 20081 48/// 70500
                   333 10276 20085 58004=
200805270900 AAXX 27094 67531 41978 11207 10240 20091 48/// 70500 80001
                   333 5//// 81082=
200805270600 AAXX 27064 67531 31978 21208 10162 20080 48/// 70500 80001
                   333 10285 20101 58017 82080=
200805220600 AAXX 22064 67531 31978 11602 10165 20115 48/// 70500 81030
                   333 10295 20106 59001 81363=
200805210600 AAXX 21064 67531 31978 11304 10166 20122 48/// 70500 80002
                   333 10284 20094 59010 81082=
200805200900 AAXX 20094 67531 41970 01210 10235 20106 48/// 70500
                   333 59014=
200805200600 AAXX 20064 67531 31970 01107 10159 20105 48/// 70500
                   333 10270 20105 59018=
200805120600 AAXX 12064 67531 31978 01203 10190 20143 48/// 70500
                   333 10305 20120 59001=
200805080600 AAXX 08064 67531 32980 01301 10195 20156 48///
                   333 10315 20149 59011=
200805070600 AAXX 07064 67531 11980 01801 10200 20181 48/// 69904 70240
                   333 10301 20160 59012=
200805060600 AAXX 06064 67531 21401 10206 20185 48/// 60044 81032
                   333 10305 20162 58012 81363 82081=
200805020600 AAXX 02064 67531 32980 10907 10220 20193 48/// 80002
                   333 10306 20147 59010 81082=

################################################################################
#  SYNOPS from 67551, Solwezi (Zambia) | 12-11S | 026-23E | 1386 m
################################################################################
200805280600 AAXX 28064 67551 31965 70000 10115 20100 48530 70500 87030
                   333 10252 20081 58004 87360=
200805270600 AAXX 27064 67551 31867 10905 10150 20100 48529 70500 80001
                   333 10260 20089 58008 81080=
200805140600 AAXX 14064 67551 31965 00000 10138 20096 48538 70500
                   333 10287 20075 59001=
200805120600 AAXX 12064 67551 31980 11704 10164 20123 48527 70500 80001
                   333 10292 20087 59007 81080=
200805060600 AAXX 06064 67551 31975 21704 10185 20161 48519 70500 80001
                   333 10295 20110 59023 82080=

################################################################################
#  SYNOPS from 67561, Ndola (Zambia) | 13-00S | 028-39E | 1269 m
################################################################################
200805300600 AAXX 30064 67561 31975 00000 10206 20124 48536 70500
                   333 10270 20143 59002 83360=
200805280900 AAXX 28094 67561 41675 51206 10228 20109 48543 70511 85100
                   333 59001 85835=
200805280600 AAXX 28064 67561 31975 10906 10171 20113 48543 70511 81030
                   333 20121 58000 81360=
200805280400 AAXX 28044 67561 41975 50000 10122 20104 48544 70511 85030
                   333 58003 85360=
200805270600 AAXX 27064 67561 31975 10000 10144 20096 48540 70511 81030
                   333 10270 20102 58010 81360=
200805220600 AAXX 22064 67561 31960 50000 10164 20123 48527 70511 80008
                   333 10280 20106 59005 85280=
200805210600 AAXX 21064 67561 31975 00000 10152 20106 48531 70500
                   333 10266 20095 59007=
200805200900 AAXX 20094 67561 42680 11008 10224 20104 48548 81100
                   333 59008 81835 81361=
200805141200 AAXX 14124 67561 41775 41109 10292 20092 48544 70500 84200
                   333 58013 84850=
200805140600 AAXX 14064 67561 31965 00805 10187 20117 48549 70500
                   333 10303 20095 58007=
200805080600 AAXX 08064 67561 31970 00000 10195 20147 48528 70500
                   333 10315 20139 59006=
200805030600 AAXX 03064 67561 11975 30805 10170 20120 48516 69904 70500 81032
                   333 10293 20125 59008 81361 83080=

################################################################################
#  SYNOPS from 67563, Kafironda (Zambia) | 12-36S | 028-07E | 1243 m
################################################################################
200805280600 AAXX 28064 67563 31975 11002 10154 20120 48/// 70500 81030
                   333 10287 20076 58000 81359=
200805270900 AAXX 27094 67563 42580 41205 10237 20110 48/// 84100
                   333 58005 84830=
200805270600 AAXX 27064 67563 32980 00902 10145 20110 48///
                   333 10278 20056 58013=
200805200600 AAXX 20064 67563 32980 40901 10114 20100 48/// 82030
                   333 10271 20150 59015 84358=
200805120600 AAXX 12064 67563 31970 00000 10139 20110 48/// 70540
                   333 10312 20060 59001=
200805080600 AAXX 08064 67563 31975 00901 10183 20150 48/// 70500
                   333 10315 20096 59008=
200805020600 AAXX 02064 67563 31980 21205 10178 20156 48521 70500 81031
                   333 10271 20144 58002 81362 82080=

################################################################################
#  SYNOPS from 67571, Serenje (Zambia) | 13-14S | 030-13E | 1384 m
################################################################################
200805270600 AAXX 27064 67571 32484 11205 10166 20096 48540 81100
                   333 10236 20126 59009 81818=
200805120600 AAXX 12064 67571 31980 30905 10215 20103 48532 70511 80001
                   333 10291 20140 58001 83080=
200805060600 AAXX 06064 67571 32980 10904 10221 20144 48553 70500 80001
                   333 10300 20154 58014 81080=

################################################################################
#  SYNOPS from 67580, Msekera (Zambia) | 13-39S | 032-34E | 1025 m
################################################################################
200805280600 AAXX 28064 67580 32580 20000 10242 20109 48/// 81130
                   333 10273 20121 58001 81825 81360=
200805270600 AAXX 27064 67580 32980 70000 10190 20128 48/// 8703/
                   333 10277 20128 5//// 87360=
200805200900 AAXX 20094 67580 42680 11208 10230 20105 48/// 81100
                   333 59008 81840=
200805200600 AAXX 20064 67580 32480 11086 10178 20126 48/// 81100
                   333 10227 20106 59007 81818=
200805141200 AAXX 14124 67580 41780 40910 10300 20099 48/// 70511 84100
                   333 58019 84856=
200805140600 AAXX 14064 67580 31980 11206 10245 20147 48/// 70500 80002
                   333 10317 20168 58015 81075=
200805120600 AAXX 12064 67580 31580 10000 10225 20179 48/// 70500 81100
                   333 10315 20143 58001 81825=
200805080600 AAXX 08064 67580 31978 51505 10227 20140 48/// 70511 85031
                   333 10323 20162 58003 85360 81080=
200805060600 AAXX 06064 67580 31980 00000 10215 20155 48/// 70500
                   333 10312 20122 58007=
200805020600 AAXX 02064 67580 12484 20904 10204 20141 48532 69904 81101
                   333 10280 20164 58005 81810 82080=

################################################################################
#  SYNOPS from 67581, Chipata (Zambia) | 13-33S | 032-35E | 1028 m
################################################################################
200805300600 AAXX 30064 67581 32984 31305 10206 20127 48550 83030
                   333 10270 20143 59002 82361=
200805280600 AAXX 28064 67581 32984 11505 10191 20130 48557 81030
                   333 10264 20153 58004 81616=
200805270600 AAXX 27064 67581 32984 13705 10191 20110 48553 83030
                   333 10281 20143 58010 83360=
200805220600 AAXX 22064 67581 32984 50903 10191 20120 48546 85030
                   333 10276 20129 58000 85361=
200805210600 AAXX 21064 67581 32984 01804 10186 20114 48545
                   333 10262 20131 59012=
200805200900 AAXX 20094 67581 42684 11206 10234 20105 48561 81100
                   333 59005 81845=
200805200600 AAXX 20064 67581 32580 11206 10176 20115 48554 80001
                   333 10277 20135 59004 81820=
200805140600 AAXX 14064 67581 32980 10908 10249 20130 48572 81030
                   333 10310 20176 58019 81362=
200805120600 AAXX 12064 67581 32984 00902 10238 20170 48545
                   333 10349 20135 58006=
200805080600 AAXX 08064 67581 32984 10904 10242 20132 48547 81030
                   333 10315 20164 58003 81360=
200805070600 AAXX 07064 67581 32984 00704 10246 20167 48544
                   333 10318 20135 59024=
200805060600 AAXX 06064 67581 31984 00908 10240 20128 48568
                   333 10303 20130 58005=
200805020600 AAXX 02064 67581 12984 40908 10240 20132 48550 69904 84030
                   333 10302 20180 58010 84362=

################################################################################
#  SYNOPS from 67583, Lundazi (Zambia) | 12-17S | 033-12E | 1143 m
################################################################################
200805280600 AAXX 28064 67583 32680 71205 10185 20144 48/// 81530
                   333 10220 20131 58002 81628 87360=
200805270600 AAXX 27064 67583 32680 11504 10198 20145 48/// 81500
                   333 10230 20115 59012 81630=
200805141200 AAXX 14124 67583 42680 30905 10280 20130 48/// 83132
                   333 58019 83845 82080=
200805140600 AAXX 14064 67583 32980 31802 10210 20163 48/// 81032
                   333 10270 20119 58016 81362 83080=
200805120600 AAXX 12064 67583 32980 01203 10225 20179 48///
                   333 10280 20133 58009=

################################################################################
#  SYNOPS from 67599, Mfuwe (Zambia) | 13-16S | 031-56E | 568 m
################################################################################
200805300600 AAXX 30064 67599 12980 30000 10195 20164 48555 69904 83030
                   333 10300 20//0 59001 83360=
200805280900 AAXX 28094 67599 42680 42009 10276 20160 48578 83130
                   333 59004 83830 82360=
200805280600 AAXX 28064 67599 32980 50000 10200 20215 48566 85030
                   333 10312 20/// 58002 85360=
200805270900 AAXX 27094 67599 42580 30000 10250 20152 81130
                   333 58007 81825 82360=
200805270600 AAXX 27064 67599 32980 41706 10195 20137 48562 84030
                   333 10310 20/// 58009 84360=
200805261500 AAXX 26154 67599 42980 12004 10285 20130 48547 81030
                   333 58013 81360=
200805261200 AAXX 26124 67599 42780 41606 10295 20126 48550 84200
                   333 58003 84850=
200805211200 AAXX 21124 67599 42780 23403 10295 20146 48548 82200
                   333 59011 82850=
200805201500 AAXX 20154 67599 42980 00000 10280 20120 48545
                   333 59013=
200805200900 AAXX 20094 67599 42680 20000 10260 20148 48574 82100
                   333 59013 82830=
200805200600 AAXX 20064 67599 32980 00000 10185 20144 48561
                   333 10316 20//0 59011=
200805191500 AAXX 19154 67599 42980 11806 10284 20142 48557 81030
                   333 59023 81360=
200805141500 AAXX 14154 67599 42980 40705 10325 20148 48569 84030
                   333 58015 84360=
200805141200 AAXX 14124 67599 42780 40909 10320 20130 48575 84200
                   333 58019 84856=
200805140600 AAXX 14064 67599 32980 10000 10192 20130 48560 81030
                   333 10360 20//0 58014 81360=
200805131200 AAXX 13124 67599 42780 31204 10330 20164 48562 83200
                   333 58013 83850=
200805120600 AAXX 12064 67599 32980 02006 10205 20149 48541
                   333 10342 20/// 58000=
200805080900 AAXX 08094 67599 42680 20905 10305 20179 48569 81130
                   333 59003 81830 81360=
200805080600 AAXX 08064 67599 32980 50000 10215 20172 48543 85030
                   333 10351 20/// 58002=
200805071500 AAXX 07154 67599 42980 20000 10330 20192 48544 82030
                   333 59017 82360=
200805071200 AAXX 07124 67599 42780 32406 10334 20187 48548 83100
                   333 59020 83856=
200805060900 AAXX 06094 67599 42980 00000 10300 20190 48586
                   333 58004=
200805060600 AAXX 06064 67599 32980 00000 10210 20163 48567
                   333 10335 20/// 58002=
200805020600 AAXX 02064 67599 32980 61904 10220 20190 48550
                   333 10340 20//0 58005 86360=
200805011200 AAXX 01124 67599 42780 42404 10325 20195 45843
                   333 58003 84850=

################################################################################
#  SYNOPS from 67633, Mongu (Zambia) | 15-15S | 023-09E | 1052 m
################################################################################
200805300600 AAXX 30064 67633 32982 20906 10158 20096 48532 82030
                   333 10285 20103 59004 82361=
200805280600 AAXX 28064 67633 32982 00806 10150 20086 48552
                   333 10288 20110 58023=
200805270900 AAXX 27094 67633 42982 20915 10253 20074 48554 80001
                   333 58010 82080=
200805270600 AAXX 27064 67633 32980 20908 10162 20076 48532 80001
                   333 10298 20127 58013 82080=
200805220600 AAXX 22064 67633 32982 10096 10170 20118 48522 81030
                   333 10278 20130 58004 81361=
200805210600 AAXX 21064 67633 32982 10905 10163 20106 48522 80001
                   333 10280 20134 59015 81080=
200805200600 AAXX 20064 67633 32980 00806 10142 20105 48534
                   333 10227 20115 59009=

################################################################################
#  SYNOPS from 67655, Mumbwa (Zambia) | 15-04S | 027-11E | 1216 m
################################################################################
200805280600 AAXX 28064 67655 32980 00906 10143 20121 48553
                   333 10254 20070 58001=
200805270900 AAXX 27094 67655 42480 10105 10221 20082 48559 81100
                   333 58014 81815=
200805120600 AAXX 12064 67655 32980 00902 10177 20133 48549
                   333 10285 20116 58001=
200805020600 AAXX 02064 67655 32980 00910 10193 20116 48541
                   333 10283 20144 58001=

################################################################################
#  SYNOPS from 67659, Kafue Polder (Zambia) | 15-46S | 027-55E | 978 m
################################################################################
200805270600 AAXX 27064 67659 31970 10902 10171 20119 48/// 70500 80002
                   333 10272 20/// 81080=

################################################################################
#  SYNOPS from 67665, Lusaka Internationalairport (Zambia) | 15-19S | 028-27E | 1152 m
################################################################################
200805300900 AAXX 30094 67665 42580 10709 10216 20113 48565 81100
                   333 59002 81820=
200805300600 AAXX 30064 67665 32980 01103 10135 20115 48549
                   333 10259 20095 58000=
200805300400 AAXX 30044 67665 42980 00000 10106 20//0 48534
                   333 59007=
200805300300 AAXX 30034 67665 42980 00000 10106 20/// 48529
                   333 59005=
200805300000 AAXX 30004 67665 42980 10000 10113 20/// 48534 81030
                   333 59001 81360=
200805292100 AAXX 29214 67665 00000 10125 20//0 48540
                   333 59002=
200805291800 AAXX 29184 67665 42980 21403 10142 20//0 48538 82030
                   333 59005 82360=
200805291500 AAXX 29154 67665 42980 20907 10221 20119 48538 82030
                   333 59005 82360=
200805291200 AAXX 29124 67665 42680 40906 10232 20125 48542 84100
                   333 58001 84835=
200805290900 AAXX 29094 67665 42580 50811 10208 20130 48566 85800
                   333 58000 82820 83622=
200805290600 AAXX 29064 67665 32480 11108 10136 20119 48550 81500
                   333 10247 20084 59010 81610=
200805281200 AAXX 28124 67665 42680 51008 10232 20120 48542 85200
                   333 59007 85835=
200805280900 AAXX 28094 67665 42680 30910 10210 20119 48566 83500
                   333 59002 83625=
200805280600 AAXX 28064 67665 32380 31007 10132 20115 48558 83500
                   333 10239 20115 59001 83609=
200805271200 AAXX 27124 67665 42680 50808 10239 20078 48550 85200
                   333 58016 85842=
200805270900 AAXX 27094 67665 42580 50910 10205 20121 48567 85100
                   333 58011 85825=
200805270600 AAXX 27064 67665 32480 11105 10133 20096 48559 81501
                   333 10250 20084 58016 81610 81080=
200805270400 AAXX 27044 67665 42980 00000 10089 20//0 48538
                   333 58014=
200805270300 AAXX 27034 67665 42980 00000 10083 20//0 48531
                   333 58015=
200805262100 AAXX 26214 67665 42980 00000 10111 20//0 48538
                   333 58012=
200805261800 AAXX 26183 67665 42980 00000 10142 48557
                   333 10250 58000=
200805261500 AAXX 26154 67665 42780 21208 10229 20079 48533 82100
                   333 58010 82856=
200805261200 AAXX 26124 67665 42680 40906 10239 20083 48535 84100
                   333 58007 84840=
200805260600 AAXX 26064 67665 32980 01104 10143 20102 48546
                   333 10250 20085 58009=
200805260400 AAXX 26044 67665 42980 01505 10094 20//0 48524
                   333 58007=
200805260300 AAXX 26034 67665 42980 00000 10104 20//0 48521
                   333 58003=
200805252100 AAXX 25214 67665 42980 00000 10120 20//0 48527
                   333 59005=
200805240900 AAXX 24094 67665 42580 10706 10217 20115 48555 81100
                   333 58006 81820=
200805240600 AAXX 24064 67665 32980 11202 10146 20115 48545 81030
                   333 10260 20106 58008 81360=
200805240000 AAXX 24004 67665 42980 61402 10139 20138 48526 86030
                   333 58010 76360=
200805231500 AAXX 23154 67665 42980 41004 10231 20121 48526 84030
                   333 58002 84360=
200805231200 AAXX 23124 67665 42680 41005 10229 20112 48527 84200
                   333 59001 84832=
200805230900 AAXX 23094 67665 42980 00607 10223 20109 48549
                   333 58001=
200805230600 AAXX 23064 67665 32980 11203 10141 20113 48536 81030
                   333 10262 20093 59001 81359=
200805230400 AAXX 23044 67665 42980 00000 10095 20//0 48520
                   333 58000=
200805230300 AAXX 23034 67665 42980 00000 10109 20//0 48520
                   333 59002=
200805230000 AAXX 23004 67665 42980 00000 10116 20//0 48525
                   333 59006=
200805222100 AAXX 22214 67665 42980 00000 10136 20//0 48529
                   333 59003=
200805221800 AAXX 22184 67665 42980 20000 10154 20//0 48529 82030
                   333 10262 59001 82030=
200805221200 AAXX 22124 67665 42680 30602 10243 20121 48528 83100
                   333 59002 83840=
200805220600 AAXX 22064 67665 32980 31104 10150 20136 48538 83030
                   333 10255 20144 59015 83360=
200805211800 AAXX 21184 67665 42980 21305 10152 20//0 48530 82030
                   333 10255 59009 82360=
200805211500 AAXX 21154 67665 42880 21004 10230 20113 48523 82100
                   333 59013 82857=
200805211200 AAXX 21124 67665 42680 51004 10237 20083 48530 85100
                   333 59027 85845=
200805210600 AAXX 21064 67665 32980 71006 10140 20115 48551 8703/
                   333 10245 20093 59003 87358=
200805210300 AAXX 21034 67665 42980 10000 10095 20//0 48523 81030
                   333 59006 81360=
200805201800 AAXX 20184 67665 42980 11404 10146 20//0 48538 81030
                   333 10245 59017 81360=
200805201500 AAXX 20154 67665 42780 51004 10214 20114 48534 85100
                   333 59018 85856=
200805201200 AAXX 20124 67665 42680 50808 10225 20128 48541 85100
                   333 59021 85840=
200805200900 AAXX 20094 67665 42480 50711 10202 20123 48564 85100
                   333 59018 85819=
200805200600 AAXX 20064 67665 32480 50814 10142 20117 48554 85500
                   333 10235 20075 59016 85610=
200805200400 AAXX 20044 67665 42980 11104 10078 20//0 48537 81030
                   333 58013 81359=
200805200300 AAXX 20034 67665 42980 01205 10087 20//0 48531
                   333 59015=
200805191800 AAXX 19184 67665 42980 01203 10137 20//0 48553
                   333 59014=
200805191500 AAXX 19154 67665 42780 31008 10204 20115 48550 83100
                   333 59012 83856=
200805191200 AAXX 19124 67665 42980 70710 10209 20112 48559 87100
                   333 59010 87840=
200805180900 AAXX 18094 67665 42580 41014 10205 20113 48592 84800
                   333 59003 81825 83625=
200805180600 AAXX 18064 67665 32480 11004 10138 20113 48578 81500
                   333 10260 20086 59006 81612=
200805171200 AAXX 17124 67665 42680 10908 10248 20090 48568 81100
                   333 59010 81838=
200805170900 AAXX 17094 67665 42580 10812 10223 20101 48596 81500
                   333 58000 81625=
200805170600 AAXX 17064 67665 32980 01203 10143 20120 48584
                   333 10245 20100 58005=
200805161200 AAXX 16124 67665 42680 50707 10228 20133 48575 85800
                   333 58011 84830 82632=
200805160400 AAXX 16044 67665 42980 00000 10130 20//0 48562
                   333 58009=
200805160300 AAXX 16034 67665 42980 01502 10121 20//0 48551
                   333 59001=
200805160000 AAXX 16004 67665 42980 00000 10121 20//0 48553
                   333 58003=
200805152100 AAXX 15214 67665 42980 00000 10127 20//0 48567
                   333 58002=
200805151800 AAXX 15184 67665 42980 01402 10151 20//0 48569
                   333 10264 58012=
200805151200 AAXX 15124 67665 42680 41111 10255 20118 48567 84100
                   333 58008 84848=
200805150600 AAXX 15064 67665 32980 00908 10174 20128 48580
                   333 10290 20116 58018=
200805141800 AAXX 14184 67665 42980 00000 10178 20//0 48535
                   333 10290 58015=
200805141500 AAXX 14154 67665 42980 01105 10264 20105 48559
                   333 58015=
200805141200 AAXX 14124 67665 42680 10610 10283 20089 48563 81100
                   333 58019 81850=
200805140900 AAXX 14094 67665 42980 00811 10260 20096 48580
                   333 58017 91025=
200805140600 AAXX 14064 67665 32980 00000 10185 20077 48566
                   333 10304 20115 58015=
200805140400 AAXX 14044 67665 42980 00000 10122 20//0 48541
                   333 58010=
200805140300 AAXX 14034 67665 42980 00000 10120 20//0 48537
                   333 58002=
200805132100 AAXX 13214 67665 42980 00000 10138 20//0 48547
                   333 58015=
200805131800 AAXX 13184 67665 42980 00000 10187 20//0 48549
                   333 10304 58021=
200805131500 AAXX 13154 67665 42880 11408 10272 20075 48545 81100
                   333 58013 81858=
200805131200 AAXX 13124 67665 42780 11105 10292 20086 48546 81100
                   333 58008 81850=
200805130900 AAXX 13094 67665 42980 01407 10282 20087 48566
                   333 58011 91023=
200805130600 AAXX 13064 67665 32960 00000 10180 20118 48550 70500
                   333 10300 20112 58007
                   555 00/// 91022=
200805120900 AAXX 12094 67665 42980 00905 10271 20109 48554
                   333 59001=
200805120600 AAXX 12064 67665 31960 01303 10158 20121 48541 70500
                   333 10290 20105 58001=
200805111800 AAXX 11184 67665 42980 10000 10169 20//0 48533 81030
                   333 10290 58004 81360=
200805111500 AAXX 11154 67665 42980 11406 10265 48531 81030
                   333 58004 81360=
200805111200 AAXX 11124 67665 42680 10903 10280 20106 48533 81100
                   333 58001 81845=
200805110900 AAXX 11094 67665 42980 10257 20164 48554
                   333 58002=
200805110600 AAXX 11064 67665 32980 00000 10177 20152 48542
                   333 10282 20114 58000=
200805100900 AAXX 10094 67665 42580 10808 10243 20149 48549 81100
                   333 58001 81825=
200805100600 AAXX 10064 67665 32480 11203 10177 20148 48541 81130
                   333 10287 20128 58003 81818 81360=
200805100400 AAXX 10044 67665 42980 00000 10124 20//0 48519
                   333 59001=
200805100300 AAXX 10034 67665 42980 00000 10127 20/// 48517
                   333 59004=
200805100000 AAXX 10004 67665 42980 00000 10136 20//0 48522
                   333 59005=
200805092100 AAXX 09214 67665 42980 00000 10155 20//0 48523
                   333 58010=
200805091800 AAXX 09184 67665 42980 01402 10185 20170 48528
                   333 10287 58001=
200805091200 AAXX 09124 67665 42680 50608 10266 20179 48525 81500
                   333 59005 85843=
200805090600 AAXX 09064 67665 31959 01005 10178 20157 48539 70500
                   333 10284 20135 59002=
200805081200 AAXX 08124 67665 42680 50905 10256 20144 48530 85200
                   333 59004 85848 91019=
200805080900 AAXX 08094 67665 42680 10708 10262 20154 48552 81100
                   333 59006 81835=
200805080600 AAXX 08064 67665 32980 10000 10189 20148 48543 81030
                   333 10299 20134 59002 81360=
200805080300 AAXX 08034 67665 42980 00704 10149 20//0 48520
                   333 59003=
200805071800 AAXX 07184 67665 42980 00000 10196 20//0 48536
                   333 10299 59008=
200805071500 AAXX 07154 67665 42880 31404 10269 20150 48533 83100
                   333 59011 83857=
200805071200 AAXX 07124 67665 42680 51104 10288 20135 48538 85201
                   333 59018 85840 81080=
200805070600 AAXX 07064 67665 32980 10000 10195 20162 48546 81030
                   333 10296 20145 59022 81360 91022=
200805060900 AAXX 06094 67665 42680 11006 10264 20141 48574 81101
                   333 58009 81835 81080=
200805060600 AAXX 06064 67665 32980 00000 10190 20141 48566
                   333 10271 20139 58013=
200805050900 AAXX 05094 67665 41960 60608 10236 20158 48564 86030
                   333 58020 86360=
200805050600 AAXX 05064 67665 31959 70000 10176 20157 48552 70522 87030
                   333 10279 20140 58021 87360=
200805041200 AAXX 04124 67665 42680 51403 10263 20164 48525 81231
                   333 58005 81840 84360 81080=
200805031200 AAXX 03124 67665 42680 60609 10234 20102 48517 81102
                   333 59008 81845 86080=
200805030600 AAXX 03064 67665 32980 60810 10161 20131 48530 86002
                   333 10283 20119 59010 86080=
200805030400 AAXX 03044 67665 42980 41104 10118 20//0 48514 81032
                   333 59006 81360 84080=
200805030300 AAXX 03034 67665 42980 01203 10126 20//0 48513
                   333 59002=
200805030000 AAXX 03004 67665 42980 00000 10135 20//0 48513
                   333 59003=
200805022100 AAXX 02214 67665 42980 01202 10149 20//0 48528
                   333 58005=
200805021800 AAXX 02184 67665 42980 51104 10187 20170 48534 81032
                   333 58009 81360 85080=
200805021200 AAXX 02124 67665 42780 20610 10276 20127 48534 82100
                   333 58009 82850=
200805020600 AAXX 02064 67665 32980 11003 10172 20119 48539 81030
                   333 10280 20128 58004 81360=
200805011500 AAXX 01154 67665 42880 30505 10264 20137 48521 83131
                   333 59002 83857 82360 81080=

################################################################################
#  SYNOPS from 67666, Lusaka City Airport (Zambia) | 15-25S | 028-19E | 1280 m
################################################################################
200805280600 AAXX 28064 67666 32480 40908 10140 20123 48547 84500
                   333 10225 20115 59001 84619=
200805270900 AAXX 27094 67666 42580 60711 10190 20119 48551 86800
                   333 58003 83620 85825=
200805270600 AAXX 27064 67666 32480 20908 10150 20105 48549 82501
                   333 10235 20114 58014 82610 81078=
200805200900 AAXX 20094 67666 42680 30912 10190 20110 48551 83100
                   333 59026 83830=
200805200600 AAXX 20064 67666 32480 70916 10135 20109 48537 87371
                   333 10214 20106 59018 87618=
200805141200 AAXX 14124 67666 42680 10610 10274 20086 48554 81100
                   333 58024 81835=
200805140600 AAXX 14064 67666 32980 00000 10185 20077 48566
                   333 10304 20115 58015=
200805120600 AAXX 12064 67666 31970 00000 10215 20124 48539 70500
                   333 10280 20110 59002=
200805080600 AAXX 08064 67666 32980 20906 10210 20145 48533 70500 82030
                   333 10279 20155 59003 82361=
200805060600 AAXX 06064 67666 32980 01202 10219 20140 48550
                   333 10245 20150 58010=
200805020600 AAXX 02064 67666 32980 00911 10116 20107 48531
                   333 10261 20156 5////=

################################################################################
#  SYNOPS from 67667, Mount Makulu (Zambia) | 15-33S | 028-15E | 1213 m
################################################################################
200805080600 AAXX 08064 67667 32980 11203 10210 20146 48/// 81031
                   333 10290 20116 5//// 81361 81082=
200805020600 AAXX 02064 67667 32980 10907 10201 20101 80001
                   333 10270 20167 81083=

################################################################################
#  SYNOPS from 67673, Petauke (Zambia) | 14-15S | 031-17E | 1035 m
################################################################################
200805280600 AAXX 28064 67673 32582 31607 10192 20146 48567 82530
                   333 10254 20144 58003 82620 82362=
200805270900 AAXX 27094 67673 42582 31605 10220 20142 48565 81130
                   333 5//// 81825 83363=
200805270600 AAXX 27064 67673 32582 51606 10167 20134 48559 81530
                   333 10262 20124 58014 81620 85360=
200805200900 AAXX 20094 67673 42680 11705 10237 20102 48568 81100
                   333 59008 81830=
200805200600 AAXX 20064 67673 32980 01609 10178 20105 48564
                   333 10260 20134 59005=

################################################################################
#  SYNOPS from 67741, Sesheke (Zambia) | 17-28S | 024-18E | 949 m
################################################################################
200805280600 AAXX 28064 67741 32980 00901 10122 20078 48550
                   333 10286 20068 58015=
200805270600 AAXX 27064 67741 32980 10803 10182 20091 48549 81030
                   333 10297 20120 58018 81362=
200805200600 AAXX 20064 67741 32980 30000 10118 20100 48541 83080
                   333 10259 20073 59019 83361=

################################################################################
#  SYNOPS from 67743, Livingstone (Zambia) | 17-49S | 025-49E | 985 m
################################################################################
200805300600 AAXX 30064 67743 32980 00706 10140 20088 48539
                   333 10/// 20090 59009=
200805290600 AAXX 29064 67743 32980 01104 10145 20093 48551
                   333 10//0 20100 59006=
200805280900 AAXX 28094 67743 42780 13006 10225 20105 48571 81100
                   333 58023 81850=
200805280600 AAXX 28064 67743 32980 01102 10141 20085 48555
                   333 10/// 20100 58006=
200805271200 AAXX 27124 67743 41775 10715 10280 20035 48550 70400 81100
                   333 58018 81850=
200805270600 AAXX 27064 67743 32980 00804 10157 20099 48551
                   333 10/// 20090 58020=
200805261500 AAXX 26154 67743 42980 31005 10255 20084 48526 83100
                   333 58008 83858=
200805261200 AAXX 26124 67743 42980 00904 10280 20076 48534
                   333 58006=
200805260900 AAXX 26094 67743 42980 00608 10242 20081 48567
                   333 58017=
200805230600 AAXX 23064 67743 32980 01203 10152 20094 48533
                   333 10//0 20100 58006=
200805221800 AAXX 22184 67743 42980 10604 10182 20074 48523 81030
                   333 10//0 5//// 81360=
200805220600 AAXX 22064 67743 32980 11204 10150 20150 48528 81030
                   333 10/// 20090 58012 81360=
200805211500 AAXX 21154 67743 42980 41503 10240 20106 48520 70222 84030
                   333 59011 84360=
200805211200 AAXX 21124 67743 42880 41807 10245 20090 48546 84100
                   333 59018 84856=
200805210600 AAXX 21064 67743 32980 31103 10140 20086 48537 83030
                   333 10/// 20100 59014 83362=
200805201500 AAXX 20154 67743 42780 51207 10230 20100 48525 85100
                   333 59030 85857=
200805200600 AAXX 20064 67743 32980 31204 10145 20100 48551 70200 83030
                   333 10//0 20105 59020 83362=
200805191500 AAXX 19154 67743 42880 50910 10234 20090 48555 84160
                   333 59005 84857 82360=
200805141500 AAXX 14154 67743 42980 01005 10290 20035 48557
                   333 58015=
200805141200 AAXX 14124 67743 42980 01114 10300 20001 48565
                   333 58012=
200805140600 AAXX 14064 67743 32980 00000 10168 20099 48556
                   333 10318 20087 58010=
200805131200 AAXX 13124 67743 42980 00908 10305 20006 48553
                   333 58014=
200805080900 AAXX 08094 67743 42980 01008 10270 20066 48552
                   333 59012=
200805080600 AAXX 08064 67743 32980 21003 10181 20113 48535 82030
                   333 10305 20124 59008 82364=
200805070600 AAXX 07064 67743 32980 31204 10190 20144 48544 70200 83030
                   333 10317 20140 59014 83364=
200805060900 AAXX 06094 67743 42680 20704 10274 20157 48577 81100
                   333 58012 81840=
200805060600 AAXX 06064 67743 32980 00904 10195 20172 48556
                   333 10305 20155 58008=
200805030600 AAXX 03064 67743 32980 40813 10183 20102 48511 83041
                   333 10310 20149 59010 83360 83080=
200805030300 AAXX 03034 67743 42980 00403 10158 20099 48495
                   333 5////=
200805020600 AAXX 02064 67743 32980 00905 10190 20136 48522
                   333 10310 20150 59001=

################################################################################
#  SYNOPS from 67751, Magoye (Zambia) | 16-00S | 027-36E | 1018 m
################################################################################
200805080600 AAXX 08064 67751 32970 71804 10310 20120 39664 40069 82037
                   333 10425 20220 56009 58019 82365 87275=

################################################################################
#  SYNOPS from 67753, Choma (Zambia) | 16-50S | 027-04E | 1213 m
################################################################################
200805300600 AAXX 30064 67753 31960 00905 10147 20117 48/// 70500
                   333 10242 20075 5////=
200805280600 AAXX 28064 67753 31965 50905 10135 20103 48/// 70521 85030
                   333 10240 5//// 85360=
200805271200 AAXX 27124 67753 41560 23610 10232 20104 48/// 70500 82100
                   333 5//// 82828=
200805270900 AAXX 27094 67753 41560 23610 10222 20118 48/// 70500 82100
                   333 5//// 82825=
200805270600 AAXX 27064 67753 31960 00906 10145 20094 48///
                   333 10250 20050 5////=
200805220600 AAXX 22064 67753 31960 71004 10133 20133 48/// 70522 8703/
                   333 10226 20069 87360=
200805210600 AAXX 21064 67753 31960 23603 10138 20103 48/// 70500 82030
                   333 10230 20049 82360=
200805200900 AAXX 20094 67753 41670 50616 10200 20115 48/// 70500 85500
                   333 5//// 85625=
200805200600 AAXX 20064 67753 31460 30806 10145 20114 48/// 70521 83500
                   333 10227 20075 5////=
200805141200 AAXX 14124 67753 41960 03010 10280 20111 48/// 70500
                   333 5////=
200805140600 AAXX 14064 67753 31960 00905 10164 20080 48/// 70500
                   333 10288 20066=
200805080600 AAXX 08064 67753 31970 00904 10184 20111 48/// 70500
                   333 10284 20104 5////=
200805070600 AAXX 07064 67753 31970 11806 10191 20148 70500 80002
                   333 10286 20111 81080=
200805060600 AAXX 06064 67753 31970 20905 10175 20164 48/// 70500 80002
                   333 10281 20116 5//// 82080=
200805020600 AAXX 02064 67753 31970 00906 10195 20137 48/// 70500
                   333 10273 20135=

################################################################################
#  SYNOPS from 67855, Lupaki (Zambia) | 17-03-00S | 024-46-00E | 1000 m
################################################################################
200805211800 AAXX 21184 67855 NIL=
200805211200 AAXX 21124 67855 NIL=
200805210600 AAXX 21064 67855 32980 00701 10116 20078 38/// 48///
                   333 20056 5////=
200805210000 AAXX 21004 67855 NIL=
200805201800 AAXX 20184 67855 NIL=
200805201200 AAXX 20124 67855 NIL=
200805200600 AAXX 20064 67855 NIL=
200805200000 AAXX 20004 67855 NIL=
200805191800 AAXX 19184 67855 NIL=
200805190600 AAXX 19064 67855 NIL=
200805190000 AAXX 19004 67855 NIL=
200805181800 AAXX 18184 67855 NIL=
200805181200 AAXX 18124 67855 NIL=
200805180600 AAXX 18064 67855 NIL=
200805180000 AAXX 18004 67855 NIL=
200805171800 AAXX 17184 67855 NIL=
200805171200 AAXX 17124 67855 NIL=
200805170600 AAXX 17064 67855 NIL=
200805170000 AAXX 17004 67855 NIL=
200805161800 AAXX 16184 67855 NIL=
200805161200 AAXX 16124 67855 NIL=
200805160600 AAXX 16064 67855 NIL=
200805160000 AAXX 16004 67855 NIL=
200805151800 AAXX 15184 67855 NIL=
200805151200 AAXX 15124 67855 NIL=
200805131800 AAXX 13184 67855 NIL=
200805131200 AAXX 13124 67855 NIL=
200805130600 AAXX 13064 67855 32980 00000 10094 20041 3//// 48///
                   333 20034 5////=
200805130000 AAXX 13004 67855 NIL=
200805121800 AAXX 12184 67855 NIL=
200805121200 AAXX 12124 67855 NIL=
200805120600 AAXX 12064 67855 NIL=
200805120000 AAXX 12004 67855 NIL=
200805111800 AAXX 11184 67855 NIL=
200805111200 AAXX 11124 67855 NIL=
200805110600 AAXX 11064 67855 NIL=
200805110000 AAXX 11004 67855 NIL=
200805101800 AAXX 10184 67855 NIL=
200805101200 AAXX 10124 67855 NIL=
200805100600 AAXX 10064 67855 NIL=
200805100000 AAXX 10004 67855 NIL=
200805091800 AAXX 09184 67855 NIL=
200805091200 AAXX 09124 67855 NIL=
200805090000 AAXX 09004 67855 NIL=
200805081800 AAXX 08184 67855 NIL=
200805081200 AAXX 08124 67855 NIL=
200805080600 AAXX 08064 67855 NIL=
200805080000 AAXX 08004 67855 NIL=
200805071800 AAXX 07184 67855 NIL=
200805071200 AAXX 07124 67855 NIL=
200805070600 AAXX 07064 67855 NIL=
200805070000 AAXX 07004 67855 NIL=
200805061800 AAXX 06184 67855 NIL=
200805061200 AAXX 06124 67855 NIL=
200805060600 AAXX 06064 67855 NIL=
200805060000 AAXX 06004 67855 NIL=
200805051800 AAXX 05184 67855 NIL=
200805051200 AAXX 05124 67855 NIL=
200805050600 AAXX 05064 67855 NIL=
200805050000 AAXX 05004 67855 NIL=
200805041800 AAXX 04184 67855 NIL=
200805041200 AAXX 04124 67855 NIL=
200805040600 AAXX 04064 67855 NIL=
200805040000 AAXX 04004 67855 NIL=
