################################################################################
# Query made at 04/14/2022 03:18:30 UTC
# Country like Zamb*
# Time interval: from 10/01/2017 05:30  to 10/31/2017 06:30  UTC
################################################################################

################################################################################
#  SYNOPS from 67403, Kawambwa (Zambia) | 09-48S | 029-05E | 1323 m
################################################################################
201710300600 AAXX 30064 67403 11480 70906 10193 20166 48530 60374 70362 8453/
                   333 10296 20170 58012 84610 86360
                   555 00112=
201710251200 AAXX 25124 67403 NIL=
201710250600 AAXX 25064 67403 31975 52703 10233 20132 48514 70520 8503/
                   333 10//0 20//0 5//// 85360=
201710200600 AAXX 20064 67403 31475 63002 10235 20206 48532 70500 86501
                   333 10335 20206 58007 86615 82080
                   555 00144=
201710170900 AAXX 17094 67403 NIL=
201710170600 AAXX 17064 67403 31975 02801 10232 20158 48520 70500
                   333 10340 20160 59012
                   555 00098=
201710160600 AAXX 16064 67403 31975 00901 10217 20116 48531 70500
                   333 10314 20146 59003
                   555 00078=
201710120900 AAXX 12094 67403 NIL=
201710120600 AAXX 12064 67403 11975 72701 10195 20183 48514 60094 70562 8703/
                   333 10302 20178 58004 87360
                   555 00131=
201710110600 AAXX 11064 67403 11480 63001 10213 20198 48511 60024 70320 86531
                   333 10258 20170 58010 86612 81360 81080
                   555 00120=
201710100600 AAXX 10064 67403 11975 82701 10212 20197 48501 60054 70522 87031
                   333 10255 20180 59003 87360 83080
                   555 00133=
201710091200 AAXX 09124 67403 NIL=
201710090900 AAXX 09094 67403 NIL=
201710090600 AAXX 09064 67403 11975 70901 10212 20188 48504 60054 70500 8703/
                   333 10296 20184 58005 87360 87360
                   555 00140=
201710060600 AAXX 06064 67403 11975 60902 10207 20168 48513 60054 70500 86031
                   333 10316 20178 59001 86360 83080
                   555 00125=
201710051200 AAXX 05124 67403 NIL=
201710050600 AAXX 05064 67403 31975 72701 10222 20182 48516 70500 8703/
                   333 10346 20199 58010 87360
                   555 00158=
201710041200 AAXX 04124 67403 NIL=
201710020600 AAXX 02064 67403 31975 00907 10232 20115 48510 70500
                   333 10332 20186 59017
                   555 00102=

################################################################################
#  SYNOPS from 67413, Mbala (Zambia) | 08-51S | 031-20E | 1673 m
################################################################################
201710251200 AAXX 25124 67413 NIL=
201710250600 AAXX 25064 67413 NIL=
201710170900 AAXX 17094 67413 NIL=
201710120900 AAXX 12094 67413 NIL=
201710110600 AAXX 11064 67413 NIL=
201710100600 AAXX 10064 67413 NIL=
201710091200 AAXX 09124 67413 NIL=
201710090900 AAXX 09094 67413 NIL=
201710051200 AAXX 05124 67413 NIL=
201710050600 AAXX 05064 67413 32678 50000 10230 20122 48544 83178
                   333 10300 20180 58015 83830 84357 84270 91025=
201710041200 AAXX 04124 67413 NIL=
201710040600 AAXX 04064 67413 32978 01006 10220 20119 48529
                   333 10310 20170 58008 91023=

################################################################################
#  SYNOPS from 67441, Mwinilunga (Zambia) | 11-45S | 024-26E | 1361 m
################################################################################
201710251200 AAXX 25124 67441 NIL=
201710250600 AAXX 25064 67441 NIL=
201710170900 AAXX 17094 67441 NIL=
201710120900 AAXX 12094 67441 NIL=
201710110600 AAXX 11064 67441 NIL=
201710100600 AAXX 10064 67441 NIL=
201710091200 AAXX 09124 67441 NIL=
201710090900 AAXX 09094 67441 NIL=
201710051200 AAXX 05124 67441 NIL=
201710050600 AAXX 05064 67441 NIL=
201710041200 AAXX 04124 67441 NIL=

################################################################################
#  SYNOPS from 67461, Mansa (Zambia) | 11-06S | 028-51E | 1382 m
################################################################################
201710260900 AAXX 26094 67461 41775 12703 10304 20161 48496 70500 81200
                   333 59018 81850 91015=
201710251200 AAXX 25124 67461 NIL=
201710250600 AAXX 25064 67461 31970 21206 10245 20141 48518 70512 81031
                   333 10339 20170 59001 81360 81080
                   555 00154 91018=
201710201200 AAXX 20124 67461 41875 51204 10342 20134 48505 70522 83201
                   333 58019 83858 84080 91016=
201710200900 AAXX 20094 67461 41775 50602 10304 20185 48529 70522 83201
                   333 58026 83856 84080 91019=
201710200600 AAXX 20064 67461 31970 02003 10241 20195 48534 70500
                   333 10344 20164 58007
                   555 00156 91020=
201710170900 AAXX 17094 67461 NIL=
201710170600 AAXX 17064 67461 31965 01102 10238 20109 48521 70500
                   333 10335 20140 59011
                   555 00119 91019=
201710160900 AAXX 16094 67461 41975 10803 10308 20065 48524 70500 80001
                   333 58002 81080 91018=
201710160600 AAXX 16064 67461 31970 11002 10228 20111 48531 70500 80001
                   333 10315 20119 59012 81080
                   555 00104 91020=
201710130900 AAXX 13094 67461 41675 30603 10265 20174 48514 70500 82101
                   333 59006 82842 81080 91017=
201710130600 AAXX 13064 67461 11975 10602 10215 20191 48517 70500 80001
                   333 10315 20180 58005 81080
                   555 00165 91018=
201710120900 AAXX 12094 67461 41675 62502 10270 20170 48521 70522 81130
                   333 58010 81845 86360 91018=
201710120600 AAXX 12064 67461 11975 70000 10218 20188 48512 60094 70522 86031
                   333 10322 20175 58001 86360 81080
                   555 00165 91017=
201710110600 AAXX 11064 67461 41675 72204 10242 20175 48479 71799 81938
                   333 10286 20173 58019 81946 83846 83360 86280
                   91013=
201710100600 AAXX 10064 67461 11970 73602 10198 20184 48506 60654 70522 8707/
                   333 10330 20189 58015 87460
                   555 00176 91017=
201710091200 AAXX 09124 67461 NIL=
201710090900 AAXX 09094 67461 41775 52703 10310 20160 48497 70512 81131
                   333 59001 81856 82360 82080 91015=
201710090600 AAXX 09064 67461 31975 12703 10242 20165 48494 70500 81031
                   333 10332 20190 59003 81360 81080
                   555 00179 91015=
201710060600 AAXX 06064 67461 31975 00602 10248 20166 48512 70500
                   333 10322 20175 59001
                   555 00149 91017=
201710051200 AAXX 05124 67461 NIL=
201710050900 AAXX 05094 67461 41975 10606 10304 20115 48515 70555 81080
                   333 58009 91017=
201710050600 AAXX 05064 67461 31970 10803 10230 20128 48512 70500 80001
                   333 10319 20170 58000 81080
                   555 00149 91017=
201710041200 AAXX 04124 67461 NIL=
201710040900 AAXX 04094 67461 41975 61004 10295 20101 48504 70522 86005
                   333 58006 86280 91016=
201710040600 AAXX 04064 67461 31975 60806 10232 20126 48512 70530 80005
                   333 10332 20162 59002 86280
                   555 00130 91017=
201710020600 AAXX 02064 67461 31970 01004 10230 20128 48530 70500
                   333 10324 20160 59009
                   555 00145 91020=

################################################################################
#  SYNOPS from 67475, Kasama (Zambia) | 10-13S | 031-08E | 1382 m
################################################################################
201710300600 AAXX 30064 67475 31560 60915 10200 20150 48546 70522 86200
                   333 10294 20169 58017 86825 91023=
201710251200 AAXX 25124 67475 NIL=
201710250600 AAXX 25064 67475 31960 70804 10236 20139 48529 70520 86071
                   333 10339 20173 58000 86460 83080 91021=
201710240600 AAXX 24064 67475 31960 10616 10248 20139 48529 70500 80001
                   333 10332 20190 59011 81080 91021=
201710201200 AAXX 20124 67475 41760 61613 10340 20035 48502 70522 82108
                   333 58015 82856 85280 91017=
201710200900 AAXX 20094 67475 41660 33608 10310 20103 48531 70521 81101
                   333 58015 81835 82080 91020=
201710200600 AAXX 20064 67475 31960 23611 10245 20140 48541 70521 80001
                   333 10355 20180 58015 82080 91022=
201710170900 AAXX 17094 67475 41960 01108 10325 20006 48519 70500
                   333 59010 91019=
201710170600 AAXX 17064 67475 31960 03504 10240 20067 48526 70500
                   333 10338 20165 59014 91020=
201710161200 AAXX 16124 67475 41960 01907 10329 21037 48500 70500
                   333 59011 91017=
201710160900 AAXX 16094 67475 41960 00905 10298 20068 48528 70500
                   333 59013 91020=
201710160600 AAXX 16064 67475 31960 03505 10225 20094 48539 70500
                   333 10310 20120 59008 91022=
201710150600 AAXX 15064 67475 31960 00907 10218 20129 48547 70500
                   333 10312 20149 58008 91023=
201710130900 AAXX 13094 67475 41660 70510 10273 20154 48517 70522 84271
                   333 59001 84830 84460 83080 91019=
201710130600 AAXX 13064 67475 11960 61503 10232 20160 48526 69934 70500 86070
                   333 10320 20176 58006 86460 91020=
201710120900 AAXX 12094 67475 41560 71706 10264 20172 48519 70522 81108
                   333 58010 81825 86280 91019=
201710120600 AAXX 12064 67475 11960 62704 10209 20180 48519 60104 70522 80008
                   333 10314 20170 58003 87280 91020=
201710110600 AAXX 11064 67475 11960 62704 10205 20184 48516 60104 70522 80008
                   333 10310 20161 58011 86280 91019=
201710100600 AAXX 10064 67475 11960 62209 10210 20165 48505 60074 70500 80008
                   333 10330 20170 59002 86280 91018=
201710091200 AAXX 09124 67475 41760 62314 10311 20145 48463 70522 82208
                   333 59005 82850 86280 91013=
201710090900 AAXX 09094 67475 41660 62615 10244 20177 48499 70521 84202
                   333 59001 84835 82080 91017=
201710090600 AAXX 09064 67475 11960 43406 10236 20144 48508 69904 70522 80002
                   333 10340 20170 59000 84080 91018=
201710060600 AAXX 06064 67475 11960 73508 10214 20162 48518 60064 70522 8707/
                   333 10321 20147 59012 87360 91020=
201710051200 AAXX 05124 67475 41860 51610 10310 20111 48489 70522 85200
                   333 59001 85857 91016=
201710050900 AAXX 05094 67475 41760 10812 10287 20123 70521 81100
                   333 58003 81850 91020=
201710050600 AAXX 05064 67475 31960 70711 10216 20130 48531 70522 8703/
                   333 10333 20172 58006 87360 91021=
201710041200 AAXX 04124 67475 41860 41713 10320 20089 48491 70522 84200
                   333 58011 84857 91016=
201710020600 AAXX 02064 67475 31960 00912 10218 20117 48530 70500
                   333 10316 20156 59015
                   555 00/// 91021=

################################################################################
#  SYNOPS from 67476, Misamfu (Zambia) | 10-06S | 031-15E | 1536 m
################################################################################
201710251200 AAXX 25124 67476 NIL=
201710250600 AAXX 25064 67476 31974 60202 10230 20134 48/// 70522 86031
                   333 10331 20183 5//// 86360 81080
                   555 00166=
201710170900 AAXX 17094 67476 NIL=
201710120900 AAXX 12094 67476 NIL=
201710120600 AAXX 12064 67476 12980 22401 10205 20182 48/// 60044 82031
                   333 10311 20170 59002 82360 81080
                   555 00183=
201710110600 AAXX 11064 67476 12980 13001 10203 20183 48/// 60334 80001
                   333 10315 20159 58012 81080
                   555 00118=
201710100600 AAXX 10064 67476 11976 23101 10208 20163 48/// 60024 70500 80001
                   333 10318 20163 59003 82080
                   555 00173=
201710091200 AAXX 09124 67476 NIL=
201710090900 AAXX 09094 67476 NIL=
201710090600 AAXX 09064 67476 11975 10201 10235 20138 48/// 69904 70500 80001
                   333 10327 20176 5//// 81080
                   555 00167=
201710060600 AAXX 06064 67476 11974 80301 10213 20144 48/// 69904 70500 8803/
                   333 10325 20200 59010 88359
                   555 00168=
201710051200 AAXX 05124 67476 NIL=
201710050600 AAXX 05064 67476 31974 80402 10213 20126 48/// 70500 8803/
                   333 10327 20145 59022 88359
                   555 00124=
201710041200 AAXX 04124 67476 NIL=

################################################################################
#  SYNOPS from 67477, Mpika (Zambia) | 11-54S | 031-26E | 1400 m
################################################################################
201710251200 AAXX 25124 67477 NIL=
201710250600 AAXX 25064 67477 31978 30908 10268 20080 48528 70500 83030
                   333 10334 20202 58004 83359
                   555 00180=
201710200600 AAXX 20064 67477 31978 10903 10257 20130 48542 70500 80001
                   333 10350 20193 58014 81080
                   555 00172=
201710170900 AAXX 17094 67477 NIL=
201710170600 AAXX 17064 67477 31978 00903 10262 20090 48529 70500
                   333 10332 20173 59012
                   555 00146=
201710160600 AAXX 16064 67477 31978 00903 10251 20100 48540 70500
                   333 10306 20118 59009
                   555 00100=
201710130600 AAXX 13064 67477 11475 60903 10221 20180 48532 60014 70522 85530
                   333 10320 20182 59008 85610 82359
                   555 00170=
201710120900 AAXX 12094 67477 NIL=
201710120600 AAXX 12064 67477 11978 00000 10220 20190 48524 60034 70500
                   333 10338 20183 5////
                   555 00180=
201710110600 AAXX 11064 67477 31970 00000 10239 20130 48510 70500
                   333 10329 20157 58004
                   555 00146=
201710100600 AAXX 10064 67477 31978 00000 10233 20160 48506 70500
                   333 10331 20158 58000
                   555 00162=
201710091200 AAXX 09124 67477 NIL=
201710090900 AAXX 09094 67477 NIL=
201710090600 AAXX 09064 67477 31978 01203 10251 20140 48506 70500
                   333 10330 20156 59008
                   555 00143=
201710060600 AAXX 06064 67477 31978 00903 10231 20130 48527 70500
                   333 10316 20157 58000
                   555 00150=
201710051200 AAXX 05124 67477 NIL=
201710050600 AAXX 05064 67477 31978 01205 10231 20130 48527 70500
                   333 10312 20180 58002
                   555 00180=
201710041200 AAXX 04124 67477 NIL=
201710020600 AAXX 02064 67477 31978 00907 10227 20120 48534 70500
                   333 10298 20168 59013
                   555 00162=

################################################################################
#  SYNOPS from 67481, Isoka (Zambia) | 10-07S | 032-38E | 1360 m
################################################################################
201710261200 AAXX 26124 67481 41978 33002 10346 20078 48/// 70500 83101
                   333 59010 83857 81080=
201710260600 AAXX 26064 67481 11978 13602 10250 20149 48/// 69904 70500 81040
                   333 10350 20187 59007 81361=
201710251200 AAXX 25124 67481 41778 42202 10326 20122 48/// 70500 84200
                   333 5//// 84857=
201710250600 AAXX 25064 67481 31978 13203 10250 20147 48/// 70500 80001
                   333 10342 20165 59003 81080=
201710240600 AAXX 24064 67481 31979 03601 10250 20140 48/// 70500
                   333 10330 20178 59012=
201710231200 AAXX 23124 67481 41876 53003 10316 20102 48/// 70522 85200
                   333 59006 85857=
201710200900 AAXX 20094 67481 41979 12703 10322 20105 48/// 70500 81050
                   333 58008 81361=
201710200600 AAXX 20064 67481 31979 13003 10248 20149 48/// 70500 80001
                   333 10352 20171 58015 81080=
201710191200 AAXX 19124 67481 41777 50604 10334 20079 48/// 70522 81260
                   333 5//// 81856 84361=
201710190900 AAXX 19094 67481 41978 00201 10304 20104 48/// 70500
                   333 5////=
201710170900 AAXX 17094 67481 41878 10302 10315 20045 48/// 70500 81100
                   333 59012 81857=
201710170600 AAXX 17064 67481 31978 01802 10252 20103 48/// 70500
                   333 10340 20170 59011=
201710160900 AAXX 16094 67481 41978 03002 10300 20076 48/// 70500
                   333 5////=
201710160600 AAXX 16064 67481 31978 02102 10242 20105 48/// 70500
                   333 10314 20142 59012=
201710130900 AAXX 13094 67481 41776 63002 10287 20142 48/// 70522 86100
                   333 58005 86850=
201710130600 AAXX 13064 67481 11976 50302 10250 20156 48/// 69904 70522 85030
                   333 10338 20190 5//// 85360=
201710120900 AAXX 12094 67481 41776 50302 10294 20147 48/// 70500 85100
                   333 5//// 85856=
201710120600 AAXX 12064 67481 31976 02202 10232 20166 48/// 70500
                   333 10338 20194 5////=
201710110600 AAXX 11064 67481 11976 62103 10209 20174 48/// 60024 70522 80001
                   333 10320 20193 5//// 86080=
201710100600 AAXX 10064 67481 31975 62102 10222 20165 48/// 70522 80002
                   333 10332 20190 5//// 86080=
201710091200 AAXX 09124 67481 NIL=
201710090900 AAXX 09094 67481 41779 40901 10286 20144 48/// 70511 81140
                   333 5//// 81850 84361=
201710090600 AAXX 09064 67481 31975 23303 10213 20153 48/// 70500 82031
                   333 10320 20179 5//// 82360 81080=
201710060600 AAXX 06064 67481 31978 10103 10228 20124 48/// 70500 81040
                   333 10332 20182 5//// 81361=
201710051200 AAXX 05124 67481 41875 52404 10322 20107 48/// 70522 82101
                   333 5//// 82857 85080=
201710050600 AAXX 05064 67481 31975 03604 10234 20139 48/// 70500
                   333 10320 20172 5////=
201710041200 AAXX 04124 67481 41878 62103 10320 20101 48/// 70522 86100
                   333 5//// 86857=
201710040600 AAXX 04064 67481 31979 03603 10245 20110 48/// 70500
                   333 10334 20157 5////=
201710020600 AAXX 02064 67481 31979 00902 10228 20124 48/// 70500
                   333 10310 20167 5////
                   555 00///=

################################################################################
#  SYNOPS from 67531, Zambezi (Zambia) | 13-32S | 023-07E | 1077 m
################################################################################
201710300600 AAXX 30064 67531 11370 70000 10162 20170 48/// 60044 76166 8477/
                   333 10265 20170 58020 84706 87460
                   555 00180=
201710251200 AAXX 25124 67531 NIL=
201710250600 AAXX 25064 67531 31975 40000 10250 20160 48/// 70500 82031
                   333 10365 20186 59002 82362 83081=
201710230600 AAXX 23064 67531 31970 50906 10245 20145 48/// 70522 84031
                   333 10356 20180 59005 84362 82080
                   555 00170=
201710200600 AAXX 20064 67531 31975 23605 10250 20185 48/// 70500 80001
                   333 10385 20216 58014 82081
                   555 00210=
201710190600 AAXX 19064 67531 32980 33004 10242 20173 48/// 70200 80001
                   333 10375 20188 59006 83081=
201710171200 AAXX 17124 67531 42980 32704 10376 20076 48/// 70200 80001
                   333 59015 83081=
201710170900 AAXX 17094 67531 NIL=
201710170600 AAXX 17064 67531 32980 23304 10229 20102 48/// 70200 80001
                   333 10381 20142 59020 82081
                   555 00123=
201710160600 AAXX 16064 67531 32980 10804 10270 20051 48/// 70200 80001
                   333 10372 20102 5//// 81081
                   555 00092=
201710131200 AAXX 13124 67531 41875 40906 10346 20172 48/// 70500 84200
                   333 58003 84857=
201710130600 AAXX 13064 67531 12975 70000 10212 20185 48/// 60024 80007
                   333 10338 20178 5//// 87280
                   555 00152=
201710120900 AAXX 12094 67531 NIL=
201710120600 AAXX 12064 67531 32980 61303 10238 20179 48/// 70222 8607/
                   333 10372 20196 58011 86361
                   555 00194=
201710110600 AAXX 11064 67531 32980 33003 10225 20167 48/// 70200 83030
                   333 10335 20176 58014 83362
                   555 00162=
201710100600 AAXX 10064 67531 31975 43603 10220 20179 48/// 70500 84030
                   333 10326 20206 59007 84361
                   555 00210=
201710091200 AAXX 09124 67531 NIL=
201710090900 AAXX 09094 67531 NIL=
201710090600 AAXX 09064 67531 11975 53303 10221 20183 48/// 69904 70522 84031
                   333 10330 20190 58014 84362 81081
                   555 00190=
201710060600 AAXX 06064 67531 11975 53004 10233 20161 48/// 69904 70522 80008
                   333 10336 20196 58013 85280
                   555 00183=
201710051200 AAXX 05124 67531 NIL=
201710050600 AAXX 05064 67531 31975 23004 10245 20179 48/// 70500 80001
                   333 10367 20204 58006 82081
                   555 00188=
201710041200 AAXX 04124 67531 NIL=
201710040600 AAXX 04064 67531 31975 30608 10243 20091 48/// 70500 80002
                   333 10369 20197 59002 83080
                   555 00173=
201710020600 AAXX 02064 67531 31975 00503 10225 20111 48/// 70500
                   333 10349 20155 59009
                   555 00141=

################################################################################
#  SYNOPS from 67541, Kasempa (Zambia) | 13-32S | 025-51E | 1234 m
################################################################################
201710300600 AAXX 30064 67541 11370 70402 10185 20153 48536 69904 76062 8353/
                   333 10278 20170 58036 83706 87360=
201710270600 AAXX 27064 67541 12980 70202 10204 20178 48492 60024 70222 8703/
                   333 10360 20172 59006 87360=
201710251200 AAXX 25124 67541 NIL=
201710250600 AAXX 25064 67541 31960 40410 10270 20112 48497 70522 84030
                   333 10350 20196 59004 84360=
201710230600 AAXX 23064 67541 31960 30705 10254 20142 48520 70522 80003
                   333 10346 20202 58000 83080=
201710200600 AAXX 20064 67541 31960 50402 10247 20191 48512 70522 80005
                   333 10350 20174 58007 85080=
201710190600 AAXX 19064 67541 31960 70000 10223 20155 48505 70522 82035
                   333 10380 20160 59002 82360 85080=
201710170900 AAXX 17094 67541 NIL=
201710170600 AAXX 17064 67541 31960 00000 10210 20116 48499 70500
                   333 10368 20104 59010=
201710160600 AAXX 16064 67541 31960 00503 10233 20060 48509 70500
                   333 10346 20098 59016=
201710130600 AAXX 13064 67541 32980 70000 10210 20188 48511 70222 80007
                   333 10304 20156 58009 87080=
201710120900 AAXX 12094 67541 NIL=
201710120600 AAXX 12064 67541 32980 70000 10206 20189 48502 70222 8703/
                   333 10294 20164 58013 87360=
201710110600 AAXX 11064 67541 32980 20000 10211 20184 48489 70222 81031
                   333 10270 20152 59008 81360 81080=
201710100600 AAXX 10064 67541 32380 70405 10200 20177 48497 70222 8353/
                   333 10310 20184 58001 83606 87360=
201710091200 AAXX 09124 67541 NIL=
201710090900 AAXX 09094 67541 NIL=
201710090600 AAXX 09064 67541 12980 70000 10190 20190 48496 60174 70222 8703/
                   333 10320 20172 59004 87360=
201710060600 AAXX 06064 67541 31960 00000 10216 20134 48495 70500
                   333 10332 20136 59011=
201710051200 AAXX 05124 67541 NIL=
201710050600 AAXX 05064 67541 31960 60603 10230 20111 48506 70522 80006
                   333 10324 20154 58004 86080=
201710041200 AAXX 04124 67541 NIL=
201710040600 AAXX 04064 67541 31960 60805 10254 20105 48502 70522 80006
                   333 10324 20166 58001 86080=
201710020600 AAXX 02064 67541 31960 00605 10240 20125 48507 70500
                   333 10284 20170 59029
                   555 00///=

################################################################################
#  SYNOPS from 67543, Kabompo (Zambia) | 13-36S | 024-12E | 1075 m
################################################################################
201710300600 AAXX 30064 67543 11980 80000 10188 20164 48/// 69904 72126 8807/
                   333 10284 20198 5//// 88360
                   555 00174=
201710270600 AAXX 27064 67543 12980 82002 10198 20178 48/// 60144 8801/
                   333 10386 20186 5//// 88460
                   555 00174=
201710260600 AAXX 26064 67543 31970 40000 10246 20159 48/// 70522 80005
                   333 10384 20212 5//// 84280
                   555 00188=
201710251200 AAXX 25124 67543 NIL=
201710250600 AAXX 25064 67543 31970 70000 10278 20138 48/// 70522 8703/
                   333 10380 20218 5//// 87362
                   555 00184=
201710230600 AAXX 23064 67543 31970 70000 10242 20148 48/// 70522 80007
                   333 10376 20208 5//// 87280
                   555 00170=
201710200600 AAXX 20064 67543 31965 70000 10232 20182 48/// 70522 80007
                   333 10404 20200 5//// 87280
                   555 00178=
201710190600 AAXX 19064 67543 31965 60000 10246 20160 48/// 70522 86030
                   333 10402 20164 5//// 86362
                   555 00146=
201710170900 AAXX 17094 67543 NIL=
201710170600 AAXX 17064 67543 31965 50000 10210 20089 48/// 70520 80005
                   333 10386 20118 5//// 85280
                   555 00076=
201710160600 AAXX 16064 67543 31965 00000 10190 20179 48/// 70500
                   333 10374 20108 5////
                   555 00074=
201710130600 AAXX 13064 67543 12975 70000 10212 20185 48/// 60024 80007
                   333 10338 20178 5//// 87280
                   555 00152=
201710120900 AAXX 12094 67543 NIL=
201710120600 AAXX 12064 67543 11470 70000 10208 20191 48/// 60014 72999 8237/
                   333 10378 20198 5//// 81915 82815 87462
                   555 00170=
201710110600 AAXX 11064 67543 12982 40000 10226 20178 48/// 60014 84031
                   333 10328 20178 5//// 84362 81080
                   555 00138=
201710100600 AAXX 10064 67543 31470 70000 10200 20168 48/// 79599 8331/
                   333 10378 20200 5//// 81918 83818 87462
                   555 00180=
201710091200 AAXX 09124 67543 NIL=
201710090900 AAXX 09094 67543 NIL=
201710090600 AAXX 09064 67543 31970 80000 10218 20173 48/// 70522 8807/
                   333 10376 20204 5//// 88362
                   555 00182=
201710060600 AAXX 06064 67543 31970 50000 10236 20154 48/// 70522 80005
                   333 10364 20198 5//// 85280
                   555 00168=
201710051200 AAXX 05124 67543 NIL=
201710050600 AAXX 05064 67543 31970 00000 10240 20157 48/// 70500
                   333 10372 20204 5////
                   555 00178=
201710041200 AAXX 04124 67543 NIL=
201710040600 AAXX 04064 67543 31970 70000 10228 20112 48/// 70522 80007
                   333 10374 20190 5//// 87280
                   555 00154=

################################################################################
#  SYNOPS from 67551, Solwezi (Zambia) | 12-11S | 026-23E | 1386 m
################################################################################
201710300600 AAXX 30064 67551 32380 81206 10168 20166 48548 60144 8657/
                   333 10234 2//// 58016 86705 88362
                   555 00187 91023=
201710270600 AAXX 27064 67551 31980 82706 10190 20170 48503 60034 71799 8197/
                   333 10248 20//0 59008 81912 88362
                   555 00248 91017=
201710260600 AAXX 26064 67551 32980 43005 10240 20175 48500 84001
                   333 10341 20//0 59010 84080
                   555 00306 91018=
201710251200 AAXX 25124 67551 NIL=
201710250600 AAXX 25064 67551 32980 30903 10243 20132 48521 83001
                   333 10311 20//0 59013 83080
                   555 00282 91019=
201710230600 AAXX 23064 67551 32975 40904 10223 20141 48535 84030
                   333 10339 20/// 59003 84362
                   555 00278 91021=
201710200600 AAXX 20064 67551 32980 53203 10229 20193 48527 85001
                   333 10338 20//0 58004 85080
                   555 00278 91020=
201710190600 AAXX 19064 67551 32980 63603 10245 20163 48528 86030
                   333 10350 20//0 58010 86362
                   555 00300 91020=
201710170900 AAXX 17094 67551 NIL=
201710170600 AAXX 17064 67551 31958 03304 10204 20088 48521 70500
                   333 10346 20//0 59014
                   555 00240 91020=
201710160600 AAXX 16064 67551 32980 00903 10230 20089 48537
                   333 10306 20//0 59003
                   555 00243 91021=
201710130600 AAXX 13064 67551 11957 70000 10201 20181 48520 69984 71022 8707/
                   333 10222 20//0 58001 87362
                   555 00226 91020=
201710120900 AAXX 12094 67551 NIL=
201710120600 AAXX 12064 67551 32960 73403 10215 20172 48521 87030
                   333 10340 20/// 58011 87362
                   555 00225 91019=
201710110600 AAXX 11064 67551 32975 73403 10203 20168 48509 87030
                   333 10218 20//0 59004 87362
                   555 00221 91018=
201710100600 AAXX 10064 67551 31959 82706 10180 20172 48513 60014 70522 8807/
                   333 10220 20//0 58008 88362
                   555 00200 91019=
201710091200 AAXX 09124 67551 NIL=
201710090900 AAXX 09094 67551 NIL=
201710090600 AAXX 09064 67551 11959 72304 10216 20169 48506 60024 70522 87030
                   333 10340 20//0 58000 87362
                   555 00258 91018=
201710060600 AAXX 06064 67551 31958 43003 10200 20156 48507 70511 80004
                   333 10392 20//0 59011 84280
                   555 00239 91018=
201710051200 AAXX 05124 67551 NIL=
201710050600 AAXX 05064 67551 31958 21703 10223 20153 48521 70500 80001
                   333 10342 20//0 59002 82080
                   555 00241 91019=
201710041200 AAXX 04124 67551 NIL=
201710040600 AAXX 04064 67551 31958 01203 10204 20109 48517 70500
                   333 10328 20//0 58007
                   555 00238 91019=
201710020600 AAXX 02064 67551 31958 00104 10214 20119 48522 70500
                   333 10321 20//0 59012
                   555 00214 91020=

################################################################################
#  SYNOPS from 67561, Ndola (Zambia) | 13-00S | 028-39E | 1269 m
################################################################################
201710300600 AAXX 30064 67561 32480 71213 10201 20141 48555 86538
                   333 10250 20172 58023 86614 81360 85280 91023=
201710270600 AAXX 27064 67561 11975 52603 10224 20171 48503 60014 70522 85030
                   333 10353 20206 59008 85360 91017=
201710260600 AAXX 26064 67561 31960 50811 10255 20111 48514 70522 80008
                   333 10351 20197 59012 85280 91018=
201710251200 AAXX 25124 67561 NIL=
201710250600 AAXX 25064 67561 31959 70915 10254 20113 48526 70422 80008
                   333 10327 20170 59003 87280 91019=
201710230600 AAXX 23064 67561 31965 31015 10244 20149 48543 70500 83030
                   333 10331 20191 59005 83361 91021=
201710200600 AAXX 20064 67561 31959 50710 10244 20124 48536 70422 80008
                   333 10340 20179 58017 85280 91021=
201710190600 AAXX 19064 67561 31959 70807 10231 20101 48518 70422 81038
                   333 10364 20189 58010 81360 87280 91019=
201710170900 AAXX 17094 67561 NIL=
201710170600 AAXX 17064 67561 31959 20000 10214 20081 48519 70400 80001
                   333 10352 20129 59015 82080 91019=
201710161200 AAXX 16124 67561 42980 00608 10341 20040 48503
                   333 59015 91016=
201710160900 AAXX 16094 67561 41960 01011 10324 20006 48534 70500
                   333 59013 91020=
201710160600 AAXX 16064 67561 31958 20903 10236 20072 48536 70400 80002
                   333 10333 20119 59012 82080 91021=
201710130900 AAXX 13094 67561 41665 50912 10292 20180 48520 70522 85202
                   333 58000 85838 82080 91019=
201710130600 AAXX 13064 67561 11959 51604 10232 20183 48527 60184 70422 80008
                   333 10318 20179 58002 85280 91020=
201710121200 AAXX 12124 67561 41760 70000 10305 20162 48498 70522 83238
                   333 58015 83850 81361 87280 91016=
201710120900 AAXX 12094 67561 41960 70000 10268 20178 48533 70522 81038
                   333 58017 81361 87280 91019=
201710120600 AAXX 12064 67561 11960 70000 10206 20278 48527 60104 70596 85038
                   333 10323 20179 58015 85360 87280 91019=
201710110600 AAXX 11064 67561 31959 40404 10220 20173 48509 70422 81031
                   333 10311 20173 58001 81360 84080 91018=
201710100600 AAXX 10064 67561 11956 73104 10212 20177 48508 60044 70422 86038
                   333 10261 20184 58001 86360 85280 91018=
201710091200 AAXX 09124 67561 NIL=
201710090900 AAXX 09094 67561 NIL=
201710090600 AAXX 09064 67561 31960 0//// 10221 20167 48507 71722 8197/
                   333 10339 20204 58004 819// 87459 91018=
201710080600 AAXX 08064 67561 31960 40710 10244 20114 48505 70511 83031
                   333 10336 20198 59008 83360 81080 91017=
201710060600 AAXX 06064 67561 31958 60803 10233 20118 48518 70422 81038
                   333 10335 20170 59007 81360 86280 91019=
201710051200 AAXX 05124 67561 NIL=
201710050600 AAXX 05064 67561 31960 50708 10226 20106 48524 70522 80008
                   333 10336 20169 58002 85280 91019=
201710041200 AAXX 04124 67561 41970 79905 10330 20084 48493 70522 83208
                   333 58012 83858 85280 91005=
201710020600 AAXX 02064 67561 31960 00808 10219 20116 48529 70500
                   333 10321 20163 59012
                   555 00/// 91020=

################################################################################
#  SYNOPS from 67563, Kafironda (Zambia) | 12-36S | 028-07E | 1243 m
################################################################################
201710300600 AAXX 30064 67563 32380 71004 10200 20152 48/// 70522 876//
                   333 10240 20175 58020 87710
                   555 00175=
201710260600 AAXX 26064 67563 31970 40802 10245 20122 48/// 70511 80008
                   333 10355 20170 59012 84270
                   555 00165=
201710251200 AAXX 25124 67563 NIL=
201710250600 AAXX 25064 67563 31970 71002 10260 20135 48/// 70522 80008
                   333 10345 20140 59005 86280
                   555 00135=
201710170900 AAXX 17094 67563 NIL=
201710170600 AAXX 17064 67563 32980 00000 10180 20140 48/// 70500
                   333 10360 20085 59013
                   555 00080=
201710130600 AAXX 13064 67563 11970 70000 10220 20175 48/// 69994 70522 80008
                   333 10320 20170 59002 87280
                   555 00165=
201710120900 AAXX 12094 67563 NIL=
201710110600 AAXX 11064 67563 31960 70802 10210 20172 48/// 70522 87030
                   333 10330 20155 58004 87360
                   555 00150=
201710100600 AAXX 10064 67563 11960 80000 10210 20145 48/// 60084 70522 8807/
                   333 10260 20180 58000 88457
                   555 00175=
201710091200 AAXX 09124 67563 NIL=
201710090900 AAXX 09094 67563 NIL=
201710060600 AAXX 06064 67563 31970 40000 10225 20145 48/// 70511 81038
                   333 10340 20145 59013 81362 83280
                   555 00140=
201710051200 AAXX 05124 67563 NIL=
201710050600 AAXX 05064 67563 31970 30302 10220 20108 48/// 70500 83030
                   333 10350 20130 58002 83362
                   555 00125=
201710041200 AAXX 04124 67563 NIL=
201710040600 AAXX 04064 67563 31960 70606 10190 20140 48/// 70522 80008
                   333 10340 20120 58002 87280
                   555 00120=
201710020600 AAXX 02064 67563 31970 01208 10200 20135 48/// 70500
                   333 10327 20131 5////
                   555 00125=

################################################################################
#  SYNOPS from 67571, Serenje (Zambia) | 13-14S | 030-13E | 1384 m
################################################################################
201710300600 AAXX 30064 67571 11482 80606 10158 20138 48/// 60014 75052 885//
                   333 10215 20149 5//// 88615
                   555 00164=
201710251200 AAXX 25124 67571 42675 73604 10337 20126 48/// 70522 872//
                   333 5//// 87848=
201710250600 AAXX 25064 67571 32975 00906 10258 20111 48/// 70500
                   333 10336 20198 5////
                   555 00316=
201710231200 AAXX 23124 67571 42678 61208 10301 20098 48/// 70522 86200
                   333 5//// 86848=
201710200900 AAXX 20094 67571 42965 00610 10329 20056 48/// 70500
                   333 5////=
201710200600 AAXX 20064 67571 32965 00606 10267 20135 48/// 70500
                   333 10358 20210 5////
                   555 00312=
201710170900 AAXX 17094 67571 NIL=
201710170600 AAXX 17064 67571 31970 00000 10262 20076 48/// 70500
                   333 10346 20130 5////
                   555 00321=
201710161200 AAXX 16124 67571 42980 01510 10338 21037 48/// 70500
                   333 5////=
201710160900 AAXX 16094 67571 42980 00915 10325 21040 48/// 70500
                   333 5////=
201710160600 AAXX 16064 67571 32978 12702 10231 20100 48/// 70500 80001
                   333 10318 20122 5//// 81080
                   555 00294=
201710150600 AAXX 15064 67571 31960 03002 10241 20076 48555 70500
                   333 10337 20157 59010 91021=
201710130900 AAXX 13094 67571 41560 71210 10238 20165 48/// 76166 875//
                   333 5//// 87626=
201710130600 AAXX 13064 67571 32575 11210 10216 20170 48/// 70500 81500
                   333 10317 20190 5//// 81620
                   555 00164=
201710120900 AAXX 12094 67571 42675 71205 10286 20160 48/// 70522 81238
                   333 5//// 81830 81360 87280=
201710120600 AAXX 12064 67571 12975 71205 10239 20152 48/// 60014 70522 8708/
                   333 10335 20181 5//// 87360
                   555 00284=
201710110600 AAXX 11064 67571 12975 02102 10235 20167 48/// 60064 70500
                   333 10321 20174 5////
                   555 00275=
201710100600 AAXX 10064 67571 32965 71802 10245 20154 48/// 70522 8703/
                   333 10339 20174 5//// 87360
                   555 00292=
201710091200 AAXX 09124 67571 NIL=
201710090900 AAXX 09094 67571 NIL=
201710090600 AAXX 09064 67571 32978 70602 10235 20110 48/// 70522 81038
                   333 10338 20160 5//// 81360 87280
                   555 00280=
201710060600 AAXX 06064 67571 32978 40903 10230 20140 48/// 70500 80004
                   333 10327 20150 5//// 84080
                   555 00270=
201710051200 AAXX 05124 67571 NIL=
201710050600 AAXX 05064 67571 32978 70905 10245 20115 48/// 70500 80008
                   333 10317 20167 5//// 87281
                   555 00314=
201710041200 AAXX 04124 67571 NIL=
201710040600 AAXX 04064 67571 32978 00909 10236 20095 48/// 70500
                   333 10312 20181 5////
                   555 00284=
201710020600 AAXX 02064 67571 32978 00610 10226 20106 48/// 70500
                   333 10301 20130 5////
                   555 00270=

################################################################################
#  SYNOPS from 67575, Mkushi (Zambia) | 13-38-00S | 029-26-00E | 1237 m
################################################################################
201710251200 AAXX 25124 67575 NIL=
201710250600 AAXX 25064 67575 NIL=
201710170900 AAXX 17094 67575 NIL=
201710120900 AAXX 12094 67575 NIL=
201710110600 AAXX 11064 67575 NIL=
201710100600 AAXX 10064 67575 NIL=
201710091200 AAXX 09124 67575 NIL=
201710090900 AAXX 09094 67575 NIL=
201710051200 AAXX 05124 67575 NIL=
201710050600 AAXX 05064 67575 NIL=
201710041200 AAXX 04124 67575 NIL=

################################################################################
#  SYNOPS from 67580, Msekera (Zambia) | 13-39S | 032-34E | 1025 m
################################################################################
201710300600 AAXX 30064 67580 32580 71505 10205 20155 48/// 87801
                   333 10257 20171 58019 83822 85624=
201710251200 AAXX 25124 67580 NIL=
201710250600 AAXX 25064 67580 NIL=
201710170900 AAXX 17094 67580 NIL=
201710170600 AAXX 17064 67580 31975 00904 10292 20125 48/// 70500
                   333 10367 20208 59016=
201710160900 AAXX 16094 67580 41978 00902 10348 20079 48/// 70500
                   333 5////=
201710160600 AAXX 16064 67580 31978 00805 10297 20114 48/// 70500
                   333 10354 20188 59017=
201710120900 AAXX 12094 67580 NIL=
201710120600 AAXX 12064 67580 31970 01506 10238 20194 48/// 70500
                   333 10370 20212 58021=
201710110600 AAXX 11064 67580 11970 00000 10280 20162 48/// 69924 70500
                   333 10368 20219 58006=
201710100600 AAXX 10064 67580 31970 50805 10276 20142 48/// 70522 82038
                   333 1//// 2//// 59003 82361 84280=
201710091200 AAXX 09124 67580 NIL=
201710090900 AAXX 09094 67580 NIL=
201710090600 AAXX 09064 67580 31978 30803 10280 20156 48/// 70500 80001
                   333 10357 20207 59006=
201710060600 AAXX 06064 67580 31978 00904 10272 20152 48/// 70500
                   333 10338 20210 59006=
201710051200 AAXX 05124 67580 NIL=
201710050600 AAXX 05064 67580 31975 00907 10270 20144 48/// 70500
                   333 10335 20200 59004=
201710041200 AAXX 04124 67580 NIL=
201710040900 AAXX 04094 67580 41775 40805 10310 20135 48/// 70500 84100
                   333 58010 84850=
201710020600 AAXX 02064 67580 31975 30803 10255 20145 48/// 70511 83030
                   333 10317 20218 59018 83360
                   555 00///=

################################################################################
#  SYNOPS from 67581, Chipata (Zambia) | 13-33S | 032-35E | 1028 m
################################################################################
201710300600 AAXX 30064 67581 12580 61208 10213 20135 48574 69904 84132
                   333 10243 20164 58019 84835 82360 84280 91024=
201710260600 AAXX 26064 67581 31960 30606 10284 20146 48543 70500 83032
                   333 10359 20234 59012 83360 82080 91017=
201710251200 AAXX 25124 67581 NIL=
201710250600 AAXX 25064 67581 31660 40506 10279 20136 48543 70522 83032
                   333 10354 20235 59008 83360 82080 91018=
201710230600 AAXX 23064 67581 31960 00805 10284 20138 48579 70500
                   333 10341 20198 59010 91022=
201710200900 AAXX 20094 67581 41960 20904 10341 20139 48562 70500 80002
                   333 58011 82080 91018=
201710200600 AAXX 20064 67581 31960 01406 10289 20148 48563 70500
                   333 10432 20220 58015 91020=
201710190600 AAXX 19064 67581 31960 00603 10294 20142 48547 70500
                   333 10394 20197 58016 91019=
201710170900 AAXX 17094 67581 NIL=
201710170600 AAXX 17064 67581 31960 00703 10300 20094 48538 70500
                   333 10360 20224 59014 91018=
201710161200 AAXX 16124 67581 41960 00905 10357 20021 48520 70500
                   333 59014 91015=
201710160900 AAXX 16094 67581 41960 00000 10339 20056 48544 70500
                   333 59021 91018=
201710160600 AAXX 16064 67581 31960 01604 10292 20080 48552 70500
                   333 10343 20136 59015 91019=
201710130600 AAXX 13064 67581 31660 61507 10257 20173 48550 70522 85202
                   333 10389 20203 58014 85835 83080 91020=
201710121200 AAXX 12124 67581 41660 61205 10329 20142 48511 71722 84132
                   333 58024 81956 84856 82360 84280 91014=
201710120900 AAXX 12094 67581 NIL=
201710120600 AAXX 12064 67581 31960 31604 10262 20134 48539 70500 80002
                   333 10392 20208 58020 83280 91018=
201710110600 AAXX 11064 67581 NIL=
201710101200 AAXX 10124 67581 41660 41406 10346 20112 48486 70522 83132
                   333 58004 83845 81360 84280 91011=
201710100600 AAXX 10064 67581 31960 41204 10266 20128 48516 70522 81022
                   333 10362 20222 59003 81360 83080 91016=
201710091200 AAXX 09124 67581 NIL=
201710090900 AAXX 09094 67581 NIL=
201710090600 AAXX 09064 67581 31960 20805 10268 20126 48518 70500 80002
                   333 10342 20222 59005 82080 91016=
201710060600 AAXX 06064 67581 31960 01604 10263 20138 48539 70500
                   333 10329 20214 59007 91018=
201710051200 AAXX 05124 67581 NIL=
201710050600 AAXX 05064 67581 31960 00712 10258 20124 48/// 70500
                   333 10334 20223 59004 91019=
201710041200 AAXX 04124 67581 41660 40908 10319 20096 48524 70522 84100
                   333 58011 84849 91016=
201710040600 AAXX 04064 67581 31960 01809 10262 20102 48549 70500
                   333 10336 20195 58007 91019=
201710020600 AAXX 02064 67581 31660 31006 10261 20122 48557 70500 81130
                   333 10306 20186 59015 81835 83360
                   555 00/// 91021=

################################################################################
#  SYNOPS from 67583, Lundazi (Zambia) | 12-17S | 033-12E | 1143 m
################################################################################
201710300600 AAXX 30064 67583 31560 71604 10194 20158 48/// 70522 8557/
                   333 10284 20178 5//// 85620 87360=
201710251200 AAXX 25124 67583 NIL=
201710250600 AAXX 25064 67583 31959 10902 10274 20159 48/// 70500 80001
                   333 10346 20168 5//// 81080=
201710240600 AAXX 24064 67583 31959 01003 10280 20136 48/// 70500
                   333 10346 20170 5////=
201710200600 AAXX 20064 67583 31959 01202 10282 20162 48/// 70500
                   333 10378 20190 5////=
201710170900 AAXX 17094 67583 NIL=
201710170600 AAXX 17064 67583 31958 00000 10302 20098 48/// 70500
                   333 10366 20158 5////=
201710120900 AAXX 12094 67583 NIL=
201710110600 AAXX 11064 67583 31958 30901 10276 20140 48/// 70500 80002
                   333 5//// 83080=
201710100600 AAXX 10064 67583 31958 60000 10258 20155 48/// 70522 81038
                   333 10362 20192 5//// 81360 85280=
201710091200 AAXX 09124 67583 NIL=
201710090900 AAXX 09094 67583 NIL=
201710090600 AAXX 09064 67583 31959 00601 10256 20150 48/// 70500
                   333 10358 20166 5////=
201710060600 AAXX 06064 67583 31958 21203 10254 20144 48/// 70500 80002
                   333 10338 20164 5//// 82080=
201710051200 AAXX 05124 67583 NIL=
201710050600 AAXX 05064 67583 31958 50903 10252 20152 48/// 70522 80008
                   333 10322 20152 5//// 85280=
201710041200 AAXX 04124 67583 NIL=

################################################################################
#  SYNOPS from 67599, Mfuwe (Zambia) | 13-16S | 031-56E | 568 m
################################################################################
201710300600 AAXX 30064 67599 12480 71607 10228 20156 48563 60064 8157/
                   333 10309 20202 58022 81610 87458
                   555 00220 91022=
201710270600 AAXX 27064 67599 32970 10607 10331 20144 48519 80001
                   333 10423 20225 59023 81080 91012=
201710260600 AAXX 26064 67599 31960 60506 10316 20135 48540 70522 82031
                   333 10412 20210 59006 82360 86080
                   555 00232 91015=
201710251200 AAXX 25124 67599 NIL=
201710250600 AAXX 25064 67599 32970 60403 10309 20114 48546 86030
                   333 10//0 20199 59010 86360
                   555 00200 91016=
201710230600 AAXX 23064 67599 32980 00806 10306 20142 48565
                   333 10395 20206 59010 91018=
201710200600 AAXX 20064 67599 31959 10706 10315 20146 48557 70500 80001
                   333 10424 20221 59013 81080
                   555 00220 91017=
201710190600 AAXX 19064 67599 31950 00906 10306 20161 48541 70500
                   333 10429 20221 58026
                   555 00210 91016=
201710170900 AAXX 17094 67599 NIL=
201710160600 AAXX 16064 67599 31960 00000 10285 20074 48547 70500
                   333 10380 20160 59022
                   555 00160 91017=
201710130600 AAXX 13064 67599 31960 11209 10288 20185 48550 70522 81030
                   333 10389 20233 58017 81360
                   555 00///=
201710120900 AAXX 12094 67599 NIL=
201710120600 AAXX 12064 67599 12980 01705 10276 20203 48528 60014
                   333 10413 20224 58024
                   555 00216 91015=
201710110600 AAXX 11064 67599 32980 00905 10313 20100 48519
                   333 10395 20224 58003 91013=
201710100600 AAXX 10064 67599 11970 70707 10290 20149 48510 69904 70522 80002
                   333 10402 20245 59008 87080
                   555 00235 91012=
201710091200 AAXX 09124 67599 NIL=
201710090900 AAXX 09094 67599 NIL=
201710090600 AAXX 09064 67599 31970 60505 10295 20126 48514 70500 80001
                   333 10402 20195 59008 86080
                   555 00185 91013=
201710060600 AAXX 06064 67599 32980 01006 10286 20138 48536
                   333 10381 20228 59008
                   555 00212 91016=
201710051200 AAXX 05124 67599 NIL=
201710050600 AAXX 05064 67599 32980 00803 10283 20131 48543
                   333 10380 20182 59002
                   555 00178 91017=
201710041200 AAXX 04124 67599 NIL=
201710020600 AAXX 02064 67599 31960 01301 10271 20124 48554 70500
                   333 10360 20175 59014
                   555 00162 91018=

################################################################################
#  SYNOPS from 67625, Kalabo (Zambia) | 14-51S | 022-42E | 1033 m
################################################################################
201710251200 AAXX 25124 67625 42782 71507 10370 20121 48/// 82104
                   333 5//// 81856 87075=
201710250600 AAXX 25064 67625 32982 82006 10255 20147 48/// 81034
                   333 10362 20206 59011 81360 88075
                   555 00192=
201710231200 AAXX 23124 67625 42782 81302 10316 20147 48/// 81134
                   333 5//// 81850 85360 88075=
201710200600 AAXX 20064 67625 32982 72706 10222 20175 48/// 85034
                   333 10401 20210 58009 83360 87075
                   555 00188=
201710191200 AAXX 19124 67625 42982 71304 10395 20116 48/// 80004
                   333 5//// 87075=
201710190900 AAXX 19094 67625 42982 72502 10362 20115 48/// 80004
                   333 87075=
201710171200 AAXX 17124 67625 42982 72711 10386 20090 48/// 80004
                   333 59035 87075=
201710170900 AAXX 17094 67625 42982 73010 10345 20128 48/// 80004
                   333 59013 87075=
201710161200 AAXX 16124 67625 42982 03606 10368 20080 48///
                   333 5////=
201710160600 AAXX 16064 67625 32982 73603 10238 20067 48/// 80004
                   333 10377 20150 59021 87075
                   555 00106=
201710130900 AAXX 13094 67625 42982 40605 10305 20178 48/// 80004
                   333 59004 84075=
201710121200 AAXX 12124 67625 42882 70913 10341 20150 48/// 81103
                   333 58029 81857 87075=
201710120900 AAXX 12094 67625 42982 80910 10300 20159 48/// 82033
                   333 58018 82360 88075=
201710120600 AAXX 12064 67625 32982 81004 10215 20170 48/// 87033
                   333 10360 20190 58006 87360 87075
                   555 00158=
201710110600 AAXX 11064 67625 32982 01602 10227 20177 48///
                   333 10350 20195 58021
                   555 00152=
201710100600 AAXX 10064 67625 12982 73205 10228 20195 48/// 69934 86033
                   333 10313 20209 59019 86361 87075
                   555 00164=
201710091200 AAXX 09124 67625 42982 83505 10227 20195 48/// 86033
                   333 86261 88075=
201710090900 AAXX 09094 67625 41982 82106 10208 20193 48/// 75052 8802/
                   333 5//// 88460=
201710090600 AAXX 09064 67625 11982 83605 10196 20193 48/// 60064 72052 8802/
                   333 10349 20187 59019 88460
                   555 00188=
201710060900 AAXX 06094 67625 42982 82004 10276 20163 48/// 84034
                   333 58004 84361 88075=
201710060600 AAXX 06064 67625 12982 82704 10215 20178 48/// 60014 8802/
                   333 10356 20195 58019 88460
                   555 00186=
201710051200 AAXX 05124 67625 42882 73603 10340 20150 48/// 81104
                   333 5//// 81857 87075=
201710050900 AAXX 05094 67625 42982 73007 10307 20163 48/// 80004
                   333 87075=
201710050600 AAXX 05064 67625 32982 72904 10213 20160 48/// 80004
                   333 10357 20186 5//// 87075
                   555 00164=
201710041200 AAXX 04124 67625 NIL=
201710020600 AAXX 02064 67625 32982 00907 10225 20110 48///
                   333 10350 20180 58000
                   555 00158=

################################################################################
#  SYNOPS from 67633, Mongu (Zambia) | 15-15S | 023-09E | 1052 m
################################################################################
201710300600 AAXX 30064 67633 12980 70905 10201 20165 48551 60024 70222 87070
                   333 10277 20181 58020 87460 91023=
201710270600 AAXX 27064 67633 32980 40904 10227 20180 48526 70222 80001
                   333 10384 20207 58020 84080 91019=
201710251200 AAXX 25124 67633 NIL=
201710250600 AAXX 25064 67633 32980 63602 10270 20151 48514 70222 84031
                   333 10364 20190 59009 84360 83080 91016=
201710230600 AAXX 23064 67633 32980 70907 10265 20162 48524 70222 82031
                   333 10371 20234 59009 82360 86080 91018=
201710200600 AAXX 20064 67633 32980 73604 10255 20168 48513 70222 85031
                   333 10415 20236 58016 85360 83080 91017=
201710190600 AAXX 19064 67633 32980 33602 10254 20149 48501 70200 80001
                   333 10408 20215 59020 83080 91015=
201710170900 AAXX 17094 67633 NIL=
201710170600 AAXX 17064 67633 32980 03604 10280 20093 48526 70200
                   333 10396 20170 59018 91017=
201710160600 AAXX 16064 67633 32980 03603 10205 2//// 48524 70200
                   333 10387 20198 58007 91020=
201710120900 AAXX 12094 67633 NIL=
201710120600 AAXX 12064 67633 32980 63602 10234 20168 48527 70300 86001
                   333 10371 20214 58015 86080 91019=
201710110600 AAXX 11064 67633 32980 13602 10244 20180 48516 70200 81030
                   333 10361 20192 58020 81361 91017=
201710100600 AAXX 10064 67633 12980 33603 10235 20192 48490 60014 70200 83030
                   333 10303 20211 59013 83360 91015=
201710091200 AAXX 09124 67633 NIL=
201710090900 AAXX 09094 67633 NIL=
201710090600 AAXX 09064 67633 11680 83601 10206 20197 48505 60054 79599 8193/
                   333 10303 20189 58018 81935 88460 91016=
201710080600 AAXX 08064 67633 32980 62104 10262 20167 48493 70222 86030
                   333 10357 20216 5//// 86360 91014=
201710060600 AAXX 06064 67633 32980 70000 10227 20175 48518 70222 85038
                   333 10366 20209 58008 85360 83280 91018=
201710051200 AAXX 05124 67633 NIL=
201710050600 AAXX 05064 67633 32980 30802 10231 20162 48508 70200 80001
                   333 10373 20199 58000 83080 91017=
201710041200 AAXX 04124 67633 NIL=
201710040600 AAXX 04064 67633 32980 00910 10265 20134 48526 70200
                   333 10377 20215 58005 91017=
201710020600 AAXX 02064 67633 32980 00909 10252 20125 48521
                   333 10356 20204 59007
                   555 00/// 91018=

################################################################################
#  SYNOPS from 67641, Kaoma (Zambia) | 14-48S | 024-48E | 1213 m
################################################################################
201710300600 AAXX 30064 67641 12580 81107 10196 20156 48549 69924 70322 8551/
                   333 10242 20178 58014 85630 88460 91022=
201710251200 AAXX 25124 67641 NIL=
201710250600 AAXX 25064 67641 31975 23602 10220 20159 48496 70500 80001
                   333 10362 20178 59009 82080 91015=
201710230600 AAXX 23064 67641 31970 50908 10252 20167 48526 70522 80001
                   333 10362 20194 59008 85080
                   555 00157 91018=
201710190600 AAXX 19064 67641 31960 43302 10246 20160 48494 70511 84030
                   333 10382 20184 58001 84360
                   555 00156 91015=
201710170900 AAXX 17094 67641 NIL=
201710170600 AAXX 17064 67641 31970 02405 10221 20104 48504 70500
                   333 10376 20151 59019
                   555 00112 91016=
201710161200 AAXX 16124 67641 32570 10810 10288 20197 40062 57032 81100=
201710160600 AAXX 16064 67641 32980 00000 10219 20125 48522 70110
                   333 10364 20141 59008
                   555 00104 91018=
201710130600 AAXX 13064 67641 32980 43002 10231 20195 48507 80001
                   333 10357 20193 59010 84080
                   555 00180 91016=
201710120900 AAXX 12094 67641 NIL=
201710120600 AAXX 12064 67641 32980 72004 10230 20177 48516 70222 8707/
                   333 10357 20220 58010 87360
                   555 00191 91017=
201710110600 AAXX 11064 67641 32980 13203 10221 20180 48505 70200 80001
                   333 10330 20189 58008 81080 81080
                   555 00162 91016=
201710100600 AAXX 10064 67641 12980 70403 10211 20189 48496 60064 70222 8703/
                   333 10294 20191 58000 87359
                   555 00176 91015=
201710091200 AAXX 09124 67641 NIL=
201710090900 AAXX 09094 67641 NIL=
201710090600 AAXX 09064 67641 11970 82404 10204 20192 48495 60104 70562 8703/
                   333 10342 20190 58010 87360
                   555 00181 91015=
201710060600 AAXX 06064 67641 31960 0//// 10255 20139 48508 70510
                   333 10364 20207 59004
                   555 00178 91016=
201710051200 AAXX 05124 67641 NIL=
201710050600 AAXX 05064 67641 31965 10403 10228 20137 48509 70500 80001
                   333 10363 20169 59002 81080
                   555 00141 91016=
201710041200 AAXX 04124 67641 NIL=

################################################################################
#  SYNOPS from 67655, Mumbwa (Zambia) | 15-04S | 027-11E | 1216 m
################################################################################
201710251200 AAXX 25124 67655 NIL=
201710250600 AAXX 25064 67655 NIL=
201710170900 AAXX 17094 67655 NIL=
201710120900 AAXX 12094 67655 NIL=
201710110600 AAXX 11064 67655 NIL=
201710100600 AAXX 10064 67655 NIL=
201710091200 AAXX 09124 67655 NIL=
201710090900 AAXX 09094 67655 NIL=
201710051200 AAXX 05124 67655 NIL=
201710050600 AAXX 05064 67655 NIL=
201710041200 AAXX 04124 67655 NIL=

################################################################################
#  SYNOPS from 67659, Kafue Polder (Zambia) | 15-46S | 027-55E | 978 m
################################################################################
201710300600 AAXX 30064 67659 32980 81804 10182 20153 48/// 70222 83530
                   333 10255 20180 59007 83610 85360=
201710270600 AAXX 27064 67659 32980 40804 10266 20180 48/// 70322 84030
                   333 10382 20175 5//// 84360=
201710260600 AAXX 26064 67659 32980 01204 10340 20146 48/// 70500
                   333 10360 20170 59021=
201710251200 AAXX 25124 67659 NIL=
201710250600 AAXX 25064 67659 NIL=
201710200600 AAXX 20064 67659 32980 00903 10275 20196 48/// 70500
                   333 10390 20190 58008=
201710170900 AAXX 17094 67659 NIL=
201710170600 AAXX 17064 67659 32980 00702 10212 20162 48/// 70500
                   333 10375 20115 59020=
201710130600 AAXX 13064 67659 32980 12006 10252 20184 48/// 70222 81001
                   333 10355 20182 58010 81080=
201710120900 AAXX 12094 67659 NIL=
201710120600 AAXX 12064 67659 32980 22004 10184 2//// 48/// 70322 82030
                   333 10365 20180 58020 82360=
201710110600 AAXX 11064 67659 NIL=
201710100600 AAXX 10064 67659 12980 61802 10218 20199 48/// 60034 70222 86030
                   333 10340 20220 58001 86360=
201710091200 AAXX 09124 67659 NIL=
201710090900 AAXX 09094 67659 NIL=
201710060600 AAXX 06064 67659 32980 01903 10257 20147 48/// 70500
                   333 10337 20175 59006=
201710051200 AAXX 05124 67659 NIL=
201710050600 AAXX 05064 67659 32980 21804 10272 20151 48/// 70222 82030
                   333 10342 20182 59009 82360=
201710041200 AAXX 04124 67659 NIL=
201710040600 AAXX 04064 67659 32980 02206 10255 20148 48/// 70500
                   333 10338 20181 58001=

################################################################################
#  SYNOPS from 67662, Kabwe Agric (Zambia) | 14-24S | 028-30E | 1165 m
################################################################################
201710300600 AAXX 30064 67662 11370 80906 10165 20153 48/// 69904 75055 887//
                   333 10301 20152 5//// 88707
                   555 00146=
201710251200 AAXX 25124 67662 NIL=
201710250600 AAXX 25064 67662 31970 50904 10283 20136 48/// 70522 81031
                   333 10352 20186 5//// 81360 84080
                   555 00141=
201710200600 AAXX 20064 67662 31970 30902 10238 20136 48/// 70500 83030
                   333 10365 20144 5//// 83360
                   555 00129=
201710190600 AAXX 19064 67662 31970 00803 10245 20144 48/// 70500
                   333 10384 20142 5////
                   555 00138=
201710170900 AAXX 17094 67662 NIL=
201710160600 AAXX 16064 67662 31970 00503 10244 20053 70500
                   333 10336 20174 5////
                   555 00156=
201710120900 AAXX 12094 67662 NIL=
201710120600 AAXX 12064 67662 11970 60000 10246 20162 48/// 69904 70522 82038
                   333 10330 20168 5//// 82360 86280
                   555 00148=
201710110600 AAXX 11064 67662 31970 72702 10246 20160 48/// 70522 87030
                   333 10313 20188 5//// 87360
                   555 00172=
201710100600 AAXX 10064 67662 11970 70000 10220 20174 48/// 69904 70522 8707/
                   333 10280 20196 5//// 87360
                   555 00174=
201710091200 AAXX 09124 67662 NIL=
201710090900 AAXX 09094 67662 NIL=
201710090600 AAXX 09064 67662 31970 71804 10251 20156 48/// 70522 87030
                   333 10301 20178 5//// 87360
                   555 00153=
201710051200 AAXX 05124 67662 NIL=
201710050600 AAXX 05064 67662 31970 30914 10257 20111 48/// 70500 80001
                   333 10335 20182 5//// 83080
                   555 00151=
201710041200 AAXX 04124 67662 NIL=
201710040600 AAXX 04064 67662 31970 50906 10256 20114 48/// 70522 80001
                   333 10339 20153 5//// 85080
                   555 00142=

################################################################################
#  SYNOPS from 67663, Kabwe (Zambia) | 14-27S | 028-28E | 1206 m
################################################################################
201710300600 AAXX 30064 67663 11365 80811 10160 20151 48563 69904 75055 8467/
                   333 10216 20150 58028 84708 88460
                   555 00160=
201710270600 AAXX 27064 67663 31965 40607 10246 20150 48493 70511 82032
                   333 10377 20224 59014 82360 84080
                   555 00278=
201710260600 AAXX 26064 67663 32965 20809 10282 20122 48509 70500 80002
                   333 10360 20229 59015 82080
                   555 00364=
201710251200 AAXX 25124 67663 NIL=
201710250600 AAXX 25064 67663 NIL=
201710230600 AAXX 23064 67663 11965 30913 10246 20149 48543 69904 70511 83030
                   333 10323 20209 59014 83360
                   555 00324=
201710200600 AAXX 20064 67663 31965 01806 10247 20175 48524 70500
                   333 10358 20//0 58012
                   555 00308=
201710190600 AAXX 19064 67663 31965 01706 10242 20158 48511 70500
                   333 10386 20180 58017
                   555 00294=
201710170900 AAXX 17094 67663 NIL=
201710170600 AAXX 17064 67663 31965 03603 10259 20068 48509 70500
                   333 10367 20190 59022
                   555 00327=
201710160600 AAXX 16064 67663 31965 00909 10259 20079 48532 70500
                   333 10332 20170 59019
                   555 00361=
201710130600 AAXX 13064 67663 11965 11705 10240 20168 48574 69904 70500 80002
                   333 10340 20198 58011 81080=
201710120900 AAXX 12094 67663 NIL=
201710120600 AAXX 12064 67663 11965 20304 10247 20162 48567 69904 70511 80002
                   333 10340 20250 58018 82080
                   555 00314=
201710110600 AAXX 11064 67663 NIL=
201710100600 AAXX 10064 67663 11965 61203 10227 20176 48555 69904 70522 86030
                   333 10282 20220 58021 86360
                   555 00274=
201710091200 AAXX 09124 67663 NIL=
201710090900 AAXX 09094 67663 NIL=
201710060600 AAXX 06064 67663 31965 20909 10250 20123 48537 70500 80002
                   333 10345 20198 59001 82080
                   555 00306=
201710051200 AAXX 05124 67663 NIL=
201710050600 AAXX 05064 67663 31965 30809 10253 20114 48537 70500 81032
                   333 10335 20190 59003 81360 83080
                   555 00322=
201710041200 AAXX 04124 67663 NIL=
201710020600 AAXX 02064 67663 31965 00906 10234 20135 48532 70500
                   333 10310 20151 59026
                   555 00300=

################################################################################
#  SYNOPS from 67665, Lusaka Internationalairport (Zambia) | 15-19S | 028-27E | 1152 m
################################################################################
201710310600 AAXX 31064 67665 31359 10914 10189 20140 48574 70500 82501
                   333 59001 82608 81080=
201710310300 AAXX 31034 67665 42660 11006 10210 20135 48549 70100 80001
                   333 59001 82080=
201710302100 AAXX 30214 67665 42980 10000 10154 20127 48556 70100 80001
                   333 59007 81080=
201710301800 AAXX 30184 67665 42980 20000 10178 20136 48559 70100 80001
                   333 10224 58010 82080=
201710301500 AAXX 30154 67665 42660 71007 10210 20135 48554 70222 875//
                   333 58001 87635=
201710301200 AAXX 30124 67665 42560 70808 10214 20133 48557 8557/
                   333 5//// 85620 87459=
201710300600 AAXX 30064 67665 32359 80812 10161 20139 48572 72052 8474/
                   333 10203 20//0 58020 84709 87459=
201710300300 AAXX 30034 67665 42980 60813 10161 20139 48551 70222 86030
                   333 58015 86360=
201710300000 AAXX 30004 67665 42970 60817 10166 20135 48552 70222 86030
                   333 58023 86360=
201710292100 AAXX 29214 67665 42960 70912 10178 20140 48567 70222 87030
                   333 58027 87360=
201710291500 AAXX 29154 67665 42660 80813 10192 20141 70222 885//
                   333 10198 20//0 58023 88630=
201710290900 AAXX 29094 67665 42460 80919 10181 20148 70222 885//
                   333 58011 88615 91023=
201710282100 AAXX 28214 67665 41459 81106 10180 20171 48541 72055 8257/
                   333 58047 82615 88459=
201710281800 AAXX 28184 67665 41459 71207 10182 20174 48538 75165 8354/
                   333 10204 58058 83615 87459=
201710281500 AAXX 28154 67665 41459 71105 10190 20183 48528 76166 8354/
                   333 58050 83615 87459=
201710280900 AAXX 28094 67665 41359 71112 10190 20190 48545 75000 8573/
                   333 58059 85615 87459=
201710280300 AAXX 28034 67665 42980 71809 10192 20175 48569 78066 81932
                   333 58032=
201710271800 AAXX 27184 67665 42980 22303 10268 20146 48493 80002
                   333 58004 82080=
201710271200 AAXX 27124 67665 41659 33406 10347 20109 48484 70500 83201
                   333 59008 83840 81080=
201710270900 AAXX 27094 67665 42980 53106 10311 20114 48504 70222 80002
                   333 59012 85080=
201710270600 AAXX 27064 67665 32980 52809 10265 20123 48511 80002
                   333 10280 20//0 59010 85080=
201710270300 AAXX 27034 67665 42980 02706 10234 20108 48483
                   333 59016=
201710270000 AAXX 27004 67665 42980 02001 10236 20071 48480
                   333 59017=
201710261800 AAXX 26184 67665 42980 01403 10279 20092 48490
                   333 59013=
201710261200 AAXX 26124 67665 41659 41032 10373 20065 48488 70500 82102
                   333 59015 82840 83080=
201710260900 AAXX 26094 67665 41959 10413 10325 20088 48519 80001
                   333 59013 81080=
201710260600 AAXX 26064 67665 31960 10804 10275 20056 48522 70500 80001
                   333 10358 20//0 59017 81080
                   555 00///=
201710260300 AAXX 26034 67665 42980 01202 10204 20074 48496 70200
                   333 59018=
201710260000 AAXX 26004 67665 42980 01602 10207 20062 48490 70200
                   333 59016=
201710252100 AAXX 25214 67665 42980 01702 10232 20065 48506
                   333 59014=
201710251200 AAXX 25124 67665 NIL=
201710250900 AAXX 25094 67665 41959 20509 10325 20075 48520 70500 80001
                   333 59015 82080=
201710250600 AAXX 25064 67665 NIL=
201710242100 AAXX 24214 67665 42980 01503 10224 20092 48518 70100
                   333 59006=
201710241800 AAXX 24184 67665 42980 21304 10271 20090 48520 82030
                   333 10344 59012 82360=
201710241500 AAXX 24154 67665 42980 20807 10324 20074 48505 82030
                   333 59019 82360=
201710241200 AAXX 24124 67665 42680 40508 10344 20068 48516 84200
                   333 59015 84845=
201710240600 AAXX 24064 67665 32980 10910 10259 20108 48548 70200 80001
                   333 10330 20//0 59010 81080=
201710240300 AAXX 24034 67665 42980 01102 10188 20110 48512 70200
                   333 59029=
201710240000 AAXX 24004 67665 42960 21104 10207 20114 48511 70200 82030
                   333 59024 82360=
201710232100 AAXX 23214 67665 42960 21003 10240 20104 49527 70200 82030
                   333 59024 82360=
201710231800 AAXX 23184 67665 41959 31005 10275 20108 48533 70522 83030
                   333 59018 83360=
201710231500 AAXX 23154 67665 41559 51004 10299 20094 48522 70500 84130
                   333 10330 20//0 59015 84850 81360=
201710230900 AAXX 23094 67665 41560 20812 10295 20138 48558 70500 82101
                   333 59014 82825 81080 91021=
201710230600 AAXX 23064 67665 32960 10813 10240 20135 48555 80001
                   333 59012 81080=
201710230000 AAXX 23004 67665 42960 11006 10205 20120 48535 80001
                   333 59010 81080=
201710222100 AAXX 22214 67665 42960 11104 10222 20121 48548 80001
                   333 59003 81080=
201710221800 AAXX 22184 67665 41959 50609 10243 20128 48545 70522 84031
                   333 10324 58008 84360 83080=
201710221500 AAXX 22154 67665 41759 60711 10277 20073 48535 70522 85201
                   333 58010 85850 81080=
201710221200 AAXX 22124 67665 41659 50414 10315 20041 48544 70500 85201
                   333 58004 85835 81080=
201710220900 AAXX 22094 67665 41359 40813 10278 20101 48569 70500 84500
                   333 58014 84628=
201710220300 AAXX 22034 67665 42960 01007 10192 20123 48544
                   333 58015=
201710211800 AAXX 21184 67665 41980 11005 10277 20045 48543 81030
                   333 58022 81360=
201710211500 AAXX 21154 67665 41658 30714 10328 20050 58531 70500 81201
                   333 58022 81856 81080=
201710211200 AAXX 21124 67665 41958 40715 10347 20025 48543 70500 83101
                   333 58025 83845 81080=
201710210900 AAXX 21094 67665 41959 10313 20095 48559 70500 80001
                   333 58019 82080=
201710210600 AAXX 21064 67665 31960 11011 10280 20116 48565 70500 80001
                   333 10370 20//0 58015 81080=
201710210300 AAXX 21034 67665 41960 01404 10220 20113 48532 70500
                   333 58013=
201710210000 AAXX 21004 67665 41960 01403 10225 20105 48523 70500
                   333 58013=
201710202100 AAXX 20214 67665 42980 11203 10240 20068 48532 80001
                   333 58010 81080=
201710201500 AAXX 20154 67665 41958 30710 10341 20058 48512 70500
                   333 58009 83080=
201710201200 AAXX 20124 67665 41958 20312 10312 20052 48528 70500
                   333 58006 82080=
201710200900 AAXX 20094 67665 41958 00209 10320 20120 48539 70500
                   333 58008=
201710190900 AAXX 19094 67665 41956 00312 10294 20124 48530 70500
                   333 58013=
201710190600 AAXX 19064 67665 31957 01109 10219 20147 48529 70500
                   333 10390 20//0 58014=
201710190300 AAXX 19034 67665 41959 01003 10204 20131 48505 70500
                   333 58017=
201710190000 AAXX 19004 67665 41959 00907 10223 20040 48496 70500
                   333 58010=
201710182100 AAXX 18214 67665 41959 02004 10229 20035 48502 70500
                   333 59004=
201710181500 AAXX 18154 67665 41959 00801 10363 21001 48479 70500
                   333 59005=
201710181200 AAXX 18124 67665 41959 00803 10369 20055 48485 70500
                   333 59006=
201710172100 AAXX 17214 67665 41930 02502 10237 20042 48507 70500
                   333 59016=
201710171800 AAXX 17184 67665 41960 01302 10288 20017 48504 70500
                   333 10374 59020=
201710171500 AAXX 17154 67665 41959 00504 10358 21010 48493 70500
                   333 59016=
201710171200 AAXX 17124 67665 41959 02602 10363 21043 48501 70500
                   333 59020=
201710170900 AAXX 17094 67665 NIL=
201710170600 AAXX 17064 67665 31957 01202 10278 20067 48524 70500
                   333 10366 20//0 59025=
201710170300 AAXX 17034 67665 41959 02302 10185 20085 48499 70500
                   333 59022=
201710170000 AAXX 17004 67665 41958 01902 10175 20049 48494 70400
                   333 59024=
201710161800 AAXX 16184 67665 41959 01704 10260 20010 48520 70400
                   333 59018=
201710161200 AAXX 16124 67665 42980 00911 10356 21013 48521
                   333 59021=
201710160900 AAXX 16094 67665 41960 00305 10319 20033 48544 70500
                   333 59024=
201710160300 AAXX 16034 67665 42980 01503 10145 20030 48515
                   333 59020=
201710152100 AAXX 15214 67665 42980 01502 10177 20015 48527
                   333 59014=
201710151800 AAXX 15184 67665 42980 01204 10242 20020 48534
                   333 59005=
201710151500 AAXX 15154 67665 42980 00712 10319 20020 48530
                   333 59004=
201710151200 AAXX 15124 67665 42980 00913 10321 20018 48538
                   333 59003=
201710150900 AAXX 15094 67665 42980 00408 10271 20019 48561
                   333 59004=
201710150600 AAXX 15064 67665 32980 00906 10216 20093 48562
                   333 59005=
201710150000 AAXX 15004 67665 42980 00000 10280 20056 48526
                   333 59004=
201710142100 AAXX 14214 67665 42980 01704 10176 48541
                   333 58001=
201710141800 AAXX 14184 67665 42980 00706 10215 20053 48538
                   333 58006=
201710141500 AAXX 14154 67665 42980 01012 10282 20064 48531
                   333 58011=
201710141200 AAXX 14124 67665 41665 10911 10288 20071 48537 70500 81100
                   333 58010 81845=
201710140600 AAXX 14064 67665 32980 00811 10211 20098 48566 70200
                   333 10350 20//0 58024=
201710140300 AAXX 14034 67665 42980 00103 10153 20077 48540 70200
                   333 58022=
201710140000 AAXX 14004 67665 42980 01004 10213 20090 48536 70200
                   333 58022=
201710132100 AAXX 13214 67665 42980 01104 10201 20095 48543 70200
                   333 58025=
201710130600 AAXX 13064 67665 32980 20918 10230 20150 48545 80001
                   333 58010 81080=
201710130300 AAXX 13034 67665 42980 00910 10193 20161 48524
                   333 58016=
201710130000 AAXX 13004 67665 42980 01204 10191 20142 48515
                   333 58021=
201710122100 AAXX 12214 67665 42980 01502 10214 20141 48520
                   333 58021=
201710121800 AAXX 12184 67665 42960 22003 10233 20149 48515 70200 80001
                   333 10330 58016 82080=
201710121500 AAXX 12154 67665 41760 62705 10255 20148 48507 70522 82231
                   333 58029 82850 84360 84080=
201710121200 AAXX 12124 67665 41659 51211 10308 20134 48513 70522 85200
                   333 58022 85835=
201710120900 AAXX 12094 67665 41359 10286 20173 48538 70500 81101
                   333 58022 81825 81080=
201710120600 AAXX 12064 67665 31959 20807 10244 20168 48536 70500
                   333 10352 20//0 58004 82080=
201710120000 AAXX 12004 67665 42980 00304 10205 20140 48496
                   333 58004=
201710112100 AAXX 11214 67665 42980 02403 10230 20121 48502 70200
                   333 59004=
201710111800 AAXX 11184 67665 42980 03102 10280 20091 48505
                   333 58007=
201710111500 AAXX 11154 67665 42780 41206 10336 20067 48487 81230
                   333 59002 81856 83360=
201710111200 AAXX 11124 67665 42660 50406 10325 20090 48493 85200
                   333 59008 85845=
201710110900 AAXX 11094 67665 42580 31403 10332 20125 48521 70200 83100
                   333 59001 83830=
201710110600 AAXX 11064 67665 NIL=
201710101800 AAXX 10184 67665 42980 02204 10252 20140 48494
                   333 59010=
201710101500 AAXX 10154 67665 42980 52505 10295 20137 48485 85030
                   333 59006 85360=
201710101200 AAXX 10124 67665 42680 22907 10290 20139 48497 81130
                   333 59007 81845 82360=
201710100900 AAXX 10094 67665 41650 80902 10240 20163 48511 70522 8357/
                   333 58000 83630 87359=
201710100600 AAXX 10064 67665 NIL=
201710091200 AAXX 09124 67665 NIL=
201710090900 AAXX 09094 67665 NIL=
201710090600 AAXX 09064 67665 31570 72007 10236 20133 48515 70522 83530
                   333 10341 20//0 58004 83625 86360=
201710090300 AAXX 09034 67665 41970 02105 10241 20136 48491 70500
                   333 59005=
201710090000 AAXX 09004 67665 41970 01603 10234 20109 48476 70500
                   333 59020=
201710082100 AAXX 08214 67665 41970 01903 10237 20110 48486 70500
                   333 59020=
201710081800 AAXX 08184 67665 41965 11603 10252 20094 48482 70500 81030
                   333 59018 81360=
201710081200 AAXX 08124 67665 41565 30205 10325 20095 48591 70500 83130
                   333 59014 82830 81360=
201710080600 AAXX 08064 67665 31965 10908 10247 20120 48513 70500 81030
                   333 10330 20//0 59020 81360=
201710080300 AAXX 08034 67665 42980 01206 10207 20110 48493
                   333 59017=
201710072100 AAXX 07214 67665 42980 01302 10223 20128 48504
                   333 59012=
201710071800 AAXX 07184 67665 41959 21005 10252 20130 48498 70500 82030
                   333 10330 59010 82360=
201710071500 AAXX 07154 67665 41759 41504 10307 20098 48493 70500 81130
                   333 59007 81850 83360=
201710071200 AAXX 07124 67665 41659 33204 10325 20090 48505 70500 83100
                   333 59006 83835=
201710061800 AAXX 06184 67665 42980 61304 10247 20127 48508 8603/
                   333 59002 86360=
201710061500 AAXX 06154 67665 41965 60906 10305 20082 48500 70500 86060
                   333 59003 86359=
201710061200 AAXX 06124 67665 41665 20606 10322 20080 48509 70500 82100
                   333 59001 82835=
201710060900 AAXX 06094 67665 41959 00310 10300 20095 48530 70500
                   333 59004=
201710060600 AAXX 06064 67665 31965 00906 10245 20087 48533 70500
                   333 10314 20//0 58001=
201710060300 AAXX 06034 67665 41970 01104 10198 20069 48509 70500
                   333 59004=
201710060000 AAXX 06004 67665 41965 01203 10185 20072 48502 70500
                   333 59008=
201710052100 AAXX 05214 67665 41965 01103 10214 20069 48516
                   333 59008=
201710051800 AAXX 05184 67665 42960 01104 10265 20068 48513 70200
                   333 59009 555 10314=
201710051500 AAXX 05154 67665 41659 60907 10320 20037 48454 70522 82131
                   333 59002 82850 82360 86080=
201710051200 AAXX 05124 67665 41659 40406 10321 20055 48460 70500 84101
                   333 59002 84842 83080=
201710050900 AAXX 05094 67665 41959 00812 10306 20070 48535 70500
                   333 59005=
201710050600 AAXX 05064 67665 NIL=
201710041200 AAXX 04124 67665 NIL=
201710040900 AAXX 04094 67665 41959 10511 10282 20082 48537 70500 80001
                   333 58002 84080=
201710040600 AAXX 04064 67665 31959 10911 10225 21050 48537 70500 80001
                   333 10328 20//0 58000 81080=
201710040300 AAXX 04034 67665 41970 01102 10188 20095 48514 70500
                   333 58004=
201710040000 AAXX 04004 67665 41960 01303 10167 20089 48506 70500
                   333 58004=
201710032100 AAXX 03214 67665 41960 01305 10213 20089 48515 70500
                   333 59009=
201710030300 AAXX 03034 67665 41960 01206 10170 20089 48507 70500
                   333 59016=
201710030000 AAXX 03004 67665 41960 01404 10187 20075 48505 70500
                   333 59017=
201710022100 AAXX 02214 67665 41960 01403 10193 20071 48521 70500
                   333 59013=
201710021800 AAXX 02184 67665 41960 01105 10234 20070 48523 70500
                   333 10324 59011=
201710021500 AAXX 02154 67665 41659 40909 10304 20058 48511 70522 84100
                   333 59017 84845=
201710021200 AAXX 02124 67665 41659 51212 10304 20058 48516 70522 85100
                   333 59018 85835=
201710020600 AAXX 02064 67665 31959 01010 10211 20109 48542 70500
                   333 10313 20//0 59018=
201710012100 AAXX 01214 67665 42960 01204 10199 20102 48535 70200
                   333 59010=
201710011800 AAXX 01184 67665 41959 01106 10231 20091 48534 70500
                   333 59006=
201710011500 AAXX 01154 67665 41659 10910 10290 20070 48527 70500 81500
                   333 59006 81650=
201710010900 AAXX 01094 67665 41959 20614 10273 20068 48562 70500 81601
                   333 59006 81625 81080=
201710010600 AAXX 01064 67665 42980 31011 10215 20112 48561 80001
                   333 10//0 20//0 59009 83080=

################################################################################
#  SYNOPS from 67666, Lusaka City Airport (Zambia) | 15-25-00S | 028-28-00E | 1280 m
################################################################################
201710270600 AAXX 27064 67666 32980 00907 10250 20144 48495 83030
                   333 10360 20230 59015 83360 91011=
201710251200 AAXX 25124 67666 NIL=
201710250600 AAXX 25064 67666 32980 10908 10263 20113 48524 70500 80001
                   333 10332 20219 59011 81080 91019=
201710230600 AAXX 23064 67666 32980 00910 10231 20152 48542 70500
                   333 10321 20201 59008 91022=
201710200600 AAXX 20064 67666 32980 00710 10260 20159 48534
                   333 10332 20213 58015 91020=
201710190600 AAXX 19064 67666 32975 00512 10225 20158 48513
                   333 10370 20206 58033 91018=
201710170900 AAXX 17094 67666 NIL=
201710170600 AAXX 17064 67666 31980 03606 10275 20085 48516 70500
                   333 10355 20181 59020 91018=
201710160600 AAXX 16064 67666 32980 00907 10261 20031 48534
                   333 10361 20161 59024 91020=
201710130600 AAXX 13064 67666 32980 30912 10220 20149 48531 70200 80001
                   333 10311 20192 58018 83080 91021=
201710120900 AAXX 12094 67666 NIL=
201710120600 AAXX 12064 67666 32980 30908 10241 20163 48523 83030
                   333 10349 20191 58019 91019=
201710110600 AAXX 11064 67666 11978 12906 10270 20162 48514 69904 70500 81030
                   333 10300 20202 58004 81360 91017=
201710100600 AAXX 10064 67666 12978 80905 10200 20185 48500 60024 88030
                   333 10259 20190 59002 88360 91017=
201710091200 AAXX 09124 67666 NIL=
201710090900 AAXX 09094 67666 NIL=
201710090600 AAXX 09064 67666 32980 52410 10221 20159 48502 85030
                   333 10327 20219 58008 85358 91017=
201710060600 AAXX 06064 67666 32980 00910 10250 20116 48514
                   333 10327 20210 59003 91018=
201710051200 AAXX 05124 67666 NIL=
201710050600 AAXX 05064 67666 32980 50908 10250 20128 48524 70211 85030
                   333 10315 20208 58018 85359 91019=
201710041200 AAXX 04124 67666 NIL=
201710040600 AAXX 04064 67666 32980 30908 10226 20134 48523 70200 80001
                   333 10318 20197 58018 83080 91019=

################################################################################
#  SYNOPS from 67667, Mount Makulu (Zambia) | 15-33S | 028-15E | 1213 m
################################################################################
201710270600 AAXX 27064 67667 31970 72708 10265 20152 48531 70522 80008
                   333 10390 20230 59001 87280=
201710260600 AAXX 26064 67667 31970 00904 10282 20114 48569 70500
                   333 10376 20230 58016=
201710251200 AAXX 25124 67667 NIL=
201710250600 AAXX 25064 67667 31970 00902 10280 20121 48585 70500
                   333 10352 20210 58010
                   555 00///=
201710200600 AAXX 20064 67667 31970 00904 10262 20154 48587 70500
                   333 10364 20212 58012=
201710170900 AAXX 17094 67667 NIL=
201710170600 AAXX 17064 67667 31970 00904 10296 20070 48546 70500
                   333 10382 20177 58002=
201710160600 AAXX 16064 67667 31970 00906 10284 20095 48564 70500
                   333 10350 20172 5////=
201710130600 AAXX 13064 67667 31970 10902 10226 20153 48592 70500 80001
                   333 10372 20170 58006 81080=
201710120900 AAXX 12094 67667 NIL=
201710120600 AAXX 12064 67667 31970 30901 10252 20161 48586 70500 82031
                   333 10366 20170 59019 82360 81080=
201710110600 AAXX 11064 67667 31970 12501 10262 20158 48567 70500 80001
                   333 10336 20160 58011 81080=
201710100600 AAXX 10064 67667 12680 70901 10210 20181 48558 60014 70222 87500
                   333 10300 20188 58007 87625=
201710091200 AAXX 09124 67667 NIL=
201710090900 AAXX 09094 67667 NIL=
201710090600 AAXX 09064 67667 31970 22202 10224 20160 48565 70500 82030
                   333 10350 20198 58008 82360=
201710060600 AAXX 06064 67667 31970 10912 10260 20105 48552 70500 80001
                   333 10356 20206 59001 81082=
201710051200 AAXX 05124 67667 NIL=
201710050600 AAXX 05064 67667 31970 40916 10256 20120 48557 70500 80002
                   333 10344 20202 58001 84082=
201710041200 AAXX 04124 67667 NIL=
201710040600 AAXX 04064 67667 31670 11502 10238 20130 48584 70500 81100
                   333 10332 20178 58022 81830=
201710020600 AAXX 02064 67667 31970 10910 10238 20120 48/// 70500 80001
                   333 10324 20160 58023 81082
                   555 00///=

################################################################################
#  SYNOPS from 67673, Petauke (Zambia) | 14-15S | 031-17E | 1035 m
################################################################################
201710270600 AAXX 27064 67673 11975 33604 10284 20157 48508 69904 70500 83030
                   333 10385 20248 59013 83360=
201710251200 AAXX 25124 67673 NIL=
201710250600 AAXX 25064 67673 NIL=
201710230600 AAXX 23064 67673 31975 00503 10274 20160 48569 70500
                   333 10344 20212 58005=
201710200900 AAXX 20094 67673 41975 03602 10322 20170 48552 70500
                   333 58009=
201710200600 AAXX 20064 67673 31975 00503 10278 20173 48560 70500
                   333 10360 20218 58008=
201710191200 AAXX 19124 67673 41975 00901 10350 20158 48513 70500
                   333 5////=
201710190900 AAXX 19094 67673 41975 00202 10310 20158 48541 70500
                   333 5////=
201710190600 AAXX 19064 67673 31975 00902 10250 20182 48547 70500
                   333 10394 20198 58009=
201710170900 AAXX 17094 67673 NIL=
201710161200 AAXX 16124 67673 41975 03601 10374 20070 48518 70500
                   333 59033=
201710160900 AAXX 16094 67673 41675 03202 10324 20100 48550 70500
                   333 59028=
201710160600 AAXX 16064 67673 31970 00502 10278 20095 48555 70500
                   333 10314 20188 59020=
201710150600 AAXX 15064 67673 31975 00502 10254 20110 48569 70500
                   333 10328 20160 58004=
201710130600 AAXX 13064 67673 31970 11306 10250 20160 48549 70500 80001
                   333 10340 20195 58006 81080=
201710121200 AAXX 12124 67673 41675 40802 10332 20183 48523 70500 84201
                   333 58034 84845 82080=
201710120900 AAXX 12094 67673 41675 20801 10300 20186 48545 70500 82100
                   333 58028 82840=
201710120600 AAXX 12064 67673 31975 20904 10250 20186 48543 70500 82030
                   333 10374 20214 58020 82360=
201710110600 AAXX 11064 67673 31975 43602 10292 20146 48520 70500 84030
                   333 10370 20250 58011 84360=
201710100600 AAXX 10064 67673 NIL=
201710091200 AAXX 09124 67673 NIL=
201710090900 AAXX 09094 67673 NIL=
201710060600 AAXX 06064 67673 31970 13603 10265 20155 48530 70500 80001
                   333 10355 20210 59008 81080=
201710051200 AAXX 05124 67673 NIL=
201710050600 AAXX 05064 67673 31960 10502 10275 20145 48540 70500 80001
                   333 10350 20200 58005 81080=
201710041200 AAXX 04124 67673 NIL=
201710020600 AAXX 02064 67673 31970 00506 10254 20143 48559 70500
                   333 10310 20190 58002
                   555 00///=

################################################################################
#  SYNOPS from 67731, Senanga (Zambia) | 16-06S | 023-16E | 1027 m
################################################################################
201710260600 AAXX 26064 67731 32980 018// 10251 20140 48///
                   333 10379 20199 59014
                   555 00179=
201710251200 AAXX 25124 67731 NIL=
201710250600 AAXX 25064 67731 32480 601// 10244 20139 48/// 70222 83530
                   333 10378 20204 59012 83613 85361
                   555 00158=
201710230600 AAXX 23064 67731 32980 709// 10247 20149 48/// 70222 86038
                   333 10371 20194 59018 86360 87280
                   555 00164=
201710200600 AAXX 20064 67731 31978 427// 10269 20151 48/// 70522 84030
                   333 10406 20234 58013 84360
                   555 00214=
201710190600 AAXX 19064 67731 31978 633// 10269 20108 48/// 70522 86030
                   333 10388 20214 58000 86360
                   555 00191=
201710170900 AAXX 17094 67731 42980 027// 1//// 2//// 48///
                   333 59029=
201710170600 AAXX 17064 67731 32980 012// 10254 20104 48///
                   333 10374 20184 59024
                   555 00168=
201710160600 AAXX 16064 67731 32980 018// 10249 20108 48///
                   333 10387 20200 59006
                   555 00194=
201710130600 AAXX 13064 67731 32980 534// 10246 20115 48/// 70222 85030
                   333 10374 20196 58005 85360
                   555 00144=
201710120900 AAXX 12094 67731 NIL=
201710120600 AAXX 12064 67731 32980 627// 10249 20108 48/// 70222 83530
                   333 10369 20201 58014 83615 85360
                   555 00174=
201710110600 AAXX 11064 67731 32980 027// 10264 20149 48///
                   333 10344 20198 58020
                   555 00164=
201710100600 AAXX 10064 67731 11470 609// 10201 20186 48/// 60014 76066 83518
                   333 10290 20184 59010 83613 85460 87280
                   555 00149=
201710091200 AAXX 09124 67731 NIL=
201710090900 AAXX 09094 67731 NIL=
201710090600 AAXX 09064 67731 12480 834// 10229 20177 48/// 69904 70222 84578
                   333 10343 20184 59005 84613 84460 87280
                   555 00161=
201710060600 AAXX 06064 67731 12680 815// 10225 20160 48/// 60014 75022 82980
                   333 10354 20215 58007 82935 86362
                   555 00187=
201710051200 AAXX 05124 67731 42680 218// 10368 20152 48/// 70300 82300
                   333 58008 82930 81832=
201710050600 AAXX 05064 67731 32980 128// 10271 20141 48/// 70200 80008
                   333 10363 20182 58002 81080
                   555 00149=
201710041200 AAXX 04124 67731 42980 202// 10377 20064 48/// 70200 81201
                   333 58002 81832 81080=
201710040600 AAXX 04064 67731 32980 023// 10278 20114 48///
                   333 10357 20213 59004
                   555 00184=
201710020600 AAXX 02064 67731 32980 011// 10224 20086 48///
                   333 10312 20167 59009
                   555 00138=

################################################################################
#  SYNOPS from 67741, Sesheke (Zambia) | 17-28S | 024-18E | 949 m
################################################################################
201710260600 AAXX 26064 67741 32980 10000 10281 20178 48502 80001
                   333 10374 20192 59024 81080
                   555 00146=
201710251200 AAXX 25124 67741 NIL=
201710250600 AAXX 25064 67741 32980 11301 10274 20170 48519 81030
                   333 10369 20166 5//// 81362
                   555 00140=
201710200600 AAXX 20064 67741 12980 13601 10289 20181 48513 60064 81030
                   333 10408 20230 58008 81362
                   555 00160=
201710170900 AAXX 17094 67741 NIL=
201710160600 AAXX 16064 67741 32980 03401 10274 20115 48529
                   333 10383 20139 59016=
201710130900 AAXX 13094 67741 42980 10902 10331 20165 48541 80001
                   333 59002 81080=
201710130600 AAXX 13064 67741 32980 10901 10262 20133 48537 80001
                   333 10376 20144 58000 81080
                   555 00102=
201710120900 AAXX 12094 67741 42980 11002 10340 20123 48543 80001
                   333 5//// 81080=
201710120600 AAXX 12064 67741 32980 20801 10269 20099 48539 82041
                   333 10362 20120 5//// 82362 81080
                   555 00089=
201710110600 AAXX 11064 67741 NIL=
201710100600 AAXX 10064 67741 NIL=
201710091200 AAXX 09124 67741 NIL=
201710090900 AAXX 09094 67741 NIL=
201710090600 AAXX 09064 67741 12980 60000 10236 20190 48485 60094 86070
                   333 10376 20149 5//// 86361
                   555 00104=
201710051200 AAXX 05124 67741 NIL=
201710050600 AAXX 05064 67741 NIL=
201710041200 AAXX 04124 67741 NIL=
201710020600 AAXX 02064 67741 32980 00901 10221 20149 48538
                   333 10356 20150 58001
                   555 00///=

################################################################################
#  SYNOPS from 67743, Livingstone (Zambia) | 17-49S | 025-49E | 985 m
################################################################################
201710300600 AAXX 30064 67743 12480 81209 10165 20146 48572 69964 70222 82671
                   333 10170 20140 58015 82709 85359 84080 91025=
201710251200 AAXX 25124 67743 NIL=
201710250600 AAXX 25064 67743 31975 21703 10295 20120 48523 70500 80001
                   333 10375 20175 59016 82080 91017=
201710200600 AAXX 20064 67743 31956 70810 10264 20158 48518 70522 87031
                   333 10392 20205 58008 87360 81080 91017=
201710191200 AAXX 19124 67743 41930 00312 10382 20088 48485 70500
                   333 59003 91012=
201710171200 AAXX 17124 67743 42980 02209 10400 20045 48491
                   333 59019 91011=
201710170900 AAXX 17094 67743 NIL=
201710170600 AAXX 17064 67743 32980 00000 10275 20011 48504 70200
                   333 10399 20185 59026 91015=
201710160600 AAXX 16064 67743 32980 00106 10301 21068 48533 70200
                   333 10385 20166 59022 91017=
201710150600 AAXX 15064 67743 32980 03606 10238 20105 48561 70200 80001
                   333 10368 20148 59006 91020=
201710130900 AAXX 13094 67743 42980 10718 10325 20035 48545 80001
                   333 58005 81080 91018=
201710120900 AAXX 12094 67743 NIL=
201710120600 AAXX 12064 67743 31875 31306 10246 20009 48523 70500 83030
                   333 10365 20163 58007 83360 91018=
201710110600 AAXX 11064 67743 31875 11706 10226 20020 48519 70500 81030
                   333 10350 20188 58022 81360 91018=
201710100600 AAXX 10064 67743 31875 32506 10246 20160 48494 70500 82030
                   333 10335 20211 58006 82360 91015=
201710091200 AAXX 09124 67743 NIL=
201710090900 AAXX 09094 67743 NIL=
201710090600 AAXX 09064 67743 31970 53505 10239 20170 48492 60024 70500 85030
                   333 10365 20190 58007 85360 91014=
201710060600 AAXX 06064 67743 31980 71905 10252 20140 48523 70500 87030
                   333 10370 20208 58015 87360 91018=
201710051200 AAXX 05124 67743 NIL=
201710050600 AAXX 05064 67743 31970 11105 10258 20127 48511 70500 81030
                   333 10360 20190 59014 81360 91016=
201710041200 AAXX 04124 67743 NIL=
201710040600 AAXX 04064 67743 31970 10712 10260 20120 48525 70500 80001
                   333 10361 20185 59001 81079 91018=

################################################################################
#  SYNOPS from 67751, Magoye (Zambia) | 16-00S | 027-36E | 1018 m
################################################################################
201710270600 AAXX 27064 67751 32980 73414 10263 20157 48/// 70500
                   333 10381 20188 58011 87280=
201710260600 AAXX 26064 67751 31975 00712 10315 20086 48/// 70500
                   333 10369 20170 58010=
201710251200 AAXX 25124 67751 NIL=
201710250600 AAXX 25064 67751 31978 00709 10304 20109 48/// 70500
                   333 10367 20164 58013=
201710230600 AAXX 23064 67751 31978 10908 10261 20130 48/// 70500 80001
                   333 10340 20204 5//// 81080=
201710200600 AAXX 20064 67751 31975 00410 10303 20145 48/// 70500
                   333 10362 20190 59005=
201710170900 AAXX 17094 67751 NIL=
201710170600 AAXX 17064 67751 31970 00404 10284 20058 48/// 70500
                   333 10380 20150 58028=
201710120900 AAXX 12094 67751 NIL=
201710110600 AAXX 11064 67751 32980 01509 10221 20155 48///
                   333 10332 20220 59008=
201710100600 AAXX 10064 67751 12980 73602 10230 20195 48/// 69974 87030
                   333 10300 20196 58008 87360=
201710091200 AAXX 09124 67751 NIL=
201710090900 AAXX 09094 67751 NIL=
201710090600 AAXX 09064 67751 11980 80000 10198 20188 48/// 60024 76066 8807/
                   333 10340 20194 5//// 88360=
201710060600 AAXX 06064 67751 31976 01313 10285 20112 70500
                   333 10352 20162 58004=
201710051200 AAXX 05124 67751 NIL=
201710050600 AAXX 05064 67751 31976 10401 10275 20139 48/// 70500 81040
                   333 10342 20162 58010 81360=
201710041200 AAXX 04124 67751 NIL=
201710040600 AAXX 04064 67751 31977 10408 10268 20134 48/// 70500 81040
                   333 10350 20164 59004 81360=

################################################################################
#  SYNOPS from 67753, Choma (Zambia) | 16-50S | 027-04E | 1213 m
################################################################################
201710251200 AAXX 25124 67753 NIL=
201710250600 AAXX 25064 67753 32960 22902 10249 20120 48524 82030
                   333 10316 20158 59010 82360=
201710240600 AAXX 24064 67753 31960 32903 10246 20130 48533 70500
                   333 10326 20178 59014=
201710200600 AAXX 20064 67753 31960 10000 10248 20163 48/// 70500 80001
                   333 10343 20194 58003 81080=
201710190600 AAXX 19064 67753 31960 02930 10241 20164 48523 70500
                   333 10379 20222 58011=
201710170900 AAXX 17094 67753 NIL=
201710170600 AAXX 17064 67753 31960 01503 10266 20090 48506 70500
                   333 10364 20155 59023=
201710160600 AAXX 16064 67753 31960 01809 10259 20020 48534 70500
                   333 10340 20160 59022=
201710150600 AAXX 15064 67753 31960 13516 10235 20097 48551 70500 80001
                   333 10313 20154 59006 81080=
201710120900 AAXX 12094 67753 NIL=
201710120600 AAXX 12064 67753 31960 40000 10236 20177 48533 70500 84030
                   333 10334 20170 58014 84360=
201710110600 AAXX 11064 67753 11960 20103 10239 20114 48513 69904 70500 82030
                   333 10316 20120 58018 82360=
201710100600 AAXX 10064 67753 11960 71803 10229 20175 48493 60044 70522 87030
                   333 10279 20134 59006 87360=
201710091200 AAXX 09124 67753 NIL=
201710090900 AAXX 09094 67753 NIL=
201710090600 AAXX 09064 67753 11960 81802 10196 20175 48500 60014 70522 8803/
                   333 10356 20134 58004 88360=
201710060600 AAXX 06064 67753 31960 10806 10254 20114 48514 70500 80001
                   333 10340 20164 58002 81080=
201710051200 AAXX 05124 67753 NIL=
201710050600 AAXX 05064 67753 31960 03614 10248 20116 48514 70500
                   333 10320 20170 59004=
201710041200 AAXX 04124 67753 NIL=

################################################################################
#  SYNOPS from 67855, Lupaki (Zambia) | 17-03-00S | 024-46-00E | 1000 m
################################################################################
201710310600 AAXX 31064 67855 32975 10703 10218 20108 3//// 48/// 81030
                   333 20138 5//// 81360=
201710301800 AAXX 30184 67855 NIL=
201710301200 AAXX 30124 67855 42775 71803 10272 20146 3//// 48/// 85231
                   333 5//// 85856 87080=
201710300600 AAXX 30064 67855 12975 70602 10172 20131 3//// 48/// 60024 8707/
                   333 20138 5//// 87360=
201710291800 AAXX 29184 67855 NIL=
201710291200 AAXX 29124 67855 41970 80000 10160 20140 3//// 48/// 76062 8807/
                   333 5//// 88458=
201710290600 AAXX 29064 67855 11570 80702 10138 20113 3//// 48/// 60094 76062 8557/
                   333 20133 5//// 85620 88458=
201710281800 AAXX 28184 67855 NIL=
201710281200 AAXX 28124 67855 NIL=
201710280600 AAXX 28064 67855 11575 71803 10184 20136 38/// 48/// 69904 71562 8557/
                   333 20182 5//// 85620 87360=
201710271800 AAXX 27184 67855 NIL=
201710271200 AAXX 27124 67855 41970 83602 10360 20105 3//// 48/// 70522 8807/
                   333 5//// 88360=
201710270600 AAXX 27064 67855 NIL=
201710261200 AAXX 26124 67855 41870 52601 10392 20095 3//// 48/// 70511 85200
                   333 5//// 85857=
201710251800 AAXX 25184 67855 NIL=
201710251200 AAXX 25124 67855 41870 51902 10372 20085 3//// 48/// 70511 85201
                   333 5//// 85857 83080=
201710250600 AAXX 25064 67855 31970 00202 10262 20090 3//// 48/// 70500
                   333 20155 5////=
201710241200 AAXX 24124 67855 41980 61901 10356 20083 3//// 48/// 70511 85202
                   333 5//// 85857 83080=
201710240600 AAXX 24064 67855 NIL=
201710231800 AAXX 23184 67855 NIL=
201710231200 AAXX 23124 67855 41870 50803 10360 20068 3//// 48/// 75111 85102
                   333 5//// 85857 83080=
201710230600 AAXX 23064 67855 31970 10000 10242 20130 3//// 48/// 70500 80001
                   333 20125 5//// 81080=
201710221800 AAXX 22184 67855 NIL=
201710220600 AAXX 22064 67855 31970 70908 10252 20161 3//// 48/// 70522 8707/
                   333 20182 5//// 87360=
201710211800 AAXX 21184 67855 NIL=
201710211200 AAXX 21124 67855 41970 71603 10296 20158 3//// 48/// 70522 8707/
                   333 5//// 87360=
201710210600 AAXX 21064 67855 11970 71802 10242 20160 3//// 48/// 69904 70262 8707/
                   333 20220 5//// 87360=
201710201800 AAXX 20184 67855 NIL=
201710201200 AAXX 20124 67855 41970 73503 10376 20128 3//// 48/// 70511 80002
                   333 5//// 87080=
201710200600 AAXX 20064 67855 31970 13301 10266 20149 3//// 48/// 70511 81030
                   333 20220 5//// 81360=
201710191200 AAXX 19124 67855 NIL=
201710190600 AAXX 19064 67855 31970 00901 10224 20157 3//// 48/// 70500
                   333 20170 5////=
201710181200 AAXX 18124 67855 41870 11801 10398 20030 3//// 48/// 70500 81100
                   333 5//// 81857=
201710180600 AAXX 18064 67855 31970 02001 10230 20015 3//// 48/// 70500
                   333 20125 5////=
201710171200 AAXX 17124 67855 41870 13207 10400 20053 38/// 48/// 70500 81100
                   333 5//// 81857=
201710170600 AAXX 17064 67855 31970 02001 10256 20035 3//// 48/// 70500
                   333 20138 5////=
201710161800 AAXX 16184 67855 NIL=
201710161200 AAXX 16124 67855 NIL=
201710160600 AAXX 16064 67855 31970 03305 10266 20070 3//// 48/// 70500
                   333 20090 5////=
201710151800 AAXX 15184 67855 NIL=
201710151200 AAXX 15124 67855 NIL=
201710150600 AAXX 15064 67855 31970 20405 10236 20098 3//// 48/// 70500 80001
                   333 20133 5//// 81080=
201710141200 AAXX 14124 67855 41970 11604 10346 20075 3//// 48/// 70500 80002
                   333 5//// 81080=
201710140600 AAXX 14064 67855 31970 10705 10210 20125 3//// 48/// 70500 80002
                   333 20160 5//// 81080=
201710131800 AAXX 13184 67855 NIL=
201710131200 AAXX 13124 67855 41970 11505 10354 20020 3//// 48/// 70500 80001
                   333 5//// 81080=
201710130600 AAXX 13064 67855 31970 01305 10238 20020 3//// 48/// 70500
                   333 20145 5////=
201710121200 AAXX 12124 67855 41970 32004 10360 21005 3//// 48/// 70500 81031
                   333 5//// 81360 83080=
201710120600 AAXX 12064 67855 31970 00306 10224 20085 3//// 48/// 70500
                   333 20134 5////=
201710111200 AAXX 11124 67855 41970 01703 10346 21020 38/// 48/// 70500
                   333 5////=
201710110600 AAXX 11064 67855 31970 01703 10210 20010 38/// 48/// 70500
                   333 20095 5////=
201710101200 AAXX 10124 67855 NIL=
201710100600 AAXX 10064 67855 31970 53301 10236 20163 3//// 48/// 70522 85031
                   333 20178 5//// 85360=
201710091200 AAXX 09124 67855 NIL=
201710090600 AAXX 09064 67855 11970 50401 10216 20170 3//// 48/// 60034 70522 83031
                   333 20135 5//// 83360 85080=
201710081200 AAXX 08124 67855 41870 53403 10354 20110 3//// 48/// 70511 85232
                   333 5//// 85857 83360=
201710080600 AAXX 08064 67855 11970 30402 10258 20144 3//// 48/// 69904 70511 83030
                   333 20190 5//// 83360=
201710071800 AAXX 07184 67855 NIL=
201710070600 AAXX 07064 67855 NIL=
201710061200 AAXX 06124 67855 41970 71801 10298 20110 3//// 48/// 70511 8707/
                   333 5//// 87360=
201710060600 AAXX 06064 67855 31960 51305 10260 20113 3//// 48/// 70511 85030
                   333 20202 5//// 85360=
201710051200 AAXX 05124 67855 NIL=
201710041800 AAXX 04184 67855 NIL=
201710041200 AAXX 04124 67855 41870 50304 10340 20108 3//// 48/// 70511 85200
                   333 5//// 85857=
201710040600 AAXX 04064 67855 NIL=
201710031800 AAXX 03184 67855 NIL=
201710031200 AAXX 03124 67855 NIL=
201710030600 AAXX 03064 67855 31970 00807 10256 20088 3//// 48/// 70500
                   333 20175 5////=
201710021800 AAXX 02184 67855 NIL=
201710021200 AAXX 02124 67855 41870 43202 10326 20093 3//// 48/// 70511 84200
                   333 5//// 84857=
201710020600 AAXX 02064 67855 31970 71301 10212 20123 3//// 48/// 70511 8707/
                   333 20150 5//// 87360=
201710011200 AAXX 01124 67855 NIL=
201710010600 AAXX 01064 67855 31970 01802 10214 20118 3//// 48/// 70500
                   333 20168 5////=
