################################################################################
# Query made at 04/17/2022 11:45:02 UTC
# Country like Zamb*
# Time interval: from 05/01/2007 05:30  to 05/31/2007 05:30  UTC
################################################################################

################################################################################
#  SYNOPS from 67477, Mpika (Zambia) | 11-54S | 031-26E | 1400 m
################################################################################
200705161200 AAXX 16124 67477 42680 31109 10259 20141 48529 83100
                   333 58015 82845=
200705070600 AAXX 07064 67477 32480 31108 10168 20134 48550 82530
                   333 10224 20124 58000 83613 81362=

################################################################################
#  SYNOPS from 67531, Zambezi (Zambia) | 13-32S | 023-07E | 1077 m
################################################################################
200705070600 AAXX 07064 67531 32980 11307 10157 20124 48/// 81030
                   333 10270 20105 5//// 81363=

################################################################################
#  SYNOPS from 67581, Chipata (Zambia) | 13-33S | 032-35E | 1028 m
################################################################################
200705110900 AAXX 11094 67581 42684 41212 10268 20199 48596 84100
                   333 58009 84836=

################################################################################
#  SYNOPS from 67599, Mfuwe (Zambia) | 13-16S | 031-56E | 568 m
################################################################################
200705261200 AAXX 26124 67599 42680 41804 10276 20149 48573 84130
                   333 58021 84840 81360=
200705201500 AAXX 20154 67599 42580 30000 10300 20181 48523 80001
                   333 59025 83080=
200705181500 AAXX 18154 67599 42780 10800 10300 20198 48554 81200
                   333 59003 81850=
200705161200 AAXX 16124 67599 42680 32803 10325 20186 48561 83200
                   333 58011 83848=
200705111200 AAXX 11124 67599 42680 51810 10310 20185 48579 85200
                   333 58013 85835=
200705110900 AAXX 11094 67599 42480 41804 10295 20193 48603 83230
                   333 59013 83825 81360=
200705070900 AAXX 07094 67599 42580 31804 10275 20176 48576 83130
                   333 59004 83825 82360=

################################################################################
#  SYNOPS from 67633, Mongu (Zambia) | 15-15S | 023-09E | 1052 m
################################################################################
200705161200 AAXX 16124 67633 42982 12804 10297 20139 48545 80001
                   333 58025 81080=
200705070600 AAXX 07064 67633 32982 00805 10172 20099 48546
                   333 10297 20123 58003=

################################################################################
#  SYNOPS from 67665, Lusaka Internationalairport (Zambia) | 15-19S | 028-27E | 1152 m
################################################################################
200705301800 AAXX 30184 67665 42980 60000 10188 20152 48542 86030
                   333 10260 59009 86360 91021=
200705301500 AAXX 30154 67665 42980 60000 10239 20140 48530 86030
                   333 59010 86360 555 91026=
200705301200 AAXX 30124 67665 42680 30703 10244 20139 48536 83230
                   333 59008 83835 81360
                   555 91020=
200705300900 AAXX 30094 67665 42980 41013 10227 20147 48565 84030
                   333 59007 84360=
200705300600 AAXX 30064 67665 32980 70000 10154 20137 48555 87030
                   333 10252 20122 59007 87059=
200705300400 AAXX 30044 67665 42980 70000 10142 20136 48542 87030
                   333 59011 87360=
200705300300 AAXX 30034 67665 42980 70000 10141 20131 48540 87030
                   333 59008 87360=
200705300000 AAXX 30004 67665 42980 70000 10139 20120 48539 87030
                   333 59010 87360=
200705292100 AAXX 29214 67665 42980 40000 10128 20119 48545 84030
                   333 59017 84360=
200705291800 AAXX 29184 67665 42980 00000 10138 20121 48544
                   333 10252 59017=
200705291500 AAXX 29154 67665 42780 30000 10228 20109 48540 83100
                   333 59023 83850=
200705291200 AAXX 29124 67665 42680 31203 10238 20122 48544 83100
                   333 59027 83835=
200705290900 AAXX 29094 67665 42980 08011 10202 20133 48569
                   333 59024 91024=
200705290600 AAXX 29064 67665 32980 00907 10128 20127 48558
                   333 10230 20081 59023=
200705281500 AAXX 28154 67665 42980 11011 10210 20113 48560 81030
                   333 59010 81360 555 10230 91023=
200705280900 AAXX 28094 67665 41580 20818 10201 48592 82500
                   333 58000 82620=
200705280400 AAXX 28044 67665 42980 00000 10085 20085 48562
                   333 58002=
200705280300 AAXX 28034 67665 42980 00000 10089 20089 48558
                   333 59002=
200705271500 AAXX 27154 67665 42680 11005 10208 20104 48569 81100
                   333 58007 81845=
200705271200 AAXX 27124 67665 42680 10807 10219 20118 48570 81100
                   333 58005 81830=
200705270900 AAXX 27094 67665 42580 20711 10204 20141 48592 82800
                   333 58006 81820 81622=
200705270600 AAXX 27064 67665 32380 10908 10129 20127 48583 81100
                   333 10248 20071 58013 81810
                   555 00/// 91027=
200705261200 AAXX 26124 67665 42680 40711 10231 20174 48567 84100
                   333 58021 84835=
200705260900 AAXX 26094 67665 42580 10910 10207 20160 48586 81500
                   333 58017 81620=
200705260600 AAXX 26064 67665 31970 01110 10138 20138 48572 70500
                   333 10290 20090 58012=
200705250600 AAXX 25064 67665 32975 00000 10128 20119 48558 70500
                   333 10258 20//0 555 91024=
200705250024 AAXX 25004 67665 42980 00000 10104 20104 48541
                   333 58013 555 91023=
200705250000 AAXX 25004 67665 42980 00000 10104 20104 48541
                   333 58013 555 91023=
200705242100 AAXX 24214 67665 42980 00000 10112 20103 48550
                   333 58020 555 91023=
200705241200 AAXX 24124 67665 42975 00902 10247 20106 48547 70500
                   333 58019=
200705240900 AAXX 24094 67665 42980 00809 10203 20108 48665 80000
                   333 58019 91024=
200705240400 AAXX 24044 67665 42980 00000 10088 20083 48435
                   333 58020=
200705240300 AAXX 24034 67665 42980 00000 10085 20080 48528
                   333 58017=
200705231800 AAXX 23184 67665 42980 11203 10154 20109 48531 81030
                   333 10267 58023 81360
                   555 91021=
200705231500 AAXX 23154 67665 42770 11304 10234 20126 48525 70500 81100
                   333 58016 81857 555 10267=
200705231200 AAXX 23124 67665 42670 11307 10253 20110 48530 70500 81100
                   333 58018 81850=
200705230900 AAXX 23094 67665 42980 07009 10225 20113 48551
                   333 58023 91022=
200705230600 AAXX 23064 67665 32980 01305 10146 20091 48535
                   333 10281 20085 58026=
200705230300 AAXX 23034 67665 42980 00000 10102 20067 48508
                   333 58027=
200705230000 AAXX 23004 67665 42980 00000 10123 20065 48512
                   333 58020=
200705222100 AAXX 22214 67665 42980 00000 10129 20060 48516
                   333 58025=
200705221800 AAXX 22184 67665 42980 00000 10149 20084 48515
                   333 10281 58029=
200705221200 AAXX 22124 67665 42980 21204 10263 20089 48513 82030
                   333 58019 82360 555=
200705220900 AAXX 22094 67665 42980 61403 10233 20081 48528 86030
                   333 58010 86360=
200705220600 AAXX 22064 67665 32980 70000 10160 20126 48512 87030
                   333 10308 20127 58002 87359=
200705220400 AAXX 22044 67665 41959 70101 10131 20108 48495 74100 87030
                   333 59003 87360=
200705211800 AAXX 21184 67665 31604 10194 20105 48492 70522 83030
                   333 10308 59020 83360=
200705211500 AAXX 21154 67665 41970 52108 10268 20110 48495 70522 85030
                   333 59016 85360=
200705211200 AAXX 21124 67665 41975 42410 10305 20105 48500 70500 84030
                   333 59026=
200705201800 AAXX 20184 67665 41959 00000 10172 20100 48509
                   333 10301 59027=
200705201500 AAXX 20154 67665 42980 00000 10273 20054 48511
                   333 59018=
200705201200 AAXX 20124 67665 42680 12703 10276 20084 48522 81102
                   333 59026 81840 81080
                   555 91018=
200705200900 AAXX 20094 67665 42580 10000 10252 20176 48546 70300 81102
                   333 59028 81820 81080
                   555 91021=
200705191500 AAXX 19154 67665 42980 40000 10250 20106 48536 84030
                   333 59010 84360=
200705191200 AAXX 19124 67665 42680 40000 10261 20106 48546 84100
                   333 59010 84840=
200705190900 AAXX 19094 67665 42980 00610 10243 20139 48571
                   333 59008=
200705190600 AAXX 19064 67665 32980 00000 10158 20134 48555
                   333 10290 20103 59009
                   555 00/// 91023=
200705181800 AAXX 18184 67665 42980 00000 10176 20135 48543
                   333 10290 59011 91022=
200705181500 AAXX 18154 67665 42980 10000 10264 20095 48547 82030
                   333 59007 81360=
200705181200 AAXX 18124 67665 42680 11111 10275 20119 48557 81100
                   333 59005 81847=
200705171500 AAXX 17154 67665 42980 11206 10268 20119 48554 81030
                   333 58007 81360 555 10293 91022=
200705171200 AAXX 17124 67665 42780 11101 10283 20124 48563 81100
                   333 58011 81856=
200705170600 AAXX 17064 67665 32980 01106 10181 20146 48580
                   333 10299 20105 58026=
200705161200 AAXX 16124 67665 42980 01209 10292 20110 48554
                   333 58011=
200705160600 AAXX 16064 67665 32980 00000 10163 20119 48552
                   333 10295 20099 555 91023=
200705151200 AAXX 15124 67665 42780 10906 10272 20126 48540 81100
                   333 59011 81850=
200705150900 AAXX 15094 67665 42580 10503 10251 20126 48567 81100
                   333 59010 81825=
200705150600 AAXX 15064 67665 32980 00000 10165 20159 48551
                   333 10273 20100 59015=
200705150400 AAXX 15044 67665 42980 10000 10115 20115 48532 81030
                   333 59016 81360=
200705150300 AAXX 15034 67665 42980 10000 10101 20101 48571 81030
                   333 59020 81360=
200705142100 AAXX 14214 67665 42980 10000 10144 20125 48534 81030
                   333 59016 81360=
200705141800 AAXX 14184 67665 42980 20000 10168 20134 48542 82030
                   333 10273 59016 82360=
200705141500 AAXX 14154 67665 42980 30000 10256 20125 48540 83030
                   333 59016 83360 555 10273 91020=
200705141200 AAXX 14124 67665 42680 30104 10262 20133 48550 83100
                   333 59011 83835 91021=
200705140900 AAXX 14094 67665 42480 21007 10239 20169 48576 82100
                   333 59010 82820 91024=
200705131200 AAXX 13124 67665 42680 50000 10244 20158 48558 85200
                   333 59001 85840 91022=
200705130900 AAXX 13094 67665 42580 10807 10232 20156 48584 81100
                   333 58027 81822=
200705130600 AAXX 13064 67665 32980 00000 10157 20156 48578
                   333 10265 20106 58005=
200705130400 AAXX 13044 67665 42980 00000 10109 20109 48560
                   333 58002=
200705130300 AAXX 13034 67665 42980 00000 10095 20095 48554
                   333 58003=
200705130000 AAXX 13004 67665 42980 00000 10111 20111 48553
                   333 58000=
200705122100 AAXX 12214 67665 42980 00000 10123 20123 48565
                   333 58001=
200705121800 AAXX 12184 67665 42980 00000 10145 20118 48562
                   333 10//0 59008=
200705121200 AAXX 12124 67665 42680 11012 10247 20151 48559 81130
                   333 59011 81838 81360=
200705111200 AAXX 11124 67665 42680 61014 10258 20184 48573 86500
                   333 58011 86530=
200705110900 AAXX 11094 67665 42580 61018 10239 20188 48590 86500
                   333 58012 86620=
200705110600 AAXX 11064 67665 32480 31007 10176 20176 48581 82530
                   333 10270 20124 58009 82610 81360
                   555 00/// 91026=
200705100900 AAXX 10094 67665 42680 30709 10244 20192 48581 83200
                   333 58004 83830=
200705091500 AAXX 09154 67665 41780 21106 10246 20178 48553 81230
                   333 58006 81850 82360=
200705091200 AAXX 09124 67665 42680 41008 10246 20183 48557 84100
                   333 58006 84835=
200705090600 AAXX 09064 67665 32280 11107 10165 20165 48560 81630
                   333 10265 20124 58001 81705 81359=
200705081800 AAXX 08184 67665 42980 00000 10174 20165 48548
                   333 10265 59015=
200705081500 AAXX 08154 67665 42680 31008 10241 20164 48546 84100
                   333 59005 84848=
200705081200 AAXX 08124 67665 42680 40913 10255 20157 48553 84100
                   333 58000 84835 91021=
200705071200 AAXX 07124 67665 42680 60710 10241 20145 48550 83232
                   333 59009 83837 82360 85080=
200705070900 AAXX 07094 67665 42580 70713 10223 20174 48571 85202
                   333 59006 85825 85080=
200705070600 AAXX 07064 67665 32980 51007 10157 20149 48560 85030
                   333 10254 20110 59002 85360=
200705061500 AAXX 06154 67665 42680 51011 10228 20129 48549 82230
                   333 58003 82848 85360=
200705061200 AAXX 06124 67665 42680 61110 10227 20147 48556 86200
                   333 58010 86838=
200705060900 AAXX 06094 67665 42680 50716 10228 20165 48578 85100
                   333 58002 85830=
200705060000 AAXX 06004 67665 42980 00000 10112 20112 48539
                   333 58005=
200705052100 AAXX 05214 67665 42980 00000 10139 20132 48547
                   333 58006=
200705051200 AAXX 05124 67665 42680 21118 10257 20123 48551 82100
                   333 58002 81840=
200705041800 AAXX 04184 67665 42980 20000 10163 20152 48543 70200 82030
                   333 10265 59004 82360=
200705041500 AAXX 04154 67665 42980 31208 10238 20142 48540 70300
                   333 59003 83360 555 10265 91020=
200705041200 AAXX 04124 67665 60801 10245 20150 48547 86200
                   333 59002 86830 555 91021=
200705040600 AAXX 04064 67665 32980 11109 10165 20165 48553
                   333 10278 10108 59006=
200705020600 AAXX 02064 67665 32380 11008 10146 20146 48569 81500
                   333 10279 20095 58010 81508=
200705020400 AAXX 02044 67665 42980 10000 10102 20102 48552 81030
                   333 58015 81360=
200705020300 AAXX 02034 67665 42980 00000 10098 20098 48543
                   333 58013=
200705011800 AAXX 01184 67665 42980 00000 10158 20142 48555
                   333 10279 58018 91023=
200705011500 AAXX 01154 67665 42980 01010 10240 20131 48548
                   333 58020 555 10279 91021=
200705010900 AAXX 01094 67665 42980 00811 10223 20163 48576
                   333 58023 91025=

################################################################################
#  SYNOPS from 67743, Livingstone (Zambia) | 17-49S | 025-49E | 985 m
################################################################################
200705291200 AAXX 29124 67743 42780 21205 10248 20065 48550 82100
                   333 59015 82857=
200705260600 AAXX 26064 67743 32980 00000 10125 20035 48540
                   333 10287 20084 58013=
200705211200 AAXX 21124 67743 42980 02105 10288 20058 48496
                   333 59003=
200705201500 AAXX 20154 67743 42980 23004 10310 20088 48496 82500
                   333 59032 82658=
200705181500 AAXX 18154 67743 42980 41805 10290 20065 48538 84030
                   333 59011 84360=
200705161200 AAXX 16124 67743 42980 70909 10312 20079 48552 58016 81856=
200705110900 AAXX 11094 67743 42680 10514 10267 20097 48595 81100
                   333 58010 81845=
200705081500 AAXX 08154 67743 42780 51007 10270 20092 48543 83230
                   333 59001 83856 82360=
200705070900 AAXX 07094 67743 42680 50906 10245 20111 48580 84130
                   333 59008 84848 82364=
200705070600 AAXX 07064 67743 32980 40905 10150 20091 48559 84030
                   333 10275 20125 59005 84362=

################################################################################
#  SYNOPS from 67753, Choma (Zambia) | 16-50S | 027-04E | 1213 m
################################################################################
200705161200 AAXX 16124 67753 42980 00908 10280 20072 48///
                   333 5////=

################################################################################
#  SYNOPS from 67855, Lupaki (Zambia) | 17-03-00S | 024-46-00E | 1000 m
################################################################################
200705310000 AAXX 31004 67855 NIL=
200705301800 AAXX 30184 67855 NIL=
200705301200 AAXX 30124 67855 NIL=
200705300600 AAXX 30064 67855 32980 01701 10081 20044 3//// 48///
                   333 20029 5////=
200705300000 AAXX 30004 67855 NIL=
200705291800 AAXX 29184 67855 NIL=
200705291200 AAXX 29124 67855 NIL=
200705290600 AAXX 29064 67855 32980 01702 10093 20060 3//// 48///
                   333 20023 5////=
200705280600 AAXX 28064 67855 32980 01802 10094 20063 3//// 48///
                   333 20024 5////=
200705280000 AAXX 28004 67855 NIL=
200705271800 AAXX 27184 67855 NIL=
200705271200 AAXX 27124 67855 NIL=
200705270600 AAXX 27064 67855 NIL=
200705270000 AAXX 27004 67855 NIL=
200705261800 AAXX 26184 67855 NIL=
200705261200 AAXX 26124 67855 NIL=
200705260600 AAXX 26064 67855 NIL=
200705260000 AAXX 26004 67855 NIL=
200705251800 AAXX 25184 67855 NIL=
200705251200 AAXX 25124 67855 NIL=
200705250600 AAXX 25064 67855 32980 00000 10078 21020 3//// 4////
                   333 20019 5////=
200705250000 AAXX 25004 67855 NIL=
200705241800 AAXX 24184 67855 NIL=
200705241200 AAXX 24124 67855 NIL=
200705240600 AAXX 24064 67855 32980 00902 10062 21016 3//// 48///
                   333 20004 5////=
200705240000 AAXX 24004 67855 NIL=
200705231800 AAXX 23184 67855 NIL=
200705231200 AAXX 23124 67855 NIL=
200705230600 AAXX 23064 67855 32980 01602 10057 21049 38/// 48///
                   333 21009 5////=
200705230000 AAXX 23004 67855 NIL=
200705221800 AAXX 22184 67855 NIL=
200705221200 AAXX 22124 67855 NIL=
200705220600 AAXX 22064 67855 32980 01902 10087 21041 3//// 48///
                   333 20029 5////=
200705211200 AAXX 21124 67855 NIL=
200705210600 AAXX 21064 67855 NIL=
200705210000 AAXX 21004 67855 NIL=
200705201800 AAXX 20184 67855 NIL=
200705201200 AAXX 20124 67855 NIL=
200705200600 AAXX 20064 67855 NIL=
200705200000 AAXX 20004 67855 NIL=
200705191800 AAXX 19184 67855 NIL=
200705191200 AAXX 19124 67855 NIL=
200705190600 AAXX 19064 67855 32980 01002 10127 20058 3//// 48///
                   333 20059 5////=
200705190000 AAXX 19004 67855 NIL=
200705181800 AAXX 18184 67855 NIL=
200705181200 AAXX 18124 67855 NIL=
200705180600 AAXX 18064 67855 32980 11302 10123 20057 3//// 48/// 81030
                   333 20071 5//// 81360=
200705180000 AAXX 18004 67855 NIL=
200705171800 AAXX 17184 67855 NIL=
200705171200 AAXX 17124 67855 NIL=
200705170600 AAXX 17064 67855 32980 01402 10143 20104 3//// 48///
                   333 20075 5////=
200705170000 AAXX 17004 67855 NIL=
200705161800 AAXX 16184 67855 NIL=
200705161200 AAXX 16124 67855 NIL=
200705160600 AAXX 16064 67855 32980 01601 10147 20092 3//// 48///
                   333 20084 5////=
200705160000 AAXX 16004 67855 NIL=
200705151800 AAXX 15184 67855 NIL=
200705151200 AAXX 15124 67855 NIL=
200705150600 AAXX 15064 67855 32980 01401 10125 20089 3//// 48///
                   333 20073=
200705150000 AAXX 15004 67855 NIL=
200705141200 AAXX 14124 67855 NIL=
200705140600 AAXX 14064 67855 32980 01802 10170 20070 3//// 48///
                   333 20060 5////=
200705140000 AAXX 14004 67855 NIL=
200705131800 AAXX 13184 67855 NIL=
200705131200 AAXX 13124 67855 NIL=
200705130600 AAXX 13064 67855 NIL=
200705130000 AAXX 13004 67855 NIL=
200705121800 AAXX 12184 67855 NIL=
200705121200 AAXX 12124 67855 NIL=
200705120600 AAXX 12064 67855 NIL=
200705120000 AAXX 12004 67855 NIL=
200705111800 AAXX 11184 67855 NIL=
200705111200 AAXX 11124 67855 NIL=
200705110600 AAXX 11064 67855 32680 51801 10159 20079 3//// 48/// 82532
                   333 20085 5//// 82630 83080=
200705110025 AAXX 11004 67855 NIL=
200705110000 AAXX 11004 67855 NIL=
200705101800 AAXX 10184 67855 NIL=
200705101200 AAXX 10124 67855 NIL=
200705100600 AAXX 10064 67855 32975 11202 10146 20098 3//// 48/// 81032
                   333 20084 5//// 81360=
200705091800 AAXX 09184 67855 NIL=
200705091200 AAXX 09124 67855 NIL=
200705090600 AAXX 09064 67855 32980 20603 10177 20115 3//// 48/// 82030
                   333 20115 5//// 82360=
200705090000 AAXX 09004 67855 NIL=
200705081800 AAXX 08184 67855 NIL=
200705081200 AAXX 08124 67855 NIL=
200705080600 AAXX 08064 67855 32675 40000 10130 20094 3//// 48/// 83530
                   333 20080 5//// 83630=
200705080000 AAXX 08004 67855 NIL=
200705071800 AAXX 07184 67855 NIL=
200705071200 AAXX 07124 67855 NIL=
200705070600 AAXX 07064 67855 32980 20902 10131 20100 3//// 48/// 82030
                   333 20079 5//// 82360=
200705070000 AAXX 07004 67855 NIL=
200705061800 AAXX 06184 67855 NIL=
200705061200 AAXX 06124 67855 NIL=
200705060600 AAXX 06064 67855 NIL=
200705060000 AAXX 06004 67855 NIL=
200705051825 AAXX 05184 67855 NIL=
200705051800 AAXX 05184 67855 NIL=
200705051200 AAXX 05124 67855 NIL=
200705050600 AAXX 05064 67855 NIL=
200705050000 AAXX 05004 67855 NIL=
200705041800 AAXX 04184 67855 NIL=
200705041200 AAXX 04124 67855 NIL=
200705040600 AAXX 04064 67855 32980 01801 10130 20109 3//// 48///
                   333 20090 5////=
200705040000 AAXX 04004 67855 NIL=
200705031800 AAXX 03184 67855 NIL=
200705031200 AAXX 03124 67855 NIL=
200705030600 AAXX 03064 67855 32980 03201 10148 20118 3//// 48///
                   333 20092 5////=
200705030000 AAXX 03004 67855 NIL=
200705021800 AAXX 02184 67855 NIL=
200705021200 AAXX 02124 67855 NIL=
200705020600 AAXX 02064 67855 NIL=
200705020000 AAXX 02004 67855 NIL=
200705011800 AAXX 01184 67855 NIL=
200705011200 AAXX 01124 67855 NIL=
200705010600 AAXX 01064 67855 32980 00901 10126 20049 3//// 48///
                   333 20050 5////=
