################################################################################
# Query made at 04/14/2022 03:48:39 UTC
# Country like Zamb*
# Time interval: from 01/01/2015 05:30  to 01/31/2015 06:30  UTC
################################################################################

################################################################################
#  SYNOPS from 67403, Kawambwa (Zambia) | 09-48S | 029-05E | 1323 m
################################################################################
201501300600 AAXX 30064 67403 11475 73602 10202 20187 48516 60314 70562 82532
                   333 10/// 20173 58013 82612 86360 83080
                   555 00/// 20000=
201501290600 AAXX 29064 67403 31975 70903 10200 20185 48503 70520
                   333 10/// 20186 58004 86360 84080
                   555 00/// 20003=
201501280600 AAXX 28064 67403 11975 70000 10225 20191 48501 60034 70520 8703/
                   333 10/// 20184 59028 87360
                   555 00/// 20002=
201501270600 AAXX 27064 67403 11760 80000 10176 20167 48525 60024 79596 8197/
                   333 10/// 20176 58007 81950 87460
                   555 00/// 20001=
201501261500 AAXX 26154 67403 NIL=
201501260900 AAXX 26094 67403 NIL=
201501260600 AAXX 26064 67403 12980 70902 10198 20189 48520 69974 70222 8703/
                   333 10/// 20178 58005 87360
                   555 00/// 20020=
201501230600 AAXX 23064 67403 NIL=
201501191500 AAXX 19154 67403 NIL=
201501160900 AAXX 16094 67403 NIL=
201501140900 AAXX 14094 67403 NIL=
201501090900 AAXX 09094 67403 NIL=
201501081200 AAXX 08124 67403 NIL=
201501080900 AAXX 08094 67403 NIL=
201501080600 AAXX 08064 67403 32480 63204 10220 20194 48524 70300 81232
                   333 10/// 20186 58006 81815 86360 84080
                   555 00/// 20000 67475 32580 63408 10211 20177
                   48532 81172 10282 20173 58011 81825 85460 84080
                   91021=
201501070900 AAXX 07094 67403 NIL=
201501070600 AAXX 07064 67403 31475 83408 10201 20185 48516 70522 8653/
                   333 10/// 20184 58005 86610 86360
                   555 00/// 20002=
201501050600 AAXX 05064 67403 11475 73005 10199 20187 48505 69984 70522 85531
                   333 10/// 20182 59013 85610 85360 83080
                   555 00/// 20010=
201501020900 AAXX 02094 67403 NIL=
201501020600 AAXX 02064 67403 31860 43003 10222 20204 48509 70500 81937
                   333 10280 20188 59003 81958 83361 84281
                   555 00/// 20990=
201501011500 AAXX 01154 67403 NIL=
201501010600 AAXX 01064 67403 11465 73608 10196 20183 48510 69904 70520 81137
                   333 10/// 20172 58005 81815 83360 86281
                   555 00/// 20005=

################################################################################
#  SYNOPS from 67413, Mbala (Zambia) | 08-51S | 031-20E | 1673 m
################################################################################
201501261500 AAXX 26154 67413 NIL=
201501260900 AAXX 26094 67413 NIL=
201501230600 AAXX 23064 67413 NIL=
201501191500 AAXX 19154 67413 NIL=
201501160900 AAXX 16094 67413 NIL=
201501140900 AAXX 14094 67413 NIL=
201501090900 AAXX 09094 67413 NIL=
201501081200 AAXX 08124 67413 NIL=
201501080900 AAXX 08094 67413 NIL=
201501070900 AAXX 07094 67413 NIL=
201501050600 AAXX 05064 67413 NIL=
201501020900 AAXX 02094 67413 NIL=
201501011500 AAXX 01154 67413 NIL=

################################################################################
#  SYNOPS from 67441, Mwinilunga (Zambia) | 11-45S | 024-26E | 1361 m
################################################################################
201501290600 AAXX 29064 67441 11958 80000 10180 20180 48545 60044 76162 8802/
                   333 10265 20/// 58011 88460=
201501280600 AAXX 28064 67441 11958 80000 10180 20180 48534 60174 76169 8802/
                   333 10260 20/// 59020 88460=
201501270600 AAXX 27064 67441 12980 80000 10180 20180 48551 60024 8807/
                   333 10265 20/// 58002 88360=
201501261500 AAXX 26154 67441 NIL=
201501260900 AAXX 26094 67441 NIL=
201501260600 AAXX 26064 67441 12480 70000 10195 20173 48549 60044 8113/
                   333 10285 20/// 59004 81818 87360=
201501230600 AAXX 23064 67441 NIL=
201501191500 AAXX 19154 67441 NIL=
201501160900 AAXX 16094 67441 NIL=
201501140900 AAXX 14094 67441 NIL=
201501090900 AAXX 09094 67441 NIL=
201501081200 AAXX 08124 67441 NIL=
201501080900 AAXX 08094 67441 NIL=
201501070900 AAXX 07094 67441 NIL=
201501050600 AAXX 05064 67441 NIL=
201501020900 AAXX 02094 67441 NIL=
201501011500 AAXX 01154 67441 NIL=

################################################################################
#  SYNOPS from 67461, Mansa (Zambia) | 11-06S | 028-51E | 1382 m
################################################################################
201501290600 AAXX 29064 67461 32980 53603 10204 20189 48596 85031
                   333 10289 20180 59001 85360 82080 91017=
201501270600 AAXX 27064 67461 12980 82202 10198 20185 48522 60164 8807/
                   333 10299 20162 59001 88459 91019=
201501261500 AAXX 26154 67461 NIL=
201501260900 AAXX 26094 67461 NIL=
201501260600 AAXX 26064 67461 12980 80000 10196 20195 48523 60124 8807/
                   333 10291 20170 59001 88459 91019=
201501230600 AAXX 23064 67461 NIL=
201501191500 AAXX 19154 67461 NIL=
201501160900 AAXX 16094 67461 NIL=
201501140900 AAXX 14094 67461 NIL=
201501090900 AAXX 09094 67461 NIL=
201501081200 AAXX 08124 67461 NIL=
201501080900 AAXX 08094 67461 NIL=
201501070900 AAXX 07094 67461 NIL=
201501050600 AAXX 05064 67461 NIL=
201501020900 AAXX 02094 67461 NIL=
201501011500 AAXX 01154 67461 NIL=
201501010600 AAXX 01064 67461 12480 63101 10210 20181 48508 60024 81502
                   333 10268 20173 58007 81613 86280
                   555 00/// 91017 20040=

################################################################################
#  SYNOPS from 67475, Kasama (Zambia) | 10-13S | 031-08E | 1382 m
################################################################################
201501300600 AAXX 30064 67475 12480 83102 10176 20170 48527 60134 8156/
                   333 10286 20156 58013 81620 88459
                   555 00/// 91021=
201501290600 AAXX 29064 67475 12480 73217 10184 20176 48514 60114 70322 8367/
                   333 10286 20160 59010 83710 84840 87459 91019=
201501280600 AAXX 28064 67475 12980 32907 10211 20176 48505 69904 83031
                   333 10265 20156 59021 83359 82080
                   555 91018=
201501270600 AAXX 27064 67475 12980 73305 10189 20178 48525 60024 70322 8703/
                   333 10281 20165 59007 87359
                   555 00/// 91020=
201501261500 AAXX 26154 67475 NIL=
201501261200 AAXX 26124 67475 42780 61608 10263 20183 48503 81903
                   333 59004 81950 83850 85080 91018=
201501260900 AAXX 26094 67475 42680 70202 10232 20182 48534 8127/
                   333 58006 81840 87360 91021=
201501260600 AAXX 26064 67475 12980 80402 10182 20182 48532 69924 8807/
                   333 10275 20159 58008 88459
                   555 91021=
201501230600 AAXX 23064 67475 NIL=
201501220900 AAXX 22094 67475 42580 61215 10229 20187 48/// 70322 85570
                   333 58007 85620 81335 84835 85460 91022=
201501210600 AAXX 21064 67475 12380 80901 10184 20172 48542 60104 8466/
                   333 10274 20169 58016 84708 88459
                   555 00/// 91022=
201501191500 AAXX 19154 67475 NIL=
201501160900 AAXX 16094 67475 42680 62510 10247 20172 48508 84270
                   333 59020 84835 85360 91018=
201501140900 AAXX 14094 67475 41970 80000 10190 20177 48519 71784 8806/
                   333 59003 88460 555 00/// 91020=
201501090900 AAXX 09094 67475 NIL=
201501081200 AAXX 08124 67475 41780 53401 10261 20166 48498 71592 83273
                   333 58003 81950 82850 83463 83080 91017=
201501080900 AAXX 08094 67475 42680 72413 10259 20169 48525 84272
                   333 5//// 84840 85461 84080 91021=
201501070900 AAXX 07094 67475 NIL=
201501070600 AAXX 07064 67475 32980 33513 10196 20175 48521 70142 83070
                   333 10274 20160 58007 83359
                   555 91020=
201501050600 AAXX 05064 67475 NIL=
201501020900 AAXX 02094 67475 NIL=
201501011500 AAXX 01154 67475 NIL=
201501010600 AAXX 01064 67475 12980 63509 10189 20176 48516 69904 70122 86007
                   333 10251 20154 58005 86280
                   555 00/// 91019=

################################################################################
#  SYNOPS from 67476, Misamfu (Zambia) | 10-06S | 031-15E | 1536 m
################################################################################
201501300600 AAXX 30064 67476 12980 80000 10172 20164 48/// 60014 8807/
                   333 10299 20166 58013 88459
                   555 00/// 20012=
201501290600 AAXX 29064 67476 12480 70000 10183 20176 48/// 60124 81672
                   333 10294 20170 58011 81715 87459 83080
                   555 00/// 20000=
201501280600 AAXX 28064 67476 32980 30000 10190 20172 48/// 83030
                   333 10280 20165 5//// 83360
                   555 00/// 20000=
201501270600 AAXX 27064 67476 32980 70000 10189 20172 48/// 87030
                   333 10280 20169 5//// 87359
                   555 00/// 20002=
201501261500 AAXX 26154 67476 NIL=
201501260900 AAXX 26094 67476 NIL=
201501260600 AAXX 26064 67476 12480 80000 10185 20179 48/// 60024 8167/
                   333 10285 20164 5//// 81715 88459
                   555 00/// 20012=
201501230600 AAXX 23064 67476 NIL=
201501191500 AAXX 19154 67476 NIL=
201501160900 AAXX 16094 67476 NIL=
201501140900 AAXX 14094 67476 NIL=
201501090900 AAXX 09094 67476 NIL=
201501081200 AAXX 08124 67476 NIL=
201501080900 AAXX 08094 67476 NIL=
201501070900 AAXX 07094 67476 NIL=
201501050600 AAXX 05064 67476 12580 83003 10200 20177 48/// 69904 81531
                   333 10273 20186 5//// 81620 85359 83080
                   555 00/// 20001=
201501020900 AAXX 02094 67476 NIL=
201501011500 AAXX 01154 67476 NIL=

################################################################################
#  SYNOPS from 67477, Mpika (Zambia) | 11-54S | 031-26E | 1400 m
################################################################################
201501290600 AAXX 29064 67477 11480 80000 10188 20175 48518 60054 72842 8457/
                   333 10274 20167 58000 84610 86459=
201501280600 AAXX 28064 67477 11480 60000 10208 20165 48518 60014 72842 84531
                   333 10270 20167 59018 84611 82360 82080=
201501270600 AAXX 27064 67477 12980 60000 10185 20170 48525 86030
                   333 10270 20164 59012 86359=
201501261500 AAXX 26154 67477 NIL=
201501260900 AAXX 26094 67477 NIL=
201501230600 AAXX 23064 67477 NIL=
201501191500 AAXX 19154 67477 NIL=
201501160900 AAXX 16094 67477 NIL=
201501140900 AAXX 14094 67477 NIL=
201501090900 AAXX 09094 67477 NIL=
201501081200 AAXX 08124 67477 NIL=
201501080900 AAXX 08094 67477 NIL=
201501070900 AAXX 07094 67477 NIL=
201501070600 AAXX 07064 67477 11978 80000 10195 20180 48524 60074 74042 8807/
                   333 10234 20170 58009 88459=
201501050600 AAXX 05064 67477 NIL=
201501020900 AAXX 02094 67477 NIL=
201501011500 AAXX 01154 67477 NIL=

################################################################################
#  SYNOPS from 67481, Isoka (Zambia) | 10-07S | 032-38E | 1360 m
################################################################################
201501300600 AAXX 30064 67481 32380 80000 10188 20176 8362/
                   333 10288 20168 58012 83707 88460
                   555 00/// 20005=
201501290600 AAXX 29064 67481 12980 70000 10192 20174 60054 84028
                   333 10265 20174 58007 84361 86280
                   555 00/// 20016=
201501280600 AAXX 28064 67481 12980 30201 10212 20189 60164 81031
                   333 10264 20180 59024 81360 83080
                   555 00/// 20005=
201501270600 AAXX 27064 67481 11375 70000 10181 20178 60054 72566 85770
                   333 10278 20173 59005 85706 86460
                   555 00/// 20023=
201501261500 AAXX 26154 67481 NIL=
201501260900 AAXX 26094 67481 NIL=
201501260600 AAXX 26064 67481 12380 60000 10200 20182 60234 82630
                   333 10220 20170 58009 82707 86360
                   555 00/// 20000=
201501230900 AAXX 23094 67481 41380 82401 10205 20191 75052 86720
                   333 59015 83709 84610 87360=
201501230600 AAXX 23064 67481 NIL=
201501191500 AAXX 19154 67481 NIL=
201501160900 AAXX 16094 67481 NIL=
201501140900 AAXX 14094 67481 NIL=
201501131200 AAXX 13124 67481 42675 52402 10265 20167 70422 81220
                   333 59011 81840 84361=
201501121200 AAXX 12124 67481 42580 73203 10225 20177 86820
                   333 5//// 82820 86623 84361=
201501090900 AAXX 09094 67481 NIL=
201501081200 AAXX 08124 67481 NIL=
201501080900 AAXX 08094 67481 NIL=
201501070900 AAXX 07094 67481 NIL=
201501070600 AAXX 07064 67481 32980 53602 10200 20174 83031
                   333 10269 20169 58011 83360 82080
                   555 00/// 20007=
201501050600 AAXX 05064 67481 NIL=
201501020900 AAXX 02094 67481 NIL=
201501011500 AAXX 01154 67481 NIL=
201501010600 AAXX 01064 67481 32980 40302 10199 20183 80002
                   333 10253 20170 58008 84080
                   555 00/// 20007=

################################################################################
#  SYNOPS from 67531, Zambezi (Zambia) | 13-32S | 023-07E | 1077 m
################################################################################
201501300600 AAXX 30064 67531 12380 70402 10195 20186 48/// 60014 70222 8367/
                   333 10296 20178 58007 83706 87360=
201501290600 AAXX 29064 67531 12980 73602 10204 20188 48/// 60184 70222 8707/
                   333 10311 20181 58010 87360=
201501280600 AAXX 28064 67531 12980 63601 10214 20202 48/// 60024 70222 86030
                   333 10310 20193 59026 86360=
201501270600 AAXX 27064 67531 11480 73002 10203 20197 48/// 60104 72166 8357/
                   333 10298 20195 58006 83610 87360=
201501261500 AAXX 26154 67531 NIL=
201501261200 AAXX 26124 67531 42580 62802 10287 20198 48/// 70222 85230
                   333 58022 85838 83362=
201501260900 AAXX 26094 67531 42480 60405 10240 20203 48/// 70122 82138
                   333 58020 82818 84360=
201501260600 AAXX 26064 67531 32480 70403 10205 20193 48/// 70222 8457/
                   333 10315 20191 59006 84610 86360=
201501231200 AAXX 23124 67531 41680 71103 10286 20197 48/// 71792 86202
                   333 59037 81933 86833 81080=
201501230900 AAXX 23094 67531 42580 70702 10265 20199 48/// 8213/
                   333 59015 82826 87360=
201501230600 AAXX 23064 67531 12980 70000 10205 20196 48/// 60024 8707/
                   333 10230 20176 59009 87360=
201501220900 AAXX 22094 67531 41380 70304 10198 20187 48/// 76066 8277/
                   333 58034 82707 87459=
201501191500 AAXX 19154 67531 NIL=
201501190600 AAXX 19064 67531 12480 33307 10219 20185 48/// 60124 81132
                   333 10283 20190 59005 81815 83361 81081=
201501160900 AAXX 16094 67531 42580 71202 10222 20198 48/// 70222 8587/
                   333 59014 83620 83820 86361=
201501140900 AAXX 14094 67531 42580 73505 10244 20199 48/// 70222 8587/
                   333 59007 84620 84820 86361=
201501131200 AAXX 13124 67531 42680 63303 10253 20193 48/// 70122 84230
                   333 58006 84830 85362=
201501121200 AAXX 12124 67531 42680 60105 10276 20197 48/// 70222 86201
                   333 58003 86830 82080=
201501090900 AAXX 09094 67531 42480 83404 10235 20195 48/// 70222 8557/
                   333 59003 85610 88460=
201501081200 AAXX 08124 67531 41480 73104 10246 20203 48/// 70266 8557/
                   333 58003 85619 87460=
201501080900 AAXX 08094 67531 NIL=
201501080600 AAXX 08064 67531 11380 80000 10196 20195 48/// 60084 79196 8777/
                   333 10241 20195 58013 87707 88459=
201501070900 AAXX 07094 67531 41480 80701 10200 20193 48/// 79599 8777/
                   333 58022 81910 87610 88459=
201501070600 AAXX 07064 67531 11980 70402 10204 20188 48/// 69914 76062 8707/
                   333 10327 20191 58005 87459=
201501050600 AAXX 05064 67531 32980 20103 10221 20181 48/// 80002
                   333 10325 20182 5//// 82081=
201501020900 AAXX 02094 67531 41580 63606 10247 20202 48/// 70222 85830
                   333 58020 83820 82620 84360=
201501020600 AAXX 02064 67531 11380 83606 10187 20181 48/// 60144 76066 8677/
                   333 10295 20182 58018 86706 88459
                   555 00/// 20006=
201501011500 AAXX 01154 67531 NIL=
201501010900 AAXX 01094 67531 41580 73601 10259 20203 48/// 81178
                   333 59004 81823 82360 87280=

################################################################################
#  SYNOPS from 67541, Kasempa (Zambia) | 13-32S | 025-51E | 1234 m
################################################################################
201501300600 AAXX 30064 67541 12380 70000 10195 20193 48516 69904 70222 8253/
                   333 10/// 20/// 58025 82606 87360=
201501290600 AAXX 29064 67541 12980 70000 10194 20187 48491 60134 70222 8707/
                   333 10/// 20/// 59009 87360=
201501280600 AAXX 28064 67541 12980 30103 10205 20187 48500 69904 70222 83030
                   333 10/// 20/// 59016 83360=
201501270600 AAXX 27064 67541 32980 70000 10193 20183 48516 70222 87030
                   333 10/// 20/// 59002 87360=
201501261500 AAXX 26154 67541 NIL=
201501260900 AAXX 26094 67541 NIL=
201501260600 AAXX 26064 67541 12980 70000 10191 20191 48518 60024 70222 8703/
                   333 10/// 20/// 58009 87360=
201501230600 AAXX 23064 67541 NIL=
201501191500 AAXX 19154 67541 NIL=
201501160900 AAXX 16094 67541 NIL=
201501140900 AAXX 14094 67541 NIL=
201501090900 AAXX 09094 67541 NIL=
201501081200 AAXX 08124 67541 NIL=
201501080900 AAXX 08094 67541 NIL=
201501070900 AAXX 07094 67541 NIL=
201501050600 AAXX 05064 67541 NIL=
201501020900 AAXX 02094 67541 NIL=
201501020600 AAXX 02064 67541 12980 70000 10200 20185 48497 60164 87030
                   333 10/// 20/// 59001 87360
                   555 00///=
201501011500 AAXX 01154 67541 NIL=
201501010600 AAXX 01064 67541 11370 70000 10180 20180 48498 60054 76066 8263/
                   333 10/// 20/// 58025 82706 87360
                   555 00/// 20018=

################################################################################
#  SYNOPS from 67543, Kabompo (Zambia) | 13-36S | 024-12E | 1075 m
################################################################################
201501300600 AAXX 30064 67543 12480 7//00 10201 20191 48/// 60134 8357/
                   333 10298 20185 5//// 83615 87360=
201501290600 AAXX 29064 67543 32380 7//00 10202 20174 48/// 8163/
                   333 10314 20176 5//// 81707 87360=
201501280600 AAXX 28064 67543 12380 6//00 10217 20198 48/// 60094 82630
                   333 10315 20191 5//// 82708 86360=
201501270600 AAXX 27064 67543 12380 7//00 10210 20198 48/// 60054 8367/
                   333 10325 20196 5//// 83708 87360=
201501261500 AAXX 26154 67543 NIL=
201501260900 AAXX 26094 67543 42580 7//00 10260 20189 48/// 8313/
                   333 5//// 83828 87360=
201501260600 AAXX 26064 67543 32480 7//00 10216 20192 48/// 70222 8157/
                   333 10323 20158 5//// 81615 87360=
201501230600 AAXX 23064 67543 NIL=
201501220900 AAXX 22094 67543 42480 7//00 10241 20191 48/// 875//
                   333 5//// 87618=
201501191500 AAXX 19154 67543 NIL=
201501160900 AAXX 16094 67543 42480 7//00 10240 20191 48/// 875//
                   333 5//// 87615=
201501160600 AAXX 16064 67543 12380 7//00 10209 20188 48/// 60034 876//
                   333 10300 20194 5//// 87708=
201501140900 AAXX 14094 67543 NIL=
201501131200 AAXX 13124 67543 42578 7//00 10246 20184 48/// 875//
                   333 5//// 87625=
201501121200 AAXX 12124 67543 42680 7//00 10296 20176 48/// 86305
                   333 5//// 81930 86830 82080=
201501090900 AAXX 09094 67543 NIL=
201501081200 AAXX 08124 67543 NIL=
201501080900 AAXX 08094 67543 NIL=
201501080600 AAXX 08064 67543 11380 7//00 10211 20199 48/// 60044 72166 876//
                   333 10330 20195 5//// 87708=
201501070900 AAXX 07094 67543 42580 7//00 10254 20194 48/// 8457/
                   333 5//// 84620 87360=
201501070600 AAXX 07064 67543 12380 7//00 10220 20194 48/// 60014 8267/
                   333 10328 20198 5//// 82708 87360=
201501050600 AAXX 05064 67543 32980 6//00 10208 20188 48/// 86030
                   333 10320 20170 5//// 86360=
201501020900 AAXX 02094 67543 NIL=
201501020600 AAXX 02064 67543 11380 7//// 10202 20186 48/// 60064 72166 8167/
                   333 10288 20169 5//// 81708 87360
                   555 00/// 20023=
201501011500 AAXX 01154 67543 NIL=

################################################################################
#  SYNOPS from 67551, Solwezi (Zambia) | 12-11S | 026-23E | 1386 m
################################################################################
201501290600 AAXX 29064 67551 32382 70000 10188 20179 48505 60294 83630
                   333 10266 20169 59004 83708 87362 91017=
201501261500 AAXX 26154 67551 NIL=
201501260900 AAXX 26094 67551 NIL=
201501230600 AAXX 23064 67551 12380 71306 10190 20176 48541 69934 8367/
                   333 10226 20176 59010 83707 87362
                   555 00/// 20042=
201501191500 AAXX 19154 67551 NIL=
201501160900 AAXX 16094 67551 NIL=
201501140900 AAXX 14094 67551 NIL=
201501090900 AAXX 09094 67551 NIL=
201501081200 AAXX 08124 67551 NIL=
201501080900 AAXX 08094 67551 NIL=
201501070900 AAXX 07094 67551 NIL=
201501050600 AAXX 05064 67551 NIL=
201501020900 AAXX 02094 67551 NIL=
201501011500 AAXX 01154 67551 NIL=

################################################################################
#  SYNOPS from 67561, Ndola (Zambia) | 13-00S | 028-39E | 1269 m
################################################################################
201501300600 AAXX 30064 67561 11360 70000 10194 20188 48512 60364 76166 8677/
                   333 10284 20171 58006 86708 87459
                   555 00/// 20081 91018=
201501291200 AAXX 29124 67561 42680 70000 10255 20194 48482 84208
                   333 58007 81930 84830 87280 91014=
201501290600 AAXX 29064 67561 11360 70000 10186 20183 48507 60814 72052 83638
                   333 10292 20164 58005 83709 86360 87280
                   555 00/// 20021 91018=
201501280600 AAXX 28064 67561 11460 50304 10213 20188 48503 60214 70522 82531
                   333 10283 20185 59021 82612 85360 83080
                   555 20025 91017=
201501271200 AAXX 2712/ 67561 41575 63003 10281 20191 48502 70522 8623/
                   333 59006 81925 86820 83360
                   555 66/// 77032 8893/ 98020 91016=
201501270600 AAXX 27064 67561 31258 80802 10186 20178 48522 876//
                   333 10275 20164 59005 87704
                   555 00/// 20009 91020=
201501261500 AAXX 26154 67561 41260 80404 10172 20170 48516 79596 8568/
                   333 58039 85603 81928 88459=
201501260900 AAXX 26094 67561 41575 70503 10251 20199 48531 70522 85230
                   333 58010 85820 85360 91020=
201501260600 AAXX 26064 67561 11360 70405 10203 20187 48528 69904 70522 85630
                   333 10276 20178 58011 85707 86360
                   555 00/// 20002 91020=
201501241200 AAXX 24124 67561 41670 70000 10262 20181 48496 70522 8523/
                   333 59021 81925 85830 84359
                   555 66/// 77047 8883/ 98015 91016=
201501231200 AAXX 23124 67561 41659 71606 10244 20191 48515 76022 86201
                   333 59011 81930 86830 81080 91018=
201501230600 AAXX 23064 67561 NIL=
201501220600 AAXX 22064 67561 11260 70000 10197 20183 48552 60154 70522 86630
                   333 10270 20171 58017 86708 87360
                   555 20005 91023=
201501191500 AAXX 19154 67561 41659 82408 10184 20174 48497 79599 8447/
                   333 58022 81930 84630 88459=
201501160900 AAXX 16094 67561 NIL=
201501140900 AAXX 14094 67561 41460 70000 10256 20198 48510 71722 85508
                   333 59009 81920 85820 87280 91018=
201501090900 AAXX 09094 67561 NIL=
201501081200 AAXX 08124 67561 NIL=
201501080900 AAXX 08094 67561 NIL=
201501070900 AAXX 07094 67561 NIL=
201501050600 AAXX 05064 67561 NIL=
201501041200 AAXX 04124 67561 42580 73305 10263 20187 48495 85230
                   333 58015 85835 84361
                   555 66/// 77049 8880/ 98027 91016=
201501020900 AAXX 02094 67561 NIL=
201501020600 AAXX 02064 67561 11359 70105 10219 20192 48503 60034 70444 84538
                   333 10269 20172 58005 81705 84635 86360 87280
                   555 00/// 20008 91017=
201501011500 AAXX 01154 67561 NIL=

################################################################################
#  SYNOPS from 67563, Kafironda (Zambia) | 12-36S | 028-07E | 1243 m
################################################################################
201501261500 AAXX 26154 67563 NIL=
201501260900 AAXX 26094 67563 NIL=
201501230600 AAXX 23064 67563 NIL=
201501191500 AAXX 19154 67563 NIL=
201501160900 AAXX 16094 67563 NIL=
201501140900 AAXX 14094 67563 NIL=
201501090900 AAXX 09094 67563 NIL=
201501081200 AAXX 08124 67563 NIL=
201501080900 AAXX 08094 67563 NIL=
201501070900 AAXX 07094 67563 NIL=
201501050600 AAXX 05064 67563 NIL=
201501020900 AAXX 02094 67563 NIL=
201501011500 AAXX 01154 67563 NIL=

################################################################################
#  SYNOPS from 67571, Serenje (Zambia) | 13-14S | 030-13E | 1384 m
################################################################################
201501300600 AAXX 30064 67571 12380 82704 10180 20172 48501 60584 70222 8467/
                   333 10269 20170 58003 84706 88460
                   555 00/// 20025=
201501290600 AAXX 29064 67571 11382 80000 10186 20174 48501 60254 72162 8467/
                   333 10266 20173 58009 84708 88459
                   555 00/// 20011=
201501280600 AAXX 28064 67571 12982 20902 10194 20179 48491 60114 70200 81041
                   333 10279 20169 59024 81360 82080
                   555 00/// 20022=
201501261500 AAXX 26154 67571 NIL=
201501260900 AAXX 26094 67571 NIL=
201501230900 AAXX 23094 67571 42582 71505 10220 20161 48533 70222 87700
                   333 59011 87620=
201501230600 AAXX 23064 67571 NIL=
201501220900 AAXX 22094 67571 42582 71206 10228 20175 48543 70222
                   333 58010 87625=
201501191500 AAXX 19154 67571 NIL=
201501160900 AAXX 16094 67571 42482 73002 10244 20184 48503 70222 82938
                   333 59013 81918 82818 83360 87280=
201501140900 AAXX 14094 67571 41582 53005 10254 20186 48494 71799 84241
                   333 59009 81925 84825 83360 82080=
201501131200 AAXX 13124 67571 42681 62706 10266 20182 48474 70222 85201
                   333 59013 81930 85830 83080=
201501090900 AAXX 09094 67571 42482 72704 10222 20195 48513 70222 875//
                   333 58000 81918 87620=
201501081200 AAXX 08124 67571 42582 62705 10247 20184 48483 70222 84243
                   333 59008 81928 84828 85360 82079=
201501080900 AAXX 08094 67571 42482 73304 10211 20189 48512 70222 876//
                   333 58008 87710=
201501080600 AAXX 08064 67571 12382 80902 10186 20178 48511 60144 70222 8467/
                   333 10222 20177 58009 84706 88459
                   555 00/// 20023=
201501070900 AAXX 07094 67571 41482 71502 10210 20186 48502 75252 8677/
                   333 58016 86710 87459=
201501070600 AAXX 07064 67571 11280 82702 10190 20184 48511 60234 75052 8677/
                   333 10249 20185 58013 86705 88459
                   555 00/// 20008=
201501050600 AAXX 05064 67571 11379 80000 10186 20179 48491 60094 75155 887//
                   333 10260 20182 59011 88706
                   555 00/// 20037=
201501020900 AAXX 02094 67571 42681 73008 10255 20179 48484 70222 84508
                   333 58002 81930 84630 87280=
201501020600 AAXX 02064 67571 32478 73005 10198 20181 48492 70222 83578
                   333 10279 20167 58010 83618 84360 87280
                   555 00/// 20002=
201501011500 AAXX 01154 67571 NIL=

################################################################################
#  SYNOPS from 67575, Mkushi (Zambia) | 13-38-00S | 029-26-00E | 1237 m
################################################################################
201501300600 AAXX 30064 67575 11280 80000 10191 20182 48/// 60624 8563/
                   333 10280 20185 5//// 85703 84360
                   555 00/// 20024=
201501290600 AAXX 29064 67575 11270 80000 10185 20182 48/// 60024 76162 85772
                   333 10277 20175 5//// 85703 83360 81080
                   555 00/// 20026=
201501280600 AAXX 28064 67575 12480 20000 10210 20188 48/// 60024 70200 81571
                   333 10294 20168 5//// 81615 81360 81080
                   555 00/// 20451=
201501270600 AAXX 27064 67575 12380 40401 10185 20177 48/// 60454 70222 81672
                   333 10267 20160 5//// 81706 82360 82080
                   555 00/// 20000=
201501261500 AAXX 26154 67575 NIL=
201501260900 AAXX 26094 67575 NIL=
201501260600 AAXX 26064 67575 11380 70000 10200 20188 48/// 69904 70322 81672
                   333 10288 20182 5//// 81704 87360 81080
                   555 00/// 20000=
201501230600 AAXX 23064 67575 NIL=
201501191500 AAXX 19154 67575 NIL=
201501160900 AAXX 16094 67575 NIL=
201501140900 AAXX 14094 67575 NIL=
201501090900 AAXX 09094 67575 NIL=
201501081200 AAXX 08124 67575 NIL=
201501080900 AAXX 08094 67575 NIL=
201501080600 AAXX 08064 67575 12380 70000 10200 20190 48/// 60354 83670
                   333 10241 20180 5//// 83706 86360
                   555 00/// 20042=
201501070900 AAXX 07094 67575 NIL=
201501070600 AAXX 07064 67575 11380 70000 10213 20193 48/// 60424 70362 82670
                   333 10284 20171 5//// 82708 86360
                   555 00/// 20030=
201501050600 AAXX 05064 67575 12480 70000 10215 20193 48/// 60054 87530
                   333 10270 20185 5//// 87612 82360
                   555 00/// 20041=
201501020900 AAXX 02094 67575 NIL=
201501020600 AAXX 02064 67575 12480 63405 10226 20179 48/// 60034 83531
                   333 10285 20175 5//// 83615 81360 83080
                   555 00/// 20012=
201501011500 AAXX 01154 67575 NIL=
201501010600 AAXX 01064 67575 11480 50604 10200 20177 48/// 60124 70322 82530
                   333 10244 20185 5//// 82615 83360
                   555 00/// 20066=

################################################################################
#  SYNOPS from 67580, Msekera (Zambia) | 13-39S | 032-34E | 1025 m
################################################################################
201501300600 AAXX 30064 67580 11475 80000 10193 20187 48/// 60114 76162 8452/
                   333 10271 20/// 58004 84612 88460
                   555 00/// 20012=
201501290600 AAXX 29064 67580 12580 70000 10237 20197 48/// 60124 8327/
                   333 10280 20/// 58007 83820 87460
                   555 00/// 20016=
201501280600 AAXX 28064 67580 12980 70000 10230 20206 48/// 60164 87031
                   333 10295 20/// 59024 87360 81080
                   555 00/// 20990=
201501270600 AAXX 27064 67580 12480 70000 10219 20196 48/// 69904 8153/
                   333 10296 20/// 5//// 81616 87360
                   555 00/// 20007=
201501261500 AAXX 26154 67580 NIL=
201501260900 AAXX 26094 67580 41675 80000 10235 20198 48/// 76062 8117/
                   333 5//// 81830 88460=
201501260600 AAXX 26064 67580 11975 70000 10211 20194 48/// 60074 76062 8707/
                   333 10299 20/// 5//// 87460
                   555 00/// 20000=
201501230900 AAXX 23094 67580 42680 61202 10254 20172 48/// 83231
                   333 59020 83840 83361 81080=
201501230600 AAXX 23064 67580 NIL=
201501220900 AAXX 22094 67580 42680 71503 10264 20184 48/// 87208
                   333 58008 87840 84280=
201501191500 AAXX 19154 67580 NIL=
201501160900 AAXX 16094 67580 41675 72703 10244 20208 48/// 78022 872//
                   333 59023 87830=
201501140900 AAXX 14094 67580 41680 72703 10264 20213 48/// 70292 81931
                   333 59016 81942 86842 82361 81080=
201501121200 AAXX 12124 67580 41670 80000 10201 20191 48/// 76166 8457/
                   333 58016 84630 88460=
201501090900 AAXX 09094 67580 41680 70902 10239 20201 48/// 72122 85238
                   333 58000 85834 84360 84280=
201501081200 AAXX 08124 67580 NIL=
201501080900 AAXX 08094 67580 42680 73005 10235 20198 48/// 85831
                   333 58011 82830 83632 84360 82080=
201501080600 AAXX 08064 67580 12480 73302 10215 20198 48/// 60064 8353/
                   333 10261 20/// 58007 83618 87360
                   555 00/// 20000=
201501070900 AAXX 07094 67580 41678 72704 10238 20204 48/// 72582 872//
                   333 58012 82930 86835=
201501070600 AAXX 07064 67580 32580 72803 10219 48/// 82138
                   333 10268 20/// 58013 82822 83360 87280
                   555 00/// 20007=
201501050600 AAXX 05064 67580 11480 82703 10194 20186 48/// 60284 76162 8367/
                   333 10276 20/// 59007 83712 88459
                   555 00/// 20430=
201501020900 AAXX 02094 67580 41678 72704 10274 20192 48/// 70522 81137
                   333 58001 81835 82360 87280=
201501020600 AAXX 02064 67580 32980 70604 10247 20190 48/// 81038
                   333 10305 20/// 59003 81360 87280
                   555 00/// 20012=
201501011500 AAXX 01154 67580 NIL=
201501010600 AAXX 01064 67580 12980 70303 10227 20182 48/// 60124 8707/
                   333 10255 20/// 58009 87460
                   555 00/// 20016=

################################################################################
#  SYNOPS from 67581, Chipata (Zambia) | 13-33S | 032-35E | 1028 m
################################################################################
201501300600 AAXX 30064 67581 12370 81303 10188 20183 48514 60244 8562/
                   333 10285 20160 58002 85708 88458
                   555 00184 20009 91017=
201501290600 AAXX 29064 67581 12580 70000 10215 20197 48517 60094 8527/
                   333 10285 20165 59009 85825 87459
                   555 00202 20018 91017=
201501280600 AAXX 28064 67581 12580 60000 10215 20201 48509 60184 81170
                   333 10286 20165 59024 81828 86460 91016=
201501261500 AAXX 26154 67581 NIL=
201501260900 AAXX 26094 67581 41660 70000 10232 20197 48544 75055 8117/
                   333 58023 81832 87459 91019=
201501260600 AAXX 26064 67581 11960 80000 10208 20185 48544 60134 75055 8807/
                   333 10284 20171 58026 88459
                   555 00196 91020=
201501230900 AAXX 23094 67581 42680 61503 10249 20172 48545 84170
                   333 59016 84835 86459 91019=
201501230600 AAXX 23064 67581 NIL=
201501220900 AAXX 22094 67581 42680 70000 10251 20173 48561 86830
                   333 58007 83835 85638 87360 91021=
201501191500 AAXX 19154 67581 NIL=
201501160900 AAXX 16094 67581 NIL=
201501140900 AAXX 14094 67581 NIL=
201501140600 AAXX 14064 67581 12680 70000 10230 20196 48516 69904 83170
                   333 10316 20172 59010 83830 87459
                   555 00191 91017=
201501090900 AAXX 09094 67581 NIL=
201501081200 AAXX 08124 67581 42480 72803 10230 20191 48513 8627/
                   333 59009 86820 87458 91016=
201501080900 AAXX 08094 67581 41460 83108 10205 20196 48530 76022 8667/
                   333 58015 58015 86708 88458 91018=
201501080600 AAXX 08064 67581 11470 83503 10210 20196 48528 60124 74022 886//
                   333 10260 20174 58007 88709
                   555 00190 20000 91018=
201501070900 AAXX 07094 67581 NIL=
201501070600 AAXX 07064 67581 32480 62902 10220 20190 48524 85438
                   333 10269 20175 58015 85615 83359 86280
                   555 00193 20149 91017=
201501050600 AAXX 05064 67581 NIL=
201501020900 AAXX 02094 67581 NIL=
201501011500 AAXX 01154 67581 NIL=
201501010600 AAXX 01064 67581 12980 70000 10226 20189 48513 61744 8703/
                   333 58009 87359 555 00185 20003 91016=

################################################################################
#  SYNOPS from 67583, Lundazi (Zambia) | 12-17S | 033-12E | 1143 m
################################################################################
201501290600 AAXX 29064 67583 11578 81401 10195 20187 48/// 60554 72162 8157/
                   333 10295 20/// 5//// 81620 88460=
201501280600 AAXX 28064 67583 12980 70000 10215 20200 48/// 69904 87037
                   333 10270 20/// 5//// 81360 87280=
201501270600 AAXX 27064 67583 11980 80000 10195 20186 48/// 60024 76062 8807/
                   333 10304 20/// 5//// 88460=
201501261500 AAXX 26154 67583 NIL=
201501260900 AAXX 26094 67583 NIL=
201501230600 AAXX 23064 67583 NIL=
201501210600 AAXX 21064 67583 11975 82101 10190 20182 76062 8807/
                   333 10250 20/// 58020 88460=
201501191500 AAXX 19154 67583 NIL=
201501160900 AAXX 16094 67583 NIL=
201501140900 AAXX 14094 67583 NIL=
201501090900 AAXX 09094 67583 NIL=
201501081200 AAXX 08124 67583 NIL=
201501080900 AAXX 08094 67583 NIL=
201501070900 AAXX 07094 67583 NIL=
201501070600 AAXX 07064 67583 12978 73601 10210 20193 48/// 60014 87030
                   333 10276 20/// 59012 87360=
201501050600 AAXX 05064 67583 NIL=
201501020900 AAXX 02094 67583 NIL=
201501011500 AAXX 01154 67583 NIL=

################################################################################
#  SYNOPS from 67599, Mfuwe (Zambia) | 13-16S | 031-56E | 568 m
################################################################################
201501300600 AAXX 30064 67599 11457 80000 10214 20211 48508 60324 76166 8172/
                   333 10300 20204 58009 81710 81630 87359
                   555 00/// 20006 91015=
201501290600 AAXX 29064 67599 12380 70000 10238 20219 48507 8457/
                   333 10253 20220 58002 84606 87460 91014=
201501270600 AAXX 27064 67599 12980 70000 10227 20212 48526 60204 85732
                   333 10331 20206 59014 85708 86360 84080
                   555 00224 91016=
201501261500 AAXX 26154 67599 NIL=
201501260900 AAXX 26094 67599 NIL=
201501260600 AAXX 26064 67599 11360 70000 10230 20216 48539 69904 72162 8177/
                   333 10325 20219 58026 81705 87458
                   555 00225 91018=
201501230600 AAXX 23064 67599 NIL=
201501191500 AAXX 19154 67599 NIL=
201501160900 AAXX 16094 67599 NIL=
201501140900 AAXX 14094 67599 NIL=
201501090900 AAXX 09094 67599 NIL=
201501081200 AAXX 08124 67599 NIL=
201501080900 AAXX 08094 67599 NIL=
201501080600 AAXX 08064 67599 12280 73003 10235 20228 48532 60214 8673/
                   333 10292 20220 58010 86704 87359
                   555 00220 91016=
201501070900 AAXX 07094 67599 NIL=
201501050600 AAXX 05064 67599 NIL=
201501020900 AAXX 02094 67599 NIL=
201501020600 AAXX 02064 67599 31960 70000 10262 20230 48505 70522 86032
                   333 10345 20230 59005 86359 86080
                   555 00230 91013=
201501011500 AAXX 01154 67599 NIL=

################################################################################
#  SYNOPS from 67625, Kalabo (Zambia) | 14-51S | 022-42E | 1033 m
################################################################################
201501290600 AAXX 29064 67625 12282 52904 10194 20187 48/// 60164 83623
                   333 10343 20178 58010 83703 85460 84075=
201501280600 AAXX 28064 67625 32982 63603 10225 20212 48/// 86033
                   333 10335 20194 59025 86360 82075=
201501261500 AAXX 26154 67625 NIL=
201501260900 AAXX 26094 67625 NIL=
201501260600 AAXX 26064 67625 32482 20301 10223 20207 48/// 82100
                   333 10336 20189 58009 82812=
201501230600 AAXX 23064 67625 NIL=
201501210600 AAXX 21064 67625 12282 63604 10209 20208 48/// 60064 84633
                   333 10294 20189 58028 84703 85360 82075=
201501191500 AAXX 19154 67625 NIL=
201501160900 AAXX 16094 67625 NIL=
201501140900 AAXX 14094 67625 NIL=
201501140600 AAXX 14064 67625 32982 73303 10232 20207 48/// 8703/
                   333 10331 20179 58005 87360=
201501130600 AAXX 13064 67625 32982 13406 10216 20207 48/// 70300 80001
                   333 10330 20178 59003 81075=
201501120600 AAXX 12064 67625 32282 53601 10217 20207 48/// 85603
                   333 10334 20189 59012 85704 83075=
201501090900 AAXX 09094 67625 NIL=
201501081200 AAXX 08124 67625 NIL=
201501080900 AAXX 08094 67625 NIL=
201501080600 AAXX 08064 67625 11982 73001 10214 20203 48/// 60044 72055 8702/
                   333 10305 20190 58020 87460=
201501070900 AAXX 07094 67625 NIL=
201501050600 AAXX 05064 67625 NIL=
201501020900 AAXX 02094 67625 42682 43307 10276 20206 48/// 84130
                   333 84830 81360=
201501020600 AAXX 02064 67625 12282 63305 10217 20201 48/// 60014 81630
                   333 10313 20189 58017 81704 86360
                   555 00/// 20016=
201501011500 AAXX 01154 67625 NIL=
201501010600 AAXX 01064 67625 11282 73602 10199 20196 48/// 60164 72166 8563/
                   333 20281 58001 85706 87360
                   555 00/// 20993=

################################################################################
#  SYNOPS from 67633, Mongu (Zambia) | 15-15S | 023-09E | 1052 m
################################################################################
201501300600 AAXX 30064 67633 11975 80804 10207 20203 48495 60104 76366 8807/
                   333 10300 20200 59001 88460 91016=
201501290600 AAXX 29064 67633 12980 71802 10210 20181 48502 60014 70222 85038
                   333 10330 20180 58007 85360 87280 91016=
201501270600 AAXX 27064 67633 32480 63603 10226 20197 48508 70222 82532
                   333 10310 20206 58002 82615 85360 83080 91017=
201501261500 AAXX 26154 67633 NIL=
201501260900 AAXX 26094 67633 NIL=
201501260600 AAXX 26064 67633 11980 70904 10216 20202 48506 69904 76066 87070
                   333 10325 20204 58009 87460 91017=
201501230600 AAXX 23064 67633 NIL=
201501210600 AAXX 21064 67633 12480 80605 10211 20202 48506 60184 877//
                   333 10245 20195 58022 87715
                   555 00/// 20030 91016=
201501191500 AAXX 19154 67633 NIL=
201501190600 AAXX 19064 67633 12980 70302 10215 20204 48495 60484 8707/
                   333 10270 20198 59015 87460 91015=
201501160900 AAXX 16094 67633 NIL=
201501140900 AAXX 14094 67633 NIL=
201501140600 AAXX 14064 67633 32680 53608 10250 20197 48501 70311 83132
                   333 10330 20215 59008 83840 85360 83080 91016=
201501130600 AAXX 13064 67633 32980 32704 10227 20197 48511 70200 83030
                   333 10344 20192 58005 83361 91017=
201501090900 AAXX 09094 67633 NIL=
201501081200 AAXX 08124 67633 NIL=
201501080900 AAXX 08094 67633 NIL=
201501080600 AAXX 08064 67633 12480 50901 10226 20203 48518 60024 70322 83532
                   333 10345 20195 58017 83615 83360 82080 91017=
201501070900 AAXX 07094 67633 NIL=
201501070600 AAXX 07064 67633 32580 30902 10238 20193 48503 70300 81130
                   333 10346 20206 59011 81820 83360 91015=
201501050600 AAXX 05064 67633 NIL=
201501020900 AAXX 02094 67633 42580 53002 10270 20204 48501 70222 85201
                   333 58014 85825 82080 91015=
201501020600 AAXX 02064 67633 12480 73304 10210 20203 48495 60144 70322 8653/
                   333 10270 20190 58015 86612 83360
                   555 20032 91015=
201501011500 AAXX 01154 67633 NIL=
201501010600 AAXX 01064 67633 12980 80000 10195 20188 48473 60324 70222 8807/
                   333 10290 20178 58006 88460
                   555 00/// 91013 20004=

################################################################################
#  SYNOPS from 67641, Kaoma (Zambia) | 14-48S | 024-48E | 1213 m
################################################################################
201501300600 AAXX 30064 67641 12675 70701 10206 20198 48489 60504 83530
                   333 10309 20195 50000 83645 84360 91015=
201501290600 AAXX 29064 67641 32982 40401 10210 20183 48490 84032
                   333 10342 20189 58004 84360 81080 91015=
201501270600 AAXX 27064 67641 12982 43601 10223 20216 48507 69924 84030
                   333 10310 20202 58016 84360
                   555 00/// 20000 91016=
201501261500 AAXX 26154 67641 NIL=
201501260900 AAXX 26094 67641 NIL=
201501230600 AAXX 23064 67641 NIL=
201501191500 AAXX 19154 67641 NIL=
201501160900 AAXX 16094 67641 NIL=
201501140900 AAXX 14094 67641 NIL=
201501130600 AAXX 13064 67641 32980 53301 10230 20189 48473 84039
                   333 10330 20201 58008 84360 81180
                   555 00/// 91013=
201501090900 AAXX 09094 67641 NIL=
201501081200 AAXX 08124 67641 NIL=
201501080900 AAXX 08094 67641 NIL=
201501070900 AAXX 07094 67641 NIL=
201501070600 AAXX 07064 67641 12980 70000 10231 20197 48482 60024 87060
                   333 10320 20207 59003 87360 91014=
201501050600 AAXX 05064 67641 NIL=
201501020900 AAXX 02094 67641 NIL=
201501020600 AAXX 02064 67641 32680 63308 10215 20180 48471 70222 82460
                   333 10265 20190 58008 82640 84360
                   555 00/// 91013=
201501011500 AAXX 01154 67641 NIL=

################################################################################
#  SYNOPS from 67655, Mumbwa (Zambia) | 15-04S | 027-11E | 1216 m
################################################################################
201501261500 AAXX 26154 67655 NIL=
201501260900 AAXX 26094 67655 NIL=
201501230600 AAXX 23064 67655 NIL=
201501191500 AAXX 19154 67655 NIL=
201501160900 AAXX 16094 67655 NIL=
201501140900 AAXX 14094 67655 NIL=
201501090900 AAXX 09094 67655 NIL=
201501081200 AAXX 08124 67655 NIL=
201501080900 AAXX 08094 67655 NIL=
201501070900 AAXX 07094 67655 NIL=
201501050600 AAXX 05064 67655 NIL=
201501020900 AAXX 02094 67655 NIL=
201501011500 AAXX 01154 67655 NIL=

################################################################################
#  SYNOPS from 67659, Kafue Polder (Zambia) | 15-46S | 027-55E | 978 m
################################################################################
201501261500 AAXX 26154 67659 NIL=
201501260900 AAXX 26094 67659 NIL=
201501230600 AAXX 23064 67659 NIL=
201501191500 AAXX 19154 67659 NIL=
201501160900 AAXX 16094 67659 NIL=
201501140900 AAXX 14094 67659 NIL=
201501090900 AAXX 09094 67659 NIL=
201501081200 AAXX 08124 67659 NIL=
201501080900 AAXX 08094 67659 NIL=
201501070900 AAXX 07094 67659 NIL=
201501050600 AAXX 05064 67659 NIL=
201501020900 AAXX 02094 67659 NIL=
201501011500 AAXX 01154 67659 NIL=

################################################################################
#  SYNOPS from 67662, Kabwe Agric (Zambia) | 14-24S | 028-30E | 1165 m
################################################################################
201501280600 AAXX 28064 67662 12480 51202 10224 20193 48/// 60244 81130
                   333 10293 20/// 5//// 81818 85360=
201501270600 AAXX 27064 67662 12980 60902 10190 20182 48/// 60444 86030
                   333 10240 20/// 86360=
201501261500 AAXX 26154 67662 NIL=
201501260900 AAXX 26094 67662 NIL=
201501230600 AAXX 23064 67662 NIL=
201501191500 AAXX 19154 67662 NIL=
201501160900 AAXX 16094 67662 NIL=
201501140900 AAXX 14094 67662 NIL=
201501130600 AAXX 13064 67662 32980 72002 10225 20194 48/// 87030
                   333 10295 20/// 87360=
201501090900 AAXX 09094 67662 NIL=
201501090600 AAXX 09064 67662 12380 81002 10195 20182 60144 886//
                   333 10229 20/// 88708
                   555 00/// 20011=
201501081200 AAXX 08124 67662 NIL=
201501080900 AAXX 08094 67662 NIL=
201501080600 AAXX 08064 67662 11360 81102 10193 20189 60114 75056 887//
                   333 10262 20/// 88707
                   555 00/// 20017=
201501070900 AAXX 07094 67662 NIL=
201501050600 AAXX 05064 67662 NIL=
201501020900 AAXX 02094 67662 NIL=
201501011500 AAXX 01154 67662 NIL=

################################################################################
#  SYNOPS from 67663, Kabwe (Zambia) | 14-27S | 028-28E | 1206 m
################################################################################
201501300600 AAXX 30064 67663 11480 81803 10195 20192 48511 60034 76166 8577/
                   333 10274 20188 58030 85710 88460
                   555 00/// 20024=
201501290600 AAXX 29064 67663 11380 71603 1//// 20180 48482 60024 76166 8277/
                   333 10294 20184 59018 82709 87460
                   555 20990=
201501280600 AAXX 28064 67663 12980 40305 10224 20209 48503 69904 70111 83032
                   333 10288 20179 59018 83360 83080
                   555 00/// 20028=
201501270600 AAXX 27064 67663 12980 60703 10203 20182 48515 60284 70222 86030
                   333 10244 20179 58006 86360
                   555 00/// 20008=
201501261500 AAXX 26154 67663 NIL=
201501260900 AAXX 26094 67663 NIL=
201501260600 AAXX 26064 67663 11480 70803 10201 20191 48542 60084 72162 8357/
                   333 10313 20183 58012 83619 87460
                   555 00/// 20000=
201501230600 AAXX 23064 67663 NIL=
201501191500 AAXX 19154 67663 NIL=
201501190600 AAXX 19064 67663 12480 82704 10184 20173 48511 60484 70222 8557/
                   333 10285 20173 58002 85660 88460
                   555 00///=
201501160900 AAXX 16094 67663 NIL=
201501140900 AAXX 14094 67663 NIL=
201501090900 AAXX 09094 67663 NIL=
201501081200 AAXX 08124 67663 NIL=
201501080900 AAXX 08094 67663 NIL=
201501070900 AAXX 07094 67663 NIL=
201501070600 AAXX 07064 67663 12480 80803 10210 20195 48512 69904 70222 8157/
                   333 10290 20190 58005 81618 87460
                   555 00///=
201501050600 AAXX 05064 67663 NIL=
201501020900 AAXX 02094 67663 NIL=
201501020600 AAXX 02064 67663 12480 82506 10206 20184 48494 69904 70222 885//
                   333 10291 20186 58002 88618
                   555 00/// 20004=
201501011500 AAXX 01154 67663 NIL=
201501010900 AAXX 01094 67663 42580 63010 10264 20191 48488 70322 85830
                   333 59005 83824 82626 84360=
201501010600 AAXX 01064 67663 12480 63603 10209 20183 48492 60044 70322 81530
                   333 10267 20189 59000 81618 86360
                   555 00///=

################################################################################
#  SYNOPS from 67665, Lusaka Internationalairport (Zambia) | 15-19S | 028-27E | 1152 m
################################################################################
201501301800 AAXX 30184 67665 42680 72803 10200 20185 48511 70192 8197/
                   333 58013 81940 87359=
201501301500 AAXX 30154 67665 41660 80202 10213 20198 48494 75052 8197/
                   333 58016 81935 87359=
201501301200 AAXX 30124 67665 41560 73205 10240 20226 48500 71522 8193/
                   333 58005 81930 85835 86360=
201501300600 AAXX 30064 67665 12380 70909 10210 20199 48523 60024 70262 8263/
                   333 10295 20//0 58005 82708 87360=
201501300300 AAXX 30034 67665 41360 70000 10197 20156 48507 82630
                   333 58009 82709 86359=
201501292100 AAXX 29214 67665 42760 51003 10201 20154 48517 70222 81930
                   333 58007 81956 84360=
201501291800 AAXX 29184 67665 42760 61104 10223 20151 48501 70322 81930
                   333 10285 58006 81956 85360=
201501291500 AAXX 29154 67665 42680 50905 10274 20169 48483 70222 81932
                   333 59002 81945 81360 83080=
201501291200 AAXX 29124 67665 42680 60906 10270 20180 48499 70122 83232
                   333 58003 83838 81360 83080=
201501290900 AAXX 29094 67665 42580 60910 10231 20201 48520 85570
                   333 58004 85625 84360=
201501290600 AAXX 29064 67665 12480 80603 10200 20192 48517 60024 8257/
                   333 10245 20//0 58017 82610 88310 91018=
201501281800 AAXX 28184 67665 41760 61004 10203 20172 48489 71322 81931
                   333 10292 58006 81950 85360 82080=
201501281500 AAXX 28154 67665 61203 10222 20176 48481 70222 81930
                   333 59008 81950 86360=
201501281200 AAXX 28124 67665 42680 61603 10215 20171 48490 72996 81930
                   333 59015 91935 95838=
201501280900 AAXX 28094 67665 42580 60502 10274 20194 48530 70322 86230
                   333 59013 86825 81360 91018=
201501280300 AAXX 28034 67665 42980 13203 10190 20133 48498 70200 81030
                   333 59022 81360=
201501271800 AAXX 27184 67665 41660 50805 10218 20146 48509 71322 81930
                   333 10303 59012 81950 85360=
201501271500 AAXX 27154 67665 41660 71010 10275 20177 48496 71522 85232
                   333 59020 81940 84840 83360 82080=
201501271200 AAXX 27124 67665 42680 63201 10277 20178 48511 70322 86200
                   333 59015 86830=
201501270600 AAXX 27064 67665 32380 23603 10225 20186 48534 82631
                   333 10280 20//0 59002 81608 82360 81080=
201501262100 AAXX 26214 67665 42980 53402 10198 20140 48527 85030
                   333 58009 85360=
201501261500 AAXX 26154 67665 NIL=
201501260900 AAXX 26094 67665 NIL=
201501260300 AAXX 26034 67665 42980 70103 10196 20174 48519 87030
                   333 58009 87360=
201501260000 AAXX 26004 67665 42980 31102 10201 20169 48512 83030
                   333 59002 83360=
201501252100 AAXX 25214 67665 42980 31203 10204 20155 48518 83030
                   333 58004 83360=
201501250900 AAXX 25094 67665 42580 60607 10258 20191 48527 70321 86200
                   333 59005 86830=
201501242100 AAXX 24214 67665 42980 31504 10181 20121 48512 83060
                   333 59017 83360=
201501241800 AAXX 24184 67665 42980 31005 10206 20132 48499 83060
                   333 59017 83360=
201501241200 AAXX 24124 67665 42680 61005 10264 20204 48513 86200
                   333 59026 86835=
201501240900 AAXX 24094 67665 30308 10251 20160 48531 70300 83200
                   333 59028 83825 91019=
201501240600 AAXX 24064 67665 32980 11406 10204 20173 48534 81081
                   333 10285 20//0 59020 81360 81080=
201501240300 AAXX 24034 67665 42980 20000 10157 20131 48512 70200 80001
                   333 59031 81080=
201501232100 AAXX 23214 67665 42980 20000 10185 20135 48529 70200 80001
                   333 59023 82080=
201501231800 AAXX 23184 67665 42980 21503 10205 20151 48515 70100 80001
                   333 10271 59021 81080=
201501231500 AAXX 23154 67665 42680 51107 10254 20169 48515 70222 84230
                   333 59018 84848 81360=
201501231200 AAXX 23124 67665 42680 61006 10251 20164 48538 70322 86200
                   333 59013 86835=
201501230600 AAXX 23064 67665 NIL=
201501230300 AAXX 23034 67665 42980 11103 10168 20125 48543 70200 81030
                   333 59009 81360=
201501230000 AAXX 23004 67665 42980 31205 10174 20133 48536 70300 83030
                   333 59006 83360=
201501221800 AAXX 22184 67665 42980 31003 10203 20154 48537 70200 83031
                   333 10275 59005 83360 81080=
201501221500 AAXX 22154 67665 42680 41007 10261 20160 48554 70122 83201
                   333 58005 83840 82080=
201501221200 AAXX 22124 67665 42580 51209 10255 20163 48552 70222 84202
                   333 58009 84825 82080=
201501211800 AAXX 21184 67665 42660 71008 10213 20174 48544 70322 8453/
                   333 10260 58019 84648 87360=
201501211500 AAXX 21154 67665 42680 60809 10241 20181 48527 70122
                   333 82845 84360 81080=
201501211200 AAXX 21124 67665 42660 70709 10235 20174 48540 70322 8323/
                   333 58028 83830 87360=
201501210900 AAXX 21094 67665 42480 70909 10214 20189 48553 874//
                   333 58017 87618=
201501210600 AAXX 21064 67665 12380 70907 10190 20181 48546 60244 876//
                   333 10254 20//0 58017 87706=
201501201200 AAXX 20124 67665 42580 70709 10237 20193 48513 70222 8583/
                   333 58002 82820 84622 87359=
201501200300 AAXX 20034 67665 42980 70503 10186 20163 48502 8707/
                   333 59005 87459=
201501200000 AAXX 20004 67665 42960 70702 10188 20155 48502 8707/
                   333 59011 87459=
201501192100 AAXX 19214 67665 42960 71004 10186 20163 48520 8707/
                   333 59002 87459=
201501191500 AAXX 19154 67665 NIL=
201501190900 AAXX 19094 67665 41459 73305 10209 20194 48531 78082 8557/
                   333 59016 85618 87459 91020=
201501180600 AAXX 18064 67665 12460 70000 10204 20194 48578 60394 70222 84530
                   333 10269 20//0 58025 84710 87360=
201501170600 AAXX 17064 67665 12480 72904 10215 20201 48507 60244 87500
                   333 59001 87615=
201501160900 AAXX 16094 67665 NIL=
201501151500 AAXX 15154 67665 42660 62603 10239 20187 48482 70192 81931
                   333 59008 81945 86360 81080 91014=
201501151200 AAXX 15124 67665 41657 71510 10221 20206 48498 79592 81902
                   333 58018 81930 86835 82080=
201501150600 AAXX 15064 67665 11460 70703 10211 20200 48522 60114 83530
                   333 10293 20//0 58010 83610 86359=
201501141500 AAXX 14154 67665 42580 72906 10218 20162 48487 70298 8337/
                   333 58001 81922 83824 87458=
201501140900 AAXX 14094 67665 NIL=
201501140600 AAXX 14064 67665 32980 52703 10224 20161 48513 82032
                   333 59010 82360 85080=
201501140300 AAXX 14034 67665 42980 32403 10186 20171 48496
                   333 59004 83459=
201501132100 AAXX 13214 67665 42680 62504 10197 20174 48511 81970
                   333 59008 82945 85459=
201501130900 AAXX 13094 67665 42580 43203 10262 20201 48523 84200
                   333 58002 84825=
201501130600 AAXX 13064 67665 12980 72903 10212 20193 48522 60054 87030
                   333 10291 20//0 59006 87360=
201501122100 AAXX 12214 67665 42680 62003 10198 20174 48519 70222 81972
                   333 58009 81960 86459 84080=
201501121800 AAXX 12184 67665 42680 72004 10197 20181 48511 70122 8197/
                   333 58008 81935 87459=
201501121500 AAXX 12154 67665 41680 82606 10220 20198 48499 71799 817//
                   333 58005 81935 83838 85459=
201501121200 AAXX 12124 67665 42580 62402 10269 20196 48509 84231
                   333 84835 83360 81080=
201501120600 AAXX 12064 67665 32980 43203 10217 20162 48531 84051
                   333 10//0 20//0 59008 84359 81080=
201501120300 AAXX 12034 67665 42980 20000 10175 20151 48501 70200 82031
                   333 59008 82360 81080=
201501112100 AAXX 11214 67665 42980 20000 10189 20157 48509 70200 82031
                   333 59006 82360 81080=
201501111200 AAXX 11124 67665 42680 50903 10275 20203 48504 70222 85202
                   333 59030 85837 83080=
201501110900 AAXX 11094 67665 42580 70605 10246 20194 48526 70222 86232
                   333 59013 86825 82360 83080 91019=
201501110300 AAXX 11034 67665 42380 50904 10178 20128 48509 70322 81630
                   333 59016 81705 84360 91018=
201501110000 AAXX 11004 67665 42980 31203 10185 20145 48504 70200 83030
                   333 59016 83360=
201501102100 AAXX 10214 67665 42980 32402 10190 20151 48515 70100 8303/
                   333 58015 83360 91018=
201501101800 AAXX 10184 67665 41680 50000 10205 20183 48513 71300 81932
                   333 59011 81940 83360 82080=
201501101500 AAXX 10154 67665 41580 61703 10210 20195 48510 78162 81930
                   333 58006 81920 83825 85360=
201501101200 AAXX 10124 67665 41480 71003 10205 20198 48525 78066 85420
                   333 58004 85618 86459=
201501100300 AAXX 10034 67665 42580 71203 10192 20140 48525 70222 8453/
                   333 58010 84620 87358=
201501100000 AAXX 10004 67665 42980 72402 10188 20139 48519 70322 87030
                   333 58006 87359=
201501092100 AAXX 09214 67665 42980 70000 10201 20149 48531 70222 87030
                   333 58003 87359=
201501091800 AAXX 09184 67665 42760 70904 10209 20145 48524 70222 81932
                   333 10269 58000 81950 86360 81080=
201501091500 AAXX 09154 67665 42660 60912 10246 20194 48509 70222 83232
                   333 59008 81935 83840 86360 81080 91017=
201501091200 AAXX 09124 67665 41557 70603 10202 20187 48520 78182 8587/
                   333 59003 83828 82630 87459=
201501090900 AAXX 09094 67665 42560 70705 10228 20190 48537 878//
                   333 59001 82820 87625=
201501090600 AAXX 09064 67665 12360 70905 10192 20176 48535 60014 84630
                   333 10220 20//0 58003 84705 87359=
201501090000 AAXX 09004 67665 42380 70703 10182 20158 48513 8277/
                   333 59003 82709 87459=
201501082100 AAXX 08214 67665 42980 71002 10185 20162 48528 8707/
                   333 58000 87459=
201501081800 AAXX 08184 67665 41480 70706 10191 20170 48521 72052 8457/
                   333 58003 84620 87658=
201501081500 AAXX 08154 67665 42480 71008 10207 20184 48512 70222 875//
                   333 58009 87620=
201501081200 AAXX 08124 67665 NIL=
201501080900 AAXX 08094 67665 NIL=
201501080300 AAXX 08034 67665 42380 71010 10184 20168 48521 8467/
                   333 58011 84707 87459=
201501080000 AAXX 08004 67665 42980 71202 10194 20164 48516 8707/
                   333 58016 87459=
201501072100 AAXX 07214 67665 42980 60704 10197 20165 48529 86070
                   333 58022 86459=
201501070900 AAXX 07094 67665 NIL=
201501061500 AAXX 06154 67665 42560 70804 10201 20185 48493 70166 8193/
                   333 58019 81925 83830 87360=
201501061200 AAXX 06124 67665 41559 81208 10183 20183 48498 78166 8193/
                   333 58016 81920 83825 88359=
201501060600 AAXX 06064 67665 32580 70000 10202 20146 48510 70222 83531
                   333 10128 20/// 58005 83625 85360 82080=
201501060300 AAXX 06034 67665 42980 50000 10197 20149 48498 70222 84031
                   333 58005 84360 82080=
201501060000 AAXX 06004 67665 42980 40000 10197 20149 48494 70222 84030
                   333 58000 84360=
201501052100 AAXX 05214 67665 42980 20000 10196 20148 48500 70200 80001
                   333 58002 81080=
201501051500 AAXX 05154 67665 42680 31109 10271 20181 48481 70100 81232
                   333 58003 81848 81360 81080=
201501051200 AAXX 05124 67665 41660 50903 10265 20191 48484 72582 83232
                   333 59001 81935 83838 81360 81080=
201501050600 AAXX 05064 67665 32460 60803 10214 20184 48506 81230
                   333 10300 20/// 59002 81815 86360=
201501050300 AAXX 05034 67665 42980 62602 10198 20183 48493 86030
                   333 59007 86360=
201501042100 AAXX 04214 67665 42760 72103 10202 20164 48498 81930
                   333 59006 81950 87360=
201501041800 AAXX 04184 67665 41780 51503 10218 20171 48491 71322 81932
                   333 59002 81950 84360 82080=
201501041500 AAXX 04154 67665 42780 10272 20182 48484 70222 81932
                   333 58006 81950 85850 83360 82080=
201501041200 AAXX 04124 67665 42660 62507 10275 20186 48495 72588 82432
                   333 58010 83635 85838 83360 82080=
201501040900 AAXX 04094 67665 41560 72503 10248 20189 48509 71522 86230
                   333 58016 81925 86830 83360 91017=
201501040600 AAXX 04064 67665 12380 72707 10218 20166 48510 60014 70222 8463/
                   333 10269 20//0 58013 84709 82820 87359=
201501031800 AAXX 03184 67665 41/60 70000 10214 20168 48492 76196 8197/
                   333 10289 819// 87459=
201501031500 AAXX 03154 67665 41660 61809 10244 20201 48475 71722 81931
                   333 58002 81942 85845 83360 81080=
201501031200 AAXX 03124 67665 42660 72212 10248 20189 48482 70122 83232
                   333 58001 83835 86360 82080=
201501030900 AAXX 03094 67665 42560 72607 10251 20207 48495 84530
                   333 58002 84620 87359=
201501030600 AAXX 03064 67665 32360 72805 10217 20200 48497 84630
                   333 10266 20//0 58003 84708 87359=
201501030000 AAXX 03004 67665 42980 62802 10196 20180 48486 86030
                   333 58011 86360=
201501022100 AAXX 02214 67665 42980 73003 10206 20188 48500 8707/
                   333 58014 87459=
201501021200 AAXX 02124 67665 41480 72915 10245 20202 48483 71522 8587/
                   333 58009 85820 81622 87460=
201501020900 AAXX 02094 67665 42480 72909 10216 20195 48450 875//
                   333 58009 87618=
201501020600 AAXX 02064 67665 12480 83008 10204 20164 48492 8857/
                   333 58003 88615 87459=
201501020300 AAXX 02034 67665 42980 73003 10194 20171 48476 58002 87459=
201501020000 AAXX 02004 67665 42980 72903 10206 20184 48476 8707/
                   333 58002 87459=
201501012100 AAXX 01214 67665 42980 73002 10216 20186 48488 8707/
                   333 58006 87459=
201501011500 AAXX 01154 67665 NIL=

################################################################################
#  SYNOPS from 67666, Lusaka City Airport (Zambia) | 15-25-00S | 028-28-00E | 1280 m
################################################################################
201501300600 AAXX 30064 67666 11480 81905 10197 20189 48509 60024 70342 8577/
                   333 10/// 20180 58006 85710 88458 91018=
201501290600 AAXX 29064 67666 32480 80908 10197 20180 48509 8457/
                   333 10279 20176 58007 84615 85459 91018=
201501261500 AAXX 26154 67666 NIL=
201501260900 AAXX 26094 67666 42580 60905 10243 20194 48532 85230
                   333 58016 85825 82360 91020=
201501260600 AAXX 26064 67666 32880 70606 10205 20188 48521 8707/
                   333 10275 20184 58004 87359=
201501230600 AAXX 23064 67666 NIL=
201501220900 AAXX 22094 67666 42480 60909 10231 20168 48551 86800
                   333 58009 81615 85820 91022=
201501191500 AAXX 19154 67666 NIL=
201501190600 AAXX 19064 67666 12380 80000 10197 20177 48520 60154 8367/
                   333 10259 20169 59001 83610 87358
                   555 00/// 91019=
201501161200 AAXX 16124 67666 41580 73607 10269 20186 71721 819//
                   333 59010 81915 86828 91013=
201501160900 AAXX 16094 67666 42480 63006 10250 20184 48500 83201
                   333 59029 83818 83080 91016=
201501140900 AAXX 14094 67666 NIL=
201501130900 AAXX 13094 67666 42480 60000 10260 20196 48517 81900
                   333 58001 81910 85815 91018=
201501090900 AAXX 09094 67666 NIL=
201501090600 AAXX 09064 67666 12380 71007 10191 20177 48528 69904 8367/
                   333 10205 20155 58009 83710 87459 91020=
201501081200 AAXX 08124 67666 42480 81009 10200 20177 48511 885//
                   333 58009 88610 91017=
201501080900 AAXX 08094 67666 NIL=
201501080600 AAXX 08064 67666 11380 81012 10185 20176 48526 60114 76166 886//
                   333 10235 20165 58010 88704 91019=
201501070900 AAXX 07094 67666 NIL=
201501050600 AAXX 05064 67666 NIL=
201501020900 AAXX 02094 67666 NIL=
201501020600 AAXX 02064 67666 12380 93108 10195 20181 48480 60124 895//
                   333 10280 20176 58004 89615
                   555 00/// 20014 91015=
201501011500 AAXX 01154 67666 NIL=
201501010600 AAXX 01064 67666 11380 80000 10191 20189 48473 60144 78022 886//
                   333 10252 20180 5//// 83707 88615
                   555 00/// 91014=

################################################################################
#  SYNOPS from 67667, Mount Makulu (Zambia) | 15-33S | 028-15E | 1213 m
################################################################################
201501261500 AAXX 26154 67667 NIL=
201501260900 AAXX 26094 67667 NIL=
201501230600 AAXX 23064 67667 NIL=
201501191500 AAXX 19154 67667 NIL=
201501160900 AAXX 16094 67667 NIL=
201501140900 AAXX 14094 67667 NIL=
201501090900 AAXX 09094 67667 NIL=
201501081200 AAXX 08124 67667 NIL=
201501080900 AAXX 08094 67667 NIL=
201501070900 AAXX 07094 67667 NIL=
201501050600 AAXX 05064 67667 NIL=
201501020900 AAXX 02094 67667 NIL=
201501011500 AAXX 01154 67667 NIL=

################################################################################
#  SYNOPS from 67673, Petauke (Zambia) | 14-15S | 031-17E | 1035 m
################################################################################
201501300600 AAXX 30064 67673 11575 80000 10200 20191 48528 60084 76266 885//
                   333 10264 20198 58000 88625
                   555 00/// 20023=
201501280600 AAXX 28064 67673 12580 43301 10228 20198 48520 69904 82131
                   333 10280 20194 59025 82828 81360 84080
                   555 00/// 20002=
201501270600 AAXX 27064 67673 12580 61901 10225 20205 48545 60024 83131
                   333 10290 20195 59009 83828 86360 82080
                   555 00/// 20004=
201501261500 AAXX 26154 67673 NIL=
201501261200 AAXX 26124 67673 42680 53201 10270 20193 48534 85231
                   333 5//// 85833 83360 82080=
201501260900 AAXX 26094 67673 42580 63402 10240 20196 48553 86531
                   333 5//// 86629 85360 83080=
201501260600 AAXX 26064 67673 12480 73402 10202 20193 48548 60044 8557/
                   333 10300 20190 58019 85620 87360
                   555 00/// 20000=
201501231200 AAXX 23124 67673 42684 41201 10270 20163 48541 84231
                   333 59020 84835 82360 81080=
201501230900 AAXX 23094 67673 42684 50901 10250 20162 48562 84130
                   333 59014 84830 85360=
201501230600 AAXX 23064 67673 NIL=
201501191500 AAXX 19154 67673 NIL=
201501160900 AAXX 16094 67673 42684 61001 10256 20204 48516 85131
                   333 59017 85830 82360 86080=
201501160600 AAXX 16064 67673 32584 60802 10226 20203 48519 85131
                   333 10289 20201 85828 84360 86080
                   555 00/// 20000=
201501140900 AAXX 14094 67673 NIL=
201501131200 AAXX 13124 67673 42680 62501 10281 20188 48499 84238
                   333 59022 84833 81360 86280=
201501130600 AAXX 13064 67673 32980 63001 10214 20187 48528 83038
                   333 10242 20196 59002 83360 86280
                   555 00/// 20000=
201501090900 AAXX 09094 67673 41580 71002 10240 20190 48541 76062 875//
                   333 58001 87630=
201501090600 AAXX 09064 67673 12580 80201 10207 20185 48549 60094 885//
                   333 10235 20190 58009 88625
                   555 00/// 20007=
201501081200 AAXX 08124 67673 NIL=
201501080900 AAXX 08094 67673 NIL=
201501070900 AAXX 07094 67673 41556 80801 10196 20190 48531 76166 887//
                   333 58016 88723=
201501070600 AAXX 07064 67673 11550 80701 10195 20193 48532 60554 76366 887//
                   333 10232 20187 58012 88721=
201501060600 AAXX 06064 67673 11960 82001 10196 20190 48520 76366 8802/
                   333 10250 20183 58010 88460
                   555 00/// 20008=
201501050600 AAXX 05064 67673 NIL=
201501020900 AAXX 02094 67673 NIL=
201501011500 AAXX 01154 67673 NIL=
201501010600 AAXX 01064 67673 12984 73003 10230 20193 48519 60234 84030
                   333 10236 20190 58006 84360
                   555 00/// 20006=

################################################################################
#  SYNOPS from 67731, Senanga (Zambia) | 16-06S | 023-16E | 1027 m
################################################################################
201501290600 AAXX 29064 67731 12680 814// 10222 20201 48/// 60024 70222 81327
                   333 10236 20200 58010 81932 86460 87275=
201501280600 AAXX 28064 67731 12980 126// 10244 20203 48/// 60194 70200 80008
                   333 10273 20199 59024 81080
                   555 00/// 20000=
201501270600 AAXX 27064 67731 32980 118// 10232 20214 48/// 70100 81010
                   333 10319 20197 58003 81460=
201501261500 AAXX 26154 67731 NIL=
201501260900 AAXX 26094 67731 NIL=
201501260600 AAXX 26064 67731 32980 412// 10248 20181 48/// 70200 84020
                   333 10323 20193 58009 84462
                   555 00/// 20000=
201501230600 AAXX 23064 67731 NIL=
201501210600 AAXX 21064 67731 12480 810// 10219 20191 48/// 60834 70222 8457/
                   333 10253 20189 58028 84613 88460
                   555 00/// 20092=
201501191500 AAXX 19154 67731 NIL=
201501160900 AAXX 16094 67731 NIL=
201501140900 AAXX 14094 67731 NIL=
201501090900 AAXX 09094 67731 NIL=
201501090600 AAXX 09064 67731 12480 712// 10228 20186 48/// 60034 70322 8457/
                   333 10264 20181 5//// 84613 87460=
201501081200 AAXX 08124 67731 NIL=
201501080900 AAXX 08094 67731 NIL=
201501080600 AAXX 08064 67731 12480 614// 10226 20202 48/// 60164 70222 85530
                   333 10331 20179 5//// 85612 84360=
201501070900 AAXX 07094 67731 NIL=
201501050600 AAXX 05064 67731 12980 221// 10238 20202 48/// 69904 70200 80008
                   333 10331 20189 5//// 82080
                   555 00/// 20000=
201501020900 AAXX 02094 67731 NIL=
201501011500 AAXX 01154 67731 NIL=
201501010600 AAXX 01064 67731 11459 812// 10207 20200 48/// 60604 76566 8357/
                   333 10281 20162 5//// 83611 88360
                   555 00/// 20000=

################################################################################
#  SYNOPS from 67741, Sesheke (Zambia) | 17-28S | 024-18E | 949 m
################################################################################
201501261500 AAXX 26154 67741 NIL=
201501260900 AAXX 26094 67741 NIL=
201501230600 AAXX 23064 67741 NIL=
201501191500 AAXX 19154 67741 NIL=
201501160900 AAXX 16094 67741 NIL=
201501140900 AAXX 14094 67741 NIL=
201501140600 AAXX 14064 67741 32980 53003 10249 20204 48506 80002
                   333 10366 20177 59009 85080=
201501130600 AAXX 13064 67741 32980 13403 10250 20193 48506 81031
                   333 10341 20181 59008 81362 81080=
201501120600 AAXX 12064 67741 32980 30901 10230 20180 48521 80002
                   333 10333 20169 59008 83080=
201501090900 AAXX 09094 67741 NIL=
201501081200 AAXX 08124 67741 NIL=
201501080900 AAXX 08094 67741 NIL=
201501070900 AAXX 07094 67741 NIL=
201501050600 AAXX 05064 67741 NIL=
201501020900 AAXX 02094 67741 NIL=
201501011500 AAXX 01154 67741 NIL=

################################################################################
#  SYNOPS from 67743, Livingstone (Zambia) | 17-49S | 025-49E | 985 m
################################################################################
201501291200 AAXX 29124 67743 41575 73308 10261 20187 48490 71522 82331
                   333 58015 81930 85835 83360 82080 91014=
201501261500 AAXX 26154 67743 NIL=
201501260900 AAXX 26094 67743 NIL=
201501230600 AAXX 23064 67743 34980 40904 10212 20179 48562 70222 80001
                   333 10301 20180 59005 84080
                   555 00/// 20001 91022=
201501220600 AAXX 22064 67743 12980 61007 10219 20181 48557 60014 81032
                   333 10275 20191 58019 81360 85080
                   555 00/// 20003 91022=
201501200600 AAXX 20064 67743 12480 70809 10204 20198 48501 60184 70322 85631
                   333 10301 20194 59009 85712 83358 83080 91016=
201501191500 AAXX 19154 67743 NIL=
201501160900 AAXX 16094 67743 NIL=
201501150900 AAXX 15094 67743 41980 71803 10240 20200 48513 79566 8197/
                   333 58017 819// 86360 91018=
201501140900 AAXX 14094 67743 NIL=
201501090900 AAXX 09094 67743 NIL=
201501081200 AAXX 08124 67743 NIL=
201501080900 AAXX 08094 67743 NIL=
201501070900 AAXX 07094 67743 NIL=
201501050600 AAXX 05064 67743 NIL=
201501020900 AAXX 02094 67743 NIL=
201501011500 AAXX 01154 67743 41459 71406 10230 20193 48451 76122 8553/
                   333 58005 85615 82820 87360=

################################################################################
#  SYNOPS from 67751, Magoye (Zambia) | 16-00S | 027-36E | 1018 m
################################################################################
201501290600 AAXX 29064 67751 32980 51103 10226 20158 48/// 70222 85071
                   333 10305 20195 59004 85760 82180=
201501280600 AAXX 28064 67751 32980 21205 10185 20193 48/// 70211 80001
                   333 10313 20176 58018 82180=
201501270600 AAXX 27064 67751 32980 41204 10241 20195 48/// 70222 84040
                   333 10312 20193 59007 83460=
201501261500 AAXX 26154 67751 NIL=
201501260900 AAXX 26094 67751 NIL=
201501260600 AAXX 26064 67751 32980 10803 10231 20195 48/// 70222 81040
                   333 10312 20169 59006 81460=
201501230600 AAXX 23064 67751 NIL=
201501210600 AAXX 21064 67751 12980 80705 10210 20179 60264 8807/
                   333 10257 20173 59024 88360=
201501191500 AAXX 19154 67751 NIL=
201501160900 AAXX 16094 67751 NIL=
201501160600 AAXX 16064 67751 12980 53630 10223 20200 48/// 69904 70222 85010
                   333 10300 20191 58012 85460=
201501140900 AAXX 14094 67751 NIL=
201501140600 AAXX 14064 67751 12980 40102 10231 20208 48/// 60044 70200 80001
                   333 10315 20181 58008 84180=
201501090900 AAXX 09094 67751 NIL=
201501081200 AAXX 08124 67751 NIL=
201501080900 AAXX 08094 67751 NIL=
201501070900 AAXX 07094 67751 NIL=
201501050600 AAXX 05064 67751 NIL=
201501020900 AAXX 02094 67751 NIL=
201501011500 AAXX 01154 67751 NIL=

################################################################################
#  SYNOPS from 67753, Choma (Zambia) | 16-50S | 027-04E | 1213 m
################################################################################
201501290600 AAXX 29064 67753 31560 50602 10206 20191 48511 69904 81131
                   333 10300 20180 58002 81820 83360 81080=
201501280600 AAXX 28064 67753 32560 10512 10228 20205 48503 81131
                   333 10305 20172 59021 81825 81360 81080=
201501270600 AAXX 27064 67753 32560 81110 10211 20188 48521 81131
                   333 10296 20171 58003 81825 81360 81080=
201501261500 AAXX 26154 67753 NIL=
201501260900 AAXX 26094 67753 NIL=
201501260600 AAXX 26064 67753 32960 10208 10221 20188 48522 81031
                   333 10290 20161 58009 81360 81080=
201501230600 AAXX 23064 67753 32560 70606 10200 20181 48549 8123/
                   333 10264 20169 59010 81825 86360
                   555 00///=
201501210600 AAXX 21064 67753 12560 70514 10194 20179 48538 60264 8353/
                   333 10268 20165 58028 83620 84360
                   555 00///=
201501191500 AAXX 19154 67753 NIL=
201501190600 AAXX 19064 67753 11560 80000 10196 20192 48510 60014 72022 82557
                   333 10275 20185 59003 82620 82360 84280=
201501160900 AAXX 16094 67753 NIL=
201501160600 AAXX 16064 67753 12360 81008 10205 20199 48501 60034 8663/
                   333 10275 20182 59006 86709 82360=
201501140900 AAXX 14094 67753 NIL=
201501090900 AAXX 09094 67753 NIL=
201501081200 AAXX 08124 67753 NIL=
201501080900 AAXX 08094 67753 NIL=
201501070900 AAXX 07094 67753 NIL=
201501050600 AAXX 05064 67753 NIL=
201501020900 AAXX 02094 67753 NIL=
201501011500 AAXX 01154 67753 NIL=

################################################################################
#  SYNOPS from 67855, Lupaki (Zambia) | 17-03-00S | 024-46-00E | 1000 m
################################################################################
201501310600 AAXX 31064 67855 NIL=
201501301200 AAXX 30124 67855 41680 62005 10300 20185 3//// 48/// 71511 84270
                   333 5//// 84845 85460=
201501300600 AAXX 30064 67855 NIL=
201501291200 AAXX 29124 67855 41650 70401 10202 20193 3//// 48/// 79596 82273
                   333 5//// 81930 87460=
201501290600 AAXX 29064 67855 NIL=
201501281200 AAXX 28124 67855 41770 41901 10322 20171 3//// 48/// 71500 84273
                   333 5//// 81940 84850=
201501280600 AAXX 28064 67855 12980 10000 10226 20204 3//// 48/// 60364 80001
                   333 20185 5//// 81080=
201501271200 AAXX 27124 67855 41675 50201 10344 20186 3//// 48/// 71791 85273
                   333 5//// 81930 85840=
201501270600 AAXX 27064 67855 31970 10201 10240 20188 3//// 48/// 70511 80002
                   333 20182 5//// 81080=
201501261200 AAXX 26124 67855 42875 50201 10327 20158 38/// 48/// 85100
                   333 5//// 85856=
201501251200 AAXX 25124 67855 NIL=
201501250600 AAXX 25064 67855 32975 00902 10210 20140 3//// 48///
                   333 20134 5////=
201501241200 AAXX 24124 67855 42675 33401 10310 20120 3//// 48/// 83200
                   333 5//// 82850=
201501240600 AAXX 24064 67855 32975 03601 10206 20146 3//// 48///
                   333 20132 5////=
201501231200 AAXX 23124 67855 NIL=
201501230600 AAXX 23064 67855 32975 61103 10226 20163 3//// 48/// 80002
                   333 20155 5//// 86080=
201501221200 AAXX 22124 67855 42775 41902 10306 20163 3//// 48/// 84201
                   333 5//// 84850=
201501220600 AAXX 22064 67855 32575 10303 10212 20163 3//// 48/// 81530
                   333 20150 5//// 81620=
201501211200 AAXX 21124 67855 42675 70301 10262 20183 3//// 48/// 83171
                   333 5//// 83835 87459=
201501210600 AAXX 21064 67855 NIL=
201501201200 AAXX 20124 67855 41970 73605 10244 20175 3//// 48/// 76061 8707/
                   333 5//// 87458=
201501200600 AAXX 20064 67855 12575 40303 10218 20170 3//// 48/// 60234 81531
                   333 20190 5//// 81620=
201501191200 AAXX 19124 67855 42775 52001 10302 20189 3//// 48/// 85200
                   333 5//// 85850=
201501190600 AAXX 19064 67855 11575 30304 10216 20193 3//// 48/// 60454 70198 83532
                   333 20184 5//// 83620=
201501181200 AAXX 18124 67855 42775 70603 10302 20192 3//// 48/// 85202
                   333 5//// 85850 87080=
201501180600 AAXX 18064 67855 12575 70903 10234 20193 3//// 48/// 69904 8157/
                   333 20202 5//// 81620 87459=
201501171200 AAXX 17124 67855 NIL=
201501170600 AAXX 17064 67855 NIL=
201501161200 AAXX 16124 67855 42775 53601 10318 20193 3//// 48/// 85231
                   333 5//// 85850=
201501160600 AAXX 16064 67855 11575 30000 10232 20206 3//// 48/// 60024 70161 81631
                   333 20214 5//// 81620 83360=
201501151200 AAXX 15124 67855 42775 50000 10320 20165 3//// 48/// 85232
                   333 5//// 85850 83360=
201501150600 AAXX 15064 67855 12575 50902 10240 20189 3//// 48//// 69904 81531
                   333 20188 5//// 81620 83360 85080=
201501141200 AAXX 14124 67855 41670 73602 10316 20195 3//// 48/// 71792 85233
                   333 5//// 81925 84830 87080=
201501140600 AAXX 14064 67855 32975 60901 10250 20193 3//// 48/// 80002
                   333 20194 5//// 86080=
201501131200 AAXX 13124 67855 42775 52101 10336 20165 3//// 48/// 85200
                   333 5//// 85850=
201501130600 AAXX 13064 67855 32975 30903 10240 20181 3//// 48/// 80001
                   333 20172 5//// 83080=
201501121200 AAXX 12124 67855 42775 10312 20148 3//// 48/// 83101
                   333 5//// 83850 85080=
201501120600 AAXX 12064 67855 32975 21402 10216 20146 3//// 48/// 80002
                   333 20140 5//// 82080=
201501111200 AAXX 11124 67855 42775 51802 10314 20153 3//// 48/// 82101
                   333 5//// 82850 85080=
201501110600 AAXX 11064 67855 32975 30000 10210 20164 3//// 48/// 80001
                   333 20159 5//// 83080=
201501101200 AAXX 10124 67855 NIL=
201501100600 AAXX 10064 67855 32975 12102 10224 20167 38/// 48/// 80001
                   333 20152 5//// 81080=
201501091200 AAXX 09124 67855 42775 51902 10338 20153 38/// 48/// 85200
                   333 5//// 85850=
201501090600 AAXX 09064 67855 32975 10304 10228 20164 3//// 48/// 81032
                   333 20156 5//// 81360=
201501081200 AAXX 08124 67855 42775 51102 10318 20165 3//// 48/// 85232
                   333 5//// 85850=
201501080600 AAXX 08064 67855 62975 20903 10240 20168 3//// 48/// 80001
                   333 20163 5//// 82080=
201501071200 AAXX 07124 67855 42775 31404 10342 20150 3//// 48/// 83101
                   333 5//// 83850=
201501070600 AAXX 07064 67855 32975 31603 10238 20160 3//// 48/// 83031
                   333 20159 83360 82620 87080=
201501061200 AAXX 06124 67855 42775 40701 10334 20180 3//// 48/// 84200
                   333 5//// 84850=
201501060600 AAXX 06064 67855 32975 11101 10228 20171 3//// 48/// 81031
                   333 20156 5//// 81360=
201501051200 AAXX 05124 67855 42775 61601 10304 20153 3//// 48/// 83501
                   333 5//// 83650 86080=
201501050600 AAXX 05064 67855 32975 30000 10220 20175 3//// 48/// 80001
                   333 20153 5//// 83080=
201501041200 AAXX 04124 67855 NIL=
201501040600 AAXX 04064 67855 32975 61203 10224 20176 3//// 48/// 80002
                   333 20165 5//// 86080=
201501031200 AAXX 03124 67855 42675 51601 10290 20189 3//// 48/// 85571
                   333 5//// 85640=
201501030600 AAXX 03064 67855 12575 50302 10216 20187 3//// 48/// 60064 85531
                   333 20177 5//// 85620=
201501021200 AAXX 02124 67855 41575 72003 10244 20203 3//// 48/// 72065 8557/
                   333 5//// 85640 87459=
201501020600 AAXX 02064 67855 11670 71603 10208 20181 3//// 48/// 60024 75052 8557/
                   333 20197 5//// 85630 87458=
201501011200 AAXX 01124 67855 NIL=
201501010600 AAXX 01064 67855 NIL=
