################################################################################
# Query made at 04/14/2022 03:37:06 UTC
# Country like Zamb*
# Time interval: from 08/01/2016 05:30  to 08/31/2016 06:30  UTC
################################################################################

################################################################################
#  SYNOPS from 67665, Lusaka Internationalairport (Zambia) | 15-19S | 028-27E | 1152 m
################################################################################
201608310600 AAXX 31064 67665 32980 21403 10194 20118 48528 82030
                   333 59009 82360=
201608310300 AAXX 31034 67665 42980 0//// 10098 20078 48547
                   333 59008=
201608310000 AAXX 31004 67665 42980 0//// 10118 20074 48545
                   333 59015=
201608302100 AAXX 30214 67665 42980 0//// 10129 20085 48556
                   333 59019=
201608300900 AAXX 30094 67665 41980 00818 10247 20133 48587 70500
                   333 59024=
201608300600 AAXX 30064 67665 42980 01004 10174 20125 48585
                   333 59013=
201608291800 AAXX 29184 67665 42980 0//// 10188 20119 48578
                   333 59002=
201608291200 AAXX 29124 67665 42680 50715 10239 20144 48579 85200
                   333 58003 85845=
201608290900 AAXX 29094 67665 42680 60913 10217 20126 48598 70310 86200
                   333 58000 86835=
201608290300 AAXX 29034 67665 42980 0//// 10111 20084 48567
                   333 59009=
201608290000 AAXX 29004 67665 42980 0//// 10108 20080 48570
                   333 59004=
201608282100 AAXX 28214 67665 42980 0//// 10138 20102 48586
                   333 59001=
201608281500 AAXX 28154 67665 42980 00913 10248 20153 48571
                   333 58000=
201608281200 AAXX 28124 67665 42980 00813 10251 20155 48574
                   333 58000=
201608280900 AAXX 28094 67665 42980 00615 10218 20155 48600
                   333 58012=
201608280300 AAXX 28034 67665 42980 0//// 10110 20081 48575
                   333 58013=
201608280000 AAXX 28004 67665 42980 0//// 10115 20081 48574
                   333 58015=
201608272100 AAXX 27214 67665 42980 0//// 10131 20091 48585
                   333 58013=
201608271800 AAXX 27184 67665 42980 0//// 10169 20110 48576
                   333 58005=
201608271500 AAXX 27154 67665 42980 00815 10245 20160 48571
                   333 58007=
201608270900 AAXX 27094 67665 42980 00915 10227 20164 48595 70200
                   333 58003=
201608270600 AAXX 27064 67665 42980 08012 10171 20125 48582 70200
                   333 59005=
201608270300 AAXX 27034 67665 42980 1//// 10108 20075 48563 80001
                   333 58004 81080=
201608270000 AAXX 27004 67665 42980 1//// 10113 20076 48559 80001
                   333 58004 81080=
201608262100 AAXX 26214 67665 42980 1//// 10128 20084 48573 80001
                   333 58003 81080=
201608261800 AAXX 26184 67665 42980 1//// 10169 20105 48571 80001
                   333 58003 81080=
201608261500 AAXX 26154 67665 42980 10911 10243 20112 48563 80001
                   333 58003 81080=
201608261200 AAXX 26124 67665 42980 10911 10258 20110 48569 80001
                   333 58006 81080=
201608260900 AAXX 26094 67665 42980 10712 10224 20114 48591 80001
                   333 58002 81080=
201608260600 AAXX 26064 67665 32980 11204 10148 20069 48586 70200 80001
                   333 10263 58008 81080=
201608260300 AAXX 26034 67665 42980 0//// 10097 20050 48557 70200
                   333 59001=
201608260000 AAXX 26004 67665 42980 0//// 10093 20050 48552 70200
                   333 59003=
201608252100 AAXX 25214 67665 42980 0//// 10124 20065 48569 70200
                   333 59007=
201608251800 AAXX 25184 67665 42980 1//// 10166 20101 48569 80001
                   333 59009 81080=
201608251500 AAXX 25154 67665 42980 10912 10241 20108 48560 80001
                   333 59016 81080=
201608251200 AAXX 25124 67665 42980 10913 10252 20120 48562 80001
                   333 59017 81080=
201608250900 AAXX 25094 67665 42980 10914 10225 20116 48591 80001
                   333 59014 81080=
201608250600 AAXX 25064 67665 32980 31004 10144 20078 48576 70300 80001
                   333 10292 20//0 59010 83080=
201608241500 AAXX 24154 67665 42780 21009 10217 20112 48576 70100 82500
                   333 58020=
201608241200 AAXX 24124 67665 42680 21018 10224 20116 48575 70200 82500
                   333 58019 82635=
201608240900 AAXX 24094 67665 42580 30916 10210 20118 48601 83500
                   333 58033 83620=
201608240600 AAXX 24064 67665 32380 80918 10168 20098 48591 886//
                   333 58034 88709=
201608240000 AAXX 24004 67665 42980 0//// 10182 20112 48570
                   333 58025=
201608230600 AAXX 23064 67665 32980 11203 10215 20185 48566 80001
                   333 10//0 20//0 58012 81080=
201608221800 AAXX 22184 67665 42980 0//// 10213 20130 48547
                   333 10350=
201608221500 AAXX 22154 67665 41958 11806 10294 20191 48544 70500 333=
201608221200 AAXX 22124 67665 41958 01211 10312 20187 70500 333=
201608220900 AAXX 22094 67665 41958 21111 10282 20184 48557 70500 80001
                   333 58003 82080=
201608212100 AAXX 21214 67665 42980 0//// 10163 20100 48540
                   333 58000=
201608211200 AAXX 21124 67665 42980 10702 10299 20205 48538 70322 80001
                   333 58001 81080=
201608210900 AAXX 21094 67665 42980 20708 10214 20193 48558
                   333 59001 82080=
201608210600 AAXX 21064 67665 32980 01404 10183 20142 48542
                   333 59008=
201608201800 AAXX 20184 67665 42980 1//// 10202 20143 48537 80001
                   333 59007 81080=
201608201500 AAXX 20154 67665 42980 10804 10280 20185 48526 80001
                   333 59010 81080=
201608201200 AAXX 20124 67665 42980 00903 10280 20187 48530
                   333 59012=
201608200900 AAXX 20094 67665 42980 00807 10256 20185 48559 70200
                   333 59020 91022=
201608200600 AAXX 20064 67665 42980 00904 10171 20141 48549 70200
                   333 10//0 20//0 59017=
201608190600 AAXX 19064 67665 32980 20907 10162 20104 48563 70100 82030
                   333 10264 20//0 59006 82360=
201608190300 AAXX 19034 67665 42980 0//// 10118 20090 48539 70200
                   333 59012=
201608182100 AAXX 18214 67665 42980 0//// 10142 20093 48557 70200
                   333 59010=
201608181800 AAXX 18184 67665 42980 0//// 10169 20107 48552 70200
                   333 59012=
201608181200 AAXX 18124 67665 42980 11012 20149 48555 70112 81030
                   333 59014 81360=
201608180600 AAXX 18064 67665 32980 71108 10158 20105 48560 70221 8703/
                   333 10260 20//0 59011 87360=
201608171800 AAXX 17184 67665 42980 2//// 10167 20105 48567 70200 82030
                   333 10260 59012 82360=
201608171500 AAXX 17154 67665 41780 40908 10238 20148 48564 70522 84200
                   333 59010 84856=
201608171200 AAXX 17124 67665 41680 50910 10234 20154 48566 70500 84100
                   333 59006 84840=
201608170000 AAXX 17004 67665 42980 7//// 10167 20123 48573 8703/
                   333 58015 87360=
201608162100 AAXX 16214 67665 42980 6//// 10176 20125 48587 86030
                   333 58018 86360=
201608160900 AAXX 16094 67665 41570 10920 10233 20149 48599 70500
                   333 58019 81625=
201608151500 AAXX 15154 67665 42959 11911 10266 20159 48550 70500 81030
                   333 58012 81360=
201608151200 AAXX 15124 67665 41659 11810 10267 20159 48556 70500 81100
                   333 58014 81840=
201608150600 AAXX 15064 67665 31959 01305 10165 20112 48571 70500
                   333 10278 20//0 58017
                   555 00///=
201608150000 AAXX 15004 67665 42980 0//// 10132 20080 48542
                   333 58013=
201608142100 AAXX 14214 67665 42980 0//// 10144 20099 48548
                   333 58007=
201608141200 AAXX 14124 67665 41780 11504 10269 20164 48544 70300 81100
                   333 58002 81856=
201608140600 AAXX 14064 67665 32980 01304 10155 20111 48554
                   333 59004=
201608131500 AAXX 13154 67665 42980 00705 10250 20148 48529
                   333 59013=
201608130900 AAXX 13094 67665 42980 10810 10208 20132 48564 70300 80001
                   333 59007 81080=
201608130600 AAXX 13064 67665 42980 01007 10144 20088 48555 70200
                   333 59010=
201608122100 AAXX 12214 67665 42980 0//// 10129 20060 48546 70200
                   333 59018=
201608121800 AAXX 12184 67665 42980 0//// 10161 20088 48542
                   333 59022=
201608120900 AAXX 12094 67665 42980 00913 10216 20124 48574
                   333 59017=
201608120600 AAXX 12064 67665 32980 00910 10146 20068 48566 70200
                   333 10263 20//0 59017=
201608120300 AAXX 12034 67665 42980 0//// 10110 20081 48544 70200
                   333 59023=
201608120000 AAXX 12004 67665 42980 0//// 10123 20090 48548 70200
                   333 59020=
201608112100 AAXX 11214 67665 42980 0//// 10136 20093 48564 70200
                   333 59013=
201608111500 AAXX 11154 67665 42980 10810 10240 20150 48563 70100 81300
                   333 59020 81360=
201608110600 AAXX 11064 67665 32980 11006 10132 20095 48575 70200 80030
                   333 10244 20//0 59002 81360=
201608101800 AAXX 10184 67665 42980 3//// 20105 48578 70122 83030
                   333 10244 58003 83360=
201608101200 AAXX 10124 67665 42580 70507 10195 20145 48581 70222 875//
                   333 58005 87625=
201608100900 AAXX 10094 67665 42480 80817 10181 20144 48597 70222 885//
                   333 58008 88613=
201608100600 AAXX 10064 67665 32380 71916 10163 20138 48585 876//
                   333 58001 87708=
201608100300 AAXX 10034 67665 42970 6//// 10157 20115 48578 86030
                   333 58009 86360=
201608092100 AAXX 09214 67665 42970 7//// 10163 20100 48583 8703/
                   333 58001 87360=
201608091800 AAXX 09184 67665 42970 7//// 10177 20096 48573 70322 8703/
                   333 58003 87360=
201608090900 AAXX 09094 67665 41680 40913 10238 20136 48598 70500 84500
                   333 58002 84630=
201608081800 AAXX 08184 67665 42980 4//// 10182 20103 48577 84030
                   333 58005 84360=
201608081200 AAXX 08124 67665 42980 61107 10233 20126 48570 86030
                   333 58003 86360=
201608080600 AAXX 08064 67665 32960 01004 10155 20090 48581
                   333 59007=
201608080000 AAXX 08004 67665 42960 0//// 10106 20055 48567
                   333 58003=
201608070900 AAXX 07094 67665 42980 00811 10203 20128 48600
                   333 59007=
201608070600 AAXX 07064 67665 32980 01202 10124 20086 48582
                   333 59007=
201608070300 AAXX 07034 67665 41965 0//// 10060 20039 48564 70500
                   333 59001=
201608070000 AAXX 07004 67665 41960 0//// 10074 20051 48558 70500
                   333 59007=
201608062100 AAXX 06214 67665 41960 0//// 10107 20075 48574 70500
                   333 59006=
201608061800 AAXX 06184 67665 42960 0//// 10145 20079 48575
                   333 59003=
201608061500 AAXX 06154 67665 41959 01009 10230 20141 48575 70500
                   333 58002=
201608061200 AAXX 06124 67665 41959 00713 10242 20146 48585 70500
                   333 58000=
201608060600 AAXX 06064 67665 31970 01109 10136 20088 48592 70500
                   333 10260 20//0 58016=
201608060300 AAXX 06034 67665 41959 0//// 10107 20084 48571 70500
                   333 58016=
201608060000 AAXX 06004 67665 41959 0//// 10116 20085 48572 70500
                   333 58018=
201608052100 AAXX 05214 67665 41959 0//// 10129 20071 48583 70500
                   333 58024=
201608051800 AAXX 05184 67665 41959 0//// 10151 20086 48578 70500
                   333 58023=
201608051500 AAXX 05154 67665 42959 00807 10234 20106 48570 70500
                   333 58025=
201608051200 AAXX 05124 67665 41959 00914 10245 20110 48587 70500
                   333 58033=
201608050900 AAXX 05094 67665 41959 00715 10219 20128 48602 70500
                   333 58033=
201608050600 AAXX 05064 67665 32980 00810 10162 20098 48579 70500
                   333 10286 58030=
201608050300 AAXX 05034 67665 42980 0//// 10126 20080 48558 70200
                   333 58028=
201608042100 AAXX 04214 67665 42980 0//// 10163 20100 48564 70200
                   333 58020=
201608041500 AAXX 04154 67665 41965 01409 10256 20122 48553 70500
                   333 58021=
201608041200 AAXX 04124 67665 41965 01207 10278 20128 48558 70500
                   333 58013=
201608031800 AAXX 03184 67665 42980 0//// 10169 20096 48542 70200
                   333 10284 59008=
201608031500 AAXX 03154 67665 42980 01105 10255 20149 48532 70200
                   333 59013=
201608031200 AAXX 03124 67665 42980 02403 10261 20151 48536 70200
                   333 59008=
201608030600 AAXX 03064 67665 31960 01008 10146 20088 48552 70500
                   333 10308 20//0 58001=
201608030000 AAXX 03004 67665 41959 0//// 10097 20056 48536 70500
                   333 58003=
201608022100 AAXX 02214 67665 41959 0//// 10133 20085 48543 70500
                   333 59007=
201608020900 AAXX 02094 67665 41965 01311 10268 20198 48572 70500
                   333 59008=
201608020000 AAXX 02004 67665 41980 0//// 10157 20091 48547 70200
                   333 59006=
201608012100 AAXX 01214 67665 42980 0//// 10117 20074 48553 70200
                   333 59001 91023=
201608010600 AAXX 01064 67665 31959 01004 10156 20083 48561 70500
                   333 10299 20//0 58008=

################################################################################
#  SYNOPS from 67855, Lupaki (Zambia) | 17-03-00S | 024-46-00E | 1000 m
################################################################################
201608310600 AAXX 31064 67855 31970 01003 10182 20030 3//// 48/// 70500
                   333 20120 5////=
201608301800 AAXX 30184 67855 NIL=
201608301200 AAXX 30124 67855 41970 01303 10308 20044 3//// 48/// 70500
                   333 5////=
201608300600 AAXX 30064 67855 31970 00902 10170 20015 3//// 48/// 70500
                   333 20082 5////=
201608291800 AAXX 29184 67855 NIL=
201608291200 AAXX 29124 67855 41970 01103 10294 20005 3//// 48/// 70500
                   333 5////=
201608290600 AAXX 29064 67855 31970 00702 10146 20045 3//// 48/// 70500
                   333 20084 5////=
201608281800 AAXX 28184 67855 NIL=
201608281200 AAXX 28124 67855 41970 00302 10292 21003 3//// 48/// 70500
                   333 5////=
201608280600 AAXX 28064 67855 31970 00902 10138 20059 3//// 48/// 70500
                   333 20074 5////=
201608271800 AAXX 27184 67855 NIL=
201608271200 AAXX 27124 67855 41970 01303 10296 21009 3//// 48/// 70500
                   333 5////=
201608270600 AAXX 27064 67855 31970 00603 10154 20048 3//// 48/// 70500
                   333 20104 5////=
201608261800 AAXX 26184 67855 NIL=
201608261200 AAXX 26124 67855 41970 00704 10298 20028 3//// 48/// 70500
                   333 5////=
201608260600 AAXX 26064 67855 31970 02001 10112 20009 3//// 48/// 70500
                   333 5////=
201608251800 AAXX 25184 67855 NIL=
201608251200 AAXX 25124 67855 41970 00605 10288 20026 3//// 48/// 70500
                   333 5////=
201608250600 AAXX 25064 67855 31970 01701 10140 20063 3//// 48/// 70500
                   333 20073 5////=
201608241800 AAXX 24184 67855 NIL=
201608241200 AAXX 24124 67855 41670 10602 10276 20091 3//// 48/// 70500 81500
                   333 5//// 81640=
201608240600 AAXX 24064 67855 31970 01601 10128 20099 3//// 48/// 70500
                   333 20080 5////=
201608231800 AAXX 23184 67855 NIL=
201608231200 AAXX 23124 67855 41770 10403 10328 20100 3//// 48/// 70500 81100
                   333 5//// 81850=
201608221800 AAXX 22184 67855 NIL=
201608221200 AAXX 22124 67855 41770 10902 10338 20031 3//// 48/// 70500 81500
                   333 5//// 81650=
201608220600 AAXX 22064 67855 31970 00702 10194 20015 3//// 48/// 70500
                   333 20095 5////=
201608211800 AAXX 21184 67855 NIL=
201608211200 AAXX 21124 67855 41770 10303 10322 20045 3//// 48/// 70500 81500
                   333 5//// 81650=
201608210600 AAXX 21064 67855 31970 01901 10140 20026 3//// 48/// 70500
                   333 20085 5////=
201608201800 AAXX 20184 67855 NIL=
201608201200 AAXX 20124 67855 41970 13301 10302 20063 3//// 48/// 70500 80001
                   333 5//// 81080=
201608200600 AAXX 20064 67855 NIL=
201608191800 AAXX 19184 67855 NIL=
201608191200 AAXX 19124 67855 41770 50302 10278 20089 3//// 48/// 70511 85502
                   333 5//// 85650=
201608190600 AAXX 19064 67855 31970 40902 10150 20052 3//// 48/// 70500 80001
                   333 20075 5//// 84080=
201608181800 AAXX 18184 67855 NIL=
201608181200 AAXX 18124 67855 41670 41602 10256 20070 3//// 48/// 70500 84500
                   333 5//// 84640=
201608180600 AAXX 18064 67855 31970 01102 10160 20088 3//// 48/// 70500
                   333 20114 5////=
201608171800 AAXX 17184 67855 NIL=
201608161800 AAXX 16184 67855 NIL=
201608161200 AAXX 16124 67855 41970 50907 10296 20068 3//// 48/// 70511 85500
                   333 5//// 85650=
201608160600 AAXX 16064 67855 31970 00903 10168 20101 3//// 48/// 70500
                   333 20110 5////=
201608151800 AAXX 15184 67855 NIL=
201608151200 AAXX 15124 67855 41970 00303 10308 20043 3//// 48/// 70500
                   333 5////=
201608150600 AAXX 15064 67855 31970 00000 10110 21008 3//// 48/// 70500
                   333 20060 5////=
201608141800 AAXX 14184 67855 NIL=
201608141200 AAXX 14124 67855 41970 03402 10294 20033 3//// 48/// 70500
                   333 5////=
201608140600 AAXX 14064 67855 31970 01901 10120 21003 3//// 48/// 70500
                   333 20055 5////=
201608131800 AAXX 13184 67855 NIL=
201608131200 AAXX 13124 67855 41970 03302 10288 20020 3//// 48/// 70500
                   333 5////=
201608130600 AAXX 13064 67855 31970 00000 10096 21016 3//// 48/// 70500
                   333 20033 5////=
201608121800 AAXX 12184 67855 NIL=
201608121200 AAXX 12124 67855 42975 00202 10278 20013 3//// 48///
                   333 5////=
201608120600 AAXX 12064 67855 31970 01801 10100 21005 3//// 48/// 70500
                   333 20030 5////=
201608111200 AAXX 11124 67855 41970 01802 10278 21003 3//// 48/// 70500
                   333 5////=
201608110600 AAXX 11064 67855 31970 01901 10084 21035 3//// 48/// 70500
                   333 20032 5////=
201608101800 AAXX 10184 67855 NIL=
201608101200 AAXX 10124 67855 41670 00903 10268 20058 3//// 48/// 70500 81500
                   333 5//// 81645=
201608100600 AAXX 10064 67855 31970 11201 10144 20095 3//// 48/// 70500 81030
                   333 20100 5//// 81360=
201608091800 AAXX 09184 67855 NIL=
201608090600 AAXX 09064 67855 32975 70803 10146 20029 3//// 48/// 8707/
                   333 20070 5//// 87360=
201608081800 AAXX 08184 67855 NIL=
201608081200 AAXX 08124 67855 42975 00901 10280 20045 3//// 48///
                   333 5////=
201608080600 AAXX 08064 67855 31970 00000 10078 21010 3//// 48/// 70500
                   333 20025 5////=
201608071800 AAXX 07184 67855 NIL=
201608071200 AAXX 07124 67855 NIL=
201608070600 AAXX 07064 67855 31970 00602 10140 21030 3//// 48/// 70500
                   333 20015 5////=
201608061800 AAXX 06184 67855 NIL=
201608061200 AAXX 06124 67855 41970 00607 10268 20009 3//// 48/// 70500
                   333 5////=
201608060600 AAXX 06064 67855 31970 01702 10124 20020 3//// 48/// 70500
                   333 20038 5////=
201608051200 AAXX 05124 67855 41970 01701 10268 20073 3//// 48/// 70500
                   333 5////=
201608050600 AAXX 05064 67855 31970 00000 10094 20033 3//// 48/// 70500
                   333 20034 5////=
201608041200 AAXX 04124 67855 41970 03003 10264 21020 3//// 48/// 70500
                   333 5////=
201608040600 AAXX 04064 67855 NIL=
201608031800 AAXX 03184 67855 NIL=
201608031200 AAXX 03124 67855 NIL=
201608030600 AAXX 03064 67855 31970 01101 10094 20043 3//// 48/// 70500
                   333 20044 5////=
201608021800 AAXX 02184 67855 NIL=
201608021200 AAXX 02124 67855 NIL=
201608020600 AAXX 02064 67855 31970 01801 10062 20023 38/// 48/// 70500
                   333 20034 5////=
201608011200 AAXX 01124 67855 41970 00303 10304 20089 38/// 48/// 70500
                   333 5////=
201608010600 AAXX 01064 67855 31970 00000 10110 20040 3//// 48/// 70500
                   333 20065 5////=
