################################################################################
# Query made at 04/15/2022 01:51:35 UTC
# Country like Zamb*
# Time interval: from 04/01/2010 05:30  to 05/01/2010 06:30  UTC
################################################################################

################################################################################
#  SYNOPS from 67413, Mbala (Zambia) | 08-51S | 031-20E | 1673 m
################################################################################
201004230600 AAXX 23064 67413 32980 31309 10210 20172 48555 83081
                   333 10280 20155 58018 83359 81080=
201004010600 AAXX 01064 67413 32480 30910 10205 20174 48538 83531
                   333 10275 20155 59003 83620 81360 81080=

################################################################################
#  SYNOPS from 67441, Mwinilunga (Zambia) | 11-45S | 024-26E | 1361 m
################################################################################
201004300600 AAXX 30064 67441 32980 00000 10185 20180 48553
                   333 10285 20/// 59013=
201004290600 AAXX 29064 67441 32480 10000 10175 20167 48566 81101
                   333 10290 20/// 59001 81815 81080=
201004230900 AAXX 23094 67441 42680 40000 10270 20189 48571 84130
                   333 58019 84830 81360=
201004230600 AAXX 23064 67441 11980 20000 10190 20182 48563 60084 72840 81031
                   333 10300 20/// 58020 81360 81080=
201004220900 AAXX 2209/ 67441 42680 70000 10270 20197 48552 82108
                   333 58016 82830 87280=
201004220600 AAXX 22064 67441 12980 70000 10200 20193 48544 69904 83038
                   333 10310 20/// 59006 83360 87280=
201004200900 AAXX 20094 67441 42680 70000 10255 20196 48567 81108
                   333 58004 81830 87080=
201004200600 AAXX 20064 67441 12980 70000 10185 20177 48558 69904 80008
                   333 10295 20/// 58000 87080=
201004160900 AAXX 16094 67441 42682 60000 10280 20165 48565 8113/
                   333 58004 81835 86326=
201004160600 AAXX 16064 67441 32980 70000 10210 20188 48553 87030
                   333 10285 20/// 59005 87360=
201004140600 AAXX 14064 67441 32480 30000 10185 20169 48555 85130
                   333 10275 20/// 59006 85815 81360=
201004130600 AAXX 13064 67441 12480 11204 10195 20172 48561 69904 81130
                   333 10280 20//0 58000 81818 81360=
201004120600 AAXX 12064 67441 12480 71204 10195 20180 48561 60294 8113/
                   333 10290 20/// 58024 81815 87360=
201004090600 AAXX 09064 67441 12980 60000 10292 20181 48565 60024 86030
                   333 10300 20/// 58002 86360=
201004080600 AAXX 08064 67441 11980 70000 10185 20177 48553 60264 72842 8707/
                   333 10290 20//0 58010 87360=
201004070600 AAXX 07064 67441 11960 80000 10180 20172 48544 60314 76166 8802/
                   333 10295 20//0 59005 88460=
201004010600 AAXX 01064 67441 11/01 90000 10190 20185 48555 60324 74544 89///
                   333 10285 20/// 58003=

################################################################################
#  SYNOPS from 67461, Mansa (Zambia) | 11-06S | 028-51E | 1382 m
################################################################################
201004300600 AAXX 30064 67461 32580 70907 10209 20190 48524 875//
                   333 10286 20168 59013 87620=
201004290600 AAXX 29064 67461 32580 30805 10200 20180 48543 83501
                   333 10280 20160 59009 83620 83080=
201004230600 AAXX 23064 67461 32980 60902 10220 20199 48544 83038
                   333 10290 20195 58014 83362 86280=
201004220600 AAXX 22064 67461 12580 71206 10219 20199 48523 60014 84538
                   333 10310 20179 58002 84620 82362 86280=
201004211200 AAXX 21124 67461 42680 30604 10295 20175 48502 83201
                   333 59005 83845 82080=
201004200600 AAXX 20064 67461 12980 61202 10236 20181 48536 60064 81038
                   333 10306 20170 58000 81862 86280=
201004160600 AAXX 16064 67461 32580 60902 10217 20192 48533 85531
                   333 10290 20157 59004 85620 82362 82080=
201004130600 AAXX 13064 67461 32580 60807 10210 20180 48527 70222 85501
                   333 10290 20155 59003 85620 85080=
201004120600 AAXX 12064 67461 32580 30906 10213 20196 48530 82501
                   333 10299 20185 58018 82620 82080=
201004090900 AAXX 09094 67461 42680 31004 10272 20187 48545 83208
                   333 58007 83835 85280=
201004090600 AAXX 09064 67461 32580 50903 10213 20190 48534 82508
                   333 10300 20172 58002 82618 85280=
201004010600 AAXX 01064 67461 12580 61003 10220 20202 48539 60014 83508
                   333 10295 20176 59001 83625 86280=

################################################################################
#  SYNOPS from 67475, Kasama (Zambia) | 10-13S | 031-08E | 1382 m
################################################################################
201004300600 AAXX 30064 67475 12480 71108 10183 20172 48529 60024 875//
                   333 10260 20166=
201004230600 AAXX 23064 67475 32480 60906 10211 20184 48546 83507
                   333 10281 20161 58016 83612 86080=
201004220600 AAXX 22064 67475 32480 30000 10216 20186 48531 81130
                   333 10287 20174 58003 81815 83361=
201004200600 AAXX 20064 67475 12980 30808 10220 20164 48542 60204 83030
                   333 10301 20167 58001 83361=
201004160600 AAXX 16064 67475 31375 41107 10205 20190 48533 72842 83530
                   333 10280 20152 59011 83610 81362=
201004130600 AAXX 13064 67475 32480 51015 10187 20163 48538 85501
                   333 10290 20161 58002 85615 82080=
201004120600 AAXX 12064 67475 32480 31214 10211 20174 48551 81131
                   333 10291 20155 58016 81815 81361 83080=
201004090600 AAXX 09064 67475 32480 60810 10229 20179 48541 82102
                   333 10295 20161 58008 82815 86080=
201004010600 AAXX 01064 67475 12480 61008 10208 20192 48537 69904 84502
                   333 10281 20162 59014 84610 86080=

################################################################################
#  SYNOPS from 67476, Misamfu (Zambia) | 10-06S | 031-15E | 1536 m
################################################################################
201004230600 AAXX 23064 67476 32480 70000 10218 20191 48/// 81132
                   333 10288 20153 58017 81818 82361 85080=
201004140600 AAXX 14064 67476 32380 81102 10190 20176 48/// 886//
                   333 10274 20159 58001 88709=
201004130600 AAXX 13064 67476 32780 51214 10207 20169 48/// 7//// 85000
                   333 10284 20163 58002 85618=

################################################################################
#  SYNOPS from 67477, Mpika (Zambia) | 11-54S | 031-26E | 1400 m
################################################################################
201004300600 AAXX 30064 67477 11380 80904 10195 20175 48555 60014 76025 885//
                   333 10240 20178 59010 88608=
201004290600 AAXX 29064 67477 32480 71409 10194 20172 48543 875//
                   333 10246 20170 59012 87610=
201004230600 AAXX 23064 67477 32480 60606 10211 20184 48546 83507
                   333 10281 20161 58016 83612 86080=
201004220600 AAXX 22064 67477 12480 71004 10205 20184 48533 60024 875//
                   333 10285 20168 58012 87610=
201004200600 AAXX 20064 67477 32980 20902 10240 20187 48532 81031
                   333 10300 20153 59009 81360 83080=
201004160600 AAXX 16064 67477 32480 20805 10206 20174 48534 81131
                   333 10265 20166 59006 81813 81362 81080=
201004130600 AAXX 13064 67477 11250 81410 10170 20164 48542 69904 75152 887//
                   333 10258 20164 58008 88703=
201004120600 AAXX 12064 67477 12480 31208 10213 20175 48536 60014 83130
                   333 10275 20169 58016 83818 81362=
201004090600 AAXX 09064 67477 32480 41206 10220 20174 48544 81131
                   333 10277 20174 58013 81819 81362 83080=
201004010600 AAXX 01064 67477 32480 21206 10216 20175 48538 82130
                   333 10270 20169 59001 82818 81361=

################################################################################
#  SYNOPS from 67531, Zambezi (Zambia) | 13-32S | 023-07E | 1077 m
################################################################################
201004300600 AAXX 30064 67531 32980 11204 10206 20175 48/// 80001
                   333 10301 20147 59011 81082=
201004290600 AAXX 29064 67531 32980 11008 10200 20165 48/// 80001
                   333 10300 20164 58007 81082=
201004230600 AAXX 23064 67531 12980 20000 10228 20187 48/// 60034 81031
                   333 10323 20161 5//// 81363 82082=
201004220600 AAXX 22064 67531 32980 31006 10234 20191 48/// 81032
                   333 10321 20180 59001 81363 83082=
201004200600 AAXX 20064 67531 12980 41402 10216 20200 48/// 69924 84030
                   333 10321 20175 58011 84362=
201004160600 AAXX 16064 67531 32980 11206 10223 20183 48/// 81030
                   333 10300 20150 59011 81362=
201004130900 AAXX 13094 67531 42680 11206 10260 20171 48/// 81100
                   333 5//// 81835=
201004130600 AAXX 13064 67531 12980 01107 10220 20176 48/// 69924
                   333 10245 20161 59006=
201004120600 AAXX 12064 67531 11980 70000 10177 20174 48/// 60554 76166 8707/
                   333 10310 20175 5//// 87460=
201004090600 AAXX 09064 67531 NIL=
201004010600 AAXX 01064 67531 11380 71101 10206 20200 48/// 60214 70362 8167/
                   333 10296 20187 59007 81706 87460=

################################################################################
#  SYNOPS from 67541, Kasempa (Zambia) | 13-32S | 025-51E | 1234 m
################################################################################
201004300600 AAXX 30064 67541 NIL=
201004290600 AAXX 29064 67541 NIL=
201004230600 AAXX 23064 67541 NIL=
201004220600 AAXX 22064 67541 NIL=
201004200600 AAXX 20064 67541 NIL=
201004160600 AAXX 16064 67541 NIL=
201004120600 AAXX 12064 67541 NIL=
201004090600 AAXX 09064 67541 NIL=

################################################################################
#  SYNOPS from 67561, Ndola (Zambia) | 13-00S | 028-39E | 1269 m
################################################################################
201004300600 AAXX 30064 67561 31360 30000 10209 20172 48537 70500 83730
                   333 10286 20155 59012 83706 83361=
201004290600 AAXX 29064 67561 32380 11206 10204 20176 48549 81602
                   333 10282 20154 59008 81709 81080=
201004230600 AAXX 23064 67561 31960 31005 10206 20197 48542 70500 82831
                   333 10289 20156 58014 82360=
201004220600 AAXX 22064 67561 31960 60905 10215 20187 48529 70511 80008
                   333 10307 20168 58000 86080=
201004211200 AAXX 21124 67561 42680 60000 10286 20178 48506 86202
                   333 58005 86845 81080=
201004200600 AAXX 20064 67561 31460 50000 10216 20193 48534 70522 82508
                   333 10310 20174 59002 82618 86280=
201004181200 AAXX 18124 67561 41660 60000 10290 20181 48514 70522 85232
                   333 59006 81930 85830 83360 83080=
201004160900 AAXX 16094 67561 41570 30508 10262 20171 48/// 83200
                   333 59006 83820=
201004160600 AAXX 16064 67561 31960 21002 10199 20177 48536 70500 80001
                   333 10280 20150 59009 82080=
201004150600 AAXX 15064 67561 31970 40000 10176 20156 48550 70500 84030
                   333 10269 20149 58000 84361=
201004140600 AAXX 14064 67561 12480 50604 10184 20154 48550 69904 85532
                   333 10253 20146 58000 85610 81360 82080=
201004130600 AAXX 13064 67561 12480 81009 10184 20162 48541 60094 885//
                   333 10277 20155 58004 88610=
201004120900 AAXX 12094 67561 41560 61010 10255 20176 48546 70522 85200
                   333 58021 85818=
201004120600 AAXX 12064 67561 31360 70905 10210 20179 48540 70522 83638
                   333 10294 20165 58020 83705 83360 85280=
201004090900 AAXX 09094 67561 42580 61011 10266 20177 48536 83138
                   333 58007 83825 81361 86280=
201004090600 AAXX 09064 67561 32980 60707 10214 20184 48538 81038
                   333 10296 20170 58006 81360 86280=
201004080600 AAXX 08064 67561 11360 50000 10226 20186 48529 70522 83131
                   333 10300 20180 58018 83815 85360 83080=
201004070600 AAXX 07064 67561 11975 70303 10205 20192 48517 60174 70522 86038
                   333 10300 20180 59013 86360 85280 91019=
201004061200 AAXX 06124 67561 41570 60000 10290 20183 48498 70522 85208
                   333 59012 81935 85835 85280=
201004010600 AAXX 01064 67561 32980 60000 10211 20182 48534 81038
                   333 10297 20171 59003 81360 86280=

################################################################################
#  SYNOPS from 67571, Serenje (Zambia) | 13-14S | 030-13E | 1384 m
################################################################################
201004070600 AAXX 07064 67571 12984 23602 10197 20172 48512 60034 81031
                   333 10235 20153 59009 81360 81080=
201004010600 AAXX 01064 67571 12484 60904 10209 20183 48532 69904 84508
                   333 10285 20175 59008 84617 85280=

################################################################################
#  SYNOPS from 67580, Msekera (Zambia) | 13-39S | 032-34E | 1025 m
################################################################################
201004271200 AAXX 27124 67580 42682 71205 10254 20184 48/// 878//
                   333 58010 84848 87650=
201004230900 AAXX 23094 67580 42680 40604 10282 20175 48/// 81131
                   333 58019 81845 82363 82080=
201004200600 AAXX 20064 67580 32980 30903 10255 20196 48/// 80001
                   333 10325 20183 59003 83080=
201004161200 AAXX 16124 67580 42780 50902 10290 20190 48/// 85201
                   333 59001 85850 81080=
201004160900 AAXX 16094 67580 42680 50604 10265 20193 48/// 85201
                   333 59003 85830 81080=
201004160600 AAXX 16064 67580 12980 42703 10223 20198 48/// 61204 82031
                   333 10292 20169 59010 82360 84080=
201004140600 AAXX 14064 67580 32580 71506 10194 20159 48/// 86530
                   333 10252 20153 59004 86620 82360=
201004131200 AAXX 13124 67580 42680 71606 10233 20172 48/// 878//
                   333 58000 84840 87645=
201004130900 AAXX 13094 67580 42680 71804 10221 20169 48/// 875//
                   333 58003 87640=
201004130600 AAXX 13064 67580 32580 61603 10213 20163 48/// 86500
                   333 10284 20178 58002 86625=
201004090900 AAXX 09094 67580 42682 60603 10283 20196 48/// 86201
                   333 58002 86848 83080=
201004080600 AAXX 08064 67580 32582 71204 10256 20197 48/// 81108
                   333 10310 20176 58015 81825 86280=
201004070600 AAXX 07064 67580 32580 20000 10244 20182 48/// 81101
                   333 10307 20178 59011 81826 81080=
201004010600 AAXX 01064 67580 12480 61102 10229 20214 48/// 60094 82131
                   333 10289 20182 59003 82817 84360 82080=

################################################################################
#  SYNOPS from 67581, Chipata (Zambia) | 13-33S | 032-35E | 1028 m
################################################################################
201004300600 AAXX 30064 67581 32580 11204 10231 20186 48551 81100
                   333 10292 20191 59011 81820=
201004290600 AAXX 29064 67581 32580 11204 10224 20187 48560 81130
                   333 10295 20182 59011 81828 81361=
201004230600 AAXX 23064 67581 32680 60906 10241 20178 48560 81130
                   333 10296 20191 58012 81830 85360=
201004220600 AAXX 22064 67581 12682 31605 10239 20196 48547 60094 81180
                   333 10320 20208 58013 81830 83360=
201004200600 AAXX 20064 67581 32582 10802 10260 20202 48550 81102
                   333 10346 20220 59003 81825 81080=
201004160600 AAXX 16064 67581 12582 20806 10251 20189 48551 69954 81132
                   333 10305 20185 59009 81825 81360 81080=
201004130600 AAXX 13064 67581 12680 31204 10215 20171 48558 69904 70322 83100
                   333 10300 20184 58002 83830=
201004120600 AAXX 12064 67581 32680 31409 10229 20182 48558 82130
                   333 10321 20189 58024 82830 82360=
201004090600 AAXX 09064 67581 32680 30403 10258 20196 48558 82130
                   333 10315 20189 58009 82830 82360=

################################################################################
#  SYNOPS from 67583, Lundazi (Zambia) | 12-17S | 033-12E | 1143 m
################################################################################
201004140600 AAXX 14064 67583 31475 71603 10190 20173 48/// 78082 83579
                   333 10285 20175 5//// 83617 87360=
201004091200 AAXX 09124 67583 42680 41804 10305 20185 48/// 84201
                   333 5//// 84840 81080=
201004090900 AAXX 09094 67583 42680 30901 10282 20177 48/// 81231
                   333 5//// 81832 82360 81080=
201004070600 AAXX 07064 67583 32580 20901 10224 20187 48/// 81532
                   333 10312 20156 5//// 81828 81360 81080=
201004010600 AAXX 01064 67583 32580 31203 10240 20190 48/// 82531
                   333 10310 20176 5//// 82620 81360 81080=

################################################################################
#  SYNOPS from 67599, Mfuwe (Zambia) | 13-16S | 031-56E | 568 m
################################################################################
201004301500 AAXX 30154 67599 42680 31804 10293 20194 48548 83231
                   333 59002 83850 82360 82080=
201004300900 AAXX 30094 67599 42580 71104 10280 20201 48572 872//
                   333 59012 87832 91020=
201004291500 AAXX 29154 67599 41580 62803 10300 20223 48549 71622 81930
                   333 59020 81922 81922 86830 82360=
201004291200 AAXX 29124 67599 42580 51504 10316 20223 48561 71622 819//
                   333 59013 81925 85830=
201004230900 AAXX 23094 67599 42580 40000 10307 20232 48590 70322 83201
                   333 58022 83830=
201004230600 AAXX 23064 67599 31980 60000 10236 20221 48562 60054 86030
                   333 10342 20207 58016 86360=
201004221200 AAXX 22124 67599 42680 51706 10325 20220 48542 85200
                   333 58009 85830=
201004220600 AAXX 22064 67599 12480 71506 10257 20224 48527 69904 70322 8117/
                   333 10351 20211 58004 81815 87460
                   555 00/// 200001 91019=
201004200600 AAXX 20064 67599 32980 30000 10260 20217 48554 83001
                   333 10262 20216 59004 83080=
201004161200 AAXX 16124 67599 42680 32705 10320 20222 48555 83300
                   333 59001 83830=
201004150600 AAXX 15064 67599 32980 10000 10229 20191 48564 81030
                   333 10316 20189 59006 81360=
201004140600 AAXX 14064 67599 32480 71803 10215 20191 48563 81130
                   333 10294 20175 58003 81815 87360=
201004131200 AAXX 13124 67599 42580 71805 10280 20207 48556 872//
                   333 59001 87825=
201004120900 AAXX 12094 67599 42680 50000 10289 20217 48584 84230
                   333 58033 84840 83360=
201004110600 AAXX 11064 67599 32980 20000 10245 20209 48541 82030
                   333 10360 20212 59013 82360=
201004091200 AAXX 09124 67599 41780 60000 10318 20238 48549 84232
                   333 58007 81950 84850 83360 82080=
201004090900 AAXX 09094 67599 42680 50000 10310 20234 48575 85130
                   333 58001 85845 81360=
201004090600 AAXX 09064 67599 12980 40000 10240 20217 48563 69904 82031
                   333 10359 20191 58016 82360 84080=
201004070600 AAXX 07064 67599 12980 20000 10250 20221 48540 69904 70122 82030
                   333 10355 20205 59012 82360 91018=
201004061200 AAXX 06124 67599 41780 50000 10320 20231 48544 71622 81930
                   333 59010 81950 82360=
201004051200 AAXX 05124 67599 42580 31004 10300 20238 48547 81900
                   333 58008 81920 83825=
201004050600 AAXX 05064 67599 32470 20000 10264 20219 48557 81130
                   333 10350 20210 58004 81818 82360=
201004040900 AAXX 04094 67599 42580 32205 10300 20231 48538 83100
                   333 59005 83820=
201004040600 AAXX 04064 67599 32480 10000 10240 20211 48546
                   333 10350 20200 59002 81810=
201004010600 AAXX 01064 67599 12980 71805 10230 20219 48554 60074 8707/
                   333 10332 20/// 58000 87459=

################################################################################
#  SYNOPS from 67633, Mongu (Zambia) | 15-15S | 023-09E | 1052 m
################################################################################
201004301200 AAXX 30124 67633 42782 40903 10302 20142 48540 84200
                   333 59004 84850=
201004300900 AAXX 30094 67633 42782 11260 10282 20155 48555 81100
                   333 59009 81850 91021=
201004300600 AAXX 30064 67633 32982 00904 10195 20163 48533 70300
                   333 10318 20150 59014=
201004291200 AAXX 29124 67633 42782 10906 10307 20186 48544 81101
                   333 59003 81850 81080=
201004271200 AAXX 27124 67633 42782 33303 10285 20181 48535 83200
                   333 58009 83850=
201004230900 AAXX 23094 67633 42582 50000 10267 20209 48547 82232
                   333 58020 82825 84361 83080=
201004230600 AAXX 23064 67633 12982 60000 10231 20211 48534 60194 86080
                   333 10330 20188 58016 86360=
201004220600 AAXX 22064 67633 32982 20904 10240 20188 48520 82030
                   333 10315 20194 59005 82361=
201004211200 AAXX 21124 67633 42682 22703 10295 20207 48515 82200
                   333 59004 82840=
201004200900 AAXX 20094 67633 42982 60000 10274 20200 48543 86030
                   333 58004 86261=
201004200600 AAXX 20064 67633 12982 70000 10213 20192 48529 69904 8703/
                   333 10310 20182 58013 87360=
201004160900 AAXX 16094 67633 42782 50906 10289 20177 48553 82130
                   333 58001 82850 87436 91021=
201004160600 AAXX 16064 67633 32982 50904 10221 20164 48523 85030
                   333 10305 20170 59013 85361=
201004140600 AAXX 14064 67633 32982 10904 10211 20169 48538 80002
                   333 10305 20158 59008 81080=
201004130600 AAXX 13064 67633 32982 10904 10215 20186 48545 81030
                   333 10280 20175 59012 81361=
201004120600 AAXX 12064 67633 11480 70303 10295 20179 48554 60554 76062 8357/
                   333 10323 20180 58043 83618 87461=
201004091200 AAXX 09124 67633 42682 60903 10285 20198 48531 84238
                   333 58012 81940 83840 83361 86280=
201004090900 AAXX 09094 67633 42582 70602 10260 20185 48554 82138
                   333 58020 82825 85361 86280=
201004090600 AAXX 09064 67633 11982 70000 10215 20199 48543 69944 72166 8707/
                   333 10310 20200 58021 87461=
201004070600 AAXX 07064 67633 32982 70904 10225 20211 48514 8707/
                   333 10317 20190 59009 87460 91017=
201004061200 AAXX 06124 67633 42680 50000 10309 20207 48503 84202
                   333 59018 81935 82835 83080=
201004010600 AAXX 01064 67633 12982 70000 10210 20202 48533 60124 84028
                   333 10300 20202 58010 84460 87280=

################################################################################
#  SYNOPS from 67641, Kaoma (Zambia) | 14-48S | 024-48E | 1213 m
################################################################################
201004300600 AAXX 30064 67641 NIL=
201004290600 AAXX 29064 67641 32682 10801 10196 20171 48536 81500
                   333 10275 20166 59010 81630=
201004230600 AAXX 23064 67641 32980 40402 10214 20187 48533 81032
                   333 10322 20176 58017 81360 83080=
201004220600 AAXX 22064 67641 32682 31201 10227 20198 48518 83500
                   333 10314 20180 59004 83630=
201004200600 AAXX 20064 67641 32982 71701 10210 20191 48526 87030
                   333 10327 20180 58007 87360=
201004160600 AAXX 16064 67641 NIL=
201004120600 AAXX 12064 67641 NIL=
201004090600 AAXX 09064 67641 12982 70902 10205 20190 48534 60144 87030
                   333 10307 20190 58017 87360=
201004010600 AAXX 01064 67641 31920 70000 10201 20199 48521 71022 84032
                   333 10311 20195 58003 84460 83080=

################################################################################
#  SYNOPS from 67663, Kabwe (Zambia) | 14-27S | 028-28E | 1206 m
################################################################################
201004300600 AAXX 30064 67663 NIL=
201004290600 AAXX 29064 67663 31480 50405 10188 20172 48556 85600
                   333 10265 20150 59003 85615=
201004230600 AAXX 23064 67663 31380 80905 10195 20189 48538 72842 85532
                   333 10289 20170 58019 82708 85617 81360 82080=
201004220600 AAXX 22064 67663 32380 71006 10203 20186 48522 876//
                   333 10287 20175 59001 87709=
201004200600 AAXX 20064 67663 32480 53601 10222 20195 48526 82582
                   333 10314 20193 58000 82618 84360 83080=
201004160600 AAXX 16064 67663 32480 20703 10205 20179 48532 81502
                   333 10283 20161 59007 81618 81080=
201004120600 AAXX 12064 67663 32480 60909 10201 20181 48543 86532
                   333 10292 20179 58032 86618 81360 82080=
201004090600 AAXX 09064 67663 12980 50902 10220 20192 48536 69904 80008
                   333 10290 20174 58003 85280=
201004010600 AAXX 01064 67663 32480 50902 10216 20200 48534 83532
                   333 10292 20184 59002 83616 82360 83080=

################################################################################
#  SYNOPS from 67665, Lusaka Internationalairport (Zambia) | 15-19S | 028-27E | 1152 m
################################################################################
201005010600 AAXX 01064 67665 32380 31006 10183 20158 48559 81631
                   333 10265 20149 58003 81707 81360 82080=
201004301500 AAXX 30154 67665 42680 30307 10230 20158 48548 83101
                   333 58006 83845 81080=
201004301200 AAXX 30124 67665 42680 50509 10255 20164 48556 85531
                   333 58701 85632 81359 81080=
201004300900 AAXX 30094 67665 42380 60711 10234 20197 48568 70322 86800
                   333 59006 85815 91024=
201004300600 AAXX 30064 67665 32280 50607 10191 20191 48557 70300 85600
                   333 10282 20150 59010 85706=
201004300400 AAXX 30044 67665 42238 20904 10161 20161 48541 82630
                   333 82702 81360=
201004300000 AAXX 30004 67665 42980 01403 10157 20157 48532
                   333 59016=
201004291800 AAXX 29184 67665 42980 01103 10190 20190 48536
                   333 10282 59024=
201004291500 AAXX 29154 67665 42680 31209 10256 20182 48546 83100
                   333 59013 83845=
201004291200 AAXX 29124 67665 42580 50707 10260 20168 48555 85200
                   333 59010 85835=
201004290900 AAXX 29094 67665 42580 40609 10239 20178 48576 84200
                   333 59010 84825=
201004290600 AAXX 29064 67665 32370 50605 10180 20165 48565 85600
                   333 10259 20151 59010 85708=
201004290400 AAXX 29044 67665 41960 11004 10155 20155 48550 71000 81030
                   333 59010 81360=
201004290300 AAXX 29034 67665 42980 01003 10155 20155 48547
                   333 59010=
201004281800 AAXX 28184 67665 42980 11105 10175 20175 48558 81030
                   333 10259 59005 81360=
201004280900 AAXX 28094 67665 42480 70609 10232 20164 48584 70222 86800
                   333 59005 84825 82618=
201004280600 AAXX 28064 67665 32380 70707 10175 20165 48575 70322 875//
                   333 10230 20144 58004 87609
                   555 00144=
201004271500 AAXX 27154 67665 42680 80906 10210 20161 48561 888//
                   333 58013 81845 87650=
201004271200 AAXX 27124 67665 42680 80706 10223 20164 48563 888//
                   333 58012 83830 86632=
201004270900 AAXX 27094 67665 42580 70308 10210 20163 48516 70222 875//
                   333 58004 87620=
201004270600 AAXX 27064 67665 32380 80605 10174 20158 48570 70322 8457/
                   333 10240 20165 58006 84608 87360 555=
201004261800 AAXX 26184 67665 42780 80706 10181 20181 48560 885//
                   333 10240 58000 88550=
201004261500 AAXX 26154 67665 42780 80306 10206 20154 48549 885//
                   333 59005 88550=
201004261200 AAXX 26124 67665 42680 70607 10225 20159 48553 8757/
                   333 59004 87635=
201004260600 AAXX 26064 67665 32480 70811 10188 20146 48565 875//
                   333 10272 20159 59004 87612=
201004251200 AAXX 25124 67665 42680 50307 10246 20160 48558 85200
                   333 59004 85835=
201004250900 AAXX 25094 67665 42480 80612 10214 20214 48570 70222 876//
                   333 59004 87820 91024=
201004250600 AAXX 25064 67665 32380 80809 10183 20183 48569 70222 86630
                   333 10280 20194 58003 86709 87360
                   555 00206 91025=
201004240400 AAXX 24044 67665 42280 20904 10177 20177 48552 70300 82530
                   333 58012 82603 81360=
201004240300 AAXX 24034 67665 42980 10903 10170 20170 48547 70200 81030
                   333 58013 81360=
201004240000 AAXX 24004 67665 42980 11103 10182 20182 48547 81030
                   333 58007 81360=
201004232100 AAXX 23214 67665 42980 10902 10185 20185 48554 81030
                   333 58010 81360=
201004231200 AAXX 23124 67665 42680 50607 10275 20160 48549 85131
                   333 58019 85840 81360 81080=
201004230900 AAXX 23094 67665 42580 50510 10264 20184 48570 85101
                   333 58019 85825 81080=
201004230600 AAXX 23064 67665 32380 30804 10194 20193 48554 83531
                   333 10290 20155 58014 83608 81360 81080=
201004230400 AAXX 23044 67665 41905 11203 10160 20160 48538 74644 80001
                   333 58011 81080=
201004222100 AAXX 22214 67665 42980 11402 10186 20186 48544 81030
                   333 58017 81360=
201004221800 AAXX 22184 67665 42980 11003 10201 20201 48536 81030
                   333 10290 58014 81360=
201004221500 AAXX 22154 67665 42780 10307 10270 20177 48522 81101
                   333 58002 81850 81080=
201004221200 AAXX 22124 67665 42580 40408 10274 20182 48528 84100
                   333 58004 84838=
201004220900 AAXX 22094 67665 42480 70309 10231 20188 48547 70222 875//
                   333 58002 87615=
201004220600 AAXX 22064 67665 32370 70906 10190 20183 48541 8357/
                   333 10290 20170 58000 83606 87360=
201004211500 AAXX 21154 67665 67665 42780 20805 10275 20186 48520 82200
                   333 59012 82850=
201004211200 AAXX 21124 67665 42680 20506 10284 20190 48526 82101
                   333 59009 82835 81080=
201004210600 AAXX 21064 67665 32380 60705 10180 20173 48539 81602
                   333 10296 20160 58003 81706 85080
                   555 00170=
201004201200 AAXX 20124 67665 42680 71409 10222 20186 48527 8223/
                   333 58008 81933 81835 87460=
201004200900 AAXX 20094 67665 41580 73009 10283 20193 48544 71322 81932
                   333 59005 81920 86825 82360 84080=
201004200600 AAXX 20064 67665 32980 50000 10225 20198 48543 82082
                   333 10307 20195 59004 82360 84080=
201004191800 AAXX 19184 67665 42980 31603 10235 20235 48530 83030
                   333 10307 58000 83360=
201004191500 AAXX 19154 67665 41780 40304 10279 20195 48516 71522 83232
                   333 59008 83856 81360 82080=
201004190600 AAXX 19064 67665 32980 51301 10234 20174 48547 85030
                   333 10301 20170 58000 85360=
201004181200 AAXX 18124 67665 41680 51313 10266 20216 48530 71522 85200
                   333 59005 85835=
201004180400 AAXX 18044 67665 42980 41203 10181 20181 48530 83031
                   333 59008 83360 81080=
201004180300 AAXX 18034 67665 42980 21203 10175 20175 48524 82030
                   333 58012 82360=
201004180000 AAXX 18004 67665 42980 21302 10185 20185 48526 82030
                   333 59010 82360=
201004172100 AAXX 17214 67665 42980 31003 10198 20198 48528 81032
                   333 81360 83080=
201004171800 AAXX 17184 67665 42880 31203 10212 20212 48528 81932
                   333 10298 5//// 819// 81360 83080=
201004171200 AAXX 17124 67665 42680 60604 10268 20186 48535 86200
                   333 58000 86845=
201004170900 AAXX 17094 67665 42580 50407 10267 20192 48560 85130
                   333 58000 85828 81360
                   555 91022=
201004170600 AAXX 17064 67665 32980 40806 10221 20194 48552 84030
                   333 10299 20164 58000 84360
                   555 00170 91022=
201004170400 AAXX 17044 67665 42980 21203 10172 20172 48533 82080
                   333 59001 82360=
201004170300 AAXX 17034 67665 42980 21202 10179 20179 48531 82030
                   333 59010 92360=
201004162100 AAXX 16214 67665 42980 11102 10181 20181 48536 81030
                   333 58001 81360=
201004161800 AAXX 16184 67665 42980 11503 10201 20188 48531 80001
                   333 10299 59001 81080=
201004161500 AAXX 16154 67665 41680 41407 10242 20173 48521 71522
                   333 59007 81945 83850 82080=
201004161200 AAXX 16124 67665 42680 50504 10277 20178 48537 85200
                   333 59008 85835=
201004160900 AAXX 16094 67665 42580 60607 10250 20174 48557 70322 86200
                   333 59007 86820=
201004160600 AAXX 16064 67665 32980 41204 10195 20173 48550 84030
                   333 10276 20155 58002 84360=
201004151500 AAXX 15154 67665 42780 30803 10245 20170 48529 83130
                   333 59017 83856 81360=
201004151200 AAXX 15124 67665 42680 50506 10265 20191 48542 85100
                   333 59007 85840=
201004150900 AAXX 15094 67665 42580 50909 10226 20189 48560 85800
                   333 59006 82825 83627=
201004150600 AAXX 15064 67665 32480 10904 10170 20154 48552 81500
                   333 10253 20120 59003 81615=
201004141200 AAXX 14124 67665 42680 61108 10238 20151 48545 86800
                   333 59008 81835 86638=
201004140900 AAXX 14094 67665 42580 60710 10220 20169 48566 86500
                   333 59005 86625=
201004140600 AAXX 14064 67665 32480 20808 10179 20156 48557 82530
                   333 10240 20140 58000 82612 81360=
201004131500 AAXX 13154 67665 42680 50908 10223 20161 48545 85130
                   333 59008 85850 81359=
201004131200 AAXX 13124 67665 42580 70808 10223 20159 48551 871//
                   333 59007 87840=
201004130900 AAXX 13094 67665 42580 70712 10224 20217 48571 70222 87500
                   333 59004 87625=
201004130600 AAXX 13064 67665 32480 70710 10187 20187 48558 70222 87500
                   333 10264 20155 59003 87615=
201004121500 AAXX 12154 67665 42680 61106 10234 20189 48554 71522 8193/
                   333 58046 819// 85850 83360 91022=
201004120900 AAXX 12094 67665 42480 60512 10240 20173 48578 86100
                   333 58034 86820=
201004120600 AAXX 12064 67665 32380 40909 10200 20179 48562 83532
                   333 10295 20169 58029 83609 81360 83080=
201004120400 AAXX 12044 67665 42380 80804 10181 20181 48546 70222
                   333 58021 87506 88360=
201004110900 AAXX 11094 67665 42580 50613 10265 20186 48548 85200
                   333 59007 85825 555 91021=
201004110600 AAXX 11064 67665 31480 30806 10208 20202 48536 72844 81730
                   333 10290 20165 59017 81610 82360=
201004110300 AAXX 11034 67665 41901 11401 10174 20174 48512 74400 81030
                   333 59019 81360=
201004102100 AAXX 10214 67665 41780 11203 10193 20193 48528 71300 81930
                   333 59018 81950 81360=
201004101800 AAXX 10184 67665 41780 61303 10209 20209 48523 71322 81932
                   333 59019 81950 82360 85080=
201004101500 AAXX 10154 67665 42780 60806 10264 20214 48511 70222 81131
                   333 59016 81850 81360 85080=
201004101200 AAXX 10124 67665 42680 60907 10275 20241 48528 70222 85231
                   333 59016 85840 81360 81080=
201004100900 AAXX 10094 67665 42580 60607 10248 20213 48553 85232
                   333 59010 85825 81360 84080=
201004100600 AAXX 10064 67665 12480 61204 10209 20194 48552 69904 81532
                   333 10291 20175 59002 81610 83360 85080=
201004091800 AAXX 09184 67665 42980 11203 10218 20218 48541 80001
                   333 10291 58006 81080=
201004091500 AAXX 09154 67665 42780 40604 10252 20171 48523 84202
                   333 58004 84850 82080=
201004091200 AAXX 09124 67665 42680 50306 10281 20194 48544 85202
                   333 58008 85845 82080=
201004090900 AAXX 09094 67665 42680 50808 10253 20203 48562 85202
                   333 58008 85830 81080=
201004090600 AAXX 09064 67665 32480 60904 10200 20179 48553 81102
                   333 10291 20175 58005 81815 86080=
201004081200 AAXX 08124 67665 42680 50508 10268 20192 48533 84230
                   333 58030 84837 82361=
201004080600 AAXX 08064 67665 32480 61807 10211 20194 48549 82232
                   333 10289 20185 58016 82815 84360 82080=
201004071200 AAXX 07124 67665 42580 60807 10284 20195 48508 85201
                   333 59014 85837 83080=
201004070900 AAXX 07094 67665 42480 63508 10258 20258 48536 70222 86100
                   333 59008 86825 91020=
201004070600 AAXX 07064 67665 32980 30305 10234 20234 48528 70300 81631
                   333 10295 20180 59015 81708 82360 83080 91019=
201004070400 AAXX 07044 67665 42980 21303 10183 20183 48512 82031
                   333 59015 81360 81080=
201004070300 AAXX 07034 67665 42980 11207 10187 48507 81030
                   333 59020 81359=
201004062100 AAXX 06214 67665 42980 01102 10199 20199 48521
                   333 59013=
201004061800 AAXX 06184 67665 41780 11103 10212 20212 48511 71322 81931
                   333 10295 59010 81956 81360 81080=
201004061200 AAXX 06124 67665 42680 50508 10271 20208 48520 85200
                   333 59011 85830=
201004060900 AAXX 06094 67665 42480 60308 10260 20260 48554 70322 86100
                   333 59004 86820=
201004060600 AAXX 06064 67665 32380 60404 10219 20219 48542 70322 81132
                   333 10287 20175 59003 81809 83360 85080
                   555 00178=
201004060400 AAXX 06044 67665 42980 61002 10179 20179 48526 74122 83032
                   333 59003 83360 86080=
201004060300 AAXX 06034 67665 42980 30401 10183 20183 48525 70200 83031
                   333 59004 83360 81080=
201004060000 AAXX 06004 67665 42980 11202 10187 20187 48530 70200 81030
                   333 58003 81360=
201004052100 AAXX 05214 67665 42980 11003 10194 20194 48539 81030
                   333 58012 81360=
201004051800 AAXX 05184 67665 42980 01103 10210 20199 48521
                   333 10287 58007=
201004051200 AAXX 05124 67665 41680 60208 10285 20201 48533 71582 86201
                   333 58007 86835 81080=
201004050900 AAXX 05094 67665 42580 60410 10250 20198 48547 86200
                   333 58006 86828 91021=
201004050600 AAXX 05064 67665 12580 30807 10225 20198 48546 81131
                   333 10292 20175 58006 81820 81360 82080=
201004050300 AAXX 05034 67665 42980 51003 10191 20191 48530 85030
                   333 58009 85360=
201004042100 AAXX 04214 67665 42980 11202 10186 20186 48534 81030
                   333 58008 81360=
201004041800 AAXX 04184 67665 42780 61204 10212 20212 48514 70222 81932
                   333 10292 59004 81950 82360 85080=
201004041500 AAXX 04154 67665 42180 60707 10247 20239 48519 78022 82202
                   333 58000 81945 82850 85080=
201004041200 AAXX 04124 67665 42680 70510 10278 20228 48525 70222 82202
                   333 58000 82840 85080=
201004040900 AAXX 04094 67665 42680 60809 10257 20229 48542 84832
                   333 59008 83830 81632 81360 83080=
201004040600 AAXX 04064 67665 12480 40905 10205 20190 48536 69904 81132
                   333 10289 20170 59003 81810 81360 83080=
201004031800 AAXX 03184 67665 42780 11003 10191 20191 48516 81930
                   333 10289 59003 81950 81360=
201004031500 AAXX 03154 67665 41660 61204 10202 20175 48513 72582 82232
                   333 58000 81945 81845 82360 85080=
201004031200 AAXX 03124 67665 41660 63506 10226 20212 48522 71722 85202
                   333 59007 81930 85830 82080=
201004030900 AAXX 03094 67665 42580 60508 10253 20198 48549 70122 85802
                   333 59006 83820 82622 82080=
201004030600 AAXX 03064 67665 12380 30907 10212 20195 48540 69904 70300 83501
                   333 10288 20175 59006 83610 82080
                   555 00176 91021=
201004021800 AAXX 02184 67665 42980 01303 10209 20209 48521
                   333 10288 59011=
201004021500 AAXX 02154 67665 41658 50207 10255 20183 48519 72522 85201
                   333 59002 85840 81080=
201004021200 AAXX 02124 67665 42575 60507 10272 20189 48533 86200
                   333 59001 86830=
201004011200 AAXX 01124 67665 42580 60808 10186 20200 48537 86201
                   333 59004 86835 81080=
201004010900 AAXX 01094 67665 42580 60409 10256 20198 48559 86101
                   333 59003 86820 81080=
201004010600 AAXX 01064 67665 11356 60605 10211 20204 48547 69904 74444 85632
                   333 10289 20182 59003 86708 81360 81080=

################################################################################
#  SYNOPS from 67666, Lusaka City Airport (Zambia) | 15-25S | 028-19E | 1280 m
################################################################################
201004300900 AAXX 30094 67666 42580 60910 10245 20166 48562 86800
                   333 58004 86620 84828 91023=
201004291200 AAXX 29124 67666 42680 41007 10264 20168 48546 84100
                   333 59007 84838=
201004271200 AAXX 27124 67666 42680 70906 10210 20174 48553 878//
                   333 58012 84630 86835=
201004230600 AAXX 23064 67666 32482 20908 10203 20183 48580 81101
                   333 10270 20168 58015 81815 81079=
201004220900 AAXX 2209/ 67666 42580 70910 10224 20180 48536 875//
                   333 58001 87624 91020=
201004220600 AAXX 22064 67666 31478 70192 10190 20182 48532 70500 875//
                   333 10280 20170 58000 87614=
201004211200 AAXX 21124 67666 42680 30903 10274 20182 48519 83101
                   333 58005 83840 81080=
201004200600 AAXX 20064 67666 31980 30000 10235 20198 48536 70500 83032
                   333 10294 20175 59004 83362 83080=
201004161200 AAXX 16124 67666 42680 61204 10270 20172 48527 86201
                   333 59007 86845 81080=
201004160900 AAXX 16094 67666 42680 41007 10242 20177 48532 84200
                   333 59008 84830 91021=
201004160600 AAXX 16064 67666 32980 50904 10193 20163 48541 85030
                   333 10261 20160 58006 85359=
201004140600 AAXX 14064 67666 32480 30915 10180 20148 48548 83500
                   333 10283 20145 59001 83614=
201004131200 AAXX 13124 67666 42580 70908 10220 20176 48543 87200
                   333 59006 87829=
201004130900 AAXX 13094 67666 42580 70911 10210 20162 48561 87800
                   333 59006 86625 83828 91023=
201004130600 AAXX 13064 67666 32482 71002 10185 20167 48549 70322 87500
                   333 10254 20160 59006 87618=
201004091200 AAXX 09124 67666 42680 50907 10275 20194 48534 85201
                   333 58006 85840 81080=
201004090900 AAXX 09094 67666 42580 50911 10257 20194 48553 84201
                   333 58008 84825 82080=
201004080600 AAXX 08064 67666 32480 32005 10210 20188 48541 81132
                   333 10285 20175 58021 81820 82360 83080=
201004070600 AAXX 07064 67666 32480 31208 10223 20197 48522 81501
                   333 10284 20175 59012 81618 82079 91019=
201004061200 AAXX 06124 67666 42680 50910 10266 20186 48511 84202
                   333 59012 84835 82080=
201004010600 AAXX 01064 67666 31478 70913 10215 20200 48542 70500 875//
                   333 10275 20185 59002 87612=

################################################################################
#  SYNOPS from 67667, Mount Makulu (Zambia) | 15-33S | 028-15E | 1213 m
################################################################################
201004220600 AAXX 22064 67667 32580 80905 10205 20174 885//
                   333 10280 20152 88625=
201004070600 AAXX 07064 67667 32680 40906 10241 20194 48/// 82102
                   333 10290 20182 5//// 82830 83080=
201004010600 AAXX 01064 67667 12680 60907 10217 20191 48/// 60084 83502
                   333 10280 20189 5//// 83630 86080=

################################################################################
#  SYNOPS from 67673, Petauke (Zambia) | 14-15S | 031-17E | 1035 m
################################################################################
201004230900 AAXX 23094 67673 42680 50303 10278 20193 48579 84130
                   333 58016 84830 85360=
201004220900 AAXX 2209/ 67673 42680 60904 10274 20195 48563 86500
                   333 58013 86630=
201004160900 AAXX 16094 67673 42680 63602 10274 20187 48568 85200
                   333 59005 85830=
201004130900 AAXX 13094 67673 42580 61505 10210 20165 48574 86530
                   333 59006 86625 82360=
201004091200 AAXX 09124 67673 42680 60201 10294 20177 48550 86201
                   333 58005 86840 83080=

################################################################################
#  SYNOPS from 67741, Sesheke (Zambia) | 17-28S | 024-18E | 949 m
################################################################################
201004230600 AAXX 23064 67741 32980 70905 10220 20198 48547 85072
                   333 10310 20196 58017 85361 84080=
201004220900 AAXX 2209/ 67741 42680 20804 10285 20198 48545 81132
                   333 59001 81830 81360 81080=
201004220600 AAXX 22064 67741 32980 20903 10220 20194 48529 82030
                   333 10309 20186 59008 82360=
201004140600 AAXX 14064 67741 32980 10904 10205 20190 48552 81030
                   333 10286 20175 59010 81360=
201004130600 AAXX 13064 67741 32580 40000 10208 20196 48562 82530
                   333 10288 20180 58012 82626 83360=
201004080600 AAXX 08064 67741 11980 70901 10205 20201 48536 60114 72162 8707/
                   333 10298 20190 58024 87461=
201004070600 AAXX 07064 67741 32980 50903 10228 20211 48519 83082
                   333 10325 20192 59012 83361 84080=
201004010600 AAXX 01064 67741 32980 70000 10211 20196 48540 8707/
                   333 10313 20203 5//// 87460=

################################################################################
#  SYNOPS from 67743, Livingstone (Zambia) | 17-49S | 025-49E | 985 m
################################################################################
201004301500 AAXX 30154 67743 42780 31007 10282 20159 48547 83100
                   333 59003 83856=
201004301200 AAXX 30124 67743 42780 41502 10286 20166 48553 84200
                   333 59007 84850=
201004300900 AAXX 30094 67743 42680 11502 10263 20165 48568 70300 81100
                   333 59012 81830 555 91022=
201004300600 AAXX 30064 67743 32980 01203 10201 20174 48557 70200
                   333 10290 20/// 59002=
201004291200 AAXX 29124 67743 42680 50508 10286 20187 48561 83202
                   333 58001 83830 82080=
201004290600 AAXX 29064 67743 32980 00803 10195 20162 48561
                   333 10283 20///=
201004271200 AAXX 27124 67743 42680 61008 10260 20165 48558 83130
                   333 58019 84840 82360=
201004230600 AAXX 23064 67743 12380 80000 10200 20200 48546 60194 82770
                   333 10324 20/// 58012 82709 87460=
201004221500 AAXX 22154 67743 42780 50607 10282 20198 48512 83160
                   333 59004 83856 82360=
201004221200 AAXX 22124 67743 42680 40304 10295 20186 48521 84100
                   333 59006 84845=
201004220600 AAXX 22064 67743 32980 10906 10190 20190 48533 74744 81030
                   333 10302 20/// 59003 81360=
201004211200 AAXX 21124 67743 42680 42704 10291 20187 48525 84100
                   333 59003 84840=
201004200600 AAXX 20064 67743 32980 60905 10202 20184 48540 87030
                   333 10330 20/// 58006 87364=
201004191500 AAXX 19154 67743 41780 81710 10240 20179 48513 70297 8326/
                   333 58014 81950 82850 87360=
201004181200 AAXX 18124 67743 42780 34005 10316 20161 48525 84100
                   333 59012 84850=
201004161200 AAXX 16124 67743 42680 50903 10300 20154 48541 85200
                   333 59002 85848=
201004160600 AAXX 16064 67743 32980 21206 10195 20155 48540 82030
                   333 10294 20/// 59009 82360=
201004151500 AAXX 15154 67743 42780 30805 10284 20134 48523 83401
                   333 59016 83656 82080=
201004151200 AAXX 15124 67743 42780 30905 10290 20140 48539 83100
                   333 59009 83850=
201004150600 AAXX 15064 67743 32980 00705 10192 20157 48554
                   333 10290 20//0 59013=
201004140900 AAXX 14094 67743 42680 30909 10245 20160 48566 83100
                   333 59010 83845=
201004140600 AAXX 14064 67743 32480 60903 10184 20146 48557 86500
                   333 10298 20/// 59003 86615=
201004131500 AAXX 13154 67743 42780 20806 10274 20164 48540 82100
                   333 59014 82850=
201004131200 AAXX 13124 67743 42680 40906 10270 20169 48539 84100
                   333 59016 84840=
201004130600 AAXX 13064 67743 32480 40911 10203 20177 48563 70200 82130
                   333 10290 20//0 59003 82818 82364 91023=
201004120900 AAXX 12094 67743 42580 71111 10253 20181 48587 85130
                   333 58036 85828 82360=
201004120600 AAXX 12064 67743 32480 61110 10195 20177 48566 84502
                   333 10300 20/// 58037 84618 82080=
201004110600 AAXX 11064 67743 12980 61407 10205 20197 48531 69904 86030
                   333 10302 20/// 59017 86360=
201004091500 AAXX 09154 67743 42680 42705 10242 20204 48524 71522 82332
                   333 58010 81940 82845 82360 82080=
201004091200 AAXX 09124 67743 42270 82403 10262 20152 48549 8327/
                   333 58019 83605 82815 86460=
201004090900 AAXX 09094 67743 41456 82401 10193 20191 48560 78066 82371
                   333 58022 83612 82915 86360=
201004090600 AAXX 09064 67743 11440 91507 10194 20186 48558 60424 79366 8237/
                   333 10300 20/// 58022 82910 84615 86560=
201004070600 AAXX 07064 67743 11450 71005 10198 20186 48519 69964 79599 8387/
                   333 10320 20//0 59008 81920 82615 82820 87459
                   91018=
201004061200 AAXX 06124 67743 42680 60805 10310 20194 48511 85201
                   333 59014 85845 84080=
201004051200 AAXX 05124 67743 42780 53608 10317 20162 48531 83101
                   333 58004 83856 85080=
201004031200 AAXX 03124 67743 42680 71006 10300 20184 48523 85230
                   333 59006 85848 82360=
201004021500 AAXX 02154 67743 42780 80906 10282 20182 48517 83202
                   333 59016 83856 85080=
201004010600 AAXX 01064 67743 32480 71703 10220 20196 48543 85842
                   333 10329 20/// 58003 82612 83815 84460 83080=

################################################################################
#  SYNOPS from 67753, Choma (Zambia) | 16-50S | 027-04E | 1213 m
################################################################################
201004300600 AAXX 30064 67753 NIL=
201004290600 AAXX 29064 67753 32480 10904 10177 20167 48/// 81500
                   333 10249 20131 5//// 81610=
201004230600 AAXX 23064 67753 32980 23605 10202 20194 48/// 80002
                   333 10283 20160 5//// 82080=
201004220600 AAXX 22064 67753 32380 33605 10198 20187 48/// 87500
                   333 10282 20164 87609=
201004200600 AAXX 20064 67753 NIL=
201004160600 AAXX 16064 67753 32980 20907 10206 20173 48/// 82030
                   333 10267 20135 5//// 82360=
201004120600 AAXX 12064 67753 32380 71008 10187 20169 48/// 875//
                   333 10270 20171 5//// 87609=
201004090600 AAXX 09064 67753 12980 70906 10209 20202 48/// 60024 80008
                   333 10278 20178 5//// 87280=

################################################################################
#  SYNOPS from 67855, Lupaki (Zambia) | 17-03-00S | 024-46-00E | 1000 m
################################################################################
201005010600 AAXX 01064 67855 NIL=
201004301200 AAXX 30124 67855 42680 41801 10280 20135 38/// 48/// 84100
                   333 5//// 84830=
201004300600 AAXX 30064 67855 31970 21501 10164 20148 38/// 48/// 70511 82060
                   333 20130 5//// 82360=
201004291200 AAXX 29124 67855 42680 51502 10300 20174 3//// 48/// 85100
                   333 5//// 85835=
201004290600 AAXX 29064 67855 32970 01501 10178 20166 3//// 48/// 70511
                   333 20145 5////=
201004281200 AAXX 28124 67855 42980 60401 10280 20170 3//// 84041
                   333 5//// 84359=
201004280600 AAXX 28064 67855 31970 40901 10194 20164 3//// 48/// 70511 84030
                   333 20134 5//// 84359=
201004271200 AAXX 27124 67855 42980 70302 10232 20159 3//// 48/// 85041
                   333 5//// 85358=
201004270600 AAXX 27064 67855 31370 50903 10182 20158 3//// 48/// 70522 84601
                   333 20150 5//// 84707=
201004261200 AAXX 26124 67855 42680 50605 10264 20150 3//// 48/// 85130
                   333 5//// 85835 83359=
201004260600 AAXX 26064 67855 11970 70804 10184 20141 3//// 48/// 69904 8707/
                   333 20164 5//// 87458=
201004251200 AAXX 25124 67855 42980 80701 10236 20163 3//// 48/// 8803/
                   333 5//// 88358=
201004250600 AAXX 25064 67855 NIL=
201004241200 AAXX 24124 67855 42680 61803 10284 20186 3//// 48/// 86100
                   333 5//// 86830=
201004240600 AAXX 24064 67855 NIL=
201004231200 AAXX 23124 67855 NIL=
201004230600 AAXX 23064 67855 31950 61201 10190 20181 3//// 48/// 70511 86040
                   333 20150 5//// 86358=
201004220600 AAXX 22064 67855 31960 40904 10182 20176 3//// 48/// 70500 84040
                   333 20150 5//// 84358=
201004210600 AAXX 21064 67855 NIL=
201004201200 AAXX 20124 67855 41680 63602 10264 20175 3//// 48/// 72162 81130
                   333 5//// 81835 86359=
201004200600 AAXX 20064 67855 11375 61802 10198 20165 3//// 48/// 60044 72162 82670
                   333 20190 5//// 82707 86459=
201004191200 AAXX 19124 67855 NIL=
201004190600 AAXX 19064 67855 31970 30601 10192 20184 3//// 48/// 70511 83030
                   333 20148 5//// 83359=
201004181200 AAXX 18124 67855 NIL=
201004180600 AAXX 18064 67855 31970 00000 10174 20168 3//// 48/// 70500
                   333 20140 5////=
201004171200 AAXX 17124 67855 42680 63601 10294 20186 3//// 48/// 86200
                   333 5//// 86835=
201004170600 AAXX 17064 67855 31970 40000 10168 20146 3//// 48/// 70511 84041
                   333 20134 5//// 84358=
201004161200 AAXX 16124 67855 42680 50301 10300 20128 3//// 48/// 85100
                   333 5//// 85835=
201004160600 AAXX 16064 67855 32975 20301 10176 20154 3//// 48/// 82031
                   333 20130 5//// 82358=
201004151200 AAXX 15124 67855 42680 50301 10296 20143 3//// 48/// 85100
                   333 5//// 85845=
201004150600 AAXX 15064 67855 31970 01801 10148 20138 3//// 48///
                   333 20115 5////=
201004141200 AAXX 14124 67855 42680 51501 10256 20158 3//// 48/// 85100
                   333 5//// 85835=
201004140600 AAXX 14064 67855 32970 11302 10148 20130 3//// 48/// 70511 81030
                   333 20106 5//// 81359=
201004131200 AAXX 13124 67855 42680 42002 10272 20144 3//// 48/// 84100
                   333 5//// 84840=
201004130600 AAXX 13064 67855 31970 00000 10158 20153 3//// 48/// 70500
                   333 20130 5////=
201004121200 AAXX 12124 67855 42680 70901 10274 20187 3//// 48/// 85102
                   333 5//// 85835 87080=
201004120600 AAXX 12064 67855 NIL=
201004110600 AAXX 11064 67855 12375 51203 10200 20188 3//// 48/// 69904 82631
                   333 20170 5//// 82707 83358=
201004101200 AAXX 10124 67855 NIL=
201004100600 AAXX 10064 67855 NIL=
201004091200 AAXX 09124 67855 NIL=
201004090600 AAXX 09064 67855 NIL=
201004081200 AAXX 08124 67855 42680 71201 10286 20213 3//// 48/// 84232
                   333 5//// 84840 86080=
201004080600 AAXX 08064 67855 NIL=
201004071200 AAXX 07124 67855 42680 73603 10306 20198 3//// 48/// 85202
                   333 5//// 85835 87080=
201004070600 AAXX 07064 67855 NIL=
201004061200 AAXX 06124 67855 NIL=
201004060600 AAXX 06064 67855 NIL=
201004051800 AAXX 05184 67855 NIL=
201004051200 AAXX 05124 67855 NIL=
201004041800 AAXX 04184 67855 NIL=
201004041200 AAXX 04124 67855 NIL=
201004040600 AAXX 04064 67855 NIL=
201004031200 AAXX 03124 67855 NIL=
201004030600 AAXX 03064 67855 12980 71102 10216 20199 3//// 48/// 69944 82081
                   333 20189 5//// 82359 87080=
201004020600 AAXX 02064 67855 12380 40701 10202 20199 3//// 48/// 60094 82632
                   333 20189 5//// 82707 83080=
201004011200 AAXX 01124 67855 42680 73502 10296 20198 3//// 48/// 85202
                   333 5//// 85840 87080=
201004010600 AAXX 01064 67855 12380 70903 10234 20199 3//// 48/// 69904 81682
                   333 20195 5//// 81707 83360 86080=
