################################################################################
# Query made at 04/14/2022 03:02:21 UTC
# Country like Zamb*
# Time interval: from 06/01/2017 05:30  to 07/01/2017 06:30  UTC
################################################################################

################################################################################
#  SYNOPS from 67403, Kawambwa (Zambia) | 09-48S | 029-05E | 1323 m
################################################################################
201706300600 AAXX 30064 67403 32980 01403 10164 20109 48554
                   333 10290 20130 58011
                   555 00070=
201706290600 AAXX 29064 67403 31975 00903 10154 20102 48541 70500
                   333 10296 20128 58002
                   555 00064=
201706270600 AAXX 27064 67403 31975 01203 10138 20107 48545 70500
                   333 10274 20100 58001
                   555 00050=
201706210600 AAXX 21064 67403 32980 31403 10152 20087 48538 83031
                   333 10264 20116 59003 83360 81080
                   555 00068=
201706200600 AAXX 20064 67403 31975 01203 10159 20121 48541 70500
                   333 10272 20130 59001
                   555 00080=
201706190600 AAXX 19064 67403 32980 11203 10158 20122 48542 80001
                   333 10280 20138 58013 81080
                   555 00094=
201706160600 AAXX 16064 67403 32980 10901 10152 20112 48532 80001
                   333 10282 20126 59001 81080
                   555 00074=
201706150600 AAXX 15064 67403 32980 10902 10182 20123 48536 80001
                   333 10298 20142 58001 81080
                   555 00092=
201706140600 AAXX 14064 67403 32980 10902 10183 20137 48535 80001
                   333 10296 20136 58004 81080
                   555 00092=
201706130600 AAXX 13064 67403 31975 20903 10181 20128 48531 70500 80001
                   333 10280 20138 59001 82080
                   555 00090=
201706121200 AAXX 12124 67403 NIL=
201706120600 AAXX 12064 67403 31975 11202 10161 20116 48530 70500 80001
                   333 10282 20130 59001 81080
                   555 00085=
201706081200 AAXX 08124 67403 NIL=
201706080600 AAXX 08064 67403 32980 00902 10160 20126 48528
                   333 10282 20112 5////
                   555 00078=
201706071200 AAXX 07124 67403 NIL=
201706070600 AAXX 07064 67403 32980 11602 10155 20077 48544 80001
                   333 10268 20106 59005 81080
                   555 00068=
201706060600 AAXX 06064 67403 32980 01205 10152 20103 48548
                   333 10276 20120 58003
                   555 00078=
201706050600 AAXX 05064 67403 32980 10903 10167 20123 48547 81030
                   333 10296 20130 58004 81360
                   555 00092=

################################################################################
#  SYNOPS from 67413, Mbala (Zambia) | 08-51S | 031-20E | 1673 m
################################################################################
201706300600 AAXX 30064 67413 NIL=
201706270600 AAXX 27064 67413 32480 61012 10135 20109 48562 86500
                   333 10265 20110 59012 86612
                   555 00/// 91026=
201706160600 AAXX 16064 67413 32980 11008 10190 20112 48551 80001
                   333 10268 20130 59004 81080
                   555 00/// 91025=
201706140600 AAXX 14064 67413 32980 01003 10190 20122 48549
                   333 10265 20120 59005
                   555 00/// 91025=
201706130600 AAXX 13064 67413 32480 30910 10165 20140 48555 83500
                   333 10260 20119 58002 83615
                   555 00119 91026=
201706121200 AAXX 12124 67413 NIL=
201706090600 AAXX 09064 67413 32980 01005 10170 20127 48559
                   333 10270 20136 58014
                   555 00/// 91026=
201706081200 AAXX 08124 67413 NIL=
201706080600 AAXX 08064 67413 32980 01017 10170 20127 48545
                   333 10250 20120 59014
                   555 00/// 91025=
201706071200 AAXX 07124 67413 NIL=
201706070600 AAXX 07064 67413 32480 11204 10160 20129 48560 81100
                   333 10260 20110 59005 81818
                   555 00/// 91026=
201706060600 AAXX 06064 67413 31978 01012 10165 20122 48564 70500
                   333 10265 20110 58001
                   555 00/// 91027=
201706050900 AAXX 05094 67413 42580 11004 10230 20122 48562 81100
                   333 59002 81828 91027=
201706050600 AAXX 05064 67413 32980 01208 10160 20126 48564
                   333 10270 20118 58000
                   555 00/// 91026=
201706020600 AAXX 02064 67413 32480 11008 10170 20145 48577 81100
                   333 10255 20130 58004 81815
                   555 00/// 91028=

################################################################################
#  SYNOPS from 67441, Mwinilunga (Zambia) | 11-45S | 024-26E | 1361 m
################################################################################
201706300600 AAXX 30064 67441 NIL=
201706121200 AAXX 12124 67441 NIL=
201706081200 AAXX 08124 67441 NIL=
201706071200 AAXX 07124 67441 NIL=

################################################################################
#  SYNOPS from 67461, Mansa (Zambia) | 11-06S | 028-51E | 1382 m
################################################################################
201706300600 AAXX 30064 67461 32980 01006 10157 20115 48565
                   333 10268 20100 58013
                   555 00079 91024=
201706290900 AAXX 29094 67461 42980 01204 10220 20120 48559
                   333 58012 91023=
201706290600 AAXX 29064 67461 32980 01204 10140 20106 48552
                   333 10258 20085 58000
                   555 00125 91023=
201706270600 AAXX 27064 67461 32980 01003 10130 20112 48551
                   333 10255 20092 58001
                   555 00125 91023=
201706210600 AAXX 21064 67461 32980 00903 10148 20086 48546 80001
                   333 10252 20089 59006 81080
                   555 00083 91023=
201706200600 AAXX 20064 67461 32980 00803 10146 20112 48551
                   333 10250 20107 58012
                   555 00090 91023=
201706190600 AAXX 19064 67461 32980 01011 10150 20125 48541
                   333 10258 20115 58011
                   555 00102 91021=
201706160600 AAXX 16064 67461 32980 71002 10165 20131 48531 87030
                   333 10274 20095 58000 87360
                   555 00135 91020=
201706150600 AAXX 15064 67461 32980 01503 10172 20145 48535
                   333 10272 20109 5////
                   555 00110 91020=
201706130600 AAXX 13064 67461 32980 70803 10163 20135 48544 80008
                   333 10258 20111 58006 87280
                   555 00127 91022=
201706121200 AAXX 12124 67461 NIL=
201706120600 AAXX 12064 67461 32980 21403 10144 20108 48536 80001
                   333 10267 20100 59004 82080
                   555 00092 91021=
201706081200 AAXX 08124 67461 NIL=
201706080600 AAXX 08064 67461 32980 11303 10148 20116 48529 80001
                   333 10250 20098 59012 81080
                   555 00100 91020=
201706071200 AAXX 07124 67461 NIL=
201706070600 AAXX 07064 67461 32480 11506 10150 20115 48542 81100
                   333 10258 20118 59010 81818
                   555 00099 91021=
201706060600 AAXX 06064 67461 32980 01003 10135 20106 48549
                   333 10280 20140 58000
                   555 00090 91024=
201706050600 AAXX 05064 67461 32980 01506 10172 20132 48553
                   333 10268 20115 58002
                   555 00125 91023=
201706020600 AAXX 02064 67461 32980 01303 10176 20146 48566
                   333 10254 20127 59003
                   555 00125 91024=
201706010600 AAXX 01064 67461 32480 61204 10154 20139 48566 85501
                   333 10214 20115 58000 85614 83080
                   555 00120 91025=

################################################################################
#  SYNOPS from 67475, Kasama (Zambia) | 10-13S | 031-08E | 1382 m
################################################################################
201706300600 AAXX 30064 67475 31960 00807 10173 20114 48569 70500
                   333 10271 20096 58011
                   555 00/// 91026=
201706290600 AAXX 29064 67475 32980 00104 10164 20115 48549 70200
                   333 10260 20093 58000
                   555 00/// 91024=
201706270600 AAXX 27064 67475 31960 01408 10150 20082 48557 70500
                   333 10280 20112 59004
                   555 00/// 91024=
201706210600 AAXX 21064 67475 31975 04007 10155 20112 48551 70500
                   333 10250 20085 59004
                   555 00/// 91024=
201706200600 AAXX 20064 67475 31960 09005 10158 20112 48555 70500
                   333 10250 20095 59004
                   555 00/// 91024=
201706190600 AAXX 19064 67475 31960 41407 10165 20112 48559 70500 81031
                   333 10260 20120 58014 58014 81360 83080
                   555 00/// 91025=
201706170600 AAXX 17064 67475 31960 11411 10172 20113 48544 70500 80001
                   333 10172 20115 59002 81080
                   555 00/// 91023=
201706160600 AAXX 16064 67475 31960 00906 10179 20123 48548 70500
                   333 10269 20095 59003
                   555 00///=
201706151200 AAXX 15124 67475 41760 31410 10255 20109 48533 70500 83100
                   333 58004 83856 91021=
201706150600 AAXX 15064 67475 31975 00710 10175 20135 48550 70500
                   333 10270 20097 58002
                   555 00/// 91023=
201706140600 AAXX 14064 67475 31960 50807 10186 20146 48549 70522 82608
                   333 10272 20115 58005 82712 84280
                   555 00/// 91023=
201706121200 AAXX 12124 67475 NIL=
201706110600 AAXX 11064 67475 31960 00803 10160 20117 48549 70500
                   333 10250 20105 5////
                   555 00/// 91024=
201706100600 AAXX 10064 67475 31960 11414 10161 20105 48557 70500 81070
                   333 10264 20131 58004 81360
                   555 00/// 91024=
201706081200 AAXX 08124 67475 NIL=
201706080600 AAXX 08064 67475 31960 00406 10160 20126 48541 70500
                   333 10257 20101 59017
                   555 00/// 91022=
201706071200 AAXX 07124 67475 NIL=
201706070600 AAXX 07064 67475 31960 01207 10155 20109 48558 70500
                   333 10260 20083 59006
                   555 00/// 91024=
201706060600 AAXX 06064 67475 31960 01608 10155 20101 48563 70500
                   333 10260 20110 58005
                   555 00/// 91025=
201706050600 AAXX 05064 67475 31960 00603 10170 20128 48559
                   333 10278 20100 58001
                   555 00/// 91025=
201706020600 AAXX 02064 67475 32980 21107 10180 20134 48573 82030
                   333 10232 20116 58003 82360
                   555 00/// 91026=
201706010600 AAXX 01064 67475 32560 59011 10169 20140 48569 70300 85500
                   333 10240 20119 59002 85620
                   555 00/// 91026=

################################################################################
#  SYNOPS from 67476, Misamfu (Zambia) | 10-06S | 031-15E | 1536 m
################################################################################
201706300600 AAXX 30064 67476 32980 00702 10138 20113 48///
                   333 10258 20075 58009
                   555 00050=
201706270600 AAXX 27064 67476 32980 01303 10143 20109 48///
                   333 10245 20096 59004
                   555 00044=
201706210600 AAXX 21064 67476 32980 01201 10135 20085 48///
                   333 10242 20073 59003
                   555 00071=
201706130600 AAXX 13064 67476 32980 00903 10180 20157 48///
                   333 10268 20057 58004
                   555 00047=
201706121200 AAXX 12124 67476 NIL=
201706081200 AAXX 08124 67476 NIL=
201706080600 AAXX 08064 67476 32980 01201 10149 20127 48///
                   333 10255 20080 5////
                   555 00054=
201706071200 AAXX 07124 67476 NIL=
201706050600 AAXX 05064 67476 32980 01201 10147 20119 48///
                   333 10264 20089 5////
                   555 00059=

################################################################################
#  SYNOPS from 67477, Mpika (Zambia) | 11-54S | 031-26E | 1400 m
################################################################################
201706300600 AAXX 30064 67477 32480 11203 10168 20110 48568 81100
                   333 10253 20106 58001 81810
                   555 00110=
201706290600 AAXX 29064 67477 31478 21202 10158 20090 48567 70500 82500
                   333 10239 20113 58007 82610
                   555 00101=
201706270600 AAXX 27064 67477 31478 ///// 10142 20110 48570 70522 875//
                   333 10221 20102 59004 87610
                   555 00112=
201706200600 AAXX 20064 67477 31478 10905 10152 20100 48568 70500 81101
                   333 10217 20106 59002 81810 81080
                   555 00098=
201706190600 AAXX 19064 67477 31480 31204 10157 20110 48570 70500 82501
                   333 10253 20130 58017 82610 82080
                   555 00122=
201706130600 AAXX 13064 67477 32480 21210 10179 20140 48545 82500
                   333 10235 20118 59009 82611
                   555 00102=
201706121200 AAXX 12124 67477 NIL=
201706090600 AAXX 09064 67477 32980 01203 10172 20120 48565
                   333 10236 20129 58013
                   555 00102=
201706081200 AAXX 08124 67477 NIL=
201706080600 AAXX 08064 67477 32980 01204 10162 20100 48550
                   333 10225 20112 59012
                   555 00099=
201706071200 AAXX 07124 67477 NIL=
201706060600 AAXX 06064 67477 32980 00000 10178 20090 48570
                   333 10231 20096 59001
                   555 00100=
201706050600 AAXX 05064 67477 32480 10902 10163 20130 48570 81100
                   333 10233 20069 58003 81810
                   555 00106=

################################################################################
#  SYNOPS from 67481, Isoka (Zambia) | 10-07S | 032-38E | 1360 m
################################################################################
201706300600 AAXX 30064 67481 31977 03302 10170 20127 48/// 70500
                   333 10254 20108 5////
                   555 00070=
201706290600 AAXX 29064 67481 31977 03302 10172 20126 48/// 70500
                   333 10260 20108 58005
                   555 00060=
201706270600 AAXX 27064 67481 32480 31803 10154 20126 48/// 83500
                   333 10248 20116 59006 83610
                   555 00072=
201706200600 AAXX 20064 67481 32480 13003 10160 20116 48/// 81500
                   333 10250 20108 58000 81610
                   555 00080=
201706190900 AAXX 19094 67481 42980 12003 10214 20114 48/// 81050
                   333 58014 81361=
201706190600 AAXX 19064 67481 32980 02103 10167 20115 48///
                   333 10260 20112 58011
                   555 00079=
201706160600 AAXX 16064 67481 31977 02102 10198 20139 48/// 70500
                   333 10270 20122 59007
                   555 00087=
201706150600 AAXX 15064 67481 32980 00603 10195 20127 48///
                   333 10276 20110 58006
                   555 00090=
201706140600 AAXX 14064 67481 32980 10402 10184 20145 48/// 80001
                   333 10274 20128 58001 81080
                   555 00098=
201706130900 AAXX 13094 67481 42680 51205 10224 20146 48/// 85101
                   333 5//// 85830 81080=
201706121200 AAXX 12124 67481 NIL=
201706120600 AAXX 12064 67481 31977 12702 10184 20130 48/// 70500 80001
                   333 10265 20106 5//// 81080
                   555 00///=
201706090600 AAXX 09064 67481 31977 03006 10178 20133 48/// 70500
                   333 10258 20115 58004
                   555 00100=
201706081200 AAXX 08124 67481 NIL=
201706080600 AAXX 08064 67481 31977 02802 10179 20132 48/// 70500
                   333 10254 20109 59013
                   555 00112=
201706071200 AAXX 07124 67481 NIL=
201706070600 AAXX 07064 67481 31975 03006 10162 20120 48/// 70500
                   333 10252 20106 59009
                   555 00075=
201706060600 AAXX 06064 67481 31975 00406 10165 20116 48/// 70500
                   333 10270 20167 58004
                   555 00090=
201706050600 AAXX 05064 67481 32980 00302 10180 20130 48///
                   333 10264 20120 5////
                   555 00///=
201706020600 AAXX 02064 67481 32980 60302 10164 20141 48/// 86030
                   333 10244 20120 59003 86360
                   555 00090=
201706010600 AAXX 01064 67481 12380 73004 10160 20114 48/// 69944 875//
                   333 10228 20138 58001 87606
                   555 00122=

################################################################################
#  SYNOPS from 67531, Zambezi (Zambia) | 13-32S | 023-07E | 1077 m
################################################################################
201706300600 AAXX 30064 67531 32980 01203 10126 20098 48/// 70200
                   333 10266 20090 5////
                   555 00072=
201706290600 AAXX 29064 67531 32980 00904 10143 20100 48/// 70200
                   333 10259 20079 5////
                   555 00073=
201706200600 AAXX 20064 67531 32980 00906 10136 20101 48///
                   333 10269 20101 5////
                   555 00089=
201706190600 AAXX 19064 67531 32980 11203 10151 20116 48/// 81030
                   333 10281 20096 5//// 81361
                   555 00082=
201706130600 AAXX 13064 67531 32980 11204 10146 20101 48/// 80001
                   333 10269 20091 5//// 81081
                   555 00079=
201706121200 AAXX 12124 67531 NIL=
201706120600 AAXX 12064 67531 32980 00000 10125 20091 48///
                   333 10261 20079 5////
                   555 00060=
201706090600 AAXX 09064 67531 32980 00905 10152 20081 48///
                   333 10270 20088 555 00056=
201706081200 AAXX 08124 67531 NIL=
201706080600 AAXX 08064 67531 32980 00905 10152 20081 48/// 70200
                   333 10278 20080 5////
                   555 00072=
201706071200 AAXX 07124 67531 NIL=
201706070600 AAXX 07064 67531 32980 70606 10154 20093 48/// 70222 8703/
                   333 10316 20113 5//// 87362
                   555 00101=
201706060600 AAXX 06064 67531 32980 00808 10162 20114 48///
                   333 10292 20098 5////
                   555 00092=
201706050600 AAXX 05064 67531 32980 00905 10156 20116 48///
                   333 10293 20105 5////
                   555 00092=
201706020600 AAXX 02064 67531 32980 31104 10181 20140 48/// 83030
                   333 10262 20115 5//// 83360
                   555 00131=

################################################################################
#  SYNOPS from 67541, Kasempa (Zambia) | 13-32S | 025-51E | 1234 m
################################################################################
201706300600 AAXX 30064 67541 32980 00000 10160 20119 48550
                   333 10244 20102 58011
                   555 00///=
201706290600 AAXX 29064 67541 32980 00000 10149 20113 48539
                   333 10250 20066 58000
                   555 00///=
201706210600 AAXX 21064 67541 32980 00000 10110 20081 48524
                   333 10240 20040 59017
                   555 00///=
201706200600 AAXX 20064 67541 32980 10602 10129 20096 48541 80001
                   333 10290 20066 59008 81080
                   555 00///=
201706190600 AAXX 19064 67541 32980 60902 10160 20128 48548 70222 86030
                   333 10246 20120 58013 86360
                   555 00///=
201706160600 AAXX 16064 67541 32980 70702 10145 20136 48535 87030
                   333 10290 20080 58002 87360
                   555 00///=
201706140600 AAXX 14064 67541 32980 30000 10152 20122 48530 70222 80003
                   333 10306 20070 59003 83080
                   555 00///=
201706130600 AAXX 13064 67541 32980 10602 10170 20127 48533 70222 80001
                   333 10248 20080 58000 81080
                   555 00///=
201706121200 AAXX 12124 67541 NIL=
201706120600 AAXX 12064 67541 32980 00000 10144 20113 48533
                   333 10260 20090 58003
                   555 00///=
201706090600 AAXX 09064 67541 32980 00000 10153 20105 48539
                   333 10226 20016 58011
                   555 00///=
201706081200 AAXX 08124 67541 NIL=
201706080600 AAXX 08064 67541 32980 00000 10115 20086 48528
                   333 10250 20040 59016
                   555 00///=
201706071200 AAXX 07124 67541 NIL=
201706070600 AAXX 07064 67541 32980 00000 10133 20100 48544
                   333 10250 20050 58007
                   555 00///=
201706050600 AAXX 05064 67541 32980 00000 10166 20124 48549
                   333 10250 20084 58000
                   555 00///=
201706010600 AAXX 01064 67541 32980 10702 10168 20140 48549 70222 80001
                   333 10254 20102 59002 81080
                   555 00///=

################################################################################
#  SYNOPS from 67543, Kabompo (Zambia) | 13-36S | 024-12E | 1075 m
################################################################################
201706300600 AAXX 30064 67543 31975 00000 10138 20104 48/// 70500
                   333 10278 20112 58008
                   555 00084=
201706290600 AAXX 29064 67543 31975 20000 10122 20097 48/// 70502 80005
                   333 10260 20104 58003 82285
                   555 00075=
201706270600 AAXX 27064 67543 31970 00000 10126 20094 48/// 70500
                   333 10300 20104 58009
                   555 00078=
201706210600 AAXX 21064 67543 31975 00000 10116 20079 48/// 70500
                   333 10278 20078 59009
                   555 00046=
201706190600 AAXX 19064 67543 31975 70000 10142 20117 48/// 70522 8707/
                   333 10286 20114 58013 87362
                   555 00096=
201706140600 AAXX 14064 67543 31975 60000 10152 20121 48/// 70522 80005
                   333 10290 20120 58002 86285
                   555 00086=
201706130600 AAXX 13064 67543 31975 00000 10144 20110 48/// 70500
                   333 10280 20108 59015
                   555 00072=
201706121200 AAXX 12124 67543 NIL=
201706120600 AAXX 12064 67543 31975 30000 10128 20091 48/// 70510 83030
                   333 10278 20102 58001 83362
                   555 00080=
201706081200 AAXX 08124 67543 NIL=
201706080600 AAXX 08064 67543 31978 00000 10116 20079 48/// 70500
                   333 10282 20072 59017
                   555 00050=
201706071200 AAXX 07124 67543 NIL=
201706070600 AAXX 07064 67543 31975 40000 10106 20088 48/// 70522 84030
                   333 10296 20080 59001 84362
                   555 00050=
201706020600 AAXX 02064 67543 31980 40000 10150 20130 48/// 70522 84030
                   333 10280 20130 59006 84362
                   555 00075=
201706010600 AAXX 01064 67543 31975 40000 10138 20125 48/// 70522 83035
                   333 10268 20110 59004 83362 83280
                   555 00070=

################################################################################
#  SYNOPS from 67551, Solwezi (Zambia) | 12-11S | 026-23E | 1386 m
################################################################################
201706300600 AAXX 30064 67551 32956 01506 10124 20098 48573 71010
                   333 10260 20//0 58016
                   555 00120 91025=
201706290600 AAXX 29064 67551 32959 01303 10119 20111 48551 71010
                   333 10270 20//0 59001
                   555 00120 91023=
201706270600 AAXX 27064 67551 32958 01304 10122 20093 48556
                   333 10270 20//0 58003
                   555 00120 91024=
201706190600 AAXX 19064 67551 32970 01506 10138 20114 48558
                   333 10272 20//0 58013
                   555 00148 91024=
201706160600 AAXX 16064 67551 32980 70903 10153 20145 48546 87030
                   333 10288 20//0 59003 87360
                   555 00181 91023=
201706150600 AAXX 15064 67551 32980 00906 10162 20119 48549
                   333 10276 20//0 58004
                   555 00201 91023=
201706130600 AAXX 13064 67551 32975 31503 10126 20108 48542 83030
                   333 10260 20/// 59004 83362
                   555 00140 91022=
201706121200 AAXX 12124 67551 NIL=
201706120600 AAXX 12064 67551 32958 01504 10101 20096 48543
                   333 10254 20//0 58002
                   555 00120 91023=
201706081200 AAXX 08124 67551 NIL=
201706080600 AAXX 08064 67551 32970 00904 10108 20103 48522
                   333 10250 20038 59015
                   555 00120 91022=
201706071200 AAXX 07124 67551 NIL=
201706070600 AAXX 07064 67551 31958 00000 10093 20085 48556 71010
                   333 10262 20022 58000
                   555 00118 91024=
201706060600 AAXX 06064 67551 32980 00000 10134 20089 48550
                   333 10273 20019 58001
                   555 00120 91024=
201706050600 AAXX 05064 67551 32970 01306 10165 20115 48562
                   333 10281 20040 58005
                   555 00150 91024=
201706010600 AAXX 01064 67551 31202 81304 10126 20124 48562 74344 887//
                   333 10246 20053 59006 88704
                   555 00160 91024=

################################################################################
#  SYNOPS from 67561, Ndola (Zambia) | 13-00S | 028-39E | 1269 m
################################################################################
201706300600 AAXX 30064 67561 31965 19902 10170 20129 48574 70500 81030
                   333 10189 20095 58016 81360
                   555 00/// 91026=
201706290600 AAXX 29064 67561 31959 09902 1//// 20084 48558 70400
                   333 10250 2//// 58000
                   555 00/// 91024=
201706210600 AAXX 21064 67561 31960 00603 10134 20078 48552 70500
                   333 10244 20063 59004
                   555 00/// 91024=
201706190600 AAXX 19064 67561 31960 01005 10149 20121 48561 70500
                   333 10260 20113 58013
                   555 00/// 91025=
201706180900 AAXX 18094 67561 41970 01208 10222 20121 48556 70500
                   333 58006 555 91023=
201706180600 AAXX 18064 67561 31970 59902 10157 20121 48550 70522 80008
                   333 10266 20109 58007 85280
                   555 00/// 91023=
201706160600 AAXX 16064 67561 31970 60000 10167 20126 48544 70522 86030
                   333 10275 20141 59008 86360
                   555 00/// 91022=
201706151200 AAXX 15124 67561 41775 61404 10261 20085 48537 70522 86200
                   333 58004 86850 91020=
201706140600 AAXX 14064 67561 31960 30903 10169 20144 48543 70511 80001
                   333 10264 20103 59002 83080
                   555 00/// 91022=
201706121200 AAXX 12124 67561 42780 30406 10256 20101 48537 70300 83100
                   333 58001 83856 555 91020=
201706120900 AAXX 12094 67561 42680 21008 10236 20100 48558 70300 82100
                   333 59002 82843 81080 91023=
201706091200 AAXX 09124 67561 41875 21306 10255 20087 48544 70500 82100
                   333 58013 82857 91021=
201706090600 AAXX 09064 67561 41959 00000 10159 20121 48554 70400
                   333 10252 20093 58008
                   555 00/// 91024=
201706081200 AAXX 08124 67561 NIL=
201706080600 AAXX 08064 67561 31960 11303 10152 20110 48546 70500 81030
                   333 10260 20091 59016 81360
                   555 00/// 91023=
201706071200 AAXX 07124 67561 NIL=
201706070600 AAXX 07064 67561 31960 00000 10170 20109 48563 70500
                   333 10260 20085 59009
                   555 00/// 91027=
201706061200 AAXX 06124 67561 41975 01607 10248 20025 48552 70500
                   333 58007 555 91022=
201706050600 AAXX 05064 67561 31960 00000 10131 20115 48561 72844
                   333 10281 20080 58009
                   555 00/// 91025=
201706010600 AAXX 01064 67561 31960 10000 10146 20123 48569 70400 80001
                   333 10235 20099 59003 81080
                   555 00/// 91025=

################################################################################
#  SYNOPS from 67563, Kafironda (Zambia) | 12-36S | 028-07E | 1243 m
################################################################################
201706300600 AAXX 30064 67563 NIL=
201706140600 AAXX 14064 67563 32980 71002 10140 20132 48/// 70222 80008
                   333 10275 20050 58003 87280
                   555 00050=
201706130600 AAXX 13064 67563 32980 70000 10125 20118 48/// 70222 80008
                   333 10270 20055 59005 87280
                   555 00050=
201706121200 AAXX 12124 67563 NIL=
201706120600 AAXX 12064 67563 32980 00000 10135 20118 48/// 70200
                   333 10275 20045 5////
                   555 00045=
201706081200 AAXX 08124 67563 NIL=
201706071200 AAXX 07124 67563 NIL=
201706010600 AAXX 01064 67563 32980 01002 10150 20140 48/// 70200
                   333 10260 20080 5////
                   555 00080=

################################################################################
#  SYNOPS from 67571, Serenje (Zambia) | 13-14S | 030-13E | 1384 m
################################################################################
201706300600 AAXX 30064 67571 NIL=
201706270900 AAXX 27094 67571 42580 70908 10165 20099 48/// 70522 875//
                   333 5//// 87622=
201706270600 AAXX 27064 67571 32580 71208 10135 20108 48/// 70522 8755/
                   333 10220 20110 5//// 87620
                   555 00160=
201706210600 AAXX 21064 67571 32980 00905 10145 20044 48/// 70500
                   333 10226 20090 5////
                   555 00166=
201706200600 AAXX 20064 67571 32980 01210 10150 20085 48/// 70500
                   333 10225 20113 5////
                   555 00170=
201706190900 AAXX 19094 67571 41680 11506 10191 20107 48/// 70500 81030
                   333 5//// 81630=
201706190600 AAXX 19064 67571 32980 01208 10147 20098 48/// 70500
                   333 10230 20121 5////
                   555 00168=
201706160600 AAXX 16064 67571 32980 71203 10180 20116 48/// 70522 8703/
                   333 10276 20156 5//// 87360
                   555 00194=
201706151200 AAXX 15124 67571 42680 71508 10245 20122 48/// 70522 8226/
                   333 5//// 82847 87359=
201706150600 AAXX 15064 67571 31980 01206 10182 20125 48/// 70500
                   333 10263 20150 5////
                   555 00200=
201706121200 AAXX 12124 67571 NIL=
201706120600 AAXX 12064 67571 32980 11206 10170 20125 48/// 70500 80001
                   333 10249 20124 5//// 81081
                   555 00194=
201706081200 AAXX 08124 67571 42680 51206 10221 20108 48/// 70522 85200
                   333 85835=
201706080600 AAXX 08064 67571 32980 01205 10158 20109 48/// 70500
                   333 10237 20115 5////
                   555 00195=
201706071200 AAXX 07124 67571 42680 20904 10220 20099 48/// 70500 82100
                   333 5//// 82840=
201706070600 AAXX 07064 67571 32980 11503 10140 20104 48/// 70511 81030
                   333 10231 20083 5//// 81360
                   555 00175=
201706060600 AAXX 06064 67571 32980 01203 10121 20081 48/// 70500
                   333 10241 20067 5////
                   555 00160=
201706050600 AAXX 05064 67571 32982 00902 10132 20119 48///
                   333 10253 20070 5////
                   555 00169=
201706020600 AAXX 02064 67571 32982 01208 10172 20121 48///
                   333 10248 20125 5////
                   555 00210=
201706010900 AAXX 01094 67571 42682 11207 10207 20121 48/// 70200 81100
                   333 5//// 81830=
201706010600 AAXX 01064 67571 12982 11210 10167 20120 48/// 69904 70200 80001
                   333 10194 20126 5//// 81081
                   555 00208=

################################################################################
#  SYNOPS from 67575, Mkushi (Zambia) | 13-38-00S | 029-26-00E | 1237 m
################################################################################
201706300600 AAXX 30064 67575 NIL=
201706121200 AAXX 12124 67575 NIL=
201706081200 AAXX 08124 67575 NIL=
201706071200 AAXX 07124 67575 NIL=
201706020600 AAXX 02064 67575 31980 01002 10170 20125 48529 70500
                   333 10260 20110 59005
                   555 00076=

################################################################################
#  SYNOPS from 67580, Msekera (Zambia) | 13-39S | 032-34E | 1025 m
################################################################################
201706300600 AAXX 30064 67580 NIL=
201706290600 AAXX 29064 67580 32480 61503 10159 20146 48/// 81130
                   333 10269 20114 58005 81816 85360
                   555 00///=
201706200600 AAXX 20064 67580 32980 71506 10178 20101 48/// 87030
                   333 10260 20144 59010 87360
                   555 00///=
201706190600 AAXX 19064 67580 32980 30902 10165 20131 48/// 83030
                   333 10276 20125 58017 83360
                   555 00///=
201706160600 AAXX 16064 67580 32980 31205 10214 20146 48/// 83030
                   333 10300 20125 59004 83360
                   555 00///=
201706130600 AAXX 13064 67580 32980 51505 10198 20168 48/// 85030
                   333 10284 20159 59004 85360
                   555 00///=
201706121200 AAXX 12124 67580 NIL=
201706090600 AAXX 09064 67580 32980 51204 10196 20136 48/// 85030
                   333 10276 20139 58011 85360
                   555 00///=
201706081200 AAXX 08124 67580 NIL=
201706080600 AAXX 08064 67580 32980 11204 10176 20141 48/// 81030
                   333 10264 20125 59016 81361
                   555 00///=
201706071200 AAXX 07124 67580 NIL=
201706070900 AAXX 07094 67580 42680 71204 10224 20134 48/// 87130
                   333 59013 87834 81360=
201706070600 AAXX 07064 67580 32980 31502 10175 20136 48/// 83030
                   333 10282 20124 59009 83360
                   555 00///=
201706060600 AAXX 06064 67580 32980 01203 10172 20108 48///
                   333 10287 20095 58009
                   555 00///=
201706050600 AAXX 05064 67580 32980 01204 10178 20121 48///
                   333 10287 20120 59003
                   555 00///=
201706010600 AAXX 01064 67580 32580 12103 10171 20145 48/// 81100
                   333 10229 20123 59004 81820
                   555 00///=

################################################################################
#  SYNOPS from 67581, Chipata (Zambia) | 13-33S | 032-35E | 1028 m
################################################################################
201706300600 AAXX 30064 67581 NIL=
201706290600 AAXX 29064 67581 31660 51802 10186 20132 48575 70522 81130
                   333 10258 20053 58007 81830 85360
                   555 00/// 91024=
201706150600 AAXX 15064 67581 31970 00304 10229 20125 48572 70500
                   333 10254 20134 58008
                   555 00/// 91024=
201706130600 AAXX 13064 67581 31970 60905 10222 20136 48567 70522 86030
                   333 10253 20148 58004 86360
                   555 00///=
201706121200 AAXX 12124 67581 NIL=
201706081200 AAXX 08124 67581 NIL=
201706080600 AAXX 08064 67581 32980 01203 10188 20085 48/// 70200
                   333 10256 20082 5////
                   555 00///=
201706071200 AAXX 07124 67581 NIL=
201706070600 AAXX 07064 67581 31960 31605 10188 20121 48575 70500 83030
                   333 10270 20074 59009 83360
                   555 00/// 91024=
201706050600 AAXX 05064 67581 32980 01405 10202 20109 48581 70200
                   333 10318 20098 58009
                   555 00/// 91024=
201706020600 AAXX 02064 67581 32980 01502 10209 20137 48590
                   333 10264 20064 58000
                   555 00/// 91026=
201706010600 AAXX 01064 67581 32980 01203 10186 20132 48586 70200
                   333 10255 20112 59007
                   555 00/// 91026=

################################################################################
#  SYNOPS from 67583, Lundazi (Zambia) | 12-17S | 033-12E | 1143 m
################################################################################
201706300600 AAXX 30064 67583 31970 00000 10156 20145 48/// 70500
                   333 10258 20106 5////
                   555 00///=
201706290600 AAXX 29064 67583 31675 40000 10156 20143 48/// 70500 84030
                   333 10222 20092 5//// 84360
                   555 00///=
201706200600 AAXX 20064 67583 31975 00902 10160 20116 48/// 70510
                   333 10268 20104 5////
                   555 00///=
201706190600 AAXX 19064 67583 31570 21502 10162 20149 48/// 70500 81530
                   333 10270 20118 5//// 81627 81360
                   555 00///=
201706160600 AAXX 16064 67583 31975 00000 10160 20141 48/// 70500
                   333 10296 20100 5////
                   555 00///=
201706140600 AAXX 14064 67583 31975 10000 10178 20154 70500 80002
                   333 10290 20114 5//// 81080
                   555 00///=
201706130600 AAXX 13064 67583 31970 71203 10184 20162 48/// 70522 81032
                   333 10282 20124 5//// 81360 87280
                   555 00///=
201706121200 AAXX 12124 67583 NIL=
201706120600 AAXX 12064 67583 31970 10000 10154 20122 48/// 70500 80002
                   333 10298 20118 5//// 81080
                   555 00///=
201706090600 AAXX 09064 67583 32975 01501 10176 20132 48///
                   333 10292 20100 5////
                   555 00///=
201706081200 AAXX 08124 67583 NIL=
201706080600 AAXX 08064 67583 32980 00000 10152 20116 48///
                   333 10278 20082 5////
                   555 00///=
201706071200 AAXX 07124 67583 NIL=
201706070600 AAXX 07064 67583 32680 11602 10170 20144 48/// 81100
                   333 10272 20042 5//// 81830
                   555 00///=
201706060600 AAXX 06064 67583 32969 10000 10168 20120 48/// 70500 81030
                   333 10276 20084 5//// 81360
                   555 00///=
201706050600 AAXX 05064 67583 31969 00000 10140 20125 48/// 70500
                   333 10286 20080 5////
                   555 00///=
201706020600 AAXX 02064 67583 31970 00000 10166 20145 70500
                   333 10270 20048 5////
                   555 00///=
201706010600 AAXX 01064 67583 32980 71201 10174 20155 48/// 87030
                   333 10240 20074 5//// 87360
                   555 00///=

################################################################################
#  SYNOPS from 67599, Mfuwe (Zambia) | 13-16S | 031-56E | 568 m
################################################################################
201706300600 AAXX 30064 67599 32980 21803 10196 20149 48/// 82030
                   333 10303 20127 58008 82360
                   555 00107=
201706210600 AAXX 21064 67599 32980 00703 10149 20072 48///
                   333 10287 20078 59004
                   555 00087=
201706200600 AAXX 20064 67599 32980 71805 10195 20109 48570 8703/
                   333 10300 20161 59008 87360
                   555 00161=
201706190600 AAXX 19064 67599 32980 31805 10190 20128 48577 83030
                   333 10310 20155 58017 83360
                   555 00145 91024=
201706140600 AAXX 14064 67599 32980 00000 10200 20160 48532
                   333 10330 20140 58000
                   555 00145 91021=
201706130600 AAXX 13064 67599 32980 40000 10200 20158 48552 83031
                   333 10321 20140 59007 83360 82080
                   555 00120 91021=
201706121200 AAXX 12124 67599 NIL=
201706120600 AAXX 12064 67599 32960 41603 10198 20140 48558 70222 81031
                   333 10310 20108 59008 81360 84080
                   555 00107 91022=
201706081200 AAXX 08124 67599 NIL=
201706080600 AAXX 08064 67599 32980 20000 10180 20138 48547 82030
                   333 10305 20115 59018 82360
                   555 00125 91021=
201706071200 AAXX 07124 67599 NIL=
201706070600 AAXX 07064 67599 32980 00000 10195 20150 48565
                   333 10312 20110 59009
                   555 00125 91023=
201706060600 AAXX 06064 67599 32980 00000 10178 20100 48570
                   333 10315 20090 58005
                   555 00085 91024=
201706050600 AAXX 05064 67599 32980 00000 10165 20131 48559
                   333 10310 20100 58003
                   555 00090 91023=
201706010600 AAXX 01064 67599 32980 40000 10180 20156 48578 84030
                   333 10258 20140 59005 84860
                   555 00125 91025=

################################################################################
#  SYNOPS from 67625, Kalabo (Zambia) | 14-51S | 022-42E | 1033 m
################################################################################
201706300600 AAXX 30064 67625 NIL=
201706290600 AAXX 29064 67625 32982 01204 10135 20098 48///
                   333 10273 20105 59007
                   555 00088=
201706270600 AAXX 27064 67625 32982 00904 10135 20106 48///
                   333 10270 20114 58004
                   555 00098=
201706200600 AAXX 20064 67625 32982 21005 10142 20097 48/// 82030
                   333 10277 20116 58009 82361
                   555 00096=
201706190900 AAXX 19094 67625 42982 00905 10231 20120 48///
                   333 5////=
201706190600 AAXX 19064 67625 32982 00903 10144 20091 48///
                   333 10275 20114 58011
                   555 00094=
201706160600 AAXX 16064 67625 32982 61005 10170 20130 48/// 86030
                   333 10290 20124 58007 86361
                   555 00098=
201706151200 AAXX 15124 67625 42982 10301 10289 20115 48/// 80004
                   333 59011 81075=
201706141200 AAXX 14124 67625 42982 00806 10274 20115 48///
                   333 58011=
201706140900 AAXX 14094 67625 42982 00904 10238 20127 48///
                   333 59001=
201706140600 AAXX 14064 67625 32982 01005 10150 20109 48///
                   333 10262 20105 58003
                   555 00086=
201706121200 AAXX 12124 67625 42982 00902 10239 20100 48///
                   333 5////=
201706120900 AAXX 12094 67625 42982 01210 10220 20085 48///=
201706090600 AAXX 09064 67625 32982 01205 10152 20100 48///
                   333 10284 20115 58020
                   555 00082=
201706081200 AAXX 08124 67625 42982 00906 10276 20087 48///
                   333 59002=
201706080600 AAXX 08064 67625 32982 00802 10155 20113 48///
                   333 10270 20115 59022
                   555 00096=
201706071200 AAXX 07124 67625 42982 10904 10255 20118 48/// 81030
                   333 59008 81361=
201706070900 AAXX 07094 67625 42982 70408 10217 20109 48/// 87030
                   333 59003 87361=
201706060900 AAXX 06094 67625 42982 00606 10244 20140 48///
                   333 58000=
201706060600 AAXX 06064 67625 32982 10906 10164 20132 48/// 81030
                   333 10295 20136 59007 81360
                   555 00124=
201706050600 AAXX 05064 67625 32982 01205 10167 20131 48///
                   333 10289 20144 58014
                   555 00134=
201706010900 AAXX 01094 67625 42682 21010 10225 20130 48/// 81130
                   333 57007 81838 82361=
201706010600 AAXX 01064 67625 32982 51105 10154 20123 48/// 85030
                   333 10265 20125 59005 85361
                   555 00114=

################################################################################
#  SYNOPS from 67633, Mongu (Zambia) | 15-15S | 023-09E | 1052 m
################################################################################
201706300600 AAXX 30064 67633 32980 00905 10144 20101 48559 70200
                   333 10277 20112 58008
                   555 00114 91024=
201706290600 AAXX 29064 67633 32980 00905 10140 20096 48550 70200
                   333 10265 20115 59020
                   555 00118 91024=
201706270600 AAXX 27064 67633 32980 00904 10//0 20131 48537 70200
                   333 10285 20140 59015
                   555 00145=
201706210600 AAXX 21064 67633 32980 40907 10137 20089 48549 84030
                   333 10270 20125 59007 84361
                   555 00138 91023=
201706200600 AAXX 20064 67633 32980 00903 10149 20097 48555
                   333 10275 20120 59002
                   555 00110 91024=
201706190600 AAXX 19064 67633 32980 00903 10151 20107 48559 70200
                   333 10285 20115 58021
                   555 00121 91024=
201706160600 AAXX 16064 67633 32980 70906 10185 20132 48542 70222 83032
                   333 10305 20113 58001 83360 84080
                   555 00152 91022=
201706150900 AAXX 15094 67633 42980 00904 10271 20119 48524 70200
                   333 58028=
201706150600 AAXX 15064 67633 32980 00902 10161 20127 48535
                   333 10//0 20120 58013
                   555 00121=
201706140600 AAXX 14064 67633 32980 00903 10155 20104 48552 70200
                   333 10284 20121 58009
                   555 00122 91023=
201706130600 AAXX 13064 67633 32980 00904 10142 20093 48541 70200
                   333 10268 20106 59014
                   555 00110 91022=
201706121200 AAXX 12124 67633 NIL=
201706120600 AAXX 12064 67633 32980 00906 10140 20091 48553 70200
                   333 10280 20100 59003
                   555 00103 91023=
201706090600 AAXX 09064 67633 32980 00000 10160 20113 48550
                   333 10299 20111 58018
                   555 00120 91023=
201706081200 AAXX 08124 67633 NIL=
201706080600 AAXX 08064 67633 32980 00906 10179 20086 48537 70200
                   333 10286 20128 59017
                   555 00128 91021=
201706071200 AAXX 07124 67633 NIL=
201706070600 AAXX 07064 67633 32980 80901 10171 20120 48551 70222 84032
                   333 10307 20166 58000 83360 85280
                   555 00182 91022=
201706050600 AAXX 05064 67633 32980 00905 10179 20122 48557 70200
                   333 10308 20152 58010
                   555 00156 91023=
201706020600 AAXX 02064 67633 32980 50907 10170 20128 48568 85030
                   333 10267 20162 59008 85360
                   555 00165 91024=
201706010600 AAXX 01064 67633 32980 20904 10162 20121 48563 70200 82030
                   333 10273 20122 58057 82361
                   555 00132 91025=

################################################################################
#  SYNOPS from 67641, Kaoma (Zambia) | 14-48S | 024-48E | 1213 m
################################################################################
201706300600 AAXX 30064 67641 32980 03601 10134 20103 48552
                   333 10265 20070 58010
                   555 00039 91023=
201706290600 AAXX 29064 67641 32980 00402 10146 20109 48544
                   333 10270 20096 58000
                   555 00055 91022=
201706270900 AAXX 27094 67641 42680 40809 10212 20096 48569 84500
                   333 58005 84630 91024=
201706270600 AAXX 27064 67641 32980 03602 10132 20106 48547
                   333 10265 20094 58005
                   555 00062 91023=
201706190600 AAXX 19064 67641 32980 00201 10104 20084 48542
                   333 10265 20072 58012
                   555 00049 91022=
201706160600 AAXX 16064 67641 32980 70000 10161 20137 48532 87030
                   333 10292 20148 59002 87360
                   555 00121 91021=
201706121200 AAXX 12124 67641 NIL=
201706120600 AAXX 12064 67641 32980 10802 10126 20090 48539 81030
                   333 10250 20088 58001 81360
                   555 00062 91022=
201706081200 AAXX 08124 67641 NIL=
201706080600 AAXX 08064 67641 32980 03602 10106 20088 48521
                   333 10274 20089 59017
                   555 00057 91020=
201706071200 AAXX 07124 67641 NIL=
201706070600 AAXX 07064 67641 32980 70201 10140 20113 48540 87030
                   333 10279 20116 59007 87360
                   555 00087 91022=
201706060600 AAXX 06064 67641 32980 00202 10146 20121 48549
                   333 10286 20102 58008
                   555 00069 91023=
201706010600 AAXX 01064 67641 32980 21206 10149 20126 48560 82030
                   333 10253 20116 59002 82360
                   555 00094 91024=

################################################################################
#  SYNOPS from 67655, Mumbwa (Zambia) | 15-04S | 027-11E | 1216 m
################################################################################
201706300600 AAXX 30064 67655 NIL=
201706121200 AAXX 12124 67655 NIL=
201706081200 AAXX 08124 67655 NIL=
201706071200 AAXX 07124 67655 NIL=

################################################################################
#  SYNOPS from 67659, Kafue Polder (Zambia) | 15-46S | 027-55E | 978 m
################################################################################
201706300600 AAXX 30064 67659 32480 11805 10172 20153 48/// 81200
                   333 10168 20160 58009 81820
                   555 00///=
201706290600 AAXX 29064 67659 32980 12005 10160 20134 48/// 70222 81030
                   333 10251 20140 58010 81360
                   555 00///=
201706270600 AAXX 27064 67659 32480 22006 10151 20125 48/// 70222 82200
                   333 10240 20130 58010 82820
                   555 00///=
201706210600 AAXX 21064 67659 32980 41408 10150 20108 48/// 84030
                   333 10256 20091 59013 84360
                   555 00///=
201706190600 AAXX 19064 67659 32980 01705 10154 20106 48/// 70500
                   333 10253 20125 58001
                   555 00///=
201706160600 AAXX 16064 67659 32980 22004 10185 20147 48/// 82030
                   333 10288 20174 58000 82360
                   555 00///=
201706150600 AAXX 15064 67659 32980 01803 10178 20147 48/// 70500
                   333 10287 20193 58001
                   555 00///=
201706140600 AAXX 14064 67659 32980 11504 10197 20152 48/// 70322 81030
                   333 10276 20162 58001 81360
                   555 00///=
201706130600 AAXX 13064 67659 32980 02003 10160 20111 48/// 70500
                   333 10270 20160 59013
                   555 00///=
201706121200 AAXX 12124 67659 NIL=
201706120600 AAXX 12064 67659 32980 61803 10162 20130 48/// 70222 86030
                   333 10237 20080 59005 86360
                   555 00///=
201706081200 AAXX 08124 67659 NIL=
201706080600 AAXX 08064 67659 32980 01502 10134 20114 48/// 70500
                   333 10260 20170 59017
                   555 00///=
201706071200 AAXX 07124 67659 NIL=
201706070600 AAXX 07064 67659 32980 11703 10170 20130 48/// 70322 81200
                   333 10260 20130 59006 81820
                   555 00///=
201706060600 AAXX 06064 67659 32980 02004 10170 20115 48/// 70500
                   333 10272 20184 58007
                   555 00///=
201706050600 AAXX 05064 67659 32980 01804 10181 20156 48/// 70500
                   333 10266 20092 58008
                   555 00///=
201706020600 AAXX 02064 67659 32980 02305 10180 20152 48/// 70500
                   333 10248 20180 59012
                   555 00///=
201706010600 AAXX 01064 67659 32480 31704 10180 20//0 48/// 70222 83200
                   333 10257 20140 59002 83820
                   555 00///=

################################################################################
#  SYNOPS from 67662, Kabwe Agric (Zambia) | 14-24S | 028-30E | 1165 m
################################################################################
201706300600 AAXX 30064 67662 NIL=
201706290600 AAXX 29064 67662 31360 50000 10136 20126 48/// 72844 85630
                   333 10235 20079 5//// 85707 81360
                   555 00066=
201706270600 AAXX 27064 67662 31975 00000 10115 20101 48/// 70500
                   333 10235 20080 5////
                   555 00052=
201706140600 AAXX 14064 67662 32980 60000 10158 20156 48/// 86030
                   333 10266 20132 5//// 86360
                   555 00113=
201706130600 AAXX 13064 67662 32980 10000 10148 20128 48/// 81030
                   333 10255 20109 5//// 81360
                   555 00080=
201706121200 AAXX 12124 67662 NIL=
201706120600 AAXX 12064 67662 32980 00903 10161 20126 48///
                   333 10256 20078 5////
                   555 00072=
201706081200 AAXX 08124 67662 NIL=
201706071200 AAXX 07124 67662 NIL=
201706070600 AAXX 07064 67662 32980 00000 10138 20105 48///
                   333 10251 20067 555 00042=
201706060600 AAXX 06064 67662 32980 00000 10138 20092 48///
                   333 10257 20091 5////
                   555 00050=
201706050600 AAXX 05064 67662 32980 00000 10145 20128 48///
                   333 10256 20082 5////
                   555 00065=
201706020600 AAXX 02064 67662 32980 00000 10158 20133 48///
                   333 10240 20102 5////
                   555 00094=

################################################################################
#  SYNOPS from 67663, Kabwe (Zambia) | 14-27S | 028-28E | 1206 m
################################################################################
201706300600 AAXX 30064 67663 NIL=
201706121200 AAXX 12124 67663 NIL=
201706090600 AAXX 09064 67663 32980 00907 10177 20086 48554
                   333 10252 20088 58008
                   555 00///=
201706081200 AAXX 08124 67663 NIL=
201706080600 AAXX 08064 67663 32980 00905 10154 20100 48541
                   333 10238 20099 59012
                   555 00///=
201706071200 AAXX 07124 67663 NIL=
201706070600 AAXX 07064 67663 32980 00909 10142 20101 48553
                   333 10250 20098 59009
                   555 00///=
201706060600 AAXX 06064 67663 32980 00804 10157 20052 48562
                   333 10257 20110 58008
                   555 00183=
201706050600 AAXX 05064 67663 32980 00905 10157 20128 48555 70200
                   333 10254 20114 58001
                   555 00200=
201706020600 AAXX 02064 67663 32980 00912 10165 20117 48592
                   333 10237 20116 59022
                   555 00///=
201706010600 AAXX 01064 67663 31480 21013 10142 20137 48619 72844 81530
                   333 10204 20118 58027 81617 82360
                   555 00///=

################################################################################
#  SYNOPS from 67665, Lusaka Internationalairport (Zambia) | 15-19S | 028-27E | 1152 m
################################################################################
201707010600 AAXX 01064 67665 32980 01103 10139 20102 48581 70200
                   333 10250 20//0 59016
                   555 00///=
201707010300 AAXX 01034 67665 42980 01304 10118 20089 48559 70200
                   333 58012 91024=
201707010000 AAXX 01004 67665 42980 01403 10115 20086 48563 70300
                   333 58001=
201706302100 AAXX 30214 67665 42980 01602 10113 20072 48572 70200
                   333 58000 91026=
201706301800 AAXX 30184 67665 42980 01103 10151 20105 48572
                   333 58002=
201706301500 AAXX 30154 67665 42680 21010 10219 20109 48572 82100
                   333 58002 82848=
201706301200 AAXX 30124 67665 42680 41010 10236 20120 70222 84200
                   333 58003 84845=
201706300900 AAXX 30094 67665 42680 40614 10209 20115 48600 84200
                   333 58009 84835=
201706300600 AAXX 30064 67665 NIL=
201706300300 AAXX 30034 67665 42980 00703 10112 20084 48569
                   333 58016=
201706291500 AAXX 29154 67665 42980 20710 10223 20079 48472 70200 83030
                   333 58009 83360 91024=
201706291200 AAXX 29124 67665 42680 40807 10238 20122 48576 84200
                   333 58006 84840=
201706290900 AAXX 29094 67665 42580 20710 10201 20134 48590 70200 82500
                   333 58007 82625 91027=
201706290600 AAXX 29064 67665 32980 21104 10127 20096 48573 82030
                   333 10//0 20//0 58009 82359=
201706290300 AAXX 29034 67665 41956 00000 10084 20084 48549 71040
                   333 58001=
201706290000 AAXX 29004 67665 42980 01502 10090 20071 48551
                   333 59001=
201706282100 AAXX 28214 67665 42980 00000 10110 20082 48560
                   333 59003=
201706281500 AAXX 28154 67665 42680 30708 10202 20127 48558 83100
                   333 59004 83848=
201706281200 AAXX 28124 67665 42680 50608 10199 20112 48564 85500
                   333 59012 85635=
201706280900 AAXX 28094 67665 42580 70409 10179 20128 48581 87500
                   333 59012 87625=
201706280600 AAXX 28064 67665 32980 11103 10127 20106 48565 81030
                   333 10//0 20//0 59014 81359=
201706280300 AAXX 28034 67665 42980 00000 10092 20069 48550
                   333 59009=
201706280000 AAXX 28004 67665 42980 01503 10106 20084 48555
                   333 59007=
201706272100 AAXX 27214 67665 42980 20903 10122 20087 48564 82030
                   333 59008 82359=
201706270900 AAXX 27094 67665 42580 70811 10166 20104 48590 87500
                   333 58000 87625=
201706270600 AAXX 27064 67665 32480 61005 10111 20072 48575 70322 86500
                   333 10232 20//0 59003
                   555 00///=
201706270300 AAXX 27034 67665 42980 00000 10091 20061 48558
                   333 59002=
201706270000 AAXX 27004 67665 42980 01202 10091 20036 48559
                   333 58005=
201706262100 AAXX 26214 67665 42980 01003 10104 20064 48569
                   333 58006=
201706261800 AAXX 26184 67665 42980 00903 10141 20094 48570
                   333 58010=
201706261500 AAXX 26154 67665 42980 01011 10203 20113 48568
                   333 58011=
201706261200 AAXX 26124 67665 42680 10911 10214 20115 48573 81500
                   333 58010 81633=
201706260900 AAXX 26094 67665 42580 70913 10175 20104 48592 86530
                   333 58011 86620 81360=
201706260300 AAXX 26034 67665 42980 01105 10088 20077 48560 70200
                   333 58008=
201706252100 AAXX 25214 67665 42980 01005 10109 20069 48565
                   333 58000=
201706251800 AAXX 25184 67665 42980 01105 10139 20055 48562
                   333 59005 555 10234=
201706251500 AAXX 25154 67665 42980 00908 10215 20103 48560 70200
                   333 59004=
201706251200 AAXX 25124 67665 42980 00908 10225 20115 48566 70200
                   333 58002=
201706250900 AAXX 25094 67665 42980 00812 10197 20109 48585 70200
                   333 59002 91026=
201706250600 AAXX 25064 67665 32980 00906 10116 20086 48569
                   333 10//0 20//0 59003=
201706250300 AAXX 25034 67665 42980 01103 10092 20073 48552
                   333 58002=
201706250000 AAXX 25004 67665 42980 01103 10097 20081 48555
                   333 58003=
201706242100 AAXX 24214 67665 42980 01103 10112 20097 48565
                   333 59003=
201706241800 AAXX 24184 67665 42980 01003 10141 20103 48567
                   333 59002=
201706241500 AAXX 24154 67665 42980 00911 10213 20117 48563
                   333 59004=
201706241200 AAXX 24124 67665 42980 01013 10225 20126 48563
                   333 59004=
201706240900 AAXX 24094 67665 42980 00916 10203 20107 48586
                   333 59003=
201706230900 AAXX 23094 67665 42980 00510 10200 20124 48589
                   333 58009=
201706230600 AAXX 23064 67665 32980 01402 10113 20064 48567 70200
                   333 10219 20//0 58004
                   555 00///=
201706230300 AAXX 23034 67665 42980 00000 10074 20040 48548
                   333 58003=
201706230000 AAXX 23004 67665 42980 00000 10092 20051 48551
                   333 58006=
201706222100 AAXX 22214 67665 42980 01402 10109 20060 48561 70200
                   333 58007 91025=
201706221800 AAXX 22184 67665 42981 10129 20084 48560 70101 81030
                   333 58008 81360=
201706221500 AAXX 22154 67665 42680 41405 10181 20106 48556 70222 82130
                   333 58006 82845 84360=
201706220900 AAXX 22094 67665 42580 20809 10181 20124 48578 82100
                   333 58005 82820=
201706220600 AAXX 22064 67665 32980 11305 10132 20096 48565 81030
                   333 10248 20//0 58005 81360=
201706212100 AAXX 21214 67665 42980 51402 10111 20051 48556 85030
                   333 59001 85360=
201706211800 AAXX 21184 67665 42980 51104 10152 20076 48555 85030
                   333 10226 59008 85360=
201706211500 AAXX 21154 67665 42980 71007 10195 20050 48553 70222 8707/
                   333 59007 87360=
201706210600 AAXX 21064 67665 32980 51103 10125 20088 48561 85030
                   333 10//0 20//0 59015 85360=
201706210300 AAXX 21034 67665 42980 01502 10080 20061 48543
                   333 59010=
201706202100 AAXX 20214 67665 42980 00000 10102 20079 48556
                   333 59008=
201706201800 AAXX 20184 67665 42980 11203 10142 20106 48561 70100 81030
                   333 59007 81360=
201706201200 AAXX 20124 67665 42680 60706 10230 20142 48560 70322 85100
                   333 59005 85835=
201706200900 AAXX 20094 67665 42580 10610 10198 20131 48583 81100
                   333 59007 81825=
201706200600 AAXX 20064 67665 32980 01307 10140 20104 48576
                   333 10//0 20//0 59002=
201706200300 AAXX 20034 67665 42980 01203 10088 20071 48556
                   333 59002=
201706200000 AAXX 20004 67665 42980 00000 10103 20096 48557
                   333 58004=
201706192100 AAXX 19214 67665 42980 01203 10117 20092 48566
                   333 58007=
201706191800 AAXX 19184 67665 42980 01203 10136 20106 48577
                   333 58011=
201706190900 AAXX 19094 67665 42580 20613 10203 20146 48589 82100
                   333 58011 82820=
201706190600 AAXX 19064 67665 42980 01105 10128 20081 48577 70200
                   333 10242 58012 555 00///=
201706190000 AAXX 19004 67665 42980 01205 10127 20100 48557
                   333 58011=
201706182100 AAXX 18214 67665 42980 10000 10139 20111 48581 81030
                   333 58010 81360 91024=
201706181800 AAXX 18184 67665 42980 21003 10157 20121 48560 70200 82030
                   333 58009 82359=
201706181500 AAXX 18154 67665 42680 30810 10207 20157 48553 70122 81130
                   333 58009 81835 83359=
201706181200 AAXX 18124 67665 42580 40910 10220 20156 48554 70122 83230
                   333 58005 83820 83359=
201706180900 AAXX 18094 67665 42480 70812 10205 20157 48580 83130
                   333 58007 83813 87359=
201706180600 AAXX 18064 67665 32380 70905 10133 20108 48565 70322 82630
                   333 58004 81708 87360=
201706171800 AAXX 17184 67665 42980 01403 10150 20105 48550
                   333 10245 59006=
201706171500 AAXX 17154 67665 42980 11009 10222 20100 48546 70100 81030
                   333 59012 81360=
201706171200 AAXX 17124 67665 42680 30909 10232 20091 48551 70300 83100
                   333 58000 83840=
201706170900 AAXX 17094 67665 42580 50712 10250 20121 48571 70222 85500
                   333 58000 85625=
201706170600 AAXX 17064 67665 32480 10908 10145 20110 48559 81131
                   333 10257 20//0 58008 81812 81360 81080=
201706170300 AAXX 17034 67665 42980 01207 10127 20105 48556
                   333 58013=
201706170000 AAXX 17004 67665 42980 10110 20091 48555
                   333 58015=
201706162100 AAXX 16214 67665 42980 11403 10128 20105 48558 81030
                   333 58011 81360=
201706161800 AAXX 16184 67665 42980 21504 10164 20111 48561 70100 81030
                   333 58010 81360 555 10257=
201706161200 AAXX 16124 67665 42680 50812 10249 20149 48553 70322 85230
                   333 58007 85835 81360=
201706160900 AAXX 16094 67665 42680 20711 10236 20158 48578 81130
                   333 58005 81830 81360=
201706160600 AAXX 16064 67665 32980 01004 20176 48562 70100
                   333 58001=
201706151800 AAXX 15184 67665 42980 01102 10174 20125 48550
                   333 58001=
201706150900 AAXX 15094 67665 42580 40608 10235 20165 48571 84100
                   333 58001 84825=
201706150600 AAXX 15064 67665 42980 01204 10177 20144 48561 70100
                   333 10255 20//0 59003
                   555 00///=
201706150300 AAXX 15034 67665 42980 01602 10141 20122 48547
                   333 58000 91023=
201706150000 AAXX 15004 67665 42980 01501 10141 20114 48548
                   333 58001 91023=
201706142100 AAXX 14214 67665 42980 01402 10169 20134 48555
                   333 58001 91023=
201706141800 AAXX 14184 67665 42980 21303 10179 20141 48550 70200 82030
                   333 59001 82360=
201706141500 AAXX 14154 67665 42680 20705 10234 20173 48545 70112 82130
                   333 58002 82845 82360=
201706141200 AAXX 14124 67665 42680 41108 10247 20176 48552 70122 84230
                   333 59002 84230 81360=
201706140900 AAXX 14094 67665 42580 40511 10236 20166 48572 83130
                   333 58002 83828 82360=
201706140600 AAXX 14064 67665 32980 21005 10183 20142 48563 82030
                   333 10270 20//0 58005 82360=
201706140300 AAXX 14034 67665 42980 21302 10134 20115 48545 70200 82030
                   333 59002 82360=
201706131800 AAXX 13184 67665 42980 21103 10174 20141 48550 82030
                   333 10270 59005 82360=
201706131500 AAXX 13154 67665 42980 20407 10238 20110 48544 82030
                   333 59001 82360=
201706131200 AAXX 13124 67665 42680 41008 10245 20099 48550 84100
                   333 59002 84840=
201706130900 AAXX 13094 67665 42680 20810 10216 20104 48567 70300 82100
                   333 59010 91024=
201706130600 AAXX 13064 67665 32980 01103 10157 20098 48556
                   333 10267 20//0 59014=
201706130300 AAXX 13034 67665 42980 01103 10113 20098 48544
                   333 58000=
201706130000 AAXX 13004 67665 42980 01103 10128 20095 48550
                   333 58008=
201706122100 AAXX 12214 67665 42980 01303 10143 20101 48557
                   333 59003=
201706121500 AAXX 12154 67665 42580 10506 10230 20100 48551 81800
                   333 59004 81850=
201706121200 AAXX 12124 67665 42580 30608 10236 20099 48553 83800
                   333 59007 83835=
201706120900 AAXX 12094 67665 42580 50810 10205 20111 48575 85800
                   333 59008 84828 82628=
201706120600 AAXX 12064 67665 32980 50803 10152 20115 48568 70222 85030
                   333 59002 85360=
201706110900 AAXX 11094 67665 42580 20509 10203 20146 48582 82100
                   333 59007 82822=
201706110600 AAXX 11064 67665 42980 01104 10129 20091 48566
                   333 10232 20//0 59012
                   555 00///=
201706110300 AAXX 11034 67665 42980 01303 10095 20074 48545
                   333 59012=
201706110000 AAXX 11004 67665 42980 01404 10105 20075 48551
                   333 59015=
201706102100 AAXX 10214 67665 42980 01302 10113 20084 48563
                   333 59007=
201706101800 AAXX 10184 67665 42980 01104 10134 20097 48566
                   333 59001=
201706101500 AAXX 10154 67665 42680 10909 10194 20119 48565 81500
                   333 58005 81642=
201706101200 AAXX 10124 67665 42680 41113 10205 20140 48567 84500
                   333 58006 84630=
201706100900 AAXX 10094 67665 42580 30917 10190 20131 48578 83500
                   333 58006 83622=
201706100600 AAXX 10064 67665 32380 11010 10138 20092 48579 70300 81600
                   333 10270 20//0 58017 81710=
201706100300 AAXX 10034 67665 42980 01005 10105 20075 48564
                   333 59016=
201706092100 AAXX 09214 67665 42980 01003 10122 20072 48573 70200
                   333 58016=
201706091800 AAXX 09184 67665 42980 01204 10155 20080 48573
                   333 10260 58011=
201706091500 AAXX 09154 67665 42980 20912 10221 20065 48564 82030
                   333 58022 82360=
201706091200 AAXX 09124 67665 42980 10915 10240 20040 48566 81030
                   333 59023 81360=
201706090900 AAXX 09094 67665 42580 11016 10218 20084 48585 81100
                   333 58010 81825 91026=
201706090600 AAXX 09064 67665 32980 00903 10158 20108 48566
                   333 10//0 20//0 58010=
201706090300 AAXX 09034 67665 42980 01003 10091 20070 48546
                   333 58012=
201706090000 AAXX 09004 67665 42980 00000 10111 20091 48550
                   333 58007=
201706082100 AAXX 08214 67665 42980 10000 10120 20092 48558 81030
                   333 58005 81360=
201706081800 AAXX 08184 67665 42980 01203 10147 20092 48551 70200
                   333 5////=
201706081200 AAXX 08124 67665 NIL=
201706080900 AAXX 08094 67665 42580 11109 10221 20147 48570 81100
                   333 59015 81825=
201706080600 AAXX 08064 67665 32980 01402 10147 20098 48555 70200
                   333 59019=
201706071200 AAXX 07124 67665 NIL=
201706070900 AAXX 07094 67665 42580 10611 10200 20144 48587 81100
                   333 59006 81825=
201706070600 AAXX 07064 67665 42980 11303 10133 20096 48570 70300 81030
                   333 10253 20//0 59008 81360
                   555 00///=
201706070300 AAXX 07034 67665 42980 01201 10093 20071 48549
                   333 59007 91024=
201706070000 AAXX 07004 67665 42980 01402 10105 20044 48545
                   333 58000=
201706062100 AAXX 06214 67665 42980 01302 10120 20091 48565 70200
                   333 58003 91025=
201706061800 AAXX 06184 67665 42980 01204 10152 20102 48567 70200
                   333 58004=
201706061500 AAXX 06154 67665 42980 00811 10221 20119 48565 70200
                   333 58008=
201706061200 AAXX 06124 67665 42980 00811 10237 20113 48570 70200
                   333 58006=
201706060900 AAXX 06094 67665 42980 00912 10210 20106 48592
                   333 58008=
201706060600 AAXX 06064 67665 32980 01004 10145 20079 48581
                   333 10280 20//0 58011=
201706051800 AAXX 05184 67665 42980 01002 10168 20105 48585
                   333 10260 58006=
201706051500 AAXX 05154 67665 42980 01008 10242 20081 48560 70100
                   333 58006=
201706051200 AAXX 05124 67665 42680 11008 10251 20085 48565 70300 81100
                   333 58009 81840=
201706050900 AAXX 05094 67665 42980 00609 10223 20111 48585 70200
                   333 58006=
201706050600 AAXX 05064 67665 32980 01205 10155 20111 48572
                   333 10//0 20//0 58004=
201706050300 AAXX 05034 67665 42980 01104 10109 20095 48552
                   333 58002=
201706050000 AAXX 05004 67665 42980 01103 10124 20108 48553
                   333 58000=
201706042100 AAXX 04214 67665 42980 01203 10130 20112 48559
                   333 59003=
201706041500 AAXX 04154 67665 42980 00907 10241 20126 48554
                   333 59008=
201706041200 AAXX 04124 67665 42980 01106 10256 20136 48558
                   333 59011=
201706040900 AAXX 04094 67665 42980 00608 10210 20136 48578
                   333 59009=
201706040600 AAXX 04064 67665 42980 01206 10143 20101 48560 70200
                   333 10294 20/// 59013 91025=
201706031800 AAXX 03184 67665 42980 01103 10158 20127 48563
                   333 59010=
201706031500 AAXX 03154 67665 42980 00708 10237 20167 48566
                   333 59006=
201706031200 AAXX 03124 67665 42580 10810 10251 20165 48567 81100
                   333 59004 81828=
201706030900 AAXX 03094 67665 42980 01008 10212 20156 48587
                   333 58000=
201706030600 AAXX 03064 67665 32980 01007 10142 20115 48577 70200
                   333 59002 91026=
201706022100 AAXX 02214 67665 42980 01203 10138 20124 48570 70200
                   333 59004=
201706021800 AAXX 02184 67665 42980 00000 10165 20095 48570 70100
                   333 59010 91025=
201706021500 AAXX 02154 67665 42580 21009 10233 20134 48563 70100 82100
                   333 10275 20//0 59009 82838 91023=
201706021200 AAXX 02124 67665 42580 21110 10253 20151 48566 70200 82100
                   333 59009 82100=
201706020900 AAXX 02094 67665 42480 10911 10220 20139 48588 81500
                   333 59003 81618=
201706020600 AAXX 02064 67665 32980 01005 10150 20115 48581
                   333 10//0 20//0 59005=
201706020300 AAXX 02034 67665 42980 01003 10103 20095 48561
                   333 59004=
201706020000 AAXX 02004 67665 42980 01203 10120 20106 48565
                   333 58001=
201706012100 AAXX 01214 67665 42980 01103 10129 20110 48568
                   333 59005=
201706011800 AAXX 01184 67665 42980 01005 10151 20114 48580 70200
                   333 59001=
201706011500 AAXX 01154 67665 42980 11007 10214 20103 48572 70100 81030
                   333 59014 81860=
201706011200 AAXX 01124 67665 42580 30810 10230 20103 48577 70200 83100
                   333 59012 83823=
201706010900 AAXX 01094 67665 42480 30712 10202 20106 48597 70200 83500
                   333 59006 83015=
201706010600 AAXX 01064 67665 42980 01206 10141 20131 48584 70200
                   333 59009 555 91027=

################################################################################
#  SYNOPS from 67666, Lusaka City Airport (Zambia) | 15-25-00S | 028-28-00E | 1280 m
################################################################################
201706300600 AAXX 30064 67666 32980 00910 10162 20121 48583
                   333 10241 20125 58013
                   555 00079 91026=
201706290900 AAXX 29094 67666 42580 31207 10202 20117 48582 70300 83200
                   333 58009 83360 91026=
201706290600 AAXX 29064 67666 32980 20906 10141 20117 48569 70200 82030
                   333 10212 20089 58008 82360
                   555 00050 91025=
201706270600 AAXX 27064 67666 32380 71008 10130 20108 48571 70311 876//
                   333 10222 20114 58002 87510
                   555 00091 91026=
201706210600 AAXX 21064 67666 32980 50908 10136 20075 48552 70500 85030
                   333 10231 20089 59017 85359
                   555 00051 91024=
201706200600 AAXX 20064 67666 32980 00906 10142 20094 48562
                   333 10226 20106 58024
                   555 00102 91025=
201706190600 AAXX 19064 67666 32980 00910 10140 20104 48572
                   333 10234 20124 58007
                   555 00100 91025=
201706160600 AAXX 16064 67666 32980 10906 10179 20116 48555 80001
                   333 10257 20149 59001 81080
                   555 00101 91023=
201706150600 AAXX 15064 67666 32980 10906 10189 20142 48556 80001
                   333 10260 20163 58001 81080
                   555 00131 91023=
201706140600 AAXX 14064 67666 32980 11207 10184 20145 48556 70100 81030
                   333 10251 20150 58003 81360
                   555 00122 91023=
201706130600 AAXX 13064 67666 32980 00906 10172 20114 48553
                   333 10241 20132 59009
                   555 00092 91023=
201706121200 AAXX 12124 67666 NIL=
201706120600 AAXX 12064 67666 31960 70907 10159 20107 48553 87030
                   333 10225 20129 58006 85358
                   555 00101 91024=
201706081200 AAXX 08124 67666 NIL=
201706080600 AAXX 08064 67666 32980 01002 10152 20089 48544
                   333 10234 20095 59022
                   555 00056 91022=
201706071200 AAXX 07124 67666 NIL=
201706070600 AAXX 07064 67666 32980 00806 10145 20102 48563
                   333 10235 20119 59006
                   555 00088 91025=
201706060600 AAXX 06064 67666 32980 00907 10159 20067 48573
                   333 10251 20139 58006
                   555 00110 91025=
201706050600 AAXX 05064 67666 32980 00908 10161 20106 48564
                   333 10257 20135 58002
                   555 00101 91025=
201706010600 AAXX 01064 67666 31978 10912 10148 20120 48581 70500 81130
                   333 10205 20125 59003 81818 81360
                   555 00100 91026=

################################################################################
#  SYNOPS from 67667, Mount Makulu (Zambia) | 15-33S | 028-15E | 1213 m
################################################################################
201706300600 AAXX 30064 67667 32980 10908 10180 20130 48/// 81100
                   333 10270 20115 58007 81830
                   555 00///=
201706290600 AAXX 29064 67667 32980 20901 10134 20099 48/// 82030
                   333 10245 20112 59007 82360
                   555 00///=
201706270600 AAXX 27064 67667 32580 41901 10134 20112 48/// 84500
                   333 10254 20094 58003 84625
                   555 000///=
201706210600 AAXX 21064 67667 32980 10901 10160 20090 48/// 81030
                   333 10262 20063 58012 81360
                   555 00///=
201706200600 AAXX 20064 67667 32980 00902 10141 20112 48///
                   333 10252 20110 58009
                   555 00///=
201706190600 AAXX 19064 67667 32980 01508 10170 20108 48///
                   333 10261 20120 58023
                   555 00///=
201706160600 AAXX 16064 67667 32980 00901 10191 20124 48///
                   333 10262 20134 58001
                   555 00///=
201706150600 AAXX 15064 67667 32980 00901 10192 20141 48///
                   333 10264 20123 59003
                   555 00///=
201706140600 AAXX 14064 67667 32580 10901 1//// 20142 48/// 80001
                   333 10260 20128 58001 81080
                   555 00///=
201706130600 AAXX 13064 67667 32980 00901 10180 20130 48///
                   333 10232 20130 59012
                   555 00///=
201706121200 AAXX 12124 67667 NIL=
201706120600 AAXX 12064 67667 32980 60904 10166 20101 48/// 86030
                   333 10228 20090 59005 86360
                   555 00///=
201706090600 AAXX 09064 67667 32980 00904 10183 20093 48///
                   333 10242 20082 58015
                   555 00///=
201706081200 AAXX 08124 67667 NIL=
201706080600 AAXX 08064 67667 32980 00905 10174 20102 48///
                   333 10246 20113 59018
                   555 00///=
201706071200 AAXX 07124 67667 NIL=
201706070600 AAXX 07064 67667 32980 00910 10158 20111 48///
                   333 10244 20124 59007
                   555 00///=
201706060600 AAXX 06064 67667 32980 01004 10168 20070 48///
                   333 10256 20123 58005
                   555 00///=
201706050600 AAXX 05064 67667 32980 00903 10170 20122 48///
                   333 10260 20117 58007
                   555 00///=
201706020600 AAXX 02064 67667 32980 00905 10180 20130 48///
                   333 10241 20127 59006
                   555 00///=

################################################################################
#  SYNOPS from 67673, Petauke (Zambia) | 14-15S | 031-17E | 1035 m
################################################################################
201706300600 AAXX 30064 67673 32680 30902 10192 20150 48585 83100
                   333 10260 20130 59002 83830
                   555 00///=
201706290900 AAXX 29094 67673 42680 70202 10240 20130 48593 8702/
                   333 59001 87830=
201706290600 AAXX 29064 67673 32980 70902 10190 20145 48587 8703/
                   333 10240 20130 58003 87360
                   555 00///=
201706270600 AAXX 27064 67673 32584 10508 10168 20090 48591 81100
                   333 10250 20110 58007 81825
                   555 00///=
201706210600 AAXX 21064 67673 32980 11201 10175 20080 48564 81030
                   333 10270 20115 59027 81360
                   555 00///=
201706190900 AAXX 19094 67673 42684 40903 10216 20112 48598 83130
                   333 5//// 83832 84360=
201706190600 AAXX 19064 67673 32584 40803 10180 20110 48593 84100
                   333 10266 20138 58034 84825
                   555 00///=
201706160600 AAXX 16064 67673 32984 00901 10210 20130 48575
                   333 10288 20154 59002
                   555 00///=
201706150900 AAXX 15094 67673 42684 43602 10260 20123 48579 84130
                   333 58023 84832 83360=
201706150600 AAXX 15064 67673 32584 50501 10210 20143 48577 82130
                   333 10295 20114 58018 82825 85360
                   555 00///=
201706140600 AAXX 14064 67673 32680 50803 10210 20165 48550 81130
                   333 10295 20145 58010 81830 85360
                   555 00///=
201706130600 AAXX 13064 67673 32980 40000 10185 20155 48576 84030
                   333 10284 20140 59033 84360
                   555 00///=
201706121200 AAXX 12124 67673 NIL=
201706120900 AAXX 12094 67673 42684 40202 10246 20128 48581 84101
                   333 5//// 84832 81080=
201706120600 AAXX 12064 67673 32584 30901 10204 20147 48585 82101
                   333 10270 20120 58000 82828 83080
                   555 00///=
201706090600 AAXX 09064 67673 32980 11201 10200 20130 48592 81030
                   333 10270 20140 59002 81360
                   555 00///=
201706081200 AAXX 08124 67673 NIL=
201706080600 AAXX 08064 67673 32584 30801 10206 20128 48576 83100
                   333 10260 20130 59016 83828
                   555 00///=
201706071200 AAXX 07124 67673 NIL=
201706070900 AAXX 07094 67673 42684 50802 10230 20111 48591 85230
                   333 58004 85832 84360=
201706070600 AAXX 07064 67673 32584 40902 10200 20115 48590 84030
                   333 10270 20114 58003 84360
                   555 00///=
201706060600 AAXX 06064 67673 32980 00903 10195 20115 48588
                   333 10270 20115 58010
                   555 00///=
201706050600 AAXX 05064 67673 32980 00000 10195 20140 48575
                   333 10264 20115 59009
                   555 00///=

################################################################################
#  SYNOPS from 67731, Senanga (Zambia) | 16-06S | 023-16E | 1027 m
################################################################################
201706300600 AAXX 30064 67731 32980 014// 10150 20087 48/// 70200
                   333 10257 20099 58009
                   555 00070=
201706290600 AAXX 29064 67731 32980 015// 10142 20089 48/// 70200
                   333 10257 20098 58005
                   555 00068=
201706270600 AAXX 27064 67731 32980 013// 10130 20097 48/// 70200
                   333 10262 20092 58008
                   555 00061=
201706210600 AAXX 21064 67731 32980 013// 10151 20095 48///
                   333 10233 20131 555 00112=
201706200600 AAXX 20064 67731 32980 025// 10158 20086 48///
                   333 10268 20108 58008
                   555 00076=
201706190600 AAXX 19064 67731 32980 409// 10184 20095 48/// 70222 84030
                   333 10285 20158 58008 84360
                   555 00149=
201706140600 AAXX 14064 67731 32980 010// 10143 20094 48/// 70200
                   333 10252 20105 59001
                   555 00073=
201706130600 AAXX 13064 67731 32980 007// 10120 20080 48/// 70200
                   333 10244 20108 59013
                   555 00076=
201706121200 AAXX 12124 67731 NIL=
201706090600 AAXX 09064 67731 32980 012// 10157 20083 48///
                   333 10265 20112 58021
                   555 00083=
201706081200 AAXX 08124 67731 NIL=
201706080600 AAXX 08064 67731 32980 018// 10164 20068 48///
                   333 10277 20109 59018
                   555 00072=
201706071200 AAXX 07124 67731 NIL=
201706070600 AAXX 07064 67731 32980 434// 10218 20152 48/// 70222 85030
                   333 10279 20163 58003 85360
                   555 00154=
201706050600 AAXX 05064 67731 32980 034// 10178 20111 48///
                   333 10296 20144 59018
                   555 00104=
201706010600 AAXX 01064 67731 32980 018// 10156 20076 48///
                   333 10272 20129 58007
                   555 00112=

################################################################################
#  SYNOPS from 67741, Sesheke (Zambia) | 17-28S | 024-18E | 949 m
################################################################################
201706300600 AAXX 30064 67741 32980 00801 10144 20097 48578
                   333 10279 20054 58013
                   555 00039=
201706290600 AAXX 29064 67741 32980 00000 10113 20095 48562
                   333 10258 20042 58008
                   555 00003=
201706210600 AAXX 21064 67741 32980 00000 10120 20099 48555
                   333 10259 20049 59005
                   555 00110=
201706200600 AAXX 20064 67741 32980 50000 10151 20101 48571 85040
                   333 10270 20089 59002 85362
                   555 00048=
201706190600 AAXX 19064 67741 32980 10000 10151 20112 48571 81030
                   333 10278 20070 5//// 81362
                   555 00///=
201706160600 AAXX 16064 67741 32980 60000 10151 20128 48552 86040
                   333 10286 20106 58003 86362
                   555 00///=
201706150600 AAXX 15064 67741 32980 10000 10140 20116 48550 81030
                   333 10289 20076 59002 81362
                   555 00040=
201706140600 AAXX 14064 67741 32980 00000 10134 20107 48548
                   333 10261 20052 59003
                   555 00015=
201706130600 AAXX 13064 67741 32980 00000 10101 20090 48542
                   333 10250 20043 59012
                   555 01005=
201706121200 AAXX 12124 67741 NIL=
201706120600 AAXX 12064 67741 32980 00000 10125 20110 48555
                   333 10253 20053 5////
                   555 00///=
201706090600 AAXX 09064 67741 32980 00000 10141 20114 48559
                   333 10280 20081 58031
                   555 00028=
201706081200 AAXX 08124 67741 NIL=
201706080600 AAXX 08064 67741 32980 00901 10166 20120 48537
                   333 10281 20090 59028
                   555 00046=
201706071200 AAXX 07124 67741 NIL=
201706070600 AAXX 07064 67741 32680 70000 10174 20130 48565 875//
                   333 10287 20106 59001 87645
                   555 00075=
201706050600 AAXX 05064 67741 32980 03601 10187 20133 48561
                   333 10294 20089 5////
                   555 00///=
201706010600 AAXX 01064 67741 32980 00000 10135 20095 48584
                   333 10255 20050 59001
                   555 00009=

################################################################################
#  SYNOPS from 67743, Livingstone (Zambia) | 17-49S | 025-49E | 985 m
################################################################################
201706300600 AAXX 30064 67743 32980 11003 10114 20082 48579 81030
                   333 10272 20090 58017
                   555 00/// 91027=
201706290600 AAXX 29064 67743 32980 00901 10108 20098 48550 70200
                   333 10263 20068 58006
                   555 00/// 91025=
201706270900 AAXX 27094 67743 42980 00907 10200 20090 48589
                   333 58007 91026=
201706270600 AAXX 27064 67743 32980 01104 10120 20092 48569
                   333 10255 20090 58007
                   555 00///=
201706141200 AAXX 14124 67743 42780 13605 10280 20104 48549 81100
                   333 59006 81856 91020=
201706121200 AAXX 12124 67743 NIL=
201706081200 AAXX 08124 67743 NIL=
201706071200 AAXX 07124 67743 NIL=

################################################################################
#  SYNOPS from 67751, Magoye (Zambia) | 16-00S | 027-36E | 1018 m
################################################################################
201706300600 AAXX 30064 67751 NIL=
201706290600 AAXX 29064 67751 32980 00401 10142 20116 48/// 70200
                   333 10248 20079 59008
                   555 00///=
201706270600 AAXX 27064 67751 32980 01307 10156 20114 48/// 70200
                   333 10242 20074 58005
                   555 00///=
201706200600 AAXX 20064 67751 32980 10000 10127 20100 48/// 81030
                   333 10255 20082 58006 81360
                   555 00050=
201706190600 AAXX 19064 67751 32980 01502 10146 20115
                   333 10260 20095 59013
                   555 00///=
201706160600 AAXX 16064 67751 32980 41902 10171 20145 48/// 84070
                   333 10295 20076 58002 84360
                   555 00065=
201706140600 AAXX 14064 67751 32980 21603 10175 20138 48/// 70200 82040
                   333 10279 20116 5//// 82360
                   555 00103=
201706121200 AAXX 12124 67751 NIL=
201706120600 AAXX 12064 67751 32980 20000 10135 20098 48/// 82030
                   333 10243 20133 59009 84360
                   555 00///=
201706081200 AAXX 08124 67751 NIL=
201706080600 AAXX 08064 67751 32980 01301 10161 20133 48///
                   333 10298 20196 58007
                   555 00184=
201706071200 AAXX 07124 67751 NIL=
201706060600 AAXX 06064 67751 32980 00000 10141 20107 48///
                   333 10280 20100 58004
                   555 00097=
201706050600 AAXX 05064 67751 32980 00000 10142 20124 48///
                   333 10291 20104 59005
                   555 00///=
201706010600 AAXX 01064 67751 32980 10802 10150 20123 81030
                   333 10247 20094 5//// 81360
                   555 00092=

################################################################################
#  SYNOPS from 67753, Choma (Zambia) | 16-50S | 027-04E | 1213 m
################################################################################
201706300600 AAXX 30064 67753 31960 03502 10118 20085 48579 70500
                   333 10246 20066 58014
                   555 00///=
201706290600 AAXX 29064 67753 31960 00000 10100 20087 48558 70500
                   333 10234 20060 58014
                   555 00///=
201706210600 AAXX 21064 67753 31975 53402 10114 20101 48550 70522 85030
                   333 10238 20088 59009 85360
                   555 00///=
201706190600 AAXX 19064 67753 31960 32909 10149 20115 48573 70500 83030
                   333 10246 20126 58011 83360
                   555 00///=
201706180600 AAXX 18064 67753 31660 60910 10151 20116 48562 70500 81130
                   333 10244 20099 58003 81835 85360
                   555 00///=
201706170600 AAXX 17064 67753 31960 50000 10150 20121 48563 70500 85030
                   333 10264 20121 58010 85360
                   555 00///=
201706160600 AAXX 16064 67753 31960 60000 10154 20129 48553 70522 86030
                   333 10271 20104 58002 86360
                   555 00///=
201706150600 AAXX 15064 67753 31960 10000 10145 20126 48553 70500 81030
                   333 10267 20082 58003 81360
                   555 00///=
201706140600 AAXX 14064 67753 31960 60000 10129 20100 48542 70522 86030
                   333 10244 20078 59003 86360
                   555 00///=
201706121200 AAXX 12124 67753 NIL=
201706110600 AAXX 11064 67753 31960 70808 10144 20108 48562 70500 87070
                   333 10224 20081 59008 87360
                   555 00///=
201706100600 AAXX 10064 67753 31660 11110 10144 20115 48572 70500 81100
                   333 10249 20106 58012 81840
                   555 00///=
201706090600 AAXX 09064 67753 31970 02802 10149 20089 48563 70500
                   333 10249 20058 58019
                   555 00///=
201706081200 AAXX 08124 67753 NIL=
201706080600 AAXX 08064 67753 31960 00000 10178 20119 48547 70500
                   333 10249 20120 59019
                   555 00///=
201706071200 AAXX 07124 67753 NIL=
201706070600 AAXX 07064 67753 31960 20000 10121 20101 48560 70500 82030
                   333 10250 20098 59005 82360
                   555 00///=
201706060600 AAXX 06064 67753 31960 12806 10154 20121 48563 70500 81030
                   333 10266 20090 58006 81360
                   555 00///=
201706050600 AAXX 05064 67753 31960 00000 10124 20117 48560 70500
                   333 10269 20088 5////
                   555 00///=

################################################################################
#  SYNOPS from 67855, Lupaki (Zambia) | 17-03-00S | 024-46-00E | 1000 m
################################################################################
201707010600 AAXX 01064 67855 31970 10000 10094 20083 3//// 48///
                   333 20082 5//// 81360=
201706301800 AAXX 30184 67855 NIL=
201706301200 AAXX 30124 67855 41770 51102 10248 20110 3//// 48/// 70511 85200
                   333 5//// 85850=
201706300600 AAXX 30064 67855 31970 10000 10096 20085 3//// 48/// 70500 81030
                   333 20072 5//// 81360=
201706291200 AAXX 29124 67855 41770 41802 10272 20080 3//// 48/// 70500 84100
                   333 5//// 84856=
201706290600 AAXX 29064 67855 31970 00000 10092 20075 3//// 48/// 70500
                   333 20059 5////=
201706281200 AAXX 28124 67855 41770 20301 10250 20090 3//// 48/// 70500 82100
                   333 5//// 82850=
201706280600 AAXX 28064 67855 31970 01501 10090 20070 3//// 48/// 70500
                   333 20051 5////=
201706271200 AAXX 27124 67855 41770 20603 10246 20064 3//// 48/// 70500 82100
                   333 5//// 82850=
201706270600 AAXX 27064 67855 31970 01701 10090 20073 3//// 48/// 70500
                   333 20065 5////=
201706261200 AAXX 26124 67855 41670 11405 10244 20095 3//// 48/// 70500 81100
                   333 5//// 81845=
201706260600 AAXX 26064 67855 31970 00602 10090 20083 3//// 48/// 70500
                   333 20054 5////=
201706251200 AAXX 25124 67855 41970 00402 10230 20084 3//// 48/// 70500
                   333 5////=
201706250600 AAXX 25064 67855 31970 00601 10082 20073 3//// 48/// 70500
                   333 20050 5////=
201706241200 AAXX 24124 67855 41970 00602 10246 20058 3//// 48/// 70500
                   333 5////=
201706240600 AAXX 24064 67855 31970 00702 10104 20080 3//// 48/// 70500
                   333 20065 5////=
201706231200 AAXX 23124 67855 41970 01805 10256 20028 3//// 48/// 70500
                   333 5////=
201706230600 AAXX 23064 67855 31970 00601 10076 20025 3//// 48/// 70500
                   333 20020 5////=
201706221800 AAXX 22184 67855 NIL=
201706221200 AAXX 22124 67855 41970 02102 10234 20004 3//// 48/// 70500
                   333 5////=
201706220600 AAXX 22064 67855 31970 00000 10056 20056 3//// 48/// 70500
                   333 20023 5////=
201706211800 AAXX 21184 67855 NIL=
201706211200 AAXX 21124 67855 41670 30508 10242 20045 3//// 48/// 70500 83100
                   333 5//// 83845=
201706210600 AAXX 21064 67855 31970 00000 10072 20060 3//// 48/// 70500
                   333 20036 5////=
201706201800 AAXX 20184 67855 NIL=
201706201200 AAXX 20124 67855 41670 70000 10216 20113 3//// 48/// 70511 8327/
                   333 5//// 83835 87360=
201706200600 AAXX 20064 67855 31970 50000 10144 48/// 70522 85070
                   333 20130 5//// 85360=
201706191800 AAXX 19184 67855 NIL=
201706191200 AAXX 19124 67855 NIL=
201706190600 AAXX 19064 67855 31970 71701 10150 20115 3//// 48/// 70522 8707/
                   333 20112 5//// 87360=
201706181800 AAXX 18184 67855 NIL=
201706181200 AAXX 18124 67855 41670 70000 10230 20128 3//// 48/// 70522 8327/
                   333 5//// 83835=
201706180600 AAXX 18064 67855 31970 80000 10146 20122 3//// 48/// 70522 8807/
                   333 20135 5//// 88360=
201706171200 AAXX 17124 67855 41770 50000 10258 20128 3//// 48/// 70511 85200
                   333 5//// 85850=
201706170600 AAXX 17064 67855 31970 00000 10128 20114 3//// 48/// 70500
                   333 20090 5////=
201706161800 AAXX 16184 67855 NIL=
201706161200 AAXX 16124 67855 41770 43207 10286 20055 3//// 48/// 70511 84100
                   333 5//// 84856=
201706160600 AAXX 16064 67855 31970 50000 10120 20085 3//// 48/// 70522 85030
                   333 20085 5//// 85360=
201706151800 AAXX 15184 67855 NIL=
201706151200 AAXX 15124 67855 41770 33101 10278 20078 3//// 48/// 70500 83100
                   333 5//// 83856=
201706150600 AAXX 15064 67855 31970 11801 10090 20078 3//// 48/// 70500 81030
                   333 20065 5//// 81360=
201706141800 AAXX 14184 67855 NIL=
201706141200 AAXX 14124 67855 41770 23602 10284 20093 3//// 48/// 70500 82100
                   333 5//// 82856=
201706140600 AAXX 14064 67855 31970 00000 10088 20075 3//// 48/// 70500
                   333 20058 5////=
201706131200 AAXX 13124 67855 41970 00603 10262 20089 3//// 48/// 70500
                   333 5////=
201706130600 AAXX 13064 67855 NIL=
201706121800 AAXX 12184 67855 NIL=
201706121200 AAXX 12124 67855 41970 00000 10254 20085 3//// 48/// 70500
                   333 5////=
201706120600 AAXX 12064 67855 31970 00000 10080 20065 3//// 48/// 70500
                   333 20035 5////=
201706111200 AAXX 11124 67855 42975 40000 10234 20090 3//// 48/// 84070
                   333 5//// 84360=
201706110600 AAXX 11064 67855 32975 70000 10114 20103 3//// 48/// 70522 8707/
                   333 20078 5//// 87360=
201706101200 AAXX 10124 67855 NIL=
201706091200 AAXX 09124 67855 41770 11609 10262 20066 3//// 48/// 70500 81100
                   333 5//// 81856=
201706090600 AAXX 09064 67855 31970 00000 10100 20073 3//// 48/// 70500
                   333 20070 5////=
201706081800 AAXX 08184 67855 NIL=
201706081200 AAXX 08124 67855 NIL=
201706080600 AAXX 08064 67855 31970 00000 10108 20083 3//// 48/// 70500
                   333 20062 5////=
201706071200 AAXX 07124 67855 NIL=
201706070600 AAXX 07064 67855 31970 00302 10134 20093 3//// 48/// 70500
                   333 20076 5////=
201706061800 AAXX 06184 67855 NIL=
201706061200 AAXX 06124 67855 41970 50302 10256 20115 3//// 48/// 70511 85030
                   333 5//// 85360=
201706060600 AAXX 06064 67855 31970 71801 10122 20100 3//// 48/// 70511 8703/
                   333 20085 5//// 87360=
201706051800 AAXX 05184 67855 NIL=
201706051200 AAXX 05124 67855 41770 31602 10276 20126 3//// 48/// 70500 83100
                   333 5//// 83856=
201706050600 AAXX 05064 67855 31970 00000 10114 20088 3//// 48/// 70500
                   333 20085 5////=
201706041800 AAXX 04184 67855 NIL=
201706041200 AAXX 04124 67855 41770 22401 10274 20096 3//// 48/// 70500 82100
                   333 5//// 82856=
201706040600 AAXX 04064 67855 NIL=
201706031200 AAXX 03124 67855 41770 21802 10276 20112 3//// 48/// 70500 82100
                   333 5//// 82856=
201706030600 AAXX 03064 67855 31970 00000 10090 20068 3//// 48/// 70500
                   333 20055 5////=
201706021800 AAXX 02184 67855 NIL=
201706021200 AAXX 02124 67855 41770 11901 10258 20068 3//// 48/// 70500 81100
                   333 5//// 81850=
201706020600 AAXX 02064 67855 31970 01601 10086 20060 3//// 48/// 70500
                   333 20045 5////=
201706011200 AAXX 01124 67855 41970 03101 10252 20063 3//// 48/// 70500
                   333 5////=
201706010600 AAXX 01064 67855 31970 00000 10076 20063 3//// 48/// 70500
                   333 20033 5////=
