################################################################################
# Query made at 04/15/2022 01:47:29 UTC
# Country like Zamb*
# Time interval: from 11/01/2011 05:30  to 12/01/2011 06:30  UTC
################################################################################

################################################################################
#  SYNOPS from 67403, Kawambwa (Zambia) | 09-48S | 029-05E | 1323 m
################################################################################
201111090600 AAXX 09064 67403 32980 71002 10214 20178 48531 8707/
                   333 10290 20160 59010 87362=
201111080600 AAXX 08064 67403 12580 41202 10200 20172 48540 60244 82532
                   333 10289 20126 58007 82620 82362 82080=
201111030600 AAXX 03064 67403 12980 70000 10216 20170 48532 60444 8707/
                   333 10290 20136 58001 87360=

################################################################################
#  SYNOPS from 67441, Mwinilunga (Zambia) | 11-45S | 024-26E | 1361 m
################################################################################
201111300600 AAXX 30064 67441 12480 70000 10192 20173 48560 60164 8113/
                   333 10260 20//0 58016 81818 87360=
201111291200 AAXX 29124 67441 41460 80000 10195 20195 48535 79599 8197/
                   333 58024 81918 81820 88360=
201111290900 AAXX 29094 67441 42680 70000 10240 20180 48546 83130
                   333 58000 83830 87360=
201111290600 AAXX 29064 67441 12980 70000 10198 20193 48545 60234 8707/
                   333 10270 20//0 58001 87360=
201111280600 AAXX 28064 67441 11980 70000 10180 20174 48544 60134 76166 8707/
                   333 10210 20/// 58006 87460=
201111250600 AAXX 25064 67441 12580 80000 10198 20181 48551 60134 885//
                   333 10272 20/// 58004 88620=
201111240600 AAXX 24064 67441 11580 70000 10185 20182 48547 69904 72844 8113/
                   333 10275 20//0 58011 81820 87360=
201111180900 AAXX 18094 67441 42480 71014 10224 20186 48/// 8257/
                   333 5//// 82615 87460=
201111170900 AAXX 17094 67441 42680 60000 10256 20171 48542 83230
                   333 59001 83830 85360=
201111160900 AAXX 16094 67441 42680 70000 10270 20180 48543 83130
                   333 58001 83830 87360=
201111160600 AAXX 16064 67441 10980 70000 10220 20190 48545 60034 70522 86038
                   333 10275 20//0 59004 86360 83280=
201111150600 AAXX 15064 67441 11965 80000 10163 20157 48548 60224 76162 8802/
                   333 10295 20//0 58012 88460=
201111150500 AAXX 15054 67441 11965 80000 10163 20157 48548 60224 76162 8802/
                   333 10295 20/// 58012 88460=
201111140600 AAXX 14064 67441 11575 70000 10213 20178 48537 69904 70522 81130
                   333 10305 20/// 5//// 81825 87360=
201111100600 AAXX 10064 67441 12980 30000 10215 20176 48542 69904 81130
                   333 10300 2//// 59003 81825 83361=
201111090600 AAXX 09064 67441 32980 20000 10200 20159 48545 81034
                   333 10330 20/// 59013 81360 81080=
201111080600 AAXX 08064 67441 12980 30000 10190 20170 48552 60114 83034
                   333 10290 20/// 58002 83360 81080=
201111030600 AAXX 03064 67441 NIL=

################################################################################
#  SYNOPS from 67461, Mansa (Zambia) | 11-06S | 028-51E | 1382 m
################################################################################
201111300600 AAXX 30064 67461 11460 72702 10189 20183 48532 60074 76062 877//
                   333 10292 20173 58013 87610=
201111290600 AAXX 29064 67461 32480 30810 10215 20184 48521 83502
                   333 10275 20171 59003 83611 82080=
201111280600 AAXX 28064 67461 32580 71202 10205 20190 48520 8457/
                   333 10259 20177 59004 84620 87462=
201111160600 AAXX 16064 67461 31980 70000 10224 20191 48520 70222 8707/
                   333 10279 20180 59001 87361=
201111150600 AAXX 15064 67461 11475 73604 10210 20181 48516 69904 70522 8257/
                   333 10286 20177 58017 82612 87462=
201111150500 AAXX 15054 67461 11475 73604 10210 20181 48516 69904 70522 8257/
                   333 10286 20177 58017 82612 87462=
201111090600 AAXX 09064 67461 31575 21104 10230 20171 48517 70500 81501
                   333 10289 20176 59017 81620 82080=
201111080600 AAXX 08064 67461 11575 70903 10195 20181 48530 69904 72844 8457/
                   333 10300 20165 58011 84617 86461=
201111040600 AAXX 04064 67461 31970 70802 10213 20174 48513 8157/
                   333 10260 20169 59014 81625 87462=
201111030600 AAXX 03064 67461 11975 71508 10208 20172 48533 60124 70522 8707/
                   333 10340 20177 58015 87462=

################################################################################
#  SYNOPS from 67475, Kasama (Zambia) | 10-13S | 031-08E | 1382 m
################################################################################
201111280600 AAXX 28064 67475 12580 71206 10198 20170 48529 69974 8557/
                   333 10225 20162 59003 85620 87460=
201111090600 AAXX 09064 67475 NIL=
201111080600 AAXX 08064 67475 NIL=
201111040600 AAXX 04064 67475 31670 41204 10232 20153 48519 70522 84100
                   333 10317 20155 59005 84830=
201111030600 AAXX 03064 67475 31970 71806 10226 20137 48524 70522 80002
                   333 10342 20159 58006 87280=

################################################################################
#  SYNOPS from 67476, Misamfu (Zambia) | 10-06S | 031-15E | 1536 m
################################################################################
201111090600 AAXX 09064 67476 12580 41005 10226 20169 48/// 69904 81130
                   333 10285 20200 5//// 81820 83360=
201111030600 AAXX 03064 67476 32980 00903 10274 20090 48/// 82030
                   333 10368 20180 59002 82360=

################################################################################
#  SYNOPS from 67477, Mpika (Zambia) | 11-54S | 031-26E | 1400 m
################################################################################
201111290900 AAXX 29094 67477 41480 70903 10196 20177 48525 72162 8557/
                   333 85612 87360=
201111290600 AAXX 29064 67477 11380 71103 10190 20177 48527 60084 72161 8577/
                   333 10246 20154 59007 85706 87360=
201111280600 AAXX 28064 67477 12280 81005 10184 20172 48534 60064 887//
                   333 10195 20145 58003 88704=
201111240900 AAXX 24094 67477 41660 63202 10262 20188 48509 71721 86330
                   333 58014 81957 86847 81361=
201111230900 AAXX 23094 67477 41880 60904 10290 20141 48495 71711 84721
                   333 5//// 81957 84857 82280=
201111160900 AAXX 16094 67477 42680 70906 10262 20157 48520 8123/
                   333 5//// 81840 87361=
201111140600 AAXX 14064 67477 32980 13605 10259 20135 48500 81080
                   333 10345 20162 59011 81360=
201111090600 AAXX 09064 67477 32680 41008 10226 20144 48522 84100
                   333 10269 20164 59012 84830=
201111080600 AAXX 08064 67477 32580 41016 10216 20148 48535 83101
                   333 10285 20135 58004 83827 81080=
201111040600 AAXX 04064 67477 32580 10908 10215 20152 48512 81101
                   333 10269 20145 59014 81825 81080=
201111030900 AAXX 03094 67477 42680 61010 10234 20147 48514 76101
                   333 58012 86834 81080=
201111030600 AAXX 03064 67477 32480 81310 10200 20161 48526 8752/
                   333 10340 20173 58010 87612 88460=
201111021200 AAXX 02124 67477 41975 10602 10328 20090 48472 70500 81200
                   333 58006 81859=

################################################################################
#  SYNOPS from 67481, Isoka (Zambia) | 10-07S | 032-38E | 1360 m
################################################################################
201111090600 AAXX 09064 67481 11475 72402 10205 20162 48/// 70522 82232 3333 10260 20168
                   5//// 82818 86362 82080=
201111080600 AAXX 08064 67481 32480 32102 10205 20177 48/// 83500
                   333 10278 20145 5//// 83610=
201111030600 AAXX 03064 67481 31975 31502 10255 20141 48/// 70521 80002
                   333 10364 20175 5//// 83080=

################################################################################
#  SYNOPS from 67531, Zambezi (Zambia) | 13-32S | 023-07E | 1077 m
################################################################################
201111301200 AAXX 30124 67531 41680 70905 10269 20197 48/// 72162 83132
                   333 58000 83831 83360 83080=
201111291200 AAXX 29124 67531 41980 73302 10211 20191 48/// 79196 8377/
                   333 58011 83707 87460=
201111280900 AAXX 28094 67531 41580 70906 10255 20204 48/// 71622 8687/
                   333 5//// 82823 84623 87460=
201111280600 AAXX 28064 67531 11380 70903 10201 20192 48/// 60204 72166 8367/
                   333 10271 20186 58007 83707 87460=
201111250600 AAXX 25064 67531 11380 80901 10201 20191 48/// 60014 72166 8567/
                   333 10290 20185 58015 85706 88460=
201111241200 AAXX 24124 67531 42680 73305 10273 20176 48/// 86202
                   333 58003 86838 82080=
201111240600 AAXX 24064 67531 12480 33605 10220 20184 48/// 60024 82101
                   333 10280 20185 58003 82814 82080=
201111230900 AAXX 23094 67531 42680 70304 10263 20184 48/// 81178
                   333 5//// 81821 82360 87280=
201111150600 AAXX 15064 67531 12980 70306 10221 20173 48/// 69904 8707/
                   333 10303 20189 58003 87360=
201111150500 AAXX 15054 67531 12980 70306 10221 20173 48/// 69904 8707/
                   333 10303 20189 58003 87360=
201111140600 AAXX 14064 67531 12380 73003 10211 20192 48/// 60044 8157/
                   333 10350 20190 59011 81608 87460=
201111110600 AAXX 11064 67531 32980 13604 10236 20175 48/// 81031
                   333 10340 20186 59011 81361=
201111091200 AAXX 09124 67531 42880 31403 10329 20114 48/// 83100
                   333 5//// 83856=
201111090900 AAXX 09094 67531 42780 10608 10290 20145 48/// 81100
                   333 59027 81856=
201111090600 AAXX 09064 67531 32980 10908 10240 20145 48/// 80002
                   333 10310 20160 59028 81081=
201111080900 AAXX 08094 67531 42680 70903 10259 20179 48/// 81108
                   333 58012 81831 87280=
201111080600 AAXX 08064 67531 12380 71001 10200 20185 48/// 60064 81108
                   333 10300 20183 58018 81808 87280=
201111030600 AAXX 03064 67531 NIL=

################################################################################
#  SYNOPS from 67541, Kasempa (Zambia) | 13-32S | 025-51E | 1234 m
################################################################################
201111280600 AAXX 28064 67541 NIL=
201111090600 AAXX 09064 67541 NIL=
201111080600 AAXX 08064 67541 NIL=
201111030600 AAXX 03064 67541 NIL=

################################################################################
#  SYNOPS from 67551, Solwezi (Zambia) | 12-11S | 026-23E | 1386 m
################################################################################
201111090600 AAXX 09064 67551 32980 21005 10214 20180 48522 80001
                   333 10/// 20168 59009 82080=
201111030600 AAXX 03064 67551 11360 71506 10176 20166 48533 60214 75052 876//
                   333 10/// 20166 58007 87708=

################################################################################
#  SYNOPS from 67561, Ndola (Zambia) | 13-00S | 028-39E | 1269 m
################################################################################
201111290600 AAXX 29064 67561 11960 50905 10206 20167 48518 69904 70522 84030
                   333 10270 20164 59012 84361 85280=
201111280900 AAXX 28094 67561 42580 70804 10250 20179 48521 84230
                   333 59003 84825 87361=
201111280600 AAXX 28064 67561 32380 70906 10185 20166 48529 81630
                   333 10243 20171 58007 81708 87360=
201111170600 AAXX 17064 67561 11360 70000 10200 20176 48526 60024 70522 83738
                   333 10257 20175 58007 83708 85360 87287
                   555 00///=
201111150600 AAXX 15064 67561 32970 70704 10277 20149 48502 8707/
                   333 10341 20229 58012 87359=
201111150500 AAXX 15054 67561 32970 70704 10277 20149 48502 8707/
                   333 10341 20229 58012 87359=
201111140600 AAXX 14064 67561 31965 10303 10241 20158 48500 70500 81030
                   333 10338 20170 59013 81360=
201111120600 AAXX 12064 67561 31959 30000 10257 20153 48524 70400 83030
                   333 10320 20160 58006 83360=
201111110600 AAXX 11064 67561 31960 00603 10216 20176 48514 70500
                   333 10321 20205 59002=
201111091200 AAXX 09124 67561 41660 60000 10286 20143 48494 70522 86200
                   333 59011 81950 86850=
201111090600 AAXX 09064 67561 NIL=
201111080900 AAXX 08094 67561 42680 71214 10266 20157 48539 85201
                   333 58008 85832 81080=
201111080600 AAXX 08064 67561 11470 71009 10229 20174 48492 60074 70542 85508
                   333 10294 20226 58012 85615 85280=
201111040600 AAXX 04064 67561 31959 50000 10198 20163 48518 70422 83038
                   333 10308 20155 58035 83361 85280=
201111030600 AAXX 03064 67561 11360 72608 10199 20170 48536 60084 70522 84738
                   333 10345 20185 58036 84709 86360 87280=

################################################################################
#  SYNOPS from 67563, Kafironda (Zambia) | 12-36S | 028-07E | 1243 m
################################################################################
201111300600 AAXX 30064 67563 11478 80000 10195 20190 48/// 60014 70522 886//
                   333 10292 20160 58014 88704=
201111280600 AAXX 28064 67563 11978 71102 10203 20180 48/// 60044 70522 8707/
                   333 10254 20167 58000 87358=
201111160600 AAXX 16064 67563 31975 73502 10223 20180 48/// 70522 8707/
                   333 10290 20165 58008 87362=
201111150600 AAXX 15064 67563 11475 80201 10198 20180 48/// 60014 70522 886//
                   333 10335 20170 58020 88704=
201111110600 AAXX 11064 67563 11970 20302 10218 20187 48/// 69904 70500 82030
                   333 10316 20162 59002 82358=
201111090600 AAXX 09064 67563 31978 00806 10234 20180 48/// 70500
                   333 10295 20151 59041=
201111080600 AAXX 08064 67563 11375 73302 10190 20180 48/// 60104 70522 84670
                   333 10304 20172 58013 84708 87359=

################################################################################
#  SYNOPS from 67571, Serenje (Zambia) | 13-14S | 030-13E | 1384 m
################################################################################
201111280900 AAXX 28094 67571 41482 70904 10225 20176 48503 875//
                   333 59010 81916 87618=
201111230900 AAXX 23094 67571 41480 72002 10237 20173 48483 84238
                   333 58005 81916 81848 86360 87280=
201111160900 AAXX 16094 67571 42482 70000 10261 20147 48525 82938
                   333 58014 81916 82820 85361=
201111150600 AAXX 15064 67571 11582 73002 10214 20174 48512 60054 70262 81538
                   333 10334 20171 58022 81629 83360 87280=

################################################################################
#  SYNOPS from 67580, Msekera (Zambia) | 13-39S | 032-34E | 1025 m
################################################################################
201111301200 AAXX 30124 67580 42880 71604 10323 20172 48/// 83238
                   333 58002 81957 83857 81362 86280=
201111300600 AAXX 30064 67580 12580 71806 10244 20160 48/// 69904 82238
                   333 10325 20//0 58006 82820 84360 87280=
201111291200 AAXX 29124 67580 41780 70905 10308 20166 48/// 71522 86238
                   333 59010 81950 85856 81362 86280=
201111290900 AAXX 29094 67580 42680 71505 10274 20185 48/// 84238
                   333 59010 84845 82360=
201111280900 AAXX 28094 67580 42680 71306 10270 20178 48/// 875//
                   333 58011 87612=
201111250600 AAXX 25064 67580 12980 70000 10270 20186 48/// 69904 84038
                   333 10324 20/// 58002 84360 86280=
201111240900 AAXX 24094 67580 42780 70604 10302 20174 48/// 86208
                   333 59019 86858 87280=
201111240600 AAXX 24064 67580 12980 70000 10272 20181 60114 83032
                   333 10344 20//0 58011 83360 87280=
201111150600 AAXX 15064 67580 12580 30303 10276 20168 48/// 69904 81131
                   333 10362 20//0 58020 81826 81360 82080=
201111090600 AAXX 09064 67580 32580 21107 10259 20169 48/// 81101
                   333 10304 20/// 5//// 81827 81080=
201111080600 AAXX 08064 67580 32580 71204 10239 20163 48/// 82131
                   333 10300 20/// 58016 82822 86360 81080=

################################################################################
#  SYNOPS from 67581, Chipata (Zambia) | 13-33S | 032-35E | 1028 m
################################################################################
201111290600 AAXX 29064 67581 12580 50908 10224 20170 48537 60034 82130
                   333 10314 20200 59011 82825 84360=
201111280900 AAXX 28094 67581 41665 60905 10271 20173 48546 70522 85809
                   333 59001 83630 82832 81080=
201111280600 AAXX 28064 67581 11565 70910 10226 20169 48547 69904 70522 87500
                   333 10269 20194 58021 87625=
201111140600 AAXX 14064 67581 32980 00804 10288 20167 48511
                   333 10352 20250 59016=
201111091200 AAXX 09124 67581 42680 50906 10322 20146 48512 85200
                   333 59029 85845=
201111090600 AAXX 09064 67581 32680 21207 10252 20172 48542 82100
                   333 10299 20190 59015 82830=
201111080600 AAXX 08064 67581 31660 61606 10227 20167 48551 70522 81170
                   333 10291 20191 58015 81830 86459=
201111040600 AAXX 04064 67581 31960 70906 10251 20161 48534 70522 80008
                   333 10299 20186 59009 87280=
201111030600 AAXX 03064 67581 32680 81406 10241 20156 48541 82132
                   333 10361 20191 58015 82830 83360 88280=

################################################################################
#  SYNOPS from 67583, Lundazi (Zambia) | 12-17S | 033-12E | 1143 m
################################################################################
201111160600 AAXX 16064 67583 12980 61202 10255 20180 48/// 69904 86030
                   333 10330 20185 86360=
201111090600 AAXX 09064 67583 12580 31205 10245 20168 48/// 69904 81530
                   333 10277 20179 5//// 81625 83360=
201111080600 AAXX 08064 67583 12580 71705 10215 20160 48/// 69904 81530
                   333 10258 20172 5//// 81625 87360=

################################################################################
#  SYNOPS from 67599, Mfuwe (Zambia) | 13-16S | 031-56E | 568 m
################################################################################
201111301200 AAXX 30124 67599 42680 50907 10350 20191 48555 84231
                   333 59002 84840 82360 81080 91014=
201111291200 AAXX 29124 67599 41680 62703 10324 20204 48534 71792 81930
                   333 59010 819// 83845 86360=
201111290600 AAXX 29064 67599 12480 40000 10255 20209 48548 60084 70322 81230
                   333 10340 20205 59015 81815 83360
                   555 00/// 20021=
201111250600 AAXX 25064 67599 12580 30000 10276 20186 48545 69904 81130
                   333 10378 20219 59004 81820 83360=
201111160900 AAXX 16094 67599 42780 40000 10325 20180 48547 70322 84200
                   333 58011 84856 91016=
201111090600 AAXX 09064 67599 32980 20906 10285 20189 48556 82030
                   333 10343 20200 59018 82360=
201111030600 AAXX 03064 67599 12370 82904 10225 20194 48548 60094 8107/
                   333 10412 20205 58036 81709 88460=

################################################################################
#  SYNOPS from 67625, Kalabo (Zambia) | 14-51S | 022-42E | 1033 m
################################################################################
201111090600 AAXX 09064 67625 32980 00912 10244 20165 48///
                   333 10354 20176 58008=
201111080600 AAXX 08064 67625 12982 20813 10232 20194 48/// 60034 81032
                   333 10352 20182 58013 81360 82080=

################################################################################
#  SYNOPS from 67633, Mongu (Zambia) | 15-15S | 023-09E | 1052 m
################################################################################
201111290600 AAXX 29064 67633 11980 83604 10205 20198 48517 60044 76066 85038
                   333 10250 20200 59002 85460 88280=
201111280600 AAXX 28064 67633 11980 70000 10213 20202 48514 60144 76066 8707/
                   333 10307 20195 58009 87460=
201111240600 AAXX 24064 67633 32480 63505 10223 20202 48507 84532
                   333 10283 20193 58003 84610 84361 83080=
201111230900 AAXX 23094 67633 42680 73603 10260 20201 48504 70002 83238
                   333 58009 83830 85361 87280=
201111160600 AAXX 16064 67633 12980 72302 10210 20194 48514 60104 8707/
                   333 10360 20194 58022 87361=
201111140600 AAXX 14064 67633 12980 72708 10225 20178 48492 60014 85038
                   333 10370 20195 59014 85361 82080=
201111090900 AAXX 09094 67633 42980 00908 10326 20089 48525
                   333 59023=
201111090600 AAXX 09064 67633 32980 00406 10247 20151 48516
                   333 10345 20193 59017=
201111080600 AAXX 08064 67633 12980 70204 10240 20189 48533 60104 85032
                   333 10360 20184 58010 85361 82080=
201111040600 AAXX 04064 67633 32980 20602 10240 20186 48515 80002
                   333 10330 20180 59011 82080=
201111030900 AAXX 03094 67633 41480 80904 10196 20176 48535 76166 8457/
                   333 58039 84617 88460=
201111030600 AAXX 03064 67633 12980 70000 10205 20179 48520 69904 82038
                   333 10390 20195 58035 82361 87280=

################################################################################
#  SYNOPS from 67641, Kaoma (Zambia) | 14-48S | 024-48E | 1213 m
################################################################################
201111280600 AAXX 28064 67641 11475 70802 10195 20187 48510 60084 72166 8453/
                   333 10272 20193 58014 84630 87360=
201111090600 AAXX 09064 67641 31975 00802 10215 20142 48509 70500
                   333 10340 20150 59023=
201111080600 AAXX 08064 67641 31975 30402 10250 20179 48537 70500 80002
                   333 10345 20187 58025 83080=
201111030600 AAXX 03064 67641 NIL=

################################################################################
#  SYNOPS from 67655, Mumbwa (Zambia) | 15-04S | 027-11E | 1216 m
################################################################################
201111280900 AAXX 28094 67655 42480 70805 10231 20172 48521 875//
                   333 58011 87613=
201111280600 AAXX 28064 67655 32380 71012 10204 20171 48533 8457/
                   333 10260 20/// 58007 84610 86357=
201111170900 AAXX 17094 67655 42680 50908 10284 20166 48529 84208
                   333 59006 84835 84278 91019=
201111160900 AAXX 16094 67655 41780 73106 10210 20173 48525 76022 8702/
                   333 58020 87456 91020=
201111150600 AAXX 15064 67655 12580 60404 10229 20169 48517 85031
                   333 10336 20//0 58015 83360 84080=
201111110600 AAXX 11064 67655 32980 01012 10261 20131 48508
                   333 10332 20//0 59005=
201111091200 AAXX 09124 67655 42580 41006 10310 20134 48505 84200
                   333 59027 84830=
201111090600 AAXX 09064 67655 32980 00910 10229 20147 48513
                   333 10309 20/// 59017=
201111080600 AAXX 08064 67655 32580 40903 10221 20171 48550 81101
                   333 10321 20/// 58013 81825 84078=

################################################################################
#  SYNOPS from 67659, Kafue Polder (Zambia) | 15-46S | 027-55E | 978 m
################################################################################
201111030600 AAXX 03064 67659 11960 70902 10200 20189 48/// 60054 70532 84038
                   333 10335 20166 58040 84362 87280=

################################################################################
#  SYNOPS from 67663, Kabwe (Zambia) | 14-27S | 028-28E | 1206 m
################################################################################
201111290600 AAXX 29064 67663 32480 30706 10215 20179 48524 82532
                   333 10248 20169 59008 82618 81360 87080=
201111280600 AAXX 28064 67663 12480 70608 10198 20173 48531 69954 85530
                   333 10247 20172 58004 85619 84360=
201111090600 AAXX 09064 67663 31975 01705 10236 20158 48515 70500
                   333 10295 20179 59032=
201111080600 AAXX 08064 67663 31575 70913 10223 20169 48544 70522 85508
                   333 10312 20177 58016 85622 86280=
201111040600 AAXX 04064 67663 11975 00608 10199 20161 48520 60014 70500
                   333 10248 20160 59017=
201111030600 AAXX 03064 67663 11460 82301 10178 20172 48534 60294 76396 8357/
                   333 10351 20173 58036 81917 83617 88460=

################################################################################
#  SYNOPS from 67665, Lusaka Internationalairport (Zambia) | 15-19S | 028-27E | 1152 m
################################################################################
201112010600 AAXX 01064 67665 12980 00000 10226 20202 48537 60014
                   333 10312 20110 59008=
201112010000 AAXX 01004 67665 42980 03001 10196 20196 48514
                   333 59010=
201111302100 AAXX 30214 67665 42980 02501 10205 20205 48526
                   333 59002=
201111301500 AAXX 30154 67665 42780 61002 10298 20178 48502
                   333 58000 81956 82360 83080
                   555 10305 91015=
201111301200 AAXX 30124 67665 42680 60601 10291 20178 48521 84202
                   333 59002 84845 85080 91017=
201111300900 AAXX 30094 67665 42680 61001 10263 20172 48546 81102
                   333 58007 81830 86080=
201111300600 AAXX 30064 67665 32980 60703 10224 20178 48544 84032
                   333 10293 20150 58007 84360 83080=
201111291800 AAXX 29184 67665 42980 01101 10224 20185 48514
                   333 10293 59008=
201111291500 AAXX 29154 67665 42780 20904 10282 20163 48503 81100
                   333 59006 82850=
201111291200 AAXX 29124 67665 42680 30904 10278 20197 48522 83100
                   333 59016 83836=
201111290900 AAXX 29094 67665 42580 30705 10257 20206 48539 82101
                   333 59014 82825 83080 91020=
201111290600 AAXX 29064 67665 32480 20905 10217 20159 48536 81101
                   333 10255 20156 59008 81815 82080
                   555 00/// 91020=
201111281200 AAXX 28124 67665 42580 70803 10230 20215 48533 8483/
                   333 58004 83625 84830 86360=
201111280900 AAXX 28094 67665 42480 70703 10220 20183 48548 8683/
                   333 58004 85820 85360=
201111280600 AAXX 28064 67665 12480 70805 10198 20176 48542 60084 8663/
                   333 10220 20164 58004 86610 83360=
201111280400 AAXX 28044 67665 42380 71002 10183 20183 48532 81630
                   333 58000 81709 87360=
201111272100 AAXX 27214 67665 42980 71002 10187 20187 48527 8703/
                   333 58002 87360=
201111270400 AAXX 27044 67665 42360 70801 10225 20225 48528 70322 8163/
                   333 58018 81707 87360 91019=
201111270300 AAXX 27034 67665 42980 61401 10225 20225 48532 70122 86031
                   333 58020 86360 81080 91019=
201111270000 AAXX 27004 67665 42760 71901 10223 20223 48516 70222 8193/
                   333 58008 81956 87360 91018=
201111262100 AAXX 26214 67665 42660 71401 10217 20217 48528 70262 8193/
                   333 58006 81945 87360 91019=
201111261800 AAXX 26184 67665 41660 71701 10212 20212 48511 76096 8193/
                   333 10256 58000 81940 87359=
201111261500 AAXX 26154 67665 42780 71106 10239 20217 48498 82232
                   333 58003 81956 81856 83360 85080=
201111261200 AAXX 26124 67665 42680 71203 10247 20211 48495 82230
                   333 59018 82850 87360=
201111260600 AAXX 26064 67665 11350 70803 10203 20203 48525 79586 8333/
                   333 10275 20174 59008 83708 81956 87360=
201111260400 AAXX 26044 67665 41980 50000 10202 20202 48507 71592 81931
                   333 59016 81959 85360 82080=
201111260300 AAXX 26034 67665 42980 50000 10203 20203 48502 81931
                   333 59013 81959 85360 82080=
201111260000 AAXX 26004 67665 42380 30000 20196 48503 83531
                   333 58003 81607 82360 81080=
201111252100 AAXX 25214 67665 45980 50000 10215 20215 48522 85031
                   333 58001 85360 82080=
201111251800 AAXX 25184 67665 41780 71702 10231 20231 48510 71322 81932
                   333 10275 59004 81956 84360 86280 91017=
201111251500 AAXX 25154 67665 42680 72804 10249 20221 48496 82232
                   333 58004 81945 81845 82360 87280 91015=
201111251200 AAXX 25124 67665 42680 72402 10261 20210 48514 82232
                   333 58009 82835 84360 87280 91017=
201111250900 AAXX 25094 67665 42460 72502 10229 20222 48537 85870
                   333 58007 82815 84620 86459=
201111250600 AAXX 25064 67665 12360 82501 10229 20229 48536 60024 8577/
                   333 10252 20175 58009 85708 87759=
201111241800 AAXX 24184 67665 42980 61701 10210 20203 48515 86031
                   333 10252 58011 86360 82080=
201111241200 AAXX 24124 67665 42580 72903 10219 20213 48501 81832
                   333 58002 81625 81830 81360 87280=
201111240900 AAXX 24094 67665 41460 73505 10203 20196 48527 72582 8553/
                   333 58009 85615 87360 91019=
201111240600 AAXX 24064 67665 11365 80302 10206 20206 48524 69904 71799 8197/
                   333 10280 20194 58000 85707 81910 88459
                   555 91019=
201111231200 AAXX 23124 67665 42680 50603 10253 20210 48502 81230
                   333 58013 81840 85360=
201111230900 AAXX 23094 67665 42480 70704 10229 20222 48521 70222 81530
                   333 58009 81612 86360 91018=
201111230600 AAXX 23064 67665 11360 70903 10221 20214 48526 60114 75022 8177/
                   333 10320 20170 58004 81705 87459
                   555 00/// 91019=
201111230400 AAXX 23044 67665 42360 80502 10221 20221 48517 8177/
                   333 58007 81705 88459=
201111222100 AAXX 22214 67665 41660 71102 10205 20205 48524 79596 8297/
                   333 58020 82935 87459=
201111221200 AAXX 22124 67665 42680 71103 10304 20186 48495 82232
                   333 59008 82848 84360 86080=
201111220600 AAXX 22064 67665 32375 61503 10252 20189 48526 81630
                   333 10331 20206 59004 81709 86360=
201111220400 AAXX 22044 67665 42380 70000 10226 20196 48512 70322 8553/
                   333 5//// 85607 87360 91017=
201111220300 AAXX 22034 67665 42980 50000 10288 20190 48503 85030
                   333 5//// 85360 91016=
201111220000 AAXX 22004 67665 42980 50000 10233 20189 48496 85030
                   333 5//// 85360 91015=
201111212100 AAXX 21214 67665 42980 52601 10237 20199 48507 70222 85030
                   333 5//// 85360 91017=
201111211800 AAXX 21184 67665 42980 52101 10264 20206 48495 85030
                   333 10331 59011 85360=
201111211500 AAXX 21154 67665 42780 30000 10318 20148 48486 81231
                   333 59011 81856 81360 81080=
201111211200 AAXX 21124 67665 42780 42902 10311 20158 48505 84201
                   333 59010 84850 81080=
201111210600 AAXX 21064 67665 32970 60302 10247 20186 48529 70522 86001
                   333 10325 20162 59010 86080=
201111201800 AAXX 20184 67665 42980 41401 10242 20190 48504 83031
                   333 10325 59001 83360 81080=
201111201500 AAXX 20154 67665 42780 31303 10303 20165 48495 81930
                   333 59009 81957 82360
                   555 10325 91014=
201111201200 AAXX 20124 67665 42780 40303 10305 20169 48515 84200
                   333 58001 84850 91017=
201111200900 AAXX 20094 67665 42680 10604 10286 20187 48540 81130
                   333 58002 81840 81360=
201111200600 AAXX 20064 67665 32980 10903 10239 20204 48538 81031
                   333 58002 81360 81080=
201111191200 AAXX 19124 67665 42680 60603 10307 20191 48515 85202
                   333 59003 85840 82080=
201111190600 AAXX 19064 67665 12975 51203 10240 20211 48536 69904 70500 82032
                   333 10312 20165 59005 82360 83080
                   555 00/// 91020=
201111181200 AAXX 18124 67665 42680 60603 10295 20201 48516 85232
                   333 58006 85845 82360 83080=
201111180900 AAXX 18094 67665 42580 60705 10264 20214 48538 82131
                   333 58006 82825 85360 83080=
201111180600 AAXX 18064 67665 32980 70703 10225 20189 48540 70222 8703/
                   333 10310 20186 58005 87360 555=
201111180400 AAXX 18044 67665 42980 71403 10202 20202 48526 87030
                   333 58003 87360=
201111180300 AAXX 18034 67665 42980 61502 10200 20200 48525 86030
                   333 58010 86360=
201111180000 AAXX 18004 67665 42980 71302 10217 20217 48510 8703/
                   333 59012 87360=
201111172100 AAXX 17214 67665 42980 71801 10225 20225 38524 8703/
                   333 59012 87360=
201111171200 AAXX 17124 67665 42680 60603 10298 20196 48510 85202
                   333 58000 85845 83080=
201111170900 AAXX 17094 67665 42680 50704 10278 20213 48535 70222 83132
                   333 58046 83830 81360 82080 91019=
201111170600 AAXX 17064 67665 12980 60902 10226 20203 48535 70222 82032
                   333 10319 20176 58003 82360 85080
                   555 91020=
201111161800 AAXX 16184 67665 41760 71801 10214 20214 48516 71322 8193/
                   333 10319 58028 81950 87359=
201111161500 AAXX 16154 67665 41660 72302 10206 20206 48495 76096 8193/
                   333 58021 81940 87359=
201111161200 AAXX 16124 67665 41680 60302 10301 20191 48510 71722 85232
                   333 58009 81940 85840 81360 81080=
201111160900 AAXX 16094 67665 42580 63302 10271 20201 48534 70322 83232
                   333 58023 83820 81360 85080 91020=
201111160600 AAXX 16064 67665 11260 62902 10202 20193 48528 60014 72162 81632
                   333 10320 20180 58017 81705 85360 83080
                   555 00///=
201111160000 AAXX 16004 67665 42980 70804 10223 20198 48505 87030
                   333 5//// 87360=
201111152100 AAXX 15214 67665 42980 41901 10220 20197 48508 84030
                   333 5//// 84360=
201111151800 AAXX 15184 67665 42780 30000 10243 20199 48492 81932
                   333 10320 58015 81957 81360 82080=
201111151200 AAXX 15124 67665 41680 61804 10263 20188 48496 84232
                   333 58027 81945 83845 83360 81080=
201111150900 AAXX 15094 67665 42680 70301 10282 20169 48518 81230
                   333 58021 81835 87360=
201111150600 AAXX 15064 67665 32980 63102 10249 20194 48518 86030
                   333 10350 20199 58018 86360=
201111150500 AAXX 15054 67665 32980 63102 10249 20194 48518 86030
                   333 10350 20199 58018 86360=
201111141800 AAXX 14184 67665 42980 22301 10245 20167 48478 70500 81031
                   333 10350 58001 81360 81080=
201111141500 AAXX 14154 67665 41857 63105 10291 20161 48470 70522 84232
                   333 59003 84858 85360 83080=
201111141200 AAXX 14124 67665 41980 53002 10332 20136 48/// 70522 84232
                   333 59019 84856 83360 83080=
201111140900 AAXX 14094 67665 41957 53603 10319 20139 48501 70522 81032
                   333 59022 81360 84080=
201111140600 AAXX 14064 67665 31956 43003 10257 20165 48501 70522 84031
                   333 10351 20194 59023 83031 81080=
201111140400 AAXX 14044 67665 41360 60000 10199 20168 48488 74022 83530
                   333 59023 83607 85359=
201111140300 AAXX 14034 67665 52501 10201 20170 48478 85030
                   333 58026 85359=
201111140000 AAXX 14004 67665 42980 22102 10219 20155 48476 82030
                   333 59015 82360=
201111132100 AAXX 13214 67665 42980 31801 10232 20163 48488 83031
                   333 59018 83360 81080=
201111131800 AAXX 13184 67665 41980 31802 10258 20150 48479 71392 81931
                   333 10251 59014 81959 82360 81080=
201111130900 AAXX 13094 67665 42780 10203 10308 20135 48522 81100
                   333 59010 81850=
201111130600 AAXX 13064 67665 32980 03103 10258 20184 48524
                   333 10344 20175 59012=
201111121800 AAXX 12184 67665 42980 10000 10259 20149 48493 81030
                   333 10344 59004 81360=
201111121500 AAXX 12154 67665 42780 20304 10334 20135 48487 70200 81930
                   333 58002 81957 82360
                   555 10334=
201111121200 AAXX 12124 67665 42780 30803 10330 20144 48496 83200
                   333 58005 83856 91015=
201111120900 AAXX 12094 67665 42780 10304 10304 20168 48531 81100
                   333 58010 81850=
201111120600 AAXX 12064 67665 32980 01001 10268 20151 48537
                   333 10337 20180 58014=
201111111200 AAXX 11124 67665 42680 50503 10331 20145 48501 85200
                   333 58004 85849=
201111110900 AAXX 11094 67665 42680 10204 10295 20175 48521 70200 81100
                   333 59003 81840 91017=
201111110600 AAXX 11064 67665 32980 00304 10254 20143 48521
                   333 10335 20160 59004
                   555 00/// 91018=
201111110400 AAXX 11044 67665 42980 00000 10170 20129 48499
                   333 59006=
201111110300 AAXX 11034 67665 42980 01701 10165 20122 48492
                   333 59007=
201111110000 AAXX 11004 67665 42980 11801 10182 20150 48486 81030
                   333 59001 81362=
201111102100 AAXX 10214 67665 42980 11801 10201 20115 48499 81030
                   333 59007 81362=
201111101800 AAXX 10184 67665 42980 10000 10249 20110 48488 81030
                   333 59011 81360=
201111101200 AAXX 10124 67665 42780 33003 10321 20153 48496 83200
                   333 59015 83856=
201111100600 AAXX 10064 67665 32980 00603 10255 20132 48525
                   333 10320 20149 59017=
201111100400 AAXX 10044 67665 42980 01601 10169 20106 48504
                   333 59020=
201111092100 AAXX 09214 67665 42980 11501 10208 20125 48507 81030
                   333 59026 81360=
201111091800 AAXX 09184 67665 42980 11301 10243 20147 48498 81030
                   333 10320 59036 81360=
201111091500 AAXX 09154 67665 42880 21202 10310 20147 48495 82100
                   333 59037 82858=
201111091200 AAXX 09124 67665 42780 41002 10309 20133 48511 84100
                   333 59029 84850=
201111090900 AAXX 09094 67665 42680 20706 10282 20168 48533 82100
                   333 59028 84840=
201111090600 AAXX 09064 67665 32980 00809 10231 20168 48539
                   333 10295 20150 59010=
201111090000 AAXX 09004 67665 42980 00000 10181 20166 48515
                   333 59018 91018=
201111082100 AAXX 08214 67665 42980 01302 10195 20164 48531 70200
                   333 59014 91020=
201111081800 AAXX 08184 67665 42980 11102 10223 20158 48531 81030
                   333 10295 58001 813=
201111081500 AAXX 08154 67665 42780 10904 10283 20150 48529 81200
                   333 58017 81856=
201111081200 AAXX 08124 67665 42680 20906 10287 20165 48537 82100
                   333 58016 82845=
201111080900 AAXX 08094 67665 42680 30910 10267 20167 48559 83100
                   333 58015 83825=
201111080600 AAXX 08064 67665 32380 70905 10214 20174 48556 87601
                   333 10310 20159 58017 87610 81080=
201111071800 AAXX 07184 67665 42980 50804 10242 20190 48532 70200 81032
                   333 10310 58017 81360 85280 91019=
201111071500 AAXX 07154 67665 42780 61206 10291 20171 48513 81903
                   333 58014 81956 81360 86280
                   555 10310 91017=
201111071200 AAXX 07124 67665 42680 71104 10301 20119 48522 85232
                   333 58021 81945 84845 82360 83080 91017=
201111070900 AAXX 07094 67665 42980 71005 10283 20212 48546 82202
                   333 58012 82830 86080=
201111070600 AAXX 07064 67665 32980 60903 10225 20218 48542 82032
                   333 10314 20171 58012 82360 86080=
201111061200 AAXX 06124 67665 41665 71408 10274 20203 48505 71722 8533/
                   333 59013 82935 85837 87360=
201111060900 AAXX 06094 67665 41560 70000 10277 20221 48527 70522 82130
                   333 59009 82825 86360=
201111060600 AAXX 06064 67665 11960 60000 10230 20201 48530 60054 70522 86031
                   333 10300 20196 58000 86360 81080
                   555 00///=
201111060400 AAXX 06044 67665 41980 70201 10211 20211 48515 70500 8707/
                   333 58001 87360=
201111060300 AAXX 06034 67665 42980 70000 10214 20214 48512 8707/
                   333 59006 87360=
201111060000 AAXX 06004 67665 42980 70000 10219 20219 48509 8707/
                   333 58005 87360=
201111052100 AAXX 05214 67665 41980 72101 10222 20222 48527 70500 8703/
                   333 58019 87360=
201111051800 AAXX 05184 67665 41980 61502 10242 20213 48513 86031
                   333 58011 86360 81080=
201111050400 AAXX 05044 67665 42980 71801 10194 20194 48512 87030
                   333 59010 87360=
201111042100 AAXX 04214 67665 42980 12701 10211 20211 48507 80001
                   333 59021 81080=
201111041800 AAXX 04184 67665 42980 00501 10242 20212 48502
                   333 59022=
201111041500 AAXX 04154 67665 42780 20401 10281 20190 48496 81101
                   333 59021 81856 81080=
201111041200 AAXX 04124 67665 42680 53302 10282 20043 48504 85130
                   333 59027 85840 81360 81080=
201111040900 AAXX 04094 67665 42580 50503 10238 20201 48527 83132
                   333 59028 83825 84360 83080=
201111040600 AAXX 04064 67665 12480 40804 10199 20199 48532 60014 84530
                   333 10242 20145 59010 84610 81360=
201111040300 AAXX 04034 67665 42380 71201 10191 20191 48517 70322 867//
                   333 59013 86705=
201111040000 AAXX 04004 67665 42980 21301 10192 20192 48509 70200 82030
                   333 58005 82360 91017=
201111032100 AAXX 03214 67665 42980 20000 10173 20173 48529 70200 82030
                   333 58012 82360 91019=
201111031800 AAXX 0318/ 67665 42780 70903 10195 20195 47517 81930
                   333 10242 58017 81950 87360=
201111031500 AAXX 03154 67665 42680 60905 10228 20206 48511 83830
                   333 58033 82835 81637 85360=
201111031200 AAXX 03124 67665 42560 70804 10221 20206 48523 84830
                   333 58028 83820 81622 86360=
201111030900 AAXX 03094 67665 42359 70904 10229 20229 48553 8563/
                   333 58032 85706 87360=
201111030600 AAXX 03064 67665 11359 70502 10227 20227 48556 60304 76099 8493/
                   333 10360 20165 58038 84707 81950 87460=
201111021800 AAXX 02184 67665 41760 51204 10268 20185 48511 71322 81930
                   333 10360 58023 81958 85080=
201111021500 AAXX 02154 67665 41760 41505 10313 20179 48486 70500 81931
                   333 58011 81957 81360 83080
                   555 10360 91013=
201111021200 AAXX 02124 67665 41760 60605 10310 20185 48505 70522 81130
                   333 58027 81856 86360 91016=
201111020900 AAXX 02094 67665 41660 60809 10294 20192 48529 70522 81130
                   333 58027 81845 85360=
201111020600 AAXX 02064 67665 31960 60908 10261 20203 48523 70522 86030
                   333 10371 20198 58016=
201111010900 AAXX 01094 67665 41959 00406 10346 20100 48509 70500
                   333 59006=
201111010600 AAXX 01064 67665 31958 00601 10275 20098 48510 70500
                   333 10364 20207 58006=

################################################################################
#  SYNOPS from 67666, Lusaka City Airport (Zambia) | 15-25S | 028-19E | 1280 m
################################################################################
201111300600 AAXX 30064 67666 32980 40905 10215 20139 48538 82031
                   333 10275 20185 58009 82361 82080=
201111291200 AAXX 29124 67666 42580 31110 10270 20160 48513 83101
                   333 59015 83825 82080=
201111280900 AAXX 28094 67666 42480 70810 10215 20177 48539 85838
                   333 58007 83618 83820 85361 85280=
201111280600 AAXX 28064 67666 12480 71010 10190 20166 48544 60044 8453/
                   333 10210 20172 58006 84612 87360=
201111251200 AAXX 25124 67666 42580 72805 10255 20154 48506 84208
                   333 58008 84820 86280 91016=
201111250600 AAXX 25064 67666 11458 82605 10192 20192 48527 60114 76166 8457/
                   333 10260 20188 58010 84612 88458=
201111240900 AAXX 24094 67666 41480 81008 10190 20181 48512 75052 886//
                   333 5//// 88612 91019=
201111240600 AAXX 24064 67666 11470 80905 10200 20200 48518 60014 76022 8357/
                   333 10261 20200 58001 83612 88459=
201111230900 AAXX 23094 67666 42480 71010 10218 20175 48512 81170
                   333 58001 81815 87360=
201111180900 AAXX 18094 67666 42680 70914 10250 20174 48528 83230
                   333 58001 83830 87360 91019=
201111160900 AAXX 16094 67666 42580 62704 10260 20170 48529 82230
                   333 58020 82838 82360=
201111160600 AAXX 16064 67666 12880 72705 10195 20187 48521 60444 70222 8707/
                   333 10300 20180 58017 84359 84459=
201111150600 AAXX 15064 67666 12980 50000 10230 20169 48512 60044 85030
                   333 10335 20200 58019 85359=
201111110600 AAXX 11064 67666 32980 01304 10250 20095 48515
                   333 10310 20175 59004=
201111091200 AAXX 09124 67666 42680 20506 10306 20104 48504 82100
                   333 59026 82830=
201111090600 AAXX 09064 67666 31980 00910 10225 20145 48534
                   333 10300 20185 5////=
201111080600 AAXX 08064 67666 32480 31210 10215 20160 48541 83501
                   333 10300 20180 58014 83612 82080=
201111071200 AAXX 07124 67666 41580 60305 10275 20169 48511 72992 81932
                   333 58013 82938 82835 83280=
201111060900 AAXX 06094 67666 42680 62302 10370 20213 48526 82230
                   333 59001 82836 85360=
201111060600 AAXX 06064 67666 32980 62202 10255 20212 48529 86030
                   333 10285 20260 58002 86360
                   555 10195=
201111030600 AAXX 03064 67666 11378 80805 10180 20180 48544 60124 76062 8571/
                   333 10340 20170 58036 85708 87458=
201111021200 AAXX 02124 67666 42980 40905 10305 20236 48498 83260
                   333 58020 83836 83362=

################################################################################
#  SYNOPS from 67667, Mount Makulu (Zambia) | 15-33S | 028-15E | 1213 m
################################################################################
201111090600 AAXX 09064 67667 32980 00918 10240 20124 48/// 70500
                   333 10315 20155 5////=
201111080600 AAXX 08064 67667 32680 10917 10235 20148 48/// 70500 81101
                   333 10320 20175 5//// 81840 81082=
201111030600 AAXX 03064 67667 11680 80902 10185 20174 48/// 60074 72992 885//
                   333 10330 20173 58013 81950 88635=

################################################################################
#  SYNOPS from 67673, Petauke (Zambia) | 14-15S | 031-17E | 1035 m
################################################################################
201111291200 AAXX 29124 67673 42680 50902 10299 20175 48530 85231
                   333 59011 85845 82360 81080=
201111290900 AAXX 29094 67673 42680 40801 10268 20174 48546 84131
                   333 59004 84832 81360 81080=
201111230900 AAXX 23094 67673 41680 60000 10295 20166 48530 70522 84130
                   333 58021 84835 86360=
201111160600 AAXX 16064 67673 12908 60906 10260 20175 48539 69914 86030
                   333 10352 20209 58014 86362=
201111090600 AAXX 09064 67673 32980 11207 10258 20151 48549 81030
                   333 10300 20196 59017 81362=
201111080600 AAXX 08064 67673 32580 41507 10236 20159 48560 83502
                   333 10310 20188 58001 83620 81080=
201111030600 AAXX 03064 67673 11960 81605 10172 20167 48547 60104 76166 8807/
                   333 10335 20172 58029 88460=

################################################################################
#  SYNOPS from 67731, Senanga (Zambia) | 16-06S | 023-16E | 1027 m
################################################################################
201111090600 AAXX 09064 67731 32980 00901 10270 20171 48///
                   333 10348 20191 5////=
201111080600 AAXX 08064 67731 12980 63602 10254 20211 48/// 60024 82038
                   333 10355 20130 5//// 82361 86080=
201111030600 AAXX 03064 67731 32980 70901 10227 20204 48/// 80002
                   333 10389 20204 5//// 87080=

################################################################################
#  SYNOPS from 67741, Sesheke (Zambia) | 17-28S | 024-18E | 949 m
################################################################################
201111080600 AAXX 08064 67741 32980 33602 10273 20178 48549 83030
                   333 10375 20235 58021 83362=

################################################################################
#  SYNOPS from 67743, Livingstone (Zambia) | 17-49S | 025-49E | 985 m
################################################################################
201111300600 AAXX 30064 67743 32680 62004 10240 20196 48539 82102
                   333 10330 20208 58007 82840 85080=
201111291500 AAXX 29154 67743 42780 40905 10309 20171 48492 84131
                   333 59019 84856 81360 81080=
201111291200 AAXX 29124 67743 42780 40607 10314 20164 48515 84201
                   333 59010 84850 81080=
201111290900 AAXX 29094 67743 42680 60805 10290 20185 48539 84130
                   333 59008 84845 83361 91018=
201111290600 AAXX 29064 67743 32980 30908 10245 20186 48546 83031
                   333 10306 20210 59006 83360 81079
                   555 00/// 20001=
201111280600 AAXX 28064 67743 12380 50908 10225 20195 48536 60084 8663/
                   333 10220 20164 58004 86610 83360=
201111250600 AAXX 25064 67743 12980 73105 10202 20184 48510 60094 8707/
                   333 10306 20188 58012 87360=
201111240600 AAXX 24064 67743 12780 73707 10236 20185 48/// 69904 75022 8357/
                   333 10320 20221 59011 83650 87360
                   555 00/// BB/// CC051 20001=
201111190600 AAXX 19064 67743 12980 61802 10240 20180 48534 69904 70200 86070
                   333 10312 20192 59007 86360 555=
201111180900 AAXX 18094 67743 42580 73406 10270 20177 48534 71792 8197/
                   333 59007 81920 84620 85075 91018=
201111170600 AAXX 17064 67743 12980 20205 10261 20163 48530 60294 81032
                   333 10350 20192 58006 81360 81080
                   555 00///=
201111160900 AAXX 16094 67743 42770 41006 10330 20156 48528 83132
                   333 58019 83850 81360 81080 91016=
201111140600 AAXX 14064 67743 12970 73007 10245 20150 48485 60194 8703/
                   333 10400 20198 59022 87359=
201111091500 AAXX 09154 67743 41865 11009 10360 20050 48489 70500 81100
                   333 59036 81857=
201111091200 AAXX 09124 67743 42765 11807 10359 20065 48509 70500 81100
                   333 59032 81850=
201111090600 AAXX 09064 67743 32965 00908 10270 20117 48535
                   333 10363 20209 59023=
201111080900 AAXX 08094 67743 42980 10710 10316 20132 48559 81030
                   333 58018 81360=
201111080600 AAXX 08064 67743 32980 20910 10280 20127 48559 82030
                   333 10364 20230 58018 82359=
201111060600 AAXX 06064 67743 31960 32705 10260 20150 48523 70500 83030
                   333 10303 20206 58002 83360
                   555 00///=
201111041500 AAXX 04154 67743 42780 20401 10281 20190 48496 81101
                   333 59021 81856 81080=
201111041200 AAXX 04124 67743 41760 42704 10339 20118 48498 70500 84100
                   333 59030 84856=
201111030600 AAXX 03064 67743 31960 71110 10221 20162 48543 70522 87038
                   333 10295 20196 58036 87359 87079=
201111021200 AAXX 02124 67743 41960 61811 10330 48503 70500 82031
                   333 58033 82360 84080=

################################################################################
#  SYNOPS from 67751, Magoye (Zambia) | 16-00S | 027-36E | 1018 m
################################################################################
201111090600 AAXX 09064 67751 31975 00909 10263 20148 48/// 70500
                   333 10325 20133 5////=
201111030600 AAXX 03064 67751 11478 70808 10205 20184 48/// 69904 72162 82130
                   333 10340 20106 59034 82810 85360=

################################################################################
#  SYNOPS from 67753, Choma (Zambia) | 16-50S | 027-04E | 1213 m
################################################################################
201111280600 AAXX 28064 67753 12560 40508 10210 20177 48/// 69904 83830
                   333 10249 20174 5//// 81620 82825 83360=
201111140600 AAXX 14064 67753 11660 73604 10233 20156 48/// 60044 71762 8197/
                   333 10391 20181 5//// 81935 87459=
201111090600 AAXX 09064 67753 NIL=
201111080600 AAXX 08064 67753 32560 10504 10241 20165 48/// 81100
                   333 10381 20126 5//// 81825=
201111040600 AAXX 04064 67753 31960 10906 10202 20160 48/// 70500 81031
                   333 10388 20130 5//// 81360 81080=
201111030600 AAXX 03064 67753 12565 70904 10198 20175 48/// 60044 8757/
                   333 10388 20176 82625 87459=

################################################################################
#  SYNOPS from 67855, Lupaki (Zambia) | 17-03-00S | 024-46-00E | 1000 m
################################################################################
201112010600 AAXX 01064 67855 32980 10601 10266 20149 3//// 48/// 80001
                   333 20170 5//// 81080=
201111301200 AAXX 30124 67855 41670 30403 10342 20120 3//// 48/// 70500 83101
                   333 5//// 83840=
201111300600 AAXX 30064 67855 11970 51102 10242 20138 3//// 48/// 69904 70522 80001
                   333 20146 5//// 85080=
201111291200 AAXX 29124 67855 41670 51803 10318 20205 3//// 48/// 70522 85230
                   333 5//// 85840=
201111290600 AAXX 29064 67855 11970 60604 10242 20174 38/// 48/// 69904 70522 86030
                   333 20193 5//// 86360=
201111281800 AAXX 28184 67855 NIL=
201111281200 AAXX 28124 67855 41670 62503 10264 20171 38/// 48/// 71792 84203
                   333 5//// 81930 83840 86080=
201111280600 AAXX 28064 67855 11970 70603 10208 20189 38/// 48/// 60284 70522 8703/
                   333 20184 5//// 87360=
201111271200 AAXX 27124 67855 NIL=
201111270600 AAXX 27064 67855 11970 70703 10208 20176 3//// 48/// 60104 72162 8703/
                   333 20186 5//// 87360=
201111261200 AAXX 26124 67855 41670 70601 10220 20198 3//// 48/// 78085 8423/
                   333 5//// 84830 87360=
201111260600 AAXX 26064 67855 31370 71301 10214 20188 3//// 48/// 75155 8373/
                   333 20204 5//// 83707 87359=
201111251800 AAXX 25184 67855 NIL=
201111251200 AAXX 25124 67855 41670 52007 10288 20155 3//// 48/// 70522 85230
                   333 5//// 85840=
201111250600 AAXX 25064 67855 11370 71601 10202 20187 38/// 48/// 60164 70522 8463/
                   333 20180 5//// 84707 87360=
201111241200 AAXX 24124 67855 41370 72101 10210 20198 38/// 48/// 72598 8363/
                   333 5//// 83707 87360=
201111240600 AAXX 24064 67855 NIL=
201111231200 AAXX 23124 67855 41670 53303 10292 20174 3//// 48/// 70522 85231
                   333 5//// 85840=
201111221800 AAXX 22184 67855 NIL=
201111221200 AAXX 22124 67855 NIL=
201111220600 AAXX 22064 67855 NIL=
201111211800 AAXX 21184 67855 NIL=
201111211200 AAXX 21124 67855 41670 63304 10326 20142 3//// 48/// 78098 86233
                   333 5//// 81930 85840=
201111210600 AAXX 21064 67855 NIL=
201111201800 AAXX 20184 67855 NIL=
201111200600 AAXX 20064 67855 32980 50607 10278 20121 3//// 48/// 85031
                   333 20195 5//// 83360=
201111191200 AAXX 19124 67855 42680 50204 10370 20139 3//// 48/// 85231
                   333 5//// 85840=
201111190600 AAXX 19064 67855 31970 33201 10274 20166 38/// 4//// 70500 83031
                   333 20185 5//// 83360=
201111181800 AAXX 18184 67855 NIL=
201111181200 AAXX 18124 67855 42680 60904 10378 20143 38/// 48/// 86231
                   333 5//// 86840=
201111180600 AAXX 18064 67855 32980 43603 10284 20170 38/// 48/// 80001
                   333 20208 5//// 84080=
201111171800 AAXX 17184 67855 NIL=
201111171200 AAXX 17124 67855 NIL=
201111170600 AAXX 17064 67855 11970 30303 10266 20178 38/// 48/// 60014 70511 80001
                   333 20183 5//// 83080=
201111161200 AAXX 16124 67855 42680 52802 10362 20138 3//// 48/// 85201
                   333 5//// 85840=
201111160600 AAXX 16064 67855 NIL=
201111150600 AAXX 15064 67855 NIL=
201111141200 AAXX 14124 67855 42680 62204 10378 20120 38/// 48/// 83230
                   333 5//// 83830 86360=
201111140600 AAXX 14064 67855 11970 50301 10280 20155 3//// 4//// 69904 70522 85030
                   333 20230 5//// 85630=
201111131800 AAXX 13184 67855 NIL=
201111131200 AAXX 13124 67855 NIL=
201111121200 AAXX 12124 67855 42680 51903 10390 20069 38/// 48/// 85200
                   333 5//// 85840=
201111120600 AAXX 12064 67855 31970 03607 10300 20123 3//// 48/// 70500
                   333 20190 5////=
201111111200 AAXX 11124 67855 NIL=
201111110600 AAXX 11064 67855 31970 00604 10284 20088 3//// 48/// 70500
                   333 20154 5////=
201111101200 AAXX 10124 67855 41670 12003 10374 20065 3//// 48/// 70500 81100
                   333 5//// 81840=
201111100600 AAXX 10064 67855 32980 03606 10278 20099 3//// 48///
                   333 20160 5////=
201111091200 AAXX 09124 67855 42680 10704 10374 20163 3//// 48/// 81100
                   333 5//// 81830=
201111090600 AAXX 09064 67855 32980 00202 10266 20121 3//// 48///
                   333 10175 5////=
201111081200 AAXX 08124 67855 42680 21303 10364 20168 3//// 48/// 82100
                   333 5//// 82840=
201111071200 AAXX 07124 67855 41670 60301 10338 20149 38/// 48/// 72582 83230
                   333 5//// 83840 86360=
201111070600 AAXX 07064 67855 31970 13602 10258 20158 38/// 48/// 70500 81030
                   333 20198 5//// 81360=
201111061200 AAXX 06124 67855 42680 61902 10370 20102 3//// 48/// 86200
                   333 5//// 86840=
201111060600 AAXX 06064 67855 32980 12901 10264 20153 38/// 48/// 81030
                   333 20154 5//// 81360=
201111051200 AAXX 05124 67855 41670 73101 10318 20136 38/// 48/// 70522 8123/
                   333 5//// 81830 87360=
201111050600 AAXX 05064 67855 31470 61803 10246 20127 38/// 48/// 70522 86500
                   333 20182 5//// 86610=
201111041200 AAXX 04124 67855 41670 43603 10330 20175 3//// 48/// 70500 84100
                   333 5//// 84840=
201111040600 AAXX 04064 67855 31970 13602 10220 20158 38/// 48/// 70511 81030
                   333 20138 5//// 81360=
201111031200 AAXX 03124 67855 41670 70302 10290 20149 38/// 48/// 70522 84501
                   333 5//// 84630 87080=
201111030600 AAXX 03064 67855 11370 71704 10218 20143 3//// 48/// 69904 70522 876//
                   333 20159 5//// 87707=
201111010600 AAXX 01064 67855 32980 52003 10290 20111 38/// 48/// 85030
                   333 20186 5//// 85360=
