################################################################################
# Query made at 04/18/2022 00:43:20 UTC
# Country like Zamb*
# Time interval: from 06/01/2006 05:30  to 07/01/2006 05:30  UTC
################################################################################

################################################################################
#  SYNOPS from 67403, Kawambwa (Zambia) | 09-48S | 029-05E | 1323 m
################################################################################
200606300600 AAXX 30064 67403 32980 10903 10149 20099 48575 80001
                   333 10262 20089 58000 81080=

################################################################################
#  SYNOPS from 67413, Mbala (Zambia) | 08-51S | 031-20E | 1673 m
################################################################################
200606300600 AAXX 30064 67413 32480 40815 10134 20104 48578 84500
                   333 10262 20086 58012 84614=
200606290900 AAXX 29094 67413 42980 40000 10190 20102 48565 80001
                   333 59004 84080=
200606080600 AAXX 08064 67413 32980 00905 10160 20137 48548
                   333 10250 20100 59007=

################################################################################
#  SYNOPS from 67441, Mwinilunga (Zambia) | 11-45S | 024-26E | 1361 m
################################################################################
200606301200 AAXX 30124 67441 41975 00905 10232 20062 48575 70500
                   333 5////=
200606300900 AAXX 30094 67441 42982 01509 10187 20060 48595
                   333 58000=
200606300600 AAXX 30064 67441 31975 01205 10105 20065 48590 70500
                   333 10230 20046 58003=
200606290900 AAXX 29094 67441 42982 10908 10178 20043 48596 80001
                   333 5//// 81080=
200606021000 AAXX 02104 67441 42980 01508 10215 20095 48586
                   333 59002=

################################################################################
#  SYNOPS from 67461, Mansa (Zambia) | 11-06S | 028-51E | 1382 m
################################################################################
200606291200 AAXX 29124 67461 42680 31504 10234 20083 48551 81101
                   333 59002 81840 82080=
200606290900 AAXX 29094 67461 42980 31304 10189 20074 48571 80001
                   333 59004 83080=
200606191200 AAXX 19124 67461 41675 51203 10250 20098 48542 70522 83102
                   333 5//// 83850 84080=
200606091200 AAXX 09124 67461 41675 40802 10275 20126 48514 70500 83130
                   333 59006 83845=
200606090900 AAXX 09094 67461 41975 21404 10236 20122 48535 70500 82030
                   333 59013 82362=
200606080900 AAXX 08094 67461 41975 01202 10215 20098 48541 70500
                   333 59006=
200606080600 AAXX 08064 67461 31975 01202 10143 20124 48530 70500
                   333 10250 20089 59019=
200606070900 AAXX 07094 67461 41975 00903 10210 20084 48584 70500
                   333 59009=

################################################################################
#  SYNOPS from 67475, Kasama (Zambia) | 10-13S | 031-08E | 1382 m
################################################################################
200606301200 AAXX 30124 67475 41675 41215 10225 20094 48557 70522 84100
                   333 58002 84845=
200606300900 AAXX 30094 67475 41675 40904 10192 20096 48576 70500 84100
                   333 58010 84842=
200606300600 AAXX 30064 67475 31975 01008 10142 20081 48573 70500
                   333 10232 20076 58004=
200606290900 AAXX 29094 67475 41975 11210 10197 20092 48566 70500 80001
                   333 58001 81080=
200606260600 AAXX 26064 67475 31975 11412 10157 20088 48559 70500 80001
                   333 10243 20084 58004 81080=
200606191200 AAXX 19124 67475 41675 61212 10242 20102 48544 70522 86100
                   333 58008 86845=
200606091200 AAXX 09124 67475 41675 41210 10261 20118 48516 70522 84100
                   333 58008 84845=
200606080600 AAXX 08064 67475 31975 01009 10172 20082 48541 70500
                   333 10244 20079 59013=
200606070900 AAXX 07094 67475 41975 00908 10203 20060 48555 70500
                   333 58006=

################################################################################
#  SYNOPS from 67477, Mpika (Zambia) | 11-54S | 031-26E | 1400 m
################################################################################
200606301200 AAXX 30124 67477 42680 21105 10200 20086 48568 82100
                   333 58002 82843=
200606080600 AAXX 08064 67477 32980 01103 10150 20099 48544
                   333 10206 20099 59019=
200606021000 AAXX 02104 67477 42680 11205 10200 20104 48562 81100
                   333 59011=

################################################################################
#  SYNOPS from 67531, Zambezi (Zambia) | 13-32S | 023-07E | 1077 m
################################################################################
200606301200 AAXX 30124 67531 41975 01408 10231 20087 48/// 70500
                   333 59003=
200606300600 AAXX 30064 67531 31975 01311 10100 20062 48/// 70500
                   333 10236 20070 59002=
200606291200 AAXX 29124 67531 41975 11805 10225 20081 48/// 70500 80002
                   333 59001 81082=
200606290900 AAXX 29094 67531 41975 11409 10185 20079 48/// 70500 80002
                   333 58002 81082=
200606260600 AAXX 26064 67531 31975 01312 10137 20079 70500
                   333 10261 20100 58020=
200606191200 AAXX 19124 67531 41875 11410 10256 20090 48/// 70500 81100
                   333 5//// 81856=
200606091200 AAXX 09124 67531 41975 01607 10275 20049 70500
                   333 59012=
200606090900 AAXX 09094 67531 41975 01207 10235 20096 48/// 70500
                   333 5////=
200606080900 AAXX 08094 67531 42980 01512 10220 20089
                   333 59006=
200606080600 AAXX 08064 67531 32980 01406 10117 20074 48///
                   333 10258 20026 59021=
200606070900 AAXX 07094 67531 42980 01502 10213 20069 48///
                   333 59011=
200606021000 AAXX 02104 67531 42680 11213 10231 20100 81100
                   333 59010 81845=

################################################################################
#  SYNOPS from 67551, Solwezi (Zambia) | 12-11S | 026-23E | 1386 m
################################################################################
200606300600 AAXX 30064 67551 31970 01005 10095 20061 48567 70500
                   333 10221 20055 58004=
200606290900 AAXX 29094 67551 41970 11207 10163 20072 48576 70500 80001
                   333 58001 81080=
200606090600 AAXX 09064 67551 31970 11101 10121 20081 48533 70500 81040
                   333 10251 20048 59008 81363=
200606080600 AAXX 08064 67551 31975 01302 10112 20069 48531 70500
                   333 10241 20017 59015=

################################################################################
#  SYNOPS from 67561, Ndola (Zambia) | 13-00S | 028-39E | 1269 m
################################################################################
200606300900 AAXX 30094 67561 42980 11108 10200 20070 48593 81100
                   333 58006 81840=
200606300600 AAXX 30064 67561 31970 00000 10116 20067 48572 70500
                   333 10234 20055 58004=
200606260600 AAXX 26064 67561 32980 11204 10144 20067 48582 80001
                   333 10278 20072 58019 81080=
200606091200 AAXX 09124 67561 41795 30503 10269 20121 48513 70500 83200
                   333 59006 83856=
200606090900 AAXX 09094 67561 41975 10606 10246 20110 48541 70500 81030
                   333 59008 81361=
200606021000 AAXX 02104 67561 42580 20903 10211 20076 48566 82102
                   333 59011=

################################################################################
#  SYNOPS from 67571, Serenje (Zambia) | 13-14S | 030-13E | 1384 m
################################################################################
200606300600 AAXX 30064 67571 32984 01208 10123 20071 48576
                   333 10200 20084 58000=
200606290900 AAXX 29094 67571 42584 20913 10174 20059 48579 82100
                   333 58000 82825=

################################################################################
#  SYNOPS from 67581, Chipata (Zambia) | 13-33S | 032-35E | 1028 m
################################################################################
200606290900 AAXX 29094 67581 41682 61610 10194 20088 48596 86100
                   333 58002 86836=
200606161200 AAXX 16124 67581 42784 50906 10263 20112 48556 85100
                   333 58010 85850=
200606070900 AAXX 07094 67581 42880 51202 10205 20102 48580 85100
                   333 59012 85840=

################################################################################
#  SYNOPS from 67599, Mfuwe (Zambia) | 13-16S | 031-56E | 568 m
################################################################################
200606291200 AAXX 29124 67599 42780 51107 10260 20109 48615 83131
                   333 59008 83850 83360 81080=
200606260600 AAXX 26064 67599 32980 30000 10145 20100 48598 83030
                   333 10264 20080 58028 83360=

################################################################################
#  SYNOPS from 67633, Mongu (Zambia) | 15-15S | 023-09E | 1052 m
################################################################################
200606300600 AAXX 30064 67633 32982 01008 10118 20058 48571
                   333 10231 20064 59001=
200606260600 AAXX 26064 67633 32982 00908 10125 20066 48569
                   333 10268 20099 58027=
200606091200 AAXX 09124 67633 42782 12901 10266 20061 48524 81100
                   333 59011 81856=
200606090900 AAXX 09094 67633 42982 00308 10239 20079 48546
                   333 59011=
200606080900 AAXX 08094 67633 42982 00705 10286 20066 48556
                   333 59022=
200606080600 AAXX 08064 67633 32982 01606 10126 20066 48543
                   333 10265 20084 59023=
200606070900 AAXX 07094 67633 42982 00108 10226 20030 48576
                   333 59013=
200606021000 AAXX 02104 67633 42982 03604 10229 20081 48573
                   333 59012=

################################################################################
#  SYNOPS from 67655, Mumbwa (Zambia) | 15-04S | 027-11E | 1216 m
################################################################################
200606300600 AAXX 30064 67655 32980 00905 10108 20084 48592
                   333 10200 20055 58006=

################################################################################
#  SYNOPS from 67659, Kafue Polder (Zambia) | 15-46S | 027-55E | 978 m
################################################################################
200606300600 AAXX 30064 67659 32480 10802 10114 20087 48/// 81500
                   333 10204 20032 5//// 81610=
200606291200 AAXX 29124 67659 42580 50906 10192 20064 48/// 70522 85500
                   333 5//// 85620=
200606290900 AAXX 29094 67659 41580 30908 10188 20072 48/// 70500 83500
                   333 83620=
200606080600 AAXX 08064 67659 32980 20903 10154 20101 48/// 82030
                   333 10244 20058 5//// 82362=

################################################################################
#  SYNOPS from 67663, Kabwe (Zambia) | 14-27S | 028-28E | 1206 m
################################################################################
200606300600 AAXX 30064 67663 32980 20803 10122 20084 48576 82030
                   333 10193 20082 58002 82360=

################################################################################
#  SYNOPS from 67665, Lusaka Internationalairport (Zambia) | 15-19S | 028-27E | 1152 m
################################################################################
200606301200 AAXX 30124 67665 42680 60912 10198 20110 48593 86800
                   333 58002 82635 84840=
200606300900 AAXX 30094 67665 42580 11216 10162 20114 48607 81500
                   333 58040 81625=
200606300600 AAXX 30064 67665 32480 31108 10101 20101 48589 83530
                   333 10190 20053 58005 83610=
200606291500 AAXX 29154 67665 42580 71107 10167 20106 48583 81530
                   333 59005 81620 85840 83360=
200606291200 AAXX 29124 67665 42580 61007 10178 20108 48589 85130
                   333 59005 85825 82360=
200606290900 AAXX 29094 67665 42480 40910 10165 20104 48605 84230
                   333 59007 84820 81360 91029=
200606280900 AAXX 28094 67665 42580 50714 10156 20092 48610 85230
                   333 59009 85820 81360=
200606280600 AAXX 28064 67665 32380 71005 10107 20098 48595 83630
                   333 10173 20089 59012 83707 87359=
200606280400 AAXX 28044 67665 42480 71104 10096 20087 48580 87500=
200606270600 AAXX 27064 67665 32480 40812 10117 20117 48603 84500
                   333 10197 20048 58008 84610=
200606260600 AAXX 26064 67665 32980 01107 10107 20094 48594
                   333 10239 20057 58026=
200606260400 AAXX 26044 67665 42980 01602 10073 20073 48575 58022=
200606260300 AAXX 26034 67665 42980 03502 10068 20068 48568
                   333 58015=
200606252100 AAXX 25214 67665 42980 03502 10088 20088 48572
                   333 58001=
200606250900 AAXX 25094 67665 42580 11015 10185 20126 48588 81500
                   333 59005 81620=
200606250600 AAXX 25064 67665 32980 01204 10111 20111 48572
                   333 10230 20070 59002 91026=
200606250400 AAXX 25044 67665 42980 01505 10083 20083 48558
                   333 59001 555 91025=
200606250300 AAXX 25034 67665 42980 01603 10083 20083 48556
                   333 58001 555 91025=
200606241800 AAXX 24184 67665 42980 11106 10119 20119 48573 81030
                   333 10230 58013 81360 555=
200606241200 AAXX 24124 67665 42680 20711 10219 20122 48576 82200
                   333 58012 82830=
200606240900 AAXX 24094 67665 42480 11014 10193 20141 48594 81500
                   333 58013 81618=
200606240600 AAXX 24064 67665 32980 01103 10103 20084 48571
                   333 10251 20056 58011 91026=
200606231500 AAXX 23154 67665 42980 01209 10219 20072 48558 70500
                   333 58010 555 91023=
200606231200 AAXX 23124 67665 42980 02504 10237 20062 48562
                   333 58010 555 91023=
200606230900 AAXX 23094 67665 42980 01505 10223 20067 48586
                   333 58008=
200606230600 AAXX 23064 67665 32980 01101 10127 20110 48565
                   333 10256 20098 59002=
200606221500 AAXX 22154 67665 42770 41405 10222 20154 48545 84130
                   333 59012 84850=
200606221200 AAXX 22124 67665 42670 42670 10247 20151 48552 70400 84100
                   333 59012 84838=
200606220600 AAXX 22064 67665 32480 61305 10150 20150 48561 83530
                   333 59002 83610 85360=
200606211200 AAXX 21124 67665 42580 61106 10219 20147 48560 86830
                   333 59016 81825 95625=
200606210900 AAXX 21094 67665 42480 60809 10192 20144 48580 81130
                   333 59023 81812 86360=
200606191800 AAXX 19184 67665 42980 51401 10152 20133 48576 85030
                   333 58003 85360 91026=
200606191200 AAXX 19124 67665 42680 41206 10220 20139 48578 84100
                   333 58010 84835=
200606190900 AAXX 19094 67665 42680 31112 10193 20145 48596 83100
                   333 58006 83830=
200606190600 AAXX 19064 67665 32980 01108 10130 20130 48583
                   333 10239 20076 58008
                   555 91027=
200606190300 AAXX 19034 67665 42980 11203 10098 20098 48566 81030
                   333 58001 81360 555 91026=
200606181800 AAXX 18184 67665 42980 11303 10144 20144 48571 81030
                   333 10249 58008 81360 555=
200606181500 AAXX 18154 67665 42780 30810 10229 20106 48569 83200
                   333 58007 83845 91024=
200606181200 AAXX 18124 67665 42680 31007 10225 20126 48570 83200
                   333 58004 83830 91024=
200606180900 AAXX 18094 67665 42580 11013 10211 20136 48591 81100
                   333 58003 81825=
200606180600 AAXX 18064 67665 32980 01106 10127 20127 48578
                   333 10253 20131 58008=
200606180400 AAXX 18044 67665 41959 11403 10094 20094 48566 74044 81030
                   333 58010 81359=
200606171800 AAXX 17184 67665 42980 11402 10147 20144 48566 81030
                   333 58001 81360=
200606170900 AAXX 17094 67665 42580 50714 10203 20154 48585 85800
                   333 58002 82820 82620=
200606161500 AAXX 16154 67665 42780 21008 10218 20150 48559 81100
                   333 58011 81850=
200606161200 AAXX 16124 67665 42680 10913 10238 20160 48563 81100
                   333 58013 81830=
200606160900 AAXX 16094 67665 42580 10812 10226 20164 58587 81100
                   333 58018 81820=
200606151200 AAXX 15124 67665 42680 21504 10283 20124 48551 82100
                   333 58007 82835=
200606150900 AAXX 15094 67665 42980 00810 10261 20151 48574
                   333 58006 555 91024=
200606150600 AAXX 15064 67665 32980 01302 10154 20154 48550
                   333 10303 20120 58001=
200606141200 AAXX 14124 67665 42780 31406 10291 20131 48550 81132
                   333 59006 81865 82361 82080=
200606140900 AAXX 14094 67665 42980 20307 10265 20156 48569 82030
                   333 59009 82361=
200606140600 AAXX 14064 67665 32980 00000 10161 20161 48551
                   333 10292 20125 59007=
200606140400 AAXX 14044 67665 42980 00000 10108 20108 48540
                   333 59004=
200606140300 AAXX 14034 67665 42980 00000 10114 20114 48535
                   333 59004=
200606140000 AAXX 14004 67665 42980 00000 10143 20143 48539
                   333 59007=
200606132100 AAXX 13214 67665 42980 01503 10159 20159 48548
                   333 59008=
200606131800 AAXX 13184 67665 42980 01602 10189 20174 48546
                   333 10281 59010=
200606131500 AAXX 13154 67665 42780 11205 10269 20152 48542 81100
                   333 59011 81850=
200606130900 AAXX 13094 67665 42980 00809 10251 20188 48574
                   333 59008=
200606121800 AAXX 12184 67665 42980 01403 10185 20179 48556
                   333 10270 58008=
200606121500 AAXX 12154 67665 42980 31106 10261 20161 48554 83030
                   333 58013 83360=
200606121200 AAXX 12124 67665 42680 30806 10271 20163 48562 83100
                   333 58006 83830=
200606120600 AAXX 12064 67665 32980 01305 10176 20176 48570
                   333 10285 20121 58015=
200606120400 AAXX 12044 67665 42980 01403 10129 20129 48552
                   333 58018=
200606120300 AAXX 12034 67665 42980 11403 10133 20133 48548 81030
                   333 58019 81359=
200606112100 AAXX 11214 67665 42980 11402 10157 20157 48552 81030
                   333 58016 81360=
200606110900 AAXX 11094 67665 42680 20210 10253 20185 48567 81100
                   333 58013 82830=
200606110600 AAXX 11064 67665 32980 10905 10169 20169 48554 81030
                   333 10254 20097 58011 81360=
200606101200 AAXX 10124 67665 42680 30808 10254 20154 48532 83200
                   333 59002 83835=
200606100900 AAXX 10094 67665 42580 11106 10237 20186 48555 81100
                   333 59005 81820=
200606100600 AAXX 10064 67665 32980 11105 10165 20165 48546 81030
                   333 10267 20//0 59013 81359=
200606091800 AAXX 09184 67665 42980 11103 10157 20151 48537 81030
                   333 59008 81360=
200606091200 AAXX 09124 67665 42580 10906 10242 20137 48532 81100
                   333 59010 81835=
200606090900 AAXX 09094 67665 42980 00710 10226 20137 48559
                   333 59009=
200606090400 AAXX 09044 67665 42980 10000 10085 20085 48532 81030
                   333 59009 81360 555 91022=
200606090300 AAXX 09034 67665 42980 10000 10084 20084 48528 81030
                   333 59008 81360 555 91021=
200606082100 AAXX 08214 67665 42980 10000 10115 20115 48543 81030
                   333 59005 81060 555 91022=
200606081200 AAXX 08124 67665 42680 40905 10220 20098 48540 84200
                   333 59016 84835=
200606080900 AAXX 08094 67665 42580 41107 10206 20131 48565 84100
                   333 59017 84825=
200606080600 AAXX 08064 67665 32980 11303 10131 20131 48555 81030
                   333 10234 20076 59019 81360=
200606080400 AAXX 08044 67665 42980 10000 10084 20084 48539 81030
                   333 59021 81360=
200606071200 AAXX 07124 67665 42580 31208 10216 29114 48557 83200
                   333 59013 83830 555=
200606070900 AAXX 07094 67665 42480 31010 10201 20126 48580 83100
                   333 59013 83815=
200606061200 AAXX 06124 67665 42980 01107 10219 20085 48570
                   333 59004=
200606060900 AAXX 06094 67665 42580 11211 10179 20107 48588 81100
                   333 59006 81825=
200606060600 AAXX 06064 67665 32980 01003 10109 20109 48576
                   333 10246 20061 59005 91027=
200606041200 AAXX 04124 67665 42680 61116 10211 20129 48576 84130
                   333 58027 84835 83360=
200606040900 AAXX 04094 67665 42580 51016 10190 20132 48593 85100
                   333 58024 85820 555 91027=
200606040600 AAXX 04064 67665 32980 10709 10132 20132 48573 81030
                   333 10245 20082 58015 81360=
200606031200 AAXX 03124 67665 42680 31005 10237 20121 48554 83100
                   333 59003 83830 555 91022=
200606030900 AAXX 03094 67665 42580 31011 10220 20119 48574 83100
                   333 59010 83825=
200606030600 AAXX 03064 67665 32980 11102 10128 20128 48559 81030
                   333 10232 20090 5//// 81360=
200606021500 AAXX 02154 67665 42980 11507 10212 20139 48549 81030
                   333 5//// 81360=
200606021200 AAXX 02124 67665 42680 20908 10230 20130 48556 82100
                   333 59019 82840=
200606021000 AAXX 02104 67665 42680 20506 10207 20123 48582 82100
                   333 59015 82830=
200606020900 AAXX 02094 67665 42580 20506 10207 20123 48582 82100
                   333 59015 82830 555 91026=

################################################################################
#  SYNOPS from 67666, Lusaka City Airport (Zambia) | 15-25S | 028-19E | 1280 m
################################################################################
200606300900 AAXX 30094 67666 42580 50813 10165 20081 48597 85800
                   333 59003 82620 84825=
200606300600 AAXX 30064 67666 32380 20908 10115 20087 48585 82500
                   333 10175 20095 58008 82609=
200606291200 AAXX 29124 67666 42680 60905 10168 20079 48576 86800
                   333 58000 86626 82835=
200606290900 AAXX 29094 67666 42580 31208 10158 20191 48589 83800
                   333 58004 81622 83825=

################################################################################
#  SYNOPS from 67673, Petauke (Zambia) | 14-15S | 031-17E | 1035 m
################################################################################
200606300900 AAXX 30094 67673 42680 31413 10210 20067 48610 82130
                   333 59003 82830 82363=
200606300600 AAXX 30064 67673 32980 61612 10155 20099 48597 86030
                   333 10218 20099 59004 86362=
200606291200 AAXX 29124 67673 42680 71507 10201 20070 48590 87800
                   333 59006 83840 85656=
200606290900 AAXX 29094 67673 42680 71406 10183 20069 48606 87500
                   333 59003 87635=
200606260600 AAXX 26064 67673 32530 11619 10162 20090 48602 81100
                   333 10236 20104 58028 81820=
200606080600 AAXX 08064 67673 32980 10904 10152 20125 48555 81030
                   333 10240 20102 59021 81360=

################################################################################
#  SYNOPS from 67741, Sesheke (Zambia) | 17-28S | 024-18E | 949 m
################################################################################
200606300600 AAXX 30064 67741 32980 00902 10070 20049 48581
                   333 10225 20016 58005=
200606291200 AAXX 29124 67741 42980 00909 10220 20048 48595
                   333 58007=

################################################################################
#  SYNOPS from 67743, Livingstone (Zambia) | 17-49S | 025-49E | 985 m
################################################################################
200606301200 AAXX 30124 67743 42980 10810 10216 20036 48592 81100
                   333 58007 81856=
200606300900 AAXX 30094 67743 42980 00911 10183 20054 48614
                   333 58005=
200606300600 AAXX 30064 67743 32980 10086 20048 48587 70200
                   333 10220 20038 58002=
200606291200 AAXX 29124 67743 42980 01211 10213 20034 48601
                   333 58003=
200606260600 AAXX 26064 67743 32980 00000 20095 30057 48566
                   333 10245 20058 58013=
200606191200 AAXX 19124 67743 42980 01809 10229 20039 48590 70200
                   333 58025=
200606161200 AAXX 16124 67743 42780 31009 10270 20134 48560 82130
                   333 58005 82856 81360=
200606131500 AAXX 13154 67743 42780 30000 10300 20101 48537 83100
                   333 59009 83858=
200606100900 AAXX 10094 67743 42980 01005 10231 20090 48553
                   333 59003=
200606090900 AAXX 09094 67743 42780 10607 10224 20098 48553 81100
                   333 59014 81850=
200606080600 AAXX 08064 67743 32980 01302 10116 20095 48548
                   333 10240 20068 59024=
200606070900 AAXX 07094 67743 42980 01009 10183 20082 48581
                   333 59017=

################################################################################
#  SYNOPS from 67751, Magoye (Zambia) | 16-00S | 027-36E | 1018 m
################################################################################
200606300600 AAXX 30064 67751 31475 10905 10124 20095 48/// 70500 81500
                   333 10205 20043 5//// 81612=
200606291200 AAXX 29124 67751 41775 60712 10195 20069 48/// 70522 86500
                   333 5//// 86650=
200606290900 AAXX 29094 67751 41675 71011 10175 20063 48/// 70522 875//
                   333 5//// 87643=
200606080600 AAXX 08064 67751 32980 11803 10116 20085 48/// 81030
                   333 10245 20057 5//// 81360=

################################################################################
#  SYNOPS from 67753, Choma (Zambia) | 16-50S | 027-04E | 1213 m
################################################################################
200606301200 AAXX 30124 67753 41660 10808 10188 20006 48/// 81200
                   333 5//// 81830=
200606300600 AAXX 30064 67753 31460 10902 10096 20057 48/// 70500 81500
                   333 10157 20017 5//// 81615=
200606291200 AAXX 29124 67753 42680 20705 10177 20036 48/// 82400
                   333 5//// 82635=
200606290900 AAXX 29094 67753 42680 60605 10150 20030 48/// 84130
                   333 5//// 84830=
200606260600 AAXX 26064 67753 32580 11619 10162 20090 48602 81100
                   333 10236 20104 58028 81820=
200606091200 AAXX 09124 67753 42680 23606 10250 20059 82100
                   333 82840=
200606090900 AAXX 09094 67753 42680 20805 10217 20073 48/// 82100
                   333 5//// 82835=
200606080600 AAXX 08064 67753 32980 00902 10122 20080 48///
                   333 10229 20044 5////=
200606070900 AAXX 07094 67753 42580 20906 10186 20095 48///
                   333 5//// 82820=

################################################################################
#  SYNOPS from 67855, Lupaki (Zambia) | 17-03-00S | 024-46-00E | 1000 m
################################################################################
200607010000 AAXX 01004 67855 NIL=
200606301800 AAXX 30184 67855 NIL=
200606301200 AAXX 30124 67855 NIL=
200606300600 AAXX 30064 67855 NIL=
200606300000 AAXX 30004 67855 NIL=
200606291800 AAXX 29184 67855 NIL=
200606291200 AAXX 29124 67855 NIL=
200606290600 AAXX 29064 67855 NIL=
200606290000 AAXX 29004 67855 NIL=
200606281800 AAXX 28184 67855 NIL=
200606281200 AAXX 28124 67855 NIL=
200606280600 AAXX 28064 67855 NIL=
200606280000 AAXX 28004 67855 NIL=
200606271800 AAXX 27184 67855 NIL=
200606271200 AAXX 27124 67855 NIL=
200606270600 AAXX 27064 67855 NIL=
200606270000 AAXX 27004 67855 NIL=
200606261800 AAXX 26184 67855 NIL=
200606261200 AAXX 26124 67855 NIL=
200606260600 AAXX 26064 67855 NIL=
200606260000 AAXX 26004 67855 NIL=
200606251800 AAXX 25184 67855 NIL=
200606251200 AAXX 25124 67855 NIL=
200606250600 AAXX 25064 67855 NIL=
200606250000 AAXX 25004 67855 NIL=
200606241800 AAXX 24184 67855 NIL=
200606241200 AAXX 24124 67855 NIL=
200606240600 AAXX 24064 67855 NIL=
200606240000 AAXX 24004 67855 NIL=
200606231800 AAXX 23184 67855 NIL=
200606231200 AAXX 23124 67855 NIL=
200606230600 AAXX 23064 67855 NIL=
200606230000 AAXX 23004 67855 NIL=
200606221800 AAXX 22184 67855 NIL=
200606221200 AAXX 22124 67855 NIL=
200606220600 AAXX 22064 67855 31970 00000 10040 20026 3//// 48/// 70500
                   333 20013 5////=
200606220000 AAXX 22004 67855 NIL=
200606211800 AAXX 21184 67855 NIL=
200606211200 AAXX 21124 67855 NIL=
200606210600 AAXX 21064 67855 31970 10000 10046 20037 3//// 48/// 70500 81030
                   333 20015 5//// 81360=
200606210000 AAXX 21004 67855 NIL=
200606201800 AAXX 20184 67855 NIL=
200606201200 AAXX 20124 67855 NIL=
200606200600 AAXX 20064 67855 NIL=
200606200000 AAXX 20004 67855 NIL=
200606191800 AAXX 19184 67855 NIL=
200606191200 AAXX 19124 67855 NIL=
200606190600 AAXX 19064 67855 31970 00000 10062 20048 3//// 48/// 70500
                   333 20032 5////=
200606190000 AAXX 19004 67855 NIL=
200606181800 AAXX 18184 67855 NIL=
200606181200 AAXX 18124 67855 NIL=
200606180600 AAXX 18064 67855 NIL=
200606180000 AAXX 18004 67855 NIL=
200606171800 AAXX 17184 67855 NIL=
200606171200 AAXX 17124 67855 NIL=
200606170600 AAXX 17064 67855 NIL=
200606170000 AAXX 17004 67855 NIL=
200606161800 AAXX 16184 67855 NIL=
200606161200 AAXX 16124 67855 NIL=
200606160625 AAXX 16064 67855 NIL=
200606160600 AAXX 16064 67855 NIL=
200606160000 AAXX 16004 67855 NIL=
200606151800 AAXX 15184 67855 NIL=
200606151200 AAXX 15124 67855 NIL=
200606150600 AAXX 15064 67855 11970 70000 10116 20097 38/// 48/// 69904 70522 87030
                   333 20100 5//// 87360=
200606150000 AAXX 15004 67855 NIL=
200606141800 AAXX 14184 67855 NIL=
200606141200 AAXX 14124 67855 NIL=
200606140600 AAXX 14064 67855 NIL=
200606140000 AAXX 14004 67855 NIL=
200606131800 AAXX 13184 67855 NIL=
200606131200 AAXX 13124 67855 NIL=
200606130600 AAXX 13064 67855 NIL=
200606130000 AAXX 13004 67855 NIL=
200606121800 AAXX 12184 67855 NIL=
200606121200 AAXX 12124 67855 NIL=
200606120600 AAXX 12064 67855 31970 00000 10116 20104 3//// 48/// 70500
                   333 20095 5////=
200606120000 AAXX 12004 67855 NIL=
200606111800 AAXX 11184 67855 NIL=
200606111200 AAXX 11124 67855 NIL=
200606110600 AAXX 11064 67855 NIL=
200606110000 AAXX 11004 67855 NIL=
200606101800 AAXX 10184 67855 NIL=
200606101200 AAXX 10124 67855 NIL=
200606100600 AAXX 10064 67855 NIL=
200606100000 AAXX 10004 67855 NIL=
200606091800 AAXX 09184 67855 NIL=
200606091200 AAXX 09124 67855 NIL=
200606090600 AAXX 09064 67855 NIL=
200606090000 AAXX 09004 67855 NIL=
200606081800 AAXX 08184 67855 NIL=
200606081200 AAXX 08124 67855 NIL=
200606080600 AAXX 08064 67855 NIL=
200606080000 AAXX 08004 67855 NIL=
200606071800 AAXX 07184 67855 NIL=
200606071200 AAXX 07124 67855 NIL=
200606070600 AAXX 07064 67855 NIL=
200606070000 AAXX 07004 67855 NIL=
200606061800 AAXX 06184 67855 NIL=
200606061200 AAXX 06124 67855 NIL=
200606060600 AAXX 06064 67855 31970 00000 10016 21004 38/// 48/// 70500
                   333 5////=
200606060000 AAXX 06004 67855 NIL=
200606051800 AAXX 05184 67855 NIL=
200606051200 AAXX 05124 67855 NIL=
200606050600 AAXX 05064 67855 NIL=
200606050000 AAXX 05004 67855 NIL=
200606041800 AAXX 04184 67855 NIL=
200606041200 AAXX 04124 67855 NIL=
200606040600 AAXX 04064 67855 NIL=
200606040000 AAXX 04004 67855 NIL=
200606031800 AAXX 03184 67855 NIL=
200606031200 AAXX 03124 67855 NIL=
200606030600 AAXX 03064 67855 NIL=
200606030000 AAXX 03004 67855 NIL=
200606021800 AAXX 02184 67855 NIL=
200606021200 AAXX 02124 67855 NIL=
200606020600 AAXX 02064 67855 NIL=
200606020000 AAXX 02004 67855 NIL=
200606011800 AAXX 01184 67855 NIL=
200606011200 AAXX 01124 67855 NIL=
200606010600 AAXX 01064 67855 NIL=
