################################################################################
# Query made at 04/15/2022 02:02:10 UTC
# Country like Zamb*
# Time interval: from 06/01/2009 05:30  to 07/01/2009 06:30  UTC
################################################################################

################################################################################
#  SYNOPS from 67413, Mbala (Zambia) | 08-51S | 031-20E | 1673 m
################################################################################
200906110600 AAXX 11064 67413 32980 31315 10180 20120 48549 80001
                   333 10270 20110 59008 83080=

################################################################################
#  SYNOPS from 67441, Mwinilunga (Zambia) | 11-45S | 024-26E | 1361 m
################################################################################
200906300600 AAXX 30064 67441 31960 01507 10140 20061 48589 70500
                   333 10260 20/// 58012=
200906260600 AAXX 26064 67441 31958 00000 10097 20062 48582 70500
                   333 10270 20045 58009=
200906250900 AAXX 25094 67441 41980 01003 10240 20091 48583 70500
                   333 58009=
200906250600 AAXX 25064 67441 31958 10000 10100 20080 48573 70500 80001
                   333 10275 20056 58004 81080=
200906240600 AAXX 24064 67441 31958 00000 10080 20070 48563 70500
                   333 10270 20060 59002=
200906230600 AAXX 23064 67441 31960 00000 10110 20087 48571 70500
                   333 10265 20075 58003=
200906220600 AAXX 22064 67441 31960 00000 10105 20095 48568 70500
                   333 10285 20065 58005=
200906180600 AAXX 18064 67441 31960 00000 10140 20131 48576 70500
                   333 10285 20095 58015=
200906170600 AAXX 17064 67441 31965 10000 10160 20113 48561 70500 80001
                   333 10290 20085 58001 81080=
200906160600 AAXX 16064 67441 31960 00000 10112 20100 48560 70500
                   333 10280 20075 59015=

################################################################################
#  SYNOPS from 67461, Mansa (Zambia) | 11-06S | 028-51E | 1382 m
################################################################################
200906300600 AAXX 30064 67461 31975 21109 10140 20080 48548 70500 80001
                   333 10265 20080 58007=
200906290600 AAXX 29064 67461 31965 31204 10146 20127 48558 70500 80001
                   3/3 1022270 20115 58008 83080 Q1023.8=
200906250600 AAXX 25064 67461 31975 10901 10162 20106 48541 70500 80001
                   333 10234 20091 59002 81080=
200906240600 AAXX 24064 67461 31975 01202 10165 20135 48546 70500
                   333 10290 20097 58006=
200906230600 AAXX 23064 67461 31975 01002 10156 20137 48542 70500
                   333 10282 20086 59007=
200906220600 AAXX 22064 67461 31975 00902 10158 20136 48563 70500
                   333 10276 20115 58000=
200906180600 AAXX 18064 67461 31975 11205 10184 20140 48546 70500 80001
                   333 10283 20118 58018 81080=
200906170600 AAXX 17064 67461 31980 10902 10157 20137 48536 70500
                   333 10287 20117 59005=
200906160600 AAXX 16064 67461 31975 00802 10172 20135 48537 70500
                   333 10267 20112 59015=
200906110600 AAXX 11064 67461 32980 40903 10166 20133 48551 80001
                   333 10269 20120 59004 84080=
200906090600 AAXX 09064 67461 31975 00902 10186 20125 48537 70500
                   333 10300 20130 58015=

################################################################################
#  SYNOPS from 67475, Kasama (Zambia) | 10-13S | 031-08E | 1382 m
################################################################################
200906300600 AAXX 30064 67475 31973 31210 10130 20076 48573 70510 82031
                   333 10255 20098 58017 83360 82080=
200906250600 AAXX 25064 67475 31970 03606 10160 20096 48544 70500
                   333 10278 20095 58002=
200906240600 AAXX 24064 67475 31970 03604 10162 20124 48542 70500
                   333 10280 20106 59001=
200906231200 AAXX 23124 67475 41970 02705 10270 20087 48518 70500
                   333 59003=
200906230600 AAXX 23064 67475 31970 01006 10189 20119 48545 70500
                   333 10272 20094 59003=
200906220600 AAXX 22064 67475 31970 00405 10167 20124 48546 70500
                   333 10272 20103 58000=
200906181200 AAXX 18124 67475 41770 51510 10261 20128 48525 70521 85100
                   333 58004 85856=
200906180600 AAXX 18064 67475 31970 00405 10162 20142 48546 70500 80001
                   333 10280 20108 58011=
200906170600 AAXX 17064 67475 31970 20510 10178 20121 48541 70500 80001
                   333 10285 20110 59006 82080=
200906110600 AAXX 11064 67475 31970 50812 10177 20129 48551 70522 80002
                   333 10256 20119 59008 85080=

################################################################################
#  SYNOPS from 67477, Mpika (Zambia) | 11-54S | 031-26E | 1400 m
################################################################################
200906300600 AAXX 30064 67477 32480 51301 10110 20073 48586 85101
                   333 10218 20080 58025 82818 81080=
200906250900 AAXX 25094 67477 42980 01104 10245 20062 48550
                   333 58004=
200906250600 AAXX 25064 67477 32980 01002 10182 20079 48543
                   333 10268 20114 59001=
200906240600 AAXX 24064 67477 32980 01105 10180 20080 48543
                   333 10275 20115 58001=
200906230600 AAXX 23064 67477 32980 01101 10185 20112 48543
                   333 10250 20109 59004=
200906220600 AAXX 22064 67477 32480 01208 10147 20123 48545
                   333 10246 20115 59004=
200906180600 AAXX 18064 67477 32980 00907 10184 20126 48547
                   333 10250 20119 58004=
200906170600 AAXX 17064 67477 32980 01306 10175 20126 48542
                   333 10250 20124 59004=
200906110600 AAXX 11064 67477 32480 10909 10167 20111 48554 81101
                   333 10220 20125 59013 81819 81080=
200906090600 AAXX 09064 67477 32580 10910 10190 20122 48549 81100
                   333 10262 20145 58012 81825=
200906031200 AAXX 03124 67477 42980 11107 10244 20065 48541 80001
                   333 58013 81080=

################################################################################
#  SYNOPS from 67531, Zambezi (Zambia) | 13-32S | 023-07E | 1077 m
################################################################################
200906300600 AAXX 30064 67531 31975 01409 10134 20071 48/// 70500
                   333 10266 20078 5////=
200906250600 AAXX 25064 67531 31975 11503 10175 20116 48/// 70500 80001
                   333 10300 20082 5//// 81082=
200906240600 AAXX 24064 67531 31975 11003 10164 20091 48/// 70500 80001
                   333 10307 20056 5//// 81082=
200906230600 AAXX 23064 67531 31975 00906 10171 20115 48/// 70500
                   333 10295 20079 5////=
200906220600 AAXX 22064 67531 31975 01006 10145 20118 48/// 70500
                   333 10284 20081 5////=
200906180600 AAXX 18064 67531 31975 01407 10160 20114 48/// 70500
                   333 10293 20098 5////=
200906110600 AAXX 11064 67531 12980 01206 10176 20152 48/// 60084
                   333 10200 20145 5////=
200906090600 AAXX 09064 67531 31978 70904 10195 20130 48/// 70522 8703/
                   333 10324 20142 5//// 87361=

################################################################################
#  SYNOPS from 67561, Ndola (Zambia) | 13-00S | 028-39E | 1269 m
################################################################################
200906301200 AAXX 30124 67561 42680 10809 10209 20064 48563 81100
                   333 58026 81840=
200906300600 AAXX 30064 67561 31970 01010 10218 20064 48572 70500
                   333 10263 20090 58022=
200906291500 AAXX 29154 67561 41970 61307 10239 20070 48541 70511 82062
                   333 58018 82361 84080=
200906291200 AAXX 29124 67561 41865 31707 10258 20076 48542 70511 83200
                   333 58012 83857=
200906250900 AAXX 25094 67561 41975 01507 10257 20068 48556 70500
                   333 58007=
200906250600 AAXX 25064 67561 31910 00000 10144 20104 48541 70400
                   333 10287 20086 58007=
200906241500 AAXX 24154 67561 41965 00605 10265 20075 48527 70500
                   333 58012=
200906240600 AAXX 24064 67561 31930 00000 10150 20142 48541 70500
                   333 10279 20103 59005=
200906231200 AAXX 23124 67561 41965 02106 20091 48523 70500
                   333 59004 555 91019=
200906230600 AAXX 23064 67561 31958 00000 10121 20099 48535 70400
                   333 10281 20082 59005=
200906220600 AAXX 22064 67561 31956 00000 10146 20108 48542 70400
                   333 10272 20098 58010=
200906200900 AAXX 20094 67561 42680 20000 10244 20080 48554 82100
                   333 59003 82848 Q1023.2=
200906190600 AAXX 19064 67561 31965 50803 10166 20121 48550 70522 85030
                   333 10274 20114 58001 85361=
200906181200 AAXX 18124 67561 41775 52406 10265 20098 48531 70511 85200
                   333 58007 85850=
200906180600 AAXX 18064 67561 31970 10000 10149 20123 48547 70500 80001
                   333 10283 20108 58012 81080=
200906170600 AAXX 17064 67561 31970 00000 10149 20118 48536 70500
                   333 10279 20110 58000=
200906151200 AAXX 15124 67561 42780 30000 10274 20096 48538 83100
                   333 59011 83856=
200906150900 AAXX 15094 67561 41670 20708 10252 20091 48561 70500 81101
                   333 59008 81845 81080
                   555 91023=
200906110600 AAXX 11064 67561 32980 10164 20120 48549
                   333 10264 20104 59007=
200906091200 AAXX 09124 67561 41775 10813 10272 20122 48527 70500 81100
                   333 58009 81856=
200906090600 AAXX 09064 67561 31970 10806 10179 20134 48554 70500 81030
                   333 10294 20141 58016 81360=
200906081500 AAXX 08154 67561 41975 10805 10269 20091 48511 70500 81060
                   333 59006 81359=
200906081200 AAXX 08124 67561 41775 30903 10287 20086 48518 70500 83200
                   333 59005 83856=
200906051200 AAXX 05124 67561 419807 00000 10274 20060 48541 80008
                   333 59006 87280 91021=
200906031200 AAXX 03124 67561 41765 20000 10272 20098 48543 70500 81101
                   333 58017 81856 81080=

################################################################################
#  SYNOPS from 67580, Msekera (Zambia) | 13-39S | 032-34E | 1025 m
################################################################################
200906251200 AAXX 25124 67580 41975 00000 10287 20102 48/// 70500
                   333 58008=
200906231200 AAXX 23124 67580 41870 12407 10272 20080 48/// 70500 81100
                   333 5//// 81857=
200906031200 AAXX 03124 67580 41975 11205 10279 20081 48/// 70500 80001
                   333 58021 81080=

################################################################################
#  SYNOPS from 67581, Chipata (Zambia) | 13-33S | 032-35E | 1028 m
################################################################################
200906300600 AAXX 30064 67581 32580 21311 10144 20090 48496 81132
                   333 10245 20105 58033 81825 81360 81080=
200906260600 AAXX 26064 67581 32980 02202 10190 20120 48596
                   333 10292 20100 58013=
200906231200 AAXX 23124 67581 42680 22707 10270 20101 48535 82100
                   333 5//// 82841=
200906230600 AAXX 23064 67581 32980 01605 10160 20128 48540
                   333 10270 20102 59012=
200906220600 AAXX 22064 67581 32680 60801 10199 20125 48559 81130
                   333 10271 20100 59003 81830 86360=
200906190600 AAXX 19064 67581 32980 11606 10191 20119 48568 81030
                   333 10252 20154 58008 81360=
200906180600 AAXX 18064 67581 32982 10805 10216 20126 48566 81030
                   333 10281 20158 58011 81361=
200906170600 AAXX 17064 67581 32980 00406 10220 20133 48556
                   333 10267 20138 59002=
200906160900 AAXX 16094 67581 42684 20604 10257 20110 48563 82100
                   333 59014 82840=

################################################################################
#  SYNOPS from 67583, Lundazi (Zambia) | 12-17S | 033-12E | 1143 m
################################################################################
200906190900 AAXX 19094 67583 42680 50911 10199 20159 48579 85100
                   333 58005 85815=

################################################################################
#  SYNOPS from 67599, Mfuwe (Zambia) | 13-16S | 031-56E | 568 m
################################################################################
200907010600 AAXX 01064 67599 32980 20000 10150 20105 48610 70122 82030
                   333 10262 20/// 58003 82360
                   555 00/// Q1029.7=
200906301500 AAXX 30154 67599 42980 51608 10232 20105 48601 85030
                   333 58027 85360=
200906301200 AAXX 30124 67599 42680 50809 10240 20103 48606 84130
                   333 58033 84835 82360=
200906300600 AAXX 30064 67599 32980 10000 10154 20119 48603 80001
                   333 10290 20//0 58036 81080=
200906291500 AAXX 29154 67599 41975 31606 10249 20094 48577 70510 80002
                   333 58036 83080=
200906291200 AAXX 29124 67599 42980 10280 20080 48573 80002
                   333 58023 85080=
200906290600 AAXX 29064 67599 32980 10000 10150 20116 48573 81030
                   333 10296 20//0 58010 81360
                   5/5 00/// Q1025.7=
200906250900 AAXX 25094 67599 41960 00000 10284 20146 48578 70500 33 58005=
200906250600 AAXX 25064 67599 31960 00000 10165 20131 48544 70500
                   333 10330 20//0 58006=
200906241500 AAXX 24154 67599 41975 00000 10305 20140 48535 70500
                   333 58012=
200906241200 AAXX 24124 67599 41975 00000 10310 20136 48573 70500
                   333 58004=
200906231200 AAXX 23124 67599 41775 10000 10295 20156 48553 70500 81100
                   333 59008 81850=
200906221200 AAXX 22124 67599 41675 50000 10300 20133 48564 70442 85200
                   333 59006 85845=
200906210900 AAXX 21094 67599 42680 10000 10270 20170 49591 81200
                   333 59007 81835=
200906190600 AAXX 19064 67599 32980 01803 10185 20144 48569
                   333 10322 20/// 58004=
200906170900 AAXX 17094 67599 42980 00404 10279 20174 48582
                   333 59004=
200906170600 AAXX 17064 67599 32980 00000 10179 20132 48555
                   333 10320 20//0 59002=
200906161200 AAXX 16124 67599 42760 32303 10310 20157 48564 70300 83200
                   333 59014 83856=
200906160900 AAXX 16094 67599 42680 10000 102785 20159 48575 81100
                   333 59016 81830=
200906160600 AAXX 16064 67599 32980 00000 10190 20134 48560
                   333 10325 20/// 59017=
200906151500 AAXX 15154 67599 42980 20000 10298 20164 48565 70100 82100
                   333 59014 82360=
200906151200 AAXX 15124 67599 42780 30000 10312 20156 48586 83100
                   333 59013 83956=
200906110600 AAXX 11064 67599 32980 21705 10190 20141 48579 80001
                   333 10310 20//0 59010 82080=
200906091200 AAXX 09124 67599 42780 51005 10313 20159 48441 85200
                   333 58031 85856=
200906081500 AAXX 08154 67599 42880 20000 10307 20177 48549 70200 82100
                   333 59001 82858=
200906081200 AAXX 08124 67599 42680 20000 10330 20174 48560 82100
                   333 59002 82850=
200906031500 AAXX 03154 67599 41980 00000 10290 20140 48573 70500
                   333 58023=
200906031200 AAXX 03124 67599 41960 10000 10315 20122 48581 70500 80001
                   333 58023 81080=

################################################################################
#  SYNOPS from 67633, Mongu (Zambia) | 15-15S | 023-09E | 1052 m
################################################################################
200906300600 AAXX 30064 67633 31975 01211 10127 20006 48562 70500
                   333 10275 20108 58003=
200906250600 AAXX 25064 67633 31975 20906 10135 20016 48540 70500 80001
                   333 10300 20110 58008 82080=
200906240600 AAXX 24064 67633 31975 31304 10138 20049 48530 70500 80001
                   333 10295 20111 58006 83080=
200906230600 AAXX 23064 67633 31975 03602 10145 20090 48526 70500
                   333 10290 20110 59004=
200906220600 AAXX 22064 67633 31975 00904 10152 20109 48532 70500
                   333 10290 20135 58000=
200906170600 AAXX 17064 67633 31975 10808 10170 20090 48536 70500 80001
                   333 10276 20140 58000 81080=
200906091200 AAXX 09124 67633 41875 61308 10223 20163 48512 70522 82238
                   333 58016 82857 82361 86080=
200906090600 AAXX 09064 67633 11870 70902 10164 20146 48525 60034 79599 8197/
                   333 10316 20157 58021 81957 87461=

################################################################################
#  SYNOPS from 67641, Kaoma (Zambia) | 14-48S | 024-48E | 1213 m
################################################################################
200906301800 AAXX 30184 67641 32580 39902 10186 20134 40317 52008 81501
                   333 10233=
200906300600 AAXX 30064 67641 32982 01101 10115 20034 48564
                   333 10274 20036 58023=
200906240600 AAXX 24064 67641 32982 10000 10121 20090 48504 81030 3333 10302 20066 58001
                   81360=
200906220600 AAXX 22064 67641 32982 02101 10134 20097 48528
                   333 10288 20076 59002=
200906170600 AAXX 17064 67641 32982 00701 10122 20096 48523
                   333 10286 20080 59004=
200906090600 AAXX 09064 67641 12982 30701 10189 20150 48512 69974 83030
                   333 10309 20157 58003 83361=

################################################################################
#  SYNOPS from 67655, Mumbwa (Zambia) | 15-04S | 027-11E | 1216 m
################################################################################
200906190600 AAXX 19064 67655 32980 01004 10143 20107 48564
                   333 10268 20085 58002=
200906110600 AAXX 11064 67655 32980 30912 10163 20121 48553 83030
                   333 10280 20119 58006 83356=

################################################################################
#  SYNOPS from 67663, Kabwe (Zambia) | 14-27S | 028-28E | 1206 m
################################################################################
200906300600 AAXX 30064 67663 32480 30905 10107 20068 48578 83500
                   333 10232 20068 58027 83616=
200906250600 AAXX 25064 67663 32980 00901 10164 20010 48534
                   333 10272 20095 58018=
200906240600 AAXX 24064 67663 32980 03604 10171 20091 48522 70520
                   333 10284 20122 59010=
200906230600 AAXX 23064 67663 32980 03602 10174 20103 48527
                   333 20265 20105 59015=
200906220600 AAXX 22064 67663 32980 00903 10157 20117 48539
                   333 10258 20110 59007=
200906180600 AAXX 18064 67663 32980 00903 10155 20112 48548
                   333 10260 20120 58006=
200906170600 AAXX 17064 67663 32980 00302 10168 20110 48544
                   333 10265 20112 58005=
200906090600 AAXX 09064 67663 32980 70812 10177 20136 48540 87030
                   333 10290 20153 58020 87360=

################################################################################
#  SYNOPS from 67665, Lusaka Internationalairport (Zambia) | 15-19S | 028-27E | 1152 m
################################################################################
200907010600 AAXX 01064 67665 32980 10905 10094 20089 48598 81030
                   333 10180 20052 59006 81360
                   555 00052 Q1030.4=
200907010400 AAXX 01044 67665 42980 01004 10048 20048 48582
                   333 58006 Q1028.9=
200906302100 AAXX 30214 67665 42980 00905 10066 20066 48592
                   333 58019 58020 Q1029.8=
200906301800 AAXX 30184 67665 42980 00906 10104 20085 48593
                   333 10190 58020=
200906301500 AAXX 30154 67665 42980 10710 10170 20075 48585 81030
                   333 58017 81359=
200906301200 AAXX 30124 67665 42680 20813 10182 20081 48589 82100
                   333 58026 82840=
200906300900 AAXX 30094 67665 41470 70911 10139 20104 48610 70522 87500
                   333 58037 87618 Q1030.4=
200906300600 AAXX 30064 67665 31475 60912 10113 20103 48595 70522 86500
                   333 10230 20060 58029 86612
                   555 00050 Q1029.4=
200906291500 AAXX 29154 67665 42980 60910 10198 20079 48573 80002
                   333 58030 86280=
200906291200 AAXX 29124 67665 42759 30911 10224 20080 48570 70500 81101
                   333 58019 81856 83080=
200906290900 AAXX 29094 67665 42480 10710 10203 20107 48583 70500 81100
                   333 58010 81810 Q1026.3=
200906290600 AAXX 29064 67665 32980 01204 10120 20112 48570 70500
                   3/3 10238 20076 58006
                   555 00044 Q1026.2=
200906290000 AAXX 29004 67665 42975 01602 10082 20080 48545
                   333 59006=
200906281200 AAXX 28124 67665 42680 11203 10220 20109 48552 70500 81100
                   333 59015 81845=
200906280600 AAXX 28064 67665 32970 01104 10118 20096 48563 70500
                   333 10214 20077 58001=
200906280400 AAXX 28044 67665 41980 01103 10087 20087 48550 70500
                   333 58001=
200906280300 AAXX 28034 67665 41960 01204 10091 20091 48546 70500
                   333 58000=
200906272100 AAXX 27214 67665 41960 01205 10098 20098 48561 70500
                   333 58007=
200906271800 AAXX 27184 67665 41970 01204 10121 20121 48565 70500
                   333 10214 58011=
200906271200 AAXX 27124 67665 41665 10706 10200 20134 48564 70500 81100
                   333 58007 81836=
200906270900 AAXX 27094 67665 41960 00612 10191 20104 48581 70500
                   333 58008=
200906270600 AAXX 27064 67665 32980 00906 10127 20070 48565
                   333 10258 20059 58006=
200906261800 AAXX 26184 67665 42980 01106 10130 20050 48555
                   333 10258 58004=
200906261500 AAXX 26154 67665 42980 01110 10225 20010 48558
                   333 58008=
200906261200 AAXX 26124 67665 42980 01407 10244 20014 48563
                   333 58010=
200906260900 AAXX 26094 67665 42980 01110 10237 21018 48581
                   333 58006 Q1025.4=
200906260600 AAXX 26064 67665 32980 01004 10143 20070 48560
                   333 10275 20084 58011=
200906260400 AAXX 26044 67665 42980 01203 10099 20034 48548
                   333 58015 Q1023.8=
200906260300 AAXX 26034 67665 42980 01103 10089 20059 48542
                   333 58011 Q1023.4=
200906252100 AAXX 25214 67665 42980 01202 10116 20079 48555
                   333 58011 Q1024.4=
200906251200 AAXX 25124 67665 41980 01506 10266 20081 48557 70500
                   333 58010=
200906250900 AAXX 25094 67665 41980 01005 10245 20074 48576 70400
                   333 58014=
200906250600 AAXX 25064 67665 32980 01004 10144 20076 48550
                   333 10284 20100 58001=
200906241800 AAXX 24184 67665 42980 00803 10162 20119 48549
                   333 10284 58020=
200906241500 AAXX 24154 67665 42980 11211 10236 20130 48541 80001
                   333 58017 81080=
200906241200 AAXX 24124 67665 42780 12405 10267 20096 48547 81100
                   333 58011 81857=
200906240900 AAXX 24094 67665 42980 01505 10250 20116 48562
                   333 59001=
200906240600 AAXX 24064 67665 31970 01801 10150 20142 48541 70500
                   333 10279 20103 59005=
200906231800 AAXX 23184 67665 42980 00903 10155 20120 48530
                   333 10279 59008=
200906231500 AAXX 23154 67665 42980 01404 10252 20109 48526
                   333 58007=
200906231200 AAXX 23124 67665 42980 02103 10266 20095 48536
                   333 58003=
200906230600 AAXX 23064 67665 32980 02901 10145 20096
                   333 10260 20096 59009=
200906230400 AAXX 23044 67665 42980 01802 10103 20103 48528
                   333 59013=
200906230300 AAXX 23034 67665 42980 01603 10096 20096 48525
                   333 59007=
200906230000 AAXX 23004 67665 42980 01503 10111 20111 48530
                   333 59012=
200906222100 AAXX 22214 67665 42980 01403 10130 20112 48541
                   333 59010=
200906221800 AAXX 22184 67665 42980 01105 10149 20123 48537
                   333 10260 59013=
200906221500 AAXX 22154 67665 42980 00305 10239 20113 48532
                   333 59014=
200906221200 AAXX 22124 67665 42780 10903 10247 20102 48541 81100
                   333 59011 81850=
200906220900 AAXX 22094 67665 42980 00304 10223 20114 48565
                   333 59010=
200906220600 AAXX 22064 67665 32980 01205 10131 20131 48552
                   333 10256 20096 59008=
200906211800 AAXX 21184 67665 42980 11004 10149 20149 48549 81030
                   333 10250 59008 81360=
200906211500 AAXX 21154 67665 42780 21003 10223 20134 48543 82200
                   333 59010 82850=
200906211200 AAXX 21124 67665 42680 40305 10232 20135 48549 84200
                   333 59004 84845=
200906210900 AAXX 21094 67665 42580 20608 10205 20153 48573 82100
                   333 59004 82822 Q1025.0=
200906210600 AAXX 21064 67665 32980 11004 10133 20124 48559 81030
                   333 10244 20086 59006 81360
                   555 00075 Q1024.7=
200906210400 AAXX 21044 67665 42980 01204 10102 20102 48541
                   333 59011 Q1023.0=
200906210300 AAXX 21034 67665 42980 01305 10104 20104 48439
                   333 50011 Q1022.8=
200906201200 AAXX 20124 67665 42680 60306 10225 20116 48553 86100
                   333 59007 86835 Q1022.4=
200906200900 AAXX 20094 67665 42580 20508 10206 20151 48577 82100
                   333 59003 82820 Q1025.5=
200906200600 AAXX 20064 67665 32980 11104 10135 20135 48574 81030
                   333 10228 20090 59003 81360 Q1025.4=
200906191800 AAXX 19184 67665 42980 21104 10141 20133 48562 82030
                   333 10228 58008 82360 Q1024.9=
200906191500 AAXX 19154 67665 42680 50705 10195 20138 48550 85220
                   333 58007 82840 85359 Q1023.0=
200906191200 AAXX 19124 67665 42580 60610 10202 20136 48551 70222 86200
                   333 58006 86828 Q1023.1=
200906190900 AAXX 19094 67665 42480 50911 10199 20159 48579 85100
                   333 58005 85815=
200906190600 AAXX 19064 67665 32980 01004 10137 20129 48569
                   333 10245 20086 58006=
200906181800 AAXX 18184 67665 42980 01105 10143 20125 48555
                   333 10245 58009=
200906181500 AAXX 18154 67665 42780 21006 10216 20115 48550 82100
                   333 58011 82856=
200906181200 AAXX 18124 67665 42680 21207 10235 20119 48555 81100
                   333 58009 81842=
200906180600 AAXX 18064 67665 32980 11104 10145 20100 48561 81030
                   333 10258 20094 58013 81360=
200906180400 AAXX 18044 67665 41960 11204 10109 20109 48545 70500 81030
                   333 58010 81360=
200906180300 AAXX 18034 67665 42980 11205 10109 20109 48544 81030
                   333 58015 81360=
200906172100 AAXX 17214 67665 42980 11104 10125 20125 48549 81030
                   333 58006 81360=
200906171800 AAXX 17184 67665 42980 11104 10147 20130 48548 81030
                   333 58003 81360=
200906171200 AAXX 17124 67665 42680 10803 10243 20122 48544 81100
                   333 58001 81834=
200906170900 AAXX 17094 67665 42580 10808 10210 20136 48567 81100
                   333 58002 81820=
200906170600 AAXX 17064 67665 32980 01303 10150 20133 48552
                   333 10263 20094 59001=
200906161800 AAXX 16184 67665 42980 11204 10153 20145 48545 81030
                   333 10263 59006 81360=
200906161500 AAXX 16154 67665 42780 30904 10240 20125 48540 83100
                   333 59013 83856=
200906161200 AAXX 16124 67665 42680 30906 10252 20119 48545 83100
                   333 59015 83840=
200906160900 AAXX 16094 67665 42980 00609 10221 20131 48566
                   333 59013=
200906160600 AAXX 16064 67665 32980 01104 10147 20139 48553
                   333 10262 20098 59014=
200906152100 AAXX 15214 67665 42980 00902 10135 20109 48551
                   333 59014 Q1023.6=
200906151800 AAXX 15184 67665 42980 01206 10151 20106 48550
                   333 10262 59014=
200906151500 AAXX 15154 67665 42880 20905 10236 20109 48552 82100
                   333 59009 82858=
200906151200 AAXX 15124 67665 42680 20904 10252 20099 48559 82100
                   333 59010 82840=
200906150900 AAXX 15094 67665 42480 10408 10234 20136 48580 70300 81100
                   333 59003 81810 Q1025.5=
200906150600 AAXX 15064 67665 32980 01104 10146 20146 48567
                   333 10260 20095 59008
                   555 00080 Q1025.3=
200906150400 AAXX 15044 67665 42980 11403 10097 20097 48550 81030
                   333 59005 81859=
200906150000 AAXX 15004 67665 42980 01303 10126 20126 48555
                   333 58002=
200906142100 AAXX 14214 67665 42980 11004 10136 20136 48564 81030
                   333 58002 81360=
200906141500 AAXX 14154 67665 42680 10407 10235 20129 48561 811000
                   333 59002 81845 Q1023.1=
200906141200 AAXX 14124 67665 42680 40409 10247 20143 48569 84100
                   333 84836 Q1023.9=
200906131800 AAXX 13184 67665 42980 11104 10167 20167 48564 81030
                   333 58004 81360=
200906130900 AAXX 13094 67665 42580 10708 10226 20181 48589 81100
                   333 58012 81825=
200906130600 AAXX 13064 67665 32980 00905 10152 20145 48561
                   333 10264 20110 58002=
200906130300 AAXX 13034 67665 42980 01004 10120 20120 48546
                   333 59001=
200906122100 AAXX 12214 67665 42980 01502 10141 20141 48557
                   333 58005=
200906121200 AAXX 12124 67665 42680 11102 10250 20158 48557 81100
                   333 58008 81842=
200906120900 AAXX 12094 67665 42580 10809 10224 20161 48576 81100
                   333 58002 81825=
200906120600 AAXX 12064 67665 32980 01004 10143 20135 48561
                   333 10288 20114 59003=
200906110900 AAXX 11094 67665 42980 00313 10216 20163 48574
                   333 59004 Q1024.9=
200906110600 AAXX 11064 67665 32980 20905 10139 20133 48564 82030
                   333 10226 20105 59002 82360=
200906101200 AAXX 10124 67665 42580 70613 10208 20162 48555 875//
                   333 58008 87628 Q1022.9=
200906100900 AAXX 10091 67665 42559 80414 10185 20169 48574 70522 87530
                   333 58007 87620 Q1025.4=
200906100600 AAXX 10061 67665 31459 80609 10163 20163 48569 70522 87530
                   333 10264 20162 58018 87612 84360
                   555 10156 Q1025/4=
200906091800 AAXX 09184 67665 42980 20906 10167 20167 48555 82030
                   333 10264 58024 82360=
200906091200 AAXX 09124 67665 42680 60815 10233 20181 48550 86230
                   333 58020 85830 83360=
200906090900 AAXX 09094 67665 42580 60406 10208 20185 48569 86830
                   333 58021 83615 85818 83360=
200906090600 AAXX 09064 67665 31470 80608 10173 20173 48553 70522 8553/
                   333 10280 20101 58019 85609 87360=
200906090400 AAXX 09044 67665 42980 10808 10156 20156 48540 81030
                   333 58020 81360=
200906090300 AAXX 09034 67665 42980 10708 10144 20144 48531 81030
                   333 58018 81360=
200906082100 AAXX 08214 67665 42980 01105 10148 20148 48538
                   333 58006=
200906081800 AAXX 08184 67665 42980 00904 10174 20149 48533
                   333 10280 58002=
200906081500 AAXX 08154 67665 42880 10608 10254 20133 48527 81130
                   333 58000 81858 81360=
200906081200 AAXX 08124 67665 42680 10912 10269 20152 48535 81100
                   333 58001 81850=
200906080900 AAXX 08094 67665 41680 60403 10251 20175 48554 70522 81130
                   333 59003 81830 86360 1022.2=
200906080600 AAXX 08064 67665 31970 71205 10174 20174 48535 70522 87030
                   333 10283 20138 59010 87360=
200906071800 AAXX 07184 67665 41970 11204 10184 20175 48532 70500 81030
                   333 10283 59013 81360=
200906071500 AAXX 07154 67665 41970 13304 10259 20139 48528 70500 81030
                   333 59015 81360=
200906071200 AAXX 07124 67665 41665 40504 1027120145 48534 70500 84200
                   333 59015 84845=
200906070900 AAXX 07094 67665 42980 00406 10254 20161 48557
                   333 59022=
200906070600 AAXX 07064 67665 32980 01103 10159 20150 48542
                   333 10276 20111 59023=
200906061200 AAXX 06124 67665 42980 00402 10262 20105 48548 70200
                   333 59018=
200906060900 AAXX 06094 67665 42980 00909 10232 20103 48576
                   333 59011 Q1025.0=
200906060600 AAXX 06064 67665 31975 01103 10139 20131 48562 70500
                   333 10265 20094 59013
                   555 00079 Q1024.9=
200906052100 AAXX 05214 67665 42980 01504 10127 20118 48556
                   333 59016 Q1024.3=
200906051200 AAXX 05124 67665 42980 21208 10253 20099 48564 80001
                   333 59005 82080 Q1023.4=
200906050900 AAXX 05094 67665 42980 00709 10227 20108 48587 59002 Q1026.3=
200906050600 AAXX 05064 67665 31980 01003 10135 20126 48575 70500
                   333 10266 20101 58005
                   555 10081 Q1026.4=
200906050400 AAXX 05044 67665 42980 01303 10102 20091 48558
                   333 58006=
200906050300 AAXX 05034 67665 42980 01503 10249 20096 48557
                   333 58007=
200906050000 AAXX 05004 67665 42980 01303 10102 20091 48558
                   333 58006=
200906042100 AAXX 04214 67665 42980 01304 10121 20095 48569
                   333 59006=
200906041800 AAXX 04184 67665 42980 01204 10145 20110 48568
                   333 10266 58004=
200906041500 AAXX 04154 67665 42980 30807 10236 20061 48566 80001
                   3/3 583080 Q1023.7=
200906041200 AAXX 04124 67665 42980 20608 10259 20056 48571
                   333 58007 Q1023.9=
200906040900 AAXX 04094 67665 41975 00909 10232 20076 48589 70500
                   333 58005 Q1026.5=
200906040600 AAXX 04064 67665 31975 00904 10126 20099 48568 70500
                   333 10275 20095 58008
                   555 00075 Q1025.8=
200906031800 AAXX 03184 67665 42980 10903 10139 20093 48564 80001
                   333 10262 58022 81080=
200906031500 AAXX 03154 67665 42980 40905 10232 20080 48561 80001
                   333 58025 84080=
200906031200 AAXX 03124 67665 42780 51006 10259 20095 48564 81102
                   333 58023 81856 84080=
200906030900 AAXX 03094 67665 42980 50607 10231 20102 48584 80002
                   333 58021 85280=
200906030600 AAXX 03064 67665 31980 41204 10152 20135 48564 70500 80002
                   333 10275 20100 58025 84080=
200906021800 AAXX 02184 67665 42980 01205 10161 20100 48546
                   333 10275 58003=
200906021500 AAXX 02154 67665 42980 01206 10237 20075 48538
                   333 58000=
200906021200 AAXX 02124 67665 42980 00904 10264 20065 48541
                   333 58002=
200906011200 AAXX 01124 67665 42980 11204 10262 20088 48539 81030
                   333 58002 81360=
200906010900 AAXX 01094 67665 41960 30908 10258 20114 48559 70522 83030
                   333 58001 83360 Q1022.6=
200906010600 AAXX 01064 67665 31960 51203 10173 20147 48546 70522 85030
                   333 10284 20105 58001 85360 Q1022.5=

################################################################################
#  SYNOPS from 67666, Lusaka City Airport (Zambia) | 15-25S | 028-19E | 1280 m
################################################################################
200907010600 AAXX 01064 67666 31978 11012 10100 20070 48592 70500 81030
                   333 10183 20070 58007 81360 Q1028.7=
200906290600 AAXX 29064 67666 31978 01806 10145 20090 48568 70500
                   333 10222 20080 58006 Q1025.2=
200906251200 AAXX 25124 67666 42980 01804 10254 20108 48546
                   333 58009=
200906250900 AAXX 25094 67666 42980 01006 10232 20099 48564
                   333 58011=
200906241200 AAXX 24124 67666 42680 10702 10250 20104 48537 81101
                   333 58011 81830 81080=
200906231200 AAXX 23124 67666 42980 00402 10252 20112 48527
                   333 59006=
200906190900 AAXX 19094 67666 42580 40910 10190 20124 48568 84200
                   333 58002 84828=
200906190600 AAXX 19064 67666 32980 01008 10150 20124 48562
                   333 10235 20115 58003=
200906160900 AAXX 16094 67666 42980 01006 10210 20107 48557
                   333 59014=
200906160600 AAXX 16064 67666 32980 01106 10170 20099 48550
                   333 10250 20100 59013=
200906110600 AAXX 11064 67666 31980 20913 10160 20128 48560 70500 82030
                   333 10203 20120 59002 82360=
200906091200 AAXX 09124 67666 41678 60917 10225 20154 48536 70522 84130
                   333 58013 84835 83360=
200906031200 AAXX 03124 67666 42580 61307 10245 20087 48552 81102
                   333 58023 81835 85080=

################################################################################
#  SYNOPS from 67673, Petauke (Zambia) | 14-15S | 031-17E | 1035 m
################################################################################
200906091200 AAXX 09124 67673 42680 41208 10254 20128 48567 84100
                   333 58001 84836=

################################################################################
#  SYNOPS from 67741, Sesheke (Zambia) | 17-28S | 024-18E | 949 m
################################################################################
200906110600 AAXX 11064 67741 12980 60601 10139 20136 48/// 69904 86030
                   333 10281 20120 5//// 86360=

################################################################################
#  SYNOPS from 67743, Livingstone (Zambia) | 17-49S | 025-49E | 985 m
################################################################################
200906301500 AAXX 30154 67743 42980 01012 10192 20060 48585 58024=
200906301200 AAXX 30124 67743 42680 40913 10200 20068 48592 84100
                   333 58026 84848=
200906300600 AAXX 30064 67743 32980 00904 10100 20049 48594
                   333 10250 20060 59036=
200906291500 AAXX 29154 67743 42980 10908 10226 20036 48567 80001
                   333 58020 81080=
200906291200 AAXX 29124 67743 42980 20506 10233 20070 48576 80001
                   333 58018 82080=
200906250900 AAXX 25094 67743 42980 11104 10205 20013 48574 80001
                   333 58013 81080=
200906250600 AAXX 25064 67743 32980 40000 10098 20035 48539 80001
                   333 10275 20060 58012 84080=
200906240600 AAXX 24064 67743 32980 10902 10130 20048 48541 81030
                   333 10296 20065 58026 81360=
200906231200 AAXX 23124 67743 41970 02412 10279 20088 48531 70500
                   333 59005=
200906230600 AAXX 23064 67743 31959 00000 10133 20110 48519 71022
                   333 10288 20100 59020=
200906221200 AAXX 22124 67743 41975 01604 10268 20091 48534 70500
                   333 59014=
200906220600 AAXX 22064 67743 31975 00000 10133 20086 48537 70500
                   333 10280 20099 59006=
200906210900 AAXX 21094 67743 42980 00809 10233 20076 48566
                   333 59016=
200906200900 AAXX 20094 67743 42980 00810 10216 20090 48577
                   333 59001 Q1025.1=
200906190900 AAXX 19094 67743 41775 10805 10210 20096 48578 70500 81100
                   333 58004 81850=
200906190600 AAXX 19064 67743 31975 01003 10140 20095 48565 70500
                   333 10270 20110 58029=
200906181200 AAXX 18124 67743 42780 11004 10263 20066 48557 81100
                   333 58014 81856=
200906180600 AAXX 18064 67743 32980 01005 10150 20102 48559
                   333 10273 20100 58019=
200906170600 AAXX 17064 67743 31975 00000 10150 20105 48533 70500
                   333 10283 20110 59005=
200906160600 AAXX 16064 67743 31975 00605 10154 20100 48545 70500
                   333 10285 20116 59015=
200906151200 AAXX 15124 67743 41975 21309 10279 20093 48563 70500 82060
                   333 59009 82360=
200906110600 AAXX 11064 67743 31975 81004 10145 20141 48546 72162 87071
                   333 10224 20130 59015 87360 81080=
200906091200 AAXX 09124 67743 42380 81108 10192 20155 48530 83661
                   333 58014 83706 88360=
200906090600 AAXX 09064 67743 32480 80000 10183 20139 48541 855//
                   333 10305 20150 58036 85618=
200906081500 AAXX 08154 67743 41875 40908 10249 20139 48506 70522 81230
                   333 59007 81857 82360=
200906081200 AAXX 08124 67743 41775 50107 10290 20096 48516 70522 82230
                   333 59017 82856 83360=
200906031500 AAXX 03154 67743 42980 01007 10270 20010 48561
                   333 58025=
200906031200 AAXX 03124 67743 42980 01105 10280 20000 48564
                   333 58020=

################################################################################
#  SYNOPS from 67753, Choma (Zambia) | 16-50S | 027-04E | 1213 m
################################################################################
200906300600 AAXX 30064 67753 31470 30912 10098 20079 48/// 70500 83500
                   333 10211 20061 5//// 83610=
200906290600 AAXX 29064 67753 31970 01205 10107 20078 70500
                   3/3 10217 20027=
200906260600 AAXX 26064 67753 31970 01006 10127 20017 48/// 70500
                   333 10262 20049 5////=
200906250600 AAXX 25064 67753 31970 01807 1029 20030 48/// 70500
                   333 10258 20082 5////=
200906230600 AAXX 23064 67753 31970 00905 10149 20098 48/// 70500
                   333 10261 20066 5////=
200906220600 AAXX 22064 67753 31970 01004 10119 20104 48/// 70500
                   333 10246 20056 5////=
200906090600 AAXX 09064 67753 11370 80908 10167 20147 48/// 69904 76162 8777/
                   333 10266 20151 5//// 87709 88459=

################################################################################
#  SYNOPS from 67855, Lupaki (Zambia) | 17-03-00S | 024-46-00E | 1000 m
################################################################################
200907010600 AAXX 01064 67855 32980 00801 10079 20039 38/// 48///
                   333 20014 5////=
200907010000 AAXX 01004 67855 NIL=
200906301800 AAXX 30184 67855 NIL=
200906301200 AAXX 30124 67855 NIL=
200906300600 AAXX 30064 67855 NIL=
200906300000 AAXX 30004 67855 NIL=
200906291200 AAXX 29124 67855 NIL=
200906290600 AAXX 29064 67855 32980 30000 10038 21007 3//// 48/// 80002
                   333 21010 5//// 83080=
200906290000 AAXX 29004 67855 NIL=
200906281200 AAXX 28124 67855 NIL=
200906280600 AAXX 28064 67855 32980 70000 10046 20017 3//// 48/// 80002
                   333 20006 5//// 87080=
200906280000 AAXX 28004 67855 NIL=
200906271800 AAXX 27184 67855 NIL=
200906270600 AAXX 27064 67855 NIL=
200906270000 AAXX 27004 67855 NIL=
200906261800 AAXX 26184 67855 NIL=
200906261200 AAXX 26124 67855 NIL=
200906260600 AAXX 26064 67855 NIL=
200906260000 AAXX 26004 67855 NIL=
200906251800 AAXX 25184 67855 NIL=
200906250600 AAXX 25064 67855 NIL=
200906250000 AAXX 25004 67855 NIL=
200906241800 AAXX 24184 67855 NIL=
200906241200 AAXX 24124 67855 42980 72501 10244 20039 3//// 48/// 80001
                   333 5//// 87080=
200906240600 AAXX 24064 67855 32980 60000 10036 20027 3//// 48/// 80001
                   333 20016 5//// 86080=
200906240000 AAXX 24004 67855 NIL=
200906231200 AAXX 23124 67855 42880 43401 10296 20113 3//// 48/// 84100
                   333 5//// 84857=
200906230600 AAXX 23064 67855 32980 00000 10088 20079 3//// 48///
                   333 20055 5////=
200906230000 AAXX 23004 67855 NIL=
200906221800 AAXX 22184 67855 NIL=
200906221200 AAXX 22124 67855 NIL=
200906220600 AAXX 22064 67855 32980 00000 10084 20071 38/// 48///
                   333 20041 5////=
200906220000 AAXX 22004 67855 NIL=
200906211800 AAXX 21184 67855 NIL=
200906211200 AAXX 21124 67855 NIL=
200906210600 AAXX 21064 67855 32980 00000 10084 20076 3//// 48///
                   333 20049 5////=
200906210000 AAXX 21004 67855 NIL=
200906201800 AAXX 20184 67855 NIL=
200906201200 AAXX 20124 67855 NIL=
200906200600 AAXX 20064 67855 32980 00000 10080 20072 3//// 48///
                   333 20040 5////=
200906200000 AAXX 20004 67855 NIL=
200906191800 AAXX 19184 67855 NIL=
200906191200 AAXX 19124 67855 NIL=
200906190600 AAXX 19064 67855 32980 00901 10094 20083 3//// 48///
                   333 20054 5////=
200906190000 AAXX 19004 67855 NIL=
200906181800 AAXX 18184 67855 NIL=
200906181200 AAXX 18124 67855 NIL=
200906180600 AAXX 18064 67855 32980 00000 10060 20050 3//// 48///
                   333 20035 5////=
200906180000 AAXX 18004 67855 NIL=
200906171800 AAXX 17184 67855 NIL=
200906171200 AAXX 17124 67855 NIL=
200906170600 AAXX 17064 67855 32980 00000 10102 20066 38/// 48///
                   333 20065 5////=
200906170000 AAXX 17004 67855 NIL=
200906161800 AAXX 16184 67855 NIL=
200906161200 AAXX 16124 67855 NIL=
200906160600 AAXX 16064 67855 32980 00000 10088 20076 3//// 48///
                   333 20054 5////=
200906160000 AAXX 16004 67855 NIL=
200906151200 AAXX 15124 67855 NIL=
200906150600 AAXX 15064 67855 NIL=
200906150000 AAXX 15004 67855 NIL=
200906141200 AAXX 14124 67855 NIL=
200906140600 AAXX 14064 67855 NIL=
200906140000 AAXX 14004 67855 NIL=
200906131200 AAXX 13124 67855 NIL=
200906130600 AAXX 13064 67855 32980 00000 10090 20079 3//// 48///
                   333 20055 5////=
200906130000 AAXX 13004 67855 NIL=
200906121800 AAXX 12184 67855 NIL=
200906121200 AAXX 12124 67855 NIL=
200906120600 AAXX 12064 67855 NIL=
200906120000 AAXX 12004 67855 NIL=
200906111800 AAXX 11184 67855 NIL=
200906111200 AAXX 11124 67855 NIL=
200906110600 AAXX 11064 67855 11980 70601 10139 20121 3//// 48/// 60014 70162 8707/
                   333 20106 5//// 87360=
200906110000 AAXX 11004 67855 NIL=
200906101800 AAXX 10184 67855 NIL=
200906101200 AAXX 10124 67855 NIL=
200906100600 AAXX 10064 67855 11960 80402 10142 20129 3//// 48/// 60014 76162 8807/
                   333 20140 5//// 88460=
200906100000 AAXX 10004 67855 NIL=
200906091800 AAXX 09184 67855 NIL=
200906091200 AAXX 09124 67855 NIL=
200906090600 AAXX 09064 67855 32380 70913 10168 20122 3//// 48/// 81632
                   333 20114 5//// 81708 83360 87080=
200906090000 AAXX 09004 67855 NIL=
200906081800 AAXX 08184 67855 NIL=
200906081200 AAXX 08124 67855 42880 70309 10277 20104 38/// 48/// 81130
                   333 5//// 81857 87360=
200906080600 AAXX 08064 67855 32980 01501 10116 20077 3//// 48///
                   333 20070 5////=
200906080000 AAXX 08004 67855 NIL=
200906071800 AAXX 07184 67855 NIL=
200906071200 AAXX 07124 67855 NIL=
200906070600 AAXX 07064 67855 NIL=
200906070000 AAXX 07004 67855 NIL=
200906061800 AAXX 06184 67855 NIL=
200906061200 AAXX 06124 67855 NIL=
200906060600 AAXX 06064 67855 NIL=
200906060000 AAXX 06004 67855 NIL=
200906051800 AAXX 05184 67855 NIL=
200906051200 AAXX 05124 67855 42980 01801 10274 20000 3//// 48///
                   333 5////=
200906050600 AAXX 05064 67855 32980 00701 10077 20025 3//// 48///
                   333 20018 5////=
200906050000 AAXX 05004 67855 NIL=
200906041800 AAXX 04184 67855 NIL=
200906041200 AAXX 04124 67855 42980 02801 10286 20038 3//// 48///
                   333 5////=
200906040600 AAXX 04064 67855 32980 00000 10072 20032 3//// 48///
                   333 20024 5////=
200906040000 AAXX 04004 67855 NIL=
200906031800 AAXX 03184 67855 NIL=
200906031200 AAXX 03124 67855 42980 00901 10290 20056 3//// 48///
                   333 5////=
200906030600 AAXX 03064 67855 NIL=
200906030000 AAXX 03004 67855 NIL=
200906021200 AAXX 02124 67855 NIL=
200906020600 AAXX 02064 67855 NIL=
200906020000 AAXX 02004 67855 NIL=
200906011800 AAXX 01184 67855 NIL=
200906011200 AAXX 01124 67855 NIL=
200906010600 AAXX 01064 67855 NIL=
