################################################################################
# Query made at 04/14/2022 03:52:05 UTC
# Country like Zamb*
# Time interval: from 05/01/2015 05:30  to 05/31/2015 06:30  UTC
################################################################################

################################################################################
#  SYNOPS from 67403, Kawambwa (Zambia) | 09-48S | 029-05E | 1323 m
################################################################################
201505270600 AAXX 27064 67403 NIL=
201505260600 AAXX 26064 67403 NIL=
201505251500 AAXX 25154 67403 NIL=
201505240600 AAXX 24064 67403 NIL=
201505220600 AAXX 22064 67403 32980 00907 10161 20113 48557
                   333 10/// 20114 58005=
201505210900 AAXX 21094 67403 NIL=
201505210600 AAXX 21064 67403 32980 1//// 10166 20114 48552 81030
                   333 10/// 20121 58004 81360=
201505200300 AAXX 20034 67403 NIL=
201505191200 AAXX 19124 67403 NIL=
201505190600 AAXX 19064 67403 31980 11205 10167 20114 48540 70500 80001
                   333 10/// 20132 58002 81080=
201505181500 AAXX 18154 67403 NIL=
201505180900 AAXX 18094 67403 NIL=
201505170600 AAXX 17064 67403 NIL=
201505151200 AAXX 15124 67403 NIL=
201505150600 AAXX 15064 67403 32980 60905 10215 20164 48535 85032
                   333 10/// 20178 59003 85360 83080=
201505141200 AAXX 14124 67403 NIL=
201505131500 AAXX 13154 67403 NIL=
201505130900 AAXX 13094 67403 NIL=
201505120900 AAXX 12094 67403 NIL=
201505110600 AAXX 11064 67403 12980 50903 10196 20166 48526 60024 70162 85030
                   333 10/// 20176 59004 85360=
201505080600 AAXX 08064 67403 32980 10912 10195 20157 48548 81031
                   333 10/// 20164 58018 81360 81080=
201505071500 AAXX 07154 67403 NIL=
201505070600 AAXX 07064 67403 12980 10903 10187 20166 48530 60014 70300 81031
                   333 10/// 20153 58010 81360 81080=
201505060600 AAXX 06064 67403 32980 20904 10194 20167 48521 82031
                   333 10/// 20158 59014 82360 81080=
201505051500 AAXX 05154 67403 NIL=
201505050900 AAXX 05094 67403 NIL=
201505050600 AAXX 05064 67403 12980 41102 10191 20171 48534 60234 83031
                   333 10/// 20158 58001 83360 84080=
201505040600 AAXX 04064 67403 12980 20904 10203 20152 48534 69904 82031
                   333 10/// 20165 58007 82360 81080=
201505021500 AAXX 02154 67403 NIL=
201505011500 AAXX 01154 67403 NIL=

################################################################################
#  SYNOPS from 67413, Mbala (Zambia) | 08-51S | 031-20E | 1673 m
################################################################################
201505270600 AAXX 27064 67413 NIL=
201505260600 AAXX 26064 67413 NIL=
201505251500 AAXX 25154 67413 NIL=
201505240600 AAXX 24064 67413 NIL=
201505210900 AAXX 21094 67413 NIL=
201505200300 AAXX 20034 67413 NIL=
201505191200 AAXX 19124 67413 NIL=
201505181500 AAXX 18154 67413 NIL=
201505180900 AAXX 18094 67413 NIL=
201505170600 AAXX 17064 67413 NIL=
201505151200 AAXX 15124 67413 NIL=
201505150600 AAXX 15064 67413 NIL=
201505141200 AAXX 14124 67413 NIL=
201505140600 AAXX 14064 67413 12980 21312 10200 20144 48558 60024 80001
                   333 10280 20/// 58005 82080 91026=
201505131500 AAXX 13154 67413 NIL=
201505130900 AAXX 13094 67413 NIL=
201505120900 AAXX 12094 67413 NIL=
201505071500 AAXX 07154 67413 NIL=
201505051500 AAXX 05154 67413 NIL=
201505050900 AAXX 05094 67413 NIL=
201505021500 AAXX 02154 67413 NIL=
201505011500 AAXX 01154 67413 NIL=

################################################################################
#  SYNOPS from 67441, Mwinilunga (Zambia) | 11-45S | 024-26E | 1361 m
################################################################################
201505270600 AAXX 27064 67441 NIL=
201505260600 AAXX 26064 67441 NIL=
201505251500 AAXX 25154 67441 NIL=
201505240600 AAXX 24064 67441 NIL=
201505220600 AAXX 22064 67441 32982 012// 10135 20102 48580
                   333 10280 20/// 58003=
201505210900 AAXX 21094 67441 NIL=
201505210600 AAXX 21064 67441 32982 018// 10150 20088 48587 70200
                   333 10275 20/// 59048=
201505200300 AAXX 20034 67441 NIL=
201505191200 AAXX 19124 67441 NIL=
201505190600 AAXX 19064 67441 32/82 027// 10262 21084 48584
                   333 10275 20/// 58004=
201505181500 AAXX 18154 67441 NIL=
201505180900 AAXX 18094 67441 NIL=
201505170600 AAXX 17064 67441 NIL=
201505151200 AAXX 15124 67441 NIL=
201505150600 AAXX 15064 67441 31957 518// 10240 20093 48568 70511 82035
                   333 10285 20/// 58002 82360 84280=
201505141200 AAXX 14124 67441 NIL=
201505131500 AAXX 13154 67441 NIL=
201505130900 AAXX 13094 67441 NIL=
201505130600 AAXX 13064 67441 32975 316// 10180 20158 48567 83030
                   333 10290 20/// 59012 83360=
201505120900 AAXX 12094 67441 NIL=
201505120600 AAXX 12064 67441 31975 315// 10168 20139 48578 70500 80005
                   333 10270 20/// 58009 83280=
201505110600 AAXX 11064 67441 31970 516// 10150 20142 48568 70511 84045
                   333 10275 20/// 58001 84460 83280=
201505080600 AAXX 08064 67441 11970 512// 10182 20164 48578 60064 70511 8507/
                   333 10280 20/// 58016 85360=
201505071500 AAXX 07154 67441 NIL=
201505051500 AAXX 05154 67441 NIL=
201505050900 AAXX 05094 67441 NIL=
201505050600 AAXX 05064 67441 31970 714// 10160 20147 48567 70511 8704/
                   333 10282 20/// 58002 87460=
201505040600 AAXX 04064 67441 31970 415// 10145 20111 48567 70511 80005
                   333 10275 20/// 58004 84280=
201505021500 AAXX 02154 67441 NIL=
201505011500 AAXX 01154 67441 NIL=

################################################################################
#  SYNOPS from 67461, Mansa (Zambia) | 11-06S | 028-51E | 1382 m
################################################################################
201505290600 AAXX 29064 67461 32980 00904 10168 20136 48539
                   333 10279 20124 58004
                   555 00/// 91021=
201505280600 AAXX 28064 67461 32980 00907 10165 20140 48535
                   333 10279 20115 59011
                   555 91021=
201505270600 AAXX 27064 67461 NIL=
201505260600 AAXX 26064 67461 NIL=
201505251500 AAXX 25154 67461 NIL=
201505240600 AAXX 24064 67461 NIL=
201505220600 AAXX 22064 67461 32980 00905 10150 20119 48568
                   333 10260 20100 58007 91025=
201505210900 AAXX 21094 67461 NIL=
201505210600 AAXX 21064 67461 32980 10910 10150 20124 48561 80001
                   555 00/// 91024=
201505200300 AAXX 20034 67461 NIL=
201505191200 AAXX 19124 67461 NIL=
201505181500 AAXX 18154 67461 NIL=
201505180900 AAXX 18094 67461 NIL=
201505170600 AAXX 17064 67461 NIL=
201505151200 AAXX 15124 67461 NIL=
201505150600 AAXX 15064 67461 32980 60803 10200 20169 48541 70222 82038
                   333 10287 20155 58001 82361 85280 91021=
201505141200 AAXX 14124 67461 NIL=
201505140600 AAXX 14064 67461 32980 61203 10190 20199 48539 80008
                   333 10290 20150 5//// 86280 91021=
201505131500 AAXX 13154 67461 NIL=
201505130900 AAXX 13094 67461 NIL=
201505130600 AAXX 13064 67461 32980 71008 10189 20166 48547 80008
                   333 10284 20155 59006 87280 91022=
201505120900 AAXX 12094 67461 NIL=
201505110600 AAXX 11064 67461 32980 11208 10186 20159 48545 81030
                   333 10280 20148 58003 81360 91021=
201505080600 AAXX 08064 67461 32980 709// 10186 20151 48561 82038
                   333 10283 20154 58022 82361 87280 91024=
201505071500 AAXX 07154 67461 NIL=
201505060600 AAXX 06064 67461 32980 30804 10185 20170 48534 81031
                   333 10272 20154 59005 81361 82080 91020=
201505051500 AAXX 05154 67461 NIL=
201505050900 AAXX 05094 67461 NIL=
201505050600 AAXX 05064 67461 32580 71204 10185 20170 48539 81508
                   333 10290 20150 58002 81620 87280 91021=
201505040600 AAXX 04064 67461 32980 2//// 10190 20131 48538 80001
                   333 10270 20136 59001 82080 91021=
201505021500 AAXX 02154 67461 NIL=
201505011500 AAXX 01154 67461 NIL=

################################################################################
#  SYNOPS from 67475, Kasama (Zambia) | 10-13S | 031-08E | 1382 m
################################################################################
201505270600 AAXX 27064 67475 NIL=
201505260600 AAXX 26064 67475 NIL=
201505251500 AAXX 25154 67475 NIL=
201505240600 AAXX 24064 67475 NIL=
201505221200 AAXX 22124 67475 41975 00913 10245 20076 48552 70500
                   333 58009 91023=
201505220600 AAXX 22064 67475 31975 01412 10157 20109 48574 70500
                   333 10251 20101 58007 91026=
201505211200 AAXX 21124 67475 42780 51013 10239 20104 48561 70222 81106
                   333 58017 81850 85280 91024=
201505210900 AAXX 21094 67475 42680 51113 10217 20113 48573 70321 82106
                   333 58001 82835 85280 91026=
201505210600 AAXX 21064 67475 32980 21709 10151 20121 48568 70100 80001
                   333 10259 20102 58005 82080 91026=
201505201200 AAXX 20124 67475 42680 71511 10251 20105 48544 70222 80004
                   333 58005 87080 91022=
201505200300 AAXX 20034 67475 NIL=
201505191200 AAXX 19124 67475 42780 51010 10249 20130 48539 70122 83204
                   333 58000 83850 83080 91022=
201505190600 AAXX 19064 67475 32980 21213 10166 20119 48557 70200 80001
                   333 10255 20116 58000 82080 91024=
201505181500 AAXX 18154 67475 NIL=
201505180900 AAXX 18094 67475 42980 41320 10231 20116 48560 70222 80008
                   333 58011 84280 91024=
201505170600 AAXX 17064 67475 NIL=
201505151200 AAXX 15124 67475 NIL=
201505150600 AAXX 15064 67475 32980 30605 10204 20158 48552 80001
                   333 10281 20148 59002 91023=
201505141200 AAXX 14124 67475 42780 41812 10270 20135 48523 83202
                   333 58000 83850 82080 91020=
201505140900 AAXX 14094 67475 42680 31207 10255 20150 48546 81101
                   333 58000 81840 83080 91022=
201505131500 AAXX 13154 67475 41880 21406 10256 20150 48519 71510 82272
                   333 59010 81956 81857 81460 81080 91019=
201505130900 AAXX 13094 67475 42680 20807 10257 20148 48547 81131
                   333 59009 81840 81360 82080 91022=
201505130600 AAXX 13064 67475 32580 21006 10198 20153 48551 81501
                   333 10282 20150 59006 81620 82080 91023=
201505120900 AAXX 12094 67475 42680 31009 10256 20147 48556 83201
                   333 58009 83835 82080 91024=
201505110600 AAXX 11064 67475 32980 01309 10200 20164 48547
                   333 10273 20171 59004 91023=
201505080600 AAXX 08064 67475 32480 41216 10191 20153 48564 70322 83508
                   333 10275 20156 58019 83615 84280 91025=
201505071500 AAXX 07154 67475 NIL=
201505070600 AAXX 07064 67475 32580 31608 10198 20160 48546 70300 82101
                   333 10274 20133 58009 82820 81080 91023=
201505061500 AAXX 06154 67475 41780 71204 10245 20141 48511 71522 81370
                   333 59009 81956 83856 86460 91019=
201505060900 AAXX 06094 67475 42680 61411 10248 20155 48533 85201
                   333 59019 85835 83080 91021=
201505051500 AAXX 05154 67475 NIL=
201505050900 AAXX 05094 67475 42680 70809 10231 20157 48551 8557/
                   333 59001 85635 86360 91023=
201505050600 AAXX 05064 67475 32580 70907 10201 20164 48550 82578
                   333 10275 20161 58001 82625 84359 87280 91023=
201505041200 AAXX 04124 67475 42780 61215 10260 20142 48530 84238
                   333 58009 84840 83363 84280 91021=
201505040600 AAXX 04064 67475 32980 20407 10193 20146 48548 70200 80001
                   333 10270 20129 58008 82080 91023=
201505021500 AAXX 02154 67475 NIL=
201505011500 AAXX 01154 67475 NIL=

################################################################################
#  SYNOPS from 67476, Misamfu (Zambia) | 10-06S | 031-15E | 1536 m
################################################################################
201505270600 AAXX 27064 67476 NIL=
201505260600 AAXX 26064 67476 NIL=
201505251500 AAXX 25154 67476 NIL=
201505240600 AAXX 24064 67476 NIL=
201505220600 AAXX 22064 67476 32980 00802 10150 20115 48///
                   333 10255 20080 58007=
201505210900 AAXX 21094 67476 NIL=
201505210600 AAXX 21064 67476 32980 10903 10152 20123 48/// 80002
                   333 10257 20087 58002 81080=
201505200300 AAXX 20034 67476 NIL=
201505191200 AAXX 19124 67476 NIL=
201505190600 AAXX 19064 67476 32980 00504 10151 20121 48///
                   333 10261 20096 58000=
201505181500 AAXX 18154 67476 NIL=
201505180900 AAXX 18094 67476 NIL=
201505170600 AAXX 17064 67476 NIL=
201505151200 AAXX 15124 67476 NIL=
201505150600 AAXX 15064 67476 32980 00000 10187 20160 48///
                   333 10280 20134 59002=
201505141200 AAXX 14124 67476 NIL=
201505131500 AAXX 13154 67476 NIL=
201505130900 AAXX 13094 67476 NIL=
201505120900 AAXX 12094 67476 NIL=
201505110600 AAXX 11064 67476 32980 00903 10200 20158 48///
                   333 10283 20128 5////=
201505080600 AAXX 08064 67476 32580 31004 10190 20158 48/// 82530
                   333 10277 20150 58021 82628 82360=
201505071500 AAXX 07154 67476 NIL=
201505070600 AAXX 07064 67476 32980 00902 10193 20164 48///
                   333 10273 20124 58011=
201505051500 AAXX 05154 67476 NIL=
201505050900 AAXX 05094 67476 NIL=
201505050600 AAXX 05064 67476 32980 50902 10199 20168 48/// 82231
                   333 10277 20156 58000 82830 84360 82080=
201505040600 AAXX 04064 67476 32980 10503 10189 20151 48/// 80001
                   333 10275 20115 5//// 81080=
201505021500 AAXX 02154 67476 NIL=
201505011500 AAXX 01154 67476 NIL=

################################################################################
#  SYNOPS from 67477, Mpika (Zambia) | 11-54S | 031-26E | 1400 m
################################################################################
201505270600 AAXX 27064 67477 NIL=
201505260600 AAXX 26064 67477 NIL=
201505251500 AAXX 25154 67477 NIL=
201505240600 AAXX 24064 67477 NIL=
201505210900 AAXX 21094 67477 NIL=
201505210600 AAXX 21064 67477 32480 60000 10165 20/// 48557 86100
                   333 10240 20114 58010 86812=
201505200600 AAXX 20064 67477 32480 11206 10175 20/// 48568 81100
                   333 10230 20102 58005 81811=
201505200300 AAXX 20034 67477 NIL=
201505191200 AAXX 19124 67477 NIL=
201505190600 AAXX 19064 67477 32480 11206 10160 20/// 48559 81100
                   333 10235 20105 58003 81812=
201505181500 AAXX 18154 67477 NIL=
201505180900 AAXX 18094 67477 NIL=
201505180600 AAXX 18064 67477 32980 00000 10160 20/// 48559
                   333 10220 20111 59006=
201505170600 AAXX 17064 67477 NIL=
201505151200 AAXX 15124 67477 NIL=
201505150600 AAXX 15064 67477 32980 20000 10200 20/// 48557 80001
                   333 10247 20134 58004 82080=
201505141200 AAXX 14124 67477 NIL=
201505131500 AAXX 13154 67477 NIL=
201505130900 AAXX 13094 67477 NIL=
201505130600 AAXX 13064 67477 32980 01201 10190 20/// 48550
                   333 10260 20150 59012=
201505120900 AAXX 12094 67477 NIL=
201505120600 AAXX 12064 67477 31478 20605 10208 20/// 48563 70500 82530
                   333 10269 20159 58014 82612 81359=
201505080600 AAXX 08064 67477 31478 70610 10173 20/// 48570 70522 8357/
                   333 10259 20151 58018 83612 85459=
201505071500 AAXX 07154 67477 NIL=
201505070600 AAXX 07064 67477 32980 01202 10215 20/// 48532
                   333 10259 20146 58013=
201505060600 AAXX 06064 67477 32480 11202 10196 20150 48538 83100
                   333 10245 20150 59017 83812=
201505051500 AAXX 05154 67477 NIL=
201505050900 AAXX 05094 67477 NIL=
201505050600 AAXX 05064 67477 32480 80904 10191 20/// 48554 885//
                   333 10263 20159 58000 88612=
201505021500 AAXX 02154 67477 NIL=
201505011500 AAXX 01154 67477 NIL=

################################################################################
#  SYNOPS from 67481, Isoka (Zambia) | 10-07S | 032-38E | 1360 m
################################################################################
201505270600 AAXX 27064 67481 NIL=
201505260600 AAXX 26064 67481 NIL=
201505251500 AAXX 25154 67481 NIL=
201505240600 AAXX 24064 67481 NIL=
201505221200 AAXX 22124 67481 42780 30301 10245 20114 48/// 83200
                   333 58003 83850=
201505220600 AAXX 22064 67481 31975 11601 10170 20125 48/// 70500 81040
                   333 10256 20111 58007 81361=
201505211200 AAXX 21124 67481 42780 61002 10/// 20119 48/// 81140
                   333 58007 81850 86361=
201505210900 AAXX 21094 67481 42680 53601 10221 20106 48/// 81130
                   333 58003 81839 84361=
201505210600 AAXX 21064 67481 32980 50000 10180 20129 85030
                   333 10260 20102 58005 85361=
201505201200 AAXX 20124 67481 41975 21002 10245 20131 48/// 70500 82040
                   333 58003 82361=
201505200900 AAXX 20094 67481 41975 31504 10220 20139 48/// 70500 83040
                   333 58008 83361=
201505200300 AAXX 20034 67481 NIL=
201505191200 AAXX 19124 67481 41670 50604 10243 20133 70522 84104
                   333 58003 84845 83080=
201505190900 AAXX 19094 67481 41670 30603 10212 20131 48/// 70500 83104
                   333 58000 83831 81080=
201505190600 AAXX 19064 67481 31970 10000 10170 20134 48/// 70500 80004
                   333 10256 20124 59003 81080=
201505181500 AAXX 18154 67481 NIL=
201505180900 AAXX 18094 67481 41570 50402 10212 20140 48/// 82504
                   333 5//// 82628 83080=
201505170600 AAXX 17064 67481 NIL=
201505151200 AAXX 15124 67481 42680 31402 10269 20160 48/// 82102
                   333 58000 82841 82080=
201505150600 AAXX 15064 67481 32980 10000 10195 20169 80001
                   333 10276 20145 58002 81080=
201505141200 AAXX 14124 67481 42680 30603 10266 20156 48/// 83100
                   333 58002 83843 81646=
201505131500 AAXX 13154 67481 NIL=
201505130900 AAXX 13094 67481 NIL=
201505130600 AAXX 13064 67481 32980 12702 10202 20158 48/// 80001
                   333 10274 20154 59011 81080=
201505120900 AAXX 12094 67481 NIL=
201505110600 AAXX 11064 67481 31475 11203 10195 20164 48/// 70500 81500
                   333 10264 20147 59003 81614=
201505080600 AAXX 08064 67481 32480 42402 10190 20162 48/// 83501
                   333 10274 20162 58023 83611 81080=
201505071500 AAXX 07154 67481 NIL=
201505070600 AAXX 07064 67481 32980 41202 10200 20168 48/// 80004
                   333 10272 20146 58012 84080=
201505060900 AAXX 06094 67481 42680 50901 10239 20164 48/// 84240
                   333 59017 84830 81630 81360=
201505060600 AAXX 06064 67481 32980 31801 10205 20163 48/// 83040
                   333 10265 20148 59015 83361=
201505051500 AAXX 05154 67481 NIL=
201505051200 AAXX 05124 67481 42680 60601 10248 20165 48/// 83934
                   333 59009 81935 83635 81361 84080=
201505050900 AAXX 05094 67481 42580 61201 10230 20162 48/// 83230
                   333 59002 83825 86361=
201505050600 AAXX 05064 67481 12380 70000 10185 20174 48/// 60064 81690
                   333 10257 20166 5//// 81709 87360=
201505041200 AAXX 04124 67481 42680 72003 10248 20169 48/// 86990
                   333 58013 81930 83830 84632 87361=
201505021500 AAXX 02154 67481 NIL=
201505011500 AAXX 01154 67481 NIL=

################################################################################
#  SYNOPS from 67531, Zambezi (Zambia) | 13-32S | 023-07E | 1077 m
################################################################################
201505270600 AAXX 27064 67531 NIL=
201505260600 AAXX 26064 67531 NIL=
201505251500 AAXX 25154 67531 NIL=
201505240600 AAXX 24064 67531 NIL=
201505220600 AAXX 22064 67531 32980 01106 10136 20090 48///
                   333 10282 20075 5////=
201505210900 AAXX 21094 67531 NIL=
201505210600 AAXX 21064 67531 32980 01105 10130 20102 48/// 70200
                   333 10277 20075 5////=
201505200300 AAXX 20034 67531 NIL=
201505191200 AAXX 19124 67531 42980 01204 10263 20116 48/// 70200
                   333 5////=
201505181500 AAXX 18154 67531 NIL=
201505180900 AAXX 18094 67531 NIL=
201505170600 AAXX 17064 67531 NIL=
201505151200 AAXX 15124 67531 42780 41304 10288 20142 48/// 70210 81101
                   333 5//// 81850 83082=
201505150600 AAXX 15064 67531 32980 11202 10166 20148 48/// 70200 80001
                   333 10300 20116 5//// 81082=
201505141200 AAXX 14124 67531 42780 31709 10292 20149 48/// 70200 83100
                   333 5//// 83850=
201505131500 AAXX 13154 67531 NIL=
201505130900 AAXX 13094 67531 42980 11207 10263 20167 48/// 70200 80001
                   333 5//// 81082=
201505130600 AAXX 13064 67531 32980 11104 10171 20144 48/// 70200 80001
                   333 10300 20106 5//// 81082=
201505120900 AAXX 12094 67531 42980 10908 10257 20137 48/// 70200 80001
                   333 5//// 81082=
201505120600 AAXX 12064 67531 32980 11401 10135 20126 48/// 70500 81030
                   333 10278 20093 5//// 81362=
201505110600 AAXX 11064 67531 32980 41404 10162 20135 48/// 70211 80008
                   333 10290 20098 5//// 84281=
201505080600 AAXX 08064 67531 32980 40906 10174 20147 48/// 70200 84030
                   333 10301 20127 5//// 84362=
201505071500 AAXX 07154 67531 NIL=
201505051500 AAXX 05154 67531 NIL=
201505050900 AAXX 05094 67531 42980 40908 10262 20148 48/// 70200 80008
                   333 5//// 84282=
201505050600 AAXX 05064 67531 32980 41006 10167 20128 48/// 70200 80008
                   333 10290 20117 5//// 84282=
201505041200 AAXX 04124 67531 42980 31207 10258 20135 48/// 70200 80001
                   333 5//// 83082=
201505040600 AAXX 04064 67531 32980 31102 10152 20116 48/// 70200 80001
                   333 10292 20130 5//// 83082=
201505021500 AAXX 02154 67531 NIL=
201505011500 AAXX 01154 67531 NIL=

################################################################################
#  SYNOPS from 67541, Kasempa (Zambia) | 13-32S | 025-51E | 1234 m
################################################################################
201505270600 AAXX 27064 67541 NIL=
201505260600 AAXX 26064 67541 NIL=
201505251500 AAXX 25154 67541 NIL=
201505240600 AAXX 24064 67541 NIL=
201505210900 AAXX 21094 67541 NIL=
201505210600 AAXX 21064 67541 32980 10802 10168 20118 48559 70222 80001
                   333 10/// 20/// 58001 81080=
201505200300 AAXX 20034 67541 NIL=
201505191200 AAXX 19124 67541 NIL=
201505190600 AAXX 19064 67541 32980 10803 10170 20119 48548 70222 80001
                   333 10/// 20/// 58001 81080=
201505181500 AAXX 18154 67541 NIL=
201505180900 AAXX 18094 67541 NIL=
201505170600 AAXX 17064 67541 NIL=
201505151200 AAXX 15124 67541 NIL=
201505150600 AAXX 15064 67541 NIL=
201505141200 AAXX 14124 67541 NIL=
201505131500 AAXX 13154 67541 NIL=
201505130900 AAXX 13094 67541 NIL=
201505120900 AAXX 12094 67541 NIL=
201505120600 AAXX 12064 67541 32980 3//// 10191 20156 48552 70222 80003
                   333 10/// 20/// 58004 83080=
201505110600 AAXX 11064 67541 32980 20000 10194 20154 48548 70222 80002
                   333 10/// 20/// 59014 82080=
201505071500 AAXX 07154 67541 NIL=
201505051500 AAXX 05154 67541 NIL=
201505050900 AAXX 05094 67541 NIL=
201505021500 AAXX 02154 67541 NIL=
201505011500 AAXX 01154 67541 NIL=

################################################################################
#  SYNOPS from 67543, Kabompo (Zambia) | 13-36S | 024-12E | 1075 m
################################################################################
201505270600 AAXX 27064 67543 NIL=
201505260600 AAXX 26064 67543 NIL=
201505251500 AAXX 25154 67543 NIL=
201505240600 AAXX 24064 67543 NIL=
201505210900 AAXX 21094 67543 NIL=
201505210600 AAXX 21064 67543 31075 01100 10148 20104 48/// 70500
                   333 10288 20100 5////=
201505200300 AAXX 20034 67543 NIL=
201505191200 AAXX 19124 67543 NIL=
201505181500 AAXX 18154 67543 NIL=
201505180900 AAXX 18094 67543 NIL=
201505170600 AAXX 17064 67543 NIL=
201505151200 AAXX 15124 67543 NIL=
201505150600 AAXX 15064 67543 31975 1//00 10170 20140 48/// 70500 80001
                   333 10306 20125 5//// 81080=
201505141200 AAXX 14124 67543 NIL=
201505131500 AAXX 13154 67543 NIL=
201505130900 AAXX 13094 67543 41675 1//00 10268 20168 48/// 70500 81101
                   333 5//// 81830 81080=
201505130600 AAXX 13064 67543 32975 0//00 10174 20150 48/// 70500
                   333 10304 20128 5////=
201505120900 AAXX 12094 67543 NIL=
201505110600 AAXX 11064 67543 31975 6//00 10169 20134 48/// 70522 80005
                   333 10290 20115 5//// 86280=
201505080600 AAXX 08064 67543 31975 6//00 10185 20150 48/// 70522 81035
                   333 10313 20146 5//// 81360 85280=
201505071500 AAXX 07154 67543 NIL=
201505051500 AAXX 05154 67543 NIL=
201505050900 AAXX 05094 67543 NIL=
201505050600 AAXX 05064 67543 31970 7//00 10172 20128 48/// 70522 80005
                   333 10312 20137 5//// 87280=
201505040600 AAXX 04064 67543 31975 7//00 10154 20116 48/// 70522 80005
                   333 10310 20115 5//// 87280=
201505021500 AAXX 02154 67543 NIL=
201505011500 AAXX 01154 67543 NIL=

################################################################################
#  SYNOPS from 67551, Solwezi (Zambia) | 12-11S | 026-23E | 1386 m
################################################################################
201505270600 AAXX 27064 67551 NIL=
201505260600 AAXX 26064 67551 32980 00805 10161 20117 48547
                   333 10277 20112 59001
                   555 00/// 91022=
201505251500 AAXX 25154 67551 NIL=
201505240600 AAXX 24064 67551 NIL=
201505210900 AAXX 21094 67551 NIL=
201505200300 AAXX 20034 67551 NIL=
201505191200 AAXX 19124 67551 NIL=
201505190600 AAXX 19064 67551 32980 01205 10119 20096 48554
                   333 10256 20091 58007 91023=
201505181500 AAXX 18154 67551 NIL=
201505180900 AAXX 18094 67551 NIL=
201505170600 AAXX 17064 67551 NIL=
201505151200 AAXX 15124 67551 NIL=
201505150600 AAXX 15064 67551 NIL=
201505141200 AAXX 14124 67551 NIL=
201505131500 AAXX 13154 67551 NIL=
201505130900 AAXX 13094 67551 NIL=
201505120900 AAXX 12094 67551 NIL=
201505071500 AAXX 07154 67551 NIL=
201505051500 AAXX 05154 67551 NIL=
201505050900 AAXX 05094 67551 NIL=
201505021500 AAXX 02154 67551 NIL=
201505011500 AAXX 01154 67551 NIL=

################################################################################
#  SYNOPS from 67561, Ndola (Zambia) | 13-00S | 028-39E | 1269 m
################################################################################
201505301200 AAXX 30124 67561 41775 70000 10255 20109 48529 70522 82108
                   333 58002 82855 87280
                   555 66/// 77103 8868/ 98002=
201505280600 AAXX 28064 67561 31959 00000 10162 20121 48541 70400
                   333 10279 20102 59004
                   555 91022=
201505270600 AAXX 27064 67561 41950 10000 10153 20117 48544 80001
                   333 10275 20101 58005 81080
                   555 91023=
201505260600 AAXX 26064 67561 31960 00000 10136 20113 48538 70500
                   333 10268 20086 59011
                   555 00/// 91022=
201505251500 AAXX 25154 67561 41975 00000 10248 20106 48525 70500
                   333 59007 555 10268 91019=
201505251200 AAXX 25124 67561 41775 12704 10266 20116 48531 70500 81100
                   333 59010 81850 555 66/// 77093 8870/ 98001
                   91020=
201505250600 AAXX 25064 67561 31958 00000 10147 20116 48549 70400
                   333 10256 20082 59008
                   555 00/// 91023=
201505241200 AAXX 24124 67561 41775 30000 10250 20104 48540 70511 83100
                   333 59016 83850 555 66/// 77109 8866/ 98003
                   91021=
201505240600 AAXX 24064 67561 NIL=
201505221200 AAXX 22124 67561 42980 20605 10252 20107 48561 82100
                   333 58001 82850 91023=
201505211200 AAXX 21124 67561 41775 10000 10254 20105 48561 70500 81100
                   333 58009 81850 555 91023=
201505210900 AAXX 21094 67561 41670 20803 1//// 20113 48584 70500 82100
                   333 58003 82835=
201505201200 AAXX 20124 67561 41975 01210 1//// 20095 48553 70500
                   333 58009 91022=
201505200600 AAXX 20064 67561 31960 00904 10170 20125 48573 70500
                   333 10256 20103 58013
                   555 00/// 91026=
201505200300 AAXX 20034 67561 41960 00000 10136 20114 48551 70500
                   333 58007 91023=
201505191200 AAXX 19124 67561 NIL=
201505190600 AAXX 19064 67561 31970 00906 10156 20122 48558 70500
                   333 10264 20096 58001
                   555 00/// 91024=
201505181500 AAXX 18154 67561 41975 11105 10244 20086 48537 70500 80001
                   333 58004 81080=
201505181200 AAXX 18124 67561 42980 21305 10253 20084 48543 80001
                   333 58007 82080 91021=
201505180900 AAXX 18094 67561 31970 40905 10227 20082 48564 70511 80001
                   333 58004 84080 91024=
201505180600 AAXX 18064 67561 31960 50000 10139 20091 48555 70522 80008
                   333 10274 20091 58007 85280 91024=
201505170600 AAXX 17064 67561 31958 40000 10155 20111 48550 70411 80002
                   333 10280 20103 58003 84080
                   555 91023=
201505160600 AAXX 16064 67561 31958 70000 10178 20124 48549 70422 80008
                   333 10278 20134 59002 87280
                   555 91023=
201505151200 AAXX 15124 67561 41670 70000 10274 20131 48535 70522 86208
                   333 58005 86850 87280
                   555 91020=
201505150600 AAXX 15064 67561 31959 6//// 10174 20144 48551 70422 83032
                   333 10284 20130 58003 83360 83080 91023=
201505141200 AAXX 14124 67561 NIL=
201505140600 AAXX 14064 67561 31959 30000 10181 20161 48548 70500 81031
                   333 10288 20139 59005 81360 82080
                   555 00/// 20002 91023=
201505131500 AAXX 13154 67561 41875 60000 10259 20153 48526 70522 85401
                   333 59010 85657 82080=
201505130900 AAXX 13094 67561 41675 10904 10254 20154 48557 70500 81101
                   333 59008 81835 81080=
201505130600 AAXX 13064 67561 41965 61205 10197 20157 48555 60024 70522 86038
                   333 10277 20145 59007 86360
                   555 00/// 91023=
201505120900 AAXX 12094 67561 41670 51205 10255 20154 48565 70522 83108
                   333 58010 83835 85280 91024=
201505120600 AAXX 12064 67561 31960 51005 10200 20154 48563 70522 82038
                   333 10262 20145 58012 82360 85280
                   555 00/// 91024=
201505120300 AAXX 12034 67561 41960 70000 1//// 20150 48541 70522 8703/
                   333 58006 87360 91022=
201505110600 AAXX 11064 67561 31960 00000 10171 20147 48548 70500
                   333 10270 20125 59004
                   555 91023=
201505090600 AAXX 09064 67561 31960 60000 10164 20138 48560 70511 82038
                   333 10228 20/// 59014 82360 85280
                   555 91024=
201505080600 AAXX 08064 67561 31970 71206 10180 20085 48575 70522 85038
                   333 10257 20174 58029 85360 86280
                   555 00/// 91026=
201505071500 AAXX 07154 67561 41765 61504 10255 20144 48533 70522 82238
                   333 58021 82856 83380 85280=
201505070600 AAXX 07064 67561 31958 30000 10186 20153 48547 70411 83030
                   333 10266 20166 58012 83360
                   555 91023=
201505060600 AAXX 06064 67561 31958 50000 10175 20158 48536 70500 85030
                   333 10254 20130 59016 85030
                   555 91021=
201505051500 AAXX 05154 67561 41770 60000 10253 20156 48526 70522 85208
                   333 59004 85856 85280=
201505050900 AAXX 05094 67561 NIL=
201505041200 AAXX 04124 67561 42680 70905 10268 20143 48539 86201
                   333 58008 86848 82080 91021=
201505040600 AAXX 04064 67561 31959 70000 10190 20139 48548 70522 80008
                   333 10255 20124 58003 87280
                   555 00/// 91023=
201505021500 AAXX 02154 67561 41970 11207 10257 20067 48524 70500 80001
                   333 58005 81080=
201505011500 AAXX 01154 67561 41970 31103 10261 20070 48520 70500 80001
                   333 58014 83080=
201505010600 AAXX 01064 67561 31958 30000 10162 20115 48538 70400 80001
                   333 10277 20090 58005 83080
                   555 00/// 91022=

################################################################################
#  SYNOPS from 67563, Kafironda (Zambia) | 12-36S | 028-07E | 1243 m
################################################################################
201505270600 AAXX 27064 67563 NIL=
201505260600 AAXX 26064 67563 NIL=
201505251500 AAXX 25154 67563 NIL=
201505240600 AAXX 24064 67563 NIL=
201505210900 AAXX 21094 67563 NIL=
201505200300 AAXX 20034 67563 NIL=
201505191200 AAXX 19124 67563 NIL=
201505181500 AAXX 18154 67563 NIL=
201505180900 AAXX 18094 67563 NIL=
201505170600 AAXX 17064 67563 NIL=
201505151200 AAXX 15124 67563 NIL=
201505150600 AAXX 15064 67563 NIL=
201505141200 AAXX 14124 67563 NIL=
201505131500 AAXX 13154 67563 NIL=
201505130900 AAXX 13094 67563 NIL=
201505120900 AAXX 12094 67563 NIL=
201505071500 AAXX 07154 67563 NIL=
201505051500 AAXX 05154 67563 NIL=
201505050900 AAXX 05094 67563 NIL=
201505021500 AAXX 02154 67563 NIL=
201505011500 AAXX 01154 67563 NIL=

################################################################################
#  SYNOPS from 67571, Serenje (Zambia) | 13-14S | 030-13E | 1384 m
################################################################################
201505270600 AAXX 27064 67571 NIL=
201505260600 AAXX 26064 67571 NIL=
201505251500 AAXX 25154 67571 NIL=
201505240600 AAXX 24064 67571 NIL=
201505221200 AAXX 22124 67571 42680 10908 10230 20103 48553 70500 81500
                   333 58001 81640=
201505220600 AAXX 22064 67571 32980 00000 10118 20107 48566 70500
                   333 10247 20071 58004=
201505211200 AAXX 21124 67571 42682 11508 10240 20091 48554 70200 81500
                   333 58005 81640=
201505210900 AAXX 21094 67571 42682 10910 10208 20102 48572 70200 81500
                   333 58004 81630=
201505210600 AAXX 21064 67571 32982 00910 10157 20114 48569
                   333 10248 20085 58004=
201505200300 AAXX 20034 67571 NIL=
201505191200 AAXX 19124 67571 42682 10906 10230 20103 48543 70200 81500
                   333 58000 81640=
201505190600 AAXX 19064 67571 32982 00906 10153 20113 48558
                   333 10230 20094 58002=
201505181500 AAXX 18154 67571 NIL=
201505180900 AAXX 18094 67571 42982 10906 10205 20086 48562 70200 80001
                   333 58005 81081=
201505170600 AAXX 17064 67571 NIL=
201505151200 AAXX 15124 67571 NIL=
201505150600 AAXX 15064 67571 32982 11206 10200 20102 48552 70100 80001
                   333 10274 20145=
201505141200 AAXX 14124 67571 NIL=
201505131500 AAXX 13154 67571 NIL=
201505130900 AAXX 13094 67571 42682 10905 10245 20148 48554 70200 81101
                   333 59014 81830 81081=
201505130600 AAXX 13064 67571 32982 11205 10184 20132 48/// 70100 81031
                   333 10264 20155 81360 81081=
201505120900 AAXX 12094 67571 NIL=
201505110600 AAXX 11064 67571 32982 01205 10196 20146 48542
                   333 10277 20159 59003=
201505080600 AAXX 08064 67571 32982 71510 10156 20106 48569 70222 81038
                   333 10265 20143 58025 81360 87280=
201505071500 AAXX 07154 67571 NIL=
201505070600 AAXX 07064 67571 32982 11205 10202 20142 48542 70200 80001
                   333 10275 20159 58015 81081=
201505060900 AAXX 06094 67571 42682 21205 10/// 20146 48534 70300 82500
                   333 59018 82630=
201505051500 AAXX 05154 67571 NIL=
201505050900 AAXX 05094 67571 42682 70903 10241 20159 48554 70222 875//
                   333 59002 87630=
201505050600 AAXX 05064 67571 32379 70904 10184 20152 48550 70222 876//
                   333 10259 20159 58003 87708=
201505041200 AAXX 04124 67571 42782 70903 10250 20154 48534 70222 82108
                   333 58013 82850 87280=
201505040600 AAXX 04064 67571 32982 71203 10189 20134 48551 70222 80008
                   333 10257 20139 58005 87280=
201505021500 AAXX 02154 67571 NIL=
201505011500 AAXX 01154 67571 NIL=

################################################################################
#  SYNOPS from 67575, Mkushi (Zambia) | 13-38-00S | 029-26-00E | 1237 m
################################################################################
201505270600 AAXX 27064 67575 NIL=
201505260600 AAXX 26064 67575 NIL=
201505251500 AAXX 25154 67575 NIL=
201505240600 AAXX 24064 67575 NIL=
201505210900 AAXX 21094 67575 NIL=
201505200300 AAXX 20034 67575 NIL=
201505191200 AAXX 19124 67575 NIL=
201505190600 AAXX 19064 67575 32575 10904 10172 20112 48/// 70500 81101
                   333 10252 20075 5//// 81825 81080=
201505181500 AAXX 18154 67575 NIL=
201505180900 AAXX 18094 67575 NIL=
201505180600 AAXX 18064 67575 32975 10904 10180 20189 48/// 70500 80001
                   333 10260 20115 5//// 81080=
201505170600 AAXX 17064 67575 NIL=
201505151200 AAXX 15124 67575 NIL=
201505150600 AAXX 15064 67575 NIL=
201505141200 AAXX 14124 67575 NIL=
201505131500 AAXX 13154 67575 NIL=
201505130900 AAXX 13094 67575 NIL=
201505120900 AAXX 12094 67575 NIL=
201505080600 AAXX 08064 67575 32480 51204 10170 20111 48/// 81101
                   333 10285 20135 5//// 81815 85080=
201505071500 AAXX 07154 67575 NIL=
201505070600 AAXX 07064 67575 32480 10000 10214 20161 48/// 81100
                   333 10295 20150 5//// 81815=
201505051500 AAXX 05154 67575 NIL=
201505050900 AAXX 05094 67575 NIL=
201505050600 AAXX 05064 67575 32480 11202 10200 20153 48/// 81501
                   333 10280 20135 5//// 81615 81080=
201505040600 AAXX 04064 67575 32980 10000 10150 20154 48/// 80001
                   333 10280 20078 5//// 81080=
201505021500 AAXX 02154 67575 NIL=
201505011500 AAXX 01154 67575 NIL=

################################################################################
#  SYNOPS from 67580, Msekera (Zambia) | 13-39S | 032-34E | 1025 m
################################################################################
201505270600 AAXX 27064 67580 NIL=
201505260600 AAXX 26064 67580 NIL=
201505251500 AAXX 25154 67580 NIL=
201505240600 AAXX 24064 67580 NIL=
201505220600 AAXX 22064 67580 32980 01203 10193 20139 48///
                   333 10286 20/// 58004=
201505210900 AAXX 21094 67580 NIL=
201505201200 AAXX 20124 67580 42780 22003 10280 20120 48/// 81102
                   333 58007 81856 82080=
201505200900 AAXX 20094 67580 42680 11203 10251 20116 48/// 81102
                   333 58002 81845 81080=
201505200300 AAXX 20034 67580 NIL=
201505191200 AAXX 19124 67580 42780 10000 10274 20124 48/// 81100
                   333 5//// 81856=
201505190900 AAXX 19094 67580 42680 11203 10243 20125 48/// 81100
                   333 58008 81845=
201505190600 AAXX 19064 67580 32580 21002 10192 20124 48/// 82100
                   333 10273 20/// 58006 82820=
201505181500 AAXX 18154 67580 NIL=
201505180900 AAXX 18094 67580 NIL=
201505170600 AAXX 17064 67580 NIL=
201505151200 AAXX 15124 67580 NIL=
201505150600 AAXX 15064 67580 32980 51203 10229 20142 48/// 81038
                   333 10306 20/// 59003 81361 85280=
201505141200 AAXX 14124 67580 NIL=
201505131500 AAXX 13154 67580 NIL=
201505130900 AAXX 13094 67580 NIL=
201505130600 AAXX 13064 67580 32980 11102 10219 20164 48/// 80001
                   333 10300 20/// 59014 81080=
201505120900 AAXX 12094 67580 42680 71203 10267 20166 48/// 86130
                   333 58020 86846 82361=
201505120600 AAXX 12064 67580 32580 41802 10215 20175 48/// 81131
                   333 10310 20/// 58021 81822 83361 82080=
201505110600 AAXX 11064 67580 32980 01202 10215 20160 48///
                   333 10296 20/// 5////=
201505080600 AAXX 08064 67580 32980 71504 10185 20135 48/// 83038
                   333 10294 20/// 58029 83360 87280=
201505071500 AAXX 07154 67580 NIL=
201505070600 AAXX 07064 67580 32980 51002 10200 20173 48/// 84031
                   333 10304 20/// 59020 84360 82080=
201505060900 AAXX 06094 67580 42680 32403 10284 20171 48/// 85201
                   333 59020 85846 82080=
201505051500 AAXX 05154 67580 NIL=
201505050900 AAXX 05094 67580 NIL=
201505050600 AAXX 05064 67580 32980 21803 10220 20174 48/// 80001
                   333 10302 20/// 59003 82080=
201505040600 AAXX 04064 67580 32980 50000 10220 20139 48/// 80001
                   333 10305 20/// 5//// 85080=
201505021500 AAXX 02154 67580 NIL=
201505011500 AAXX 01154 67580 NIL=

################################################################################
#  SYNOPS from 67581, Chipata (Zambia) | 13-33S | 032-35E | 1028 m
################################################################################
201505270600 AAXX 27064 67581 NIL=
201505260600 AAXX 26064 67581 NIL=
201505251500 AAXX 25154 67581 NIL=
201505240600 AAXX 24064 67581 NIL=
201505210900 AAXX 21094 67581 NIL=
201505200300 AAXX 20034 67581 NIL=
201505191200 AAXX 19124 67581 NIL=
201505181500 AAXX 18154 67581 NIL=
201505180900 AAXX 18094 67581 NIL=
201505170600 AAXX 17064 67581 NIL=
201505151200 AAXX 15124 67581 NIL=
201505150600 AAXX 15064 67581 NIL=
201505141200 AAXX 14124 67581 NIL=
201505131500 AAXX 13154 67581 NIL=
201505130900 AAXX 13094 67581 NIL=
201505120900 AAXX 12094 67581 NIL=
201505071500 AAXX 07154 67581 NIL=
201505051500 AAXX 05154 67581 NIL=
201505050900 AAXX 05094 67581 NIL=
201505021500 AAXX 02154 67581 NIL=
201505011500 AAXX 01154 67581 NIL=

################################################################################
#  SYNOPS from 67583, Lundazi (Zambia) | 12-17S | 033-12E | 1143 m
################################################################################
201505270600 AAXX 27064 67583 NIL=
201505260600 AAXX 26064 67583 NIL=
201505251500 AAXX 25154 67583 NIL=
201505240600 AAXX 24064 67583 NIL=
201505210900 AAXX 21094 67583 NIL=
201505200300 AAXX 20034 67583 NIL=
201505191200 AAXX 19124 67583 NIL=
201505181500 AAXX 18154 67583 NIL=
201505180900 AAXX 18094 67583 NIL=
201505170600 AAXX 17064 67583 NIL=
201505151200 AAXX 15124 67583 NIL=
201505150600 AAXX 15064 67583 NIL=
201505141200 AAXX 14124 67583 NIL=
201505131500 AAXX 13154 67583 NIL=
201505130900 AAXX 13094 67583 NIL=
201505120900 AAXX 12094 67583 NIL=
201505071500 AAXX 07154 67583 NIL=
201505051500 AAXX 05154 67583 NIL=
201505050900 AAXX 05094 67583 NIL=
201505021500 AAXX 02154 67583 NIL=
201505011500 AAXX 01154 67583 NIL=

################################################################################
#  SYNOPS from 67599, Mfuwe (Zambia) | 13-16S | 031-56E | 568 m
################################################################################
201505270600 AAXX 27064 67599 NIL=
201505260600 AAXX 26064 67599 NIL=
201505251500 AAXX 25154 67599 NIL=
201505240600 AAXX 24064 67599 NIL=
201505210900 AAXX 21094 67599 NIL=
201505200300 AAXX 20034 67599 NIL=
201505191200 AAXX 19124 67599 NIL=
201505181500 AAXX 18154 67599 NIL=
201505180900 AAXX 18094 67599 NIL=
201505170600 AAXX 17064 67599 NIL=
201505151200 AAXX 15124 67599 NIL=
201505150600 AAXX 15064 67599 NIL=
201505141200 AAXX 14124 67599 NIL=
201505131500 AAXX 13154 67599 NIL=
201505130900 AAXX 13094 67599 NIL=
201505120900 AAXX 12094 67599 NIL=
201505071500 AAXX 07154 67599 NIL=
201505051500 AAXX 05154 67599 NIL=
201505050900 AAXX 05094 67599 NIL=
201505021500 AAXX 02154 67599 NIL=
201505011500 AAXX 01154 67599 NIL=

################################################################################
#  SYNOPS from 67625, Kalabo (Zambia) | 14-51S | 022-42E | 1033 m
################################################################################
201505270600 AAXX 27064 67625 NIL=
201505260600 AAXX 26064 67625 NIL=
201505251500 AAXX 25154 67625 NIL=
201505240600 AAXX 24064 67625 NIL=
201505210900 AAXX 21094 67625 NIL=
201505200300 AAXX 20034 67625 NIL=
201505191200 AAXX 19124 67625 NIL=
201505181500 AAXX 18154 67625 NIL=
201505180900 AAXX 18094 67625 NIL=
201505170600 AAXX 17064 67625 NIL=
201505151200 AAXX 15124 67625 NIL=
201505150600 AAXX 15064 67625 NIL=
201505141200 AAXX 14124 67625 NIL=
201505131500 AAXX 13154 67625 NIL=
201505130900 AAXX 13094 67625 NIL=
201505120900 AAXX 12094 67625 NIL=
201505071500 AAXX 07154 67625 NIL=
201505060600 AAXX 06064 67625 32982 00903 10200 20164 48///
                   333 10310 20140 59007=
201505051500 AAXX 05154 67625 NIL=
201505050900 AAXX 05094 67625 NIL=
201505041200 AAXX 04124 67625 42982 50912 10294 20110 48/// 80004
                   333 5//// 85075=
201505040600 AAXX 04064 67625 32982 00906 10192 20153 48///
                   333 10308 20135 58007=
201505021500 AAXX 02154 67625 NIL=
201505011500 AAXX 01154 67625 NIL=

################################################################################
#  SYNOPS from 67633, Mongu (Zambia) | 15-15S | 023-09E | 1052 m
################################################################################
201505270600 AAXX 27064 67633 32980 30902 10165 20086 48539 70311 83030
                   333 10/// 20110 59010 83360
                   555 00/// 91021=
201505260600 AAXX 26064 67633 32980 00905 10168 20085 48546 70200
                   333 10/// 20118 555 00/// 91022=
201505251500 AAXX 25154 67633 42980 01804 10266 20067 48537 70200
                   333 58005=
201505251200 AAXX 25124 67633 42980 00906 10256 20107 48543 70200
                   333 58001=
201505250900 AAXX 25094 67633 42980 00703 10238 20103 48548 70200
                   333 59019=
201505240600 AAXX 24064 67633 NIL=
201505220600 AAXX 22064 67633 32980 00908 10175 20100 48567
                   333 10/// 20116 58003 91024=
201505210900 AAXX 21094 67633 NIL=
201505210600 AAXX 21064 67633 32980 00903 10156 20097 48563 70200
                   333 10/// 20110 59001 91024=
201505200600 AAXX 20064 67633 32980 00908 10170 20121 48565
                   333 10/// 20120 91024=
201505200300 AAXX 20034 67633 NIL=
201505191200 AAXX 19124 67633 NIL=
201505190600 AAXX 19064 67633 32980 00903 10150 20105 48548 70200
                   333 10/// 20115 59001 91022=
201505181500 AAXX 18154 67633 NIL=
201505180900 AAXX 18094 67633 NIL=
201505180600 AAXX 18064 67633 32980 00910 10174 20097 48546 70200
                   333 10/// 20126 58006 91023=
201505170600 AAXX 17064 67633 NIL=
201505151200 AAXX 15124 67633 NIL=
201505150600 AAXX 15064 67633 NIL=
201505141200 AAXX 14124 67633 NIL=
201505140600 AAXX 14064 67633 32980 21204 10190 20134 48542 70200 80001
                   333 10/// 20142 59005 82080 91021=
201505131500 AAXX 13154 67633 NIL=
201505130900 AAXX 13094 67633 NIL=
201505130600 AAXX 13064 67633 32980 10904 10192 20142 48547 70200 81030
                   333 10/// 20132 59012 81361 91022=
201505120900 AAXX 12094 67633 NIL=
201505120600 AAXX 12064 67633 32980 00904 10194 20119 48558 70200
                   333 10/// 20136 58013 91023=
201505080600 AAXX 08064 67633 32980 50904 10201 20128 48566 70222 85030
                   333 10305 20165 58027 85361 91024=
201505071500 AAXX 07154 67633 NIL=
201505051500 AAXX 05154 67633 NIL=
201505050900 AAXX 05094 67633 NIL=
201505040600 AAXX 04064 67633 32980 00904 10200 20137 48545 70200
                   333 10322 20142 58007 91021=
201505021500 AAXX 02154 67633 NIL=
201505011500 AAXX 01154 67633 NIL=

################################################################################
#  SYNOPS from 67641, Kaoma (Zambia) | 14-48S | 024-48E | 1213 m
################################################################################
201505270600 AAXX 27064 67641 NIL=
201505260600 AAXX 26064 67641 NIL=
201505251500 AAXX 25154 67641 NIL=
201505240600 AAXX 24064 67641 NIL=
201505220600 AAXX 22064 67641 32982 00901 10096 20076 48550
                   333 10280 20059 59001 91023=
201505210900 AAXX 21094 67641 NIL=
201505210600 AAXX 21064 67641 32982 00000 10100 20080 48551
                   333 10280 20063 58005 91023=
201505200300 AAXX 20034 67641 NIL=
201505191200 AAXX 19124 67641 NIL=
201505190600 AAXX 19064 67641 32980 00801 10118 20107 48516
                   333 10271 20086 59009 91020=
201505181500 AAXX 18154 67641 NIL=
201505180900 AAXX 18094 67641 NIL=
201505180600 AAXX 18064 67641 32980 01101 10142 20106 48529
                   333 10291 20096 58018 91021=
201505170600 AAXX 17064 67641 NIL=
201505151200 AAXX 15124 67641 NIL=
201505150600 AAXX 15064 67641 32980 00401 10165 20134 48513
                   333 10315 20120 59010 91018=
201505141200 AAXX 14124 67641 NIL=
201505131500 AAXX 13154 67641 NIL=
201505130900 AAXX 13094 67641 NIL=
201505120900 AAXX 12094 67641 NIL=
201505071500 AAXX 07154 67641 NIL=
201505051500 AAXX 05154 67641 NIL=
201505050900 AAXX 05094 67641 NIL=
201505021500 AAXX 02154 67641 NIL=
201505011500 AAXX 01154 67641 NIL=

################################################################################
#  SYNOPS from 67655, Mumbwa (Zambia) | 15-04S | 027-11E | 1216 m
################################################################################
201505270600 AAXX 27064 67655 NIL=
201505260600 AAXX 26064 67655 NIL=
201505251500 AAXX 25154 67655 NIL=
201505240600 AAXX 24064 67655 NIL=
201505210900 AAXX 21094 67655 NIL=
201505200300 AAXX 20034 67655 NIL=
201505191200 AAXX 19124 67655 NIL=
201505181500 AAXX 18154 67655 NIL=
201505180900 AAXX 18094 67655 NIL=
201505170600 AAXX 17064 67655 NIL=
201505151200 AAXX 15124 67655 NIL=
201505150600 AAXX 15064 67655 NIL=
201505141200 AAXX 14124 67655 NIL=
201505131500 AAXX 13154 67655 NIL=
201505130900 AAXX 13094 67655 NIL=
201505120900 AAXX 12094 67655 NIL=
201505071500 AAXX 07154 67655 NIL=
201505051500 AAXX 05154 67655 NIL=
201505050900 AAXX 05094 67655 NIL=
201505021500 AAXX 02154 67655 NIL=
201505011500 AAXX 01154 67655 NIL=

################################################################################
#  SYNOPS from 67659, Kafue Polder (Zambia) | 15-46S | 027-55E | 978 m
################################################################################
201505270600 AAXX 27064 67659 NIL=
201505260600 AAXX 26064 67659 NIL=
201505251500 AAXX 25154 67659 NIL=
201505240600 AAXX 24064 67659 NIL=
201505210900 AAXX 21094 67659 NIL=
201505200300 AAXX 20034 67659 NIL=
201505191200 AAXX 19124 67659 NIL=
201505181500 AAXX 18154 67659 NIL=
201505180900 AAXX 18094 67659 NIL=
201505170600 AAXX 17064 67659 NIL=
201505151200 AAXX 15124 67659 NIL=
201505150600 AAXX 15064 67659 NIL=
201505141200 AAXX 14124 67659 NIL=
201505131500 AAXX 13154 67659 NIL=
201505130900 AAXX 13094 67659 NIL=
201505120900 AAXX 12094 67659 NIL=
201505071500 AAXX 07154 67659 NIL=
201505051500 AAXX 05154 67659 NIL=
201505050900 AAXX 05094 67659 NIL=
201505021500 AAXX 02154 67659 NIL=
201505011500 AAXX 01154 67659 NIL=

################################################################################
#  SYNOPS from 67662, Kabwe Agric (Zambia) | 14-24S | 028-30E | 1165 m
################################################################################
201505270600 AAXX 27064 67662 NIL=
201505260600 AAXX 26064 67662 NIL=
201505251500 AAXX 25154 67662 NIL=
201505240600 AAXX 24064 67662 NIL=
201505210900 AAXX 21094 67662 NIL=
201505200300 AAXX 20034 67662 NIL=
201505191200 AAXX 19124 67662 NIL=
201505181500 AAXX 18154 67662 NIL=
201505180900 AAXX 18094 67662 NIL=
201505170600 AAXX 17064 67662 NIL=
201505151200 AAXX 15124 67662 NIL=
201505150600 AAXX 15064 67662 32980 11503 10176 20141 48/// 80001
                   333 10276 20/// 5//// 81080=
201505141200 AAXX 14124 67662 NIL=
201505131500 AAXX 13154 67662 NIL=
201505130900 AAXX 13094 67662 NIL=
201505130600 AAXX 13064 67662 32980 30902 10178 20150 82030
                   333 10270 20/// 82360=
201505120900 AAXX 12094 67662 NIL=
201505071500 AAXX 07154 67662 NIL=
201505051500 AAXX 05154 67662 NIL=
201505050900 AAXX 05094 67662 NIL=
201505021500 AAXX 02154 67662 NIL=
201505011500 AAXX 01154 67662 NIL=

################################################################################
#  SYNOPS from 67663, Kabwe (Zambia) | 14-27S | 028-28E | 1206 m
################################################################################
201505270600 AAXX 27064 67663 NIL=
201505260600 AAXX 26064 67663 NIL=
201505251500 AAXX 25154 67663 NIL=
201505240600 AAXX 24064 67663 NIL=
201505220600 AAXX 22064 67663 32980 01106 10153 20114 48554
                   333 10255 20112 59005=
201505210900 AAXX 21094 67663 NIL=
201505210600 AAXX 21064 67663 32980 01507 10154 20111 48559
                   333 10260 20100 59005=
201505200600 AAXX 20064 67663 32980 00205 10157 20109 48566
                   333 10250 20108 58013=
201505200300 AAXX 20034 67663 NIL=
201505191200 AAXX 19124 67663 NIL=
201505190600 AAXX 19064 67663 32980 01305 10150 20108 48552
                   333 10236 20108 59003=
201505181500 AAXX 18154 67663 NIL=
201505180900 AAXX 18094 67663 NIL=
201505180600 AAXX 18064 67663 32980 21805 10150 20091 48554 80002
                   333 10251 20102 58006 82080=
201505170600 AAXX 17064 67663 NIL=
201505151200 AAXX 15124 67663 NIL=
201505150600 AAXX 15064 67663 NIL=
201505141200 AAXX 14124 67663 NIL=
201505140600 AAXX 14064 67663 32980 10903 10196 20163 48551 70300 80002
                   333 10273 20143 59008 81080=
201505131500 AAXX 13154 67663 NIL=
201505130900 AAXX 13094 67663 NIL=
201505120900 AAXX 12094 67663 NIL=
201505110600 AAXX 11064 67663 32980 01704 10183 20146 48526
                   333 10268 20140 59005=
201505080600 AAXX 08064 67663 32980 50907 10171 20123 48521 70311 84032
                   333 10270 20130 59013 84360 83080=
201505071500 AAXX 07154 67663 NIL=
201505070600 AAXX 07064 67663 32980 00905 10194 20158 48535
                   333 10282 20148 58000=
201505060600 AAXX 06064 67663 32980 00905 10182 20160 48534
                   333 10266 20149 59004=
201505051500 AAXX 05154 67663 NIL=
201505050900 AAXX 05094 67663 NIL=
201505021500 AAXX 02154 67663 NIL=
201505011500 AAXX 01154 67663 NIL=

################################################################################
#  SYNOPS from 67665, Lusaka Internationalairport (Zambia) | 15-19S | 028-27E | 1152 m
################################################################################
201505310600 AAXX 31064 67665 32980 71402 10145 20100 48549 70310 80001
                   333 10264 20//0 59005 87080=
201505310300 AAXX 31034 67665 42980 01503 10106 20078 48527 70200
                   333 59006=
201505310000 AAXX 31004 67665 42980 00000 10094 20074 48530 70200
                   333 58000=
201505302100 AAXX 30214 67665 42980 01402 10115 20076 48545 70200
                   333 58007=
201505301800 AAXX 30184 67665 42980 01303 10158 20094 48541
                   333 59004=
201505301500 AAXX 30154 67665 42980 41006 10237 20140 48539 80001
                   333 58001 84080=
201505301200 AAXX 30124 67665 42980 10808 10257 20137 48549 80001
                   333 58000 81080=
201505300900 AAXX 30094 67665 42980 11012 10230 20122 48570 80001
                   333 58009 81080=
201505300600 AAXX 30064 67665 32980 01105 10134 20081 48553
                   333 10260 20/// 58004=
201505300300 AAXX 30034 67665 42980 01502 10087 20056 48531
                   333 58003=
201505300000 AAXX 30004 67665 42980 01004 10095 20065 48531
                   333 59005=
201505292100 AAXX 29214 67665 42980 01702 10117 20080 48539
                   333 59006=
201505291800 AAXX 29184 67665 42980 01103 10154 20100 48544
                   333 59001=
201505291500 AAXX 29154 67665 42980 01008 10233 20110 48539 70200
                   333 59007=
201505291200 AAXX 29124 67665 42680 11012 10247 20116 48548 70200 81100
                   333 58000 81840=
201505290600 AAXX 29064 67665 32980 11006 10154 20100 48550 70200
                   333 10280 20//0 59005=
201505281800 AAXX 28184 67665 42980 01104 10155 20091 48546
                   333 10280 20//0 58002=
201505281500 AAXX 28154 67665 42680 21309 10233 20114 48546 82100
                   333 58006 82845=
201505281200 AAXX 28124 67665 42680 41208 10248 20123 48548 84100
                   333 58001 84838=
201505280900 AAXX 28094 67665 42580 10908 10226 20114 48571 70300 81100
                   333 58003 81825=
201505280600 AAXX 28064 67665 32980 01204 10157 20071 48557 70200
                   333 10263 20//0 58000=
201505280300 AAXX 28034 67665 42980 01402 10115 20064 48536 70200
                   333 59003=
201505280000 AAXX 28004 67665 42980 01502 10116 20065 48534 70200
                   333 59006=
201505272100 AAXX 27214 67665 42980 01404 10135 20074 48548 70200
                   333 58002=
201505270900 AAXX 27094 67665 32980 10612 10233 20146 48568 80002
                   333 58002 81080=
201505270600 AAXX 27064 67665 NIL=
201505270000 AAXX 27004 67665 42980 02002 10113 20074 48539
                   333 58001=
201505262100 AAXX 26214 67665 42980 01402 10117 20079 48544
                   333 59002=
201505261800 AAXX 26184 67665 42980 01304 10156 20083 48547 70200
                   333 59003=
201505261200 AAXX 26124 67665 42580 11106 10245 20141 48545 70200 81100
                   333 59004 81825=
201505260900 AAXX 26094 67665 42980 00908 10234 20156 48566 70200
                   333 59004 91023=
201505260600 AAXX 26064 67665 42980 00000 10152 20108 48554 70200
                   333 59007=
201505251800 AAXX 25184 67665 42980 01103 10152 20089 48549
                   333 59008=
201505251500 AAXX 25154 67665 NIL=
201505251200 AAXX 25124 67665 42980 00509 10240 20163 48547
                   333 59012=
201505250900 AAXX 25094 67665 42580 10610 10216 20161 48569 70200 81100
                   333 59015 81822=
201505250600 AAXX 25064 67665 32980 01304 10153 20127 48561 70200
                   333 10259 20//0 59015=
201505250300 AAXX 25034 67665 42980 00000 10087 20076 48537 70200
                   333 59017=
201505240600 AAXX 24064 67665 NIL=
201505231800 AAXX 23184 67665 42980 30905 10152 20107 48567 70100 83030
                   333 10260 59014 83360=
201505231500 AAXX 23154 67665 42780 31008 10211 20130 48563 70200 83500
                   333 59010 83656=
201505231200 AAXX 23124 67665 42680 30912 10227 20120 48573 70122 83500
                   333 59005 83640=
201505221800 AAXX 22184 67665 42980 01007 10143 20102 48578
                   333 58001=
201505221500 AAXX 22154 67665 42980 00910 10226 20112 48575
                   333 10//0 20//0 58002=
201505221200 AAXX 22124 67665 42780 11010 10240 20115 48580 81100
                   333 58001 81856=
201505220900 AAXX 22094 67665 42680 10812 10214 20111 48601 70200 81100
                   333 58004 81830 91028=
201505220600 AAXX 22064 67665 32980 01008 10143 20108 48576 70200
                   333 10253 20//0 59006=
201505220300 AAXX 22034 67665 42980 01202 10086 20045 48560 70200
                   333 58007=
201505220000 AAXX 22004 67665 42980 01403 10084 20040 48558 70200
                   333 58014=
201505210900 AAXX 21094 67665 42980 00815 10214 20150 48584
                   333 58005=
201505210000 AAXX 21004 67665 42980 02002 10098 20056 48556
                   333 59001=
201505200600 AAXX 20064 67665 32980 01003 10199 20082 48582
                   333 10250 20//0 58011=
201505200300 AAXX 20034 67665 NIL=
201505191800 AAXX 19184 67665 42980 01504 10149 20072 48565
                   333 59002=
201505191200 AAXX 19124 67665 NIL=
201505190900 AAXX 19094 67665 42580 60711 10198 20124 48586 70221 86100
                   333 58001 86825=
201505190600 AAXX 19064 67665 32980 01006 10146 20094 48573 70200
                   333 10//0 20//0 59002=
201505190300 AAXX 19034 67665 42980 01303 10100 20045 48549 70200
                   333 59002 91023=
201505190000 AAXX 19004 67665 42980 01602 10106 20056 48552 70200
                   333 59006 91024=
201505182100 AAXX 18214 67665 42980 01204 10118 20045 48561 70200
                   333 59002 91025=
201505181800 AAXX 18184 67665 42980 01306 10134 20065 48564
                   333 58011=
201505181500 AAXX 18154 67665 NIL=
201505181200 AAXX 18124 67665 42980 00813 10221 20101 48564
                   333 58007=
201505180900 AAXX 18094 67665 NIL=
201505180600 AAXX 18064 67665 32980 11009 10140 20084 48574 80001
                   333 10274 20//0 58013 81080=
201505180300 AAXX 18034 67665 42980 01009 10110 20059 48552
                   333 58009=
201505180000 AAXX 18004 67665 42980 01205 10108 20058 48557
                   333 58014=
201505172100 AAXX 17214 67665 42980 01403 10109 20045 48561
                   333 58014=
201505171500 AAXX 17154 67665 42980 01007 10243 20066 48555 70200
                   333 58002=
201505171200 AAXX 17124 67665 42980 01108 10249 20105 48552 70200
                   333 58004 91023=
201505170900 AAXX 17094 67665 42980 00912 10225 20145 48581
                   333 58006=
201505170600 AAXX 17064 67665 NIL=
201505161800 AAXX 16184 67665 42980 21604 10158 20085 48553 80002
                   333 10280 20//0 82080=
201505161500 AAXX 16154 67665 42980 31307 10238 20111 48553 80002
                   333 58007 83080=
201505161200 AAXX 16124 67665 42980 31109 10253 20121 48557 80002
                   333 58004 83080=
201505160900 AAXX 16094 67665 42980 30811 10241 20145 48578 70100 80002
                   333 58000 91025=
201505160600 AAXX 16064 67665 32980 31303 10158 20094 48563 70300 80001
                   333 10285 20//0 58002 83080=
201505160300 AAXX 16034 67665 42980 01502 10114 20075 48540 70200
                   333 58002=
201505160000 AAXX 16004 67665 42980 01603 10136 20084 48543 70200
                   333 58004=
201505151200 AAXX 15124 67665 NIL=
201505150900 AAXX 15094 67665 42580 20612 10251 20166 48579 82100
                   333 58010 82830=
201505150600 AAXX 15064 67665 32980 11503 10158 20104 4561/ 80002
                   333 10280 20/// 58001 81080=
201505141200 AAXX 14124 67665 NIL=
201505140600 AAXX 14064 67665 32980 01103 10177 20117 48563
                   333 10270 20//0 59002=
201505140300 AAXX 14034 67665 42980 00000 10118 20099 48539 70200
                   333 59004=
201505131500 AAXX 13154 67665 NIL=
201505131200 AAXX 13124 67665 42680 31008 10256 20162 48551 83100
                   333 59015 83840=
201505130900 AAXX 13094 67665 42980 00908 10226 20164 48575 70100
                   333 59009=
201505130600 AAXX 13064 67665 32980 11006 10165 20116 48562 70200 80030
                   333 10293 20//0 59012 81360=
201505130300 AAXX 13034 67665 42980 00000 10119 20101 48543 70200
                   333 59004=
201505130000 AAXX 13004 67665 42980 00000 10138 20105 48545 70200
                   333 59008=
201505122100 AAXX 12214 67665 42980 01303 10156 20101 48559 70200
                   333 58000=
201505121500 AAXX 12154 67665 42680 30811 10232 20125 48560 70122 83200
                   333 58010 83848=
201505121200 AAXX 12124 67665 42680 61010 10242 20116 48563 70322 86201
                   333 58015 86838 81080=
201505120900 AAXX 12094 67665 42580 60810 10226 20136 48584 85501
                   333 58016 85625 81080=
201505120600 AAXX 12064 67665 32980 31106 10172 20120 48575 80002
                   333 10222 20//0 58014 83080=
201505120300 AAXX 12034 67665 42980 10902 10141 20115 48549 81030
                   333 58006 81360=
201505112100 AAXX 11214 67665 42980 01504 10163 20128 48559
                   333 58011=
201505111800 AAXX 11184 67665 42980 31403 10170 20128 48557 70200 80002
                   333 10275 58008 83080=
201505111500 AAXX 11154 67665 42780 61307 10227 20114 48550 70222 83101
                   333 58007 83850 85080=
201505111200 AAXX 11124 67665 42680 51003 10262 20107 48551 70222 84101
                   333 58001 84835 83080=
201505110900 AAXX 11094 67665 42580 30907 10243 20139 48563 81101
                   333 59011 81180 83080=
201505110600 AAXX 11064 67665 32980 10906 10177 20131 48563 80001
                   333 10295 20//0 59004 81080=
201505101800 AAXX 10184 67665 42980 21204 10172 20111 48550 82030
                   333 59013 82360=
201505101500 AAXX 10154 67665 42680 21310 10229 20127 48543 82200
                   333 10260 20//0 59017 82845=
201505101200 AAXX 10124 67665 42680 10244 20140 48547 83800
                   333 59019 81838 82640=
201505100900 AAXX 10094 67665 42580 21008 10220 20120 48571 70200 82500
                   333 59015 82625=
201505100300 AAXX 10034 67665 42980 01503 10127 20086 48548 70100
                   333 59014=
201505090900 AAXX 09094 67665 42680 60912 10206 20158 48584 86530
                   333 59001 86630 81360=
201505081200 AAXX 08124 67665 42580 60713 10236 20130 48584 70310 81101
                   333 58029 81828 86080=
201505080600 AAXX 08064 67665 32380 10916 10170 20118 48592 81630
                   333 10//0 20//0 58035 81706 81360=
201505080300 AAXX 08034 67665 42980 01007 10137 20111 48563 70200
                   333 58032=
201505072100 AAXX 07214 67665 42980 01305 10156 20081 48565 70200
                   333 58021=
201505071800 AAXX 07184 67665 42980 01104 10175 20084 48563
                   333 58026=
201505071500 AAXX 07154 67665 NIL=
201505071200 AAXX 07124 67665 42680 40812 10265 20137 48560 84200
                   333 58022 84840=
201505070900 AAXX 07094 67665 42580 10911 10245 20193 48579 70300 81100
                   333 58021 81825=
201505070600 AAXX 07064 67665 32980 01402 10179 20161 48561 70200
                   333 10267 20//0 58016=
201505070300 AAXX 07034 67665 42980 00000 10136 20119 48543 70200
                   333 58018=
201505070000 AAXX 07004 67665 42980 01603 10151 20126 48540 70200
                   333 58005=
201505062100 AAXX 06214 67665 42980 01503 10157 20129 48545 70200
                   333 59002=
201505061800 AAXX 06184 67665 42980 01302 10186 20118 48539 70200
                   333 59012=
201505061500 AAXX 06154 67665 42680 11307 10247 20124 48531 70100 81200
                   333 59018 81850=
201505061200 AAXX 06124 67665 42680 50505 10260 20130 48537 70222 85200
                   333 59019=
201505060900 AAXX 06094 67665 42680 10809 10240 20135 48557 81100
                   333 59024 81830=
201505060600 AAXX 06064 67665 32980 01003 10177 20144 48545
                   333 59004=
201505060300 AAXX 06034 67665 42980 01200 10128 20109 48524
                   333 59021=
201505060000 AAXX 06004 67665 42980 31702 10136 20110 48533 80001
                   333 59011 83080=
201505052100 AAXX 05214 67665 42980 11202 10157 20119 48547 80001
                   333 59008 81080=
201505051800 AAXX 05184 67665 42980 21104 10179 20146 48549 70100 80001
                   333 10272 59008 82080=
201505051500 AAXX 05154 67665 NIL=
201505051200 AAXX 05124 67665 42680 51010 10247 20138 48554 70222 85100
                   333 59006 85830=
201505050900 AAXX 05094 67665 41460 60815 10221 20141 48578 70222 86500
                   333 59009 86715=
201505041500 AAXX 04154 67665 42680 30910 10246 20144 48553 81101
                   333 58004 81850 83080=
201505041200 AAXX 04124 67665 42680 30915 10260 20150 48562 81501
                   333 58010 81638 83080=
201505040900 AAXX 04094 67665 42580 31010 10235 20148 48582 70200 81501
                   333 58010 81625 83080=
201505040600 AAXX 04064 67665 32980 41004 10166 20124 48572 70310 80001
                   333 10290 20//0 58007 84080=
201505040300 AAXX 04034 67665 42980 00703 10121 20068 48545 70200
                   333 58007=
201505032100 AAXX 03214 67665 42980 00802 10150 20089 48008 70200
                   333 58008=
201505030900 AAXX 03094 67665 42680 10912 10231 20165 48570 81100
                   333 58003 81845=
201505030600 AAXX 03064 67665 32980 01205 10165 20112 48561
                   333 58004=
201505021500 AAXX 02154 67665 NIL=
201505021200 AAXX 02124 67665 42680 20710 10258 20147 48547 70200 82100
                   333 58022 82835=
201505011800 AAXX 01184 67665 42980 01803 10193 20084 48540
                   333 58017=
201505011500 AAXX 01154 67665 NIL=
201505011200 AAXX 01124 67665 42680 31008 10272 20121 48543 83100
                   333 58015 83850=
201505010900 AAXX 01094 67665 42980 10606 10256 20173 48564 70200 80030
                   333 58011 81360=
201505010600 AAXX 01064 67665 32580 41603 10168 20105 48547 70200 84500
                   333 10292 20/// 58005 84625=

################################################################################
#  SYNOPS from 67666, Lusaka City Airport (Zambia) | 15-25-00S | 028-28-00E | 1280 m
################################################################################
201505270600 AAXX 27064 67666 NIL=
201505260600 AAXX 26064 67666 NIL=
201505251500 AAXX 25154 67666 NIL=
201505240600 AAXX 24064 67666 NIL=
201505220600 AAXX 22064 67666 32980 00909 10150 20115 48573
                   333 10240 20/// 59002 91026=
201505210900 AAXX 21094 67666 NIL=
201505210600 AAXX 21064 67666 31970 00912 10154 20118 48580 70500
                   333 10252 20/// 58002 91026=
201505200300 AAXX 20034 67666 NIL=
201505191200 AAXX 19124 67666 NIL=
201505190900 AAXX 19094 67666 42480 50906 10191 20133 48575 85500
                   333 58001 85618 91025=
201505181500 AAXX 18154 67666 NIL=
201505180900 AAXX 18094 67666 NIL=
201505170600 AAXX 17064 67666 NIL=
201505151200 AAXX 15124 67666 NIL=
201505150600 AAXX 15064 67666 32980 20906 10194 20131 48557 82070
                   333 10265 20/// 58004 82359 91023=
201505141200 AAXX 14124 67666 NIL=
201505131500 AAXX 13154 67666 NIL=
201505130900 AAXX 13094 67666 42980 01008 10218 20149 48559
                   333 59007 91024=
201505130600 AAXX 13064 67666 32980 10808 10178 20138 48556 81030
                   333 10250 20/// 59006 81360 91024=
201505120900 AAXX 12094 67666 42480 50807 10220 20165 48574 84202
                   333 58014 84815 81080 91025=
201505120600 AAXX 12064 67666 32980 60907 10190 20158 48567 80002
                   333 10/// 20/// 58014 86080 91025=
201505110600 AAXX 11064 67666 32980 11005 10196 20140 48558 81030
                   333 10252 20/// 59005 81362 91023=
201505080600 AAXX 08064 67666 32980 60913 10170 20137 48584 80001
                   333 10265 2//// 58032 86080 91026=
201505071500 AAXX 07154 67666 NIL=
201505070600 AAXX 07064 67666 32980 01005 10209 20154 48558
                   333 10265 20/// 58012 91023=
201505060600 AAXX 06064 67666 32980 00903 10198 20155 48538
                   333 10248 20/// 59008 91021=
201505051500 AAXX 05154 67666 NIL=
201505050900 AAXX 05094 67666 NIL=
201505050600 AAXX 05064 67666 32380 21010 10185 20154 48553 82500
                   333 10256 20/// 59002 82608 91023=
201505040600 AAXX 04064 67666 32880 40906 10179 20139 48556 83071
                   333 10250 20/// 58009 83358 82076 91024=
201505021500 AAXX 02154 67666 NIL=
201505011500 AAXX 01154 67666 NIL=

################################################################################
#  SYNOPS from 67667, Mount Makulu (Zambia) | 15-33S | 028-15E | 1213 m
################################################################################
201505270600 AAXX 27064 67667 NIL=
201505260600 AAXX 26064 67667 NIL=
201505251500 AAXX 25154 67667 NIL=
201505240600 AAXX 24064 67667 NIL=
201505210900 AAXX 21094 67667 NIL=
201505200300 AAXX 20034 67667 NIL=
201505191200 AAXX 19124 67667 NIL=
201505181500 AAXX 18154 67667 NIL=
201505180900 AAXX 18094 67667 NIL=
201505170600 AAXX 17064 67667 NIL=
201505151200 AAXX 15124 67667 NIL=
201505150600 AAXX 15064 67667 NIL=
201505141200 AAXX 14124 67667 NIL=
201505131500 AAXX 13154 67667 NIL=
201505130900 AAXX 13094 67667 NIL=
201505120900 AAXX 12094 67667 NIL=
201505071500 AAXX 07154 67667 NIL=
201505051500 AAXX 05154 67667 NIL=
201505050900 AAXX 05094 67667 NIL=
201505021500 AAXX 02154 67667 NIL=
201505011500 AAXX 01154 67667 NIL=

################################################################################
#  SYNOPS from 67673, Petauke (Zambia) | 14-15S | 031-17E | 1035 m
################################################################################
201505270600 AAXX 27064 67673 NIL=
201505260600 AAXX 26064 67673 NIL=
201505251500 AAXX 25154 67673 NIL=
201505240600 AAXX 24064 67673 NIL=
201505210900 AAXX 21094 67673 NIL=
201505201200 AAXX 20124 67673 42684 10904 10270 20124 48589 81130
                   333 58010 81840 81360=
201505200900 AAXX 20094 67673 42684 10804 10250 20115 48610 81100
                   333 58008 81832=
201505200600 AAXX 20064 67673 32984 00904 10210 20135 48601
                   333 10260 20142 58008=
201505200300 AAXX 20034 67673 NIL=
201505191200 AAXX 19124 67673 NIL=
201505181500 AAXX 18154 67673 NIL=
201505180900 AAXX 18094 67673 NIL=
201505170600 AAXX 17064 67673 NIL=
201505151200 AAXX 15124 67673 NIL=
201505150600 AAXX 15064 67673 NIL=
201505141200 AAXX 14124 67673 NIL=
201505131500 AAXX 13154 67673 NIL=
201505131200 AAXX 13124 67673 42680 50000 10283 20138 48552 83130
                   333 59023 83840 85360=
201505130900 AAXX 13094 67673 NIL=
201505120900 AAXX 12094 67673 NIL=
201505071500 AAXX 07154 67673 NIL=
201505051500 AAXX 05154 67673 NIL=
201505050900 AAXX 05094 67673 NIL=
201505021500 AAXX 02154 67673 NIL=
201505011500 AAXX 01154 67673 NIL=

################################################################################
#  SYNOPS from 67731, Senanga (Zambia) | 16-06S | 023-16E | 1027 m
################################################################################
201505270600 AAXX 27064 67731 NIL=
201505260600 AAXX 26064 67731 NIL=
201505251500 AAXX 25154 67731 NIL=
201505240600 AAXX 24064 67731 NIL=
201505210900 AAXX 21094 67731 NIL=
201505200300 AAXX 20034 67731 NIL=
201505191200 AAXX 19124 67731 NIL=
201505181500 AAXX 18154 67731 NIL=
201505180900 AAXX 18094 67731 NIL=
201505170600 AAXX 17064 67731 NIL=
201505151200 AAXX 15124 67731 NIL=
201505150600 AAXX 15064 67731 NIL=
201505141200 AAXX 14124 67731 NIL=
201505131500 AAXX 13154 67731 NIL=
201505130900 AAXX 13094 67731 NIL=
201505120900 AAXX 12094 67731 NIL=
201505071500 AAXX 07154 67731 NIL=
201505051500 AAXX 05154 67731 NIL=
201505050900 AAXX 05094 67731 NIL=
201505040600 AAXX 04064 67731 32980 010// 10190 20132 48///
                   333 10282 20139 58013=
201505021500 AAXX 02154 67731 NIL=
201505011500 AAXX 01154 67731 NIL=

################################################################################
#  SYNOPS from 67741, Sesheke (Zambia) | 17-28S | 024-18E | 949 m
################################################################################
201505270600 AAXX 27064 67741 NIL=
201505260600 AAXX 26064 67741 NIL=
201505251500 AAXX 25154 67741 NIL=
201505240600 AAXX 24064 67741 NIL=
201505210900 AAXX 21094 67741 NIL=
201505200300 AAXX 20034 67741 NIL=
201505191200 AAXX 19124 67741 NIL=
201505181500 AAXX 18154 67741 NIL=
201505180900 AAXX 18094 67741 NIL=
201505170600 AAXX 17064 67741 NIL=
201505151200 AAXX 15124 67741 NIL=
201505150600 AAXX 15064 67741 32980 00000 10143 20135 48550
                   333 10306 20084 58006=
201505141200 AAXX 14124 67741 NIL=
201505131500 AAXX 13154 67741 NIL=
201505130900 AAXX 13094 67741 NIL=
201505120900 AAXX 12094 67741 NIL=
201505071500 AAXX 07154 67741 NIL=
201505051500 AAXX 05154 67741 NIL=
201505050900 AAXX 05094 67741 NIL=
201505021500 AAXX 02154 67741 NIL=
201505011500 AAXX 01154 67741 NIL=

################################################################################
#  SYNOPS from 67743, Livingstone (Zambia) | 17-49S | 025-49E | 985 m
################################################################################
201505270600 AAXX 27064 67743 NIL=
201505260600 AAXX 26064 67743 32980 12904 10153 20109 48552 70300 81010
                   333 10285 20085 59003 81360
                   555 00/// 91023=
201505251500 AAXX 25154 67743 NIL=
201505240600 AAXX 24064 67743 32980 00902 10164 20101 48581 70200
                   333 10268 20179 59008
                   555 00/// 91026=
201505210900 AAXX 21094 67743 42980 09008 10243 20105 48599
                   333 59004 91027=
201505200300 AAXX 20034 67743 NIL=
201505191200 AAXX 19124 67743 NIL=
201505181500 AAXX 18154 67743 NIL=
201505180900 AAXX 18094 67743 42980 00911 10222 20085 48594
                   333 59018 555 91026=
201505180600 AAXX 18064 67743 32980 00906 10150 20076 48577 70200
                   333 10295 20076 59036 91026=
201505170600 AAXX 17064 67743 32980 00000 10150 20080 48547 70200
                   333 10309 20183 555 91022=
201505151200 AAXX 15124 67743 NIL=
201505150600 AAXX 15064 67743 32980 00803 10182 20112 48560 70200
                   333 10310 20110 58004
                   555 00/// 91023=
201505141200 AAXX 14124 67743 NIL=
201505140600 AAXX 14064 67743 32980 01603 10178 20129 48555 70200
                   333 10293 20114 59013 91023=
201505131500 AAXX 13154 67743 42780 21803 10279 20114 48541 70110 82100
                   333 59019 82860=
201505130900 AAXX 13094 67743 NIL=
201505120900 AAXX 12094 67743 42580 10909 10257 20084 48589 81100
                   333 59012 81830=
201505120600 AAXX 12064 67743 32980 01303 10175 20087 48514 70200
                   333 10290 20093 58011 91025=
201505110600 AAXX 11064 67743 32980 01301 10168 20116 48562
                   333 10298 20105 59002 91024=
201505071500 AAXX 07154 67743 NIL=
201505060600 AAXX 06064 67743 42980 00000 10168 20116 48456
                   333 10299 20091 58021 91022=
201505051500 AAXX 05154 67743 NIL=
201505050900 AAXX 05094 67743 42980 00911 10257 20085 48495
                   333 59002 91024=
201505021500 AAXX 02154 67743 NIL=
201505011500 AAXX 01154 67743 42780 21007 10298 20081 48536 70300 81130
                   333 58021 81868 81360=

################################################################################
#  SYNOPS from 67751, Magoye (Zambia) | 16-00S | 027-36E | 1018 m
################################################################################
201505270600 AAXX 27064 67751 NIL=
201505260600 AAXX 26064 67751 NIL=
201505251500 AAXX 25154 67751 NIL=
201505240600 AAXX 24064 67751 NIL=
201505210900 AAXX 21094 67751 NIL=
201505200300 AAXX 20034 67751 NIL=
201505191200 AAXX 19124 67751 NIL=
201505181500 AAXX 18154 67751 NIL=
201505180900 AAXX 18094 67751 NIL=
201505170600 AAXX 17064 67751 NIL=
201505151200 AAXX 15124 67751 NIL=
201505150600 AAXX 15064 67751 NIL=
201505141200 AAXX 14124 67751 NIL=
201505131500 AAXX 13154 67751 NIL=
201505130900 AAXX 13094 67751 NIL=
201505120900 AAXX 12094 67751 NIL=
201505071500 AAXX 07154 67751 NIL=
201505060600 AAXX 06064 67751 32980 10000 10205 20162 80001
                   333 10/// 20114 58031 81080
                   555 00///=
201505051500 AAXX 05154 67751 NIL=
201505050900 AAXX 05094 67751 NIL=
201505021500 AAXX 02154 67751 NIL=
201505011500 AAXX 01154 67751 NIL=

################################################################################
#  SYNOPS from 67753, Choma (Zambia) | 16-50S | 027-04E | 1213 m
################################################################################
201505270600 AAXX 27064 67753 NIL=
201505260600 AAXX 26064 67753 NIL=
201505251500 AAXX 25154 67753 NIL=
201505240600 AAXX 24064 67753 NIL=
201505220600 AAXX 22064 67753 31960 00907 10153 20128 48582 70500
                   333 10250 20060 59002
                   555 00///=
201505210900 AAXX 21094 67753 NIL=
201505210600 AAXX 21064 67753 31960 00000 10164 20121 48583 70500
                   333 10255 58004 555 00///=
201505200300 AAXX 20034 67753 NIL=
201505191200 AAXX 19124 67753 NIL=
201505190600 AAXX 19064 67753 31960 00000 10154 20095 48563 70500
                   333 10236 20070 59003=
201505181500 AAXX 18154 67753 NIL=
201505180900 AAXX 18094 67753 NIL=
201505180600 AAXX 18064 67753 31960 00610 10156 20104 48574 70500
                   333 10261 20074 58016=
201505170600 AAXX 17064 67753 NIL=
201505151200 AAXX 15124 67753 NIL=
201505150600 AAXX 15064 67753 31960 01508 10181 20140 48556 70500
                   333 10265 20124 58005=
201505141200 AAXX 14124 67753 NIL=
201505140600 AAXX 14064 67753 31960 00000 10185 20151 48557 70500
                   333 10259 20096 59008=
201505131500 AAXX 13154 67753 NIL=
201505130900 AAXX 13094 67753 NIL=
201505120900 AAXX 12094 67753 NIL=
201505120600 AAXX 12064 67753 31960 10000 10160 20125 48564 70500 80001
                   333 10260 20090 5//// 81080
                   555 00///=
201505110600 AAXX 11064 67753 31960 10000 10172 20126 48/// 70500 80001
                   333 10250 20090 5//// 81080=
201505080600 AAXX 08064 67753 31560 20000 10167 20135 48584 70500 81101
                   333 10268 20114 58035 81820 81080=
201505071500 AAXX 07154 67753 NIL=
201505070600 AAXX 07064 67753 31960 00000 10164 20115 48555 70500
                   333 10265 20080 58016
                   555 00///=
201505060600 AAXX 06064 67753 31960 20000 10165 20145 48536 70500 80001
                   333 10258 20114 59028 82080=
201505051500 AAXX 05154 67753 NIL=
201505050900 AAXX 05094 67753 NIL=
201505050600 AAXX 05064 67753 31950 00000 10166 20154 48565 70500
                   333 10261 20105 58002=
201505040600 AAXX 04064 67753 31960 01508 10189 20153 48567 70500
                   333 10261 20110 59004=
201505021500 AAXX 02154 67753 NIL=
201505011500 AAXX 01154 67753 NIL=

################################################################################
#  SYNOPS from 67855, Lupaki (Zambia) | 17-03-00S | 024-46-00E | 1000 m
################################################################################
201505310600 AAXX 31064 67855 31970 40000 10092 20055 3//// 48/// 70500 80001
                   333 20056 5//// 84080=
201505301200 AAXX 30124 67855 42975 00801 10294 20075 3//// 48///
                   333 5////=
201505300600 AAXX 30064 67855 31970 00000 10074 20029 3//// 48/// 70500
                   333 20036 5////=
201505291200 AAXX 29124 67855 NIL=
201505290600 AAXX 29064 67855 31970 00000 10080 20050 3//// 48/// 70500
                   333 20040 5////=
201505281200 AAXX 28124 67855 42975 00902 10290 20045 3//// 48///
                   333 5////=
201505280600 AAXX 28064 67855 31970 00000 10104 20040 3//// 48/// 70500
                   333 20045 5////=
201505271200 AAXX 27124 67855 42975 00401 10294 20063 3//// 48///
                   333 5////=
201505261200 AAXX 26124 67855 42975 00702 10286 20059 3//// 48///
                   333 5////=
201505260600 AAXX 26064 67855 31970 00000 10110 20085 3//// 48/// 70500
                   333 20069 5////=
201505251800 AAXX 25184 67855 NIL=
201505251200 AAXX 25124 67855 42775 12001 10274 20072 3//// 48/// 81100
                   333 5//// 81850=
201505250600 AAXX 25064 67855 31970 00000 10110 20094 3//// 48/// 70500
                   333 20070 5////=
201505241200 AAXX 24124 67855 42975 02001 10260 20103 3//// 48///
                   333 5////=
201505230600 AAXX 23064 67855 31970 00901 10110 20082 3//// 48/// 70500
                   333 20073 5////=
201505221200 AAXX 22124 67855 42975 01601 10284 20081 3//// 48///
                   333 5////=
201505220600 AAXX 22064 67855 31970 01801 10100 20059 3//// 48/// 70500
                   333 20049 5////=
201505211800 AAXX 21184 67855 NIL=
201505211200 AAXX 21124 67855 42975 00303 10292 20080 3//// 48///
                   333 5////=
201505210600 AAXX 21064 67855 31970 01801 10106 20056 3//// 48/// 70500
                   333 20049 5////=
201505201200 AAXX 20124 67855 41970 00901 10310 20046 3//// 48/// 70500
                   333 5////=
201505200600 AAXX 20064 67855 31970 00000 10086 20054 3//// 48/// 70500
                   333 20042 5////=
201505191200 AAXX 19124 67855 41970 00703 10278 20060 3//// 48/// 70500
                   333 5////=
201505190600 AAXX 19064 67855 31970 00000 10110 20074 3//// 48/// 70500
                   333 20057 5////=
201505181200 AAXX 18124 67855 41970 00304 10272 20092 3//// 48/// 70500
                   333 5////=
201505180600 AAXX 18064 67855 31970 00000 10104 20060 3//// 48/// 70500
                   333 20056 5////=
201505171800 AAXX 17184 67855 NIL=
201505171200 AAXX 17124 67855 NIL=
201505170600 AAXX 17064 67855 30970 00000 10096 20024 3//// 48/// 70500
                   333 20038 5////=
201505161200 AAXX 16124 67855 41970 01403 10316 20039 3//// 48/// 70500
                   333 5////=
201505160600 AAXX 16064 67855 NIL=
201505151800 AAXX 15184 67855 NIL=
201505151200 AAXX 15124 67855 41770 12301 10302 20078 3//// 48/// 70500 81130
                   333 5//// 81850=
201505150600 AAXX 15064 67855 31970 00000 10134 20094 3//// 48/// 70500
                   333 20096 5////=
201505141200 AAXX 14124 67855 41770 13601 10304 20095 3//// 48/// 70500 81100
                   333 5//// 81850=
201505140600 AAXX 14064 67855 31970 00000 10142 20111 3//// 48/// 70500
                   333 20089 5////=
201505131200 AAXX 13124 67855 NIL=
201505130600 AAXX 13064 67855 31970 01901 10114 20070 3//// 48/// 70500
                   333 20070 5////=
201505121800 AAXX 12184 67855 NIL=
201505121200 AAXX 12124 67855 41970 01902 10296 20050 3//// 48/// 70500
                   333 5////=
201505120600 AAXX 12064 67855 31970 01101 10124 20048 3//// 48/// 70500
                   333 20063 5////=
201505111200 AAXX 11124 67855 41370 11902 10286 20042 3//// 48/// 70500 81100
                   333 5//// 81850=
201505110600 AAXX 11064 67855 31970 00000 10110 20080 3//// 48/// 70500
                   333 20069 5////=
201505101200 AAXX 10124 67855 41770 31802 10284 20085 3//// 48/// 70500 83100
                   333 5//// 83850=
201505100600 AAXX 10064 67855 31970 00000 10128 20083 3//// 48/// 70500
                   333 20063 5////=
201505091800 AAXX 09184 67855 NIL=
201505091200 AAXX 09124 67855 NIL=
201505090600 AAXX 09064 67855 31970 00000 10122 20093 3//// 48/// 70500
                   333 20080 5////=
201505081800 AAXX 08184 67855 NIL=
201505081200 AAXX 08124 67855 41770 43603 10290 20123 38/// 48/// 70500 84100
                   333 5//// 84850=
201505080600 AAXX 08064 67855 31970 00605 10168 20134 3//// 48/// 70500
                   333 20115 5////=
201505071200 AAXX 07124 67855 41970 00705 10308 20084 3//// 48/// 70500
                   333 5////=
201505070600 AAXX 07064 67855 31970 00000 10132 20052 3//// 48/// 70500
                   333 20074 5////=
201505061800 AAXX 06184 67855 NIL=
201505061200 AAXX 06124 67855 42975 01702 10307 20045 3//// 48///
                   333 5////=
201505060600 AAXX 06064 67855 31970 01801 10116 20055 3//// 48/// 70500
                   333 20059 5////=
201505051200 AAXX 05124 67855 41970 00000 10302 20055 3//// 48/// 70500
                   333 5////=
201505050600 AAXX 05064 67855 31970 01101 10134 20069 3//// 48/// 70500
                   333 20060 5////=
201505041200 AAXX 04124 67855 42775 21601 10290 20106 3//// 48/// 82100
                   333 5//// 82850=
201505040600 AAXX 04064 67855 31970 01801 10146 20089 3//// 48/// 70500
                   333 20093 5////=
201505031200 AAXX 03124 67855 NIL=
201505030600 AAXX 03064 67855 NIL=
201505021200 AAXX 02124 67855 41770 31801 10296 20150 3//// 48/// 70500 83230
                   333 5//// 81850 83360=
201505020600 AAXX 02064 67855 31970 11801 10174 20153 3//// 48/// 70500 81030
                   333 20132 5//// 81360=
201505011200 AAXX 01124 67855 41770 30000 10310 20090 3//// 48/// 83100
                   333 5//// 83850=
201505010600 AAXX 01064 67855 31970 21801 10156 20114 3//// 48/// 70500 82030
                   333 20109 5//// 82360=
