################################################################################
# Query made at 04/10/2022 06:56:40 UTC
# Country like Zamb*
# Time interval: from 11/01/2019 05:30  to 12/01/2019 06:30  UTC
################################################################################

################################################################################
#  SYNOPS from 67403, Kawambwa (Zambia) | 09-48S | 029-05E | 1323 m
################################################################################
201911290900 AAXX 29094 67403 NIL=
201911290600 AAXX 29064 67403 11480 70901 10224 20192 48518 60014 81530
                   333 10262 20182 59005 81610 87360
                   555 00194=
201911281200 AAXX 28124 67403 41780 71801 10210 20187 48496 72996 81963
                   333 5/010 81950 82850 85360 87080=
201911280600 AAXX 28064 67403 11480 70000 10210 20193 48522 60114 8133/
                   333 10262 20184 58016 81910 81910 83610 87360
                   555 00198=
201911271200 AAXX 27124 67403 41580 72701 10219 20197 48486 72996 8196/
                   333 58024 819// 82820 87360=
201911270900 AAXX 27094 67403 NIL=
201911270600 AAXX 27064 67403 11480 70000 10207 20183 48507 60244 82531
                   333 10284 20178 59005 82610 87360 81080
                   555 00196=
201911260600 AAXX 26064 67403 11980 50901 10230 20182 48513 69914 72162 85031
                   333 10274 20178 59007 85360 82080
                   555 00192=
201911251200 AAXX 25124 67403 41780 71201 10255 20197 48492 72162 8193/
                   333 5//// 81950 82850 87360=
201911250600 AAXX 25064 67403 11480 83001 10210 20194 48520 69924 8253/
                   333 10262 20182 59001 82610 87360
                   555 00196=
201911220600 AAXX 22064 67403 11975 70000 10201 20197 48497 60114 72196 8193/
                   333 10300 20176 59023 819// 87360
                   555 00192=
201911211200 AAXX 21124 67403 41758 73601 10248 20205 48484 79592 8196/
                   333 58001 81956 86856 82360=
201911210600 AAXX 21064 67403 11380 60901 10222 20199 48522 69914 71794 81980
                   333 10300 20182 59001 819// 81608 86360
                   555 00184=
201911201200 AAXX 20124 67403 42780 63401 10287 20203 48485 81301
                   333 59010 85850 82080=
201911200900 AAXX 20094 67403 NIL=
201911200600 AAXX 20064 67403 11380 70801 10197 20187 48521 60194 81630
                   333 10275 20173 58004 81707 87360
                   555 00184=
201911151200 AAXX 15124 67403 NIL=
201911150600 AAXX 15064 67403 12980 70903 10200 20172 48513 60044 8703/
                   333 10322 20192 58010 87360
                   555 00192 20001=
201911140600 AAXX 14064 67403 11975 70901 10206 20188 48504 69964 70522 87030
                   333 10286 20178 58006 87360
                   555 00196 20017=
201911120900 AAXX 12094 67403 NIL=
201911120600 AAXX 12064 67403 12980 60000 10232 20184 48488 60144 83031
                   333 10327 20179 59007 83360 84080
                   555 00172=
201911110900 AAXX 11094 67403 NIL=
201911110600 AAXX 11064 67403 12980 50903 10240 20165 48496 60044 80001
                   333 10320 20197 59012 85080
                   555 00191=
201911080600 AAXX 08064 67403 11975 42001 10231 20193 48525 69974 70596 84031
                   333 10330 20190 58014 84360 81080
                   555 00198 20007=
201911071200 AAXX 07124 67403 41775 41801 10312 20149 48494 70520 84201
                   333 58007 84856 81080=
201911060900 AAXX 06094 67403 NIL=
201911060600 AAXX 06064 67403 11975 20902 10235 20164 48516 60044 70520 82030
                   333 10336 20187 59007 82360
                   555 00190=
201911051200 AAXX 05124 67403 41775 50301 10323 20138 48490 70561 82261
                   333 59003 82850 85360 81080=
201911050900 AAXX 05094 67403 NIL=
201911050600 AAXX 05064 67403 31975 40903 10237 20141 48523 70522 84081
                   333 10342 20208 58000 84360
                   555 00192=
201911040600 AAXX 04064 67403 31975 00903 10252 20136 48525 70500
                   333 10347 20190 5////
                   555 00178=
201911010600 AAXX 01064 67403 31975 11201 10242 20107 48522 70500 80001
                   333 10323 20190 59007 81080
                   555 00170=

################################################################################
#  SYNOPS from 67413, Mbala (Zambia) | 08-51S | 031-20E | 1673 m
################################################################################
201911290900 AAXX 29094 67413 NIL=
201911290600 AAXX 29064 67413 NIL=
201911281200 AAXX 28124 67413 NIL=
201911280600 AAXX 28064 67413 11580 82702 10179 20164 48544 60124 78066 8217/
                   333 10268 20166 58027 82830 88456=
201911271200 AAXX 27124 67413 NIL=
201911270900 AAXX 27094 67413 NIL=
201911270600 AAXX 27064 67413 12580 81308 10195 20157 48515 60124 86870
                   333 1//// 20101 5//// 84625 82835 84360 91021=
201911220600 AAXX 22064 67413 NIL=
201911211200 AAXX 21124 67413 NIL=
201911201200 AAXX 20124 67413 NIL=
201911200900 AAXX 20094 67413 NIL=
201911200600 AAXX 20064 67413 12580 50908 10200 20168 48540 60084 83201
                   333 10310 20162 5//// 83830 85076 91024=
201911151200 AAXX 15124 67413 NIL=
201911150600 AAXX 15064 67413 NIL=
201911120900 AAXX 12094 67413 NIL=
201911120600 AAXX 12064 67413 NIL=
201911110900 AAXX 11094 67413 NIL=
201911080600 AAXX 08064 67413 NIL=
201911060900 AAXX 06094 67413 NIL=
201911050900 AAXX 05094 67413 NIL=
201911050600 AAXX 05064 67413 NIL=
201911010600 AAXX 01064 67413 NIL=

################################################################################
#  SYNOPS from 67441, Mwinilunga (Zambia) | 11-45S | 024-26E | 1361 m
################################################################################
201911290900 AAXX 29094 67441 NIL=
201911290600 AAXX 29064 67441 12380 60000 10195 20170 48550 60034 83630
                   333 10280 2//// 5//// 83708 86360=
201911281200 AAXX 28124 67441 NIL=
201911280600 AAXX 28064 67441 12380 80000 10200 20183 48/// 60064 887//
                   333 10270 2//// 5//// 88709=
201911271200 AAXX 27124 67441 NIL=
201911270900 AAXX 27094 67441 NIL=
201911270600 AAXX 27064 67441 11370 80000 10195 20179 48537 60334 76066 8272/
                   333 10275 2//// 5//// 82707 88458=
201911260600 AAXX 26064 67441 12380 70000 10205 20188 48/// 60144 876//
                   333 10272 20//0 5//// 87708=
201911251200 AAXX 25124 67441 41665 71303 10220 20186 48599 8332/
                   333 5//// 83935 83840 84460=
201911250900 AAXX 25094 67441 42680 60000 10240 20189 48556 84201
                   333 5//// 84840 83075=
201911250600 AAXX 25064 67441 12380 70000 10185 20176 48549 60044 8363/
                   333 10271 2//// 5//// 83709 87359=
201911221200 AAXX 22124 67441 41680 61403 10295 20167 48499 71799 83300
                   333 5//// 83940 83845=
201911220600 AAXX 22064 67441 NIL=
201911211200 AAXX 21124 67441 NIL=
201911210600 AAXX 21064 67441 32980 30000 10210 20176 48/// 80001
                   333 10280 2//// 5//// 83070=
201911201200 AAXX 20124 67441 NIL=
201911200900 AAXX 20094 67441 NIL=
201911200600 AAXX 20064 67441 12980 60000 10200 20183 48/// 60094 86010
                   333 10290 2//// 5////=
201911151200 AAXX 15124 67441 NIL=
201911150600 AAXX 15064 67441 31575 60000 10195 20161 48525 70522 82130
                   333 10300 20//0 5//// 82850 86360
                   555 00///=
201911120900 AAXX 12094 67441 NIL=
201911120600 AAXX 12064 67441 31380 80904 10200 20166 48/// 71799 886//
                   333 10286 2//// 5//// 88709=
201911111200 AAXX 11124 67441 42680 61703 10275 20164 48513 83230
                   333 5//// 83845 86361=
201911110900 AAXX 11094 67441 42680 51704 10245 20134 48532 82102
                   333 59029 82840 85075=
201911110600 AAXX 11064 67441 11980 8//// 10185 20168 48533 60024 8802/
                   333 10314 2//// 5//// 88459=
201911080600 AAXX 08064 67441 NIL=
201911060900 AAXX 06094 67441 42980 60000 10240 20138 48551 86030
                   333 5//// 86360=
201911060600 AAXX 06064 67441 11965 80000 10180 20172 48558 60384 76066 8802/
                   333 10290 2//// 5//// 88459=
201911050900 AAXX 05094 67441 41675 50000 10270 20151 48/// 70522 83207
                   333 5//// 83840 85275=
201911050600 AAXX 05064 67441 11970 70000 10215 20173 48/// 69964 70522 8703/
                   333 10334 2//// 5//// 87360=
201911040600 AAXX 04064 67441 11970 40000 10210 20150 48560 60014 70500 84030
                   333 10325 2//// 5//// 84360=
201911010600 AAXX 01064 67441 31975 20000 10210 20176 48568 70500 80001
                   333 10305 2//// 5//// 82070=

################################################################################
#  SYNOPS from 67461, Mansa (Zambia) | 11-06S | 028-51E | 1382 m
################################################################################
201911290900 AAXX 29094 67461 42580 71209 10245 20193 48502 83235
                   333 59001 83828 84360 85280 91016=
201911290600 AAXX 29064 67461 12480 61406 10215 20192 48510 60034 81131
                   333 10272 20159 58006 81812 84360 82080 91019=
201911281200 AAXX 28124 67461 NIL=
201911280900 AAXX 28094 67461 42480 70304 10244 20200 48503 83231
                   333 58019 83818 86360 81080 91016=
201911280600 AAXX 28064 67461 12380 70908 10204 20190 48512 60124 8667/
                   333 10280 20172 58012 86708 87360 91017=
201911271200 AAXX 27124 67461 41580 72907 10240 20202 48482 71769 8197/
                   333 58001 81922 83825 87360 91014=
201911270900 AAXX 27094 67461 41680 71009 10265 20191 48487 72122 81331
                   333 59001 81932 84835 85360 82080 91014=
201911270600 AAXX 27064 67461 12480 71008 10225 20195 48502 69944 8587/
                   333 10280 20175 59011 84612 81816 87360 91016=
201911260600 AAXX 26064 67461 12480 73304 10225 20195 48513 60064 81131
                   333 10294 20172 58000 81812 86360 81080 91017=
201911251200 AAXX 25124 67461 42680 71503 10275 20188 48485 8137/
                   333 59004 81938 84840 87360 91014=
201911250900 AAXX 25094 67461 42680 73607 10270 20189 48514 8423/
                   333 59001 84835 87360 91017=
201911250600 AAXX 25064 67461 12480 70000 10209 20190 48511 69934 8117/
                   333 10265 20172 59006 81810 87360 91017=
201911220900 AAXX 22094 67461 42680 21208 10300 20181 48485 81101
                   333 59002 81848 81080 91013=
201911220600 AAXX 22064 67461 32980 51809 10240 20180 48486 80008
                   333 10330 20175 89026 85280 91014=
201911211200 AAXX 21124 67461 42780 31004 10317 20152 48472 82235
                   333 59002 82852 81360 82080 91012=
201911210600 AAXX 21064 67461 32580 41603 10245 20193 48512 81131
                   333 10315 20170 59003 81820 82360 83080 91017=
201911201200 AAXX 20124 67461 NIL=
201911200900 AAXX 20094 67461 42680 43404 10280 20188 48503 83131
                   333 58000 83838 81360 81080 91016=
201911200600 AAXX 20064 67461 12480 71204 10225 20195 48513 69934 8587/
                   333 10299 20172 58011 84612 81820 87360 91017=
201911191200 AAXX 19124 67461 41680 70000 10285 20164 48474 71799 81931
                   333 58009 81940 82842 87460 82080 91012=
201911180900 AAXX 18094 67461 42580 73205 10235 20182 48501 8217/
                   333 58019 82828=
201911151200 AAXX 15124 67461 42780 36309 10335 20165 48450 82231
                   333 59022 82862 82360 81080 91010=
201911150600 AAXX 15064 67461 12680 50206 10250 20174 48486 69904 81131
                   333 10339 20180 59017 81830 84360 81080
                   555 00/// 91014=
201911140900 AAXX 14094 67461 42780 61406 10300 20174 48486 81138
                   333 59003 81852 81360 86280 91014=
201911131200 AAXX 13124 67461 42780 72808 10304 20176 48483 83238
                   333 58025 83850 83360 86280 91013=
201911121200 AAXX 12124 67461 42780 70412 10332 20163 48460 81338
                   333 59001 81962 84868 81360 85280 91011=
201911120900 AAXX 12094 67461 42780 71211 10315 20154 48482 81138
                   333 59002 82862 81360 87280 91013=
201911120600 AAXX 12064 67461 31975 70207 10250 20165 48483 70522 82038
                   333 10345 20199 59001 82360 87280 91014=
201911111200 AAXX 11124 67461 42880 51009 10336 20131 48461 84201
                   333 59012 84872 82080 91011=
201911110900 AAXX 11094 67461 42780 51011 10300 20163 48483 81101
                   333 59001 81853 83080 91013=
201911110600 AAXX 11064 67461 12680 40810 10260 20177 48485 69904 81131
                   333 10338 20192 59015 81832 81360 84080 91014=
201911080600 AAXX 08064 67461 11675 61506 10245 20168 48518 69904 70522 81135
                   333 10342 20182 58007 81830 86360 81080
                   555 00/// 91018=
201911071200 AAXX 07124 67461 42780 50308 10333 20151 48472 81331
                   333 59011 81952 83858 81360 81080 91012=
201911061200 AAXX 06124 67461 42780 61210 10310 20149 48482 81331
                   333 58000 81958 83862 81360 81080 91013=
201911060900 AAXX 06094 67461 41678 60910 10290 20169 48501 70500 84231
                   333 5//// 84848 81360=
201911060600 AAXX 06064 67461 32980 61112 10238 20164 48511 86031
                   333 10332 20168 58002 86360 81080 91017=
201911050900 AAXX 05094 67461 NIL=
201911050600 AAXX 05064 67461 31960 21210 10255 20162 48511 70500 82030
                   333 10350 20178 59008 59008 82360 91017=
201911040600 AAXX 04064 67461 31958 01312 10254 20154 48519 70500
                   333 10338 20188 58002 91018=
201911010600 AAXX 01064 67461 31960 01011 10255 20116 48519 70500
                   333 10340 20162 58008 91018=

################################################################################
#  SYNOPS from 67469, Samfya (Zambia) | 11-22S | 029-54E | 1171 m
################################################################################
201911290900 AAXX 29094 67469 NIL=
201911290600 AAXX 29064 67469 NIL=
201911281200 AAXX 28124 67469 NIL=
201911271200 AAXX 27124 67469 42580 60804 10273 20200 48/// 81932
                   333 5//// 81929 86829 83360 82080=
201911270900 AAXX 27094 67469 42580 50704 10258 20200 48/// 81932
                   333 5//// 81924 85824 83360 82080=
201911270600 AAXX 27064 67469 NIL=
201911260600 AAXX 26064 67469 32480 52701 10223 20190 48/// 83432
                   333 10//0 20//0 5//// 84613 82817 85360 81080
                   555 00///=
201911220900 AAXX 22094 67469 42680 20504 10289 20210 48/// 82230
                   333 5//// 82830 81360=
201911220600 AAXX 22064 67469 32980 23304 10256 20190 48/// 82032
                   333 10308 20204 5//// 82360 81080=
201911211200 AAXX 21124 67469 42680 40704 10299 20200 48/// 81932
                   333 5//// 81935 84835 82360 81080=
201911201200 AAXX 20124 67469 42680 51204 10279 20190 48/// 81932
                   333 5//// 81958 85835 82360 81080=
201911200900 AAXX 20094 67469 42480 41004 10254 2//// 48/// 84232
                   333 5//// 84813 82360 81080=
201911200600 AAXX 20064 67469 12380 60801 10216 20200 48/// 60054 83630
                   333 10306 20205 5//// 83706 84610 82820 86360=
201911191200 AAXX 19124 67469 42680 60704 10302 20200 48/// 81932
                   333 5//// 81940 86840 82360 81080=
201911181200 AAXX 18124 67469 42580 51007 10277 20230 48/// 81932
                   333 5//// 81924 85824 84360 81080=
201911151200 AAXX 15124 67469 42980 41004 10302 20200 48/// 84030
                   333 5//// 84360=
201911150600 AAXX 15064 67469 42680 51204 10303 20200 48/// 81932
                   333 5//// 81942 83842 85360 81080
                   555 10314=
201911141200 AAXX 14124 67469 42680 40804 10313 20210 48/// 81932
                   333 5//// 81940 84840 82360 81080=
201911140900 AAXX 14094 67469 46280 20804 10279 20190 48/// 82230
                   333 5//// 82825 82360=
201911131200 AAXX 13124 67469 42780 42401 10363 20180 48/// 84232
                   333 5//// 84853 83360 81080=
201911121200 AAXX 12124 67469 42680 51104 10308 20190 48/// 81932
                   333 5//// 81947 85847 82360 81080=
201911120900 AAXX 12094 67469 42680 70704 10297 20200 48/// 84232
                   333 5//// 84842 82360 81080=
201911120600 AAXX 12064 67469 32680 50807 10261 20210 48/// 82231
                   333 10295 20249 5//// 82830 86360 81080=
201911110900 AAXX 11094 67469 NIL=
201911110600 AAXX 11064 67469 32980 11008 10260 20180 48/// 81032
                   333 10295 20231 5//// 81360 81080=
201911080600 AAXX 08064 67469 NIL=
201911061200 AAXX 06124 67469 42680 41004 10289 20200 48/// 81900
                   333 5//// 81935 84835=
201911060900 AAXX 06094 67469 42680 21005 10270 20190 48/// 81200
                   333 5//// 82835=
201911060600 AAXX 06064 67469 32980 11206 10226 20170 48/// 81030
                   333 10310 20186 5//// 81360=
201911050900 AAXX 05094 67469 42680 20604 10281 20200 48/// 82230
                   333 5//// 82835 81360=
201911050600 AAXX 05064 67469 32980 01210 10248 20180 48///
                   333 10312 20220 5////=
201911041200 AAXX 04124 67469 42980 00704 10309 20170 48///
                   333 5////=
201911040600 AAXX 04064 67469 32980 01010 10252 20180 48///
                   333 10314 20228 5////=
201911011200 AAXX 01124 67469 42780 11209 10318 20150 48/// 71200
                   333 5//// 81859=
201911010600 AAXX 01064 67469 32980 01304 10244 20120 48///
                   333 10332 20218 5////=

################################################################################
#  SYNOPS from 67475, Kasama (Zambia) | 10-13S | 031-08E | 1382 m
################################################################################
201911290900 AAXX 29094 67475 NIL=
201911290600 AAXX 29064 67475 32460 71304 10213 20192 48533 8367/
                   333 10331 20174 58000 83512 91021=
201911281200 AAXX 28124 67475 NIL=
201911280600 AAXX 28064 67475 12460 73304 10187 20181 48531 60524 8467/
                   333 10293 20166 5//// 84512 83360 91021=
201911271200 AAXX 27124 67475 NIL=
201911270900 AAXX 27094 67475 NIL=
201911270600 AAXX 27064 67475 12460 71405 10206 20184 48/// 60074 876//
                   333 10322 20174 5//// 87512=
201911260600 AAXX 26064 67475 12960 51604 10217 20176 48523 82031
                   333 10271 20159 59015 82360 84280 91029=
201911250600 AAXX 25064 67475 32860 71005 10198 20183 48537 8227/
                   333 10279 20174 59003 82820 87460 91022=
201911220600 AAXX 22064 67475 12960 31008 10256 20178 48512 60024 80001
                   333 10342 20181 59010 83080 91019=
201911211200 AAXX 21124 67475 41660 81705 10314 20143 48478 87201
                   333 59015 81945 86845 82080 91015=
201911210600 AAXX 21064 67475 31960 51405 10234 20176 48521 80001
                   333 10332 20163 5//// 84280 91020=
201911201200 AAXX 20124 67475 41660 63603 10302 20150 48493 86200
                   333 58009 81935 86835 91016=
201911200900 AAXX 20094 67475 41660 73605 10269 20176 48521 84201
                   333 58007 84835 83080 91020=
201911200600 AAXX 20064 67475 NIL=
201911151200 AAXX 15124 67475 41660 63505 10330 20144 48538 70522 86201
                   333 59016 81945 85845 82080 91013=
201911150600 AAXX 15064 67475 37660 63305 10230 20188 48512 70522
                   333 10354 20186 54906 83830 85080
                   555 00/// 20008 91090=
201911141200 AAXX 14124 67475 41660 50507 10331 20127 48/// 70522 84201
                   333 5//// 84830 82080=
201911140900 AAXX 14094 67475 41660 83607 10296 20159 48/// 70522 82201
                   333 5//// 82830 87080=
201911120900 AAXX 12094 67475 NIL=
201911120600 AAXX 12064 67475 31960 31304 10249 20150 48499 70500 80001
                   333 10358 20191 5//// 83080 91017=
201911111200 AAXX 11124 67475 41660 71305 10324 20113 48/// 70522 85201
                   333 5//// 85840 83080=
201911110900 AAXX 11094 67475 41660 50705 10296 20134 48/// 70522 82201
                   333 5//// 82830 85080=
201911110600 AAXX 11064 67475 31960 80610 10244 20140 48509 70522
                   333 10350 20162 59010 88080 91018=
201911080600 AAXX 08064 67475 11960 03605 10247 20164 48538 69954 70500
                   333 10353 20165 58010
                   555 00/// 20000 91022=
201911060900 AAXX 06094 67475 NIL=
201911060600 AAXX 06064 67475 31560 11405 10230 20157 48529 70500 81100
                   333 10354 20176 59010 81820 91021=
201911050900 AAXX 05094 67475 NIL=
201911050600 AAXX 05064 67475 31960 00507 10241 20147 48539 70500
                   333 10350 20179 59004 91022=
201911040600 AAXX 04064 67475 31960 00713 10244 20134 48543 70500
                   333 10360 20161 58003 91022=
201911010600 AAXX 01064 67475 31960 00000 10254 20081 48535 70500
                   333 10359 20191 59003 91021=

################################################################################
#  SYNOPS from 67476, Misamfu (Zambia) | 10-06S | 031-15E | 1536 m
################################################################################
201911290900 AAXX 29094 67476 41670 51205 10251 20177 48/// 71522 81302
                   333 5//// 81933 84835 82080=
201911290600 AAXX 29064 67476 12580 71505 10220 20187 48/// 69904 8223/
                   333 10255 20137 5//// 82820 84620 87360=
201911281200 AAXX 28124 67476 41677 71802 10251 20174 48/// 71522 8137/
                   333 5//// 81935 82840 87360=
201911280900 AAXX 28094 67476 41565 71205 10214 20181 48/// 71782 8197/
                   333 5//// 81920 84825 87360=
201911280600 AAXX 28064 67476 12480 70000 10190 20182 48/// 60754 81678
                   333 10262 20132 5//// 81710 81850 85360 87280=
201911271200 AAXX 27124 67476 41558 71809 10249 20171 48/// 71799 81973
                   333 5//// 81925 84830 84460 82080=
201911270900 AAXX 27094 67476 41675 70602 10250 20181 48/// 71622 81372
                   333 5//// 81930 83830 83460 81080=
201911270600 AAXX 27064 67476 12480 71004 10215 20187 48/// 60054 875//
                   333 10291 20139 5//// 87617=
201911260600 AAXX 26064 67476 12780 81602 10210 20173 48/// 69954 81277
                   333 10250 20123 59016 81850 82360 86280=
201911251200 AAXX 25124 67476 42680 70902 10228 20161 48/// 81278
                   333 5//// 81842 82360 87280=
201911250600 AAXX 25064 67476 12480 71102 10197 20182 48/// 69904 8248/
                   333 10257 20141 5//// 82615 81820 87359=
201911221200 AAXX 22124 67476 41620 53006 10231 20178 48/// 79622 81973
                   333 5//// 81942 83845 82460 81080=
201911220900 AAXX 22094 67476 42680 43502 10286 20175 48/// 84200
                   333 5//// 84833=
201911220600 AAXX 22064 67476 12580 10902 10251 20177 48/// 69974 81200
                   333 10310 20145 5//// 81820=
201911211200 AAXX 21124 67476 41678 50701 10307 20161 48/// 71521 81302
                   333 5//// 81945 84845 81080=
201911210600 AAXX 21064 67476 32980 32401 10230 20185 48/// 81032
                   333 10304 20138 5//// 81360 83080=
201911201200 AAXX 20124 67476 42680 30904 10290 20150 48/// 83202
                   333 58008 83845 81080=
201911200900 AAXX 20094 67476 42680 50605 10256 20185 48/// 84201
                   333 58005 84830 82080=
201911200600 AAXX 20064 67476 11480 30601 10201 20191 48/// 60084 72844 81601
                   333 10310 20132 58007 81712 83080=
201911191200 AAXX 19124 67476 42680 50902 10297 20157 48/// 84232
                   333 59002 84845 81360 82080=
201911190600 AAXX 19064 67476 12980 41832 10231 20184 48/// 60054 82031
                   333 10285 20140 5//// 82360 83080=
201911151200 AAXX 15124 67476 NIL=
201911150600 AAXX 15064 67476 32580 22904 10243 20196 48/// 82202
                   333 10331 20153 5//// 82820 81080
                   555 00/// 20018=
201911140900 AAXX 14094 67476 42680 23502 10285 20169 48/// 70300 81201
                   333 58007 81835 82080=
201911140600 AAXX 14064 67476 12980 41202 10232 20174 48/// 60184 70242 80001
                   333 10336 20140 58012 84080
                   555 00/// 20990=
201911131200 AAXX 13124 67476 42680 63001 10320 20128 48/// 85202
                   333 5//// 85848 83080=
201911120900 AAXX 12094 67476 NIL=
201911120600 AAXX 12064 67476 32980 80605 10243 20154 48/// 81037
                   333 10341 20150 5//// 81360 88280=
201911111200 AAXX 11124 67476 42780 40903 10320 20119 48/// 84202
                   333 5//// 84850 82080=
201911110900 AAXX 11094 67476 42680 61305 10286 20130 48/// 81108
                   333 5//// 81838 86280=
201911110600 AAXX 11064 67476 12980 70706 10240 20145 48/// 69914 80008
                   333 10325 20125 59009 87280=
201911080600 AAXX 08064 67476 11978 10705 10241 20159 48/// 60014 70500 81031
                   333 10330 20125 5//// 81360 81080
                   555 00/// 20997=
201911071200 AAXX 07124 67476 41775 40804 10314 20116 48/// 76010 84270
                   333 59001 84850 81460=
201911070600 AAXX 07064 67476 11978 10706 10232 20156 48/// 69974 70500 81030
                   333 10321 20137 59001 81360=
201911061200 AAXX 06124 67476 42780 41403 10305 20116 48/// 84200
                   333 5//// 84850=
201911060900 AAXX 06094 67476 41678 40704 10280 20147 48/// 70500 84200
                   333 59012 84835=
201911060600 AAXX 06064 67476 11577 10806 10231 20159 48/// 69904 70500 81100
                   333 10317 20127 5//// 81820=
201911050900 AAXX 05094 67476 41678 30904 10291 20138 48/// 70500 83230
                   333 58001 83835 81360=
201911050600 AAXX 05064 67476 31977 30906 10240 20151 48/// 70520 81031
                   333 10327 20133 5//// 81360 83080=
201911040900 AAXX 04094 67476 41678 10805 10296 20116 48/// 70500 81130
                   333 5//// 81835 81360=
201911040600 AAXX 04064 67476 31977 10906 10245 20141 48/// 70500 81030
                   333 10325 20123 5//// 81360=
201911011200 AAXX 01124 67476 42780 20907 10329 20054 48/// 82100
                   333 5//// 82850=
201911010600 AAXX 01064 67476 31976 00904 10247 20085 48/// 70500
                   333 10333 20110 5////=

################################################################################
#  SYNOPS from 67477, Mpika (Zambia) | 11-54S | 031-26E | 1400 m
################################################################################
201911290900 AAXX 29094 67477 42480 51205 10250 20140 48/// 83131
                   333 5//// 83825 82360 83080=
201911290600 AAXX 29064 67477 12480 61205 10217 20150 48/// 69904 82570
                   333 10253 20178 5//// 82612 85470
                   555 00172=
201911281200 AAXX 28124 67477 42680 70000 10235 20160 48/// 83170
                   333 5//// 83830 87461=
201911280900 AAXX 28094 67477 41580 82701 10199 20180 48/// 72122 8357/
                   333 5//// 83620 87460=
201911280600 AAXX 28064 67477 12480 83301 10192 20180 48/// 60204 72122 8257/
                   333 10305 20176 5//// 82612 87459
                   555 00134=
201911271200 AAXX 27124 67477 41680 41201 10298 20160 48/// 71799 81901
                   333 5//// 81936 84836 82080=
201911270900 AAXX 27094 67477 42580 61802 10241 20170 48/// 85130
                   333 5//// 85822 85361=
201911270600 AAXX 27064 67477 12480 83303 10206 20170 48/// 69904 8257/
                   333 10293 20187 5//// 82612 87459
                   555 00134=
201911260600 AAXX 26064 67477 12480 70000 10209 20170 48/// 69904 82570
                   333 10281 20163 5//// 82612 86458
                   555 00148=
201911251200 AAXX 25124 67477 41680 71202 10214 20170 48/// 79598 81971
                   333 5//// 81936 84836 85465 81080=
201911250600 AAXX 25064 67477 12480 71805 10222 20170 48/// 69904 8557/
                   333 10269 20167 5//// 85612 84459
                   555 00146=
201911220600 AAXX 22064 67477 31978 20905 10257 20160 48/// 80001
                   333 10319 20188 5//// 82080
                   555 00163=
201911211200 AAXX 21124 67477 42680 21203 10312 20160 48/// 82101
                   333 5//// 82836 82080=
201911210600 AAXX 21064 67477 12980 32203 10243 20160 48/// 69904 80001
                   333 10322 20161 5//// 83080
                   555 00153=
201911201200 AAXX 20124 67477 42680 52702 10308 20130 48/// 84201
                   333 5//// 81935 84836 82080=
201911200900 AAXX 20094 67477 42580 43302 10286 20160 48/// 84201
                   333 5//// 84826 82080=
201911200600 AAXX 20064 67477 12478 23402 10218 20110 48/// 60084 81101
                   333 10324 20178 5//// 81814 82080
                   555 00177=
201911191200 AAXX 19124 67477 41680 52204 10321 20150 48/// 71722 81931
                   333 5//// 81936 83836 81365 82080=
201911180900 AAXX 18094 67477 42580 61201 10236 20170 48/// 82270
                   333 5//// 83820 85462=
201911151200 AAXX 15124 67477 41680 52405 10331 20130 48/// 71799 81931
                   333 5//// 81936 83836 81366 83080=
201911150600 AAXX 15064 67477 11975 12206 10256 20150 48/// 69904 70500 80001
                   333 10338 20172 5//// 81080
                   555 00165 20990=
201911141200 AAXX 14124 67477 41680 50000 10322 20140 48/// 71799 81901
                   333 5//// 81936 84836 82080=
201911140900 AAXX 14094 67477 41578 30000 10302 20150 48/// 70500 83101
                   333 5//// 83826 81080=
201911140600 AAXX 14064 67477 11978 31205 10249 20160 48/// 69904 70500 80001
                   333 10331 20162 5//// 83080
                   555 00162 20919=
201911131200 AAXX 13124 67477 41678 50902 10308 20130 48/// 71799 81930
                   333 5//// 81936 83836 83059=
201911120900 AAXX 12094 67477 NIL=
201911120600 AAXX 12064 67477 31978 21202 10256 20130 48/// 70500 80001
                   333 10322 20195 5//// 82080
                   555 00182=
201911111200 AAXX 11124 67477 41678 30903 10320 20100 48/// 70500 83200
                   333 5//// 83835=
201911110900 AAXX 11094 67477 41578 31202 10296 20120 48/// 70500 83101
                   333 5//// 82825 81080=
201911110600 AAXX 11064 67477 31978 31202 10249 20150 48/// 70500 80001
                   333 10318 20186 5////=
201911080600 AAXX 08064 67477 31978 01202 10245 20120 48/// 70500
                   333 10329 20184 5////
                   555 00172=
201911071200 AAXX 07124 67477 41678 31203 10323 20120 48/// 70500 83200
                   333 5//// 83835=
201911070600 AAXX 07064 67477 31478 10906 10239 20130 48/// 70500 81100
                   333 10305 20181 5//// 81814
                   555 00171=
201911061200 AAXX 06124 67477 41678 40903 10298 20130 48/// 70500 83201
                   333 5//// 83835 82080=
201911060900 AAXX 06094 67477 41578 41208 10267 20160 48/// 70500 84101
                   333 5//// 84824 81080=
201911060600 AAXX 06064 67477 11478 21207 10238 20160 48/// 69904 70500 81130
                   333 10315 20167 5//// 81813 82359
                   555 00154=
201911050900 AAXX 05094 67477 41578 51803 10272 20150 48/// 70500 84230
                   333 5//// 84823 82360=
201911050600 AAXX 05064 67477 32480 21204 10236 20140 48/// 82100
                   333 10322 20187 5//// 82814
                   555 00176=
201911041200 AAXX 04124 67477 42680 20902 10318 20120 48/// 82200
                   333 5//// 82830=
201911040600 AAXX 04064 67477 31978 01206 10247 20150 48/// 70500
                   333 10319 20163 5////
                   555 00152=
201911011200 AAXX 01124 67477 41678 31202 10308 20080 48/// 83100
                   333 5//// 83835=
201911010900 AAXX 01094 67477 42580 10904 10277 20100 48/// 81100
                   333 5//// 81825=
201911010600 AAXX 01064 67477 32980 01203 10249 20130 48///
                   333 10322 20151 5////
                   555 00143=

################################################################################
#  SYNOPS from 67481, Isoka (Zambia) | 10-07S | 032-38E | 1360 m
################################################################################
201911290900 AAXX 29094 67481 NIL=
201911290600 AAXX 29064 67481 11380 72802 10201 20187 48/// 69934 72162 8677/
                   333 10250 20188 5//// 86708 87460=
201911281200 AAXX 28124 67481 NIL=
201911280900 AAXX 28094 67481 42580 80000 10208 20179 48/// 8657/
                   333 5//// 86620 88460=
201911280600 AAXX 28064 67481 11480 80000 10198 20187 48/// 60014 72166 8657/
                   333 10301 20188 5//// 86610 88460=
201911271200 AAXX 27124 67481 NIL=
201911270900 AAXX 27094 67481 42580 60902 10250 20182 48/// 86200
                   333 5//// 86827=
201911270600 AAXX 27064 67481 12480 20302 10220 20187 48/// 60024 81130
                   333 10300 20190 5//// 81815 82360=
201911220600 AAXX 22064 67481 32980 02702 10254 20166 48///
                   333 10334 20200 5////=
201911211200 AAXX 21124 67481 42680 53002 10332 20116 48/// 84230
                   333 5//// 84840 83360=
201911210600 AAXX 21064 67481 32980 20302 10254 20153 48/// 81031
                   333 10330 20195 5//// 81360 82080=
201911201200 AAXX 20124 67481 NIL=
201911200900 AAXX 20094 67481 NIL=
201911200600 AAXX 20064 67481 12480 13002 10230 20152 48/// 60054 81101
                   333 10320 20220 5//// 81810 82080=
201911190900 AAXX 19094 67481 42580 50302 10277 20158 48/// 85200
                   333 5//// 85825=
201911190600 AAXX 19064 67481 32980 53002 10242 20177 48/// 81031
                   333 10308 20178 5//// 81360 85080=
201911151200 AAXX 15124 67481 NIL=
201911150600 AAXX 15064 67481 NIL=
201911120900 AAXX 12094 67481 NIL=
201911120600 AAXX 12064 67481 32980 23302 10255 2//// 48/// 80001
                   333 10332 20190 5//// 82080=
201911110900 AAXX 11094 67481 42680 20303 10300 2//// 48/// 82101
                   333 5//// 82830 82080=
201911110600 AAXX 11064 67481 32980 03003 10254 2//// 48///
                   333 10290 20180 5////=
201911080600 AAXX 08064 67481 NIL=
201911071200 AAXX 07124 67481 42780 32702 10330 20106 48/// 83200
                   333 5//// 83850=
201911060900 AAXX 06094 67481 42680 50302 10272 20151 48/// 85100
                   333 5//// 85830=
201911051200 AAXX 05124 67481 41777 62703 10298 20121 48/// 70500 86200
                   333 5//// 81950 86850=
201911050900 AAXX 05094 67481 41677 31002 10290 20130 48/// 70500 83100
                   333 5//// 83830=
201911050600 AAXX 05064 67481 11477 12703 10246 20140 48/// 69924 70500 81100
                   333 10312 20181 5//// 81815=
201911041200 AAXX 04124 67481 41775 60304 10301 20116 48/// 70500 86200
                   333 5//// 86850=
201911011200 AAXX 01124 67481 41775 30307 10312 20042 48/// 70500 83100
                   333 5//// 83856=
201911010600 AAXX 01064 67481 31975 22703 10260 20067 48/// 70500 80001
                   333 10337 20198 5//// 82080=

################################################################################
#  SYNOPS from 67531, Zambezi (Zambia) | 13-32S | 023-07E | 1077 m
################################################################################
201911290900 AAXX 29094 67531 42680 63603 10270 20202 48/// 85130
                   333 58000 85831 82361=
201911290600 AAXX 29064 67531 12980 70000 10230 20201 48/// 60074 8707/
                   333 10301 20193 58009 87360
                   555 00200=
201911281200 AAXX 28124 67531 NIL=
201911280900 AAXX 28094 67531 42580 70304 10265 20203 48/// 83130
                   333 58002 83826 85360=
201911280600 AAXX 28064 67531 12980 70802 10231 20201 48/// 60094 8707/
                   333 10280 20190 58000 87360
                   555 00195=
201911271200 AAXX 27124 67531 41680 61808 10240 20205 48/// 8527/
                   333 58008 81940 85838 85362=
201911270900 AAXX 27094 67531 42580 63004 10251 20200 48/// 84232
                   333 5//// 84825 83362 82081=
201911270600 AAXX 27064 67531 12380 73105 10211 20198 48/// 60094 8267/
                   333 10286 20181 5//// 82708 87362
                   555 00183=
201911260600 AAXX 26064 67531 12980 61004 10227 20198 48/// 69904 86030
                   333 10324 20190 5//// 86362=
201911250900 AAXX 25094 67531 42580 60804 10252 20202 48/// 84230
                   333 5//// 84828 83362=
201911220900 AAXX 22094 67531 42680 62706 10272 20198 48/// 8217/
                   333 5//// 82848 86362=
201911220600 AAXX 22064 67531 12980 63602 10241 20201 48/// 69904 8607/
                   333 10322 20202 59009 86362
                   555 00202=
201911211200 AAXX 21124 67531 42680 52707 10299 20184 48/// 85230
                   333 5//// 85849 82362=
201911201200 AAXX 20124 67531 42680 42105 10275 20199 48/// 84201
                   333 58013 84848 81081=
201911200900 AAXX 20094 67531 41670 71402 10220 20201 48/// 75155 8377/
                   333 58004 83709 87462=
201911200600 AAXX 20064 67531 11360 73603 10196 20186 48/// 60024 75155 8477/
                   333 10305 20185 59008 84706 87462
                   555 00192=
201911151200 AAXX 15124 67531 42780 33009 10322 20196 48/// 82232
                   333 59015 82850 81361 81080=
201911150600 AAXX 15064 67531 32980 73302 10230 20193 48/// 8703/
                   333 10340 20205 59016 87360
                   555 00200 20042=
201911140900 AAXX 14094 67531 42980 13003 10286 20186 48/// 81082
                   333 58003 81361 81081=
201911140600 AAXX 14064 67531 12980 70000 10205 20186 48/// 60424 81077
                   333 10210 20183 58010 81460 86280
                   555 00190 20990=
201911131200 AAXX 13124 67531 41680 61203 10310 20186 48/// 71799 86202
                   333 59005 81950 86850 81080=
201911120900 AAXX 12094 67531 42680 33605 10268 20189 48/// 82132
                   333 59010 82833 81361 81080=
201911120600 AAXX 12064 67531 12480 70603 10227 20192 48/// 69934 8117/
                   333 10283 20176 59025 81816 87460
                   555 00177=
201911110900 AAXX 11094 67531 41980 71503 10208 20192 48/// 72166 8707/
                   333 5//// 87460=
201911110600 AAXX 11064 67531 11380 70304 10210 20191 48/// 69944 76062 8177/
                   333 10300 20192 58005 81707 87460
                   555 00190=
201911080600 AAXX 08064 67531 NIL=
201911071200 AAXX 07124 67531 41780 70314 10311 20163 48/// 71799 85282
                   333 59002 81956 85856 82360 81080=
201911061200 AAXX 06124 67531 42880 43603 10310 20165 48/// 84100
                   333 59004 84857=
201911060900 AAXX 06094 67531 42680 10607 10281 20178 48/// 81100
                   333 5//// 81841=
201911060600 AAXX 06064 67531 12980 70000 10224 20183 48/// 60084 8707/
                   333 10342 20183 5//// 87360
                   555 00190=
201911051200 AAXX 05124 67531 42880 43603 10326 20166 48/// 84130
                   333 58009 84857 81081=
201911050900 AAXX 05094 67531 42680 73003 10280 20179 48/// 8113/
                   333 5//// 81841 87361=
201911050600 AAXX 05064 67531 12980 23006 10230 20181 48/// 60014 82030
                   333 10370 20193 5//// 82361
                   555 00189=
201911041200 AAXX 04124 67531 42980 40908 10347 20144 48/// 84100
                   333 5//// 84858=
201911010600 AAXX 01064 67531 32980 03604 10260 20165 48///
                   333 10357 20189 58002
                   555 00192=

################################################################################
#  SYNOPS from 67541, Kasempa (Zambia) | 13-32S | 025-51E | 1234 m
################################################################################
201911290900 AAXX 29094 67541 NIL=
201911290600 AAXX 29064 67541 12980 70000 10200 20200 48/// 60194 8703/
                   333 10260 20154 5//// 87360=
201911281200 AAXX 28124 67541 42580 70203 10200 20193 48/// 8423/
                   333 5//// 81915 83822 87360=
201911280900 AAXX 28094 67541 42580 70403 10250 20191 48/// 8323/
                   333 5//// 83822 87360=
201911271200 AAXX 27124 67541 42680 70605 10290 20177 48/// 83230
                   333 5//// 83832 84360=
201911270900 AAXX 27094 67541 42680 70607 10270 20185 48/// 85230
                   333 5//// 85832 82360=
201911270600 AAXX 27064 67541 32980 70000 10225 20185 48/// 87030
                   333 10302 20164 5//// 87360=
201911250600 AAXX 25064 67541 32980 70000 10193 20173 48/// 8703/
                   333 10250 20132 5//// 87360=
201911220900 AAXX 22094 67541 42980 40705 10301 20162 48/// 82130
                   333 5//// 82856 82360=
201911220600 AAXX 22064 67541 12980 50603 10220 20190 48/// 60064 80005
                   333 10320 20152 5//// 85080=
201911211200 AAXX 21124 67541 NIL=
201911210600 AAXX 21064 67541 32980 70000 10230 20193 48/// 87030
                   333 10310 20168 5//// 87360=
201911201200 AAXX 20124 67541 NIL=
201911200900 AAXX 20094 67541 NIL=
201911200600 AAXX 20064 67541 12980 70000 10200 20185 48/// 60334 8703/
                   333 10310 20150 5//// 87360=
201911191200 AAXX 19124 67541 42680 50503 10295 20184 48/// 85200
                   333 5//// 85845=
201911181200 AAXX 18124 67541 42680 50000 10300 20181 48/// 85200
                   333 5//// 85848=
201911151200 AAXX 15124 67541 NIL=
201911150600 AAXX 15064 67541 32980 70000 10225 20203 48/// 70222 8703/
                   333 10320 20170 5//// 87360
                   555 00/// 20000=
201911141200 AAXX 14124 67541 42680 60203 10300 20182 48/// 70222 86200
                   333 5//// 86848=
201911140900 AAXX 14094 67541 42680 70000 10280 20192 48/// 70222 85202
                   333 5//// 85835 82080=
201911131200 AAXX 13124 67541 42480 70203 10220 20183 48/// 70222 8213/
                   333 5//// 82815 87360=
201911121200 AAXX 12124 67541 42980 70102 10250 20182 48/// 87030
                   333 5//// 87360=
201911120900 AAXX 12094 67541 42980 70000 10210 20179 48/// 8703/
                   333 5//// 87360=
201911120600 AAXX 12064 67541 12980 70000 10185 20176 48/// 60104 8703/
                   333 10340 20154 5//// 87360=
201911111200 AAXX 11124 67541 42780 40000 10310 20176 48/// 84200
                   333 5//// 84856=
201911110900 AAXX 11094 67541 42980 70202 10250 20182 48/// 87030
                   333 5//// 87360=
201911110600 AAXX 11064 67541 32980 70000 10210 20192 48/// 8703/
                   333 10340 20162 5//// 87360=
201911080600 AAXX 08064 67541 12980 70000 10210 20171 48/// 60014 8703/
                   333 10338 20160 5//// 87360
                   555 00/// 20000=
201911071200 AAXX 07124 67541 42780 60603 10305 20160 48/// 86200
                   333 5//// 86856=
201911061200 AAXX 06124 67541 42880 60000 10325 20125 48/// 86200
                   333 5//// 86857=
201911060900 AAXX 06094 67541 42780 30504 10305 20091 48/// 82101
                   333 5//// 82856 81080=
201911060600 AAXX 06064 67541 12980 20502 10223 20181 48/// 69904 80002
                   333 10350 20158 5//// 82080=
201911051200 AAXX 05124 67541 42880 60609 10320 20140 48/// 86200
                   333 5//// 86857=
201911050900 AAXX 05094 67541 42980 10615 10310 20146 48/// 80001
                   333 5//// 81080=
201911050600 AAXX 05064 67541 32980 10608 10265 20136 48/// 80001
                   333 10370 20188 5//// 81080=
201911041200 AAXX 04124 67541 42980 40610 10355 20102 48/// 84200
                   333 5//// 84859=
201911040600 AAXX 04064 67541 32980 10708 10270 20119 48/// 80001
                   333 10360 20170 5//// 81080=
201911011200 AAXX 01124 67541 42980 23605 10340 20060 48/// 80002
                   333 5//// 82080=
201911010600 AAXX 01064 67541 32980 23610 10260 20071 48/// 80002
                   333 10358 20118 5//// 82080=

################################################################################
#  SYNOPS from 67543, Kabompo (Zambia) | 13-36S | 024-12E | 1075 m
################################################################################
201911290900 AAXX 29094 67543 42580 71102 10286 20202 48/// 85230
                   333 5//// 85820 83361=
201911290600 AAXX 29064 67543 11380 70000 10212 20203 48/// 60014 72122 876//
                   333 10280 20196 5//// 87707=
201911281200 AAXX 28124 67543 NIL=
201911271200 AAXX 27124 67543 42682 70601 10296 20185 48/// 85231
                   333 5//// 85835 83362 81080=
201911270900 AAXX 27094 67543 42580 71203 10278 20189 48/// 8523/
                   333 5//// 85825 84360=
201911270600 AAXX 27064 67543 12480 70000 10224 20191 48/// 69904 82135
                   333 10316 20190 5//// 82815 83360 84280=
201911260600 AAXX 26064 67543 32380 70000 10206 20186 48/// 82635
                   333 10322 20170 5//// 82603 84360 84280
                   555 00///=
201911220900 AAXX 22094 67543 42980 70000 10278 20201 48/// 8707/
                   333 5//// 87361=
201911220600 AAXX 22064 67543 12980 60902 10252 20200 48/// 60044 86030
                   333 10320 20200 5//// 86360=
201911211200 AAXX 21124 67543 41675 70000 10312 20193 48/// 76022 85320
                   333 5//// 81935 85835 84280=
201911210600 AAXX 21064 67543 32982 80000 10220 20203 48/// 8807/
                   333 10312 20208 5//// 88360=
201911201200 AAXX 20124 67543 NIL=
201911200900 AAXX 20094 67543 NIL=
201911200600 AAXX 20064 67543 12380 80000 10210 20196 48/// 60224 8362/
                   333 10252 20192 5//// 83707 88460=
201911180900 AAXX 18094 67543 42582 73305 10288 20185 48/// 85230
                   333 5//// 82820 85361=
201911151200 AAXX 15124 67543 NIL=
201911150600 AAXX 15064 67543 41680 70000 10250 20183 48/// 71799 8331/
                   333 5//// 81940 83840 87462
                   555 10384=
201911141200 AAXX 14124 67543 42680 60000 10328 20192 48/// 84231
                   333 5//// 84830 83360 82080=
201911140900 AAXX 14094 67543 42580 40000 10268 20192 48/// 82131
                   333 83360 81080=
201911140600 AAXX 14064 67543 12380 70000 10208 20193 48/// 60214 8267/
                   333 10382 20174 5//// 82707 87360
                   555 00///=
201911120900 AAXX 12094 67543 NIL=
201911120600 AAXX 12064 67543 NIL=
201911110900 AAXX 11094 67543 NIL=
201911080600 AAXX 08064 67543 NIL=
201911060900 AAXX 06094 67543 NIL=
201911050900 AAXX 05094 67543 NIL=
201911050600 AAXX 05064 67543 32980 70000 10254 20169 48/// 8703/
                   333 10384 20210 5//// 87360=
201911041200 AAXX 04124 67543 42680 60602 10368 20200 48/// 86200
                   333 5//// 86835=
201911040600 AAXX 04064 67543 12975 50000 10234 20185 48/// 60014 85030
                   333 10368 20200 5//// 85360=
201911011200 AAXX 01124 67543 42675 30602 10350 20113 48/// 83200
                   333 5//// 83235=
201911010600 AAXX 01064 67543 32975 20000 10232 20156 48/// 80005
                   333 10296 20180 5//// 82280=

################################################################################
#  SYNOPS from 67551, Solwezi (Zambia) | 12-11S | 026-23E | 1386 m
################################################################################
201911290900 AAXX 29094 67551 41459 70000 10200 20193 48523 76062 8522/
                   333 58001 85815 87462 91020=
201911290600 AAXX 29064 67551 12370 70903 10210 20195 48520 60104 72162 8757/
                   333 10267 20186 59005 87606 86362 91020=
201911281200 AAXX 28124 67551 42570 60305 10231 20171 48499 83230
                   333 58004 83820 84360 91017=
201911280900 AAXX 28094 67551 41670 70405 10189 20181 48526 76166 82730
                   333 58016 82707 87360 91020=
201911280600 AAXX 28064 67551 11365 80405 10175 20173 48522 60294 79596 8477/
                   333 10224 20171 58017 81930 84706 88260 91021=
201911271200 AAXX 27124 67551 41370 70805 10197 20182 48497 79599 8377/
                   333 58013 81930 83707 87360 91016=
201911270900 AAXX 27094 67551 42570 60905 10256 20175 48512 84230
                   333 59004 84825 83360 91018=
201911270600 AAXX 27064 67551 12270 70000 10202 20182 48512 60994 8267/
                   333 10281 20187 58004 82706 87360=
201911260600 AAXX 26064 67551 12970 30000 10200 20168 48508 60264 82031
                   333 10299 20162 59020 82362 82080 91018=
201911251200 AAXX 25124 67551 42670 72003 10263 20185 48501 86201
                   333 59015 86840 82080 91016=
201911250900 AAXX 25094 67551 42578 73603 10235 20182 48529 8723/
                   333 59004 87825 84352 91020=
201911250600 AAXX 25064 67551 32980 50102 10246 20192 48/// 85030
                   333 1//// 20222 5//// 85360=
201911220600 AAXX 22064 67551 12970 71204 10231 20157 48503 84032
                   333 10305 20176 59010 84362 84080 91017=
201911211200 AAXX 21124 67551 42670 71204 10300 20172 48501 872//
                   333 59016 87840 91014=
201911210600 AAXX 21064 67551 12970 23603 10215 20186 48512 60014 82030
                   333 10284 20176 59012 82362 91018=
201911201200 AAXX 20124 67551 42670 60605 10267 20179 48495 72192 83230
                   333 58001 83840 86360 91016=
201911200900 AAXX 20094 67551 42570 71505 10248 20188 48521 84230
                   333 59005 84825 86360 91019=
201911200600 AAXX 20064 67551 12370 70000 10199 20187 48517 60394 83631
                   333 10227 20181 58006 83706 86360 83080 91020=
201911191200 AAXX 19124 67551 41670 73415 10277 20168 48495 79592 81930
                   333 58007 81935 83830 82680 91016=
201911151200 AAXX 15124 67551 41670 72705 10241 20183 48468 72199 81932
                   333 59025 81945 83845 82360 82080
                   555 91013=
201911150600 AAXX 15064 67551 32970 62705 10224 20177 48499 83036
                   333 10306 20176 59023 83360 86280
                   555 00/// 20007 91017=
201911140900 AAXX 14094 67551 42470 53204 10245 20170 48519 70222
                   333 58003 83815 555 91019=
201911120900 AAXX 12094 67551 42470 71805 10244 20174 48503 83807
                   333 58004 83615 82820 87280 91017=
201911120600 AAXX 12064 67551 12370 72505 10205 20179 48503 60134 8267/
                   333 10211 20180 58002 82606 87360 91017=
201911111200 AAXX 11124 67551 41770 70505 10289 20160 48477 76062
                   333 58002 86850 82080 91013=
201911110900 AAXX 11094 67551 41670 71305 10256 20173 48501 84107
                   333 59005 84840 87280 91017=
201911110600 AAXX 11064 67551 12970 71805 10216 20177 48502 69904 83038
                   333 10327 20178 59011 83362 86280 91017=
201911080600 AAXX 08064 67551 11970 51805 10218 20161 48534 60104 70522 85030
                   333 10233 20174 58011 85362
                   555 00/// 20013 91021=
201911071200 AAXX 07124 67551 41770 70905 10197 20158 48493 79596 81900
                   333 58012 81950 92850 91017=
201911070600 AAXX 07064 67551 11970 70805 10219 20166 48523 60014 70522 82036
                   333 10289 20170 59008 82360 86280 91020=
201911061200 AAXX 06124 67551 41675 60903 10280 20156 48497 70522 86230
                   333 58004 86840 82362 91016=
201911060900 AAXX 06094 67551 NIL=
201911060600 AAXX 06064 67551 11470 71704 10195 20172 48529 60304 72166 82530
                   333 10324 20168 58003 82710 87362 91021=
201911050900 AAXX 05094 67551 41975 50906 10302 20141 48522 70522 83107
                   333 58002 83825 85280 91019=
201911050600 AAXX 05064 67551 31970 60606 1//// 2//// 48531 70522 80007
                   333 10329 20194 59001 86280 91020=
201911040600 AAXX 04064 67551 31970 00908 10250 20119 48532 70500
                   333 10341 20184 58001 91020=
201911010600 AAXX 01064 67551 31970 00709 10243 20081 48531 70500
                   333 10335 20154 59002=

################################################################################
#  SYNOPS from 67561, Ndola (Zambia) | 13-00S | 028-39E | 1269 m
################################################################################
201911290900 AAXX 29094 67561 41570 60000 10258 20179 48529 70522 86232
                   333 59003 81920 86825 84360 82080 91020=
201911290600 AAXX 29064 67561 11370 60404 10211 20182 48531 60014 70562 81630
                   333 10268 20192 58000 81709 86360 91020=
201911281200 AAXX 28124 67561 NIL=
201911280600 AAXX 28064 67561 11259 80000 10190 20160 48530 60224 76196 8567/
                   333 10275 20180 58014 85702 88459 91020=
201911271200 AAXX 27124 67561 41659 71109 10252 20178 48489 79596 8523/
                   333 58005 81935 85840 85360 91015=
201911270900 AAXX 27094 67561 41560 70706 10249 20173 48514 70522 8523/
                   333 59002 85825 85360 91018=
201911270600 AAXX 27064 67561 11459 70905 10229 20176 48518 69904 70422 8263/
                   333 10298 20200 58000 82710 87360 91019=
201911260600 AAXX 26064 67561 11259 70000 10214 20187 48517 69904 70422 83632
                   333 10298 20196 59003 83706 86360 81080 91019=
201911250600 AAXX 25064 67561 11958 70000 10213 20188 48535 60024 72844 86038
                   333 10227 20174 59009 86360 87280 91020=
201911221200 AAXX 22124 67561 41560 63605 10320 20160 48476 70522 85202
                   333 59009 85850 84080 91013=
201911220900 AAXX 22094 67561 41560 70905 10280 20166 48498 70522 84208
                   333 59015 84835 87280 91016=
201911220600 AAXX 22064 67561 31960 70000 10240 20179 48509 70522 82038
                   333 10319 20200 58007 82360 87280 91018=
201911211200 AAXX 21124 67561 41760 60000 10311 20147 48485 70522 84268
                   333 59014 84850 82360 86280 91014=
201911210600 AAXX 21064 67561 31959 60904 10231 20164 48516 70422 81338
                   333 10305 20201 59014 819// 84360 85280 91018=
201911201200 AAXX 20124 67561 NIL=
201911200900 AAXX 20094 67561 NIL=
201911200600 AAXX 20064 67561 11359 70000 10210 20181 48528 60154 70522 83638
                   333 10300 20180 58019 83706 86360 87280 91020=
201911180900 AAXX 18094 67561 41565 50000 10264 20184 48522 70522 85232
                   333 58007 85825 83360 85280 91018=
201911151200 AAXX 15124 67561 NIL=
201911150600 AAXX 15064 67561 31959 50506 10232 20182 48502 70422 81038
                   333 10314 20184 59023 81360 85280
                   555 00/// 20012 91017=
201911140600 AAXX 14064 67561 11457 70000 10216 20181 48523 60120 70422 82538
                   333 10289 20180 58014 82610 82360 87280
                   555 00/// 20002 91020=
201911131200 AAXX 13124 67561 41259 73205 10209 20183 48497 79599 8177/
                   333 58036 81705 81930 86635 87459 91017=
201911121200 AAXX 12124 67561 41775 59903 10327 20138 48469 70522 85201
                   333 59004 81950 85856 81080 91012=
201911120900 AAXX 12094 67561 41965 60508 10307 20140 48498 70522 86232
                   333 59001 86840 81361 82080 91016=
201911120600 AAXX 12064 67561 11959 50906 10266 20144 48500 69904 70422 83038
                   333 10346 20218 59010 83360 85280 91016=
201911111200 AAXX 11124 67561 41770 60000 10325 20120 48473 70522 86200
                   333 59010 81950 96856 91013=
201911110900 AAXX 11094 67561 41670 50305 10304 20132 48499 70522 83208
                   333 59014 83845 85280 91016=
201911110600 AAXX 11064 67561 11959 50804 10246 20143 48580 60014 70422 82038
                   333 10336 20182 59012 82360 85280 91017=
201911080600 AAXX 08064 67561 11959 40606 10256 20157 48540 60144 70411 84080
                   333 10339 20199 58012 84360
                   555 00/// 91021=
201911070600 AAXX 07064 67561 31959 41506 10254 20153 48525 70411 84030
                   333 10323 20186 59003 84360 91020=
201911061200 AAXX 06124 67561 41770 60000 10301 20143 48498 70522 86800
                   333 59006 81950 83856 83656
                   555 66067 77/// 8858/ 98051 91016=
201911060900 AAXX 06094 67561 41620 50505 10292 20147 48525 70511 85230
                   333 59009 85840 82360 91019=
201911060600 AAXX 06064 67561 11959 11206 10244 20137 48530 69904 70400 81030
                   333 10326 20164 59008 91020=
201911050900 AAXX 05094 67561 41659 20808 10298 20143 48534 70400 82100
                   333 58005 82840 91020=
201911050600 AAXX 05064 67561 11959 00709 10255 20149 48539 69914 70400
                   333 10350 20204 58001 91021=
201911040600 AAXX 04064 67561 31959 00505 10263 20148 48538 70400
                   333 10337 20204 58003 91021=
201911010600 AAXX 01064 67561 NIL=

################################################################################
#  SYNOPS from 67563, Kafironda (Zambia) | 12-36S | 028-07E | 1243 m
################################################################################
201911290900 AAXX 29094 67563 NIL=
201911290600 AAXX 29064 67563 11370 70401 10210 20196 48/// 60704 70562 8167/
                   333 10290 20180 5//// 81708 86758
                   555 00173=
201911281200 AAXX 28124 67563 NIL=
201911271200 AAXX 27124 67563 NIL=
201911270900 AAXX 27094 67563 NIL=
201911270600 AAXX 27064 67563 31370 70501 10210 20196 48/// 69944 70522 8567/
                   333 10280 20185 5//// 85710 82359
                   555 00174=
201911250600 AAXX 25064 67563 11370 70104 10220 20190 48/// 60084 72842 81670
                   333 10230 20171 5//// 81709 87359
                   555 00160=
201911220600 AAXX 22064 67563 31970 71202 10230 20185 48/// 70522 80008
                   333 10341 20183 5//// 87280
                   555 00167=
201911211200 AAXX 21124 67563 NIL=
201911210600 AAXX 21064 67563 31570 71202 10250 20174 48/// 70522 81238
                   333 10336 20180 5//// 81820 81362 85270
                   555 00171=
201911201200 AAXX 20124 67563 NIL=
201911200900 AAXX 20094 67563 NIL=
201911200600 AAXX 20064 67563 11370 70402 10220 20190 48/// 60024 70522 81530
                   333 10340 20190 5//// 81510 86360
                   555 00183=
201911190600 AAXX 19064 67563 31970 72102 10250 20181 48/// 69904 70522 81038
                   333 10303 20195 5//// 81360 86270
                   555 00175=
201911151200 AAXX 15124 67563 NIL=
201911150600 AAXX 15064 67563 NIL=
201911120900 AAXX 12094 67563 NIL=
201911120600 AAXX 12064 67563 NIL=
201911110900 AAXX 11094 67563 NIL=
201911110600 AAXX 11064 67563 31970 30406 10262 20150 48/// 70500 80002
                   333 10351 20187 5//// 83080
                   555 00174=
201911080600 AAXX 08064 67563 NIL=
201911070600 AAXX 07064 67563 31970 70602 10250 20157 48/// 70522 87030
                   333 10335 20181 5//// 87360
                   555 00176=
201911060900 AAXX 06094 67563 NIL=
201911050900 AAXX 05094 67563 NIL=
201911050600 AAXX 05064 67563 31970 01008 10265 20147 48/// 70500
                   333 10359 20162 5////
                   555 00140=
201911040600 AAXX 04064 67563 31970 10709 10253 20160 48/// 70500 81030
                   333 10344 20157 5//// 81360
                   555 00145=
201911010600 AAXX 01064 67563 31970 01506 10245 20121 48/// 70500
                   333 10355 20139 5////
                   555 00121=

################################################################################
#  SYNOPS from 67571, Serenje (Zambia) | 13-14S | 030-13E | 1384 m
################################################################################
201911290900 AAXX 29094 67571 41575 72402 10224 20181 48482 76566 875//
                   333 59005 81923 87623=
201911290600 AAXX 29064 67571 12482 70000 10215 20179 48482 60044 8353/
                   333 10231 20173 58008 83618 86360=
201911281200 AAXX 28124 67571 42582 71202 10208 20172 48462 82308
                   333 58017 81920 82620 87280=
201911271200 AAXX 27124 67571 41682 72407 10221 20180 48/// 71799 872//
                   333 5//// 81930 87830=
201911270900 AAXX 27094 67571 42582 71506 10239 20182 48/// 8653/
                   333 5//// 81927 86627 82360=
201911270600 AAXX 27064 67571 12582 70903 10206 20170 48/// 8253/
                   333 10251 20180 5//// 82625 87360=
201911250900 AAXX 25094 67571 42680 72702 10251 20172 48473 83238
                   333 59005 81934 83834 81360 87280=
201911250600 AAXX 25064 67571 12582 70000 10221 20174 48482 60024 81138
                   333 10254 20175 58003 81821 83360 87280=
201911220900 AAXX 22094 67571 42682 31206 10281 20165 48/// 82331
                   333 5//// 81935 82835 81360 87280=
201911220600 AAXX 22064 67571 12982 71205 10253 20154 48/// 69904 85038
                   333 10321 20195 5//// 85360 87280=
201911211200 AAXX 21124 67571 42682 70000 10301 20157 48/// 83208
                   333 5//// 83843 87280=
201911210600 AAXX 21064 67571 12982 71205 10224 20146 48/// 69904 82038
                   333 10296 20181 5//// 82360 87280 8/9//=
201911201200 AAXX 20124 67571 41682 70902 10245 20168 48453 71799 872//
                   333 58013 81935 87835=
201911200900 AAXX 20094 67571 42682 73005 10268 20174 48474 86201
                   333 58008 81932 86832 82080=
201911200600 AAXX 20064 67571 12982 13303 10222 20181 48472 60034 80001
                   333 10297 20167 58003 81081=
201911190600 AAXX 19064 67571 12582 73602 10248 20170 48473 69904 81938
                   333 10296 20196 58021 81925 81825 81360 87280=
201911181200 AAXX 18124 67571 42682 73602 10272 20161 48/// 83238
                   333 5//// 81938 83838 81360 87280=
201911151200 AAXX 15124 67571 42680 73003 10300 20127 48/// 70222 82308
                   333 5//// 81940 87280=
201911150600 AAXX 15064 67571 12582 72704 10245 20148 48/// 69904 71799 8193/
                   333 10312 20191 5//// 81923 81825 87360
                   555 00/// 20015=
201911141200 AAXX 14124 67571 42680 72402 10296 20142 48444 72522 872//
                   333 58002 81943 87843=
201911140900 AAXX 14094 67571 42680 21802 10280 20166 48464 70500 81021
                   333 58007 82835=
201911140600 AAXX 14064 67571 12980 71505 1235/ 20172 48473 60154 70522 80001
                   333 10317 20174 58011 87280
                   555 00/// 20002=
201911131200 AAXX 13124 67571 42680 70302 10311 20136 48444 59016 70522 81948 81948 82360
                   86848 87280=
201911120900 AAXX 12094 67571 42680 71203 10301 20134 48/// 70522 86238
                   333 5//// 81935 86835 82360 85280=
201911120600 AAXX 12064 67571 12980 70902 10262 20153 48/// 60044 70522 80008
                   333 10319 20192 5//// 87280=
201911111200 AAXX 11124 67571 41780 70000 10305 20134 48433 78088 872//
                   333 59018 81950 87850=
201911110900 AAXX 11094 67571 42678 70903 10297 20135 48454 70522 86108
                   333 59017 86841 87280=
201911110600 AAXX 11064 67571 32576 70903 10248 20158 48463 70522 81108
                   333 10322 20187 59001 81828 87280=
201911080600 AAXX 08064 67571 NIL=
201911071200 AAXX 07124 67571 41778 71502 10276 20157 48/// 72998 85238
                   333 5//// 81956 85856 84360 87280=
201911070600 AAXX 07064 67571 32978 00902 10246 20142 48/// 70500
                   333 10293 20184 5////=
201911061200 AAXX 06124 67571 42780 61503 10290 20131 48/// 70522 86200
                   333 5//// 81956 86856=
201911060900 AAXX 06094 67571 32580 10904 10236 20122 48/// 70500 81130
                   333 10299 20161 5//// 81825 81360=
201911060600 AAXX 06064 67571 32980 10904 10236 20122 48/// 70500 81130
                   333 10299 20161 5//// 81825 81360=
201911050900 AAXX 05094 67571 42775 61204 10265 20151 48494 70522 86800
                   333 58007 81956 85656 83857=
201911050600 AAXX 05064 67571 32775 31206 10236 20143 48493 70500 83500
                   333 10328 20194 58003 83650=
201911041200 AAXX 04124 67571 42775 31205 10313 20104 48485 70500 83100
                   333 58000 83850=
201911040600 AAXX 04064 67571 32970 01504 10255 20148 48494 70500
                   333 10324 20190 58014=
201911011200 AAXX 01124 67571 42675 61205 10294 20124 48474 70522 86200
                   333 58004 81945 86845=
201911010600 AAXX 01064 67571 31460 11208 10230 20151 48493 70500 81500
                   333 10345 20179 58026 81618=

################################################################################
#  SYNOPS from 67575, Mkushi (Zambia) | 13-38-00S | 029-26-00E | 1237 m
################################################################################
201911290900 AAXX 29094 67575 41640 33604 10263 2//// 48487 71621 83201
                   333 5//// 83830 81080=
201911290600 AAXX 29064 67575 12480 30904 10231 20182 48492 60024 81171
                   333 10252 20185 5//// 81815 82360 81078
                   555 00182=
201911281200 AAXX 28124 67575 NIL=
201911280900 AAXX 28094 67575 41350 83501 10201 20191 8577/
                   333 5//// 85708 84460=
201911280600 AAXX 28064 67575 11960 81201 10183 20177 48/// 60354 76162 8801/
                   333 10273 20165 5//// 88460
                   555 00173=
201911271200 AAXX 27124 67575 41660 71206 10251 20187 48451 71792 86273
                   333 59001 81935 86835 81362 81080=
201911270900 AAXX 27094 67575 NIL=
201911270600 AAXX 27064 67575 12480 70903 10218 20183 48478 60114 85570
                   333 10280 20190 59001 85615 83360
                   555 00186=
201911260600 AAXX 26064 67575 12360 62402 10212 20189 48478 60474 81678
                   333 10310 20175 59010 81708 83360 81278=
201911251200 AAXX 25124 67575 41665 72802 10301 20172 48449 71792 86273
                   333 5//// 81937 86837 81360 82080=
201911250600 AAXX 25064 67575 12480 62901 10208 20195 48488 69944 81171
                   333 10285 20165 59014 81815 85360 82078
                   555 00171=
201911220600 AAXX 22064 67575 32980 71701 10236 20172 48470 82078
                   333 10327 20175 5//// 82360 86278
                   555 00176=
201911211200 AAXX 21124 67575 42680 71201 10311 20148 48442 82208
                   333 5//// 82837 87280=
201911210600 AAXX 21064 67575 12980 61204 10240 20169 48/// 60014 83078
                   333 10310 20184 5//// 83360 84278
                   555 00185=
201911201200 AAXX 20124 67575 41660 51803 10282 20194 48/// 71798 84273
                   333 5//// 81937 84837 81362 81080=
201911200900 AAXX 20094 67575 42680 33001 10280 20190 48/// 83273
                   333 5//// 81960 83830 81360 81080=
201911200600 AAXX 20064 67575 12980 71201 10220 20188 48/// 60064 83078
                   333 10304 20174 5//// 83360 85278
                   555 00184=
201911181200 AAXX 18124 67575 41670 70902 10274 20181 48445 79598 84273
                   333 5//// 81938 84838 83360 81080=
201911180900 AAXX 18094 67575 42680 53602 10268 20189 48469 82271
                   333 5//// 82830 81362 83080=
201911151200 AAXX 15124 67575 41680 80805 10302 20162 48/// 71792 84278
                   333 5//// 81937 84837 81360 84280
                   555 5////=
201911150600 AAXX 15064 67575 32780 62601 10238 20194 48458 82278
                   333 10312 20190 59021 82856 81360 84280
                   555 00194=
201911141200 AAXX 14124 67575 41680 63601 10302 20182 48/// 72520 85273
                   333 5//// 81938 85838 81362 81080=
201911140900 AAXX 14094 67575 42680 60303 10286 20180 48473 83208
                   333 58008 83830 84280
                   555 5////=
201911121200 AAXX 12124 67575 41680 62702 10285 20196 48/// 72582 85273
                   333 5//// 81940 85840 81362 81080=
201911120900 AAXX 12094 67575 42680 43602 10304 20143 48455 83201
                   333 59002 83835 82080=
201911120600 AAXX 12064 67575 12980 60906 10256 20153 48457 69904 82078
                   333 10340 20210 59014 82360 85278
                   555 00201=
201911111200 AAXX 11124 67575 41680 50901 10321 20140 48/// 71792 84273
                   333 5//// 81942 84842 81362 81080=
201911110900 AAXX 11094 67575 42680 40303 10301 20145 48575 83201
                   333 5//// 83835 82080=
201911110600 AAXX 11064 67575 31980 61008 10260 20159 48471 80008
                   333 10339 20202 5//// 86278
                   555 00194=
201911080600 AAXX 08064 67575 12980 23601 10235 20157 48500 60044 82070
                   333 10335 20165 5//// 82360
                   555 00160=
201911071200 AAXX 07124 67575 41670 53601 10326 20129 48/// 79598 84273
                   333 5//// 81940 84840 81362 81080=
201911060900 AAXX 06094 67575 NIL=
201911060600 AAXX 06064 67575 31975 10909 10246 20120 48/// 70500 81031
                   333 10328 20168 5//// 81360 81080
                   555 00164=
201911050900 AAXX 05094 67575 41670 21208 10292 20148 48/// 70500 82200
                   333 5//// 82830=
201911050600 AAXX 05064 67575 31470 10912 10254 20141 48/// 70500 81130
                   333 10347 20190 5//// 81815 81360
                   555 00182=
201911041200 AAXX 04124 67575 41675 21207 10342 20101 48/// 70500 82200
                   333 5//// 82843=
201911040600 AAXX 04064 67575 31970 00601 10270 20143 48/// 70500
                   333 10345 20178 5////
                   555 00170=
201911011200 AAXX 01124 67575 41670 21207 10308 20116 48474 70500 82200
                   333 58007 82843=
201911010600 AAXX 01064 67575 31970 01304 10247 20139 48504 70500
                   333 10345 20168 58010
                   555 00142=

################################################################################
#  SYNOPS from 67580, Msekera (Zambia) | 13-39S | 032-34E | 1025 m
################################################################################
201911290900 AAXX 29094 67580 42680 71203 10263 20198 48/// 87230
                   333 5//// 87842 84360=
201911290600 AAXX 29064 67580 12680 71203 10244 20199 48/// 60034 83831
                   333 10267 20207 5//// 82832 81634 87360 82080=
201911281200 AAXX 28124 67580 NIL=
201911280900 AAXX 28094 67580 41680 71003 10258 20203 48/// 71722 8197/
                   333 5//// 81944 87844 84460=
201911271200 AAXX 27124 67580 NIL=
201911270900 AAXX 27094 67580 NIL=
201911270600 AAXX 27064 67580 12680 71203 10233 20199 48/// 60154 85831
                   333 10310 20196 5//// 83830 82632 84360 83080=
201911220600 AAXX 22064 67580 NIL=
201911211200 AAXX 21124 67580 NIL=
201911210600 AAXX 21064 67580 32980 71802 10262 20199 48/// 81038
                   333 10382 20219 5//// 81361 87280=
201911201200 AAXX 20124 67580 NIL=
201911200900 AAXX 20094 67580 NIL=
201911200600 AAXX 20064 67580 NIL=
201911151200 AAXX 15124 67580 NIL=
201911150600 AAXX 15064 67580 NIL=
201911120900 AAXX 12094 67580 NIL=
201911120600 AAXX 12064 67580 NIL=
201911110900 AAXX 11094 67580 NIL=
201911080600 AAXX 08064 67580 32980 00904 10270 20180 48///
                   333 10354 20218 5////
                   555 00/// 20990=
201911060900 AAXX 06094 67580 NIL=
201911050900 AAXX 05094 67580 41775 60904 10290 20186 48/// 70522 86200
                   333 5//// 86850=
201911050600 AAXX 05064 67580 11675 41507 10252 20173 48/// 60054 70511 82830
                   333 10366 20209 58006 81820 81632 82360=
201911010600 AAXX 01064 67580 NIL=

################################################################################
#  SYNOPS from 67581, Chipata (Zambia) | 13-33S | 032-35E | 1028 m
################################################################################
201911290900 AAXX 29094 67581 NIL=
201911290600 AAXX 29064 67581 12580 71005 10240 20186 48543 60044 8323/
                   333 1//// 20210 59003 83820 87360 91019=
201911281200 AAXX 28124 67581 NIL=
201911280600 AAXX 28064 67581 12480 80000 10225 20194 48543 60474 8457/
                   333 10300 20209 5//// 84610 87459 91019=
201911271200 AAXX 27124 67581 NIL=
201911270900 AAXX 27094 67581 NIL=
201911270600 AAXX 27064 67581 NIL=
201911251200 AAXX 25124 67581 41680 71709 10260 20166 48516 71799 83232
                   333 58011 81945 82845 82360 85080 91016=
201911250600 AAXX 25064 67581 32980 81206 10238 20274 48534 83033
                   333 10342 20202 59002 83360 87080 91018=
201911220900 AAXX 22094 67581 42680 51605 10336 20158 48517 83102
                   333 5//// 83845 83080 91015=
201911220600 AAXX 22064 67581 12980 31205 10286 20172 48535 60014 80002
                   333 10359 20219 5//// 83080 91016=
201911211200 AAXX 21124 67581 NIL=
201911210600 AAXX 21064 67581 32980 61603 10271 20181 48/// 80002
                   333 10365 20222 5//// 86080=
201911201200 AAXX 20124 67581 42680 41908 10360 20142 48/// 83202
                   333 5//// 83856 82080=
201911200900 AAXX 20094 67581 42680 31206 10326 20160 48/// 82102
                   333 5//// 82845 82080=
201911200600 AAXX 20064 67581 32980 31604 10291 20167 48/// 80002
                   333 10359 20218 5//// 83080=
201911181200 AAXX 18124 67581 41680 41804 10319 20154 48/// 83230
                   333 5//// 83846 82360=
201911151200 AAXX 15124 67581 NIL=
201911150600 AAXX 15064 67581 NIL=
201911120900 AAXX 12094 67581 NIL=
201911120600 AAXX 12064 67581 32980 00712 10280 20153 48///
                   333 10343 20240 5////=
201911111200 AAXX 11124 67581 42680 70808 10330 20151 48/// 872//
                   333 5//// 87845=
201911110900 AAXX 11094 67581 42680 20412 10323 20157 48/// 82100
                   333 5//// 82840=
201911110600 AAXX 11064 67581 32680 30412 10277 20154 48538 81100
                   333 10342 20224 59023 81830 83080 91017=
201911080600 AAXX 08064 67581 NIL=
201911071200 AAXX 07124 67581 41675 40907 10340 20133 48529 83102
                   333 5//// 83848 82080 91015=
201911060900 AAXX 06094 67581 NIL=
201911050900 AAXX 05094 67581 NIL=
201911050600 AAXX 05064 67581 12680 20708 10260 20165 48/// 60024 82100
                   333 10328 20212 5//// 82830=
201911041200 AAXX 04124 67581 41675 61804 10315 20141 48530 71722 84202
                   333 5//// 81950 83850 82080 91016=
201911011200 AAXX 01124 67581 42680 60918 10330 20109 48/// 862//
                   333 5//// 86845=
201911010600 AAXX 01064 67581 31980 01408 10261 20171 48/// 70500
                   333 10349 20222 5////=

################################################################################
#  SYNOPS from 67583, Lundazi (Zambia) | 12-17S | 033-12E | 1143 m
################################################################################
201911290900 AAXX 29094 67583 NIL=
201911290600 AAXX 29064 67583 12480 71802 10220 20192 48/// 69904 84508
                   333 10278 2//// 5//// 84610 87280=
201911281200 AAXX 28124 67583 41560 71802 10232 20202 48/// 79592 819//
                   333 5//// 81925 87280=
201911271200 AAXX 27124 67583 42780 71203 10294 20155 48/// 81968
                   333 5//// 81940 83850 81358 87280=
201911270900 AAXX 27094 67583 NIL=
201911270600 AAXX 27064 67583 32980 73602 10238 20148 48/// 83038
                   333 10320 2//// 5//// 83359 87280=
201911251200 AAXX 25124 67583 42580 63603 10266 20188 48/// 81825=
201911250900 AAXX 25094 67583 42480 73602 10238 20202 48/// 83208
                   333 5//// 83818 87280=
201911220600 AAXX 22064 67583 32980 70000 10288 20188 48/// 82038
                   333 10350 2//// 5//// 82359 87280=
201911211200 AAXX 21124 67583 42780 71202 10342 20162 48/// 84208
                   333 5//// 84856 87280=
201911201200 AAXX 20124 67583 42780 60903 10346 20158 48/// 84201
                   333 5//// 84856 82080=
201911200900 AAXX 20094 67583 42780 70902 10322 20172 48/// 83208
                   333 5//// 83850 87280=
201911200600 AAXX 20064 67583 32980 70000 10268 20182 48/// 80008
                   333 10348 2//// 87280=
201911191200 AAXX 19124 67583 42780 70905 10342 20182 48/// 83208
                   333 5//// 83850 87280=
201911181200 AAXX 18124 67583 41680 70903 10248 20176 48/// 71722 8193/
                   333 5//// 81945 81850 87357=
201911151200 AAXX 15124 67583 NIL=
201911150600 AAXX 15064 67583 NIL=
201911140900 AAXX 14094 67583 42780 80315 10342 20142 82201
                   333 5//// 82850 81080=
201911140600 AAXX 14064 67583 32980 21202 10286 20163 48/// 80001
                   333 10362 2//// 5//// 82080
                   555 00///=
201911120900 AAXX 12094 67583 42780 31202 10342 20162 48/// 82201
                   333 5//// 82850 81080=
201911120600 AAXX 12064 67583 32980 10902 10280 20178 48/// 80001
                   333 10358 2//// 5//// 81080=
201911110900 AAXX 11094 67583 NIL=
201911110600 AAXX 11064 67583 32680 60606 10272 20132 48/// 81206
                   333 10338 2//// 5//// 81835 85280=
201911080600 AAXX 08064 67583 NIL=
201911060900 AAXX 06094 67583 NIL=
201911060600 AAXX 06064 67583 11657 41202 10260 20172 48/// 69904 70500 83230
                   333 10308 2//// 5//// 83830 81359=
201911050900 AAXX 05094 67583 41657 71205 10286 20163 48/// 70522 8323/
                   333 5//// 83845 87360=
201911050600 AAXX 05064 67583 31557 41202 10262 20188 48/// 70500 83230
                   333 10336 2//// 5//// 83828 81360=
201911041200 AAXX 04124 67583 41758 41204 10328 20150 48/// 70500 84102
                   333 5//// 83856 81080=
201911010600 AAXX 01064 67583 31956 01302 10276 20121 48/// 70500
                   333 10354 2//// 5////=

################################################################################
#  SYNOPS from 67599, Mfuwe (Zambia) | 13-16S | 031-56E | 568 m
################################################################################
201911290900 AAXX 29094 67599 NIL=
201911290600 AAXX 29064 67599 12980 70000 10250 20206 48537 60024 87030
                   333 10314 20202 59004 87360
                   555 00215 91017=
201911281200 AAXX 28124 67599 NIL=
201911271200 AAXX 27124 67599 NIL=
201911270900 AAXX 27094 67599 NIL=
201911270600 AAXX 27064 67599 32680 61803 10267 20194 48531 82130
                   333 10325 20218 58003 82840 86360
                   555 00235 91015=
201911220600 AAXX 22064 67599 32980 71003 10295 20211 48520 80007
                   333 10394 20225 59012 87280
                   555 00240 91013=
201911211200 AAXX 21124 67599 NIL=
201911210600 AAXX 21064 67599 12980 72005 10281 20201 48528 69904 81037
                   333 10405 20227 58002 81360 87280
                   555 00221 91015=
201911201200 AAXX 20124 67599 NIL=
201911200900 AAXX 20094 67599 NIL=
201911200600 AAXX 20064 67599 12980 53103 10288 20201 48529 69904 81038
                   333 10401 20225 58000 81360 85280
                   555 00235 91015=
201911151200 AAXX 15124 67599 NIL=
201911150600 AAXX 15064 67599 31959 30000 10316 20155 48510 70500 80001
                   333 10400 20218 59026 83080
                   555 00211 91012=
201911140600 AAXX 14064 67599 11959 51505 10277 20189 48524 69904 70521 81038
                   333 10391 20215 58013 81360 85280
                   555 00214 91014=
201911120900 AAXX 12094 67599 NIL=
201911120600 AAXX 12064 67599 11959 50707 10311 20158 48495 69904 70522 80002
                   333 10388 20206 59018 85080
                   555 00218 91012=
201911110900 AAXX 11094 67599 NIL=
201911110600 AAXX 11064 67599 11958 60507 10298 20161 48510 69904 70522 80002
                   333 10383 20207 59019 86080
                   555 00198 91024=
201911080600 AAXX 08064 67599 NIL=
201911060900 AAXX 06094 67599 NIL=
201911060600 AAXX 06064 67599 11959 12002 10269 20171 48547 60634 70500 81030
                   333 10372 20188 59003 81360
                   555 00198 91017=
201911050900 AAXX 05094 67599 NIL=
201911050600 AAXX 05064 67599 12980 31009 10303 20146 48559 83030
                   333 10397 20253 58005 83360
                   555 00242 91018=
201911040600 AAXX 04064 67599 31958 20707 10316 20138 48558 70510 82030
                   333 10402 20193 59003 82360
                   555 00218=
201911011200 AAXX 01124 67599 41659 70725 10380 20080 48529 70522 85230
                   333 58006 85837 85360 91012=
201911010900 AAXX 01094 67599 41657 60607 10340 20127 48535 70522 85230
                   333 59001 85832 84360 91016=
201911010600 AAXX 01064 67599 31950 01108 10302 20157 48540 70500
                   333 10411 20235 59001
                   555 00218 91017=

################################################################################
#  SYNOPS from 67625, Kalabo (Zambia) | 14-51S | 022-42E | 1033 m
################################################################################
201911290900 AAXX 29094 67625 41682 60508 10270 20212 48/// 72162 8413/
                   333 5//// 84833 86360=
201911290600 AAXX 29064 67625 12982 50503 10245 20208 48/// 60014 83083
                   333 10323 20205 58012 83360 85075=
201911281200 AAXX 28124 67625 NIL=
201911271200 AAXX 27124 67625 NIL=
201911270900 AAXX 27094 67625 NIL=
201911270600 AAXX 27064 67625 12982 71308 10234 20182 48/// 60224 81033
                   333 10255 20180 59012 81360 87075=
201911260600 AAXX 26064 67625 31382 81008 10200 20177 48/// 71522 8472/
                   333 10330 20196 58007 84708 88420=
201911220600 AAXX 22064 67625 32982 73503 10235 20190 48/// 8707/
                   333 10320 20208 58005 87460=
201911211200 AAXX 21124 67625 NIL=
201911210600 AAXX 21064 67625 12982 73105 10230 20193 48/// 69934 8707/
                   333 10310 20215 59011 87360=
201911201200 AAXX 20124 67625 NIL=
201911200900 AAXX 20094 67625 NIL=
201911200600 AAXX 20064 67625 11982 73602 10218 20198 48/// 60044 75052 8708/
                   333 10334 20210 58007 87460=
201911181200 AAXX 18124 67625 42782 73312 10322 20168 48/// 82163
                   333 5//// 81950 82856 82360 87075=
201911151200 AAXX 15124 67625 NIL=
201911150600 AAXX 15064 67625 32982 72710 10255 20180 48/// 85033
                   333 10330 20224 59014 85361 87075
                   555 00/// 20006=
201911141200 AAXX 14124 67625 42782 50908 10327 20158 48/// 81130
                   333 58003 81856 85361=
201911140900 AAXX 14094 67625 42982 73203 10270 20180 48/// 8707/
                   333 5//// 87360=
201911131200 AAXX 13124 67625 42782 62408 10369 20150 48/// 82333
                   333 82956 81857 84361 86075=
201911120900 AAXX 12094 67625 NIL=
201911120600 AAXX 12064 67625 NIL=
201911111200 AAXX 11124 67625 42682 70907 10295 20165 48/// 81133
                   333 5//// 81847 81361 87075=
201911110900 AAXX 11094 67625 42682 70307 10250 20173 48/// 81133
                   333 5//// 81830 85360 87075=
201911110600 AAXX 11064 67625 12982 72102 10204 20182 48/// 69924 87033
                   333 10306 20184 59003 87360 87075=
201911080600 AAXX 08064 67625 12982 70704 10210 20187 48/// 60024 8702/
                   333 10365 20194 58010 87460
                   555 00/// 20000=
201911071200 AAXX 07124 67625 42782 73004 10330 20133 48/// 82303
                   333 5//// 82956 82857 87075=
201911060900 AAXX 06094 67625 NIL=
201911060600 AAXX 06064 67625 12982 82706 10210 20172 48/// 69964 8803/
                   333 10310 20190 58007 88360=
201911050900 AAXX 05094 67625 NIL=
201911050600 AAXX 05064 67625 12982 70910 10245 20160 48/// 69924 87073
                   333 10383 20225 58011 87360 87075=
201911041200 AAXX 04124 67625 42982 50609 10380 20093 48/// 83104
                   333 5//// 83858 85075=
201911040600 AAXX 04064 67625 32982 70910 10268 20143 48/// 83034
                   333 10370 20199 59006 83361 87075=
201911011200 AAXX 01124 67625 42982 70312 10360 20088 48/// 81034
                   333 81360 87075=
201911010600 AAXX 01064 67625 32982 71510 10265 20145 48/// 80004
                   333 10365 20199 5//// 87075=

################################################################################
#  SYNOPS from 67633, Mongu (Zambia) | 15-15S | 023-09E | 1052 m
################################################################################
201911290900 AAXX 29094 67633 NIL=
201911290600 AAXX 29064 67633 NIL=
201911281200 AAXX 28124 67633 41780 60906 10299 20163 48498 71792 85202
                   333 58010 81950 84850 83080 91014=
201911280600 AAXX 28064 67633 32980 50804 10235 20179 48510 83032
                   333 10321 20195 58004 83360 85080
                   555 00188 91016=
201911271200 AAXX 27124 67633 NIL=
201911270900 AAXX 27094 67633 NIL=
201911270600 AAXX 27064 67633 NIL=
201911251200 AAXX 25124 67633 42680 50902 10318 20187 48508 85202
                   333 5//// 81940 84840 82080 91015=
201911250900 AAXX 25094 67633 42680 50603 10260 20196 48524 83232
                   333 5//// 83830 83360 82080 91018=
201911220900 AAXX 22094 67633 42680 60902 10290 20199 48510 82132
                   333 59006 82840 84360 85080 91015=
201911220600 AAXX 22064 67633 32980 73602 10235 20194 48500 8707/
                   333 10331 20216 59018 87360
                   555 00215 91015=
201911211200 AAXX 21124 67633 NIL=
201911210600 AAXX 21064 67633 32980 73604 10241 20189 48519 8707/
                   333 10322 20225 58002 82660 85360
                   555 00224 91017=
201911201200 AAXX 20124 67633 42680 52702 10312 20193 48510 85200
                   333 58033 85830 91016=
201911200900 AAXX 20094 67633 42680 73602 10270 20193 48524 82130
                   333 58008 82830 87360 91017=
201911200600 AAXX 20064 67633 12980 73601 10223 20204 48506 69904 81530
                   333 10341 20210 58007 81610 87360
                   555 00209 91017=
201911191200 AAXX 19124 67633 42680 43604 10320 20188 48482 83202
                   333 58002 81940 83840 82080 91012=
201911190600 AAXX 19064 67633 12980 73612 10226 20191 48504 60194 86078
                   333 10332 20186 58013 86460 86280
                   555 00190 91016=
201911181200 AAXX 18124 67633 41680 63606 10213 20202 48476 79596 86232
                   333 59005 81940 85840 82080 91012=
201911151200 AAXX 15124 67633 41680 73613 10305 20189 48464 79199 85202
                   333 59021 81940 84840 85080 91010=
201911150600 AAXX 15064 67633 32980 63002 10225 20199 48485 86032
                   333 10359 20225 59021 86360 84080
                   555 00216 20000 91014=
201911141200 AAXX 14124 67633 42680 43605 10335 20159 48487 70322 83230
                   333 58000 83845 83360 91012=
201911140900 AAXX 14094 67633 42980 53603 10310 20180 48520 84032
                   333 58006 84360 81080 91016=
201911140600 AAXX 14064 67633 12980 62702 10217 20185 48504 69904 70222 86070
                   333 10337 20195 58002 86460
                   555 00190 20990 91016=
201911121200 AAXX 12124 67633 41680 50907 10325 20150 48483 71792 81900
                   333 5//// 81930 84830
                   555 91013=
201911120900 AAXX 12094 67633 42680 40410 10305 20171 48510 82131
                   333 59010 82830 82360 84080 91015=
201911120600 AAXX 12064 67633 32980 53602 1//// 20177 48492 85030
                   333 10331 20220 59011 85360
                   555 00190 91015=
201911110900 AAXX 11094 67633 42680 53604 10263 20188 48513 85200
                   333 59026 85840 91016=
201911080600 AAXX 08064 67633 NIL=
201911060900 AAXX 06094 67633 NIL=
201911050900 AAXX 05094 67633 NIL=
201911050600 AAXX 05064 67633 NIL=
201911040600 AAXX 04064 67633 32980 20910 10293 20144 48537 82030
                   333 10376 20195 59010 82360
                   555 00200=
201911010600 AAXX 01064 67633 12980 40905 10273 20151 48534 69904 84030
                   333 10373 20222 58018 84360
                   555 00200 91020=

################################################################################
#  SYNOPS from 67641, Kaoma (Zambia) | 14-48S | 024-48E | 1213 m
################################################################################
201911290900 AAXX 29094 67641 NIL=
201911290600 AAXX 29064 67641 12980 73601 10225 20204 48505 60014 87030
                   333 10309 20204 58001 87360 91016=
201911281200 AAXX 28124 67641 NIL=
201911280600 AAXX 28064 67641 12980 70802 10219 20196 48503 69904 83038
                   333 10322 20192 58008 83360 86280 91016=
201911271200 AAXX 27124 67641 NIL=
201911270900 AAXX 27094 67641 NIL=
201911270600 AAXX 27064 67641 NIL=
201911260600 AAXX 26064 67641 11580 83502 10174 20174 48510 60254 79596 8197/
                   333 10316 20174 58009 81920 87460 91017=
201911250600 AAXX 25064 67641 12980 70701 10214 20182 48507 69904 87030
                   333 10311 20194 59005 87360 91016=
201911220900 AAXX 22094 67641 42980 71704 10246 20194 48498 8707/
                   333 59006 87360 91015=
201911220600 AAXX 22064 67641 12980 70000 10224 20197 48496 60014 8707/
                   333 10300 20203 59005 87360 91015=
201911211200 AAXX 21124 67641 NIL=
201911210600 AAXX 21064 67641 32980 70000 10248 20194 48504 87030
                   333 10340 20220 58504 87360 91015=
201911201200 AAXX 20124 67641 NIL=
201911200900 AAXX 20094 67641 NIL=
201911200600 AAXX 20064 67641 12980 70801 10207 20191 48492 60014 8703/
                   333 10336 20195 58000 87360 91015=
201911151200 AAXX 15124 67641 NIL=
201911150600 AAXX 15064 67641 NIL=
201911120900 AAXX 12094 67641 NIL=
201911120600 AAXX 12064 67641 NIL=
201911110900 AAXX 11094 67641 NIL=
201911080600 AAXX 08064 67641 32980 42904 10255 20169 48528 84030
                   333 10370 20216 58019 84360
                   555 00/// 20000 91018=
201911060900 AAXX 06094 67641 NIL=
201911060600 AAXX 06064 67641 12980 13502 10216 20187 48514 60074 81030
                   333 10337 20184 59002 81360 91017=
201911051200 AAXX 05124 67641 41656 73406 10196 20183 48501 79589 8297/
                   333 58014 82944 84846 86360 91016=
201911050900 AAXX 05094 67641 41670 70403 10316 20164 48526 70522 8113/
                   333 58006 81846 87360 91017=
201911050600 AAXX 05064 67641 31970 50602 10275 20146 48525 70522 85080
                   333 10384 20218 59004 85358 91017=
201911041200 AAXX 04124 67641 41675 71205 10366 20128 48506 70521 8426/
                   333 59002 84848 84360 91014=
201911040600 AAXX 04064 67641 31970 10403 10270 20153 48525 70500 81030
                   333 10387 20197 58001 81361 91018=
201911010600 AAXX 01064 67641 32980 00204 10260 20126 48524
                   333 10377 20192 58011 91018=

################################################################################
#  SYNOPS from 67655, Mumbwa (Zambia) | 15-04S | 027-11E | 1216 m
################################################################################
201911290900 AAXX 29094 67655 41580 70915 10265 20184 48531 70500 872//
                   333 58003 87825 91019=
201911290600 AAXX 29064 67655 31480 70610 10226 20181 48532 70500 8313/
                   333 1//// 20191 58006 83820 85360 91019=
201911281200 AAXX 28124 67655 NIL=
201911280900 AAXX 28094 67655 41580 70910 10265 20184 48528 872//
                   333 58001 87830 91018=
201911280600 AAXX 28064 67655 31480 70908 10241 20187 48528 70500 85138
                   333 1//// 20195 58004 85820 84360 87280 91019=
201911271200 AAXX 27124 67655 NIL=
201911270900 AAXX 27094 67655 41580 70907 10262 20178 48527 70500 872//
                   333 58001 87830 91018=
201911270600 AAXX 27064 67655 31580 70915 10250 20172 48525 70500 85208
                   333 1//// 20200 58009 85825 87280 91018=
201911260600 AAXX 26064 67655 32680 50000 10242 20171 48519 83031
                   333 10305 20131 59013 83360 84080 91017=
201911250600 AAXX 25064 67655 32980 63106 10240 20171 48527 86070
                   333 10290 20140 59004 86360 91019=
201911220600 AAXX 22064 67655 NIL=
201911211200 AAXX 21124 67655 NIL=
201911201200 AAXX 20124 67655 NIL=
201911200900 AAXX 20094 67655 NIL=
201911200600 AAXX 20064 67655 NIL=
201911151200 AAXX 15124 67655 NIL=
201911150600 AAXX 15064 67655 NIL=
201911120900 AAXX 12094 67655 NIL=
201911120600 AAXX 12064 67655 NIL=
201911110900 AAXX 11094 67655 NIL=
201911080600 AAXX 08064 67655 NIL=
201911060900 AAXX 06094 67655 NIL=
201911050900 AAXX 05094 67655 NIL=
201911050600 AAXX 05064 67655 NIL=
201911010600 AAXX 01064 67655 NIL=

################################################################################
#  SYNOPS from 67659, Kafue Polder (Zambia) | 15-46S | 027-55E | 978 m
################################################################################
201911290900 AAXX 29094 67659 42580 51007 10294 20190 48/// 84830
                   333 5//// 81630 83835 81360=
201911290600 AAXX 29064 67659 32580 5//// 10257 20188 48/// 81530
                   333 10305 20184 58004 81620 85360=
201911281200 AAXX 28124 67659 NIL=
201911271200 AAXX 27124 67659 NIL=
201911270900 AAXX 27094 67659 42580 51205 10285 20191 48/// 82230
                   333 5//// 82830 84360=
201911270600 AAXX 27064 67659 32480 60505 10241 20197 48/// 82530
                   333 10337 20178 5//// 82620 85360=
201911260600 AAXX 26064 67659 12980 20904 10240 20212 48/// 60194 81033
                   333 10388 20174 5//// 81360 82080=
201911220600 AAXX 22064 67659 32980 42502 10258 20205 48/// 81033
                   333 10336 20198 5//// 81360 84080=
201911211200 AAXX 21124 67659 42780 40502 10316 20192 48/// 83233
                   333 5//// 83250 81361 81080=
201911210600 AAXX 21064 67659 12480 70703 10226 20185 48/// 8257/
                   333 10306 20208 59015 82620 85460=
201911201200 AAXX 20124 67659 42680 63604 10294 20198 48/// 82233
                   333 58004 82835 81360 83080=
201911200900 AAXX 20094 67659 42580 72705 10258 20195 48/// 8387/
                   333 58020 81625 82830 85460=
201911200600 AAXX 20064 67659 11475 82503 10212 20196 48/// 69934 76062 8357/
                   333 10343 20202 58014 83615 86460=
201911191200 AAXX 19124 67659 42780 50302 10329 20196 48/// 83233
                   333 58010 83850 82360 81080=
201911151200 AAXX 15124 67659 41680 71210 10277 20204 48/// 71722 8357/
                   333 5//// 81945 82845 84460=
201911150900 AAXX 15094 67659 42680 43005 10310 20214 48/// 70122 81230
                   333 5//// 81840 83360=
201911150600 AAXX 15064 67659 31575 53603 10272 20214 48/// 70522
                   333 10368 20219 5//// 81825 84360
                   555 00/// 20006=
201911120900 AAXX 12094 67659 42680 60502 10314 20179 48/// 82230
                   333 5//// 82845 84361=
201911120600 AAXX 12064 67659 12580 43604 10270 20199 48/// 81230
                   333 10385 20190 5//// 81825 83360=
201911110900 AAXX 11094 67659 NIL=
201911110600 AAXX 11064 67659 31980 20904 10282 20197 48/// 69904 80001
                   333 10382 20190 5////=
201911080600 AAXX 08064 67659 NIL=
201911070600 AAXX 07064 67659 32975 00908 10300 20177 48/// 70500
                   333 10355 20200 5////=
201911060900 AAXX 06094 67659 NIL=
201911050900 AAXX 05094 67659 NIL=
201911050600 AAXX 05064 67659 32975 00908 10280 20143 48/// 70500
                   333 10370 20230 58008=
201911010600 AAXX 01064 67659 32975 01408 10282 20169 48/// 70500
                   333 10367 20242 58010=

################################################################################
#  SYNOPS from 67662, Kabwe Agric (Zambia) | 14-24S | 028-30E | 1165 m
################################################################################
201911290900 AAXX 29094 67662 NIL=
201911290600 AAXX 29064 67662 31480 70902 10223 20188 48/// 82570
                   333 10280 20158 5//// 82615 85358=
201911281200 AAXX 28124 67662 NIL=
201911271200 AAXX 27124 67662 NIL=
201911270900 AAXX 27094 67662 NIL=
201911270600 AAXX 27064 67662 11480 80904 10222 20189 48/// 69964 84570
                   333 10265 20160 5//// 84614 84360=
201911251200 AAXX 25124 67662 41680 60000 10295 20193 48/// 84272
                   333 5//// 84845 81360 81080=
201911250900 AAXX 25094 67662 41680 60000 10272 20187 48/// 84272
                   333 5//// 84837 81360 81080=
201911250600 AAXX 25064 67662 11980 40000 10231 20200 48/// 60214 82072
                   333 10292 20150 5//// 82360 82080=
201911220600 AAXX 22064 67662 NIL=
201911211200 AAXX 21124 67662 NIL=
201911201200 AAXX 20124 67662 41680 50000 10295 20201 48/// 83272
                   333 5//// 83835 81360 81080=
201911200900 AAXX 20094 67662 41680 50000 10273 20198 48/// 82270
                   333 5//// 82830 83360=
201911200600 AAXX 20064 67662 11980 70000 10220 20198 48/// 60364 87075
                   333 10315 20130 5//// 87358=
201911191200 AAXX 19124 67662 41403 83625 10342 20164 48/// 79892 883//
                   333 5//// 88915=
201911190600 AAXX 19064 67662 31980 50000 10247 20174 48/// 84072
                   333 10315 20160 5//// 84360 81080=
201911180900 AAXX 18094 67662 41580 60000 10265 20199 48/// 82272
                   333 5//// 82825 83358 81070=
201911151200 AAXX 15124 67662 NIL=
201911150600 AAXX 15064 67662 NIL=
201911120900 AAXX 12094 67662 41680 60704 10311 20175 48/// 83272
                   333 5//// 83832 82360 81080=
201911120600 AAXX 12064 67662 31980 70000 10260 20168 48/// 85072
                   333 10350 20184 5//// 85359=
201911110900 AAXX 11094 67662 41680 40405 10320 20164 48/// 83201
                   333 5//// 83830 81080=
201911110600 AAXX 11064 67662 31980 20904 10270 20171 48/// 80001
                   333 10382 20140 5//// 82080=
201911080600 AAXX 08064 67662 NIL=
201911071200 AAXX 07124 67662 41875 50000 10340 20159 48/// 70522 85200
                   333 5//// 85857=
201911061200 AAXX 06124 67662 41775 51203 10325 20136 48/// 70520 84230
                   333 5//// 84857 81360=
201911060900 AAXX 06094 67662 NIL=
201911051200 AAXX 05124 67662 41775 40908 10326 20153 48/// 70500 84100
                   333 5//// 84857=
201911050900 AAXX 05094 67662 41775 20905 10310 20155 48/// 70500 82100
                   333 5//// 82857=
201911050600 AAXX 05064 67662 31975 00903 10271 20152 48/// 70500
                   333 10365 20180 5////=
201911041200 AAXX 04124 67662 41875 30903 10347 20136 48/// 70500 83100
                   333 5//// 83857=
201911010600 AAXX 01064 67662 NIL=

################################################################################
#  SYNOPS from 67663, Kabwe (Zambia) | 14-27S | 028-28E | 1206 m
################################################################################
201911290900 AAXX 29094 67663 NIL=
201911290600 AAXX 29064 67663 12480 60706 10219 20186 48515 69904 83530
                   333 10296 20191 59012 83618 83360
                   555 00248=
201911281200 AAXX 28124 67663 NIL=
201911280600 AAXX 28064 67663 12580 70606 10208 20186 48526 60014 8553/
                   333 10287 20179 58007 85620 87360
                   555 00238=
201911271200 AAXX 27124 67663 NIL=
201911270900 AAXX 27094 67663 NIL=
201911270600 AAXX 27064 67663 12480 70705 10217 20186 48520 60024 875//
                   333 10297 20191 58008 87615=
201911220600 AAXX 22064 67663 NIL=
201911211200 AAXX 21124 67663 NIL=
201911201200 AAXX 20124 67663 NIL=
201911200900 AAXX 20094 67663 NIL=
201911200600 AAXX 20064 67663 NIL=
201911151200 AAXX 15124 67663 NIL=
201911150600 AAXX 15064 67663 31975 72640 10253 20183 48489 70522 87080
                   333 10330 20204 59024 87460
                   555 00260=
201911140600 AAXX 14064 67663 11575 50000 10248 20198 48512 69924 70522 81132
                   333 10243 20188 58003 81820 82360 83080
                   555 00252=
201911120900 AAXX 12094 67663 NIL=
201911120600 AAXX 12064 67663 31970 60905 10267 20178 48497 70522 85082
                   333 10349 20207 59008 85460 83080=
201911110900 AAXX 11094 67663 NIL=
201911080600 AAXX 08064 67663 NIL=
201911060900 AAXX 06094 67663 NIL=
201911050900 AAXX 05094 67663 NIL=
201911050600 AAXX 05064 67663 NIL=
201911010600 AAXX 01064 67663 NIL=

################################################################################
#  SYNOPS from 67665, Lusaka Internationalairport (Zambia) | 15-19S | 028-27E | 1152 m
################################################################################
201912010600 AAXX 01064 67665 32580 30711 10250 20174 48533 70300 81531
                   333 10312 20//0 59011 81620 82360 81080
                   555 00///=
201912010300 AAXX 01034 67665 42980 20805 10205 20180 48514 70300 82030
                   333 59008 82360=
201912010000 AAXX 01004 67665 42980 01002 10221 20183 48513 70200
                   333 59003=
201911302100 AAXX 30214 67665 42980 01002 10234 20163 48524
                   333 59006=
201911301800 AAXX 30184 67665 42980 51330 10256 20154 48509 70122 80008
                   333 10312 59007 85280 91017=
201911300900 AAXX 30094 67665 42580 60610 10280 20165 48539 70222 86232
                   333 59009 86830 82360 84080 91020=
201911291800 AAXX 29184 67665 41780 40404 10249 20173 48515 71300 81932
                   333 10300 59010 81956 82360 81080=
201911291500 AAXX 29154 67665 42780 41209 10291 20162 48505 81932
                   333 59011 81950 83360 81080
                   555 10300=
201911291200 AAXX 29124 67665 42680 60507 10288 20155 48522 83231
                   333 58000 81935 83840 81360 81080=
201911290900 AAXX 29094 67665 42480 70612 10272 20174 48546 70322 85431
                   333 59/// 81925 85630 86360 81080 91021=
201911290600 AAXX 29064 67665 32380 70810 10226 20182 48541 81830
                   333 1//// 2//// 58005 81815 86360=
201911281200 AAXX 28124 67665 NIL=
201911280600 AAXX 28064 67665 32580 60911 10222 20171 48540 70222 85531
                   333 10293 20199 58007 85620 82360 84080=
201911280300 AAXX 28034 67665 42980 41006 10210 20163 48526 70300 84030
                   333 58004 84360=
201911280000 AAXX 28004 67665 42/80 41005 10220 20174 48519 70200 81930
                   333 58015 819// 84360=
201911272100 AAXX 27214 67665 42980 40903 10224 20174 48528 70200 81930
                   333 58028 819// 84360=
201911271800 AAXX 27184 67665 42980 41005 10245 20159 48514 70200 84032
                   333 58010 82360 83080=
201911271200 AAXX 27124 67665 42680 60910 10283 20159 48508 70222 85232
                   333 58008 85838 82360 83080=
201911270900 AAXX 27094 67665 NIL=
201911270600 AAXX 27064 67665 32480 60911 10226 20182 48534 85520
                   333 10302 20199 58004 85620 83360 84080 91020=
201911262100 AAXX 26214 67665 42980 10000 10211 20164 48514 70100
                   333 59013=
201911261800 AAXX 26184 67665 42780 41303 10235 20174 48510 70100 81930
                   333 59005 81956 84360=
201911261500 AAXX 26154 67665 42680 51307 10283 20159 48496 70222 81931
                   333 59007 81945 84850 83360=
201911261200 AAXX 26124 67665 42680 60706 10293 20172 48509 70222 85231
                   333 59002 85835 81360 82080=
201911260900 AAXX 26094 67665 42580 50608 10268 20168 48525 70200 84232
                   333 59006 84830 81360 82080=
201911260600 AAXX 26064 67665 32480 60803 10229 20184 48530 70322 83532
                   333 10/// 20/// 59006 83610 82360 84080
                   555 00/// Q1019.8=
201911252100 AAXX 25214 67665 41980 69902 10216 20186 48528 71322 81932
                   333 58000 819// 83360 85280 91019=
201911251800 AAXX 25184 67665 42980 60000 10229 20175 48514
                   333 59005 81932 819// 83360 85080=
201911251200 AAXX 25124 67665 42680 52308 10289 20159 48511
                   333 59018 85835 84360 83080=
201911250900 AAXX 25094 67665 42580 53004 10271 20181 48540 70300 83132
                   333 59012 81825 83360 82080=
201911250600 AAXX 25064 67665 32980 52804 10228 20183 48525 84032
                   333 10275 59007 84360 82080
                   555 00///=
201911250300 AAXX 25034 67665 42980 60000 10189 20165 48513 84032
                   333 59010 84360 85279=
201911242100 AAXX 24214 67665 42980 33502 10220 20174 48528 83030
                   333 58005 83360=
201911231800 AAXX 23184 67665 41780 52804 10249 20173 48512 71322 84031
                   333 10287 58015 81950 84360 81080=
201911231500 AAXX 23154 67665 42680 40702 10273 20159 48495 81132
                   333 58065 81840 82360 83080
                   555 10287=
201911231200 AAXX 23124 67665 42680 52905 10258 20173 48510 82131
                   333 58048 82830 84360 81080=
201911230900 AAXX 23094 67665 42480 73204 10229 20176 48534 70362 85438
                   333 58023 85615 86360 87280=
201911230600 AAXX 23064 67665 11480 73607 10203 20180 48532 70266 8477/
                   333 58018 84710 87359=
201911221200 AAXX 22124 67665 42680 51005 10316 20146 48499 85231
                   333 59008 85835 82360 81080=
201911220900 AAXX 22094 67665 42680 61104 10286 20183 48519 70322 81532
                   333 59012 81630 82360 84280=
201911220600 AAXX 22064 67665 NIL=
201911211200 AAXX 21124 67665 NIL=
201911210600 AAXX 21064 67665 31560 70605 10197 20181 48531 76022 8297/
                   333 10307 20//0 58001 819// 85620 87659=
201911210300 AAXX 21034 67665 41/80 51207 10213 20178 48513 71799 81930
                   333 59013 819// 85360=
201911210000 AAXX 21004 67665 42980 22602 10218 20191 48498 70200 81930
                   333 59018 819// 82360=
201911202100 AAXX 20214 67665 42980 31202 10233 20175 48513 70222 81930
                   333 59003 81956 83360=
201911201200 AAXX 20124 67665 NIL=
201911200900 AAXX 20094 67665 NIL=
201911200600 AAXX 20064 67665 NIL=
201911200300 AAXX 20034 67665 41959 82905 10197 20197 48522 76166 85032
                   333 58016 85360 86080=
201911191800 AAXX 19184 67665 42780 51002 10259 20184 48515 70222 81932
                   333 58014 81956 83360 84080=
201911191500 AAXX 19154 67665 42780 60206 10284 20172 48489 70122 84232
                   333 58011 84850 83360 84080=
201911191200 AAXX 19124 67665 42680 60508 10314 20163 48599 70222 84232
                   333 58004 84835 84360 83080=
201911190900 AAXX 19094 67665 42680 60706 10291 20161 48529 84230
                   333 84835 82360=
201911190600 AAXX 19064 67665 32980 73106 10252 20157 48531 70222 86038
                   333 10329 20214 59003 86360 87280
                   555 00/// 91019=
201911181800 AAXX 18184 67665 42980 51313 10257 20156 48501 71322 81931
                   333 58016 819// 83360 83080=
201911181500 AAXX 18154 67665 42680 60203 10319 20129 48482 70322 85232
                   333 58005 85845 82360 84080=
201911181200 AAXX 18124 67665 42580 50005 10312 20150 48495 70222 83132
                   333 58010 83835 83360 84080=
201911180900 AAXX 18094 67665 42580 50605 10271 20173 48520 70222 82532
                   333 58012 82625 84360 83080=
201911180600 AAXX 18064 67665 32460 61209 10217 20161 48530 83532
                   333 10301 20//0 58035 83615 85360 81080
                   555 00///=
201911180000 AAXX 18004 67665 41/60 43003 10227 20165 48501 83032
                   333 58024 819// 83360 81080=
201911172100 AAXX 17214 67665 42/60 53402 10242 20165 48501 85032
                   333 58028 819// 85359 81080=
201911171800 AAXX 17184 67665 41775 63304 10255 20172 48486 70522 81938
                   333 10301 58015 81957 83360 85280 91014=
201911170600 AAXX 17064 67665 32560 73405 10222 20179 48504 84231
                   333 10//0 20//0 58011 84825 87360=
201911170300 AAXX 17034 67665 41/60 71004 10213 20173 48509 85032
                   333 58054 819// 85360 83080=
201911161800 AAXX 16184 67665 41760 53405 10244 20168 48569 71799 81932
                   333 10331 59013 81956 85359 82080=
201911161500 AAXX 16154 67665 42780 52509 10327 20138 48457 81932
                   333 58000 81950 83360 82080
                   555 10331=
201911160900 AAXX 16094 67665 42680 52811 10287 20166 48495 70122 81832
                   333 59007 81835 85361 84080 91015=
201911151200 AAXX 15124 67665 NIL=
201911150900 AAXX 15094 67665 42560 63107 10280 20188 48502 70196 81932
                   333 59026 81925 85360 82080=
201911150600 AAXX 15064 67665 31459 73101 10247 20203 48504 76092
                   333 10253 20217 59022 819// 85360 84080=
201911140600 AAXX 14064 67665 12880 61302 10238 20193 48528 60014 70222 82032
                   333 10261 20179 59010 82360 85080=
201911140300 AAXX 14034 67665 42980 51903 10203 20187 48511 70300 85030
                   333 58007 85360=
201911140000 AAXX 14004 67665 42980 32802 10204 20187 48510 70200 83030
                   333 58014 83360=
201911132100 AAXX 13214 67665 42980 31903 10213 20183 48521 70200 83030
                   333 58024 83360=
201911131800 AAXX 13184 67665 42580 40304 10230 20178 48502 70200 80002
                   333 58020 84080=
201911131200 AAXX 13124 67665 42560 50704 10235 20174 48513 70122 81131
                   333 58047 81830 83360 83080=
201911130600 AAXX 13064 67665 11358 81804 10186 20180 48541 79592 8577/
                   333 10250 20185 58029 85709 819// 88709=
201911122100 AAXX 12214 67665 42960 61506 10216 20161 48499 72999 81932
                   333 58007 819// 84359 84080=
201911121800 AAXX 12184 67665 41/59 60306 10251 20200 48484 79522 81932
                   333 58000 819// 84359 84080=
201911121500 AAXX 12154 67665 42660 62304 10246 20210 48464 72999 81942
                   333 5//// 81945 85359 82080=
201911121200 AAXX 12124 67665 42680 50404 10341 20139 48483 70200 85202
                   333 58006 85835 82080=
201911120900 AAXX 12094 67665 NIL=
201911120600 AAXX 12064 67665 NIL=
201911111800 AAXX 11184 67665 42660 51203 10272 20156 48487 70200 81931
                   333 59013 819// 84360 84080=
201911111200 AAXX 11124 67665 42680 50309 10338 20113 48489 70200 85200
                   333 59012 85845=
201911110900 AAXX 11094 67665 NIL=
201911110600 AAXX 11064 67665 32980 40912 10257 20154 48520 70200
                   333 10339 20//0 59017 84279
                   555 00///=
201911110300 AAXX 11034 67665 42980 31006 10215 20152 48505 70300 80002
                   333 59011 83080=
201911110000 AAXX 11004 67665 42980 01205 10226 20136 48499 70200
                   333 59008=
201911102100 AAXX 10214 67665 42980 11206 10253 20128 48510 80001
                   333 59005 81080=
201911091800 AAXX 09184 67665 42980 10712 10286 20112 48511 81030
                   333 10362 59003 81360=
201911091500 AAXX 09154 67665 42980 21011 10343 20064 48495 82030
                   333 59006 82360 555 10362=
201911090900 AAXX 09094 67665 42780 50512 10334 20118 48540 70300 85530
                   333 59013 85650 81361 91019=
201911080900 AAXX 08094 67665 42680 30507 10312 20116 48548 83100
                   333 58011 83830=
201911080600 AAXX 08064 67665 31970 00206 10269 20123 48554 70500
                   333 10//0 20//0 58015 91021=
201911070600 AAXX 07064 67665 32980 00610 10267 20149 48539 70200
                   333 10338 20165 59012=
201911070300 AAXX 07034 67665 42980 01301 10195 20109 48514 70200
                   333 59012=
201911062100 AAXX 06214 67665 42980 01303 10221 20089 48517 70200
                   333 59013=
201911061200 AAXX 06124 67665 42660 30710 10322 20092 48515 70200 83100
                   333 5//// 91016=
201911060900 AAXX 06094 67665 NIL=
201911060600 AAXX 06064 67665 32960 01205 10244 20139 48547 70300
                   333 10340 20//0 58004 81820=
201911051500 AAXX 05154 67665 41760 31012 10322 20122 48511 70500 83200
                   333 59001 83850=
201911051200 AAXX 05124 67665 41659 41108 10326 20116 48529 70500 84200
                   333 58007 84835=
201911050900 AAXX 05094 67665 NIL=
201911050600 AAXX 05064 67665 NIL=
201911041800 AAXX 04184 67665 42980 01007 10278 20111 48522 70200
                   333 59010=
201911041500 AAXX 04154 67665 41759 41211 10325 20103 48514 70522 84200
                   333 59006 84850=
201911041200 AAXX 04124 67665 41659 50912 10341 20096 48523 70500 85200
                   333 59005 85835=
201911040900 AAXX 04094 67665 41659 20809 10327 20105 48552 70500 81102
                   333 59003 81830 82080=
201911040600 AAXX 04064 67665 31975 01108 10262 20076 48550 70500
                   333 10348 20//0 59010
                   555 00///=
201911040300 AAXX 04034 67665 42980 01405 10209 20094 48525 70200
                   333 59004=
201911040000 AAXX 04004 67665 42980 01502 10210 20096 48516 70200
                   333 59006=
201911031500 AAXX 03154 67665 41775 60712 10333 20075 48517 70522 86200
                   333 58006 86856=
201911031200 AAXX 03124 67665 41675 61010 10336 20082 48528 70511 86200
                   333 59006 86845 91018=
201911030900 AAXX 03094 67665 42980 10709 10300 20111 48551 70200 81300
                   333 58000 82830=
201911021800 AAXX 02184 67665 42980 01010 10273 20104 48526 70200
                   333 10336 59005=
201911021500 AAXX 02154 67665 42980 20809 10320 20094 48512 82030
                   333 59009 82360=
201911021200 AAXX 02124 67665 42759 40609 10315 20086 48530 84200
                   333 59001=
201911020900 AAXX 02094 67665 41775 10713 10297 20126 48551 70500 81100
                   333 59004 81856 91021=
201911020600 AAXX 02064 67665 32960 00914 10247 20143 48551 70200
                   333 59003 91021=
201911010900 AAXX 01094 67665 42675 20713 10302 20112 48560 82100
                   333 58013 81848=
201911010600 AAXX 01064 67665 NIL=

################################################################################
#  SYNOPS from 67666, Lusaka City Airport (Zambia) | 15-25-00S | 028-28-00E | 1280 m
################################################################################
201911290900 AAXX 29094 67666 42680 60912 10244 20163 48532 862//
                   333 58003 86835 91020=
201911290600 AAXX 29064 67666 32480 70910 10220 20166 48531 8157/
                   333 10280 20212 58005 81615 87460 91021=
201911281200 AAXX 28124 67666 NIL=
201911271200 AAXX 27124 67666 42680 60908 10270 20162 48503 86200
                   333 58006 86835 91016=
201911270900 AAXX 27094 67666 42580 51006 10250 20165 48526 85230
                   333 58002 85820 81360 91019=
201911270600 AAXX 27064 67666 12480 50915 10212 20182 48521 69914 84631
                   333 10292 20203 58005 84710 81360 81080 91019=
201911260600 AAXX 26064 67666 12980 30304 10228 20186 48513 60064 83070
                   333 10291 20198 59010 83458 91018=
201911250900 AAXX 25094 67666 42680 72702 10272 20180 48531 84371
                   333 59010 81930 84230 81360 82080 91019=
201911250600 AAXX 25064 67666 32980 72706 10222 20173 48531 87070
                   333 10277 2//// 59001 87359 91020=
201911220600 AAXX 22064 67666 31978 60907 10239 20193 48513 70500 82032
                   333 10310 20192 59010 82359 84080 91017=
201911211200 AAXX 21124 67666 NIL=
201911210600 AAXX 21064 67666 11980 80000 10190 20190 48519 69904 8807/
                   333 10300 20191 59003 88459 91019=
201911201200 AAXX 20124 67666 NIL=
201911200900 AAXX 20094 67666 NIL=
201911200600 AAXX 20064 67666 12980 82704 10214 20180 48527 60044 8807/
                   333 10319 20194 58005 88460 91019=
201911190600 AAXX 19064 67666 32980 70000 10226 20156 48523 8707/
                   333 10317 20216 58002 87459 91019=
201911151200 AAXX 15124 67666 NIL=
201911150600 AAXX 15064 67666 32680 70000 10260 20185 48495 8137/
                   333 10312 20201 59024 81930 87459
                   555 91016=
201911140900 AAXX 14094 67666 42680 60907 10280 20156 48519 70222 81931
                   333 5//// 81910 82832 81360 82080 91018=
201911130600 AAXX 13064 67666 11370 80805 10180 20176 48528 60424 79521 8197/
                   333 10328 20179 58030 81910 88708 82810 81360
                   91020=
201911120900 AAXX 12094 67666 NIL=
201911120600 AAXX 12064 67666 12980 70705 10258 20156 48506 69904 8707/
                   333 10336 20230 59008 87459 91016=
201911110900 AAXX 11094 67666 NIL=
201911080600 AAXX 08064 67666 32980 00512 10270 20123 48545 70500
                   333 10336 20190 58012
                   555 00/// 20000 91021=
201911070600 AAXX 07064 67666 31950 00807 10258 20134 48532 70700
                   333 10322 20218 59009 91019=
201911060900 AAXX 06094 67666 41770 21812 10282 20116 48533 70722 82200
                   333 59008 82850 91019=
201911060600 AAXX 06064 67666 31970 01011 10238 20141 48539
                   333 10325 20198 59008 91020=
201911050900 AAXX 05094 67666 NIL=
201911050600 AAXX 05064 67666 NIL=
201911040600 AAXX 04064 67666 31975 10911 10270 20095 48544 70500 80001
                   333 10350 20214 59033 81080 91021=
201911010600 AAXX 01064 67666 31980 00915 10251 20139 48548 70600
                   333 10344 20210 58010=

################################################################################
#  SYNOPS from 67667, Mount Makulu (Zambia) | 15-33S | 028-15E | 1213 m
################################################################################
201911290900 AAXX 29094 67667 42680 60912 10260 20187 48573 86202
                   333 59004 86830 82080=
201911290600 AAXX 29064 67667 32580 72706 10228 20190 48/// 83108
                   333 10316 20204 5//// 83825 87280=
201911281200 AAXX 28124 67667 NIL=
201911280600 AAXX 28064 67667 32580 72704 10234 20172 48/// 87500
                   333 10314 20204 5//// 87625 81080=
201911271200 AAXX 27124 67667 NIL=
201911270900 AAXX 27094 67667 NIL=
201911270600 AAXX 27064 67667 32580 42401 10235 20189 48/// 84101
                   333 10336 20200 5//// 84825 81080=
201911221200 AAXX 22124 67667 41680 60903 10319 20198 48519 71522 85203
                   333 5//// 81950 85835 85080=
201911220900 AAXX 22094 67667 42680 61402 10299 20201 48/// 81102
                   333 5//// 81830 86080=
201911220600 AAXX 22064 67667 32580 70903 10255 20199 48/// 81108
                   333 10334 20192 5//// 81825 87280=
201911211200 AAXX 21124 67667 NIL=
201911210600 AAXX 21064 67667 12980 80905 10210 20181 48/// 60134 80008
                   333 10320 20175 5//// 88280=
201911201200 AAXX 20124 67667 NIL=
201911200900 AAXX 20094 67667 42580 72602 10242 20200 48565 84102
                   333 5//// 84825 86080=
201911200600 AAXX 20064 67667 12580 72401 10205 20197 48569 60024 82508
                   333 10350 20190 5//// 82620 87280=
201911190600 AAXX 19064 67667 32980 72702 10234 20188 48/// 82038
                   333 10343 20208 5//// 82360 87280=
201911181200 AAXX 18124 67667 42980 41703 10314 20212 48512 83102
                   333 5//// 83840 84080=
201911180900 AAXX 18094 67667 42980 63503 10290 20189 48545 82102
                   333 5//// 82830 86080=
201911151200 AAXX 15124 67667 41680 71808 10260 20195 48503 71522 86208
                   333 5//// 81950 86835 87200=
201911150600 AAXX 15064 67667 12980 73501 10256 20212 48362 60064 80008
                   333 10330 20205 5//// 87280
                   555 00/// 20009=
201911141200 AAXX 14124 67667 42675 60901 10294 20210 84203
                   333 5//// 81950 84835 85080=
201911140900 AAXX 14094 67667 42675 72603 10269 20194 48548 86202
                   333 5//// 86830 86080=
201911140600 AAXX 14064 67667 12975 71802 10250 20200 48566 60094 80008
                   333 10260 20184 5//// 87280
                   555 00/// 20025=
201911121200 AAXX 12124 67667 41760 73304 10264 20170 48531 70500 87500
                   333 58006 85630 84835=
201911120900 AAXX 12094 67667 NIL=
201911120600 AAXX 12064 67667 31760 42701 10276 20179 48/// 70500 81101
                   333 10360 20210 5//// 81830 81080=
201911110900 AAXX 11094 67667 NIL=
201911080600 AAXX 08064 67667 NIL=
201911070600 AAXX 07064 67667 31960 00915 10270 20168 48/// 70500
                   333 10366 20218 5////=
201911060900 AAXX 06094 67667 NIL=
201911060600 AAXX 06064 67667 31960 02704 1//// 20161 48/// 70500
                   333 10354 20198 5////=
201911050900 AAXX 05094 67667 NIL=
201911050600 AAXX 05064 67667 31960 02906 10261 20133 48/// 70500
                   333 10380 20224 5////=
201911010600 AAXX 01064 67667 31960 00912 10260 20156 48580 70500
                   333 10380 20224 5////=

################################################################################
#  SYNOPS from 67673, Petauke (Zambia) | 14-15S | 031-17E | 1035 m
################################################################################
201911290900 AAXX 29094 67673 NIL=
201911290600 AAXX 29064 67673 12580 63603 10234 20200 48/// 60124 84131
                   333 10270 20185 5//// 84825 86360 84080=
201911281200 AAXX 28124 67673 NIL=
201911271200 AAXX 27124 67673 NIL=
201911270900 AAXX 27094 67673 42680 60802 10260 20200 48/// 86231
                   333 5//// 83832 85360 84080=
201911270600 AAXX 27064 67673 32580 70802 10235 20190 48/// 8463/
                   333 10255 20206 5//// 84520 83360=
201911220600 AAXX 22064 67673 NIL=
201911211200 AAXX 21124 67673 NIL=
201911201200 AAXX 20124 67673 42680 63001 10324 20188 48/// 86201
                   333 5//// 81940 86840 84080=
201911200900 AAXX 20094 67673 42680 40000 10310 20192 48/// 84201
                   333 5//// 81935 84835 83080=
201911200600 AAXX 20064 67673 12580 40402 10270 20198 48/// 60034 82131
                   333 10336 20195 5//// 82830 83360 84080=
201911151200 AAXX 15124 67673 NIL=
201911150600 AAXX 15064 67673 NIL=
201911120900 AAXX 12094 67673 NIL=
201911120600 AAXX 12064 67673 12975 10203 10290 20172 48/// 60024 70500 80001
                   333 10352 20215 5//// 81080=
201911111200 AAXX 11124 67673 42680 60000 10350 20175 48/// 86200
                   333 5//// 86837=
201911110900 AAXX 11094 67673 NIL=
201911110600 AAXX 11064 67673 32980 20802 10270 20162 48/// 80001
                   333 10346 20205 5//// 82080=
201911080600 AAXX 08064 67673 NIL=
201911070600 AAXX 07064 67673 31960 00803 10270 20155 48/// 70500
                   333 10340 20200 5////=
201911060900 AAXX 06094 67673 NIL=
201911050900 AAXX 05094 67673 31659 52704 10296 20160 48/// 70522 83230
                   333 5//// 83830 82360=
201911050600 AAXX 05064 67673 31959 00903 10260 20132 48/// 70500
                   333 10355 20210 5////=
201911040600 AAXX 04064 67673 31959 03602 10255 20165 48/// 70500
                   333 10360 20190 5////=
201911010600 AAXX 01064 67673 31959 00805 10260 20171 48/// 70500
                   333 10368 20215 5////=

################################################################################
#  SYNOPS from 67731, Senanga (Zambia) | 16-06S | 023-16E | 1027 m
################################################################################
201911290900 AAXX 29094 67731 42480 709// 10295 20173 48/// 84100
                   333 5//// 84824=
201911290600 AAXX 29064 67731 32480 212// 10244 20157 48/// 82100
                   333 10349 20197 5//// 82815
                   555 00096=
201911281200 AAXX 28124 67731 NIL=
201911280600 AAXX 28064 67731 32480 726// 10251 20181 48/// 83102
                   333 10332 20194 5//// 83817 84080
                   555 00092=
201911271200 AAXX 27124 67731 42580 627// 10329 20182 48/// 82951
                   333 59035 82923 82825 82362 82080=
201911270900 AAXX 27094 67731 42480 521// 10304 20187 48/// 82250
                   333 59023 82818 83360=
201911270600 AAXX 27064 67731 32980 115// 10268 20184 48/// 81010
                   333 10291 20183 59011 81460
                   555 00094=
201911260600 AAXX 26064 67731 12980 817// 10203 20194 48/// 60114 70226 87039
                   333 10346 20192 5//// 87360 88180
                   555 00072=
201911251200 AAXX 25124 67731 42680 527// 10331 20189 48/// 84202
                   333 5//// 84840 83080=
201911250600 AAXX 25064 67731 12480 401// 10236 20193 48/// 69924 83102
                   333 10338 20194 5//// 83818 84080
                   555 00079=
201911220900 AAXX 22094 67731 42680 333// 10303 20187 48/// 82250
                   333 5//// 82830 81362=
201911220600 AAXX 22064 67731 12580 502// 10243 20198 48/// 69954 83250
                   333 10342 20225 5//// 82825 83360
                   555 00072=
201911211200 AAXX 21124 67731 NIL=
201911210600 AAXX 21064 67731 12480 631// 10231 20175 48/// 69904 83538
                   333 10336 20177 58013 83617 85360 85280
                   555 00077=
201911201200 AAXX 20124 67731 42680 528// 10331 20176 48/// 84202
                   333 5//// 81933 84845 85080=
201911200900 AAXX 20094 67731 NIL=
201911200600 AAXX 20064 67731 12480 701// 10233 20164 48/// 69924 83528
                   333 10355 20179 5//// 83615 85460 86280
                   555 00081=
201911191200 AAXX 19124 67731 42680 320// 10337 20196 48/// 81201
                   333 59009 81830 82080=
201911190600 AAXX 19064 67731 12980 422// 10244 20196 48/// 60134 82031
                   333 10345 20201 5//// 82360 83080
                   555 00097=
201911151200 AAXX 15124 67731 42680 318// 10357 20180 48/// 70122 83200
                   333 5//// 83833 555 5////=
201911150600 AAXX 15064 67731 32980 320// 10258 20189 48/// 70222 81051
                   333 10351 20230 59027 81360 82080
                   555 00082 20162=
201911140900 AAXX 14094 67731 42980 129// 10273 20198 48/// 70100 81050
                   333 5//// 81365=
201911121200 AAXX 12124 67731 41680 627// 10338 20190 48/// 71399 81902
                   333 58005 81930 84840 85080=
201911120900 AAXX 12094 67731 NIL=
201911120600 AAXX 12064 67731 32480 732// 10244 20165 48/// 83538
                   333 10349 20231 59015 83615 85360 86280
                   555 00119=
201911111200 AAXX 11124 67731 42680 416// 10333 20168 48/// 82251
                   333 59008 82835 82365 81080=
201911110900 AAXX 11094 67731 42580 530// 10319 20182 48/// 84250
                   333 59023 84825 81365=
201911110600 AAXX 11064 67731 32980 218// 10246 20175 48/// 81031
                   333 10315 20185 59006 81362 81080
                   555 00078=
201911080600 AAXX 08064 67731 NIL=
201911070600 AAXX 07064 67731 32980 017// 10288 20174 48///
                   333 10365 20202 5////
                   555 00107=
201911061200 AAXX 06124 67731 42980 419// 10342 20172 48/// 82201
                   333 59032 82832 82080=
201911060900 AAXX 06094 67731 42580 225// 10312 20187 48/// 81201
                   333 59021 81825 81080=
201911060600 AAXX 06064 67731 12980 229// 10253 20177 48/// 60024 80008
                   333 10358 20197 59002 82080
                   555 00073=
201911050900 AAXX 05094 67731 NIL=
201911050600 AAXX 05064 67731 12480 721// 10229 20144 48/// 69904 84532
                   333 10374 20181 5//// 84615 86360 85080
                   555 00141=
201911040600 AAXX 04064 67731 32980 033// 10234 20119 48///
                   333 10370 20179 5////
                   555 00104=
201911010900 AAXX 01094 67731 42680 507// 10321 20197 48/// 84102
                   333 5//// 84834 82080=
201911010600 AAXX 01064 67731 12480 712// 10238 20179 48/// 60034 76366 83538
                   333 10419 20218 5//// 83618 84360 86280
                   555 00119=

################################################################################
#  SYNOPS from 67741, Sesheke (Zambia) | 17-28S | 024-18E | 949 m
################################################################################
201911290900 AAXX 29094 67741 42680 30902 10316 20171 48539 83100
                   333 58002 83850=
201911290600 AAXX 29064 67741 32980 10802 10276 20187 48541 81030
                   333 10342 20196 58003 81362=
201911281200 AAXX 28124 67741 NIL=
201911280900 AAXX 28094 67741 42680 50000 10304 20184 48535 85101
                   333 58005 85850 81080=
201911280600 AAXX 28064 67741 32980 11401 10256 20193 48527 80001
                   333 10338 20188 58004 81080=
201911271200 AAXX 27124 67741 NIL=
201911270900 AAXX 27094 67741 NIL=
201911270600 AAXX 27064 67741 12980 10901 10256 20196 48527 60044 80001
                   333 10346 20193 59005 81080=
201911260600 AAXX 26064 67741 12980 50000 10244 20178 48523 60054 85030
                   333 10351 20197 58000 85362=
201911250900 AAXX 25094 67741 42680 20101 10306 20195 48537 82130
                   333 5//// 82850 81362=
201911250600 AAXX 25064 67741 12980 13601 10244 20197 48523 60024 81030
                   333 10341 20197 5//// 81362=
201911220600 AAXX 22064 67741 12980 51401 10229 20185 48512 60354 85030
                   333 10360 20190 58004 85362=
201911211200 AAXX 21124 67741 NIL=
201911210600 AAXX 21064 67741 32980 33501 10282 20186 48512 83030
                   333 10314 20227 59018 83362=
201911201200 AAXX 20124 67741 NIL=
201911200900 AAXX 20094 67741 42980 73602 10254 20185 48516 8707/
                   333 58016 87462=
201911200600 AAXX 20064 67741 12980 70801 10248 20192 48525 69904 8707/
                   333 10342 20226 58013 87462=
201911191200 AAXX 19124 67741 41680 63602 10274 20191 48490 71796 81970
                   333 5//// 81940 86460=
201911190900 AAXX 19094 67741 42680 52702 10324 20186 48519 85130
                   333 5//// 85850 81362=
201911151200 AAXX 15124 67741 42680 50000 10354 20//0 48/// 84230
                   333 5//// 84850 82362=
201911150600 AAXX 15064 67741 32980 73601 10274 20181 48490 8707/
                   333 10342 20224 59041 87362
                   555 00/// 20990=
201911120900 AAXX 12094 67741 NIL=
201911120600 AAXX 12064 67741 32980 20601 10268 20186 48510 82030
                   333 10390 20164 5//// 82362=
201911110900 AAXX 11094 67741 NIL=
201911080600 AAXX 08064 67741 NIL=
201911060900 AAXX 06094 67741 NIL=
201911050900 AAXX 05094 67741 NIL=
201911050600 AAXX 05064 67741 NIL=
201911040600 AAXX 04064 67741 32980 50902 10268 20141 48539 85030
                   333 10361 20177 59015 85362=
201911011200 AAXX 01124 67741 42680 31302 10350 20119 48525 82130
                   333 5//// 82850 82362=
201911010600 AAXX 01064 67741 12980 60000 10239 20196 48542 60014 86030
                   333 10383 20207 58017 86362=

################################################################################
#  SYNOPS from 67743, Livingstone (Zambia) | 17-49S | 025-49E | 985 m
################################################################################
201911290900 AAXX 29094 67743 42680 50711 10314 20178 48540 84130
                   333 58006 84845 81359 91018=
201911290600 AAXX 29064 67743 NIL=
201911281200 AAXX 28124 67743 NIL=
201911271200 AAXX 27124 67743 NIL=
201911270900 AAXX 27094 67743 NIL=
201911270600 AAXX 27064 67743 32980 11111 10271 20183 48531 81030
                   333 10380 20214 58000 81360 91018=
201911250600 AAXX 25064 67743 31975 21205 10272 20192 48521 70500 82030
                   333 10341 20210 59003 82360 91018=
201911220600 AAXX 22064 67743 31959 61703 10245 20202 48516 70500 86030
                   333 10347 20210 58006 86359 91017=
201911211200 AAXX 21124 67743 NIL=
201911210900 AAXX 21094 67743 41975 70209 10302 20166 48517 70222 8117/
                   333 59022 81843 85458 86360 91016=
201911210600 AAXX 21064 67743 11960 60805 10245 20199 48520 69904 72162 8607/
                   333 10330 20223 59020 85458 86360 91016=
201911201200 AAXX 20124 67743 42680 73610 10281 20176 48537 83830
                   333 58028 81630 83835 86360 91018=
201911200900 AAXX 20094 67743 NIL=
201911200600 AAXX 20064 67743 32680 70903 10231 20200 48527 81121
                   333 10360 20207 58021 81848 86459 91018=
201911190600 AAXX 19064 67743 31959 40107 10281 20194 48514 70500 82031
                   333 10357 20200 58014 82360 83080 91016=
201911181200 AAXX 18124 67743 42760 71713 10254 20154 48491 87201
                   333 58048 87850 81080 91013=
201911151200 AAXX 15124 67743 NIL=
201911150600 AAXX 15064 67743 NIL=
201911140600 AAXX 14064 67743 11959 50401 10220 20205 48517 69904 70522 85070
                   333 10283 20200 58012 82457 85360
                   555 00/// 20000 91017=
201911120900 AAXX 12094 67743 41659 60903 10254 20212 48504 70522 81131
                   333 58000 81830 85360 85080 91015=
201911120600 AAXX 12064 67743 11559 81404 10210 20195 48494 60014 76062 8357/
                   333 10342 20199 59017 83620 88459 91015=
201911111200 AAXX 11124 67743 41760 43414 10336 20154 48499 70522 82230
                   333 59035 82850 83360 91013=
201911110900 AAXX 11094 67743 NIL=
201911080600 AAXX 08064 67743 NIL=
201911070600 AAXX 07064 67743 31959 01404 10277 20099 48527 70500
                   333 10370 20199 59016 91017=
201911060900 AAXX 06094 67743 41759 10507 10318 20129 48539 70500 81100
                   333 59011 81850 91018=
201911060600 AAXX 06064 67743 31959 00309 10267 20118 48541 70500
                   333 10367 20189 5//// 91019=
201911050900 AAXX 05094 67743 41959 00714 10321 20089 48552 70500
                   333 58010 91019=
201911050600 AAXX 05064 67743 11959 11114 10280 20069 48552 69904 70500 81030
                   333 10373 20219 58010 81360 91020=
201911010600 AAXX 01064 67743 NIL=

################################################################################
#  SYNOPS from 67751, Magoye (Zambia) | 16-00S | 027-36E | 1018 m
################################################################################
201911290900 AAXX 29094 67751 NIL=
201911290600 AAXX 29064 67751 32980 60705 10246 20191 86030
                   333 10310 20211 5//// 86360=
201911281200 AAXX 28124 67751 NIL=
201911280600 AAXX 28064 67751 32580 40607 10245 20182 48/// 82201
                   333 10318 20195 5//// 82825 83080=
201911271200 AAXX 27124 67751 NIL=
201911270900 AAXX 27094 67751 NIL=
201911270600 AAXX 27064 67751 32780 70405 10250 20184 48/// 84530
                   333 10309 20205 5//// 84627 83360=
201911260600 AAXX 26064 67751 12980 40000 10250 20191 60064 80001
                   333 10327 20187 5//// 84080=
201911220600 AAXX 22064 67751 32980 60000 10247 20208 48/// 81036
                   333 10316 20207 5//// 81360 85280=
201911211200 AAXX 21124 67751 NIL=
201911210600 AAXX 21064 67751 32980 80302 10236 20184 48/// 8807/
                   333 10300 20215 5//// 88360=
201911201200 AAXX 20124 67751 NIL=
201911200900 AAXX 20094 67751 42980 72603 10241 20196 48/// 87030
                   333 59013 87360=
201911200600 AAXX 20064 67751 NIL=
201911190600 AAXX 19064 67751 32980 70000 10241 20195 48/// 8707/
                   333 10331 20212 5//// 87368=
201911151200 AAXX 15124 67751 NIL=
201911150600 AAXX 15064 67751 32980 60000 10260 20216 86030
                   333 20321 5//// 86360
                   555 00/// 20086=
201911120900 AAXX 12094 67751 NIL=
201911120600 AAXX 12064 67751 32980 41803 10281 20180 48/// 82071
                   333 10346 20243 5//// 82360 83080=
201911110900 AAXX 11094 67751 NIL=
201911080600 AAXX 08064 67751 11975 00304 10285 20155 48/// 70500
                   333 10365 20188 5////
                   555 00/// 20000=
201911060900 AAXX 06094 67751 NIL=
201911050900 AAXX 05094 67751 NIL=
201911050600 AAXX 05064 67751 NIL=
201911040600 AAXX 04064 67751 31975 00809 10288 20112 48/// 70500
                   333 10366 20196 5////=
201911010600 AAXX 01064 67751 31975 01112 10285 20135 48/// 70500
                   333 10375 20223 5////=

################################################################################
#  SYNOPS from 67753, Choma (Zambia) | 16-50S | 027-04E | 1213 m
################################################################################
201911290900 AAXX 29094 67753 NIL=
201911290600 AAXX 29064 67753 31680 32005 10240 20171 48533 83030
                   333 10299 20184 58006 83830=
201911281200 AAXX 28124 67753 NIL=
201911271200 AAXX 27124 67753 NIL=
201911270900 AAXX 27094 67753 NIL=
201911270600 AAXX 27064 67753 31480 42605 10235 20176 48523 83230
                   333 10325 20198 58010 83825 81380=
201911260600 AAXX 26064 67753 31980 10000 10240 20179 48513 81030
                   333 10330 20194 59013 81360=
201911250600 AAXX 25064 67753 31980 10000 10245 20180 48533 69904 81030
                   333 10290 20186 59002 81360=
201911220600 AAXX 22064 67753 31980 80000 10227 20188 48513 8803/
                   333 10290 20186 59005 88360=
201911211200 AAXX 21124 67753 NIL=
201911210600 AAXX 21064 67753 11980 72503 10236 20168 48513 60034 87030
                   333 10306 20198 59015 87360=
201911201200 AAXX 20124 67753 NIL=
201911200900 AAXX 20094 67753 NIL=
201911200600 AAXX 20064 67753 11980 80000 10216 20194 48531 60014 8803/
                   333 10324 20194 58017 88360=
201911151200 AAXX 15124 67753 NIL=
201911150600 AAXX 15064 67753 31980 70000 10251 20192 48495 70200 8705/
                   333 10305 20210 59033 87390
                   555 00///=
201911120900 AAXX 12094 67753 NIL=
201911120600 AAXX 12064 67753 11980 70000 10216 20186 48502 69904 72022 87030
                   333 10315 20200 59012 87360=
201911110900 AAXX 11094 67753 NIL=
201911110600 AAXX 11064 67753 11580 50803 10231 20184 48513 60044 71792 81930
                   333 10340 20186 59011 81920 84360=
201911080600 AAXX 08064 67753 31980 00000 10276 20144 48/// 70500
                   333 10350 20200 5////
                   555 00///=
201911070600 AAXX 07064 67753 31980 03612 10270 20136 48/// 70500
                   333 10340 20182 5////=
201911060900 AAXX 06094 67753 NIL=
201911060600 AAXX 06064 67753 31980 00000 10246 20135 48/// 70500
                   333 10326 20171 5////=
201911050900 AAXX 05094 67753 NIL=
201911050600 AAXX 05064 67753 31980 10912 10258 20123 48/// 70500 80001
                   333 10356 20209 5////=
201911010600 AAXX 01064 67753 31980 32708 10242 20154 48/// 70500 81032
                   333 10325 20205 5//// 81360 82080=

################################################################################
#  SYNOPS from 67855, Lupaki (Zambia) | 17-03-00S | 024-46-00E | 1000 m
################################################################################
201911301200 AAXX 30124 67855 42775 53601 10352 20088 3//// 48/// 85200
                   333 5//// 85850=
201911300600 AAXX 30064 67855 32975 13605 10280 20162 3//// 48/// 80001
                   333 20208 5//// 81080=
201911291200 AAXX 29124 67855 42675 50301 10356 20135 3//// 48/// 85200
                   333 5//// 85840=
201911261200 AAXX 26124 67855 42775 50302 10344 20145 3//// 48/// 85200
                   333 5//// 85850=
201911260600 AAXX 26064 67855 12975 10601 10258 20175 3//// 48/// 69904 81031
                   333 20174 5//// 81360=
201911251200 AAXX 25124 67855 41670 52002 10362 20147 3//// 48/// 71792 85233
                   333 5//// 81940 84845=
201911250600 AAXX 25064 67855 12975 40601 10258 20191 3//// 48/// 60024 81031
                   333 20190 5//// 81360 84080=
201911241200 AAXX 24124 67855 42775 50101 10334 20159 3//// 48/// 85232
                   333 5//// 85840=
201911230600 AAXX 23064 67855 12975 71401 10266 20195 3//// 48/// 69904 81031
                   333 20185 5//// 81360 87080=
201911211200 AAXX 21124 67855 42775 53103 10344 20175 3//// 48/// 85232
                   333 5//// 85850=
201911210600 AAXX 21064 67855 11975 70000 10240 20189 3//// 48/// 69904 70262 8707/
                   333 20224 5//// 87459=
201911200600 AAXX 20064 67855 12975 70602 10230 20185 38/// 48/// 60094 85072
                   333 20200 5//// 85459 87080=
201911181200 AAXX 18124 67855 42775 73604 10358 20163 3//// 48/// 85232
                   333 5//// 85856 87080=
201911180600 AAXX 18064 67855 12975 73502 10266 20153 3//// 48/// 69904 81031
                   333 20218 5//// 81360=
201911171200 AAXX 17124 67855 42775 53103 10364 20128 3//// 48/// 85232
                   333 5//// 85856=
201911170600 AAXX 17064 67855 32975 10305 10286 20172 3//// 48/// 81031
                   333 20243 5//// 81360=
201911161200 AAXX 16124 67855 42775 53001 10366 20119 3//// 48/// 85200
                   333 5//// 85856=
201911160600 AAXX 16064 67855 12975 23301 10272 20168 3//// 48/// 60020 82030
                   333 20210 5//// 82360=
201911151200 AAXX 15124 67855 41775 73204 10366 20128 3//// 48/// 70381 85231
                   333 5//// 85856 87080=
201911141200 AAXX 14124 67855 42775 73301 10350 20158 3//// 48/// 85271
                   333 5//// 85856 87080=
201911140600 AAXX 14064 67855 12975 43601 10260 20163 3//// 48/// 69904 84031
                   333 20198 5//// 84360=
201911131200 AAXX 13124 67855 42675 70105 10266 20167 3//// 48/// 8707/
                   333 5//// 87360=
201911130600 AAXX 13064 67855 12975 70102 10228 20180 3//// 48/// 60034 8707/
                   333 20200 5//// 87459=
201911121200 AAXX 12124 67855 42775 50101 10332 20159 3//// 48/// 85232
                   333 5//// 85856=
201911111200 AAXX 11124 67855 42775 70103 10316 20153 3//// 48/// 83232
                   333 5//// 83856 87080=
201911110600 AAXX 11064 67855 12975 70301 10242 20160 3//// 48/// 60104 8707/
                   333 20200 5//// 87459=
201911100600 AAXX 10064 67855 12975 50302 10260 20174 3//// 48/// 60014 85072
                   333 20220 5//// 85360 83080=
201911091200 AAXX 09124 67855 41870 43306 10360 20128 3//// 48/// 70511 84230
                   333 5//// 84857=
201911090600 AAXX 09064 67855 11970 71007 10282 20148 3//// 48/// 69904 70522 8707/
                   333 20254 5//// 87459=
201911081200 AAXX 08124 67855 41870 50303 10366 20088 3//// 48/// 78181 85231
                   333 5//// 85857 83360=
201911080600 AAXX 08064 67855 31970 00103 10306 20116 3//// 48/// 70500
                   333 20179 5////=
201911071200 AAXX 07124 67855 41870 20303 10370 20083 3//// 48/// 70500 82100
                   333 5//// 82857=
201911070600 AAXX 07064 67855 31970 03605 10282 20120 3//// 48/// 70500
                   333 20170 5////=
201911061200 AAXX 06124 67855 41770 21102 10358 20095 3//// 48/// 70500 82100
                   333 5//// 82856=
201911060600 AAXX 06064 67855 31970 00105 10260 20083 3//// 48/// 70500
                   333 20156 5////=
201911050600 AAXX 05064 67855 31970 00410 10216 20108 3//// 48/// 70500
                   333 20215 5////=
201911041200 AAXX 04124 67855 41770 50104 10364 20087 3//// 48/// 70522 83230
                   333 5//// 83856 83360=
201911031200 AAXX 03124 67855 41770 50000 10350 20123 3//// 48/// 70522 83230
                   333 5//// 83856 85080=
201911030600 AAXX 03064 67855 11970 50603 10258 20130 3//// 48/// 69904 70522 85030
                   333 20170 5//// 85360=
201911011200 AAXX 01124 67855 41770 50403 10348 20153 3//// 48/// 70522 85231
                   333 5//// 85856=
