################################################################################
# Query made at 04/14/2022 02:53:24 UTC
# Country like Zamb*
# Time interval: from 08/01/2018 05:30  to 08/31/2018 06:30  UTC
################################################################################

################################################################################
#  SYNOPS from 67403, Kawambwa (Zambia) | 09-48S | 029-05E | 1323 m
################################################################################
201808280600 AAXX 28064 67403 NIL=
201808230900 AAXX 23094 67403 NIL=
201808230600 AAXX 23064 67403 NIL=
201808220600 AAXX 22064 67403 NIL=
201808170600 AAXX 17064 67403 NIL=
201808160600 AAXX 16064 67403 NIL=
201808151200 AAXX 15124 67403 NIL=

################################################################################
#  SYNOPS from 67413, Mbala (Zambia) | 08-51S | 031-20E | 1673 m
################################################################################
201808280600 AAXX 28064 67413 NIL=
201808230900 AAXX 23094 67413 NIL=
201808230600 AAXX 23064 67413 NIL=
201808220600 AAXX 22064 67413 NIL=
201808170600 AAXX 17064 67413 NIL=
201808160600 AAXX 16064 67413 NIL=
201808151200 AAXX 15124 67413 NIL=

################################################################################
#  SYNOPS from 67441, Mwinilunga (Zambia) | 11-45S | 024-26E | 1361 m
################################################################################
201808300600 AAXX 30064 67441 31970 40000 10160 20100 48571 70500 80008
                   333 10300 20//0 58002 84270=
201808280600 AAXX 28064 67441 31970 00000 10115 20073 48564 70500
                   333 10300 20//0 59007=
201808270600 AAXX 27064 67441 31970 00000 10130 20089 48571 70500
                   333 10310 20//0 58012=
201808240600 AAXX 24064 67441 31960 70000 10145 20136 48562 70522 8703/
                   333 10300 20//0 5//// 87360=
201808230900 AAXX 23094 67441 NIL=
201808230600 AAXX 23064 67441 11960 70000 10172 20162 48/// 60384 70522 8701/
                   333 10300 20//0 5//// 87460=
201808220600 AAXX 22064 67441 31965 00000 10110 20085 48558 70500
                   333 10300 20//0 59008=
201808210600 AAXX 21064 67441 31965 00000 10105 20071 48566 70500
                   333 10300 20/// 59003=
201808200600 AAXX 20064 67441 31970 00000 10145 20077 48569 70500
                   333 10295 20//0 58004=
201808170600 AAXX 17064 67441 31960 00000 10100 20066 48572 70500
                   333 10305 20/// 59004=
201808160600 AAXX 16064 67441 31960 00000 10100 20057 48576 70500
                   333 10310 20//0 5////=
201808151200 AAXX 15124 67441 NIL=
201808150600 AAXX 15064 67441 31970 00000 10130 20087 48/// 70500
                   333 10300 20//0 5////=
201808140600 AAXX 14064 67441 31965 00000 10130 20096 48574 70500
                   333 10300 20//0 59001=
201808130600 AAXX 13064 67441 31965 00000 10130 20061 48575 70500
                   333 10300 20//0 58001=

################################################################################
#  SYNOPS from 67461, Mansa (Zambia) | 11-06S | 028-51E | 1382 m
################################################################################
201808280600 AAXX 28064 67461 31958 01002 10184 20098 48534 70500
                   333 10307 20109 59004 91020=
201808270600 AAXX 27064 67461 31975 01203 10189 20100 48538 70500
                   333 10303 20123 58000 91021=
201808240900 AAXX 24094 67461 41960 41402 10254 20118 48542 70500 80001
                   333 58024 84080 91020=
201808240600 AAXX 24064 67461 31965 51002 10174 20121 48527 70522 80008
                   333 10300 20135 58015 85280 91020=
201808230900 AAXX 23094 67461 NIL=
201808230600 AAXX 23064 67461 31970 01204 10180 20130 48513 70500
                   333 10300 20130 59007 91018=
201808220600 AAXX 22064 67461 31970 01009 10178 20091 48519 70500
                   333 10282 20120 59011 91019=
201808210600 AAXX 21064 67461 31975 01007 10168 20110 48529 70500
                   333 10280 20119 58004 91020=
201808200600 AAXX 20064 67461 31975 01208 10170 20094 48532 70500
                   333 10278 20100 58005 91020=
201808170600 AAXX 17064 67461 31975 01308 10168 20090 48529 70500
                   333 10285 20108 59011 91020=
201808160600 AAXX 16064 67461 31975 00910 10174 20115 48541 70500
                   333 10280 20110 59009 91021=
201808151200 AAXX 15124 67461 NIL=
201808140600 AAXX 14064 67461 31975 00810 10180 20160 48542 70500
                   333 10289 20138 58000 91021=
201808130600 AAXX 13064 67461 31975 01108 10178 20124 48541 70500
                   333 10282 20110 58000 91021=

################################################################################
#  SYNOPS from 67469, Samfya (Zambia) | 11-22S | 029-54E | 1171 m
################################################################################
201808280600 AAXX 28064 67469 NIL=
201808230900 AAXX 23094 67469 NIL=
201808230600 AAXX 23064 67469 NIL=
201808220600 AAXX 22064 67469 NIL=
201808170600 AAXX 17064 67469 NIL=
201808160600 AAXX 16064 67469 NIL=
201808151200 AAXX 15124 67469 NIL=

################################################################################
#  SYNOPS from 67475, Kasama (Zambia) | 10-13S | 031-08E | 1382 m
################################################################################
201808301200 AAXX 30124 67475 41960 01013 10270 20049 48522 70500
                   333 59007 91020=
201808280600 AAXX 28064 67475 31960 10801 10171 20080 48539 70500
                   333 10304 20107 59005 91022=
201808240600 AAXX 24064 67475 31960 23607 10171 20122 48533 70521 80001
                   333 10292 20129 59003 82080 91021=
201808230900 AAXX 23094 67475 NIL=
201808230600 AAXX 23064 67475 31960 00804 10183 20121 48537 70500
                   333 10300 20125 59004 91022=
201808220600 AAXX 22064 67475 31960 00403 10176 20010 48541 70500
                   333 10284 20117 58010 91022=
201808200600 AAXX 20064 67475 31960 00907 10184 20085 48553 70500
                   333 10281 20136 58008 91024=
201808170600 AAXX 17064 67475 31960 00911 10180 20091 48566 70500
                   333 10286 20106 59015 91026=
201808160600 AAXX 16064 67475 31960 03402 10169 48571 70500
                   333 10286 20093 58003 91026=
201808151200 AAXX 15124 67475 NIL=
201808150600 AAXX 15064 67475 31960 00303 10170 20099 48569 70500
                   333 10280 20104 59003 91026=
201808140600 AAXX 14064 67475 31960 00507 10175 20084 48572 70500
                   333 10280 20114 5//// 91026=

################################################################################
#  SYNOPS from 67476, Misamfu (Zambia) | 10-06S | 031-15E | 1536 m
################################################################################
201808301200 AAXX 30124 67476 41776 11211 10266 20054 48/// 70500 81100
                   333 59010 81856=
201808291200 AAXX 29124 67476 41776 11309 10272 20012 48/// 70500
                   333 58011 81856=
201808280600 AAXX 28064 67476 31972 01305 10184 20104 48/// 70500
                   333 10294 20089 59005=
201808271200 AAXX 27124 67476 41776 12011 10290 20026 48/// 70500 81100
                   333 5//// 81850=
201808270600 AAXX 27064 67476 31972 00905 10190 20105 48/// 70500
                   333 10295 20101 5////=
201808230900 AAXX 23094 67476 NIL=
201808230600 AAXX 23064 67476 31975 00904 10163 20056 48/// 70500
                   333 10280 20091 59014=
201808220600 AAXX 22064 67476 31978 31004 10185 20071 48/// 70500 80002
                   333 10277 20093 58003 83080=
201808170900 AAXX 17094 67476 41977 00907 10239 20040 48/// 70500
                   333 5////=
201808170600 AAXX 17064 67476 31975 00607 10171 20093 48/// 70500
                   333 10276 20075 59013=
201808161500 AAXX 16154 67476 41976 01806 10254 20063 48/// 70500
                   333 59001 555 10276=
201808161200 AAXX 16124 67476 41978 01406 10267 20051 48/// 70500
                   333 58003=
201808160900 AAXX 16094 67476 41777 10707 10231 20081 48/// 70500 81100
                   333 5//// 81850=
201808160600 AAXX 16064 67476 31975 00704 10160 20095 48/// 70500
                   333 10280 20080 58001=
201808151200 AAXX 15124 67476 NIL=
201808150600 AAXX 15064 67476 31976 00905 10164 20103 48/// 70500
                   333 10271 20085 59004=
201808141200 AAXX 14124 67476 41977 01505 10265 20054 48/// 70500
                   333 58002=
201808130900 AAXX 13094 67476 41675 10911 10230 20090 48/// 70500 81100
                   333 5//// 81840=
201808130600 AAXX 13064 67476 31973 00909 10173 20106 48/// 70500
                   333 10293 20085 5////=

################################################################################
#  SYNOPS from 67477, Mpika (Zambia) | 11-54S | 031-26E | 1400 m
################################################################################
201808301200 AAXX 30124 67477 41678 11205 10241 20080 48535 70500 81100
                   333 59014 81830=
201808291200 AAXX 29124 67477 41678 20906 10236 20110 48549 70500 82100
                   333 58018 82830=
201808280600 AAXX 28064 67477 31975 00000 10199 20080 48552 70500
                   333 10282 20126 58003
                   555 00109=
201808240900 AAXX 24094 67477 41975 01206 10243 20110 48/// 70500
                   333 5////=
201808240600 AAXX 24064 67477 31975 10908 10185 20110 48538 70500 80001
                   333 10276 20150 59002 81080
                   555 00136=
201808230900 AAXX 23094 67477 41975 00905 10245 20122 48541 70500
                   333 59007=
201808230600 AAXX 23064 67477 31975 00907 10186 20128 48540 70500
                   333 10276 20155 59002
                   555 00140=
201808220600 AAXX 22064 67477 31975 00905 10183 20095 48542 70500
                   333 10272 20134 59010
                   555 00114=
201808200900 AAXX 20094 67477 41975 00604 10224 20083 48558 70500
                   333 59001=
201808200600 AAXX 20064 67477 31975 01208 10183 20075 48557 70500
                   333 10250 20134 59002
                   555 00116=
201808170900 AAXX 17094 67477 41975 00903 10235 20110 48565 70500
                   333 59011=
201808170600 AAXX 17064 67477 31975 00903 10174 20104 48532 70500
                   333 10294 20068 59010
                   555 00060=
201808160900 AAXX 16094 67477 41975 01206 10228 20126 48575 70500
                   333 58003=
201808160600 AAXX 16064 67477 31975 00904 10180 20115 48572 70500
                   333 10261 20102 58001
                   555 00092=
201808151200 AAXX 15124 67477 41978 00904 10249 20080 48556 70500
                   333 5////=
201808150600 AAXX 15064 67477 31978 00000 10181 20090 48571 70500
                   333 10253 20063 59008
                   555 00055=
201808141200 AAXX 14124 67477 41978 00000 10243 20090 48/// 70500
                   333 5////=
201808140600 AAXX 14064 67477 31975 00602 10175 20095 48579 70500
                   333 10256 20071 58007
                   555 00062=

################################################################################
#  SYNOPS from 67481, Isoka (Zambia) | 10-07S | 032-38E | 1360 m
################################################################################
201808310600 AAXX 31064 67481 31975 03002 10194 20096 48/// 70500
                   333 10270 20131 5////=
201808300600 AAXX 30064 67481 31975 02203 10182 20122 48/// 70500
                   333 10286 20138 5////=
201808280600 AAXX 28064 67481 31970 03002 10208 20107 48/// 70500
                   333 10294 20136 5////=
201808270600 AAXX 27064 67481 31970 03002 10192 20114 48/// 70500
                   333 10290 20135 5////=
201808240600 AAXX 24064 67481 31978 00902 10184 20137 48/// 70500
                   333 10290 20145 5////=
201808230900 AAXX 23094 67481 NIL=
201808230600 AAXX 23064 67481 31970 03002 10198 20126 48/// 70500
                   333 10290 20126 5////=
201808220600 AAXX 22064 67481 31978 02302 10194 20094 48/// 70500
                   333 10282 20116 5////=
201808210600 AAXX 21064 67481 31978 00302 10194 20098 48/// 70500
                   333 10278 20112 59001=
201808200600 AAXX 20064 67481 31978 00603 10176 20084 48/// 70500
                   333 10280 20114 58003=
201808170600 AAXX 17064 67481 31975 03001 10176 20090 48/// 70500
                   333 10274 20104 5////=
201808160600 AAXX 16064 67481 31975 00906 10191 20080 48/// 70400
                   333 10276 20119 59001=
201808151200 AAXX 15124 67481 NIL=

################################################################################
#  SYNOPS from 67531, Zambezi (Zambia) | 13-32S | 023-07E | 1077 m
################################################################################
201808310600 AAXX 31064 67531 31975 01003 10213 20086 48/// 70500
                   333 10312 20084 59014
                   555 00079=
201808300600 AAXX 30064 67531 31970 01105 10183 20100 48/// 70500
                   333 10315 20148 58004
                   555 00142=
201808280600 AAXX 28064 67531 31970 01604 10159 20057 48/// 70500
                   333 10342 20075 5////
                   555 00072=
201808270600 AAXX 27064 67531 31970 00000 10132 20067 48/// 70500
                   333 10312 20056 5////
                   555 00060=
201808240600 AAXX 24064 67531 31970 00000 10159 20103 48/// 70500
                   333 10320 20099 58009
                   555 00096=
201808230900 AAXX 23094 67531 NIL=
201808230600 AAXX 23064 67531 31970 00000 10127 20097 48/// 70500
                   333 10326 20083 58000
                   555 00092=
201808220600 AAXX 22064 67531 31970 00000 10114 20077 48/// 70500
                   333 10310 20055 59014
                   555 00069=
201808201200 AAXX 20124 67531 41975 00905 10298 20097 48/// 70500
                   333 58002=
201808200600 AAXX 20064 67531 31970 00903 10141 20076 48/// 70500
                   333 10300 20112 58002
                   555 00100=
201808170600 AAXX 17064 67531 31970 01002 10131 20074 48/// 70500
                   333 10320 20067 59008
                   555 00062=
201808160600 AAXX 16064 67531 31970 00906 10139 20067 48/// 70500
                   333 10306 20086 5////
                   555 00070=
201808151200 AAXX 15124 67531 NIL=
201808150600 AAXX 15064 67531 31970 00903 10156 20082 48/// 70500
                   333 10300 20091 5////
                   555 00101=
201808140600 AAXX 14064 67531 31965 01005 10154 20081 48/// 70500
                   333 10290 20070 59006
                   555 00080=
201808130600 AAXX 13064 67531 31970 00802 10136 20078 48/// 70500
                   333 10292 20098 58001
                   555 00082=

################################################################################
#  SYNOPS from 67541, Kasempa (Zambia) | 13-32S | 025-51E | 1234 m
################################################################################
201808310600 AAXX 31064 67541 31970 00802 10180 20110 48531 70500
                   333 10300 20124 59007=
201808300600 AAXX 30064 67541 31970 00804 10190 20121 48538 70500
                   333 10302 20130 58000=
201808280600 AAXX 28064 67541 31970 00000 10179 20090 48528 70500
                   333 10330 20080 58006=
201808270600 AAXX 27064 67541 31965 00000 10140 20094 48522 70500
                   333 10312 20076 59008=
201808230900 AAXX 23094 67541 NIL=
201808230600 AAXX 23064 67541 31960 50000 10160 20106 48515 70522 85030
                   333 10310 20112 59001 85360=
201808220600 AAXX 22064 67541 31965 00000 10135 20066 48516 70500
                   333 10308 20092 59011=
201808201200 AAXX 20124 67541 41970 00712 10280 20137 48514 70500
                   333 5////=
201808200600 AAXX 20064 67541 31960 00000 10147 20098 48533 70500
                   333 10294 20080 58002=
201808170600 AAXX 17064 67541 31960 00000 10125 20076 48532 70500
                   333 10310 20074 59001=
201808160600 AAXX 16064 67541 31960 00000 10142 20081 48533 70500
                   333 10310 20080 59005=
201808151200 AAXX 15124 67541 NIL=
201808130600 AAXX 13064 67541 31960 00608 10181 20076 48539 70500
                   333 10300 20132 58007=

################################################################################
#  SYNOPS from 67543, Kabompo (Zambia) | 13-36S | 024-12E | 1075 m
################################################################################
201808310600 AAXX 31064 67543 31962 00302 10186 20088 48/// 70500
                   333 10318 20148 59024=
201808280600 AAXX 28064 67543 31960 00000 10180 20041 48/// 70500
                   333 10342 20140 59004=
201808270600 AAXX 27064 67543 31959 00000 10146 20081 48/// 70500
                   333 10326 20108 58005=
201808240600 AAXX 24064 67543 31958 20000 10122 20092 48/// 70500 80005
                   333 10328 20148 58004 82280=
201808230900 AAXX 23094 67543 NIL=
201808230600 AAXX 23064 67543 31957 00000 10130 20103 48/// 70500
                   333 10320 20104 59002=
201808220600 AAXX 22064 67543 31958 00000 10114 20087 48/// 70500
                   333 10316 20094 59012=
201808210600 AAXX 21064 67543 31960 00000 10154 20070 48/// 70500
                   333 10316 20110 59007=
201808200600 AAXX 20064 67543 31960 00000 10152 20086 48/// 70500
                   333 10318 20126 5////=
201808170600 AAXX 17064 67543 31960 00000 10106 20083 48/// 70500
                   333 10326 20092 5////=
201808160600 AAXX 16064 67543 31965 00000 10159 20058 48/// 70500
                   333 10328 20122 5////=
201808151200 AAXX 15124 67543 NIL=
201808140600 AAXX 14064 67543 31965 00000 10142 20087 48/// 70500
                   333 10306 20106 59002=

################################################################################
#  SYNOPS from 67551, Solwezi (Zambia) | 12-11S | 026-23E | 1386 m
################################################################################
201808310600 AAXX 31064 67551 31958 01205 10168 20091 48534 70500
                   333 10286 20104 59020
                   555 00201 91021=
201808300600 AAXX 30064 67551 31958 01205 10159 20102 48557 70500
                   333 10286 20117 58003
                   555 00184 91023=
201808280600 AAXX 28064 67551 31957 00000 10132 20067 48532 70500
                   333 10309 20079 59009
                   555 00144 91021=
201808270600 AAXX 27064 67551 31955 00903 10142 20092 48541 70500
                   333 10302 20096 58006
                   555 00146 91022=
201808240600 AAXX 24064 67551 31958 00503 10164 20093 48532 70500
                   333 10286 20122 59001
                   555 00165 91022=
201808230900 AAXX 23094 67551 NIL=
201808230600 AAXX 23064 67551 31957 61304 10181 20091 48534 70522 86030
                   333 10299 20122 58000 86362
                   555 00172 91021=
201808220600 AAXX 22064 67551 31957 00806 10169 20076 48533 70500
                   333 10289 20104 59010
                   555 00180 91021=
201808210600 AAXX 21064 67551 31958 00806 10164 20062 48548 70500 80001
                   333 10278 20086 59013
                   555 00178 91022=
201808200600 AAXX 20064 67551 31957 01206 10166 20082 48555 70500
                   333 10284 20117 58000
                   555 00180 91023=
201808170600 AAXX 17064 67551 31958 00703 10153 20075 48551 70500
                   333 10288 20089 59008
                   555 00161 91023=
201808160600 AAXX 16064 67551 31957 00905 10157 20069 48559 70500
                   333 10291 20106 59004
                   555 00167 91024=
201808151200 AAXX 15124 67551 NIL=
201808150600 AAXX 15064 67551 31958 00706 10180 20076 48565 70500
                   333 10291 20121 58006
                   555 00121 91024=
201808140600 AAXX 14064 67551 31958 01505 10169 20080 48556 70500
                   333 10270 20132 59005
                   555 00180 91024=

################################################################################
#  SYNOPS from 67561, Ndola (Zambia) | 13-00S | 028-39E | 1269 m
################################################################################
201808310600 AAXX 31064 67561 31959 01505 10181 20091 48532 70500
                   333 1//// 2//// 59025 91021=
201808300600 AAXX 30064 67561 31959 00804 10177 20111 48554 70400
                   333 10273 20120 59006 91023=
201808280600 AAXX 28064 67561 31957 00000 10195 20075 48543 70400
                   333 10315 20095 58000 91022=
201808270600 AAXX 27064 67561 31958 09902 10178 20078 48542 70400
                   333 10304 20101 59002 91022=
201808240600 AAXX 24064 67561 31956 00804 10160 20075 48533 70400
                   333 10308 20120 58003 91021=
201808230900 AAXX 23094 67561 NIL=
201808230600 AAXX 23064 67561 31956 00000 10164 20091 48530 70400 86030
                   333 10295 20112 59003 86360 91021=
201808220600 AAXX 22064 67561 31956 00804 10156 20078 48533 70400
                   333 10301 20104 59009 91021=
201808210600 AAXX 21064 67561 31959 01305 10185 20065 48545 70400
                   333 10285 20101 59012 91022=
201808201200 AAXX 20124 67561 41960 00502 10278 20051 48562 70500
                   333 58004 91019=
201808200600 AAXX 20064 67561 31958 00706 10172 20078 48452 70400
                   333 10275 20112 59001 91024=
201808180600 AAXX 18064 67561 31959 00907 10170 20086 48542 70400
                   333 10287 20110 59018
                   555 00///=
201808170600 AAXX 17064 67561 31958 01008 10179 20086 48558 70400
                   333 10290 20110 59012 91024=
201808160600 AAXX 16064 67561 31958 01007 10176 20085 48572 70400
                   333 10288 20113 58000 91025=
201808151200 AAXX 15124 67561 NIL=
201808150600 AAXX 15064 67561 31959 00806 10177 20081 48571 70400
                   333 10288 20112 58004 91025=
201808141200 AAXX 14124 67561 41959 09905 10278 20069 48552 70400
                   333 58002 555 91022=
201808130600 AAXX 13064 67561 31959 00908 10168 20092 48563 70400
                   333 10306 20114 58000 91025=
201808060600 AAXX 06064 67561 31958 09902 10161 20076 48551 70400
                   333 10292 20088 59009
                   555 00///=
201808010600 AAXX 01064 67561 31959 09902 10155 20080 48536 70400
                   333 10286 20095 59009
                   555 00/// 91021=

################################################################################
#  SYNOPS from 67563, Kafironda (Zambia) | 12-36S | 028-07E | 1243 m
################################################################################
201808280600 AAXX 28064 67563 NIL=
201808230900 AAXX 23094 67563 NIL=
201808230600 AAXX 23064 67563 NIL=
201808220600 AAXX 22064 67563 NIL=
201808170600 AAXX 17064 67563 NIL=
201808160600 AAXX 16064 67563 NIL=
201808151200 AAXX 15124 67563 NIL=
201808130600 AAXX 13064 67563 31960 00908 10190 20100 48/// 70500
                   333 10288 20087 58002
                   555 00076=

################################################################################
#  SYNOPS from 67571, Serenje (Zambia) | 13-14S | 030-13E | 1384 m
################################################################################
201808310600 AAXX 31064 67571 31975 01203 10177 20088 48/// 70500
                   333 10250 20144 5////
                   555 00222=
201808280600 AAXX 28064 67571 NIL=
201808230900 AAXX 23094 67571 NIL=
201808230600 AAXX 23064 67571 NIL=
201808220600 AAXX 22064 67571 NIL=
201808210900 AAXX 21094 67571 41965 00903 10246 20051 48/// 70500
                   333 5////=
201808200900 AAXX 20094 67571 41960 00904 10236 20066 48/// 70500
                   333 5////=
201808170600 AAXX 17064 67571 NIL=
201808160600 AAXX 16064 67571 NIL=
201808151200 AAXX 15124 67571 41965 01803 10265 20061 48/// 70500
                   333 5////=
201808150600 AAXX 15064 67571 31957 01203 10168 20069 48/// 70500
                   333 10273 20090 5////
                   555 00195=
201808140600 AAXX 14064 67571 31958 01208 10189 20063 48/// 70500
                   333 10273 20099 5////
                   555 00228=

################################################################################
#  SYNOPS from 67575, Mkushi (Zambia) | 13-38-00S | 029-26-00E | 1237 m
################################################################################
201808280600 AAXX 28064 67575 31965 00901 10162 20049 48502 70500
                   333 10314 20070 58003
                   555 00062=
201808240600 AAXX 24064 67575 31965 01104 10187 20094 48496 70500
                   333 10300 20132 58001
                   555 00094=
201808230900 AAXX 23094 67575 NIL=
201808230600 AAXX 23064 67575 NIL=
201808220600 AAXX 22064 67575 NIL=
201808210600 AAXX 21064 67575 31970 01003 10191 20067 48511 70500
                   333 10274 20117 59010
                   555 00082=
201808170600 AAXX 17064 67575 31965 00000 10142 20084 48516 70500
                   333 10289 20083 59011
                   555 00062=
201808160600 AAXX 16064 67575 31965 00000 10144 20068 48526 70500
                   333 10292 20085 58000
                   555 00061=
201808151200 AAXX 15124 67575 NIL=
201808130600 AAXX 13064 67575 31975 00905 10187 20085 48530 70500
                   333 10270 20135 59001
                   555 00122=

################################################################################
#  SYNOPS from 67580, Msekera (Zambia) | 13-39S | 032-34E | 1025 m
################################################################################
201808280600 AAXX 28064 67580 31975 01204 10222 20128 48/// 70500
                   333 10314 20117 5////=
201808240600 AAXX 24064 67580 31978 00000 10225 20120 48/// 70500
                   333 10312 20163 59001 59001=
201808230900 AAXX 23094 67580 41975 00902 10278 20109 48/// 70500
                   333 59008=
201808230600 AAXX 23064 67580 31975 03002 10204 20144 48/// 70500
                   333 10315 20136 58000=
201808221200 AAXX 22124 67580 41878 30802 10298 20112 48///
                   333 59018 83857=
201808220900 AAXX 22094 67580 41778 11502 10272 20099 48/// 70500 81100
                   333 59013 81850=
201808220600 AAXX 22064 67580 31978 00903 10230 20119 48/// 70500
                   333 10274 20137 59014=
201808200600 AAXX 20064 67580 31978 01005 10220 20116 48/// 70500
                   333 10300 20130 5////=
201808170600 AAXX 17064 67580 NIL=
201808160600 AAXX 16064 67580 31978 01002 10225 20141 48/// 70500
                   333 10322 20141 58000=
201808151200 AAXX 15124 67580 NIL=
201808150600 AAXX 15064 67580 31975 00903 10204 20086 48/// 70500
                   333 10304 20129 59004=
201808130900 AAXX 13094 67580 41670 50904 10268 20103 48/// 70500 85100
                   333 5//// 85842=

################################################################################
#  SYNOPS from 67581, Chipata (Zambia) | 13-33S | 032-35E | 1028 m
################################################################################
201808310600 AAXX 31064 67581 31960 01604 10211 20102 48556 70500
                   333 10275 20151 59022 91021=
201808300600 AAXX 30064 67581 31960 01806 10186 20102 48570 70500
                   333 10276 20136 58001 91024=
201808280600 AAXX 28064 67581 31960 01202 10242 20087 48564 70500
                   333 10314 20175 58005 91022=
201808270600 AAXX 27064 67581 31960 01605 10212 20091 48554 70500
                   333 10337 20110 59002 91021=
201808240600 AAXX 24064 67581 31960 00804 10223 20097 48555 70500
                   333 10310 20184 59005 91021=
201808230900 AAXX 23094 67581 NIL=
201808230600 AAXX 23064 67581 31960 01205 10234 20103 48561 70500
                   333 10312 20174 58000 91022=
201808220600 AAXX 22064 67581 31960 01605 10230 20093 48561 70500
                   333 10299 20164 59011 91022=
201808210600 AAXX 21064 67581 31960 01905 10228 20061 48572 70500
                   333 10294 20138 59001 91023=
201808201200 AAXX 20124 67581 41660 41306 10278 20084 48567 70522 84100
                   333 59005 84842 91020=
201808200600 AAXX 20064 67581 31960 01604 10228 20061 48580 70500
                   333 10300 20124 59001 91024=
201808170600 AAXX 17064 67581 31960 00702 10218 20079 48575 70500
                   333 10300 20124 59010 91023=
201808160600 AAXX 16064 67581 NIL=
201808151200 AAXX 15124 67581 NIL=
201808140600 AAXX 14064 67581 31970 01406 10219 20078 48592 70500
                   333 10289 20138 59002 91026=
201808130600 AAXX 13064 67581 31670 11208 10221 20204 48594 70500 81100
                   333 10304 20165 58001 81830 91026=

################################################################################
#  SYNOPS from 67583, Lundazi (Zambia) | 12-17S | 033-12E | 1143 m
################################################################################
201808310600 AAXX 31064 67583 31959 01504 10190 20120 48/// 70500
                   333 10290 20//0 5////=
201808300600 AAXX 30064 67583 31959 01204 10182 20130 48/// 70500
                   333 10270 20//0 5////=
201808280600 AAXX 28064 67583 31959 00000 10196 20110 48/// 70500
                   333 10312 20/// 5////=
201808270600 AAXX 27064 67583 31959 01401 10172 20108 48/// 70500
                   333 10304 2//// 5////=
201808240600 AAXX 24064 67583 31958 01502 10198 20135 48/// 70500
                   333 10308 20//0 5////=
201808230900 AAXX 23094 67583 NIL=
201808230600 AAXX 23064 67583 31958 00000 10202 20118 48/// 70500
                   333 10314 20/// 5////=
201808220600 AAXX 22064 67583 31958 00000 10200 20117 48/// 70500
                   333 10300 20//0 5////=
201808210600 AAXX 21064 67583 31959 01201 10178 20130 48/// 70500
                   333 10272 20/// 5////=
201808200600 AAXX 20064 67583 31959 01203 10186 20125 48/// 70500
                   333 10270 20//0 5////=
201808170600 AAXX 17064 67583 31959 00000 10178 20108 48/// 70500
                   333 10288 20//0 5////=
201808160600 AAXX 16064 67583 31959 00000 10160 20102 48/// 70500
                   333 10292 2//// 5////=
201808151200 AAXX 15124 67583 NIL=
201808150600 AAXX 15064 67583 31956 00000 10142 20089 48/// 70500
                   333 10290 20//0 5////=
201808130600 AAXX 13064 67583 31458 20000 10154 20118 48/// 70500 81101
                   333 10280 20//0 5//// 81812 81080=

################################################################################
#  SYNOPS from 67599, Mfuwe (Zambia) | 13-16S | 031-56E | 568 m
################################################################################
201808300600 AAXX 30064 67599 32980 01805 10214 20105 48575
                   333 10325 20142 58007
                   555 00118 91023=
201808280600 AAXX 28064 67599 32975 01705 10234 20084 48554
                   333 10350 20141 58004
                   555 00126 91020=
201808270600 AAXX 27064 67599 31970 01603 10223 20101 48545 70500
                   333 10341 20139 59003
                   555 00115 91019=
201808240600 AAXX 24064 67599 32980 00000 10235 20107 48551
                   333 10353 20148 59001
                   555 00134 91019=
201808230900 AAXX 23094 67599 NIL=
201808230600 AAXX 23064 67599 32980 00000 10224 20124 48547
                   333 10345 20134 59002
                   555 00125 91020=
201808220600 AAXX 22064 67599 31970 00906 10225 20105 48549 70500
                   333 10331 20129 59012
                   555 00110 91020=
201808210600 AAXX 21064 67599 31970 01003 10221 20089 48560 70500
                   333 10337 20120 59010
                   555 00095 91021=
201808200600 AAXX 20064 67599 32980 01306 10210 20077 48568
                   333 10323 20130 58000
                   555 00105 91022=
201808170600 AAXX 17064 67599 31975 00000 10204 20111 48563 70500
                   333 10351 20118 59011
                   555 00104 91022=
201808160600 AAXX 16064 67599 31970 02002 10193 20119 48568 70500
                   333 10350 20118 59002
                   555 00111 91023=
201808151200 AAXX 15124 67599 NIL=
201808150600 AAXX 15064 67599 31970 01404 10206 20066 48574 70500
                   333 10334 20110 58000
                   555 00076=
201808140600 AAXX 14064 67599 32980 01003 10204 20087 48574
                   333 10332 20122 59001
                   555 00100 91023=
201808130600 AAXX 13064 67599 32980 11604 10200 20104 48575 81030
                   333 10320 20120 58004 81360
                   555 00095 91023=

################################################################################
#  SYNOPS from 67625, Kalabo (Zambia) | 14-51S | 022-42E | 1033 m
################################################################################
201808280600 AAXX 28064 67625 NIL=
201808240600 AAXX 24064 67625 32982 00607 10168 20073 48///
                   333 10322 20119=
201808230900 AAXX 23094 67625 NIL=
201808230600 AAXX 23064 67625 NIL=
201808220600 AAXX 22064 67625 NIL=
201808200600 AAXX 20064 67625 32982 00807 10156 20092 48///
                   333 10322 20129 58004=
201808170600 AAXX 17064 67625 32982 21106 10157 20076 48/// 80001
                   333 10319 20137 59003 82075=
201808160600 AAXX 16064 67625 32982 41209 10160 20074 48/// 80004
                   333 10306 20139 59007 84075=
201808151200 AAXX 15124 67625 NIL=
201808150600 AAXX 15064 67625 32982 61006 10160 20090 48/// 80004
                   333 10298 20148 58016 86075=

################################################################################
#  SYNOPS from 67633, Mongu (Zambia) | 15-15S | 023-09E | 1052 m
################################################################################
201808280600 AAXX 28064 67633 32980 01702 10161 20025 48541 70200
                   333 10339 20128 58013 91021=
201808241200 AAXX 24124 67633 42980 01005 10342 20081 48523 70200
                   333 58001 91016=
201808240900 AAXX 24094 67633 42980 00906 10295 20088 48548 70200
                   333 59004 91020=
201808240600 AAXX 24064 67633 32980 00804 10207 20081 48529 70200
                   333 10339 20169 59004 91019=
201808230900 AAXX 23094 67633 42980 00902 10281 20101 48549 70200
                   333 58000 91020=
201808230600 AAXX 23064 67633 32980 00903 10183 20088 48528 70200
                   333 10334 20122 59002 91020=
201808221200 AAXX 22124 67633 42980 00902 10314 20094 48525
                   333 59011 91017=
201808220900 AAXX 22094 67633 42980 00910 10272 20085 48547 70200
                   333 59010 91020=
201808220600 AAXX 22064 67633 32980 00906 10179 20074 48530 70200
                   333 10325 20144 59012 91020=
201808211200 AAXX 21124 67633 42980 00902 10305 20082 48536 70200
                   333 59006 91018=
201808210900 AAXX 21094 67633 42980 00903 10289 20083 48561 70200
                   333 59006 91021=
201808201200 AAXX 20124 67633 42980 00804 10308 20082 48542 70200
                   333 58008 91019=
201808200600 AAXX 20064 67633 32980 00803 10177 20110 48546 70200
                   333 10330 20151 58013 91022=
201808170600 AAXX 17064 67633 31975 00903 10182 20080 48546 70500
                   333 10334 20156 59005 91022=
201808160600 AAXX 16064 67633 31975 00907 10169 20072 48549 70500
                   333 10324 20154 58001 91022=
201808151200 AAXX 15124 67633 NIL=
201808150600 AAXX 15064 67633 31975 00905 10166 20085 48548 70500
                   333 10316 20148 58007 91022=
201808130600 AAXX 13064 67633 32980 40903 10184 20087 48554 70200 80001
                   333 10325 20141 58006 84080 91023=

################################################################################
#  SYNOPS from 67641, Kaoma (Zambia) | 14-48S | 024-48E | 1213 m
################################################################################
201808310600 AAXX 31064 67641 31965 00402 10131 20076 48519 70500
                   333 10305 20094 59023 91018=
201808300600 AAXX 30064 67641 31960 10402 10152 20099 48542 70500 81030
                   333 10317 20128 59001 81360 91022=
201808280600 AAXX 28064 67641 31958 00000 10147 20064 48529 70500
                   333 10340 20107 59011 91020=
201808270600 AAXX 27064 67641 31958 00000 10126 20066 48532 70500
                   333 10320 20088 58006 91021=
201808230900 AAXX 23094 67641 NIL=
201808230600 AAXX 23064 67641 31960 00902 10118 20078 48521 70500
                   333 10320 20096 59003 91020=
201808220600 AAXX 22064 67641 31960 03602 10114 20069 48524 70500
                   333 10316 20090 59009 91020=
201808210600 AAXX 21064 67641 31956 00000 10137 20081 48532 70500
                   333 10310 20088 59015 91021=
201808201200 AAXX 20124 67641 41965 01005 10292 20068 48530 70500
                   333 58002 91018=
201808200600 AAXX 20064 67641 31957 00601 10118 20078 48542 70500
                   333 10311 20095 58009 91022=
201808170600 AAXX 17064 67641 31965 00000 10126 20086 48545 70500
                   333 10316 20078 59005 91022=
201808160600 AAXX 16064 67641 NIL=
201808151200 AAXX 15124 67641 NIL=
201808150600 AAXX 15064 67641 31957 00000 10106 20082 48547 70500
                   333 10308 20082 58005 91021=
201808140600 AAXX 14064 67641 31960 00801 10134 20092 48545 70500
                   333 10301 20089 59003 91022=
201808130600 AAXX 13064 67641 31960 00706 10172 20080 48554 70500
                   333 10311 20102 58002 91023=

################################################################################
#  SYNOPS from 67655, Mumbwa (Zambia) | 15-04S | 027-11E | 1216 m
################################################################################
201808280600 AAXX 28064 67655 NIL=
201808230900 AAXX 23094 67655 NIL=
201808230600 AAXX 23064 67655 NIL=
201808220600 AAXX 22064 67655 NIL=
201808170600 AAXX 17064 67655 NIL=
201808160600 AAXX 16064 67655 NIL=
201808151200 AAXX 15124 67655 NIL=

################################################################################
#  SYNOPS from 67659, Kafue Polder (Zambia) | 15-46S | 027-55E | 978 m
################################################################################
201808310600 AAXX 31064 67659 32980 01006 10186 20119 48/// 70200
                   333 10278 20120 59022=
201808300600 AAXX 30064 67659 32980 00705 10181 20128 48/// 70222
                   333 10276 20165 59003=
201808280600 AAXX 28064 67659 32980 00905 10215 20118 48/// 70222
                   333 10355 20098 59001=
201808270600 AAXX 27064 67659 32980 00402 10190 20125 48/// 70222
                   333 10306 20100 59004=
201808230900 AAXX 23094 67659 NIL=
201808230600 AAXX 23064 67659 32980 01205 10//0 20111 48/// 70222
                   333 10310 20090 59004=
201808220600 AAXX 22064 67659 32980 00806 10188 20102 48/// 70222
                   333 10305 20089 59014=
201808210600 AAXX 21064 67659 32980 01003 10/// 20098 48/// 70222
                   333 10322 20082 59012=
201808170600 AAXX 17064 67659 32980 01004 10201 20108 48/// 70500
                   333 10305 20091 59005=
201808160600 AAXX 16064 67659 32980 01207 10207 20102 48/// 70222
                   333 10302 20091 59006=
201808151200 AAXX 15124 67659 NIL=
201808140600 AAXX 14064 67659 32980 00000 10184 20129 48///
                   333 10300 20101 59005=
201808130600 AAXX 13064 67659 32980 01204 10184 20131 48/// 70222
                   333 10314 20111 58003=

################################################################################
#  SYNOPS from 67662, Kabwe Agric (Zambia) | 14-24S | 028-30E | 1165 m
################################################################################
201808300600 AAXX 30064 67662 31975 01006 10164 20102 48/// 70500
                   333 10302 20115 5////
                   555 00092=
201808280600 AAXX 28064 67662 31975 00000 10204 20036 48/// 70500
                   333 10315 20141 5////
                   555 00081=
201808270600 AAXX 27064 67662 31975 00000 10172 20082 48/// 70500
                   333 10303 20102 5////
                   555 00073=
201808230900 AAXX 23094 67662 NIL=
201808230600 AAXX 23064 67662 NIL=
201808220600 AAXX 22064 67662 31975 00901 10177 20072 48/// 70500
                   333 10287 20100 5////
                   555 00063=
201808200600 AAXX 20064 67662 31975 00903 10183 20096 48/// 70500
                   333 10297 20089 5////
                   555 00078=
201808170600 AAXX 17064 67662 NIL=
201808160600 AAXX 16064 67662 31975 00901 10159 20062 48/// 70500
                   333 10290 20102 5////
                   555 00062=
201808151200 AAXX 15124 67662 NIL=
201808150600 AAXX 15064 67662 31975 01202 10185 20073 70500
                   333 10292 20086 5////
                   555 00068=
201808130600 AAXX 13064 67662 31975 00801 10170 20089 48/// 70500
                   333 10314 20106 5////
                   555 00072=

################################################################################
#  SYNOPS from 67663, Kabwe (Zambia) | 14-27S | 028-28E | 1206 m
################################################################################
201808310600 AAXX 31064 67663 32980 01008 10162 20108 48568
                   333 10256 20119 59008
                   555 00204=
201808300600 AAXX 30064 67663 32980 01008 10162 20108 48568
                   333 10256 20119 59008
                   555 00204=
201808280600 AAXX 28064 67663 32980 00807 10201 20048 48458
                   333 10323 20134 58005
                   555 00232=
201808270600 AAXX 27064 67663 32980 00606 10216 20081 48563
                   333 10298 20134 59007
                   555 00238=
201808230900 AAXX 23094 67663 NIL=
201808230600 AAXX 23064 67663 32980 00810 10186 20082 48555
                   333 10300 20154 58002
                   555 00200=
201808220600 AAXX 22064 67663 32980 00506 10185 20089 48553
                   333 10292 20130 59008
                   555 00196=
201808210600 AAXX 21064 67663 32980 00709 10197 20077 48561
                   333 10282 20142 58000
                   555 00194=
201808200600 AAXX 20064 67663 32980 01109 10188 20104 48560
                   333 10272 20190 59012
                   555 00194=
201808170600 AAXX 17064 67663 NIL=
201808160600 AAXX 16064 67663 NIL=
201808151200 AAXX 15124 67663 NIL=
201808150600 AAXX 15064 67663 31960 00903 10180 20077 48579 70500
                   333 10284 20111 58010
                   555 00176=
201808140600 AAXX 14064 67663 32980 00507 10180 20074 48570
                   333 10285 20166 58011
                   555 00182=
201808130600 AAXX 13064 67663 32980 00803 10180 20094 48559
                   333 10273 20182 59005
                   555 00178=

################################################################################
#  SYNOPS from 67665, Lusaka Internationalairport (Zambia) | 15-19S | 028-27E | 1152 m
################################################################################
201808310600 AAXX 31064 67665 32980 01107 10158 20084 48547 70200
                   333 10267 20//0 59026=
201808310300 AAXX 31034 67665 42980 01403 10115 20074 48526 70200
                   333 59022=
201808310000 AAXX 31004 67665 42980 01303 10125 20070 48533 70100
                   333 59017=
201808302100 AAXX 30214 67665 42960 11305 10155 20070 48547 70200
                   333 59020=
201808300900 AAXX 30094 67665 41959 00812 10226 20092 48583 70500
                   333 59012 91025=
201808300600 AAXX 30064 67665 42980 01009 10162 20087 48572 70200
                   333 10167 20//0 59001=
201808292100 AAXX 29214 67665 42560 01105 10143 20063 48563 70200
                   333 58001=
201808291800 AAXX 29184 67665 42980 01206 10176 20084 48564 70200
                   333 10255 58011=
201808291200 AAXX 29124 67665 42660 10813 10244 20100 48571 70200 81500
                   333 58025 81630=
201808290900 AAXX 29094 67665 42560 10917 10215 20102 48593 70220 81500
                   333 58029 85625=
201808290600 AAXX 29064 67665 31959 00915 10171 20120 48574 70500
                   333 10297 20//0 58013
                   555 00///=
201808290300 AAXX 29034 67665 42980 01013 10162 20112 48557 70200
                   333 59001=
201808290000 AAXX 29004 67665 41960 01008 10164 20100 48556 70500
                   333 58001=
201808282100 AAXX 28214 67665 41960 01106 10180 20078 48562 70500
                   333 59004=
201808280900 AAXX 28094 67665 41959 00711 10264 20058 48571 70500
                   333 58009=
201808280600 AAXX 28064 67665 NIL=
201808280300 AAXX 28034 67665 41960 01904 10155 20031 48534 70500
                   333 58001=
201808271800 AAXX 27184 67665 41960 01503 10218 20048 48536 70500
                   333 10323 59010=
201808271500 AAXX 27154 67665 41960 01509 10294 20011 48532 70500
                   333 59005 555 10323=
201808271200 AAXX 27124 67665 41960 01108 10308 20010 48540 70500
                   333 58005=
201808270600 AAXX 27064 67665 31960 01203 10196 20090 48550 70500
                   333 10300 20//0 59007=
201808270300 AAXX 27034 67665 41980 02002 10142 20059 48532 70500
                   333 59003=
201808270000 AAXX 27004 67665 41959 01203 10141 20060 48534 70500
                   333 58000=
201808262100 AAXX 26214 67665 41959 01703 10155 20045 48545 70500
                   333 59010=
201808261800 AAXX 26184 67665 41959 01403 10210 20018 48544 70500
                   333 59004=
201808261500 AAXX 26154 67665 41959 01505 10286 20018 48535 70500
                   333 59008=
201808261200 AAXX 26124 67665 41959 01309 10285 20029 48542 70500
                   333 59004=
201808260600 AAXX 26064 67665 41960 01604 10193 20083 48554 70500
                   333 10293 59017=
201808252100 AAXX 25214 67665 41960 01202 10170 20055 48556 70200
                   333 58006=
201808251800 AAXX 25184 67665 41960 01404 10194 20053 48549 70500
                   333 10293 58008=
201808251500 AAXX 25154 67665 41960 00910 10276 21012 48544 70500
                   333 58009=
201808251200 AAXX 25124 67665 41960 00811 10285 20030 48555 70500
                   333 58019=
201808250900 AAXX 25094 67665 41960 00713 10257 20054 48580 70500
                   333 58019=
201808250600 AAXX 25064 67665 32980 01207 10174 20083 48568 70200
                   333 10308 20//0 58020=
201808250300 AAXX 25034 67665 42980 01407 10137 20060 48544 70200
                   333 58017=
201808250000 AAXX 25004 67665 42980 01403 10142 20060 48545 70200
                   333 58025=
201808242100 AAXX 24214 67665 42980 01404 10163 20049 48549 70200
                   333 58016=
201808241500 AAXX 24154 67665 41959 01012 10283 20008 48535 70500
                   333 58012 91019=
201808241200 AAXX 24124 67665 41958 00914 10296 20005 48537 70500
                   333 58005 91019=
201808240600 AAXX 24064 67665 31959 01304 10189 20041 48551 70500
                   333 10299 20//0 58005
                   555 00///=
201808240000 AAXX 24004 67665 41959 00000 10130 20070 48519 70500
                   333 58000=
201808232100 AAXX 23214 67665 41959 00000 10176 20048 48536 70500
                   333 59008=
201808231800 AAXX 23184 67665 41959 01505 10201 20023 48530 70500
                   333 59008=
201808231500 AAXX 23154 67665 41959 01509 10278 21001 48523 70500
                   333 59004=
201808231200 AAXX 23124 67665 41959 01712 10294 20009 48531 70500
                   333 59007=
201808230900 AAXX 23094 67665 NIL=
201808230600 AAXX 23064 67665 NIL=
201808221500 AAXX 22154 67665 41959 01502 10289 20017 48528 70500
                   333 59010 555 10292=
201808221200 AAXX 22124 67665 41959 01704 10289 20010 48538 70500
                   333 59011=
201808220900 AAXX 22094 67665 41959 00711 10255 20049 48565 70500
                   333 59009=
201808220600 AAXX 22064 67665 NIL=
201808211800 AAXX 21184 67665 41959 00805 10208 20023 48545 70500
                   333 10280 20//0 59007=
201808211500 AAXX 21154 67665 41959 01108 10273 20021 48535 70500
                   333 59009=
201808211200 AAXX 21124 67665 41959 00506 10271 20018 48556 70500
                   333 59005=
201808210900 AAXX 21094 67665 41959 00510 10243 20030 48571 70500
                   333 59006=
201808210600 AAXX 21064 67665 31960 01005 10180 20040 48563 70500
                   333 10//0 20//0 59009=
201808210300 AAXX 21034 67665 41959 01602 10092 20042 48536 70500
                   333 59010=
201808210000 AAXX 21004 67665 41959 02002 10110 20041 48538 70500
                   333 59010=
201808202100 AAXX 20214 67665 41959 01502 10140 20022 48547 70500
                   333 58001=
201808191500 AAXX 19154 67665 41940 01112 10264 20049 48547 70500
                   333 58007=
201808191200 AAXX 19124 67665 41930 00715 10270 20056 48555 70500
                   333 58012=
201808190600 AAXX 19064 67665 31959 01302 10170 20066 48573 70500
                   333 10304 20//0 58026=
201808190300 AAXX 19034 67665 41959 01504 10126 20030 48548 70500
                   333 58001=
201808181800 AAXX 18184 67665 41958 01006 10192 20031 48545 70500
                   333 58000=
201808181500 AAXX 18154 67665 41958 01012 10276 20008 48543 70500
                   333 59001=
201808181200 AAXX 18124 67665 41958 01312 10295 21038 48547 70500
                   333 59011=
201808180900 AAXX 18094 67665 41958 00710 10257 20041 48566 70500
                   333 59013=
201808180600 AAXX 18064 67665 31959 01203 10153 20066 48546 70500
                   333 10293 59021 555 00///=
201808180300 AAXX 18034 67665 41959 01102 10113 20050 48535 70500
                   333 58015=
201808172100 AAXX 17214 67665 41959 01802 10156 20032 48547 70500
                   333 59010=
201808171800 AAXX 17184 67665 41959 01304 10191 20070 48545 70500
                   333 59012=
201808171200 AAXX 17124 67665 41959 00909 10279 20027 48556 70500
                   333 59014=
201808170600 AAXX 17064 67665 NIL=
201808161800 AAXX 16184 67665 41959 01303 10202 20056 48558 70500
                   333 10286 59006=
201808161200 AAXX 16124 67665 41959 00406 10274 20094 48568 70500
                   333 59002=
201808160900 AAXX 16094 67665 41959 00612 10250 20066 48591 70500
                   333 59005=
201808160600 AAXX 16064 67665 NIL=
201808151200 AAXX 15124 67665 NIL=
201808150900 AAXX 15094 67665 41960 00610 10254 20018 48596 70500
                   333 58001=
201808150600 AAXX 15064 67665 31960 01207 10180 20042 48582 70500
                   333 10//0 20//0 58002=
201808150300 AAXX 15034 67665 41960 01304 10134 20039 48558 70500
                   333 59001=
201808150000 AAXX 15004 67665 41960 01701 10125 20046 48560 70500
                   333 58008=
201808142100 AAXX 14214 67665 41960 01201 10157 20060 48572 70500
                   333 58006=
201808140900 AAXX 14094 67665 42959 00815 10254 20141 48595 70500
                   333 58003=
201808140600 AAXX 14064 67665 41960 01203 10168 20086 70500
                   333 58000 91026=
201808131800 AAXX 13184 67665 41960 00706 10190 20028 48560 70500
                   333 59005=
201808131500 AAXX 13154 67665 41959 00810 10264 20024 48561 70500
                   333 59002=
201808131200 AAXX 13124 67665 41959 00710 10275 20029 48569 70500
                   333 59003=
201808130600 AAXX 13064 67665 31959 01304 10171 20079 48579 70500
                   333 10277 20//0 58011=
201808130300 AAXX 13034 67665 41980 01202 10133 20065 48564 70500
                   333 58011=
201808130000 AAXX 13004 67665 41980 01304 10149 20049 48565 70500
                   333 58010=
201808122100 AAXX 12214 67665 41980 01404 10148 20048 48568 70500
                   333 58009=
201808121800 AAXX 12184 67665 41960 00704 10186 20040 48565 70500
                   333 58010=
201808120900 AAXX 12094 67665 41660 10813 10242 20072 48589 70500 81100
                   333 58009 81840=
201808120600 AAXX 12064 67665 31959 00403 10157 20060 48571 70500
                   333 10306 58002 555 00///=
201808120000 AAXX 12004 67665 41980 01604 10152 20040 48555 70500
                   333 59001=
201808111800 AAXX 11184 67665 41980 01107 10196 20026 48556 70500
                   333 10306 58000=
201808111500 AAXX 11154 67665 41980 01110 10283 21060 48557 70500
                   333 58004=
201808111200 AAXX 11124 67665 41980 01214 10300 21012 48566 70500
                   333 58002=
201808110900 AAXX 11094 67665 41959 00910 10264 20069 48583 70500
                   333 59001=
201808110000 AAXX 11004 67665 41980 01604 10152 20040 48555 70500
                   333 59001=
201808101800 AAXX 10184 67665 41980 00305 10219 20048 48559 70500
                   333 10295 58002=
201808101500 AAXX 10154 67665 41980 00706 10282 20040 48553 70500
                   333 58001 555 10295=
201808101200 AAXX 10124 67665 41959 00508 10278 20048 48561 70500
                   333 59004=
201808100900 AAXX 10094 67665 41980 00511 10250 20070 48583 70500
                   333 58006=
201808100600 AAXX 10064 67665 31959 01107 10164 20121 48567 70500
                   333 10304 20//0 58007=
201808100300 AAXX 10034 67665 41960 01305 10145 20119 48554 70500
                   333 58015=
201808092100 AAXX 09214 67665 41959 01205 10165 20122 48565 70500
                   333 58011=
201808091200 AAXX 09124 67665 41959 00710 10296 20033 48554 70500
                   333 58007=
201808090900 AAXX 09094 67665 41959 00515 10263 20062 48598 70500
                   333 58013=
201808090600 AAXX 09064 67665 31959 01305 10179 20062 48563 70500
                   333 10322 20//0 58010=
201808090000 AAXX 09004 67665 41959 00000 10147 20041 48540 70500
                   333 58002=
201808082100 AAXX 08214 67665 41959 01503 10159 20053 48553 70500
                   333 58004=
201808071800 AAXX 07184 67665 41959 01604 10223 20045 48547 70500
                   333 10317 59008=
201808071500 AAXX 07154 67665 41959 00706 10301 20032 48543 70500
                   333 59008=
201808071200 AAXX 07124 67665 41959 00709 10312 20031 48552 70500
                   333 59003=
201808070600 AAXX 07064 67665 31980 00903 10160 20064 48559 70500
                   333 10302 20//0 58003=
201808070300 AAXX 07034 67665 42980 01502 10124 20059 48542 70500
                   333 58000=
201808070000 AAXX 07004 67665 41980 01602 10229 20060 48546 70500
                   333 59001=
201808062100 AAXX 06214 67665 41980 01802 10144 20068 48551 70500
                   333 59003=
201808061800 AAXX 06184 67665 41959 01902 10174 20062 48549 70500
                   333 58001=
201808061500 AAXX 06154 67665 41959 00110 10272 20063 48547 70500
                   333 58001=
201808061200 AAXX 06124 67665 41959 00105 10290 20040 48553 70500
                   333 59005=
201808060900 AAXX 06094 67665 41959 00805 10263 20039 48573 70500
                   333 59008=
201808060600 AAXX 06064 67665 31959 01303 10159 20086 48554 70500
                   333 10288 20//0 59007
                   555 00///=
201808060300 AAXX 06034 67665 42980 01603 10111 20056 48541
                   333 59007=
201808060000 AAXX 06004 67665 42980 01503 10105 20052 48543
                   333 59002=
201808052100 AAXX 05214 67665 42980 01403 10135 20066 48554
                   333 59011=
201808051800 AAXX 05184 67665 41980 01504 10179 20076 48548 70500
                   333 10288 59014=
201808051500 AAXX 05154 67665 41980 01207 10273 20020 48546 70500
                   333 59011=
201808051200 AAXX 05124 67665 41980 00306 10270 20039 48554 70500
                   333 59013=
201808050300 AAXX 05034 67665 41980 01303 10106 20031 48547 70200
                   333 59001=
201808042100 AAXX 04214 67665 41959 01403 10119 20044 48562 70200
                   333 58007=
201808041800 AAXX 04184 67665 42980 01105 10177 20082 48562
                   333 10271 58008=
201808041500 AAXX 04154 67665 41959 00709 10255 20020 48556 70500
                   333 58009 555 10271=
201808040900 AAXX 04094 67665 42980 00710 10227 20015 48582 70500
                   333 58010=
201808030900 AAXX 03094 67665 41959 00712 10250 20022 48575
                   333 58009=
201808030600 AAXX 03064 67665 32980 01403 10147 20059 48555
                   333 10296 20//0 58004=
201808022100 AAXX 02214 67665 42980 01603 10134 20053 48543
                   333 58002=
201808020900 AAXX 02094 67665 42980 00707 10244 20117 48567 70500
                   333 58000=
201808020600 AAXX 02064 67665 32980 01405 10167 20074 48554
                   333 10282 20//0 58004=
201808012100 AAXX 01214 67665 42980 01602 10131 20064 48540
                   333 59002=
201808011800 AAXX 01184 67665 42980 01405 10174 20076 48536
                   333 10282 59008=
201808011200 AAXX 01124 67665 42980 00807 10270 20040 48544
                   333 59010=

################################################################################
#  SYNOPS from 67666, Lusaka City Airport (Zambia) | 15-25-00S | 028-28-00E | 1280 m
################################################################################
201808310600 AAXX 31064 67666 31970 00910 10166 20075 48544 70500
                   333 10258 20128 59022 91022=
201808300600 AAXX 30064 67666 31958 00912 10160 20086 48565
                   333 10243 20118 5//// 91024=
201808280600 AAXX 28064 67666 31970 00905 10202 20064 48549 70500
                   333 10292 20150 5//// 91022=
201808270600 AAXX 27064 67666 31940 01203 10198 20062 48546 70500
                   333 10280 20135 58004 91025=
201808240600 AAXX 24064 67666 31960 00906 10195 20058 48547 70500
                   333 10292 20147 58001 91022=
201808230900 AAXX 23094 67666 NIL=
201808230600 AAXX 23064 67666 31970 00906 10195 20075 48540 70500
                   333 10290 20170 59005 91021=
201808220600 AAXX 22064 67666 31975 00908 10190 20059 48538 70500
                   333 10280 20159 59012 91022=
201808210600 AAXX 21064 67666 31960 00905 10184 20030 48556 70500
                   333 10260 20100 59009 91023=
201808200600 AAXX 20064 67666 31960 01207 10177 20074 48564 70500
                   333 10271 20119 59012 91024=
201808170600 AAXX 17064 67666 31970 00908 10190 20054 48557 70500
                   333 10274 20145 59010 91024=
201808160600 AAXX 16064 67666 31957 01205 10187 20057 48574 70500
                   333 10262 20154 59008 91025=
201808151200 AAXX 15124 67666 NIL=
201808140900 AAXX 14094 67666 41970 01015 10240 20075 48581 70500
                   333 58002 91058=
201808140600 AAXX 14064 67666 31965 00911 10188 20072 48567 70500
                   333 10260 20258 58001 91025=
201808130600 AAXX 13064 67666 31960 00906 10184 20086 48572 70500
                   333 10268 20150 5//// 91025=
201808010600 AAXX 01064 67666 32980 01204 10156 20070 48549 70200
                   333 10279 20//0 59005=

################################################################################
#  SYNOPS from 67667, Mount Makulu (Zambia) | 15-33S | 028-15E | 1213 m
################################################################################
201808310600 AAXX 31064 67667 31975 00910 10178 20092 48583 70500
                   333 10280 20126 58020=
201808300600 AAXX 30064 67667 31975 00907 10172 20101 48602 70500
                   333 10278 20133 59005=
201808280600 AAXX 28064 67667 31980 00804 10210 20084 48607 70500
                   333 10338 20130 58006=
201808270600 AAXX 27064 67667 31975 00601 10218 20092 48601 70500
                   333 10310 20140 58007=
201808240600 AAXX 24064 67667 31975 01204 10200 20081 48597 70500
                   333 10318 20128 58011=
201808230900 AAXX 23094 67667 NIL=
201808230600 AAXX 23064 67667 NIL=
201808220600 AAXX 22064 67667 31975 00905 10206 20080 48580 70500
                   333 10302 20132 59011=
201808210600 AAXX 21064 67667 31975 00505 10204 20075 48590 70500
                   333 10302 20140 59011=
201808200600 AAXX 20064 67667 32975 00601 10188 20088 48621 70500
                   333 10296 20142 58017=
201808170600 AAXX 17064 67667 31975 00903 10196 20074 48601 70500
                   333 10302 20110 59008=
201808160600 AAXX 16064 67667 31975 03604 10200 20100 48607 70500
                   333 10304 20148 59004=
201808151200 AAXX 15124 67667 NIL=
201808150600 AAXX 15064 67667 32975 00801 10200 20080 48624 70500
                   333 10312 20140 58004=
201808130600 AAXX 13064 67667 32975 00804 10201 20100 48622 70500
                   333 10290 20156 59001=

################################################################################
#  SYNOPS from 67673, Petauke (Zambia) | 14-15S | 031-17E | 1035 m
################################################################################
201808310600 AAXX 31064 67673 31970 40502 10210 20109 48568 70500 84030
                   333 10278 20148 59023 84360=
201808301200 AAXX 30124 67673 41670 40801 10250 20106 48566 70500 84200
                   333 58000 84835=
201808300600 AAXX 30064 67673 31970 40903 10184 20098 48584 70500 84030
                   333 10305 20145 59003 84360=
201808280600 AAXX 28064 67673 NIL=
201808230900 AAXX 23094 67673 41970 00502 10270 20125 48563
                   333 59009=
201808230600 AAXX 23064 67673 31970 00502 10220 20130 48567 70500
                   333 10306 20158 59002=
201808221200 AAXX 22124 67673 41970 00901 10294 20123 48533 70500
                   333 59006=
201808220900 AAXX 22094 67673 41970 00502 10270 20123 48572 70500
                   333 58012=
201808220600 AAXX 22064 67673 31970 00502 10224 20127 48566 70500
                   333 10320 20155 58001=
201808170600 AAXX 17064 67673 31950 00102 10215 20120 48573 70500
                   333 10300 20165 59007=
201808160600 AAXX 16064 67673 31930 00000 10215 20105 48578 70500
                   333 10365 20160 59013=
201808151200 AAXX 15124 67673 41970 00602 10294 20093 48572 70500
                   333 59014=
201808150600 AAXX 15064 67673 31970 00902 10228 20075 48594 70500
                   333 10290 20162 59006=
201808141200 AAXX 14124 67673 41970 00902 10284 20105 48584 70500
                   333 58026=
201808140600 AAXX 14064 67673 31970 00403 10220 20102 48598
                   333 10314 20150 58019=
201808020900 AAXX 02094 67673 41975 00501 10270 20157 48567 70500
                   333 5////=

################################################################################
#  SYNOPS from 67731, Senanga (Zambia) | 16-06S | 023-16E | 1027 m
################################################################################
201808310600 AAXX 31064 67731 32980 012// 10201 20077 48///
                   333 10301 20137 59012
                   555 00082=
201808300600 AAXX 30064 67731 32980 019// 10205 20095 48///
                   333 10301 20168 59008
                   555 00125=
201808280600 AAXX 28064 67731 32980 018// 10154 20011 48///
                   333 10316 20111 58014
                   555 00073=
201808240600 AAXX 24064 67731 32980 012// 10234 20024 48///
                   333 10342 20139 58000
                   555 00107=
201808230900 AAXX 23094 67731 NIL=
201808230600 AAXX 23064 67731 31978 028// 10179 20089 48/// 70500
                   333 10330 20123 58001
                   555 00093=
201808220600 AAXX 22064 67731 32980 015// 10181 20079 48///
                   333 10325 20134 59018
                   555 00100=
201808210600 AAXX 21064 67731 32980 012// 10189 20055 48///
                   333 10301 20138 59005
                   555 00093=
201808200600 AAXX 20064 67731 32980 025// 10188 20075 48///
                   333 10245 20143 58007
                   555 00103=
201808170600 AAXX 17064 67731 31975 010// 10169 20070 48/// 70500
                   333 10340 20106 59024
                   555 00097=
201808160600 AAXX 16064 67731 32980 024// 10199 20085 48///
                   333 10316 20124 58005
                   555 00102=
201808151200 AAXX 15124 67731 NIL=
201808150600 AAXX 15064 67731 32980 017// 10198 20068 48///
                   333 10300 20143 58009
                   555 00103=
201808140600 AAXX 14064 67731 32980 019// 10197 20091 48///
                   333 10291 20149 59006
                   555 00112=
201808130600 AAXX 13064 67731 32980 018// 10191 20119 48///
                   333 10320 20123 58026
                   555 00073=

################################################################################
#  SYNOPS from 67741, Sesheke (Zambia) | 17-28S | 024-18E | 949 m
################################################################################
201808280600 AAXX 28064 67741 32980 00000 10140 21012 48550
                   333 10326 20079 58008=
201808240600 AAXX 24064 67741 32980 00000 10171 20089 48521
                   333 10332 20094 59008=
201808230900 AAXX 23094 67741 NIL=
201808230600 AAXX 23064 67741 32980 00000 10168 20092 48528
                   333 10332 20088 58001
                   555 00060=
201808220600 AAXX 22064 67741 32980 00000 10132 20084 48520
                   333 10324 20058 59012
                   555 00046=
201808200600 AAXX 20064 67741 32980 00000 10199 20098 48553
                   333 10322 20085 58005=
201808170600 AAXX 17064 67741 32980 00000 10174 20079 48547
                   333 10325 20064 59010
                   555 00050=
201808160600 AAXX 16064 67741 32980 00801 10193 20077 48561
                   333 10312 20093 59008
                   555 00070=
201808151200 AAXX 15124 67741 NIL=
201808150600 AAXX 15064 67741 32980 00000 10150 20102 48561
                   333 10310 20089 58005
                   555 00067=
201808140600 AAXX 14064 67741 32980 10000 10156 20090 48554 81030
                   333 10301 20070 59003 81362
                   555 00061=

################################################################################
#  SYNOPS from 67743, Livingstone (Zambia) | 17-49S | 025-49E | 985 m
################################################################################
201808310600 AAXX 31064 67743 31975 00807 10174 20023 48545 70500
                   333 10295 20096 58018 91021=
201808300600 AAXX 30064 67743 31975 00907 10172 20072 48555 70500
                   333 10301 20127 59004 91024=
201808280600 AAXX 28064 67743 31975 01406 10167 21055 48545 70500
                   333 10335 20101 58000 91022=
201808240600 AAXX 24064 67743 31975 00504 10199 20041 48540 70500
                   333 10320 20111 58003 91021=
201808230900 AAXX 23094 67743 NIL=
201808230600 AAXX 23064 67743 31975 00402 10170 20076 48533 70500
                   333 10320 20098 58001 91020=
201808220600 AAXX 22064 67743 31970 01803 10145 20045 48523 70500
                   333 10318 20093 91020=
201808210600 AAXX 21064 67743 31970 01301 10167 20072 48541 70500
                   333 10306 20092 59010 91021=
201808200600 AAXX 20064 67743 31975 01605 10165 20070 48553 70500
                   333 10320 20125 59002 91023=
201808170600 AAXX 17064 67743 31975 02102 10162 20039 48550 70500
                   333 10321 20083 59011 91022=
201808160600 AAXX 16064 67743 32980 00805 10184 20026 48523
                   333 10315 20091 59009 91019=
201808151200 AAXX 15124 67743 31970 01102 10174 20040 48572 70500
                   333 10310 20095 58010 91025=
201808150900 AAXX 15094 67743 41970 00708 10263 20020 48581 70500
                   333 58009 91024=
201808130600 AAXX 13064 67743 32980 10508 10197 20041 48572
                   333 10320 20114 58005 91024=

################################################################################
#  SYNOPS from 67751, Magoye (Zambia) | 16-00S | 027-36E | 1018 m
################################################################################
201808310600 AAXX 31064 67751 31975 01203 10177 20088 48/// 70500
                   333 10250 20144 5////
                   555 00220=
201808300600 AAXX 30064 67751 31978 00402 10254 20091 48/// 70500
                   333 10//0 20150 58003=
201808280600 AAXX 28064 67751 32980 01302 10196 20070 48/// 70500
                   333 10346 20118 58001=
201808270600 AAXX 27064 67751 31975 0//// 10177 20080 48/// 70500
                   333 10322 20082 59004=
201808240600 AAXX 24064 67751 31970 01604 10200 20090 48/// 70500
                   333 10322 20095 59007=
201808230900 AAXX 23094 67751 NIL=
201808230600 AAXX 23064 67751 31950 01401 10196 20080 48/// 70500
                   333 10316 20109 58006=
201808220600 AAXX 22064 67751 31975 00000 10200 20078 48/// 70500
                   333 10316 20092 58010=
201808210600 AAXX 21064 67751 31975 00910 10205 20069 48/// 70500
                   333 10312 20083 58014=
201808200600 AAXX 20064 67751 31975 00905 10195 20082 48/// 70500
                   333 10304 20096 58004=
201808170600 AAXX 17064 67751 31976 01901 10210 20060 48/// 70500
                   333 10312 20046 58005=
201808160600 AAXX 16064 67751 31978 01701 10190 20086 48/// 70500
                   333 10304 20040 5////=
201808151200 AAXX 15124 67751 NIL=
201808150600 AAXX 15064 67751 31978 01001 10210 20060 48/// 70500
                   333 10300 20054 59002=
201808130600 AAXX 13064 67751 31976 01002 10210 20085 48/// 70500
                   333 10290 20121 58013=

################################################################################
#  SYNOPS from 67753, Choma (Zambia) | 16-50S | 027-04E | 1213 m
################################################################################
201808310600 AAXX 31064 67753 31960 02902 10146 20080 48534 70500
                   333 10256 20074 59024=
201808300600 AAXX 30064 67753 31960 02810 10164 20104 48564 70500
                   333 10257 20130 59005=
201808280600 AAXX 28064 67753 31960 01002 10161 20036 48535 70500
                   333 10312 20130 58003=
201808240600 AAXX 24064 67753 31960 00000 10150 20075 48544 70500
                   333 10294 20100 58003=
201808230900 AAXX 23094 67753 NIL=
201808230600 AAXX 23064 67753 31960 01802 10181 20089 48537 70500
                   333 10289 20100 59001=
201808220600 AAXX 22064 67753 31960 00000 10160 20066 48535 70500
                   333 10281 20092 59012=
201808200600 AAXX 20064 67753 31960 01802 10135 20077 48552 70500
                   333 10285 20098 59006=
201808170600 AAXX 17064 67753 31959 00000 10151 20065 48553 70500
                   333 10290 20088 59011=
201808160600 AAXX 16064 67753 31959 00000 10125 20076 48561 70500
                   333 10281 20074 59001=
201808151200 AAXX 15124 67753 NIL=
201808150600 AAXX 15064 67753 31959 02803 10168 20081 48568 70500
                   333 10271 20122 58003=
201808140600 AAXX 14064 67753 31960 02604 10174 20094 48566 70500
                   333 10264 20112 59004=

################################################################################
#  SYNOPS from 67855, Lupaki (Zambia) | 17-03-00S | 024-46-00E | 1000 m
################################################################################
201808310600 AAXX 31064 67855 31970 00000 10114 20035 3//// 48/// 70500
                   333 20052 5////=
201808301500 AAXX 30154 67855 41970 00303 10282 20020 3//// 48/// 70500
                   333 5////=
201808301200 AAXX 30124 67855 41970 01307 10282 20020 3//// 48/// 70500
                   333 5////=
201808291200 AAXX 29124 67855 41770 11602 10290 20061 3//// 48/// 70500 81100
                   333 5//// 81850=
201808290900 AAXX 29094 67855 41970 00208 10250 20085 3//// 48/// 70500
                   333 5////=
201808290600 AAXX 29064 67855 31970 01302 10154 20103 3//// 48/// 70500
                   333 20122 5////=
201808281500 AAXX 28154 67855 41970 10503 10274 20110 3//// 48/// 70500 81060
                   333 5//// 81360=
201808281200 AAXX 28124 67855 41770 10403 10294 20094 3//// 48/// 70500 81100
                   333 5//// 81850=
201808280900 AAXX 28094 67855 41970 01305 10258 20115 38/// 48/// 70500
                   333 5////=
201808280600 AAXX 28064 67855 31970 00901 10154 20120 3//// 48/// 70500
                   333 20110 5////=
201808271200 AAXX 27124 67855 41970 02804 10320 20023 3//// 48/// 70500
                   333 5////=
201808270900 AAXX 27094 67855 41970 00101 10286 20038 3//// 48/// 70500
                   333 5////=
201808270600 AAXX 27064 67855 31970 00000 10124 20035 3//// 48/// 70500
                   333 20077 5////=
201808251200 AAXX 25124 67855 41970 00907 10302 20065 3//// 48/// 70500
                   333 5////=
201808250900 AAXX 25094 67855 41970 00305 10276 20073 3//// 48/// 70500
                   333 5////=
201808241500 AAXX 24154 67855 41970 10000 10312 20077 3//// 48/// 70500 81060
                   333 5//// 81360=
201808241200 AAXX 24124 67855 41970 21805 10320 20060 3//// 48/// 70500 82100
                   333 5//// 82856=
201808240600 AAXX 24064 67855 31970 00000 10158 20063 3//// 48/// 70500
                   333 20108 5////=
201808220900 AAXX 22094 67855 41970 00305 10208 20052 3//// 48/// 70500
                   333 5////=
201808220600 AAXX 22064 67855 31970 00903 10118 20040 38/// 48/// 70500
                   333 20077 5////=
201808210600 AAXX 21064 67855 31970 00000 10125 20056 3//// 48/// 70500
                   333 20084 5////=
201808201500 AAXX 20154 67855 41970 03402 10299 20080 3//// 48/// 70500
                   333 5////=
201808201200 AAXX 20124 67855 41970 00502 10310 20070 3//// 48/// 70500
                   333 5////=
201808180900 AAXX 18094 67855 41970 00102 10254 20075 3//// 48/// 70500
                   333 5////=
201808180600 AAXX 18064 67855 31970 01602 10102 20022 3//// 48/// 70500
                   333 20056 5////=
201808171200 AAXX 17124 67855 41970 00704 10319 20030 38/// 48/// 70500
                   333 5////=
201808170900 AAXX 17094 67855 41970 00304 10281 20046 38/// 48/// 70500
                   333 5////=
201808170600 AAXX 17064 67855 31970 00000 10122 20055 3//// 48/// 70500
                   333 20074 5////=
201808161200 AAXX 16124 67855 41970 00302 10309 20057 3//// 48/// 70500
                   333 5////=
201808160900 AAXX 16094 67855 41970 03603 10278 20061 3//// 48/// 70500
                   333 5////=
201808160600 AAXX 16064 67855 31970 00000 10110 20046 3//// 48/// 70500
                   333 20071 5////=
201808151500 AAXX 15154 67855 41970 01303 10291 20060 3//// 48/// 70500
                   333 5////=
201808151200 AAXX 15124 67855 41970 00303 10307 20045 3//// 48/// 70500
                   333 5////=
201808150900 AAXX 15094 67855 41970 00405 10276 20045 3//// 48/// 70500
                   333 5////=
201808150600 AAXX 15064 67855 31970 00000 10118 20066 3//// 48/// 70500
                   333 20070 5////=
201808141200 AAXX 14124 67855 41970 00601 10304 20095 38/// 48/// 70500
                   333 5////=
201808140600 AAXX 14064 67855 31970 00000 10128 20066 3//// 48/// 70500
                   333 20080 5////=
201808131200 AAXX 13124 67855 41670 50205 10298 20063 3//// 48/// 70511 81101
                   333 5//// 81845 85080=
201808121200 AAXX 12124 67855 41970 02108 10310 20078 3//// 48/// 70511
                   333 5////=
201808120600 AAXX 12064 67855 31970 50607 10180 20106 3//// 48/// 70522 80001
                   333 20103 5//// 85080=
201808111200 AAXX 11124 67855 41970 00302 10316 20113 3//// 48/// 70500
                   333 5////=
201808110900 AAXX 11094 67855 41970 03601 10270 20108 3//// 48/// 70500
                   333 5////=
201808110600 AAXX 11064 67855 31970 00000 10104 20068 3//// 48/// 70500
                   333 20085 5////=
201808101200 AAXX 10124 67855 41970 00307 10304 20114 3//// 48/// 70500
                   333 5////=
201808100600 AAXX 10064 67855 31970 00702 10165 20090 3//// 48/// 70500
                   333 20117 5////=
201808091200 AAXX 09124 67855 41970 00806 10305 20058 3//// 48/// 70500
                   333 5////=
201808090900 AAXX 09094 67855 41970 00605 10259 20112 3//// 48/// 70500
                   333 5////=
201808090600 AAXX 09064 67855 31970 00605 10164 20123 3//// 48/// 70500
                   333 20110 5////=
201808081200 AAXX 08124 67855 41970 01002 10336 20098 3//// 48/// 70500
                   333 5////=
201808080900 AAXX 08094 67855 41970 00303 10296 20091 3//// 48/// 70500
                   333 5////=
201808080600 AAXX 08064 67855 31970 00000 10131 20080 3//// 48/// 70500
                   333 20098 5////=
201808071500 AAXX 07154 67855 41970 01501 10322 20121 3//// 48/// 70500
                   333 5////=
201808071200 AAXX 07124 67855 41970 03401 10344 20093 3//// 48/// 70500
                   333 5////=
201808070900 AAXX 07094 67855 41970 03102 10292 20072 3//// 48/// 70500
                   333 5////=
201808061200 AAXX 06124 67855 41970 01202 10310 20075 3//// 48/// 70500
                   333 5////=
201808060900 AAXX 06094 67855 41970 02502 10262 20089 3//// 48/// 70500
                   333 5////=
201808060600 AAXX 06064 67855 31970 00000 10090 20048 3//// 48/// 70500
                   333 20059 5////=
201808041500 AAXX 04154 67855 41970 00000 10271 20059 38/// 48/// 70500
                   333 5////=
201808040900 AAXX 04094 67855 41970 02703 10256 20040 38/// 48/// 70500
                   333 5////=
201808040600 AAXX 04064 67855 31970 00000 10134 20044 3//// 48/// 70500
                   333 20092 5////=
201808031200 AAXX 03124 67855 41970 03603 10294 20039 3//// 48/// 70500
                   333 5////=
201808030900 AAXX 03094 67855 41970 03606 10266 20056 3//// 48/// 70500
                   333 5////=
201808021500 AAXX 02154 67855 41970 00000 10286 20095 3//// 48/// 70500
                   333 5////=
201808020900 AAXX 02094 67855 41970 00602 10276 20065 3//// 48/// 70500
                   333 5////=
201808020600 AAXX 02064 67855 31970 00000 10108 20063 3//// 48/// 70500
                   333 20063 5////=
201808011200 AAXX 01124 67855 41970 00303 10290 20090 3//// 48/// 70500
                   333 5////=
201808010900 AAXX 01094 67855 41970 03501 10254 20086 3//// 48/// 70500
                   333 5////=
201808010600 AAXX 01064 67855 31970 00000 10106 20040 3//// 48/// 70500
                   333 20060 5////=
