################################################################################
# Query made at 04/14/2022 03:57:21 UTC
# Country like Zamb*
# Time interval: from 07/01/2015 05:30  to 07/31/2015 06:30  UTC
################################################################################

################################################################################
#  SYNOPS from 67403, Kawambwa (Zambia) | 09-48S | 029-05E | 1323 m
################################################################################
201507300600 AAXX 30064 67403 NIL=
201507270600 AAXX 27064 67403 NIL=
201507220900 AAXX 22094 67403 NIL=
201507211200 AAXX 21124 67403 NIL=
201507201200 AAXX 20124 67403 NIL=
201507191500 AAXX 19154 67403 NIL=
201507170900 AAXX 17094 67403 NIL=
201507170600 AAXX 17064 67403 NIL=
201507160600 AAXX 16064 67403 31980 00903 10150 20095 48533 70500
                   333 10/// 20121 59012=
201507150900 AAXX 15094 67403 NIL=
201507150600 AAXX 15064 67403 31980 00903 10157 20118 48544 70500
                   333 10/// 20124 59001=
201507131200 AAXX 13124 67403 NIL=
201507130600 AAXX 13064 67403 32980 10905 10169 20084 48544 81030
                   333 10//0 20125 59008 81360=
201507100600 AAXX 10064 67403 32980 00913 10163 20088 48546
                   333 10/// 20125 59003=
201507081500 AAXX 08154 67403 NIL=
201507080600 AAXX 08064 67403 31980 00904 10158 20114 48557 70500
                   333 10/// 20129 58006=
201507030600 AAXX 03064 67403 31975 01208 10149 20092 48549 70500
                   333 10//0 20117 59002=
201507020900 AAXX 02094 67403 NIL=
201507020600 AAXX 02064 67403 31980 00905 10156 20100 48551 70500
                   333 10/// 20112 58009=
201507020300 AAXX 02034 67403 NIL=
201507011200 AAXX 01124 67403 NIL=
201507010600 AAXX 01064 67403 31980 00903 10157 20113 48577 70500
                   333 10/// 20126 59002=

################################################################################
#  SYNOPS from 67413, Mbala (Zambia) | 08-51S | 031-20E | 1673 m
################################################################################
201507300600 AAXX 30064 67413 NIL=
201507270600 AAXX 27064 67413 NIL=
201507220900 AAXX 22094 67413 NIL=
201507211200 AAXX 21124 67413 NIL=
201507201200 AAXX 20124 67413 NIL=
201507191500 AAXX 19154 67413 NIL=
201507170900 AAXX 17094 67413 NIL=
201507170600 AAXX 17064 67413 NIL=
201507150900 AAXX 15094 67413 NIL=
201507131200 AAXX 13124 67413 NIL=
201507100600 AAXX 10064 67413 NIL=
201507081500 AAXX 08154 67413 NIL=
201507030600 AAXX 03064 67413 NIL=
201507020900 AAXX 02094 67413 NIL=
201507020300 AAXX 02034 67413 NIL=
201507011200 AAXX 01124 67413 NIL=

################################################################################
#  SYNOPS from 67441, Mwinilunga (Zambia) | 11-45S | 024-26E | 1361 m
################################################################################
201507300600 AAXX 30064 67441 NIL=
201507270600 AAXX 27064 67441 NIL=
201507240600 AAXX 24064 67441 31970 032// 10135 20100 48552 70500
                   333 10295 20//0 59009=
201507230600 AAXX 23064 67441 31975 028// 10114 20098 48561 70500
                   333 10290 20/// 58000=
201507220900 AAXX 22094 67441 NIL=
201507220600 AAXX 22064 67441 31970 518// 10115 20097 48561 70522 85030
                   333 10290 20/// 58006 85360=
201507211200 AAXX 21124 67441 NIL=
201507210600 AAXX 21064 67441 31965 020// 10/// 20083 48553 70500
                   333 10270 20/// 59003=
201507201200 AAXX 20124 67441 NIL=
201507200600 AAXX 20064 67441 31970 018// 10110 20065 48561 70500
                   333 10285 20/// 5////=
201507191500 AAXX 19154 67441 NIL=
201507170900 AAXX 17094 67441 NIL=
201507170600 AAXX 17064 67441 NIL=
201507160600 AAXX 16064 67441 31975 016// 10125 20069 48561 70500
                   333 10260 20/// 59012=
201507150900 AAXX 15094 67441 NIL=
201507150600 AAXX 15064 67441 31970 030// 10100 20062 48571 70500
                   333 10290 20/// 58003=
201507131200 AAXX 13124 67441 NIL=
201507130600 AAXX 13064 67441 31975 034// 10113 20055 48561 70500
                   333 10295 20/// 5////=
201507100600 AAXX 10064 67441 NIL=
201507081500 AAXX 08154 67441 NIL=
201507080600 AAXX 08064 67441 31975 015// 10130 20104 48580 70500
                   333 10286 20/// 5////=
201507030600 AAXX 03064 67441 31975 116// 10114 20079 48571 70500 80001
                   333 10285 20/// 59004 81080=
201507020900 AAXX 02094 67441 NIL=
201507020300 AAXX 02034 67441 NIL=
201507011200 AAXX 01124 67441 NIL=

################################################################################
#  SYNOPS from 67461, Mansa (Zambia) | 11-06S | 028-51E | 1382 m
################################################################################
201507300600 AAXX 30064 67461 NIL=
201507290600 AAXX 29064 67461 32980 00702 10148 20125 48544
                   333 10275 20103 58000
                   555 91022=
201507270600 AAXX 27064 67461 NIL=
201507230600 AAXX 23064 67461 32980 00904 10/// 20114 48544
                   333 10263 20102 59003 91022=
201507220900 AAXX 22094 67461 NIL=
201507211200 AAXX 21124 67461 NIL=
201507201200 AAXX 20124 67461 NIL=
201507191500 AAXX 19154 67461 NIL=
201507170900 AAXX 17094 67461 NIL=
201507170600 AAXX 17064 67461 32980 01102 10135 20089 48535
                   333 10278 20040 59003 91021=
201507160600 AAXX 16064 67461 32980 00706 10145 20100 48539
                   333 10270 20065 59015 91021=
201507150900 AAXX 15094 67461 NIL=
201507131200 AAXX 13124 67461 NIL=
201507100600 AAXX 10064 67461 NIL=
201507081500 AAXX 08154 67461 NIL=
201507030600 AAXX 03064 67461 32890 11108 10130 20112 48561 81500
                   333 10258 20095 58007 81620 91024=
201507020900 AAXX 02094 67461 NIL=
201507020300 AAXX 02034 67461 NIL=
201507011200 AAXX 01124 67461 NIL=

################################################################################
#  SYNOPS from 67475, Kasama (Zambia) | 10-13S | 031-08E | 1382 m
################################################################################
201507300600 AAXX 30064 67475 NIL=
201507290600 AAXX 29064 67475 31975 00505 10145 20104 48551 70500
                   333 10267 20094 59002
                   555 91024=
201507270600 AAXX 27064 67475 NIL=
201507240600 AAXX 24064 67475 31975 93611 10153 20107 48548 70500
                   333 10256 20091 59009 91023=
201507220900 AAXX 22094 67475 41978 00914 10226 20066 48564 70500
                   333 58011 91025=
201507220600 AAXX 22064 67475 31978 00904 10165 20102 48561 70500
                   333 10265 20091 58011 91025=
201507211200 AAXX 21124 67475 NIL=
201507201200 AAXX 20124 67475 NIL=
201507200600 AAXX 20064 67475 31975 00911 10174 20118 48548 70500
                   333 10279 20111 59002 91023=
201507191500 AAXX 19154 67475 NIL=
201507170900 AAXX 17094 67475 41975 01010 10236 20079 48552 70500
                   333 59005 91023=
201507170600 AAXX 17064 67475 31975 00509 10142 20090 48543 70500
                   333 10261 20073 59009 91023=
201507160600 AAXX 16064 67475 31975 00911 10162 20099 48551 70500
                   333 10258 20080 59016 91024=
201507150900 AAXX 15094 67475 NIL=
201507150600 AAXX 15064 67475 31975 01013 10167 20101 48568 70500
                   333 10263 20120 58004 91026=
201507131200 AAXX 13124 67475 NIL=
201507130600 AAXX 13064 67475 31975 00502 10158 20095 48562 70500
                   333 10270 20072 59009 91025=
201507100600 AAXX 10064 67475 31975 01217 10163 20110 48569 70500
                   333 10268 20096 58004 91026=
201507081500 AAXX 08154 67475 41875 11311 10236 20098 48551 70500 81060
                   333 59005 81358 91023=
201507081200 AAXX 08124 67475 41775 41415 10239 20098 48556 70500 84200
                   333 59005 84856 91024=
201507080600 AAXX 08064 67475 31975 01305 10156 20113 48576 70500
                   333 10261 20099 58004 91026=
201507030600 AAXX 03064 67475 31975 01313 10152 20101 48566 70500
                   333 10254 20097 58002 91025=
201507020900 AAXX 02094 67475 NIL=
201507020300 AAXX 02034 67475 NIL=
201507011200 AAXX 01124 67475 NIL=
201507010600 AAXX 01064 67475 32975 11213 10157 20126 48556 70500 80001
                   333 10263 20116 59007 81080 91024=

################################################################################
#  SYNOPS from 67476, Misamfu (Zambia) | 10-06S | 031-15E | 1536 m
################################################################################
201507300600 AAXX 30064 67476 NIL=
201507270600 AAXX 27064 67476 NIL=
201507220900 AAXX 22094 67476 NIL=
201507211200 AAXX 21124 67476 NIL=
201507201200 AAXX 20124 67476 NIL=
201507191500 AAXX 19154 67476 NIL=
201507170900 AAXX 17094 67476 NIL=
201507170600 AAXX 17064 67476 NIL=
201507150900 AAXX 15094 67476 NIL=
201507131200 AAXX 13124 67476 NIL=
201507100600 AAXX 10064 67476 32980 00904 10147 20110 48///
                   333 10263 20087 58002=
201507081500 AAXX 08154 67476 NIL=
201507030600 AAXX 03064 67476 NIL=
201507020900 AAXX 02094 67476 NIL=
201507020300 AAXX 02034 67476 NIL=
201507011200 AAXX 01124 67476 NIL=

################################################################################
#  SYNOPS from 67477, Mpika (Zambia) | 11-54S | 031-26E | 1400 m
################################################################################
201507300600 AAXX 30064 67477 NIL=
201507290600 AAXX 29064 67477 32980 00000 10180 20///
                   333 10245 20080=
201507270600 AAXX 27064 67477 NIL=
201507240600 AAXX 24064 67477 31978 01210 10173 20//0 48549 70500
                   333 10245 20123 59013=
201507220900 AAXX 22094 67477 NIL=
201507220600 AAXX 22064 67477 32980 01202 10169 20/// 48563
                   333 10249 20110 58006=
201507211200 AAXX 21124 67477 NIL=
201507201200 AAXX 20124 67477 NIL=
201507200600 AAXX 20064 67477 31978 00904 10188 20/// 48556 70500
                   333 10248 20132 5////=
201507191500 AAXX 19154 67477 NIL=
201507170900 AAXX 17094 67477 NIL=
201507170600 AAXX 17064 67477 NIL=
201507160600 AAXX 16064 67477 32980 00000 10150 20/// 48556
                   333 10240 20090 59009=
201507150900 AAXX 15094 67477 NIL=
201507150600 AAXX 15064 67477 32980 01210 10170 20/// 48566
                   333 10250 20130 58005=
201507131200 AAXX 13124 67477 NIL=
201507130600 AAXX 13064 67477 32980 01202 10185 20/// 48566
                   333 10220 20090 59006=
201507100600 AAXX 10064 67477 32980 01202 10150 20/// 48572
                   333 10230 20101 59002=
201507090600 AAXX 09064 67477 32980 00000 10150 20/// 48574
                   333 10260 20090 59005=
201507081500 AAXX 08154 67477 NIL=
201507080600 AAXX 08064 67477 32480 60000 10150 20111 48580 86100
                   333 10260 20110 58007 86812=
201507030600 AAXX 03064 67477 32380 41201 10145 20/// 48576 84500
                   333 10225 20105 58006 84609=
201507020900 AAXX 02094 67477 NIL=
201507020600 AAXX 02064 67477 32980 01202 10150 20/// 48570
                   333 10229 20100 58005=
201507020300 AAXX 02034 67477 NIL=
201507011200 AAXX 01124 67477 NIL=
201507010600 AAXX 01064 67477 32980 01204 10160 20/// 48566
                   333 10240 20120 58002=

################################################################################
#  SYNOPS from 67481, Isoka (Zambia) | 10-07S | 032-38E | 1360 m
################################################################################
201507300600 AAXX 30064 67481 NIL=
201507270600 AAXX 27064 67481 NIL=
201507240900 AAXX 24094 67481 41775 10901 10245 20096 48/// 70400 81500
                   333 59013 81656=
201507231200 AAXX 23124 67481 41775 11203 10261 20091 48/// 70400 81100
                   333 59011 81856=
201507220900 AAXX 22094 67481 NIL=
201507220600 AAXX 22064 67481 31975 01303 10177 20098 48/// 70500
                   333 10274 20102 58008=
201507211200 AAXX 21124 67481 NIL=
201507201200 AAXX 20124 67481 NIL=
201507191500 AAXX 19154 67481 NIL=
201507170900 AAXX 17094 67481 41975 03201 10228 20091 48/// 70500
                   333 59005=
201507170600 AAXX 17064 67481 31975 00000 10160 20091 48/// 70500
                   333 10260 20085 59009=
201507160600 AAXX 16064 67481 31975 01702 10162 20093 48/// 70400
                   333 10259 20091 59013=
201507150900 AAXX 15094 67481 NIL=
201507140600 AAXX 14064 67481 31975 02201 10175 20104 48/// 70400
                   333 10280 20097 58001=
201507131200 AAXX 13124 67481 NIL=
201507130600 AAXX 13064 67481 31975 00000 10185 20103 48/// 70500
                   333 10254 20101 59005=
201507100600 AAXX 10064 67481 31975 00000 10171 20125 48/// 70500
                   333 10256 20110 58002=
201507081500 AAXX 08154 67481 NIL=
201507081200 AAXX 08124 67481 42680 50703 10235 20121 48/// 85800
                   333 58000 83844 82645=
201507080600 AAXX 08064 67481 31475 30000 10161 20116 48/// 70500 81520
                   333 10267 20122 58004 81610=
201507030600 AAXX 03064 67481 31375 11502 10159 20115 48/// 70500 81600
                   333 10255 20080 58001 81708=
201507020900 AAXX 02094 67481 41675 31401 10220 20120 48/// 70500 83500
                   333 5//// 83638=
201507020300 AAXX 02034 67481 NIL=
201507011200 AAXX 01124 67481 NIL=
201507010600 AAXX 01064 67481 31375 61201 10165 20140 48/// 70522
                   333 10262 20130 59001 86706=

################################################################################
#  SYNOPS from 67531, Zambezi (Zambia) | 13-32S | 023-07E | 1077 m
################################################################################
201507300600 AAXX 30064 67531 NIL=
201507270600 AAXX 27064 67531 NIL=
201507240600 AAXX 24064 67531 31960 00903 10105 20080 48/// 70500
                   333 10301 20049 5////=
201507220900 AAXX 22094 67531 NIL=
201507211200 AAXX 21124 67531 NIL=
201507201200 AAXX 20124 67531 NIL=
201507191500 AAXX 19154 67531 NIL=
201507170900 AAXX 17094 67531 NIL=
201507170600 AAXX 17064 67531 NIL=
201507150900 AAXX 15094 67531 NIL=
201507131200 AAXX 13124 67531 NIL=
201507100600 AAXX 10064 67531 31970 01105 10122 20074 48/// 70500
                   333 10282 20086 59007=
201507081500 AAXX 08154 67531 NIL=
201507030600 AAXX 03064 67531 NIL=
201507020900 AAXX 02094 67531 NIL=
201507020300 AAXX 02034 67531 NIL=
201507011200 AAXX 01124 67531 NIL=

################################################################################
#  SYNOPS from 67541, Kasempa (Zambia) | 13-32S | 025-51E | 1234 m
################################################################################
201507300600 AAXX 30064 67541 NIL=
201507270600 AAXX 27064 67541 NIL=
201507220900 AAXX 22094 67541 NIL=
201507211200 AAXX 21124 67541 NIL=
201507201200 AAXX 20124 67541 NIL=
201507191500 AAXX 19154 67541 NIL=
201507170900 AAXX 17094 67541 NIL=
201507170600 AAXX 17064 67541 NIL=
201507150900 AAXX 15094 67541 NIL=
201507131200 AAXX 13124 67541 NIL=
201507100600 AAXX 10064 67541 NIL=
201507081500 AAXX 08154 67541 NIL=
201507030600 AAXX 03064 67541 NIL=
201507020900 AAXX 02094 67541 NIL=
201507020300 AAXX 02034 67541 NIL=
201507011200 AAXX 01124 67541 NIL=

################################################################################
#  SYNOPS from 67543, Kabompo (Zambia) | 13-36S | 024-12E | 1075 m
################################################################################
201507300600 AAXX 30064 67543 NIL=
201507270600 AAXX 27064 67543 NIL=
201507220900 AAXX 22094 67543 NIL=
201507211200 AAXX 21124 67543 NIL=
201507201200 AAXX 20124 67543 NIL=
201507200600 AAXX 20064 67543 31975 0//00 10102 20074 48/// 70500
                   333 10318 20/// 5////=
201507191500 AAXX 19154 67543 NIL=
201507170900 AAXX 17094 67543 NIL=
201507170600 AAXX 17064 67543 31975 0//00 10072 20066 48/// 70500
                   333 10298 20/// 5////=
201507160600 AAXX 16064 67543 31975 0//00 10113 20078 48/// 70500
                   333 10305 20/// 5////=
201507150900 AAXX 15094 67543 NIL=
201507131200 AAXX 13124 67543 NIL=
201507130900 AAXX 13094 67543 41975 0//00 10232 20081 48/// 70500=
201507130600 AAXX 13064 67543 31968 0//00 10072 20060 48/// 70500
                   333 10300 20/// 5////=
201507100600 AAXX 10064 67543 NIL=
201507081500 AAXX 08154 67543 NIL=
201507080600 AAXX 08064 67543 31970 0//00 10123 20104 48/// 70500
                   333 10296 20/// 5////=
201507030600 AAXX 03064 67543 NIL=
201507020900 AAXX 02094 67543 NIL=
201507020300 AAXX 02034 67543 NIL=
201507011200 AAXX 01124 67543 NIL=

################################################################################
#  SYNOPS from 67551, Solwezi (Zambia) | 12-11S | 026-23E | 1386 m
################################################################################
201507300600 AAXX 30064 67551 NIL=
201507270600 AAXX 27064 67551 NIL=
201507220900 AAXX 22094 67551 NIL=
201507211200 AAXX 21124 67551 NIL=
201507201200 AAXX 20124 67551 NIL=
201507191500 AAXX 19154 67551 NIL=
201507170900 AAXX 17094 67551 NIL=
201507170600 AAXX 17064 67551 NIL=
201507150900 AAXX 15094 67551 NIL=
201507131200 AAXX 13124 67551 NIL=
201507100600 AAXX 10064 67551 NIL=
201507081500 AAXX 08154 67551 NIL=
201507030600 AAXX 03064 67551 NIL=
201507020900 AAXX 02094 67551 NIL=
201507020300 AAXX 02034 67551 NIL=
201507011200 AAXX 01124 67551 NIL=

################################################################################
#  SYNOPS from 67561, Ndola (Zambia) | 13-00S | 028-39E | 1269 m
################################################################################
201507300600 AAXX 30064 67561 NIL=
201507290600 AAXX 29064 67561 31960 10905 10160 20107 48550 70500 80001
                   333 10268 20/// 59007 81080
                   555 91023=
201507280600 AAXX 28064 67561 31958 00000 10144 20108 48549 70400
                   333 10282 20//0 58007
                   555 00/// 91023=
201507270600 AAXX 27064 67561 NIL=
201507260600 AAXX 26064 67561 31956 00000 10115 20076 48536 70400
                   333 10299 20090 59002
                   555 00/// 91022=
201507250600 AAXX 25064 67561 31959 00000 10131 20096 48539 70400
                   333 10285 20093 59001
                   555 91022=
201507241200 AAXX 24124 67561 41965 00000 10278 20106 48565 70500
                   333 59006 555 91020=
201507240600 AAXX 24064 67561 31959 40000 10133 20080 48540 70400 80001
                   333 10275 20095 59015 84080
                   555 00/// 91022=
201507240300 AAXX 24034 67561 41960 00000 10105 20096 48526 70500
                   333 59009 555 91021=
201507230600 AAXX 23064 67561 31960 00000 10142 20112 48555 70500
                   333 10//0 20102 58005
                   555 00/// 91024=
201507220900 AAXX 22094 67561 41960 00908 10230 20090 48564 70500
                   333 59008 555 91024=
201507220600 AAXX 22064 67561 31960 60910 10140 20084 48550 70511 86030
                   333 10265 20100 58005 91023=
201507211200 AAXX 21124 67561 NIL=
201507201200 AAXX 20124 67561 41775 21305 10264 20077 48541 70500 82100
                   333 59005 82856 91021=
201507200600 AAXX 20064 67561 31960 00000 10149 20086 48549 70500
                   333 10271 20088 59006
                   555 00/// 91023=
201507191500 AAXX 19154 67561 41970 01205 10255 20075 48534 70500
                   333 58008 555 10271 91020=
201507190600 AAXX 19064 67561 41956 00000 10146 20065 48555 70400
                   333 10284 20075 58007
                   555 91024=
201507170900 AAXX 17094 67561 41960 00000 10234 20040 48555 70500
                   333 59011 555 91023=
201507170600 AAXX 17064 67561 31956 00000 10131 20082 48549 70400
                   333 10265 20061 59010
                   555 00/// 91022=
201507150900 AAXX 15094 67561 41970 00707 10224 20085 48564 70500
                   333 58006 91025=
201507150600 AAXX 15064 67561 31960 00000 10144 20089 48563 70500
                   333 10270 20090 58005
                   555 00/// 91025=
201507141200 AAXX 14124 67561 41960 00000 10262 20086 48548 70500
                   333 58009 555 91022=
201507140600 AAXX 14064 67561 31959 00000 10131 20091 48558 70400
                   333 10273 20081 58009 91024=
201507131200 AAXX 13124 67561 NIL=
201507120600 AAXX 12064 67561 31959 20000 10121 20091 48566 70400 80001
                   333 10255 20055 59001 82080
                   555 00/// 91025=
201507110600 AAXX 11064 67561 31959 00000 10115 20076 48566 70400
                   333 10268 20065 58001
                   555 00/// 91025=
201507101200 AAXX 10124 67561 42980 00907 10261 20064 48553
                   333 59001 91022=
201507100600 AAXX 10064 67561 41959 00000 10120 20096 48565 70400
                   333 10270 20066 58005 91025=
201507090600 AAXX 09064 67561 31960 00000 10120 20094 48561 70500
                   333 10263 20//0 59010
                   555 00/// 91025=
201507081500 AAXX 08154 67561 41975 00000 10250 20087 48551 70500
                   333 59013=
201507081200 AAXX 08124 67561 41975 00905 10251 20094 48558 70500
                   333 59010 555 91023=
201507080600 AAXX 08064 67561 31959 00000 10135 20107 48571 70400
                   333 10266 20//0 59002
                   555 91026=
201507060600 AAXX 06064 67561 31958 00000 10123 20091 48563 70400
                   333 10262 20//0 59001
                   555 00/// 91025=
201507050600 AAXX 05064 67561 41959 00000 10121 20084 48565 70400
                   333 10255 20069 59002
                   555 00/// 91025=
201507040600 AAXX 04064 67561 31957 00000 10110 20080 48565 70400
                   333 10247 20070 59001
                   555 00/// 91025=
201507030600 AAXX 03064 67561 31960 21005 10147 20100 48570 70500 80001
                   333 10141 20115 58004 82080
                   555 00/// 91026=
201507020900 AAXX 02094 67561 NIL=
201507020300 AAXX 02034 67561 41960 00000 10105 20080 48550 70500
                   333 58008 555 91023=
201507011200 AAXX 01124 67561 NIL=

################################################################################
#  SYNOPS from 67563, Kafironda (Zambia) | 12-36S | 028-07E | 1243 m
################################################################################
201507300600 AAXX 30064 67563 NIL=
201507270600 AAXX 27064 67563 NIL=
201507220900 AAXX 22094 67563 NIL=
201507211200 AAXX 21124 67563 NIL=
201507201200 AAXX 20124 67563 NIL=
201507191500 AAXX 19154 67563 NIL=
201507170900 AAXX 17094 67563 NIL=
201507170600 AAXX 17064 67563 NIL=
201507150900 AAXX 15094 67563 NIL=
201507131200 AAXX 13124 67563 NIL=
201507100600 AAXX 10064 67563 NIL=
201507081500 AAXX 08154 67563 NIL=
201507030600 AAXX 03064 67563 NIL=
201507020900 AAXX 02094 67563 NIL=
201507020300 AAXX 02034 67563 NIL=
201507011200 AAXX 01124 67563 NIL=

################################################################################
#  SYNOPS from 67571, Serenje (Zambia) | 13-14S | 030-13E | 1384 m
################################################################################
201507300600 AAXX 30064 67571 NIL=
201507270600 AAXX 27064 67571 NIL=
201507231200 AAXX 23124 67571 42680 10905 10252 20093 48534 70500
                   333 59017=
201507220900 AAXX 22094 67571 NIL=
201507220600 AAXX 22064 67571 32978 01504 10162 20079 48559 70500
                   333 10261 20119 58006=
201507211200 AAXX 21124 67571 42978 00605 10247 20057 48534 70500
                   333 59004=
201507201200 AAXX 20124 67571 42680 10908 10245 20074 48534 70500
                   333 59006=
201507200600 AAXX 20064 67571 32980 01206 10166 20094 48550 70500
                   333 10254 20121 59009=
201507191500 AAXX 19154 67571 NIL=
201507170900 AAXX 17094 67571 NIL=
201507170600 AAXX 17064 67571 32980 00902 10146 20071 48539 70500
                   333 10259 20055 59016=
201507160600 AAXX 16064 67571 32978 00903 10138 20096 48548 70500
                   333 10240 20067 58010=
201507150900 AAXX 15094 67571 NIL=
201507140600 AAXX 14064 67571 32978 01205 10165 20075 48560 70500
                   333 10285 20130=
201507131200 AAXX 13124 67571 42980 00606 10279 20036 48526 70500
                   333 59011=
201507130600 AAXX 13064 67571 32980 11204 10154 20074 48549 70500 80001
                   333 10256 20077 58007 81080=
201507101200 AAXX 10124 67571 42980 00908 10220 20077 48553 70500
                   333 58006=
201507100600 AAXX 10064 67571 32980 01208 10150 20079 48568 70500
                   333 10241 20114 58003=
201507081500 AAXX 08154 67571 NIL=
201507080600 AAXX 08064 67571 32482 11205 10142 20104 48568 70200 81500
                   333 10235 20114 59008 81618=
201507030600 AAXX 03064 67571 32480 10910 10134 20100 48567 70500 81500
                   333 10226 20115 58004 81618=
201507020900 AAXX 02094 67571 42580 20910 10190 20096 48571 70500 82500
                   333 58002 82625=
201507020300 AAXX 02034 67571 NIL=
201507011200 AAXX 01124 67571 42680 11206 10212 20085 48542 70500 81500
                   333 58004 81640=
201507010600 AAXX 01064 67571 32980 01506 10136 20084 48558 70500
                   333 10242 20112 58003=

################################################################################
#  SYNOPS from 67575, Mkushi (Zambia) | 13-38-00S | 029-26-00E | 1237 m
################################################################################
201507300600 AAXX 30064 67575 NIL=
201507270600 AAXX 27064 67575 NIL=
201507230600 AAXX 23064 67575 32975 00904 10170 20127 48/// 70500
                   333 10270 20135 5////=
201507220900 AAXX 22094 67575 NIL=
201507211200 AAXX 21124 67575 NIL=
201507201200 AAXX 20124 67575 NIL=
201507191500 AAXX 19154 67575 NIL=
201507170900 AAXX 17094 67575 NIL=
201507170600 AAXX 17064 67575 NIL=
201507150900 AAXX 15094 67575 NIL=
201507131200 AAXX 13124 67575 NIL=
201507130600 AAXX 13064 67575 32975 10000 10135 20075 48/// 70500 80001
                   333 10260 20045 5//// 81080=
201507100600 AAXX 10064 67575 NIL=
201507090600 AAXX 09064 67575 32975 01403 10145 20100 48/// 70500
                   333 10275 20097 5////=
201507081500 AAXX 08154 67575 NIL=
201507030600 AAXX 03064 67575 NIL=
201507020900 AAXX 02094 67575 NIL=
201507020600 AAXX 02064 67575 32975 00906 10155 20101 48/// 70500
                   333 10245 20080 5////=
201507020300 AAXX 02034 67575 NIL=
201507011200 AAXX 01124 67575 NIL=
201507010600 AAXX 01064 67575 32975 01006 10164 20083 48/// 70500
                   333 10252 20100 5////=

################################################################################
#  SYNOPS from 67580, Msekera (Zambia) | 13-39S | 032-34E | 1025 m
################################################################################
201507300600 AAXX 30064 67580 NIL=
201507290600 AAXX 29064 67580 31975 00902 10210 20136 48/// 70500
                   333 10288 20/// 5////=
201507270600 AAXX 27064 67580 NIL=
201507220900 AAXX 22094 67580 41675 51303 10260 20130 48/// 70500 85100
                   333 58017 85842=
201507220600 AAXX 22064 67580 31475 21104 10204 20146 48/// 70500 82100
                   333 10270 20/// 5//// 82816=
201507211200 AAXX 21124 67580 NIL=
201507201200 AAXX 20124 67580 NIL=
201507200600 AAXX 20064 67580 31980 01004 10219 20139 48/// 70500
                   333 10296 20/// 5////=
201507191500 AAXX 19154 67580 NIL=
201507170900 AAXX 17094 67580 NIL=
201507170600 AAXX 17064 67580 31970 00602 10204 20121 48/// 70500
                   333 10283 20/// 59018=
201507160600 AAXX 16064 67580 31975 01202 10175 20104 48/// 70500
                   333 10279 20/// 59017=
201507150900 AAXX 15094 67580 NIL=
201507140600 AAXX 14064 67580 31975 01203 10205 20108 48/// 70500
                   333 10299 20/// 5////=
201507131200 AAXX 13124 67580 NIL=
201507130600 AAXX 13064 67580 31975 00602 10190 20103 48/// 70500
                   333 10290 20/// 5////=
201507100600 AAXX 10064 67580 31980 01503 10173 20078 48/// 70500
                   333 10276 20//0 58006=
201507090600 AAXX 09064 67580 31980 01203 10175 20105 48/// 70500
                   333 10279 20/// 59004=
201507081500 AAXX 08154 67580 NIL=
201507080600 AAXX 08064 67580 31478 11205 10166 20121 48/// 70500 81500
                   333 10250 20/// 5//// 81614=
201507030600 AAXX 03064 67580 31975 11306 10160 20106 48/// 70500 81030
                   333 10254 20/// 58005 81361=
201507020900 AAXX 02094 67580 NIL=
201507020600 AAXX 02064 67580 31475 11505 10168 20116 48/// 70500
                   333 10254 20/// 58007 81614=
201507020300 AAXX 02034 67580 NIL=
201507011200 AAXX 01124 67580 NIL=
201507010600 AAXX 01064 67580 31975 71502 10171 20111 48/// 70522 8703/
                   333 10276 20/// 5//// 87360=

################################################################################
#  SYNOPS from 67581, Chipata (Zambia) | 13-33S | 032-35E | 1028 m
################################################################################
201507300600 AAXX 30064 67581 NIL=
201507270600 AAXX 27064 67581 NIL=
201507220900 AAXX 22094 67581 NIL=
201507211200 AAXX 21124 67581 NIL=
201507201200 AAXX 20124 67581 NIL=
201507191500 AAXX 19154 67581 NIL=
201507170900 AAXX 17094 67581 NIL=
201507170600 AAXX 17064 67581 NIL=
201507150900 AAXX 15094 67581 NIL=
201507131200 AAXX 13124 67581 NIL=
201507100600 AAXX 10064 67581 NIL=
201507081500 AAXX 08154 67581 NIL=
201507030600 AAXX 03064 67581 NIL=
201507020900 AAXX 02094 67581 NIL=
201507020300 AAXX 02034 67581 NIL=
201507011200 AAXX 01124 67581 NIL=

################################################################################
#  SYNOPS from 67583, Lundazi (Zambia) | 12-17S | 033-12E | 1143 m
################################################################################
201507300600 AAXX 30064 67583 NIL=
201507270600 AAXX 27064 67583 NIL=
201507220900 AAXX 22094 67583 NIL=
201507211200 AAXX 21124 67583 NIL=
201507201200 AAXX 20124 67583 NIL=
201507191500 AAXX 19154 67583 NIL=
201507170900 AAXX 17094 67583 NIL=
201507170600 AAXX 17064 67583 NIL=
201507150900 AAXX 15094 67583 NIL=
201507131200 AAXX 13124 67583 NIL=
201507100600 AAXX 10064 67583 NIL=
201507081500 AAXX 08154 67583 NIL=
201507030600 AAXX 03064 67583 NIL=
201507020900 AAXX 02094 67583 NIL=
201507020300 AAXX 02034 67583 NIL=
201507011200 AAXX 01124 67583 NIL=

################################################################################
#  SYNOPS from 67599, Mfuwe (Zambia) | 13-16S | 031-56E | 568 m
################################################################################
201507300600 AAXX 30064 67599 NIL=
201507270600 AAXX 27064 67599 NIL=
201507220900 AAXX 22094 67599 NIL=
201507211200 AAXX 21124 67599 NIL=
201507201200 AAXX 20124 67599 NIL=
201507191500 AAXX 19154 67599 NIL=
201507170900 AAXX 17094 67599 NIL=
201507170600 AAXX 17064 67599 NIL=
201507150900 AAXX 15094 67599 NIL=
201507131200 AAXX 13124 67599 NIL=
201507100600 AAXX 10064 67599 NIL=
201507081500 AAXX 08154 67599 NIL=
201507030600 AAXX 03064 67599 NIL=
201507020900 AAXX 02094 67599 NIL=
201507020300 AAXX 02034 67599 NIL=
201507011200 AAXX 01124 67599 NIL=

################################################################################
#  SYNOPS from 67625, Kalabo (Zambia) | 14-51S | 022-42E | 1033 m
################################################################################
201507300600 AAXX 30064 67625 NIL=
201507270600 AAXX 27064 67625 NIL=
201507220900 AAXX 22094 67625 NIL=
201507211200 AAXX 21124 67625 NIL=
201507201200 AAXX 20124 67625 NIL=
201507191500 AAXX 19154 67625 NIL=
201507170900 AAXX 17094 67625 NIL=
201507170600 AAXX 17064 67625 NIL=
201507150900 AAXX 15094 67625 NIL=
201507131200 AAXX 13124 67625 NIL=
201507100600 AAXX 10064 67625 NIL=
201507081500 AAXX 08154 67625 NIL=
201507030600 AAXX 03064 67625 NIL=
201507020900 AAXX 02094 67625 NIL=
201507020300 AAXX 02034 67625 NIL=
201507011200 AAXX 01124 67625 NIL=

################################################################################
#  SYNOPS from 67633, Mongu (Zambia) | 15-15S | 023-09E | 1052 m
################################################################################
201507300600 AAXX 30064 67633 NIL=
201507270600 AAXX 27064 67633 NIL=
201507220900 AAXX 22094 67633 NIL=
201507220600 AAXX 22064 67633 32980 70904 10176 20093 48551 70222 8707/
                   333 10299 20163 58013 87460 91022=
201507211200 AAXX 21124 67633 NIL=
201507201200 AAXX 20124 67633 NIL=
201507191500 AAXX 19154 67633 NIL=
201507170900 AAXX 17094 67633 NIL=
201507170600 AAXX 17064 67633 32980 00602 10155 20057 48520 70200
                   333 10346 20119 59020 91019=
201507160600 AAXX 16064 67633 32980 00910 10150 20090 48533 70200
                   333 10350 20123 59009 91021=
201507150900 AAXX 15094 67633 NIL=
201507131200 AAXX 13124 67633 42980 03304 10290 20094 48538 70200
                   333 59016 91019=
201507130900 AAXX 13094 67633 42980 00302 10323 20091 48562 70200
                   333 59007 91023=
201507130600 AAXX 13064 67633 32980 00803 10133 20080 48539 70200
                   333 10340 20090 59012 91022=
201507101200 AAXX 10124 67633 42980 00903 10273 20089 48552 70200
                   333 59002 91021=
201507100600 AAXX 10064 67633 NIL=
201507081500 AAXX 08154 67633 NIL=
201507030600 AAXX 03064 67633 32980 00906 10144 20095 48550 70200
                   333 10296 20090 59005 91024=
201507020900 AAXX 02094 67633 42980 00910 10220 20054 48577 70200
                   333 58007 91024=
201507020300 AAXX 02034 67633 NIL=
201507011200 AAXX 01124 67633 NIL=
201507010600 AAXX 01064 67633 32980 00902 10145 20072 48555 70200
                   333 10310 20102 58013 91024=

################################################################################
#  SYNOPS from 67641, Kaoma (Zambia) | 14-48S | 024-48E | 1213 m
################################################################################
201507300600 AAXX 30064 67641 NIL=
201507270600 AAXX 27064 67641 NIL=
201507220900 AAXX 22094 67641 NIL=
201507211200 AAXX 21124 67641 NIL=
201507201200 AAXX 20124 67641 NIL=
201507191500 AAXX 19154 67641 NIL=
201507170900 AAXX 17094 67641 NIL=
201507170600 AAXX 17064 67641 NIL=
201507150900 AAXX 15094 67641 NIL=
201507131200 AAXX 13124 67641 NIL=
201507100600 AAXX 10064 67641 NIL=
201507081500 AAXX 08154 67641 NIL=
201507030600 AAXX 03064 67641 NIL=
201507020900 AAXX 02094 67641 NIL=
201507020300 AAXX 02034 67641 NIL=
201507011200 AAXX 01124 67641 NIL=

################################################################################
#  SYNOPS from 67655, Mumbwa (Zambia) | 15-04S | 027-11E | 1216 m
################################################################################
201507300600 AAXX 30064 67655 NIL=
201507270600 AAXX 27064 67655 NIL=
201507220900 AAXX 22094 67655 NIL=
201507211200 AAXX 21124 67655 NIL=
201507201200 AAXX 20124 67655 NIL=
201507191500 AAXX 19154 67655 NIL=
201507170900 AAXX 17094 67655 NIL=
201507170600 AAXX 17064 67655 NIL=
201507150900 AAXX 15094 67655 NIL=
201507131200 AAXX 13124 67655 NIL=
201507100600 AAXX 10064 67655 NIL=
201507081500 AAXX 08154 67655 NIL=
201507030600 AAXX 03064 67655 NIL=
201507020900 AAXX 02094 67655 NIL=
201507020300 AAXX 02034 67655 NIL=
201507011200 AAXX 01124 67655 NIL=

################################################################################
#  SYNOPS from 67659, Kafue Polder (Zambia) | 15-46S | 027-55E | 978 m
################################################################################
201507300600 AAXX 30064 67659 NIL=
201507270600 AAXX 27064 67659 NIL=
201507220900 AAXX 22094 67659 NIL=
201507211200 AAXX 21124 67659 NIL=
201507201200 AAXX 20124 67659 NIL=
201507191500 AAXX 19154 67659 NIL=
201507170900 AAXX 17094 67659 NIL=
201507170600 AAXX 17064 67659 NIL=
201507150900 AAXX 15094 67659 NIL=
201507131200 AAXX 13124 67659 NIL=
201507100600 AAXX 10064 67659 NIL=
201507081500 AAXX 08154 67659 NIL=
201507030600 AAXX 03064 67659 NIL=
201507020900 AAXX 02094 67659 NIL=
201507020300 AAXX 02034 67659 NIL=
201507011200 AAXX 01124 67659 NIL=

################################################################################
#  SYNOPS from 67662, Kabwe Agric (Zambia) | 14-24S | 028-30E | 1165 m
################################################################################
201507300600 AAXX 30064 67662 NIL=
201507270600 AAXX 27064 67662 NIL=
201507220900 AAXX 22094 67662 NIL=
201507211200 AAXX 21124 67662 NIL=
201507201200 AAXX 20124 67662 NIL=
201507191500 AAXX 19154 67662 NIL=
201507170900 AAXX 17094 67662 NIL=
201507170600 AAXX 17064 67662 NIL=
201507150900 AAXX 15094 67662 NIL=
201507131200 AAXX 13124 67662 NIL=
201507100600 AAXX 10064 67662 NIL=
201507081500 AAXX 08154 67662 NIL=
201507030600 AAXX 03064 67662 NIL=
201507020900 AAXX 02094 67662 NIL=
201507020300 AAXX 02034 67662 NIL=
201507011200 AAXX 01124 67662 NIL=

################################################################################
#  SYNOPS from 67663, Kabwe (Zambia) | 14-27S | 028-28E | 1206 m
################################################################################
201507300600 AAXX 30064 67663 NIL=
201507270600 AAXX 27064 67663 NIL=
201507230600 AAXX 23064 67663 32980 21105 10146 20126 48550 82030
                   333 10260 20122 59006 82360=
201507220900 AAXX 22094 67663 NIL=
201507211200 AAXX 21124 67663 NIL=
201507201200 AAXX 20124 67663 NIL=
201507200600 AAXX 20064 67663 32980 01706 10172 20074 48548
                   333 10279 20124 58010=
201507191500 AAXX 19154 67663 NIL=
201507170900 AAXX 17094 67663 NIL=
201507170600 AAXX 17064 67663 NIL=
201507150900 AAXX 15094 67663 NIL=
201507131200 AAXX 13124 67663 NIL=
201507100600 AAXX 10064 67663 NIL=
201507081500 AAXX 08154 67663 NIL=
201507030600 AAXX 03064 67663 NIL=
201507020900 AAXX 02094 67663 NIL=
201507020300 AAXX 02034 67663 NIL=
201507011200 AAXX 01124 67663 NIL=

################################################################################
#  SYNOPS from 67665, Lusaka Internationalairport (Zambia) | 15-19S | 028-27E | 1152 m
################################################################################
201507310600 AAXX 31064 67665 31958 01202 10142 20064 48537 70500
                   333 10286 58015=
201507301800 AAXX 30184 67665 41959 01502 10198 20090 48537 70500
                   333 59012=
201507301500 AAXX 30154 67665 41959 03402 10276 20140 48530 70500
                   333 59014=
201507300900 AAXX 30094 67665 41959 00603 10241 20145 48562 70500
                   333 59005=
201507300600 AAXX 30064 67665 NIL=
201507300300 AAXX 30034 67665 42980 00000 10117 20079 48536
                   333 5////=
201507291800 AAXX 29184 67665 42980 11303 10177 20106 48546 70200 81030
                   333 10270 59012 81360=
201507291500 AAXX 29154 67665 41759 21004 10246 20102 48540 70500 82100
                   333 59008 82856=
201507291200 AAXX 29124 67665 41659 22704 10249 20114 48549 70500 82100
                   333 59003 82845=
201507290900 AAXX 29094 67665 41960 00606 10217 20115 48573
                   333 70500=
201507290600 AAXX 29064 67665 31965 01108 10140 20094 48558
                   333 10295 20//0 59006=
201507290000 AAXX 29004 67665 42980 01505 10092 20040 48543
                   333 58002=
201507282100 AAXX 28214 67665 42980 01602 10134 20075 48557
                   333 58003=
201507281800 AAXX 28184 67665 42980 11004 10178 20108 48558 70200 81030
                   333 10295 58004 81360=
201507281500 AAXX 28154 67665 41960 10806 10244 20114 48546 70500 81060
                   333 58004 81360=
201507281200 AAXX 28124 67665 41659 10907 10252 20114 48552 70500 82100
                   333 59002 82840=
201507280900 AAXX 28094 67665 41959 00609 10210 20106 48574 70500
                   333 58001=
201507280600 AAXX 28064 67665 41980 01106 10126 20067 48563 70500
                   333 58006=
201507280000 AAXX 28004 67665 42980 00902 10108 20067 48544 70200
                   333 58003=
201507272100 AAXX 27214 67665 42980 01103 10133 20064 48556 70200
                   333 58004 91024=
201507271800 AAXX 27184 67665 41975 01104 10165 20081 48552 70500
                   333 10290 20//0 58///=
201507271500 AAXX 27154 67665 42975 00908 10250 20128 48544 70500
                   333 58///=
201507271200 AAXX 27124 67665 42980 00910 10253 20121 48553
                   333 58002=
201507270900 AAXX 27094 67665 42980 00914 10219 20113 48577 70200
                   333 58013=
201507270600 AAXX 27064 67665 NIL=
201507261200 AAXX 26124 67665 42980 02206 10268 20130 48554
                   333 58018=
201507260900 AAXX 26094 67665 42980 01109 10246 20133 48570
                   333 58009=
201507260600 AAXX 26064 67665 32980 01002 10159 20074 48554
                   333 58005=
201507252100 AAXX 25214 67665 42980 00000 10139 20035 48529 70200
                   333 59006=
201507241800 AAXX 24184 67665 42980 01303 10178 20075 48535
                   333 59015=
201507241500 AAXX 24154 67665 42980 00203 10264 20112 48531
                   333 59017=
201507241200 AAXX 24124 67665 42980 03405 10260 20109 48543
                   333 59013=
201507240600 AAXX 24064 67665 32980 01402 10147 20122 48550 70200
                   333 10216 20//0 59016=
201507232100 AAXX 23214 67665 42980 00000 10134 20076 48544 70200
                   333 59022=
201507231800 AAXX 23184 67665 42980 01104 10167 20072 48549
                   333 59014=
201507231500 AAXX 23154 67665 42580 20605 10238 20102 48545 82100
                   333 59016 81850=
201507231200 AAXX 23124 67665 42580 10809 10244 20099 48553 81100
                   333 59012 81840=
201507230900 AAXX 23094 67665 42580 10411 10205 20089 48577 81100
                   333 59009 81825=
201507230600 AAXX 23064 67665 32980 01104 10134 20068 48563
                   333 59006=
201507230300 AAXX 23034 67665 42980 01202 10107 20045 48549
                   333 59005=
201507230000 AAXX 23004 67665 42980 01202 10130 20060 48557
                   333 58///=
201507222100 AAXX 22214 67665 42980 01202 10141 20075 48566
                   333 58007=
201507221800 AAXX 22184 67665 42980 01202 10170 20088 48562 70200
                   333 10260 58008=
201507221500 AAXX 22154 67665 42980 11110 10234 20124 48560 70100 81060
                   333 58009 81360=
201507221200 AAXX 22124 67665 42680 20714 10250 20115 48566 70300 82100
                   333 58011 82840=
201507220900 AAXX 22094 67665 NIL=
201507220600 AAXX 22064 67665 32980 01304 10140 20085 48568
                   333 58011=
201507212100 AAXX 21214 67665 42980 01504 10123 20004 48556 70200
                   333 58009 91024=
201507211500 AAXX 21154 67665 42680 10910 10236 20109 48522 81100
                   333 58002 81848=
201507211200 AAXX 21124 67665 42680 10507 10247 20102 48554 81500
                   333 58002 81635=
201507210900 AAXX 21094 67665 42980 00912 10223 20096 48577 70200
                   333 58001=
201507201800 AAXX 20184 67665 42980 01303 10167 20071 48549 70200
                   333 10268 59007=
201507201500 AAXX 20154 67665 42980 10708 10242 20101 48550 70100 81030
                   333 59002 81360 91021=
201507201200 AAXX 20124 67665 NIL=
201507200900 AAXX 20094 67665 42980 10813 10228 20098 48577 70300 81100
                   333 81830=
201507200600 AAXX 20064 67665 42980 01103 10149 20048 48566
                   333 10293 59002=
201507191500 AAXX 19154 67665 NIL=
201507191200 AAXX 19124 67665 42780 11015 10272 20077 48565 70300 81100
                   333 58008 81850=
201507190900 AAXX 19094 67665 42980 00612 10246 20111 48583 70200
                   333 58005 91025=
201507190300 AAXX 19034 67665 42980 01603 10087 20055 48542
                   333 58007=
201507182100 AAXX 18214 67665 42980 01602 10116 20069 48544
                   333 59009=
201507181800 AAXX 18184 67665 42980 01402 10167 20049 48552
                   333 58008=
201507181500 AAXX 18154 67665 42980 00910 10260 20085 48547
                   333 58008=
201507181200 AAXX 18124 67665 42980 00909 10275 20084 48558
                   333 58015=
201507180300 AAXX 18034 67665 42980 00000 10103 20074 48537 70200
                   333 58007=
201507171800 AAXX 17184 67665 42980 00000 10176 20085 48546
                   333 59002=
201507171500 AAXX 17154 67665 42980 03904 10257 20126 48539
                   333 59008=
201507171200 AAXX 17124 67665 42980 02902 10263 20114 48541
                   333 59014=
201507170900 AAXX 17094 67665 42980 02903 10231 20103 48563
                   333 59014=
201507170600 AAXX 17064 67665 NIL=
201507170300 AAXX 17034 67665 42980 01602 10085 20041 48530
                   333 59014=
201507170000 AAXX 17004 67665 42980 01502 10100 20049 48533
                   333 59017=
201507162100 AAXX 16214 67665 42980 01403 10110 20060 48544
                   333 59018=
201507161800 AAXX 16184 67665 42980 01002 10169 20096 48547
                   333 10233 59014=
201507161500 AAXX 16154 67665 42980 42980 01005 10234 20111 48543 70200
                   333 59013=
201507161200 AAXX 16124 67665 42980 02005 10234 20111 48551 70200
                   333 59017=
201507160900 AAXX 16094 67665 42980 00408 10207 20114 49022
                   333 59022=
201507160300 AAXX 16034 67665 42980 01301 10081 20025 48541 70200
                   333 59016 91023=
201507160000 AAXX 16004 67665 42980 01403 10098 20044 48547 70200
                   333 59014=
201507152100 AAXX 15214 67665 42980 01402 10118 20055 48562 70200
                   333 59006 91025=
201507151800 AAXX 15184 67665 42980 01305 10153 20077 48557
                   333 10260 20//0 59010=
201507151500 AAXX 15154 67665 42980 00911 10237 20122 48557
                   333 58003=
201507151200 AAXX 15124 67665 42980 00908 10244 20119 48569
                   333 58006=
201507150900 AAXX 15094 67665 NIL=
201507150600 AAXX 15064 67665 32980 01203 10132 20046 48577 70200
                   333 10210 20//0 58007=
201507141500 AAXX 14154 67665 42980 00709 10250 20084 48555 70200
                   333 59011=
201507141200 AAXX 14124 67665 42980 00709 10255 20101 48566 70200
                   333 58008=
201507140900 AAXX 14094 67665 42980 00615 10232 20125 48586
                   333 58004=
201507140600 AAXX 14064 67665 42980 01403 10147 20057 48573
                   333 58011=
201507140000 AAXX 14004 67665 42980 01402 10091 20050 48550
                   333 58011=
201507132100 AAXX 13214 67665 42980 01303 10117 20045 48559
                   333 59004=
201507131200 AAXX 13124 67665 NIL=
201507130900 AAXX 13094 67665 42980 01507 10213 20102 48579 70200
                   333 59014 91025=
201507130600 AAXX 13064 67665 32980 01403 10122 20084 48560 70200
                   333 10//0 20//0 59008=
201507130300 AAXX 13034 67665 42980 00000 10077 20056 48537
                   333 59028=
201507121800 AAXX 12184 67665 42980 00907 10154 20010 48561
                   333 59010=
201507121500 AAXX 12154 67665 42980 09006 10231 20131 48562
                   333 59008=
201507121200 AAXX 12124 67665 42980 01005 10234 20139 48565
                   333 59012=
201507120300 AAXX 12034 67665 42980 01302 10073 20049 48557 70200
                   333 59007=
201507112100 AAXX 11214 67665 42980 01302 10094 20054 48572 70200
                   333 59003=
201507111800 AAXX 11184 67665 42980 00000 10132 20052 48567
                   333 59006=
201507111200 AAXX 11124 67665 42980 01008 10217 20082 48576
                   333 58000=
201507110600 AAXX 11064 67665 42980 01105 10092 20040 48578
                   333 58003=
201507110300 AAXX 11034 67665 42980 00902 10077 20036 48565
                   333 59001=
201507110000 AAXX 11004 67665 42980 00903 10080 20026 48565
                   333 58006=
201507102100 AAXX 10214 67665 42980 01002 10113 20063 48578
                   333 58003=
201507101800 AAXX 10184 67665 42980 00904 10137 20046 48575
                   333 59001=
201507101500 AAXX 10154 67665 42980 00811 10220 20099 48570
                   333 59001=
201507101200 AAXX 10124 67665 42980 01010 10230 20100 48577
                   333 59001=
201507100900 AAXX 10094 67665 42980 00815 10199 20114 48599 70114
                   333 58008=
201507100600 AAXX 10064 67665 32980 01007 10104 20061 48577 70200
                   333 10260 20//0 58003=
201507100300 AAXX 10034 67665 42980 01502 10075 20031 48566 70200
                   333 58009=
201507100000 AAXX 10004 67665 42980 00000 10083 20026 48559 70200
                   333 58001=
201507092100 AAXX 09214 67665 42980 01302 10112 20050 48575 70200
                   333 58004=
201507091800 AAXX 09184 67665 42980 01204 10140 20085 48576
                   333 58002=
201507091500 AAXX 09154 67665 42980 01008 10227 20128 48571
                   333 58002=
201507091200 AAXX 09124 67665 42980 01010 10231 48575
                   333 59000=
201507090900 AAXX 09094 67665 42980 00907 10195 20109 48591 70200
                   333 59010=
201507090600 AAXX 09064 67665 32980 01002 10117 20070 48569 70200
                   333 10250 20//0 59008=
201507081800 AAXX 08184 67665 42980 01303 10143 20076 48574 70200
                   333 10250 59014=
201507081500 AAXX 08154 67665 42980 00808 10228 20076 48570 70200
                   333 59022 555 10250=
201507081200 AAXX 08124 67665 42680 20306 10224 20114 48574 70100 82100
                   333 59032 82845=
201507080900 AAXX 08094 67665 42980 30811 10192 20114 48599 83500
                   333 59010=
201507080000 AAXX 08004 67665 42980 21102 10109 20069 48581 82030
                   333 58011 82360=
201507072100 AAXX 07214 67665 42980 50905 10138 20081 48594 85030
                   333 58017 85360=
201507070900 AAXX 07094 67665 42580 50717 10202 20131 48610 70322 85500
                   333 58013 85628 91029=
201507070600 AAXX 07064 67665 32980 00906 10126 20067 48593 70200
                   333 10249 20//0 58015
                   555 00///=
201507070300 AAXX 07034 67665 42980 01302 10089 20068 48573
                   333 58012=
201507062100 AAXX 06214 67665 00000 10121 20050 48574
                   333 58005=
201507061800 AAXX 06184 67665 42980 01102 10154 20066 48573
                   333 58007=
201507061500 AAXX 06154 67665 01304 10234 20116 48571
                   333 58008=
201507061200 AAXX 06124 67665 42980 01204 10247 20123 48580
                   333 58009=
201507051200 AAXX 05124 67665 42980 00704 10237 20099 48570
                   333 59011=
201507050900 AAXX 05094 67665 42980 00710 10204 20098 48591
                   333 59007=
201507050600 AAXX 05064 67665 32980 01103 10112 20020 48573
                   333 10//0 59009=
201507050300 AAXX 05034 67665 42980 01502 10068 20034 48567
                   333 59003=
201507050000 AAXX 05004 67665 42980 01302 10091 20050 48511
                   333 59003=
201507042100 AAXX 04214 67665 42980 01304 10106 20068 48576
                   333 58003=
201507041800 AAXX 04184 67665 42980 01103 10133 20086 48570 70200
                   333 59007=
201507041500 AAXX 04154 67665 42980 11005 10210 20116 48568 70100 81060
                   333 59010 81360=
201507041200 AAXX 04124 67665 42680 30905 10216 20120 48576 70200 83500
                   333 59009 83635=
201507040900 AAXX 04094 67665 42580 20814 10188 20118 48600 82500
                   333 59005 82620=
201507040600 AAXX 04064 67665 42480 11307 10113 20063 48581 81500
                   333 10//0 20//0 59002 81610=
201507040000 AAXX 04004 67665 42980 00000 10079 20023 48572 70200
                   333 59002=
201507031500 AAXX 03154 67665 42980 30914 10191 20104 48575 83030
                   333 58001 83360=
201507031200 AAXX 03124 67665 42680 61015 10197 20100 48584 86500
                   333 58006 86635=
201507030900 AAXX 03094 67665 42580 60915 10183 20100 48600 70222 85500
                   333 58005 85625=
201507030600 AAXX 03064 67665 NIL=
201507021800 AAXX 02184 67665 42980 51007 10145 20101 48578 70122 85030
                   333 10234 58004 85360=
201507021500 AAXX 02154 67665 42980 61013 10194 20108 48574 70122 86030
                   333 58004 86360=
201507021200 AAXX 02124 67665 42680 61013 10199 20102 48578 70122 86500
                   333 58004 86630=
201507020900 AAXX 02094 67665 42580 71010 10180 20130 34855 87500
                   333 58004 87620=
201507020300 AAXX 02034 67665 NIL=
201507020000 AAXX 02004 67665 42980 01203 10083 20040 48563
                   333 58009=
201507012100 AAXX 01214 67665 42980 01303 10095 20042 48577
                   333 58009=
201507011200 AAXX 01124 67665 NIL=

################################################################################
#  SYNOPS from 67666, Lusaka City Airport (Zambia) | 15-25-00S | 028-28-00E | 1280 m
################################################################################
201507300600 AAXX 30064 67666 NIL=
201507290600 AAXX 29064 67666 32980 00911 10155 20110 48555
                   333 10240 20/// 59004
                   555 91023=
201507270600 AAXX 27064 67666 NIL=
201507220900 AAXX 22094 67666 NIL=
201507211200 AAXX 21124 67666 NIL=
201507210900 AAXX 21094 67666 42980 00908 10214 20063 48559
                   333 58001 91024=
201507210600 AAXX 21064 67666 32980 00906 10166 20097 48555
                   333 10/// 20/// 58002 91023=
201507201200 AAXX 20124 67666 NIL=
201507191500 AAXX 19154 67666 NIL=
201507170900 AAXX 17094 67666 NIL=
201507170600 AAXX 17064 67666 NIL=
201507160600 AAXX 16064 67666 31970 00906 10146 20084 48554 70500
                   333 10/// 20/// 59021 91023=
201507150900 AAXX 15094 67666 NIL=
201507150600 AAXX 15064 67666 32980 01006 10150 20088 48573
                   333 58008 91026=
201507140600 AAXX 14064 67666 32980 01107 10163 20084 48568
                   333 10/// 20/// 58013 58013 91025=
201507131200 AAXX 13124 67666 NIL=
201507130600 AAXX 13064 67666 32980 00806 10145 20083 48554
                   333 10/// 20/// 59018 91023=
201507100600 AAXX 10064 67666 32980 01213 10139 20087 48579
                   333 10//0 20//0 58007 91026=
201507090600 AAXX 09064 67666 32980 00905 10134 20098 48571
                   333 10/// 20/// 59010 91025=
201507081500 AAXX 08154 67666 NIL=
201507080600 AAXX 08064 67666 32980 00908 10135 20110 48585 81030
                   333 10230 20/// 59001 81360 91026=
201507030600 AAXX 03064 67666 32480 70907 10130 20092 48582 82570
                   333 10210 20/// 58002 82610 86358 91027=
201507020900 AAXX 02094 67666 42480 71212 10170 20110 48587 70222 87500
                   333 58004 87615 91027=
201507020600 AAXX 02064 67666 32380 61107 10127 20094 48573 70300 86500
                   333 10270 20/// 58002 86609 91026=
201507020300 AAXX 02034 67666 NIL=
201507011200 AAXX 01124 67666 NIL=
201507010600 AAXX 01064 67666 31970 01007 10132 20072 48571 70500
                   333 10235 20/// 58003=

################################################################################
#  SYNOPS from 67667, Mount Makulu (Zambia) | 15-33S | 028-15E | 1213 m
################################################################################
201507300600 AAXX 30064 67667 NIL=
201507270600 AAXX 27064 67667 NIL=
201507220900 AAXX 22094 67667 NIL=
201507211200 AAXX 21124 67667 NIL=
201507201200 AAXX 20124 67667 NIL=
201507191500 AAXX 19154 67667 NIL=
201507170900 AAXX 17094 67667 NIL=
201507170600 AAXX 17064 67667 NIL=
201507150900 AAXX 15094 67667 NIL=
201507131200 AAXX 13124 67667 NIL=
201507100600 AAXX 10064 67667 NIL=
201507081500 AAXX 08154 67667 NIL=
201507030600 AAXX 03064 67667 NIL=
201507020900 AAXX 02094 67667 NIL=
201507020300 AAXX 02034 67667 NIL=
201507011200 AAXX 01124 67667 NIL=

################################################################################
#  SYNOPS from 67673, Petauke (Zambia) | 14-15S | 031-17E | 1035 m
################################################################################
201507300600 AAXX 30064 67673 NIL=
201507270600 AAXX 27064 67673 NIL=
201507231200 AAXX 23124 67673 41675 42801 10270 20100 48564 70500 83100
                   333 58012 83835=
201507230600 AAXX 23064 67673 31975 03604 10205 20125 48592 70500
                   333 10278 20145 59005=
201507221200 AAXX 22124 67673 41675 50904 10255 20105 48582 70522 83230
                   333 58012 83835 85360=
201507220900 AAXX 22094 67673 41675 50204 10240 20108 48605 70532 85200
                   333 58018 85830=
201507220600 AAXX 22064 67673 31975 00903 10208 20115 48596 70500
                   333 10273 20144 58010=
201507211200 AAXX 21124 67673 41675 43603 10253 20080 48569 70500 84100
                   333 58001 84835=
201507210600 AAXX 21064 67673 31975 00903 10210 20102 48587 70500
                   333 10282 20140 58006=
201507201200 AAXX 20124 67673 NIL=
201507191500 AAXX 19154 67673 NIL=
201507170900 AAXX 17094 67673 NIL=
201507170600 AAXX 17064 67673 NIL=
201507161200 AAXX 16124 67673 41975 01001 10264 20056 48576 70500
                   333 59005=
201507160600 AAXX 16064 67673 31975 00204 10210 20094 48582 70500
                   333 10266 20118 59019=
201507151200 AAXX 15124 67673 41975 00903 10260 20070 48582 70500
                   333 58006=
201507150900 AAXX 15094 67673 41975 00203 10240 20080 48609 70500
                   333 58009=
201507150600 AAXX 15064 67673 31975 00802 10200 20105 48602 70500
                   333 10281 20130 58008=
201507131200 AAXX 13124 67673 NIL=
201507100600 AAXX 10064 67673 NIL=
201507081500 AAXX 08154 67673 NIL=
201507030600 AAXX 03064 67673 NIL=
201507020900 AAXX 02094 67673 NIL=
201507020300 AAXX 02034 67673 NIL=
201507011200 AAXX 01124 67673 NIL=

################################################################################
#  SYNOPS from 67731, Senanga (Zambia) | 16-06S | 023-16E | 1027 m
################################################################################
201507300600 AAXX 30064 67731 NIL=
201507270600 AAXX 27064 67731 NIL=
201507240600 AAXX 24064 67731 32980 017// 10180 20108 48///
                   333 10294 20129 59024=
201507220900 AAXX 22094 67731 NIL=
201507211200 AAXX 21124 67731 NIL=
201507210600 AAXX 21064 67731 32980 009// 10164 20036 48///
                   333 10295 20084 5////=
201507201200 AAXX 20124 67731 NIL=
201507200600 AAXX 20064 67731 32980 010// 10155 20072 48///
                   333 10308 20098 5////=
201507191500 AAXX 19154 67731 NIL=
201507170900 AAXX 17094 67731 42980 036// 10236 20081 48///
                   333 59014=
201507170600 AAXX 17064 67731 32980 026// 10148 20088 48///
                   333 10307 20089 59024=
201507160600 AAXX 16064 67731 32980 032// 10179 20107 48///
                   333 10306 20121 59009=
201507150900 AAXX 15094 67731 42980 002// 10261 20096 48/// 70000
                   333 58003=
201507150600 AAXX 15064 67731 32980 018// 10172 20104 48///
                   333 10303 20106 5////=
201507140900 AAXX 14094 67731 42980 027// 1//// 2//// 48/// 70000
                   333 5////=
201507140600 AAXX 14064 67731 32980 018// 10168 20079 48///
                   333 10298 20109 5////=
201507131200 AAXX 13124 67731 NIL=
201507130600 AAXX 13064 67731 32980 020// 10161 20064 48///
                   333 10284 20087 58000=
201507100600 AAXX 10064 67731 32980 007// 10167 20119 48///
                   333 10281 20094 59010=
201507090600 AAXX 09064 67731 32980 027// 10152 20083 48/// 70000
                   333 10279 20089 59001
                   555 00///=
201507081500 AAXX 08154 67731 NIL=
201507080600 AAXX 08064 67731 32980 007// 10130 20099 48///
                   333 10241 20101 5////=
201507030600 AAXX 03064 67731 NIL=
201507020900 AAXX 02094 67731 NIL=
201507020600 AAXX 02064 67731 32980 213// 10149 20064 48/// 70200 82030
                   333 10289 20089 58010 82360
                   555 00///=
201507020300 AAXX 02034 67731 NIL=
201507011200 AAXX 01124 67731 NIL=
201507010900 AAXX 01094 67731 42980 016// 10236 20092 48/// 70000
                   333 59004=

################################################################################
#  SYNOPS from 67741, Sesheke (Zambia) | 17-28S | 024-18E | 949 m
################################################################################
201507300600 AAXX 30064 67741 NIL=
201507270600 AAXX 27064 67741 NIL=
201507220900 AAXX 22094 67741 NIL=
201507211200 AAXX 21124 67741 NIL=
201507201200 AAXX 20124 67741 NIL=
201507191500 AAXX 19154 67741 NIL=
201507170900 AAXX 17094 67741 NIL=
201507170600 AAXX 17064 67741 NIL=
201507150900 AAXX 15094 67741 NIL=
201507131200 AAXX 13124 67741 NIL=
201507100600 AAXX 10064 67741 NIL=
201507081500 AAXX 08154 67741 NIL=
201507030600 AAXX 03064 67741 NIL=
201507020900 AAXX 02094 67741 NIL=
201507020300 AAXX 02034 67741 NIL=
201507011200 AAXX 01124 67741 NIL=

################################################################################
#  SYNOPS from 67743, Livingstone (Zambia) | 17-49S | 025-49E | 985 m
################################################################################
201507310600 AAXX 31064 67743 32975 02103 10159 21006 48550 70500
                   333 58007 555 00/// BB/// CC092 DD/// Q1022=
201507301200 AAXX 30124 67743 42980 10308 20031 48539
                   333 59013 Q1018.7=
201507300600 AAXX 30064 67743 32980 01602 10139 20065 48540 70500
                   333 10294 20089 59014
                   555 00/// 91022=
201507270600 AAXX 27064 67743 32980 01403 10103 20048 48569 70200
                   333 10241 20011 59010
                   555 00/// 91025=
201507231200 AAXX 23124 67743 42980 03404 10293 20088 48546 70200
                   333 59025 91019=
201507220900 AAXX 22094 67743 NIL=
201507220600 AAXX 22064 67743 32980 50902 10152 20066 48565 70200 85030
                   333 10295 20088 58013 85360 91025=
201507211500 AAXX 21154 67743 42980 11011 10260 20058 48545 70100 81030
                   333 58000 81360=
201507211200 AAXX 21124 67743 42980 10804 10273 20022 48551 70200 81030
                   333 59009 81360 91020=
201507201200 AAXX 20124 67743 42980 31211 10274 20021 48559 70200 83030
                   333 58000 83360 555 91021=
201507191500 AAXX 19154 67743 NIL=
201507170900 AAXX 17094 67743 42980 02903 10237 20047 48555 70200
                   333 59013 91021=
201507170600 AAXX 17064 67743 32980 02008 10100 20064 48532 70200
                   333 10308 20078 59016
                   555 00/// 91022=
201507150900 AAXX 15094 67743 NIL=
201507131200 AAXX 13124 67743 42980 01404 10267 21022 48555 70200
                   333 59008 91021=
201507100600 AAXX 10064 67743 32980 00706 10132 20065 48582
                   333 10255 20055 58003
                   555 00/// 91027=
201507081500 AAXX 08154 67743 NIL=
201507030600 AAXX 03064 67743 32980 51501 10120 20071 48582 70322 85030
                   333 10253 20088 59002 85359 91028=
201507020900 AAXX 02094 67743 NIL=
201507020300 AAXX 02034 67743 NIL=
201507011200 AAXX 01124 67743 NIL=

################################################################################
#  SYNOPS from 67751, Magoye (Zambia) | 16-00S | 027-36E | 1018 m
################################################################################
201507300600 AAXX 30064 67751 NIL=
201507290600 AAXX 29064 67751 32978 01204 10161 20112 48549 70500
                   333 10258 20110 58000=
201507270600 AAXX 27064 67751 NIL=
201507220900 AAXX 22094 67751 NIL=
201507211200 AAXX 21124 67751 NIL=
201507201200 AAXX 20124 67751 NIL=
201507191500 AAXX 19154 67751 NIL=
201507170900 AAXX 17094 67751 NIL=
201507170600 AAXX 17064 67751 NIL=
201507150900 AAXX 15094 67751 NIL=
201507131200 AAXX 13124 67751 NIL=
201507100600 AAXX 10064 67751 NIL=
201507081500 AAXX 08154 67751 NIL=
201507030600 AAXX 03064 67751 NIL=
201507020900 AAXX 02094 67751 NIL=
201507020300 AAXX 02034 67751 NIL=
201507011200 AAXX 01124 67751 NIL=

################################################################################
#  SYNOPS from 67753, Choma (Zambia) | 16-50S | 027-04E | 1213 m
################################################################################
201507300600 AAXX 30064 67753 NIL=
201507270600 AAXX 27064 67753 NIL=
201507230600 AAXX 23064 67753 31960 10000 10130 20105 48552 70500 81030
                   333 10250 20075 59011 81360
                   555 00///=
201507220900 AAXX 22094 67753 NIL=
201507220600 AAXX 22064 67753 31960 10803 10170 20095 48565 70500 81030
                   333 10250 20105 5//// 81360
                   555 00///=
201507211200 AAXX 21124 67753 NIL=
201507210600 AAXX 21064 67753 31960 00000 10155 20084 48/// 70500
                   333 10260 20085 5////
                   555 00///=
201507201200 AAXX 20124 67753 NIL=
201507200600 AAXX 20064 67753 31960 00000 10172 20085 48555 70500
                   333 10270 20085 59005=
201507191500 AAXX 19154 67753 NIL=
201507170900 AAXX 17094 67753 NIL=
201507170600 AAXX 17064 67753 31960 03406 10137 20087 48533 70500
                   333 10259 20060 59023=
201507160600 AAXX 16064 67753 31960 00312 10143 20083 48552 70500
                   333 10252 20095 59018
                   555 00///=
201507150900 AAXX 15094 67753 NIL=
201507140600 AAXX 14064 67753 31960 00604 10139 20076 48/// 70500
                   333 10260 20064 5////=
201507131200 AAXX 13124 67753 NIL=
201507130600 AAXX 13064 67753 31960 01808 10120 20050 48557 70500
                   333 10259 20032 59005=
201507100600 AAXX 10064 67753 31960 00000 10134 20085 48/// 70500
                   333 10235 20060 555 00///=
201507081500 AAXX 08154 67753 NIL=
201507080600 AAXX 08064 67753 31960 30601 10130 20085 48580 70500 80002
                   333 10225 20078 5//// 83080
                   555 00///=
201507030600 AAXX 03064 67753 31560 10000 10140 20105 48581 70500 81100
                   333 10215 20090 58001 81820
                   555 00///=
201507020900 AAXX 02094 67753 NIL=
201507020300 AAXX 02034 67753 NIL=
201507011200 AAXX 01124 67753 NIL=

################################################################################
#  SYNOPS from 67855, Lupaki (Zambia) | 17-03-00S | 024-46-00E | 1000 m
################################################################################
201507310600 AAXX 31064 67855 31970 00000 10102 20055 3//// 48/// 70500
                   333 20075 5////=
201507301800 AAXX 30184 67855 NIL=
201507301200 AAXX 30124 67855 41970 02805 10300 20065 3//// 48/// 70500
                   333 59014=
201507300600 AAXX 30064 67855 31970 00000 10094 20043 3//// 48/// 70500
                   333 20056 5////=
201507291800 AAXX 29184 67855 NIL=
201507291200 AAXX 29124 67855 NIL=
201507290600 AAXX 29064 67855 31970 00000 10080 20029 3//// 48/// 70500
                   333 20058 5////=
201507281800 AAXX 28184 67855 NIL=
201507281200 AAXX 28124 67855 41970 03604 10276 20065 3//// 48/// 70500
                   333 5////=
201507280600 AAXX 28064 67855 31970 01801 10086 20023 3//// 48/// 70500
                   333 20041 5////=
201507271800 AAXX 27184 67855 NIL=
201507271200 AAXX 27124 67855 42975 00605 10260 20018 3//// 48///
                   333 5////=
201507270600 AAXX 27064 67855 32980 00000 10062 21200 3//// 48/// 70500
                   333 21030 5////=
201507261800 AAXX 26184 67855 NIL=
201507261200 AAXX 26124 67855 42975 00000 10228 21085 3//// 48///
                   333 5////=
201507260600 AAXX 26064 67855 31970 00000 10080 21040 3//// 48/// 70500
                   333 20032 5////=
201507251800 AAXX 25184 67855 NIL=
201507251200 AAXX 25124 67855 41970 03207 10296 20098 3//// 48/// 70500
                   333 5////=
201507250600 AAXX 25064 67855 NIL=
201507241800 AAXX 24184 67855 NIL=
201507241200 AAXX 24124 67855 41970 03005 10288 20093 3//// 48/// 70500
                   333 5////=
201507240600 AAXX 24064 67855 31970 00000 10114 20099 3//// 48/// 70500
                   333 20092 5////=
201507231800 AAXX 23184 67855 NIL=
201507231200 AAXX 23124 67855 42875 20601 10270 20095 3//// 48/// 82400
                   333 5//// 82657=
201507230600 AAXX 23064 67855 32975 00000 10128 20089 3//// 48///
                   333 20084 5////=
201507221800 AAXX 22184 67855 NIL=
201507221200 AAXX 22124 67855 42875 23605 10270 20071 3//// 48/// 82400
                   333 5//// 82657=
201507220600 AAXX 22064 67855 32975 00000 10100 20045 3//// 48///
                   333 20074 5////=
201507211800 AAXX 21184 67855 NIL=
201507211200 AAXX 21124 67855 42875 10304 10280 20077 3//// 48/// 81400
                   333 5//// 81657=
201507210600 AAXX 21064 67855 32975 00000 10100 20025 3//// 48///
                   333 20064 5////=
201507201800 AAXX 20184 67855 NIL=
201507201200 AAXX 20124 67855 42875 20703 10278 20063 3//// 48/// 82500
                   333 5//// 82657=
201507200600 AAXX 20064 67855 31970 00000 10122 20033 3//// 48/// 70500
                   333 20094 5////=
201507191800 AAXX 19184 67855 NIL=
201507191200 AAXX 19124 67855 NIL=
201507190600 AAXX 19064 67855 31970 30402 10140 20028 3//// 48/// 70500 83030
                   333 20075 5//// 83360=
201507181800 AAXX 18184 67855 NIL=
201507181200 AAXX 18124 67855 NIL=
201507180600 AAXX 18064 67855 31970 00000 10074 20028 3//// 48/// 70500
                   333 20056 5////=
201507171800 AAXX 17184 67855 NIL=
201507171200 AAXX 17124 67855 41970 02503 10284 20058 3//// 48/// 70500
                   333 5////=
201507170600 AAXX 17064 67855 32975 00000 10100 20065 3//// 48///
                   333 20070 5////=
201507161800 AAXX 16184 67855 NIL=
201507161200 AAXX 16124 67855 NIL=
201507160600 AAXX 16064 67855 31970 00000 10080 20035 3//// 48/// 70500
                   333 20031 5////=
201507151800 AAXX 15184 67855 NIL=
201507151200 AAXX 15124 67855 42975 00604 10270 20067 3//// 48///
                   333 5////=
201507150600 AAXX 15064 67855 31970 00902 10096 20061 3//// 48/// 70500
                   333 20063 5////=
201507141800 AAXX 14184 67855 NIL=
201507141200 AAXX 14124 67855 NIL=
201507140600 AAXX 14064 67855 31970 00000 10072 20020 3//// 48/// 70500
                   333 20028 5////=
201507131800 AAXX 13184 67855 NIL=
201507131200 AAXX 13124 67855 41970 00102 10268 20058 3//// 48/// 70500
                   333 5////=
201507130600 AAXX 13064 67855 31970 00000 10060 20010 3//// 48/// 70500
                   333 20022 5////=
201507121800 AAXX 12184 67855 NIL=
201507121200 AAXX 12124 67855 NIL=
201507120600 AAXX 12064 67855 31970 00000 10038 20020 3//// 48/// 70500
                   333 20029 5////=
201507111800 AAXX 11184 67855 NIL=
201507111200 AAXX 11124 67855 41970 01103 10240 20060 3//// 48/// 70500
                   333 5////=
201507110600 AAXX 11064 67855 31970 01801 10080 20049 3//// 48/// 70500
                   333 20068 5////=
201507101200 AAXX 10124 67855 42975 01004 10252 20078 3//// 48///
                   333 5////=
201507100600 AAXX 10064 67855 31970 00000 10076 20049 3//// 48/// 70500
                   333 20045 5////=
201507091800 AAXX 09184 67855 NIL=
201507091200 AAXX 09124 67855 NIL=
201507090600 AAXX 09064 67855 31970 00000 10064 20043 3//// 48/// 70500
                   333 20029 5////=
201507081800 AAXX 08184 67855 NIL=
201507081200 AAXX 08124 67855 41970 03003 10246 20069 3//// 48/// 70500
                   333 5////=
201507080600 AAXX 08064 67855 31970 10703 10114 20075 3//// 48/// 70500 81032
                   333 20053 5//// 81360=
201507071800 AAXX 07184 67855 NIL=
201507071200 AAXX 07124 67855 42975 00704 10260 20076 3//// 48///
                   333 5////=
201507070600 AAXX 07064 67855 NIL=
201507061800 AAXX 06184 67855 NIL=
201507061200 AAXX 06124 67855 42975 00101 10262 20056 3//// 48///
                   333 5////=
201507060600 AAXX 06064 67855 31970 00000 10068 20038 70500
                   333 20032 5////=
201507051800 AAXX 05184 67855 NIL=
201507051200 AAXX 05124 67855 NIL=
201507050600 AAXX 05064 67855 31970 00000 10046 20024 3//// 48/// 70500
                   333 20030 5////=
201507041800 AAXX 04184 67855 NIL=
201507041200 AAXX 04124 67855 42975 00903 10236 20061 3//// 48///
                   333 5////=
201507040600 AAXX 04064 67855 31970 00000 10076 20044 3//// 48/// 70500
                   333 20039 5////=
201507031800 AAXX 03184 67855 NIL=
201507031200 AAXX 03124 67855 NIL=
201507030600 AAXX 03064 67855 31970 00000 10054 20036 3//// 48/// 70500
                   333 20045 5////=
201507021800 AAXX 02184 67855 NIL=
201507021200 AAXX 02124 67855 41970 13501 10252 20078 3//// 48/// 70500 81401
                   333 5//// 81650=
201507020600 AAXX 02064 67855 NIL=
201507011800 AAXX 01184 67855 NIL=
201507011200 AAXX 01124 67855 41970 02002 10250 20070 3//// 48/// 70500
                   333 5////=
201507010600 AAXX 01064 67855 NIL=
