################################################################################
# Query made at 04/17/2022 11:59:56 UTC
# Country like Zamb*
# Time interval: from 12/01/2007 05:30  to 12/31/2007 05:30  UTC
################################################################################

################################################################################
#  SYNOPS from 67403, Kawambwa (Zambia) | 09-48S | 029-05E | 1323 m
################################################################################
200712260600 AAXX 26064 67403 NIL=
200712170600 AAXX 17064 67403 12980 70000 10196 20176 48534 60264 87030
                   333 10268 20/// 58000 87362=
200712120600 AAXX 12064 67403 12980 70000 10199 20181 48548 60174 87030
                   333 10257 20137 59006 87362=
200712070600 AAXX 07064 67403 12982 70000 10221 20188 48543 60124 87030
                   333 10310 20158 59005 87362=
200712050600 AAXX 05064 67403 12980 51201 10216 20171 48541 69904 85030
                   333 10279 20145 58004 85360=

################################################################################
#  SYNOPS from 67413, Mbala (Zambia) | 08-51S | 031-20E | 1673 m
################################################################################
200712180900 AAXX 18094 67413 41370 81210 10200 20185 48502 71722 8587/
                   333 5//// 81920 82610 82820 88459=
200712170600 AAXX 17064 67413 12980 70000 10195 20164 48517 60134 8707/
                   333 10236 20150 58010 87459=
200712160600 AAXX 16064 67413 12980 40000 10195 20164 48516 60014 84030
                   333 10233 20149 59009 84360=
200712130900 AAXX 13094 67413 42580 73407 10205 20166 48524 8427/
                   333 59010 81925 83825 87459=
200712130600 AAXX 13064 67413 11460 80000 10171 20171 48504 60534 76255 887//
                   333 10265 20145 59008 81645 82820 88459=
200712120600 AAXX 12064 67413 12580 71309 10175 20159 48538 60114 8227/
                   333 10250 20139 59003 82820 87459=
200712071200 AAXX 07124 67413 41660 83206 10180 20180 48503 72942 8537/
                   333 5//// 82930 83830 88458=
200712070600 AAXX 07064 67413 12980 60702 10197 20141 48530 60084 8603/
                   333 10//0 20135 58003 86359=

################################################################################
#  SYNOPS from 67441, Mwinilunga (Zambia) | 11-45S | 024-26E | 1361 m
################################################################################
200712281200 AAXX 28124 67441 72708 10236 20182 48517 8413/
                   333 58000 84830 86362=
200712280600 AAXX 28064 67441 12380 80000 10180 20172 48533 69904 886//
                   333 10230 20162 59012 88709=
200712270900 AAXX 27094 67441 41575 73305 10200 20177 48527 76166 8112/
                   333 58010 81820 87460=
200712270600 AAXX 27064 67441 11975 82703 10171 20166 48521 60134 76166 8802/
                   333 10280 20155 58002 88460=
200712260900 AAXX 26094 67441 42680 62908 10265 20183 48517 85130
                   333 5//// 85835 81361=
200712260600 AAXX 26064 67441 11980 40000 10190 20182 48519 69904 72162 84030
                   333 10285 20160 59020 84360=
200712240600 AAXX 24064 67441 11980 73007 10195 20179 48533 60164 72166 8707/
                   333 10265 20165 58001 87360=
200712200900 AAXX 20094 67441 42582 42704 10240 20179 48538 82130
                   333 59006 84825 81360=
200712200600 AAXX 20064 67441 12980 72905 10180 20164 48543 60094 8707/
                   333 10265 20148 58006 87360=
200712190900 AAXX 19094 67441 41970 82906 10185 20177 48545 76166 8802/
                   333 58024 88460=
200712190600 AAXX 19064 67441 11380 80000 10165 20160 48537 60294 72166 8372/
                   333 10255 20148 58018 83706 88460=
200712180900 AAXX 18094 67441 42582 42808 10245 20193 48520 81130
                   333 59005 81825 83360=
200712180600 AAXX 18064 67441 12980 72906 10200 20185 48519 60024 8707/
                   333 10275 20172 59002 87360=
200712141200 AAXX 14124 67441 41680 63305 10235 20190 48499 72199 83234
                   333 5//// 83830 83362 82080=
200712130900 AAXX 13094 67441 42680 63307 10230 20185 48526 84230
                   333 59018 84830 84362=
200712130600 AAXX 13064 67441 12580 70605 10195 20179 48528 69904 8117/
                   333 10275 20166 59014 81820 87360=
200712120600 AAXX 12064 67441 32380 73206 10190 20174 48542 875//
                   333 10275 20158 59012 87620=
200712100600 AAXX 10064 67441 12480 82706 10185 20167 48539 60034 885//
                   333 10240 20145 5//// 88615=
200712070600 AAXX 07064 67441 11680 70000 10195 20178 48498 60024 72144 8113/
                   333 10270 20165 59001 81820 87360=
200712050600 AAXX 05064 67441 12480 70000 10175 20167 48/// 60164 81130
                   333 10265 20150 5//// 81820 87360=

################################################################################
#  SYNOPS from 67461, Mansa (Zambia) | 11-06S | 028-51E | 1382 m
################################################################################
200712280600 AAXX 28064 67461 12480 80902 10207 20180 48505 60014 8457/
                   333 10245 20163 58012 84610 88461=
200712270900 AAXX 27094 67461 42580 82907 10213 20187 48497 8622/
                   333 59002 86820 88462=
200712270600 AAXX 27064 67461 12480 73002 10198 20186 48485 60024 8157/
                   333 10264 20169 59009 81310 87362=
200712260900 AAXX 26094 67461 42480 73203 10232 20193 48489 8457/
                   333 59026 84820 87362=
200712260600 AAXX 26064 67461 11370 73205 10206 20194 48492 60104 8463/
                   333 10258 20162 59027 84706 85362=
200712250900 AAXX 25094 67461 42480 72703 10233 20183 48511 8357/
                   333 59004 83610 87462=
200712250600 AAXX 25064 67461 12380 80802 10193 20181 48507 60064 8357/
                   333 10264 20168 58001 85606 88461=
200712200900 AAXX 20094 67461 42580 62705 10239 20167 48518 84830
                   333 58009 83825 83627 85363=
200712200600 AAXX 20064 67461 12380 73105 10192 20183 48517 60144 84530
                   333 10240 20166 59004 85606 86362=
200712180600 AAXX 18064 67461 11370 83601 10190 20182 48505 60174 72166 8457/
                   333 10270 20164 58007 84608 88461=
200712141200 AAXX 14124 67461 41675 70901 10246 20183 48483 71622 8427/
                   333 59002 81930 84830 87463=
200712120600 AAXX 12064 67461 11470 83103 10195 20182 48519 60074 72166 8357/
                   333 10270 20169 59010 83619 88461=
200712071200 AAXX 07124 67461 41680 72703 10268 20172 48494 71522 85208
                   333 59020 81940 85840 86280=
200712070600 AAXX 07064 67461 11375 70902 10185 20178 48523 60044 82638
                   333 10276 20160 58003 82705 85364 86280=

################################################################################
#  SYNOPS from 67475, Kasama (Zambia) | 10-13S | 031-08E | 1382 m
################################################################################
200712280600 AAXX 28064 67475 12480 73506 10205 20175 48510 60014 8113/
                   333 10254 20159 58003 81815 87360=
200712270900 AAXX 27094 67475 42680 73412 10236 20197 48504 8557/
                   333 58014 85625 87460=
200712270600 AAXX 27064 67475 12480 83612 10195 20179 48506 60034 8257/
                   333 10268 20159 58009 82612 88460=
200712260900 AAXX 26094 67475 42582 73603 10242 20194 48490 82232
                   333 59015 82820 85361 87080=
200712260600 AAXX 26064 67475 11975 83608 10189 20183 48497 60144 70262 8807/
                   333 10267 20167 59017 88460=
200712250600 AAXX 25064 67475 12380 70000 10214 20182 48515 60064 8253/
                   333 10247 20163 59002 82612 87360=
200712240900 AAXX 24094 67475 42580 72710 10234 20186 48513 85832
                   333 58004 83825 82629 85360 87080=
200712200900 AAXX 20094 67475 42580 73610 10234 20168 48515 8387/
                   333 58007 82628 83830 87461=
200712200600 AAXX 20064 67475 12480 83005 10192 20163 48524 60034 8467/
                   333 10230 20157 58013 84610 88460=
200712190900 AAXX 19094 67475 42678 43612 10202 20173 48507 867//
                   333 5//// 86630 88460=
200712190600 AAXX 19064 67475 11470 83509 10180 20174 48511 60024 76166 8557/
                   333 10210 20166 5//// 85610 88459=
200712171200 AAXX 17124 67475 41680 71403 10270 20192 48460 71792 85272
                   333 59005 81945 85845 85462 87080=
200712170600 AAXX 17064 67475 12980 73504 10200 20183 48503 60294 8707/
                   333 10288 20169 59001 87460=
200712130900 AAXX 13094 67475 41578 73408 10235 20182 48515 72166 8552/
                   333 59007 85625 87461=
200712130600 AAXX 13064 67475 11480 73605 10190 20173 48/// 60014 71522 8357/
                   333 10282 20172 5//// 83610 87360=
200712120600 AAXX 12064 67475 11470 70904 10192 20178 48529 60024 76066 8257/
                   333 10261 20174 59004 82610 87462=
200712100600 AAXX 10064 67475 12480 70000 10198 20178 48530 60034 8157/
                   333 10247 20164 58001 81610 87461=
200712071200 AAXX 07124 67475 41678 71205 10275 20176 48475 72999 86202
                   333 5//// 86849 87280=
200712070600 AAXX 07064 67475 11478 61202 10204 20163 48521 60234 70522 81172
                   333 10298 20160 58004 81820 86461 86080=
200712050900 AAXX 05094 67475 41678 10228 20194 48513 70522 8327/
                   333 58015 83840 87461=
200712050600 AAXX 05064 67475 11475 73604 10183 20185 48519 60034 72162 8458/
                   333 10306 20161 58010 84610 87460=
200712041200 AAXX 04124 67475 41778 61305 10283 20173 48468 72999 86272
                   333 59021 81956 86856 86463 86080=

################################################################################
#  SYNOPS from 67476, Misamfu (Zambia) | 10-06S | 031-15E | 1536 m
################################################################################
200712260600 AAXX 26064 67476 NIL=
200712180600 AAXX 18064 67476 11365 80208 10178 20170 48/// 60034 76166 8677/
                   333 10282 20170 58007 86707 88460=
200712130600 AAXX 13064 67476 12380 80000 10195 20174 48/// 60074 8567/
                   333 10295 20166 59013 85706 88460=
200712070600 AAXX 07064 67476 12980 06064 10230 20172 60264 86030
                   333 10330 20144 5//// 86361=

################################################################################
#  SYNOPS from 67477, Mpika (Zambia) | 11-54S | 031-26E | 1400 m
################################################################################
200712280600 AAXX 28064 67477 12480 83202 10181 20173 48504 60034 81131
                   333 10245 20160 58002 81812 83360=
200712260600 AAXX 26064 67477 NIL=

################################################################################
#  SYNOPS from 67481, Isoka (Zambia) | 10-07S | 032-38E | 1360 m
################################################################################
200712270600 AAXX 27064 67481 11380 73603 10181 20178 48/// 60444 71562 8367/
                   333 10285 20160 58010 83706 87360=
200712200600 AAXX 20064 67481 12480 73004 10195 20162 48/// 60054 8167/
                   333 10244 20159 58017 81710 87460=
200712160600 AAXX 16064 67481 12980 73302 10198 20161 48/// 60114 8707/
                   333 10278 20162 59009 87460=
200712100600 AAXX 10064 67481 32980 53001 10218 20151 48/// 84032
                   333 10246 20154 58004 84360 83080=
200712050600 AAXX 05064 67481 32580 60000 10228 20163 81238
                   333 10342 20168 58009 81825 84360 85280=

################################################################################
#  SYNOPS from 67531, Zambezi (Zambia) | 13-32S | 023-07E | 1077 m
################################################################################
200712280600 AAXX 28064 67531 12980 60304 10215 20177 48/// 60014 8603/
                   333 10245 20161 58005 86360=
200712270900 AAXX 27094 67531 41480 70000 10221 20190 48/// 72162 8157/
                   333 58018 81612 87360=
200712270600 AAXX 27064 67531 11380 73306 10195 20181 48/// 60184 76062 8177/
                   333 10305 20171 58011 81707 87360=
200712260900 AAXX 26094 67531 42580 70603 10260 20211 48/// 8157/
                   333 5//// 81620 87360=
200712260600 AAXX 26064 67531 11980 70601 10210 20200 48/// 60104 70296 8707/
                   333 10301 20190 59020 87360=
200712250600 AAXX 25064 67531 12480 70105 10221 20190 48/// 60064 8113/
                   333 10270 20185 58000 81815 87362=
200712200600 AAXX 20064 67531 12480 73604 10196 20176 48/// 60184 8457/
                   333 10273 20151 58008 84610 85360=
200712190900 AAXX 19094 67531 42580 73607 10245 20176 48/// 8687/
                   333 58028 83824 82624 87360=
200712190600 AAXX 19064 67531 11380 83605 10201 20183 48/// 60024 70398 8367/
                   333 10315 20190 58023 83706 88360=
200712180900 AAXX 18094 67531 42680 73603 10271 20190 48/// 81107
                   333 59006 81836 87280=
200712180600 AAXX 18064 67531 32980 73604 10235 20184 48/// 84031
                   333 10301 20193 59001 84361 83082=
200712170600 AAXX 17064 67531 12980 73604 10217 20197 48/// 60044 8703/
                   333 10304 20190 59008 87360=
200712130900 AAXX 13094 67531 41380 80901 10196 20170 48/// 79599 8197/
                   333 59002 83707 81944 88460=
200712120600 AAXX 12064 67531 12480 33602 10200 20190 48/// 69904 81132
                   333 10291 20166 59008 81814 83362 81082=
200712100600 AAXX 10064 67531 11380 83604 10196 20175 48/// 60374 70266 8762/
                   333 10219 20180 58004 87706 88460=
200712071200 AAXX 07124 67531 41680 73105 10276 20187 48/// 71799 84208
                   333 5//// 81937 84837 87281=
200712070600 AAXX 07064 67531 32480 70302 10223 20175 48/// 81178
                   333 10285 20185 58002 81819 81362 87281=
200712050900 AAXX 05094 67531 42680 73606 10240 20171 48///
                   333 58004 81830 82360 87280=

################################################################################
#  SYNOPS from 67541, Kasempa (Zambia) | 13-32S | 025-51E | 1234 m
################################################################################
200712260600 AAXX 26064 67541 NIL=

################################################################################
#  SYNOPS from 67551, Solwezi (Zambia) | 12-11S | 026-23E | 1386 m
################################################################################
200712280600 AAXX 28064 67551 12580 73206 10188 20173 48540 60024 8567/
                   333 10248 20175 58004 85708 87362=
200712270900 AAXX 27094 67551 41580 73404 10213 20186 48489 76062 8457/
                   333 58004 84620 87462=
200712240600 AAXX 24064 67551 12380 73404 10189 20170 48509 60014 8567/
                   333 10/// 20/// 59001 85608 87362=
200712190600 AAXX 19064 67551 32380 73104 10170 20160 48498 8257/
                   333 10271 58005 82508 87362=
200712170600 AAXX 17064 67551 12980 73303 10190 20179 48520 60034 87030
                   333 10197 20172 59011 87362=
200712160600 AAXX 16064 67551 12982 70000 10198 20183 48494 69904 87032
                   333 10280 20175 59011 87360 82080=
200712130600 AAXX 13064 67551 12380 70000 10192 20185 48506 60324 8367/
                   333 10296 20176 59009 83709 87362=
200712120600 AAXX 12064 67551 12382 73403 10195 20181 48515 69904 8557/
                   333 10272 20176 59007 85512 87362=
200712050900 AAXX 05094 67551 42580 73403 10231 20176 48503 81238
                   333 59015 81820 84360 85280=
200712050600 AAXX 05064 67551 12380 72703 10186 20168 48503 60094 81131
                   333 10304 20165 59015 81808 85360 83080=

################################################################################
#  SYNOPS from 67561, Ndola (Zambia) | 13-00S | 028-39E | 1269 m
################################################################################
200712280600 AAXX 28064 67561 11270 10201 20178 48501 60194 72052 8777/
                   333 10201 20180 58012 87705 88459=
200712270900 AAXX 27094 67561 42480 73606 10221 20188 48488 8753/
                   333 58008 87617 87361=
200712270600 AAXX 27064 67561 11270 80000 10192 20179 48488 60064 70562 8777/
                   333 10231 20179 58003 87705 88459=
200712260900 AAXX 26094 67561 41580 72503 10207 20202 48479 79596 8293/
                   333 59033 82917 83817 87360=
200712260600 AAXX 26064 67561 11275 70000 10200 20191 48486 60084 70522 8663/
                   333 10256 20171 59034 86705 87360=
200712240900 AAXX 24094 67561 41450 80000 10212 20187 48520 72166 8557/
                   333 58011 58012 83825 84625 87460=
200712240600 AAXX 24064 67561 11259 80000 10186 20183 48513 60404 76196 8377/
                   333 10279 20184 58003 83705 819// 88460=
200712200600 AAXX 20064 67561 11375 73305 10193 20166 48513 60034 70362 8377/
                   333 10210 20181 58015 83706 87460=
200712190600 AAXX 19064 67561 11370 80000 10175 20166 48496 60034 76162 8367/
                   333 10280 20166 58012 83705 88459=
200712181200 AAXX 18124 67561 41675 70000 10263 20187 48467 71722 8423/
                   333 58002 81940 84840 87360=
200712180900 AAXX 18094 67561 41575 70000 10253 20192 48484 70522 8527/
                   333 59007 85825 87461=
200712180600 AAXX 18064 67561 11365 80402 10195 20183 48486 60304 70522 8167/
                   333 10281 20184 59004 81706 88460=
200712170600 AAXX 17064 67561 31970 70203 10207 20188 48491 70522 86031
                   333 10265 20180 59017 86361 82080=
200712141200 AAXX 14124 67561 42680 73508 10255 20173 48475 86202
                   333 59013 86845 82080=
200712130600 AAXX 13064 67561 11250 70000 10178 20173 48520 60954 76162 8777/
                   333 10285 20175 58003 87708 87458=
200712120900 AAXX 12094 67561 41570 70308 10256 20196 48519 70522 85232
                   333 59006 81925 85825 83361 84080=
200712120600 AAXX 12064 67561 11365 70303 10203 20183 48520 60164 70522 84630
                   333 10273 20164 59011 84706 85361=
200712100600 AAXX 10064 67561 12480 70204 10195 20173 48523 60014 8557/
                   333 10251 20177 58004 85610 87460=
200712080600 AAXX 08064 67561 11260 80705 10186 20181 48516 60034 72162 8577/
                   333 10280 20184 59013 85605 88460=
200712070600 AAXX 07064 67561 11370 70000 10191 20174 48528 60054 72162 82638
                   333 10261 20175 59006 82708 86360 85280=
200712061200 AAXX 06124 67561 42680 73603 10256 20181 48487 81138
                   333 58001 81830 81360 87080=
200712050900 AAXX 05094 67561 41570 70000 10226 20172 48516 70522 83230
                   333 58011 83825 87361=
200712050600 AAXX 05064 67561 11270 70603 10201 20174 48521 60134 70562 84638
                   333 10307 20171 58009 84705 86361 87280=
200712031200 AAXX 03124 67561 42680 70105 10262 20167 48477 84238
                   333 58014 84840 86362 87280=

################################################################################
#  SYNOPS from 67563, Kafironda (Zambia) | 12-36S | 028-07E | 1243 m
################################################################################
200712280600 AAXX 28064 67563 11380 73204 10211 20190 48/// 60034 8367/
                   333 10262 20178 58011 83706 87358=
200712270600 AAXX 27064 67563 12380 83602 10192 20190 48/// 60064 887//
                   333 10265 20177 58004 88703=
200712260900 AAXX 26094 67563 41580 72704 10252 20160 48/// 71792 81972
                   333 59048 81920 86820 81360 81080=
200712200900 AAXX 20094 67563 42580 62702 10242 20170 48/// 86231
                   333 58004 86840 81360 81080=
200712200600 AAXX 20064 67563 32380 70902 10195 20190 48/// 83670
                   333 10220 20175 58011 83703 86358=
200712190600 AAXX 19064 67563 11480 80000 10186 20180 48/// 60044 76162 8372/
                   333 10277 20170 58016 83704 88458=
200712180900 AAXX 18094 67563 41380 81002 10225 20200 48/// 72052 8377/
                   333 58000 83708 88360=
200712180600 AAXX 18064 67563 12980 83302 10200 20190 48/// 60314 8807/
                   333 10272 20178 59002 88458=
200712171200 AAXX 17124 67563 41580 73002 10210 20200 48/// 71799 83903
                   333 59013 81925 83825 86080=
200712160600 AAXX 16064 67563 12480 61202 10210 20190 48/// 60034 85680
                   333 10255 20178 59034 85704 83358=
200712141200 AAXX 14124 67563 41580 62703 10267 20150 48/// 71792 81982
                   333 59014 81930 85850 82360 82080=
200712130900 AAXX 13094 67563 41380 80901 10187 20180 48/// 76066 8262/
                   333 58012 82706 88460=

################################################################################
#  SYNOPS from 67571, Serenje (Zambia) | 13-14S | 030-13E | 1384 m
################################################################################
200712280600 AAXX 28064 67571 12480 82708 10190 20172 885///
                   333 10247 20179 58008 88615=
200712260900 AAXX 26094 67571 41482 73606 10204 20183 48482 72166 875//
                   333 59020 87617=
200712170600 AAXX 17064 67571 12484 72704 10195 20184 48492 60234 875//
                   333 10257 20180 59004 87615=
200712160600 AAXX 16064 67571 11970 80000 10164 20162 48490 60134 76366 8807/
                   333 10236 20160 59020 88460=
200712120600 AAXX 12064 67571 12480 82704 10198 20180 48522 60044 8357/
                   333 10245 20162 59006 83615 88460=
200712071200 AAXX 07124 67571 41484 73302 10275 20174 48474 71799 86201
                   333 59012 81920 86825 83080=
200712031200 AAXX 03124 67571 41684 73308 10252 20173 48483 71799 85248
                   333 58012 81925 85825 81360 87280=

################################################################################
#  SYNOPS from 67580, Msekera (Zambia) | 13-39S | 032-34E | 1025 m
################################################################################
200712280600 AAXX 28064 67580 12982 83003 10232 20198 48/// 60034 82078
                   333 10292 20186 58011 82360 87280=
200712270600 AAXX 27064 67580 12980 70603 10228 20191 48/// 60044 8707/
                   333 10287 20193 58008 87460=
200712260900 AAXX 26094 67580 42682 73604 10265 20196 48/// 85238
                   333 5//// 85840 84362 85280=
200712200600 AAXX 20064 67580 11470 82705 10186 20183 48/// 60274 76066 8657/
                   333 10258 20177 58025 86612 88460=
200712181200 AAXX 18124 67580 42680 73306 10267 20198 48/// 82207
                   333 59005 82845 87280=
200712180900 AAXX 18094 67580 42680 73604 10249 20202 48/// 872//
                   333 59008 87830=
200712180600 AAXX 18064 67580 11980 70000 10232 20200 48/// 60044 72162 8707/
                   333 10296 20187 59008 87460=
200712171200 AAXX 17124 67580 41682 73004 10287 20192 48/// 71522 83208
                   333 5//// 81940 82845 87280=
200712170600 AAXX 17064 67580 12482 70604 10251 20121 48/// 60234 8117/
                   333 10292 20189 59007 81818 87360=
200712160600 AAXX 16064 67580 12582 73602 10257 20211 48/// 60014 81138
                   333 10280 20202 59023 81825 81362 86280=
200712141200 AAXX 14124 67580 42682 72705 10253 20184 48/// 83107
                   333 59008 83845 87280=
200712130900 AAXX 13094 67580 42680 70803 10257 20198 48/// 85238
                   333 59016 85840 81360 87280=
200712130600 AAXX 13064 67580 11275 70802 10230 20201 48/// 60104 72162 84138
                   333 10299 20193 59007 84814 82360 86280=
200712120600 AAXX 12064 67580 12982 70000 10258 20200 48/// 69904 84078
                   333 10292 20197 59012 84362 87280=
200712071200 AAXX 07124 67580 41680 70603 10282 20197 48/// 71792 85202
                   333 59021 81950 85840 87280=
200712070600 AAXX 07064 67580 11484 72704 10247 20205 48/// 69954 71522 83237
                   333 10266 20188 59001 83818 81360 87280=
200712061200 AAXX 06124 67580 41680 70000 10221 20201 48/// 79592 81938
                   333 58014 81940 82360 87280=
200712050900 AAXX 05094 67580 41680 71804 10280 20199 48/// 71722 8423/
                   333 58010 81935 84835 87360=
200712050600 AAXX 05064 67580 12480 70000 10218 20202 48/// 60264 81178
                   333 10340 20180 59012 81860 85460 87280=
200712031200 AAXX 03124 67580 42782 72004 10325 20171 48/// 84208
                   333 5//// 81950 84856 87280=

################################################################################
#  SYNOPS from 67581, Chipata (Zambia) | 13-33S | 032-35E | 1028 m
################################################################################
200712280600 AAXX 28064 67581 12984 70603 10237 20190 48510 60084 81037
                   333 10290 20190 58010 81362 87280=
200712270600 AAXX 27064 67581 11982 70605 10224 20192 48501 60514 70262 8707/
                   333 10285 20194 58008 87460=
200712260900 AAXX 26094 67581 42682 73506 10265 20197 48493 85232
                   333 59012 85840 83362 81080=
200712260600 AAXX 26064 67581 12682 73004 10237 20191 48496 60014 81138
                   333 10275 20196 59010 81830 81362 87280=
200712190600 AAXX 19064 67581 11684 83602 10210 20197 48506 69934 72162 8327/
                   333 10277 20206 58015 83836 88460=
200712180600 AAXX 18064 67581 11584 70000 10217 20195 48493 60124 72162 81337
                   333 10292 20190 59009 81924 85361 87280=
200712171200 AAXX 17124 67581 41682 73505 10282 20188 48474 71522 82938
                   333 59020 82940 81845 81462 87280=
200712170600 AAXX 17064 67581 12680 73004 10244 20192 48504 69944 81130
                   333 10292 20190 59002 81830 87361=
200712130900 AAXX 13094 67581 42684 72804 10255 20202 48510 84138
                   333 59010 84835 81362 87280=
200712130600 AAXX 13064 67581 11684 70000 10229 20200 48519 60514 72162 81138
                   333 10305 20200 59006 81830 81362 87280=
200712120600 AAXX 12064 67581 11975 70802 10258 20194 48530 69904 72162 84037
                   333 10299 20200 59012 84361 87280=
200712100600 AAXX 10064 67581 12584 73603 10225 20180 48533 69904 8117/
                   333 10280 20179 58013 81820 87460=
200712041200 AAXX 04124 67581 42684 70702 10325 20161 48481 85208
                   333 59009 81945 85845 86280=

################################################################################
#  SYNOPS from 67583, Lundazi (Zambia) | 12-17S | 033-12E | 1143 m
################################################################################
200712270900 AAXX 27094 67583 42980 70303 10235 20180 48/// 87030
                   333 5//// 87360=
200712270600 AAXX 27064 67583 11975 80901 10202 20158 48/// 60054 76162 8807/
                   333 10260 20185 58004 88460=
200712260600 AAXX 26064 67583 NIL=
200712200900 AAXX 20094 67583 42680 71402 10230 20179 48/// 8687/
                   333 58016 81840 85641 87360=
200712200600 AAXX 20064 67583 11975 83502 10205 20184 48/// 60054 76062 8807/
                   333 10220 20186 58022 88460=
200712180600 AAXX 18064 67583 32980 70000 10225 20196 48/// 87030
                   333 10280 20195 59008 87360=
200712171200 AAXX 17124 67583 42680 70701 10255 20188 48/// 81237
                   333 5//// 81850 82360 87280=
200712170600 AAXX 17064 67583 32980 72801 10240 20159 48/// 87032
                   333 10270 20188 59011 87360 81080=
200712141200 AAXX 14124 67583 42680 63605 10272 20178 48/// 84232
                   333 58000 84850 82360 81080=
200712130900 AAXX 13094 67583 41680 70803 10280 20183 48/// 71792 85232
                   333 59020 81941 84850 83360 81080=
200712130600 AAXX 13064 67583 12580 70102 10240 20187 48/// 69904 81532
                   333 10270 20189 59006 81625 84360 82080=
200712120600 AAXX 12064 67583 12980 70903 10225 20188 48/// 69904 82037
                   333 10260 20190 59011 82360=
200712071200 AAXX 07124 67583 42680 73504 10285 20173 48/// 81135
                   333 5//// 81850 82360 87280=
200712070600 AAXX 07064 67583 12980 73602 10245 20187 60014 81037
                   333 10260 20184 5//// 81360 87280=
200712050900 AAXX 05094 67583 42680 50304 10295 20166 84102
                   333 58007 84850 81080=
200712041200 AAXX 04124 67583 41680 60804 10310 20157 48/// 71792 85202
                   333 59008 81947 84847 83080=
200712031200 AAXX 03124 67583 41680 71307 10260 20150 48/// 71792 85208
                   333 5//// 81947 84850 86280=

################################################################################
#  SYNOPS from 67599, Mfuwe (Zambia) | 13-16S | 031-56E | 568 m
################################################################################
200712280600 AAXX 28064 67599 12980 80000 10230 20216 48512 60194 8257/
                   333 10320 20165 58003 82610 88460=
200712270900 AAXX 27094 67599 42580 63606 10285 20214 48517 82130
                   333 58014 82825 86360=
200712270600 AAXX 27064 67599 12480 80000 10236 20213 48509 69904 8117/
                   333 10329 20179 58012 81810 88460=
200712260900 AAXX 26094 67599 42680 70000 10285 20220 48504 8197/
                   333 59031 819// 82830 87460=
200712260600 AAXX 26064 67599 12470 60106 10259 20218 48504 81930
                   333 10320 20189 59028 819// 81812 86360=
200712250900 AAXX 25094 67599 42580 70000 10275 20218 48529 8527/
                   333 59009 85825 87460=
200712240900 AAXX 24094 67599 42480 70000 10255 20219 48531 8457/
                   333 58007 84615 87460=
200712240600 AAXX 24064 67599 11359 80000 10220 20213 48531 60074 76166 8377/
                   333 10339 20170 58008 83708 88460=
200712230900 AAXX 23094 67599 42680 60000 10290 20227 48533 84230
                   333 59008 84830 84360=
200712212100 AAXX 21214 67599 42/80 50000 10202 20202 48525 81930
                   333 59016 819// 85360=
200712211800 AAXX 21184 67599 41780 60000 10216 20216 48511 71322 81930
                   333 58008 81956 86360=
200712211500 AAXX 21154 67599 42680 60000 10285 20228 48501 70222 81970
                   333 58000 81930 86460=
200712200900 AAXX 20094 67599 42480 80000 10245 20208 48533 72162 8557/
                   333 58029 85712 88460=
200712200600 AAXX 20064 67599 11358 80000 10220 20213 48534 60104 76166 8577/
                   333 10290 20169 58030 85708 88460=
200712190600 AAXX 19064 67599 11459 80000 10245 20231 48512 60084 75022 8357/
                   333 10310 20186 58004 83610 88460=
200712181200 AAXX 18124 67599 41680 80000 10301 20222 48483 71722 82937
                   333 58001 82935 81836 83360 88280=
200712180900 AAXX 18094 67599 42580 70105 10274 20225 48501 83138
                   333 59006 819// 83825 84360 87280=
200712180600 AAXX 18064 67599 12380 83004 10240 20226 48508 69974 8577/
                   333 10350 20186 59002 85708 88460=
200712171200 AAXX 17124 67599 42680 60000 10322 20222 48488 70222 82202
                   333 59010 82840 86080=
200712160600 AAXX 16064 67599 12470 60106 10259 20218 48504 60054 81930
                   333 10320 20189 59028 819// 81812 86360=
200712150900 AAXX 15094 67599 41680 60804 10282 20222 48515 71622 83132
                   333 59029 81930 83360 84080 91013=
200712141200 AAXX 14124 67599 42680 70000 10265 20222 48501 84238
                   333 58013 84830 83360 86280=
200712130600 AAXX 13064 67599 12480 80000 10245 20224 48545 69904 8257/
                   333 10326 20190 59008 82610 88460=
200712120600 AAXX 12064 67599 12480 80000 10245 20224 48545 69904 8257/
                   333 10326 20190 59008 82610 88460=
200712090600 AAXX 09064 67599 12480 80000 10230 20208 48534 60044 8257/
                   333 10339 20170 58012 82612 88460=
200712080900 AAXX 08094 67599 42680 82702 10284 20228 48534 83137
                   333 58006 819// 83830 84360 88280=
200712080600 AAXX 08064 67599 32480 80000 10321 20215 48523 8157/
                   333 10350 20169 59007 81610 88460=
200712071500 AAXX 07154 67599 41780 80000 10320 20222 48500 71799 8297/
                   333 59013 82950 88460=
200712071200 AAXX 07124 67599 42780 70000 10335 20208 48504 82938
                   333 59024 82950 81850 83360 87280=
200712061200 AAXX 06124 67599 42780 51204 10325 20212 48524 82972
                   333 58013 82950 82850 84360 82080=
200712050600 AAXX 05064 67599 12480 70000 10240 20212 48548 60064 82532
                   333 10330 20175 58015 82680 85360 82080=
200712031200 AAXX 03124 67599 42780 62205 10350 20209 48510 81938
                   333 58002 81956=

################################################################################
#  SYNOPS from 67633, Mongu (Zambia) | 15-15S | 023-09E | 1052 m
################################################################################
200712280600 AAXX 28064 67633 12582 40613 10220 20194 48491 69904 885//
                   333 10280 20184 58011 83620 83360 84080=
200712270600 AAXX 27064 67633 12982 50906 10204 20194 48478 60094 85082
                   333 10320 20184 58012 85360 84280=
200712260600 AAXX 26064 67633 12982 70408 10230 20208 48470 60024 86038
                   333 10280 20210 59027 86360 87280=
200712190600 AAXX 19064 67633 32982 83608 10230 20168 48492 84038
                   333 10337 20200 58016 84360 88280=
200712180900 AAXX 18094 67633 42980 73602 10272 20202 48485 82038
                   333 58002 82361 86280=
200712130600 AAXX 13064 67633 11580 80000 10200 20188 48491 60094 72166 85578
                   333 10302 20190 59013 85620 87460 88280=
200712120600 AAXX 12064 67633 12580 33302 10218 20197 48506 60094 83532
                   333 10186 20176 58003 83620 81360 81080=

################################################################################
#  SYNOPS from 67641, Kaoma (Zambia) | 14-48S | 024-48E | 1213 m
################################################################################
200712280600 AAXX 28064 67641 11582 83001 10190 20188 48491 60244 75056 83538
                   333 10272 20189 58018 83620 84360 87280=
200712270600 AAXX 27064 67641 12582 70101 10159 20183 48472 60184 81532
                   333 10285 20177 58002 81620 86360 83080=
200712260600 AAXX 26064 67641 NIL=

################################################################################
#  SYNOPS from 67655, Mumbwa (Zambia) | 15-04S | 027-11E | 1216 m
################################################################################
200712240600 AAXX 24064 67655 11470 70204 10204 20194 48490 6014/ 75022 82330
                   333 10278 20115 59038 82612 83357=
200712200600 AAXX 20064 67655 11475 82706 10171 20169 48513 60574 75055 8577/
                   333 10235 20155 58020 85710 83356 86456=
200712180600 AAXX 18064 67655 32880 82810 10208 20172 48484 88077
                   333 10272 20177 59002 88457 82357 88278=
200712160600 AAXX 16064 67655 11575 82707 10276 20140 48494 60144 76052 8752/
                   333 10280 20180 59032 87615 84456=

################################################################################
#  SYNOPS from 67659, Kafue Polder (Zambia) | 15-46S | 027-55E | 978 m
################################################################################
200712270600 AAXX 27064 67659 11480 73303 10228 20201 48/// 60014 72166 84538
                   333 10272 20/// 59001 84610 85361 87280=
200712260900 AAXX 26094 67659 42475 80205 10232 20202 48/// 8373/
                   333 5//// 83710 87361=
200712250600 AAXX 25064 67659 11475 70000 10220 20202 48/// 60174 72162 8577/
                   333 10245 20/// 58000 85717 87460=
200712200600 AAXX 20064 67659 11360 83305 10179 20176 48/// 60414 76166 8572/
                   333 10200 20/// 58027 85705 88458=
200712180600 AAXX 18064 67659 11375 80000 10204 20189 48/// 60214 71622 877//
                   333 10270 20/// 59001 88708=
200712160600 AAXX 16064 67659 11570 83304 10222 20207 48/// 69904 76066 877//
                   333 10285 20/// 58032 87705=
200712141200 AAXX 14124 67659 41580 70902 10232 20203 48/// 71772 83238
                   333 59012 81920 82820 82361 87280=
200712130600 AAXX 13064 67659 11380 80000 10195 20174 48/// 60074 8567/
                   333 10264 20/// 58000 87705=
200712120600 AAXX 12064 67659 11380 80000 10219 20206 48/// 60074 76066 877//
                   333 10245 20162 59006 83615 88460=
200712050600 AAXX 05064 67659 12980 70304 10224 20195 48/// 60114 84038
                   333 10290 20//0 58001 84361 87280=
200712031200 AAXX 03124 67659 42480 50307 10294 20193 48/// 84232
                   333 5//// 84818 83361 84080=

################################################################################
#  SYNOPS from 67663, Kabwe (Zambia) | 14-27S | 028-28E | 1206 m
################################################################################
200712280600 AAXX 28064 67663 11370 82705 10188 20181 48482 60084 76166 8577/
                   333 10224 20181 58011 85707 87460=
200712270600 AAXX 27064 67663 12380 83606 10196 20181 48473 60224 8367/
                   333 10249 20185 58006 83707 87460=
200712260600 AAXX 26064 67663 12580 73303 10204 20189 48467 69944 8348/
                   333 10253 20194 59036 81920 83620 87460=
200712200600 AAXX 20064 67663 11380 72705 10186 20164 48486 60074 72166 8377/
                   333 10266 20181 58014 83707 87460=
200712190900 AAXX 19094 67663 42982 70804 10280 20184 48490 84038
                   333 58004 84360 87280=
200712190600 AAXX 19064 67663 11370 83603 10180 20174 48473 60194 76166 8537/
                   333 10242 20180 58000 85703 88460=
200712170600 AAXX 17064 67663 32980 73603 10210 20186 48443 83038
                   333 10266 20197 59037 83360 87280=
200712120600 AAXX 12064 67663 12980 70906 10216 20191 48510 60044 8708/
                   333 10270 20190 59012 87460=

################################################################################
#  SYNOPS from 67665, Lusaka Internationalairport (Zambia) | 15-19S | 028-27E | 1152 m
################################################################################
200712301500 AAXX 30154 67665 71008 10218 20193 48468 84572
                   333 58010 84620 86460 83080=
200712301200 AAXX 30124 67665 41370 80710 10219 20188 48477 72166 8457/
                   333 58013 84709 88460=
200712300900 AAXX 30094 67665 41456 80611 10192 20189 48492 75522 8557/
                   333 58005 85709 88460=
200712300600 AAXX 30064 67665 12370 80408 10191 20165 48488 60684 876//
                   333 10274 20186 58002 87709=
200712291800 AAXX 29184 67665 41675 70000 10204 20//0 48477 71322 81939
                   333 59006 81939 84360 82080=
200712291200 AAXX 29124 67665 41575 73204 10259 20176 48469 71522 84802
                   333 59011 81925 84827 87080=
200712290900 AAXX 29094 67665 41459 73004 10218 20202 48490 875//
                   333 58000 87615 91015=
200712290600 AAXX 29064 67665 12380 70000 10196 20186 48487 60044 8363/
                   333 10267 20187 59008 83709 87360=
200712290400 AAXX 29044 67665 42380 70000 10187 20//0 48479 8163/
                   333 59004 81708 87360=
200712290300 AAXX 29034 67665 42380 60000 10192 20//0 48474 82630
                   333 59003 82708 85360=
200712282100 AAXX 28214 67665 42680 60000 10192 20//0 48490 81930
                   333 58003 81935 85360=
200712281200 AAXX 28124 67665 41460 72714 10219 20204 48474 71766 8457/
                   333 58008 84615 81920 87459=
200712280600 AAXX 28064 67665 11353 82811 10183 20183 48492 60174 75055 8477/
                   333 10267 20184 58012 84707 87459=
200712271200 AAXX 27124 67665 41680 63402 10253 20202 48472 71522 85231
                   333 58003 81940 85840 83360 81080=
200712270900 AAXX 27094 67665 41559 70000 10236 20203 48487 71652 8683/
                   333 59002 86825 83360 82080=
200712270600 AAXX 27064 67665 12380 70000 10201 20192 48483 60084 875//
                   333 10260 20196 59004 87607=
200712270300 AAXX 27034 67665 41356 60000 10190 20//0 48496 76166 8557/
                   333 59006 85605 86459=
200712261500 AAXX 26154 67665 42680 62703 10254 20196 48496 70222 84832
                   333 59024 82640 82842 81360 85080
                   555 10249=
200712261200 AAXX 26124 67665 42680 72809 10226 20196 48459 875//
                   333 59009 87630 91012=
200712260900 AAXX 26094 67665 41560 83103 10193 20193 48484 76166 8357/
                   333 59025 83620 819// 88359=
200712260600 AAXX 26064 67665 11359 83210 10187 20185 48485 60064 79555 8587/
                   333 10270 20188 59029 84706 81925 86359=
200712251200 AAXX 25124 67665 42680 63304 10257 20194 48489 85231
                   333 59018 85835 82360 84080=
200712250900 AAXX 25094 67665 41480 70000 10228 20203 48513 70662 8483/
                   333 59005 84610 84820 83360 83080=
200712250600 AAXX 25064 67665 12370 83407 10201 20192 48515 60024 847//
                   333 10246 20193 59001 84706 88610=
200712241200 AAXX 24124 67665 41560 83502 10226 20203 48503 76122 8627/
                   333 58005 82925 84825 87460=
200712240900 AAXX 24094 67665 41480 80000 10222 20192 48516 72982 8787/
                   333 59005 87618 81922 87460=
200712240600 AAXX 24064 67665 12380 70000 10206 20194 48517 60014 8567/
                   333 10266 20190 59006 85709 87460=
200712231500 AAXX 23154 67665 42780 71206 10236 20194 48484 81932
                   333 59005 81950 84850 81360 85080=
200712231200 AAXX 23124 67665 41656 71209 10239 20195 48498 76022 86832
                   333 59010 86840 81642 84360 81080=
200712230900 AAXX 23094 67665 42580 70709 10245 20192 48525 878//
                   333 59009 83825 87626=
200712220900 AAXX 22094 67665 41470 70409 10213 20204 48529 72162 878//
                   333 58010 86610 84812=
200712220600 AAXX 22064 67665 12380 71005 10200 20191 48527 60034 70322 875//
                   333 10270 20190 58008 87606=
200712211500 AAXX 21154 67665 41780 70709 10230 20192 48497 71552 85232
                   333 58015 85850 86360 83080=
200712210600 AAXX 21064 67665 12360 70000 10202 20189 48524 8673/
                   333 10260 20185 58012 86707 84360=
200712200900 AAXX 20094 67665 42480 73109 10219 20169 48512 86832
                   333 58009 86825 84360 85280=
200712200600 AAXX 20064 67665 11357 73006 10186 20186 48510 60464 76166 8777/
                   333 10205 20172 58025 87706 87460=
200712191500 AAXX 19154 67665 41351 80000 10187 20187 48476 76366 8577/
                   333 58023 85706 88459=
200712191200 AAXX 19124 67665 41358 83310 10187 20187 48483 76166 8677/
                   333 58019 86707 88459=
200712190900 AAXX 19094 67665 41358 83507 10192 20192 48488 76162 8677/
                   333 58014 86707 88459=
200712190600 AAXX 19064 67665 11356 83303 10288 20179 48487 60154 75822 8667/
                   333 10242 20187 59003 86707 88460=
200712181200 AAXX 18124 67665 41570 72906 10230 20196 48469 71766 8197/
                   333 59001 81923 85825 86459 91012=
200712180900 AAXX 18094 67665 41580 73205 10224 20196 48480 72162 8317/
                   333 59008 83820 87460=
200712180600 AAXX 18064 67665 11370 71901 10188 20178 48484 60034 76066 81637
                   333 10275 20182 59006 81606 87360 87280=
200712180000 AAXX 18004 67665 41770 72408 10200 20197 48473 71722 82932
                   333 59007 81957 83360 85080=
200712171800 AAXX 17184 67665 41880 50000 10209 20195 48475 71322 81932
                   333 10275 59010 81958 83360 85280=
200712171500 AAXX 17154 67665 42780 70000 10234 20197 48460 82132
                   333 59004 82850 83360 87280=
200712171200 AAXX 17124 67665 41659 70000 10240 20203 48471 79592 82932
                   333 59009 82935 83837 82361 87280=
200712170600 AAXX 17064 67665 12480 70000 10210 20195 48493 60044 81632
                   333 10265 20185 59008 81706 85360 84080=
200712170400 AAXX 17044 67665 42780 70000 10181 20181 48580 70200 81932
                   333 59012 819// 85360 83080=
200712170300 AAXX 17034 67665 41780 50000 10183 20183 48575 70200 81932
                   333 59015 81956 83360 83080=
200712162100 AAXX 16214 67665 41780 50000 10196 20196 48494 71322 81932
                   333 59005 81956 83360 83080=
200712151500 AAXX 15154 67665 42680 73501 10238 20187 48471 81803
                   333 59003 81937 81839 87080=
200712151200 AAXX 15124 67665 42675 73006 10236 20151 48484 83832
                   333 59002 82927 82830 81360 87080=
200712150900 AAXX 15094 67665 41558 73007 10197 20197 48507 76066 8557/
                   333 59008 85615 87460 91017=
200712141932 AAXX 14204 67665 42680 50000 10197 20/// 48482 70200 91932
                   333 10260 81935 83260 84080=
200712141200 AAXX 14124 67665 42680 60902 10246 20186 48488 85231
                   333 59007 85830 82360 83080=
200712140900 AAXX 14094 67665 42480 70407 10219 20192 48507 875//
                   333 59016 87615=
200712140600 AAXX 14064 67665 12580 60000 10190 20180 48506 60164 83532
                   333 10268 20176 59008 83625 86360 84080=
200712131200 AAXX 13124 67665 41480 73008 10234 20186 48493 72166 8457/
                   333 58002 84615 87460=
200712130900 AAXX 13094 67665 41356 83408 10184 20184 48519 76022 8577/
                   333 59025 85710 87458=
200712130600 AAXX 13064 67665 12360 80208 10195 20186 48516 60214 8577/
                   333 10285 20189 59005 87709 88460=
200712130400 AAXX 13044 67665 42360 80000 10189 20189 48506 8477/
                   333 59010 84706 88460=
200712130300 AAXX 13034 67665 42360 70507 10189 20189 48498 8473/
                   333 59014 84706 87360=
200712122100 AAXX 12214 67665 41760 70000 10191 20191 48513 72196 8197/
                   333 59007 81950 87460=
200712121800 AAXX 12184 67665 42660 60407 10201 20201 48506 79592 81970
                   333 10285 58007 81949 86460=
200712121200 AAXX 12124 67665 42680 60207 10282 20184 48497 85232
                   333 59013 81940 85940 83360 84080=
200712120900 AAXX 12094 67665 42580 60104 10261 20198 48524 85232
                   333 59013 85825 83360 85080=
200712120600 AAXX 12064 67665 12370 70305 10220 20199 48523 69964 84932
                   333 10284 20179 59013 85707 81956 83360 85080=
200712111200 AAXX 11124 67665 42680 63307 10245 20191 48507 84232
                   333 58010 84830 81360 85080=
200712110600 AAXX 11064 67665 11459 70000 10180 20180 48512 60124 72166 8457/
                   333 10280 20174 59010 84606 88460=
200712110400 AAXX 11044 67665 41456 70000 10180 20180 48518 76166 8557/
                   333 58008 85605 88460=
200712110300 AAXX 11034 67665 41456 73603 10179 20179 48513 76166 875//
                   333 58005 87605 88460=
200712102100 AAXX 10214 67665 41659 70000 10190 20190 48518 8197/
                   333 58001 81938 87459=
200712101800 AAXX 10184 67665 41770 70000 10209 20209 48501 81983
                   333 10280 59007 81950 84360 84080=
200712100900 AAXX 10094 67665 42570 73211 10230 20180 48524 8653/
                   333 58005 86624 87360=
200712100600 AAXX 10064 67665 11460 73606 10194 20194 48522 60134 76166 875//
                   333 10247 20186 58002 87610=
200712091800 AAXX 09184 67665 41470 73603 10198 20198 48507 72122 8197/
                   333 10247 819// 84610 87460=
200712091500 AAXX 09154 67665 42365 70506 10212 20188 48561 70366 8387/
                   333 82708 82832 87360=
200712091200 AAXX 09124 67665 41565 70102 10225 20201 48492 72166 8482/
                   333 59006 81927 84830 87460=
200712090900 AAXX 09094 67665 41554 72908 10219 20175 48518 76362 8583/
                   333 58000 82822 85622 86360=
200712090600 AAXX 09064 67665 12480 73506 10196 20184 48522 60094 8763/
                   333 10232 20185 58005 87610 84360=
200712081800 AAXX 08184 67665 41960 71305 10199 20199 48501 72166 8703/
                   333 10232 59002 87360=
200712081500 AAXX 08154 67665 41660 70905 10205 20190 48483 76022 82830
                   333 59010 81630 81830 87360=
200712081200 AAXX 08124 67665 42360 70102 10214 20201 48497 76066 8473/
                   333 59015 82709 83825 87360=
200712080900 AAXX 08094 67665 41358 70000 10214 20194 48517 71622 85731
                   333 59005 85709 85820 84360 82080=
200712080600 AAXX 08064 67665 12480 70000 10200 20191 48515 60044 8777/
                   333 10259 20186 59006 87710 87360=
200712072100 AAXX 07214 67665 42380 70503 10191 20191 48518 8277/
                   333 58003 82707 87359=
200712071800 AAXX 07184 67665 42380 70000 10191 20191 48502 8253/
                   333 10259 59006 82610 85360=
200712071500 AAXX 07154 67665 41359 80000 10198 20198 48492 70692 8553/
                   333 58003 85709 85840 84360=
200712071200 AAXX 07124 67665 41380 71405 10208 20183 48511 71722 81932
                   333 58011 81610 81930 84835 84360=
200712070600 AAXX 07064 67665 12480 72902 10210 20190 48525 69954 8257/
                   333 10277 20200 59007 82618 87360=
200712061200 AAXX 06124 67665 42680 60000 10252 20184 48505 84232
                   333 58007 84830 85360 83080=
200712060900 AAXX 06094 67665 42580 70205 10243 20196 48532 875//
                   333 58003 87620=
200712051200 AAXX 05124 67665 42680 60000 10273 20184 48501 85232
                   333 58014 85835 83360 83080=
200712050900 AAXX 05094 67665 41580 70000 10219 20189 48527 72162 83572
                   333 58013 83625 84460 86080=
200712050600 AAXX 05064 67665 11480 80000 10198 20185 48526 60024 76022 8167/
                   333 10298 20183 58006 81615 87459=
200712041200 AAXX 04124 67665 41680 60000 10284 20169 48488 71722 85302
                   333 59018 81940 84845 84080=
200712040900 AAXX 04094 67665 42680 61304 10263 20191 48519 85202
                   333 59008 85835 84080=
200712040400 AAXX 04044 67665 42980 50000 10205 20189 48507 84081
                   333 59016 84360 84080=
200712040300 AAXX 04034 67665 42980 40000 10191 20//0 48495 84031
                   333 59014 84360 84080=
200712040000 AAXX 04004 67665 42980 10000 10217 20//0 48493 81031
                   333 59015 81360 81080=
200712031800 AAXX 03184 67665 41780 50000 10252 20/// 48505 71322 81932
                   333 59004 81956 83360 84080=
200712031200 AAXX 03124 67665 42680 63603 10262 20196 48503 82232
                   333 58001 82835 83360 83080=
200712030900 AAXX 03094 67665 42580 73503 10244 20191 48525 85232
                   333 59001 85820 83360 85080=
200712021800 AAXX 02184 67665 41880 40000 10250 20//0 48508 71322 81931
                   333 10308 59008 81957 83857 83360 83080=
200712021500 AAXX 02154 67665 42780 41204 10285 20179 48487 83232
                   333 59034 83250 83360 83080=
200712021200 AAXX 02124 67665 42680 60503 10297 20162 48506 86201
                   333 59019 86840 82080=
200712011500 AAXX 01154 67665 41780 61705 10249 20185 48496 78022 81932
                   333 819546 83856 81360 82080
                   555 10301=
200712011200 AAXX 01124 67665 42680 50505 10286 20169 48524 70322 85200
                   333 59005 81945 85845=
200712010900 AAXX 01094 67665 41680 30804 10266 20182 48540 83800
                   333 59011 82835 81636=
200712010600 AAXX 01064 67665 32480 10906 10220 20176 48539 81501
                   333 10288 20171 59011 81618 81080=

################################################################################
#  SYNOPS from 67666, Lusaka City Airport (Zambia) | 15-25S | 028-19E | 1280 m
################################################################################
200712280600 AAXX 28064 67666 12380 82807 10279 20173 48477 60234 76166 8667/
                   333 10250 20179 59005 86709 88460=
200712270900 AAXX 27094 67666 42480 82804 10225 20179 48476 885//
                   333 59002 88618=
200712270600 AAXX 27064 67666 12380 72705 10205 20182 48474 69924 875//
                   333 10240 20180 59004 87609=
200712250900 AAXX 25094 67666 41480 63501 10218 20198 48500 72166 85830
                   333 59003 85613 83815 86360=
200712250600 AAXX 25064 67666 12380 80204 10195 20183 48504 60014 885//
                   333 10228 20187 58000 88609=
200712240600 AAXX 24064 67666 12480 70810 10203 20188 48505 69904 8653/
                   333 10245 20170 59010 86612 87360=
200712200900 AAXX 20094 67666 42580 83306 10197 20158 48500 8587/
                   333 58019 84620 84822 87360=
200712200600 AAXX 20064 67666 11380 82703 10180 20171 48499 60504 76052 8577/
                   333 10193 20157 58045 85709 88458=
200712190600 AAXX 19064 67666 11378 82704 10184 20158 48455 60364 76062 887//
                   333 10230 20165 59018 88707=
200712181200 AAXX 18124 67666 42580 82806 10236 20184 48469 8532/
                   333 59003 85620 81922 85825 88460=
200712180900 AAXX 18094 67666 41480 82804 10216 20189 48469 75062 84537
                   333 59008 84615 81360 87280=
200712180600 AAXX 18064 67666 11380 80000 10187 20174 48474 60054 72162 8557/
                   333 10257 20167 59023 85609 88458=
200712171200 AAXX 17124 67666 41480 82805 10233 20203 48460 71796 81938
                   333 59007 819// 81620 84360 87280=
200712160600 AAXX 16064 67666 11378 82706 19195 20170 48477 60034 71721 887//
                   333 10267 20175 59029 88707=
200712141200 AAXX 14124 67666 42680 60608 10233 20182 48485 85202
                   333 58003 81930 85830 83280=
200712130900 AAXX 13094 67666 41480 80304 10188 20177 48506 76122 863//
                   333 58001 88620=
200712130600 AAXX 13064 67666 12480 80806 10188 20176 48503 60124 885//
                   333 10235 20169 59005 88620=
200712071200 AAXX 07124 67666 41580 81809 10202 20179 48498 76092 8197/
                   333 58008 819// 81625 88460=
200712070600 AAXX 07064 67666 12480 72705 10200 20175 48516 69974 8587/
                   333 10264 20176 59004 83612 82815 87359=
200712061200 AAXX 06124 67666 41580 60306 10233 20194 48493 72162 83830
                   333 58007 81930 81628 83830 86360=
200712050900 AAXX 05094 67666 42480 70204 10224 20//0 48512 82878
                   333 58009 82615 81818 83460 87280=
200712050600 AAXX 05064 67666 11380 80307 10195 20178 48517 60134 72162 8277/
                   333 10280 20172 58006 82708 88459=
200712031200 AAXX 03124 67666 42680 40707 10264 20175 48489 82232
                   333 59003 82840 82360 82080=

################################################################################
#  SYNOPS from 67667, Mount Makulu (Zambia) | 15-33S | 028-15E | 1213 m
################################################################################
200712260900 AAXX 26094 67667 41680 82702 10208 20192 48/// 75022 86608
                   333 5//// 86715 88280=
200712260600 AAXX 26064 67667 11980 83601 10215 20194 48/// 60044 75022 82078
                   333 10275 20/// 5//// 82360 88280=
200712250600 AAXX 25064 67667 12480 81003 10207 20186 48/// 60284 8267/
                   333 10245 20/// 5//// 82715 88280=
200712200900 AAXX 20094 67667 42680 73503 10218 20169 48/// 86108
                   333 5//// 86825 87280=
200712200600 AAXX 20064 67667 12480 83602 10185 20163 48/// 60544 82778
                   333 10195 20/// 5//// 82710 84460 88280=
200712180600 AAXX 18064 67667 11480 83602 10193 20174 48/// 69944 71522 84578
                   333 10231 20/// 5//// 84620 82460 88282=
200712171200 AAXX 17124 67667 42680 73605 10251 20186 48/// 82208
                   333 5//// 82835 87280=
200712160600 AAXX 16064 67667 11980 83601 10215 20194 48/// 60444 75022 82078
                   333 10275 20/// 5//// 82360 88280=
200712130900 AAXX 13094 67667 41480 83612 10199 20171 48/// 75022 885//
                   333 5//// 86715 88620=
200712130600 AAXX 13064 67667 12580 83607 10204 20173 48/// 60044 885//
                   333 10277 20/// 5//// 88620=
200712070600 AAXX 07064 67667 12580 72702 10202 20189 60284 83538
                   333 10265 20//0 83625 84360 87280=
200712031200 AAXX 03124 67667 42680 53503 10282 20186 48/// 84202
                   333 5//// 84835 85280=

################################################################################
#  SYNOPS from 67673, Petauke (Zambia) | 14-15S | 031-17E | 1035 m
################################################################################
200712280600 AAXX 28064 67673 12984 70206 10215 20192 48506 69904 8707/
                   333 10280 20194 58009 87362=
200712270900 AAXX 27094 67673 42684 73406 10252 20190 48499 86530
                   333 58001 86635 83364=
200712270600 AAXX 27064 67673 12584 73604 10210 20198 48497 60014 875//
                   333 10278 20196 59002 87620=
200712260900 AAXX 26094 67673 41670 72006 10234 20211 48496 75052 875//
                   333 5//// 87630=
200712200600 AAXX 20064 67673 11470 83502 10194 20190 48525 60184 75166 887//
                   333 10242 20182 58027 88710=
200712171200 AAXX 17124 67673 42784 70205 10291 20191 48474 83238
                   333 5//// 81950 83850 82364 87280=
200712170600 AAXX 17064 67673 12980 73604 10236 20197 48504 60034 87071
                   333 10285 20204 59007 87362 82080=
200712160600 AAXX 16064 67673 32584 73002 10221 20204 48500 8357/
                   333 10280 20202 59019 83620 87460=
200712141200 AAXX 14124 67673 42684 73505 10246 20186 48493 85238
                   333 58004 85835 83364 85280=
200712130900 AAXX 13094 67673 42684 70902 10240 20197 48519 8317/
                   333 59010 83830 87463=
200712130600 AAXX 13064 67673 12584 70902 10208 20198 48516 60044 8157/
                   333 10315 20193 59011 81620 87362=
200712120600 AAXX 12064 67673 12984 73605 10227 20191 48529 60024 8707/
                   333 10253 20200 59010 87362=
200712071200 AAXX 07124 67673 41680 72405 10250 20202 48499 71729 8297/
                   333 59008 81940 82840 87460=
200712070600 AAXX 07064 67673 12984 70603 10220 20172 48530 69904 8707/
                   333 10290 20214 59011 87362=
200712061200 AAXX 06124 67673 42780 73002 10280 20156 48512 82232
                   333 58014 81950 82850 82360 85080=
200712050900 AAXX 05094 67673 42684 71705 10260 20179 48528 81238
                   333 58012 81835 82362 87280=
200712050600 AAXX 05064 67673 12584 71703 10216 20186 48529 69904 8117/
                   333 10306 20189 88012 81825 87362=
200712041200 AAXX 04124 67673 41680 73607 10250 20191 48488 71792 8627/
                   333 58000 81945 86845 87462=

################################################################################
#  SYNOPS from 67741, Sesheke (Zambia) | 17-28S | 024-18E | 949 m
################################################################################
200712280600 AAXX 28064 67741 12980 73604 10224 20202 48498 60034 8707/
                   333 10320 20197 58015 87460=
200712270600 AAXX 27064 67741 12980 62403 10220 20201 48483 60204 83032
                   333 10310 20206 58017 83362 85080=
200712200600 AAXX 20064 67741 11580 73606 10186 20165 48513 60064 72162 875//
                   333 10222 20162 58024 87626=
200712160600 AAXX 16064 67741 12980 62704 10223 20204 48468 60064 82032
                   333 10278 20199 59011 82362 84080=
200712130600 AAXX 13064 67741 12680 73603 10228 20212 48502 60024 875//
                   333 10330 20205 59012 87630=
200712120600 AAXX 12064 67741 12680 60801 10230 20218 48513 69924 86530
                   333 10315 20207 59004 86630 82362=
200712070600 AAXX 07064 67741 32980 73501 10215 20199 48511 86032
                   333 10290 20191 59004 86367 82080=

################################################################################
#  SYNOPS from 67743, Livingstone (Zambia) | 17-49S | 025-49E | 985 m
################################################################################
200712291200 AAXX 29124 67743 42480 81308 10227 20197 48472 885//
                   333 58002 88618=
200712281200 AAXX 28124 67743 41457 83008 10215 20212 48468 75096 8277/ 58009 81915 83815
                   88459=
200712280600 AAXX 28064 67743 11458 83103 10204 20199 48485 60254 76162 8457/
                   333 10320 20185 58012 81708 83610 88460=
200712270900 AAXX 27094 67743 42580 62503 10274 20211 48487 84132
                   333 58016 84820 82360 82080=
200712270600 AAXX 27064 67743 12980 62903 10216 20196 48478 60134 85031
                   333 10281 20195 58014 85360 81080=
200712260900 AAXX 26094 67743 42680 72708 10272 20212 48471 85231
                   333 59058 85630 84080=
200712260600 AAXX 26064 67743 12480 83208 10226 20207 48459 60034 83532
                   333 10274 20195 59007 83610 84360 85080=
200712241200 AAXX 24124 67743 41470 60710 10277 29203 48483 71722 8427/
                   333 59024 81925 81710 84825 84460=
200712240900 AAXX 24094 67743 42480 61010 10254 20213 48510 84870
                   333 59013 82618 83825 85460=
200712240600 AAXX 24064 67743 12480 60905 10215 20207 48903 60084 81581
                   333 10263 20196 59017 81610 85360 83080=
200712211500 AAXX 21154 67743 41359 71703 10210 20210 48487 72992 83770
                   333 59006 82705 83610 82835 82460=
200712200600 AAXX 20064 67743 12340 81307 10155 20155 48502 60244 8477/
                   333 10195 20150 58019 84704 88458=
200712190900 AAXX 19094 67743 41458 81306 10174 20166 48498 75355 885//
                   333 59042 88613=
200712190600 AAXX 19064 67743 32480 81208 10190 20163 48491 885//
                   333 10324 20189 59027 88612=
200712181200 AAXX 18124 67743 42680 50000 10303 20197 48458 84130
                   333 59003 84840 83360=
200712180600 AAXX 18064 67743 12380 63006 10221 20197 48473 60054 81682
                   333 10300 20189 58001 81707 83360 85080=
200712171500 AAXX 17154 67743 41680 72706 10284 20181 48450 72992 8297/
                   333 59008 81945 82845 87460=
200712171200 AAXX 17124 67743 42680 73010 10272 20190 48456 83278
                   333 59024 83840 86460 84280=
200712170600 AAXX 17064 67743 12980 72708 10229 20191 48472 60014 86071
                   333 10280 20194 59009 86360 81080=
200712151013 AAXX 15104 67743 42580 63309 10257 20188 59001 70122 82080 83629 83825 84360
                   85831 91013=
200712141200 AAXX 14124 67743 41680 63206 10278 20184 48471 71722 83242
                   333 59017 81930 83835 85360 83080=
200712130600 AAXX 13064 67743 31359 81105 10220 20220 48487 69904 70260 8567/
                   333 10306 20214 59015 85707 87460=
200712120900 AAXX 12094 67743 42680 71307 10274 20211 48513 84202
                   333 59002 84830 87080=
200712120600 AAXX 12064 67743 11356 60904 10224 20205 48509 69904 74600 84682
                   333 10291 20193 58001 84708 83360 84080=
200712100600 AAXX 10064 67743 12380 80304 10210 20198 48499 60034 8367/
                   333 10275 20194 59008 83708 88460=
200712091200 AAXX 09124 67743 41459 80207 10210 20203 48484 79592 8467/
                   333 59001 84710 81920 84820 88460=
200712090900 AAXX 09094 67743 42580 61303 10250 20197 48507 8387/
                   333 59002 82620 82820 86360=
200712090600 AAXX 09064 67743 12480 70905 10210 20188 48506 69944 8357/
                   333 10375 20184 58000 83613 87460=
200712080600 AAXX 08064 67743 32480 81007 10216 20198 48508 81672
                   333 10261 20261 59007 81710 84360 85080=
200712071500 AAXX 07154 67743 41380 70000 10205 20197 48480 72166 8167/
                   333 58004 81709 81830 87360=
200712071200 AAXX 07124 67743 41558 80000 10200 20192 48509 79592 8697/
                   333 58022 81920 85825 87460=
200712070600 AAXX 07064 67743 12380 70907 10224 20197 48515 60014 81630
                   333 10265 20200 58003 81708 87360=
200712061200 AAXX 06124 67743 41580 60904 10213 20200 48490 79599 8297/
                   333 59004 82930 82830 87460=
200712050900 AAXX 05094 67743 41480 80506 10227 20203 48517 75822 8567/
                   333 58011 85710 87460=
200712021500 AAXX 02154 67743 42780 71005 10290 20152 48483 8117/
                   333 59020 81850 87360=
200712010600 AAXX 01064 67743 32980 21009 10240 20179 48530 81031
                   333 10334 20195 59007 81361 81080=

################################################################################
#  SYNOPS from 67751, Magoye (Zambia) | 16-00S | 027-36E | 1018 m
################################################################################
200712260600 AAXX 26064 67751 NIL=
200712181200 AAXX 18124 67751 41580 73103 10259 20208 48/// 71792 84207
                   333 58004 81923 84823 85280=
200712130600 AAXX 13064 67751 11280 80202 10205 20197 48/// 60014 75355 87///
                   333 10291 20201 58005 88705=
200712120600 AAXX 12064 67751 32980 70703 10216 20200 48/// 86071
                   333 10290 20207 58010 86360 82080=
200712050900 AAXX 05094 67751 42580 63607 10253 20187 83230
                   333 83824 84360=

################################################################################
#  SYNOPS from 67753, Choma (Zambia) | 16-50S | 027-04E | 1213 m
################################################################################
200712281200 AAXX 28124 67753 41580 81005 10217 20192 72166 885//
                   333 88620=
200712280600 AAXX 28064 67753 11908 81805 10172 20168 48/// 60194 76366 8807/
                   333 10251 20162 58/// 88459=
200712270900 AAXX 27094 67753 41570 71003 10239 20196 48/// 76022 8357/
                   333 5//// 83620 87460=
200712270600 AAXX 27064 67753 12380 72703 10213 20196 48/// 60044 8163/
                   333 10274 20182 5//// 81708 87360=
200712260900 AAXX 26094 67753 42680 42703 10262 20201 48/// 84232
                   333 5//// 84830 82860 82080=
200712260600 AAXX 26064 67753 12580 72703 10214 20194 48/// 69904 8453/
                   333 10275 20185 5//// 84620 87360=
200712200600 AAXX 20064 67753 11380 81507 10157 20150 48/// 60274 72162 8777/
                   333 10181 20146 5//// 87709 88459=
200712190900 AAXX 19094 67753 41350 81008 10169 20164 48/// 76162 8777/
                   333 5//// 87709 88459=
200712190600 AAXX 19064 67753 11350 81207 10171 20168 60014 76162 8777/
                   333 10278 20162 87709 88459=
200712171200 AAXX 17124 67753 41580 73405 10224 20202 48/// 72962 84208
                   333 5//// 81920 84820 87280=
200712141200 AAXX 14124 67753 42680 43508 10255 20192 48/// 83132
                   333 5//// 83835 82360 83080=
200712130900 AAXX 13094 67753 42380 83605 10200 20193 48/// 8377/
                   333 5//// 83708 88459=
200712130600 AAXX 13064 67753 11959 83603 10200 20193 48/// 60104 76062 8807/
                   333 10257 20185 5//// 88455=
200712120600 AAXX 12064 67753 12980 53508 10220 20197 48/// 69904 85030
                   333 10266 20185 5//// 85360=
200712100600 AAXX 10064 67753 11380 83510 10180 20180 48/// 60194 8377/
                   333 10252 20170 5//// 83707 88459=
200712071200 AAXX 07124 67753 41360 83305 10192 20181 48/// 76162 8277/
                   333 5//// 82709 88459=
200712070600 AAXX 07064 67753 11360 30903 10198 20192 60144 79592 8277/
                   333 10296 20176 82709 81912 88459=
200712041200 AAXX 04124 67753 41670 73605 10232 20202 48/// 79592 84208
                   333 5//// 81945 84845 87280=
200712031200 AAXX 03124 67753 42680 73508 10284 20177 48/// 87202
                   333 5//// 87845 82080=

################################################################################
#  SYNOPS from 67855, Lupaki (Zambia) | 17-03-00S | 024-46-00E | 1000 m
################################################################################
200712310000 AAXX 31004 67855 NIL=
200712301800 AAXX 30184 67855 NIL=
200712301200 AAXX 30124 67855 NIL=
200712300600 AAXX 30064 67855 NIL=
200712300000 AAXX 30004 67855 NIL=
200712291800 AAXX 29184 67855 NIL=
200712291200 AAXX 29124 67855 NIL=
200712290600 AAXX 29064 67855 NIL=
200712290000 AAXX 29004 67855 NIL=
200712281800 AAXX 28184 67855 NIL=
200712281200 AAXX 28124 67855 NIL=
200712280600 AAXX 28064 67855 NIL=
200712280000 AAXX 28004 67855 NIL=
200712271800 AAXX 27184 67855 NIL=
200712271200 AAXX 27124 67855 NIL=
200712270600 AAXX 27064 67855 NIL=
200712270000 AAXX 27004 67855 NIL=
200712261800 AAXX 26184 67855 NIL=
200712261200 AAXX 26124 67855 NIL=
200712260600 AAXX 26064 67855 NIL=
200712260000 AAXX 26004 67855 NIL=
200712251800 AAXX 25184 67855 NIL=
200712251200 AAXX 25124 67855 NIL=
200712250600 AAXX 25064 67855 NIL=
200712250000 AAXX 25004 67855 NIL=
200712241800 AAXX 24184 67855 NIL=
200712241200 AAXX 24124 67855 NIL=
200712240600 AAXX 24064 67855 NIL=
200712240000 AAXX 24004 67855 NIL=
200712231800 AAXX 23184 67855 NIL=
200712231200 AAXX 23124 67855 NIL=
200712230600 AAXX 23064 67855 NIL=
200712230000 AAXX 23004 67855 NIL=
200712221800 AAXX 22184 67855 NIL=
200712221200 AAXX 22124 67855 NIL=
200712220600 AAXX 22064 67855 NIL=
200712220000 AAXX 22004 67855 NIL=
200712211800 AAXX 21184 67855 NIL=
200712211200 AAXX 21124 67855 NIL=
200712210600 AAXX 21064 67855 NIL=
200712210000 AAXX 21004 67855 NIL=
200712201800 AAXX 20184 67855 NIL=
200712201200 AAXX 20124 67855 NIL=
200712200600 AAXX 20064 67855 NIL=
200712200000 AAXX 20004 67855 NIL=
200712191800 AAXX 19184 67855 NIL=
200712191200 AAXX 19124 67855 NIL=
200712190600 AAXX 19064 67855 NIL=
200712190000 AAXX 19004 67855 NIL=
200712181800 AAXX 18184 67855 NIL=
200712181200 AAXX 18124 67855 NIL=
200712180600 AAXX 18064 67855 NIL=
200712180000 AAXX 18004 67855 NIL=
200712171800 AAXX 17184 67855 NIL=
200712171200 AAXX 17124 67855 NIL=
200712161200 AAXX 16124 67855 NIL=
200712160600 AAXX 16064 67855 NIL=
200712160000 AAXX 16004 67855 NIL=
200712151200 AAXX 15124 67855 NIL=
200712150600 AAXX 15064 67855 NIL=
200712150000 AAXX 15004 67855 NIL=
200712141800 AAXX 14184 67855 NIL=
200712141200 AAXX 14124 67855 NIL=
200712140600 AAXX 14064 67855 NIL=
200712140000 AAXX 14004 67855 NIL=
200712131800 AAXX 13184 67855 NIL=
200712131200 AAXX 13124 67855 NIL=
200712130000 AAXX 13004 67855 NIL=
200712121800 AAXX 12184 67855 NIL=
200712121200 AAXX 12124 67855 NIL=
200712120600 AAXX 12064 67855 NIL=
200712120000 AAXX 12004 67855 NIL=
200712111800 AAXX 11184 67855 NIL=
200712111200 AAXX 11124 67855 NIL=
200712110600 AAXX 11064 67855 NIL=
200712110000 AAXX 11004 67855 NIL=
200712101800 AAXX 10184 67855 NIL=
200712100600 AAXX 10064 67855 11380 70401 10218 20193 3//// 48/// 60304 70162 8723/
                   333 20193 5//// 87820=
200712100000 AAXX 10004 67855 NIL=
200712091800 AAXX 09184 67855 NIL=
200712091200 AAXX 09124 67855 NIL=
200712090600 AAXX 09064 67855 12380 80000 10200 20188 3//// 48/// 60234 8167/
                   333 20190 5//// 81706 88460=
200712090000 AAXX 09004 67855 NIL=
200712081800 AAXX 08184 67855 NIL=
200712081200 AAXX 08124 67855 NIL=
200712080600 AAXX 08064 67855 NIL=
200712080000 AAXX 08004 67855 NIL=
200712071800 AAXX 07184 67855 NIL=
200712071200 AAXX 07124 67855 NIL=
200712070600 AAXX 07064 67855 12980 70801 10209 20189 3//// 48/// 60024 87072
                   333 20192 5//// 87460=
200712070000 AAXX 07004 67855 NIL=
200712061800 AAXX 06184 67855 NIL=
200712061200 AAXX 06124 67855 NIL=
200712060600 AAXX 06064 67855 12980 72001 10228 20202 3//// 48/// 60074 8703/
                   333 20199 5//// 87360=
200712060000 AAXX 06004 67855 NIL=
200712051800 AAXX 05184 67855 NIL=
200712051200 AAXX 05124 67855 NIL=
200712050600 AAXX 05064 67855 NIL=
200712050000 AAXX 05004 67855 NIL=
200712041800 AAXX 04184 67855 NIL=
200712041200 AAXX 04124 67855 NIL=
200712040600 AAXX 04064 67855 NIL=
200712040000 AAXX 04004 67855 NIL=
200712031800 AAXX 03184 67855 NIL=
200712031200 AAXX 03124 67855 NIL=
200712030600 AAXX 03064 67855 32980 70301 10266 20183 38/// 48/// 81032
                   333 20185 5//// 81360 87080=
200712030000 AAXX 03004 67855 NIL=
200712021800 AAXX 02184 67855 NIL=
200712021200 AAXX 02124 67855 NIL=
200712020600 AAXX 02064 67855 NIL=
200712020000 AAXX 02004 67855 NIL=
200712011800 AAXX 01184 67855 NIL=
200712011200 AAXX 01124 67855 NIL=
200712010600 AAXX 01064 67855 NIL=
