################################################################################
# Query made at 04/17/2022 11:41:31 UTC
# Country like Zamb*
# Time interval: from 01/01/2007 05:30  to 01/31/2007 05:30  UTC
################################################################################

################################################################################
#  SYNOPS from 67580, Msekera (Zambia) | 13-39S | 032-34E | 1025 m
################################################################################
200701271800 AAXX 27183 67580 50902 10261 20217 39451 48620 85900
                   333 10290 58008 94390=

################################################################################
#  SYNOPS from 67599, Mfuwe (Zambia) | 13-16S | 031-56E | 568 m
################################################################################
200701190900 AAXX 19094 67599 42580 60000 10245 20240 48531 86202
                   333 59017 86828 83080=
200701010900 AAXX 01094 67599 42480 70304 10270 20189 48524 8257/
                   333 58007 82618 87460=

################################################################################
#  SYNOPS from 67655, Mumbwa (Zambia) | 15-04S | 027-11E | 1216 m
################################################################################
200701290600 AAXX 29064 67655 12380 70812 10201 20201 48523 60084 877//
                   333 10265 20201 59014 87708 91019=

################################################################################
#  SYNOPS from 67665, Lusaka Internationalairport (Zambia) | 15-19S | 028-27E | 1152 m
################################################################################
200701310400 AAXX 31044 67665 41358 70408 10210 20210 48511 76322 8373/
                   333 58020 83708 87359=
200701310300 AAXX 31034 67665 42380 71003 10206 20206 48505 81630
                   333 58015 81708 86359=
200701302100 AAXX 30214 67665 41660 71006 10222 20222 48506 72166 8357/
                   333 59002 81930 83630 87459=
200701300600 AAXX 30064 67665 41459 73503 10204 20204 48502 60214 76166 875//
                   333 10257 20186 59021 87612=
200701291800 AAXX 29184 67665 41658 70000 10211 20211 48499 72162 8773/
                   333 59042 87712 85459=
200701291500 AAXX 29154 67665 41680 71304 10218 20218 48483 70262 82537
                   333 59013 82640 84459 85080=
200701291200 AAXX 29124 67665 41580 71209 10246 20239 48499 76162 86830
                   333 59002 84630 82830 82360=
200701290900 AAXX 29094 67665 41480 70713 10228 20228 48523 71522 59019 87615 81815=
200701281500 AAXX 28154 67665 42480 61109 10235 20235 48509 81632
                   333 59003 81610 83145 82360 85280=
200701280900 AAXX 28094 67665 41430 71009 10208 20208 48538 76162 875//
                   333 58012 87615=
200701280300 AAXX 28034 67665 42380 50000 10211 20211 48521 81932
                   333 58002 81708 81940 84360 83080=
200701271800 AAXX 27184 67665 42780 60205 10227 20227 48511 82532
                   333 58005 82650 83360 84080=
200701271500 AAXX 27154 67665 42780 61007 10215 20237 48495 85832
                   333 58002 81940 81645 84850 83360=
200701271200 AAXX 27124 67665 42680 61208 10265 20237 48507 85232
                   333 58002 85840 81360 81080=
200701261500 AAXX 26154 67665 41670 61407 10249 20239 48493 71722 83232
                   333 59003 81940 82840 83360 83080=
200701260900 AAXX 26094 67665 42580 60808 10248 20234 48530 85232
                   333 59001 85825 81360 83080 91019=
200701260600 AAXX 26064 67665 32580 61101 10214 20214 48527 82502
                   333 10279 20//0 58000 82615 84080=
200701260400 AAXX 26044 67665 41980 52502 10197 20197 48516 74022 83031
                   333 59003 84360 83080=
200701260300 AAXX 26034 67665 42980 30000 10200 20200 48513 83031
                   333 59003 83360 81080=
200701252100 AAXX 25214 67665 41980 40000 10201 20201 48525 81932
                   333 59002 81945 84360 81080=
200701251800 AAXX 25184 67665 41980 40204 10217 20217 48513 81932
                   333 59030 819// 84360=
200701251500 AAXX 25154 67665 41680 70506 10245 20241 48495 71599 81932
                   333 59013 81945 83848 81360 86080=
200701250900 AAXX 25094 67665 42580 61208 10252 20237 48532 86232
                   333 59020 86825 82360 84080 91019=
200701241500 AAXX 24154 67665 42680 41208 10261 20240 48510 70122 84232
                   333 59022 84840 82360 83080 91017=
200701241200 AAXX 24124 67665 42580 51204 10279 20244 48526 85202
                   333 59007 85828 82080=
200701240600 AAXX 24064 67665 11380 70404 10215 20215 48549 60434 70262 84632
                   333 10299 20123 59008 84607 84360 85280=
200701240400 AAXX 24044 67665 41375 70602 10215 20215 48545 79621 81931
                   333 5//// 81705 81958 87360 81080=
200701240300 AAXX 24034 67665 41375 71210 10203 20203 48543 79521 8193/
                   333 5//// 83705 81958 86360=
200701240000 AAXX 24004 67665 41980 10000 10199 20199 48543 71300 81931
                   333 5//// 81959 81360 81080=
200701231800 AAXX 23184 67665 41580 60000 10215 20215 48542 72122 8463/
                   333 10299 5//// 84720 85360=
200701231500 AAXX 23154 67665 42580 70000 10246 20246 48531 85230
                   333 58015 82925 85830 85360
                   555 10299=
200701221200 AAXX 22124 67665 42680 50104 10258 20237 48537 86831
                   333 58028 83820 83625 83360 82080=
200701211200 AAXX 21124 67665 41360 80810 10210 20210 48503 72166 8677/
                   333 58009 86709 88459=
200701210600 AAXX 21064 67665 11360 81107 10224 20224 48519 60414 75066 8777/
                   333 10247 20180 58007 87705=
200701200600 AAXX 20064 67665 12380 70602 10211 20211 48509 60064 70266 877//
                   333 10276 20198 59011 87707=
200701191500 AAXX 19154 67665 41659 73204 10249 20249 48484 78282 85232
                   333 10276 59001 81930 84830 83360 84080 91014=
200701190900 AAXX 19094 67665 42580 63006 10248 20241 48520 85131
                   333 59010 85820 85360 81080=
200701180400 AAXX 18044 67665 41480 80000 10203 20203 48510 75022 8453/
                   333 59008 83707 87360=
200701180000 AAXX 18004 67665 41459 70000 10198 20198 48501 72192 8197/
                   333 58000 81708 81940 86460=
200701171800 AAXX 17184 67665 41656 70707 10214 20214 48507 79592 839//
                   333 58008 82705 82935 86360=
200701171500 AAXX 17154 67665 42675 40203 10286 20234 48478 71522 84200
                   333 58003 84835 91013=
200701171200 AAXX 17124 67665 42680 63402 10286 20216 48504 85200
                   333 58002 85832 91016=
200701170900 AAXX 17094 67665 42580 60202 10240 20240 58004 72132 82820
                   555 82360 85080 91018=
200701170600 AAXX 17064 67665 11480 73506 10202 20202 48520 69934 71799 81532
                   333 10312 20//0 58000 81610 83360 85080=
200701170400 AAXX 17044 67665 41460 81107 10200 20200 48518 72162
                   333 58009 83610 819// 87359=
200701170300 AAXX 17034 67665 41/60 61406 10201 20201 48517 76022 81930
                   333 58014 819// 85359=
200701162100 AAXX 16214 67665 42780 60000 10220 20220 48518 81932
                   333 58000 81950 83360 83080=
200701161500 AAXX 16154 67665 42680 52208 10298 20228 48476 81902
                   333 59008 81950 83850 84080 91012=
200701161200 AAXX 16124 67665 42680 52907 10292 20237 48503 85202
                   333 59002 82835 84080=
200701151800 AAXX 15184 67665 41780 73503 10238 20236 48502 71322 81932
                   333 10306 59004 81956 84360 85080=
200701151500 AAXX 15154 67665 42780 60503 10288 20217 48484 82232
                   333 59007 81950 82360 84080=
200701151200 AAXX 15124 67665 41670 72104 10272 20237 48503 71522 87202
                   333 59002 81935 81080 91016=
200701150900 AAXX 15094 67665 42980 73205 10270 20220 48529 872//
                   333 59001 87825 91018=
200701150600 AAXX 15064 67665 32980 30000 10218 20218 48525 81031
                   333 58003 81360 83080=
200701150300 AAXX 15034 67665 42980 10000 10187 20187 48507 81030
                   333 59011 81360=
200701150000 AAXX 15004 67665 42980 13004 10201 20201 48503 81030
                   333 58002 81360=
200701142100 AAXX 14214 67665 42980 10000 10217 20217 48519 81030
                   333 59012 81360=
200701141800 AAXX 14184 67665 42680 41503 10239 20227 48505 82931
                   333 10301 58006 81950 82850=
200701131800 AAXX 13184 67665 42980 10702 10231 20217 48500 81030
                   333 10299 59009 81360=
200701131500 AAXX 13154 67665 42680 41206 10278 20214 48496 82230
                   333 59007 82846 82360=
200701130900 AAXX 13094 67665 42580 40506 10263 20213 48530 84203
                   333 58001 84825 83080 91019=
200701130600 AAXX 13064 67665 32480 41003 10219 20204 48525 82232
                   333 10286 20168 59005 82815 81360 84080=
200701130400 AAXX 13044 67665 42980 40000 10162 20162 48511 82032
                   333 59008 82360 84080=
200701121800 AAXX 12184 67665 42780 51602 10219 20212 48511 82232
                   333 59011 81856 81360 83080=
200701120600 AAXX 12064 67665 32980 40807 10209 20209 48531 80002
                   333 10277 20160 59007 84080=
200701111800 AAXX 11184 67665 42980 31302 10215 20208 48517 83030
                   333 59005 83360=
200701111500 AAXX 11154 67665 42980 71409 10251 20207 48506 82230
                   333 59007 82857 86360=
200701111200 AAXX 11124 67665 42680 51104 10258 20191 48517 85200
                   333 59009 85845=
200701110900 AAXX 11094 67665 42680 40812 10244 20209 48533 84100
                   333 59011 84832 91020=
200701110600 AAXX 11064 67665 42480 60911 10197 20197 48534 865//
                   333 10270 20173 59002 86612=
200701100900 AAXX 10094 67665 42580 70609 10231 20227 48543 8623/
                   333 58009 86820 83360=
200701100600 AAXX 10064 67665 12375 70909 10208 20208 48537 60144 83530
                   333 10281 20182 58011 83709 87360=
200701081500 AAXX 08154 67665 42680 00000 10225 20225 48481 82932
                   333 58000 82945 83360 85080 91014=
200701081200 AAXX 08124 67665 41680 62003 10234 20234 48487 71799 81932
                   333 59003 81930 82832 85360 83080=
200701071500 AAXX 07154 67665 41659 61506 10221 20221 48481 79592 81932
                   333 59028 81945 82848 83360 82080=
200701070900 AAXX 07094 67665 42480 63305 10245 20238 48515 86830
                   333 59017 82618 84820 82360 91017=
200701060600 AAXX 06064 67665 12380 60804 10222 20222 48532 60024 83631
                   333 59002 83608 84820 83360 81080=
200701060300 AAXX 06034 67665 42380 70000 10226 20226 48524 8163/
                   333 59003 81608 87360=
200701060000 AAXX 06004 67665 41380 60000 10213 20213 48575 8163/
                   333 59018 81208 86360=
200701052100 AAXX 05214 67665 41380 71302 10210 20210 48528 72122 8267/
                   333 59003 82704 87360=
200701051800 AAXX 05184 67665 41380 70000 10217 20217 48520 71322 8197/
                   333 10286 58014 81704 81930 83830 86360=
200701050600 AAXX 05064 67665 12360 70706 10211 20211 48533 69904 8373/
                   333 10270 20185 59001 83709 87360=
200701050400 AAXX 05044 67665 41458 60000 10218 20218 48523 74444 81530
                   333 59004 81610 86360=
200701050300 AAXX 05034 67665 41459 40000 10214 20214 48519 74140 81530
                   333 59004 81610 83360=
200701042100 AAXX 04214 67665 42780 31402 10199 20199 48528 81532
                   333 59006 81650 83360 81080=
200701041800 AAXX 04184 67665 41980 51106 10216 20216 48518 71322 85031
                   333 59007 85360 82080=
200701041200 AAXX 04124 67665 41670 61108 10210 20210 48509 72166 8267/
                   333 59004 82635 86360=
200701040600 AAXX 04064 67665 12480 71002 10198 20198 48531 69964 875//
                   333 10250 20185 59001 87610=
200701040400 AAXX 04044 67665 41459 70000 10197 20197 48523 74022 81530
                   333 59001 81610 87359=
200701031500 AAXX 03154 67665 41680 61209 10231 20212 48505 71522 8653/
                   333 59010 81940 86645 81360=
200701021500 AAXX 02154 67665 41456 81504 10198 20198 48509 76262 8697/
                   333 58016 84615 81920 87459 91017=
200701021200 AAXX 02124 67665 42680 606006 10253 20238 48510 70222 85202
                   333 58015 81935 85835 83080 Q1017.2=
200701020900 AAXX 02094 67665 42475 70307 10221 20221 48528 875//
                   333 58018 87615 91019=
200701010900 AAXX 01094 67665 41480 73110 10232 20232 48512 71522 8753/
                   333 58003 87615 84360=
200701010600 AAXX 01064 67665 12375 73207 10210 20210 48509 60104 84630
                   333 10244 20193 58004 84708 85360=

################################################################################
#  SYNOPS from 67743, Livingstone (Zambia) | 17-49S | 025-49E | 985 m
################################################################################
200701281500 AAXX 28154 67743 42780 60911 10272 20182 48504 85231
                   333 58018 85856 84360 82080=
200701100600 AAXX 10064 67743 32480 60810 10236 20190 48536 84471
                   333 10305 20207 58023 82610=
200701010900 AAXX 01094 67743 41480 81007 10216 20200 48501 71752 8757/
                   333 58008 81915 87616 88460=
200701010600 AAXX 01064 67743 11378 81503 10207 20204 48494 60024 75052 86571
                   333 10267 20201 58006 83707 86610 88460=

################################################################################
#  SYNOPS from 67855, Lupaki (Zambia) | 17-03-00S | 024-46-00E | 1000 m
################################################################################
200701310000 AAXX 31004 67855 NIL=
200701301800 AAXX 30184 67855 NIL=
200701301200 AAXX 30124 67855 NIL=
200701300600 AAXX 30064 67855 NIL=
200701300000 AAXX 30004 67855 NIL=
200701291800 AAXX 29184 67855 NIL=
200701291200 AAXX 29124 67855 NIL=
200701290600 AAXX 29064 67855 NIL=
200701290000 AAXX 29004 67855 NIL=
200701281800 AAXX 28184 67855 NIL=
200701281200 AAXX 28124 67855 NIL=
200701280600 AAXX 28064 67855 NIL=
200701280000 AAXX 28004 67855 NIL=
200701271800 AAXX 27184 67855 NIL=
200701271200 AAXX 27124 67855 NIL=
200701270600 AAXX 27064 67855 NIL=
200701270000 AAXX 27004 67855 NIL=
200701261800 AAXX 26184 67855 NIL=
200701261200 AAXX 26124 67855 NIL=
200701260600 AAXX 26064 67855 NIL=
200701260000 AAXX 26004 67855 NIL=
200701251800 AAXX 25184 67855 NIL=
200701251200 AAXX 25124 67855 NIL=
200701250600 AAXX 25064 67855 12980 51701 10200 20161 3//// 48/// 60014 80002
                   333 20149 5//// 85080=
200701250000 AAXX 25004 67855 NIL=
200701241800 AAXX 24184 67855 NIL=
200701241200 AAXX 24124 67855 NIL=
200701240600 AAXX 24064 67855 11980 70301 10216 20181 3//// 48/// 69994 70342 80002
                   333 20183 5//// 87080=
200701240000 AAXX 24004 67855 NIL=
200701231800 AAXX 23184 67855 NIL=
200701231200 AAXX 23124 67855 NIL=
200701230600 AAXX 23064 67855 12580 70000 10232 20203 3//// 48/// 60034 81132
                   333 20199 5//// 81820 86360=
200701230000 AAXX 23004 67855 NIL=
200701221800 AAXX 22184 67855 NIL=
200701221200 AAXX 22124 67855 NIL=
200701220600 AAXX 22064 67855 12980 70000 10200 20188 3//// 48/// 70162 8707/
                   333 20188 5//// 87460=
200701211800 AAXX 21184 67855 NIL=
200701211200 AAXX 21124 67855 NIL=
200701210600 AAXX 21064 67855 NIL=
200701210000 AAXX 21004 67855 NIL=
200701201800 AAXX 20184 67855 NIL=
200701201200 AAXX 20124 67855 NIL=
200701200600 AAXX 20064 67855 NIL=
200701200000 AAXX 20004 67855 NIL=
200701191800 AAXX 19184 67855 NIL=
200701191200 AAXX 19124 67855 NIL=
200701190600 AAXX 19064 67855 32980 70801 10234 20200 3//// 48/// 87032
                   333 20194 5//// 87360=
200701190000 AAXX 19004 67855 NIL=
200701181800 AAXX 18184 67855 NIL=
200701181200 AAXX 18124 67855 NIL=
200701180600 AAXX 18064 67855 12980 81801 10210 20196 3//// 48/// 69924 8807/
                   333 20201 5//// 88460=
200701180000 AAXX 18004 67855 NIL=
200701171800 AAXX 17184 67855 NIL=
200701171200 AAXX 17124 67855 NIL=
200701170600 AAXX 17064 67855 12980 81001 10222 20196 3//// 48/// 60304 81032
                   333 20184 5//// 81360 87080=
200701170000 AAXX 17004 67855 NIL=
200701161800 AAXX 16184 67855 NIL=
200701161200 AAXX 16124 67855 NIL=
200701160600 AAXX 16064 67855 NIL=
200701160000 AAXX 16004 67855 NIL=
200701151800 AAXX 15184 67855 NIL=
200701151200 AAXX 15124 67855 NIL=
200701150600 AAXX 15064 67855 32980 70601 10235 20185 3//// 48/// 80001
                   333 20172 5//// 87080=
200701150000 AAXX 15004 67855 NIL=
200701141800 AAXX 14184 67855 NIL=
200701141200 AAXX 14124 67855 NIL=
200701140600 AAXX 14064 67855 NIL=
200701140000 AAXX 14004 67855 NIL=
200701131800 AAXX 13184 67855 NIL=
200701131200 AAXX 13124 67855 NIL=
200701130600 AAXX 13064 67855 NIL=
200701130000 AAXX 13004 67855 NIL=
200701121800 AAXX 12184 67855 NIL=
200701121200 AAXX 12124 67855 NIL=
200701120600 AAXX 12064 67855 32980 11601 10210 20160 38941 48531 80001
                   333 20148 5//// 81080=
200701120000 AAXX 12004 67855 NIL=
200701111200 AAXX 11124 67855 NIL=
200701110600 AAXX 11064 67855 32980 11701 10206 20139 3//// 48/// 80001
                   333 20150 5//// 81080=
200701110000 AAXX 11004 67855 NIL=
200701101800 AAXX 10184 67855 NIL=
200701101200 AAXX 10124 67855 NIL=
200701100600 AAXX 10064 67855 12980 30501 10222 20164 3//// 48/// 69904 80002
                   333 20186 5//// 83080=
200701100000 AAXX 10004 67855 NIL=
200701091800 AAXX 09184 67855 NIL=
200701091200 AAXX 09124 67855 NIL=
200701090600 AAXX 09064 67855 12380 72901 10227 20181 3//// 48/// 60014 81632
                   333 20180 5//// 81709 87080=
200701090000 AAXX 09004 67855 NIL=
200701081800 AAXX 08184 67855 NIL=
200701080600 AAXX 08064 67855 NIL=
200701080000 AAXX 08004 67855 NIL=
200701071800 AAXX 07184 67855 NIL=
200701071200 AAXX 07124 67855 NIL=
200701070600 AAXX 07064 67855 NIL=
200701070000 AAXX 07004 67855 NIL=
200701061800 AAXX 06184 67855 NIL=
200701061200 AAXX 06124 67855 NIL=
200701060600 AAXX 06064 67855 NIL=
200701060000 AAXX 06004 67855 NIL=
200701051800 AAXX 05184 67855 NIL=
200701051200 AAXX 05124 67855 NIL=
200701050600 AAXX 05064 67855 32480 71301 10219 20183 3//// 48/// 87531
                   333 20169 5//// 87615=
200701050000 AAXX 05004 67855 NIL=
200701041800 AAXX 04184 67855 NIL=
200701041200 AAXX 04124 67855 NIL=
200701040600 AAXX 04064 67855 32980 10901 10216 20152 3//// 48/// 80001
                   333 20150 5//// 81080=
200701040000 AAXX 04004 67855 NIL=
200701031800 AAXX 03184 67855 NIL=
200701031200 AAXX 03124 67855 NIL=
200701030600 AAXX 03064 67855 12480 60903 10200 20141 3//// 48/// 69904 82630
                   333 20162 5//// 82710 84360=
200701030000 AAXX 03004 67855 NIL=
200701021800 AAXX 02184 67855 NIL=
200701021200 AAXX 02124 67855 NIL=
200701020600 AAXX 02064 67855 32580 70903 10213 20151 3//// 48/// 87572
                   333 20195 5//// 87625=
200701020000 AAXX 02004 67855 NIL=
200701011800 AAXX 01184 67855 NIL=
200701011200 AAXX 01124 67855 NIL=
200701010600 AAXX 01064 67855 NIL=
