################################################################################
# Query made at 04/15/2022 01:38:18 UTC
# Country like Zamb*
# Time interval: from 02/01/2011 05:30  to 03/03/2011 06:30  UTC
################################################################################

################################################################################
#  SYNOPS from 67441, Mwinilunga (Zambia) | 11-45S | 024-26E | 1361 m
################################################################################
201102280600 AAXX 28064 67441 11480 70000 10190 20175 48529 69904 72162 8113/
                   333 10322 20//0 59005 81818 87360=
201102230900 AAXX 23094 67441 42680 70000 10255 20188 48542 84130
                   333 59006 84820 86362=
201102221200 AAXX 22124 67441 42680 63304 10234 20162 48541 83130
                   333 59005 83830 86362=
201102210600 AAXX 21064 67441 11780 70000 10185 20180 48527 60034 72160 8117/
                   333 10265 2//// 5//// 81818 87360=
201102180600 AAXX 18064 67441 12980 70000 10175 20170 48520 69974 8707/
                   333 10280 20/// 59016 87360=
201102090900 AAXX 09094 67441 42680 70000 10255 20180 48528 82230
                   333 59010 82835 87360=

################################################################################
#  SYNOPS from 67477, Mpika (Zambia) | 11-54S | 031-26E | 1400 m
################################################################################
201102230900 AAXX 23094 67477 42580 60903 10237 20173 48522 81230
                   333 58005 81826 86361=
201102221200 AAXX 22124 67477 41480 70901 10206 20181 48499 71798 8197/
                   333 58014 83930 81830 87460=
201102071200 AAXX 07124 67477 42680 51203 10256 20160 48486 84201
                   333 5//// 81938 84838 81080=

################################################################################
#  SYNOPS from 67531, Zambezi (Zambia) | 13-32S | 023-07E | 1077 m
################################################################################
201102280600 AAXX 28064 67531 32380 70000 10200 20189 48/// 8167/
                   333 10301 20174 59001 81707 87360=
201102251200 AAXX 25124 67531 41680 70000 10210 20195 48/// 79599 8147/
                   333 59013 81925 81625 87360=
201102230900 AAXX 23094 67531 42580 71002 10255 20205 48/// 8683/
                   333 59001 84820 82620 85361=
201102221200 AAXX 22124 67531 41480 70000 10224 20201 48/// 72996 8317/
                   333 58002 83820 87459=
201102210600 AAXX 21064 67531 12980 70301 10201 20194 4//// 69904 81078
                   333 10312 20181 59007 81360 87280=
201102180600 AAXX 18064 67531 11380 73601 10200 20194 48/// 60044 72844 81610
                   333 10300 20174 59015 81707 87360=
201102171200 AAXX 17124 67531 41680 61804 10285 20198 48/// 71792 86202
                   333 58000 81938 86838 81080=
201102150900 AAXX 15094 67531 41580 60000 10248 20199 48/// 70392 8457/
                   333 58000 83620 81822 85360=
201102090900 AAXX 09094 67531 42680 30000 10260 20187 48/// 82131
                   333 59007 82832 82360 81080=

################################################################################
#  SYNOPS from 67561, Ndola (Zambia) | 13-00S | 028-39E | 1269 m
################################################################################
201102180600 AAXX 18064 67561 11356 60706 10180 20180 48498 60034 74222 867//
                   333 10290 20175 59006 86706=
201102071200 AAXX 07124 67561 41580 50705 10285 20164 48498 85200
                   333 59010 85830=

################################################################################
#  SYNOPS from 67571, Serenje (Zambia) | 13-14S | 030-13E | 1384 m
################################################################################
201102171200 AAXX 17124 67571 41780 71503 10254 20171 48473 78088 87200
                   333 58002 81928 87835=
201102150900 AAXX 15094 67571 42580 63603 10241 20160 48503 86200
                   333 58002 81922 86824=

################################################################################
#  SYNOPS from 67580, Msekera (Zambia) | 13-39S | 032-34E | 1025 m
################################################################################
201102210600 AAXX 21064 67580 11480 70603 10220 20196 4//// 60104 70352 85531
                   333 10200 20195 58000 85617 83360=
201102180600 AAXX 18064 67580 32480 72702 10216 20186 48/// 84531
                   333 10300 20178 58004 84617 86360 81080=
201102090900 AAXX 09094 67580 42680 71602 10256 20184 48/// 86201
                   333 59005 86830 81080=

################################################################################
#  SYNOPS from 67599, Mfuwe (Zambia) | 13-16S | 031-56E | 568 m
################################################################################
201102280600 AAXX 28064 67599 12380 70000 10234 20221 48525 60074 8257/
                   333 10337 20210 59015 82608 87459=
201102221200 AAXX 22124 67599 41475 70000 10255 20219 48524 75052 819//
                   333 58024 81915 87820=
201102210600 AAXX 21064 67599 12365 72304 10226 20216 48519 60074 8477/
                   333 10358 20211 58000 84708 87460=
201102180600 AAXX 18064 67599 12480 81105 10230 20207 48516 69904 8157/
                   333 10346 20205 58001 819// 81610 88460=

################################################################################
#  SYNOPS from 67659, Kafue Polder (Zambia) | 15-46S | 027-55E | 978 m
################################################################################
201102280600 AAXX 28064 67659 12380 70903 10216 20205 48/// 60214 877//
                   333 10291 20176 59005 87707=

################################################################################
#  SYNOPS from 67663, Kabwe (Zambia) | 14-27S | 028-28E | 1206 m
################################################################################
201102251200 AAXX 25124 67663 41682 61803 10248 20201 48471 71799 86202
                   333 59003 81920 85835 83080=

################################################################################
#  SYNOPS from 67665, Lusaka Internationalairport (Zambia) | 15-19S | 028-27E | 1152 m
################################################################################
201103030600 AAXX 03064 67665 31358 72610 10182 20182 48534 76162 8557/
                   333 10264 20180 58011 85605 87459
                   555 91020=
201103030400 AAXX 03044 67665 42380 72805 10193 20193 48516 70322 85530
                   333 58007 85607 86360=
201103030300 AAXX 03034 67665 42980 51502 10188 20188 48505 85030
                   333 58001 85360=
201103030000 AAXX 03004 67665 42980 51503 10187 20187 48508 85030
                   333 5//// 85360=
201103022100 AAXX 02214 67665 42780 31102 10195 20195 48518 81930
                   333 58002 81950 83360=
201103021200 AAXX 02124 67665 42680 60608 10255 20220 48509 85230
                   333 58006 85835 83360=
201103011500 AAXX 01154 67665 42680 71203 10225 20194 48496 70222 81938
                   333 58008 81945 83360 87280
                   555 10268=
201103011200 AAXX 01124 67665 41680 71210 10226 20211 48500 71792 81932
                   333 58003 81930 85835 83360 82080 91016=
201103010900 AAXX 01094 67665 42580 60408 10238 20215 48522 86830
                   333 58003 84620 85825 83360=
201103010600 AAXX 01064 67665 12470 70906 10202 20187 48520 60034 8353/
                   333 10285 20109 58002 83610 87359=
201102281500 AAXX 28154 67665 42680 71005 10232 20190 48487 72162 81932
                   333 59001 81930 84360 85080
                   555 10285=
201102280900 AAXX 28094 67665 41456 70708 10214 20207 48526 75952 875//
                   333 59002 87612 91018=
201102280600 AAXX 28064 67665 11480 70907 10296 20196 48518 60034 70244 875//
                   333 10286 20175 59008 87610=
201102270900 AAXX 27094 67665 42580 60409 10244 20184 48527 8623/
                   333 58003 86820 82360=
201102270600 AAXX 27064 67665 12480 70802 10193 20173 48520 60084 8253/
                   333 10276 20165 58009 82610 87360=
201102270400 AAXX 27044 67665 42980 71402 10193 20193 48512 8703/
                   333 58015 87359=
201102270300 AAXX 27034 67665 42380 71103 10191 20191 48507 8173/
                   333 58010 81706 87359=
201102262100 AAXX 26214 67665 41760 71305 10180 20180 48515 71796 8193/
                   333 58015 81950 87359=
201102261800 AAXX 26184 67665 42980 51202 10211 20209 48503 81232
                   333 58011 81957 84361 83080=
201102261200 AAXX 26124 67665 42580 70504 10230 20197 48519 82132
                   333 58014 82822 83360 87480=
201102260600 AAXX 26064 67665 11360 81702 10195 20195 48513 60114 8477/
                   333 10287 20280 58002 84708 87459=
201102251800 AAXX 25184 67665 41760 73402 10203 20203 48492 71329 8193/
                   333 10287 59007 81950 87359=
201102251500 AAXX 25154 67665 41780 73207 10221 20193 48477 71799 8193/
                   333 59005 81950 87360=
201102251200 AAXX 25124 67665 41680 61406 10264 20219 48489 71522 86232
                   333 59019 81940 86840 81360 81080=
201102250600 AAXX 25064 67665 32380 51105 10217 20177 48512 81632
                   333 10306 20171 59003 81709 83360 84080=
201102250400 AAXX 25044 67665 42380 51603 10176 20176 48499 70322 81932
                   333 59012 81707 81910 83360 85080=
201102250300 AAXX 25034 67665 41680 21603 10174 20174 48491 71322 81930
                   333 59020 81940 81360 91016=
201102250000 AAXX 25004 67665 42980 11902 10194 20194 48501 81030
                   333 5//// 81360=
201102242100 AAXX 24214 67665 42980 11403 10191 20191 48510 81030
                   333 59009 81360=
201102241800 AAXX 24184 67665 42980 30904 10210 20203 48499 81031
                   333 82360 82080 91016=
201102241500 AAXX 24154 67665 42680 41008 10270 20227 48488 83201
                   333 59013 83850 82080 91014=
201102241200 AAXX 24124 67665 42680 50706 10283 20219 48512 85200
                   333 58006 85843 91017=
201102240900 AAXX 24094 67665 42680 60308 10266 20224 48538 86800
                   333 58003 84830 82632=
201102231800 AAXX 23184 67665 41780 41004 10219 20212 48510 71322 81932
                   333 10290 58002 81956 82360 83080=
201102231500 AAXX 23154 67665 41780 31006 10282 20162 48502 71522 81232
                   333 58000 81950 82360 83080
                   555 10290=
201102231200 AAXX 23124 67665 42680 51009 10270 20162 48517 84130
                   333 58007 84835 81360 91017=
201102230900 AAXX 23094 67665 42480 51009 10254 20218 48533 85100
                   333 58003 85820=
201102230600 AAXX 23064 67665 32980 11105 10205 20205 48529 70200 80001
                   333 10285 20186 58003 81080 91019=
201102221200 AAXX 22124 67665 42680 60909 10276 20187 48511 85232
                   333 58004 85835 81360 83080 91016=
201102220900 AAXX 22094 67665 42580 60708 10259 20178 48532 70222 85232
                   333 59004 85820 82360 83080 91019=
201102220600 AAXX 22064 67665 31380 60903 10192 20189 48532 72844 81638
                   333 10306 20170 59001 81708 81360 86280
                   555 91020=
201102211200 AAXX 21124 67665 42680 60306 10265 20223 48506 85232
                   333 58004 85835 82360 84080=
201102210600 AAXX 21064 67665 12380 70605 10202 20193 48526 60074 8273/
                   333 10316 20186 58008 82708 87359=
201102210400 AAXX 21044 67665 42/60 70703 10204 20204 48504 81980
                   333 59002 819// 87359=
201102210300 AAXX 21034 67665 42/60 70703 10204 20204 48504 81980
                   333 59002 819// 87359=
201102202100 AAXX 20214 67665 42980 11802 10202 20202 48510 81030
                   333 58007 81360=
201102200300 AAXX 20034 67665 41960 71804 10198 20198 48504 72162 87030
                   333 58002 87359=
201102180600 AAXX 18064 67665 32980 31403 10217 20163 48509 83081
                   333 10295 20145 59010 83360 81080=
201102171800 AAXX 17184 67665 42980 51604 10216 20194 48489 70200 82032
                   333 10295 59009 82360 85080=
201102171500 AAXX 17154 67665 41780 41508 10270 20159 48479 81131
                   333 59005 81950 83360 81080
                   555 10295=
201102171200 AAXX 17124 67665 42680 61404 10273 20192 48494 70222 86201
                   333 58001 86835 81080 91015=
201102170900 AAXX 17094 67665 47480 51205 10268 20202 48521 85101
                   333 58001 85520 82080 91017=
201102161200 AAXX 16124 67665 42680 62207 10253 20193 48491 86230
                   333 59012 86845 81360=
201102160900 AAXX 16094 67665 42680 60604 10261 20179 48516 70322 85231
                   333 59009 85830 82360 81080 91017=
201102160600 AAXX 16064 67665 32480 30000 10225 20179 48509 81530
                   333 10288 20165 59017 81618 82360=
201102151200 AAXX 15124 67665 42680 60605 10259 20193 48504 86200
                   333 59005 86838=
201102150900 AAXX 15094 67665 42580 60407 10234 20182 48521 86230
                   333 58003 86825 82360=
201102150600 AAXX 15064 67665 32480 61004 10202 20173 48523 81530
                   333 10289 20169 58004 81610 86360=
201102150400 AAXX 15044 67665 42980 71502 10178 20178 48510 87030
                   333 58000 87360=
201102142100 AAXX 14214 67665 42980 33301 10192 20192 48501 83030
                   333 59004 83360=
201102141200 AAXX 14124 67665 42680 60806 10267 20190 48500 70222 86200
                   333 59007 86842=
201102140900 AAXX 14094 67665 42580 60909 10253 20207 48514 86200
                   333 59008 86828=
201102140600 AAXX 14064 67665 32980 61005 10202 20202 48519 8603/
                   333 10280 20183 59010 86360 91018=
201102131800 AAXX 13184 67665 42980 10803 10206 20191 48501 81030
                   333 10280 59012 81360=
201102131500 AAXX 13154 67665 42780 31007 10250 20176 48496 82232
                   333 59006 82850 81360 81080=
201102131200 AAXX 13124 67665 42680 51210 10267 20201 48508 83230
                   333 59002 83835 83360=
201102130900 AAXX 13094 67665 42580 40806 10254 20176 48529 70322 84200
                   333 59005 84825=
201102130600 AAXX 13064 67665 12380 51201 10195 20178 48526 70222 83531
                   333 10282 20170 59001 83612 82360 81080
                   555 00/// 91020=
201102130400 AAXX 13044 67665 42380 71501 10180 20180 48516 70322 85531
                   333 58001 85708 83360 81080=
201102130300 AAXX 13034 67665 42980 20000 10175 20175 48512 82030
                   333 58003 82360=
201102121200 AAXX 12124 67665 42660 70405 10254 20233 48507 70262 87830
                   333 59002 85833 83635 82360 91016=
201102120600 AAXX 12064 67665 12480 60905 10201 20186 48529 60014 83131
                   333 10294 20170 58009 83812 86360 81080 91020=
201102111500 AAXX 11154 67665 41680 51009 10265 20186 48496 71522 81932
                   333 59014 81948 83850 81360 82080
                   555 10294=
201102111200 AAXX 11124 67665 42680 61106 10271 20173 48512 70322 86200
                   333 59009 86840=
201102110900 AAXX 11094 67665 42580 60809 10246 20210 48528 70322 865//
                   333 58010 86625=
201102110600 AAXX 11064 67665 32480 61106 10202 20186 48521 86530
                   333 10285 20161 58006 86612 81360=
201102101200 AAXX 10124 67665 42680 50609 10275 20186 48504 85201
                   333 58007 85840 81080 91016=
201102100900 AAXX 10094 67665 42580 60808 10245 20177 48518 85201
                   333 59004 85825 82080 91018=
201102100600 AAXX 10064 67665 32480 61102 10228 20198 48517 70222 81630
                   333 10298 20109 58001 81615 86360
                   555 91018=
201102091800 AAXX 09184 67665 42780 20602 10219 20219 48491 81930
                   333 59009 81957 81361=
201102091200 AAXX 09124 67665 41680 60603 10272 20207 48496 71522 86200
                   333 59016 86838 81938=
201102090900 AAXX 09094 67665 42580 60508 10263 20198 48515 85230
                   333 59012 85822 83360 91017=
201102090600 AAXX 09064 67665 32480 51104 10215 20174 48515 81130
                   333 10294 20169 59009 81815 85360=
201102090400 AAXX 09044 67665 42980 30901 10175 20175 48501 83030
                   333 59006 83360=
201102090300 AAXX 09034 67665 42980 21403 10176 20176 48498 82030
                   333 59005 82360=
201102082100 AAXX 08214 67665 42980 01702 10186 20186 48509
                   333 59002=
201102081200 AAXX 08124 67665 42680 51106 10264 20202 48510 85200
                   333 59005 85842=
201102080900 AAXX 08094 67665 42680 50808 10253 20209 48526 85200
                   333 59007 85830=
201102080600 AAXX 08060 67665 32580 31106 10213 20198 48524 83530
                   333 10289 20170 59008 83620 81360=
201102071800 AAXX 07184 67665 42780 11502 10221 20221 48498 81900
                   333 10289 59014 81956=
201102071500 AAXX 07154 67665 42780 21411 10257 20214 48500 81230
                   333 59008 81950 81850 82360=
201102071200 AAXX 07124 67665 42680 40906 10269 20205 48517 84200
                   333 59012 84840=
201102070600 AAXX 07064 67665 32480 51204 10195 20178 48530 70322 83531
                   333 10283 20184 59013 83610 81360 82080
                   555 00///=
201102070400 AAXX 07044 67665 42380 41602 10175 20175 48515 70300 81531
                   333 81608 82360 83080=
201102070300 AAXX 07034 67665 42980 21403 10172 20172 48512 82030
                   333 59011 82360=
201102070000 AAXX 07004 67665 42980 11702 10172 20172 48509 81030
                   333 59011 81360=
201102062100 AAXX 06214 67665 42980 10000 10187 20187 48519 81030
                   333 59006 81360=
201102061500 AAXX 06154 67665 42780 41511 10254 20218 48507 83230
                   333 59003 83850 81360 91016=
201102060900 AAXX 06094 67665 42680 60708 10240 20211 48545 86500
                   333 59004 86630=
201102060600 AAXX 06064 67665 32480 31007 10200 20177 48543 83180
                   333 10285 20158 58000 83815 81360
                   555 00/// 91021=
201102051800 AAXX 05184 67665 42980 21204 10204 20204 48519 81031
                   333 10285 59001 81360 81080=
201102051500 AAXX 05154 67665 42680 41108 10266 20166 48512 82231 81848 81950 81360 81080
                   555 10285=
201102051200 AAXX 05124 67665 42680 50807 10255 20179 48532 85201
                   333 58002 85835 81080 91019=
201102050900 AAXX 05094 67665 42480 50711 10248 20219 48551 85530
                   333 58007 85625 81360 91021=
201102050600 AAXX 05064 67665 32480 50909 10199 20184 48543 85530
                   333 10280 20171 58001 85615 81360=
201102040600 AAXX 04064 67665 32480 61107 10191 20161 48541 81502
                   333 10282 20148 59004 81614 85080
                   555 00/// 91021=
201102031800 AAXX 03184 67665 42780 30903 10201 20201 48518 81932
                   333 58006 81950 81360 82080=
201102031500 AAXX 03154 67665 42680 40909 10254 20217 48510 83262
                   333 58005 81945 83845 81360 82080=
201102031200 AAXX 03124 67665 42680 60606 10247 20210 48527 86200
                   333 59007 86832=
201102030600 AAXX 03064 67665 12480 60908 10200 20184 48538 69924 85832
                   333 10279 20170 58001 81815 85816 81360 81080=
201102030400 AAXX 03044 67665 42/80 50202 10183 20183 48529 81932
                   333 59001 819// 82360 84080=
201102030300 AAXX 03034 67665 42980 31002 10186 20186 48521 83030
                   333 59005 83360=
201102022100 AAXX 02214 67665 42780 71105 10203 20203 48530 81030
                   333 58006 81950 87360=
201102021200 AAXX 02124 67665 42675 70906 10266 20197 48541 85230
                   333 59001 85835 85360=
201102020900 AAXX 02094 67665 42580 63303 10236 20208 48540 85230
                   333 58001 85820 83360=
201102020600 AAXX 02064 67665 42380 30506 10213 20213 48538 8563/
                   333 10269 20174 58005 85608 87360 91021=
201102011800 AAXX 01184 67665 42980 61403 10217 20217 48521 86030
                   333 10269 58012 86360=
201102011500 AAXX 01154 67665 42680 70904 10254 20189 48508 82230
                   333 58008 82845 86360=
201102011200 AAXX 01124 67665 42680 70103 10248 20212 48521 83230
                   333 58011 83830 86360=

################################################################################
#  SYNOPS from 67666, Lusaka City Airport (Zambia) | 15-25S | 028-19E | 1280 m
################################################################################
201102280600 AAXX 28064 67666 12480 70908 10198 20187 48503 69904 875//
                   333 10265 20165 59004 87613=
201102210600 AAXX 21064 67666 12480 70905 10200 20178 48516 60204 8153/
                   333 10305 20169 58005 81611 87360=
201102171200 AAXX 17124 67666 42680 50908 10260 20167 48487 84200
                   333 59004 81936 84836=
201102150900 AAXX 15094 67666 42680 50908 10245 20174 48515 84230
                   333 58002 84830 82360=
201102090900 AAXX 09094 67666 42680 40908 10250 20175 48508 83231
                   333 59011 83830 86360 82080=

################################################################################
#  SYNOPS from 67673, Petauke (Zambia) | 14-15S | 031-17E | 1035 m
################################################################################
201102210600 AAXX 21064 67673 12580 70503 10214 20200 48538 69914 85438
                   333 10326 20198 58009 85620 86360 87380=
201102180600 AAXX 18064 67673 32580 70906 10228 20200 48517 82508
                   333 10306 20182 59006 82620 87280=
201102171200 AAXX 17124 67673 42680 61903 10250 20174 48500 86231
                   333 58000 81940 86840 83360 82080=
201102150900 AAXX 15094 67673 42680 60503 10246 20184 48531 86230
                   333 58010 86830 83360=
201102101200 AAXX 10124 67673 42680 61604 10295 20175 48502 86231
                   333 58002 86842 83360 82080=
201102090900 AAXX 09094 67673 42680 61004 10265 20181 48521 86231
                   333 59010 86832 82360 82080=

################################################################################
#  SYNOPS from 67743, Livingstone (Zambia) | 17-49S | 025-49E | 985 m
################################################################################
201102280600 AAXX 28064 67743 12380 81108 10213 20194 48518 69904 8563/
                   333 10297 20//0 58000 85708 83360=
201102251200 AAXX 25124 67743 41680 73411 10251 20206 48484 71792 82930
                   333 59016 82945 86845 83360=
201102221200 AAXX 22124 67743 42680 72705 10270 20188 48516 83230
                   333 58016 83835 85360=
201102210600 AAXX 21064 67743 12380 70902 10215 20201 48505 60144 82663
                   333 10344 2//// 48004 82706 86360 84080=
201102180600 AAXX 18064 67743 32980 11207 10220 20146 48497 80001
                   333 10326 20/// 59016 81080=
201102150900 AAXX 15094 67743 42980 00806 10285 20163 48525
                   333 59001=
201102131500 AAXX 13154 67743 42780 11205 10314 20155 48491 81101
                   333 59011 81856 81080=
201102101200 AAXX 10124 67743 42780 40804 10324 20186 48498 84100
                   333 59003 84850=
201102071200 AAXX 07124 67743 42780 31003 10312 20168 48516 84100
                   333 59013 84830=
201102011200 AAXX 01124 67743 41659 80804 10205 20205 48509 79592 8297/
                   333 58014 82935 84840 86460=

################################################################################
#  SYNOPS from 67753, Choma (Zambia) | 16-50S | 027-04E | 1213 m
################################################################################
201102221200 AAXX 22124 67753 42580 70607 10235 20187 48/// 86108
                   333 5//// 86820 87280=
201102210600 AAXX 21064 67753 32980 71505 10226 20186 83088
                   333 10307 20174 82360 87280=
201102180600 AAXX 18064 67753 32980 20905 10191 20163 48/// 80001
                   333 10291 20136 5//// 82080=
201102150900 AAXX 15094 67753 42580 73604 10243 20174 48/// 87200
                   333 5//// 87825=
201102101200 AAXX 10124 67753 42680 70906 10257 20194 48//// 87200
                   333 5//// 87835=

################################################################################
#  SYNOPS from 67855, Lupaki (Zambia) | 17-03-00S | 024-46-00E | 1000 m
################################################################################
201103030600 AAXX 03064 67855 32980 20901 10200 20173 3//// 48/// 82030
                   333 20150 5//// 82360=
201103021200 AAXX 02124 67855 42680 60302 10286 20159 3//// 48/// 84230
                   333 5//// 84840=
201103020600 AAXX 02064 67855 32980 62001 10170 20141 3//// 48/// 85071
                   333 20125 5//// 85460=
201103011200 AAXX 01124 67855 42680 20603 10300 20123 3//// 48/// 82100
                   333 5//// 82840=
201103010600 AAXX 01064 67855 32980 21802 10170 20140 3//// 48/// 80002
                   333 20175 5//// 82080=
201102281200 AAXX 28124 67855 42680 70302 10282 20177 3//// 48/// 8427/
                   333 5//// 84840 87460=
201102280600 AAXX 28064 67855 12980 71801 10206 20178 3//// 48/// 60044 8707/
                   333 20185 5//// 87460=
201102271200 AAXX 27124 67855 NIL=
201102270600 AAXX 27064 67855 11370 71701 10190 20185 3//// 48/// 60224 72162 8367/
                   333 20178 5//// 83707 87459=
201102261200 AAXX 26124 67855 NIL=
201102260600 AAXX 26064 67855 11370 71101 10200 20195 3//// 48/// 60074 72586 8667/
                   333 20175 5//// 86708 85460=
201102251200 AAXX 25124 67855 41670 73201 10222 20216 3//// 4//// 78198 83273
                   333 5//// 81930 83840 85458=
201102250600 AAXX 25064 67855 11980 71201 10206 20191 3//// 48/// 60014 72162 8707/
                   333 20188 5//// 87459=
201102241200 AAXX 24124 67855 NIL=
201102240600 AAXX 24064 67855 32980 40603 10224 20185 3//// 48/// 82031
                   333 20185 5//// 82360=
201102230600 AAXX 23064 67855 NIL=
201102221200 AAXX 22124 67855 42680 50203 10290 20185 3//// 48/// 85203
                   333 5//// 85840=
201102220600 AAXX 22064 67855 NIL=
201102211200 AAXX 21124 67855 41680 73601 10310 20188 3//// 48/// 72998 85202
                   333 5//// 85840 87080=
201102210600 AAXX 21064 67855 11960 71901 10212 20209 3//// 48/// 60024 70522 80002
                   333 20190 5//// 87080=
201102181200 AAXX 18124 67855 42680 52401 10306 20136 3//// 48/// 85200
                   333 5//// 85840=
201102180600 AAXX 18064 67855 32980 71803 10190 20149 38/// 48/// 80002
                   333 20117 5//// 87080=
201102171200 AAXX 17124 67855 42680 52203 10316 20091 3//// 48/// 85100
                   333 5//// 85840=
201102170600 AAXX 17064 67855 32980 41603 10216 20174 3//// 48/// 80001
                   333 20148 5//// 84080=
201102161200 AAXX 16124 67855 42680 62402 10306 20136 3//// 48/// 86100
                   333 5//// 86840=
201102160600 AAXX 16064 67855 32980 61203 10184 20149 3//// 48/// 80001
                   333 20120 5//// 86080=
201102151200 AAXX 15124 67855 42680 50702 10314 20161 3//// 48/// 85200
                   333 5//// 85840=
201102141200 AAXX 14124 67855 42680 52402 10308 20144 3//// 48/// 85100
                   333 5//// 85840=
201102140600 AAXX 14064 67855 32980 02202 10190 20138 3//// 48///
                   333 20110 5////=
201102130600 AAXX 13064 67855 32980 11101 10202 20169 3//// 48/// 81030
                   333 20145 5//// 81360=
201102121200 AAXX 12124 67855 42680 43601 10308 20157 3//// 48/// 84100
                   333 5//// 84840=
201102120600 AAXX 12064 67855 12980 21803 10204 20163 3//// 48/// 69904 81031
                   333 20144 5//// 81360=
201102110600 AAXX 11064 67855 32980 41703 10216 20174 3//// 48/// 83031
                   333 20148 5//// 83360=
201102101200 AAXX 10124 67855 42680 50302 10324 20179 3//// 48/// 85200
                   333 5//// 85840=
201102100600 AAXX 10064 67855 32980 01503 10206 20156 3//// 48///
                   333 20148 5////=
201102091200 AAXX 09124 67855 42680 42402 10316 20150 3//// 48/// 84100
                   333 5//// 84840=
201102090600 AAXX 09064 67855 32980 01302 10196 20129 3//// 48///
                   333 20128 5////=
201102081200 AAXX 08124 67855 42680 51803 10296 20150 3//// 48/// 85200
                   333 5//// 85840=
201102080600 AAXX 08064 67855 32980 00902 10206 20163 3//// 48///
                   333 20130 5////=
201102071200 AAXX 07124 67855 42680 51602 10318 20150 3//// 48/// 85200
                   333 5//// 85840=
201102070600 AAXX 07064 67855 32980 00901 10198 20158 3//// 48///
                   333 20139 5////=
201102061200 AAXX 06124 67855 NIL=
201102050600 AAXX 05064 67855 12380 73602 10206 20163 3//// 48/// 69904 8163/
                   333 20165 5//// 81708 87360=
201102041200 AAXX 04124 67855 42680 51801 10300 20187 3//// 48/// 85231
                   333 5//// 85840=
201102040600 AAXX 04064 67855 32980 31504 10210 20160 3//// 48/// 80001
                   333 20145 5//// 83080=
201102031200 AAXX 03124 67855 NIL=
201102030600 AAXX 03064 67855 NIL=
201102021200 AAXX 02124 67855 41680 63302 10300 20187 3//// 48/// 72582 85202
                   333 5//// 85840=
201102020600 AAXX 02064 67855 NIL=
201102011200 AAXX 01124 67855 42680 73302 10288 20197 3//// 48/// 85202
                   333 5//// 85840=
201102010600 AAXX 01064 67855 32980 62004 10228 20165 3//// 48/// 86030
                   333 20185 5//// 86359=
