################################################################################
# Query made at 04/15/2022 01:54:26 UTC
# Country like Zamb*
# Time interval: from 08/01/2010 05:30  to 08/31/2010 06:30  UTC
################################################################################

################################################################################
#  SYNOPS from 67403, Kawambwa (Zambia) | 09-48S | 029-05E | 1323 m
################################################################################
201008250600 AAXX 25064 67403 31970 00902 10182 20087 48548 70500
                   333 10305 20110 58015=
201008060600 AAXX 06064 67403 31975 20904 10205 20128 48550 70510 82030
                   333 10298 20122 59019 82361=

################################################################################
#  SYNOPS from 67413, Mbala (Zambia) | 08-51S | 031-20E | 1673 m
################################################################################
201008060600 AAXX 06064 67413 31970 01212 10180 20111 48554 70500
                   333 10275 20150 59001 91026=

################################################################################
#  SYNOPS from 67441, Mwinilunga (Zambia) | 11-45S | 024-26E | 1361 m
################################################################################
201008270600 AAXX 27064 67441 31965 000// 10140 20084 48552 70500
                   333 10300 20/// 59017=
201008250600 AAXX 25064 67441 31960 000// 10135 20067 48578 70500
                   333 10303 20//0 58015=
201008240600 AAXX 24064 67441 31965 000// 10135 20055 48563 70500
                   333 10395 20//0 58000=
201008160600 AAXX 16064 67441 31960 00/// 10085 20030 48/// 70500
                   333 10275 20035 5////=
201008090900 AAXX 09094 67441 41965 015// 10240 20080 48569 70500
                   333 5////=
201008060600 AAXX 06064 67441 31965 000// 10136 20108 48567 70500
                   333 10300 20//0 58007=
201008051200 AAXX 05124 67441 41970 021// 10288 20092 48540 70500
                   333 58000=
201008040600 AAXX 04064 67441 31970 000// 10145 20109 48573 70500
                   333 10283 20/// 59001=
201008030600 AAXX 03064 67441 31970 010// 10130 20093 48584 70500
                   333 10262 20//0 58000=

################################################################################
#  SYNOPS from 67461, Mansa (Zambia) | 11-06S | 028-51E | 1382 m
################################################################################
201008310600 AAXX 31064 67461 31970 01206 10183 20084 48536 70500
                   333 10293 20131 59004
                   555 00///=
201008270600 AAXX 27064 67461 31965 00903 10174 20096 48526 70500
                   333 10290 20110 59020=
201008240600 AAXX 24064 67461 31965 01305 10169 20092 48540 70500
                   333 10308 20092 58007 91021=
201008231200 AAXX 23124 67461 41970 02502 10285 20011 48517 70500
                   333 59021=
201008191200 AAXX 19124 67461 41970 11505 10291 20013 48503 70400 80001
                   333 59006 81080=
201008160600 AAXX 16064 67461 31965 00904 10150 20095 48549 70500
                   333 10270 20060 58014=
201008120600 AAXX 12064 67461 31970 71220 10130 20074 48575 70522 87031
                   333 10260 20114 58019 87363=
201008110900 AAXX 11094 67461 41670 61218 10223 20077 48570 70522 84201
                   333 58020 84834 82080=
201008050600 AAXX 05064 67461 31975 00902 10158 20127 48548 70500
                   333 10287 20105 59006 91021=
201008040600 AAXX 04064 67461 31970 01203 10254 20122 48546 70500
                   333 10262 20100 59001=

################################################################################
#  SYNOPS from 67475, Kasama (Zambia) | 10-13S | 031-08E | 1382 m
################################################################################
201008270600 AAXX 27064 67475 31970 01006 10190 20080 48538 70500
                   333 10278 20100 59016=
201008250600 AAXX 25064 67475 31965 01607 10180 20101 48560 70500
                   333 10290 20115 58021 91025=
201008240600 AAXX 24064 67475 31965 10102 10180 20060 48539 70500 80001
                   333 10290 20090 58003 81080 91022=
201008160600 AAXX 16064 67475 31975 01108 10162 20052 48568 70500
                   333 10260 20088 59003=
201008060600 AAXX 06064 67475 31970 00309 10167 20122 48549 70500
                   333 10280 20118 59001 91023=
201008040600 AAXX 04064 67475 31975 00907 10175 20114 48550 70500
                   333 10262 20131 59010=

################################################################################
#  SYNOPS from 67477, Mpika (Zambia) | 11-54S | 031-26E | 1400 m
################################################################################
201008270600 AAXX 27064 67477 31976 11207 10175 20094 48542 70500 81030
                   333 10249 20117 59017 81361=
201008210600 AAXX 21064 67477 31960 01406 10180 20024 48561 70500
                   333 10265 20097 58013=
201008160600 AAXX 16064 67477 31972 00916 10167 20036 48556 70500
                   333 10225 20051 59015=
201008040600 AAXX 04064 67477 32480 11002 10168 20119 48560 81100
                   333 10231 20084 59005 81817=

################################################################################
#  SYNOPS from 67531, Zambezi (Zambia) | 13-32S | 023-07E | 1077 m
################################################################################
201008300900 AAXX 30094 67531 41975 00909 10264 20093 48/// 70500
                   333 5////=
201008270600 AAXX 27064 67531 31975 01206 10170 20075 48/// 70500
                   333 10296 20079 59021=
201008161200 AAXX 16124 67531 41975 00506 10290 20053 48/// 70500
                   333 5////=
201008160900 AAXX 16094 67531 41975 01207 10246 20058 48/// 70500
                   333 5////=
201008160600 AAXX 16064 67531 31965 01106 10141 20039 48/// 70500
                   333 10286 20040 59011=
201008111200 AAXX 11124 67531 41875 13160 10266 20066 48/// 70500 81100
                   333 5//// 81857=
201008091200 AAXX 09124 67531 41970 02401 10272 20075 48/// 70500
                   333 5////=
201008090900 AAXX 09094 67531 41975 01306 10247 20080 48/// 70500
                   333 5////=
201008061200 AAXX 06124 67531 41975 01706 10298 20093 48/// 70500
                   333 58007=
201008040900 AAXX 04094 67531 41975 01109 10236 20111 48/// 70500
                   333 59018=
201008040600 AAXX 04064 67531 31978 01206 10156 20103 48/// 70500
                   333 10273 20113 59011=

################################################################################
#  SYNOPS from 67541, Kasempa (Zambia) | 13-32S | 025-51E | 1234 m
################################################################################
201008270600 AAXX 27064 67541 NIL=

################################################################################
#  SYNOPS from 67561, Ndola (Zambia) | 13-00S | 028-39E | 1269 m
################################################################################
201008270600 AAXX 27064 67561 31960 01208 10187 20103 48537 70500
                   333 10287 20120 59012=
201008240600 AAXX 24064 67561 31930 00000 10159 20064 48540 70400
                   333 10302 20094 58006 91022=
201008211500 AAXX 21154 67561 41960 00305 10273 20038 48537 70500
                   333 59009=
201008210600 AAXX 21064 67561 31958 00705 10160 20052 48530 70400
                   333 10305 20115 58007=
201008160600 AAXX 16064 67561 31960 00000 10140 20062 48558 70500
                   333 10274 20050 59006=
201008151200 AAXX 15124 67561 41975 00804 10256 20000 48548 70500
                   333 59012=
201008061500 AAXX 06154 67561 41760 11807 10280 20085 48531 70500 81100
                   333 58006 81857=
201008041200 AAXX 04124 67561 42780 50204 10252 20092 48531 85100
                   333 59013 85850=
201008010600 AAXX 01064 67561 31970 01007 10152 20098 48558 70500
                   333 10254 20085 58007
                   555 00/// 91024=

################################################################################
#  SYNOPS from 67571, Serenje (Zambia) | 13-14S | 030-13E | 1384 m
################################################################################
201008061200 AAXX 06124 67571 41677 10904 10246 20106 48534 70500 81100
                   333 58009=

################################################################################
#  SYNOPS from 67580, Msekera (Zambia) | 13-39S | 032-34E | 1025 m
################################################################################
201008300900 AAXX 30094 67580 41675 20908 10278 20120 48/// 82100
                   333 58008 82845=
201008250600 AAXX 25064 67580 31470 11604 10200 20126 48/// 70500 81100
                   333 10297 20133 58031 81818=
201008200900 AAXX 20094 67580 41970 00908 10280 20080 48/// 70500
                   333 58011=
201008190900 AAXX 19094 67580 41970 00305 10266 20074 48/// 70500
                   333 59015=
201008160600 AAXX 16064 67580 31975 01204 10198 20064 58/// 70500
                   333 10278 20098 59006=
201008100600 AAXX 10064 67580 31975 01206 10210 20103 48/// 70500
                   333 10279 20120 58011=
201008091200 AAXX 09124 67580 41775 40206 10277 20083 48/// 70511 84100
                   333 59009 84856=

################################################################################
#  SYNOPS from 67581, Chipata (Zambia) | 13-33S | 032-35E | 1028 m
################################################################################
201008270600 AAXX 27064 67581 31970 43002 10200 20128 48551 70522 84030
                   333 10278 20156 59020 84360=
201008210600 AAXX 21064 67581 31960 01808 10175 20196 48571 70500
                   333 10310 20149 58019=
201008160600 AAXX 16064 67581 32980 01607 10204 20056 48580
                   333 10278 20102 59003=
201008040600 AAXX 04064 67581 32980 60905 10198 20114 48573 86030
                   333 10277 20164 59013 86359=

################################################################################
#  SYNOPS from 67599, Mfuwe (Zambia) | 13-16S | 031-56E | 568 m
################################################################################
201008290600 AAXX 29064 67599 31958 70000 10214 20124 48569 70522 8703/
                   333 10332 20147 58015 87359 91022=
201008210900 AAXX 21094 67599 41957 02606 10265 20136 48613
                   333 58026=
201008210600 AAXX 21064 67599 31970 00000 10190 20112 48576 70500
                   333 10350 20120 58019=
201008120600 AAXX 12064 67599 32580 70708 10171 20094 48629 875//
                   333 10248 20//0 58023 87620=
201008110600 AAXX 11064 67599 32580 51509 10222 20130 48626 8128/
                   333 10330 20211 58051 81830 85360=

################################################################################
#  SYNOPS from 67633, Mongu (Zambia) | 15-15S | 023-09E | 1052 m
################################################################################
201008270600 AAXX 27064 67633 31960 00904 10165 20057 48531 70500
                   333 10298 20130 59021=
201008231200 AAXX 23124 67633 41965 00904 10320 20008 48529 70500
                   333 59001=
201008210600 AAXX 21064 67633 31970 00906 10205 20023 48542 70500
                   333 10333 20155 59003=
201008171200 AAXX 17124 67633 41970 00903 10300 20007 48551 70500
                   333 59001=
201008160600 AAXX 16064 67633 31970 00904 10160 20041 48551 70500
                   333 10299 20122 59016=
201008111200 AAXX 11124 67633 41870 31014 10273 20045 48592 70500 83100
                   333 58041 83857 91025=
201008110600 AAXX 11064 67633 31975 00904 10155 20044 48584 70500
                   333 10300 20095 58042=
201008061200 AAXX 06124 67633 41975 01206 10304 20088 48549 70500
                   333 58016=
201008040600 AAXX 04064 67633 31975 00908 10160 20097 48549 70500
                   333 10280 20120 59008=

################################################################################
#  SYNOPS from 67641, Kaoma (Zambia) | 14-48S | 024-48E | 1213 m
################################################################################
201008270600 AAXX 27064 67641 31975 00602 10132 20084 48520 70500
                   333 10293 20084 59013=
201008160600 AAXX 16064 67641 31975 01101 10095 20052 48537 70500
                   333 10284 20044 59012=
201008040600 AAXX 04064 67641 31975 00402 10145 20109 48544 70500
                   333 10270 20090 59007=

################################################################################
#  SYNOPS from 67663, Kabwe (Zambia) | 14-27S | 028-28E | 1206 m
################################################################################
201008270600 AAXX 27064 67663 32980 00704 10161 20108 48534
                   333 10263 20106 59016=
201008160600 AAXX 16064 67663 32980 00602 10154 20064 48557
                   333 10253 20084 59008=
201008040600 AAXX 04064 67663 32980 00903 10152 20116 48547
                   333 10259 20106 59081=

################################################################################
#  SYNOPS from 67665, Lusaka Internationalairport (Zambia) | 15-19S | 028-27E | 1152 m
################################################################################
201008310600 AAXX 31064 67665 32980 00808 10165 20092 48563 70200
                   333 10279 20095 59009
                   555 00105=
201008301800 AAXX 30184 67665 42980 11104 10171 20100 48554 81030
                   333 58001 81361=
201008301200 AAXX 30124 67665 42680 40512 10266 20128 48557 84100
                   333 58004 84840 91022=
201008300900 AAXX 30094 67665 42580 10712 10240 20114 48578 81100
                   333 58006 81825=
201008300600 AAXX 30064 67665 31960 10906 10172 20103 48571 70500 81030
                   333 10287 20115 58009 81360=
201008291200 AAXX 29124 67665 41560 10510 10274 20069 48553 70500
                   333 58002 81835 81361=
201008290900 AAXX 29094 67665 41960 10410 10259 20056 48574 70500 81030
                   333 58009 81360 91024=
201008290600 AAXX 29064 67665 31960 00807 10185 20085 48566 70500
                   333 10284 20110 58007
                   555 00099 91024=
201008281800 AAXX 28184 67665 42980 11204 10176 20073 48544 81030
                   333 10284 58006 81360=
201008281500 AAXX 28154 67665 42980 30707 10261 20087 48537 83030
                   333 58009 83360=
201008281200 AAXX 28124 67665 42980 10709 10272 20069 48543 81100
                   333 58008 81859=
201008280600 AAXX 28064 67665 31970 00807 10185 20089 48559 70500
                   333 10282 20120 58005
                   555 00100 91023=
201008280400 AAXX 28044 67665 42980 01303 10135 20080 48535 70200
                   333 59004=
201008280300 AAXX 28034 67665 42980 01303 10122 20094 48529 70200
                   333 59005=
201008280000 AAXX 28004 67665 42980 01304 10121 20094 48527 70200
                   333 59005=
201008272100 AAXX 27214 67665 42980 01503 10154 20090 48533 70200
                   333 59023=
201008271500 AAXX 27154 67665 42980 10810 10253 20066 48527 81030
                   333 59014 81360=
201008271200 AAXX 27124 67665 42980 20711 10270 20056 48535 82100
                   333 59016 82856=
201008270900 AAXX 27094 67665 42680 10609 10246 20089 48561 81100
                   333 59017 81845 91023=
201008270600 AAXX 27064 67665 32980 00907 10164 20128 48550
                   333 10259 20050 59020=
201008270400 AAXX 27044 67665 42980 01403 10110 20104 48535
                   333 59021=
201008270300 AAXX 27034 67665 41960 01304 10108 20108 48533 70500
                   333 59019=
201008262100 AAXX 26214 67665 41960 01203 10133 20103 48545 70500
                   333 59026=
201008260600 AAXX 26064 67665 31970 00806 10147 20112 48565 70500
                   333 10253 20099 59012
                   555 00085=
201008251800 AAXX 25184 67665 41960 00904 10156 20118 48566 70500
                   333 10253 58013=
201008251500 AAXX 25154 67665 41760 30711 10230 20100 48561 70500 83200
                   333 58014 83850=
201008251200 AAXX 25124 67665 41660 50810 10235 20128 48568 70500 85200
                   333 58021 85840=
201008250600 AAXX 25064 67665 31959 10808 10157 20131 48580 70500 81500
                   333 10289 20095 58033 81615
                   555 00087 91026=
201008241200 AAXX 24124 67665 41960 01210 10273 20056 48553 70500
                   333 58020=
201008240900 AAXX 24094 67665 41960 00610 20095 48569 70500
                   333 91027=
201008240600 AAXX 24064 67665 31960 01205 10190 20080 70500
                   333 10301 20100 58016
                   555 00088 91023=
201008240400 AAXX 24044 67665 42960 03402 10104 20069 48529 70500
                   333 58017=
201008240300 AAXX 24034 67665 41960 01304 10140 20061 48533 70500
                   333 58017=
201008240000 AAXX 24004 67665 41960 01403 10111 20071 48520 70500
                   333 58002=
201008232100 AAXX 23214 67665 42960 02101 10141 20060 48529 70500=
201008231200 AAXX 23124 67665 41960 01009 10291 20002 48536 70500
                   333 59004=
201008230600 AAXX 23064 67665 31960 01402 10163 20092 48534 70500
                   333 10299 20090 59024=
201008221800 AAXX 22184 67665 41960 00304 10181 20091 48534 70500
                   333 10299 59016=
201008221500 AAXX 22154 67665 41960 01009 10263 20070 48529 70500
                   333 59021=
201008221200 AAXX 22124 67665 42960 03203 10279 20080 48539
                   333 59023=
201008220900 AAXX 22094 67665 41960 00204 10237 20104 48565 70500
                   333 59019=
201008220600 AAXX 22064 67665 31959 01004 10138 20114 48554 70500
                   333 10273 20090 59015=
201008220400 AAXX 22044 67665 41959 01203 10104 20104 48535 70500
                   333 59012=
201008220300 AAXX 2203/ 67665 41959 01403 10095 20095 48529 70500
                   333 59024=
201008220000 AAXX 22004 67665 41959 01203 10102 20102 48530 70500
                   333 59017=
201008212100 AAXX 21214 67665 41959 01204 10135 20126 48546 70500
                   333 59007=
201008211800 AAXX 21184 67665 41959 01202 10175 20140 48549 70500
                   333 10273 58003=
201008211500 AAXX 21154 67665 41958 00804 10259 20084 48549 70500
                   333 58008=
201008211200 AAXX 21124 67665 42958 00408 10259 20088 48559 70500
                   333 58013=
201008210900 AAXX 21094 67665 42958 00410 10222 20107 48580 70500
                   333 58013=
201008210600 AAXX 21064 67665 31958 00807 10145 20080 48569 70500
                   333 10300 20100 58023=
201008210400 AAXX 21044 67665 41960 00905 10106 20055 48552 70500
                   333 58018=
201008210300 AAXX 21034 67665 41960 00905 10117 20051 48546 70500
                   333 58016=
201008202100 AAXX 20214 67665 41959 01404 10135 20044 48553 70500
                   333 58015=
201008201800 AAXX 20184 67665 41960 00104 10180 20026 48547 70500
                   333 10300 58014=
201008201500 AAXX 20150 67665 41960 00907 10282 20032 48544 70500
                   333 58011=
201008201200 AAXX 20124 67665 41960 00606 10289 20040 48550 70500
                   333 58013=
201008200900 AAXX 20094 67665 41960 00706 10259 20071 48574 70500
                   333 58011=
201008200600 AAXX 20064 67665 31960 00000 10156 20056 48549 70500
                   333 10290 20085 555 00050=
201008200400 AAXX 20044 67665 42970 01103 10072 20050 48529
                   333 58012 91022=
201008191800 AAXX 19184 67665 41960 01104 10176 20050 48534 70500
                   333 10289 59007=
201008191500 AAXX 19154 67665 41959 00605 10277 20040 48529 70500
                   333 59011=
201008191200 AAXX 19124 67665 41960 00906 10276 20056 48536 70500
                   333 59013=
201008190900 AAXX 19094 67665 42960 00607 10238 20062 48560 70500
                   333 59014=
201008181800 AAXX 18184 67665 41959 01204 10159 20089 48538 70500
                   333 10264 59032=
201008181500 AAXX 18154 67665 41959 01208 10253 20052 48536 70500
                   333 59034=
201008181200 AAXX 18124 67665 41959 01208 10250 20083 48545 70500
                   333 59013=
201008180900 AAXX 18094 67665 42980 00410 10215 20080 48571
                   333 59026=
201008180600 AAXX 18064 67665 42980 00410 10215 20080 48571
                   333 59026=
201008180400 AAXX 18044 67665 42980 01104 10065 20065 48545
                   333 59019=
201008180300 AAXX 18034 67665 42980 01004 10061 20061 48538
                   333 59018=
201008180000 AAXX 18004 67665 42980 01203 10081 20056 48549
                   333 59007=
201008172100 AAXX 17214 67665 42980 01305 10099 20058 48563
                   333 58000=
201008171800 AAXX 17184 67665 41970 00904 10141 20044 48565 70500
                   333 10254 58004=
201008171200 AAXX 17124 67665 41970 00411 10240 20029 48574 70500
                   333 58011=
201008170900 AAXX 17094 67665 42980 00612 10213 20036 48595
                   333 58017 91027=
201008161200 AAXX 16124 67665 42980 00711 10276 20004 48568
                   333 59005 91023=
201008160900 AAXX 16094 67665 42980 00708 10239 20030 48582
                   333 59014=
201008160600 AAXX 16064 67665 32980 00903 10129 20054 48566
                   333 10269 20069 59011=
201008160400 AAXX 16044 67665 42980 01402 10062 20040 48547 70200
                   333 59011=
201008160300 AAXX 16034 67665 42980 00000 10078 20045 48549 70200
                   333 59010=
201008160000 AAXX 16004 67665 42980 01403 10094 20054 48552 70200
                   333 59012=
201008152100 AAXX 15214 67665 42980 01403 10104 20041 48561 70200
                   333 59015=
201008151800 AAXX 15184 67665 42980 01205 10144 20039 48560
                   333 10269 59018=
201008151500 AAXX 15154 67665 42980 01008 10250 21010 48564
                   333 59014=
201008151200 AAXX 15124 67665 42980 00907 10245 20054 48569
                   333 59013=
201008150900 AAXX 15094 67665 42980 00808 10196 20077 48590
                   333 59021=
201008150400 AAXX 15044 67665 42980 01503 10061 20051 48559
                   333 59021=
201008150300 AAXX 15034 67665 42980 01503 10069 20045 48556
                   333 59026=
201008142100 AAXX 14214 67665 42980 01105 10101 20061 48575
                   333 59014=
201008141800 AAXX 14184 67665 41980 00904 10128 20070 48576 70500
                   333 59020=
201008141500 AAXX 14154 67665 41980 00608 10215 20053 48575 70500
                   333 59025=
201008140900 AAXX 14094 67665 42580 10710 10175 20083 48607 70100 81100
                   333 59022 81825=
201008140600 AAXX 14064 67665 32480 10805 10098 20072 48592 70300 81500
                   333 10191 20055 59016 81610=
201008131800 AAXX 13184 67665 42980 00706 10113 20085 48591
                   333 59006=
201008131500 AAXX 13154 67665 42980 10811 10176 20055 48592 81030
                   333 59009 81360=
201008131200 AAXX 13124 67665 42680 20714 10175 20060 48595 82100
                   333 59005 82845=
201008130900 AAXX 13094 67665 42680 70614 10146 20060 48622 70222 875//
                   333 59003 87630=
201008130600 AAXX 13064 67665 31460 20611 10105 20084 48609 70500 81530
                   333 10205 20055 59011 81615 81360
                   555 00050=
201008121800 AAXX 12184 67665 42780 01004 10112 20084 48597
                   333 59015 91029=
201008121500 AAXX 12154 67665 42780 20913 10183 20070 48601 70200 82502
                   333 59014 82650 81080 91028=
201008121200 AAXX 12124 67665 42680 60712 10202 20072 48608 70222 85502
                   333 59011 85638 81080 91029=
201008120900 AAXX 12094 67665 42580 60714 10175 20048 48629 85502
                   333 59005 85625 81080=
201008120600 AAXX 12064 67665 32980 30908 10113 20053 48618 80002
                   333 102=
201008120400 AAXX 12044 67665 42980 10607 10072 20072 48602 80001
                   333 58018 81080=
201008120300 AAXX 12034 67665 42980 00804 10008 20073 48603
                   333 58028=
201008120000 AAXX 12004 67665 42980 01304 10097 20077 48587
                   333 58034=
201008111200 AAXX 11124 67665 42580 60615 10204 20119 48619 70222 86500
                   333 58062 86628 91030=
201008110900 AAXX 11094 67665 42580 70613 10174 20101 48634 875//
                   333 58063 87630 91032=
201008110600 AAXX 11064 67665 32480 50713 10166 20106 48620 84530
                   333 10285 20130 58055 84617 84360=
201008101500 AAXX 10154 67665 42980 00910 10247 20051 48564 70500
                   333 58016 91023=
201008101200 AAXX 10124 67665 42980 00911 10262 20062 48568
                   333 58020 91023=
201008100900 AAXX 10094 67665 42980 00912 10249 20066 48586
                   333 58016 91025=
201008100600 AAXX 10064 67665 31970 01304 10160 20087 48566 70500
                   333 10260 20090 58012
                   555 00061 91025=
201008100400 AAXX 10044 67665 42980 01502 10089 20079 48543 70200
                   333 58012=
201008100300 AAXX 10034 67665 42980 01603 10096 20086 48540 70200
                   333 58008=
201008100000 AAXX 10004 67665 42980 01702 10120 20092 48544
                   333 58003=
201008092100 AAXX 09214 67665 42980 01304 10145 20089 48571
                   333 58005=
201008091200 AAXX 09124 67665 41870 10406 10246 20086 48547 70500 81100
                   333 59013 81856=
201008090900 AAXX 09094 67665 41670 30906 10213 20090 48565 70500 83100
                   333 59019 83840=
201008090600 AAXX 09064 67665 31960 01103 10139 20112 48552 70500
                   333 10261 20095 59016=
201008090400 AAXX 09044 67665 42980 01313 10086 20076 48539
                   333 59012=
201008082100 AAXX 08214 67665 41970 01104 10129 20099 48555 70500
                   333 59012=
201008081800 AAXX 08184 67665 41960 00000 10256 20103 48554 70500
                   333 59014=
201008081500 AAXX 08154 67665 41960 00906 10230 20090 48548 70500
                   333 59012=
201008081200 AAXX 08124 67665 41760 30607 10223 20102 48555 70500 83100
                   333 59013 83850=
201008080900 AAXX 08094 67665 41660 30610 10204 20099 48582 70500 83100
                   333 59003 83835=
201008080600 AAXX 08064 67665 31960 00906 10125 20092 48565 70500
                   333 10249 20085 59007
                   555 00084=
201008071800 AAXX 07184 67665 41970 01104 10155 20125 48566 70500
                   333 10249 58004=
201008071500 AAXX 07154 67665 41960 30908 10235 20103 48561 70500 83030
                   333 58005 83360=
201008071200 AAXX 07124 67665 41660 50712 10228 20130 48569 70500 85200
                   333 58010 85845=
201008070900 AAXX 07094 67665 41660 20214 20109 48586 70500 82100
                   333 58007 82830=
201008070600 AAXX 07064 67665 31970 00708 10144 20130 48574 70500
                   333 10265 20099 58008=
201008061800 AAXX 06184 67665 41960 01403 10161 20131 48563 70500
                   333 10265 58011=
201008061500 AAXX 06154 67665 41960 00911 10246 20105 48559 70500
                   333 58013=
201008061200 AAXX 06124 67665 41770 10909 10256 20101 48564 70500 81100
                   333 58015 81850=
201008060900 AAXX 06094 67665 42980 00411 10225 20145 48582
                   333 59023 91025=
201008060600 AAXX 06064 67665 32980 00906 10128 20105 48565
                   333 10264 20089 58013
                   555 00086 91025=
201008060400 AAXX 06044 67665 42980 01204 10103 20103 48595
                   333 58007=
201008060300 AAXX 06034 67665 42980 01303 10112 20112 48541
                   333 58002=
201008060000 AAXX 06004 67665 42980 01304 10113 20113 48541
                   333 59001=
201008052100 AAXX 05214 67665 42980 01103 10129 20129 48556
                   333 59002=
201008051200 AAXX 05124 67665 42680 10508 10249 20108 48548 81100
                   333 59005 81840 91021=
201008050900 AAXX 05094 67665 42480 10411 10223 20142 48568 70300
                   333 59011 81610 91024=
201008050600 AAXX 05064 67665 32480 00907 10139 20105 48554 70200
                   333 10260 20100 59015
                   555 00089 91023=
201008041800 AAXX 04184 67665 42980 00908 10168 20143 48557
                   333 10260 59018=
201008041500 AAXX 04154 67665 42980 30510 10243 20110 48556 83030
                   333 59017 83360=
201008041200 AAXX 04124 67665 42780 30508 10249 20099 48543 83100
                   333 59020 83850=
201008040900 AAXX 04094 67665 42580 40410 10219 20147 48578 84100
                   333 59018 84825=
201008040600 AAXX 04064 67665 32980 00907 10145 20118 48569
                   333 10237 20085 59017=
201008040400 AAXX 04044 67665 42980 11304 10100 20100 48552 70300 81030
                   333 59012 81360=
201008040000 AAXX 04004 67665 42980 01204 10103 20103 48572 70200
                   333 59004=
201008032100 AAXX 03214 67665 42980 01303 10114 20104 48569
                   333 59010=
201008031800 AAXX 03184 67665 42980 01204 10140 20123 48570
                   333 10237 59010=
201008031500 AAXX 03154 67665 42880 60709 10211 20105 48568 86230
                   333 59010 86857 82360=
201008031200 AAXX 03124 67665 42680 60409 10221 20108 48568 86200
                   333 59012 86845=
201008030600 AAXX 03064 67665 32980 20905 10200 20094 48585 82030
                   333 10230 20090 59002 82360
                   555 00075=
201008030400 AAXX 03044 67665 42980 10096 20096 48562 81030
                   333 59006 81359=
201008030300 AAXX 03034 67665 42980 01004 10101 20101 48561
                   333 59001=
201008021800 AAXX 02184 67665 42980 70604 10165 20121 48584 87030
                   333 10230 58009 87360=
201008021500 AAXX 02154 67665 42980 70610 10193 20115 48575 87030
                   333 58007 87360=
201008020900 AAXX 02094 67665 42580 50612 10195 20116 48602 70322 85800
                   333 58007 84825=
201008020600 AAXX 02064 67665 31460 20804 10130 20103 48584 70510 81530
                   333 10232 58010 81610 81360
                   555 00060=
201008011800 AAXX 01184 67665 42980 70905 10165 20112 48575 87030
                   333 10232 58016 87360=
201008011500 AAXX 01154 67665 41780 60606 10194 20099 48570 81230
                   333 58008 81850 86360=
201008011200 AAXX 01124 67665 41680 60409 10205 20089 48570 70422 86800
                   333 58007 83835 83640=
201008010900 AAXX 01094 67665 42580 50913 10175 20114 48591 70222 85800
                   333 58012 83=
201008010600 AAXX 01064 67665 32480 60906 10120 20106 48573 70322 86500
                   333 10219 20079 58011 86615
                   555 00065 91026=

################################################################################
#  SYNOPS from 67666, Lusaka City Airport (Zambia) | 15-25S | 028-19E | 1280 m
################################################################################
201008310600 AAXX 31064 67666 32980 00910 10170 20119 48555
                   333 10270 20130=
201008300900 AAXX 30094 67666 42980 00908 10230 20144 48568
                   333 58005=
201008271200 AAXX 27124 67666 42780 30905 10258 20117 48527 83200
                   333 59012 83850=
201008250600 AAXX 25064 67666 31980 00807 10155 20110 48572 70500
                   333 10280 20120 58030 91025=
201008231200 AAXX 23124 67666 42980 00000 10275 20275 48525
                   333 59006=
201008201200 AAXX 20124 67666 42980 00902 10280 20165 48539
                   333 58008=
201008200900 AAXX 20094 67666 42980 00906 10260 20099 48563
                   333 58014=
201008190900 AAXX 19094 67666 42980 00905 10230 20101 48538
                   333 59014=
201008171200 AAXX 17124 67666 42980 00907 10230 20075 48562
                   333 58011=
201008161200 AAXX 16124 67666 42980 00905 10270 20089 48555
                   333 59001=
201008160600 AAXX 16064 67666 32980 00905 10155 20071 48560
                   333 10255 20095 59019=
201008120600 AAXX 12064 67666 32980 60909 10104 20051 48610 80001
                   333 10240 20065 58007 86080=
201008111200 AAXX 11124 67666 42680 60910 10200 20115 48614 86200
                   333 58065 86834 91030=
201008110600 AAXX 11064 67666 32480 40507 10160 20106 48610 83530
                   333 10260 20140 58052 83615 82362=
201008100600 AAXX 10064 67666 31978 00803 10168 20081 48560 71000
                   333 10244 20085 58012=
201008091200 AAXX 09124 67666 42780 11204 10240 20102 48537 81100
                   333 59011 81855=
201008090900 AAXX 09094 67666 41680 10000 10210 20106 48559 70500 81000
                   333 59017 81840=
201008061200 AAXX 06124 67666 41980 00803 10248 20110 48551 70500
                   333 58015=
201008060600 AAXX 06064 67666 32980 00909 10154 20114 48558
                   333 10254 20110 58011 91024=
201008051200 AAXX 05124 67666 42680 10804 10236 20132 48536 81100
                   333 59009 81832=
201008050600 AAXX 05064 67666 32980 00806 10154 20102 48548
                   333 10250 20110 59016 91020=
201008040900 AAXX 04094 67666 42680 10098 10210 20136 48571 81100
                   333 59014 81830=
201008030600 AAXX 03064 67666 32980 00909 10150 20095 48577
                   333 10210 20095 59004=

################################################################################
#  SYNOPS from 67673, Petauke (Zambia) | 14-15S | 031-17E | 1035 m
################################################################################
201008040900 AAXX 04094 67673 41375 60504 10240 20095 48590 70522
                   333 59016 85830 86360=

################################################################################
#  SYNOPS from 67743, Livingstone (Zambia) | 17-49S | 025-49E | 985 m
################################################################################
201008310600 AAXX 31064 67743 31960 00906 10183 20077 48558 70500
                   333 10300 59008=
201008300900 AAXX 30094 67743 41965 00909 10265 20060 48582 70500
                   333 58009=
201008281200 AAXX 28124 67743 41970 00906 10300 20067 48541
                   333 70500=
201008271200 AAXX 27124 67743 41965 00908 10285 20060 48543 70500
                   333 59012=
201008270600 AAXX 27064 67743 31965 00906 10155 20071 48541 70500
                   333 10295 20/// 59022=
201008240600 AAXX 24064 67743 31970 00000 10149 20039 48538 70500
                   333 10330 20//0 58013 91021=
201008231200 AAXX 23124 67743 41965 00710 10322 21003 48536 70500
                   333 59008=
201008221500 AAXX 22154 67743 41965 00405 10302 20020 48526 70500
                   333 59021=
201008221200 AAXX 22124 67743 41965 00604 10302 20054 48541 70500
                   333 59018=
201008211500 AAXX 21154 67743 31965 01702 10294 20050 48545 70500
                   333 58008=
201008211200 AAXX 21124 67743 41965 00905 10285 20100 48579 70500
                   333 58010=
201008210600 AAXX 21064 67743 31965 01006 10160 20079 48561 70500
                   333 10326 20/// 58022=
201008200900 AAXX 20094 67743 41960 01203 10255 20050 48565 70500
                   333 58009 91022=
201008191200 AAXX 19124 67743 41970 00706 10291 20035 48542 70500
                   333 59013=
201008190900 AAXX 19094 67743 41970 00000 10219 20022 48566 70500
                   333 59029=
201008180600 AAXX 18064 67743 31970 00904 10134 20023 48556 70500
                   333 10290 20/// 59019=
201008161200 AAXX 16124 67743 41970 01903 10287 21020 48570 70500
                   333 59009=
201008160900 AAXX 16094 67743 41970 01203 10241 20/// 48585
                   333 59010=
201008160600 AAXX 16064 67743 31970 00000 10111 20054 48554 70500
                   333 10281 20/// 59013=
201008151500 AAXX 15154 67743 41970 00806 10267 21010 48564 70500
                   333 59020=
201008151200 AAXX 15124 67743 41970 00607 10268 20019 48575 70500
                   333 59015=
201008120600 AAXX 12064 67743 31970 00906 10109 20039 48623 70500
                   333 10240 20//0 58013=
201008080900 AAXX 08094 67743 41975 00906 10216 20074 48585 70500
                   333 59007=
201008080600 AAXX 08064 67743 31975 00903 10140 20084 48564 70500
                   333 10265 20//0 59011
                   555 00/// 91025=
201008070600 AAXX 07064 67743 31975 01008 10166 20057 48581
                   333 10289 20//0 58016
                   555 00///=
201008061500 AAXX 06154 67743 41970 01006 10272 20099 48559 70500
                   333 58015=
201008061200 AAXX 06124 67743 41970 01405 10270 20105 48566 70500
                   333 58018=
201008060600 AAXX 06064 67743 31975 01203 10145 20116 48561 70500
                   333 10280 20//0 58015 91024=
201008041500 AAXX 04154 67743 41775 01048 10259 20103 48549 70500
                   333 59024=
201008041200 AAXX 04124 67743 41775 10407 10263 20103 48557 70500 81100
                   333 59024 81856=
201008031200 AAXX 03124 67743 41775 31006 10244 20071 48576 70500 83100
                   333 59013 83856=

################################################################################
#  SYNOPS from 67751, Magoye (Zambia) | 16-00S | 027-36E | 1018 m
################################################################################
201008160600 AAXX 16064 67751 32980 00902 10146 20059
                   333 10272 20046 58015=

################################################################################
#  SYNOPS from 67753, Choma (Zambia) | 16-50S | 027-04E | 1213 m
################################################################################
201008270600 AAXX 27064 67753 31960 00907 10162 20092 48/// 70500
                   333 10250 20069 5////=
201008160600 AAXX 16064 67753 31960 01004 10129 20077 48/// 70500
                   333 10256 20022 5////=
201008060600 AAXX 06064 67753 31960 01008 10145 20105 70500
                   333 10251 20077=

################################################################################
#  SYNOPS from 67855, Lupaki (Zambia) | 17-03-00S | 024-46-00E | 1000 m
################################################################################
201008310600 AAXX 31064 67855 32980 01702 10140 20044 3//// 48///
                   333 20076 5////=
201008301200 AAXX 30124 67855 42980 01106 10306 20025 3//// 48///
                   333 5////=
201008300600 AAXX 30064 67855 32980 01503 10150 20051 38/// 48///
                   333 20080 5////=
201008291200 AAXX 29124 67855 NIL=
201008290600 AAXX 29064 67855 32975 01101 10134 20079 38/// 48///
                   333 20092 5////=
201008281200 AAXX 28124 67855 42880 20306 10316 20095 38/// 48/// 82100
                   333 5//// 82858=
201008280600 AAXX 28064 67855 32980 01304 10174 20050 3//// 48///
                   333 20080 5////=
201008271200 AAXX 27124 67855 42980 01604 10306 20065 3//// 48///
                   333 5////=
201008270600 AAXX 27064 67855 32980 00000 10126 20063 3//// 48///
                   333 20082 5////=
201008260600 AAXX 26064 67855 NIL=
201008251200 AAXX 25124 67855 NIL=
201008250600 AAXX 25064 67855 32980 01303 10140 20098 3//// 48///
                   333 20087 5////=
201008241200 AAXX 24124 67855 NIL=
201008240600 AAXX 24064 67855 32975 01301 10100 20035 3//// 48///
                   333 20052 5////=
201008231200 AAXX 23124 67855 42980 02008 10326 20030 3//// 48///
                   333 5////=
201008230600 AAXX 23064 67855 32980 00000 10090 20015 3//// 48///
                   333 20045 5////=
201008221200 AAXX 22124 67855 NIL=
201008220600 AAXX 22064 67855 32980 00000 10098 20054 3//// 48///
                   333 20034 5////=
201008211200 AAXX 21124 67855 42980 02502 10276 20105 3//// 48///
                   333 5////=
201008210600 AAXX 21064 67855 32980 00000 10110 20094 3//// 48///
                   333 20073 5////=
201008201200 AAXX 20124 67855 41970 02402 10314 20015 3//// 48/// 70500
                   333 5////=
201008200600 AAXX 20064 67855 32980 02001 10107 20020 3//// 48///
                   333 20045 5////=
201008191200 AAXX 19124 67855 NIL=
201008181200 AAXX 18124 67855 NIL=
201008180600 AAXX 18064 67855 32975 00000 10080 20059 3//// 48///
                   333 20036 5////=
201008171200 AAXX 17124 67855 42980 01403 10278 20076 3//// 48///
                   333 5////=
201008170600 AAXX 17064 67855 32975 01401 10110 20074 3//// 48///
                   333 20080 5////=
201008161200 AAXX 16124 67855 42980 01405 10314 20000 3//// 48///
                   333 5////=
201008160600 AAXX 16064 67855 32980 02001 10064 21026 3//// 48///
                   333 20009 5////=
201008151200 AAXX 15124 67855 NIL=
201008150600 AAXX 15064 67855 NIL=
201008140600 AAXX 14064 67855 32980 01301 10056 20029 3//// 48///
                   333 21005 5////=
201008131200 AAXX 13124 67855 42980 01302 10220 20048 3//// 48///
                   333 5////=
201008130600 AAXX 13064 67855 32980 00000 10046 20023 3//// 48///
                   333 21003 5////=
201008121200 AAXX 12124 67855 42980 02407 10206 20023 3//// 48///
                   333 5////=
201008120600 AAXX 12064 67855 32975 01806 10096 20045 3//// 48///
                   333 20043 5////=
201008111200 AAXX 11124 67855 42980 01508 10226 20069 3//// 48///
                   333 5////=
201008110600 AAXX 11064 67855 31480 21309 10100 20070 3//// 48/// 82500
                   333 20095 5//// 82610=
201008101200 AAXX 10124 67855 NIL=
201008090600 AAXX 09064 67855 31965 01801 10082 20034 3//// 48/// 70500
                   333 20078 5////=
201008081200 AAXX 08124 67855 NIL=
201008080600 AAXX 08064 67855 NIL=
201008071200 AAXX 07124 67855 NIL=
201008070600 AAXX 07064 67855 31970 00000 10108 20070 3//// 48/// 70500
                   333 20060 5////=
201008061200 AAXX 06124 67855 42880 10904 10282 20113 3//// 48/// 81100
                   333 5//// 81857=
201008060600 AAXX 06064 67855 31970 00603 10116 20105 3//// 48/// 70500
                   333 20065 5////=
201008051200 AAXX 05124 67855 NIL=
201008050600 AAXX 05064 67855 31970 01502 10112 20090 3//// 48/// 70511
                   333 20068 5////=
201008041200 AAXX 04124 67855 42780 51503 10258 20115 3//// 48/// 85100
                   333 5//// 85856=
201008040600 AAXX 04064 67855 NIL=
201008030600 AAXX 03064 67855 NIL=
201008021200 AAXX 02124 67855 42880 61603 10248 20063 3//// 48/// 86100
                   333 5//// 86657=
201008020600 AAXX 02064 67855 31970 11201 10100 20063 3//// 48/// 70500 81030
                   333 20045 81360=
201008011200 AAXX 01124 67855 NIL=
201008010600 AAXX 01064 67855 31970 80000 10118 20080 38/// 48/// 70522 8803/
                   333 20070 5//// 88360=
