################################################################################
# Query made at 04/15/2022 01:39:15 UTC
# Country like Zamb*
# Time interval: from 03/01/2011 05:30  to 03/31/2011 06:30  UTC
################################################################################

################################################################################
#  SYNOPS from 67441, Mwinilunga (Zambia) | 11-45S | 024-26E | 1361 m
################################################################################
201103300900 AAXX 30094 67441 42680 40000 10250 20184 48558 84130
                   333 58003 84830 82360=
201103300600 AAXX 30064 67441 32980 10000 10185 20170 48549 80001
                   333 10280 20/// 59011 81080=
201103290600 AAXX 29064 67441 12980 60000 10180 20172 48560 60014 86030
                   333 10270 20/// 59001 86360=
201103280600 AAXX 28064 67441 11480 70000 10182 20175 48561 60574 8113/
                   333 10292 20/// 59012 81818 87360=
201103230600 AAXX 23064 67441 11360 70000 10180 20178 48543 69974 71662 8667/
                   333 10264 20/// 59006 85709 87360=
201103221200 AAXX 22124 67441 42680 70000 10255 20188 48524 8413/
                   333 58005 84830 87362=
201103210900 AAXX 21094 67441 42680 70000 10240 20179 48550 8413/
                   333 5//// 84830 87360=
201103210600 AAXX 21064 67441 11480 70000 10183 20178 48541 60114 72844 81130
                   333 10266 20/// 58023 81818 87360=
201103150600 AAXX 15064 67441 11480 50000 10188 20178 48546 60064 72162 81130
                   333 10300 20/// 58015 81815 85360=
201103140900 AAXX 14094 67441 42680 30000 10268 20188 48535 83100
                   333 5//// 83830=
201103140600 AAXX 14064 67441 11/01 90000 10175 20175 48531 60034 74544 89///
                   333 10260 20/// 5////=

################################################################################
#  SYNOPS from 67461, Mansa (Zambia) | 11-06S | 028-51E | 1382 m
################################################################################
201103300600 AAXX 30064 67461 32580 60902 10202 20184 48517 82508
                   333 10276 20156 59010 82620 86280=
201103210600 AAXX 21064 67461 NIL=
201103140600 AAXX 14064 67461 12980 40904 10225 20194 48506 60024 82031
                   333 10300 20157 58000 82362 83080=

################################################################################
#  SYNOPS from 67475, Kasama (Zambia) | 10-13S | 031-08E | 1382 m
################################################################################
201103290600 AAXX 29064 67475 31480 61210 10200 20187 48537 72842 85502
                   333 10262 20159 5//// 85618 85080=
201103280600 AAXX 28064 67475 12580 70904 10195 20177 48/// 60074 875//
                   333 10255 20155 5//// 87620=
201103210600 AAXX 21064 67475 12380 60104 10184 20173 48516 60154 8257/
                   333 10262 20156 58017 82608 86360=
201103140600 AAXX 14064 67475 12980 51704 10197 20178 48512 69904 81032
                   333 10224 20158 58006 81360 85080=

################################################################################
#  SYNOPS from 67476, Misamfu (Zambia) | 10-06S | 031-15E | 1536 m
################################################################################
201103300600 AAXX 30064 67476 12580 60903 10205 20182 48/// 69904 85530
                   333 10275 20165 59013 85620 83360=
201103230600 AAXX 23064 67476 12480 70000 10193 20186 48/// 60044 72842 82530
                   333 10255 20163 59007 82614 87360=
201103210600 AAXX 21064 67476 12380 80102 10190 20182 48/// 60144 886//
                   333 10320 20144 5//// 88705=

################################################################################
#  SYNOPS from 67477, Mpika (Zambia) | 11-54S | 031-26E | 1400 m
################################################################################
201103300600 AAXX 30064 67477 32480 11206 10205 20156 48537 81130
                   333 10245 20139 59016 81819 81361=
201103290600 AAXX 29064 67477 32480 31205 10196 20171 48537 83130
                   333 10250 20147 59007 83810 81361=
201103140600 AAXX 14064 67477 32480 71205 10218 20179 48517 81107
                   333 10274 20145 58013 81817 87280=

################################################################################
#  SYNOPS from 67531, Zambezi (Zambia) | 13-32S | 023-07E | 1077 m
################################################################################
201103300900 AAXX 30094 67531 42680 11106 10270 20164 48/// 81130
                   333 58006 81841 81362=
201103300600 AAXX 30064 67531 12980 11005 10211 20176 48/// 69914 81030
                   333 10302 20151 59003 81362=
201103290900 AAXX 29094 67531 42580 61108 10264 20196 48/// 86100
                   333 59020 86827=
201103290600 AAXX 29064 67531 11480 20904 10219 20198 48/// 60024 81130
                   333 10295 20172 58001 81811 82362=
201103281200 AAXX 28124 67531 41680 71803 10225 20204 48/// 71799 85232
                   333 81930 85830 82362 81080=
201103280600 AAXX 28064 67531 12980 70304 10214 20193 48/// 69904 8703/
                   333 10300 20180 59005 87362=
201103230600 AAXX 23064 67531 11380 81001 10200 20192 48/// 69914 75052 8777/
                   333 10291 20190 59004 87706 88359=
201103221200 AAXX 22124 67531 41580 62101 10259 20194 48/// 70262 85230
                   333 58014 85826 82361=
201103210900 AAXX 21094 67531 41580 73601 10240 20191 48/// 78022 86831
                   333 5//// 84820 82620 81081=
201103210600 AAXX 21064 67531 12380 70000 10205 20192 48/// 60104 875//
                   333 10295 20174 58018 87608=
201103150900 AAXX 15094 67531 12980 70902 10214 20193 48/// 60154 8707/
                   333 10311 20183 58008 87362=
201103150600 AAXX 15064 67531 12980 70902 10214 20193 48/// 60154 8707/
                   333 10311 20183 58008 87362=
201103140600 AAXX 14064 67531 32980 20905 10231 20203 485// 81130
                   333 10295 20188 5//// 81816 82362=
201103040600 AAXX 04064 67531 11980 70000 10195 20184 48/// 60034 72166 8707/
                   333 10281 20180 58012 87360=

################################################################################
#  SYNOPS from 67541, Kasempa (Zambia) | 13-32S | 025-51E | 1234 m
################################################################################
201103300600 AAXX 30064 67541 NIL=
201103140600 AAXX 14064 67541 NIL=

################################################################################
#  SYNOPS from 67561, Ndola (Zambia) | 13-00S | 028-39E | 1269 m
################################################################################
201103300600 AAXX 30064 67561 31960 00000 10191 20160 48529 70500
                   333 10280 20139 59011=
201103290600 AAXX 29064 67561 11960 31005 10200 20190 48540 70500 81038
                   333 10285 20150 59002 81360 83080=
201103210600 AAXX 21064 67561 11260 70000 10195 20184 48518 60044 70522 83638
                   333 10263 20175 58018 83708 85360 87280=
201103140600 AAXX 14064 67561 32980 40000 10194 20167 48512 82032
                   333 10286 20166 58011 82360 82080=
201103130900 AAXX 13094 67561 41360 70000 10190 20178 48567 70522 83238
                   333 58010 81925 84825 85280=
201103030900 AAXX 03094 67561 41356 80000 10177 20173 48527 76022 8677/
                   333 58020 86708 88459
                   555 91020=

################################################################################
#  SYNOPS from 67571, Serenje (Zambia) | 13-14S | 030-13E | 1384 m
################################################################################
201103300600 AAXX 30064 67571 32984 10907 10200 20146 48522 80001
                   333 10256 20133 59013 81081=
201103151200 AAXX 15124 67571 41580 70903 10262 20174 48494 71799 84261
                   333 58001 81925 84829 81359 83080=

################################################################################
#  SYNOPS from 67580, Msekera (Zambia) | 13-39S | 032-34E | 1025 m
################################################################################
201103300900 AAXX 30094 67580 42680 60904 10270 20180 48/// 86200
                   333 59014 86840=
201103300600 AAXX 30064 67580 32480 21206 10229 20184 48/// 81130
                   333 10282 20154 59019 81816 81360=
201103230600 AAXX 23064 67580 12580 70000 10225 20195 48/// 60314 82538
                   333 10286 20178 59003 82620 86362 87280=
201103210900 AAXX 21094 67580 42680 73002 10270 20206 48/// 86201
                   333 58019 86837 82080=
201103210600 AAXX 21064 67580 12480 72702 10229 20199 48/// 69904 81131
                   333 10285 20170 58022 81817 85361 83080=
201103150600 AAXX 15064 67580 12480 51205 10239 20196 48/// 69944 84831
                   333 10300 20185 59005 83815 81618 81361 81080=
201103091200 AAXX 09124 67580 41670 70904 10218 20209 48/// 79592 8297/
                   333 58007 82935 87460=
201103040600 AAXX 04064 67580 11480 60306 10207 20192 48/// 60144 72842 86531
                   333 10275 20174 58005 86618 82360 81080=

################################################################################
#  SYNOPS from 67581, Chipata (Zambia) | 13-33S | 032-35E | 1028 m
################################################################################
201103300600 AAXX 30064 67581 32680 11801 10224 20172 48539 81130
                   333 10290 20149 59018 81830 81360=
201103290600 AAXX 29064 67581 12582 11506 10215 20164 48554 60154 81100
                   333 10305 20164 59002 81825=
201103280600 AAXX 28064 67581 12680 41606 10227 20180 48558 60254 81102
                   333 10300 20175 59001 81830 83080=
201103210600 AAXX 21064 67581 32580 53601 10227 20202 48531 82232
                   333 10285 20177 58023 82825 84360 81080=
201103140600 AAXX 14064 67581 32680 61003 10235 20197 48534 81102
                   333 10302 20183 58014 81830 85080=

################################################################################
#  SYNOPS from 67599, Mfuwe (Zambia) | 13-16S | 031-56E | 568 m
################################################################################
201103300900 AAXX 30094 67599 42580 31506 10285 20229 48555 83200
                   333 59017 83825=
201103300600 AAXX 30064 67599 32980 01805 10210 20187 48540
                   333 10320 20172 59017=
201103210900 AAXX 21094 67599 42480 70000 10266 20226 48542 70322 872//
                   333 58024 87815=
201103210600 AAXX 21064 67599 12370 80000 10230 20223 48533 60054 875//
                   333 10290 20199 58024 87606=
201103151500 AAXX 15154 67599 42580 72006 10236 20219 48499 8197/
                   333 58010 81925 83832 87460=
201103151200 AAXX 15124 67599 41470 60106 10234 20216 48502 71696 8297/
                   333 59004 82920 85825 86459=
201103150600 AAXX 15064 67599 12380 61905 10232 20221 48532 60094 81570
                   333 10317 20205 58000 81607 82812 86459=
201103091200 AAXX 09124 67599 42580 53106 10304 20214 48512 81931
                   333 59006 819// 83830 82360 85080=

################################################################################
#  SYNOPS from 67633, Mongu (Zambia) | 15-15S | 023-09E | 1052 m
################################################################################
201103300600 AAXX 30064 67633 32980 00903 10202 20158 48531
                   333 10264 20142 59012=
201103290600 AAXX 29064 67633 12982 40903 10224 20196 48438 60074 84030
                   333 10292 20185 58009 84361=
201103280600 AAXX 28064 67633 32982 30904 10235 20192 48502 81032
                   333 10303 20200 59006 81360 83080=
201103210900 AAXX 21094 67633 41582 50203 10254 20206 48520 72582 83232
                   333 58021 83820 84361 83080=
201103210600 AAXX 21064 67633 12382 60802 10217 20201 48504 60014 81532
                   333 10290 20194 58021 81610 86360 83080=
201103140600 AAXX 14064 67633 11982 70000 10215 20202 48498 60044 72162 8707/
                   333 10308 20205 58009 87460=
201103091200 AAXX 09124 67633 42682 60506 10264 20195 48484 83138
                   333 59004 83830 83361 86280=

################################################################################
#  SYNOPS from 67641, Kaoma (Zambia) | 14-48S | 024-48E | 1213 m
################################################################################
201103300600 AAXX 30064 67641 32982 00801 10184 20160 48519
                   333 10300 20132 59009=
201103290600 AAXX 29064 67641 32582 21002 10206 20184 48531 82500
                   333 10310 20175 58001 82640=
201103210600 AAXX 21064 67641 12582 51201 10203 20192 48502 60044 82530
                   333 10271 20185 58020 82640 83360=
201103140600 AAXX 14064 67641 NIL=

################################################################################
#  SYNOPS from 67655, Mumbwa (Zambia) | 15-04S | 027-11E | 1216 m
################################################################################
201103230600 AAXX 23064 67655 12480 63005 10192 20180 48517 60024 81638
                   333 10297 20172 59005 81712 82358 86275=
201103150600 AAXX 15064 67655 11/80 91002 10290 20290 48530 60034 74333 8////
                   333 10286 20160 58008=
201103040600 AAXX 04064 67655 32780 50404 10205 20185 48527 85080
                   333 10273 20174 59013 85356=

################################################################################
#  SYNOPS from 67659, Kafue Polder (Zambia) | 15-46S | 027-55E | 978 m
################################################################################
201103210600 AAXX 21064 67659 32980 70000 10220 20198 48/// 83038
                   333 10300 20154 58022 83361 87280=

################################################################################
#  SYNOPS from 67663, Kabwe (Zambia) | 14-27S | 028-28E | 1206 m
################################################################################
201103300600 AAXX 30064 67663 NIL=
201103280600 AAXX 28064 67663 12480 60803 10204 20187 48494 69944 86500
                   333 10283 20169 59011 86619=
201103210600 AAXX 21064 67663 11580 73605 10182 20172 48519 60104 72992 8387/
                   333 10277 20172 58028 81920 83622 87460=
201103140600 AAXX 14064 67663 12980 40601 10203 20174 48511 6019 82032
                   333 10258 20172 58002 82360 83080=

################################################################################
#  SYNOPS from 67665, Lusaka Internationalairport (Zambia) | 15-19S | 028-27E | 1152 m
################################################################################
201103300900 AAXX 30094 67665 42580 50909 10250 20207 48553 85100
                   333 59012 85821=
201103300600 AAXX 30064 67665 32980 01302 10197 20155 48543
                   333 10273 20144 59019=
201103291800 AAXX 29184 67665 42980 01404 10188 20187 48527
                   333 10273 59013=
201103291500 AAXX 29154 67665 42780 10807 10255 20171 48528 81100
                   333 59006 81850=
201103291200 AAXX 29124 67665 42780 10807 10255 20171 48528 81100
                   333 59006 81850=
201103290900 AAXX 29094 67665 42580 50810 10247 20212 48564 85100
                   333 58002 85825=
201103290600 AAXX 29064 67665 12980 11005 10187 20148 48560 60014 80001
                   333 10269 20138 58008 81080=
201103281800 AAXX 28184 67665 21403 10191 20191 48540 81031
                   333 10269 58000 81360 81080=
201103281500 AAXX 28154 67665 42680 40901 10232 20217 48531 70162 81931
                   333 58000 81945 82850 81360 81080
                   555 10264=
201103281200 AAXX 28124 67665 41680 60806 10242 20182 48542 71722 81901
                   333 59003 81930 86835 81080=
201103280600 AAXX 28064 67665 12380 40909 10206 20190 48555 60054 84501
                   333 10272 20170 59013 84608 81080=
201103250900 AAXX 25094 67665 41558 60407 10241 20226 48526 78082 86200
                   333 59002 86820=
201103250400 AAXX 25044 67665 41959 61502 10181 20181 48515 74242 86030
                   333 58003 86360=
201103242100 AAXX 24214 67665 42780 31202 10201 20201 48509 81932
                   333 59002 81950 81360 82080=
201103241800 AAXX 24184 67665 41680 51703 10204 20104 48507 71322 81932
                   333 59004 81945 82360 84080=
201103241500 AAXX 24154 67665 41680 63004 10241 20227 48486 71522 81932
                   333 59010 81930 83835 81360 84080
                   555 10///=
201103240900 AAXX 24094 67665 42580 60809 10252 20213 48529 85230
                   333 59004 85818 83360=
201103240600 AAXX 24064 67665 12380 41104 10210 20195 48523 60044 84630
                   333 10258 20184 59002 84708 82360=
201103240400 AAXX 24044 67665 41980 50000 10218 20218 48516 71222 85031
                   333 59001 85360 81080=
201103240300 AAXX 24034 67665 42980 50000 10228 20228 48513 85030
                   333 59004 85359=
201103232100 AAXX 23214 67665 42980 21202 10207 20207 48522 82031
                   333 58002 82360 81080=
201103231800 AAXX 23184 67665 42780 71603 10212 20212 48512 81932
                   333 10258 58003 81956 83360 85080=
201103231500 AAXX 23154 67665 42780 71003 10236 20222 48496 81932
                   333 59001 81950 81850 81360 87080=
201103231200 AAXX 23124 67665 42680 73402 10226 20219 48513 82232
                   333 58006 81940 81840 83360 86080=
201103230600 AAXX 23064 67665 12480 72703 10216 20209 48526 60014 81232
                   333 10225 20116 59003 81810 86360 84080=
201103221800 AAXX 22184 67665 42980 10203 20203 48508 81932
                   333 10292 58000 819// 82360 82080=
201103221500 AAXX 22154 67665 41780 71603 10224 20217 48495 71792 81932
                   333 58008 81950 84855 84360 86280=
201103221200 AAXX 22124 67665 41680 53604 10255 20227 48510 72522 81331
                   333 58002 81935 85840 81360 81080=
201103220400 AAXX 22044 67665 41959 50000 10178 20178 48517 74122 83032
                   333 58002 83360 85280 91019=
201103220300 AAXX 22034 67665 42680 22802 10181 20181 48516 81930
                   333 58002 81945 82360=
201103220000 AAXX 22004 67665 41680 20000 10193 20193 48515 71322 81932
                   333 58008 81935 82360 81080=
201103212100 AAXX 21214 67665 42780 40000 10198 20198 48528 70322 81930
                   333 58015 81950 84359=
201103211800 AAXX 21184 67665 41780 32802 10213 20213 48509 71322 81932
                   333 10298 58014 81950 81360 83080=
201103211500 AAXX 21154 67665 41780 61107 10244 20194 48489 72582 82232
                   333 58011 81950 81850 81360 85080=
201103211200 AAXX 21124 67665 42680 50503 10272 20210 48510 85201
                   333 58019 85835 81080=
201103210900 AAXX 21094 67665 42480 50905 10236 20214 48534 83132
                   333 58017 83815 82360 83080=
201103210600 AAXX 21064 67665 32380 53304 10185 20177 48533 83732
                   333 10300 20175 58026 82707 84360 85080=
201103201800 AAXX 20184 67665 42780 40403 10219 20219 48496 70122 81932
                   333 10300 58001 81956 82360 82080=
201103201500 AAXX 20154 67665 41780 40808 10262 20184 48481 71622 81932
                   333 59003 81950 82850 83360 81080
                   555 10300 91013=
201103190600 AAXX 19064 67665 12380 50506 10209 20202 48511 60024 70322 83630
                   333 10265 20171 59016 83708 84360
                   555 00/// 91017=
201103180400 AAXX 18044 67665 42980 71304 10182 20182 48515 87030
                   333 59001 87360=
201103180300 AAXX 18034 67665 42980 61404 10195 20195 48513 86030
                   333 58001 86360=
201103172100 AAXX 17214 67665 42980 51203 10186 20186 48513 85031
                   333 59013 85360 81080=
201103171200 AAXX 17124 67665 41475 71007 10234 20227 48506 72022 8683/
                   333 59009 83612 85815 81360=
201103170900 AAXX 17094 67665 42480 71209 10213 20198 48528 875//
                   333 59012 87610=
201103170600 AAXX 17064 67665 32380 71008 10197 20189 48527 8663/
                   333 10275 20161 59006 86708 83360=
201103170300 AAXX 17034 67665 42380 41105 10182 20185 48512 83532
                   333 59010 83508 83360 82080=
201103170000 AAXX 17004 67665 42480 51110 10194 20194 48515 85531
                   333 85520 82360 81080=
201103162100 AAXX 16214 67665 42980 11102 10188 20188 48527 81030
                   333 59002 81360=
201103161800 AAXX 16184 67665 41780 20802 10198 20191 48517 71300 81930
                   333 59001 81950 82360=
201103161500 AAXX 16154 67665 42680 41009 10260 20217 48503 83232
                   333 58001 81945 83845 81360 81080=
201103161200 AAXX 16124 67665 42680 51208 10261 20205 48518 85802
                   333 59004 85830 81632 81080=
201103151500 AAXX 15154 67665 42580 31110 10261 20183 48502 83201
                   333 59002 83850 81080=
201103151200 AAXX 15124 67665 42680 50805 10277 20177 48525 85100
                   333 59006 85840 81080=
201103150900 AAXX 15094 67665 42580 50910 10252 20231 48547 85802
                   333 58012 83720 83825 82080 91021=
201103150600 AAXX 15064 67665 12380 51007 10208 20208 48538 60014 83632
                   333 10280 20110 58016 83708 82360 82080=
201103150400 AAXX 15044 67665 42/80 51801 10175 20175 48520 71322 81331
                   333 58005 819// 82360 83080=
201103150300 AAXX 15034 67665 41980 30000 10173 20173 48516 71322 83031
                   333 58004 83360 81080 819//=
201103142100 AAXX 14214 67665 42/80 30901 10194 20194 48527 83030
                   333 58005 819// 83360=
201103141500 AAXX 14154 67665 42680 51305 10244 20244 48498 70122 82232
                   333 58003 82845 82360 84080 91016=
201103141200 AAXX 14124 67665 41680 60510 10261 20241 48516 71722 85332
                   333 58004 81930 85835 82360 91017=
201103140900 AAXX 14094 67665 42580 60707 10245 20209 48535 85830
                   333 58017 82825 85627 83360=
201103140600 AAXX 14064 67665 12480 61005 10205 20190 48522 60194 81532
                   333 10280 20175 58010 81610 85360 81080=
201103131800 AAXX 13184 67665 41360 80702 10212 20212 48513 71322 8193/
                   333 10280 58024 81705 81950 87360=
201103130900 AAXX 13094 67665 41580 70204 10235 20221 48516 71622 86830
                   333 58006 82825 85627 84360=
201103130600 AAXX 13064 67665 12380 70902 10205 20195 48512 60054 8563/
                   333 10256 20185 58008 85709 86360=
201103121200 AAXX 12124 67665 41580 63108 10226 20204 48486 72166 84232
                   333 59024 81922 84822 85360 83080=
201103120900 AAXX 12094 67665 41460 70805 10213 20191 48507 70226 86830
                   333 59033 83510 83812 82360 91017=
201103120600 AAXX 12064 67665 12380 73002 10200 20193 48500 60034 70322 83632
                   333 10289 20190 59011 83708 85359 82080
                   555 91017=
201103111200 AAXX 11124 67665 42680 62706 10255 20220 48513 84232
                   333 58006 84830 85360 82080=
201103110900 AAXX 11094 67665 42480 63008 10226 20197 48536 84231
                   333 58005 84819 85360 82080 91020=
201103110400 AAXX 11044 67665 42980 70000 10187 20187 48518 87030
                   333 58002 87360=
201103110300 AAXX 11034 67665 42980 62201 10201 20201 48514 86030
                   333 59001 86360=
201103110000 AAXX 11004 67665 42980 10000 10189 20189 48507 81030
                   333 59002 81360=
201103102100 AAXX 10214 67665 42780 20000 10195 20195 48518 81932
                   333 58008 81950 81360 81080=
201103101800 AAXX 10184 67665 42780 61402 10205 20205 48511 81932
                   333 10297 58001 81956 82360 84080=
201103101500 AAXX 10154 67665 42680 61406 10219 20197 48499 70192 81932
                   333 10297 58017 81948 82360 85080=
201103100900 AAXX 10094 67665 42680 60608 10254 20226 48534 86830
                   333 58011 84632 83835=
201103100600 AAXX 10064 67665 32570 60102 10196 20181 48539 83532
                   333 10287 20170 58013 83620 86360 82080=
201103091800 AAXX 09184 67665 42780 31303 10219 20211 48503 81932
                   333 10287 58009 81956 81360 81080=
201103091500 AAXX 09154 67665 42780 50908 10273 20216 48488 82232
                   333 58000 82850 81360 84080=
201103091200 AAXX 09124 67665 42680 50906 10270 20213 48507 85202
                   333 59003 85845 81080=
201103090400 AAXX 09044 67665 42980 41403 10171 20171 48495 70322 82032
                   333 59008 82360 83080=
201103090300 AAXX 09034 67665 42980 31703 10178 20178 48495 70322 83030
                   333 59008 83360=
201103090000 AAXX 09004 67665 42980 21603 10180 20180 48495 70222 82030
                   333 59003 82360=
201103082100 AAXX 08214 67665 42980 21502 10191 20191 48507 82030
                   333 59016 82360=
201103081500 AAXX 08154 67665 42680 40805 10265 20207 48488 84202
                   333 59009 84850 82080 91014=
201103081200 AAXX 08124 67665 42680 60605 10262 20212 48508 86202
                   333 59001 86840 81080 91016=
201103071800 AAXX 07184 67665 42780 31702 10206 20206 48504 70222 81932
                   333 10287 59005 81950 82360 83080=
201103071500 AAXX 07154 67665 42780 31102 10262 20161 48485 82231
                   333 58001 82850 81360 81080
                   555 10287=
201103071200 AAXX 07124 67665 42680 50506 10272 20206 48511 85200
                   333 59004 81940 85845 91017=
201103070600 AAXX 07064 67665 31370 41104 10221 20221 48529 70244 81631
                   333 10275 20168 58003 83708 83360 82080=
201103051800 AAXX 05184 67665 41760 71303 10232 20232 48519 71366 82332
                   333 58002 81950 86860 84080 91018=
201103050400 AAXX 05044 67665 41/80 61403 10189 20189 48520 71322 81930
                   333 58006 819// 86360=
201103050300 AAXX 05034 67665 41/80 62102 10186 20186 48513 71322 81930
                   333 58004 819// 86360=
201103041800 AAXX 04184 67665 42880 61301 10199 20199 48500 71322 8197/
                   333 58009 81957 86360=
201103041200 AAXX 04124 67665 42680 70307 10257 20216 48511 71522 87830
                   333 59001 83627 85833 83360=
201103040600 AAXX 04064 67665 12980 63304 10205 20201 48531 60114 81532
                   333 10250 20180 58002 81609 85360 82080=
201103030900 AAXX 03094 67665 42480 62606 10220 20220 48530 83232
                   333 58000 83815 85360 86080 91019=
201103030600 AAXX 03064 67665 31358 72610 10182 20182 48534 76162 8557/
                   333 10264 20180 58011 85605 87459
                   555 91020=
201103030400 AAXX 03044 67665 42380 72805 10193 20193 48516 70322 85530
                   333 58007 85607 86360=
201103030300 AAXX 03034 67665 42980 51502 10188 20188 48505 85030
                   333 58001 85360=
201103030000 AAXX 03004 67665 42980 51503 10187 20187 48508 85030
                   333 5//// 85360=
201103022100 AAXX 02214 67665 42780 31102 10195 20195 48518 81930
                   333 58002 81950 83360=
201103021200 AAXX 02124 67665 42680 60608 10255 20220 48509 85230
                   333 58006 85835 83360=
201103011500 AAXX 01154 67665 42680 71203 10225 20194 48496 70222 81938
                   333 58008 81945 83360 87280
                   555 10268=
201103011200 AAXX 01124 67665 41680 71210 10226 20211 48500 71792 81932
                   333 58003 81930 85835 83360 82080 91016=
201103010900 AAXX 01094 67665 42580 60408 10238 20215 48522 86830
                   333 58003 84620 85825 83360=
201103010600 AAXX 01064 67665 12470 70906 10202 20187 48520 60034 8353/
                   333 10285 20109 58002 83610 87359=

################################################################################
#  SYNOPS from 67666, Lusaka City Airport (Zambia) | 15-25S | 028-19E | 1280 m
################################################################################
201103300900 AAXX 30094 67666 42580 30908 10238 20166 48542 83100
                   333 59011 83825=
201103300600 AAXX 30064 67666 32980 00903 10210 20146 48538
                   333 10265 20140 59017=
201103281200 AAXX 28124 67666 42680 61205 10247 20177 48533 81332
                   333 59005 81930 85830 81361 81080=
201103230600 AAXX 23064 67666 32980 71803 10201 20184 48516 83072
                   333 10290 20160 59007 83360 85080=
201103210900 AAXX 21094 67666 42580 50904 10223 20178 48526 83281
                   333 58015 83825 82360 82080=
201103151200 AAXX 15124 67666 42680 40910 10263 20169 48516 84200
                   333 58009 84840=
201103040600 AAXX 04064 67666 12980 70000 10205 20174 48524 60084 8703/
                   333 10261 20150 59013 87361=

################################################################################
#  SYNOPS from 67673, Petauke (Zambia) | 14-15S | 031-17E | 1035 m
################################################################################
201103040600 AAXX 04064 67673 12584 20604 10216 20189 48530 60234 81130
                   333 10283 20169 58001 81820 82362=

################################################################################
#  SYNOPS from 67743, Livingstone (Zambia) | 17-49S | 025-49E | 985 m
################################################################################
201103300900 AAXX 30094 67743 42980 01503 10280 20168 48557
                   333 59013=
201103300600 AAXX 30064 67743 32980 00000 10207 20157 48541
                   333 10317 2//// 59014=
201103290900 AAXX 29094 67743 42680 21009 10280 20160 48569 82100
                   333 58001 82840=
201103290600 AAXX 29064 67743 32980 00907 10208 20174 48555
                   333 10321 20/// 58007=
201103280600 AAXX 28064 67743 12380 11006 10212 20200 48549 60124 81631
                   333 10328 20/// 58000 81709 81360 81080=
201103231200 AAXX 23124 67743 42780 43206 10325 20179 48509 84100
                   333 59002 84856=
201103230600 AAXX 23064 67743 32480 50906 10222 20186 48513 69964 85030
                   333 10315 20/// 59008 85359=
201103221200 AAXX 22124 67743 41680 72704 10311 20200 48507 71722 83902
                   333 58002 81940 83840 84080=
201103210600 AAXX 21064 67743 32980 61006 10217 20196 48516 82031
                   333 10315 20/// 58020 82359 85080=
201103161200 AAXX 16124 67743 42780 40810 10300 20181 48524 84100
                   333 58000 84856=
201103151500 AAXX 15154 67743 41680 70604 10235 20190 48498 72999 81233
                   333 58002 81850 81360 87075=
201103151200 AAXX 15124 67743 42680 40905 10290 20186 48522 82230
                   333 58010 82845 82360=
201103150900 AAXX 15094 67743 12980 20905 10202 20186 48525 60024 81081
                   333 10295 20//0 58019 81359 81080=
201103150600 AAXX 15064 67743 12980 20905 10202 20186 48525 60024 81081
                   333 10295 20/// 58019 81359 81080=
201103140900 AAXX 14094 67743 42580 81204 10265 20191 48531 85531
                   333 58024 85625 84360 81080=
201103140600 AAXX 14064 67743 31380 70903 10210 20203 48522 72890 82631
                   333 10300 20/// 82708 87360 81080=
201103091200 AAXX 09124 67743 42780 63609 10186 48506 85231
                   333 5//// 85850 81360 82080=

################################################################################
#  SYNOPS from 67753, Choma (Zambia) | 16-50S | 027-04E | 1213 m
################################################################################
201103300600 AAXX 30064 67753 32980 00903 10196 20161 48///
                   333 10268 20115 5////=
201103290600 AAXX 29064 67753 32980 20905 10185 20171 48/// 80002
                   333 10246 20145 5//// 82080=
201103280600 AAXX 28064 67753 12380 70605 10201 20188 48/// 69904 81508
                   333 10271 20165 5//// 81614 87280=
201103230600 AAXX 23064 67753 32480 70907 10196 20193 48/// 81588
                   333 10276 20171 5//// 81612 81360 87280=
201103221200 AAXX 22124 67753 41680 73605 10271 20169 48/// 71792 83208
                   333 5//// 81940 83840 87280=
201103210600 AAXX 21064 67753 12980 70905 10202 20185 48/// 69944 80008
                   333 10270 20164 5//// 87280=
201103150900 AAXX 15094 67753 11303 83505 10176 20174 48/// 60304 79192 8277/
                   333 10266 20166 5//// 82708 81912 88459=
201103150600 AAXX 15064 67753 11303 83505 10176 20174 48/// 60304 79192 8277/
                   333 10266 20166 5//// 82708 81912 88459=
201103140600 AAXX 14064 67753 12980 73605 10191 20184 48/// 60124 8707/
                   333 10237 20172 5//// 87459=
201103040600 AAXX 04064 67753 32380 73607 10206 20196 48/// 82538
                   333 10241 20159 5//// 82609 82360 87280=

################################################################################
#  SYNOPS from 67855, Lupaki (Zambia) | 17-03-00S | 024-46-00E | 1000 m
################################################################################
201103310600 AAXX 31064 67855 32980 20703 10194 20160 3//// 48/// 82030
                   333 20142 5//// 82360=
201103301200 AAXX 30124 67855 42680 50701 10308 20176 3//// 48/// 85100
                   333 5//// 85840=
201103300600 AAXX 30064 67855 32980 01601 10178 20136 3//// 48///
                   333 20137 5////=
201103291200 AAXX 29124 67855 42680 31902 10302 20148 38/// 48/// 83100
                   333 5//// 83840=
201103290600 AAXX 29064 67855 32980 00701 10198 20158 38/// 48///
                   333 20152 5////=
201103281200 AAXX 28124 67855 NIL=
201103280600 AAXX 28064 67855 11980 10801 10194 20188 3//// 48/// 60014 72842 80001
                   333 20165 5//// 81080=
201103271200 AAXX 27124 67855 NIL=
201103270600 AAXX 27064 67855 11980 73301 10208 20203 3//// 48/// 60024 72162 8707/
                   333 20187 5//// 87460=
201103261200 AAXX 26124 67855 42680 70801 10272 20213 3//// 48/// 83272
                   333 5//// 83830 85460 87080=
201103260600 AAXX 26064 67855 12980 70000 10208 20203 3//// 48/// 60014 84072
                   333 20198 5//// 84460=
201103251200 AAXX 25124 67855 42680 50202 10310 20181 3//// 48/// 85202
                   333 5//// 85840=
201103250600 AAXX 25064 67855 11580 73401 10202 20184 38/// 48/// 60534 72598 81472
                   333 20174 5//// 81620 83460 87080=
201103241200 AAXX 24124 67855 NIL=
201103240600 AAXX 24064 67855 12980 01301 10210 20192 3//// 48/// 69904
                   333 20180 5////=
201103231200 AAXX 23124 67855 42680 42001 10312 20135 3//// 4//// 84201
                   333 5//// 84840=
201103230600 AAXX 23064 67855 NIL=
201103221200 AAXX 22124 67855 42680 62701 10302 20193 3//// 48/// 85202
                   333 5//// 85840=
201103220600 AAXX 22064 67855 11980 41701 10204 20192 3//// 48/// 69904 72592 84070
                   333 20180 5//// 84460=
201103211200 AAXX 21124 67855 42680 43301 10326 20183 3//// 48/// 83201
                   333 5//// 83840=
201103210600 AAXX 21064 67855 32980 61801 10206 20193 3//// 48/// 83071
                   333 20170 5//// 81360 85080=
201103201200 AAXX 20124 67855 NIL=
201103200600 AAXX 20064 67855 32380 61203 10202 20169 38/// 48/// 86601
                   333 20180 5//// 86707=
201103191200 AAXX 19124 67855 42680 52701 10336 20174 38/// 48/// 85100
                   333 5//// 85840=
201103190600 AAXX 19064 67855 32980 01701 10180 20149 3//// 48///
                   333 20125 5////=
201103181200 AAXX 18124 67855 42680 53101 10326 20202 3//// 48/// 85100
                   333 5//// 85840=
201103180600 AAXX 18064 67855 NIL=
201103171200 AAXX 17124 67855 42680 40302 10299 20159 3//// 48/// 84100
                   333 5//// 84840=
201103170600 AAXX 17064 67855 32980 01201 10196 20159 3//// 48///
                   333 20155 5////=
201103161200 AAXX 16124 67855 42680 50102 10318 20168 3//// 48/// 85200
                   333 5//// 85840=
201103160600 AAXX 16064 67855 32980 40901 10198 20186 3//// 48/// 80001
                   333 20160 5//// 84080=
201103151200 AAXX 15124 67855 NIL=
201103150600 AAXX 15064 67855 12980 20901 10214 20190 38/// 48/// 69904 82031
                   333 20189 5//// 82360=
201103141200 AAXX 14124 67855 41980 60302 10278 20195 38/// 48/// 76065 85072
                   333 5//// 85460=
201103140600 AAXX 14064 67855 12980 70701 10198 20189 3//// 4//// 60054 8703/
                   333 20179 5//// 87360=
201103131200 AAXX 13124 67855 NIL=
201103130600 AAXX 13064 67855 12380 70301 10210 20196 3//// 48/// 69004 876//
                   333 20174 5//// 87707=
201103121200 AAXX 12124 67855 42680 73301 10314 20194 3//// 48/// 84212
                   333 5//// 84840 83080=
201103120600 AAXX 12064 67855 32980 32008 10190 20171 3//// 48/// 80002
                   333 20149 5//// 83080=
201103111200 AAXX 11124 67855 42680 52501 10308 20156 3//// 48/// 84201
                   333 5//// 84840=
201103110600 AAXX 11064 67855 32980 71301 10182 20143 3//// 48/// 80001
                   333 20130 5//// 87080=
201103101200 AAXX 10124 67855 NIL=
201103100600 AAXX 10064 67855 32980 61401 10206 20166 38/// 48/// 80002
                   333 20153 5//// 86080=
201103091200 AAXX 09124 67855 42680 51801 10298 20188 38/// 48/// 85200
                   333 5//// 85840=
201103090600 AAXX 09064 67855 32980 41901 10194 20156 3//// 48/// 80001
                   333 20140 5//// 84080=
201103081200 AAXX 08124 67855 42680 51102 10300 20177 3//// 48/// 85200
                   333 58/// 85840=
201103080600 AAXX 08064 67855 12980 51602 10196 20156 3//// 48/// 60034 82031
                   333 20158 5//// 82360 83080=
201103071200 AAXX 07124 67855 NIL=
201103070600 AAXX 07064 67855 12980 41901 10192 20170 3//// 48/// 60014 83031
                   333 2158/ 5//// 83360=
201103061200 AAXX 06124 67855 NIL=
201103060600 AAXX 06064 67855 12980 40703 10202 20155 3//// 48/// 69904 84030
                   333 20180 5//// 84360=
201103051200 AAXX 05124 67855 41680 53601 10274 20176 3//// 48/// 72582 85200
                   333 5//// 85840=
201103050600 AAXX 05064 67855 12980 12001 10194 20169 3//// 48/// 69904 81030
                   333 20160 5//// 81360=
201103041200 AAXX 04124 67855 41680 63602 10302 20179 3//// 48/// 72992 83202
                   333 5//// 83840 83080=
201103040600 AAXX 04064 67855 12980 4000 10206 20191 3//// 48/// 69904 82031
                   333 20160 5//// 82360=
201103031200 AAXX 03124 67855 41680 53502 10300 20180 3//// 48/// 72582 85200
                   333 5//// 85840=
201103030600 AAXX 03064 67855 32980 20901 10200 20173 3//// 48/// 82030
                   333 20150 5//// 82360=
201103021200 AAXX 02124 67855 42680 60302 10286 20159 3//// 48/// 84230
                   333 5//// 84840=
201103020600 AAXX 02064 67855 32980 62001 10170 20141 3//// 48/// 85071
                   333 20125 5//// 85460=
201103011200 AAXX 01124 67855 42680 20603 10300 20123 3//// 48/// 82100
                   333 5//// 82840=
201103010600 AAXX 01064 67855 32980 21802 10170 20140 3//// 48/// 80002
                   333 20175 5//// 82080=
