################################################################################
# Query made at 04/14/2022 03:56:30 UTC
# Country like Zamb*
# Time interval: from 06/01/2015 05:30  to 07/01/2015 06:30  UTC
################################################################################

################################################################################
#  SYNOPS from 67403, Kawambwa (Zambia) | 09-48S | 029-05E | 1323 m
################################################################################
201507010600 AAXX 01064 67403 31980 00903 10157 20113 48577 70500
                   333 10/// 20126 59002=
201506300600 AAXX 30064 67403 31975 00902 10155 20104 48544 70500
                   333 10/// 20114 58003=
201506290600 AAXX 29064 67403 31980 01204 10166 20089 48545 70500
                   333 10/// 20127 59017=
201506280600 AAXX 28064 67403 NIL=
201506261200 AAXX 26124 67403 NIL=
201506260900 AAXX 26094 67403 NIL=
201506260600 AAXX 26064 67403 31980 00907 10189 20117 48559 70500
                   333 10/// 20154 58001=
201506240600 AAXX 24064 67403 31975 00906 10173 20117 48556 70500
                   333 10//0 20136 59001=
201506190300 AAXX 19034 67403 NIL=
201506180900 AAXX 18094 67403 NIL=
201506180600 AAXX 18064 67403 31975 01202 10152 20104 48521 70500
                   333 10/// 20126 58012=
201506171200 AAXX 17124 67403 NIL=
201506170600 AAXX 17064 67403 31975 02902 10154 20116 48511 70500
                   333 10/// 20109 59019=
201506160900 AAXX 16094 67403 NIL=
201506160600 AAXX 16064 67403 NIL=
201506150600 AAXX 15064 67403 31980 01205 10147 20089 48533
                   333 10/// 20109 59016=
201506120600 AAXX 12064 67403 32980 10903 10146 20099 48538 80001
                   333 10/// 20105 59006 81080=
201506111200 AAXX 11124 67403 NIL=
201506110900 AAXX 11094 67403 NIL=
201506110600 AAXX 11064 67403 31980 10904 10145 20079 48544 70500 80001
                   333 10/// 20111 58012 81080=
201506100900 AAXX 10094 67403 NIL=
201506100600 AAXX 10064 67403 31980 00905 10157 20085 48529 70500
                   333 10/// 20113 59008=
201506091200 AAXX 09124 67403 NIL=
201506080600 AAXX 08064 67403 NIL=
201506080300 AAXX 08034 67403 NIL=
201506071500 AAXX 07154 67403 NIL=
201506030600 AAXX 03064 67403 NIL=

################################################################################
#  SYNOPS from 67413, Mbala (Zambia) | 08-51S | 031-20E | 1673 m
################################################################################
201506290600 AAXX 29064 67413 NIL=
201506280600 AAXX 28064 67413 NIL=
201506261200 AAXX 26124 67413 NIL=
201506260900 AAXX 26094 67413 NIL=
201506190300 AAXX 19034 67413 NIL=
201506180900 AAXX 18094 67413 NIL=
201506171200 AAXX 17124 67413 NIL=
201506160900 AAXX 16094 67413 NIL=
201506160600 AAXX 16064 67413 NIL=
201506111200 AAXX 11124 67413 NIL=
201506110900 AAXX 11094 67413 NIL=
201506100900 AAXX 10094 67413 NIL=
201506091200 AAXX 09124 67413 NIL=
201506080600 AAXX 08064 67413 NIL=
201506080300 AAXX 08034 67413 NIL=
201506071500 AAXX 07154 67413 NIL=
201506030600 AAXX 03064 67413 NIL=

################################################################################
#  SYNOPS from 67441, Mwinilunga (Zambia) | 11-45S | 024-26E | 1361 m
################################################################################
201506290600 AAXX 29064 67441 31970 014// 10115 20080 48590 70500
                   333 10260 20/// 5////=
201506280600 AAXX 28064 67441 NIL=
201506261200 AAXX 26124 67441 NIL=
201506260900 AAXX 26094 67441 NIL=
201506250600 AAXX 25064 67441 31970 000// 10105 20087 48591 70500
                   333 10280 20/// 59006=
201506190300 AAXX 19034 67441 NIL=
201506180900 AAXX 18094 67441 NIL=
201506171200 AAXX 17124 67441 NIL=
201506160900 AAXX 16094 67441 NIL=
201506160600 AAXX 16064 67441 NIL=
201506150600 AAXX 15064 67441 32980 020// 10120 20084 48561 70200
                   333 10255 20/// 5////=
201506120600 AAXX 12064 67441 32980 018// 10182 20/// 48571
                   333 10250 20/// 59001=
201506111200 AAXX 11124 67441 NIL=
201506110900 AAXX 11094 67441 NIL=
201506110600 AAXX 11064 67441 32982 131// 10116 20095 48580 70300 81030
                   333 10275 20//0 58001 81360=
201506100900 AAXX 10094 67441 NIL=
201506100600 AAXX 10064 67441 32982 018// 10140 20106 48562 70200
                   333 10280 20/// 58002=
201506091200 AAXX 09124 67441 NIL=
201506080600 AAXX 08064 67441 NIL=
201506080300 AAXX 08034 67441 NIL=
201506071500 AAXX 07154 67441 NIL=
201506030600 AAXX 03064 67441 NIL=

################################################################################
#  SYNOPS from 67461, Mansa (Zambia) | 11-06S | 028-51E | 1382 m
################################################################################
201506290600 AAXX 29064 67461 NIL=
201506280600 AAXX 28064 67461 NIL=
201506261200 AAXX 26124 67461 NIL=
201506260900 AAXX 26094 67461 NIL=
201506190600 AAXX 19064 67461 32980 20903 10128 20066 48546 80001
                   333 10262 20090 58020 82080 91023=
201506190300 AAXX 19034 67461 NIL=
201506180900 AAXX 18094 67461 NIL=
201506180600 AAXX 18064 67461 32980 01005 10145 20073 48529
                   333 58012 91020=
201506171200 AAXX 17124 67461 NIL=
201506170600 AAXX 17064 67461 32980 00802 10132 20105 48516
                   333 10271 20090 59024 91019=
201506160900 AAXX 16094 67461 NIL=
201506160600 AAXX 16064 67461 NIL=
201506150600 AAXX 15064 67461 32980 00906 10125 20093 48536
                   333 10235 20085 59018 91021=
201506111200 AAXX 11124 67461 NIL=
201506110900 AAXX 11094 67461 NIL=
201506100900 AAXX 10094 67461 NIL=
201506100600 AAXX 10064 67461 32980 01005 10145 20104 48550
                   333 10271 20095 58001 91023=
201506091200 AAXX 09124 67461 NIL=
201506080600 AAXX 08064 67461 NIL=
201506080300 AAXX 08034 67461 NIL=
201506071500 AAXX 07154 67461 NIL=
201506040600 AAXX 04064 67461 32980 00000 10172 20124 48532
                   333 10277 20124 58002
                   555 00/// 91020=
201506030600 AAXX 03064 67461 32980 00802 10163 20138 48533
                   333 10282 20118 555 00/// 91020=

################################################################################
#  SYNOPS from 67475, Kasama (Zambia) | 10-13S | 031-08E | 1382 m
################################################################################
201507010600 AAXX 01064 67475 32975 11213 10157 20126 48556 70500 80001
                   333 10263 20116 59007 81080 91024=
201506301500 AAXX 30154 67475 41775 21009 10241 20124 48531 70500 82060
                   333 59015 82356 91021=
201506300600 AAXX 30064 67475 31975 01313 10173 20110 48564 70500
                   333 10251 20107 59005 91025=
201506290600 AAXX 29064 67475 32980 00504 10257 20113 48568 70200
                   333 10252 20089 59003 91026=
201506280600 AAXX 28064 67475 NIL=
201506261200 AAXX 26124 67475 NIL=
201506260900 AAXX 26094 67475 NIL=
201506260600 AAXX 26064 67475 31975 10411 10186 20134 48576 70500 81030
                   333 10278 20117 58004 81360 91026=
201506251200 AAXX 25124 67475 42780 42107 10265 20/// 48549 84200
                   333 59004 84856 91023=
201506240900 AAXX 24094 67475 42780 20814 10243 20126 48570 82200
                   333 59001 82850 91025=
201506190900 AAXX 19094 67475 41975 21215 10210 20077 48563 70510 80001
                   333 58022 82080 91025=
201506190300 AAXX 19034 67475 NIL=
201506180900 AAXX 18094 67475 41975 01612 10226 20081 48543 70500
                   333 58023 91022=
201506180600 AAXX 18064 67475 31970 03602 10167 20092 48537 70500
                   333 10266 20086 58015 91022=
201506171200 AAXX 17124 67475 41975 02512 10252 20072 48502 70400
                   333 59015 91017=
201506160900 AAXX 16094 67475 NIL=
201506160600 AAXX 16064 67475 NIL=
201506150600 AAXX 15064 67475 32980 00704 10148 20090 48547
                   333 10240 20073 59014 91023=
201506120600 AAXX 12064 67475 32980 20908 10150 20101 48548 70300 80001
                   333 10259 20087 59005 82080 91023=
201506111200 AAXX 11124 67475 42980 31004 10241 20105 48527 70300 80001
                   333 59005 81080 91020=
201506110900 AAXX 11094 67475 42980 10911 10214 20109 48549 70200 80001
                   333 59003 81080 91023=
201506110600 AAXX 11064 67475 32980 21303 10142 20105 48553 70300 80004
                   333 10251 20076 59005 82080 91024=
201506100900 AAXX 10094 67475 NIL=
201506100600 AAXX 10064 67475 31978 01013 10164 20074 48559 70500
                   333 10265 20111 58005 91025=
201506091200 AAXX 09124 67475 42880 11618 10256 20082 48536 81100
                   333 58009 81857 91021=
201506090600 AAXX 09064 67475 31975 11312 10186 20112 48556 70500 80001
                   333 10265 20122 58001 81080=
201506080600 AAXX 08064 67475 NIL=
201506080300 AAXX 08034 67475 NIL=
201506071500 AAXX 07154 67475 NIL=
201506030600 AAXX 03064 67475 NIL=

################################################################################
#  SYNOPS from 67476, Misamfu (Zambia) | 10-06S | 031-15E | 1536 m
################################################################################
201506290600 AAXX 29064 67476 32980 00901 10128 20101 48///
                   333 10276 20078 5////=
201506280600 AAXX 28064 67476 NIL=
201506261200 AAXX 26124 67476 NIL=
201506260900 AAXX 26094 67476 NIL=
201506190300 AAXX 19034 67476 NIL=
201506180900 AAXX 18094 67476 NIL=
201506171200 AAXX 17124 67476 NIL=
201506160900 AAXX 16094 67476 NIL=
201506160600 AAXX 16064 67476 NIL=
201506150600 AAXX 15064 67476 32980 00902 10125 20076 48///
                   333 10253 20060 5////=
201506111200 AAXX 11124 67476 NIL=
201506110900 AAXX 11094 67476 NIL=
201506100900 AAXX 10094 67476 NIL=
201506091200 AAXX 09124 67476 NIL=
201506090600 AAXX 09064 67476 32980 01201 10173 20127 48///
                   333 10268 20115 58000=
201506080600 AAXX 08064 67476 NIL=
201506080300 AAXX 08034 67476 NIL=
201506071500 AAXX 07154 67476 NIL=
201506030600 AAXX 03064 67476 NIL=

################################################################################
#  SYNOPS from 67477, Mpika (Zambia) | 11-54S | 031-26E | 1400 m
################################################################################
201507010600 AAXX 01064 67477 32980 01204 10160 20/// 48566
                   333 10240 20120 58002=
201506300600 AAXX 30064 67477 32980 00000 10145 20/// 48564
                   333 10240 20110 59010=
201506290600 AAXX 29064 67477 32980 00000 10140 20/// 48563
                   333 10238 20090 59003=
201506280600 AAXX 28064 67477 NIL=
201506261200 AAXX 26124 67477 NIL=
201506260900 AAXX 26094 67477 NIL=
201506260600 AAXX 26064 67477 31978 00902 10180 20/// 48578 70500
                   333 10266 20138 58005=
201506240600 AAXX 24064 67477 32980 00000 10160 20/// 48571
                   333 10240 20125 59002=
201506190300 AAXX 19034 67477 NIL=
201506180900 AAXX 18094 67477 NIL=
201506180600 AAXX 18064 67477 32980 00000 10160 20/// 48539
                   333 10225 20105 58014=
201506171200 AAXX 17124 67477 NIL=
201506170600 AAXX 17064 67477 32980 00000 10173 20/// 48526
                   333 10260 20072 59022=
201506160900 AAXX 16094 67477 NIL=
201506160600 AAXX 16064 67477 NIL=
201506150600 AAXX 15064 67477 32980 01204 10140 20/// 48550
                   333 10210 20095 59011=
201506120600 AAXX 12064 67477 32980 01201 10150 20/// 48557
                   333 10235 20100 59003=
201506111200 AAXX 11124 67477 NIL=
201506110900 AAXX 11094 67477 NIL=
201506100900 AAXX 10094 67477 NIL=
201506100600 AAXX 10064 67477 32980 01206 10160 20/// 48564
                   333 10230 20090 58004=
201506091200 AAXX 09124 67477 NIL=
201506080600 AAXX 08064 67477 NIL=
201506080300 AAXX 08034 67477 NIL=
201506071500 AAXX 07154 67477 NIL=
201506030600 AAXX 03064 67477 NIL=

################################################################################
#  SYNOPS from 67481, Isoka (Zambia) | 10-07S | 032-38E | 1360 m
################################################################################
201507010600 AAXX 01064 67481 31375 61201 10165 20140 48/// 70522
                   333 10262 20130 59001 86706=
201506300600 AAXX 30064 67481 31975 02401 10170 20124 48/// 70500
                   333 10257 20125 59009=
201506290600 AAXX 29064 67481 31975 01901 10165 20116 48/// 70500
                   333 10255 20109 58000=
201506280600 AAXX 28064 67481 NIL=
201506261200 AAXX 26124 67481 NIL=
201506260900 AAXX 26094 67481 42675 11402 10243 20125 48/// 70500 81500
                   333 58007 81645=
201506260600 AAXX 26064 67481 31975 00000 10204 20131 48/// 70500
                   333 10275 20125 58002=
201506250600 AAXX 25064 67481 31975 00000 10209 20144 48/// 70500
                   333 10267 20110 5////=
201506240600 AAXX 24064 67481 31975 00000 10182 20146 48/// 70500
                   333 10264 20130 5////=
201506190300 AAXX 19034 67481 NIL=
201506180900 AAXX 18094 67481 NIL=
201506180600 AAXX 18064 67481 31975 01602 10175 20080 48/// 70500
                   333 10267 20100 58019=
201506171200 AAXX 17124 67481 NIL=
201506170600 AAXX 17064 67481 31975 01201 10178 20108 48/// 70500
                   333 10259 20100 59022=
201506160900 AAXX 16094 67481 NIL=
201506160600 AAXX 16064 67481 NIL=
201506150600 AAXX 15064 67481 31975 00000 10153 20100 48/// 70400
                   333 10230 20080 59011=
201506120600 AAXX 12064 67481 31975 23501 10155 20101 48/// 70500 80001
                   333 10250 20107 58000 82080=
201506111200 AAXX 11124 67481 NIL=
201506110900 AAXX 11094 67481 NIL=
201506110600 AAXX 11064 67481 32980 00901 10159 20114 48///
                   333 10244 20100 5////=
201506100900 AAXX 10094 67481 NIL=
201506100600 AAXX 10064 67481 31975 00701 10160 20086 48/// 70500
                   333 10250 20104 5////=
201506091200 AAXX 09124 67481 41775 11002 10243 20104 48/// 70400 81100
                   333 5//// 81850=
201506090600 AAXX 09064 67481 31375 10803 10171 20140 48/// 70500 81500
                   333 10255 20126 5//// 81609=
201506080600 AAXX 08064 67481 NIL=
201506080300 AAXX 08034 67481 NIL=
201506071500 AAXX 07154 67481 NIL=
201506030600 AAXX 03064 67481 NIL=

################################################################################
#  SYNOPS from 67531, Zambezi (Zambia) | 13-32S | 023-07E | 1077 m
################################################################################
201506290600 AAXX 29064 67531 NIL=
201506280600 AAXX 28064 67531 NIL=
201506261200 AAXX 26124 67531 NIL=
201506260900 AAXX 26094 67531 NIL=
201506250600 AAXX 25064 67531 31960 00000 10110 20094 48/// 70500
                   333 10280 20065 59003=
201506190600 AAXX 19064 67531 32980 00905 10101 20056 48///
                   333 10275 20025 58024=
201506190300 AAXX 19034 67531 NIL=
201506180900 AAXX 18094 67531 NIL=
201506171200 AAXX 17124 67531 NIL=
201506160900 AAXX 16094 67531 NIL=
201506160600 AAXX 16064 67531 NIL=
201506150600 AAXX 15064 67531 32980 01103 10115 20082 48///
                   333 10258 20052 59014=
201506120600 AAXX 12064 67531 32980 01005 10144 20075 48///
                   333 10278 20077 5////=
201506111200 AAXX 11124 67531 NIL=
201506110900 AAXX 11094 67531 NIL=
201506110600 AAXX 11064 67531 31970 10903 10152 20099 48/// 70500 81030
                   333 10280 20105 5//// 81362=
201506100900 AAXX 10094 67531 NIL=
201506100600 AAXX 10064 67531 31965 01002 10130 20113 48/// 70500
                   333 10282 20080 58002=
201506091200 AAXX 09124 67531 NIL=
201506080600 AAXX 08064 67531 NIL=
201506080300 AAXX 08034 67531 NIL=
201506071500 AAXX 07154 67531 NIL=
201506030600 AAXX 03064 67531 NIL=

################################################################################
#  SYNOPS from 67541, Kasempa (Zambia) | 13-32S | 025-51E | 1234 m
################################################################################
201506290600 AAXX 29064 67541 NIL=
201506280600 AAXX 28064 67541 NIL=
201506261200 AAXX 26124 67541 NIL=
201506260900 AAXX 26094 67541 NIL=
201506190300 AAXX 19034 67541 NIL=
201506180900 AAXX 18094 67541 NIL=
201506171200 AAXX 17124 67541 NIL=
201506160900 AAXX 16094 67541 NIL=
201506160600 AAXX 16064 67541 NIL=
201506150600 AAXX 15064 67541 31965 00000 10122 20076 48540 70500
                   333 10/// 20/// 59010=
201506120600 AAXX 12064 67541 31970 00000 10115 20086 48539 70500
                   333 10/// 20/// 59011=
201506111200 AAXX 11124 67541 NIL=
201506110900 AAXX 11094 67541 NIL=
201506100900 AAXX 10094 67541 NIL=
201506100600 AAXX 10064 67541 32980 10000 10146 20101 48547 70222 80001
                   333 10/// 20/// 58010 81080=
201506091200 AAXX 09124 67541 NIL=
201506080600 AAXX 08064 67541 NIL=
201506080300 AAXX 08034 67541 NIL=
201506071500 AAXX 07154 67541 NIL=
201506030600 AAXX 03064 67541 NIL=

################################################################################
#  SYNOPS from 67543, Kabompo (Zambia) | 13-36S | 024-12E | 1075 m
################################################################################
201506290600 AAXX 29064 67543 31975 0//00 10108 20081 48/// 70500
                   333 10300 20/// 5////=
201506280600 AAXX 28064 67543 NIL=
201506261200 AAXX 26124 67543 NIL=
201506260900 AAXX 26094 67543 NIL=
201506190300 AAXX 19034 67543 NIL=
201506180900 AAXX 18094 67543 NIL=
201506171200 AAXX 17124 67543 NIL=
201506160900 AAXX 16094 67543 NIL=
201506160600 AAXX 16064 67543 NIL=
201506120600 AAXX 12064 67543 31975 0//// 10111 20086 48/// 70500
                   333 10290 20/// 5////=
201506111200 AAXX 11124 67543 NIL=
201506110900 AAXX 11094 67543 NIL=
201506110600 AAXX 11064 67543 31975 0//00 10142 20103 48/// 70500
                   333 10292 20//0 5////=
201506100900 AAXX 10094 67543 NIL=
201506100600 AAXX 10064 67543 31975 0//00 10130 20105 48/// 70500
                   333 10290 20/// 5////=
201506091200 AAXX 09124 67543 NIL=
201506080600 AAXX 08064 67543 NIL=
201506080300 AAXX 08034 67543 NIL=
201506071500 AAXX 07154 67543 NIL=
201506030600 AAXX 03064 67543 NIL=

################################################################################
#  SYNOPS from 67551, Solwezi (Zambia) | 12-11S | 026-23E | 1386 m
################################################################################
201506290600 AAXX 29064 67551 NIL=
201506280600 AAXX 28064 67551 NIL=
201506261200 AAXX 26124 67551 NIL=
201506260900 AAXX 26094 67551 NIL=
201506190300 AAXX 19034 67551 NIL=
201506180900 AAXX 18094 67551 NIL=
201506171200 AAXX 17124 67551 NIL=
201506160900 AAXX 16094 67551 NIL=
201506160600 AAXX 16064 67551 NIL=
201506120600 AAXX 12064 67551 31958 00000 10134 20093 48535 70500
                   333 10243 20079 59016 91022=
201506111200 AAXX 11124 67551 NIL=
201506110900 AAXX 11094 67551 NIL=
201506100900 AAXX 10094 67551 NIL=
201506100600 AAXX 10064 67551 31958 00000 10139 20108 48547 70500 80000
                   333 10262 20103 58006
                   555 00/// 20000 91022=
201506091200 AAXX 09124 67551 NIL=
201506080600 AAXX 08064 67551 NIL=
201506080300 AAXX 08034 67551 NIL=
201506071500 AAXX 07154 67551 NIL=
201506030600 AAXX 03064 67551 NIL=

################################################################################
#  SYNOPS from 67561, Ndola (Zambia) | 13-00S | 028-39E | 1269 m
################################################################################
201506300600 AAXX 30064 67561 31959 00000 10133 20080 48561 70400
                   333 10255 20063 59008
                   555 00/// 91025=
201506290600 AAXX 29064 67561 NIL=
201506280600 AAXX 28064 67561 31958 00000 10131 20087 48569 70400
                   333 10255 20076 50004
                   555 91026=
201506261200 AAXX 26124 67561 NIL=
201506260900 AAXX 26094 67561 41970 00811 10264 20094 48576 70500
                   333 58002 91025=
201506260600 AAXX 26064 67561 31959 10000 10157 20121 48568 70400 81030
                   333 10282 20106 58002 81360
                   555 91025=
201506250600 AAXX 25064 67561 31958 30000 10140 20122 48565 70411 83030
                   333 10271 20106 59004 83360
                   555 00/// 91025=
201506241200 AAXX 24124 67561 41770 60000 10262 20100 48556 70522 86100
                   333 58000 86856 555 91023=
201506240600 AAXX 24064 67561 41958 00000 10138 20113 48568 70400
                   333 10266 20095 59003
                   555 00/// 91025=
201506200600 AAXX 20064 67561 31960 00000 10135 20097 48575 70500
                   333 10257 20079 58018
                   555 00/// 91026=
201506190600 AAXX 19064 67561 31960 00000 10168 20057 48561 70500
                   333 10262 20096 58020
                   555 91024=
201506190300 AAXX 19034 67561 41960 00000 10108 20040 48542 70500
                   333 58026 555 91023=
201506181200 AAXX 18124 67561 41975 00705 10255 20056 48527 70500
                   333 58016 91019=
201506180900 AAXX 18094 67561 NIL=
201506180600 AAXX 18064 67561 31957 00000 10102 20071 48529 70400
                   333 10250 20048 58013
                   555 00/// 91021=
201506171200 AAXX 17124 67561 NIL=
201506170600 AAXX 17064 67561 31957 00000 10108 20075 48518 70400
                   333 10259 20055 59022
                   555 00/// 91020=
201506161200 AAXX 16124 67561 41970 03003 10252 20077 48521 70500
                   333 59011 91019=
201506160900 AAXX 16094 67561 41965 00000 10220 20084 48548 70500
                   333 59008 555 91022=
201506160600 AAXX 16064 67561 NIL=
201506140600 AAXX 14064 67561 31959 00000 10117 20086 48560 70400
                   333 10256 20067 58006
                   555 00/// 91025=
201506121200 AAXX 12124 67561 41970 00000 10245 20104 48537 70500
                   333 59003 555 91021=
201506120600 AAXX 12064 67561 31958 10000 10114 20098 48548 70400 80002
                   333 10244 20074 59006 81080
                   555 00/// 91023=
201506111200 AAXX 11124 67561 41970 01104 10236 20094 48539 70500
                   333 59001 91021=
201506110900 AAXX 11094 67561 NIL=
201506110600 AAXX 11064 67561 31960 00000 10125 20100 48554 70500
                   333 10275 20070 59001
                   555 00/// 91024=
201506100900 AAXX 10094 67561 41970 00905 10212 20092 48566 70500
                   333 58013 91024=
201506100600 AAXX 10064 67561 41960 00000 10136 20088 48557 70500
                   333 10262 20084 58011
                   555 91024=
201506091200 AAXX 09124 67561 NIL=
201506090600 AAXX 09064 67561 31959 00000 10139 20113 48546 70400
                   333 10267 20096 59002
                   555 00/// 91023=
201506080600 AAXX 08064 67561 31959 10000 10147 20130 48548 70411 81030
                   333 10273 20117 58000 81360
                   555 00/// 91023=
201506080300 AAXX 08034 67561 41960 50000 10132 20128 48532 70722 85030=
201506071500 AAXX 07154 67561 42780 40000 10251 20145 48526 84430
                   333 59001 84656 81360=
201506050600 AAXX 05064 67561 31960 30000 10161 20112 48522 70500 80001
                   333 10285 20105 59006 83080
                   555 91020=
201506030600 AAXX 03064 67561 NIL=
201506010600 AAXX 01064 67561 31959 10000 10161 20137 48526 70400 80002
                   333 10274 20111 59008 81080
                   555 00/// 91020=

################################################################################
#  SYNOPS from 67563, Kafironda (Zambia) | 12-36S | 028-07E | 1243 m
################################################################################
201506290600 AAXX 29064 67563 NIL=
201506280600 AAXX 28064 67563 NIL=
201506261200 AAXX 26124 67563 NIL=
201506260900 AAXX 26094 67563 NIL=
201506190300 AAXX 19034 67563 NIL=
201506180900 AAXX 18094 67563 NIL=
201506171200 AAXX 17124 67563 NIL=
201506160900 AAXX 16094 67563 NIL=
201506160600 AAXX 16064 67563 NIL=
201506111200 AAXX 11124 67563 NIL=
201506110900 AAXX 11094 67563 NIL=
201506100900 AAXX 10094 67563 NIL=
201506091200 AAXX 09124 67563 NIL=
201506080600 AAXX 08064 67563 NIL=
201506080300 AAXX 08034 67563 NIL=
201506071500 AAXX 07154 67563 NIL=
201506030600 AAXX 03064 67563 NIL=

################################################################################
#  SYNOPS from 67571, Serenje (Zambia) | 13-14S | 030-13E | 1384 m
################################################################################
201507010600 AAXX 01064 67571 32980 01506 10136 20084 48558 70500
                   333 10242 20112 58003=
201506300900 AAXX 30094 67571 42980 01508 10215 20076 48563 70500
                   333 59004=
201506300600 AAXX 30064 67571 32980 01206 10164 20078 48559 70500
                   333 10245 20121 59009=
201506290600 AAXX 29064 67571 32982 01505 10150 20063 48568
                   333 10250 20115 58002=
201506280600 AAXX 28064 67571 NIL=
201506261200 AAXX 26124 67571 42680 41208 10244 20091 48554 70511 84200
                   333 58008 84845=
201506260900 AAXX 26094 67571 42680 10606 10245 20104 48575 70500 81200
                   333 58005 81832=
201506260600 AAXX 26064 67571 32980 11206 10190 20091 48571 70500 81030
                   333 10285 20152 58003 81360=
201506251200 AAXX 25124 67571 42680 42705 10275 20084 48546 70500 84200
                   333 59001 84840=
201506240600 AAXX 24064 67571 32980 01204 10170 20131 48569 70500
                   333 10250 20134 59004=
201506231200 AAXX 23124 67571 42982 41506 10225 20122 48543 84200
                   333 59010 84836=
201506190900 AAXX 19094 67571 42980 00912 10205 20057 48572 70500
                   333 58030=
201506190300 AAXX 19034 67571 NIL=
201506180900 AAXX 18094 67571 NIL=
201506180600 AAXX 18064 67571 32980 00902 10150 20076 48529 70500
                   333 10255 20044 58017=
201506171200 AAXX 17124 67571 NIL=
201506160900 AAXX 16094 67571 42982 02706 10212 20080 48532
                   333 59012=
201506160600 AAXX 16064 67571 NIL=
201506150600 AAXX 15064 67571 32980 01506 10140 20073 48538 70500
                   333 10215 20107 59014=
201506120600 AAXX 12064 67571 32982 01206 10141 20087 48548
                   333 10/// 20/// 59004=
201506111200 AAXX 11124 67571 NIL=
201506110900 AAXX 11094 67571 42582 21208 10190 20087 48561 70300 82500
                   333 58001 82628=
201506110600 AAXX 11064 67571 32982 11206 10142 20090 48548
                   333 10220 20099 58001 81081=
201506100900 AAXX 10094 67571 42982 00908 10200 20080 48552
                   333 58004=
201506100600 AAXX 10064 67571 32981 01208 10137 20079 48548 70500
                   333 10229 20069 58003=
201506091200 AAXX 09124 67571 42981 01210 10221 20086 48533 70500
                   333 58011=
201506090600 AAXX 09064 67571 32981 01208 10155 20103 48549 70500
                   333 10253 20131 58004=
201506080600 AAXX 08064 67571 NIL=
201506080300 AAXX 08034 67571 NIL=
201506071500 AAXX 07154 67571 NIL=
201506030600 AAXX 03064 67571 NIL=

################################################################################
#  SYNOPS from 67575, Mkushi (Zambia) | 13-38-00S | 029-26-00E | 1237 m
################################################################################
201507010600 AAXX 01064 67575 32975 01006 10164 20083 48/// 70500
                   333 10252 20100 5////=
201506300600 AAXX 30064 67575 32975 01202 10154 20084 48/// 70500
                   333 10255 20090 5////=
201506290600 AAXX 29064 67575 32975 01602 10139 20050 48/// 70500
                   333 10250 20055 5////=
201506280600 AAXX 28064 67575 NIL=
201506261200 AAXX 26124 67575 NIL=
201506260900 AAXX 26094 67575 NIL=
201506260600 AAXX 26064 67575 32975 10000 10192 20128 48/// 70500 81030
                   333 10295 20114 5//// 81360=
201506240600 AAXX 24064 67575 32975 01203 10164 20116 48/// 70500
                   333 10270 20115 5////=
201506190300 AAXX 19034 67575 NIL=
201506180900 AAXX 18094 67575 NIL=
201506171200 AAXX 17124 67575 NIL=
201506160900 AAXX 16094 67575 NIL=
201506160600 AAXX 16064 67575 NIL=
201506120600 AAXX 12064 67575 32975 01202 10155 20094 48/// 70500
                   333 10250 20090 5////=
201506111200 AAXX 11124 67575 NIL=
201506110900 AAXX 11094 67575 NIL=
201506110600 AAXX 11064 67575 32975 01604 10150 20077 48/// 70500
                   333 10247 20080 5////=
201506100900 AAXX 10094 67575 NIL=
201506100600 AAXX 10064 67575 32975 00902 10141 20080 48/// 70500
                   333 10260 20070 5////=
201506091200 AAXX 09124 67575 NIL=
201506090600 AAXX 09064 67575 32975 01204 10165 20102 48/// 70500
                   333 10270 20097 5////=
201506080600 AAXX 08064 67575 NIL=
201506080300 AAXX 08034 67575 NIL=
201506071500 AAXX 07154 67575 NIL=
201506030600 AAXX 03064 67575 NIL=

################################################################################
#  SYNOPS from 67580, Msekera (Zambia) | 13-39S | 032-34E | 1025 m
################################################################################
201507010600 AAXX 01064 67580 31975 71502 10171 20111 48/// 70522 8703/
                   333 10276 20/// 5//// 87360=
201506301200 AAXX 30124 67580 41675 71203 10264 20116 48/// 84130
                   333 59005 84840 83360=
201506300900 AAXX 30094 67580 41675 61204 10230 20111 48/// 70511 84830
                   333 58002 83830 81632 82360=
201506300600 AAXX 30064 67580 31478 31203 10189 20113 48/// 70500 82530
                   333 10286 20/// 5//// 82618 81360=
201506290600 AAXX 29064 67580 31975 71203 10205 20106 48/// 70500 87030
                   333 10280 20/// 5//// 87360=
201506280600 AAXX 28064 67580 NIL=
201506261200 AAXX 26124 67580 NIL=
201506260900 AAXX 26094 67580 41680 30602 10279 20122 48/// 70511 82130
                   333 58005 82842 81361=
201506260600 AAXX 26064 67580 31980 72602 10199 20136 48/// 70522 8703/
                   333 10307 20/// 5//// 87360=
201506240600 AAXX 24064 67580 31575 11403 10200 20152 48/// 70500 81100
                   333 10289 20/// 58006 81820=
201506231200 AAXX 23124 67580 42780 72002 10261 20122 48/// 87100
                   333 5//// 87850=
201506211200 AAXX 21121 67580 37680 71003 10206 20093 38852 48567 872//
                   333 58002 87835 555 10213 29046=
201506190900 AAXX 19094 67580 42980 01205 10239 20062 48///
                   333 58037=
201506190300 AAXX 19034 67580 NIL=
201506180900 AAXX 18094 67580 NIL=
201506180600 AAXX 18064 67580 31978 01205 10185 20092 48/// 70500
                   333 10275 20/// 58016=
201506171200 AAXX 17124 67580 NIL=
201506170600 AAXX 17064 67580 31980 00000 10170 20105 48/// 70500
                   333 10270 20/// 59024=
201506160900 AAXX 16094 67580 42680 12702 10237 20083 48/// 81100
                   333 59013 81830=
201506160600 AAXX 16064 67580 NIL=
201506150600 AAXX 15064 67580 32980 01207 10174 20112 48///
                   333 10250 20/// 59019=
201506120600 AAXX 12064 67580 32980 01504 10170 20100 48///
                   333 10260 20/// 59006=
201506111200 AAXX 11124 67580 42780 22102 10250 20095 48/// 81101
                   333 59003 81850 81080=
201506110900 AAXX 11094 67580 42680 31803 10225 20094 48/// 83100
                   333 59014 83834=
201506110600 AAXX 11064 67580 32980 01802 10164 20104 48///
                   333 10256 20/// 59006=
201506100900 AAXX 10094 67580 NIL=
201506100600 AAXX 10064 67580 32980 01204 10169 20102 48///
                   333 10261 20/// 58007=
201506091200 AAXX 09124 67580 NIL=
201506090600 AAXX 09064 67580 31980 01103 10183 20064 48/// 70500
                   333 10285 20/// 58006=
201506080600 AAXX 08064 67580 NIL=
201506080300 AAXX 08034 67580 NIL=
201506071500 AAXX 07154 67580 NIL=
201506030600 AAXX 03064 67580 NIL=

################################################################################
#  SYNOPS from 67581, Chipata (Zambia) | 13-33S | 032-35E | 1028 m
################################################################################
201506290600 AAXX 29064 67581 NIL=
201506280600 AAXX 28064 67581 NIL=
201506261200 AAXX 26124 67581 NIL=
201506260900 AAXX 26094 67581 NIL=
201506190300 AAXX 19034 67581 NIL=
201506180900 AAXX 18094 67581 NIL=
201506171200 AAXX 17124 67581 NIL=
201506160900 AAXX 16094 67581 NIL=
201506160600 AAXX 16064 67581 NIL=
201506111200 AAXX 11124 67581 NIL=
201506110900 AAXX 11094 67581 NIL=
201506110600 AAXX 11064 67581 32980 11804 10175 20104 48571 80001
                   333 10262 20095 59008 81080 91024=
201506100900 AAXX 10094 67581 NIL=
201506100600 AAXX 10064 67581 32980 01604 10183 20112 48579 70200
                   333 10260 20084 58008 91025=
201506091200 AAXX 09124 67581 NIL=
201506080600 AAXX 08064 67581 NIL=
201506080300 AAXX 08034 67581 NIL=
201506071500 AAXX 07154 67581 NIL=
201506030600 AAXX 03064 67581 NIL=

################################################################################
#  SYNOPS from 67583, Lundazi (Zambia) | 12-17S | 033-12E | 1143 m
################################################################################
201506290600 AAXX 29064 67583 NIL=
201506280600 AAXX 28064 67583 NIL=
201506261200 AAXX 26124 67583 NIL=
201506260900 AAXX 26094 67583 NIL=
201506190300 AAXX 19034 67583 NIL=
201506180900 AAXX 18094 67583 NIL=
201506180600 AAXX 18064 67583 32980 01201 10155 20101 48///
                   333 10/// 20/// 58010=
201506171200 AAXX 17124 67583 NIL=
201506160900 AAXX 16094 67583 NIL=
201506160600 AAXX 16064 67583 NIL=
201506150600 AAXX 15064 67583 32980 01801 10142 20111 48///
                   333 10/// 20/// 5////=
201506111200 AAXX 11124 67583 NIL=
201506110900 AAXX 11094 67583 NIL=
201506110600 AAXX 11064 67583 32980 01203 10175 20134 48///
                   333 10/// 20/// 58011=
201506100900 AAXX 10094 67583 NIL=
201506100600 AAXX 10064 67583 32980 01204 10175 20125 48///
                   333 10/// 20/// 59011=
201506091200 AAXX 09124 67583 NIL=
201506080600 AAXX 08064 67583 NIL=
201506080300 AAXX 08034 67583 NIL=
201506071500 AAXX 07154 67583 NIL=
201506030600 AAXX 03064 67583 NIL=

################################################################################
#  SYNOPS from 67599, Mfuwe (Zambia) | 13-16S | 031-56E | 568 m
################################################################################
201506290600 AAXX 29064 67599 NIL=
201506280600 AAXX 28064 67599 NIL=
201506261200 AAXX 26124 67599 NIL=
201506260900 AAXX 26094 67599 NIL=
201506190300 AAXX 19034 67599 NIL=
201506180900 AAXX 18094 67599 NIL=
201506171200 AAXX 17124 67599 NIL=
201506160900 AAXX 16094 67599 NIL=
201506160600 AAXX 16064 67599 NIL=
201506150600 AAXX 15064 67599 32980 00000 10138 20099 48554
                   333 10285 20075 59007 91024=
201506120600 AAXX 12064 67599 32980 00000 10160 20106 48560
                   333 10311 20085 59002 91023=
201506111200 AAXX 11124 67599 NIL=
201506110900 AAXX 11094 67599 NIL=
201506110600 AAXX 11064 67599 32980 00000 10160 20107 48561
                   333 10298 20085 59005 91024=
201506100900 AAXX 10094 67599 NIL=
201506091200 AAXX 09124 67599 NIL=
201506080600 AAXX 08064 67599 NIL=
201506080300 AAXX 08034 67599 NIL=
201506071500 AAXX 07154 67599 NIL=
201506030600 AAXX 03064 67599 NIL=

################################################################################
#  SYNOPS from 67625, Kalabo (Zambia) | 14-51S | 022-42E | 1033 m
################################################################################
201506300600 AAXX 30064 67625 32982 00905 10136 20078 48///
                   333 10287 20100 59013=
201506290600 AAXX 29064 67625 NIL=
201506280600 AAXX 28064 67625 NIL=
201506261200 AAXX 26124 67625 NIL=
201506260900 AAXX 26094 67625 NIL=
201506190300 AAXX 19034 67625 NIL=
201506180900 AAXX 18094 67625 NIL=
201506171200 AAXX 17124 67625 NIL=
201506160900 AAXX 16094 67625 NIL=
201506160600 AAXX 16064 67625 NIL=
201506111200 AAXX 11124 67625 NIL=
201506110900 AAXX 11094 67625 NIL=
201506100900 AAXX 10094 67625 NIL=
201506091200 AAXX 09124 67625 NIL=
201506080600 AAXX 08064 67625 NIL=
201506080300 AAXX 08034 67625 NIL=
201506071500 AAXX 07154 67625 NIL=
201506030600 AAXX 03064 67625 NIL=

################################################################################
#  SYNOPS from 67633, Mongu (Zambia) | 15-15S | 023-09E | 1052 m
################################################################################
201507010600 AAXX 01064 67633 32980 00902 10145 20072 48555 70200
                   333 10310 20102 58013 91024=
201506290600 AAXX 29064 67633 NIL=
201506280600 AAXX 28064 67633 32980 31005 10155 20117 48559 70200 83030
                   333 10315 20100 58011 83360
                   555 91024=
201506261200 AAXX 26124 67633 NIL=
201506260900 AAXX 26094 67633 NIL=
201506190300 AAXX 19034 67633 NIL=
201506180900 AAXX 18094 67633 NIL=
201506171200 AAXX 17124 67633 NIL=
201506160900 AAXX 16094 67633 NIL=
201506160600 AAXX 16064 67633 NIL=
201506150600 AAXX 15064 67633 32980 00904 10144 20073 48547 70200
                   333 10260 20079 59009 91023=
201506111200 AAXX 11124 67633 NIL=
201506110900 AAXX 11094 67633 NIL=
201506100900 AAXX 10094 67633 NIL=
201506100600 AAXX 10064 67633 32980 00906 10144 20093 48541 70200
                   333 10314 20150 58004 91022=
201506091200 AAXX 09124 67633 NIL=
201506080600 AAXX 08064 67633 NIL=
201506080300 AAXX 08034 67633 NIL=
201506071500 AAXX 07154 67633 NIL=
201506030600 AAXX 03064 67633 NIL=

################################################################################
#  SYNOPS from 67641, Kaoma (Zambia) | 14-48S | 024-48E | 1213 m
################################################################################
201506290600 AAXX 29064 67641 NIL=
201506280600 AAXX 28064 67641 NIL=
201506261200 AAXX 26124 67641 NIL=
201506260900 AAXX 26094 67641 NIL=
201506190300 AAXX 19034 67641 NIL=
201506180900 AAXX 18094 67641 NIL=
201506171200 AAXX 17124 67641 NIL=
201506160900 AAXX 16094 67641 NIL=
201506160600 AAXX 16064 67641 NIL=
201506150600 AAXX 15064 67641 32982 01402 10110 20070 48536
                   333 10252 20061 59010 91022=
201506111200 AAXX 11124 67641 NIL=
201506110900 AAXX 11094 67641 NIL=
201506100900 AAXX 10094 67641 NIL=
201506091200 AAXX 09124 67641 NIL=
201506080600 AAXX 08064 67641 NIL=
201506080300 AAXX 08034 67641 NIL=
201506071500 AAXX 07154 67641 NIL=
201506030600 AAXX 03064 67641 NIL=

################################################################################
#  SYNOPS from 67655, Mumbwa (Zambia) | 15-04S | 027-11E | 1216 m
################################################################################
201506290600 AAXX 29064 67655 NIL=
201506280600 AAXX 28064 67655 NIL=
201506261200 AAXX 26124 67655 NIL=
201506260900 AAXX 26094 67655 NIL=
201506190300 AAXX 19034 67655 NIL=
201506180900 AAXX 18094 67655 NIL=
201506171200 AAXX 17124 67655 NIL=
201506160900 AAXX 16094 67655 NIL=
201506160600 AAXX 16064 67655 NIL=
201506111200 AAXX 11124 67655 NIL=
201506110900 AAXX 11094 67655 NIL=
201506100900 AAXX 10094 67655 NIL=
201506091200 AAXX 09124 67655 NIL=
201506080600 AAXX 08064 67655 NIL=
201506080300 AAXX 08034 67655 NIL=
201506071500 AAXX 07154 67655 NIL=
201506030600 AAXX 03064 67655 NIL=

################################################################################
#  SYNOPS from 67659, Kafue Polder (Zambia) | 15-46S | 027-55E | 978 m
################################################################################
201506290600 AAXX 29064 67659 NIL=
201506280600 AAXX 28064 67659 NIL=
201506261200 AAXX 26124 67659 NIL=
201506260900 AAXX 26094 67659 NIL=
201506190300 AAXX 19034 67659 NIL=
201506180900 AAXX 18094 67659 NIL=
201506171200 AAXX 17124 67659 NIL=
201506160900 AAXX 16094 67659 NIL=
201506160600 AAXX 16064 67659 NIL=
201506111200 AAXX 11124 67659 NIL=
201506110900 AAXX 11094 67659 NIL=
201506100900 AAXX 10094 67659 NIL=
201506091200 AAXX 09124 67659 NIL=
201506080600 AAXX 08064 67659 NIL=
201506080300 AAXX 08034 67659 NIL=
201506071500 AAXX 07154 67659 NIL=
201506030600 AAXX 03064 67659 NIL=

################################################################################
#  SYNOPS from 67662, Kabwe Agric (Zambia) | 14-24S | 028-30E | 1165 m
################################################################################
201506300600 AAXX 30064 67662 32980 01801 10122 20080 48///
                   333 10250 20///=
201506290600 AAXX 29064 67662 32980 00000 10101 20090 48///
                   333 10276 20///=
201506280600 AAXX 28064 67662 NIL=
201506261200 AAXX 26124 67662 NIL=
201506260900 AAXX 26094 67662 NIL=
201506260600 AAXX 26064 67662 32980 61004 10174 20148 48/// 86030
                   333 10280 20/// 5//// 86360=
201506240600 AAXX 24064 67662 32980 00502 10140 20108 48///
                   333 10256 20/// 5////=
201506190300 AAXX 19034 67662 NIL=
201506180900 AAXX 18094 67662 NIL=
201506180600 AAXX 18064 67662 32980 01801 10109 20072 48///
                   333 10250 20/// 5////=
201506171200 AAXX 17124 67662 NIL=
201506160900 AAXX 16094 67662 NIL=
201506160600 AAXX 16064 67662 NIL=
201506111200 AAXX 11124 67662 NIL=
201506110900 AAXX 11094 67662 NIL=
201506110600 AAXX 11064 67662 32980 01103 10135 20101 48///
                   333 10240 20/// 5////=
201506100900 AAXX 10094 67662 NIL=
201506091200 AAXX 09124 67662 NIL=
201506080600 AAXX 08064 67662 NIL=
201506080300 AAXX 08034 67662 NIL=
201506071500 AAXX 07154 67662 NIL=
201506030600 AAXX 03064 67662 NIL=

################################################################################
#  SYNOPS from 67663, Kabwe (Zambia) | 14-27S | 028-28E | 1206 m
################################################################################
201506290600 AAXX 29064 67663 NIL=
201506280600 AAXX 28064 67663 NIL=
201506261200 AAXX 26124 67663 NIL=
201506260900 AAXX 26094 67663 NIL=
201506260600 AAXX 26064 67663 32980 40805 10185 20137 48577 84030
                   333 10282 20147 58017 84360=
201506190300 AAXX 19034 67663 NIL=
201506180900 AAXX 18094 67663 NIL=
201506171200 AAXX 17124 67663 NIL=
201506160900 AAXX 16094 67663 NIL=
201506160600 AAXX 16064 67663 NIL=
201506150600 AAXX 15064 67663 32980 00703 10138 20078 48555
                   333 10220 20086 59017=
201506120600 AAXX 12064 67663 32980 01705 10138 20096 48557
                   333 10234 20090 59014=
201506111200 AAXX 11124 67663 NIL=
201506110900 AAXX 11094 67663 NIL=
201506110600 AAXX 11064 67663 32980 01005 10136 20102 48571 70200
                   333 10237 20098 58010=
201506100900 AAXX 10094 67663 NIL=
201506100600 AAXX 10064 67663 32960 00813 10126 20087 48561
                   333 10239 20093 58008=
201506091200 AAXX 09124 67663 NIL=
201506080600 AAXX 08064 67663 NIL=
201506080300 AAXX 08034 67663 NIL=
201506071500 AAXX 07154 67663 NIL=
201506030600 AAXX 03064 67663 NIL=

################################################################################
#  SYNOPS from 67665, Lusaka Internationalairport (Zambia) | 15-19S | 028-27E | 1152 m
################################################################################
201507010300 AAXX 01034 67665 42980 01002 10080 20039 48558
                   333 58012=
201507010000 AAXX 01004 67665 42980 00000 10083 20030 48571
                   333 58001=
201506301800 AAXX 30184 67665 42980 01203 10140 20050 48567
                   333 58000=
201506301500 AAXX 30154 67665 42980 01009 10223 20091 48560
                   333 59009=
201506301200 AAXX 30124 67665 42980 01011 10234 20085 48569
                   333 59004=
201506300600 AAXX 30064 67665 32980 00903 10108 20060 48570 70200
                   333 10262 20//0 59006=
201506300300 AAXX 30034 67665 42980 01602 10072 20050 48546 70200
                   333 59009=
201506300000 AAXX 30004 67665 42980 01802 10089 20065 48553 70200
                   333 59009=
201506292100 AAXX 29214 67665 42980 01903 10115 20066 48570 70200
                   333 59005=
201506291800 AAXX 29184 67665 42980 10144 20076 48565
                   333 59005=
201506291500 AAXX 29154 67665 42980 10005 10223 20114 48569
                   333 58001=
201506291200 AAXX 29124 67665 42980 00710 10233 20105 48573
                   333 58001=
201506290900 AAXX 29094 67665 42980 00909 10211 20095 48598
                   333 58002=
201506290600 AAXX 29064 67665 32980 01703 10124 20086 48576
                   333 58000=
201506290300 AAXX 29034 67665 42980 01802 10087 20056 48557
                   333 58007=
201506290000 AAXX 29004 67665 42980 01902 10100 20071 48563
                   333 59004=
201506282100 AAXX 28214 67665 42980 01602 10114 20085 48574
                   333 58002=
201506281800 AAXX 28184 67665 42980 21303 10150 20095 48573 82030
                   333 59004 82360=
201506281500 AAXX 28154 67665 42980 20905 10212 20115 48567 70100 82060
                   333 59004 82360=
201506281200 AAXX 28124 67665 42680 21005 10228 20112 48572 70300 82100
                   333 59008 82835=
201506280600 AAXX 28064 67665 NIL=
201506271800 AAXX 27184 67665 42980 00803 10149 20072 48577
                   333 58008=
201506271500 AAXX 27154 67665 42980 00812 10224 20104 48573
                   333 58005=
201506271200 AAXX 27124 67665 42680 20912 10230 20111 48580 82100
                   333 58008 82840=
201506270900 AAXX 27094 67665 42680 30912 10202 20095 48604 83500
                   333 58012 83630=
201506270600 AAXX 27064 67665 32580 40906 10142 20082 48586 70310 84500
                   333 10270 20//0 58009 84625=
201506270300 AAXX 27034 67665 42980 01006 10126 20072 48575 70200
                   333 58016=
201506270000 AAXX 27004 67665 42980 01205 10129 20070 48565 70200
                   333 58013=
201506262100 AAXX 26214 67665 42980 01404 10146 20080 48578 70200
                   333 58011=
201506261200 AAXX 26124 67665 NIL=
201506260900 AAXX 26094 67665 42680 30911 10230 20142 48597 83130
                   333 58008 83838 81360=
201506260600 AAXX 26064 67665 42980 31002 10159 20076 48583 83030
                   333 10250 58006 83360=
201506251500 AAXX 25154 67665 42680 30000 10253 20141 48553 70110 83100
                   333 59003 83845=
201506251200 AAXX 25124 67665 42680 63104 10252 20140 48563 70222 86200
                   333 59005 86835=
201506250600 AAXX 25064 67665 42980 31104 10155 20096 48578 70100 83030
                   333 59005 83360=
201506250300 AAXX 25034 67665 42980 31302 10123 20095 48560 70300 85030
                   333 59004 83360=
201506241800 AAXX 24184 67665 42980 01302 10159 20050 48561
                   333 59015=
201506241500 AAXX 24154 67665 42980 10702 10236 20084 48563 81030
                   333 59008 81360=
201506241200 AAXX 24124 67665 42680 21503 10240 20080 48572 82100
                   333 59004 82840=
201506240900 AAXX 24094 67665 42680 10206 10213 20159 48587 70300 81100
                   333 58000 81830=
201506240600 AAXX 24064 67665 32980 13004 10126 20099 48580 70200
                   333 10250 20//0 59003=
201506240300 AAXX 24034 67665 42980 00000 10092 20062 48559 70200
                   333 59006=
201506232100 AAXX 23214 67665 42980 01002 10118 20080 48575 70200
                   333 59001=
201506231800 AAXX 23184 67665 42980 01103 10148 20080 48574 70200
                   333 10250 59007=
201506231500 AAXX 23154 67665 42980 10000 10230 20088 48569 70200 81030
                   333 59008 81360=
201506231200 AAXX 23124 67665 42680 32002 10234 20084 48574 82101
                   333 59011 82845 81080=
201506230900 AAXX 23094 67665 42680 30607 10200 20083 48593 81101
                   333 59011 81830 82080=
201506230600 AAXX 23064 67665 32980 30502 10118 20056 48581 80001
                   333 59006 83080=
201506230300 AAXX 23034 67665 42980 10902 10083 20051 48563 81030
                   333 59005 81360=
201506230000 AAXX 23004 67665 42980 11402 10093 20065 48567 81030
                   333 59004 81360=
201506222100 AAXX 22214 67665 42980 11303 10116 20076 48576 81030
                   333 59009 81360=
201506221800 AAXX 22184 67665 42980 21003 10130 20086 48578 70200 82030
                   333 59004 82360=
201506221500 AAXX 22154 67665 42780 30907 10201 20125 48573 70122 82260
                   333 59010 82856 83360=
201506221200 AAXX 22124 67665 42680 61010 10210 20127 48582 70222 86200
                   333 59006 86840=
201506220900 AAXX 22094 67665 42580 60611 10184 20114 48601 70322 86500
                   333 59003 86625 91028=
201506220600 AAXX 22064 67665 32980 10907 10120 20082 48589 81030
                   333 58001 81360=
201506220300 AAXX 22034 67665 42980 10905 10085 20066 48569 81030
                   333 59005 81360=
201506220000 AAXX 22004 67665 42980 60905 10115 20088 48576 86030
                   333 59009 86359=
201506212100 AAXX 21214 67665 42980 60906 10137 20097 48588 86030
                   333 59006 86359=
201506211800 AAXX 21184 67665 42980 70807 10166 20104 48588 87030
                   333 59010 87359=
201506211500 AAXX 21154 67665 42980 71013 10191 20088 48581 87030
                   333 59010 87360=
201506211200 AAXX 21124 67665 42680 31011 10213 20120 48588 83500
                   333 59007 83640=
201506210900 AAXX 21094 67665 42680 41010 10184 20104 48603 70222 84630
                   333 84630=
201506210300 AAXX 21034 67665 42980 41005 10111 20071 48572 70122 84030
                   333 58003=
201506210000 AAXX 21004 67665 42980 71004 10130 20072 48580 70322 8703/
                   333 58006=
201506202100 AAXX 20214 67665 42980 00805 10107 20056 48580 70200
                   333 58009=
201506200900 AAXX 20094 67665 42580 21015 10185 20102 48601 82500
                   333 58019=
201506200600 AAXX 20064 67665 32980 00916 10128 20098 48594
                   333 10242 20//0 58016=
201506192100 AAXX 19214 67665 42980 01103 10112 20074 48581
                   333 58025=
201506191800 AAXX 19184 67665 42980 01005 10141 20085 48576 70200
                   333 58031=
201506191500 AAXX 19154 67665 42980 01009 10217 20125 48573 70200
                   333 58029=
201506190900 AAXX 19094 67665 42908 00711 10199 20114 48594 70200
                   333 58039 91027=
201506190600 AAXX 19064 67665 32980 01005 10124 20065 48577
                   333 10264 20//0 58051=
201506190300 AAXX 19034 67665 42980 00000 10092 20082 48558
                   333 58043=
201506182100 AAXX 18214 67665 42980 00000 10110 20060 48557
                   333 58028=
201506181800 AAXX 18184 67665 42980 01403 10144 20053 48553
                   333 58029=
201506181500 AAXX 18154 67665 42980 01108 10232 20081 48545
                   333 58021=
201506181200 AAXX 18124 67665 42980 00708 10252 20093 48546
                   333 58023=
201506180900 AAXX 18094 67665 NIL=
201506180600 AAXX 18064 67665 32980 01202 10096 20072 48535
                   333 10208 20//0 58013=
201506180300 AAXX 18034 67665 42980 01502 10071 20050 48516 70200
                   333 58011=
201506180000 AAXX 18004 67665 42980 01402 10089 20060 48522 70200
                   333 58009=
201506172100 AAXX 17214 67665 42980 01002 10109 20059 48531 70200
                   333 58000=
201506171500 AAXX 17154 67665 42980 01205 10219 20107 48523
                   333 59006=
201506171200 AAXX 17124 67665 42980 01505 10235 20097 48522
                   333 59018=
201506170900 AAXX 17094 67665 42980 00104 10209 20107 48541
                   333 59024=
201506170600 AAXX 17064 67665 42980 01702 10117 20078 48526
                   333 59032=
201506170300 AAXX 17034 67665 42980 02002 10075 20042 48595
                   333 59029=
201506170000 AAXX 17004 67665 42980 02303 10092 20063 48513
                   333 59032=
201506162100 AAXX 16214 67665 42980 02002 10090 20049 48529
                   333 59021=
201506161800 AAXX 16184 67665 42980 01503 10131 20074 48528 70200
                   333 10240 59025=
201506161500 AAXX 16154 67665 42980 01004 10215 20103 48529 70200
                   333 59020=
201506161200 AAXX 16124 67665 42980 00805 10217 20089 48537 70200
                   333 59015=
201506160900 AAXX 16094 67665 NIL=
201506160600 AAXX 16064 67665 NIL=
201506151800 AAXX 15184 67665 42980 01404 10129 20060 48551
                   333 10230 20//0 59012=
201506151500 AAXX 15154 67665 42980 00807 10205 20111 48547
                   333 59013=
201506151200 AAXX 15124 67665 42980 01109 10215 20114 48551
                   333 59017=
201506150900 AAXX 15094 67665 42980 00914 10194 20117 48576 70200
                   333 59014=
201506150600 AAXX 15064 67665 32980 01204 10109 20071 48558 70200
                   333 10223 20//0 59015=
201506150300 AAXX 15034 67665 42980 01504 10069 20034 48538 70200
                   333 59011=
201506150000 AAXX 15004 67665 42980 01502 10085 20046 48541 70200
                   333 59004=
201506141500 AAXX 14154 67665 42980 01210 10200 20107 48558
                   333 59005=
201506141200 AAXX 14124 67665 42980 01210 10212 20115 48567
                   333 59002=
201506140900 AAXX 14094 67665 42680 10814 10194 20116 48590 81100
                   333 59003 81835=
201506140600 AAXX 14064 67665 32980 01106 10106 20066 48572
                   333 59000=
201506140300 AAXX 14034 67665 42980 01303 10075 20054 48551
                   333 59002=
201506132100 AAXX 13214 67665 42980 01502 10097 20056 48566
                   333 58010=
201506131200 AAXX 13124 67665 42980 00913 10223 20150 48570 70100
                   333 58013=
201506130900 AAXX 13094 67665 42980 00815 10200 20114 48588
                   333 58012=
201506130600 AAXX 13064 67665 32980 01109 10121 20091 48573
                   333 10232 20/// 58014=
201506130300 AAXX 13034 67665 42980 01202 10081 20050 48553
                   333 58009=
201506122100 AAXX 12214 67665 42980 01504 10104 20052 48557
                   333 58002=
201506121800 AAXX 12184 67665 42980 01403 10140 20073 48559
                   333 58000=
201506121200 AAXX 12124 67665 42980 01013 10230 20089 48559
                   333 59005=
201506120900 AAXX 12094 67665 42980 00809 10192 20125 48575 70200
                   333 59010=
201506120600 AAXX 12064 67665 32980 01206 10123 20081 48561
                   333 10229 20//0 59012=
201506120300 AAXX 12034 67665 42980 01502 10068 20050 48543 70200
                   333 59005=
201506112100 AAXX 11214 67665 42980 01203 10106 20076 48556 70200
                   333 59004=
201506111800 AAXX 11184 67665 42980 01104 10131 20085 48448 70200
                   333 58001=
201506111200 AAXX 11124 67665 42680 31307 10217 20094 48562
                   333 58002=
201506110900 AAXX 11094 67665 42680 50608 10180 20089 48583 85100
                   333 58004 85830=
201506110300 AAXX 11034 67665 42980 01403 10073 20029 48548
                   333 58001=
201506110000 AAXX 11004 67665 42980 01902 10097 20060 48552
                   333 58007=
201506102100 AAXX 10214 67665 42980 01305 10105 20065 48560
                   333 58003=
201506101800 AAXX 10184 67665 42980 00905 10135 20089 48558 70200
                   333 10245 58004=
201506101500 AAXX 10154 67665 42980 00909 10210 20126 48556 70200
                   333 58000=
201506101200 AAXX 10124 67665 42680 10812 10223 20116 48560 70200 81100
                   333 58004 81840=
201506100900 AAXX 10094 67665 42580 10613 10192 20123 48581 70200 81100
                   333 58006 81828=
201506100600 AAXX 10064 67665 32980 00906 10117 20079 48572
                   333 10275 20//0 58011=
201506100300 AAXX 10034 67665 42980 01006 10093 20053 48549
                   333 58003=
201506100000 AAXX 10004 67665 42980 01003 10085 20055 48544
                   333 58008=
201506092100 AAXX 09214 67665 42980 01105 10113 20166 48557
                   333 58009=
201506091800 AAXX 09184 67665 42980 01105 10141 20086 48555
                   333 58005=
201506091500 AAXX 09154 67665 42980 00910 10221 20113 48557
                   333 58011=
201506091200 AAXX 09124 67665 NIL=
201506090900 AAXX 09094 67665 42980 00912 10205 20110 48578 70200
                   333 58003=
201506090600 AAXX 09064 67665 32980 01104 10139 20100 48564 70200
                   333 58004=
201506090300 AAXX 09034 67665 42980 01302 10087 20033 48485 70200
                   333 58007=
201506082100 AAXX 08214 67665 42980 01303 10119 20047 48545 70200
                   333 59001=
201506080900 AAXX 08094 67665 42980 00911 10201 20106 48567
                   333 58001=
201506080600 AAXX 08064 67665 NIL=
201506080300 AAXX 08034 67665 NIL=
201506080000 AAXX 08004 67665 42980 11202 10096 20044 48538 81030
                   333 59010 81360=
201506071800 AAXX 07184 67665 42980 01004 10147 20059 48548 70200
                   333 59008=
201506071500 AAXX 07154 67665 42680 11008 10218 20102 48545 70100 81100
                   333 59007 81835=
201506061500 AAXX 06154 67665 42980 31007 10204 20101 48549 83030
                   333 58020 83360=
201506061200 AAXX 06124 67665 42980 50809 10204 20111 48554 85030
                   333 58026 85360=
201506060900 AAXX 06094 67665 41958 70709 10157 20113 48568 70552 8702/
                   333 58029 87459=
201506060600 AAXX 06064 67665 32980 71010 10152 20084 48553 8702/
                   333 10260 20//0 58028 87460=
201506060300 AAXX 06034 67665 42980 21003 10135 20089 48532 70100 82030
                   333 58018 82360=
201506052100 AAXX 05214 67665 42980 41405 10187 20116 48551 70222 84030
                   333 58023 84360=
201506051800 AAXX 05184 67665 42980 41204 10180 20110 48541
                   333 58026=
201506051200 AAXX 05124 67665 42980 51209 10244 20085 48533
                   333 59044=
201506050600 AAXX 05064 67665 32980 00703 10166 20104 48532
                   333 59001=
201506050300 AAXX 05034 67665 42980 10803 10147 20093 48516 81030
                   333 59004 81360=
201506050000 AAXX 05004 67665 42980 21104 10159 20105 48516 82030
                   333 59008 82360=
201506041800 AAXX 04184 67665 42980 21003 10185 20126 48517 70100 82030
                   333 10288 59014 82360=
201506041500 AAXX 04154 67665 42780 20903 10266 20130 48516 70100 82100
                   333 59013 82850=
201506041200 AAXX 04124 67665 42680 21005 10273 20142 48524 70200 82100
                   333 59010 82835=
201506040600 AAXX 04064 67665 32980 10902 10165 20096 48513 81030
                   333 10280 20//0 59017 81360=
201506040300 AAXX 04034 67665 42980 00903 10114 20087 48515
                   333 59013=
201506040000 AAXX 04004 67665 42980 01802 10132 20091 48519
                   333 59013=
201506032100 AAXX 03214 67665 42980 01402 10134 20089 48535
                   333 59006=
201506031800 AAXX 03184 67665 42980 01202 10171 20101 48529
                   333 10280 20//0 59010=
201506031500 AAXX 03154 67665 42980 00505 10246 20113 48526
                   333 59007=
201506031200 AAXX 03124 67665 42980 00806 10256 20115 48532
                   333 59005=
201506030900 AAXX 03094 67665 42980 00910 10233 20110 48557 70200
                   333 59004=
201506030600 AAXX 03064 67665 32980 01203 10158 20084 48547 70200
                   333 10276 20//0 58000=
201506030300 AAXX 03034 67665 42980 01403 10124 20053 48530 70200
                   333 58005=
201506030000 AAXX 03004 67665 42980 01403 10123 20056 48530 70200
                   333 58006=
201506022100 AAXX 02214 67665 42980 01304 10142 20071 48542 70200
                   333 58004=
201506020900 AAXX 02094 67665 42980 40712 10234 20156 48560 80001
                   333 58005 84080=
201506020300 AAXX 02034 67665 42980 01304 10140 20084 48527
                   333 58005=
201506011800 AAXX 01184 67665 42980 11204 10186 20116 48528 70200 81030
                   333 10261 59003 81360=
201506011500 AAXX 01154 67665 42680 30406 10254 20154 48519 70100 81101
                   333 59007 81845 83080=
201506011200 AAXX 01124 67665 42680 40405 10254 20134 48525 70322 84100
                   333 59001 84830 91018=

################################################################################
#  SYNOPS from 67666, Lusaka City Airport (Zambia) | 15-25-00S | 028-28-00E | 1280 m
################################################################################
201507010600 AAXX 01064 67666 31970 01007 10132 20072 48571 70500
                   333 10235 20/// 58003=
201506290600 AAXX 29064 67666 32980 01005 10162 20084 48580
                   333 10231 20/// 59002 91026=
201506280600 AAXX 28064 67666 NIL=
201506261200 AAXX 26124 67666 NIL=
201506260900 AAXX 26094 67666 NIL=
201506260600 AAXX 26064 67666 32980 31105 10174 20143 48580 83030
                   333 10260 20/// 58008 83359 91026=
201506240600 AAXX 24064 67666 31970 00804 10143 20085 48565 70200
                   333 10235 20/// 59001 91026=
201506190600 AAXX 19064 67666 32980 00806 10135 20093 48572
                   333 10247 20/// 58039 91025=
201506190300 AAXX 19034 67666 NIL=
201506180900 AAXX 18094 67666 NIL=
201506180600 AAXX 18064 67666 32980 00000 10155 20090 48536
                   333 10250 20/// 58012 91021=
201506171200 AAXX 17124 67666 NIL=
201506160900 AAXX 16094 67666 42980 01006 10194 20094 48544
                   333 59015 91023=
201506160600 AAXX 16064 67666 NIL=
201506150600 AAXX 15064 67666 31975 01006 10135 20085 48558 70500
                   333 10214 20/// 59013 91024=
201506120600 AAXX 12064 67666 32980 01006 10142 20096 48552
                   333 10216 20/// 59011 91024=
201506111200 AAXX 11124 67666 NIL=
201506110900 AAXX 11094 67666 NIL=
201506110600 AAXX 11064 67666 32980 09010 10138 20097 48562
                   333 10216 20//0 5//// 91025=
201506100900 AAXX 10094 67666 NIL=
201506100600 AAXX 10064 67666 32980 00910 10136 20086 48562
                   333 10235 20/// 58007 91025=
201506091200 AAXX 09124 67666 NIL=
201506080600 AAXX 08064 67666 NIL=
201506080300 AAXX 08034 67666 NIL=
201506071500 AAXX 07154 67666 NIL=
201506030600 AAXX 03064 67666 NIL=

################################################################################
#  SYNOPS from 67667, Mount Makulu (Zambia) | 15-33S | 028-15E | 1213 m
################################################################################
201506290600 AAXX 29064 67667 NIL=
201506280600 AAXX 28064 67667 NIL=
201506261200 AAXX 26124 67667 NIL=
201506260900 AAXX 26094 67667 NIL=
201506190300 AAXX 19034 67667 NIL=
201506180900 AAXX 18094 67667 NIL=
201506171200 AAXX 17124 67667 NIL=
201506160900 AAXX 16094 67667 NIL=
201506160600 AAXX 16064 67667 NIL=
201506111200 AAXX 11124 67667 NIL=
201506110900 AAXX 11094 67667 NIL=
201506100900 AAXX 10094 67667 NIL=
201506091200 AAXX 09124 67667 NIL=
201506080600 AAXX 08064 67667 NIL=
201506080300 AAXX 08034 67667 NIL=
201506071500 AAXX 07154 67667 NIL=
201506030600 AAXX 03064 67667 NIL=

################################################################################
#  SYNOPS from 67673, Petauke (Zambia) | 14-15S | 031-17E | 1035 m
################################################################################
201506301500 AAXX 30154 67673 41675 40904 10223 20103 48566 70500 82130
                   333 59006 82830 84360=
201506301200 AAXX 30124 67673 41675 40701 10255 20101 48577 70500 84100
                   333 59007 84835=
201506300900 AAXX 30094 67673 41675 20804 10242 20095 48600 70500 82100
                   333 59011 82830=
201506300600 AAXX 30064 67673 31975 00903 10220 20085 48600 70500
                   333 10260 20129 59010=
201506290600 AAXX 29064 67673 NIL=
201506280600 AAXX 28064 67673 NIL=
201506261200 AAXX 26124 67673 NIL=
201506260900 AAXX 26094 67673 NIL=
201506231200 AAXX 23124 67673 42684 50901 10260 20120 48589 85200
                   333 59007 85835=
201506190300 AAXX 19034 67673 NIL=
201506180900 AAXX 18094 67673 NIL=
201506171200 AAXX 17124 67673 NIL=
201506161200 AAXX 16124 67673 42980 11801 10253 20075 48547
                   333 5//// 81840=
201506160900 AAXX 16094 67673 42680 20902 10230 20076 48576 82100
                   333 59012 82832=
201506160600 AAXX 16064 67673 NIL=
201506150600 AAXX 15064 67673 31980 00903 10200 20196 48584 70500
                   333 10236 20110 59017=
201506121200 AAXX 12124 67673 42684 10903 10240 20090 48570 81100
                   333 58006 81835=
201506120600 AAXX 12064 67673 32584 10502 10198 20105 48591 81100
                   333 10249 20109 59001 81825=
201506111200 AAXX 11124 67673 NIL=
201506110900 AAXX 11094 67673 42684 40703 10220 20100 48594 84100
                   333 59004 84832=
201506110600 AAXX 11064 67673 32584 10904 10185 20106 48590 81100
                   333 10250 20115 59009 81825=
201506100900 AAXX 10094 67673 NIL=
201506100600 AAXX 10064 67673 32584 20906 10190 20102 48599 82100
                   333 10255 20116 58009 82828=
201506091200 AAXX 09124 67673 42984 00602 10240 20066 48573
                   333 58013=
201506090600 AAXX 09064 67673 32984 00504 10190 20080 48590
                   333 10267 20120 58010=
201506080600 AAXX 08064 67673 NIL=
201506080300 AAXX 08034 67673 NIL=
201506071500 AAXX 07154 67673 NIL=
201506030600 AAXX 03064 67673 NIL=

################################################################################
#  SYNOPS from 67731, Senanga (Zambia) | 16-06S | 023-16E | 1027 m
################################################################################
201506300600 AAXX 30064 67731 32980 017// 10165 20008 48///
                   333 10259 20108 5////=
201506290600 AAXX 29064 67731 NIL=
201506280600 AAXX 28064 67731 NIL=
201506261200 AAXX 26124 67731 NIL=
201506260900 AAXX 26094 67731 NIL=
201506190300 AAXX 19034 67731 NIL=
201506180900 AAXX 18094 67731 NIL=
201506171200 AAXX 17124 67731 NIL=
201506160900 AAXX 16094 67731 NIL=
201506160600 AAXX 16064 67731 NIL=
201506120600 AAXX 12064 67731 32980 018// 10165 20088 48///
                   333 10271 20095 59004=
201506111200 AAXX 11124 67731 NIL=
201506110900 AAXX 11094 67731 NIL=
201506110600 AAXX 11064 67731 32980 020// 10152 20097 48///
                   333 10266 20101 59003=
201506100900 AAXX 10094 67731 NIL=
201506100600 AAXX 10064 67731 32980 018// 10173 20/// 48///
                   333 10264 20123 58010=
201506091200 AAXX 09124 67731 NIL=
201506080600 AAXX 08064 67731 NIL=
201506080300 AAXX 08034 67731 NIL=
201506071500 AAXX 07154 67731 NIL=
201506030600 AAXX 03064 67731 NIL=

################################################################################
#  SYNOPS from 67741, Sesheke (Zambia) | 17-28S | 024-18E | 949 m
################################################################################
201506290600 AAXX 29064 67741 NIL=
201506280600 AAXX 28064 67741 NIL=
201506261200 AAXX 26124 67741 NIL=
201506260900 AAXX 26094 67741 NIL=
201506250600 AAXX 25064 67741 32980 00000 10141 20084 48559
                   333 10270 20032 59013=
201506190300 AAXX 19034 67741 NIL=
201506180900 AAXX 18094 67741 NIL=
201506171200 AAXX 17124 67741 NIL=
201506160900 AAXX 16094 67741 NIL=
201506160600 AAXX 16064 67741 NIL=
201506120600 AAXX 12064 67741 32980 00000 10131 20092 48548
                   333 10283 20056 59002=
201506111200 AAXX 11124 67741 NIL=
201506110900 AAXX 11094 67741 NIL=
201506100900 AAXX 10094 67741 NIL=
201506091200 AAXX 09124 67741 NIL=
201506080600 AAXX 08064 67741 NIL=
201506080300 AAXX 08034 67741 NIL=
201506071500 AAXX 07154 67741 NIL=
201506030600 AAXX 03064 67741 NIL=

################################################################################
#  SYNOPS from 67743, Livingstone (Zambia) | 17-49S | 025-49E | 985 m
################################################################################
201506290600 AAXX 29064 67743 32980 01002 10139 20082 48580 70200
                   333 10282 20078 59000
                   555 91027=
201506280600 AAXX 28064 67743 NIL=
201506271500 AAXX 27154 67743 42980 00808 10261 20090 48553 70200
                   333 58006 555 10270 Q1022.2=
201506271200 AAXX 27124 67743 42980 01011 10267 20113 48573 70200
                   333 58014 555 Q1023.5=
201506270600 AAXX 27064 67743 32980 30904 10156 20108 48570 70222 83030
                   333 10301 20135 58012 83360 00/// BB/// CC135
                   DD/// Q1026.5=
201506261200 AAXX 26124 67743 NIL=
201506260900 AAXX 26094 67743 NIL=
201506190300 AAXX 19034 67743 NIL=
201506180900 AAXX 18094 67743 NIL=
201506171200 AAXX 17124 67743 42980 01408 10261 21024 48526 70200
                   333 58020 91018=
201506160900 AAXX 16094 67743 NIL=
201506160600 AAXX 16064 67743 32980 01903 10110 20040 48549 70200
                   333 10250 20043 59016 91024=
201506140600 AAXX 14064 67743 32980 01105 10129 20061 48582 70200
                   333 10262 20089 58007
                   555 00/// 91027=
201506111200 AAXX 11124 67743 42980 00605 10261 20056 48557 70200
                   333 59005 91021=
201506110900 AAXX 11094 67743 42980 00709 10212 48578 70200
                   333 59001 91025=
201506110600 AAXX 11064 67743 32980 00808 10145 20074 48568 70200
                   333 10258 20086 59002
                   555 00/// 91025=
201506100900 AAXX 10094 67743 NIL=
201506091200 AAXX 09124 67743 NIL=
201506080600 AAXX 08064 67743 32980 01101 10135 20096 48559
                   333 10270 20070 59000
                   555 00/// 91024=
201506080300 AAXX 08034 67743 NIL=
201506071500 AAXX 07154 67743 NIL=
201506031500 AAXX 03154 67743 42680 13401 10285 20130 48509 70311 81100
                   333 59004 81845 555 10320 Q1015.5=
201506030600 AAXX 03064 67743 NIL=
201506020600 AAXX 02064 67743 32980 11007 10176 20127 48537 70300 81030
                   333 10299 20128 59002 81358
                   555 00/// 91020=

################################################################################
#  SYNOPS from 67751, Magoye (Zambia) | 16-00S | 027-36E | 1018 m
################################################################################
201506290600 AAXX 29064 67751 NIL=
201506280600 AAXX 28064 67751 NIL=
201506261200 AAXX 26124 67751 NIL=
201506260900 AAXX 26094 67751 NIL=
201506260600 AAXX 26064 67751 32980 10907 10211 20146 81080
                   333 10/// 20104 58001
                   555 00///=
201506240600 AAXX 24064 67751 32980 00903 10133 20093 48///
                   333 10/// 20064 58005=
201506190300 AAXX 19034 67751 NIL=
201506180900 AAXX 18094 67751 NIL=
201506171200 AAXX 17124 67751 NIL=
201506160900 AAXX 16094 67751 NIL=
201506160600 AAXX 16064 67751 NIL=
201506150600 AAXX 15064 67751 32980 00809 10170 20092
                   333 10/// 20063 59014
                   555 00///=
201506120600 AAXX 12064 67751 32980 00000 10141 20090 48///
                   333 10/// 20056 58011=
201506111200 AAXX 11124 67751 NIL=
201506110900 AAXX 11094 67751 NIL=
201506110600 AAXX 11064 67751 32980 01013 10154 20105
                   333 10/// 20066 58000
                   555 00///=
201506100900 AAXX 10094 67751 NIL=
201506100600 AAXX 10064 67751 32980 00809 10170 20092
                   333 10//0 20063 59014
                   555 00///=
201506091200 AAXX 09124 67751 NIL=
201506080600 AAXX 08064 67751 NIL=
201506080300 AAXX 08034 67751 NIL=
201506071500 AAXX 07154 67751 NIL=
201506030600 AAXX 03064 67751 NIL=

################################################################################
#  SYNOPS from 67753, Choma (Zambia) | 16-50S | 027-04E | 1213 m
################################################################################
201506290600 AAXX 29064 67753 31960 00000 10122 20105 48570 70500
                   333 10255 20069 58000
                   555 00///=
201506280600 AAXX 28064 67753 NIL=
201506261200 AAXX 26124 67753 NIL=
201506260900 AAXX 26094 67753 NIL=
201506260600 AAXX 26064 67753 31960 70912 10173 20157 48575 70500 87030
                   333 10264 20115 58002 87360=
201506250600 AAXX 25064 67753 31960 00000 10135 20105 48572 70500
                   333 10250 20065 58005
                   555 00///=
201506240600 AAXX 24064 67753 31960 00000 10135 20084 48572 70500
                   333 10224 20056 59007
                   555 00///=
201506190600 AAXX 19064 67753 31960 00610 10136 20074 48571 70500
                   333 10250 20056 58004=
201506190300 AAXX 19034 67753 NIL=
201506180900 AAXX 18094 67753 NIL=
201506180600 AAXX 18064 67753 31960 02204 10103 20154 48530 70500
                   333 10249 20024 58009=
201506171200 AAXX 17124 67753 NIL=
201506160900 AAXX 16094 67753 NIL=
201506160600 AAXX 16064 67753 NIL=
201506150600 AAXX 15064 67753 31960 00000 10094 20066 48557 70500
                   333 10223 20054 59015=
201506120600 AAXX 12064 67753 31960 00906 10117 20095 48550 70500
                   333 10234 20041 59007=
201506111200 AAXX 11124 67753 NIL=
201506110900 AAXX 11094 67753 NIL=
201506110600 AAXX 11064 67753 31960 00608 10132 20072 48555 70500
                   333 10219 20064 59006=
201506100900 AAXX 10094 67753 NIL=
201506100600 AAXX 10064 67753 31960 00512 10142 20074 48572 70500
                   333 10241 20091 58014=
201506091200 AAXX 09124 67753 NIL=
201506090600 AAXX 09064 67753 31960 01008 10137 20099 48552 70500
                   333 10246 20079 58002=
201506080600 AAXX 08064 67753 NIL=
201506080300 AAXX 08034 67753 NIL=
201506071500 AAXX 07154 67753 NIL=
201506030600 AAXX 03064 67753 NIL=

################################################################################
#  SYNOPS from 67855, Lupaki (Zambia) | 17-03-00S | 024-46-00E | 1000 m
################################################################################
201507010600 AAXX 01064 67855 NIL=
201506301800 AAXX 30184 67855 NIL=
201506301200 AAXX 30124 67855 41970 11806 10270 20060 3//// 48/// 70500 80001
                   333 5//// 81080=
201506300600 AAXX 30064 67855 31960 01901 10092 20040 3//// 48/// 70500
                   333 20060 5////=
201506291800 AAXX 29184 67855 NIL=
201506291200 AAXX 29124 67855 41970 01103 10270 20070 3//// 48/// 70500
                   333 5////=
201506290600 AAXX 29064 67855 31970 01801 10116 20034 3//// 48/// 70500
                   333 20066 5////=
201506280600 AAXX 28064 67855 32970 00000 10086 20058 3//// 48/// 70500
                   333 20059 5////=
201506271200 AAXX 27124 67855 41770 10306 10254 20118 3//// 48/// 70500 81501
                   333 5//// 81650=
201506260600 AAXX 26064 67855 31970 70000 10134 20064 3//// 48/// 70522 8707/
                   333 20075 5//// 87459=
201506251200 AAXX 25124 67855 41970 03105 10280 20056 3//// 48/// 70500
                   333 5////=
201506250600 AAXX 25064 67855 31970 00000 10080 20040 3//// 48/// 70500
                   333 20037 5////=
201506241800 AAXX 24184 67855 NIL=
201506241200 AAXX 24124 67855 41970 02103 10264 20049 3//// 48/// 70500
                   333 5////=
201506240600 AAXX 24064 67855 31970 00000 10070 20033 3//// 48/// 70500
                   333 20024 5////=
201506231800 AAXX 23184 67855 NIL=
201506231200 AAXX 23124 67855 41970 00000 10240 20053 3//// 48/// 70500
                   333 5////=
201506230600 AAXX 23064 67855 31970 00000 10084 20040 3//// 48/// 70500
                   333 20034 5////=
201506200600 AAXX 20064 67855 31970 00000 10072 20016 3//// 48/// 70500
                   333 20045 5////=
201506191200 AAXX 19124 67855 41970 01804 10250 20063 3//// 48/// 70500
                   333 5////=
201506190600 AAXX 19064 67855 NIL=
201506181200 AAXX 18124 67855 41970 02201 10258 20015 3//// 48/// 70500
                   333 5////=
201506180600 AAXX 18064 67855 31970 00000 10034 21030 3//// 48/// 70500
                   333 21008 5////=
201506171800 AAXX 17184 67855 NIL=
201506171200 AAXX 17124 67855 41970 01903 10258 21010 3//// 48/// 70500
                   333 5////=
201506170600 AAXX 17064 67855 31970 00000 10046 20005 3//// 48/// 70500
                   333 21001 5////=
201506161800 AAXX 16184 67855 NIL=
201506161200 AAXX 16124 67855 41970 01802 10250 20030 3//// 48/// 70500
                   333 5////=
201506160600 AAXX 16064 67855 31970 00000 10048 20020 3//// 48/// 70500
                   333 20016 5////=
201506151800 AAXX 15184 67855 NIL=
201506151200 AAXX 15124 67855 41970 03601 10250 20048 3//// 48/// 70500
                   333 5////=
201506150600 AAXX 15064 67855 31970 00000 10056 20008 3//// 48/// 70500
                   333 20018 5////=
201506141800 AAXX 14184 67855 NIL=
201506141200 AAXX 14124 67855 NIL=
201506140600 AAXX 14064 67855 31970 00000 10056 20028 3//// 48/// 70500
                   333 20024 5////=
201506131800 AAXX 13184 67855 NIL=
201506131200 AAXX 13124 67855 42975 11401 10254 20060 3//// 48/// 70500 81400
                   333 5//// 81656=
201506130600 AAXX 13064 67855 31970 00000 10056 20035 3//// 48/// 70500
                   333 20038 5////=
201506121200 AAXX 12124 67855 41970 00301 10266 20074 3//// 48/// 70500
                   333 5////=
201506120600 AAXX 12064 67855 31970 02001 10100 20053 3//// 48/// 70500
                   333 20045 5////=
201506111800 AAXX 11184 67855 NIL=
201506111200 AAXX 11124 67855 42975 00000 10250 20080 3//// 48///
                   333 5////=
201506110600 AAXX 11064 67855 31970 00202 10110 20052 3//// 48/// 70500
                   333 20055 5////=
201506101200 AAXX 10124 67855 42775 10104 10248 20078 3//// 48/// 81500
                   333 5//// 81650=
201506100600 AAXX 10064 67855 31970 00903 10130 20050 3//// 48/// 70500
                   333 20073 5////=
201506091800 AAXX 09184 67855 NIL=
201506091200 AAXX 09124 67855 42975 00405 10266 20064 3//// 48///
                   333 5////=
201506090600 AAXX 09064 67855 31970 01201 10098 20043 3//// 48/// 70500
                   333 20065 5////=
201506081200 AAXX 08124 67855 41770 11801 10258 20068 3//// 48/// 70500 81400
                   333 5//// 81656=
201506080600 AAXX 08064 67855 31970 00000 10080 20039 3//// 48/// 70500
                   333 20044 5////=
201506071200 AAXX 07124 67855 NIL=
201506070600 AAXX 07064 67855 41970 00307 10112 20063 3//// 48/// 70500
                   333 20054 5////=
201506061800 AAXX 06184 67855 NIL=
201506061200 AAXX 06124 67855 42975 23202 10256 20030 3//// 48/// 80001
                   333 5//// 82080=
201506060600 AAXX 06064 67855 31970 01802 10090 20060 3//// 48/// 70500
                   333 20029 5////=
201506051800 AAXX 05184 67855 NIL=
201506051200 AAXX 05124 67855 42975 01801 10248 20015 3//// 48///
                   333 5////=
201506050600 AAXX 05064 67855 31970 00000 10084 21005 3//// 48/// 70500
                   333 20039 5////=
201506041200 AAXX 04124 67855 42975 12201 10258 20020 3//// 48/// 81030
                   333 5//// 81360=
201506040600 AAXX 04064 67855 31670 52101 10152 20073 3//// 48/// 70511 85530
                   333 20113 5//// 85630=
201506031800 AAXX 03184 67855 NIL=
201506031200 AAXX 03124 67855 42975 03203 10292 20123 3//// 48///
                   333 5////=
201506030600 AAXX 03064 67855 31970 00602 10156 20104 3//// 48/// 70500
                   333 20094 5////=
201506021200 AAXX 02124 67855 42875 10404 10284 20120 3//// 48/// 81400
                   333 5//// 81657=
201506020600 AAXX 02064 67855 31970 00000 10138 20102 38/// 48/// 70500
                   333 20084 5////=
201506011800 AAXX 01184 67855 NIL=
201506011200 AAXX 01124 67855 42975 03606 10288 20103 3//// 48///
                   333 5////=
201506010600 AAXX 01064 67855 31970 00000 10102 20061 3//// 48/// 70500
                   333 20068 5////=
