################################################################################
# Query made at 04/10/2022 06:47:18 UTC
# Country like Zamb*
# Time interval: from 01/01/2019 05:30  to 01/31/2019 06:30  UTC
################################################################################

################################################################################
#  SYNOPS from 67403, Kawambwa (Zambia) | 09-48S | 029-05E | 1323 m
################################################################################
201901310600 AAXX 31064 67403 11975 70601 10204 20186 48524 60054 70522 87031
                   333 10299 20184 58002 87360 81080=
201901300600 AAXX 30064 67403 11475 60801 10198 20186 48522 60134 82580
                   333 10269 20179 59001 82610 86360=
201901290900 AAXX 29094 67403 12980 70901 10206 20177 48523 60024 85031
                   333 10312 20178 58008 85360 83080
                   555 00172 20000=
201901280900 AAXX 28094 67403 31475 43001 10220 20200 48517 70320 81531
                   333 10294 20178 59001 81610 83360 82080
                   555 001750 20001=
201901280600 AAXX 28064 67403 31475 43001 10220 20200 48517 81531
                   333 10294 20178 59001 81610 83360 82080=
201901250600 AAXX 25064 67403 11975 80901 10204 20191 48526 60074 70522 8803/
                   333 10305 20183 58008 88360
                   555 00182=
201901240600 AAXX 24064 67403 11975 70802 10212 20190 48519 69904 70522 86031
                   333 10292 20188 58001 86360 83080=
201901220600 AAXX 22064 67403 11380 82501 10188 20184 48516 60684 72166 8273/
                   333 10286 20179 59017 82707 87360
                   555 00187=
201901210600 AAXX 21064 67403 11480 72701 10196 20189 48533 60174 70362 8153/
                   333 10270 20179 58000 81610 87360
                   555 00194=
201901180600 AAXX 18064 67403 11475 62701 10222 20192 48530 60184 70322 81531
                   333 10266 20178 58001 81615 86360
                   555 00188=
201901171200 AAXX 17124 67403 NIL=
201901170600 AAXX 17064 67403 11975 82701 10198 20193 48526 60024 72166 8803/
                   333 10292 20186 59008 88360=
201901160600 AAXX 16064 67403 11975 70601 10222 20197 48535 69914 70522 8703/
                   333 10252 20184 58004 87360
                   555 00190=
201901150600 AAXX 15064 67403 11375 80902 10197 20188 48528 60054 76022 8273/
                   333 10256 20182 58008 82708 87360
                   555 00196=
201901140600 AAXX 14064 67403 11975 70000 10198 20186 48521 60014 70562 8703/
                   333 10299 20183 58017 87360
                   555 00198=
201901110600 AAXX 11064 67403 31875 71805 10214 20188 48513 70522 8193/
                   333 10298 20190 59003 81958 87360
                   555 00198=
201901100900 AAXX 10094 67403 NIL=
201901100600 AAXX 10064 67403 11975 70501 10210 20197 48516 60094 70522 8703/
                   333 10256 20180 59003 87360
                   555 00163=
201901080600 AAXX 08064 67403 11975 83601 10204 20194 48513 69974 70522 8803/
                   333 10//0 20187 5//// 88360
                   555 00200=
201901071200 AAXX 07124 67403 NIL=
201901041200 AAXX 04124 67403 NIL=
201901040900 AAXX 04094 67403 NIL=

################################################################################
#  SYNOPS from 67413, Mbala (Zambia) | 08-51S | 031-20E | 1673 m
################################################################################
201901310600 AAXX 31064 67413 12980 70000 10190 20167 48543 60324 8707/
                   333 10//0 20090 59002 87360 00090 20001 91024=
201901300600 AAXX 30064 67413 12380 70000 10190 20166 48545 60014 875//
                   333 10282 20160 59010 87608 91024=
201901290600 AAXX 29064 67413 12980 73005 10175 20151 48556 60024 8707/
                   333 10253 20100 58018 87360 91026=
201901280600 AAXX 28064 67413 12480 81206 10192 20165 48537 60144 83352
                   333 10//0 20069 5//// 83612 86360 82080 91023=
201901250600 AAXX 25064 67413 32980 81204 10185 20162 48548 88070
                   333 10253 20068 5//// 88359 91025=
201901230600 AAXX 23064 67413 11470 80000 10175 20159 48/// 60134 76022 885//
                   333 10209 20095 5//// 88618=
201901210600 AAXX 21064 67413 11/00 90000 10170 20164 48548 60154 74554 8////
                   333 10250 20088 58001
                   555 00088 91025=
201901180600 AAXX 18064 67413 NIL=
201901171200 AAXX 17124 67413 NIL=
201901170600 AAXX 17064 67413 12480 82806 10178 20173 48556 60184 8557/
                   333 10//0 20098 59009 85612 87460 91024=
201901160600 AAXX 16064 67413 12980 71006 10178 20157 48555 60024 8707/
                   333 10/// 20100 58004 87360 91026=
201901150600 AAXX 15064 67413 12380 80000 10225 20124 48549 60304 70222 8557/
                   333 10//0 20083 58011 85640 87360 91025=
201901141200 AAXX 14124 67413 42580 82805 10208 20181 48523 868//
                   333 5//// 83820 83618 91022=
201901140600 AAXX 14064 67413 11975 81004 10176 20157 48540 60154 75052 8807/
                   333 10//0 20098 5//// 88360
                   555 00098 91024=
201901100900 AAXX 10094 67413 NIL=
201901100600 AAXX 10064 67413 12370 80000 10180 20173 48541 60094 70322 8267/
                   333 10//0 20085 58008 82707 88360 91024=
201901080600 AAXX 08064 67413 12480 80000 10190 20178 48534 60194 83830
                   333 10//0 20090 59001 82610 83815 84359 91023=
201901071200 AAXX 07124 67413 NIL=
201901070600 AAXX 07064 67413 11470 80000 10170 20163 48540 60264 76022 8653/
                   333 10/// 20090 58000 86610 83360 91024=
201901041200 AAXX 04124 67413 NIL=
201901040900 AAXX 04094 67413 NIL=
201901040600 AAXX 04064 67413 12480 60000 10210 20172 48548 60024 81530
                   333 10//0 20168 59006 81612 86358 91025=
201901030600 AAXX 03064 67413 12480 70000 10180 20164 48554 60044 8552/
                   333 10//0 20154 58000 85610 86459 91025=
201901020600 AAXX 02064 67413 12580 40000 10215 20176 48552 60054 82130
                   333 10//0 20150 5//// 82820 83356 91025=

################################################################################
#  SYNOPS from 67441, Mwinilunga (Zambia) | 11-45S | 024-26E | 1361 m
################################################################################
201901310600 AAXX 31064 67441 11370 80000 10190 20181 48552 60144 70522 8377/
                   333 10260 20//0 58004 83707 88360 00/// 20005=
201901301200 AAXX 30124 67441 41340 80000 10250 20182 48537 79599 8672/
                   333 58005 86710 83930 846//=
201901300900 AAXX 30094 67441 41660 70000 10220 20186 48559 76066 8552/
                   333 58003 85630 83835 86460=
201901300600 AAXX 30064 67441 11370 80000 10180 20180 48548 60054 70522 887//
                   333 10280 20/// 58002 88708=
201901290900 AAXX 29094 67441 42680 60000 10255 20170 48556 82170
                   333 58006 82840 86360=
201901290600 AAXX 29064 67441 11980 80000 10185 20168 48546 60424 72166 8802/
                   333 10310 20//0 59001 88460=
201901280900 AAXX 28094 67441 11340 70000 10185 20185 48547 60124 74244 8373/
                   333 10280 20/// 58001 83708 87360
                   555 00/// 20049=
201901280600 AAXX 28064 67441 11340 70000 10185 20185 48547 60124 74244 8373/
                   333 10280 20//0 58001 83708 87360=
201901250600 AAXX 25064 67441 31970 70000 10190 20173 48554 70522 8703/
                   333 10280 20//0 58003 87358=
201901240600 AAXX 24064 67441 11370 80000 10185 20177 48551 60034 70522 8472/
                   333 10260 20//0 58005 84708 88460=
201901230600 AAXX 23064 67441 11970 70000 10190 20182 48546 60094 70522 87020
                   333 10260 20/// 58000 87459=
201901221200 AAXX 22124 67441 41580 70000 10240 20184 48530 70522 8372/
                   333 5//// 82730 83840 87360=
201901220900 AAXX 22094 67441 41580 70000 10240 20188 48558 70522 8443/
                   333 59017 84632 87355=
201901220600 AAXX 22064 67441 11310 80000 10180 20180 48546 60084 74344 887//
                   333 10260 20//0 59017 88709=
201901180900 AAXX 18094 67441 42575 70000 10230 20186 48555 8273/
                   333 59012 82720 87360=
201901180600 AAXX 18064 67441 11470 80000 10185 20180 48548 60264 70522 8272/
                   333 10270 20/// 59008 82712 88460=
201901171200 AAXX 17124 67441 NIL=
201901170600 AAXX 17064 67441 11270 80000 10190 20178 48556 60084 70522 887//
                   333 10280 20//0 59003 88708=
201901110900 AAXX 11094 67441 42580 80000 10230 20187 48547 8352/
                   333 58004 83630 82835 88460=
201901101200 AAXX 10124 67441 41670 70000 10280 20178 48517 70522 8452/
                   333 59002 84635 85840 83360=
201901100900 AAXX 10094 67441 41670 70000 10250 20182 48543 70522 8353/
                   333 58000 83630 84835 86360=
201901100600 AAXX 10064 67441 31960 70000 10200 20183 48543 70522 8703/
                   333 10280 20//0 59005 87360=
201901091200 AAXX 09124 67441 42680 60000 10270 20168 48519 8522/
                   333 59008 85840 84461=
201901090900 AAXX 09094 67441 42680 70000 10250 20165 48543 8453/
                   333 59004 84630 83835 84360=
201901090600 AAXX 09064 67441 31340 80000 10180 20180 48543 74244 887//
                   333 10260 20//0 59003 88708=
201901071200 AAXX 07124 67441 NIL=
201901070600 AAXX 07064 67441 31920 70000 10210 20176 48542 70544 8422/
                   333 10280 20//0 5//// 84640 83360=
201901041200 AAXX 04124 67441 NIL=
201901040900 AAXX 04094 67441 NIL=
201901040600 AAXX 04064 67441 12580 70000 10190 20180 48562 60074 8473/
                   333 10260 20//0 59001 84730 87360=
201901020600 AAXX 02064 67441 12980 70000 10200 20183 48576 60124 8703/
                   333 10280 20//0 5//// 87360=

################################################################################
#  SYNOPS from 67461, Mansa (Zambia) | 11-06S | 028-51E | 1382 m
################################################################################
201901310600 AAXX 31064 67461 12480 71504 10192 20187 48513 60094 8117/
                   333 10290 20174 58006 81818 87360 91017=
201901300900 AAXX 30094 67461 42680 71706 10257 20191 48515 81131
                   333 59019 81842 86360 81080 91017=
201901300600 AAXX 30064 67461 12580 60603 10214 20200 48516 60194 86500
                   333 10292 20183 58000 86622 91017=
201901290900 AAXX 29094 67461 42580 72207 10198 20178 48528 8257/
                   333 58010 82620 87360 91020=
201901290600 AAXX 29064 67461 12480 71203 10190 20183 48517 60014 8157/
                   333 10286 20974 58001 81618 87360 91019=
201901280900 AAXX 28094 67461 12480 71202 10205 20185 48517 60034 8653/
                   333 10292 20173 59004 86612 85360
                   555 00/// 91018=
201901280600 AAXX 28064 67461 12480 71202 10205 20185 48517 60034 8653/
                   333 10292 20173 59004 86612 85360 91018=
201901250600 AAXX 25064 67461 12480 70802 10196 20181 48529 60114 8157/
                   333 10276 20170 58012 81615 87360 91020=
201901240600 AAXX 24064 67461 11458 83402 10188 20186 48525 60124 76366 8257/
                   333 10289 20179 58016 82610 88460 91019=
201901230900 AAXX 23094 67461 42680 73109 10240 20180 48504 8213/
                   333 58000 82838 87360 91016=
201901230600 AAXX 23064 67461 12580 72406 10209 20188 48502 60064 81530
                   333 10272 20172 59010 81620 87360 91016=
201901220900 AAXX 22094 67461 42680 71303 10230 20185 48503 8487/
                   333 59017 83630 81836 87360 91016=
201901220600 AAXX 22064 67461 12480 71204 10192 20181 48512 60214 8257/
                   333 10278 20172 59007 82618 87360 91017=
201901210900 AAXX 21094 67461 41565 73106 10214 20184 48519 76162 8587/
                   333 58002 84623 82828 87460 91019=
201901210600 AAXX 21064 67461 12480 70000 10197 20186 48518 69974 8557/
                   333 10260 20172 58001 85618 87360 91019=
201901181200 AAXX 18124 67461 42680 60104 10272 20182 48496 83238
                   333 59022 83840 81360 85280 91015=
201901180900 AAXX 18094 67461 42480 70000 10237 20187 48520 8157/
                   333 59017 81615 87460 91018=
201901180600 AAXX 18064 67461 11480 80000 10187 20181 48526 60144 76166 8157/
                   333 10248 20170 59005 81610 88460 91020=
201901171200 AAXX 17124 67461 41480 83402 10230 20190 48515 72162 8557/
                   333 58015 85617 88460 91017=
201901170600 AAXX 17064 67461 11477 83604 10186 20180 48531 60014 76166 8357/
                   333 10300 20162 58000 83610 88460 91020=
201901161200 AAXX 16124 67461 42680 70103 10287 20174 48503 86283
                   333 59018 86845 83360 91016=
201901160900 AAXX 16094 67461 42580 73403 10254 20189 48538 84230
                   333 58005 84830 84360 91020=
201901140600 AAXX 14064 67461 32980 81802 10199 20181 48522 8807/
                   333 10270 20177 58038 88460 91019=
201901110600 AAXX 11064 67461 12580 72403 10209 20191 48501 60014 8117/
                   333 10290 20184 59011 81820 87360 91016=
201901100900 AAXX 10094 67461 42680 73610 10270 20190 48504 83131
                   333 59013 83848 82360 83080 91016=
201901100600 AAXX 10064 67461 12980 73406 10225 20188 48514 60014 8707/
                   333 10262 20178 58000 87360=
201901090600 AAXX 09064 67461 11360 81103 10190 20190 48512 60134 76166 8662/
                   333 10267 20178 59004 86708 88460 91017=
201901080600 AAXX 08064 67461 12580 73102 10215 20199 48517 60064 8453/
                   333 10300 20185 58005 84620 85360 91018=
201901071200 AAXX 07124 67461 NIL=
201901070600 AAXX 07064 67461 12980 70000 10216 20180 48512 60084 8703/
                   333 10282 20174 59016 87360 91017=
201901041200 AAXX 04124 67461 NIL=
201901040900 AAXX 04094 67461 NIL=
201901040600 AAXX 04064 67461 12480 70000 10200 20190 48537 60024 8557/
                   333 10294 20178 58019 85610 87460 91020=

################################################################################
#  SYNOPS from 67469, Samfya (Zambia) | 11-22S | 029-54E | 1171 m
################################################################################
201901310600 AAXX 31064 67469 12380 62403 10208 20110 48/// 60114 84531
                   333 10256 20184 5//// 84606 82820 86360 81080=
201901290600 AAXX 29064 67469 11280 81304 10210 20150 48/// 60074 8454/
                   333 10276 20200 5//// 84606 88460=
201901280900 AAXX 28094 67469 12480 71105 10225 20190 48/// 60064 8243/
                   333 10280 20190 5//// 82813 87360
                   555 20003=
201901280600 AAXX 28064 67469 10480 71105 10225 20109 48/// 60064 8213/
                   333 10280 20190 5//// 82813 87360=
201901250600 AAXX 25064 67469 12380 62802 10200 20140 48/// 60014 82531
                   333 10287 20191 5//// 82606 82820 86360=
201901240600 AAXX 24064 67469 12380 83401 10201 20040 48/// 60014 8457/
                   333 10294 20192 5//// 84606 88360=
201901230600 AAXX 23064 67469 12680 72602 10203 20130 48/// 60014 8353/
                   333 10258 20194 5//// 83606 87360=
201901180600 AAXX 18064 67469 NIL=
201901171200 AAXX 17124 67469 NIL=
201901100900 AAXX 10094 67469 NIL=
201901100600 AAXX 10064 67469 NIL=
201901071200 AAXX 07124 67469 NIL=
201901041200 AAXX 04124 67469 NIL=
201901040900 AAXX 04094 67469 NIL=

################################################################################
#  SYNOPS from 67475, Kasama (Zambia) | 10-13S | 031-08E | 1382 m
################################################################################
201901301200 AAXX 30124 67475 42660 61210 10262 20187 48504 85233
                   333 59001 81940 84840 82360 82080 91019=
201901300900 AAXX 30094 67475 42660 50607 10250 20188 48533 85231
                   333 59005 81930 84830 83360 81080 91021=
201901300600 AAXX 30064 67475 12360 61805 10185 20177 48531 60274 8367/
                   333 10284 20151 58001 82520 83706 86360 91021=
201901281200 AAXX 28124 67475 42660 51107 10274 20179 48496 85203
                   333 59019 81940 84840 83080 91017=
201901280900 AAXX 28094 67475 42560 51007 10255 20189 48527 85801
                   333 59008 85825 82080 91020=
201901280600 AAXX 28064 67475 12460 70914 10216 20187 48530 69954 70342 865//
                   333 10268 20173 59001 86612 91021=
201901250600 AAXX 25064 67475 12360 82004 10179 20174 48536 60104 8367/
                   333 10283 20167 58007 83706 88460 91022=
201901240600 AAXX 24064 67475 12360 83014 10206 20175 48529 60044 83637
                   333 10278 20174 58005 83708 84360 88280 91021=
201901210600 AAXX 21064 67475 12360 82005 10190 20183 48536 60714 8377/
                   333 10250 20170 59004 83709 87460 91022=
201901180600 AAXX 18064 67475 12960 83403 10191 20185 48523 60164 85078
                   333 10254 20169 59014 85460 86280 91020=
201901171200 AAXX 17124 67475 NIL=
201901170600 AAXX 17064 67475 12360 81903 10182 20177 48538 69914 8567/
                   333 10286 20166 5//// 85707 87460 91022=
201901150900 AAXX 15094 67475 41550 83503 10211 20173 48523 76188 8357/
                   333 58011 83820 87460 91023=
201901140600 AAXX 14064 67475 11350 80403 10183 20183 48534 60234 76066 8372/
                   333 10300 20172 58020 83709 88460 91022=
201901100900 AAXX 10094 67475 NIL=
201901100600 AAXX 10064 67475 12460 80207 10200 20187 48528 60014 82578
                   333 10282 20171 58001 82615 86460 88280 91021=
201901091200 AAXX 09124 67475 42660 61609 10269 20172 48499 85204
                   333 58013 81940 84840 83080 91017=
201901071200 AAXX 07124 67475 42660 82702 10274 20173 48494 70322 84271
                   333 59018 84830 84460 83080 91017=
201901070600 AAXX 07064 67475 12680 81803 10193 20185 48522 60014 70322 8197/
                   333 10250 20169 59009 81930 87460 91020=
201901041200 AAXX 04124 67475 42660 61705 10276 20182 48/// 70222 82201
                   333 59004 81840 83080 91017=
201901040900 AAXX 04094 67475 NIL=
201901040600 AAXX 04064 67475 12460 71405 10198 20186 48539 60064 70322 8453/
                   333 10302 20176 58000 84613 86360 91022=
201901031200 AAXX 03124 67475 41650 73307 10208 20190 48499 79599 8427/
                   333 59001 81940 83840 87460 91017=
201901030600 AAXX 03064 67475 12460 62504 10211 20182 48539 60014 8427/
                   333 10306 20164 59008 84820 86360 91022=
201901020600 AAXX 02064 67475 12560 41603 10226 20188 48548 69904 83231
                   333 10294 20177 58002 83820 83360 81080 91023=

################################################################################
#  SYNOPS from 67476, Misamfu (Zambia) | 10-06S | 031-15E | 1536 m
################################################################################
201901250600 AAXX 25064 67476 12280 80000 10183 20174 48/// 60084 70322 81678
                   333 10276 20157 58006 81705 82360 88280=
201901240900 AAXX 24094 67476 41580 72710 10261 20165 48/// 71422 81277
                   333 59006 81825 84360 87280=
201901240600 AAXX 24064 67476 12480 73007 10205 20177 48/// 69924 82578
                   333 10270 20165 5//// 82617 85360=
201901230900 AAXX 23094 67476 41580 72808 10233 20180 48/// 71522 8323/
                   333 58008 83825 87360=
201901230600 AAXX 23064 67476 12380 73307 10198 20173 48/// 60144 8167/
                   333 5//// 81707 87360=
201901220900 AAXX 22094 67476 41580 60903 10246 20158 48/// 71522 81330
                   333 59015 81925 84825 84360=
201901220600 AAXX 22064 67476 12380 73604 10191 20180 48/// 69904 8367/
                   333 10267 20161 59012 83707 86360=
201901210900 AAXX 21094 67476 42580 72704 10196 20176 48/// 8323/
                   333 5//// 83827 83627 86360=
201901210600 AAXX 21064 67476 11380 72403 10187 20180 48/// 60504 72052 8567/
                   333 10250 20159 5//// 85708 87360=
201901180600 AAXX 18064 67476 NIL=
201901171200 AAXX 17124 67476 NIL=
201901140600 AAXX 14064 67476 11278 80000 10182 20176 48/// 75865 8467/
                   333 10280 20162 5//// 84705 88460=
201901110600 AAXX 11064 67476 11368 80204 10195 20186 48/// 60014 71622 8167/
                   333 10285 20172 59003 81706 88460=
201901101200 AAXX 10124 67476 42680 53607 10268 20178 48/// 70222 85232
                   333 59074 85835 81360 82080=
201901100900 AAXX 10094 67476 41580 70205 10228 20200 48/// 72166 81278
                   333 59001 81820 81620 82460 85280=
201901100600 AAXX 10064 67476 11978 70401 10193 20182 48/// 60034 71522 86078
                   333 10280 20159 58001 86460 87280=
201901091200 AAXX 09124 67476 41675 62405 10252 20176 48/// 71522 81302
                   333 58009 81935 84840 82080=
201901071200 AAXX 07124 67476 41680 62006 10266 20161 48/// 71522 81933
                   333 5//// 81943 83845 81360 83080=
201901070600 AAXX 07064 67476 12360 72906 10195 20183 48/// 60024 72162 8667/
                   333 10296 20158 5//// 86708 87360=
201901041200 AAXX 04124 67476 NIL=
201901040900 AAXX 04094 67476 NIL=

################################################################################
#  SYNOPS from 67477, Mpika (Zambia) | 11-54S | 031-26E | 1400 m
################################################################################
201901310600 AAXX 31064 67477 11270 70000 10180 20173 48542 60054 76166 82670
                   333 10270 20165 58004 82704 87459 00166 20007=
201901300600 AAXX 30064 67477 12280 70000 10192 20183 48538 60074 83670
                   333 10278 20172 58006 83705 87359=
201901290900 AAXX 29094 67477 11970 80000 10180 20173 48544 60024 76186 8807/
                   333 10268 20175 58008 88459
                   555 00176 20024=
201901280600 AAXX 28064 67477 20980 60606 10202 20186 48537 60244 72166 81531
                   333 10820 20168 58006 81610 83360 84080=
201901250600 AAXX 25064 67477 11275 73304 10181 20180 48532 60094 72166 84670
                   333 10262 20168 58005 84703 87459
                   555 00176=
201901240600 AAXX 24064 67477 32380 62703 10200 20189 48528 83630
                   333 10268 20170 58007 83706 85360=
201901221200 AAXX 22124 67477 42780 32402 10273 20168 48499 83200
                   333 59016 83850=
201901220600 AAXX 22064 67477 12480 32103 10195 20172 48536 60034 81531
                   333 10240 20146 59014 81612 82360 81080
                   555 00150=
201901210900 AAXX 21094 67477 41470 80000 10203 20189 48538 76022 8257/
                   333 5//// 82612 88460=
201901210600 AAXX 21064 67477 12480 61501 10195 20172 48539 69904 83530
                   333 10246 20165 58000 83610 85359
                   555 00168=
201901180900 AAXX 18094 67477 41475 72702 10226 20188 48528 76022 84570
                   333 59005 84613 87460=
201901180600 AAXX 18064 67477 12280 73002 10190 20183 48529 69904 85670
                   333 10264 20170 59011 85703 87359
                   555 00170=
201901171200 AAXX 17124 67477 NIL=
201901170600 AAXX 17064 67477 11275 80000 10175 20172 48540 60034 78088 84770
                   333 10268 20161 59005 84703 88459
                   555 00166=
201901160900 AAXX 16094 67477 42480 70302 10211 20190 48546 81570
                   333 5//// 81611 87360=
201901150600 AAXX 15064 67477 12380 73301 10185 20175 48539 60024 82670
                   333 10238 20170 58000 82706 87359
                   555 00174=
201901140600 AAXX 14064 67477 11270 80000 10184 20182 48539 60304 76066 8677/
                   333 10284 20173 58019 86703 88459
                   555 00173=
201901110600 AAXX 11064 67477 11275 73307 10196 20189 48524 60054 74044 83670
                   333 10268 20170 59003 83705 87459
                   555 00170=
201901100900 AAXX 10094 67477 NIL=
201901100600 AAXX 10064 67477 32480 62401 10214 20195 48528 81530
                   333 10272 20170 59005 81612 86360
                   555 00172=
201901071200 AAXX 07124 67477 NIL=
201901070600 AAXX 07064 67477 11275 73002 10187 20179 48523 60034 74044 84670
                   333 10284 20178 59014 84705 87359
                   555 00179=
201901041200 AAXX 04124 67477 NIL=
201901040900 AAXX 04094 67477 NIL=
201901040600 AAXX 04064 67477 12480 41502 10219 20190 48541 60114 81531
                   333 10280 20171 59001 81614 82360 82080
                   555 00180=
201901020600 AAXX 02064 67477 32480 10903 10224 20190 48550 81500
                   333 10282 20159 58000 81918
                   555 00156=

################################################################################
#  SYNOPS from 67481, Isoka (Zambia) | 10-07S | 032-38E | 1360 m
################################################################################
201901310600 AAXX 31064 67481 12480 73002 10198 20186 48/// 60034 8257/
                   333 10291 20185 5//// 82610 87460 20029=
201901300900 AAXX 30094 67481 42580 63002 10240 20187 48/// 86200
                   333 5//// 86825=
201901250600 AAXX 25064 67481 11480 72702 10200 20185 48/// 60054 72162 8157/
                   333 10278 20182 5//// 81610 88460=
201901240600 AAXX 24064 67481 12480 73002 10222 20181 48/// 69904 81587
                   333 10270 20182 5//// 81620 83360 87280=
201901230600 AAXX 23064 67481 12980 82702 10194 20177 48/// 60074 8807/
                   333 10248 20180 5//// 88460=
201901220600 AAXX 22064 67481 12480 72602 10200 20181 48/// 60054 8357/
                   333 10250 20180 5//// 83610 87360=
201901210900 AAXX 21094 67481 42580 70901 10232 20174 48/// 8657/
                   333 5//// 86620 87361=
201901210600 AAXX 21064 67481 11480 80607 10193 20176 48590 60084 76066 8557/
                   333 10261 20171 58014 85618 88460=
201901180600 AAXX 18064 67481 11480 62402 10208 20196 48/// 69904 72162 84530
                   333 10271 20184 5//// 84610 85360=
201901171200 AAXX 17124 67481 NIL=
201901170600 AAXX 17064 67481 11978 80000 10196 20194 48/// 69904 76022 8807/
                   333 10264 20181 5//// 88460=
201901160600 AAXX 16064 67481 12480 72702 10198 20178 48/// 60044 8157/
                   333 10252 20180 5//// 81610 87460=
201901150600 AAXX 15064 67481 12480 72002 10194 20166 48/// 60064 8157/
                   333 10240 20175 5//// 81610 87460=
201901140900 AAXX 14094 67481 42580 82002 10212 20186 48/// 87578
                   333 5//// 87620 88461=
201901140600 AAXX 14064 67481 11480 80000 10194 20176 48/// 60314 72162 8157/
                   333 10280 20182 5//// 81610 88460=
201901110600 AAXX 11064 67481 11480 70902 10208 20186 48/// 60034 72192 8157/
                   333 10288 20192 5//// 81610 87460=
201901100900 AAXX 10094 67481 NIL=
201901100600 AAXX 10064 67481 12480 72002 10202 20192 48/// 60014 8157/
                   333 10320 20188 5//// 81610 87460=
201901090600 AAXX 09064 67481 12480 62002 10198 20188 48/// 60444 83530
                   333 10260 20172 5//// 83610 86360=
201901080600 AAXX 08064 67481 12480 72001 10212 20193 48/// 60094 8157/
                   333 10306 20187 5//// 81610 87460=
201901071200 AAXX 07124 67481 NIL=
201901070600 AAXX 07064 67481 12480 70302 10210 20182 48/// 60064 8657/
                   333 10300 20182 5//// 86610 87460=
201901041200 AAXX 04124 67481 NIL=
201901040900 AAXX 04094 67481 NIL=
201901040600 AAXX 04064 67481 12480 63002 10208 20198 48/// 69904 82530
                   333 10284 20194 5//// 82610 86360=
201901030600 AAXX 03064 67481 32480 22202 10220 20190 48/// 81131
                   333 10298 20182 5//// 81360 81080=
201901020600 AAXX 02064 67481 12480 22102 10238 20190 48/// 60024 81131
                   333 10292 20172 5//// 81812 81360 81080=

################################################################################
#  SYNOPS from 67531, Zambezi (Zambia) | 13-32S | 023-07E | 1077 m
################################################################################
201901310600 AAXX 31064 67531 12980 70000 10210 20196 48/// 60234 8707/
                   333 10297 20183 58004 87460=
201901300900 AAXX 30094 67531 41580 63602 10251 20201 48/// 72162 83230
                   333 59008 83824 84361=
201901300600 AAXX 30064 67531 32980 70000 10210 20196 48/// 8703/
                   333 10316 20163 5//// 87360=
201901290600 AAXX 29064 67531 12380 72402 10185 20179 48/// 60644 8267/
                   333 10310 20163 5//// 82707 87460=
201901280900 AAXX 28094 67531 12980 70102 10216 20187 48/// 69904 83038
                   333 10325 20175 59001 83361 87281
                   555 00192 20000=
201901280600 AAXX 28064 67531 12980 70102 10216 20187 48/// 69904 83038
                   333 10325 20175 59001 83361 87281=
201901250600 AAXX 25064 67531 32980 20000 10226 20182 48/// 82031
                   333 10320 20173 58013 82361 81081
                   555 00170=
201901240900 AAXX 24094 67531 42580 33302 10260 20204 48/// 81130
                   333 59004 81822 83361=
201901240600 AAXX 24064 67531 12480 33303 10226 20196 48/// 60034 81130
                   333 10298 20185 59007 81812 83361=
201901230600 AAXX 23064 67531 32980 70000 10210 20196 48/// 8703/
                   333 10300 20180 59001 87360
                   555 00190=
201901220900 AAXX 22094 67531 42580 60000 10257 20205 48/// 85131
                   333 59012 85825 81361 81081=
201901220600 AAXX 22064 67531 11315 70000 10201 20199 48/// 60154 72844 876//
                   333 10274 20167 59017 87706
                   555 00160=
201901211200 AAXX 21124 67531 41580 70000 10232 20214 48/// 71796 83272
                   333 5//// 81925 83825 83360 82080=
201901210600 AAXX 21064 67531 11380 70000 10210 20201 48/// 69914 75052 8377/
                   333 10310 20180 5//// 83707 87360
                   555 00200=
201901181200 AAXX 18124 67531 41580 73305 10255 20190 48/// 70262 8117/
                   333 5//// 81827 87360=
201901180900 AAXX 18094 67531 41480 73004 10223 20192 48/// 70262 8157/
                   333 5//// 81612 87460=
201901180600 AAXX 18064 67531 11380 73004 10195 20183 48/// 60214 76066 8357/
                   333 10281 20174 5//// 87460=
201901171200 AAXX 17124 67531 NIL=
201901170600 AAXX 17064 67531 12480 73603 10220 20193 48/// 69934 81178
                   333 10292 20180 59008 81810 81361 87280
                   555 00189=
201901160900 AAXX 16094 67531 41380 70000 10223 20204 48/// 70366 8557/
                   333 58014 85609 87460=
201901160600 AAXX 16064 67531 11380 80000 10199 20193 48/// 60124 76066 8157/
                   333 10287 20174 58017 81608 88460
                   555 00190=
201901150900 AAXX 15094 67531 42480 63508 10240 20189 48/// 8413/
                   333 58012 84819 86362=
201901141200 AAXX 14124 67531 42580 63308 10224 20181 48/// 8313/
                   333 58019 83828 86362=
201901140900 AAXX 14094 67531 41380 71908 10225 20192 48/// 76066 84707
                   333 58007 84707 87362=
201901140600 AAXX 14064 67531 11380 70000 10190 20184 48/// 60184 72166 8467/
                   333 10286 20164 58012 84706 87360
                   555 00182=
201901110600 AAXX 11064 67531 12480 70000 10225 20189 48/// 69904 8357/
                   333 10302 20184 58015 83615 87360=
201901100900 AAXX 10094 67531 42580 53007 10270 20207 48/// 83130
                   333 59001 83828 83362=
201901100600 AAXX 10064 67531 12380 53607 10228 20207 48/// 60054 81630
                   333 10301 20180 59003 81709 85362
                   555 00190=
201901091200 AAXX 09124 67531 42680 53007 10288 20202 48/// 85201
                   333 59014 85835 81080=
201901080900 AAXX 08094 67531 41480 73006 10230 20188 48/// 72166 8487/
                   333 58003 82615 82818 86361=
201901071200 AAXX 07124 67531 42580 63606 10275 20214 48/// 85230
                   333 59058 85829 84362=
201901070600 AAXX 07064 67531 11480 73602 10198 20194 48/// 60224 72166 8357/
                   333 10296 20172 59031 83610 86360
                   555 00192=
201901041200 AAXX 04124 67531 42680 43104 10304 20192 48/// 84200
                   333 58016 84839=
201901040900 AAXX 04094 67531 42680 43004 10270 20191 48/// 84230
                   333 58001 84835 81362=
201901040600 AAXX 04064 67531 32480 61802 10211 20194 48/// 84530
                   333 10278 20179 58007 84610 84362
                   555 00192=
201901020600 AAXX 02064 67531 11980 73001 10205 20193 48/// 60054 76066 8707/
                   333 10316 20174 59008 87360=

################################################################################
#  SYNOPS from 67541, Kasempa (Zambia) | 13-32S | 025-51E | 1234 m
################################################################################
201901310600 AAXX 31064 67541 11360 70503 10190 20187 48511 60044 76066 8253/
                   333 10296 20178 58005 82706 86360=
201901300600 AAXX 30064 67541 12980 10604 10195 20188 48506 60214 82030
                   333 10270 20164 59005 82360=
201901290600 AAXX 29064 67541 12380 80000 10190 20190 48511 60244 8253/
                   333 10302 20174 58005 82606 87360=
201901240900 AAXX 24094 67541 42580 70000 10270 20205 48518 70222 83233
                   333 59003 83825 82360 83080=
201901240600 AAXX 24064 67541 32980 70704 10210 20193 48507 82035
                   333 10300 20170 58000 82360 85080=
201901230900 AAXX 23094 67541 42580 70000 10260 20201 48521 83230
                   333 58003 83823 84360=
201901221200 AAXX 22124 67541 42480 70402 10240 20200 48499 70222 8323/
                   333 59015 83818 87360=
201901220900 AAXX 22094 67541 42480 70000 10245 20198 48518 70222 8423/
                   333 59013 84818 87360=
201901220600 AAXX 22064 67541 12380 70000 10195 20192 48506 60264 70222 8253/
                   333 10300 20174 59016 82606 87360=
201901210900 AAXX 21094 67541 42480 70000 10250 20206 48531 70222 8323/
                   333 5//// 83818 87360=
201901210600 AAXX 21064 67541 12980 70000 10190 20190 48522 60034 70222 8703/
                   333 10262 20172 58005 87360=
201901181200 AAXX 18124 67541 42580 70000 10265 20199 48504 70222 85230
                   333 59004 85825 82360=
201901180600 AAXX 18064 67541 12980 70000 10200 20185 48509 69904 70222 87030
                   333 10262 20170 58001 87360=
201901171200 AAXX 17124 67541 42480 70305 10230 20185 48508 70222 83232
                   333 58006 83818 83360 82080=
201901170600 AAXX 17064 67541 11360 80000 10180 20180 48508 60694 76066 8253/
                   333 10290 20168 59001 82705 87360=
201901161200 AAXX 16124 67541 42580 70403 10269 20213 48502 70222 83231
                   333 58010 81915 82829 86360 81080=
201901160900 AAXX 16094 67541 41460 70000 10245 20216 48519 8323/
                   333 59001 83818 87360=
201901141200 AAXX 14124 67541 42580 70000 10235 20213 48493 70262 83230
                   333 5//// 83820 85360=
201901140900 AAXX 14094 67541 42580 70306 10240 20191 48505 70222 8323/
                   333 5//// 83820 87360=
201901140600 AAXX 14064 67541 12380 70405 10195 20192 48489 60094 70222 8153/
                   333 10294 20174 58000 81606 87360=
201901101200 AAXX 10124 67541 42680 50000 10280 20208 48489 70222 8423/
                   333 58000 84830 87360=
201901100900 AAXX 10094 67541 42480 70403 10265 20219 48515 70222 8323/
                   333 59005 83818 87360=
201901100600 AAXX 10064 67541 12980 70000 10205 20196 48505 60044 70222 8703/
                   333 10296 20176 59003 87360=
201901091200 AAXX 09124 67541 42680 50000 10280 20208 48489 70222 84230
                   333 59011 84830 81360=
201901071200 AAXX 07124 67541 42680 70402 10285 20206 48501 70222 84230
                   333 5//// 84832 86360=
201901070600 AAXX 07064 67541 32980 70000 10203 20194 48524 70222 87030
                   333 10290 20188 59002 87360=
201901041200 AAXX 04124 67541 NIL=
201901040900 AAXX 04094 67541 42580 70303 10250 20198 48529 70222 83230
                   333 58003 83820 87360=
201901040600 AAXX 04064 67541 12380 80000 10210 20195 48518 60114 70222 8253/
                   333 10266 20180 58001 82607 87360=
201901031200 AAXX 03124 67541 41465 70000 10210 20202 48499 76066 8423/
                   333 59006 81910 83815 87360=
201901020900 AAXX 02094 67541 42580 70604 10250 20201 48544 70222 8213/
                   333 5//// 82820 87360=
201901020600 AAXX 02064 67541 32980 70000 10211 20187 48537 70222 8703/
                   333 10290 20180 58000 87360=

################################################################################
#  SYNOPS from 67543, Kabompo (Zambia) | 13-36S | 024-12E | 1075 m
################################################################################
201901300900 AAXX 30094 67543 42583 70000 10266 20202 48/// 84230
                   333 59010 84820 86361=
201901290900 AAXX 29094 67543 42583 70000 10250 20184 48/// 88423
                   333 58008 84820 81360 85280=
201901290600 AAXX 29064 67543 12380 80000 10195 20179 48/// 60064 886//
                   333 10342 20188 58001 88707=
201901280600 AAXX 28064 67543 12980 70000 10200 20195 48/// 69904 82047
                   333 10346 20178 59001 82360=
201901250600 AAXX 25064 67543 32983 40000 10212 20189 48/// 82041
                   333 10336 20186 58010 82361 84080=
201901240600 AAXX 24064 67543 12380 60000 10218 20191 48/// 60014 82631
                   333 10310 20198 59007 82708 85361 81080=
201901221200 AAXX 22124 67543 41680 70000 10230 20202 48/// 72122 8437/
                   333 59012 81830 84830 87462=
201901220900 AAXX 22094 67543 42583 60000 10260 20195 48/// 86300
                   333 59015 81920 86820=
201901220600 AAXX 22064 67543 11378 60000 10200 20193 48/// 60064 72844 85630
                   333 10296 20188 59020 85707 83360=
201901211200 AAXX 21124 67543 41682 70000 10242 20210 48/// 71792 85912
                   333 5//// 81930 85830 86461 81085=
201901210600 AAXX 21064 67543 11380 70000 10194 20184 48/// 60384 72844 8367/
                   333 10336 20182 5//// 83706 87360=
201901180900 AAXX 18094 67543 42583 73201 10238 20187 48/// 8557/
                   333 59008 85620 87361=
201901180600 AAXX 18064 67543 12980 70000 10206 20184 48/// 60284 8707/
                   333 10306 20190 59003 87360=
201901171200 AAXX 17124 67543 NIL=
201901170600 AAXX 17064 67543 12380 70000 10204 20189 48/// 69904 8463/
                   333 10310 20190 59005 84707 87360=
201901161200 AAXX 16124 67543 42683 73601 10278 20188 48/// 8433/
                   333 58003 81930 84830 87362=
201901160900 AAXX 16094 67543 42482 70000 10250 20195 48/// 875//
                   333 58009 87618=
201901140600 AAXX 14064 67543 12380 80000 10194 20185 48/// 60384 886//
                   333 10288 20178 58014 88707=
201901110600 AAXX 11064 67543 12382 80000 10104 20194 48/// 69934 8267/
                   333 10304 20198 58011 82707 88460=
201901101200 AAXX 10124 67543 41683 73401 10272 20209 48/// 71792 8537/
                   333 58001 81930 85830 87362=
201901100900 AAXX 10094 67543 42583 70000 10278 20193 48/// 83230
                   333 59007 83825 86361=
201901100600 AAXX 10064 67543 12980 70000 10208 20192 48/// 60104 8705/
                   333 10302 20180 59005 87360=
201901090900 AAXX 09094 67543 42583 73002 10270 20189 48/// 8483/
                   333 5//// 84820 87360=
201901080600 AAXX 08064 67543 11380 83302 10208 20188 48/// 60094 72122 887//
                   333 10292 20194 58000 88707=
201901071200 AAXX 07124 67543 NIL=
201901070600 AAXX 07064 67543 12980 70000 10212 20202 48/// 60034 8705/
                   333 10292 20196 59030 87360=
201901041200 AAXX 04124 67543 NIL=
201901040900 AAXX 04094 67543 42583 70000 10258 20194 48/// 84130
                   333 5//// 84820 86360=

################################################################################
#  SYNOPS from 67551, Solwezi (Zambia) | 12-11S | 026-23E | 1386 m
################################################################################
201901310600 AAXX 31064 67551 11380 70000 10185 20177 48531 60124 76166 8277/
                   333 10281 20159 58017 82704 81325 87262 91020=
201901301200 AAXX 30124 67551 42580 60903 10268 20178 48501 81901
                   333 59013 81925 85825 81080 91016=
201901300900 AAXX 30094 67551 42480 70605 10234 20187 48528 85501
                   333 59007 85615 87362 81080
                   555 91020=
201901290600 AAXX 29064 67551 12375 81503 10188 20178 48532 60544 8667/
                   333 10292 20166 58008 86606 88360 91021=
201901250600 AAXX 25064 67551 11380 70000 10219 20161 48532 60254 79596 8377/
                   333 10275 20179 58016 83706 81962 87362 91021=
201901240900 AAXX 24094 67551 42480 72705 10238 20177 48521 83830
                   333 58003 82015 81820 87362
                   555 91019=
201901240600 AAXX 24064 67551 12380 73405 10189 20167 48519 82630
                   333 10268 20165 59002 82706 87362 91019=
201901180600 AAXX 18064 67551 12980 73305 10179 20166 48518 60174 8707/
                   333 10259 20156 59013 87362 87362 91019=
201901171200 AAXX 17124 67551 NIL=
201901140900 AAXX 14094 67551 42480 73305 10235 20174 48515 8453/
                   333 58012 84615 87362 91019=
201901140600 AAXX 14064 67551 12380 70000 10191 20167 48515 60014 81682
                   333 10264 20165 58013 81706 86362 82080 91018=
201901100900 AAXX 10094 67551 42480 73305 10265 20183 48522 81830
                   333 59003 81620 85825 86362 91018=
201901100600 AAXX 10064 67551 32980 70000 10200 20184 48510 8707/
                   333 10278 20160 58000 87362 91018=
201901091200 AAXX 09124 67551 42680 73005 10269 20154 48496 84237
                   333 58004 84835 84362 87280 91016=
201901071200 AAXX 07124 67551 42680 60000 10280 20181 48481 86230
                   333 59019 86840 86362 91014=
201901070600 AAXX 07064 67551 11970 70000 10204 20184 48508 60014 87030
                   333 10252 20175 59015 87362 91018=
201901041200 AAXX 04124 67551 NIL=
201901040900 AAXX 04094 67551 NIL=

################################################################################
#  SYNOPS from 67561, Ndola (Zambia) | 13-00S | 028-39E | 1269 m
################################################################################
201901300600 AAXX 30064 67561 11260 70000 10184 20176 48527 60274 70522 83638
                   333 10212 20164 59001 83705 87360 85280 91020=
201901280900 AAXX 28094 67561 11370 10103 10196 20186 48527 61614 70522 8567/
                   333 10288 20177 58001 85706 87460=
201901280600 AAXX 28064 67561 11370 70703 10196 20186 48527 61314 70522 8567/
                   333 10288 20177 58001 85706 87460 91020=
201901250600 AAXX 25064 67561 11359 60104 10200 20184 48528 60034 70422 85532
                   333 10293 20181 58007 85610 86360 84080 91020=
201901230600 AAXX 23064 67561 31250 72904 10197 20193 48514 74442 876//
                   333 10//0 20165 59004 87703 91019=
201901220600 AAXX 22064 67561 31456 70000 10194 20194 48518 74424 86538
                   333 10269 20170 59017 86610 85280 91019=
201901210600 AAXX 21064 67561 11358 60000 10188 48534 60134 72844 81536
                   333 10253 20160 58006 81609 86360 91021=
201901180600 AAXX 18064 67561 11259 82904 10186 20184 48520 60094 70102 8477/
                   333 10236 20179 59017 84703 88459 91019=
201901171200 AAXX 17124 67561 NIL=
201901170600 AAXX 17064 67561 11250 83404 10178 20175 48536 60704 86166
                   333 10289 20175 58000 83704 88459 91021=
201901160600 AAXX 16064 67561 11256 80000 10192 20187 48537 60064 76166 8577/
                   333 58009 85703 88459 91021=
201901150600 AAXX 15064 67561 11358 89904 10194 20188 48529 60244 76165 8477/
                   333 10270 20175 58009 87708 88459 91020=
201901140600 AAXX 14064 67561 11259 80807 10191 20190 48519 60034 72122 8777/
                   333 10277 20182 58019 87703 88459 91019=
201901110600 AAXX 11064 67561 11258 70000 10201 20196 48513 60054 70462 8163/
                   333 10276 20187 59003 81703 87360 91018=
201901100900 AAXX 10094 67561 NIL=
201901100600 AAXX 10064 67561 NIL=
201901091200 AAXX 09124 67561 41670 69904 10269 20187 48497 70522 83238
                   333 58010 83830 84360 86280
                   555 66/// 77/// 8887/ 98022 91016=
201901090600 AAXX 09064 67561 11360 89904 10194 20188 48518 60074 70562 81738
                   333 10285 20183 58005 81707 85360 88280 91019=
201901071200 AAXX 07124 67561 NIL=
201901070600 AAXX 07064 67561 11260 70704 10205 20190 48511 60124 70562 83638
                   333 10266 20190 59016 83703 85360 87280 91018=
201901041200 AAXX 04124 67561 NIL=
201901040900 AAXX 04094 67561 NIL=
201901040600 AAXX 04064 67561 11259 70904 10211 20187 48534 60064 70522 8367/
                   333 10241 20183 58005 83704 87460 91021=

################################################################################
#  SYNOPS from 67563, Kafironda (Zambia) | 12-36S | 028-07E | 1243 m
################################################################################
201901310600 AAXX 31064 67563 11975 80000 10190 20182 48/// 60064 76266 8807/
                   333 10275 20179 58012 88458=
201901280900 AAXX 28094 67563 11378 82402 10204 20190 48/// 60094 70562 887//
                   333 10304 20182 58005 88708
                   555 11184=
201901280600 AAXX 28064 67563 11378 82102 10204 20190 48/// 60094 70562 887//
                   333 10304 20182 58005 88708=
201901250600 AAXX 25064 67563 11378 70302 10210 20187 48/// 60054 70562 86730
                   333 10300 20185 58010 86708 81360
                   555 00194=
201901240600 AAXX 24064 67563 31375 70000 10205 20190 48/// 69994 70522 81630
                   333 10300 20180 58009 81608 86360=
201901220600 AAXX 22064 67563 31375 73202 10215 20193 48/// 60014 70522 86730
                   333 10240 20190 59022 86708 81358
                   555 00196=
201901210600 AAXX 21064 67563 11378 73002 10206 20180 48/// 69974 70522 81770
                   333 10267 20168 58010 81708 86359
                   555 00168=
201901180600 AAXX 18064 67563 11378 80202 10200 20168 48/// 60034 72162 8477/
                   333 10250 20180 59011 84708 84458
                   555 00185=
201901171200 AAXX 17124 67563 NIL=
201901170600 AAXX 17064 67563 11370 80000 10182 20178 48/// 60154 76264 887//
                   333 10290 20176 59006 88708
                   555 00184=
201901150600 AAXX 15064 67563 11378 73503 10198 20190 48/// 60124 72162 8677/
                   333 10272 20177 58009 86709 87359
                   555 00178=
201901140600 AAXX 14064 67563 11378 70205 10212 20190 48/// 60024 70522 87700
                   333 10278 20182 58020 87707
                   555 00182=
201901110600 AAXX 11064 67563 11978 73602 10207 20190 48/// 60144 72162 87070
                   333 10284 20186 59001 87358
                   555 00183=
201901100900 AAXX 10094 67563 NIL=
201901100600 AAXX 10064 67563 11978 62802 10228 20190 48/// 69944 70522 86070
                   333 10279 20180 59006 86359
                   555 00181=
201901090600 AAXX 09064 67563 11978 83602 10200 20190 48/// 60204 76162 8807/
                   333 10289 20182 58004 88358
                   555 00182=
201901080600 AAXX 08064 67563 11378 70000 10208 20190 48/// 69984 70522 81770
                   333 10303 20182 58007 81707 87359
                   555 00182=
201901071200 AAXX 07124 67563 NIL=
201901070600 AAXX 07064 67563 11378 73602 10207 20190 48/// 60084 70522 82770
                   333 10284 20183 59019 82707 87258
                   555 00183=
201901041200 AAXX 04124 67563 NIL=
201901040900 AAXX 04094 67563 NIL=
201901030600 AAXX 03064 67563 11978 73602 10214 20190 48/// 69964 70522 87070
                   333 10297 20188 59014 87359
                   555 00187=
201901020600 AAXX 02064 67563 11978 70000 10202 20190 48/// 60014 72162 8707/
                   333 10273 20188 58004 87359
                   555 00186=

################################################################################
#  SYNOPS from 67571, Serenje (Zambia) | 13-14S | 030-13E | 1384 m
################################################################################
201901310600 AAXX 31064 67571 12378 83303 10295 20185 48/// 60014 70222 886//
                   333 10256 20179 5//// 88708 8/9//=
201901301200 AAXX 30124 67571 41475 70902 10197 20181 48/// 79596 8527/
                   333 5//// 81915 85815 87460=
201901300900 AAXX 30094 67571 42482 70000 10233 20173 48/// 70222 86231
                   333 5//// 81916 86816 81360 83080=
201901300600 AAXX 30064 67571 12379 71803 10208 20181 48/// 60214 82638
                   333 10232 20169 5//// 82710 82360 85280=
201901290900 AAXX 29094 67571 41360 82703 10211 20186 48/// 79596 887//
                   333 5//// 88710 8/9//=
201901281200 AAXX 28124 67571 41560 71501 10184 20180 48/// 79596 85248
                   333 5//// 81920 85820 84460 87280=
201901240900 AAXX 24094 67571 12378 82702 10196 20171 48/// 69904 70222 886//
                   333 10294 20177 5//// 88709
                   555 00253 20000=
201901230900 AAXX 23094 67571 42682 73303 10260 20156 48/// 82138
                   333 5//// 82830 81360 86280=
201901230600 AAXX 23064 67571 32/20 93302 10181 20179 48/// 74544
                   333 10283 20151 5////=
201901221200 AAXX 22124 67571 42682 71803 10264 20146 48/// 70222 85208
                   333 5//// 81935 85835 87280=
201901220600 AAXX 22064 67571 11/10 90000 10171 20169 48/// 69904 74744
                   333 10242 20148 5////=
201901210900 AAXX 21094 67571 42482 71204 10216 20170 48/// 70222 86531
                   333 5//// 86618 82360 83080=
201901210600 AAXX 21064 67571 12378 81505 10186 20171 48/// 60044 70222 886//
                   333 10222 20172 5//// 88706
                   555 00199=
201901180600 AAXX 18064 67571 11277 83304 10190 20181 48/// 60014 72842 886//
                   333 10237 20166 5//// 88703=
201901171200 AAXX 17124 67571 42582 82705 10223 20166 48/// 70222 8657/
                   333 5//// 81920 86620 88460=
201901170600 AAXX 17064 67571 11265 83304 10180 20178 48/// 60084 76566 887//
                   333 10273 20176 5//// 88703 819//
                   555 00192=
201901160900 AAXX 16094 67571 42582 72704 10240 20166 48/// 70222 82838
                   333 5//// 82620 81825 84360 87280=
201901160600 AAXX 16064 67571 12982 72702 10200 20174 48/// 69914 8807/
                   333 10243 20170 5//// 88460=
201901150600 AAXX 15064 67571 32378 83303 10187 20169 48/// 70222 8467/
                   333 10249 20176 5//// 84708 88460=
201901141200 AAXX 14124 67571 42582 73307 10238 20171 48/// 70222 83838
                   333 5//// 83625 81831 86360 87280=
201901140600 AAXX 14064 67571 11376 83602 10180 20169 48/// 60044 75055 887//
                   333 10251 20171 5//// 88708=
201901100900 AAXX 10094 67571 42582 73604 10244 20195 48/// 70222 85838
                   333 5//// 84620 83825 81360 87280=
201901100600 AAXX 10064 67571 11277 80000 10210 20191 48/// 69904 76066 8277/
                   333 10272 20178 5//// 82703 88460=
201901091200 AAXX 09124 67571 42682 72703 10244 20188 48/// 70222 82938
                   333 5//// 81932 82832 81360 87280=
201901090600 AAXX 09064 67571 12982 82702 10192 20181 48/// 60134 70222 8807/
                   333 10262 20188 5//// 88460=
201901071200 AAXX 07124 67571 NIL=
201901041200 AAXX 04124 67571 NIL=
201901040900 AAXX 04094 67571 NIL=
201901040600 AAXX 04064 67571 12482 70203 10206 20183 48/// 69904 70222 85538
                   333 10262 20174 5//// 85615 82360 86280=
201901031200 AAXX 03124 67571 42682 73602 10232 20167 48/// 70222 81938
                   333 5//// 81932 81832 81360 87280=
201901020600 AAXX 02064 67571 12982 30903 10234 20180 48/// 60324 70200 81031
                   333 10275 20164 5//// 81360 83080=

################################################################################
#  SYNOPS from 67575, Mkushi (Zambia) | 13-38-00S | 029-26-00E | 1237 m
################################################################################
201901310600 AAXX 31064 67575 11320 83501 10175 20175 48499 60184 76396 887//
                   333 10282 20167 58012 86708=
201901301200 AAXX 30124 67575 41650 51902 10270 20188 48465 71792 85273
                   333 5//// 81935 85835 81362 81080=
201901300600 AAXX 30064 67575 12380 51104 10207 20181 48491 60214 84671
                   333 10250 20155 59005 81709 81360 81080=
201901290900 AAXX 29094 67575 42480 80903 10223 20187 48496 8757/
                   333 58009 87617 81460=
201901290600 AAXX 29064 67575 11365 80903 10197 20178 48494 69954 76062 887//
                   333 10277 20183 58008 88708=
201901281200 AAXX 28124 67575 41680 51203 10264 20178 48463 71792 85273
                   333 5//// 81935 85835 81360 81080=
201901280900 AAXX 28094 67575 32480 70904 10207 20173 48488 82578
                   333 10290 20166 58003 82612 81360 86280
                   555 00157=
201901280600 AAXX 28064 67575 32480 70904 10207 20173 48488 82578
                   333 10290 20166 58003 82612 81360 86280=
201901250600 AAXX 25064 67575 12480 70301 10204 20183 48488 69904 81538
                   333 10292 20175 58010 81612 81360 87280
                   555 00169=
201901240600 AAXX 24064 67575 32380 83602 10200 20193 48478 886//
                   333 10305 20175 58006 88706=
201901230900 AAXX 23094 67575 42680 20000 10260 20178 48476 82201
                   333 59003 82830 81080=
201901221200 AAXX 22124 67575 42680 61802 10273 20151 48458 82208
                   333 59016 82837 86280=
201901220900 AAXX 22094 67575 42680 63501 10246 20171 48479 70342 82208
                   333 59021 82830 86280=
201901220600 AAXX 22064 67575 11/01 93601 10167 20167 48477 60024 74542 8////
                   333 10250 20134 59017
                   555 00128=
201901210900 AAXX 21094 67575 42580 70903 10232 20171 48497 85230
                   333 5//// 85827 82361=
201901210600 AAXX 21064 67575 11380 71201 10191 20180 48496 60014 72052 85671
                   333 10260 20157 5//// 85708 82360 81080
                   555 00156=
201901181200 AAXX 18124 67575 41640 72701 10258 20180 48448 71682 85273
                   333 59021 81935 85835 81360 82080=
201901180900 AAXX 18094 67575 42680 72902 10254 20175 48474 83278
                   333 58005 83830 81361 84280=
201901180600 AAXX 18064 67575 12360 83602 10205 20187 48478 69904 8467/
                   333 10255 20178 59012 84706 85360
                   555 00174=
201901171200 AAXX 17124 67575 42580 72703 10232 20176 48467 83271
                   333 58006 83828 83360 82080=
201901170600 AAXX 17064 67575 11350 83401 10196 20184 48489 60034 71522 8777/
                   333 10280 20177 5//// 87708 82360
                   555 00175=
201901161200 AAXX 16124 67575 41680 72701 10254 20182 48462 71796 81273
                   333 59014 81935 81835 84362 81080=
201901160900 AAXX 16094 67575 42480 62702 10216 20186 48493 81572
                   333 58004 81617 86360=
201901160600 AAXX 16064 67575 11950 80000 10184 20178 48/// 60254 76162 8807/
                   333 10250 20168 5//// 88459
                   555 00170=
201901150900 AAXX 15094 67575 41475 83503 10232 20184 48490 76062 8457/
                   333 58012 84615 85460=
201901150600 AAXX 15064 67575 11370 83601 10191 20185 48489 60024 72162 8777/
                   333 10258 20172 58011 87706 82460=
201901141200 AAXX 14124 67575 41470 73602 10232 20200 48461 76162 81571
                   333 5//// 81613 87460 81080=
201901140900 AAXX 14094 67575 41365 73602 10207 20197 48/// 76162 81771
                   333 5//// 81709 87460 81080=
201901140600 AAXX 14064 67575 11365 80301 10194 20188 48479 60094 76162 8177/
                   333 10278 20176 58023 81706 84460
                   555 00177=
201901101200 AAXX 10124 67575 41660 83501 10197 20185 48454 79596 8527/
                   333 58005 81930 85830 83359=
201901100900 AAXX 10094 67575 41650 53601 10257 20200 48466 71522 84273
                   333 59004 81930 84830 81360 81080=
201901100600 AAXX 10064 67575 12380 73601 10218 20199 48475 60034 81670
                   333 10290 20185 59007 81708 87360
                   555 00182=
201901091200 AAXX 09124 67575 41680 33601 10282 20191 48454 71796 82273
                   333 58006 81936 82836 81362 81080=
201901071200 AAXX 07124 67575 41665 70303 10224 20187 48451 79598 84273
                   333 5//// 81935 84835 83360 81080=
201901070600 AAXX 07064 67575 12380 70000 10200 20180 48471 60044 81670
                   333 10273 20170 59015 81708 87360
                   555 00170=
201901041200 AAXX 04124 67575 41640 72702 10281 20194 48465 71792 85273
                   333 59007 81932 85832 82360 81080=
201901040900 AAXX 04094 67575 42680 31801 10242 20192 48491 81231
                   333 59002 81830 82361 81080=
201901031200 AAXX 03124 67575 41650 72703 10227 20197 48469 79598 84273
                   333 58006 81935 84835 83360 81080=

################################################################################
#  SYNOPS from 67580, Msekera (Zambia) | 13-39S | 032-34E | 1025 m
################################################################################
201901310600 AAXX 31064 67580 11580 70000 10216 20200 48/// 60064 72162 8217/
                   333 10274 20193 59006 82825 87460 00/// 20029=
201901301200 AAXX 30124 67580 41680 71804 10240 20202 48/// 72992 872//
                   333 59011 82935 86840=
201901300900 AAXX 30094 67580 12580 70903 10220 20203 48/// 60294 8117/
                   333 10278 20188 59010 81820 87460
                   555 00/// 20017=
201901290900 AAXX 29094 67580 12580 71204 10212 20194 48/// 60174 8117/
                   333 10288 20192 58009 81828 87460
                   555 00/// 20007=
201901250600 AAXX 25064 67580 12680 73003 10228 20202 48/// 60024 8783/
                   333 10309 20200 58020 83830 84632=
201901230900 AAXX 23094 67580 42680 72702 10252 20203 48/// 87231
                   333 58003 87846 82361 82080=
201901230600 AAXX 23064 67580 32580 72702 10227 20206 48/// 84831
                   333 10299 20194 59002 82818 82620 83360 82080=
201901220900 AAXX 22094 67580 42680 72702 10248 20181 48///
                   333 5//// 87846 83080=
201901220600 AAXX 22064 67580 32680 70000 10210 20185 48/// 82108
                   333 10249 20165 59026 82830 87280=
201901210600 AAXX 21064 67580 12580 71506 10194 20164 48/// 60064 8253/
                   333 10247 20185 58011 82624 87360=
201901180900 AAXX 18094 67580 42680 73602 10249 20202 48/// 87231
                   333 59007 87846 81361 84080=
201901180600 AAXX 18064 67580 12580 73302 10226 20207 48/// 60314 82838
                   333 10276 20195 59006 82824 81628 83360 87280=
201901171200 AAXX 17124 67580 NIL=
201901170600 AAXX 17064 67580 32680 72705 10226 20210 48/// 87838
                   333 10289 20205 59015 83830 84632 82360 84280=
201901160600 AAXX 16064 67580 12980 72704 10233 20202 48/// 69924 8703/
                   333 10288 20207 59004 87360=
201901140600 AAXX 14064 67580 11580 80302 10196 20193 48/// 60634 76166 8357/
                   333 10292 20189 58016 83620 88460=
201901101200 AAXX 10124 67580 42780 72703 10290 20206 48/// 87202
                   333 59010 87856 84080=
201901100900 AAXX 10094 67580 42680 73003 10276 20216 48/// 85230
                   333 59013 85848 85361=
201901100600 AAXX 10064 67580 32980 70000 10238 20200 48/// 87031
                   333 10302 20200 59012 87360 81080=
201901071200 AAXX 07124 67580 NIL=
201901070600 AAXX 07064 67580 11480 82102 10199 20191 48/// 60094 76162 8357/
                   333 10280 20190 59004 83616 88460=
201901041200 AAXX 04124 67580 NIL=
201901040900 AAXX 04094 67580 NIL=
201901040600 AAXX 04064 67580 12980 71202 10250 20205 48/// 69904 84031
                   333 10315 20205 58006 84360 85080=
201901031200 AAXX 03124 67580 41780 72102 10259 20194 48/// 71792 81938
                   333 58003 81950 85850 84361 87280=

################################################################################
#  SYNOPS from 67581, Chipata (Zambia) | 13-33S | 032-35E | 1028 m
################################################################################
201901310600 AAXX 31064 67581 11360 70000 10208 20188 48538 60074 76166 8577/
                   333 10285 20152 59007 85707 87460 91019=
201901300600 AAXX 30064 67581 12380 70000 10210 20195 48544 60254 8153/
                   333 10265 20187 59006 81606 87360 91020=
201901290600 AAXX 29064 67581 11560 71804 10219 20192 48549 60264 76122 8457/
                   333 10262 20152 58008 84620 87460 91021=
201901280900 AAXX 28094 67581 12580 40904 10242 20188 48546 60124 70222 82132
                   333 10272 20141 58000 82820 83360 82080
                   555 00/// 20000 91019=
201901280600 AAXX 28064 67581 12580 40904 10242 20188 48546 60124 70222 82132
                   333 10272 20141 58000 82820 83360 82080
                   555 00/// 20000 91019=
201901250600 AAXX 25064 67581 12480 73402 10220 20190 48538 60154 8657/
                   333 10305 20198 59019 86520 87460 91019=
201901240600 AAXX 24064 67581 32680 50000 10241 20197 48525 82102
                   333 10300 20146 58002 82830 84080 91017=
201901230600 AAXX 23064 67581 12360 60000 10227 20194 48520 60074 85570
                   333 10286 20154 59002 85618 86460 91017=
201901220600 AAXX 22064 67581 32680 41604 10209 20178 48520 70222 81132
                   333 10259 20161 59024 81830 83360 84080 91018=
201901210600 AAXX 21064 67581 12560 81603 10201 20165 48539 60154 8557/
                   333 10246 20146 58009 85620 88460 91020=
201901180900 AAXX 18094 67581 42680 70000 10260 20198 48526 85232
                   333 59007 85830 82360 84080 91017=
201901180600 AAXX 18064 67581 12460 81203 10228 20203 48573 60014 84538
                   333 10276 20144 59007 84620 83360 88280 91018=
201901171200 AAXX 17124 67581 NIL=
201901170600 AAXX 17064 67581 32480 72702 10228 20203 48532 8657/
                   333 10275 20160 59015 86618 87460 91018=
201901160900 AAXX 16094 67581 42680 81405 10246 20194 48525 8417/
                   333 59006 84832 88460 91019=
201901160600 AAXX 16064 67581 12560 80000 10226 20203 48546 60024 74022 8217/
                   333 10278 20144 59003 82825 88460 91020=
201901150600 AAXX 15064 67581 11457 80000 10197 20189 48543 60134 76166 8557/
                   333 10278 20147 58013 85610 88460 91021=
201901100900 AAXX 10094 67581 NIL=
201901100600 AAXX 10064 67581 32980 62704 10236 20207 48525 70222 86030
                   333 10291 20144 59012 86360 91017=
201901090600 AAXX 09064 67581 11460 80000 10207 20197 48532 60114 76066 8657/
                   333 10248 20148 58017 86612 88460 91019=
201901080600 AAXX 08064 67581 31980 71206 10234 20205 48520 69904 70222 84038
                   333 10299 20148 59011 84360 86280 91017=
201901071200 AAXX 07124 67581 41560 81604 10235 20199 48504 76162 8457/
                   333 58001 84625 88459 91015=
201901070600 AAXX 07064 67581 11460 80000 10200 20178 48526 60294 76166 8377/
                   333 10305 20140 59006 83610 88459 91018=
201901041200 AAXX 04124 67581 NIL=
201901040900 AAXX 04094 67581 42680 51806 10286 20203 48560 70222 85230
                   333 58004 85820 82360 91019=
201901040600 AAXX 04064 67581 12680 50000 10241 20202 48547 60024 70222 82132
                   333 10320 20158 58004 82830 82360 82080 91020=
201901030600 AAXX 03064 67581 12680 70305 10256 20205 48545 60074 82132
                   333 10325 20166 59010 82835 86360 82080 91019=
201901020600 AAXX 02064 67581 32980 31204 10258 20188 48555 70200 83030
                   333 10306 20146 59008 83360 91021=

################################################################################
#  SYNOPS from 67583, Lundazi (Zambia) | 12-17S | 033-12E | 1143 m
################################################################################
201901301200 AAXX 30124 67583 42680 60000 10256 20202 48/// 82223
                   333 5//// 82840 85360 81080=
201901300900 AAXX 30094 67583 42680 60000 10256 20202 48/// 84231
                   333 5//// 84835 83360 81080=
201901300600 AAXX 30064 67583 12580 50000 10218 20206 48/// 60184 82531
                   333 10296 2//// 5//// 82620 85360 81080=
201901290900 AAXX 29094 67583 11980 70000 10204 20196 48/// 60034 70262 8707/
                   333 10292 2//// 5//// 87360
                   555 00/// 20001=
201901290600 AAXX 29064 67583 11980 70000 10204 20196 48/// 60034 70262 8707/
                   333 10292 2//// 5//// 87360=
201901250600 AAXX 25064 67583 12480 83602 10216 20186 48/// 60014 81237
                   333 10298 20//0 5//// 81812 88280=
201901240600 AAXX 24064 67583 32980 70000 10228 20197 48/// 81038
                   333 10304 2//// 5//// 81359 87280=
201901221200 AAXX 22124 67583 42680 63603 10276 20166 48/// 85232
                   333 5//// 85835 81360 81080=
201901220900 AAXX 22094 67583 42680 63502 10250 20175 48/// 85232
                   333 5//// 85832 81360 81080=
201901220600 AAXX 22064 67583 11480 73601 10194 20181 48/// 69904 8167/
                   333 10258 20/// 5//// 81710 87360=
201901211200 AAXX 21124 67583 42680 81801 10244 20194 48/// 85230
                   333 5//// 85835 87359=
201901210900 AAXX 21094 67583 41670 81201 10228 20188 48/// 78082 888//
                   333 5//// 84830 85360=
201901210600 AAXX 21064 67583 32480 80000 10204 20197 48/// 8257/
                   333 10236 2//// 82610 87459=
201901180900 AAXX 18094 67583 72680 72702 10270 20189 48/// 85232
                   333 5//// 85840 81360 82080=
201901180600 AAXX 18064 67583 32980 73602 10210 20187 48/// 87030
                   333 10280 20/// 5//// 87360=
201901171200 AAXX 17124 67583 NIL=
201901170600 AAXX 17064 67583 31980 73602 10214 20193 48/// 8707/
                   333 10292 20//0 5//// 87360=
201901140600 AAXX 14064 67583 11158 80000 10198 20192 48/// 60104 76166 8172/
                   333 10258 20//0 5//// 81702 88458=
201901100900 AAXX 10094 67583 NIL=
201901100600 AAXX 10064 67583 32980 70000 10232 20208 48/// 70222 84038
                   333 10282 20//0 5//// 84359 87280=
201901071200 AAXX 07124 67583 NIL=
201901070600 AAXX 07064 67583 11259 70000 10198 20192 48/// 60154 75152 877//
                   333 10362 2//// 5//// 87703=
201901041200 AAXX 04124 67583 NIL=
201901040900 AAXX 04094 67583 NIL=
201901020600 AAXX 02064 67583 12980 20000 10258 20202 48/// 60054 70200 81031
                   333 10298 20//0 5//// 81359 81080=

################################################################################
#  SYNOPS from 67599, Mfuwe (Zambia) | 13-16S | 031-56E | 568 m
################################################################################
201901310600 AAXX 31064 67599 12380 60000 10245 20224 48535 69914 82630
                   333 10325 20215 59007 82609 86360 91017=
201901300600 AAXX 30064 67599 12380 70000 10240 20218 48541 60044 84630
                   333 10290 20210 59005 84609 86359 91018=
201901290900 AAXX 29094 67599 12980 70000 10235 20123 48542 69924 873//
                   333 10340 20210 58008 87359
                   555 00215 20002 91018=
201901290600 AAXX 29064 67599 12980 70000 10235 20213 48542 69924 873//
                   333 10340 20210 58008 87359 91018=
201901280600 AAXX 28064 67599 12380 50000 10250 20241 48541 60024 82630
                   333 10315 20210 58006 82609 85360 91018=
201901250600 AAXX 25064 67599 12480 80906 10233 20218 48526 60024 875//
                   333 10340 20212 58018 87512
                   555 00226 91016=
201901240600 AAXX 24064 67599 32980 63001 10260 20225 48520 82038
                   333 10345 20206 58001 82360 86280 91015=
201901220600 AAXX 22064 67599 32580 51902 10231 20202 48515 82131
                   333 10290 20180 59026 82820 82360 85080
                   555 00180=
201901210600 AAXX 21064 67599 12580 71904 10220 20205 48534 60074 8217/
                   333 10261 20203 58024 82820 87359
                   555 00210 91018=
201901180600 AAXX 18064 67599 32680 70104 10239 20217 48519 83138
                   333 10334 20208 59007 83830 82360 87280
                   555 00210 91015=
201901171200 AAXX 17124 67599 NIL=
201901170600 AAXX 17064 67599 32480 70000 10243 20224 48526 81130
                   333 10330 20205 59012 81810 87359
                   555 00205 91016=
201901140600 AAXX 14064 67599 11160 80000 10220 20214 48523 60104 76066 8477/
                   333 10345 20200 58016 84702 88458
                   555 00205 91017=
201901100900 AAXX 10094 67599 NIL=
201901100600 AAXX 10064 67599 NIL=
201901071200 AAXX 07124 67599 NIL=
201901070600 AAXX 07064 67599 12280 80000 10230 20223 48516 60414 8567/
                   333 10345 20192 59010 85603 88459
                   555 00195 91015=
201901041200 AAXX 04124 67599 NIL=
201901040900 AAXX 04094 67599 NIL=

################################################################################
#  SYNOPS from 67625, Kalabo (Zambia) | 14-51S | 022-42E | 1033 m
################################################################################
201901310600 AAXX 31064 67625 32982 70408 10228 20201 48/// 84034
                   333 10330 20200 59003 84361 87075=
201901301200 AAXX 30124 67625 42782 30808 10310 20175 48/// 83203
                   333 59014 83850 83075=
201901300600 AAXX 30064 67625 12982 71109 10220 20198 48/// 69934 81043
                   333 10315 20187 5//// 81360 87075=
201901290900 AAXX 29094 67625 42582 72604 10249 20190 48/// 81103
                   333 5//// 81826 87075=
201901290600 AAXX 29064 67625 32382 73105 10210 20185 48/// 85603
                   333 10304 20190 5//// 85708 87075=
201901281200 AAXX 28124 67625 41682 50512 10300 20181 48/// 71522 84203
                   333 82947 84847 85075=
201901280900 AAXX 28094 67625 42682 51112 10285 20196 48/// 81133
                   333 81836 81361 85075=
201901280600 AAXX 28064 67625 32982 71109 10230 20193 48/// 85073
                   333 10341 20194 58003 85360 87075=
201901250600 AAXX 25064 67625 12982 73310 10240 20205 48/// 69914 85033
                   333 10330 20210 58015 85360 87075=
201901240900 AAXX 24094 67625 42682 23011 10295 20188 48/// 81135
                   333 59018 81840 81361 82275=
201901240600 AAXX 24064 67625 32982 70208 10235 20204 48/// 85033
                   333 10316 20205 59008 85361 87075=
201901230900 AAXX 23094 67625 42582 83307 10265 20198 48/// 81133
                   333 58004 81826 87361 87075=
201901221200 AAXX 22124 67625 42782 70405 10305 20169 48/// 81163
                   333 59022 81850 82360 87075=
201901220900 AAXX 22094 67625 42682 73207 10274 20203 48/// 83233
                   333 59016 83830 83361 87075=
201901220600 AAXX 22064 67625 12382 70104 10207 20197 48/// 60034 81633
                   333 10320 20180 59017 81708 81361 87075=
201901210900 AAXX 21094 67625 42682 50407 10275 20198 48/// 83104
                   333 5//// 83834 85075=
201901210600 AAXX 21064 67625 32982 60704 10230 20201 48/// 83033
                   333 10306 20205 58012 83361 86075=
201901181200 AAXX 18124 67625 42682 32909 10275 20198 48/// 82135
                   333 58004 82835 82361 83275=
201901180900 AAXX 18094 67625 42482 73312 10230 20194 48/// 82133
                   333 59002 82818 87360 87075=
201901180600 AAXX 18064 67625 12382 73211 10209 20195 48/// 60024 81673
                   333 10285 20198 59003 81706 86360 87075=
201901171200 AAXX 17124 67625 42682 81210 10270 20200 48/// 81183
                   333 59002 81830 81360 88075=
201901170600 AAXX 17064 67625 32982 71802 10210 20196 48/// 83033
                   333 10295 20184 59007 83360 87075=
201901160900 AAXX 16094 67625 42582 53609 10255 20198 48/// 82103
                   333 58016 82825 85075=
201901141200 AAXX 14124 67625 41482 83610 10200 20193 48/// 76166 8572/
                   333 5//// 85710 88460=
201901140900 AAXX 14094 67625 41982 83308 10205 20198 48/// 76062 8802/
                   333 5//// 88460=
201901140600 AAXX 14064 67625 11382 83206 10190 20185 48/// 60174 72055 8172/
                   333 10295 20180 59007 81708 88460=
201901100900 AAXX 10094 67625 NIL=
201901100600 AAXX 10064 67625 32982 73310 10225 20205 48/// 81083
                   333 10320 20205 59007 81360 87075=
201901071200 AAXX 07124 67625 NIL=
201901041200 AAXX 04124 67625 NIL=
201901040900 AAXX 04094 67625 NIL=

################################################################################
#  SYNOPS from 67633, Mongu (Zambia) | 15-15S | 023-09E | 1052 m
################################################################################
201901310600 AAXX 31064 67633 32980 43605 10230 20201 48518 84030
                   333 10324 20205 58010 84360 91018=
201901280600 AAXX 28064 67633 12980 70903 10225 20193 48527 60094 87070
                   333 10315 20206 58002 87460 91091=
201901250600 AAXX 25064 67633 12980 23605 10241 20203 48519 69904 80001
                   333 10330 20205 58013 82080 91017=
201901230900 AAXX 23094 67633 42980 53602 10265 20914 48524 85031
                   333 58011 85360 81080 91019=
201901230600 AAXX 23064 67633 32980 63604 10220 20194 48516 70122 86030
                   333 10307 20206 58007 91018=
201901220900 AAXX 22094 67633 42680 53401 10273 20203 48525 70322 85200
                   333 59017 81930 84830 91018=
201901220600 AAXX 22064 67633 12980 30902 10225 20204 48517 60074 81031
                   333 10321 20190 59016 81360 83080 91017=
201901210900 AAXX 21094 67633 42680 60304 10278 20191 48543 85201
                   333 58001 81930 84830 82080 91019=
201901181200 AAXX 18124 67633 42680 83605 10270 20207 48504 70122 85230
                   333 59003 81930 84840 85360 91016=
201901180600 AAXX 18064 67633 12980 63606 10215 20201 48506 60154 70222 86030
                   333 10271 20196 59007 86360 91017=
201901171200 AAXX 17124 67633 NIL=
201901170600 AAXX 17064 67633 32980 70902 10235 20207 48524 70222 83038
                   333 10302 20206 59005 83360 87280 91018=
201901161200 AAXX 16124 67633 42680 53606 10286 20200 48505 70222 84201
                   333 58004 81935 83835 85080 91015=
201901160900 AAXX 16094 67633 42680 53506 10258 20194 48527 70122 83201
                   333 58008 83830 83080 91018=
201901150600 AAXX 15064 67633 32980 83605 10203 20191 48503 70222 8807/
                   333 10249 20192 58015 88460 91016=
201901141200 AAXX 14124 67633 41580 83612 10210 20198 48484 75052 8687/
                   333 58009 84620 83825 87460 91014=
201901140600 AAXX 14064 67633 11980 83302 10197 20194 48484 60254 78082 8807/
                   333 10297 20195 58009 88460 91015=
201901110900 AAXX 11094 67633 41675 83603 10200 20193 48503 79592 8197/
                   333 58012 81930 88460 91017=
201901100900 AAXX 10094 67633 NIL=
201901100600 AAXX 10064 67633 32980 73606 10230 20201 48498 70222 84038
                   333 10320 20210 58003 84360 87280 91016=
201901091200 AAXX 09124 67633 42680 53604 10294 20195 48491 70222 85200
                   333 59008 81935 84835 91013=
201901090900 AAXX 09094 67633 42680 53610 10265 20201 48496 70222 84231
                   333 59003 84840 83360 82080 91014=
201901071200 AAXX 07124 67633 NIL=
201901070600 AAXX 07064 67633 32980 62702 10235 20184 48500 70222 86030
                   333 10284 20200 86360 91016=
201901041200 AAXX 04124 67633 NIL=
201901040900 AAXX 04094 67633 42680 70302 10270 20207 48533 70322 84202
                   333 58007 84830 85080 91018=

################################################################################
#  SYNOPS from 67641, Kaoma (Zambia) | 14-48S | 024-48E | 1213 m
################################################################################
201901310600 AAXX 31064 67641 12980 70000 10217 20195 48516 69934 8703/
                   333 10300 20192 59002 87360 91017=
201901301200 AAXX 30124 67641 42580 70000 10266 20201 48513 70222 8323/
                   333 59003 83834 86360 91056=
201901300900 AAXX 30094 67641 42580 60604 10255 20206 48523 86230
                   333 59008 86828 91077=
201901250600 AAXX 25064 67641 12980 60604 10227 20203 48514 60014 80008
                   333 10330 20183 58011 86280 91017=
201901240900 AAXX 24094 67641 32980 40000 10244 20203 48502 70110 81031
                   333 10332 20202 59004 81360 84080
                   555 00/// 910162=
201901240600 AAXX 24064 67641 32980 40000 10244 20203 48502 70110 81031
                   333 10332 20202 59004 81360 84080 91016=
201901230600 AAXX 23064 67641 32980 62601 10220 20200 48502 86030
                   333 10301 20188 59007 86360 91016=
201901220600 AAXX 22064 67641 12580 60601 10206 20198 48503 69934 81530
                   333 10305 20180 59020 81620 86360 91016=
201901211200 AAXX 21124 67641 42680 61201 10276 20199 48511 84230
                   333 58003 84840 82360 91016=
201901210900 AAXX 21094 67641 42680 70601 10260 20203 48532 84230
                   333 58028 84830 83360 91020=
201901210600 AAXX 21064 67641 12580 70000 10210 20197 48524 60024 82530
                   333 10285 20190 58009 82620 87360 91018=
201901180600 AAXX 18064 67641 12980 73503 10197 20187 48501 60144 70222 87030
                   333 10258 20189 59006 87360 91016=
201901171200 AAXX 17124 67641 NIL=
201901170600 AAXX 17064 67641 11580 83601 10217 20194 48505 69924 76062 81137
                   333 10296 20200 59004 84360 88280 91016=
201901150900 AAXX 15094 67641 42580 73004 10235 20188 48504 8413/
                   333 58008 84820 87360 91016=
201901150600 AAXX 15064 67641 12580 73602 10200 20188 48497 60024 8153/
                   333 10280 20188 58018 81620 87360 91016=
201901141200 AAXX 14124 67641 41480 70000 10220 20206 48488 72162 8357/
                   333 58024 83614 87460 91014=
201901140600 AAXX 14064 67641 11480 80000 10190 20187 48482 60104 72165 8677/
                   333 10254 20189 58005 86708 84708 88459 91014=
201901110600 AAXX 11064 67641 12980 73602 10194 20186 48489 60594 8703/
                   333 10311 20179 58007 87360 91015=
201901100900 AAXX 10094 67641 42680 62802 10266 20210 48488 83232
                   333 58001 83830 82360 81080 91015=
201901100600 AAXX 10064 67641 12980 70601 10212 20200 48485 60054 87030
                   333 10300 20192 59002 87360 91014=
201901090600 AAXX 09064 67641 12980 62802 10230 20202 48489 60034 86030
                   333 10264 20191 59005 86360 91014=
201901080600 AAXX 08064 67641 11370 83402 10204 20195 48493 60154 75052 8677/
                   333 10276 20194 58000 86709 88460 91015=
201901071200 AAXX 07124 67641 NIL=
201901070600 AAXX 07064 67641 12980 70000 10224 20205 48493 60264 70222 8707/
                   333 10280 20196 59027 87359 91015=
201901041200 AAXX 04124 67641 NIL=
201901040900 AAXX 04094 67641 NIL=
201901040600 AAXX 04064 67641 11580 72702 10196 20189 48508 60164 72162 82530
                   333 10286 20188 59017 82620 91017=
201901030600 AAXX 03064 67641 11560 82701 10194 20188 48524 60074 76166 8457/
                   333 10300 20189 59004 84620 87460 91020=
201901020600 AAXX 02064 67641 32580 73604 10224 20196 48533 70222 8687/
                   333 10320 20176 58001 82824 84626 87361 91020=

################################################################################
#  SYNOPS from 67655, Mumbwa (Zambia) | 15-04S | 027-11E | 1216 m
################################################################################
201901300900 AAXX 30094 67655 42480 71008 10223 20187 48539 875//
                   333 59008 87615 91020=
201901300600 AAXX 30064 67655 32480 71008 10200 20182 48528 875//
                   333 10250 20180 59010 87610 91019=
201901290600 AAXX 29064 67655 32380 81012 10200 20185 48544 8767/
                   333 10302 20160 58002 84706 87306 91021=
201901240600 AAXX 24064 67655 32880 73305 10233 20//0 48515 83038
                   333 10304 20190 59003 83358 82080 91017=
201901230600 AAXX 23064 67655 32980 5//// 10230 20185 48518 80001
                   333 10273 20147 59011 85080 91017=
201901220600 AAXX 22064 67655 32980 41306 10210 20173 48527 80001
                   333 10260 20142 59022 84080 91019=
201901210600 AAXX 21064 67655 32480 70000 10201 20185 48547 875//
                   333 10249 20181 58011 87610 91021=
201901180600 AAXX 18064 67655 NIL=
201901171200 AAXX 17124 67655 NIL=
201901170600 AAXX 17064 67655 11380 80000 10202 20195 48525 60154 72662 8377/
                   333 10291 20189 59005 83706 87458 91019=
201901160600 AAXX 16064 67655 12580 73406 10206 20189 48531 69964 8357/
                   333 10260 20159 58011 86359 91019=
201901150600 AAXX 15064 67655 11380 73309 10201 20185 48522 60184 70222 875//
                   333 10238 20182 58011 87606 91018=
201901140600 AAXX 14064 67655 12480 73612 10210 20195 48509 60224 8357/
                   333 10260 20189 58021 83610 86360 91017=
201901110600 AAXX 11064 67655 12480 70000 10210 20171 48532 60264 8213/
                   333 10//0 20150 59007 82815 87357 91023=
201901100900 AAXX 10094 67655 NIL=
201901100600 AAXX 10064 67655 11980 80000 10210 20196 48511 60044 75052 8707/
                   333 10270 20198 59003 87459 91017=
201901080600 AAXX 08064 67655 12580 73210 10215 20189 48510 60234 8257/
                   333 10272 20192 59002 82620 86360 91017=
201901071200 AAXX 07124 67655 NIL=
201901070600 AAXX 07064 67655 12980 83607 10219 20177 48513 60324 8707/
                   333 10283 20191 59022 87359 91017=
201901041200 AAXX 04124 67655 NIL=
201901040900 AAXX 04094 67655 NIL=
201901040600 AAXX 04064 67655 12980 63109 10227 20196 48538 60144 86030
                   333 10242 20162 59002 86359 91020=
201901020600 AAXX 02064 67655 12380 70408 10240 20190 48549 60104 8317/
                   333 10276 20178 58001 83830 86360 91021=

################################################################################
#  SYNOPS from 67659, Kafue Polder (Zambia) | 15-46S | 027-55E | 978 m
################################################################################
201901310600 AAXX 31064 67659 32480 53605 10230 20185 48/// 70222 81131
                   333 10301 20199 59001 81820 83360 81080=
201901300600 AAXX 30064 67659 32480 50906 10225 20192 48/// 81530
                   333 10313 20190 59010 81610 84360=
201901280900 AAXX 28094 67659 32480 50903 10224 20186 48/// 70322 82530
                   333 10320 20190 58010 82315 83360
                   555 00/// 20000=
201901280600 AAXX 28064 67659 32480 50903 10224 20187 48/// 82530
                   333 10320 20190 58010 82315 83360=
201901250600 AAXX 25064 67659 12980 30903 10240 20//0 48/// 60014 83030
                   333 10300 20180 58018 83360=
201901240600 AAXX 24064 67659 11980 33604 10246 20//0 48/// 60034 83050
                   333 10272 20174 59002 83360=
201901230600 AAXX 23064 67659 32980 43602 10225 20/// 48/// 70222 81031
                   333 10307 20170 59009 81360 83080=
201901220600 AAXX 22064 67659 32980 50904 10220 20183 48/// 70222 85030
                   333 10280 20151 5//// 85360=
201901180600 AAXX 18064 67659 12360 80202 10215 20201 48/// 60054 70222 84570
                   333 10//0 20190 59002 81706 83610 82460=
201901171200 AAXX 17124 67659 NIL=
201901170600 AAXX 17064 67659 32380 83603 10228 20214 48/// 70322 8357/
                   333 10301 20200 59017 83610 85760=
201901160600 AAXX 16064 67659 12380 73404 10215 20201 48/// 69934 70322 83570
                   333 10270 20202 58007 81706 83612 84760=
201901150600 AAXX 15064 67659 11380 83604 10215 20195 48/// 60024 75152 8257/
                   333 10295 20200 58017 81706 82609 85760=
201901140600 AAXX 14064 67659 12380 80706 10228 20202 48/// 60054 70222 8357/
                   333 10287 20210 58019 83609 85460=
201901100900 AAXX 10094 67659 NIL=
201901100600 AAXX 10064 67659 NIL=
201901090600 AAXX 09064 67659 12380 50505 10234 20209 48/// 60994 70222 81530
                   333 10334 20220 58004 81609 84360=
201901080600 AAXX 08064 67659 32480 50703 10230 20204 48/// 70222 81530
                   333 10301 20204 59004 81610 84360=
201901071200 AAXX 07124 67659 NIL=
201901070600 AAXX 07064 67659 12380 70704 10240 20219 48/// 60034 70222 83570
                   333 10300 20201 59013 83608 84360=
201901041200 AAXX 04124 67659 NIL=
201901040900 AAXX 04094 67659 NIL=
201901040600 AAXX 04064 67659 12380 70703 10218 20215 48/// 60014 70322 83530
                   333 10281 20190 59001 83609 84360=
201901030600 AAXX 03064 67659 12480 80904 10206 20200 48/// 60044 70222 83570
                   333 10310 20198 59002 83610 85360=
201901020600 AAXX 02064 67659 31980 30704 10245 20215 48/// 70222 83030
                   333 10315 20181 59011 83360=

################################################################################
#  SYNOPS from 67662, Kabwe Agric (Zambia) | 14-24S | 028-30E | 1165 m
################################################################################
201901180600 AAXX 18064 67662 NIL=
201901171200 AAXX 17124 67662 NIL=
201901100900 AAXX 10094 67662 NIL=
201901100600 AAXX 10064 67662 NIL=
201901071200 AAXX 07124 67662 NIL=
201901041200 AAXX 04124 67662 NIL=
201901040900 AAXX 04094 67662 NIL=

################################################################################
#  SYNOPS from 67663, Kabwe (Zambia) | 14-27S | 028-28E | 1206 m
################################################################################
201901310600 AAXX 31064 67663 32480 72605 10206 20182 48588 84530
                   333 10282 20179 59003 84617 85360=
201901300600 AAXX 30064 67663 12480 80813 10203 20181 48590 69924 8653/
                   333 10252 20178 59002 86618 86360=
201901280900 AAXX 28094 67663 12480 70912 10210 20179 48587 60024 86530
                   333 10286 20166 58001 86619 84360
                   555 00250 20000=
201901280600 AAXX 28064 67663 12480 70912 10210 20179 48587 60024 86530
                   333 10286 20166 58001 86691 84360=
201901250600 AAXX 25064 67663 12480 53605 10223 20187 48588 60154 82538
                   333 10308 20186 58020 82619 82360 85280=
201901230600 AAXX 23064 67663 32980 33003 10222 20176 48567 80002
                   333 10282 20166 59005 83080=
201901180600 AAXX 18064 67663 12480 72708 10210 20184 48563 69904 82582
                   333 10260 20180 59010 82618 86360 82080=
201901171200 AAXX 17124 67663 NIL=
201901150600 AAXX 15064 67663 11480 80000 10202 20188 48573 60074 72166 8557/
                   333 10275 20174 58017 85617 88460=
201901140600 AAXX 14064 67663 12980 83415 10202 20187 48557 60014 8807/
                   333 10280 20186 58021 88460=
201901110600 AAXX 11064 67663 11480 82905 10204 20192 48547 69904 76166 8257/
                   333 10268 20194 59004 82618 88460=
201901100900 AAXX 10094 67663 NIL=
201901100600 AAXX 10064 67663 12980 80000 10209 20190 48557 60014 8807/
                   333 10304 20184 59004 88460=
201901090600 AAXX 09064 67663 12980 70307 10214 20186 48556 60064 8707/
                   333 10286 20182 58004 87460=
201901071200 AAXX 07124 67663 NIL=
201901070600 AAXX 07064 67663 12980 63304 10216 20181 48551 69904 85032
                   333 10271 20194 59014 85360 83080=
201901041200 AAXX 04124 67663 NIL=
201901040900 AAXX 04094 67663 NIL=
201901040600 AAXX 04064 67663 12480 52005 10231 20191 48566 60014 81582
                   333 10275 20188 58003 81618 83360 83080=
201901030600 AAXX 03064 67663 12980 70000 10202 20192 48560 60034 87080
                   333 10288 20176 59010 87460=
201901020600 AAXX 02064 67663 12980 30310 10232 20192 48/// 60154 83032
                   333 10286 20186 59007 83360 81080=

################################################################################
#  SYNOPS from 67665, Lusaka Internationalairport (Zambia) | 15-19S | 028-27E | 1152 m
################################################################################
201901300600 AAXX 30064 67665 12460 70809 10206 20184 48538 60994 875//
                   333 10234 20//0 59011 87612
                   555 00///=
201901300300 AAXX 30034 67665 42360 71100 10189 20174 48528 876//
                   333 59002 87706=
201901292100 AAXX 29214 67665 42980 20704 10187 20174 48539 82030
                   333 58006 83360=
201901290900 AAXX 29094 67665 42380 80809 10219 20165 48552 8567/
                   333 58004 85718 87459=
201901290600 AAXX 29064 67665 32360 81009 10195 20172 48548 70222 84630
                   333 10255 20//0 58009 84710 87359=
201901281800 AAXX 28184 67665 42660 31106 10200 20186 48519 81532
                   333 10255 59007 81630 83360 81080=
201901281500 AAXX 28154 67665 42660 61113 10224 20188 48511 85532
                   333 59001 85635 83360 81080
                   555 10255=
201901281200 AAXX 28124 67665 41560 71110 10228 20191 48531 71622 87500
                   333 58012 87625=
201901280600 AAXX 28064 67665 32460 60809 10201 20164 48544 70322 86601
                   333 10289 20//0 58001 86712 81080=
201901280300 AAXX 28034 67665 42980 11003 10171 20158 48525 70200 80001
                   333 59002 81080=
201901280000 AAXX 28004 67665 42980 11105 10175 20159 48525 70200 80001
                   333 59003 81080=
201901272100 AAXX 27214 67665 42980 11303 10184 20159 48540 70100 80001
                   333 58010 81080=
201901271800 AAXX 27184 67665 42980 30711 10213 20165 48527 83031
                   333 58008 83360 82080=
201901271200 AAXX 27124 67665 42680 61006 10281 20159 48526 86200
                   333 59001 86840=
201901270600 AAXX 27064 67665 32480 51106 10213 20183 48544 70300 84631
                   333 10296 58008 84712 82360 82080 91021=
201901261800 AAXX 26184 67665 42980 31402 10222 20176 48520 70100 81902
                   333 58001 81956 83080=
201901261500 AAXX 26154 67665 42680 51206 10282 20176 48520 70222 85202
                   333 58005 85840 83080=
201901261200 AAXX 26124 67665 42580 50908 10289 20166 48527 70222 85800
                   333 58000 85828=
201901260900 AAXX 26094 67665 42460 50608 10264 20181 48547 70322 85500
                   333 58003 85615=
201901260600 AAXX 26064 67665 12960 10803 10220 20194 48538 69914 70114 80001
                   333 58000 81080 91020=
201901250900 AAXX 25094 67665 42580 50405 10271 20190 48537 70222 85532
                   333 58020 85622 83360 83080=
201901241200 AAXX 24124 67665 41680 62510 10290 20158 48503 83202
                   333 59003 83838 82080=
201901240600 AAXX 24064 67665 32980 62903 10197 20174 48518 85032
                   333 10310 20//0 59001 85360 82080
                   555 00///=
201901240300 AAXX 24034 67665 42360 73203 10207 20193 48503 81632
                   333 59003 81705 85360 81080=
201901240000 AAXX 24004 67665 42980 22601 10192 20178 48499 82031
                   333 59009 82360 81080=
201901232100 AAXX 23214 67665 42980 22401 10209 20195 48510 82030
                   333 59008 82080=
201901231200 AAXX 23124 67665 42980 22401 10209 20195 48510 82030
                   333 59008 82080=
201901230600 AAXX 23064 67665 32480 33302 10230 20177 48522 81531
                   333 10287 20//0 59006 81610 82360 83080=
201901222100 AAXX 22214 67665 42980 42002 10212 20182 48518 70200 83031
                   333 59016 83360 84080=
201901221800 AAXX 22184 67665 42980 51703 10222 20167 48506 83032
                   333 10287 59015 83360 85080=
201901221500 AAXX 22154 67665 42680 51204 10263 20154 48503 81132
                   333 59007 81845 81360 85080
                   555 10287=
201901220600 AAXX 22064 67665 32980 31404 10207 20162 48526 70200 80002
                   333 10276 20/// 59027 83080=
201901220300 AAXX 22034 67665 42980 11704 10175 20151 48509 70200 80001
                   333 59025 81080=
201901212100 AAXX 21214 67665 42980 21603 10186 20165 48531 70100 80002
                   333 59010 82080=
201901211800 AAXX 21184 67665 42760 51304 10211 20174 48523 81932
                   333 10276 59003 81950 82360 84080=
201901211500 AAXX 21154 67665 42680 31308 10253 20171 48509 82231
                   333 59010 81940 82845 82080 81080
                   555 10276=
201901211200 AAXX 21124 67665 42660 61504 10262 20171 48534 86201
                   333 58004 86830 81080=
201901210900 AAXX 21094 67665 42480 71306 10234 20164 48555 70322 876//
                   333 58017 87720=
201901201800 AAXX 20184 67665 41760 72002 10203 20189 48534 71399 8197/
                   333 58030 81956 87459=
201901201500 AAXX 20154 67665 42680 70905 10249 20187 48519 70222 84232
                   333 58033 84840 85360 84080=
201901201200 AAXX 20124 67665 42580 71407 10262 20179 48528 70222 85532
                   333 58034 85625 85360 84080=
201901200600 AAXX 20064 67665 12480 71805 10208 20185 48534 60164 70320 8367/
                   333 59023 83712 87359 91020=
201901190900 AAXX 19094 67665 42480 52707 10264 20188 48520 70300 84502
                   333 59002 84618 83080=
201901190600 AAXX 19064 67665 12380 62704 10221 20200 48512 60034 83632
                   333 10273 20//0 59007 83706 82360 85080
                   555 00///=
201901190300 AAXX 19034 67665 42980 32903 10184 20176 48492 83031
                   333 59007 83360 81080=
201901190000 AAXX 19004 67665 42/80 32904 10191 20184 48497 83032
                   333 59009 819// 83360 81080=
201901182100 AAXX 18214 67665 42780 33194 10202 20200 48507 83032
                   333 59010 81956 83360 81080=
201901181800 AAXX 18184 67665 42660 23004 10214 20201 48490 70201 81332
                   333 59023 81950 82360 82080 91015=
201901180600 AAXX 18064 67665 NIL=
201901180300 AAXX 18034 67665 42360 52903 10178 20170 48497 81630
                   333 59010 81705 84360=
201901180000 AAXX 18004 67665 42/60 72904 10184 20178 48504 8707/
                   333 58002 819// 87459=
201901172100 AAXX 17214 67665 42/60 52904 10193 20179 48516 85030
                   333 59003 819// 85360=
201901171800 AAXX 17184 67665 41760 72606 10200 20186 48511 78022 8197/
                   333 10227 58005 81950 87459=
201901171200 AAXX 17124 67665 NIL=
201901170900 AAXX 17094 67665 42460 83009 10222 20197 48529 70366 8587/
                   333 59007 85618 83820 88459 91019=
201901170600 AAXX 17064 67665 31352 83305 10198 20198 48527 76462 83632
                   333 10289 59010 83706 84658 87080=
201901161800 AAXX 16184 67665 41760 72109 10225 20188 48510 71399 82932
                   333 10289 59011 82950 84360 86280=
201901161500 AAXX 16154 67665 42680 53010 10269 20188 48492 82231
                   333 59016 81940 82840 83360 81080
                   555 10289=
201901161200 AAXX 16124 67665 42680 62907 10272 20183 48511 85231
                   333 59014 85830 83360 81080=
201901160600 AAXX 16064 67665 11357 82807 10197 20187 48537 60014 75852 8577/
                   333 58011 85707 88458=
201901160300 AAXX 16034 67665 42980 53302 10195 20179 48524 84031
                   333 58008 85360 84080=
201901152100 AAXX 15214 67665 42/60 53203 10200 20183 48532 81931
                   333 58004 819// 84360 84080=
201901151200 AAXX 15124 67665 42560 83107 10235 20174 48521 70222 8457/
                   333 58014 84620 87459=
201901150900 AAXX 15094 67665 41460 83009 10220 20190 48537 72052 8457/
                   333 58018 84615 87459=
201901150300 AAXX 15034 67665 42259 83002 10190 20184 48515 72166 8267/
                   333 58020 82805 88459=
201901150000 AAXX 15004 67665 41/59 82904 10187 20187 48514 76199 8197/
                   333 58014 819// 88459=
201901142100 AAXX 14214 67665 41/58 72614 10191 20184 48527 79562 8197/
                   333 58023 819// 87459=
201901141800 AAXX 14184 67665 42980 50303 10242 20190 48505 70222 85030
                   333 10283 20//0 58017 85360=
201901131800 AAXX 13184 67665 41780 41701 10231 20194 48490 71300 81902
                   333 58009 81956 83080=
201901131500 AAXX 13154 67665 42680 40203 10268 20198 48477 70100 84202
                   333 58003 84840 83080=
201901131200 AAXX 13124 67665 42680 53308 10262 20179 48495 70122 85502
                   333 58012 83625 84828 84080=
201901130600 AAXX 13064 67665 11358 80507 10200 20194 48499 60184 75852 8677/
                   333 10258 20//0 59006 87707 88459=
201901130000 AAXX 13004 67665 42360 60405 10201 20196 48483 8567/
                   333 59013 85707 819// 85359=
201901122100 AAXX 12214 67665 42360 50103 10203 20196 48493 8467/
                   333 59012 84707 819// 85359=
201901121800 AAXX 12184 67665 42460 62202 10203 20196 48478 70255 83671
                   333 59012 81718 86359 82080 91014=
201901121500 AAXX 12154 67665 41320 83207 10209 20202 48567 75355 887//
                   333 58000 88709 91012=
201901121200 AAXX 12124 67665 42560 60805 10255 20197 48483 70356 85830
                   333 59005 85625 84359 91013=
201901120900 AAXX 12094 67665 42580 63504 10245 20193 48501 76022 85840
                   333 59004 84620 84822 85459=
201901120600 AAXX 12064 67665 11359 80507 10200 20196 48499 60184 75855 8677/
                   333 10258 59006 86707 88459=
201901110900 AAXX 11094 67665 42560 52910 10262 20198 48506 70322 84531
                   333 59019 84625 82359 82080 91016=
201901110600 AAXX 11064 67665 12360 72805 10215 20194 48516 83631
                   333 10261 20//0 59003 83706 86359 81080
                   555 00///=
201901110300 AAXX 11034 67665 42360 72903 10210 20204 48498 8463/
                   333 59006 83705 87359=
201901110000 AAXX 11004 67665 41760 72603 10213 20204 48494 71322 8193/
                   333 59041 81956 87359=
201901100900 AAXX 10094 67665 NIL=
201901100600 AAXX 10064 67665 NIL=
201901092100 AAXX 09214 67665 42760 71302 10211 20197 48508 70222 8193/
                   333 58000 81956 87459=
201901091500 AAXX 09154 67665 41660 72509 10258 20168 48485 82932
                   333 59004 82940 85459 81080
                   555 10294=
201901091200 AAXX 09124 67665 42560 73008 10285 20191 48504 81932
                   333 58006 81925 84830 85359 81080=
201901090600 AAXX 09064 67665 12380 73606 10207 20185 48519 60094 8463/
                   333 10272 20//0 84707 86360=
201901090300 AAXX 09034 67665 42380 70206 10200 20191 48505 8563/
                   333 58004 85707 86359=
201901082100 AAXX 08214 67665 42/80 62702 10202 20190 48507 81932
                   333 58005 819// 84360 85080=
201901081800 AAXX 08184 67665 42660 61502 10206 20185 48501 70222 81932
                   333 58005 819// 84360 85080=
201901081500 AAXX 08154 67665 41660 73005 10238 20201 48490 72166
                   333 59007 84840 86359=
201901081200 AAXX 08124 67665 42560 72807 10241 20188 48493 72522 86831
                   333 59006 83635 83838 84359 82080=
201901080900 AAXX 08094 67665 42560 72906 10239 20188 48517 8553/
                   333 59006 85625 87359=
201901080600 AAXX 08064 67665 12360 70303 10206 20191 48517 60024 70222 8563/
                   333 10272 20//0 59001 85709 86359=
201901080300 AAXX 08034 67665 42380 53304 10201 20190 48501 70200 83632
                   333 59004 83707 83360 83080=
201901080000 AAXX 08004 67665 42980 43203 10211 20195 48500 70200 84032
                   333 58000 84360 82080=
201901072100 AAXX 07214 67665 41/80 32802 10211 20194 48503 71300 81902
                   333 59013 819// 83080=
201901071800 AAXX 07184 67665 42780 40000 10224 20182 48498 81932
                   333 59011 81950 83360 84080=
201901071500 AAXX 07154 67665 42680 41305 10243 20180 48483 83232
                   333 59014 82830 83360 83080=
201901071200 AAXX 07124 67665 42560 51305 10248 20201 48600 84832
                   333 59012 83620 84822 83360 84080=
201901070900 AAXX 07094 67665 41980 53003 10224 20202 70200 8477/
                   333 59009 84712 87460=
201901062100 AAXX 06214 67665 42980 53003 10224 20202 70200 84032
                   333 59009 84360 83080=
201901061800 AAXX 06184 67665 42780 43102 10228 20196 48510 70200 81932
                   333 59002 81956 82360 83080=
201901061200 AAXX 06124 67665 42580 62811 10253 20185 48512 70222 85802
                   333 59002 84625 83828 84080=
201901050900 AAXX 05094 67665 42480 60303 10245 20196 48539 70122 84530
                   333 59004 84615 85360=
201901041800 AAXX 04184 67665 41680 41502 10225 20196 48525 71792 82332
                   333 58003 82950 82359 84080=
201901041200 AAXX 04124 67665 NIL=
201901040900 AAXX 04094 67665 NIL=
201901040600 AAXX 04064 67665 12360 70304 10231 20202 48542 69904 84631
                   333 10284 20//0 59003 84708 85359 81080
                   555 00///=
201901040300 AAXX 04034 67665 41/60 53401 10206 20186 48523 71322 81930
                   333 58001 819// 84360=
201901040000 AAXX 04004 67665 42980 32001 10208 20200 48522 83030
                   333 58000 83360=
201901032100 AAXX 03214 67665 42980 32202 10215 20194 48549 83030
                   333 58002 83360=
201901030900 AAXX 03094 67665 42580 71308 10220 20190 48546 70222 8657/
                   333 58001 86620 87359 91021=
201901030600 AAXX 03064 67665 32480 71604 10205 20184 48542 70322 8193/
                   333 59005 819// 84615 87360=
201901030300 AAXX 03034 67665 42760 42604 10193 20176 48519 70300 8193/
                   333 59017 81956 84360=
201901030000 AAXX 03004 67665 42980 32001 10208 20200 48522 83030
                   333 58000 83360=
201901022100 AAXX 02214 67665 42760 52604 10224 20203 48537 70222 81931
                   333 59008 81956 82360 84080=
201901021800 AAXX 02184 67665 41760 52002 10230 20194 48523 71322 81932
                   333 10301 59011 81950 82360 85080=
201901021500 AAXX 02154 67665 41660 72604 10235 20193 48511 82932
                   333 59009 82940 84360 85279=
201901021200 AAXX 02124 67665 42660 60805 10286 20166 48524 81932
                   333 59014 81932 83835 86280=
201901020900 AAXX 02094 67665 42580 50409 10280 20192 48553 85200
                   333 59007 85822=
201901020600 AAXX 02064 67665 12980 31204 10235 20194 48551 60024 81031
                   333 59010 81360 83080=
201901020000 AAXX 02004 67665 42980 11501 10190 20180 48524 81030
                   333 59012 81360=
201901012100 AAXX 01214 67665 42980 12001 10204 20183 48542 81030
                   333 59004 81360=
201901011800 AAXX 01184 67665 42960 31402 10226 20198 48534 70100 83031
                   333 59007 83360 82080=
201901011500 AAXX 01154 67665 42680 51008 10278 20173 48525 85200
                   333 58000 85848=
201901011200 AAXX 01124 67665 42680 50508 10286 20174 48538 85100
                   333 58538 85838=
201901010900 AAXX 01094 67665 42580 50811 10262 20179 48557 85501
                   333 58001 85625 81080=
201901010600 AAXX 01064 67665 32980 20906 10227 20188 48560 70200 81101
                   333 10287 20//0 58007 81810 82080=

################################################################################
#  SYNOPS from 67666, Lusaka City Airport (Zambia) | 15-25-00S | 028-28-00E | 1280 m
################################################################################
201901300600 AAXX 30064 67666 32480 71010 10191 20172 48531 86630
                   333 10265 20180 59009 86710 85359 91020=
201901290600 AAXX 29064 67666 12480 71212 10198 20139 48539 60014 83550
                   333 10292 20910 58003 83610 87359 91021=
201901280600 AAXX 28064 67666 32480 71010 10188 20167 48528 85530
                   333 10280 20175 58001 58612 84359 91021=
201901250600 AAXX 25064 67666 12980 40907 10225 20186 48533 60334 70222 83031
                   333 10298 20171 58014 83360 83080 91020=
201901230900 AAXX 23094 67666 42480 53210 10270 20164 48518 81930
                   333 59011 81910 81360=
201901230600 AAXX 23064 67666 32980 43103 10220 20187 48512 83081
                   333 10270 20170 59006 82360 82080 91018=
201901220600 AAXX 22064 67666 32980 30906 10201 20155 48520 80003
                   333 59027 83080 91019=
201901210900 AAXX 21094 67666 42480 70909 10220 20173 48547 70222 8787/
                   333 58017 82610 85812 81460 91021=
201901210600 AAXX 21064 67666 12380 71410 10182 20163 48537 60024 70300 8367/
                   333 10250 20174 58024 83707 87458 91022=
201901180900 AAXX 18094 67666 42480 73606 10240 20183 48514 70222 87200
                   333 59020 87818 91017=
201901180600 AAXX 18064 67666 12480 60306 10200 20182 48513 60054 70300 81638
                   333 10232 20170 59019 89610 84360 81280 91018=
201901171200 AAXX 17124 67666 NIL=
201901170600 AAXX 17064 67666 12480 83005 10//0 20183 48523 60034 8567/
                   333 10280 20188 59009 85612 88458 91019=
201901160900 AAXX 16094 67666 42380 82708 10216 20190 48529 72166 8367/
                   333 59004 83608 88458 91019=
201901160600 AAXX 16064 67666 11375 82702 10190 20190 48530 60024 76022 8577/
                   333 10240 20188 58009 85607 88458 91020=
201901150900 AAXX 15094 67666 41478 83506 10205 20190 48531 76162 885//
                   333 58020 88512 91020=
201901141200 AAXX 14124 67666 42580 73009 10257 20180 48506 84830
                   333 58004 84620 83825 85360 91016=
201901140600 AAXX 14064 67666 12378 80908 10200 20185 48500 60064 70222 887//
                   333 10310 20190 58015 88608 91017=
201901110600 AAXX 11064 67666 12480 80902 10210 20195 48501 60054 70222 8443/
                   333 10250 20200 59005 83612 87359 91017=
201901101200 AAXX 10124 67666 42480 72702 10230 20193 48494 8437/
                   333 58006 81918 81820 87460 91015=
201901100900 AAXX 10094 67666 41478 82602 10208 20196 48513 76166 8557/
                   333 58007 85610 88459 91018=
201901100600 AAXX 10064 67666 11978 80000 10195 20180 48512 60394 76061 8807/
                   333 10286 20180 58001 88458 91018=
201901080600 AAXX 08064 67666 32480 80806 10203 20183 48500 70222 887//
                   333 10248 20195 59021 88709 91017=
201901071200 AAXX 07124 67666 NIL=
201901070600 AAXX 07064 67666 31480 70905 10210 20195 48511 71722 81330
                   333 10248 20200 58015 81920 83613 82820 84359
                   91018=
201901041200 AAXX 04124 67666 NIL=
201901040900 AAXX 04094 67666 NIL=
201901040600 AAXX 04064 67666 11478 70301 10214 20194 48535 60044 76062 8118/
                   333 10285 20199 59002 81818 87359 91020=
201901030600 AAXX 03064 67666 32980 80902 10202 20179 48536 8803/
                   333 10294 20193 59005 88359 91020=

################################################################################
#  SYNOPS from 67667, Mount Makulu (Zambia) | 15-33S | 028-15E | 1213 m
################################################################################
201901310600 AAXX 31064 67667 32580 63602 10230 20186 48571 82102
                   333 10290 20183 59003 82825 86080=
201901301200 AAXX 30124 67667 42680 61305 10258 20202 48549 86202
                   333 59014 86830 82080=
201901300600 AAXX 30064 67667 32580 60807 10216 20177 48567 84502
                   333 10254 20182 59011 84625 85080=
201901290600 AAXX 29064 67667 12580 60906 10205 20169 48578 60034 84502
                   333 10270 20180 58005 84625 85080=
201901280900 AAXX 28094 67667 42680 70906 10200 20170 48574 86502
                   333 10316 20160 58002 86630 84080=
201901280600 AAXX 28064 67667 32680 70906 10200 20170 48574 86502
                   333 10316 20160 58002 86630=
201901240600 AAXX 24064 67667 32980 42601 10226 20202 48568 80001
                   333 10306 20170 58002 84080=
201901210600 AAXX 21064 67667 12580 81801 10184 20182 48598 60054 76066 84508
                   333 10282 20180 58014 84620 87280=
201901181200 AAXX 18124 67667 41680 72703 10232 20202 48508 84508
                   333 59019 81850 84830 87280=
201901180900 AAXX 18094 67667 42580 61802 10254 20206 48548 85202
                   333 59006 85828 86080=
201901180600 AAXX 18064 67667 12580 62702 10207 20194 48548 60094 81132
                   333 10263 20169 59010 81820 82360 86080=
201901171200 AAXX 17124 67667 42580 72804 10225 20190 48554 87502
                   333 59007 87625 85080=
201901170600 AAXX 17064 67667 12580 73601 10206 20195 48557 60024 85508
                   333 10306 20183 59007 85625 87280=
201901160600 AAXX 16064 67667 12580 83001 10190 20192 48583 60024 76022 85508
                   333 10284 20188 58007 85620 87280=
201901150600 AAXX 15064 67667 12580 82002 10194 20192 48576 60124 70222 85508
                   333 10298 20182 58015 85625 87280=
201901140600 AAXX 14064 67667 12580 83002 10207 20199 48561 70222 85508
                   333 10298 20194 59033 85620 87280=
201901110600 AAXX 11064 67667 11580 82001 10208 20198 48545 75022 86508
                   333 10288 20192 59003 88620 88280=
201901101200 AAXX 10124 67667 42580 63001 10241 20211 48524 84102
                   333 58005 84825 86080=
201901100900 AAXX 10094 67667 42580 82701 10220 20200 48548 75062 885//
                   333 58010 88620=
201901100600 AAXX 10064 67667 11480 80000 10194 20190 48548 60314 75062 85608
                   333 10306 20182 58003 85715 88280=
201901090600 AAXX 09064 67667 12580 72001 10214 20199 48565 60074 70222 85508
                   333 10296 20192 58001 85620 86280=
201901071200 AAXX 07124 67667 NIL=
201901070600 AAXX 07064 67667 31980 73401 10226 20202 48571 70222 87500
                   333 10272 20200 58004 87625=
201901041200 AAXX 04124 67667 NIL=
201901040900 AAXX 04094 67667 NIL=
201901040600 AAXX 04064 67667 12580 60701 10226 20202 48593 60034 70222 80008
                   333 10278 20194 58001 86280=
201901030600 AAXX 03064 67667 31580 70000 10196 20189 48594 70222 84508
                   333 10326 20194 58018 84625 86280=
201901020600 AAXX 02064 67667 32580 41001 10256 20202 48602 81101
                   333 10320 20180 58017 81825 83080=

################################################################################
#  SYNOPS from 67673, Petauke (Zambia) | 14-15S | 031-17E | 1035 m
################################################################################
201901280900 AAXX 28094 67673 42684 60803 10252 20204 48545 86231
                   333 5//// 86832 84360 82080=
201901280600 AAXX 28064 67673 12584 70000 10222 20190 48543 60024 8553/
                   333 10246 20185 58006 85625 87360=
201901250600 AAXX 25064 67673 12580 60000 10220 20205 48540 69904 84138
                   333 10315 20198 58031 84828 83360 86280=
201901240600 AAXX 24064 67673 32680 70000 10230 20210 48512 82138
                   333 10310 20205 58000 82830 81360 85280=
201901221200 AAXX 22124 67673 42684 60901 10270 20182 48503 86282
                   333 59049 86835 83360 82080=
201901220900 AAXX 22094 67673 42684 61802 10254 20185 48520 86201
                   333 59028 86830 83080=
201901220600 AAXX 22064 67673 32584 40000 10236 20182 48523 84131
                   333 10270 20174 59019 84825 82360 82080=
201901210600 AAXX 21064 67673 12680 70903 10195 20175 48534 60174 81131
                   333 10267 20180 58019 81830 86360 81080=
201901180600 AAXX 18064 67673 NIL=
201901171200 AAXX 17124 67673 NIL=
201901170600 AAXX 17064 67673 11558 80000 10196 20195 48535 60124 76166 8417/
                   333 10305 20192 59002 84825 87459=
201901161200 AAXX 16124 67673 42684 50901 10280 20191 48519 85231
                   333 59028 85835 83360 84080=
201901160900 AAXX 16094 67673 42682 63002 10258 20188 48543 84231
                   333 58004 84832 86360 82080=
201901160600 AAXX 16064 67673 11580 70000 10216 20198 48541 69904 76022 8417/
                   333 10280 20196 58012 84825 87459=
201901140600 AAXX 14064 67673 12570 80000 10200 20193 48562 60064 8217/
                   333 10298 20188 58014 82827 87359=
201901101200 AAXX 10124 67673 42384 60000 10236 20210 48492 84238
                   333 59055 84830 82360 86280=
201901100900 AAXX 10094 67673 41560 71802 10208 20204 48509 79522 8527/
                   333 59016 81930 85830 87459=
201901100600 AAXX 10064 67673 12580 60000 10234 20200 48523 69904 83830
                   333 10310 20190 58010 83828 86360=
201901071200 AAXX 07124 67673 NIL=
201901070600 AAXX 07064 67673 11560 80000 10196 20189 48514 60224 76166 8557/
                   333 10284 20190 59019 85625 88459=
201901041200 AAXX 04124 67673 NIL=
201901040900 AAXX 04094 67673 42684 60000 10254 20208 48547 84131
                   333 59002 84832 86360 83080=
201901040600 AAXX 04064 67673 12584 60902 10210 20195 48548 69914 86280
                   333 10300 20184 58021 82825 84360 86080=
201901020600 AAXX 02064 67673 32584 33001 10260 20190 48557 81101
                   333 10316 20195 58009 81830 83080=

################################################################################
#  SYNOPS from 67731, Senanga (Zambia) | 16-06S | 023-16E | 1027 m
################################################################################
201901300600 AAXX 30064 67731 12980 035// 10240 20194 48/// 60014
                   333 10305 20193 59009=
201901290600 AAXX 29064 67731 32580 810// 10219 20184 48/// 84588
                   333 10332 20205 58008 84622 87360 88280=
201901280900 AAXX 28094 67731 12480 733// 10230 20159 48/// 69904 70222 83578
                   333 10347 20173 58004 83615 85360 86280
                   555 00100 20000=
201901250600 AAXX 25064 67731 12980 118// 10248 20204 48/// 69904 81010
                   333 10270 20205 58013 81460
                   555 00124=
201901240600 AAXX 24064 67731 32980 127// 10254 20208 48/// 81050
                   333 10322 20211 59009 81362=
201901230600 AAXX 23064 67731 32980 118// 10245 20201 48/// 70100 81010
                   333 10330 20177 59001 81460
                   555 00104=
201901220900 AAXX 22094 67731 42480 431// 10278 20184 48/// 82102
                   333 59021 82820 83080=
201901220600 AAXX 22064 67731 32980 333// 10238 20161 48/// 70200 80002
                   333 10326 20183 59019 83080
                   555 00106=
201901210900 AAXX 21094 67731 42480 612// 10277 20187 48/// 84132
                   333 59001 84820 83362 84080=
201901210600 AAXX 21064 67731 12980 512// 10221 20181 48/// 60254 84038
                   333 10260 20149 58012 84360 84280
                   555 00092=
201901180600 AAXX 18064 67731 32480 821// 10226 20199 48/// 70300 88500
                   333 10300 20203 59011 88613
                   555 00132=
201901171200 AAXX 17124 67731 NIL=
201901170600 AAXX 17064 67731 32480 710// 10224 20197 48/// 70122 82230
                   333 10319 20213 58006 82818 87360
                   555 00121=
201901160600 AAXX 16064 67731 32480 712// 10234 20183 48/// 70222 82538
                   333 10301 20184 58015 83614 85360 87280
                   555 00102=
201901140600 AAXX 14064 67731 12480 709// 10225 20187 48/// 60234 70122 83578
                   333 10301 20157 58000 83615 85360 85280
                   555 00097=
201901110600 AAXX 11064 67731 12480 813// 10223 20207 48/// 60054 70389 81539
                   333 10343 20213 58018 81615 87360 87180
                   555 00157=
201901100900 AAXX 10094 67731 NIL=
201901100600 AAXX 10064 67731 32980 8//// 10239 20162 48/// 70222 84032
                   333 10341 20214 59007 84360 85080
                   555 00127=
201901091200 AAXX 09124 67731 42680 518// 10329 20191 48/// 70222 84102
                   333 58000 84840 83080=
201901090600 AAXX 09064 67731 32480 732// 10231 20173 48/// 70222 83578
                   333 10310 20194 59002 83613 85780 86280
                   555 00094=
201901080600 AAXX 08064 67731 32480 819// 10233 20202 48/// 70322 84587
                   333 10291 20214 59006 84615 87360 87280
                   555 00162=
201901071200 AAXX 07124 67731 NIL=
201901070600 AAXX 07064 67731 12480 702// 10230 20206 48/// 60024 70322 83270
                   333 10274 20209 59029 83816 86360
                   555 00155=
201901041200 AAXX 04124 67731 NIL=
201901040900 AAXX 04094 67731 NIL=
201901040600 AAXX 04064 67731 12380 827// 10201 20194 48/// 60564 70222 82537
                   333 10313 20199 58015 82610 86360 87280
                   555 00132=
201901020600 AAXX 02064 67731 12480 610// 10243 20205 48/// 60024 70322 81538
                   333 10325 20217 58015 81615 83360 84280
                   555 00136=

################################################################################
#  SYNOPS from 67741, Sesheke (Zambia) | 17-28S | 024-18E | 949 m
################################################################################
201901310600 AAXX 31064 67741 12980 20000 10251 20198 48525 69904 82030
                   333 10322 20189 59007 82362 20000=
201901290900 AAXX 29094 67741 42680 50801 10292 20191 48552 82130
                   333 58001 82850 84362=
201901290600 AAXX 29064 67741 32980 20801 10225 20184 48538 82030
                   333 10319 20179 58004 82362=
201901280900 AAXX 28094 67741 32980 60000 10228 20192 48540 86030
                   333 10317 20184 58004 86362
                   555 00/// 20000=
201901280600 AAXX 28064 67741 32890 60000 10228 20192 48540 86030
                   333 10317 20184 85004 86362=
201901250600 AAXX 25064 67741 32980 10000 10243 20190 48523 80001
                   333 10362 20191 58017 81080=
201901240900 AAXX 24094 67741 42680 10000 10316 20185 48518 81130
                   333 59013 81850 81362=
201901240600 AAXX 24064 67741 32980 10000 10248 20181 48506 81032
                   333 10334 20182 59014 81362 81080=
201901230900 AAXX 23094 67741 42980 12601 10296 20145 48535 81030
                   333 5//// 81362=
201901221200 AAXX 22124 67741 42680 50000 10294 20138 48523 84202
                   333 59018 84850 82080=
201901220600 AAXX 22064 67741 32980 20901 10206 20188 48529 82032
                   333 10303 20174 59023 82362 81080=
201901210900 AAXX 21094 67741 42680 51201 10250 20204 48556 85601
                   333 5//// 85645 81080=
201901210600 AAXX 21064 67741 12680 21201 10210 20187 48546 60064 81613
                   333 10320 20189 58021 81645 81362 82080=
201901181200 AAXX 18124 67741 42680 33003 10303 20215 48505 83202
                   333 59006 83850 81080=
201901180900 AAXX 18094 67741 42680 32805 10280 20213 48521 81232
                   333 59011 81850 82362 81080=
201901180600 AAXX 18064 67741 12680 60801 10222 20212 48510 60114 81572
                   333 10319 20192 59007 81640 86362 81080=
201901171200 AAXX 17124 67741 42680 50000 10297 20195 48515 81130
                   333 58006 81850 85362=
201901170600 AAXX 17064 67741 12980 70000 10218 20199 48519 60294 8707/
                   333 10344 20199 59003 87461=
201901160900 AAXX 16094 67741 42680 52804 10302 20190 48535 83232
                   333 58004 83850 81362 83080=
201901150600 AAXX 15064 67741 12680 70000 10235 20193 48512 69904 8157/
                   333 10321 20193 58021 81645 87462=
201901110600 AAXX 11064 67741 11360 80000 10195 20195 48541 60154 76066 8472/
                   333 10290 20/// 58003 84708 88460=
201901100900 AAXX 10094 67741 42680 32803 10301 20211 48/// 81102
                   333 5//// 81850 83080=
201901100600 AAXX 10064 67741 32980 53005 10252 20199 48/// 81032
                   333 10345 20220 5//// 81362 85080=
201901071200 AAXX 07124 67741 42680 61204 10303 20197 48/// 86202
                   333 5//// 83850 82080=
201901070600 AAXX 07064 67741 12680 40000 10238 20210 48/// 69904 81132
                   333 10301 20194 5//// 81840 82362 82080=
201901041200 AAXX 04124 67741 NIL=
201901040900 AAXX 04094 67741 42680 63401 10257 20211 48/// 85530
                   333 5//// 85645 83362=
201901040600 AAXX 04064 67741 12680 60000 10220 20201 48/// 69904 84630
                   333 10303 20208 5//// 84645 84362=
201901020600 AAXX 02064 67741 12680 70000 10240 20//0 48/// 60144 8467/
                   333 10328 20206 5//// 84635 87460=

################################################################################
#  SYNOPS from 67743, Livingstone (Zambia) | 17-49S | 025-49E | 985 m
################################################################################
201901250600 AAXX 25064 67743 32980 01003 10239 20150 48519
                   333 10355 20186 58012 91017=
201901230600 AAXX 23064 67743 32980 70000 10210 20141 48510 87030
                   333 10300 20175 59019 87358
                   555 00/// 20000 91017=
201901220600 AAXX 22064 67743 32980 30908 10195 20145 48522 80001
                   333 10295 20175 59025 82080 91019=
201901180600 AAXX 18064 67743 NIL=
201901171200 AAXX 17124 67743 NIL=
201901170600 AAXX 17064 67743 12680 73108 10215 20187 48517 60144 8383/
                   333 10299 20200 59006 82635 818// 87358 91017=
201901160600 AAXX 16064 67743 12680 70201 10223 20182 48517 60084 70200 82201
                   333 10297 20198 58008 82835 86080 91018=
201901110600 AAXX 11064 67743 12580 83303 10211 20193 48495 60194 70222 81638
                   333 10340 20196 58000 81720 83360 87278 91015=
201901100900 AAXX 10094 67743 NIL=
201901100600 AAXX 10064 67743 32780 70202 10250 20190 48494 70222 82031
                   333 10335 20203 59002 82357 86078=
201901090600 AAXX 09064 67743 32480 33508 10231 20196 48498 81531
                   333 10345 20190 58002 81615 82359 82080 91015=
201901071200 AAXX 07124 67743 NIL=
201901041200 AAXX 04124 67743 NIL=
201901040900 AAXX 04094 67743 NIL=
201901030600 AAXX 03064 67743 12580 70301 10224 20189 48527 60134 70322 81530
                   333 10135 20196 59009 81620 87360 91019=
201901020600 AAXX 02064 67743 32980 51305 10248 20188 48543 83081
                   333 10325 20212 59012 83359 85080 91020=

################################################################################
#  SYNOPS from 67751, Magoye (Zambia) | 16-00S | 027-36E | 1018 m
################################################################################
201901310600 AAXX 31064 67751 32980 50502 10227 20197 85030
                   333 10306 20192 59001 85360=
201901300600 AAXX 30064 67751 32580 10806 10226 20177 81130
                   333 10268 20182 58001 81025 81360=
201901280900 AAXX 28094 67751 32980 60902 10211 20181 81038
                   333 10314 20164 81360 86280
                   555 00/// 20000=
201901280600 AAXX 28064 67751 32980 60902 10211 20181 81038
                   333 10314 20164 81630 86280=
201901250600 AAXX 25064 67751 32980 42902 10246 20202 48/// 80001
                   333 10304 20122 59016 84080=
201901240600 AAXX 24064 67751 32980 10202 10241 20207 80001
                   333 10304 20132 58002 81080=
201901230600 AAXX 23064 67751 32980 20101 10227 20190 48/// 82241
                   333 10288 20120 58009 82360 82080=
201901220600 AAXX 22064 67751 32980 51401 10220 20176 70222 80001
                   333 10272 20//0 58028 85080=
201901210600 AAXX 21064 67751 12480 41407 10225 20182 48/// 60074 81230
                   333 10284 20194 59022 81817 83360=
201901180600 AAXX 18064 67751 12480 73602 10213 20197 48/// 60414 83530
                   333 10280 20187 58006 83611 86360=
201901171200 AAXX 17124 67751 NIL=
201901170600 AAXX 17064 67751 12980 70604 10215 20196 48/// 69974 875//
                   333 10312 20199 58007 87510=
201901110600 AAXX 11064 67751 32980 80402 10216 20//0 48/// 70222 8801/
                   333 10276 20153 58012 88460=
201901100900 AAXX 10094 67751 NIL=
201901100600 AAXX 10064 67751 11980 83504 10215 20203 48/// 60064 75655 8801/
                   333 10294 20152 59008 88460=
201901090600 AAXX 09064 67751 11980 70103 10220 20208 48/// 60084 75355 8701/
                   333 10264 20150 5//// 87460=
201901080600 AAXX 08064 67751 12980 73603 10227 20214 48/// 60084 70222 8701/
                   333 10282 20156 5//// 87460=
201901071200 AAXX 07124 67751 NIL=
201901070600 AAXX 07064 67751 32980 50102 10244 20205 48/// 69904 70222 85070
                   333 10270 20162 5//// 85360=
201901041200 AAXX 04124 67751 NIL=
201901040900 AAXX 04094 67751 NIL=
201901040600 AAXX 04064 67751 32980 50102 10231 20202 48/// 70222 85030
                   333 10274 20150 58003 85360=
201901030600 AAXX 03064 67751 12980 70202 10215 20190 48/// 60024 70222 8707/
                   333 10302 20158 58006 87360=
201901020600 AAXX 02064 67751 32980 30403 10258 20194 48/// 70200 80001
                   333 10306 20156 58009 83080=

################################################################################
#  SYNOPS from 67753, Choma (Zambia) | 16-50S | 027-04E | 1213 m
################################################################################
201901300600 AAXX 30064 67753 31980 20000 10211 20174 48530 82030
                   333 10274 20187 59010 82360=
201901290600 AAXX 29064 67753 31380 62801 10195 20174 48539 70322 86600
                   333 10311 20170 59004 86710=
201901280900 AAXX 28094 67753 31480 82816 10201 20175 48539 886//
                   333 10310 20170 5//// 88715
                   555 00///=
201901280600 AAXX 28064 67753 31480 82816 10201 20175 48539 886//
                   333 10310 20170 5//// 88715=
201901240600 AAXX 24064 67753 12960 21803 10230 20185 48513 60024 80002
                   333 10299 20156 59002 82080=
201901210600 AAXX 21064 67753 32580 70907 10190 20163 48540 8455/
                   333 10275 20180 58023 84620 84360=
201901180600 AAXX 18064 67753 31980 50000 10209 20182 48501 70222 81132
                   333 10254 20168 59009 81825 81360 83080=
201901171200 AAXX 17124 67753 NIL=
201901170600 AAXX 17064 67753 32580 80000 10212 20197 48511 81557
                   333 10279 20186 59010 81620 81360 88280=
201901150600 AAXX 15064 67753 32580 30000 10203 20188 48520 82530
                   333 10279 20180 58020 82620 81620 81360=
201901140600 AAXX 14064 67753 11580 43306 10211 20193 48501 69904 70222 82102
                   333 10294 20191 58012 82820 82080=
201901100900 AAXX 10094 67753 NIL=
201901100600 AAXX 10064 67753 12580 70000 10217 20202 48502 60044 70300 8355/
                   333 10280 20190 59003 83620 86360=
201901090600 AAXX 09064 67753 11580 83602 10215 20201 48501 60034 72052 8155/
                   333 10276 20192 58006 88360=
201901071200 AAXX 07124 67753 NIL=
201901070600 AAXX 07064 67753 12580 20000 10224 20196 48502 60254 70300 81130
                   333 10277 20190 5//// 81820 81360=
201901041200 AAXX 04124 67753 NIL=
201901040900 AAXX 04094 67753 NIL=
201901030600 AAXX 03064 67753 12560 80000 10195 20190 48529 60054 82507
                   333 10281 20180 5//// 82620 88280=

################################################################################
#  SYNOPS from 67855, Lupaki (Zambia) | 17-03-00S | 024-46-00E | 1000 m
################################################################################
201901280600 AAXX 28064 67855 11970 80301 10202 20193 3//// 48/// 60014 8807/
                   333 20196 5//// 88458=
201901250600 AAXX 25064 67855 32975 20302 10240 20138 3//// 48/// 80008
                   333 20125 5//// 82280=
201901241200 AAXX 24124 67855 42875 40301 10356 20133 3//// 48/// 84200
                   333 5//// 84857=
201901220600 AAXX 22064 67855 32975 70601 10204 20148 3//// 48/// 80002
                   333 20132 5//// 87080=
201901210600 AAXX 21064 67855 12575 50610 10204 20143 3//// 48/// 69904 85500
                   333 20145 5//// 85625=
201901200600 AAXX 20064 67855 12575 50303 10246 20197 3//// 48/// 69904 81508
                   333 20210 5//// 81625 85280=
201901191200 AAXX 19124 67855 42875 72001 10336 20143 3//// 48/// 85238
                   333 5//// 85858 87280=
201901171200 AAXX 17124 67855 41670 71801 10252 20199 3//// 48/// 79598 85233
                   333 5//// 81940 84845 87080=
201901141200 AAXX 14124 67855 41670 51601 10334 20210 3//// 48/// 71792 85203
                   333 5//// 81945 84850=
201901140900 AAXX 14094 67855 42775 70000 10314 20202 3//// 48/// 85208
                   333 5//// 85856 87280=
201901140600 AAXX 14064 67855 32980 61102 10252 20186 3//// 48/// 80008
                   333 20195 5//// 86280=
201901131200 AAXX 13124 67855 42875 53203 10320 20203 38/// 48/// 85231
                   333 5//// 85857=
201901120600 AAXX 12064 67855 32975 60501 10246 20211 3//// 48/// 86072
                   333 20222 5//// 86360 83080=
201901101200 AAXX 10124 67855 42875 73401 10334 20193 3//// 48/// 85238
                   333 5//// 85857 87280=
201901090600 AAXX 09064 67855 12575 53601 10246 20193 3//// 48/// 69904 81132
                   333 20198 5//// 81825 83360 87080=
201901040600 AAXX 04064 67855 12575 70601 10218 20199 3//// 48/// 60174 8357/
                   333 20202 5//// 83620 87459=
201901031200 AAXX 03124 67855 41675 73603 10240 20193 38/// 48/// 72162 8327/
                   333 5//// 83840 87459=
201901030600 AAXX 03064 67855 11975 80000 10204 20193 3//// 48/// 60274 70262 8807/
                   333 20184 5//// 88459=
