################################################################################
# Query made at 04/17/2022 11:38:26 UTC
# Country like Zamb*
# Time interval: from 12/01/2008 05:30  to 12/31/2008 05:30  UTC
################################################################################

################################################################################
#  SYNOPS from 67413, Mbala (Zambia) | 08-51S | 031-20E | 1673 m
################################################################################
200812010600 AAXX 01064 67413 32680 51208 10200 20169 48542 83131
                   333 10245 20159 58004 83830 82360 81080=

################################################################################
#  SYNOPS from 67441, Mwinilunga (Zambia) | 11-45S | 024-26E | 1361 m
################################################################################
200812260600 AAXX 26064 67441 11/01 90602 10174 20174 48525 69974 74544 89///
                   333 10250 20146 59005=
200812080600 AAXX 0806/ 67441 11480 70000 10190 20174 48/// 60124 8117/
                   333 10920 20170 81815 87360=
200812020600 AAXX 02061 67441 12982 50701 10226 20182 48535 60024 82082
                   333 10306 20189 58009 82360 81080=
200812010600 AAXX 01064 67441 12980 80000 10215 20193 48532 60034 86031
                   333 10280 20155 58011 86360 81080=

################################################################################
#  SYNOPS from 67461, Mansa (Zambia) | 11-06S | 028-51E | 1382 m
################################################################################
200812150600 AAXX 15064 67461 32580 81602 10204 20190 48513 70022 8257/
                   333 10276 20172 59005 82625 88462
                   555 00/// 20022 91017=
200812081200 AAXX 08124 67461 41680 61003 10290 20177 48496 71522 84238
                   333 59009 81940 84840 82362 86080=
200812020600 AAXX 0206/ 67461 12580 40802 10230 20185 48521 60056 82272
                   333 10270 20153 59011 82825 83461 82080=
200812010600 AAXX 01064 67461 12380 41402 10204 20183 48529 60024 82502
                   333 10294 20166 58008 82606 84080=

################################################################################
#  SYNOPS from 67475, Kasama (Zambia) | 10-13S | 031-08E | 1382 m
################################################################################
200812100600 AAXX 10064 67475 12480 70208 10184 20170 48528 60044 8457/
                   333 10254 20159 58015 84610 87460=
200812050600 AAXX 05064 67475 11480 71110 10195 20162 48532 69914 70250 8457/
                   333 10290 20169 58028 84610 87460=
200812021200 AAXX 02124 67475 41680 40612 10268 20145 48500 71522 84272
                   333 59006 81950 84850 84461 84080=
200812020900 AAXX 02094 67475 42680 70909 10236 20168 48532 8317/
                   333 58001 83822 87461 91021=

################################################################################
#  SYNOPS from 67476, Misamfu (Zambia) | 10-06S | 031-15E | 1536 m
################################################################################
200812150600 AAXX 15064 67476 12980 70000 10196 20186 48/// 60104 8707/
                   333 10310 20161 58002 87460
                   555 00151 20010=

################################################################################
#  SYNOPS from 67477, Mpika (Zambia) | 11-54S | 031-26E | 1400 m
################################################################################
200812080600 AAXX 0806/ 67477 12480 61006 10198 20162 48516 69904 86830
                   333 10279 20166 59009 87715 81361=
200812050600 AAXX 05064 67477 11960 70603 10201 20168 48520 69904 72162 8707/
                   333 10290 20170 58017 87360=
200812021200 AAXX 02124 67477 42680 61206 10260 20150 48501 86200
                   333 59005 81945 86849=
200812020600 AAXX 0206/ 67477 32680 50703 10229 20152 48533 81131
                   333 10250 20157 59007 81830 84361 82080=
200812010600 AAXX 01064 67477 12580 11204 10224 20154 48539 60054 81181
                   333 10285 20150 58010 81827 81360 81080=

################################################################################
#  SYNOPS from 67531, Zambezi (Zambia) | 13-32S | 023-07E | 1077 m
################################################################################
200812260600 AAXX 26064 67531 12480 70303 10211 20188 48/// 60014 8283/
                   333 10226 20176 59006 81811 81611 87361=
200812230600 AAXX 23064 67531 12380 82401 10201 20185 48/// 60164 8667/
                   333 10274 20180 59007 86707 88460=
200812150600 AAXX 15064 67531 12980 70000 10225 20195 48/// 60054 83038
                   333 10179 59008 83361 86261
                   555 00/// 20031=
200812080600 AAXX 0806/ 67531 11380 70000 10210 20203 48/// 60164 70166 8167/
                   333 10300 20183 81706 87459=
200812020600 AAXX 0206/ 67531 21480 60000 10218 20193 48/// 60034 82538
                   333 10311 20189 5//// 82611 81362 8528=
200812010600 AAXX 01064 67531 12480 71103 10211 20175 48/// 69914 81138
                   333 10264 20175 58010 81814 83361 87280=

################################################################################
#  SYNOPS from 67551, Solwezi (Zambia) | 12-11S | 026-23E | 1386 m
################################################################################
200812010600 AAXX 01064 67551 12480 71104 10200 20174 48522 60034 82531
                   333 10251 20160 58002 82610 83362 86080=

################################################################################
#  SYNOPS from 67561, Ndola (Zambia) | 13-00S | 028-39E | 1269 m
################################################################################
200812230600 AAXX 23064 67561 11457 70105 10193 20183 48509 60134 72822 86530
                   333 10376 29221 58004 86612 85360=
200812150600 AAXX 15064 67561 11959 80000 10191 20182 48515 60084 76022 87078
                   333 10267 20185 87359 86280
                   555 00/// 91018=
200812020600 AAXX 02064 67561 11980 60908 10232 20171 48539 60014 70521 83088
                   333 10288 20157 59002 83360 86280=
200812010600 AAXX 01064 67561 11459 70000 10216 20176 48539 60104 70522 81538
                   333 10294 20162 58018 81610 86359 87280=

################################################################################
#  SYNOPS from 67580, Msekera (Zambia) | 13-39S | 032-34E | 1025 m
################################################################################
200812291200 AAXX 29124 67580 41782 51804 10292 20194 48/// 71510 85203
                   333 5//// 81950 85856 82080=
200812260600 AAXX 26064 67580 11480 70000 10218 20191 48/// 60134 70396 81132
                   333 10284 20184 58009 81818 85360 83080=
200812101200 AAXX 10124 67580 41680 73304 10268 20186 48/// 71792 86238
                   333 58016 81935 85835 83360 87280=
200812010600 AAXX 01064 67580 12980 70000 10253 20183 48/// 69904 8707/
                   333 1039 20207 58017 87460=

################################################################################
#  SYNOPS from 67581, Chipata (Zambia) | 13-33S | 032-35E | 1028 m
################################################################################
200812291200 AAXX 29124 67581 42680 32904 10296 20193 48481 82200
                   333 59025 81940 82845=
200812260600 AAXX 26064 67581 11580 50000 10194 20186 48518 61184 72162 83530
                   333 10286 20183 58009 83835 83360=
200812080600 AAXX 08064 67581 12680 41060 10299 20188 48538 60044 83130
                   333 10292 20198 59008 83830 81359=
200812050600 AAXX 05064 67581 12684 60607 10255 20191 48544 60124 81130
                   333 10290 20186 58031 81830 85360=
200812020900 AAXX 02094 67581 42684 60805 10279 20187 48545 84232
                   333 59007 84840 81360 81080 91019=
200812020600 AAXX 02064 67581 12684 31605 10250 20196 48548 60124 82132
                   333 10318 20195 58005 82830 81360 81080=
200812010600 AAXX 01064 67581 12680 70705 10252 20180 48554 69904 81150
                   333 10335 20229 58016 81830 87360=

################################################################################
#  SYNOPS from 67583, Lundazi (Zambia) | 12-17S | 033-12E | 1143 m
################################################################################
200812291200 AAXX 29124 67583 42680 53603 10306 20176 48/// 85202
                   333 5//// 85840 81080=
200812020900 AAXX 02094 67583 41680 71202 10244 20184 72162 83830=
200812010600 AAXX 01064 67583 31970 51802 10238 20181 B70521 85031
                   333 10340 20182 5//// 85360 81080=

################################################################################
#  SYNOPS from 67599, Mfuwe (Zambia) | 13-16S | 031-56E | 568 m
################################################################################
200812260600 AAXX 26064 67599 12480 70000 10225 20209 48526 69904 8177/
                   333 10324 20//0 58008 81810 87460=
200812251200 AAXX 25124 67599 42680 60000 10314 20239 48514 81930
                   333 59019 81945 82846 86360 91012=
200812100600 AAXX 10064 67599 11380 80000 10225 20211 48546 60324 76252 885//
                   333 10320 20//0 58014 88607=
200812090600 AAXX 09064 67599 12980 80000 10245 20224 48542 60214 70222 8807/
                   333 10305 20111 59007 88459=
200812031200 AAXX 03124 67599 41456 72205 10228 20211 48502 71792 8297/
                   333 59021 829// 82830 84460=
200812020600 AAXX 02064 67599 12980 40000 10250 20206 48556 69904 83032
                   333 10330 20//0 59004 83360 84080 91019=
200812011200 AAXX 01124 67599 42680 70708 10314 20218 79598 8192/
                   333 810// 83840 84460 91014=

################################################################################
#  SYNOPS from 67633, Mongu (Zambia) | 15-15S | 023-09E | 1052 m
################################################################################
200812291200 AAXX 29124 67633 42682 63202 10306 20186 48478 83208
                   333 59001 83840 86280=
200812260600 AAXX 26064 67633 12982 53403 10218 20193 48478 69934 85032
                   333 10268 20182 59024 85360 81080=
200812230600 AAXX 23064 67633 11982 73603 10205 20190 48498 60044 70366 8707/
                   333 10275 20175 59001 87460=
200812150600 AAXX 15064 67633 12980 70000 10215 20193 48504 60034 88038
                   333 10270 20185 58012 85360 87280
                   555 91016=
200812091200 AAXX 09124 67633 42780 73605 10265 20183 48502 70222 85208
                   333 59006 81950 84850 87280=
200812020600 AAXX 0206/ 67633 31980 60000 10237 20195 40542 84088
                   333 10326 20177 58014 84361 86280=
200812010600 AAXX 01064 67633 12980 70904 10198 20178 48523 60064 84038
                   333 10299 20185 58010 84360 87280=

################################################################################
#  SYNOPS from 67641, Kaoma (Zambia) | 14-48S | 024-48E | 1213 m
################################################################################
200812260600 AAXX 26064 67641 11682 72501 10195 20178 48478 60034 70252 83530
                   333 10278 20184 59009 83630 87360=
200812081200 AAXX 08124 67641 41680 43501 10291 20197 48502 71798 84232
                   333 5//// 81945 84845 81361 81080=
200812080600 AAXX 0806/ 67641 32982 20801 10203 20192 48521 81032
                   333 10307 20186 59008 81360 81080 91019=
200812020600 AAXX 0206/ 67641 12982 50701 10226 20182 48535 60024 82082
                   333 10306 20189 58009 82360 81080=

################################################################################
#  SYNOPS from 67655, Mumbwa (Zambia) | 15-04S | 027-11E | 1216 m
################################################################################
200812150600 AAXX 15064 67655 32880 70000 10215 20193 48522 8707/
                   333 10281 20230 58004 87357 91018=
200812101200 AAXX 10124 67655 42480 61006 10280 20177 48536 84201
                   333 58002 84825 83077=
200812100600 AAXX 10064 67655 32380 83603 10209 20180 48536 81678
                   333 10270 20189 58005 81609 83356 87277=
200812080600 AAXX 0806/ 67655 31575 40820 10226 20177 48535 70522 84208
                   333 10289 20122 59012 84825 84277 91021=
200812010600 AAXX 01064 67655 31570 40000 10227 20183 48549 70522 81231
                   333 10305 20180 58022 81857 83077=

################################################################################
#  SYNOPS from 67663, Kabwe (Zambia) | 14-27S | 028-28E | 1206 m
################################################################################
200812260600 AAXX 26064 67663 12480 73003 10197 20184 48483 60094 8287/
                   333 10285 20179 59010 82615 87360=
200812150600 AAXX 15064 67663 12480 80202 10211 20192 48484 60084 70222 8257/
                   333 10275 20184 58000 82618 88460
                   555 00202 00202=
200812020600 AAXX 0206/ 67663 11575 80903 10180 20173 48530 60024 79599 8197/
                   333 10290 20179 59010 81920 86460=

################################################################################
#  SYNOPS from 67665, Lusaka Internationalairport (Zambia) | 15-19S | 028-27E | 1152 m
################################################################################
200812310400 AAXX 31044 67665 42480 73205 10189 20//0 48508 81530
                   333 58021 81610 87360=
200812310300 AAXX 31034 67665 42480 73205 10189 20//0 48508 81350
                   333 58021 81610 87360=
200812310000 AAXX 31004 67665 42780 72004 10191 20//0 48487 81930
                   333 58000 81950 87360=
200812302100 AAXX 30214 67665 42780 71602 10199 20//0 48502 81930
                   333 58003 81950 87360=
200812291800 AAXX 29184 67665 41660 70603 10196 20/// 48488 76122 8293/
                   333 10304 82940 87359=
200812291500 AAXX 29154 67665 41660 71706 10201 20192 48466 71796 8323/
                   333 58005 81940 83840 87359=
200812291200 AAXX 29124 67665 41680 63303 10285 20190 48475 76122 86200
                   333 59007 81942 85842=
200812290900 AAXX 29094 67665 42680 43503 10268 20197 48495 84130
                   333 59015 84830 81360=
200812290600 AAXX 29064 67665 12980 50000 10221 20196 48493 60244 85031
                   333 10286 20191 59012 85360 81080=
200812280900 AAXX 28094 67665 42580 63406 10248 20191 48507 83830
                   333 59010 82820 81622 83360=
200812280600 AAXX 28064 67665 12380 70104 10200 20193 48504 60014 83730
                   333 10238 20184 59007 83709 86360=
200812280400 AAXX 28044 67665 42980 40000 10184 20/// 48485 74022 84032
                   333 58009 84360 82080=
200812280300 AAXX 28034 67665 42/80 60000 10190 20/// 48483 81930
                   333 59006 819// 86360=
200812271800 AAXX 27184 67665 42680 70503 10201 20//0 48489 81932
                   333 58005 81940 83360 86080=
200812271500 AAXX 27154 67665 42680 70202 10228 20195 48476 82832
                   333 59012 81830 81630 83360 86080=
200812271200 AAXX 27124 67665 42580 80503 10223 20196 48498 8453/
                   333 58011 84620 87360=
200812270900 AAXX 27094 67665 41459 80303 10204 20191 48511 75062 8577/
                   333 58014 85710 88360 91018=
200812270400 AAXX 27044 67665 41307 83103 10183 20//0 48604 79799 81932
                   333 58009 819// 82708 88360 91017=
200812270300 AAXX 27034 67665 41303 82703 10178 20/// 48404 79799 81932
                   333 58014 819// 82708 84360 87080 Q1017.3=
200812262100 AAXX 26214 67665 42/70 50604 10211 20//0 48503 70222 819//
                   333 58005 819// 82360 84080 91017=
200812261800 AAXX 26184 67665 42/80 63303 10225 20//0 48447 819//
                   333 10261 59015 819// 82360 85080=
200812261500 AAXX 26154 67665 42780 63305 10272 20171 48470 81232
                   333 58012 819// 81850 81360 85080
                   555 10261=
200812261200 AAXX 26124 67665 41660 70703 10240 20201 48489 81930
                   333 58012 81930 84835 81360 83080 Q1015.0=
200812260600 AAXX 26064 67665 12470 73001 10195 20184 48500 60064 875//
                   333 10288 20184 59005 87610=
200812260300 AAXX 26034 67665 41303 82703 10178 20/// 48404 79799 81932
                   333 58014 819// 82708 84360 87080 Q1017.3=
200812260000 AAXX 26004 67665 41/59 60603 10200 20/// 48491 76122 81932
                   333 829// 555 63360 84080 91015=
200812251200 AAXX 25124 67665 42570 53004 10269 20181 48481 85201
                   333 59036 85830 91013=
200812250300 AAXX 25034 67665 42370 80000 10184 20//0 48490 81837
                   333 59013 81708 86359 86280=
200812241200 AAXX 24124 67665 42470 73103 10257 20181 48515 70222 84871
                   333 58019 82620 84821 83360 83080 91017=
200812240400 AAXX 24044 67665 41460 83303 10182 20182 48510 72162 8553/
                   333 58016 85610 87359=
200812240300 AAXX 24034 67665 41460 83003 10181 20181 48502 76022 8253/
                   333 58016 82610=
200812231800 AAXX 23184 67665 41659 80000 10193 20193 48504 72166 8193/
                   333 10//0 58015 81930 87359=
200812231500 AAXX 23154 67665 41558 80000 10190 20190 48490 72922 8293/
                   333 58019 82930 85830 85360=
200812231200 AAXX 23124 67665 41558 80000 10230 20208 48493 72922 819//
                   333 58016 81930 88830=
200812230600 AAXX 23064 67665 12370 63602 10213 20199 48504 60074 867//
                   333 10284 20182 58001 86707=
200812221200 AAXX 22124 67665 42680 72604 10267 20187 48481 84230
                   333 59001 84830 84360=
200812220900 AAXX 22094 67665 73250 10281 20201 48505 70322 84830
                   333 58005 84612 81815 83360 Q1016.9=
200812211800 AAXX 21184 67665 42759 70000 10197 20197 48490 72166 8197/
                   333 10279 58006 81945 87359=
200812211500 AAXX 21154 67665 42680 60000 10205 20196 48561 72196 81972
                   333 59002 81940 84360 85080
                   555 10279=
200812210600 AAXX 21064 67665 11259 80000 10214 20203 48496 60074 74044 877//
                   333 10242 20194 59001 87706=
200812201200 AAXX 20124 67665 41570 73002 10231 20214 48481 72166 85932
                   333 58007 81928 85630 84360 84080 91014=
200812200900 AAXX 20094 67665 41560 72803 10234 20202 48497 76122 8623/
                   333 58005 86820 87460=
200812200600 AAXX 20064 67665 12480 60000 10206 20203 48496 84530
                   333 10268 20189 58003 84610 85360=
200812200400 AAXX 20044 67665 42980 70102 10196 20/// 48485 70222 87082
                   333 58006 82625 86360 91015=
200812192100 AAXX 19214 67665 42580 70000 10205 20/// 48498 70222 8453/
                   333 58013 83625 86360 91016=
200812190400 AAXX 19044 67665 42660 70000 10188 20188 48487 72162 8193/
                   333 59001 81940 87359=
200812190300 AAXX 19034 67665 41659 80000 10186 20186 48477 76162 8193/
                   333 58003 81940 87359=
200812181800 AAXX 18184 67665 41640 71704 10178 20187 48476 76562 8193/
                   333 10261 59001 81945 87359=
200812181500 AAXX 18154 67665 42680 73403 10220 20191 48454 8193/
                   333 59006 81935 87360=
200812181200 AAXX 18124 67665 41470 73403 10210 20195 48470 76122 8657/
                   333 58001 86615 87360=
200812171800 AAXX 17184 67665 41959 81003 10204 20/// 48478 76252 84032
                   333 59011 84360 88080 91014=
200812171500 AAXX 17154 67665 42560 71502 10215 20204 48460 85830
                   333 59010 81325 83825 87360 Q1011.9=
200812170900 AAXX 17094 67665 42460 70904 10228 20195 48486 86830
                   333 59022 82812 85615 86360=
200812170400 AAXX 17044 67665 42380 70000 10188 20//0 48484 85532
                   333 59027 85606 82360 84080=
200812170300 AAXX 17034 67665 42380 70000 10188 20//0 48484 875//
                   333 59013 87605=
200812161500 AAXX 16154 67665 42660 71103 10239 20201 48472 81932
                   333 81940 83840 83360 82080=
200812161200 AAXX 16124 67665 42680 61003 10266 20190 48483 85230
                   333 59027 81935 85835 81360=
200812160600 AAXX 16064 67665 12265 71105 10213 20195 48508 69904 83730
                   333 10269 20199 59012 83708 86360=
200812151800 AAXX 15184 67665 42680 70000 10204 20//0 48501 81233
                   333 58004 81950 83361 87280=
200812151200 AAXX 15124 67665 41680 70303 10208 20187 48502 76122 84232
                   333 58008 81932 83832 84360 85080=
200812150900 AAXX 15094 67665 42680 70000 10242 20178 48525 70222 878//
                   333 59001 84622 85825 91018=
200812150600 AAXX 15064 67665 12460 70000 10219 20194 48521 60124 70322 8453/
                   333 10285 20196 58003 84615 86460
                   555 00/// 91018=
200812141800 AAXX 14184 67665 41757 70000 10199 20199 48507 76192 8197/
                   333 10285 58010 81956 87461=
200812141500 AAXX 14154 67665 41657 71503 10206 20206 48482 79592 8197/
                   333 59007 81945 82850 87461
                   555 10///=
200812141200 AAXX 14124 67665 42680 63305 10275 20184 48596 85230
                   333 59006 85830 83360 91015=
200812140600 AAXX 14064 67665 12380 70000 10210 20195 48517 60124 8197/
                   333 10289 20198 58001 83709 819// 86360 91018=
200812131800 AAXX 13184 67665 41760 61103 10216 20216 48499 76092 81932
                   333 10289 59003 81956 85360 85080=
200812131500 AAXX 13154 67665 41780 60703 10270 20188 48485 71522 81932
                   333 59006 81050 83856 81360 84080
                   555 10289=
200812131200 AAXX 13124 67665 42680 60000 10260 20174 48500 85202
                   333 58007 85840 83080 91016=
200812130900 AAXX 13094 67665 42680 70000 10227 20196 48522 878//
                   333 58004 84630 86835=
200812130600 AAXX 13064 67665 12480 70000 10203 20195 48515 60154 8453/
                   333 10304 20191 59009 84618 87360=
200812130400 AAXX 13044 67665 41759 82904 10187 20//0 48506 70522 81932
                   333 59007 81956 85360 88080 91017=
200812130300 AAXX 13034 67665 41759 70103 10188 20//0 48511 72162 81932
                   333 58003 81956 85360 91017=
200812130000 AAXX 13004 67665 41730 73304 10202 20//0 48502 72962 81932
                   333 59011 81956 85359 85080 91017=
200812122100 AAXX 12214 67665 42780 72004 10201 20//0 48511 81932
                   333 59021 81956 84360 85080 91018=
200812121800 AAXX 12184 67665 41780 70000 10210 20//0 48501 71322 81932
                   333 59013 81956 84360 85080=
200812121200 AAXX 12124 67665 42680 70103 10264 20186 48496 81932
                   333 59014 81930 85360 84080=
200812120900 AAXX 12094 67665 42580 70503 10253 20195 48521 81932
                   333 59025 81925 85825 82360 85080=
200812120400 AAXX 12044 67665 42980 72402 10194 20//0 48513 87030
                   333 59019 87360=
200812120300 AAXX 12034 67665 42980 61604 10192 20//0 48509 86030
                   333 59016 86360=
200812112100 AAXX 11214 67665 42780 70903 10217 20//0 48529 8193/
                   333 59013 81950 87360=
200812111800 AAXX 11184 67665 42780 70000 10222 20//0 48515 81932
                   333 59010 81950 83360 86080=
200812111500 AAXX 11154 67665 42680 60000 10247 20189 48505 81932
                   333 58001 81950 83850 83360 85080=
200812110900 AAXX 11094 67665 42680 70000 10254 20186 48545 81232
                   333 59002 86830 82360 83080=
200812101800 AAXX 10184 67665 42780 71203 10220 20//0 48525 81930
                   333 10285 58002 81950 87360=
200812101500 AAXX 10154 67665 42780 60604 10274 20153 48507 81902
                   333 59009 81950 82850 84080=
200812101200 AAXX 10124 67665 42680 73603 10261 20180 48518 81902
                   333 59001 81945 83845 83080=
200812100600 AAXX 10064 67665 73404 10212 20184 48544 8553/
                   333 10261 20189 58015 85615 87360=
200812100400 AAXX 10044 67665 42980 50000 10190 20152 48532 85030
                   333 59001 85360=
200812100300 AAXX 10034 67665 42980 50000 10190 20//0 48524 85030
                   333 59008 85362=
200812091800 AAXX 09184 67665 42980 70000 10199 20/// 48510 87070
                   333 59002 87362=
200812091200 AAXX 09124 67665 42680 71002 10263 20168 48519 82230
                   333 59009 82837 87361=
200812090600 AAXX 09064 67665 32480 50604 10220 20176 48533 8113/
                   333 10276 20181 59014 81818 85360=
200812081200 AAXX 08124 67665 42680 71106 10263 20169 48528 70322 84231
                   333 59009 81939 84842 81362 82080=
200812080600 AAXX 08064 67665 31559 61005 10129 20184 48545 70522 82132
                   333 10279 20179 59010 82815 83360 84080
                   555 00/// 91021=
200812080400 AAXX 08044 67665 42080 41503 10175 20//0 48531 80032
                   333 59016 83080 91020=
200812080300 AAXX 08034 67665 42580 41003 10177 20//0 48525 81932
                   333 59020 81920 84620 83360 91019=
200812072100 AAXX 07214 67665 42780 42780 10185 20//0 48528 70222 81932
                   333 81950 83360 84080 91020=
200812071800 AAXX 07184 67665 42780 50000 10210 20//0 48533 71322 81932
                   333 10270 59002 81950 83360 85080=
200812071500 AAXX 07154 67665 42680 60903 10254 20176 48517 82232
                   333 59006 82845 84360 84080
                   555 10290=
200812071200 AAXX 07124 67665 42680 61005 10256 20178 48537 85232
                   333 58000 85830 82360 84080 91020=
200812070900 AAXX 07094 67665 42580 60911 10242 20177 45855 85232
                   333 59008 85822 82360 84080 91022=
200812070600 AAXX 07064 67665 12380 70000 10196 20178 48554 60034 8178/
                   333 10290 20185 59011 81709 87360 91022=
200812070400 AAXX 07044 67665 41780 82010 10191 20//0 48547 76022 8293/
                   333 59004 82956 85856 86360=
200812061800 AAXX 06184 67665 41780 60000 10223 20//0 48536 71322 81932
                   333 58000 81950 85360 83080=
200812061200 AAXX 06124 67665 42680 50000 10273 20182 48544 84202
                   333 58021 84840 84080 91020=
200812060900 AAXX 06094 67665 42680 60903 10239 20182 48564 70222 83832
                   333 58022 83630 84835 86360 83080 91023=
200812051800 AAXX 05184 67665 42780 50000 10211 20//0 48535 81932
                   333 10310 58031 81956 81360 84080=
200812051500 AAXX 05154 67665 41680 52705 10254 20179 48515 71722 84902
                   333 58032 81945 84848 82080=
200812051200 AAXX 05124 67665 42680 60000 10286 20185 48526 86202
                   333 58018 86845 82080=
200812050600 AAXX 05064 67665 12980 53602 10231 20184 48542 60234 81032
                   333 10300 20//0 58021 81360 85080=
200812050300 AAXX 05034 67665 42980 10000 10172 20//0 48514 82031
                   333 58021 82360 81080=
200812050000 AAXX 05004 67665 42980 00000 10186 20//0 48506
                   333 58022=
200812042100 AAXX 04214 67665 42980 00000 10209 20//0 48509
                   333 58004=
200812041800 AAXX 04184 67665 42780 70000 10231 20//0 48507 81932
                   333 10300 58011 81950 87360 81080=
200812041500 AAXX 04154 67665 42780 31004 10261 20201 48484 83202
                   333 59006 81950 83850 81080=
200812041200 AAXX 04124 67665 42680 22703 10275 20186 48506 82230
                   333 59006 82845 81360=
200812040900 AAXX 04094 67665 41670 70000 10205 20187 48515 72599
                   333 59016 81930 85630 86360=
200812040600 AAXX 04064 67665 31558 10203 20191 48518 79522 8197/
                   333 10315 20192 59019 81920 83825 86360=
200812040400 AAXX 04044 67665 42980 50000 10198 20156 48503 71322 81932
                   333 59029 81950 84360 83080=
200812040300 AAXX 04034 67665 42980 40000 10194 20//0 48594 71322 81930
                   333 59029 81950 84360=
200812032100 AAXX 03214 67665 42980 20000 10214 20//0 48561 82031
                   333 59026 81360 81080=
200812031800 AAXX 03184 67665 42680 30000 10242 20//0 48497 81140
                   333 59035 81850 83360=
200812031500 AAXX 03154 67665 42680 41403 10292 20160 48593 81941
                   333 59028 81948 83848 82360 81080=
200812031200 AAXX 03124 67665 42680 50603 10294 20176 48514 85200
                   333 59024 85845=
200812030900 AAXX 03094 67665 42680 50604 10280 20179 48540 85200
                   333 59022 85835=
200812030600 AAXX 03064 67665 32980 10000 10228 20176 48540 81030
                   333 10290 20180 59024 81360=
200812021800 AAXX 02184 67665 42980 10302 10219 20//0 48529 81030
                   333 10290 59003 81360=
200812021500 AAXX 02154 67665 42770 40902 10281 20176 48520 84230
                   333 59010 84856 81360=
200812021200 AAXX 02124 67665 42670 50906 10282 20173 48537 85231
                   333 58002 85845 81360 81080=
200812020900 AAXX 02094 67665 41659 50705 10252 20182 48559 70522 84231
                   333 58004 84830 81360 81080 91022=
200812020600 AAXX 02064 67665 11560 70504 10205 20174 48514 60064 70522 8553/
                   333 10310 20175 58008 85620 83360=
200812011800 AAXX 01184 67665 41980 20000 10219 20//0 48532 71321 81931
                   333 10310 58015 81959 81360 81080=
200812011500 AAXX 01154 67665 41758 50707 10296 20150 48531 72122 84231
                   333 58023 84850 82360 82080
                   555 10310 91019=
200812011200 AAXX 01124 67665 42680 50905 10295 20176 48537 85200
                   333 58010 85845 91019=
200812010900 AAXX 01094 67665 42680 40704 10267 20176 48558 84230
                   333 58008 84830 81360 91022=
200812010600 AAXX 01064 67665 32580 33003 10228 20177 48558 81280
                   333 58022 81820 82360 91022=

################################################################################
#  SYNOPS from 67666, Lusaka City Airport (Zambia) | 15-25S | 028-19E | 1280 m
################################################################################
200812291200 AAXX 29124 67666 42680 63302 10275 20186 48461 85203
                   333 59010 81943 85884 82080=
200812260600 AAXX 26064 67666 12480 70607 10195 20180 48494 60124 8657/
                   333 10275 20165 5//// 86610 87459=
200812150600 AAXX 15064 67666 12480 71208 10210 20187 48509 60045 70342 84531
                   555 84614 86359 00/// 20026 91017=
200812101200 AAXX 10124 67666 42680 61210 10260 20164 48503 84208
                   333 59005 84838 86280=
200812100600 AAXX 10064 67666 32480 81210 10210 20165 48532 70322 8353/
                   333 10270 20184 58003 83618 88359=
200812090600 AAXX 09064 67666 31980 71210 10220 20157 48521 70322 87032
                   333 10270 20185 59013 87360 81080=
200812080600 AAXX 0806/ 67666 32480 70912 10204 20170 48531 87837
                   333 10257 20180 59011 84618 83820 82361 85080=
200812020900 AAXX 02094 67666 42680 50713 10240 20176 48544 84130
                   333 58002 84830 82360 91021=
200812010600 AAXX 01064 67666 32980 30405 10230 20182 48542 83037
                   333 10295 20175 58018 81360 82080=

################################################################################
#  SYNOPS from 67673, Petauke (Zambia) | 14-15S | 031-17E | 1035 m
################################################################################
200812291200 AAXX 29124 67673 42684 63604 10294 20177 48483 86202
                   333 59008 86842 81080=
200812150600 AAXX 15064 67673 32480 80204 10208 20970 48531 86671
                   333 10290 20198 58009 86610 87460
                   555 00210=
200812101200 AAXX 10124 67673 41580 71809 10203 20193 48518 71792 8657/
                   333 58020 81920 83320 87362=

################################################################################
#  SYNOPS from 67743, Livingstone (Zambia) | 17-49S | 025-49E | 985 m
################################################################################
200812100600 AAXX 10064 67743 12980 41004 10235 20197 48533 69904 70300 84030
                   333 10315 20194 58007 84360=
200812090600 AAXX 09064 67743 32480 40907 10236 20298 48519 81604
                   333 10315 20185 59015 81715 83080=
200812031200 AAXX 03124 67743 42780 30404 10325 20179 48513 83100
                   333 59028 83856=
200812030600 AAXX 03064 67743 32981 00310 10255 20189 48535
                   333 10340 20195 59016=
200812021500 AAXX 02154 67743 42780 41505 10335 20163 48517 84200
                   333 58002 84855=
200812020600 AAXX 02064 67743 32980 11005 10260 20183 48553 81030
                   333 10350 20225 58009 81360=
200812011200 AAXX 01124 67743 42180 50708 10345 20165 48522 83230
                   333 59002 83256 83360
                   555 91016=
200812010600 AAXX 01064 67743 32980 43104 10260 20202 48542 83080
                   333 10346 20195 58008 83360=

################################################################################
#  SYNOPS from 67753, Choma (Zambia) | 16-50S | 027-04E | 1213 m
################################################################################
200812260600 AAXX 26064 67753 11380 83610 10196 20188 60174 8777/
                   333 10250 20176 87708 88459=
200812230600 AAXX 23064 67753 12380 73007 10209 20196 48/// 60014 8757/
                   333 10268 20190 5//// 87609 87459=
200812091200 AAXX 09124 67753 41580 73605 10258 20172 48/// 71792 85208
                   333 81920 85825 87280=
200812090600 AAXX 09064 67753 32980 70905 10204 20185 8707/
                   333 10270 20166 87459=
200812010600 AAXX 01064 67753 32980 73605 10234 20185 48/// 8703/
                   333 10311 20175 5//// 87360=

################################################################################
#  SYNOPS from 67855, Lupaki (Zambia) | 17-03-00S | 024-46-00E | 1000 m
################################################################################
200812301800 AAXX 30184 67855 NIL=
200812301200 AAXX 30124 67855 NIL=
200812300600 AAXX 30064 67855 NIL=
200812300000 AAXX 30004 67855 NIL=
200812291800 AAXX 29184 67855 NIL=
200812291200 AAXX 29124 67855 NIL=
200812290600 AAXX 29064 67855 NIL=
200812290000 AAXX 29004 67855 NIL=
200812281800 AAXX 28184 67855 NIL=
200812281200 AAXX 28124 67855 NIL=
200812280600 AAXX 28064 67855 NIL=
200812280000 AAXX 28004 67855 NIL=
200812271200 AAXX 27124 67855 NIL=
200812270600 AAXX 27064 67855 NIL=
200812270000 AAXX 27004 67855 NIL=
200812261800 AAXX 26184 67855 NIL=
200812261200 AAXX 26124 67855 NIL=
200812260600 AAXX 26064 67855 NIL=
200812260000 AAXX 26004 67855 NIL=
200812251800 AAXX 25184 67855 NIL=
200812251200 AAXX 25124 67855 NIL=
200812250600 AAXX 25064 67855 NIL=
200812250000 AAXX 25004 67855 NIL=
200812241800 AAXX 24184 67855 NIL=
200812241200 AAXX 24124 67855 NIL=
200812240600 AAXX 24064 67855 NIL=
200812240000 AAXX 24004 67855 NIL=
200812231800 AAXX 23184 67855 NIL=
200812231200 AAXX 23124 67855 NIL=
200812230600 AAXX 23064 67855 NIL=
200812230000 AAXX 23004 67855 NIL=
200812221800 AAXX 22184 67855 NIL=
200812220600 AAXX 22064 67855 NIL=
200812220000 AAXX 22004 67855 NIL=
200812211800 AAXX 21184 67855 NIL=
200812210600 AAXX 21064 67855 NIL=
200812210000 AAXX 21004 67855 NIL=
200812201800 AAXX 20184 67855 NIL=
200812201200 AAXX 20124 67855 NIL=
200812200600 AAXX 20064 67855 NIL=
200812200000 AAXX 20004 67855 NIL=
200812191200 AAXX 19124 67855 NIL=
200812190600 AAXX 19064 67855 NIL=
200812190000 AAXX 19004 67855 NIL=
200812181800 AAXX 18184 67855 NIL=
200812181200 AAXX 18124 67855 NIL=
200812171800 AAXX 17184 67855 NIL=
200812171200 AAXX 17124 67855 NIL=
200812170600 AAXX 17064 67855 NIL=
200812161800 AAXX 16184 67855 NIL=
200812161200 AAXX 16124 67855 41660 80401 10212 20202 3//// 48/// 79596 82273
                   333 5//// 81925 83830 88460=
200812160600 AAXX 16064 67855 NIL=
200812160000 AAXX 16004 67855 NIL=
200812151800 AAXX 15184 67855 NIL=
200812151200 AAXX 15124 67855 NIL=
200812150600 AAXX 15064 67855 NIL=
200812150000 AAXX 15004 67855 NIL=
200812141800 AAXX 14184 67855 NIL=
200812141200 AAXX 14124 67855 NIL=
200812140000 AAXX 14004 67855 NIL=
200812131800 AAXX 13184 67855 NIL=
200812131200 AAXX 13124 67855 NIL=
200812130600 AAXX 13064 67855 NIL=
200812130000 AAXX 13004 67855 NIL=
200812121800 AAXX 12184 67855 NIL=
200812121200 AAXX 12124 67855 NIL=
200812120600 AAXX 12064 67855 NIL=
200812120000 AAXX 12004 67855 NIL=
200812111800 AAXX 11184 67855 NIL=
200812111200 AAXX 11124 67855 NIL=
200812110600 AAXX 11064 67855 NIL=
200812110000 AAXX 11004 67855 NIL=
200812101800 AAXX 10184 67855 NIL=
200812101200 AAXX 10124 67855 NIL=
200812100600 AAXX 10064 67855 NIL=
200812100000 AAXX 10004 67855 NIL=
200812091800 AAXX 09184 67855 NIL=
200812091200 AAXX 09124 67855 NIL=
200812090600 AAXX 09064 67855 NIL=
200812081800 AAXX 08184 67855 NIL=
200812081200 AAXX 08124 67855 NIL=
200812080600 AAXX 08064 67855 NIL=
200812080000 AAXX 08004 67855 NIL=
200812071800 AAXX 07184 67855 NIL=
200812071200 AAXX 07124 67855 NIL=
200812070600 AAXX 07064 67855 NIL=
200812070000 AAXX 07004 67855 NIL=
200812061800 AAXX 06184 67855 NIL=
200812061200 AAXX 06124 67855 NIL=
200812060600 AAXX 06064 67855 NIL=
200812060000 AAXX 06004 67855 NIL=
200812051800 AAXX 05184 67855 NIL=
200812051200 AAXX 05124 67855 NIL=
200812040000 AAXX 04004 67855 NIL=
200812031800 AAXX 03184 67855 NIL=
200812031200 AAXX 03124 67855 NIL=
200812030600 AAXX 03064 67855 NIL=
200812030000 AAXX 03004 67855 NIL=
200812021800 AAXX 02184 67855 NIL=
200812021200 AAXX 02124 67855 42980 70000 10338 20148 3//// 48/// 87200
                   333 5//// 87858=
200812020600 AAXX 02064 67855 NIL=
200812020000 AAXX 02004 67855 NIL=
200812011200 AAXX 01124 67855 NIL=
200812010600 AAXX 01064 67855 NIL=
