################################################################################
# Query made at 04/10/2022 06:45:39 UTC
# Country like Zamb*
# Time interval: from 11/01/2020 05:30  to 12/01/2020 06:30  UTC
################################################################################

################################################################################
#  SYNOPS from 67403, Kawambwa (Zambia) | 09-48S | 029-05E | 1323 m
################################################################################
202012010600 AAXX 01064 67403 31975 63601 10210 20197 48512 70522 85031
                   333 10276 20176 59015 85360 82080=
202011300600 AAXX 30064 67403 11480 73602 10212 20193 48527 60054 70362 8453/
                   333 10257 20193 5//// 84612 87360=
202011260600 AAXX 26064 67403 11460 80903 10195 20177 48527 69904 71792 8193/
                   333 10294 20196 58003 81915 87360=
202011240600 AAXX 24064 67403 11975 33601 10245 20207 48516 69904 83081
                   333 10322 20192 59003 83360=
202011230600 AAXX 23064 67403 12980 20601 10241 20187 48519 60044 82031
                   333 10258 20180 5//// 82360 81080=
202011200600 AAXX 20064 67403 11380 41601 10226 20187 48508 60154 70322 81680
                   333 10264 20180 59001 81706 84360=
202011190600 AAXX 19064 67403 11480 63602 10224 20199 48509 60064 84531
                   333 10278 20179 58008 84620 84360 81080=
202011160600 AAXX 16064 67403 11480 52701 10196 20183 48512 60034 70342 82531
                   333 10254 20168 58011 82615 84360=
202011130600 AAXX 13064 67403 11780 70905 10186 20172 48535 60064 70362 8553/
                   333 10266 20174 58011 85610 87060=
202011120600 AAXX 12064 67403 31475 63606 10217 20187 48526 70522 83531
                   333 10284 20192 58001 83615 84360=
202011110600 AAXX 11064 67403 11580 73602 10212 20187 48525 60024 70222 875//
                   333 10302 20188 58014 87620=
202011100600 AAXX 10064 67403 31575 53601 10231 20202 48512 70520 85501
                   333 10314 20186 58012 85620 81080=
202011090600 AAXX 09064 67403 11975 50901 10227 20171 48524 60034 70520 82081
                   333 10305 20168 58005 82360 85080=
202011060600 AAXX 06064 67403 31975 42701 10239 20149 48516 70520 81031
                   333 10349 20182 58004 81360 84080=
202011051200 AAXX 05124 67403 NIL=
202011050900 AAXX 05094 67403 NIL=
202011050600 AAXX 05064 67403 31975 60901 10235 20153 48512 70522 81031
                   333 10324 20164 58008 81360 86080=

################################################################################
#  SYNOPS from 67413, Mbala (Zambia) | 08-51S | 031-20E | 1673 m
################################################################################
202011051200 AAXX 05124 67413 NIL=
202011050900 AAXX 05094 67413 NIL=

################################################################################
#  SYNOPS from 67441, Mwinilunga (Zambia) | 11-45S | 024-26E | 1361 m
################################################################################
202012010600 AAXX 01064 67441 32680 30000 10205 20179 48546 82230
                   333 10280 20//0 59017 82840 83360=
202011300600 AAXX 30064 67441 12380 70000 10185 20168 48557 60104 8373/
                   333 10284 20//0 58002 83710 87360=
202011270900 AAXX 27094 67441 42680 60000 10240 20172 48555 84110
                   333 58000 84845 86460=
202011250600 AAXX 25064 67441 12380 70000 10195 20187 48546 60044 8473/
                   333 10287 20//0 59009 84710 87360=
202011240600 AAXX 24064 67441 11580 80000 10185 20168 48557 60204 72166 8452/
                   333 10300 20//0 58007 84625 88460=
202011230600 AAXX 23064 67441 32980 30000 10210 20185 48556 80001
                   333 10284 20//0 5//// 83075=
202011200900 AAXX 20094 67441 42680 40000 10255 20178 48532 83201
                   333 59011 83850 84075=
202011190900 AAXX 19094 67441 42680 60000 10242 20170 48544 84230
                   333 59002 83845 83645 84360=
202011190600 AAXX 19064 67441 12980 60000 10198 20184 48536 69964 86030
                   333 10280 20//0 59002 86360=
202011180900 AAXX 18094 67441 41680 60000 10230 20179 48546 72166 84230
                   333 58005 84845 85360=
202011160600 AAXX 16064 67441 12580 60000 10195 20187 48542 60044 84530
                   333 10261 20//0 59009 84630 85360=
202011130900 AAXX 13094 67441 42680 50000 10260 20158 48559 84230
                   333 59013 84850 83362=
202011130600 AAXX 13064 67441 11310 70000 10195 20187 48565 60024 74244 8463/
                   333 10210 20//0 58006 84709 86360=
202011120900 AAXX 12094 67441 42580 80000 10200 20166 48566 8457/
                   333 58013 84630 88460=
202011120600 AAXX 12064 67441 11380 70000 10180 20163 48559 60104 8272/
                   333 10260 20/// 58011 82709 87460=
202011100900 AAXX 10094 67441 42680 73203 10245 20168 48559 84108
                   333 58004 84840 87275=
202011100600 AAXX 10064 67441 32980 50000 10210 20168 48556 80008
                   333 10330 20//0 59003 85275=
202011090900 AAXX 09094 67441 42680 30000 10290 20128 48555 81101
                   333 5//// 81850 83075=
202011090600 AAXX 09064 67441 12980 10000 10180 20163 48553 60034 80001
                   333 10310 20//0 59010 81075=
202011060600 AAXX 06064 67441 32980 60000 10200 20155 48542 86030
                   333 10310 20//0 59001 86360=
202011051200 AAXX 05124 67441 NIL=
202011050900 AAXX 05094 67441 NIL=
202011050600 AAXX 05064 67441 32980 50000 10220 20169 48550 85030
                   333 10280 2//// 59020 85360=

################################################################################
#  SYNOPS from 67461, Mansa (Zambia) | 11-06S | 028-51E | 1382 m
################################################################################
202012010600 AAXX 01064 67461 32980 73103 10216 20185 48511 8703/
                   333 10296 20177 59020 87360=
202011300600 AAXX 30064 67461 32580 73002 10227 20189 48532 8453/
                   333 10321 20190 48017 84620 86360=
202011270900 AAXX 27094 67461 42780 70000 10290 20198 48515 82202
                   333 59016 82850 87080 91019=
202011240600 AAXX 24064 67461 31580 72808 10237 20203 48522 71799 81943
                   333 10317 20194 59001 81920 85360 84080=
202011230600 AAXX 23064 67461 12980 50502 10218 20186 48521 60114 80001
                   333 10288 20180 59001 85080=
202011200900 AAXX 20094 67461 42980 53202 10235 20180 48508 85030
                   333 58005 85360 91017=
202011190600 AAXX 19064 67461 12580 33602 10227 20199 48509 60194 81530
                   333 10309 20183 59003 81620 82360 91017=
202011180900 AAXX 18094 67461 42780 63203 10270 20190 48514 85230
                   333 58005 85850 83360 91017=
202011160600 AAXX 16064 67461 32680 72602 10215 20193 48513 875//
                   333 10257 20181 59007 87625=
202011130900 AAXX 13094 67461 42580 70920 10229 20182 48544 8453/
                   333 59017 82620 83828 85360 91021=
202011130600 AAXX 13064 67461 32380 80909 10194 20178 48540 60144 8457/
                   333 10254 20172 58012 84610 88460=
202011121200 AAXX 12124 67461 41580 70202 10217 20187 48503 79196 85837
                   333 58023 82625 83830 86360 91017=
202011120900 AAXX 12094 67461 41375 81302 10184 20178 48556 79596 8197/
                   333 58042 81912 85610 88460=
202011120600 AAXX 12064 67461 11370 83603 10170 20189 48526 60314 79596 8197/
                   333 10318 20162 58003 81915 85617 88460=
202011111200 AAXX 11124 67461 41780 71206 10290 20185 48488 71799 8193/
                   333 58007 81950 84850 83360 91014=
202011110600 AAXX 11064 67461 32580 42305 10228 20180 48528 81501
                   333 10354 20169 58009 81630 84080=
202011100900 AAXX 10094 67461 42780 61805 10317 20143 48516 81208
                   333 59007 81857 86280 91017=
202011100600 AAXX 10064 67461 32980 42115 10258 20130 48522 80001
                   333 10351 20177 59005 84080=
202011091200 AAXX 09124 67461 42780 40723 10348 20074 48500 81201
                   333 58015 81857 84080 91015=
202011090900 AAXX 09094 67461 42980 41918 10322 20144 48524 80001
                   333 58016 84080 91018=
202011060900 AAXX 06094 67461 42680 21211 10265 20153 48491 81101
                   333 5//// 81848 82080 91015=
202011060600 AAXX 06064 67461 31975 61310 10255 20134 48506 70522 80008
                   333 10340 20182 58009 86280=
202011051200 AAXX 05124 67461 42980 41209 10326 20101 48479 81034
                   333 59002 81360 84080 91013=
202011050900 AAXX 05094 67461 NIL=
202011050600 AAXX 05064 67461 31975 70910 10245 20150 48497 70522 83038
                   333 10335 20164 59018 83360 86280 91016=

################################################################################
#  SYNOPS from 67469, Samfya (Zambia) | 11-22S | 029-54E | 1171 m
################################################################################
202012010600 AAXX 01064 67469 11480 71601 10222 20190 48/// 60094 71799 81938
                   333 10283 20193 5//// 81915 86360 86280=
202011271200 AAXX 27124 67469 42680 60603 10296 20200 48/// 83238
                   333 5//// 81936 83840 81360 86280=
202011270900 AAXX 27094 67469 42680 70910 10233 20190 48/// 81107
                   333 5//// 81833 87280=
202011260600 AAXX 26064 67469 32980 62902 10253 20190 48/// 81038
                   333 10302 20204 5//// 81360 86080=
202011230600 AAXX 23064 67469 12980 20702 10238 20108 48/// 60154 81032
                   333 10296 20184 5//// 81360 82280=
202011201200 AAXX 20124 67469 42680 40704 10289 20180 48/// 81930
                   333 5//// 81941 84841 83360=
202011200900 AAXX 20094 67469 42580 62302 10256 20190 48/// 83812
                   333 5//// 83624 83824 86460 81280=
202011200600 AAXX 20064 67469 11380 62804 10195 20180 48/// 60094 85742
                   333 10293 20191 5//// 85706 84610=
202011191200 AAXX 19124 67469 42580 60806 10280 20230 48/// 81902
                   333 5//// 81929 86829 81280=
202011180900 AAXX 18094 67469 42680 52103 10273 20200 48/// 85800
                   333 5//// 85630 83830=
202011160600 AAXX 16064 67469 32480 52004 10220 20200 48/// 85832
                   333 10276 20180 5//// 85613 83813 82360 81280=
202011130600 AAXX 13064 67469 11480 71408 10//0 20190 48/// 60484 8587/
                   333 10282 20168 5//// 85613 83813 87460=
202011121200 AAXX 12124 67469 42480 51404 10242 20200 48/// 82830
                   333 5//// 82617 82817 84360=
202011120900 AAXX 12094 67469 41380 72904 10200 20190 48/// 8574/
                   333 5//// 85706 84610 87460=
202011120600 AAXX 12064 67469 11480 72604 10190 20140 48/// 60124 8254/
                   333 10296 20160 5//// 82613 81913 87460=
202011111200 AAXX 11124 67469 42580 31005 10290 20220 48/// 81932
                   333 5//// 81836 83836 81360 81080=
202011110600 AAXX 11064 67469 32980 40402 10230 20200 48/// 84030
                   333 10319 20202 5//// 84360=
202011091200 AAXX 09124 67469 42780 20804 10312 20170 48/// 81232
                   333 5//// 81859 81360 82180=
202011090900 AAXX 09094 67469 42980 20806 10320 20160 48/// 81032
                   333 81360 82180=
202011060900 AAXX 06094 67469 42980 20804 10287 20170 48/// 81032
                   333 5//// 81360 82180=
202011060600 AAXX 06064 67469 32980 10806 10263 20170 48/// 80002
                   333 10314 20225 81180=
202011051200 AAXX 05124 67469 42980 20705 10308 20170 48/// 81032
                   333 5//// 81360 82180=
202011050900 AAXX 05094 67469 42980 21004 10274 20160 48/// 81032
                   333 5//// 81360 82280=
202011050600 AAXX 05064 67469 32950 21105 10248 20180 48/// 81032
                   333 10310 20221 81360 82180=

################################################################################
#  SYNOPS from 67475, Kasama (Zambia) | 10-13S | 031-08E | 1382 m
################################################################################
202012010600 AAXX 01064 67475 11350 81304 10191 20191 48524 60034 76362 877//
                   333 10288 20176 59011 87709=
202011300600 AAXX 30064 67475 12460 83006 10218 20189 48535 60014 70322 866//
                   333 10323 20176 58009 86712=
202011260600 AAXX 26064 67475 12960 21005 10236 20188 48524 69904 80002
                   333 10321 20174 59007 82080=
202011250600 AAXX 25064 67475 32460 20703 10224 20188 48530 82500
                   333 10330 20164 59005 82620=
202011240600 AAXX 24064 67475 32960 00506 10240 20169 48525
                   333 10311 20174 5////=
202011200600 AAXX 20064 67475 11560 63005 10206 20183 48516 69904 72999 83570
                   333 10311 20177 58001 83620 85460=
202011191200 AAXX 19124 67475 42660 53004 10281 20163 48492 84270
                   333 59004 81940 83840 84460 91015=
202011190600 AAXX 19064 67475 11560 63305 10204 20193 48525 60014 72622
                   333 10299 20176 59001 83620 85460 91019=
202011180900 AAXX 18094 67475 42660 63005 10269 20179 48515 84270
                   333 58003 84830 84460 91019=
202011160600 AAXX 16064 67475 12460 73504 10194 20184 48521 60024 8457/
                   333 10249 20171 59002 84615 87460=
202011131200 AAXX 13124 67475 42660 70804 10230 20176 48516 8227/
                   333 58025 82830 87460 91019=
202011130600 AAXX 13064 67475 11325 81905 10162 20162 48550 60174 877//
                   333 10304 20159 58017 87709=
202011121200 AAXX 12124 67475 41768 80410 10284 20141 48492 72999 862//
                   333 59007 81950 86850 91016=
202011120900 AAXX 12094 67475 41660 80707 10281 20154 48527 70522 84207
                   333 59001 81935 84835 88280 91020=
202011120600 AAXX 12064 67475 11560 80203 10213 20176 48534 69904 70522 83207
                   333 10329 20179 58002 83820 88280=
202011111200 AAXX 11124 67475 41660 83411 10239 20170 48498 71799 8327/
                   333 58012 81940 83840 86460 91017=
202011110600 AAXX 11064 67475 31960 93009 10223 20171 48533 70522 8605/
                   333 10352 20161 58006 86360=
202011101200 AAXX 10124 67475 41680 70902 10330 20098 48486 70522 84208
                   333 59013 84845 83080 91015=
202011100900 AAXX 10094 67475 41580 83605 10313 20121 48516 70522 81208
                   333 58011 81830 85080 91019=
202011100600 AAXX 10064 67475 31970 50403 10242 20135 48527 70522 80008
                   333 10//0 20//0 59008 85280=
202011091200 AAXX 09124 67475 41680 50903 10325 20081 48499 70522 84209
                   333 59017 84835 83080 91017=
202011090900 AAXX 09094 67475 41580 50502 10298 20123 48527 70522 82208
                   333 59004 82830 84080 91020=
202011060900 AAXX 06094 67475 41960 51703 10308 20114 48521 70522 80008
                   333 58000 85280 91019=
202011060600 AAXX 06064 67475 31960 61305 10246 20122 48530 70522 80008
                   333 10350 20161 58000 86280=
202011051200 AAXX 05124 67475 41660 61706 10324 20062 48488 70522 83208
                   333 59007 81940 82840 85280 91016=
202011050900 AAXX 05094 67475 41960 51405 10298 20102 48521 70522 80008
                   333 59005 85280 91019=
202011050600 AAXX 05064 67475 31960 63206 10242 20100 48531 70522 80008
                   333 10339 20152 59002 86280 91021=

################################################################################
#  SYNOPS from 67476, Misamfu (Zambia) | 10-06S | 031-15E | 1536 m
################################################################################
202012010600 AAXX 01064 67476 11478 70701 10210 20184 48/// 69974 72992 8347/
                   333 10278 20127 59009 83615 81950 81850 87360=
202011300600 AAXX 30064 67476 12480 73602 10218 20183 48/// 69914 8357/
                   333 10321 20132 5//// 83618 81838 86360=
202011200900 AAXX 20094 67476 42680 52302 10267 20171 48/// 85200
                   333 59002 85835=
202011190900 AAXX 19094 67476 42680 50801 10255 20182 48/// 85200
                   333 59003 85835=
202011190600 AAXX 19064 67476 11470 70102 10222 20183 48/// 60074 71522 816//
                   333 10281 20126 5//// 81712 87838=
202011180900 AAXX 18094 67476 41665 62704 10266 20174 48/// 71520 862//
                   333 5//// 86838=
202011130600 AAXX 13064 67476 11976 80903 10200 20188 48/// 60374 76696 8807/
                   333 10290 20113 58002 88459=
202011110600 AAXX 11064 67476 32580 60903 10208 20164 48/// 81130
                   333 10299 20113 5//// 81823 86359=
202011100900 AAXX 10094 67476 42580 21003 10306 20140 48/// 81100
                   333 59017 81850=
202011100600 AAXX 10064 67476 32980 10902 10250 20137 48/// 80001
                   333 10300 20108 5//// 81080=
202011060600 AAXX 06064 67476 31978 40703 10240 20122 48/// 70522 80001
                   333 10340 20098 58000 84080=
202011051200 AAXX 05124 67476 NIL=
202011050900 AAXX 05094 67476 NIL=
202011050600 AAXX 05064 67476 31977 41003 10246 20125 48/// 70511 80001
                   333 10327 20080 58000 84080=

################################################################################
#  SYNOPS from 67477, Mpika (Zambia) | 11-54S | 031-26E | 1400 m
################################################################################
202012010600 AAXX 01064 67477 12480 70000 10203 20170 48/// 69904 8257/
                   333 10293 20178 5//// 82610 87459=
202011300600 AAXX 30064 67477 32480 33002 10214 20160 48/// 82131
                   333 10314 20166 5//// 82814 81359=
202011271200 AAXX 27124 67477 41680 43002 10293 20130 48/// 71799 84231
                   333 5//// 81940 84840 81354 81080=
202011270900 AAXX 27094 67477 42680 41207 10272 20150 48/// 83101
                   333 5//// 83825 82080=
202011260600 AAXX 26064 67477 32980 13001 10246 20160 48/// 80001
                   333 10326 20168 58/// 81080=
202011250600 AAXX 25064 67477 32480 32202 10238 20170 48/// 83101
                   333 10330 20189 5//// 83814=
202011241200 AAXX 24124 67477 42680 21801 10322 20120 48/// 82100
                   333 5//// 82845=
202011240900 AAXX 24094 67477 42980 01203 10283 20140 48///
                   333 5////=
202011240600 AAXX 24064 67477 31978 00903 10263 20160 48///
                   333 10322 20169 5////=
202011230600 AAXX 23064 67477 32980 31202 10264 20160 48/// 80001
                   333 10312 20168 5//// 83080=
202011200900 AAXX 20094 67477 42680 22403 10279 20168 48/// 82100
                   333 5//// 82844=
202011200600 AAXX 20064 67477 12980 73602 10209 20178 48/// 60034 87080
                   333 10310 20180 5//// 87360=
202011191200 AAXX 19124 67477 41780 43608 10300 20169 48/// 71722 84200
                   333 5//// 81956 84856=
202011190900 AAXX 19094 67477 42780 42407 10285 20170 48/// 84200
                   333 5//// 84842=
202011190600 AAXX 19064 67477 32980 13608 10230 20160 48/// 81030
                   333 10325 20174 5//// 81360=
202011180900 AAXX 18094 67477 42580 22407 10270 20168 48/// 82100
                   333 5//// 82842=
202011160600 AAXX 16064 67477 12980 40000 10215 20169 48/// 60054 80002
                   333 10318 20158 5//// 84080=
202011131200 AAXX 13124 67477 42680 60902 10234 20160 48/// 84171
                   333 5//// 84830 84464 82080=
202011130900 AAXX 13094 67477 42480 71501 10213 20160 48/// 84570
                   333 5//// 84618 86460=
202011130600 AAXX 13064 67477 11480 81202 10196 20170 48/// 60324 72162 8257/
                   333 10314 20162 5//// 82612 88459=
202011121200 AAXX 12124 67477 42680 41503 10293 20150 48/// 84231
                   333 5//// 84840 82364 82080=
202011120900 AAXX 12094 67477 42580 40904 10283 20130 48/// 84131
                   333 5//// 84825 81364 82080=
202011120600 AAXX 12064 67477 12480 51204 10238 20150 48/// 69904 82131
                   333 10337 20199 5//// 82814 83359=
202011111200 AAXX 11124 67477 42680 41201 10326 20100 48/// 84201
                   333 5//// 84840 81080=
202011110600 AAXX 11064 67477 32980 21202 10266 20130 48/// 80001
                   333 10338 20136 5//// 82080=
202011101200 AAXX 10124 67477 42680 20903 10331 20070 48/// 81101
                   333 5//// 81838 82080=
202011100900 AAXX 10094 67477 42980 41203 10302 20090 48/// 80001
                   333 5//// 84080=
202011100600 AAXX 10064 67477 32980 31207 10256 20120 48/// 80001
                   333 10340 20187 5//// 83080=
202011091200 AAXX 09124 67477 42680 21208 10326 20090 48/// 81101
                   333 5//// 81836 82080=
202011090900 AAXX 09094 67477 42580 20908 10306 20090 48/// 82101
                   333 5//// 82825 81080=
202011060900 AAXX 06094 67477 41980 21213 10306 20080 48/// 70500 80001
                   333 5//// 82080=
202011060600 AAXX 06064 67477 32980 21212 10251 20100 48/// 80001
                   333 10340 20192 5//// 82080=
202011051200 AAXX 05124 67477 NIL=
202011050900 AAXX 05094 67477 NIL=
202011050600 AAXX 05064 67477 32980 20913 10239 20145 48/// 80001
                   333 10330 20139 5//// 82080=

################################################################################
#  SYNOPS from 67481, Isoka (Zambia) | 10-07S | 032-38E | 1360 m
################################################################################
202012010600 AAXX 01064 67481 12480 71002 10212 20178 48/// 60244 8157/
                   333 10301 20180 5//// 81610 87360=
202011300600 AAXX 30064 67481 12980 63002 10228 20185 48/// 60074 86030
                   333 10344 30182 5//// 86360=
202011260600 AAXX 26064 67481 12980 10302 10240 20173 48/// 60144 81030
                   333 10312 20170 5//// 81360=
202011240600 AAXX 24064 67481 12980 00302 10248 20157 48/// 60014
                   333 10336 20187 59011=
202011230600 AAXX 23064 67481 12580 13002 10235 20184 48/// 69904 81100
                   333 10327 20175 5//// 81820=
202011190600 AAXX 19064 67481 32480 50303 10238 20182 48/// 81130
                   333 10312 20190 5//// 81810 85360=
202011160600 AAXX 16064 67481 12480 30302 10218 20187 48/// 60034 82130
                   333 10300 20180 5//// 82810 83360=
202011130600 AAXX 13064 67481 11470 73004 10208 20181 48/// 60064 76022 8667/
                   333 10336 20190 58014 86610 87460=
202011120600 AAXX 12064 67481 31575 63002 10200 20113 48/// 70500 82230
                   333 10320 20189 5//// 82820 86360=
202011110600 AAXX 11064 67481 31975 50302 10235 20247 48/// 70522 80001
                   333 10348 20192 5//// 85080=
202011100900 AAXX 10094 67481 41775 13002 10295 20116 48/// 70500 81100
                   333 5//// 81850=
202011100600 AAXX 10064 67481 31975 13002 10248 20141 48/// 70500 80001
                   333 10340 20180 5//// 81080=
202011090900 AAXX 09094 67481 41675 10303 10312 20091 48/// 70500 81101
                   333 5//// 81840 81080=
202011090600 AAXX 09064 67481 31975 13602 10240 20140 48/// 70500 80001
                   333 10350 20182 5//// 81080=
202011060600 AAXX 06064 67481 31975 63602 10240 20144 48/// 70522 80001
                   333 10342 20172 5//// 86080=
202011051200 AAXX 05124 67481 NIL=
202011050900 AAXX 05094 67481 NIL=
202011050600 AAXX 05064 67481 31977 10302 10250 20094 48/// 70500 80001
                   333 10320 20115 5//// 81080=

################################################################################
#  SYNOPS from 67531, Zambezi (Zambia) | 13-32S | 023-07E | 1077 m
################################################################################
202012010600 AAXX 01064 67531 12380 53303 10210 20197 48/// 69924 83632
                   333 10273 20165 59023 83709 82362 83080=
202011300600 AAXX 30064 67531 11380 70000 10196 20193 48/// 60184 79196 8377/
                   333 10276 20186 58004 83707 87460=
202011270900 AAXX 27094 67531 41480 70000 10220 20191 48/// 72998 8117/
                   333 58020 81813 87460=
202011240900 AAXX 24094 67531 42680 70908 10237 20201 48/// 8327/
                   333 58013 83846 87362=
202011240600 AAXX 24064 67531 12980 70000 10212 20189 48/// 60064 8707/
                   333 10315 20180 59006 87362=
202011230600 AAXX 23064 67531 32980 70000 10226 20212 48/// 60044 8707/
                   333 10316 20202 58006 87362=
202011200900 AAXX 20094 67531 42680 32402 10281 20199 48/// 81131
                   333 59009 81834 82361 81081=
202011200600 AAXX 20064 67531 32980 70605 10230 20201 48/// 8707/
                   333 10313 20192 58002 87360=
202011190600 AAXX 19064 67531 12380 73603 10217 20201 48/// 69904 8267/
                   333 10289 20194 59002 82708 87361=
202011160600 AAXX 16064 67531 12980 73003 10219 20181 48/// 69904 8707/
                   333 10317 20195 59014 87362=
202011130900 AAXX 13094 67531 42480 71304 10245 20198 48/// 8483/
                   333 59011 82819 82619 87360=
202011130600 AAXX 13064 67531 11480 70000 10200 20193 48/// 60084 70242 8157/
                   333 10240 20180 58000 81610 87460=
202011120900 AAXX 12094 67531 41480 80000 10191 20184 48/// 79196 8347/
                   333 58028 83710 88460=
202011120600 AAXX 12064 67531 11/80 80303 10185 20179 48/// 60474 79599 8197/
                   333 10312 20175 58023 819// 88460=
202011111200 AAXX 11124 67531 42980 42703 10262 20197 48/// 84030
                   333 58006 84362=
202011110600 AAXX 11064 67531 32380 73602 10221 20186 48/// 8367/
                   333 10351 20196 58002 83709 87361=
202011100900 AAXX 10094 67531 42980 43606 10296 20176 48/// 80008
                   333 59003 84281=
202011100600 AAXX 10064 67531 12980 53003 10232 20173 48/// 69904 80008
                   333 10356 20186 59012 85281=
202011090900 AAXX 09094 67531 42980 32706 10296 20176 48/// 80002
                   333 59010 83081=
202011060600 AAXX 06064 67531 12980 22704 10251 20192 48/// 69904 81032
                   333 10352 20195 59010 81361 81081=
202011051200 AAXX 05124 67531 NIL=
202011050900 AAXX 05094 67531 42980 72703 10261 20192 48/// 8707/
                   333 59010 87362=
202011050600 AAXX 05064 67531 12980 70000 10206 20181 48/// 60054 8707/
                   333 10321 20172 59002 87362=

################################################################################
#  SYNOPS from 67541, Kasempa (Zambia) | 13-32S | 025-51E | 1234 m
################################################################################
202012010600 AAXX 01064 67541 32980 20000 10225 20188 48/// 70222 80002
                   333 10272 20154 5//// 82080=
202011300600 AAXX 30064 67541 32980 70000 10190 20166 48/// 70222 8703/
                   333 10308 20154 5//// 87360=
202011270900 AAXX 27094 67541 42980 70000 10265 20207 48/// 85032
                   333 5//// 85360 82080=
202011260600 AAXX 26064 67541 12980 70000 10210 20188 48/// 60014 70222 82035
                   333 10320 20162 5//// 82360 85080=
202011241200 AAXX 24124 67541 42680 70000 10290 20195 48/// 82205
                   333 5//// 82838 85080=
202011240900 AAXX 24094 67541 42480 70000 10220 20198 48/// 8213/
                   333 5//// 82812 87360=
202011240600 AAXX 24064 67541 11370 70000 10180 20180 48/// 60194 76066 8353/
                   333 10300 20160 5//// 83706 87360=
202011230600 AAXX 23064 67541 32980 60000 10210 20188 48/// 80006
                   333 10250 20140 5//// 85080=
202011200600 AAXX 20064 67541 12980 70000 10210 20210 48/// 60054 70222 8703/
                   333 10310 20164 5//// 87360=
202011191200 AAXX 19124 67541 42980 50000 10295 20201 48/// 85200
                   333 5//// 85840=
202011190600 AAXX 19064 67541 12980 70000 10205 20198 48/// 60034 8703/
                   333 10298 20160 5//// 87360=
202011160600 AAXX 16064 67541 12980 60000 10190 20190 48/// 60274 70222 86030
                   333 10214 20132 5//// 86360=
202011131200 AAXX 13124 67541 42580 60000 10263 20192 48/// 70222 86200
                   333 5//// 86828=
202011130900 AAXX 13094 67541 42580 70510 10243 20186 48/// 70222 83230
                   333 83820 87360=
202011130600 AAXX 13064 67541 12380 70504 10200 20177 48/// 60354 70222 8253/
                   333 10280 20156 5//// 82606 87360=
202011120600 AAXX 12064 67541 11360 70000 10185 20185 48/// 60114 76066 8353/
                   333 10334 20160 5//// 83706 87360=
202011110600 AAXX 11064 67541 32980 70000 10250 20191 48/// 70222 87030
                   333 10360 20162 5//// 87360=
202011100900 AAXX 10094 67541 42980 70503 10320 20156 48/// 83034
                   333 5//// 83360 84080=
202011100600 AAXX 10064 67541 32980 70000 10245 20168 48/// 70222 80007
                   333 10360 20142 5//// 87080=
202011090900 AAXX 09094 67541 42980 70000 10310 20166 48/// 80007
                   333 5//// 87080=
202011090600 AAXX 09064 67541 32980 70000 10230 20177 48/// 70222 80007
                   333 10358 20144 5//// 87080=
202011060900 AAXX 06094 67541 42980 70502 10330 20145 48/// 80007
                   333 5//// 87080=
202011060600 AAXX 06064 67541 32980 70000 10219 20179 48/// 70222 80007
                   333 10340 20128 5//// 87080=
202011051200 AAXX 05124 67541 42780 60000 10315 20163 48/// 86200
                   333 5//// 86856=
202011050900 AAXX 05094 67541 42680 30000 10300 20181 48/// 82130
                   333 5//// 82848 81360=
202011050600 AAXX 05064 67541 12980 40000 10185 20177 48/// 60064 70222 84030
                   333 10300 20132 5//// 84360=

################################################################################
#  SYNOPS from 67543, Kabompo (Zambia) | 13-36S | 024-12E | 1075 m
################################################################################
202012010600 AAXX 01064 67543 32480 70000 10224 20188 48/// 81135
                   333 10304 20172 5//// 81815 84360 84280=
202011260600 AAXX 26064 67543 32980 70601 10236 20182 48/// 82037
                   333 10340 20192 5//// 82361 86280=
202011200600 AAXX 20064 67543 32980 70000 10220 20190 48/// 8707/
                   333 10314 20200 5//// 87360=
202011190600 AAXX 19064 67543 12380 70000 10206 20189 48/// 69904 81675
                   333 10294 20184 5//// 81708 84360 85280=
202011160600 AAXX 16064 67543 32980 40000 10246 20185 48/// 84030
                   333 10300 20178 5//// 84360=
202011130600 AAXX 13064 67543 12380 70000 10198 20186 48/// 60034 8367/
                   333 10250 20186 83707 87380=
202011120600 AAXX 12064 67543 11975 80000 10182 20176 48/// 60154 76169 882//
                   333 10342 20176 5//// 88460=
202011110600 AAXX 11064 67543 32980 80000 10224 20178 48/// 8807/
                   333 10374 20194 5//// 88360=
202011090600 AAXX 09064 67543 12980 60000 10222 20166 48/// 60134 83037
                   333 10378 20176 5//// 83360 84280=
202011060600 AAXX 06064 67543 31975 60000 10260 20177 48/// 70522 84035
                   333 10370 20180 5//// 84360 83280=
202011051200 AAXX 05124 67543 NIL=
202011050900 AAXX 05094 67543 NIL=
202011050600 AAXX 05064 67543 11970 50000 10230 20174 48/// 69904 70522 83035
                   333 10342 20166 5//// 83360 84280=

################################################################################
#  SYNOPS from 67551, Solwezi (Zambia) | 12-11S | 026-23E | 1386 m
################################################################################
202012010600 AAXX 01064 67551 42980 43005 10204 20183 48511 60074 84031
                   333 10276 20159 59020 84362 82080=
202011300600 AAXX 30064 67551 12380 62705 10191 20178 48534 60104 72996 81630
                   333 10296 20156 58005 81706 86362=
202011271200 AAXX 27124 67551 42680 70000 10268 20195 48499 79592 81930
                   333 58004 81930 86835 85362 91016=
202011270900 AAXX 27094 67551 42580 71905 10248 20189 48514 83230
                   333 59005 83820 87362 91019=
202011260600 AAXX 26064 67551 11660 73006 10180 20152 48517 60034 79596 81930
                   333 10310 20158 59006 81930 87362=
202011250600 AAXX 25064 67551 12980 60505 10204 20170 48520 60014 83036
                   333 10276 20155 59003 83362 86280=
202011240600 AAXX 24064 67551 12980 73005 10185 20179 48526 60034 8707/
                   333 10267 20164 59002 87362=
202011230600 AAXX 23064 67551 32980 43405 10208 20190 48525 80001
                   333 10269 20161 59005 84080 91020=
202011200900 AAXX 20094 67551 41370 70809 10190 20190 48526 79596 8193/
                   333 59013 81908 87825 91019=
202011200600 AAXX 20064 67551 12970 32003 10220 20186 48509 60054 70211 83030
                   333 10306 20170 59003 88362=
202011190900 AAXX 19094 67551 42670 42505 10250 20157 48509 81130
                   333 59005 81825 84362 91017=
202011190600 AAXX 19064 67551 12970 73403 10185 20164 48519 60254 72162 8707/
                   333 10271 20153 58001 87362 91018=
202011160600 AAXX 16064 67551 12980 60000 10213 20179 48511 60024 86030
                   333 10253 20175 59017 86362=
202011130900 AAXX 13094 67551 42670 70907 10244 20161 48540 70222 87200
                   333 59001 87835=
202011130600 AAXX 13064 67551 12570 21106 10205 20159 48543 60064 70500 81130
                   333 10256 20150 59010 81820 81362=
202011121200 AAXX 12124 67551 42370 73003 10204 20186 48515 72166 8457/
                   333 58019 84613 82820 86362 91019=
202011120900 AAXX 12094 67551 42370 70000 10194 20174 48536 72162 8257/
                   333 58013 82610 87360 91021=
202011120600 AAXX 12064 67551 12975 81605 10196 20156 48527 69904 8807/
                   333 10326 20151 58017 88362=
202011101200 AAXX 10124 67551 42770 71505 10303 20146 48496 82207
                   333 59008 82830 87280 91016=
202011100600 AAXX 10064 67551 32980 63205 10226 20173 48520 80006
                   333 10335 20156 59013 86280=
202011091200 AAXX 09124 67551 42670 30505 10326 20135 48501 83101
                   333 59007 83857 83080 91017=
202011090600 AAXX 09064 67551 32970 30000 10218 20173 48532 80001
                   333 10326 20154 59003 83080=
202011060600 AAXX 06064 67551 32980 63303 10241 20157 48518 86030
                   333 10310 20162 59004 86362=
202011051200 AAXX 05124 67551 NIL=
202011050900 AAXX 05094 67551 NIL=
202011050600 AAXX 05064 67551 12980 00504 10222 20182 48522 60024 86030
                   333 10257 20147 59007 85362 82080 91020=

################################################################################
#  SYNOPS from 67561, Ndola (Zambia) | 13-00S | 028-39E | 1269 m
################################################################################
202012010600 AAXX 01064 67561 11979 60904 10215 20185 48517 69914 70422 81938
                   333 10287 20190 5//// 819// 84360 86280=
202011300600 AAXX 30064 67561 11350 82507 10180 20180 48532 60114 79596 8577/
                   333 10315 20180 5//// 82840 83360 82080=
202011260600 AAXX 26064 67561 31959 72006 10230 20178 48525 70422 82038
                   333 10334 20195 58008 82360 87280=
202011250600 AAXX 25064 67561 11961 30000 10241 20181 48518 60064 70411 80001
                   333 10334 20175 59003 83080=
202011240900 AAXX 24094 67561 41570 40105 10301 20153 48518 70422 81102
                   333 59006 81840 84080 91018=
202011240600 AAXX 24064 67561 31958 50000 10267 20164 48526 70422 80008
                   333 10330 20198 59009 85280=
202011200900 AAXX 20094 67561 41559 59908 10250 20184 48511 70422 85201
                   333 58005 85820 81080 91018=
202011200600 AAXX 20064 67561 11358 71005 10207 20188 48518 60044 70496 8563/
                   333 10326 20185 58010 85606 87359=
202011190600 AAXX 19064 67561 11958 69903 10214 20184 48508 60184 70422 84038
                   333 10316 20188 59007 84360 85280 91018=
202011180900 AAXX 18094 67561 41560 63004 10292 20177 48516 70511 86200
                   333 58005 86830 91018=
202011160600 AAXX 16064 67561 31959 79904 10227 20174 48518 70522 80008
                   333 10294 20170 5//// 87280=
202011131200 AAXX 13124 67561 41660 61111 10265 20165 48519 70522 85230
                   333 58015 81930 85835 86360 91019=
202011130900 AAXX 13094 67561 41559 51208 10244 20178 48545 70422 83130
                   333 58012 85820 85360=
202011130600 AAXX 13064 67561 31459 61310 10210 20177 48548 60094 70422 82530
                   333 10281 20178 58019 82610 86360=
202011110600 AAXX 11064 67561 31954 70000 10216 20168 48517 70422 86038
                   333 10347 20210 59009 86360 87280=
202011101200 AAXX 10124 67561 41760 50707 10341 20094 48492 70522 85208
                   333 59007 85856 85280 91015=
202011100900 AAXX 10094 67561 41959 50705 10314 20100 48523 70422 80008
                   333 59007 85280 91018=
202011100600 AAXX 10064 67561 31959 50710 10249 20106 48529 80008
                   333 10360 20178 59008 85280=
202011091200 AAXX 09124 67561 41575 61206 10286 20076 48499 70522 84208
                   333 59009 84840 85280 91016=
202011090900 AAXX 09094 67561 41960 50509 10313 20089 48530 70522 80008
                   333 59004 85280 91019=
202011090600 AAXX 09064 67561 31959 70612 10256 20112 48538 70422 80008
                   333 10360 20188 58002 87280=
202011060900 AAXX 06094 67561 41960 20508 10330 20070 48522 70511 80002
                   333 59012 82080 91018=
202011060600 AAXX 06064 67561 31959 50906 10264 20072 48524 70422 80008
                   333 10345 20152 59006 85280=
202011051200 AAXX 05124 67561 NIL=
202011050900 AAXX 05094 67561 41559 60607 10310 20076 48527 70422 81138
                   333 59012 81835 83380 86280=
202011050600 AAXX 05064 67561 31970 60906 10255 20179 48528 70422 82038
                   333 10332 20186 59017 82360 86280 91020=

################################################################################
#  SYNOPS from 67563, Kafironda (Zambia) | 12-36S | 028-07E | 1243 m
################################################################################
202011190600 AAXX 19064 67563 11578 70301 10225 20187 48/// 60184 70522 81538
                   333 10325 20180 58000 81615 81360 85270
                   555 00160=
202011160600 AAXX 16064 67563 11978 30703 10221 20180 48/// 60044 70500 80002
                   333 10288 20175 59006 83080=
202011090600 AAXX 09064 67563 31970 30708 10256 20130 48/// 70500 83030
                   333 10356 20137 59002 83360=
202011051200 AAXX 05124 67563 NIL=
202011050900 AAXX 05094 67563 NIL=

################################################################################
#  SYNOPS from 67571, Serenje (Zambia) | 13-14S | 030-13E | 1384 m
################################################################################
202012010600 AAXX 01064 67571 12982 70000 10203 20177 48472 60134 8703/
                   333 10296 20169 59012 87360=
202011300600 AAXX 30064 67571 32982 23602 10205 20162 48482 81031
                   333 10317 20173 58024 81360 82080=
202011271200 AAXX 27124 67571 41680 73602 10291 20163 48433 72998 86238
                   333 59005 81930 86838 82360 87280=
202011270900 AAXX 27094 67571 42581 71202 10284 20177 48474 70222 85238
                   333 58006 81926 85826 85360 87280=
202011260600 AAXX 26064 67571 32980 70000 10240 20171 48473 81081
                   333 10349 20195 58009 81360 83080=
202011241200 AAXX 24124 67571 42682 50902 10//0 20130 48/// 85200
                   333 5//// 81947 85847=
202011240900 AAXX 24094 67571 42682 60902 10315 20150 48/// 86200
                   333 5//// 81935 86835=
202011240600 AAXX 24064 67571 32982 03602 10261 20142 48474
                   333 10314 20186 59002=
202011201200 AAXX 20124 67571 41680 70902 10235 20156 48442 71799 872//
                   333 58018 81938 87840=
202011200900 AAXX 20094 67571 42682 62702 10254 20172 48453 86200
                   333 58007 81930 86830=
202011191200 AAXX 19124 67571 42682 62402 10292 20143 48423 86230
                   333 59010 81941 86841 81360=
202011190900 AAXX 19094 67571 42682 63602 10282 20145 48454 86230
                   333 59014 81932 86832 81360=
202011190600 AAXX 19064 67571 12982 13302 10217 20117 48462 60024 81030
                   333 10321 20179 59005 81360=
202011180900 AAXX 18094 67571 42682 23002 10267 20146 48/// 82200
                   333 5//// 82835=
202011160600 AAXX 16064 67571 32982 70000 10212 20166 48472 70222 80008
                   333 10302 20159 58010 87280=
202011131200 AAXX 13124 67571 42682 61203 10240 20162 48473 86230
                   333 58016 81935 86835 82360=
202011130900 AAXX 13094 67571 42582 71202 10205 20169 48492 8557/
                   333 58017 85625 87360=
202011130600 AAXX 13064 67571 11482 71205 10183 20166 48501 60264 72162 8257/
                   333 10292 20167 58019 82615 87360=
202011121200 AAXX 12124 67571 41679 70902 10265 20160 48/// 71799 872//
                   333 5//// 81938 87838=
202011120600 AAXX 12064 67571 12570 71206 10218 20159 48492 69904 8155/
                   333 10328 20186 58009 81620 87360=
202011110600 AAXX 11064 67571 32978 71203 10259 20129 48484 70522 80008
                   333 10343 20211 58003 87280=
202011101200 AAXX 10124 67571 42780 70903 10324 20086 48444 70522 83108
                   333 59013 83850 87280=
202011100900 AAXX 10094 67571 42680 71206 10318 20093 48465 70522 81108
                   333 59009 81834 87280=
202011100600 AAXX 10064 67571 32980 70902 10263 20109 48474 70522 81038
                   333 10344 20191 59008 81360 87280=
202011091200 AAXX 09124 67571 42680 50904 10331 20041 48455 70522 81108
                   333 59002 81843 85280=
202011090900 AAXX 09094 67571 42680 70904 10322 20094 48475 70522 81108
                   333 59005 81830 87280=
202011090600 AAXX 09064 67571 32979 70902 10262 20121 48484 70522 80008
                   333 10357 20204 59005 87280=
202011060900 AAXX 06094 67571 42978 10302 10311 20079 48475 80001
                   333 59004 81080=
202011060600 AAXX 06064 67571 32978 10902 10268 20102 48474 80001
                   333 10326 20188 59001 81080=
202011051200 AAXX 05124 67571 NIL=
202011050900 AAXX 05094 67571 42980 71203 10297 20094 48475 70522 80008
                   333 59024 87280=
202011050600 AAXX 05064 67571 32980 71203 10256 20089 48474 70522 80008
                   333 10323 20167 59011 87280=

################################################################################
#  SYNOPS from 67575, Mkushi (Zambia) | 13-38-00S | 029-26-00E | 1237 m
################################################################################
202011130600 AAXX 13064 67575 11350 71203 10184 20173 48507 60514 76196 81770
                   333 10294 20174 58020 81708 87259
                   555 00177=
202011051200 AAXX 05124 67575 NIL=
202011050900 AAXX 05094 67575 NIL=

################################################################################
#  SYNOPS from 67580, Msekera (Zambia) | 13-39S | 032-34E | 1025 m
################################################################################
202012010600 AAXX 01064 67580 12980 70000 10254 20188 48/// 69904 8707/
                   333 10364 20209 5//// 87360=
202011300600 AAXX 30064 67580 12580 60805 10282 20179 48/// 69904 82180
                   333 10373 20237 5//// 82826 84360=
202011270900 AAXX 27094 67580 41680 71204 10318 20193 48/// 70522 8327/
                   333 5//// 82845 87360=
202011260600 AAXX 26064 67580 32980 70000 10303 20167 48/// 82088
                   333 10394 20244 5//// 82358 87280=
202011240600 AAXX 24064 67580 32980 00604 10295 20154 48///
                   333 10378 20252 59013=
202011230600 AAXX 23064 67580 32980 31205 10298 20161 48/// 80002
                   333 10358 20225 58002 83080=
202011200600 AAXX 20064 67580 31980 10902 10304 20171 48/// 69974 81030
                   333 10//0 20//0 59006 81360=
202011190900 AAXX 19094 67580 42780 30602 10343 20149 48/// 83100
                   333 59014 83850=
202011190600 AAXX 19064 67580 32980 00603 10299 20145 48///
                   333 10378 20211 59011=
202011180900 AAXX 18094 67580 42680 13602 10344 20135 48/// 81100
                   333 59005 81848=
202011131200 AAXX 13124 67580 41680 71204 10285 20171 48/// 71792 872//
                   333 5//// 91946 555 86850=
202011130900 AAXX 13094 67580 42780 71206 10264 20178 48/// 872//
                   333 5//// 87850=
202011130600 AAXX 13064 67580 11580 71206 10218 20170 48/// 69904 70362 8227/
                   333 10324 20198 5//// 82820 87460=
202011121200 AAXX 12124 67580 42780 71206 10300 20182 48/// 8197/
                   333 58018 81956 87360=
202011120900 AAXX 12094 67580 42780 70907 10280 20192 48/// 8327/
                   333 58018 83850 87360=
202011120600 AAXX 12064 67580 11975 70908 10230 20193 48/// 69904 76022 8707/
                   333 10360 20220 58018 87460=
202011111200 AAXX 11124 67580 42880 70000 10340 20155 48/// 86208
                   333 58003 86857 87280=
202011110600 AAXX 11064 67580 32980 71605 10289 20168 48/// 82038
                   333 10386 20222 58002 82360 87280=
202011101200 AAXX 10124 67580 42780 61505 10365 20133 48/// 86202
                   333 59021 86856 81080=
202011090900 AAXX 09094 67580 42780 40904 10342 20150 48/// 81132
                   333 5//// 81850 81361 82080=
202011060600 AAXX 06064 67580 32980 00904 10298 20121 48///
                   333 10374 20215 59001=
202011051200 AAXX 05124 67580 NIL=
202011050900 AAXX 05094 67580 NIL=

################################################################################
#  SYNOPS from 67581, Chipata (Zambia) | 13-33S | 032-35E | 1028 m
################################################################################
202012010600 AAXX 01064 67581 12580 72004 10242 20167 48/// 69904 70200 8117/
                   333 10//0 20208 5//// 81820 87460=
202011260600 AAXX 26064 67581 32980 41206 10294 20152 48/// 82032
                   333 10//0 20248 5//// 82360 82080=
202011240600 AAXX 24064 67581 32980 01204 10294 20125 48525
                   333 10//0 20258 59010=
202011230600 AAXX 23064 67581 32980 20407 10295 20148 48549 80001
                   333 10//0 20240 59001 81080 91019=
202011200600 AAXX 20064 67581 32980 00805 10302 20191 48///
                   333 10//0 20222 5////=
202011190600 AAXX 19064 67581 32980 01205 10301 20125 48530
                   333 10//0 20200 59012 91016=
202011120600 AAXX 12064 67581 11680 71204 10235 20195 48552 69904 78022 8117/
                   333 10//0 20228 58015 81838 87460=
202011110600 AAXX 11064 67581 32980 70806 10285 20139 48557 83032
                   333 10//0 20224 58003 83360 87080=
202011100600 AAXX 10064 67581 32980 20804 10288 20129 48546 80002
                   333 10//0 20240 59014 82080=
202011090900 AAXX 09094 67581 42780 30809 10332 20132 48558 81130
                   333 58007 81850 83360 91019=
202011060600 AAXX 06064 67581 32980 01204 10284 20096 48558
                   333 10//0 20244 59018=
202011051200 AAXX 05124 67581 NIL=
202011050900 AAXX 05094 67581 NIL=
202011050600 AAXX 05064 67581 32980 00712 10275 20110 48553
                   333 10//0 20224 58002 91020=

################################################################################
#  SYNOPS from 67583, Lundazi (Zambia) | 12-17S | 033-12E | 1143 m
################################################################################
202012010600 AAXX 01064 67583 12980 70901 10250 20188 48/// 69904 87030
                   333 10332 2//// 5////=
202011300600 AAXX 30064 67583 32980 13602 10278 20173 48/// 81080
                   333 10350 20//0 5//// 81080=
202011200600 AAXX 20064 67583 12980 20000 10278 20154 48/// 69904 70200 81031
                   333 10348 20//0 5//// 81360 81080=
202011190600 AAXX 19064 67583 32980 00305 10276 20150 48///
                   333 10350 20//0 5////=
202011160600 AAXX 16064 67583 12680 51701 10262 20167 48/// 69904 81108
                   333 10//0 20//0 5//// 81835 85280=
202011060600 AAXX 06064 67583 31960 00904 10286 20124 48/// 70500
                   333 10350 20//0 5////=
202011051200 AAXX 05124 67583 NIL=
202011050900 AAXX 05094 67583 NIL=
202011050600 AAXX 05064 67583 32950 61306 10268 20115 48/// 80008
                   333 10326 2//// 5//// 86280=

################################################################################
#  SYNOPS from 67599, Mfuwe (Zambia) | 13-16S | 031-56E | 568 m
################################################################################
202012010600 AAXX 01064 67599 12380 70000 10240 20224 48524 60064 82730
                   333 10400 20210 58010 82607 86358=
202011300600 AAXX 30064 67599 12980 53306 10310 20176 48543 69934 85030
                   333 10410 20240 59008 85360=
202011260600 AAXX 26064 67599 31975 62005 10315 20099 48534 70522 81038
                   333 10425 20219 58004 81359 86280=
202011250600 AAXX 25064 67599 32980 13606 10320 20149 48564 81030
                   333 10430 20215 59006 81360=
202011200600 AAXX 20064 67599 11975 01203 10317 20156 48521 69904 70500
                   333 10422 20236 58005=
202011131200 AAXX 13124 67599 42780 72404 10305 20186 48535 85230
                   333 58031 85850 84360 91015=
202011130900 AAXX 13094 67599 42680 72202 10295 20193 48563 872//
                   333 58023 87845=
202011130600 AAXX 13064 67599 12580 71603 10250 20197 48560 69904 8113/
                   333 10365 20220 58026 81820 87258
                   555 00210 91020=
202011110600 AAXX 11064 67599 32980 70809 10316 20113 48544 83031
                   333 10418 20228 59001 83360 84080=
202011100600 AAXX 10064 67599 31975 50704 10305 20118 48541 70521 80008
                   333 10416 20198 59010 85280=
202011091200 AAXX 09124 67599 42780 50912 10398 20175 48501 82101
                   333 59002 85857 81080 91011=
202011090900 AAXX 09094 67599 42780 23408 10370 20089 48559 81131
                   333 59001 81857 81360 81080 91015=
202011090600 AAXX 09064 67599 31975 20305 10305 20120 48550 70500 81031
                   333 10427 20192 59002 81360=
202011060900 AAXX 06094 67599 42980 00107 10380 20132 48550
                   333 59016 91014=
202011060600 AAXX 06064 67599 31960 00507 10310 20136 48548 70500
                   333 10414 20175 59008=
202011051200 AAXX 05124 67599 NIL=
202011050900 AAXX 05094 67599 NIL=
202011050600 AAXX 05064 67599 31975 13102 10289 20094 48548 70500 80001
                   333 10400 20180 59002 81080
                   555 00150 91017=

################################################################################
#  SYNOPS from 67625, Kalabo (Zambia) | 14-51S | 022-42E | 1033 m
################################################################################
202011300600 AAXX 30064 67625 12482 73506 10216 20214 48/// 60054 8562/
                   333 10295 20195 59010 85710 87460=
202011271200 AAXX 27124 67625 42682 83115 10300 20190 48/// 82303
                   333 58036 82940 82844 88075=
202011270900 AAXX 27094 67625 42682 80519 10270 20180 48/// 81103
                   333 58016 81835 88075=
202011260600 AAXX 26064 67625 32982 73509 10219 20190 48/// 8703/
                   333 10330 20190 59015 87360=
202011240600 AAXX 24064 67625 12982 71811 10200 20192 48/// 60354 86073
                   333 10310 20190 58000 86360=
202011200600 AAXX 20064 67625 12982 72102 10212 20194 48/// 60044 81033
                   333 10325 20200 58009 81360 87075=
202011190600 AAXX 19064 67625 12982 70305 10226 20195 48/// 69914 86073
                   333 10305 20200 59008 85460 87075=
202011130600 AAXX 13064 67625 11982 81508 10205 20198 48/// 60014 72042 8802/
                   333 10226 20195 59011 88460=
202011120600 AAXX 12064 67625 11982 80904 10190 20190 48/// 60534 76166 8802/
                   333 10341 20184 58042 88460=
202011110600 AAXX 11064 67625 32982 71027 10260 20147 48/// 83033
                   333 10376 20220 58000 83360 87075=
202011100600 AAXX 10064 67625 32982 11909 10275 20140 48/// 81030
                   333 10381 20194 59014 81360=
202011090600 AAXX 09064 67625 32982 70508 10235 20165 48/// 81033
                   333 10365 20206 58008 81360 87075=
202011051200 AAXX 05124 67625 NIL=
202011050900 AAXX 05094 67625 NIL=
202011050600 AAXX 05064 67625 12982 71703 10205 20188 48/// 60054 8707/
                   333 10327 20185 59023 87360=

################################################################################
#  SYNOPS from 67633, Mongu (Zambia) | 15-15S | 023-09E | 1052 m
################################################################################
202011300600 AAXX 30064 67633 32980 70803 10225 20202 48522 70222 8707/
                   333 10305 20206 59001 87460=
202011270900 AAXX 27094 67633 42580 60603 10276 20197 48529 70322 83208
                   333 83830 86280 91018=
202011260600 AAXX 26064 67633 32980 63605 10220 20192 48514 70222 86030
                   333 10326 20193 59002 86360=
202011160600 AAXX 16064 67633 12980 63502 10227 20204 48508 60104 84032
                   333 10315 20197 5//// 84360 82080=
202011130900 AAXX 13094 67633 42680 70902 10255 20191 48550 70322 85230
                   333 59009 85830 85360=
202011100600 AAXX 10064 67633 32980 02001 10279 20144 48512 70200
                   333 10383 20212 59019=
202011091200 AAXX 09124 67633 42780 31805 10365 20173 48501 82102
                   333 5//// 82845 81080 91018=
202011090600 AAXX 09064 67633 32980 62702 10265 20155 48527 80002
                   333 10379 20215 59002 86080=
202011060600 AAXX 06064 67633 32980 53602 10267 20175 48520 70222 85030
                   333 10348 20217 59004 85360=
202011051200 AAXX 05124 67633 NIL=
202011050900 AAXX 05094 67633 NIL=
202011050600 AAXX 05064 67633 32980 70802 10216 20180 48516 8707/
                   333 10319 20195 59031 87460
                   555 00181 91017=

################################################################################
#  SYNOPS from 67641, Kaoma (Zambia) | 14-48S | 024-48E | 1213 m
################################################################################
202012010600 AAXX 01064 67641 12680 70000 10237 20209 48504 69934 70222 81530
                   333 10308 20212 59010 81630 87360=
202011300600 AAXX 30064 67641 12980 70602 10210 20196 48507 69944 87030
                   333 10313 20195 59007 87360=
202011270900 AAXX 27094 67641 42680 73503 10294 20190 48527 81102
                   333 58013 81840 87080 91017=
202011240600 AAXX 24064 67641 12680 81202 10202 20187 48527 60414 86530
                   333 10358 20183 58019 86630 87360=
202011230600 AAXX 23064 67641 12980 30802 10221 20192 48511 60064 81031
                   333 10296 20183 58000 81360 82080 91017=
202011200900 AAXX 20094 67641 42680 71402 10258 20199 48501 82130
                   333 58005 82834 86361 91015=
202011200600 AAXX 20064 67641 11980 72602 10210 20189 48499 69904 72162 8707/
                   333 10303 20197 58001 87360=
202011190600 AAXX 19064 67641 32580 70403 10235 20200 48502 81170
                   333 10316 20210 58008 81830 87360 91016=
202011160600 AAXX 16064 67641 12980 40802 10211 20193 48495 60034 83031
                   333 10290 20180 59024 83360 81080=
202011130900 AAXX 13094 67641 42680 71203 10236 20191 48542 8227/
                   333 58000 82834 87361 91020=
202011120600 AAXX 12064 67641 11980 81002 10190 20182 48527 60174 76062 8707/
                   333 10356 20190 58027 87460=
202011110600 AAXX 11064 67641 11980 82802 10212 20180 48508 69934 76096 8707/
                   333 10384 20206 58018 87461=
202011100600 AAXX 10064 67641 31975 60901 10243 20134 48491 70510 86030
                   333 10382 20179 59029 86360=
202011090900 AAXX 09094 67641 42980 32206 10333 20136 48526 80002
                   333 5//// 83080 91017=
202011090600 AAXX 09064 67641 12980 62404 10258 20147 48525 69904 70222 80002
                   333 10372 20193 59001 86080=
202011060600 AAXX 06064 67641 31970 70000 10252 20196 48504 70522 87030
                   333 10345 20212 59013 87361=
202011051200 AAXX 05124 67641 NIL=
202011050900 AAXX 05094 67641 42680 12702 10288 20175 48522 82130
                   333 59005 81840 81362 91017=
202011050600 AAXX 05064 67641 12680 60000 10234 20200 48517 60014 81131
                   333 10325 20182 59007 81834 83362 83080 91017=

################################################################################
#  SYNOPS from 67655, Mumbwa (Zambia) | 15-04S | 027-11E | 1216 m
################################################################################
202011260600 AAXX 26064 67655 11659 83409 10196 20176 48543 60024 79596 8237/
                   333 10330 20170 58012 82940 83840 88359=
202011240600 AAXX 24064 67655 12/80 72705 10246 20184 48512 69924 81936
                   333 10340 20203 59013 819// 82358 87280=
202011051200 AAXX 05124 67655 NIL=
202011050900 AAXX 05094 67655 NIL=

################################################################################
#  SYNOPS from 67659, Kafue Polder (Zambia) | 15-46S | 027-55E | 978 m
################################################################################
202011240600 AAXX 24064 67659 12980 22705 10260 20204 48/// 60154 70222 82030
                   333 10365 20206 5//// 82360=
202011051200 AAXX 05124 67659 NIL=
202011050900 AAXX 05094 67659 NIL=

################################################################################
#  SYNOPS from 67662, Kabwe Agric (Zambia) | 14-24S | 028-30E | 1165 m
################################################################################
202012010600 AAXX 01064 67662 31980 50000 10240 20195 48/// 70222 82072
                   333 10290 20160 5//// 82360 84080=
202011300600 AAXX 30064 67662 31480 70000 10210 20203 48/// 70222 87500
                   333 10320 20140 5//// 87612=
202011241200 AAXX 24124 67662 41680 50000 10325 20182 48/// 84202
                   333 5//// 84847=
202011240900 AAXX 24094 67662 41680 33604 10304 20181 48/// 81202
                   333 5//// 81847 82080=
202011240600 AAXX 24064 67662 31980 20000 10268 20184 48/// 70200 80002
                   333 10327 20180 5//// 82080=
202011230600 AAXX 23064 67662 11980 30000 10256 20217 48/// 60434 70200 82072
                   333 10317 20146 5//// 82360 81080=
202011200600 AAXX 20064 67662 11980 20000 10250 20191 48/// 60044 72999 81232
                   333 10300 20123 5//// 81820 84360 81080=
202011190900 AAXX 19094 67662 41680 50000 10290 20186 48/// 83270
                   333 5//// 83840 82360=
202011190600 AAXX 19064 67662 11980 30000 10250 20174 48/// 69964 83070
                   333 10323 20150 5//// 83360=
202011180900 AAXX 18094 67662 41680 60000 10295 20175 48/// 86200
                   333 5//// 86842=
202011160600 AAXX 16064 67662 31980 20000 10233 20184 48/// 70200 80002
                   333 10310 20136 5//// 82080=
202011130900 AAXX 13094 67662 41580 60903 10245 20185 48/// 70322 83170
                   333 5//// 81930 83360=
202011130600 AAXX 13064 67662 11480 80902 10200 20185 48/// 60284 70222 885//
                   333 10305 20140 5//// 88610=
202011111200 AAXX 11124 67662 41775 50000 10332 20125 48/// 70522 85200
                   333 5//// 85856=
202011110600 AAXX 11064 67662 31975 20904 10260 20157 48/// 70500 80001
                   333 10375 20163 5//// 82080=
202011101200 AAXX 10124 67662 41775 50602 10356 20062 70522 85200
                   333 5//// 86856=
202011100900 AAXX 10094 67662 41975 10902 10337 20104 48/// 70500 80001
                   333 5//// 81080=
202011100600 AAXX 10064 67662 31975 10000 10285 20101 48/// 70500 80001
                   333 10375 20150 5////=
202011091200 AAXX 09124 67662 41675 51204 10365 20071 48/// 70522 82208
                   333 5//// 82847 83080=
202011090900 AAXX 09094 67662 41975 40904 10340 20102 48/// 70522 80002
                   333 5//// 84080=
202011090600 AAXX 09064 67662 31975 40904 10270 20144 48/// 70522 80002
                   333 10380 20130 5//// 84080=
202011060900 AAXX 06094 67662 41975 10901 10332 20095 48/// 70500 80001
                   333 5//// 81080=
202011060600 AAXX 06064 67662 31975 10901 10265 20105 48/// 70500 80001
                   333 10347 20130 5//// 81080=
202011051200 AAXX 05124 67662 NIL=
202011050900 AAXX 05094 67662 41975 40602 10312 20109 48/// 70522 83032
                   333 5//// 83360 81080=
202011050600 AAXX 05064 67662 31975 40902 10265 20156 48/// 70522 83032
                   333 10310 20136 5//// 83360 81080=

################################################################################
#  SYNOPS from 67663, Kabwe (Zambia) | 14-27S | 028-28E | 1206 m
################################################################################
202012010600 AAXX 01064 67663 32980 70504 10242 20186 48504 85032
                   333 10307 20198 59013 85360 83080=
202011260600 AAXX 26064 67663 12980 61811 10230 20179 48517 69904 86032
                   333 10350 20193 59002 86360 83080=
202011240900 AAXX 24094 67663 42580 42709 10321 20184 48517 82132
                   333 59001 82825 81360 83080=
202011240600 AAXX 24064 67663 32980 42808 10264 20194 48519 81082
                   333 10346 20215 59003 81360 84080=
202011200900 AAXX 20094 67663 42580 40908 10278 20193 48504 81130
                   333 58007 81828 83360=
202011191200 AAXX 19124 67663 41675 53505 10326 20186 48480 70522 84202
                   333 59001 81935 83835 82080=
202011190900 AAXX 19094 67663 41675 53003 10300 20193 48497 70522 84232
                   333 59016 84830 81360 81080=
202011190600 AAXX 19064 67663 11575 62604 10235 20183 48499 60034 70522 82232
                   333 10333 20184 59006 82824 84360 81080
                   555 00282=
202011130600 AAXX 13064 67663 11475 80714 10200 20186 48545 60234 70522 8457/
                   333 10//0 20174 58019 84617 87460=
202011120900 AAXX 12094 67663 41575 60808 10216 20193 48525 72996 86530
                   333 58009 81925 86625=
202011120600 AAXX 12064 67663 11680 83605 10195 20195 48542 78082 81970
                   333 10389 20195 58023 81940 82840 87460=
202011110600 AAXX 11064 67663 31975 11312 10262 20161 48523 70500 81030
                   333 10367 20196 58000 81360=
202011100900 AAXX 10094 67663 41675 10610 10334 20116 48514 70500 81100
                   333 59014 81830=
202011100600 AAXX 10064 67663 31975 00711 10281 20116 48525 70500
                   333 10366 20213 59013=
202011090900 AAXX 09094 67663 41975 50612 10323 20142 48537 70522 80008
                   333 59006 85280=
202011090600 AAXX 09064 67663 31975 50610 10276 20161 48537 70522 80008
                   333 10378 20216 58011 85280=
202011060900 AAXX 06094 67663 41975 10705 10329 20106 48508 70500 80002
                   333 58008 82080=
202011060600 AAXX 06064 67663 31975 10906 10271 20101 48517 70500 80002
                   333 10350 20181 59004 81080=
202011051200 AAXX 05124 67663 NIL=
202011050900 AAXX 05094 67663 NIL=

################################################################################
#  SYNOPS from 67665, Lusaka Internationalairport (Zambia) | 15-19S | 028-27E | 1152 m
################################################################################
202012010600 AAXX 01064 67665 12980 62002 10209 20188 48525 69994 70222 82572
                   333 10//0 20//0 5//// 82629 85359 84080=
202011301800 AAXX 30184 67665 42/80 61603 10248 20181 49514 81962
                   333 10300 20//0 58008 819// 83358 85080=
202011301500 AAXX 30154 67665 42680 60805 10287 20155 48496 81902
                   333 58007 81940 81845 85080=
202011301200 AAXX 30124 67665 42680 63303 10295 20157 48517 70222 85202
                   333 58004 85830 84080=
202011300000 AAXX 30004 67665 41/80 62309 10209 20170 48516 71792 83530
                   333 59008 819// 81359 86359 91018=
202011292100 AAXX 29214 67665 41/80 72511 10224 20163 48518 75002 81930
                   333 59013 819// 87359 91018=
202011291800 AAXX 29184 67665 42980 21204 10255 20168 48507 70200 81031
                   333 59018 81360 82080 91016=
202011291500 AAXX 29154 67665 42680 20908 10309 20136 48491 70200 81231
                   333 59021 81845 81359 82080 91014=
202011290900 AAXX 29094 67665 42480 50908 10279 20165 48538 83107
                   333 59020 82815 85280=
202011290600 AAXX 29064 67665 12980 21010 10248 20181 48542 69904 80002
                   333 10//0 20//0 59017 82080=
202011290300 AAXX 29034 67665 42980 31501 20166 48523 70300 82031
                   333 59014 82360 81080=
202011290000 AAXX 29004 67665 42/80 21901 10202 20171 48524 82030
                   333 59008 819// 82360=
202011282100 AAXX 28214 67665 41780 21402 10215 20190 48529 71300 82030
                   333 59010 81957 82360=
202011281500 AAXX 28154 67665 42780 30808 10276 20169 48510 70122 83400
                   333 59007 83650 555 91016=
202011281200 AAXX 28124 67665 42680 60609 10265 20183 48529 70122 85230
                   333 58019 85825 82360 91019=
202011280900 AAXX 28094 67665 42680 70811 10230 20185 48551 70222 8657/
                   333 58019 86625 86359 91022=
202011280600 AAXX 28064 67665 11459 81005 10179 20171 48549 60044 76166 8447/
                   333 10308 20//0 58020 84612 88459
                   555 00/// 91022=
202011280300 AAXX 28034 67665 41/60 70918 10209 20179 48538 71322 8193/
                   333 58029 819// 87360 91020=
202011280000 AAXX 28004 67665 42780 71108 10211 20184 48523 70222 81930
                   333 58024 81956 86360 91019=
202011272100 AAXX 27214 67665 42780 60903 10211 20189 48538 70222 81930
                   333 58027 81956 85360 91020=
202011271800 AAXX 27184 67665 42760 61404 10232 20178 48526 70122 81930
                   333 10308 58015 81950 86360=
202011271500 AAXX 27154 67665 41660 80410 10240 20171 48511 71792 8197/
                   333 58028 81945 84848 87459
                   555 10308=
202011271200 AAXX 27124 67665 42680 61006 10305 20151 48516 70122 84202
                   333 59010 81940 84845 86280=
202011270900 AAXX 27094 67665 42680 70510 10280 20177 48541 70321 83208
                   333 58001 83835 87280 91020=
202011261800 AAXX 26184 67665 42780 41403 10248 20175 48514 70200 81332
                   333 10305 58011 81956 83360 84280 91017=
202011261200 AAXX 26124 67665 42680 71907 10268 20178 48521 70222 83132
                   333 58019 83830 83360 85080 91011=
202011260900 AAXX 26094 67665 42980 71207 10247 20188 48535 70362 83038
                   333 58003 83360 87280 91019=
202011260600 AAXX 26064 67665 11959 81804 10214 20185 48532 60014 76196 8802/
                   333 10//0 20//0 58003 88459=
202011260300 AAXX 26034 67665 41/80 71605 10214 20184 48526 70299 8196/
                   333 59021 819// 87358=
202011260000 AAXX 26004 67665 41/80 63006 10224 20187 49502 71700 8193/
                   333 59021 819// 86358=
202011252100 AAXX 25214 67665 42980 02206 10242 20182 48513
                   333 59020=
202011251500 AAXX 25154 67665 42780 51807 10309 20155 48495 70200 82201
                   333 59002 83843 83080 91014=
202011250900 AAXX 25094 67665 42580 42603 10303 20148 48537 70300 83101
                   333 58011 83825 82080 91019=
202011250600 AAXX 25064 67665 12980 12605 10246 20178 48534 60174 70112 80001
                   333 10//0 20//0 58007 81080 91019=
202011250300 AAXX 25034 67665 42680 62906 10217 20181 48507 70222 8607/
                   333 58000 86359 91017=
202011241800 AAXX 24184 67665 41/59 82305 10211 20187 48514 79599 8196/
                   333 10350 20//0 58013 819// 86359=
202011241500 AAXX 24154 67665 42680 62115 10296 20157 48496 81963
                   333 58004 81945 83845 83358 85080=
202011241200 AAXX 24124 67665 42680 40306 10341 20116 48501 81301
                   333 59014 81935 84840 81080=
202011240900 AAXX 24094 67665 42980 40307 10322 20121 48529 84200
                   333 59008 84840 91018=
202011240600 AAXX 24064 67665 32980 29901 10272 20145 48531 70201 81032
                   333 10346 20/// 59012 81360 81080
                   555 00/// 91019=
202011230900 AAXX 23094 67665 42580 30708 10306 20152 48534 83201
                   333 59011 83825 81080=
202011230600 AAXX 23064 67665 32980 60903 10266 20175 48/// 86030
                   333 10330 20/// 5//// 86358=
202011230300 AAXX 23034 67665 42980 61702 10214 20166 48520 70322 83032
                   333 58004 83360 83080=
202011230000 AAXX 23004 67665 42980 52003 10241 20164 48516 70222 85030
                   333 59002 85360=
202011222100 AAXX 22214 67665 42970 12502 10234 20173 48524 70200 80001
                   333 58001 81080=
202011221500 AAXX 22154 67665 42680 71507 10271 20154 48510 70222 85232
                   333 58010 81945 85850 86360 83080
                   555 10330 91016=
202011221200 AAXX 22124 67665 42680 60603 10312 20116 48519 70301 85202
                   333 58002 81930 85235 82080 91017=
202011220600 AAXX 22064 67665 32980 30907 10253 20170 48542 70200 80002
                   333 10304 20//0 59001 83080 91020=
202011220000 AAXX 22004 67665 42980 01403 10223 20168 48515 70200
                   333 58000=
202011211500 AAXX 21154 67665 42680 30608 10301 20124 48502 83232
                   333 58018 83848 81080
                   555 10304=
202011211200 AAXX 21124 67665 42680 30510 10296 20138 48515 70300 83130
                   333 58012 83835 81360=
202011210600 AAXX 21064 67665 31980 70201 10242 20174 48562 70200 87030
                   333 10309 20//0 58018 87360 91020=
202011201500 AAXX 20154 67665 41680 61206 10258 20166 48480 71799 81932
                   333 59004 81940 84845 83360 82080 91013=
202011201200 AAXX 20124 67665 42680 50805 10300 20154 48503 70200 82132
                   333 59013 82830 83360 81080=
202011200900 AAXX 20094 67665 42580 51306 10260 20168 48529 70300 81132
                   333 58015 81820 84360 81080=
202011200600 AAXX 20064 67665 11/80 89902 10202 20178 48523 69924 76196 8197/
                   333 10//0 20//0 58013 819// 83358 84460=
202011200300 AAXX 20034 67665 41/59 61304 10206 20191 48506 79700 81920
                   333 58008 819// 85458=
202011200000 AAXX 20004 67665 42980 03504 10209 20187 48494
                   333 58002=
202011192100 AAXX 19214 67665 42980 03206 10221 20174 49503
                   333 59005=
202011191200 AAXX 19124 67665 42680 70906 10278 20154 48488 81901
                   333 59003 81923 85830=
202011190900 AAXX 19094 67665 42580 42504 10306 20140 48511 70300 84201
                   333 59010 84820 82080 91016=
202011190600 AAXX 19064 67665 31980 02707 10261 20160 48517 69994 70200
                   333 10/// 20/// 59003 91017=
202011190300 AAXX 19034 67665 42980 12403 10211 20147 48499 70200 81030
                   333 58013 81360 91016=
202011181800 AAXX 18184 67665 42/80 63205 10263 20173 48498 70262 81962
                   333 10//0 20//0 58003 819// 84359 83080=
202011181500 AAXX 18154 67665 41659 71902 10265 20165 48483 76099 81923
                   333 58008 81945 85458 85080=
202011181200 AAXX 18124 67665 41680 72315 10270 20162 48500 71322 81963
                   333 58012 81935 83838 83358 85080=
202011180900 AAXX 18094 67665 42580 43104 10303 20146 48520 84100
                   333 58003 84828=
202011180000 AAXX 18004 67665 42980 00000 10223 20171 48491 70200
                   333 59008 91015=
202011172100 AAXX 17214 67665 42980 22605 10242 20156 48504 70102 82030
                   333 59006 82360 91016=
202011170900 AAXX 17094 67665 20506 10296 20117 48519 82201
                   333 59012 82820 81080=
202011170600 AAXX 17064 67665 32980 10000 10260 20108 49521 80001
                   333 10342 20//0 59008 81080=
202011170300 AAXX 17034 67665 42980 12402 10185 20134 48495 70300 80001
                   333 59010 81080=
202011170000 AAXX 17004 67665 42980 01603 10203 20110 48496 70200
                   333 59008=
202011162100 AAXX 16214 67665 42980 01501 10236 20108 48509 70200
                   333 59011 91017=
202011161500 AAXX 16154 67665 42780 60706 10315 20072 48483 70222 86202
                   333 59011 86850 82080
                   555 10342 91013=
202011161200 AAXX 16124 67665 42680 59906 10317 20059 48502 70300 85102
                   333 59011 85835 82080 91015=
202011160600 AAXX 16064 67665 32980 31504 10244 20156 48527 70200 80002
                   333 10315 20/// 59009 83280 91019=
202011160300 AAXX 16034 67665 42980 20000 10203 20172 48506 70200 80002
                   333 58014 82280 91017=
202011160000 AAXX 16004 67665 42980 22602 10213 20174 48504 70200 80002
                   333 58009 82280 91017=
202011152100 AAXX 15214 67665 42780 43303 10237 20168 48520 70222 81302
                   333 58003 81956 84280 91018=
202011151800 AAXX 15184 67665 42780 62707 10251 20167 48504 70222 81332
                   333 10315 59006 81950 81360 86280=
202011150600 AAXX 15064 67665 31980 20905 10239 20124 48535 70200 81031
                   333 59009 81360 81080=
202011141500 AAXX 14154 67665 42680 51607 10256 20154 48490 70320 85200
                   333 59027 85850 91015=
202011141200 AAXX 14124 67665 42680 40205 10294 20146 48514 70200 84100
                   333 59030 84830 91017=
202011140900 AAXX 14094 67665 42780 20405 10261 20151 48536 70300 82100
                   333 59029 82850=
202011140600 AAXX 14064 67665 32980 10912 10226 20147 48542 80001
                   333 10270 20//0 59025 81080
                   555 10/// 20044=
202011140300 AAXX 14034 67665 42980 11404 10182 48526 81031
                   333 59021 81360 81080=
202011140000 AAXX 14004 67665 42980 01504 10199 20151 48525
                   333 59019=
202011132100 AAXX 13214 67665 42980 01303 10207 20159 48538
                   333 59019=
202011131200 AAXX 13124 67665 42580 70609 10265 20155 48541 70200 84232
                   333 58015 84830 83360 82080=
202011130900 AAXX 13094 67665 42580 70915 10241 20164 48562 70222 85532
                   333 58013 85622=
202011130600 AAXX 13064 67665 12480 70913 10206 20167 48564 60444 70222 82572
                   333 10254 20/// 58016 82615 86359 84080=
202011130300 AAXX 13034 67665 42980 41103 10188 20188 48547 70222 84030
                   333 55808 83360 91022=
202011122100 AAXX 12214 67665 41658 62004 10183 20183 48553 79599 8197/
                   333 58041 819// 85358 91023=
202011121800 AAXX 12184 67665 12184 41659 10180 20180 48537 79792 8196/ 82906
                   333 10254 20//0 58051 829// 85358=
202011121500 AAXX 12154 67665 42680 81902 10248 20163 48527 81963
                   333 58038 81940 84360 87080=
202011121200 AAXX 12124 67665 42980 71207 10240 20180 48523 70296 81933
                   333 58022 81935 81840 83358 87080=
202011120900 AAXX 12094 67665 41575 70805 10218 20189 48547 79596 81930
                   333 58024 81932 82622 84360=
202011120600 AAXX 12064 67665 31475 71308 10219 20174 48549 70522 83528
                   333 10283 20//0 58014 83615 84361=
202011111500 AAXX 11154 67665 42680 31407 10314 20112 48494 70200 82230
                   333 59004 82848 82358 91014=
202011110900 AAXX 11094 67665 41575 10818 10302 20125 48533 70500 81102
                   333 58005 81822 81080=
202011110600 AAXX 11064 67665 11970 10000 10263 20135 48541 69904 70500 81360
                   333 10350 20//0 58007 81360=
202011110300 AAXX 11034 67665 42980 11108 10221 20131 48517 81030
                   333 58008 81360=
202011110000 AAXX 11004 67665 42/80 31207 10240 20154 48509 70100 83030
                   333 58012 819// 83360=
202011102100 AAXX 10214 67665 42760 51503 10239 20152 48513 70222 85032
                   333 58002 81956 85360=
202011101200 AAXX 10124 67665 42680 63507 10353 20073 48506 70300 86200
                   333 59009 91015=
202011100900 AAXX 10094 67665 42980 00709 10335 20094 48533
                   333 59008 91018=
202011100600 AAXX 10064 67665 31960 00508 10280 20920 48537 70500
                   333 10365 20//0 59010
                   555 00/// 91019=
202011100300 AAXX 10034 67665 41975 11702 10212 20075 48508 70500 80002
                   333 59016 82080 91017=
202011100000 AAXX 10004 67665 42/80 31207 10240 20154 48509 70100 83030
                   333 58012 819// 83360=
202011091800 AAXX 09184 67665 41975 21304 10286 20031 48514 70500 80002
                   333 10365 59003 82080=
202011091500 AAXX 09154 67665 41975 41111 10354 20021 48504 70500 81032
                   333 59006 81360 83080
                   555 10365=
202011091200 AAXX 09124 67665 41775 50908 10355 20025 48515 70522 81108
                   333 59008 81856 85280=
202011090900 AAXX 09094 67665 41975 70808 10338 20038 48542 70522 80008
                   333 59008 87280 91019=
202011090600 AAXX 09064 67665 31975 60603 10281 20057 48547 70500 80002
                   333 59001 86080=
202011080900 AAXX 08094 67665 41975 10708 10337 20020 48549 70500 80001
                   333 58012 81080=
202011080600 AAXX 08064 67665 32980 01106 10287 20064 48549
                   333 10360 20//0 58014=
202011080300 AAXX 08034 67665 42980 01502 10192 20071 48514
                   333 58005=
202011080000 AAXX 08004 67665 42980 01502 10202 20095 48505
                   333 58004=
202011072100 AAXX 07214 67665 42980 01202 10230 20090 48517
                   333 58002=
202011070600 AAXX 07064 67665 32980 00707 10283 20097 48534 70200
                   333 10/// 20/// 58001 91019=
202011061500 AAXX 06154 67665 42680 20805 10348 20063 48497 82100
                   333 59008 82847=
202011061200 AAXX 06124 67665 42680 10910 10343 20051 58511 81101
                   333 59009 81840 81080=
202011060900 AAXX 06094 67665 41960 20507 10320 20071 48530 70500 80001
                   333 58008 82080=
202011060600 AAXX 06064 67665 31975 11006 10280 20080 48534 70500 80001
                   333 10352 20/// 59010 81080
                   555 00/// 91019=
202011051800 AAXX 05184 67665 42980 01704 10277 20109 48512 70200 80001
                   333 59008 81080 91017=
202011051200 AAXX 05124 67665 NIL=
202011050900 AAXX 05094 67665 42580 20409 10296 20127 48539 81101
                   333 59027 81820 82080=
202011050600 AAXX 05064 67665 12980 10606 10248 20154 48539 69904 80001
                   333 10284 20//0 59025 81080 91020=
202011050300 AAXX 05034 67665 42960 21202 10196 20165 48510 70200 82030
                   333 59029 82360=
202011050000 AAXX 05004 67665 42960 61902 10209 20178 48510 70222 86030
                   333 59014 86360=
202011042100 AAXX 04214 67665 42960 41204 10218 20180 48521 70200 84030
                   333 59017 84360=
202011041800 AAXX 04184 67665 41975 31804 10228 20167 48514 70521 81032
                   333 58001 81360 82080 91017=
202011041500 AAXX 04154 67665 41775 50403 10277 20142 48512 70522 81132
                   333 58016 81850 83360 81080
                   555 10284 91016=
202011041200 AAXX 04124 67665 41675 80607 10260 20141 48526 70562 8557/
                   333 58008 85635 88459 91018=
202011040900 AAXX 04094 67665 42560 81204 10230 20177 48557 70226 8457/
                   333 58017 84620 88459 91022=
202011040600 AAXX 04064 67665 31359 82005 10180 20180 48515 76099 8577/
                   333 10334 20//0 58011 85709 88459
                   555 91023=
202011040300 AAXX 04034 67665 41359 72710 10193 20176 48537 72586 8467/
                   333 58019 84707 819// 86459 91021=
202011031500 AAXX 03154 67665 42780 30405 10324 20097 48499 70200 81932
                   333 59006 81950 82360 81080
                   555 10334=
202011031200 AAXX 03124 67665 42680 63506 10321 20081 48525 70122 84231
                   333 59002 84845 82360 81080=
202011021800 AAXX 02184 67665 41780 21207 10272 20126 48516 71300 81901
                   333 59003 81956 81080 91017=
202011021200 AAXX 02124 67665 41660 40608 10309 20106 48525 70500 84201
                   333 58003 84840 81080 91018=
202011020900 AAXX 02094 67665 42680 20610 10285 20116 48547 70300 82100
                   333 58000 82835=
202011020600 AAXX 02064 67665 32480 10814 10245 20132 48545 81100
                   333 10307 20//0 59011 81812=
202011020000 AAXX 02004 67665 41960 01404 10196 20119 48514 70500
                   333 59006=
202011012100 AAXX 01214 67665 41960 01105 10212 20118 48524 70500
                   333 59008=
202011010900 AAXX 01094 67665 41559 40811 10276 20110 48546 70200 84100
                   333 58002 84825 91020=
202011010600 AAXX 01064 67665 32980 00809 10230 20122 48553 70200
                   333 10/// 20/// 58012 91022=

################################################################################
#  SYNOPS from 67666, Lusaka City Airport (Zambia) | 15-25-00S | 028-28-00E | 1280 m
################################################################################
202012010600 AAXX 01064 67666 12480 71602 10205 20182 48517 60454 70222 82572
                   333 10288 20170 58016 82610 85359 84080=
202011260600 AAXX 26064 67666 11880 80000 10//0 20186 48520 60054 78062 8807/
                   333 10320 20198 58007 88360=
202011241200 AAXX 24124 67666 42780 40909 10330 20150 48493 84201
                   333 59012 84857 81080 91014=
202011240900 AAXX 24094 67666 42780 20907 10310 20146 48520 82101
                   333 59006 82850 81080 91017=
202011240600 AAXX 24064 67666 32980 20901 10280 20165 48522 80001
                   333 10330 20230 59013 82080=
202011230600 AAXX 23064 67666 32980 52602 10260 20168 48532 85072
                   333 10310 20210 5//// 85360 83080 91019=
202011180900 AAXX 18094 67666 42480 51011 10300 20163 48514 85300
                   333 5//// 85815 91017=
202011160600 AAXX 16064 67666 32980 20907 10255 20138 48522 81031
                   333 10321 20195 81360
                   555 59005 81360 81080=
202011131200 AAXX 13124 67666 42480 71209 10260 20152 48531 70222 81970
                   333 58010 81915 82828 81360 91019=
202011130900 AAXX 13094 67666 42480 70914 10238 20163 48553 70222 8187/
                   333 58016 81615 83820 81360=
202011130600 AAXX 13064 67666 12480 71114 10200 20154 48553 60144 70300 81570
                   333 10270 20180 58011 81612 86360=
202011120600 AAXX 12064 67666 32480 71708 10205 20173 48542 875//
                   333 10351 20197 58008 87610=
202011110600 AAXX 11064 67666 12980 10912 10240 20145 48532 69904 80001
                   333 10350 20230 58005 81080=
202011101200 AAXX 10124 67666 42980 41213 10348 20081 48500 84030
                   333 59002 84360 91015=
202011100900 AAXX 10094 67666 42980 00912 10320 20105 48523
                   333 59017 91018=
202011100600 AAXX 10064 67666 32980 01110 10272 20099 48528 70200
                   333 10360 20220 59008=
202011060900 AAXX 06094 67666 42980 20910 10319 20105 48524 80002
                   333 59009 82080 91018=
202011060600 AAXX 06064 67666 32980 01012 10282 20090 48524
                   333 10330 20231 59009=
202011051200 AAXX 05124 67666 NIL=
202011050900 AAXX 05094 67666 NIL=
202011050600 AAXX 05064 67666 12980 11007 10248 20160 48529 60044 70500 81030
                   333 10262 20190 59026 81359 91019=

################################################################################
#  SYNOPS from 67667, Mount Makulu (Zambia) | 15-33S | 028-15E | 1213 m
################################################################################
202012010600 AAXX 01064 67667 12580 70000 10222 20192 48573 60084 87500
                   333 10332 20172 58016 87625=
202011300600 AAXX 30064 67667 32580 72704 10206 20182 48589 87500
                   333 10340 20182 58002 87625=
202011240600 AAXX 24064 67667 32980 21802 10268 20199 49//0 80002
                   333 10354 20190 5//// 82080=
202011131200 AAXX 13124 67667 42680 70805 10265 20174 48595 87202
                   333 58006 87230 86080=
202011121200 AAXX 12124 67667 41660 80901 10210 20196 48576 79522 86208
                   333 58030 81950 86835 87282=
202011120600 AAXX 12064 67667 31960 71205 10216 20177 48592 70522 85508
                   333 10354 20193 58006 85625 87282=
202011110600 AAXX 11064 67667 31960 31207 10260 20172 48588 70500 80002
                   333 10375 20206 5//// 83080=
202011100600 AAXX 10064 67667 31960 00912 10286 20125 48/// 70500
                   333 10387 20225 5////=
202011060600 AAXX 06064 67667 11960 11901 10298 20132 48/// 70500 80001
                   333 10360 20198 5//// 81080=
202011051200 AAXX 05124 67667 NIL=
202011050900 AAXX 05094 67667 NIL=
202011050600 AAXX 05064 67667 11960 11302 10270 20186 48/// 60054 70500 80001
                   333 10282 20182 5//// 81080=

################################################################################
#  SYNOPS from 67673, Petauke (Zambia) | 14-15S | 031-17E | 1035 m
################################################################################
202012010600 AAXX 01064 67673 31960 71601 10230 20195 48/// 70522 8707/
                   333 10351 20//0 87360=
202011300600 AAXX 30064 67673 31660 20000 10278 20178 48/// 70522 82131
                   333 10330 20//0 5//// 82829 82360=
202011270900 AAXX 27094 67673 41660 61802 10316 20168 48/// 70522 85201
                   333 5//// 85837 81080=
202011260600 AAXX 26064 67673 31965 81802 10306 20181 70522 80007
                   333 10372 20//0 5//// 88280=
202011250600 AAXX 25064 67673 31980 22901 10302 20142 48/// 70509 82030
                   333 10386 20//0 82360=
202011241200 AAXX 24124 67673 41660 41801 10372 20152 70500
                   333 5//// 82844 82360 81080=
202011240900 AAXX 24094 67673 41660 20902 10338 20142 48/// 70500 81130
                   333 5//// 81840 81360=
202011240600 AAXX 24064 67673 31960 21802 10292 20150 48/// 70500 82030
                   333 10378 20//0 5//// 82360=
202011230600 AAXX 23064 67673 31960 51803 10290 20168 48/// 70522 82031
                   333 10358 20//0 5//// 82360 83080=
202011190900 AAXX 19094 67673 41675 53601 10340 20160 48/// 70522 85201
                   333 5//// 85840 83080=
202011190600 AAXX 19064 67673 31975 00901 10290 20170 48/// 70500
                   333 10//0 20//0 5////=
202011100600 AAXX 10064 67673 31975 03602 10270 20140 48/// 70500
                   333 10374 20//0 5////=
202011091200 AAXX 09124 67673 41660 41702 10368 20110 48/// 70500 82130
                   333 5//// 82840 82360=
202011090900 AAXX 09094 67673 41660 31703 10340 20120 48/// 70500 81130
                   333 5//// 81835 82360=
202011090600 AAXX 09064 67673 31960 51802 10280 20233 48/// 70522 80005
                   333 10384 20//0 5//// 85280=
202011060600 AAXX 06064 67673 31960 01803 10276 20218 48/// 70500
                   333 10356 20//0 5////=
202011051200 AAXX 05124 67673 NIL=
202011050900 AAXX 05094 67673 NIL=
202011050600 AAXX 05064 67673 31960 01802 10266 20215 48/// 70500
                   333 10355 20//0 5////=

################################################################################
#  SYNOPS from 67731, Senanga (Zambia) | 16-06S | 023-16E | 1027 m
################################################################################
202011250600 AAXX 25064 67731 12980 532// 10241 20166 48/// 69904 70222 84032
                   333 10330 20181 5//// 84360 85080=
202011240900 AAXX 24094 67731 42580 609// 10290 20180 48/// 84132
                   333 5//// 84827 84362 85080=
202011240600 AAXX 24064 67731 32480 618// 10247 20162 48/// 70222 82132
                   333 10351 20188 5//// 82818 84360 85080=
202011201200 AAXX 20124 67731 42680 618// 10336 20195 48/// 84202
                   333 58009 84840 86080=
202011200900 AAXX 20094 67731 42480 618// 10267 20186 48/// 83132
                   333 5//// 83820 84361 85080=
202011160600 AAXX 16064 67731 12480 627// 10237 20204 48/// 60094 70222 83132
                   333 10332 20201 59011 83815 84360 84080=
202011130900 AAXX 13094 67731 42580 619// 10250 20188 48/// 70222 84102
                   333 59006 84825 85080=
202011130600 AAXX 13064 67731 12480 809// 10221 20181 48/// 60024 70222 83538
                   333 10271 20134 58021 83615 85360 88280=
202011121200 AAXX 12124 67731 41470 705// 10260 20204 48/// 72566 84232
                   333 58062 84823 84362 86080=
202011120600 AAXX 12064 67731 11470 827// 10229 20169 48/// 60014 76166 83518
                   333 10361 20159 58018 83615 85460=
202011091200 AAXX 09124 67731 42680 533// 10392 20144 48/// 70522 82102
                   333 5//// 82835 84080=
202011090900 AAXX 09094 67731 42980 235// 10349 20121 48/// 80002
                   333 83080=
202011090600 AAXX 09064 67731 12980 418// 10253 20141 48/// 69904 70222 84030
                   333 10397 20198 5//// 84360=
202011051200 AAXX 05124 67731 NIL=
202011050900 AAXX 05094 67731 41178 814// 10251 20149 48/// 72588 83518
                   333 59016 83620 85460 87280=
202011050600 AAXX 05064 67731 12480 829// 10228 20134 48/// 69914 70222 83538
                   333 10334 20186 5//// 83613 86760 88280
                   555 00079=

################################################################################
#  SYNOPS from 67741, Sesheke (Zambia) | 17-28S | 024-18E | 949 m
################################################################################
202012010600 AAXX 01064 67741 12680 70000 10233 20213 48512 60024 8157/
                   333 10315 20205 59023 81645 87362=
202011300600 AAXX 30064 67741 32680 70000 10212 20200 48529 8157/
                   333 10310 20188 58002 81645 87362=
202011271200 AAXX 27124 67741 42680 30000 10340 20191 48513 82230
                   333 58011 82858 82362=
202011270900 AAXX 27094 67741 42680 10902 10314 20198 48537 81130
                   333 59001 81550 81362=
202011260600 AAXX 26064 67741 32980 70901 10234 20195 48521 8707/
                   333 10338 20196 48005 87460=
202011240600 AAXX 24064 67741 32980 70000 10219 20199 48531 8707/
                   333 10341 20210 58008 87461=
202011230600 AAXX 23064 67741 12980 30000 10256 20205 48527 60014 83030
                   333 10313 20189 58002 83362=
202011201200 AAXX 20124 67741 42980 70000 10242 20214 48504 8707/
                   333 58033 87460=
202011200900 AAXX 20094 67741 42980 61801 10240 20209 48523 86070
                   333 58021 86362=
202011200600 AAXX 20064 67741 12980 72701 10222 20198 48519 69914 8707/
                   333 10331 20198 58017 87362=
202011190600 AAXX 19064 67741 12980 50000 10243 20206 48504 85030
                   333 10251 20198 59013 85362=
202011180900 AAXX 18094 67741 41680 72701 10206 20184 48517 76162 8357/
                   333 58026 83630 87458=
202011160600 AAXX 16064 67741 32980 60000 10236 20202 48523 86030
                   333 10343 20178 5//// 86362=
202011130900 AAXX 13094 67741 42680 60000 10270 20//0 48/// 8217/
                   333 5//// 82850 86362=
202011130600 AAXX 13064 67741 12980 70000 10214 20182 48555 60094 8707/
                   333 10262 20186 58021 87461=
202011120600 AAXX 12064 67741 32980 70901 10240 20199 48542 8707/
                   333 10366 20219 58017 87362=
202011110600 AAXX 11064 67741 32980 61401 10262 20197 48527 86030
                   333 10402 20234 58005 96262=
202011101200 AAXX 10124 67741 42680 10000 10381 20175 48500 81100
                   333 5//// 81850=
202011100900 AAXX 10094 67741 42980 11202 10350 20177 48535 81030
                   333 59009 81362=
202011100600 AAXX 10064 67741 32980 02701 10278 20159 48531
                   333 10398 20171 59020=
202011090900 AAXX 09094 67741 42980 21201 10362 20173 48536 80001
                   333 5//// 82080=
202011090600 AAXX 09064 67741 32980 50000 10268 20164 48548 83030
                   333 10409 20200 58010 85362=
202011060600 AAXX 06064 67741 32980 32701 10306 20195 48527 83030
                   333 10352 20189 59017 83362=
202011051200 AAXX 05124 67741 43680 52702 10340 20166 48503 81230
                   333 59011 81850 85362=
202011050900 AAXX 05094 67741 42980 53501 10318 20175 48529 85030
                   333 59017 85362=
202011050600 AAXX 05064 67741 32980 70000 10248 20178 48525 8707/
                   333 10348 20201 59018 87362=

################################################################################
#  SYNOPS from 67743, Livingstone (Zambia) | 17-49S | 025-49E | 985 m
################################################################################
202012010600 AAXX 01064 67743 12480 52904 10238 20204 48510 60054 81670
                   333 10315 20185 59033 81715 85359=
202011260600 AAXX 26064 67743 32980 70908 10250 20174 48528 70222 8707/
                   333 10340 20195 58004 87360=
202011240900 AAXX 24094 67743 41459 82004 10200 20188 48534 79592 8197/
                   333 58024 81915 83618 88450 91019=
202011051200 AAXX 05124 67743 NIL=
202011050900 AAXX 05094 67743 NIL=

################################################################################
#  SYNOPS from 67751, Magoye (Zambia) | 16-00S | 027-36E | 1018 m
################################################################################
202011300600 AAXX 30064 67751 12980 83405 10204 20196 60044 8807/
                   333 10//0 20198 58003 88460=
202011230600 AAXX 23064 67751 32980 21802 10269 20181 48/// 82030
                   333 10//0 20203 59006 82360=
202011160600 AAXX 16064 67751 12980 10000 10240 20198 48/// 60174 80001
                   333 10//0 20//0 58008 81080=
202011120600 AAXX 12064 67751 11980 80000 10206 20171 48/// 69904 76062 8807/
                   333 10//0 20199 59014 88360=
202011060600 AAXX 06064 67751 32980 10000 10281 20110 48/// 80001
                   333 10//0 20193 58010 81081=
202011051200 AAXX 05124 67751 NIL=
202011050900 AAXX 05094 67751 NIL=
202011050600 AAXX 05064 67751 32980 10000 10221 20190 80001
                   333 10//0 20191 5//// 81080=

################################################################################
#  SYNOPS from 67753, Choma (Zambia) | 16-50S | 027-04E | 1213 m
################################################################################
202012010600 AAXX 01064 67753 11580 70000 10210 20195 48/// 70222 8115/
                   333 10300 20184 5//// 81820 87360=
202011300600 AAXX 30064 67753 11580 80000 10196 20163 48/// 69924 70222 8125/
                   333 10301 20180 5//// 81820 87360=
202011260600 AAXX 26064 67753 32980 72706 10231 20177 48532 80001
                   333 10300 20196 58011 87080=
202011240600 AAXX 24064 67753 31980 20000 10275 20166 48517 82030
                   333 10327 20204 59014 82360=
202011230600 AAXX 23064 67753 31980 10000 10255 20189 48534 70100 81030
                   333 10294 20202 58002 81360=
202011190600 AAXX 19064 67753 11980 40000 10249 20185 48/// 60204 84030
                   333 10331 20180 5//// 84360=
202011130600 AAXX 13064 67753 31980 80000 10200 20177 47597 8805/
                   333 10301 20178 5//// 88360=
202011120900 AAXX 12094 67753 42580 72808 10225 20171 48542 85230
                   333 58026 85820 82360=
202011110600 AAXX 11064 67753 11975 81906 10210 20173 48521 60014 75655 8807/
                   333 10356 20190 58006 88459=
202011100900 AAXX 10094 67753 41780 11806 10325 20137 48522 70500 81100
                   333 59013 81856=
202011100600 AAXX 10064 67753 31980 01808 10291 20121 48527 70500
                   333 10364 20190 59008=
202011091200 AAXX 09124 67753 41780 40000 10354 20128 48504 70522 81101
                   333 59007 81856 83080=
202011060600 AAXX 06064 67753 11980 10000 10262 20193 48/// 69904 72586 81030
                   333 10332 20190 5//// 81360=
202011051200 AAXX 05124 67753 NIL=
202011050900 AAXX 05094 67753 NIL=
