################################################################################
# Query made at 04/06/2022 07:17:56 UTC
# Country like Zamb*
# Time interval: from 02/28/2021 23:30  to 03/31/2021 23:30  UTC
################################################################################

################################################################################
#  SYNOPS from 67403, Kawambwa (Zambia) | 09-48S | 029-05E | 1323 m
################################################################################
202103261200 AAXX 26124 67403 NIL=
202103240600 AAXX 24064 67403 32980 70902 10196 20174 48513 87030
                   333 10282 20180 59006 87360=
202103230900 AAXX 23094 67403 NIL=
202103230600 AAXX 23064 67403 11380 80903 10183 20174 48523 60594 70322 8173/
                   333 10279 20166 58017 81708 88360=
202103220600 AAXX 22064 67403 11375 73201 10199 20185 48504 69924 70346 8273/
                   333 10308 20186 58005 82708 87360=
202103170600 AAXX 17064 67403 11975 31002 10210 20178 48505 60034 70500 82031
                   333 10310 20166 58011 82360 82080=
202103160600 AAXX 16064 67403 12980 20903 10209 20173 48494 60234 81031
                   333 10300 20172 59002 81360 82085=
202103150600 AAXX 15064 67403 32980 30903 10209 20175 48495 83030
                   333 10298 20162 59022 83360=
202103100900 AAXX 10094 67403 NIL=
202103090600 AAXX 09064 67403 11475 60601 10204 20183 48509 60164 70322 82531
                   333 10232 20172 58003 82610 86360 81080=
202103080600 AAXX 08064 67403 11475 83301 10195 20187 48504 60024 70522 8193/
                   333 10272 20184 58001 81912 84612 87359=
202103020600 AAXX 02064 67403 31975 41601 10201 20179 48500 70500 84031
                   333 10305 20183 59007 84360 81080=
202103011200 AAXX 01124 67403 NIL=

################################################################################
#  SYNOPS from 67413, Mbala (Zambia) | 08-51S | 031-20E | 1673 m
################################################################################
202103261200 AAXX 26124 67413 NIL=
202103240600 AAXX 24064 67413 12480 40912 10195 20164 48539 60024 83501
                   333 10295 20160 59011 83615 83076
                   555 00200 91024=
202103230900 AAXX 23094 67413 NIL=
202103100900 AAXX 10094 67413 NIL=
202103020600 AAXX 02064 67413 12780 30902 10172 20156 48521 60134 84070
                   333 10260 20195 59010 83356 91021=
202103011200 AAXX 01124 67413 NIL=

################################################################################
#  SYNOPS from 67441, Mwinilunga (Zambia) | 11-45S | 024-26E | 1361 m
################################################################################
202103261200 AAXX 26124 67441 NIL=
202103230900 AAXX 23094 67441 NIL=
202103160600 AAXX 16064 67441 12380 83604 10180 20180 48529 69954 887//
                   333 10295 2//// 58002 88709=
202103100900 AAXX 10094 67441 NIL=
202103090600 AAXX 09064 67441 11480 83003 10183 20172 48535 60064 72162 8657/
                   333 10218 2//// 59005 86618 87460=
202103020600 AAXX 02064 67441 32380 81303 10185 20168 48534 887//
                   333 10280 2//// 58003 88709=
202103011200 AAXX 01124 67441 NIL=

################################################################################
#  SYNOPS from 67461, Mansa (Zambia) | 11-06S | 028-51E | 1382 m
################################################################################
202103291200 AAXX 29124 67461 41480 71215 10202 20189 48511 72162 875//
                   333 58031 87615 91017=
202103290900 AAXX 29094 67461 41475 71510 10197 20190 48527 76122 875//
                   333 58017 87610 91020=
202103261200 AAXX 26124 67461 NIL=
202103240900 AAXX 24094 67461 41580 71213 10245 20191 48511 72129 8253/
                   333 59021 82625 83828 87360 91017=
202103240600 AAXX 24064 67461 12380 71511 10205 20198 48519 69904 8667/
                   333 10272 20184 59004 86706 87360 91019=
202103230900 AAXX 23094 67461 NIL=
202103230600 AAXX 23064 67461 12980 71314 10203 20179 48523 60064 8707/
                   333 10242 20144 58014 87460 91019=
202103220600 AAXX 22064 67461 32580 52102 10210 20198 48510 81530
                   333 10290 20148 58008 81625 85360 91017=
202103170600 AAXX 17064 67461 32980 51409 10200 20176 48501 84031
                   333 10292 20142 58016 84360 82080 91016=
202103151200 AAXX 15124 67461 42680 51510 10278 20190 48469 81305
                   333 59010 81938 83840 82080 91013=
202103150900 AAXX 15094 67461 42580 71512 10250 20200 48483 83138
                   333 59016 83822 83360 86280 91015=
202103150600 AAXX 15064 67461 31280 70203 10199 20193 48486 72844 8463/
                   333 10278 20142 59026 84703 87360 91015=
202103100900 AAXX 10094 67461 NIL=
202103090900 AAXX 09094 67461 42680 72719 10250 20185 48518 84230
                   333 58011 84845 84360 91018=
202103090600 AAXX 09064 67461 12480 82802 10190 20187 48520 60394 8457/
                   333 10240 20149 58026 84610 88460 91017=
202103020600 AAXX 02064 67461 32980 11216 10219 20195 48498 81030
                   333 10306 20167 59011 81360 91016=
202103011200 AAXX 01124 67461 NIL=

################################################################################
#  SYNOPS from 67469, Samfya (Zambia) | 11-22S | 029-54E | 1171 m
################################################################################
202103261200 AAXX 26124 67469 NIL=
202103240900 AAXX 24094 67469 42580 51008 10263 20210 48/// 85230
                   333 5//// 85824 83360=
202103240600 AAXX 24064 67469 32980 51417 10206 20190 48/// 85830
                   333 10267 20222 5//// 85360=
202103231200 AAXX 23124 67469 42580 41307 10266 20200 48/// 81930
                   333 5//// 81924 84824 82360=
202103230900 AAXX 23094 67469 42480 50808 10258 20200 48/// 85130
                   333 85818 84360=
202103230600 AAXX 23064 67469 12980 51014 10230 20210 48/// 60164 85030
                   333 10276 20186 5//// 85360=
202103221200 AAXX 22124 67469 42680 40806 10274 20210 48/// 81932
                   333 5//// 81930 84835 81360 83280=
202103220600 AAXX 22064 67469 32980 41013 10255 20210 48/// 84030
                   333 10272 20184 5//// 84360=
202103100900 AAXX 10094 67469 NIL=
202103091200 AAXX 09124 67469 42682 60907 10259 20230 48/// 84231
                   333 5//// 84830 81360 81080=
202103090600 AAXX 09064 67469 12980 70000 10200 20200 48/// 60034 87030
                   333 10264 20180 5//// 87360=
202103011200 AAXX 01124 67469 42580 41006 10260 20210 48/// 84230
                   333 5//// 84824 82360=

################################################################################
#  SYNOPS from 67475, Kasama (Zambia) | 10-13S | 031-08E | 1382 m
################################################################################
202103261200 AAXX 26124 67475 NIL=
202103240600 AAXX 24064 67475 11580 71205 10194 20188 48533 60084 84238
                   333 10//0 20163 59004 84825 82360 84080 91021=
202103230900 AAXX 23094 67475 NIL=
202103230600 AAXX 23064 67475 11570 81003 10183 20183 48536 60424 70344 84238
                   333 1//// 20155 58025 84825 82360 84080 91022=
202103221200 AAXX 22124 67475 41660 51604 10253 20184 48476 72582 8325/
                   333 59012 81935 83835 86360 91015=
202103220600 AAXX 22064 67475 12460 40909 10212 20179 48513 60014 70322 83231
                   333 1//// 20154 58001 83818 84360 83080 91019=
202103170600 AAXX 17064 67475 12460 50704 10201 20186 48517 69904 85202
                   333 1//// 20159 58005 82618 83080 91019=
202103160600 AAXX 16064 67475 12360 30810 10202 20182 48512 60024 70322 82631
                   333 1//// 20174 58000 82707 83360 82080 91019=
202103151200 AAXX 15124 67475 42660 40506 10282 20181 48483 70222 84200
                   333 59014 81930 84830 91015=
202103150600 AAXX 15064 67475 32360 70906 10197 20180 48511 70322 8365/
                   333 1//// 20162 59017 83709 86360 91019=
202103100900 AAXX 10094 67475 NIL=
202103091200 AAXX 09124 67475 42660 72504 10269 20182 48494 70322 862//
                   333 58010 81935 86835 91017=
202103090600 AAXX 09064 67475 12960 70302 10191 20191 48523 60154 70122 85078
                   333 1//// 20164 58007 85360 87280 91020=
202103080600 AAXX 08064 67475 12960 83407 10184 20184 48514 60124 85078
                   333 1//// 20161 5//// 85460 87280 91019=
202103020600 AAXX 02064 67475 32360 71708 10199 20181 48516 70322 82638
                   333 1//// 20154 59001 82707 84360 87280 91019=
202103011200 AAXX 01124 67475 42660 71807 10258 20184 48492 70322 84238
                   333 58017 81935 84835 84360 87280 91016=

################################################################################
#  SYNOPS from 67476, Misamfu (Zambia) | 10-06S | 031-15E | 1536 m
################################################################################
202103261200 AAXX 26124 67476 NIL=
202103240900 AAXX 24094 67476 42680 60903 10240 20183 48/// 86201
                   333 59016 86835 81080=
202103240600 AAXX 24064 67476 12580 70902 10198 20191 48/// 60104 871//
                   333 10269 20152 59007 87820=
202103231200 AAXX 23124 67476 41657 51802 10252 20190 48/// 78122 84272
                   333 58021 84840 82460 81080=
202103230900 AAXX 23094 67476 42680 60502 10234 20181 48/// 70322 84230
                   333 58028 84832 85360=
202103230600 AAXX 23064 67476 12480 70000 10186 20177 48/// 60354 8277/
                   333 10292 20154 58026 82710 81613 87360=
202103221200 AAXX 22124 67476 41678 51801 10286 20184 48/// 72162 81378
                   333 5//// 81945 82847 81460 84280=
202103220600 AAXX 22064 67476 32480 50803 10210 20192 48/// 81138
                   333 10291 20153 5//// 81817 82360 85280=
202103100900 AAXX 10094 67476 NIL=
202103091200 AAXX 09124 67476 41650 70801 10231 20191 48/// 79522 8197/
                   333 5//// 81935 82837 87460=
202103090900 AAXX 09094 67476 42680 53003 10247 20165 48/// 70322 82231
                   333 5//// 82832 81080=
202103090600 AAXX 09064 67476 11480 50101 10192 20185 48/// 60094 75065 81172
                   333 10230 20119 5//// 81817 82460 83080=
202103080600 AAXX 08064 67476 11380 83501 10185 20179 48/// 60564 72065 8167/
                   333 10286 20120 5//// 81707 88460=
202103020900 AAXX 02094 67476 42680 41203 10278 20167 48/// 83230
                   333 58001 83830 84360=
202103020600 AAXX 02064 67476 32580 30903 10185 20177 48/// 81130
                   333 10292 20105 58002 81826 83360=
202103011200 AAXX 01124 67476 NIL=

################################################################################
#  SYNOPS from 67477, Mpika (Zambia) | 11-54S | 031-26E | 1400 m
################################################################################
202103310900 AAXX 31094 67477 41480 81802 10183 20180 48548 72052 8657/
                   333 58010 86618 88459=
202103261200 AAXX 26124 67477 NIL=
202103240900 AAXX 24094 67477 42580 40911 10225 20180 48601 84500
                   333 59017 84620=
202103240600 AAXX 24064 67477 12480 41210 10195 20175 48519 69904 84500
                   333 10269 20170 58001 84610=
202103230900 AAXX 23094 67477 42580 61206 10230 20172 48622 85802
                   333 58026 82821 84622 82080=
202103230600 AAXX 23064 67477 12380 50904 10190 20175 48608 60044 82530
                   333 10280 20165 58011 82608 84359=
202103220600 AAXX 22064 67477 32980 63603 10195 20173 48579 86030
                   333 10281 20157 59003 86360=
202103170600 AAXX 17064 67477 12980 50902 10216 20170 48519 69904 85030
                   333 10268 20176 5//// 85359=
202103160900 AAXX 16094 67477 42580 41202 10238 20160 48/// 83231
                   333 5//// 83825 82362 82080=
202103160600 AAXX 16064 67477 12480 51206 10208 20170 48/// 60154 83531
                   333 10282 20166 5//// 83612 84359 82080=
202103151200 AAXX 15124 67477 41680 50902 10264 20150 48499 71799 84231
                   333 5//// 81930 84830 82364 82080=
202103150900 AAXX 15094 67477 42580 31205 10246 20154 48511 83131
                   333 5//// 81361 81080=
202103150600 AAXX 15064 67477 32980 51203 10202 20160 48517 85031
                   333 10257 20163 59016 85359 82080=
202103101200 AAXX 10124 67477 42580 62103 10252 20191 48573 82230
                   333 59001 82825 85361=
202103100900 AAXX 10094 67477 NIL=
202103090900 AAXX 09094 67477 41575 71803 10228 20175 48561 76022 85570
                   333 5//// 85620 87460=
202103090600 AAXX 09064 67477 12380 83301 10183 20167 48588 60024 8667/
                   333 10240 20165 58013 86706 88459=
202103080600 AAXX 08064 67477 11970 83303 10172 20169 48549 60314 76366 8807/
                   333 10250 20168 59014 88459=
202103020600 AAXX 02064 67477 11480 82201 10167 20160 48521 60034 72162 8457/
                   333 10269 20157 59001 84612 88459=
202103011200 AAXX 01124 67477 42680 52001 10242 20160 48503 84231
                   333 5//// 84830 82364 82080=

################################################################################
#  SYNOPS from 67481, Isoka (Zambia) | 10-07S | 032-38E | 1360 m
################################################################################
202103261200 AAXX 26124 67481 NIL=
202103240600 AAXX 24064 67481 21480 52002 10202 20183 48/// 85501
                   333 10270 20188 5//// 85610 83080=
202103230900 AAXX 23094 67481 NIL=
202103230600 AAXX 23064 67481 12480 63002 10202 20170 48/// 60434 82131
                   333 10297 20170 5//// 82812 83360 85080=
202103220600 AAXX 22064 67481 32480 32001 10220 20184 48/// 81101
                   333 10290 20164 5//// 81813 83080=
202103170600 AAXX 17064 67481 32480 52002 10210 20187 48/// 85501
                   333 10298 20162 5//// 85610 81080=
202103160600 AAXX 16064 67481 12480 61002 10192 20182 48/// 69904 86500
                   333 10280 20152 5//// 86610=
202103150600 AAXX 15064 67481 12480 53002 10210 20186 48/// 60044 85500
                   333 10271 20168 5//// 85610=
202103100900 AAXX 10094 67481 NIL=
202103090600 AAXX 09064 67481 12480 63002 10200 20186 48/// 60104 82130
                   333 10238 20172 5//// 82810 86360=
202103020600 AAXX 02064 67481 31479 72402 10196 20188 48/// 72842 875//
                   333 10304 20174 5//// 87610=
202103011200 AAXX 01124 67481 NIL=

################################################################################
#  SYNOPS from 67531, Zambezi (Zambia) | 13-32S | 023-07E | 1077 m
################################################################################
202103310900 AAXX 31094 67531 42680 70906 10266 20192 48/// 8113/
                   333 59005 81833 87361=
202103301200 AAXX 30124 67531 42680 60903 10274 20183 86101
                   333 58002 86837 81081=
202103291200 AAXX 29124 67531 42680 71003 10275 20191 48/// 8513/
                   333 59002 85836 87361=
202103290900 AAXX 29094 67531 42680 70605 10266 20193 48/// 8413/
                   333 59003 84831 87361=
202103261200 AAXX 26124 67531 42680 62704 10282 20196 48/// 83230
                   333 58004 83848 84362=
202103251200 AAXX 25124 67531 42680 63505 10298 20204 48/// 84202
                   333 58009 84848 83081=
202103240900 AAXX 24094 67531 42680 30905 10280 20204 48/// 83100
                   333 59007 83833=
202103240600 AAXX 24064 67531 32980 11002 10218 20198 48/// 81030
                   333 10307 20181 59006 81362=
202103231200 AAXX 23124 67531 42680 53603 10299 20202 48/// 85200
                   333 58020 85848=
202103230900 AAXX 23094 67531 NIL=
202103230600 AAXX 23064 67531 32980 20901 10213 20197 48/// 80001
                   333 10312 20166 58017 82080=
202103220600 AAXX 22064 67531 12980 72702 10195 20188 48/// 60124 8703/
                   333 10315 20181 58010 87362=
202103181200 AAXX 18124 67531 42780 30304 10306 20185 48/// 83100
                   333 59006 83850=
202103170900 AAXX 17094 67531 42680 63003 10265 20194 48/// 84230
                   333 58017 84830 84362=
202103170600 AAXX 17064 67531 11380 72705 10202 20201 48/// 60074 70266 8267/
                   333 10312 20186 58016 82707 87362=
202103160600 AAXX 16064 67531 32980 20000 10214 20197 48/// 82030
                   333 10315 20174 59009 82362=
202103150900 AAXX 15094 67531 42680 41803 10276 20206 48/// 84100
                   333 5//// 84830=
202103150600 AAXX 15064 67531 12980 30000 10202 20195 48/// 60094 83500
                   333 10312 20170 59012 83610=
202103101200 AAXX 10124 67531 42680 61804 10284 20212 48/// 85230
                   333 59001 85838 82362=
202103100900 AAXX 10094 67531 42580 63604 10240 20205 48/// 8313/
                   333 58000 83820 85362=
202103091200 AAXX 09124 67531 42680 63003 10278 20193 48/// 86200
                   333 5//// 86848=
202103090900 AAXX 09094 67531 42580 73003 10252 20201 48/// 8427/
                   333 5//// 84828 86362=
202103090600 AAXX 09064 67531 12980 70000 10208 20198 48/// 60034 8707/
                   333 10295 20191 58002 87362=
202103080600 AAXX 08064 67531 12380 73002 10197 20193 48/// 60034 8467/
                   333 10308 20186 59001 84707 87362=
202103021200 AAXX 02124 67531 42680 52704 10266 20177 48/// 85200
                   333 58005 85840=
202103020600 AAXX 02064 67531 32380 71803 10186 20171 48/// 8567/
                   333 10283 20168 58009 85707 87460=
202103011200 AAXX 01124 67531 NIL=

################################################################################
#  SYNOPS from 67541, Kasempa (Zambia) | 13-32S | 025-51E | 1234 m
################################################################################
202103301200 AAXX 30124 67541 42580 60000 10245 20193 48/// 70222 86200
                   333 5//// 86820=
202103291200 AAXX 29124 67541 42580 50000 10260 20193 48/// 70222 85200
                   333 5//// 85827=
202103261200 AAXX 26124 67541 NIL=
202103240900 AAXX 24094 67541 42580 50503 10255 20196 48/// 85200
                   333 5//// 85824=
202103240600 AAXX 24064 67541 12980 10000 10200 20185 48/// 69904 80001
                   333 10299 20150 5//// 81080=
202103230900 AAXX 23094 67541 NIL=
202103230600 AAXX 23064 67541 32980 20000 10200 20185 48/// 70222 80002
                   333 10298 20133 5//// 82080=
202103221200 AAXX 22124 67541 42680 40000 10285 20189 48/// 70222 84200
                   333 5//// 84839=
202103220600 AAXX 22064 67541 12980 30000 10196 20187 48/// 69904 70222 83030
                   333 10310 20150 5//// 83360=
202103181200 AAXX 18124 67541 42680 60000 10285 20189 48/// 85201
                   333 5//// 85839 81080=
202103170900 AAXX 17094 67541 42580 70000 10255 20188 48/// 82230
                   333 5//// 82825 85360=
202103170600 AAXX 17064 67541 12380 70000 10190 20183 48/// 60094 70222 8253/
                   333 10290 20160 5//// 82606 87360=
202103160600 AAXX 16064 67541 12980 10000 10190 20185 48/// 69904 70222 81030
                   333 10283 20140 5//// 81360=
202103151200 AAXX 15124 67541 42580 60000 10265 20207 48/// 70222 84230
                   333 5//// 84824 82360=
202103150600 AAXX 15064 67541 32380 80000 10190 20190 48/// 70222 8353/
                   333 10292 20150 5//// 83606 87360=
202103101200 AAXX 10124 67541 42580 60000 10260 20193 48/// 86200
                   333 5//// 86827=
202103100900 AAXX 10094 67541 NIL=
202103090900 AAXX 09094 67541 42480 70000 10225 20188 48/// 70222 8213/
                   333 5//// 82815 87360=
202103090600 AAXX 09064 67541 12380 70000 10190 20183 48/// 60054 70222 8253/
                   333 10260 20160 5//// 82606 87360=
202103080600 AAXX 08064 67541 12380 80000 10190 20190 48/// 60094 70222 8253/
                   333 10292 20160 5//// 82606 87360=
202103041200 AAXX 04124 67541 42680 50503 10280 20208 48/// 85200
                   333 5//// 85830=
202103020600 AAXX 02064 67541 32380 80000 10190 20183 48/// 70222 8353/
                   333 10290 20158 5//// 83606 87360=
202103011200 AAXX 01124 67541 NIL=

################################################################################
#  SYNOPS from 67543, Kabompo (Zambia) | 13-36S | 024-12E | 1075 m
################################################################################
202103261200 AAXX 26124 67543 NIL=
202103230900 AAXX 23094 67543 NIL=
202103230600 AAXX 23064 67543 32980 40000 10200 20188 48/// 80005
                   333 10314 20168 5//// 84280=
202103220600 AAXX 22064 67543 32380 70000 10202 20192 48/// 8463/
                   333 10314 20180 5//// 84707 86360=
202103170600 AAXX 17064 67543 11378 70000 10200 20194 48/// 60064 72844 8267/
                   333 10310 20186 5//// 82707 87360=
202103160600 AAXX 16064 67543 12378 50000 10200 20187 48/// 69904 83605
                   333 10308 20174 5//// 83708 83280=
202103150600 AAXX 15064 67543 32978 40000 10216 20194 48/// 82035
                   333 10324 20178 5//// 82360 83280=
202103101200 AAXX 10124 67543 41675 80000 10234 20202 48/// 79592 8432/
                   333 5//// 81930 84830 87462=
202103100900 AAXX 10094 67543 NIL=
202103091200 AAXX 09124 67543 42680 70000 10266 20185 48/// 8323/
                   333 5//// 83830 87361=
202103090600 AAXX 09064 67543 11360 70000 10194 20188 48/// 60064 74044 8265/
                   333 10264 20188 5//// 82707 87360=
202103080600 AAXX 08064 67543 13280 70000 10206 20194 48/// 60014 8265/
                   333 10308 20190 5//// 82707 87360=
202103020600 AAXX 02064 67543 32378 80000 10190 20177 48/// 886//
                   333 10270 20168 5//// 88706=
202103011200 AAXX 01124 67543 42680 70000 10264 20178 48/// 84207
                   333 5//// 84830 86280=

################################################################################
#  SYNOPS from 67551, Solwezi (Zambia) | 12-11S | 026-23E | 1386 m
################################################################################
202103261200 AAXX 26124 67551 NIL=
202103240600 AAXX 24064 67551 12280 50904 10190 20182 48513 60094 81730
                   333 10274 20182 58000 81705 84362 91021=
202103230900 AAXX 23094 67551 NIL=
202103230600 AAXX 23064 67551 12370 50904 10179 20173 48535 60074 83631
                   333 10256 20165 58011 83705 82362 84280 91020=
202103220600 AAXX 22064 67551 12380 72905 10182 20172 48512 60484 8367/
                   333 10269 20171 58014 83716 87362 91019=
202103170600 AAXX 17064 67551 12370 70000 10182 20179 48515 60314 81630
                   333 10252 20168 58011 81706 83830 87362 91019=
202103160600 AAXX 16064 67551 12370 70905 10177 20177 48506 60394 876//
                   333 10231 20168 58006 87705 91017=
202103150600 AAXX 15064 67551 12365 70000 10188 20181 48501 60034 876//
                   333 10250 20190 59022 87705 91017=
202103100900 AAXX 10094 67551 NIL=
202103090600 AAXX 09064 67551 12380 70604 10185 20180 48511 60224 8667/
                   333 10235 20167 58004 86706 87362 91018=
202103080600 AAXX 08064 67551 11358 71805 10177 20177 48510 60264 76166 877//
                   333 10255 20172 59006 87706 91017=
202103020600 AAXX 02064 67551 31378 81505 10181 20177 48507 75355 8377/
                   333 10271 20159 58004 83706 88362 91017=
202103011200 AAXX 01124 67551 NIL=

################################################################################
#  SYNOPS from 67561, Ndola (Zambia) | 13-00S | 028-39E | 1269 m
################################################################################
202103291200 AAXX 29124 67561 41670 61213 10246 20159 48520 70522 8526/
                   333 58022 85830 83360 91019=
202103261200 AAXX 26124 67561 NIL=
202103240600 AAXX 24064 67561 11978 40000 10184 20178 48531 60034 70422 84030
                   333 10275 20164 58002 84360 91020=
202103231200 AAXX 23124 67561 41450 61113 10197 20195 48516 79599 8427/
                   333 58029 81930 84835 85459 91019=
202103230900 AAXX 23094 67561 NIL=
202103230600 AAXX 23064 67561 11360 60000 10186 20184 48538 60064 72842 81732
                   333 10280 20172 58019 81708 85360 82080 91020=
202103220600 AAXX 22064 67561 11257 80000 10216 20193 48512 60024 76162 86738
                   333 10295 20190 58005 85703 86360 91018=
202103170900 AAXX 17094 67561 41660 52505 10256 20196 48523 70522 85230
                   333 58013 85830 82360 91019=
202103170600 AAXX 17064 67561 11959 60000 10210 20179 48515 60014 70422 8603/
                   333 10290 20183 58007 86360 91019=
202103160600 AAXX 16064 67561 11958 70000 10195 20184 48507 60024 70422 86038
                   333 10282 20180 59001 86360 87280 91018=
202103151200 AAXX 15124 67561 42580 50507 10281 20186 48484 85232
                   333 59012 81935 85840 82361 81080 91014=
202103150900 AAXX 15094 67561 42580 50605 10246 20169 48509 85230
                   333 59012 85820 82360 91018=
202103150600 AAXX 15064 67561 11360 70905 10194 20187 48508 60014 70522 8663/
                   333 10275 20175 59013 86706 87360 91018=
202103100900 AAXX 10094 67561 NIL=
202103091200 AAXX 09124 67561 41660 71005 10213 20197 48491 70522 8447/
                   333 58008 81930 84635 87459 91016=
202103090900 AAXX 09094 67561 41460 70405 10237 20184 48518 70522 8523/
                   333 58010 81915 85820 85360 91019=
202103090600 AAXX 09064 67561 11359 79903 10190 20183 48516 60134 70422 8563/
                   333 10246 20180 58005 85706 85810 87360 91019=
202103080600 AAXX 08064 67561 11230 81002 10170 20170 48510 60504 76066 8477/
                   333 10263 20170 58000 84703 88459 91018=
202103021200 AAXX 02124 67561 41670 60000 10233 20178 48480 79592 8526/
                   333 58002 81930 85835 82360 91015=
202103020600 AAXX 02064 67561 11360 61004 10190 20174 48507 60134 70522 866//
                   333 10275 20163 59002 86707 91018=
202103011200 AAXX 01124 67561 41560 70305 10270 20188 48482 70522 85230
                   333 58007 81925 85830 86360 91014=

################################################################################
#  SYNOPS from 67563, Kafironda (Zambia) | 12-36S | 028-07E | 1243 m
################################################################################
202103261200 AAXX 26124 67563 NIL=
202103230900 AAXX 23094 67563 NIL=
202103220600 AAXX 22064 67563 11578 72701 10200 20180 48/// 69904 70522 87500
                   333 10298 20172 58013 87620
                   555 00152=
202103100900 AAXX 10094 67563 NIL=
202103011200 AAXX 01124 67563 NIL=

################################################################################
#  SYNOPS from 67571, Serenje (Zambia) | 13-14S | 030-13E | 1384 m
################################################################################
202103261200 AAXX 26124 67571 NIL=
202103251200 AAXX 25124 67571 41580 71205 10238 20187 48442 79596 872//
                   333 59018 81928 87828=
202103240600 AAXX 24064 67571 12482 71207 10187 20168 48481 69904 876//
                   333 10259 20158 59005 87710=
202103231200 AAXX 23124 67571 41582 71203 10249 20188 48463 71799 83231
                   333 58029 81925 83825 82360 83080=
202103230900 AAXX 23094 67571 42582 70903 10238 20171 48493 70222 8423/
                   333 58036 81923 84823 87360=
202103230600 AAXX 23064 67571 11377 70902 10191 20177 48491 60014 76166 8477/
                   333 10274 20168 58042 84708 87460=
202103181200 AAXX 18124 67571 41682 61802 10271 20169 48453 72992 86203
                   333 58003 81930 86830 81080=
202103100900 AAXX 10094 67571 NIL=
202103090900 AAXX 09094 67571 42482 72705 10227 20176 48/// 70222 8523/
                   333 5//// 81918 85818 87360=
202103021200 AAXX 02124 67571 42682 31208 10234 20177 48442 83500
                   333 59001 83630=
202103020600 AAXX 02064 67571 11380 80903 10178 20169 48471 60444 72162 887//
                   333 10258 20155 59001 88708=
202103011200 AAXX 01124 67571 NIL=

################################################################################
#  SYNOPS from 67575, Mkushi (Zambia) | 13-38-00S | 029-26-00E | 1237 m
################################################################################
202103261200 AAXX 26124 67575 NIL=
202103240600 AAXX 24064 67575 32480 31207 10194 20178 48493 83500
                   333 10287 20152 58000 83612
                   555 00150=
202103230900 AAXX 23094 67575 NIL=
202103230600 AAXX 23064 67575 11280 63401 10196 20187 48493 60054 72162 81670
                   333 10300 20170 58021 81706 86360
                   555 00169=
202103220600 AAXX 22064 67575 12480 41203 10218 20194 48475 60024 84531
                   333 10287 20182 58004 84612 81360 81080
                   555 00177=
202103160600 AAXX 16064 67575 12980 20801 10214 20185 48466 60074 82030
                   333 10280 20162 59004 82360
                   555 00159=
202103150600 AAXX 15064 67575 12480 61103 10206 20180 48470 60024 81570
                   333 10290 20185 59012 81612 86360
                   555 00178=
202103101200 AAXX 10124 67575 42680 73602 10250 20184 48450 83270
                   333 5//// 83837 84363=
202103100900 AAXX 10094 67575 NIL=
202103090600 AAXX 09064 67575 11370 83601 10190 20187 48475 60154 76062 8777/
                   333 10264 20180 58009 87706 82360
                   555 00186=
202103020600 AAXX 02064 67575 12380 70902 10200 20178 48473 60454 83670
                   333 10277 20170 58003 83609 85360=
202103011200 AAXX 01124 67575 42680 73403 10266 20189 48448 82473
                   333 5//// 81938 84838 83362 81080=

################################################################################
#  SYNOPS from 67580, Msekera (Zambia) | 13-39S | 032-34E | 1025 m
################################################################################
202103301200 AAXX 30124 67580 42680 71003 10240 20172 48/// 85130
                   333 58003 85838 85360=
202103291200 AAXX 29124 67580 42680 61508 10257 20191 48/// 85202
                   333 58010 85840 82080=
202103290900 AAXX 29094 67580 42580 81206 10224 20178 48/// 888//
                   333 58031 86825 88630=
202103261200 AAXX 26124 67580 NIL=
202103240900 AAXX 24094 67580 42680 71508 10258 20192 48/// 84132
                   333 59008 84840 82362 82080=
202103240600 AAXX 24064 67580 12580 70906 10215 20190 48/// 60024 875//
                   333 10302 20188 59002 87625=
202103231200 AAXX 23124 67580 42680 51204 10282 20183 48/// 83232
                   333 5//// 81362 82080=
202103230900 AAXX 23094 67580 42680 71206 10201 2//// 48/// 84237
                   333 58023 84835 81360 86280=
202103230600 AAXX 23064 67580 12580 70000 10213 20197 48/// 60104 8157/
                   333 10279 20187 58030 81620 87460=
202103220600 AAXX 22064 67580 12680 40000 10234 20202 48/// 60114 81130
                   333 10298 20189 58000 81830 83360=
202103181200 AAXX 18124 67580 41570 70608 10206 20188 48/// 79592 872//
                   333 58014 82925 86830=
202103160600 AAXX 16064 67580 12980 70000 10218 20194 48/// 60014 87030
                   333 10285 20177 59001 87360=
202103151200 AAXX 15124 67580 41680 72705 10245 20207 48/// 72582 872//
                   333 59010 87480=
202103150900 AAXX 15094 67580 42680 60604 10264 20182 48/// 85232
                   333 59017 85835 82362 83080=
202103150600 AAXX 15064 67580 12480 71204 10215 20192 48/// 60174 81138
                   333 10276 20185 59016 81818 83360 86280=
202103100900 AAXX 10094 67580 NIL=
202103091200 AAXX 09124 67580 41580 80000 10203 20193 48/// 76162 8357/
                   333 58009 83625 88460=
202103090600 AAXX 09064 67580 12480 70604 10210 20191 48/// 60144 8127/
                   333 10219 20187 58009 81815 87460=
202103080900 AAXX 08094 67580 41580 80000 10195 20191 48/// 76062 8457/
                   333 59001 84620 88460=
202103080600 AAXX 08064 67580 11980 80000 10204 20195 48/// 60304 76022 8807/
                   333 10266 20183 59005 88459=
202103020600 AAXX 02064 67580 12480 71502 10207 20186 48/// 60024 8657/
                   333 10274 20179 58000 86622 85360=
202103011200 AAXX 01124 67580 NIL=

################################################################################
#  SYNOPS from 67581, Chipata (Zambia) | 13-33S | 032-35E | 1028 m
################################################################################
202103261200 AAXX 26124 67581 NIL=
202103230900 AAXX 23094 67581 NIL=
202103230600 AAXX 23064 67581 12480 70000 10215 20193 48551 60034 70122 8257/
                   333 1//// 20195 58028 82610 87460 91021=
202103170600 AAXX 17064 67581 12980 10000 10233 20183 48530 60014 81030
                   333 1//// 20174 58003 81360 91018=
202103160600 AAXX 16064 67581 12980 61804 10220 20195 48525 69904 86030
                   333 1//// 20179 58000 86369 91018=
202103150600 AAXX 15064 67581 12980 70504 10236 20176 48527 60114 70122 8703/
                   333 1//// 20190 59016 87360 91018=
202103100900 AAXX 10094 67581 NIL=
202103090600 AAXX 09064 67581 12480 71405 10205 20200 48530 60224 8457/
                   333 1//// 20191 58018 84612 87460 91018=
202103080600 AAXX 08064 67581 12370 81402 10201 20194 48512 60194 76166 8457/
                   333 1//// 20186 58013 84606 88460 91017=
202103020600 AAXX 02064 67581 11370 80000 10192 20187 48532 60134 76166 8457/
                   333 1//// 20181 5//// 84605 88459 91019=
202103011200 AAXX 01124 67581 NIL=

################################################################################
#  SYNOPS from 67583, Lundazi (Zambia) | 12-17S | 033-12E | 1143 m
################################################################################
202103261200 AAXX 26124 67583 NIL=
202103240600 AAXX 24064 67583 32380 71503 10210 20196 48/// 81638
                   333 10290 20//0 5//// 81706 82359 87280=
202103230900 AAXX 23094 67583 NIL=
202103220600 AAXX 22064 67583 12980 60000 10208 20188 48/// 69904 70222 82038
                   333 10302 2//// 5//// 82359 86280=
202103150600 AAXX 15064 67583 12980 60000 10206 20187 48/// 60024 70222 86030
                   333 10270 2//// 5//// 83659=
202103100900 AAXX 10094 67583 NIL=
202103020600 AAXX 02064 67583 32470 82001 10204 20190 48/// 8557/
                   333 10268 2//// 5//// 85610 87458=
202103011200 AAXX 01124 67583 NIL=

################################################################################
#  SYNOPS from 67599, Mfuwe (Zambia) | 13-16S | 031-56E | 568 m
################################################################################
202103261200 AAXX 26124 67599 NIL=
202103240600 AAXX 24064 67599 12680 51704 10247 20204 48548 69904 82131
                   333 10335 20203 59002 82830 83360 83080
                   555 00200 91018=
202103230900 AAXX 23094 67599 NIL=
202103220600 AAXX 22064 67599 32980 51803 10240 20233 48520 85030
                   333 10348 20198 58003 85359 91015=
202103170600 AAXX 17064 67599 32980 41902 10246 20202 48529 84030
                   333 10317 20190 59001 84360
                   555 00187 91015=
202103160600 AAXX 16064 67599 32580 60000 10227 20227 48517 82530
                   333 10329 20200 59001 82620 86359 91015=
202103150600 AAXX 15064 67599 32480 60000 10247 20216 48524 82130
                   333 10321 20209 5//// 82810 86360
                   555 00202 91015=
202103100900 AAXX 10094 67599 NIL=
202103011200 AAXX 01124 67599 NIL=

################################################################################
#  SYNOPS from 67625, Kalabo (Zambia) | 14-51S | 022-42E | 1033 m
################################################################################
202103261200 AAXX 26124 67625 42682 71803 10262 20182 48/// 81133
                   333 81832 84360 87075=
202103240900 AAXX 24094 67625 42682 20617 10275 20189 48/// 82105
                   333 5//// 82835 82275=
202103240600 AAXX 24064 67625 32980 40610 10235 20205 48/// 82033
                   333 10306 20210 58014 82360 84280=
202103230900 AAXX 23094 67625 NIL=
202103230600 AAXX 23064 67625 12982 71802 10222 20198 48/// 69924 81043
                   333 10310 20196 5//// 81360 87075=
202103221200 AAXX 22124 67625 42682 73609 10292 20211 48/// 81103
                   333 5//// 81835 87875=
202103220600 AAXX 22064 67625 12982 71803 10220 20210 48/// 60034 83033
                   333 10310 20203 5//// 83360 87075=
202103181200 AAXX 18124 67625 42682 73507 10285 20189 48/// 81303
                   333 59006 81935 81837 87075=
202103170900 AAXX 17094 67625 42582 70509 10245 20193 48/// 83133
                   333 58009 83820 84360 84075=
202103170600 AAXX 17064 67625 11982 71413 10190 20190 48/// 60474 72166 87073
                   333 10310 20189 58010 87460 87075=
202103160600 AAXX 16064 67625 32482 70613 10239 20196 48/// 81103
                   333 10304 20217 5//// 81816 87075=
202103151200 AAXX 15124 67625 42682 30812 10295 20184 48/// 81103
                   333 5//// 81836 83275=
202103150900 AAXX 15094 67625 42582 30915 10271 20211 48/// 81923
                   333 82825 83275=
202103150600 AAXX 15064 67625 32982 31809 10217 20199 48/// 81083
                   333 10305 20193 5//// 81360 83075=
202103101200 AAXX 10124 67625 41682 23311 10290 20195 48/// 71511 81303
                   333 58013 81935 81837 82075=
202103100900 AAXX 10094 67625 42582 53313 10260 20200 48/// 81133
                   333 58017 81824 82360 85075=
202103091200 AAXX 09124 67625 42682 23315 10270 20188 48/// 81363
                   333 5//// 81930 81832 81360 82075=
202103090600 AAXX 09064 67625 12482 73605 10220 20205 48/// 60114 8133/
                   333 10299 20200 58006 81915 87360=
202103080600 AAXX 08064 67625 12982 70306 10222 20197 48/// 69974 8708/
                   333 10306 20205 5//// 87360=
202103020600 AAXX 02064 67625 32482 71409 10185 20177 48/// 86603
                   333 10254 20165 58003 86710 87075=
202103011200 AAXX 01124 67625 NIL=

################################################################################
#  SYNOPS from 67633, Mongu (Zambia) | 15-15S | 023-09E | 1052 m
################################################################################
202103291200 AAXX 29124 67633 42680 61107 10293 20170 48518 86202
                   333 5//// 83840 83080 91016=
202103290900 AAXX 29094 67633 42680 60903 10285 20185 48537 83202
                   333 5//// 83835 84080 91019=
202103261200 AAXX 26124 67633 NIL=
202103230900 AAXX 23094 67633 42680 40905 10290 20203 48527 70222 84101
                   333 58010 83835 81080 91018=
202103230600 AAXX 23064 67633 12980 30902 10235 20208 48509 60044 70222 82031
                   333 10309 20199 58007 81360 82080
                   555 00199 91017=
202103221200 AAXX 22124 67633 41680 53305 10284 20203 48499 78088 85208
                   333 58018 85830 84080 91014=
202103220600 AAXX 22064 67633 32380 61801 10230 20212 48507 84538
                   333 10308 20208 58008 84609 82360 86280
                   555 00207 91016=
202103170600 AAXX 17064 67633 12380 71001 10213 20195 48508 60214 8153/
                   333 10318 20181 58019 81609 87360
                   555 00204 91017=
202103160600 AAXX 16064 67633 32980 10905 10240 20193 48494 70200 80001
                   333 10315 20201 59008 81080
                   555 00207=
202103150600 AAXX 15064 67633 32980 20501 10236 20212 48502 70200 81031
                   333 10325 20203 59024 81360 81080
                   555 00205 91015=
202103100900 AAXX 10094 67633 NIL=
202103090600 AAXX 09064 67633 12980 60602 10234 20206 48510 60114 70222 86030
                   333 10302 20195 58001 86360
                   555 00204 91016=
202103020900 AAXX 02094 67633 41680 71003 10235 20186 48507 75052 875//
                   333 59013 87660 91016=
202103020600 AAXX 02064 67633 32980 81801 10195 20180 48513 70222 8707/
                   333 10255 20174 59019 87460
                   555 00176 91019=
202103011200 AAXX 01124 67633 NIL=

################################################################################
#  SYNOPS from 67641, Kaoma (Zambia) | 14-48S | 024-48E | 1213 m
################################################################################
202103261200 AAXX 26124 67641 NIL=
202103240600 AAXX 24064 67641 32980 01201 10216 20196 48517
                   333 10315 20185 58010 91017=
202103230900 AAXX 23094 67641 NIL=
202103230600 AAXX 23064 67641 12980 23601 10222 20199 48509 60044 81031
                   333 10325 20190 58009 81360 82080 91016=
202103221200 AAXX 22124 67641 42680 70804 10305 20193 48492 86202
                   333 58009 86842 82080 91014=
202103220600 AAXX 22064 67641 32980 70000 10210 20196 48499 83031
                   333 10318 20182 58005 83362 86080 91015=
202103170600 AAXX 17064 67641 11580 70000 10205 20192 48495 60264 75052 83530
                   333 10325 20197 58006 83620 87360 91015=
202103160600 AAXX 16064 67641 32580 10203 10210 20190 48490 81501
                   333 10305 20183 59001 81620 81080 91015=
202103151200 AAXX 15124 67641 42680 60404 10288 20199 48488 86200
                   333 59011 86838 91013=
202103150900 AAXX 15094 67641 42680 71403 10265 20198 48501 87200
                   333 59020 87832 91015=
202103150600 AAXX 15064 67641 32980 11404 10216 20190 48493 80001
                   333 10316 20176 59023 81080 91015=
202103100900 AAXX 10094 67641 NIL=
202103091200 AAXX 09124 67641 42680 71203 10290 20184 48492 87200
                   333 58007 87836 91014=
202103090900 AAXX 09094 67641 42680 60802 10256 20190 48508 86200
                   333 58004 86836 91016=
202103090600 AAXX 09064 67641 32580 60000 10210 20193 48501 70142 83530
                   333 10290 20177 58005 83628 83362 91016=
202103080900 AAXX 08094 67641 42680 71003 10259 20189 48504 8523/
                   333 59010 85836 87360 91015=
202103080600 AAXX 08064 67641 32580 70000 10212 20199 48496 8157/
                   333 10318 20201 59007 81620 87360 91015=
202103020600 AAXX 02064 67641 12580 71403 10200 20184 48497 69904 875//
                   333 10257 20181 58007 87628 91015=
202103011200 AAXX 01124 67641 NIL=

################################################################################
#  SYNOPS from 67655, Mumbwa (Zambia) | 15-04S | 027-11E | 1216 m
################################################################################
202103261200 AAXX 26124 67655 NIL=
202103230900 AAXX 23094 67655 NIL=
202103230600 AAXX 23064 67655 12980 60907 10210 20187 48551 60044 70222 86080
                   333 10299 20129 58027 86359 91020=
202103170600 AAXX 17064 67655 12480 73009 10196 20186 48533 69964 72622 8347/
                   333 10315 20179 58012 83620 87458 91018=
202103160600 AAXX 16064 67655 32980 41006 10196 20178 48509 84400
                   333 10262 20163 59004 84358 91017=
202103100900 AAXX 10094 67655 NIL=
202103090600 AAXX 09064 67655 32480 50609 10209 20194 48524 70242 83580
                   333 10272 20169 59001 83612 84359 91017=
202103080600 AAXX 08064 67655 12980 70906 10192 20166 48525 60254 70222 8708/
                   333 10275 20139 59004 87359 91018=
202103020600 AAXX 02064 67655 11375 83008 10184 20179 48516 60164 75062 887//
                   333 10209 20172 58016 88608 91019=
202103011200 AAXX 01124 67655 NIL=

################################################################################
#  SYNOPS from 67659, Kafue Polder (Zambia) | 15-46S | 027-55E | 978 m
################################################################################
202103261200 AAXX 26124 67659 NIL=
202103230900 AAXX 23094 67659 NIL=
202103230600 AAXX 23064 67659 32480 71007 10200 20186 48/// 70222 83570
                   333 10326 20181 5//// 83615 87359=
202103220600 AAXX 22064 67659 32580 50706 10227 20187 48/// 70322 83231
                   333 10317 20162 5//// 82825 82360 81080=
202103170900 AAXX 17094 67659 42680 40303 10276 20200 48/// 84230
                   333 58015 84835 81360=
202103170600 AAXX 17064 67659 32580 30904 10227 20186 48/// 70222 83230
                   333 10320 20172 58014 83825 81360=
202103100900 AAXX 10094 67659 NIL=
202103020600 AAXX 02064 67659 12380 8//// 10210 20187 48/// 69974 8467/
                   333 10270 20172 58002 84613 88459=
202103011200 AAXX 01124 67659 NIL=

################################################################################
#  SYNOPS from 67662, Kabwe Agric (Zambia) | 14-24S | 028-30E | 1165 m
################################################################################
202103261200 AAXX 26124 67662 NIL=
202103230900 AAXX 23094 67662 NIL=
202103100900 AAXX 10094 67662 NIL=
202103011200 AAXX 01124 67662 NIL=

################################################################################
#  SYNOPS from 67663, Kabwe (Zambia) | 14-27S | 028-28E | 1206 m
################################################################################
202103310900 AAXX 31094 67663 42580 41009 10232 20150 48530 83102
                   333 58007 83825 81080=
202103301200 AAXX 30124 67663 42680 50810 10245 20158 48524 85130
                   333 59001 85833 81360=
202103291200 AAXX 29124 67663 42680 61209 10249 20163 48524 86200
                   333 58022 86833=
202103290900 AAXX 29094 67663 42580 70713 10225 20170 48537 875//
                   333 58028 87625=
202103261200 AAXX 26124 67663 NIL=
202103240900 AAXX 24094 67663 42580 60911 10240 20178 48538 86500
                   333 58002 86625=
202103240600 AAXX 24064 67663 32480 20309 10206 20182 48523 81530
                   333 10277 20152 59005 81618 82360
                   555 00262=
202103231200 AAXX 23124 67663 42680 60709 10267 20167 48522 86200
                   333 58030 86843=
202103230900 AAXX 23094 67663 42580 61312 10251 20174 48536 84532
                   333 58015 84625 82360 82080=
202103230600 AAXX 23064 67663 12480 60903 10200 20192 48528 69904 85530
                   333 10293 20161 58022 85617 83360
                   555 00271=
202103221200 AAXX 22124 67663 42680 61205 10280 20192 48492 85202
                   333 59002 81937 85837 81080=
202103220600 AAXX 22064 67663 32480 30905 10221 20200 48506 81530
                   333 10288 20173 58006 81618 82360
                   555 00278=
202103181200 AAXX 18124 67663 42680 60208 10267 20173 48505 84232
                   333 59003 84835 81360 85080=
202103170600 AAXX 17064 67663 12980 70603 10206 20195 48509 60014 72162 8707/
                   333 10286 20174 58011 87360
                   555 00218=
202103160600 AAXX 16064 67663 32480 71006 10195 20186 48498 82530
                   333 10280 20152 5//// 82618 86360
                   555 00220=
202103151200 AAXX 15124 67663 42680 61808 10262 20194 48485 86200
                   333 59004 86832=
202103150600 AAXX 15064 67663 32580 70811 10194 20182 48508 875//
                   333 10256 20163 58008 87622
                   555 00212=
202103100900 AAXX 10094 67663 NIL=
202103091200 AAXX 09124 67663 41560 72702 10230 20202 48487 78182 84230
                   333 5//// 84826 87360=
202103090900 AAXX 09094 67663 42580 70406 10239 20194 48521 84230
                   333 58008 84820 86360=
202103090600 AAXX 09064 67663 12980 73604 10191 20169 48506 69904 87070
                   333 10264 20160 58006 87360
                   555 00218=
202103080600 AAXX 08064 67663 12980 60907 10202 20179 48490 60804 86030
                   333 10252 2//// 58004 86360=
202103020600 AAXX 02064 67663 12480 80908 10183 20172 48507 60154 885//
                   333 10250 20156 58010 88616
                   555 00198=
202103011200 AAXX 01124 67663 42580 70704 10237 20199 48496 85230
                   333 58015 85822 87360=

################################################################################
#  SYNOPS from 67665, Lusaka Internationalairport (Zambia) | 15-19S | 028-27E | 1152 m
################################################################################
202103311200 AAXX 31124 67665 42680 30908 10266 20129 48542 83500
                   333 58003 83640 555 91020=
202103310900 AAXX 31094 67665 42580 40913 10231 20129 48561 70221
                   333 58006 84630 91023=
202103310600 AAXX 31064 67665 32980 11007 10175 20141 48554 81030
                   333 10263 20/// 81360
                   555 00///=
202103310300 AAXX 31034 67665 42980 01404 10140 20122 48534 70200
                   333 58002=
202103310000 AAXX 31004 67665 43980 01503 10150 20133 48537 70200
                   333 58005=
202103302100 AAXX 30214 67665 42980 01302 10162 20136 48543 70200
                   333 59009=
202103301200 AAXX 30124 67665 42480 40909 10254 20131 48537 70122 84500
                   333 59008 84628=
202103300900 AAXX 30094 67665 42480 61014 10230 20142 48557 70222 86500
                   333 59006 86615 91022=
202103300600 AAXX 30064 67665 32380 60913 10184 20161 48549 85530
                   333 10265 20//0 59006 85609 82360
                   555 00/// 91022=
202103300300 AAXX 30034 67665 42980 31006 10165 20149 48536 83030
                   333 59006 83360 555 91021=
202103291800 AAXX 29184 67665 42780 61106 10195 20155 48532 70322 85030
                   333 10265 58010 81950 85360=
202103291500 AAXX 29154 67665 42680 50812 10244 20148 84030
                   333 58024 81940 84360
                   555 10265=
202103291200 AAXX 29124 67665 42680 60814 10249 20155 48545 85530
                   333 58031 85635 82360=
202103290900 AAXX 29094 67665 42580 71016 10235 20165 48561 87500
                   333 58025 87620 91023=
202103290600 AAXX 29064 67665 32480 70910 10185 20168 48556 87500
                   333 10296 20//0 58030 87612=
202103290300 AAXX 29034 67665 42980 11104 10259 20147 48531 81030
                   333 58026 81360=
202103290000 AAXX 29004 67665 42980 01205 10173 20158 48532
                   333 58023=
202103282100 AAXX 28214 67665 42980 41203 10187 20172 48534 80002
                   333 58011 84080=
202103280900 AAXX 28094 67665 42580 41109 10268 20141 48542 70300 83231
                   333 59016 83825 81360 81080=
202103271800 AAXX 27184 67665 42/80 79901 10205 20174 48518 81902
                   333 10292 20//0 58007 819// 86080=
202103271500 AAXX 27154 67665 41659 72412 10209 20187 48496 79592 81903
                   333 58005 81940 82845 86080=
202103271200 AAXX 27124 67665 42580 62803 10269 20171 48518 81302
                   333 58003 81928 85830 86080=
202103261800 AAXX 26184 67665 41680 21704 10225 20184 48512 71300 81331
                   333 58008 81950 82360 82080 91017=
202103261200 AAXX 26124 67665 NIL=
202103260900 AAXX 26094 67665 42580 53206 10248 20163 48534 85200
                   333 59002 85822=
202103250900 AAXX 25094 67665 42980 60709 10231 20173 48535 70222 865//
                   333 59014 86620 91020=
202103250600 AAXX 25064 67665 31360 71107 10180 20173 48524 72842 876//
                   333 10273 20//0 59021 87706
                   555 00///=
202103250300 AAXX 25034 67665 42980 00903 10158 20148 48507 70200
                   333 59026=
202103250000 AAXX 25004 67665 42980 01402 10166 20150 48511 70200
                   333 59024=
202103242100 AAXX 24214 67665 42980 01303 10180 20163 48524 70200
                   333 59010=
202103241800 AAXX 24184 67665 42980 11104 10204 20172 48514 81030
                   333 10273 59022 81030=
202103241500 AAXX 24154 67665 42680 31108 10262 20162 48512 70200 83200
                   333 59015 83450 91017=
202103240900 AAXX 24094 67665 42580 70810 10236 20166 48552 87530
                   333 59010 87625 81960 91021=
202103240600 AAXX 24064 67665 32380 51208 10195 20170 48545 85530
                   333 10277 20/// 58004 85612 82360=
202103240300 AAXX 24034 67665 42980 01305 10163 20154 48532
                   333 58010 555 91021=
202103240000 AAXX 24004 67665 42980 01402 10166 20150 48511 70200
                   333 59024=
202103232100 AAXX 23214 67665 42980 01204 10187 20166 48545
                   333 58015 555 91022=
202103231800 AAXX 23184 67665 42980 11003 10212 20165 48537 81030
                   333 10277 58020 81360=
202103231500 AAXX 23154 67665 42680 30910 10265 20156 48528 82230
                   333 58023 82848 81360=
202103231200 AAXX 23124 67665 42680 51113 10277 20153 48542 85200
                   333 58032 85835=
202103230900 AAXX 23094 67665 42480 60811 10250 20174 48561 70200 85532
                   333 58027 85625 82360 83080=
202103230600 AAXX 23064 67665 12480 61010 10207 20189 48552 60024 83532
                   333 10298 20/// 58028 83615 83360 85080=
202103230300 AAXX 23034 67665 42980 11304 10185 20178 48526 81030
                   333 58020 81360=
202103230000 AAXX 23004 67665 41/80 19902 10190 20182 48523 71300 81300
                   333 58013 819//=
202103222100 AAXX 22214 67665 42980 12704 10200 20184 48531 81030
                   333 58019 81360=
202103221800 AAXX 22184 67665 41760 59902 10207 20184 48518 71799 81930
                   333 58024 81950 83360
                   555 91018=
202103221500 AAXX 22154 67665 41760 71607 10229 20176 48501 76162 86240
                   333 58018 81948 86850 83459
                   555 91016=
202103221200 AAXX 22124 67665 42680 60508 10288 20166 48511 86200
                   333 58003 86835 555 91016=
202103220900 AAXX 22094 67665 42580 60609 10252 20184 48535 86500
                   333 58008 86625=
202103220600 AAXX 22064 67665 32480 61105 10208 20169 48525 85530
                   333 10292 20/// 58002 85615 82360=
202103211800 AAXX 21184 67665 42980 01502 10219 20189 48496
                   333 10292 20//0 59015=
202103211500 AAXX 21154 67665 42680 30908 10278 20164 48489 83200
                   333 59015 83845=
202103211200 AAXX 21124 67665 42680 50806 10286 20164 48518 85200
                   333 59004 85835=
202103210900 AAXX 21094 67665 42580 60710 10250 20174 48527 86530
                   333 59008 86625 81360
                   555 91019=
202103202100 AAXX 20214 67665 42980 01405 10181 20157 48509 70100
                   333 59015 91017=
202103201800 AAXX 20184 67665 42780 11103 10213 20167 48509 70200 81900
                   333 58002 81950 91017=
202103201500 AAXX 20154 67665 42680 31010 10278 20138 48504 70122 83200
                   333 58003 83845 91016=
202103200900 AAXX 20094 67665 42480 40809 10265 20164 48537 84200
                   333 59005 84818=
202103191500 AAXX 19154 67665 42780 40905 10279 20164 48502 84200
                   333 59006 84850 555 10293 91015=
202103191200 AAXX 19124 67665 42680 60304 10276 20132 48519 70301 86200
                   333 59001 86840 91017=
202103190900 AAXX 19094 67665 42680 30905 10259 20160 48541 70100 83130
                   333 58000 83835 81360 91020=
202103182100 AAXX 18214 67665 42980 29902 10198 20184 48525 70200 82030
                   333 58000 82360 91019=
202103181500 AAXX 18154 67665 42780 30705 10279 20164 48507 83202
                   333 59014 83850 82080
                   555 91016=
202103181200 AAXX 18124 67665 42680 50809 10266 20148 48519 85202
                   333 58005 85842 83080 91017=
202103180900 AAXX 18094 67665 42680 60707 10261 20168 48542 70121 85208
                   333 58001 85830 85280 91020=
202103180600 AAXX 18064 67665 32980 49901 10212 20182 48535 82032
                   333 10274 20//0 58005 82360 84080
                   555 00///=
202103180300 AAXX 18034 67665 42980 32704 10196 20179 48527 83030
                   333 58019 83360 555=
202103180000 AAXX 18004 67665 42980 22502 10195 20182 48517 82030
                   333 58009 82360 555 91018=
202103171800 AAXX 17184 67665 42980 21202 10210 20171 48512 82031
                   333 10274 58016 82360 81080=
202103171500 AAXX 17154 67665 42680 51305 10251 20176 48503 83031
                   333 58020 81945 83360 81080
                   555 10274=
202103171200 AAXX 17124 67665 42680 63505 10241 20172 48521 84232
                   333 59017 84830 85360 82080=
202103170900 AAXX 17094 67665 42380 60703 10265 20184 48541 86230
                   333 58013 86815 81360=
202103170600 AAXX 17064 67665 32380 39902 10211 20188 48530 81631
                   333 10286 20/// 58007 81707 83360 81080=
202103170300 AAXX 17034 67665 42980 29901 10171 20165 48504 82030
                   333 59003 82360=
202103162100 AAXX 16214 67665 42980 31404 10193 20178 48515 83030
                   333 58002 83360=
202103161800 AAXX 16184 67665 42980 31603 10212 20174 48497 83030
                   333 59004 83360 555 10286 91016=
202103161500 AAXX 16154 67665 42780 50813 10264 20174 48485 85230
                   333 59008 85850 82360
                   555 91014=
202103161200 AAXX 16124 67665 42680 60812 10265 20168 48508 86200
                   333 58001 86835 555 91016=
202103160900 AAXX 16094 67665 42580 60713 10248 20172 48527 86500
                   333 59002 86625=
202103160400 AAXX 16044 67665 32580 21306 10191 20185 48520 70200 82500
                   333 0 10270/// 20/// 58001 820620 Q1019=
202103151800 AAXX 15184 67665 42/80 21205 10213 20183 48500 81330
                   333 10270 20//0 59011 819// 82360=
202103151500 AAXX 15154 67665 42680 41509 10266 20183 48504 81300
                   333 59016 81940 84840=
202103151200 AAXX 15124 67665 42680 50710 10260 20168 48505 85200
                   333 59019 85830=
202103150900 AAXX 15094 67665 42480 70711 10235 20174 48528 87530
                   333 59016 87615 84360
                   555 91019=
202103150600 AAXX 15064 67665 32380 80912 10202 20187 48521 8763/
                   333 10252 20//0 59017 87709 83360
                   555 00/// 91019=
202103150300 AAXX 15034 67665 42980 41105 10183 20175 48505 84030
                   333 59021 84360=
202103150000 AAXX 15004 67665 42/80 51204 10188 20180 48508 85030
                   333 59011 819// 85360=
202103142100 AAXX 14214 67665 41780 11305 10185 20170 48513 71300 81030
                   333 59021 81957 81360=
202103141800 AAXX 14184 67665 41680 21303 10202 20171 48510 71300 81931
                   333 59013 81950 82360 91017=
202103140900 AAXX 14094 67665 42580 60918 10228 20176 48542 86530
                   333 59009 86520 83360=
202103131800 AAXX 13184 67665 42980 21106 10211 20179 48524 70200 80002
                   333 58015 82080 91019=
202103131500 AAXX 13154 67665 42680 21110 10254 20178 48519 70112 82202
                   333 58023 82845 82080 91018=
202103130600 AAXX 13064 67665 32380 81006 10198 20185 48535 70322 887//
                   333 10266 20//0 58032 88708
                   555 00///=
202103130300 AAXX 13034 67665 42380 61007 10192 20185 48519 84630
                   333 58026 84706 85360=
202103130000 AAXX 13004 67665 42980 11002 10187 20176 48519 81030
                   333 58031 81360=
202103122100 AAXX 12214 67665 41/80 21403 10193 20176 48527 71300 81030
                   333 58022 819// 81360=
202103120600 AAXX 12064 67665 32980 30904 10//0 20//0 48/// 83030
                   333 10//0 20//0 5//// 83360 91017=
202103111200 AAXX 11124 67665 42680 6//// 10//0 20//0 48/// 70222 86200
                   333 5//// 86835=
202103110900 AAXX 11094 67665 42580 6//// 10//0 20//0 48/// 70301 86501
                   333 5//// 86620 9////=
202103110300 AAXX 11034 67665 41/02 ///// 10//0 20//0 48/// 74300
                   333 5////=
202103102100 AAXX 10214 67665 42980 0//// 10//0 20//0 48///
                   333 5////=
202103101800 AAXX 10184 67665 42780 5//// 10//0 20//0 48/// 81932
                   333 5//// 81950 82360 85080=
202103101500 AAXX 10154 67665 41660 6//// 10//0 20//0 48/// 72999 81932
                   333 5//// 81940 84845 85459 83080=
202103101200 AAXX 10124 67665 42680 6//// 10//0 20//0 48/// 85232
                   333 5//// 85830 84360 82080=
202103100900 AAXX 10094 67665 NIL=
202103100600 AAXX 10064 67665 12460 70604 10/// 20/// 48/// 8567/
                   333 10/// 20/// 5//// 86709 84360=
202103091200 AAXX 09124 67665 42680 60508 10266 20148 48512 81330
                   333 58007 81932 84835 83360=
202103080900 AAXX 08094 67665 42480 40507 10247 20700 48527 84209
                   333 59015 84818 82075=
202103080600 AAXX 08064 67665 32980 31004 10211 20184 48525 82630
                   333 10256 2//// 59006 82707 83360 91019=
202103071800 AAXX 07184 67665 41780 41103 10203 20172 48513 71322 81932
                   333 10259 59008 81950 82360 83080 91018=
202103071200 AAXX 07124 67665 42680 61213 10245 20176 48515 70322 8653/
                   333 59001 86630 85360 91017=
202103070900 AAXX 07094 67665 42560 60814 10229 20178 48539 70125 865//
                   333 58005 86620 91020=
202103070600 AAXX 07064 67665 11359 80912 10197 20188 48529 75852 887//
                   333 10263 20//0 58009 88707
                   555 00///=
202103070300 AAXX 07034 67665 42360 71503 10185 20177 48512 70322 8463/
                   333 58005 84706 87360=
202103070000 AAXX 07004 67665 42980 61303 10195 20186 48508 86030
                   333 58009 86360=
202103062100 AAXX 06214 67665 42/80 51206 10200 20185 48526 85030
                   333 58008 819// 85360=
202103061800 AAXX 06184 67665 42980 41107 10207 20183 48521 84030
                   333 10263 20//0 58010 84360 91010=
202103060600 AAXX 06064 67665 12980 51106 10207 48522 69984 85032
                   333 10263 20//0 58010 85360 81080
                   555 00/// 91019=
202103060300 AAXX 06034 67665 42980 41803 10183 20178 48506 83032
                   333 58013 83360 82080
                   555 91017=
202103060000 AAXX 06004 67665 42980 49901 10185 20180 48508 82032
                   333 58007 82360 83080
                   555 91017=
202103052100 AAXX 05214 67665 42980 39902 10193 20184 48516 80002
                   333 58009 83080 555 91018=
202103051800 AAXX 05184 67665 42780 31204 10207 20187 48498 81902
                   333 58004 81950 83080
                   555 91016=
202103051500 AAXX 05154 67665 42680 71402 10238 20184 48448 81938
                   333 58008 81940 84360 86280=
202103051200 AAXX 05124 67665 41560 70705 10217 20195 48504 78022 8427/
                   333 58011 81928 84830 87459=
202103050600 AAXX 05064 67665 32980 59901 10209 20186 48511 85030
                   333 10277 20/// 59002 85360
                   555 00/// BB/// CC/// DD/// Q1018.0=
202103050300 AAXX 05034 67665 42980 33002 10187 20181 48494 83030
                   333 59010 83360=
202103042100 AAXX 04214 67665 42/80 60603 10203 20189 48508 82330
                   333 59010 819// 86360=
202103041500 AAXX 04154 67665 42680 61303 10239 20190 48481 81932
                   333 59012 81945 84850 83360 84080
                   555 91014=
202103041200 AAXX 04124 67665 41660 62007 10233 20171 48494 71798 81930
                   333 59017 81932 85835 84360
                   555 91015=
202103040900 AAXX 04094 67665 42580 61504 10258 20174 48515 70222 86200
                   333 59021 86825=
202103040600 AAXX 04064 67665 32480 21003 10209 20188 48514 70300 81531
                   333 10288 20/// 59015 81615 82360 82080 91018=
202103031800 AAXX 03184 67665 42980 31206 10211 20188 48504 83030
                   333 10288 20//0 59011 83360=
202103031500 AAXX 03154 67665 42680 39902 10274 20167 48496 83230
                   333 59010 83840 81360=
202103031200 AAXX 03124 67665 42680 63505 10256 20163 48514 86200
                   333 58000 86832=
202103030900 AAXX 03094 67665 42569 60403 10229 20174 48532 85530
                   333 58004 85620 83360
                   555 91020=
202103030000 AAXX 03004 67665 42980 11303 10174 20166 48512 70200 80001
                   333 59002 81080 91018=
202103022100 AAXX 02214 67665 42980 29903 10178 20170 48519 70200 81031
                   333 59001 81360 82080 91019=
202103021800 AAXX 02184 67665 42680 20905 10198 20182 48524 70120 81331
                   333 58003 81950 82360 82080 91018=
202103021500 AAXX 02154 67665 42680 40705 10252 20170 48503 70122 83231
                   333 58000 83845 83360 81080 91016=
202103021200 AAXX 02124 67665 42680 50809 10238 20181 48512 70122 85230
                   333 58003 85830 84360 91017=
202103020900 AAXX 02094 67665 42480 70914 10216 20169 48527 875//
                   333 58002 87615=
202103020600 AAXX 02064 67665 31380 80909 10191 20184 48526 60594 70200 8477/
                   333 10230 20/// 58011 84707 88454 91019=
202103011200 AAXX 01124 67665 42480 80809 10210 20179 48507 70362 884//
                   333 58016 88618 91017=
202103010900 AAXX 01094 67665 42460 71013 10203 20187 48523 70266 874//
                   333 58020 87610 91019=
202103010600 AAXX 01064 67665 11358 80904 10172 20172 48514 60094 76162 8677/
                   333 10250 20//0 58017 86708 88458=
202103010000 AAXX 01004 67665 42360 80907 10191 20184 48504 70222 886//
                   333 58012 88704=

################################################################################
#  SYNOPS from 67666, Lusaka City Airport (Zambia) | 15-25-00S | 028-28-00E | 1280 m
################################################################################
202103291200 AAXX 29124 67666 42680 61012 10240 20148 48534 70222 85230
                   333 58028 81945 84845 81360 91020=
202103290900 AAXX 29094 67666 42680 62712 10229 20153 48551 70322
                   333 58022 81930 84830 81360 91022=
202103261200 AAXX 26124 67666 NIL=
202103240900 AAXX 24094 67666 42480 60910 10239 20162 48544 86200
                   333 59007 86815 91021=
202103240600 AAXX 24064 67666 32380 80914 10190 20172 48538 886//
                   333 10282 20180 59003 88704 91021=
202103231200 AAXX 23124 67666 42680 51008 10256 20162 48524 85200
                   333 58020 85835 91019=
202103230900 AAXX 23094 67666 NIL=
202103230600 AAXX 23064 67666 12380 70915 10191 20176 48528 69914 8367/
                   333 10286 20182 58027 83706 87460 91021=
202103220600 AAXX 22064 67666 32480 30410 10210 20180 48511 83531
                   333 10281 20190 58006 83515 82360 82080 91018=
202103170900 AAXX 17094 67666 42580 62709 10240 20165 48530 81930
                   333 58014 81920 85822 81360 91019=
202103170600 AAXX 17064 67666 32480 41011 10210 20180 48523 70322 81530
                   333 10278 20180 58011 81610 82360 91019=
202103160600 AAXX 16064 67666 32480 31013 10200 20168 48511 70322 82530
                   333 10272 20180 59007 82610 81360 91017=
202103151200 AAXX 15124 67666 42580 60912 10258 20170 48500 70222 86200
                   333 59016 86820 91016=
202103150900 AAXX 15094 67666 42480 71013 10228 20165 48519 70222 875//
                   333 59016 87610 91018=
202103150600 AAXX 15064 67666 32380 80913 10182 20175 48511 70322 886//
                   333 10252 20180 59017 88706 91018=
202103100900 AAXX 10094 67666 NIL=
202103091200 AAXX 09124 67666 42580 40908 10266 20146 48495 84200
                   333 59005 84830 91016=
202103090600 AAXX 09064 67666 32380 60904 10189 20178 48509 85632
                   333 10263 20160 58007 86708 82360 83080 91018=
202103020600 AAXX 02064 67666 12380 82911 10180 20163 48517 60054 70300 886//
                   333 10218 2//// 58011 88705 91018=
202103011200 AAXX 01124 67666 NIL=

################################################################################
#  SYNOPS from 67667, Mount Makulu (Zambia) | 15-33S | 028-15E | 1213 m
################################################################################
202103261200 AAXX 26124 67667 NIL=
202103240600 AAXX 24064 67667 32580 30909 10218 20178 48599 82502
                   333 10295 20175 58000 82625 82080=
202103231200 AAXX 23124 67667 42680 50903 10272 20182 48584 85202
                   333 5//// 85835 82080=
202103230900 AAXX 23094 67667 42680 61007 10256 20170 48610 84202
                   333 58029 84830 85080=
202103230600 AAXX 23064 67667 32580 70907 10220 20178 48599 82108
                   333 10308 20178 58025 82825 87280=
202103221200 AAXX 22124 67667 42680 50903 10282 20210 48556 84202
                   333 5//// 84835 83080=
202103220900 AAXX 22094 67667 42680 50907 10272 20190 48584 85202
                   333 5//// 85830 82080=
202103220600 AAXX 22064 67667 32580 30904 10230 20195 48576 82102
                   333 10310 20160 58000 82825 82080=
202103170600 AAXX 17064 67667 32980 40901 10222 20192 48578 80001
                   333 10308 20158 58010 81080=
202103160600 AAXX 16064 67667 32580 51904 10294 20194 48568 85500
                   333 10315 20178 58001 85625=
202103150600 AAXX 15064 67667 32580 70901 10208 20184 48569 87500
                   333 10280 20170 58014 87625=
202103100900 AAXX 10094 67667 NIL=
202103091200 AAXX 09124 67667 42680 40901 10274 20182 48555 84201
                   333 5//// 84835 81080=
202103090900 AAXX 09094 67667 42680 50906 10252 20185 48573 85202
                   333 5//// 85830 82080=
202103090600 AAXX 09064 67667 32580 33602 10210 20188 48563 82102
                   333 10290 20140 59008 82825 83080=
202103020600 AAXX 02064 67667 12580 70901 10185 20180 48575 60034 87500
                   333 10255 20166 58012 87625=
202103011200 AAXX 01124 67667 NIL=

################################################################################
#  SYNOPS from 67673, Petauke (Zambia) | 14-15S | 031-17E | 1035 m
################################################################################
202103301200 AAXX 30124 67673 42680 61103 10238 20175 48/// 82130
                   333 5//// 82828 84360=
202103261200 AAXX 26124 67673 NIL=
202103231200 AAXX 23124 67673 42680 51001 10260 20195 48/// 84230
                   333 5//// 84835 81360=
202103230900 AAXX 23094 67673 42680 51102 10260 20200 48/// 84230
                   333 5//// 84833 81360=
202103230600 AAXX 23064 67673 12680 30901 10224 20200 48/// 60044 81130
                   333 10292 2//// 5//// 81827 82360=
202103221200 AAXX 22124 67673 41680 51802 10282 20210 48/// 71792 81931
                   333 5//// 81929 84830 81360 81080=
202103220600 AAXX 22064 67673 32580 41802 10236 20212 48/// 82431
                   333 10310 2//// 5//// 81825 81626 81360 81080=
202103170900 AAXX 17094 67673 42684 50901 10280 20192 48/// 85101
                   333 5//// 85832 81080=
202103170600 AAXX 17064 67673 12584 30902 10234 20200 48/// 69924 81130
                   333 10290 2//// 5//// 81826 83360=
202103151200 AAXX 15124 67673 42680 51801 10274 20198 48/// 84200
                   333 5//// 84833 81360=
202103150600 AAXX 15064 67673 32680 51801 10238 2//// 82130
                   333 10278 2//// 5//// 82827 84360=
202103101200 AAXX 10124 67673 42584 73601 10224 20205 48/// 8423/
                   333 5//// 84830 87360=
202103100900 AAXX 10094 67673 NIL=
202103091200 AAXX 09124 67673 42682 62701 10270 20196 48/// 86231
                   333 5//// 83835 84360 82080=
202103020600 AAXX 02064 67673 12680 73601 10196 20193 48/// 60034 875//
                   333 10260 2//// 5//// 82822 85623=
202103011200 AAXX 01124 67673 41580 70000 10224 20190 48/// 76022 875//
                   333 5//// 87630=

################################################################################
#  SYNOPS from 67731, Senanga (Zambia) | 16-06S | 023-16E | 1027 m
################################################################################
202103290900 AAXX 29094 67731 42980 128// 10276 20160 48/// 70300 80008
                   333 58005 81080=
202103261200 AAXX 26124 67731 NIL=
202103240600 AAXX 24064 67731 12980 018// 10223 20193 48/// 60094
                   333 10281 20195 58018
                   555 00061=
202103231200 AAXX 23124 67731 41559 813// 10266 20212 48/// 76666 81902
                   333 58002 81925 84829 88080=
202103230900 AAXX 23094 67731 42580 709// 10260 20197 48/// 70122 83102
                   333 58005 83825 84080=
202103230600 AAXX 23064 67731 12480 413// 10229 20199 48/// 60034 82138
                   333 10308 20191 58003 82815 83360 84280
                   555 00040=
202103220600 AAXX 22064 67731 12480 503// 10220 20200 48/// 60324 70222 83102
                   333 10315 20197 58004 83815 83080
                   555 00041=
202103170900 AAXX 17094 67731 42680 506// 10260 20201 48/// 83201
                   333 58014 83830 82080=
202103170600 AAXX 17064 67731 12580 610// 10225 20205 48/// 60224 70322 82272
                   333 10327 20190 5//// 82825 83360 84080
                   555 00062=
202103160600 AAXX 16064 67731 12980 010// 10250 20193 48/// 60014 70200
                   333 10325 20201 59004
                   555 00097=
202103151200 AAXX 15124 67731 42680 518// 10307 20181 48/// 70322 84132
                   333 59031 84833 81363 83080=
202103150600 AAXX 15064 67731 32980 431// 10230 20172 48/// 70222 84030
                   333 10322 20188 59033 84360
                   555 00078=
202103100900 AAXX 10094 67731 NIL=
202103090600 AAXX 09064 67731 32980 118// 10242 20196 48/// 70200 81010
                   333 10314 20185 59003 81460
                   555 00098=
202103080900 AAXX 08094 67731 42580 327// 10282 20207 48/// 70300 82201
                   333 59020 82827 81080=
202103080600 AAXX 08064 67731 32980 321// 10234 20192 48/// 70200 82021
                   333 10310 20190 59008 82460 81080=
202103020900 AAXX 02094 67731 41478 824// 10241 20209 48/// 75550 83178
                   333 58016 83820 85761 86280=
202103020600 AAXX 02064 67731 12480 809// 10206 20164 48/// 60014 70222 83578
                   333 10237 20161 58001 83611 85460 88280=
202103011200 AAXX 01124 67731 NIL=

################################################################################
#  SYNOPS from 67741, Sesheke (Zambia) | 17-28S | 024-18E | 949 m
################################################################################
202103301200 AAXX 30124 67741 42680 51102 10288 20171 48533 83130
                   333 5//// 82850 83362=
202103261200 AAXX 26124 67741 NIL=
202103251200 AAXX 25124 67741 42680 51201 10314 20189 48507 85130
                   333 59012 85850 81362=
202103240600 AAXX 24064 67741 32980 30901 10231 20195 48540 83030
                   333 10326 20180 58011 83362=
202103230900 AAXX 23094 67741 NIL=
202103230600 AAXX 23064 67741 32980 30901 10236 20199 48533 83030
                   333 10321 20174 58020 83362=
202103221200 AAXX 22124 67741 42680 31201 10318 20196 48509 83130
                   333 5//// 83850 81362=
202103220600 AAXX 22064 67741 32980 60000 10230 20189 48512 86030
                   333 10324 20192 58009 86362=
202103170900 AAXX 17094 67741 42680 50000 10278 20194 48521 81130
                   333 5//// 81850 85362=
202103170600 AAXX 17064 67741 32980 50000 10220 20193 48519 85030
                   333 10311 20184 58013 85362=
202103160600 AAXX 16064 67741 32980 00901 10228 20198 48502
                   333 10309 20160 59005=
202103150600 AAXX 15064 67741 32980 30901 10226 20187 48512 83030
                   333 10309 20179 5//// 83362=
202103100900 AAXX 10094 67741 NIL=
202103090600 AAXX 09064 67741 32980 10000 10234 20189 48512 80001
                   333 10308 20160 58001 81080=
202103011200 AAXX 01124 67741 NIL=

################################################################################
#  SYNOPS from 67743, Livingstone (Zambia) | 17-49S | 025-49E | 985 m
################################################################################
202103261200 AAXX 26124 67743 NIL=
202103230900 AAXX 23094 67743 NIL=
202103220600 AAXX 22064 67743 32980 21007 10234 20192 48519 81031
                   333 10320 20171 58006 81359 82079 91017=
202103170600 AAXX 17064 67743 32480 60708 10236 20156 48521 70220 81531
                   333 10330 20163 58070 81615 84360 82080 91017=
202103150900 AAXX 15094 67743 42680 30709 10281 20183 48521 70300 82130
                   333 59019 82840 81060 91017=
202103150600 AAXX 15064 67743 32980 10807 10231 20186 48512 81030
                   333 10330 20170 59020 81359 91017=
202103100900 AAXX 10094 67743 NIL=
202103090600 AAXX 09064 67743 32980 11803 10223 20163 48518 70200 80001
                   333 10315 20155 58007 81080 91017=
202103020900 AAXX 02094 67743 42580 71210 10210 20167 48526 8457/
                   333 58002 84620 87359 91019=
202103011200 AAXX 01124 67743 NIL=

################################################################################
#  SYNOPS from 67751, Magoye (Zambia) | 16-00S | 027-36E | 1018 m
################################################################################
202103290900 AAXX 29094 67751 42680 50503 10245 20163 48/// 85200
                   333 5//// 85834=
202103261200 AAXX 26124 67751 NIL=
202103230900 AAXX 23094 67751 NIL=
202103100900 AAXX 10094 67751 NIL=
202103091200 AAXX 09124 67751 42680 51602 10271 20198 48/// 85201
                   333 5//// 85341 81080=
202103090600 AAXX 09064 67751 32980 10000 10215 20181 48/// 80001
                   333 1//// 20163 5//// 81080=
202103080600 AAXX 08064 67751 12980 70000 10219 20192 48/// 69904 87070
                   333 1//// 20189 5//// 87360=
202103011200 AAXX 01124 67751 NIL=

################################################################################
#  SYNOPS from 67753, Choma (Zambia) | 16-50S | 027-04E | 1213 m
################################################################################
202103261200 AAXX 26124 67753 NIL=
202103240600 AAXX 24064 67753 11380 30000 10194 20190 48548 69914 82630
                   333 10264 20170 58003 82709 81360=
202103230900 AAXX 23094 67753 NIL=
202103230600 AAXX 23064 67753 11975 82603 10184 20180 48537 60024 76168 8803/
                   333 10279 20166 58028 88360=
202103220600 AAXX 22064 67753 32680 40000 10201 20180 48510 82131
                   333 10281 20156 58001 82832 81360 81080=
202103170600 AAXX 17064 67753 31580 10000 10217 20176 48521 70300 81130
                   333 10279 20156 58009 81820 81360=
202103160600 AAXX 16064 67753 32980 00000 10204 20183 48510
                   333 10274 20150 58010=
202103150600 AAXX 15064 67753 32380 80000 10190 20179 48499 886//
                   333 10276 20150 59028 88707=
202103100900 AAXX 10094 67753 NIL=
202103090600 AAXX 09064 67753 31980 10000 10197 20166 48510 70100 81030
                   333 10271 20146 58001 81360=
202103080600 AAXX 08064 67753 31480 21202 10206 20186 48511 70211 81101
                   333 10266 20156 59012 81818 81080=
202103020600 AAXX 02064 67753 11580 80000 10172 20170 48517 60114 76065 885//
                   333 10195 20166 58012 88620=
202103011200 AAXX 01124 67753 NIL=

################################################################################
#  SYNOPS from 67855, Lupaki (Zambia) | 17-03-00S | 024-46-00E | 1000 m
################################################################################
202103311500 AAXX 31154 67855 42780 10301 10299 20188 3//// 48/// 81100
                   333 5//// 81840=
202103310900 AAXX 31094 67855 42680 21002 10258 20181 3//// 48/// 82102
                   333 5//// 82835=
202103300900 AAXX 30094 67855 42980 10605 10249 20120 3//// 48/// 80001
                   333 5//// 81080=
202103240900 AAXX 24094 67855 42685 30904 10252 20177 3//// 48/// 83500
                   333 5//// 83630=
202103220900 AAXX 22094 67855 42580 10903 10286 20191 3//// 48/// 81100
                   333 5//// 81830=
202103210900 AAXX 21094 67855 41670 11005 10287 2//// 3//// 48/// 70500 81100
                   333 5//// 81840=
202103200900 AAXX 20094 67855 42680 33501 10278 20194 3//// 48/// 83100
                   333 5//// 83835=
202103180900 AAXX 18094 67855 42980 53201 10249 20191 3//// 48/// 85030
                   333 5//// 85360=
202103171500 AAXX 17154 67855 41780 63602 10298 20194 3//// 48/// 71792 82203
                   333 5//// 81950 86080=
202103170900 AAXX 17094 67855 42680 53402 10278 20182 3//// 48/// 85200
                   333 5//// 85830=
202103160900 AAXX 16094 67855 42680 30703 10281 20188 3//// 48/// 83200
                   333 5//// 83830=
202103151500 AAXX 15154 67855 41765 53301 10303 20184 3//// 48/// 79298 83203
                   333 5//// 81930 85080=
202103150900 AAXX 15094 67855 42580 30902 10278 20177 3//// 48/// 83100
                   333 5//// 83830=
202103120900 AAXX 12094 67855 42580 20302 10297 20182 3//// 48/// 82100
                   333 5//// 82825=
202103100900 AAXX 10094 67855 42580 12801 10294 20183 3//// 48/// 81100
                   333 5//// 81825=
202103091500 AAXX 09154 67855 42780 22902 10302 20142 3//// 48/// 82100
                   333 5//// 82850=
202103090900 AAXX 09094 67855 42580 23401 10278 20163 3//// 48/// 82100
                   333 5//// 82825=
202103080900 AAXX 08094 67855 42580 23201 10283 20159 3//// 48/// 81102
                   333 5//// 81825=
202103061500 AAXX 06154 67855 42680 21901 10299 20144 3//// 48/// 82100
                   333 5//// 82830=
202103060900 AAXX 06094 67855 42580 10702 10275 20153 3//// 48/// 81100
                   333 5//// 81825=
202103051500 AAXX 05154 67855 42980 01902 10306 20102 3//// 48///
                   333 5////=
202103041500 AAXX 04154 67855 42680 12302 10289 20146 3//// 48/// 81100
                   333 5//// 81830=
202103020900 AAXX 02094 67855 41470 81702 10220 20167 3//// 48/// 70252 8217/
                   333 5//// 82810 87458=
202103011500 AAXX 01154 67855 41525 80702 10198 20173 3//// 48/// 75052 885//
                   333 5//// 88625=
202103010900 AAXX 01094 67855 41580 81302 10190 20156 3//// 48/// 70252 8777/
                   333 5//// 87720=