################################################################################
# Query made at 04/14/2022 06:18:23 UTC
# Country like Zamb*
# Time interval: from 02/01/2014 05:30  to 03/03/2014 05:30  UTC
################################################################################

################################################################################
#  SYNOPS from 67403, Kawambwa (Zambia) | 09-48S | 029-05E | 1323 m
################################################################################
201403030300 AAXX 03034 67403 NIL=
201403030000 AAXX 03004 67403 NIL=
201403022100 AAXX 02214 67403 NIL=
201403021800 AAXX 02184 67403 NIL=
201403021500 AAXX 02154 67403 NIL=
201403021200 AAXX 02124 67403 NIL=
201403020900 AAXX 02094 67403 NIL=
201403020600 AAXX 02064 67403 NIL=
201403020300 AAXX 02034 67403 NIL=
201403020000 AAXX 02004 67403 NIL=
201403012100 AAXX 01214 67403 NIL=
201403011800 AAXX 01184 67403 NIL=
201403011500 AAXX 01154 67403 NIL=
201403011200 AAXX 01121 67403 NIL=
201403010900 AAXX 01094 67403 NIL=
201403010600 AAXX 01064 67403 NIL=
201403010000 AAXX 01004 67403 NIL=
201402282100 AAXX 28214 67403 NIL=
201402281800 AAXX 28184 67403 NIL=
201402281500 AAXX 28154 67403 NIL=
201402281200 AAXX 28124 67403 NIL=
201402280900 AAXX 28094 67403 NIL=
201402280600 AAXX 28064 67403 NIL=
201402280300 AAXX 28034 67403 NIL=
201402280000 AAXX 28004 67403 NIL=
201402272100 AAXX 27214 67403 NIL=
201402271800 AAXX 27184 67403 NIL=
201402271500 AAXX 27154 67403 NIL=
201402271200 AAXX 27124 67403 NIL=
201402270900 AAXX 27094 67403 NIL=
201402270600 AAXX 27064 67403 NIL=
201402262100 AAXX 26214 67403 NIL=
201402261500 AAXX 26154 67403 NIL=
201402261200 AAXX 26124 67403 NIL=
201402260900 AAXX 26094 67403 NIL=
201402260300 AAXX 26034 67403 NIL=
201402252100 AAXX 25214 67403 NIL=
201402251500 AAXX 25154 67403 NIL=
201402251200 AAXX 25124 67403 NIL=
201402250900 AAXX 25094 67403 NIL=
201402250600 AAXX 25064 67403 11380 80000 10197 20193 48501 60134 72164 8112/
                   333 10280 20/// 58007 81808 88462=
201402250300 AAXX 25034 67403 NIL=
201402242100 AAXX 24214 67403 NIL=
201402241800 AAXX 24184 67403 NIL=
201402241500 AAXX 24154 67403 NIL=
201402241200 AAXX 24124 67403 NIL=
201402240900 AAXX 24094 67403 NIL=
201402240600 AAXX 24064 67403 12480 62701 10224 20181 48493 60034 81130
                   333 10282 20/// 59002 81813 86362=
201402240300 AAXX 24034 67403 NIL=
201402240000 AAXX 24004 67403 NIL=
201402232100 AAXX 23214 67403 NIL=
201402231500 AAXX 23154 67403 NIL=
201402230900 AAXX 23094 67403 NIL=
201402230600 AAXX 23064 67403 NIL=
201402230300 AAXX 23034 67403 NIL=
201402221800 AAXX 22184 67403 NIL=
201402221500 AAXX 22154 67403 NIL=
201402220900 AAXX 22094 67403 NIL=
201402220600 AAXX 22064 67403 NIL=
201402211500 AAXX 21154 67403 NIL=
201402211200 AAXX 21124 67403 NIL=
201402210900 AAXX 21094 67403 NIL=
201402210600 AAXX 21064 67403 NIL=
201402202100 AAXX 20214 67403 NIL=
201402201200 AAXX 20124 67403 NIL=
201402200900 AAXX 20094 67403 NIL=
201402200600 AAXX 20064 67403 NIL=
201402200300 AAXX 20034 67403 NIL=
201402192100 AAXX 19214 67403 NIL=
201402191800 AAXX 19184 67403 NIL=
201402191200 AAXX 19124 67403 NIL=
201402190900 AAXX 19094 67403 NIL=
201402190600 AAXX 19064 67403 NIL=
201402190300 AAXX 19034 67403 NIL=
201402190000 AAXX 19004 67403 NIL=
201402181500 AAXX 18154 67403 NIL=
201402181200 AAXX 18124 67403 NIL=
201402180900 AAXX 18094 67403 NIL=
201402180600 AAXX 18064 67403 NIL=
201402180300 AAXX 18034 67403 NIL=
201402180000 AAXX 18004 67403 NIL=
201402172100 AAXX 17214 67403 NIL=
201402171500 AAXX 17154 67403 NIL=
201402171200 AAXX 17124 67403 NIL=
201402170900 AAXX 17094 67403 NIL=
201402170600 AAXX 17064 67403 NIL=
201402161800 AAXX 16184 67403 NIL=
201402161500 AAXX 16154 67403 NIL=
201402161200 AAXX 16124 67403 NIL=
201402160900 AAXX 16094 67403 NIL=
201402160600 AAXX 16064 67403 NIL=
201402160300 AAXX 16034 67403 NIL=
201402152100 AAXX 15214 67403 NIL=
201402151800 AAXX 15184 67403 NIL=
201402151500 AAXX 15154 67403 NIL=
201402151200 AAXX 15124 67403 NIL=
201402150900 AAXX 15094 67403 NIL=
201402150600 AAXX 15064 67403 NIL=
201402150300 AAXX 15034 67403 NIL=
201402142100 AAXX 14214 67403 NIL=
201402141200 AAXX 14120 67403 NIL=
201402140900 AAXX 14094 67403 NIL=
201402140600 AAXX 14064 67403 12980 70000 10197 20192 48490 60094 85032
                   333 10260 20/// 59001 85362 82080=
201402140300 AAXX 14034 67403 NIL=
201402132100 AAXX 13214 67403 NIL=
201402131200 AAXX 13124 67403 NIL=
201402130900 AAXX 13094 67403 NIL=
201402130600 AAXX 13064 67403 11580 80000 10195 20190 48490 60104 72162 8357/
                   333 10255 20/// 59003 83620 86462=
201402130300 AAXX 13034 67403 NIL=
201402130000 AAXX 13004 67403 NIL=
201402121800 AAXX 12184 67403 NIL=
201402121500 AAXX 12154 67403 NIL=
201402121200 AAXX 12124 67403 NIL=
201402120900 AAXX 12094 67403 NIL=
201402120600 AAXX 12064 67403 12580 70000 10180 20180 60044 82532
                   333 10252 20/// 59004 82620 86362 82080=
201402120000 AAXX 12004 67403 NIL=
201402112100 AAXX 11214 67403 NIL=
201402111800 AAXX 11184 67403 NIL=
201402111200 AAXX 11124 67403 NIL=
201402110900 AAXX 11094 67403 NIL=
201402110600 AAXX 11064 67403 11580 80000 10174 20170 48499 60044 72162 8457/
                   333 10264 20/// 58010 84620 86462=
201402102100 AAXX 10214 67403 NIL=
201402101800 AAXX 10184 67403 NIL=
201402101500 AAXX 10154 67403 NIL=
201402101200 AAXX 10124 67403 NIL=
201402100900 AAXX 10094 67403 NIL=
201402100600 AAXX 10060 67403 NIL=
201402092100 AAXX 09214 67403 NIL=
201402091800 AAXX 09184 67403 NIL=
201402091500 AAXX 09154 67403 NIL=
201402091200 AAXX 09124 67403 NIL=
201402090900 AAXX 09094 67403 NIL=
201402090600 AAXX 09064 67403 NIL=
201402082100 AAXX 08214 67403 NIL=
201402081800 AAXX 08184 67403 NIL=
201402081500 AAXX 08154 67403 NIL=
201402081200 AAXX 08124 67403 NIL=
201402080900 AAXX 08094 67403 NIL=
201402080600 AAXX 08064 67403 NIL=
201402080300 AAXX 08034 67403 NIL=
201402080000 AAXX 08004 67403 NIL=
201402071800 AAXX 07184 67403 NIL=
201402071500 AAXX 07154 67403 NIL=
201402071200 AAXX 07124 67403 NIL=
201402070900 AAXX 07094 67403 NIL=
201402070600 AAXX 07064 67403 12580 82702 10182 20179 48500 60104 8257/
                   333 10285 20/// 58015 82620 87462=
201402070300 AAXX 07034 67403 NIL=
201402070000 AAXX 07004 67403 NIL=
201402062100 AAXX 06214 67403 NIL=
201402061800 AAXX 06184 67403 NIL=
201402061500 AAXX 06154 67403 NIL=
201402061200 AAXX 06124 67403 NIL=
201402060900 AAXX 06094 67403 NIL=
201402060600 AAXX 06064 67403 NIL=
201402060300 AAXX 06034 67403 NIL=
201402060000 AAXX 06004 67403 NIL=
201402052100 AAXX 05214 67403 NIL=
201402051800 AAXX 05184 67403 NIL=
201402051500 AAXX 05154 67403 NIL=
201402051200 AAXX 05124 67403 NIL=
201402050900 AAXX 05094 67403 NIL=
201402050600 AAXX 05064 67403 12980 70000 10192 20186 48490 60544 85038
                   333 10245 20/// 59004 85362 86280=
201402050300 AAXX 05034 67403 NIL=
201402041800 AAXX 04184 67403 NIL=
201402041500 AAXX 04154 67403 NIL=
201402041200 AAXX 04124 67403 NIL=
201402040900 AAXX 04094 67403 NIL=
201402040600 AAXX 04064 67403 12980 80000 10200 20192 48491 60324 8807/
                   333 10272 20/// 58007 88462=
201402040300 AAXX 04034 67403 NIL=
201402032100 AAXX 03214 67403 NIL=
201402031800 AAXX 03184 67403 NIL=
201402031500 AAXX 03154 67403 NIL=
201402031200 AAXX 03124 67403 NIL=
201402030900 AAXX 03094 67403 NIL=
201402030600 AAXX 03064 67403 12980 50000 10196 20177 48490 60044 85030
                   333 10290 20/// 59003 85362=
201402021800 AAXX 02184 67403 NIL=
201402021500 AAXX 02154 67403 NIL=
201402021200 AAXX 02124 67403 NIL=
201402020900 AAXX 02094 67403 NIL=
201402020600 AAXX 02064 67403 NIL=
201402020300 AAXX 02034 67403 NIL=
201402012100 AAXX 01214 67403 NIL=
201402011800 AAXX 01184 67403 NIL=
201402011500 AAXX 01154 67403 NIL=
201402011200 AAXX 01124 67403 NIL=
201402010900 AAXX 01094 67403 NIL=
201402010600 AAXX 01064 67403 NIL=

################################################################################
#  SYNOPS from 67413, Mbala (Zambia) | 08-51S | 031-20E | 1673 m
################################################################################
201403030300 AAXX 03034 67413 NIL=
201403030000 AAXX 03004 67413 NIL=
201403022100 AAXX 02214 67413 NIL=
201403021800 AAXX 02184 67413 NIL=
201403021500 AAXX 02154 67413 NIL=
201403021200 AAXX 02124 67413 NIL=
201403020900 AAXX 02094 67413 NIL=
201403020600 AAXX 02064 67413 NIL=
201403020300 AAXX 02034 67413 NIL=
201403020000 AAXX 02004 67413 NIL=
201403012100 AAXX 01214 67413 NIL=
201403011800 AAXX 01184 67413 NIL=
201403011500 AAXX 01154 67413 NIL=
201403011200 AAXX 01121 67413 NIL=
201403010900 AAXX 01094 67413 NIL=
201403010600 AAXX 01064 67413 NIL=
201403010000 AAXX 01004 67413 NIL=
201402282100 AAXX 28214 67413 NIL=
201402281800 AAXX 28184 67413 NIL=
201402281500 AAXX 28154 67413 NIL=
201402281200 AAXX 28124 67413 NIL=
201402280900 AAXX 28094 67413 NIL=
201402280600 AAXX 28064 67413 NIL=
201402280300 AAXX 28034 67413 NIL=
201402280000 AAXX 28004 67413 NIL=
201402272100 AAXX 27214 67413 NIL=
201402271800 AAXX 27184 67413 NIL=
201402271500 AAXX 27154 67413 NIL=
201402271200 AAXX 27124 67413 NIL=
201402270900 AAXX 27094 67413 NIL=
201402270600 AAXX 27064 67413 NIL=
201402262100 AAXX 26214 67413 NIL=
201402261500 AAXX 26154 67413 NIL=
201402261200 AAXX 26124 67413 NIL=
201402260900 AAXX 26094 67413 NIL=
201402260600 AAXX 26064 67413 12980 70000 10185 20170 48525 69934 8707/
                   333 10195 20/// 59003 87359 91022=
201402260300 AAXX 26034 67413 NIL=
201402252100 AAXX 25214 67413 NIL=
201402251500 AAXX 25154 67413 NIL=
201402251200 AAXX 25124 67413 NIL=
201402250900 AAXX 25094 67413 NIL=
201402250600 AAXX 25064 67413 11480 80000 10170 20162 48539 60024 75052 8152/
                   333 10250 20/// 58010 81615 88460 91022=
201402250300 AAXX 25034 67413 NIL=
201402242100 AAXX 24214 67413 NIL=
201402241800 AAXX 24184 67413 NIL=
201402241500 AAXX 24154 67413 NIL=
201402241200 AAXX 24124 67413 NIL=
201402240900 AAXX 24094 67413 NIL=
201402240600 AAXX 24064 67413 12480 70905 10185 20176 48518 60134 8701/
                   333 10/// 20/// 59005 87460 91021=
201402240300 AAXX 24034 67413 NIL=
201402240000 AAXX 24004 67413 NIL=
201402232100 AAXX 23214 67413 NIL=
201402231500 AAXX 23154 67413 NIL=
201402230900 AAXX 23094 67413 NIL=
201402230600 AAXX 23064 67413 NIL=
201402230300 AAXX 23034 67413 NIL=
201402221800 AAXX 22184 67413 NIL=
201402221500 AAXX 22154 67413 NIL=
201402220900 AAXX 22094 67413 NIL=
201402220600 AAXX 22064 67413 NIL=
201402211500 AAXX 21154 67413 NIL=
201402211200 AAXX 21124 67413 NIL=
201402210900 AAXX 21094 67413 NIL=
201402210600 AAXX 21064 67413 12980 80000 10180 20164 48542 60124 8807/
                   333 10254 20/// 58008 88360 91024=
201402202100 AAXX 20214 67413 NIL=
201402201200 AAXX 20124 67413 NIL=
201402200900 AAXX 20094 67413 NIL=
201402200600 AAXX 20064 67413 12980 70000 10185 20170 48533 60054 8707/
                   333 10254 20/// 58006 87360 91023=
201402200300 AAXX 20034 67413 NIL=
201402192100 AAXX 19214 67413 NIL=
201402191800 AAXX 19184 67413 NIL=
201402191200 AAXX 19124 67413 NIL=
201402190900 AAXX 19094 67413 NIL=
201402190600 AAXX 19064 67413 NIL=
201402190300 AAXX 19034 67413 NIL=
201402190000 AAXX 19004 67413 NIL=
201402181500 AAXX 18154 67413 NIL=
201402181200 AAXX 18124 67413 NIL=
201402180900 AAXX 18094 67413 NIL=
201402180600 AAXX 18064 67413 NIL=
201402180300 AAXX 18034 67413 NIL=
201402180000 AAXX 18004 67413 NIL=
201402172100 AAXX 17214 67413 NIL=
201402171500 AAXX 17154 67413 NIL=
201402171200 AAXX 17124 67413 NIL=
201402170900 AAXX 17094 67413 NIL=
201402170600 AAXX 17064 67413 12580 80505 10170 20162 48535 60094 8451/
                   333 10225 20/// 58010 84620 84460 91023=
201402161800 AAXX 16184 67413 NIL=
201402161500 AAXX 16154 67413 NIL=
201402161200 AAXX 16124 67413 NIL=
201402160900 AAXX 16094 67413 NIL=
201402160600 AAXX 16064 67413 NIL=
201402160300 AAXX 16034 67413 NIL=
201402152100 AAXX 15214 67413 NIL=
201402151800 AAXX 15184 67413 NIL=
201402151500 AAXX 15154 67413 NIL=
201402151200 AAXX 15124 67413 NIL=
201402150900 AAXX 15094 67413 NIL=
201402150600 AAXX 15064 67413 NIL=
201402150300 AAXX 15034 67413 NIL=
201402142100 AAXX 14214 67413 NIL=
201402141200 AAXX 14120 67413 NIL=
201402140900 AAXX 14094 67413 NIL=
201402140600 AAXX 14064 67413 12980 80000 10180 20172 48532 60024 8807/
                   333 10230 20/// 58003 88360 91022=
201402140300 AAXX 14034 67413 NIL=
201402132100 AAXX 13214 67413 NIL=
201402131200 AAXX 13124 67413 NIL=
201402130900 AAXX 13094 67413 NIL=
201402130600 AAXX 13064 67413 12708 70000 10170 20162 48520 60044 8703/
                   333 10210 20/// 59005 87357 91021=
201402130300 AAXX 13034 67413 NIL=
201402130000 AAXX 13004 67413 NIL=
201402121800 AAXX 12184 67413 NIL=
201402121500 AAXX 12154 67413 NIL=
201402121200 AAXX 12124 67413 NIL=
201402120900 AAXX 12094 67413 NIL=
201402120600 AAXX 12064 67413 NIL=
201402120000 AAXX 12004 67413 NIL=
201402112100 AAXX 11214 67413 NIL=
201402111800 AAXX 11184 67413 NIL=
201402111200 AAXX 11124 67413 NIL=
201402110900 AAXX 11094 67413 NIL=
201402110600 AAXX 11064 67413 12980 80000 10180 20173 48526 60014 80007
                   333 10225 20/// 58002 88280 91022=
201402102100 AAXX 10214 67413 NIL=
201402101800 AAXX 10184 67413 NIL=
201402101500 AAXX 10154 67413 NIL=
201402101200 AAXX 10124 67413 NIL=
201402100900 AAXX 10094 67413 NIL=
201402100600 AAXX 10064 67413 12580 70807 10185 20165 48524 60224 81107
                   333 10200 20/// 58003 81820 86280 91022=
201402092100 AAXX 09214 67413 NIL=
201402091800 AAXX 09184 67413 NIL=
201402091500 AAXX 09154 67413 NIL=
201402091200 AAXX 09124 67413 NIL=
201402090900 AAXX 09094 67413 NIL=
201402090600 AAXX 09064 67413 NIL=
201402082100 AAXX 08214 67413 NIL=
201402081800 AAXX 08184 67413 NIL=
201402081500 AAXX 08154 67413 NIL=
201402081200 AAXX 08124 67413 NIL=
201402080900 AAXX 08094 67413 NIL=
201402080600 AAXX 08064 67413 NIL=
201402080300 AAXX 08034 67413 NIL=
201402080000 AAXX 08004 67413 NIL=
201402071800 AAXX 07184 67413 NIL=
201402071500 AAXX 07154 67413 NIL=
201402071200 AAXX 07124 67413 NIL=
201402070900 AAXX 07094 67413 NIL=
201402070600 AAXX 07064 67413 11320 80508 10160 20152 48535 60684 76864 887//
                   333 10255 20/// 58019 88709 91023=
201402070300 AAXX 07034 67413 NIL=
201402070000 AAXX 07004 67413 NIL=
201402062100 AAXX 06214 67413 NIL=
201402061800 AAXX 06184 67413 NIL=
201402061500 AAXX 06154 67413 NIL=
201402061200 AAXX 06124 67413 NIL=
201402060900 AAXX 06094 67413 NIL=
201402060600 AAXX 06064 67413 12980 80000 10185 20169 48514 60014 8807/
                   333 10250 20111 59004 88360 91021=
201402060300 AAXX 06034 67413 NIL=
201402060000 AAXX 06004 67413 NIL=
201402052100 AAXX 05214 67413 NIL=
201402051800 AAXX 05184 67413 NIL=
201402051500 AAXX 05154 67413 NIL=
201402051200 AAXX 05124 67413 NIL=
201402050900 AAXX 05094 67413 NIL=
201402050600 AAXX 05064 67413 NIL=
201402050300 AAXX 05034 67413 NIL=
201402041800 AAXX 04184 67413 NIL=
201402041500 AAXX 04154 67413 NIL=
201402041200 AAXX 04124 67413 NIL=
201402040900 AAXX 04094 67413 NIL=
201402040600 AAXX 04064 67413 NIL=
201402040300 AAXX 04034 67413 NIL=
201402032100 AAXX 03214 67413 NIL=
201402031800 AAXX 03184 67413 NIL=
201402031500 AAXX 03154 67413 NIL=
201402031200 AAXX 03124 67413 NIL=
201402030900 AAXX 03094 67413 NIL=
201402030600 AAXX 03064 67413 NIL=
201402021800 AAXX 02184 67413 NIL=
201402021500 AAXX 02154 67413 NIL=
201402021200 AAXX 02124 67413 NIL=
201402020900 AAXX 02094 67413 NIL=
201402020600 AAXX 02064 67413 NIL=
201402020300 AAXX 02034 67413 NIL=
201402012100 AAXX 01214 67413 NIL=
201402011800 AAXX 01184 67413 NIL=
201402011500 AAXX 01154 67413 NIL=
201402011200 AAXX 01124 67413 NIL=
201402010900 AAXX 01094 67413 NIL=
201402010600 AAXX 01064 67413 NIL=

################################################################################
#  SYNOPS from 67441, Mwinilunga (Zambia) | 11-45S | 024-26E | 1361 m
################################################################################
201403030300 AAXX 03034 67441 NIL=
201403030000 AAXX 03004 67441 NIL=
201403022100 AAXX 02214 67441 NIL=
201403021800 AAXX 02184 67441 NIL=
201403021500 AAXX 02154 67441 NIL=
201403021200 AAXX 02124 67441 NIL=
201403020900 AAXX 02094 67441 NIL=
201403020600 AAXX 02064 67441 NIL=
201403020300 AAXX 02034 67441 NIL=
201403020000 AAXX 02004 67441 NIL=
201403012100 AAXX 01214 67441 NIL=
201403011800 AAXX 01184 67441 NIL=
201403011500 AAXX 01154 67441 NIL=
201403011200 AAXX 01121 67441 NIL=
201403010900 AAXX 01094 67441 NIL=
201403010600 AAXX 01064 67441 NIL=
201403010000 AAXX 01004 67441 NIL=
201402282100 AAXX 28214 67441 NIL=
201402281800 AAXX 28184 67441 NIL=
201402281500 AAXX 28154 67441 NIL=
201402281200 AAXX 28124 67441 NIL=
201402280900 AAXX 28094 67441 NIL=
201402280600 AAXX 28064 67441 11960 80000 10180 20174 48544 60094 76166 8802/
                   333 10260 20/// 58004 88460=
201402280300 AAXX 28034 67441 NIL=
201402280000 AAXX 28004 67441 NIL=
201402272100 AAXX 27214 67441 NIL=
201402271800 AAXX 27184 67441 NIL=
201402271500 AAXX 27154 67441 NIL=
201402271200 AAXX 27124 67441 NIL=
201402270900 AAXX 27094 67441 NIL=
201402270600 AAXX 27064 67441 11960 80000 10185 20185 48540 69904 74242 8807/
                   333 10250 20/// 58003 88360=
201402262100 AAXX 26214 67441 NIL=
201402261500 AAXX 26154 67441 NIL=
201402261200 AAXX 26124 67441 NIL=
201402260900 AAXX 26094 67441 NIL=
201402260600 AAXX 26064 67441 12980 70000 10180 20175 48537 60044 8707/
                   333 10260 20/// 58004 87360=
201402260300 AAXX 26034 67441 NIL=
201402252100 AAXX 25214 67441 NIL=
201402251500 AAXX 25154 67441 NIL=
201402251200 AAXX 25124 67441 NIL=
201402250900 AAXX 25094 67441 NIL=
201402250600 AAXX 25064 67441 11/05 90000 10190 20186 48533 60064 74344 89///
                   333 10255 20/// 59005=
201402250300 AAXX 25034 67441 NIL=
201402242100 AAXX 24214 67441 NIL=
201402241800 AAXX 24184 67441 NIL=
201402241500 AAXX 24154 67441 NIL=
201402241200 AAXX 24124 67441 NIL=
201402240900 AAXX 24094 67441 NIL=
201402240600 AAXX 24064 67441 11980 803// 10175 20170 48537 60204 76196 8802/
                   333 10275 20/// 5//// 88460=
201402240300 AAXX 24034 67441 NIL=
201402240000 AAXX 24004 67441 NIL=
201402232100 AAXX 23214 67441 NIL=
201402231500 AAXX 23154 67441 NIL=
201402230900 AAXX 23094 67441 NIL=
201402230600 AAXX 23064 67441 NIL=
201402230300 AAXX 23034 67441 NIL=
201402221800 AAXX 22184 67441 NIL=
201402221500 AAXX 22154 67441 NIL=
201402220900 AAXX 22094 67441 NIL=
201402220600 AAXX 22064 67441 NIL=
201402211500 AAXX 21154 67441 NIL=
201402211200 AAXX 21124 67441 NIL=
201402210900 AAXX 21094 67441 NIL=
201402210600 AAXX 21064 67441 11480 80000 10185 20185 48535 60024 70299 8117/
                   333 10255 20/// 58001 81818 88360=
201402202100 AAXX 20214 67441 NIL=
201402201200 AAXX 20124 67441 NIL=
201402200900 AAXX 20094 67441 NIL=
201402200600 AAXX 20064 67441 NIL=
201402200300 AAXX 20034 67441 NIL=
201402192100 AAXX 19214 67441 NIL=
201402191800 AAXX 19184 67441 NIL=
201402191200 AAXX 19124 67441 NIL=
201402190900 AAXX 19094 67441 NIL=
201402190600 AAXX 19064 67441 12980 812// 10192 20189 48541 60074 8807/
                   333 10270 20/// 59008 88360
                   555 00/// 20021=
201402190300 AAXX 19034 67441 NIL=
201402190000 AAXX 19004 67441 NIL=
201402181500 AAXX 18154 67441 NIL=
201402181200 AAXX 18124 67441 NIL=
201402180900 AAXX 18094 67441 NIL=
201402180600 AAXX 18064 67441 12980 834// 10195 20188 48549 60214 8807/
                   333 10260 20/// 58012 88360=
201402180300 AAXX 18034 67441 NIL=
201402180000 AAXX 18004 67441 NIL=
201402172100 AAXX 17214 67441 NIL=
201402171500 AAXX 17154 67441 NIL=
201402171200 AAXX 17124 67441 NIL=
201402170900 AAXX 17094 67441 NIL=
201402170600 AAXX 17064 67441 11475 80000 10185 20177 48537 60154 76162 8142/
                   333 10270 20177 58002 81618 88460=
201402161800 AAXX 16184 67441 NIL=
201402161500 AAXX 16154 67441 NIL=
201402161200 AAXX 16124 67441 NIL=
201402160900 AAXX 16094 67441 NIL=
201402160600 AAXX 16064 67441 NIL=
201402160300 AAXX 16034 67441 NIL=
201402152100 AAXX 15214 67441 NIL=
201402151800 AAXX 15184 67441 NIL=
201402151500 AAXX 15154 67441 NIL=
201402151200 AAXX 15124 67441 NIL=
201402150900 AAXX 15094 67441 NIL=
201402150600 AAXX 15064 67441 NIL=
201402150300 AAXX 15034 67441 NIL=
201402142100 AAXX 14214 67441 NIL=
201402141200 AAXX 14120 67441 NIL=
201402140900 AAXX 14094 67441 NIL=
201402140600 AAXX 14064 67441 12980 70000 10190 20175 48527 60064 8706/
                   333 10246 20/// 59005 87360=
201402140300 AAXX 14034 67441 NIL=
201402132100 AAXX 13214 67441 NIL=
201402131200 AAXX 13124 67441 NIL=
201402130900 AAXX 13094 67441 NIL=
201402130600 AAXX 13064 67441 12980 70000 10190 20183 48537 60114 8117/
                   333 10275 20/// 59006 81818 87360=
201402130300 AAXX 13034 67441 NIL=
201402130000 AAXX 13004 67441 NIL=
201402121800 AAXX 12184 67441 NIL=
201402121500 AAXX 12154 67441 NIL=
201402121200 AAXX 12124 67441 NIL=
201402120900 AAXX 12094 67441 NIL=
201402120600 AAXX 12064 67441 11980 830// 10175 20167 48544 69904 72166 8807/
                   333 10295 20/// 58005 88360=
201402120000 AAXX 12004 67441 NIL=
201402112100 AAXX 11214 67441 NIL=
201402111800 AAXX 11184 67441 NIL=
201402111200 AAXX 11124 67441 NIL=
201402110900 AAXX 11094 67441 NIL=
201402110600 AAXX 11064 67441 32980 20000 10180 20165 48538 82030
                   333 10290 20/// 58003 82360=
201402102100 AAXX 10214 67441 NIL=
201402101800 AAXX 10184 67441 NIL=
201402101500 AAXX 10154 67441 NIL=
201402101200 AAXX 10124 67441 NIL=
201402100900 AAXX 10094 67441 NIL=
201402100600 AAXX 10064 67441 32480 529// 10188 20176 48535 81130
                   333 10280 20/// 58005 81818 84360=
201402092100 AAXX 09214 67441 NIL=
201402091800 AAXX 09184 67441 NIL=
201402091500 AAXX 09154 67441 NIL=
201402091200 AAXX 09124 67441 NIL=
201402090900 AAXX 09094 67441 NIL=
201402090600 AAXX 09064 67441 NIL=
201402082100 AAXX 08214 67441 NIL=
201402081800 AAXX 08184 67441 NIL=
201402081500 AAXX 08154 67441 NIL=
201402081200 AAXX 08124 67441 NIL=
201402080900 AAXX 08094 67441 NIL=
201402080600 AAXX 08064 67441 NIL=
201402080300 AAXX 08034 67441 NIL=
201402080000 AAXX 08004 67441 NIL=
201402071800 AAXX 07184 67441 NIL=
201402071500 AAXX 07154 67441 NIL=
201402071200 AAXX 07124 67441 NIL=
201402070900 AAXX 07094 67441 NIL=
201402070600 AAXX 07064 67441 32380 731// 10190 20167 48534 876//
                   333 10260 20/// 5//// 87709=
201402070300 AAXX 07034 67441 NIL=
201402070000 AAXX 07004 67441 NIL=
201402062100 AAXX 06214 67441 NIL=
201402061800 AAXX 06184 67441 NIL=
201402061500 AAXX 06154 67441 NIL=
201402061200 AAXX 06124 67441 NIL=
201402060900 AAXX 06094 67441 NIL=
201402060600 AAXX 06064 67441 NIL=
201402060300 AAXX 06034 67441 NIL=
201402060000 AAXX 06004 67441 NIL=
201402052100 AAXX 05214 67441 NIL=
201402051800 AAXX 05184 67441 NIL=
201402051500 AAXX 05154 67441 NIL=
201402051200 AAXX 05124 67441 NIL=
201402050900 AAXX 05094 67441 NIL=
201402050600 AAXX 05064 67441 NIL=
201402050300 AAXX 05034 67441 NIL=
201402041800 AAXX 04184 67441 NIL=
201402041500 AAXX 04154 67441 NIL=
201402041200 AAXX 04124 67441 NIL=
201402040900 AAXX 04094 67441 NIL=
201402040600 AAXX 04064 67441 11/02 90000 10180 20180 48529 60084 74542 8703/
                   333 10/// 20/// 58005 87360=
201402040300 AAXX 04034 67441 NIL=
201402032100 AAXX 03214 67441 NIL=
201402031800 AAXX 03184 67441 NIL=
201402031500 AAXX 03154 67441 NIL=
201402031200 AAXX 03124 67441 NIL=
201402030900 AAXX 03094 67441 NIL=
201402030600 AAXX 03064 67441 12980 731// 10190 20183 48526 69904 8703/
                   333 10275 20/// 59001 87362=
201402021800 AAXX 02184 67441 NIL=
201402021500 AAXX 02154 67441 NIL=
201402021200 AAXX 02124 67441 NIL=
201402020900 AAXX 02094 67441 NIL=
201402020600 AAXX 02064 67441 NIL=
201402020300 AAXX 02034 67441 NIL=
201402012100 AAXX 01214 67441 NIL=
201402011800 AAXX 01184 67441 NIL=
201402011500 AAXX 01154 67441 NIL=
201402011200 AAXX 01124 67441 NIL=
201402010900 AAXX 01094 67441 NIL=
201402010600 AAXX 01064 67441 NIL=

################################################################################
#  SYNOPS from 67461, Mansa (Zambia) | 11-06S | 028-51E | 1382 m
################################################################################
201403030300 AAXX 03034 67461 NIL=
201403030000 AAXX 03004 67461 NIL=
201403022100 AAXX 02214 67461 NIL=
201403021800 AAXX 02184 67461 NIL=
201403021500 AAXX 02154 67461 NIL=
201403021200 AAXX 02124 67461 NIL=
201403020900 AAXX 02094 67461 NIL=
201403020600 AAXX 02064 67461 NIL=
201403020300 AAXX 02034 67461 NIL=
201403020000 AAXX 02004 67461 NIL=
201403012100 AAXX 01214 67461 NIL=
201403011800 AAXX 01184 67461 NIL=
201403011500 AAXX 01154 67461 NIL=
201403011200 AAXX 01121 67461 NIL=
201403010900 AAXX 01094 67461 NIL=
201403010600 AAXX 01064 67461 NIL=
201403010000 AAXX 01004 67461 NIL=
201402282100 AAXX 28214 67461 NIL=
201402281800 AAXX 28184 67461 NIL=
201402281500 AAXX 28154 67461 NIL=
201402281200 AAXX 28124 67461 NIL=
201402280900 AAXX 28094 67461 NIL=
201402280600 AAXX 28064 67461 11065 80000 10190 20190 48517 60024 74244 8577/
                   333 10275 20183 58006 85700 88458 91019=
201402280300 AAXX 28034 67461 NIL=
201402280000 AAXX 28004 67461 NIL=
201402272100 AAXX 27214 67461 NIL=
201402271800 AAXX 27184 67461 NIL=
201402271500 AAXX 27154 67461 NIL=
201402271200 AAXX 27124 67461 NIL=
201402270900 AAXX 27094 67461 NIL=
201402270600 AAXX 27064 67461 32360 80000 10196 20192 48513 70222 8467/
                   333 10256 20179 59006 84705 87458 91017=
201402262100 AAXX 26214 67461 NIL=
201402261500 AAXX 26154 67461 NIL=
201402261200 AAXX 26124 67461 NIL=
201402260900 AAXX 26094 67461 NIL=
201402260600 AAXX 26064 67461 12480 80000 10206 20197 48511 60014 70222 8257/
                   333 10274 20185 58006 82610 88458 91017=
201402260300 AAXX 26034 67461 NIL=
201402252100 AAXX 25214 67461 NIL=
201402251500 AAXX 25154 67461 NIL=
201402251200 AAXX 25124 67461 NIL=
201402250900 AAXX 25094 67461 NIL=
201402250600 AAXX 25064 67461 12280 80000 10190 20189 48512 60064 70222 8577/
                   333 10282 20180 58007 85703 87459 91017=
201402250300 AAXX 25034 67461 NIL=
201402242100 AAXX 24214 67461 NIL=
201402241800 AAXX 24184 67461 NIL=
201402241500 AAXX 24154 67461 NIL=
201402241200 AAXX 24124 67461 NIL=
201402240900 AAXX 24094 67461 NIL=
201402240600 AAXX 24064 67461 32480 71602 10214 20201 48506 70222 8557/
                   333 10/// 20/// 59013 85616 86459 91017=
201402240300 AAXX 24034 67461 NIL=
201402240000 AAXX 24004 67461 NIL=
201402232100 AAXX 23214 67461 NIL=
201402231500 AAXX 23154 67461 NIL=
201402230900 AAXX 23094 67461 NIL=
201402230600 AAXX 23064 67461 NIL=
201402230300 AAXX 23034 67461 NIL=
201402221800 AAXX 22184 67461 NIL=
201402221500 AAXX 22154 67461 NIL=
201402220900 AAXX 22094 67461 NIL=
201402220600 AAXX 22064 67461 NIL=
201402211500 AAXX 21154 67461 NIL=
201402211200 AAXX 21124 67461 NIL=
201402210900 AAXX 21094 67461 NIL=
201402210600 AAXX 21064 67461 12480 83003 10212 20202 48509 60034 70222 8457/
                   333 10291 20180 58005 84612 88458 91017=
201402202100 AAXX 20214 67461 NIL=
201402201200 AAXX 20124 67461 NIL=
201402200900 AAXX 20094 67461 NIL=
201402200600 AAXX 20064 67461 32580 60000 10208 20193 48503 70222 82530
                   333 10277 20166 59008 82615 86358 91017=
201402200300 AAXX 20034 67461 NIL=
201402192100 AAXX 19214 67461 NIL=
201402191800 AAXX 19184 67461 NIL=
201402191200 AAXX 19124 67461 NIL=
201402190900 AAXX 19094 67461 NIL=
201402190600 AAXX 19064 67461 11360 81302 10172 20167 48506 60164 79296 8477/
                   333 10282 20169 59009 81915 84706 88458 91017=
201402190300 AAXX 19034 67461 NIL=
201402190000 AAXX 19004 67461 NIL=
201402181500 AAXX 18154 67461 NIL=
201402181200 AAXX 18124 67461 NIL=
201402180900 AAXX 18094 67461 NIL=
201402180600 AAXX 18064 67461 11301 80000 10194 20184 48519 69904 79592 8577/
                   333 10248 20180 58008 81915 85708 88458 91019=
201402180300 AAXX 18034 67461 NIL=
201402180000 AAXX 18004 67461 NIL=
201402172100 AAXX 17214 67461 NIL=
201402171500 AAXX 17154 67461 NIL=
201402171200 AAXX 17124 67461 NIL=
201402170900 AAXX 17094 67461 NIL=
201402170600 AAXX 17064 67461 11360 80000 10197 20192 48512 60054 71522 8677/
                   333 10/// 20/// 5//// 86706 88458 91017=
201402161800 AAXX 16184 67461 NIL=
201402161500 AAXX 16154 67461 NIL=
201402161200 AAXX 16124 67461 NIL=
201402160900 AAXX 16094 67461 NIL=
201402160600 AAXX 16064 67461 NIL=
201402160300 AAXX 16034 67461 NIL=
201402152100 AAXX 15214 67461 NIL=
201402151800 AAXX 15184 67461 NIL=
201402151500 AAXX 15154 67461 NIL=
201402151200 AAXX 15124 67461 NIL=
201402150900 AAXX 15094 67461 NIL=
201402150600 AAXX 15064 67461 NIL=
201402150300 AAXX 15034 67461 NIL=
201402142100 AAXX 14214 67461 NIL=
201402141200 AAXX 14120 67461 NIL=
201402140900 AAXX 14094 67461 NIL=
201402140600 AAXX 14064 67461 12280 80000 10197 20190 48503 60064 70322 8177/
                   333 10285 20180 58006 81703 88458 91017=
201402140300 AAXX 14034 67461 NIL=
201402132100 AAXX 13214 67461 NIL=
201402131200 AAXX 13124 67461 NIL=
201402130900 AAXX 13094 67461 NIL=
201402130600 AAXX 13064 67461 32480 60000 10197 20188 48497 70222 8653/
                   333 10270 20168 59012 86611 87460 91016=
201402130300 AAXX 13034 67461 NIL=
201402130000 AAXX 13004 67461 NIL=
201402121800 AAXX 12184 67461 NIL=
201402121500 AAXX 12154 67461 NIL=
201402121200 AAXX 12124 67461 NIL=
201402120900 AAXX 12094 67461 NIL=
201402120600 AAXX 12064 67461 11275 80000 10184 20181 48509 60054 76066 8477/
                   333 10268 20173 58006 84703 88458 91017=
201402120000 AAXX 12004 67461 NIL=
201402112100 AAXX 11214 67461 NIL=
201402111800 AAXX 11184 67461 NIL=
201402111200 AAXX 11124 67461 NIL=
201402110900 AAXX 11094 67461 NIL=
201402110600 AAXX 11064 67461 12980 80000 10194 20180 48503 60054 76066 8807/
                   333 10271 20176 58011 88459 91017=
201402102100 AAXX 10214 67461 NIL=
201402101800 AAXX 10184 67461 NIL=
201402101500 AAXX 10154 67461 NIL=
201402101200 AAXX 10124 67461 NIL=
201402100900 AAXX 10094 67461 NIL=
201402100600 AAXX 10064 67461 12480 70000 10204 20192 48493 60064 70222 8157/
                   333 10/// 20/// 59008 81610 87460 91016=
201402092100 AAXX 09214 67461 NIL=
201402091800 AAXX 09184 67461 NIL=
201402091500 AAXX 09154 67461 NIL=
201402091200 AAXX 09124 67461 NIL=
201402090900 AAXX 09094 67461 NIL=
201402090600 AAXX 09064 67461 NIL=
201402082100 AAXX 08214 67461 NIL=
201402081800 AAXX 08184 67461 NIL=
201402081500 AAXX 08154 67461 NIL=
201402081200 AAXX 08124 67461 NIL=
201402080900 AAXX 08094 67461 NIL=
201402080600 AAXX 08064 67461 NIL=
201402080300 AAXX 08034 67461 NIL=
201402080000 AAXX 08004 67461 NIL=
201402071800 AAXX 07184 67461 NIL=
201402071500 AAXX 07154 67461 NIL=
201402071200 AAXX 07124 67461 NIL=
201402070900 AAXX 07094 67461 NIL=
201402070600 AAXX 07064 67461 32480 83005 10192 20181 48499 70322 8357/
                   333 10293 20175 58007 83613 88460 91016=
201402070300 AAXX 07034 67461 NIL=
201402070000 AAXX 07004 67461 NIL=
201402062100 AAXX 06214 67461 NIL=
201402061800 AAXX 06184 67461 NIL=
201402061500 AAXX 06154 67461 NIL=
201402061200 AAXX 06124 67461 NIL=
201402060900 AAXX 06094 67461 NIL=
201402060600 AAXX 06064 67461 32980 70000 10207 20186 48493 70222 8707/
                   333 10269 20180 59004 87461 91016=
201402060300 AAXX 06034 67461 NIL=
201402060000 AAXX 06004 67461 NIL=
201402052100 AAXX 05214 67461 NIL=
201402051800 AAXX 05184 67461 NIL=
201402051500 AAXX 05154 67461 NIL=
201402051200 AAXX 05124 67461 NIL=
201402050900 AAXX 05094 67461 NIL=
201402050600 AAXX 05064 67461 32280 70000 10196 20190 48496 70222 8477/
                   333 10267 20177 59015 84707 86460 91016=
201402050300 AAXX 05034 67461 NIL=
201402041800 AAXX 04184 67461 NIL=
201402041500 AAXX 04154 67461 NIL=
201402041200 AAXX 04124 67461 NIL=
201402040900 AAXX 04094 67461 NIL=
201402040600 AAXX 04064 67461 NIL=
201402040300 AAXX 04034 67461 NIL=
201402032100 AAXX 03214 67461 NIL=
201402031800 AAXX 03184 67461 NIL=
201402031500 AAXX 03154 67461 NIL=
201402031200 AAXX 03124 67461 NIL=
201402030900 AAXX 03094 67461 NIL=
201402030600 AAXX 03064 67461 NIL=
201402021800 AAXX 02184 67461 NIL=
201402021500 AAXX 02154 67461 NIL=
201402021200 AAXX 02124 67461 NIL=
201402020900 AAXX 02094 67461 NIL=
201402020600 AAXX 02064 67461 NIL=
201402020300 AAXX 02034 67461 NIL=
201402012100 AAXX 01214 67461 NIL=
201402011800 AAXX 01184 67461 NIL=
201402011500 AAXX 01154 67461 NIL=
201402011200 AAXX 01124 67461 NIL=
201402010900 AAXX 01094 67461 NIL=
201402010600 AAXX 01064 67461 NIL=

################################################################################
#  SYNOPS from 67475, Kasama (Zambia) | 10-13S | 031-08E | 1382 m
################################################################################
201403030300 AAXX 03034 67475 NIL=
201403030000 AAXX 03004 67475 NIL=
201403022100 AAXX 02214 67475 NIL=
201403021800 AAXX 02184 67475 NIL=
201403021500 AAXX 02154 67475 NIL=
201403021200 AAXX 02124 67475 NIL=
201403020900 AAXX 02094 67475 NIL=
201403020600 AAXX 02064 67475 NIL=
201403020300 AAXX 02034 67475 NIL=
201403020000 AAXX 02004 67475 NIL=
201403012100 AAXX 01214 67475 NIL=
201403011800 AAXX 01184 67475 NIL=
201403011500 AAXX 01154 67475 NIL=
201403011200 AAXX 01121 67475 NIL=
201403010900 AAXX 01094 67475 NIL=
201403010600 AAXX 01064 67475 NIL=
201403010000 AAXX 01004 67475 NIL=
201402282100 AAXX 28214 67475 NIL=
201402281800 AAXX 28184 67475 NIL=
201402281500 AAXX 28154 67475 NIL=
201402281200 AAXX 28124 67475 41680 62007 10250 20189 48498 71792 81933
                   333 58012 81940 85845 82363 83080 91017=
201402280900 AAXX 28094 67475 42680 60304 10237 20193 48528 8327/
                   333 58004 83830 86361 91021=
201402280600 AAXX 28064 67475 12480 70000 10184 20184 48520 60264 8267/
                   333 10265 20167 58002 82712 87360 91020=
201402280300 AAXX 28034 67475 NIL=
201402280000 AAXX 28004 67475 NIL=
201402272100 AAXX 27214 67475 NIL=
201402271800 AAXX 27184 67475 NIL=
201402271500 AAXX 27154 67475 NIL=
201402271200 AAXX 27124 67475 42680 61501 10260 20194 48488 85250
                   333 58003 83360 555 91016=
201402270900 AAXX 27094 67475 41980 50201 10218 20183 48522 8807/
                   333 58010 88460 91020=
201402270600 AAXX 27064 67475 11975 83605 10185 20185 48518 60604 8705/
                   333 10278 20156 59003 88460 91020=
201402262100 AAXX 26214 67475 NIL=
201402261500 AAXX 26154 67475 NIL=
201402261200 AAXX 26124 67475 42680 51808 10258 20177 48484 85251
                   333 59009 85850 82361 81080 91013=
201402260900 AAXX 26094 67475 42680 63601 10256 20164 48514 85251
                   333 58005 85835 86360 83080 91019=
201402260600 AAXX 26064 67475 12980 73604 10195 20185 48515 60044 8705/
                   333 10235 20180 59002 87360 91019=
201402260300 AAXX 26034 67475 NIL=
201402252100 AAXX 25214 67475 NIL=
201402251500 AAXX 25154 67475 NIL=
201402251200 AAXX 25124 67475 42680 62903 10216 20173 48491 70222 8627/
                   333 58023 86840 84460 91016=
201402250900 AAXX 25094 67475 NIL=
201402250600 AAXX 25064 67475 11970 83406 10181 20181 48516 76062 8377/
                   333 10281 20170 58005 83712 84618 87460 91019=
201402250300 AAXX 25034 67475 NIL=
201402242100 AAXX 24214 67475 NIL=
201402241800 AAXX 24184 67475 NIL=
201402241500 AAXX 24154 67475 NIL=
201402241200 AAXX 24124 67475 42780 50904 10267 20181 48470 70222 81331
                   333 59014 81950 85850 82360 81080 91014=
201402240900 AAXX 24094 67475 42680 50904 10226 20183 48505 70122 83231
                   333 58015 83830 85361 82080 91018=
201402240600 AAXX 24064 67475 11380 80902 10178 20173 48511 60034 75022 8177/
                   333 10250 20164 58012 81709 88460 91019=
201402240300 AAXX 24034 67475 NIL=
201402240000 AAXX 24004 67475 NIL=
201402232100 AAXX 23214 67475 NIL=
201402231500 AAXX 23154 67475 NIL=
201402230900 AAXX 23094 67475 NIL=
201402230600 AAXX 23064 67475 NIL=
201402230300 AAXX 23034 67475 NIL=
201402221800 AAXX 22184 67475 NIL=
201402221500 AAXX 22154 67475 NIL=
201402220900 AAXX 22094 67475 NIL=
201402220600 AAXX 22064 67475 NIL=
201402211500 AAXX 21154 67475 NIL=
201402211200 AAXX 21124 67475 41780 60904 10225 20203 48493 71792 85272
                   333 58002 81950 85850 83464 86081 91017=
201402210900 AAXX 21094 67475 42680 73506 10254 20189 48520 70322 84238
                   333 58004 84835 81362 87280 91020=
201402210600 AAXX 21064 67475 12580 83505 10190 20174 48523 60084 70322 81137
                   333 10271 20169 58009 81820 82360 88280 91020=
201402202100 AAXX 20214 67475 NIL=
201402201200 AAXX 20124 67475 41780 62501 10264 20178 48492 71792 81932
                   333 58007 81950 84850 82360 86080 91016=
201402200900 AAXX 20094 67475 42680 80102 10246 20186 48516 70222 8123/
                   333 58007 81840 88360 91019=
201402200600 AAXX 20064 67475 12980 83004 10194 20191 48514 60024 70222 8807/
                   333 10278 20170 58001 88460 91019=
201402200300 AAXX 20034 67475 NIL=
201402192100 AAXX 19214 67475 NIL=
201402191800 AAXX 19184 67475 NIL=
201402191200 AAXX 19124 67475 41780 72705 10202 20185 48483 71792 81673
                   333 59009 81950 81725 87460 82080 91016=
201402190900 AAXX 19094 67475 42780 51802 10253 20183 48509 70222 81331
                   333 59011 81950 85850 82360 83080 91018=
201402190600 AAXX 19064 67475 12680 40102 10196 20196 48514 60174 70222 84251
                   333 10294 20168 59011 84835 81360 81080
                   555 00/// 91019=
201402190300 AAXX 19034 67475 NIL=
201402190000 AAXX 19004 67475 NIL=
201402181500 AAXX 18154 67475 NIL=
201402181200 AAXX 18124 67475 24680 72701 10278 20174 48495 85201
                   333 58008 85850 85080
                   555 91017=
201402180900 AAXX 18094 67475 42580 72001 10248 20174 48520 83232
                   333 59004 83840 81360 87080 91019=
201402180600 AAXX 18064 67475 12480 52501 10190 20190 48514 60034 83231
                   333 10272 20158 59003 83825 82360 83080 91020=
201402180300 AAXX 18034 67475 NIL=
201402180000 AAXX 18004 67475 NIL=
201402172100 AAXX 17214 67475 NIL=
201402171500 AAXX 17154 67475 NIL=
201402171200 AAXX 17124 67475 NIL=
201402170900 AAXX 17094 67475 NIL=
201402170600 AAXX 17064 67475 12980 80000 10180 20162 48521 60024 70222 8707/
                   333 10265 20162 59013 87460 91020=
201402161800 AAXX 16184 67475 NIL=
201402161500 AAXX 16154 67475 NIL=
201402161200 AAXX 16124 67475 NIL=
201402160900 AAXX 16094 67475 NIL=
201402160600 AAXX 16064 67475 NIL=
201402160300 AAXX 16034 67475 NIL=
201402152100 AAXX 15214 67475 NIL=
201402151800 AAXX 15184 67475 NIL=
201402151500 AAXX 15154 67475 NIL=
201402151200 AAXX 15124 67475 NIL=
201402150900 AAXX 15094 67475 NIL=
201402150600 AAXX 15064 67475 NIL=
201402150300 AAXX 15034 67475 NIL=
201402142100 AAXX 14214 67475 NIL=
201402141200 AAXX 14124 67475 41780 53005 10272 20178 48475 71522 81333
                   333 59001 81950 85850 82360 83080 91014=
201402140900 AAXX 14094 67475 42680 72602 10246 20183 48505 70222 84237
                   333 58004 84830 81361 87280 91018=
201402140600 AAXX 14064 67475 42580 63503 10198 20183 48510 70222 8263/
                   333 10262 20173 58001 82725 86360 91019=
201402140300 AAXX 14034 67475 NIL=
201402132100 AAXX 13214 67475 NIL=
201402131200 AAXX 13124 67475 42780 70306 10215 20188 48474 70322 8597/
                   333 59001 81950 85650 87363 91015=
201402130900 AAXX 13094 67475 42680 62704 10245 20191 48501 70222 8423/
                   333 58000 84835 86362 91017=
201402130600 AAXX 13064 67475 12480 83205 10187 20178 48508 60074 70322 8767/
                   333 10260 20166 59002 82718 87360 91018=
201402130300 AAXX 13034 67475 NIL=
201402130000 AAXX 13004 67475 NIL=
201402121800 AAXX 12184 67475 NIL=
201402121500 AAXX 12154 67475 42780 72704 10204 20189 48466 70262 8137/
                   333 59010 81950 84850 87460=
201402121200 AAXX 12124 67475 42780 42504 10240 20164 48476 70222 84232
                   333 59008 84850 82360 82080 91015=
201402120900 AAXX 12094 67475 NIL=
201402120600 AAXX 12064 67475 11480 72104 10174 20170 48509 60184 76022 8467/
                   333 10199 20168 59004 84712 87460 91019=
201402120000 AAXX 12004 67475 NIL=
201402112100 AAXX 11214 67475 NIL=
201402111800 AAXX 11184 67475 NIL=
201402111200 AAXX 11124 67475 42680 63006 10194 20183 48482 72166 81372
                   333 58001 81940 83847 86461 83080 91016=
201402110900 AAXX 11094 67475 41680 82904 10193 20186 48512 76066 8527/
                   333 58016 85835 88460 91019=
201402110600 AAXX 11064 67475 11950 82704 10172 20170 48513 60434 76062 8807/
                   333 10184 20158 58013 88460 91019=
201402102100 AAXX 10214 67475 NIL=
201402101800 AAXX 10184 67475 NIL=
201402101500 AAXX 10154 67475 NIL=
201402101200 AAXX 10124 67475 41650 72501 10175 20163 48481 78169 8197/
                   333 58000 81940 83360 87460 91015=
201402101017 AAXX 10104 67475 42680 62712 10255 20177 48499 59001 82080 91017=
201402100900 AAXX 10094 67475 NIL=
201402100600 AAXX 10064 67475 12980 73506 10182 20172 48501 60074 86051
                   333 10242 20152 59001 86360 83080 91018=
201402092100 AAXX 09214 67475 NIL=
201402091800 AAXX 09184 67475 NIL=
201402091500 AAXX 09154 67475 NIL=
201402091200 AAXX 09124 67475 NIL=
201402090900 AAXX 09094 67475 NIL=
201402090600 AAXX 09064 67475 NIL=
201402082100 AAXX 08214 67475 NIL=
201402081800 AAXX 08184 67475 NIL=
201402081500 AAXX 08154 67475 NIL=
201402081200 AAXX 08124 67475 NIL=
201402080900 AAXX 08094 67475 NIL=
201402080600 AAXX 08064 67475 NIL=
201402080300 AAXX 08034 67475 NIL=
201402080000 AAXX 08004 67475 NIL=
201402071800 AAXX 07184 67475 NIL=
201402071500 AAXX 07154 67475 NIL=
201402071200 AAXX 07124 67475 42680 82809 10211 20169 48488 70252 8327/
                   333 58016 83840 88362 91016=
201402070900 AAXX 07094 67475 41670 82818 1//// 2//// 48507 75065 8457/
                   333 58010 84630 88461 91018=
201402070600 AAXX 07064 67475 12580 83310 10185 20169 48508 60074 8157/
                   333 10273 20165 58011 81620 88460 91018=
201402070300 AAXX 07034 67475 NIL=
201402070000 AAXX 07004 67475 NIL=
201402062100 AAXX 06214 67475 NIL=
201402061800 AAXX 06184 67475 NIL=
201402061500 AAXX 06154 67475 NIL=
201402061200 AAXX 06124 67475 41680 72712 10253 20193 48473 71782 81973
                   333 59002 81943 84848 82363 83080 91014=
201402060900 AAXX 06094 67475 42680 62608 10231 20173 48498 70362 82231
                   333 59004 82835 85362 82080 91017=
201402060600 AAXX 06064 67475 11970 83404 10184 20180 48497 60314 76062 8807/
                   333 10280 20171 59005 88460 91017=
201402060300 AAXX 06034 67475 NIL=
201402060000 AAXX 06004 67475 NIL=
201402052100 AAXX 05214 67475 NIL=
201402051800 AAXX 05184 67475 NIL=
201402051500 AAXX 05154 67475 NIL=
201402051200 AAXX 05124 67475 42780 51803 10268 20165 48476 81332
                   333 59004 81950 83850 84363 82080 91015=
201402050900 AAXX 05094 67475 42680 72806 10246 20162 48503 82272
                   333 59002 82835 86361 82080 91018=
201402050600 AAXX 05064 67475 11980 73404 10187 20176 48502 60524 72162 86072
                   333 10267 20161 59003 86460 84080 91018=
201402050300 AAXX 05034 67475 NIL=
201402041800 AAXX 04184 67475 NIL=
201402041500 AAXX 04154 67475 NIL=
201402041200 AAXX 04124 67475 42780 61904 10259 20176 48480 70222 81308
                   333 58013 81950 86850 85280 91015=
201402040900 AAXX 04094 67475 42680 42705 10241 20178 48504 70222 84251
                   333 58004 84838 82360 83080 91018=
201402040600 AAXX 04064 67475 11480 72603 10193 20187 48506 60184 76066 8157/
                   333 10226 20174 58003 81710 87460 91018=
201402040300 AAXX 04034 67475 NIL=
201402032100 AAXX 03214 67475 NIL=
201402031800 AAXX 03184 67475 NIL=
201402031500 AAXX 03154 67475 NIL=
201402031200 AAXX 03124 67475 41780 40803 10286 20165 48467 71722 81903
                   333 59016 81950 84850 81080 91013=
201402030900 AAXX 03094 67475 41680 32902 10262 20162 48501 70322 81152
                   333 59010 81845 83360 81080 91017=
201402030600 AAXX 03064 67475 12980 70103 10180 20175 48502 60014 8703/
                   333 10243 20147 59008 87360 91018=
201402021800 AAXX 02184 67475 NIL=
201402021500 AAXX 02154 67475 NIL=
201402021200 AAXX 02124 67475 NIL=
201402020900 AAXX 02094 67475 NIL=
201402020600 AAXX 02064 67475 NIL=
201402020300 AAXX 02034 67475 NIL=
201402012100 AAXX 01214 67475 NIL=
201402011800 AAXX 01184 67475 NIL=
201402011500 AAXX 01154 67475 NIL=
201402011200 AAXX 01124 67475 NIL=
201402010900 AAXX 01094 67475 NIL=
201402010600 AAXX 01064 67475 NIL=

################################################################################
#  SYNOPS from 67476, Misamfu (Zambia) | 10-06S | 031-15E | 1536 m
################################################################################
201403030300 AAXX 03034 67476 NIL=
201403030000 AAXX 03004 67476 NIL=
201403022100 AAXX 02214 67476 NIL=
201403021800 AAXX 02184 67476 NIL=
201403021500 AAXX 02154 67476 NIL=
201403021200 AAXX 02124 67476 NIL=
201403020900 AAXX 02094 67476 NIL=
201403020600 AAXX 02064 67476 NIL=
201403020300 AAXX 02034 67476 NIL=
201403020000 AAXX 02004 67476 NIL=
201403012100 AAXX 01214 67476 NIL=
201403011800 AAXX 01184 67476 NIL=
201403011500 AAXX 01154 67476 NIL=
201403011200 AAXX 01121 67476 NIL=
201403010900 AAXX 01094 67476 NIL=
201403010600 AAXX 01064 67476 NIL=
201403010000 AAXX 01004 67476 NIL=
201402282100 AAXX 28214 67476 NIL=
201402281800 AAXX 28184 67476 NIL=
201402281500 AAXX 28154 67476 NIL=
201402281200 AAXX 28124 67476 NIL=
201402280900 AAXX 28094 67476 NIL=
201402280600 AAXX 28064 67476 NIL=
201402280300 AAXX 28034 67476 NIL=
201402280000 AAXX 28004 67476 NIL=
201402272100 AAXX 27214 67476 NIL=
201402271800 AAXX 27184 67476 NIL=
201402271500 AAXX 27154 67476 NIL=
201402271200 AAXX 27124 67476 NIL=
201402270900 AAXX 27094 67476 NIL=
201402270600 AAXX 27064 67476 NIL=
201402262100 AAXX 26214 67476 NIL=
201402261500 AAXX 26154 67476 NIL=
201402261200 AAXX 26124 67476 NIL=
201402260900 AAXX 26094 67476 NIL=
201402260300 AAXX 26034 67476 NIL=
201402252100 AAXX 25214 67476 NIL=
201402251500 AAXX 25154 67476 NIL=
201402251200 AAXX 25124 67476 NIL=
201402250900 AAXX 25094 67476 NIL=
201402250600 AAXX 25064 67476 NIL=
201402250300 AAXX 25034 67476 NIL=
201402242100 AAXX 24214 67476 NIL=
201402241800 AAXX 24184 67476 NIL=
201402241500 AAXX 24154 67476 NIL=
201402241200 AAXX 24124 67476 NIL=
201402240900 AAXX 24094 67476 NIL=
201402240600 AAXX 24064 67476 NIL=
201402240300 AAXX 24034 67476 NIL=
201402240000 AAXX 24004 67476 NIL=
201402232100 AAXX 23214 67476 NIL=
201402231500 AAXX 23154 67476 NIL=
201402230900 AAXX 23094 67476 NIL=
201402230600 AAXX 23064 67476 NIL=
201402230300 AAXX 23034 67476 NIL=
201402221800 AAXX 22184 67476 NIL=
201402221500 AAXX 22154 67476 NIL=
201402220900 AAXX 22094 67476 NIL=
201402220600 AAXX 22064 67476 NIL=
201402211500 AAXX 21154 67476 NIL=
201402211200 AAXX 21124 67476 NIL=
201402210900 AAXX 21094 67476 NIL=
201402210600 AAXX 21064 67476 NIL=
201402202100 AAXX 20214 67476 NIL=
201402201200 AAXX 20124 67476 NIL=
201402200900 AAXX 20094 67476 NIL=
201402200600 AAXX 20064 67476 NIL=
201402200300 AAXX 20034 67476 NIL=
201402192100 AAXX 19214 67476 NIL=
201402191800 AAXX 19184 67476 NIL=
201402191200 AAXX 19124 67476 NIL=
201402190900 AAXX 19094 67476 NIL=
201402190600 AAXX 19064 67476 NIL=
201402190300 AAXX 19034 67476 NIL=
201402190000 AAXX 19004 67476 NIL=
201402181500 AAXX 18154 67476 NIL=
201402181200 AAXX 18124 67476 NIL=
201402180900 AAXX 18094 67476 NIL=
201402180600 AAXX 18064 67476 NIL=
201402180300 AAXX 18034 67476 NIL=
201402180000 AAXX 18004 67476 NIL=
201402172100 AAXX 17214 67476 NIL=
201402171500 AAXX 17154 67476 NIL=
201402171200 AAXX 17124 67476 NIL=
201402170900 AAXX 17094 67476 NIL=
201402170600 AAXX 17064 67476 12580 6//// 10173 20165 48/// 60054 85870
                   333 10260 20168 84620 82823 86458=
201402161800 AAXX 16184 67476 NIL=
201402161500 AAXX 16154 67476 NIL=
201402161200 AAXX 16124 67476 NIL=
201402160900 AAXX 16094 67476 NIL=
201402160600 AAXX 16064 67476 NIL=
201402160300 AAXX 16034 67476 NIL=
201402152100 AAXX 15214 67476 NIL=
201402151800 AAXX 15184 67476 NIL=
201402151500 AAXX 15154 67476 NIL=
201402151200 AAXX 15124 67476 NIL=
201402150900 AAXX 15094 67476 NIL=
201402150600 AAXX 15064 67476 NIL=
201402150300 AAXX 15034 67476 NIL=
201402142100 AAXX 14214 67476 NIL=
201402141200 AAXX 14124 67476 NIL=
201402140900 AAXX 14094 67476 NIL=
201402140600 AAXX 14064 67476 12580 5//// 10270 20168 48/// 60124 70322 85830
                   333 10270 20170 83620 82823 86360
                   555 00/// 20990=
201402140300 AAXX 14034 67476 NIL=
201402132100 AAXX 13214 67476 NIL=
201402131200 AAXX 13124 67476 NIL=
201402130900 AAXX 13094 67476 NIL=
201402130600 AAXX 13064 67476 NIL=
201402130300 AAXX 13034 67476 NIL=
201402130000 AAXX 13004 67476 NIL=
201402121800 AAXX 12184 67476 NIL=
201402121500 AAXX 12154 67476 NIL=
201402121200 AAXX 12124 67476 NIL=
201402120900 AAXX 12094 67476 NIL=
201402120600 AAXX 12064 67476 NIL=
201402120000 AAXX 12004 67476 NIL=
201402112100 AAXX 11214 67476 NIL=
201402111800 AAXX 11184 67476 NIL=
201402111200 AAXX 11124 67476 NIL=
201402110900 AAXX 11094 67476 NIL=
201402110600 AAXX 11064 67476 NIL=
201402102100 AAXX 10214 67476 NIL=
201402101800 AAXX 10184 67476 NIL=
201402101500 AAXX 10154 67476 NIL=
201402101200 AAXX 10124 67476 NIL=
201402100900 AAXX 10094 67476 NIL=
201402100600 AAXX 10060 67476 NIL=
201402092100 AAXX 09214 67476 NIL=
201402091800 AAXX 09184 67476 NIL=
201402091500 AAXX 09154 67476 NIL=
201402091200 AAXX 09124 67476 NIL=
201402090900 AAXX 09094 67476 NIL=
201402090600 AAXX 09064 67476 NIL=
201402082100 AAXX 08214 67476 NIL=
201402081800 AAXX 08184 67476 NIL=
201402081500 AAXX 08154 67476 NIL=
201402081200 AAXX 08124 67476 NIL=
201402080900 AAXX 08094 67476 NIL=
201402080600 AAXX 08064 67476 NIL=
201402080300 AAXX 08034 67476 NIL=
201402080000 AAXX 08004 67476 NIL=
201402071800 AAXX 07184 67476 NIL=
201402071500 AAXX 07154 67476 NIL=
201402071200 AAXX 07124 67476 NIL=
201402070900 AAXX 07094 67476 NIL=
201402070600 AAXX 07064 67476 11980 8//// 10170 20163 48/// 60214 76366 8807/
                   333 10283 20167 88458=
201402070300 AAXX 07034 67476 NIL=
201402070000 AAXX 07004 67476 NIL=
201402062100 AAXX 06214 67476 NIL=
201402061800 AAXX 06184 67476 NIL=
201402061500 AAXX 06154 67476 NIL=
201402061200 AAXX 06124 67476 NIL=
201402060900 AAXX 06094 67476 NIL=
201402060600 AAXX 06064 67476 NIL=
201402060300 AAXX 06034 67476 NIL=
201402060000 AAXX 06004 67476 NIL=
201402052100 AAXX 05214 67476 NIL=
201402051800 AAXX 05184 67476 NIL=
201402051500 AAXX 05154 67476 NIL=
201402051200 AAXX 05124 67476 NIL=
201402050900 AAXX 05094 67476 NIL=
201402050600 AAXX 05064 67476 12980 80803 10204 20190 48/// 60184 8807/
                   333 10287 20187 5//// 88459
                   555 00///=
201402050300 AAXX 05034 67476 NIL=
201402041800 AAXX 04184 67476 NIL=
201402041500 AAXX 04154 67476 NIL=
201402041200 AAXX 04124 67476 NIL=
201402040900 AAXX 04094 67476 NIL=
201402040600 AAXX 04064 67476 NIL=
201402040300 AAXX 04034 67476 NIL=
201402032100 AAXX 03214 67476 NIL=
201402031800 AAXX 03184 67476 NIL=
201402031500 AAXX 03154 67476 NIL=
201402031200 AAXX 03124 67476 NIL=
201402030900 AAXX 03094 67476 NIL=
201402030600 AAXX 03064 67476 NIL=
201402021800 AAXX 02184 67476 NIL=
201402021500 AAXX 02154 67476 NIL=
201402021200 AAXX 02124 67476 NIL=
201402020900 AAXX 02094 67476 NIL=
201402020600 AAXX 02064 67476 NIL=
201402020300 AAXX 02034 67476 NIL=
201402012100 AAXX 01214 67476 NIL=
201402011800 AAXX 01184 67476 NIL=
201402011500 AAXX 01154 67476 NIL=
201402011200 AAXX 01124 67476 NIL=
201402010900 AAXX 01094 67476 NIL=
201402010600 AAXX 01064 67476 NIL=

################################################################################
#  SYNOPS from 67477, Mpika (Zambia) | 11-54S | 031-26E | 1400 m
################################################################################
201403030300 AAXX 03034 67477 NIL=
201403030000 AAXX 03004 67477 NIL=
201403022100 AAXX 02214 67477 NIL=
201403021800 AAXX 02184 67477 NIL=
201403021500 AAXX 02154 67477 NIL=
201403021200 AAXX 02124 67477 NIL=
201403020900 AAXX 02094 67477 NIL=
201403020600 AAXX 02064 67477 NIL=
201403020300 AAXX 02034 67477 NIL=
201403020000 AAXX 02004 67477 NIL=
201403012100 AAXX 01214 67477 NIL=
201403011800 AAXX 01184 67477 NIL=
201403011500 AAXX 01154 67477 NIL=
201403011200 AAXX 01121 67477 NIL=
201403010900 AAXX 01094 67477 NIL=
201403010600 AAXX 01064 67477 NIL=
201403010000 AAXX 01004 67477 NIL=
201402282100 AAXX 28214 67477 NIL=
201402281800 AAXX 28184 67477 NIL=
201402281500 AAXX 28154 67477 NIL=
201402281200 AAXX 28124 67477 NIL=
201402280900 AAXX 28094 67477 NIL=
201402280600 AAXX 28064 67477 11980 70000 10185 20177 48524 60194 72162 8707/
                   333 10273 20170 58002 87460 91021=
201402280300 AAXX 28034 67477 NIL=
201402280000 AAXX 28004 67477 NIL=
201402272100 AAXX 27214 67477 NIL=
201402271800 AAXX 27184 67477 NIL=
201402271500 AAXX 27154 67477 NIL=
201402271200 AAXX 27124 67477 NIL=
201402270900 AAXX 27094 67477 NIL=
201402270600 AAXX 27064 67477 11980 80000 10180 20177 48522 60024 72162 8807/
                   333 10250 20167 58008 88460 91020=
201402262100 AAXX 26214 67477 NIL=
201402261500 AAXX 26154 67477 NIL=
201402261200 AAXX 26124 67477 NIL=
201402260900 AAXX 26094 67477 NIL=
201402260600 AAXX 26064 67477 12980 60000 10200 20185 48515 69904 86030
                   333 10240 20170 58017 86360 91020=
201402260300 AAXX 26034 67477 NIL=
201402252100 AAXX 25214 67477 NIL=
201402251500 AAXX 25154 67477 NIL=
201402251200 AAXX 25124 67477 NIL=
201402250900 AAXX 25094 67477 NIL=
201402250600 AAXX 25064 67477 11975 80000 10181 20179 48512 60364 76166 8807/
                   333 10261 20168 58015 88459 91019=
201402250300 AAXX 25034 67477 NIL=
201402242100 AAXX 24214 67477 NIL=
201402241800 AAXX 24184 67477 NIL=
201402241500 AAXX 24154 67477 NIL=
201402241200 AAXX 24124 67477 NIL=
201402240900 AAXX 24094 67477 NIL=
201402240600 AAXX 24064 67477 11480 70000 10191 20177 48512 60194 72842 86530
                   333 10236 20169 59011 86611 82359=
201402240300 AAXX 24034 67477 NIL=
201402240000 AAXX 24004 67477 NIL=
201402232100 AAXX 23214 67477 NIL=
201402231500 AAXX 23154 67477 NIL=
201402230900 AAXX 23094 67477 NIL=
201402230600 AAXX 23064 67477 NIL=
201402230300 AAXX 23034 67477 NIL=
201402221800 AAXX 22184 67477 NIL=
201402221500 AAXX 22154 67477 NIL=
201402220900 AAXX 22094 67477 NIL=
201402220600 AAXX 22064 67477 NIL=
201402211500 AAXX 21154 67477 NIL=
201402211200 AAXX 21124 67477 NIL=
201402210900 AAXX 21094 67477 NIL=
201402210600 AAXX 21064 67477 11980 80000 10186 20170 48523 60044 72162 8807/
                   333 10270 20163 58011 88460 91021=
201402202100 AAXX 20214 67477 NIL=
201402201200 AAXX 20124 67477 NIL=
201402200900 AAXX 20094 67477 NIL=
201402200600 AAXX 20064 67477 12480 80000 10191 20184 48512 60064 8357/
                   333 10265 20170 59003 83610 88460 91019=
201402200300 AAXX 20034 67477 NIL=
201402192100 AAXX 19214 67477 NIL=
201402191800 AAXX 19184 67477 NIL=
201402191200 AAXX 19124 67477 NIL=
201402190900 AAXX 19094 67477 NIL=
201402190600 AAXX 19064 67477 NIL=
201402190300 AAXX 19034 67477 NIL=
201402190000 AAXX 19004 67477 NIL=
201402181500 AAXX 18154 67477 NIL=
201402181200 AAXX 18124 67477 NIL=
201402180900 AAXX 18094 67477 NIL=
201402180600 AAXX 18064 67477 11478 70902 10191 20177 48525 60044 72842 85570
                   333 10226 20164 58002 85611 83459=
201402180300 AAXX 18034 67477 NIL=
201402180000 AAXX 18004 67477 NIL=
201402172100 AAXX 17214 67477 NIL=
201402171500 AAXX 17154 67477 NIL=
201402171200 AAXX 17124 67477 NIL=
201402170900 AAXX 17094 67477 NIL=
201402170600 AAXX 17064 67477 NIL=
201402161800 AAXX 16184 67477 NIL=
201402161500 AAXX 16154 67477 NIL=
201402161200 AAXX 16124 67477 NIL=
201402160900 AAXX 16094 67477 NIL=
201402160600 AAXX 16064 67477 NIL=
201402160300 AAXX 16034 67477 NIL=
201402152100 AAXX 15214 67477 NIL=
201402151800 AAXX 15184 67477 NIL=
201402151500 AAXX 15154 67477 NIL=
201402151200 AAXX 15124 67477 NIL=
201402150900 AAXX 15094 67477 NIL=
201402150600 AAXX 15064 67477 NIL=
201402150300 AAXX 15034 67477 NIL=
201402142100 AAXX 14214 67477 NIL=
201402141200 AAXX 14124 67477 NIL=
201402140900 AAXX 14094 67477 NIL=
201402140600 AAXX 14064 67477 12480 60000 10206 20173 48509 60114 81130
                   333 10265 20175 58000 81812 86359 91019=
201402140300 AAXX 14034 67477 NIL=
201402132100 AAXX 13214 67477 NIL=
201402131200 AAXX 13124 67477 NIL=
201402130900 AAXX 13094 67477 NIL=
201402130600 AAXX 13064 67477 12980 63006 10192 20177 48508 60044 86031
                   333 10270 20162 58010 86359 82080=
201402130300 AAXX 13034 67477 NIL=
201402130000 AAXX 13004 67477 NIL=
201402121800 AAXX 12184 67477 NIL=
201402121500 AAXX 12154 67477 NIL=
201402121200 AAXX 12124 67477 NIL=
201402120900 AAXX 12094 67477 NIL=
201402120600 AAXX 12064 67477 11480 80000 10191 20182 48509 60184 72162 8457/
                   333 10259 20159 58000 84610 86459=
201402120000 AAXX 12004 67477 NIL=
201402112100 AAXX 11214 67477 NIL=
201402111800 AAXX 11184 67477 NIL=
201402111200 AAXX 11124 67477 NIL=
201402110900 AAXX 11094 67477 NIL=
201402110600 AAXX 11064 67477 11475 80000 10182 20176 48509 60184 72842 8357/
                   333 10225 20160 58004 83610 86460=
201402102100 AAXX 10214 67477 NIL=
201402101800 AAXX 10184 67477 NIL=
201402101500 AAXX 10154 67477 NIL=
201402101200 AAXX 10124 67477 NIL=
201402100900 AAXX 10094 67477 NIL=
201402100600 AAXX 10064 67477 12480 73306 10182 20169 48505 60054 8157/
                   333 10230 20168 58005 81610 87460 91018=
201402092100 AAXX 09214 67477 NIL=
201402091800 AAXX 09184 67477 NIL=
201402091500 AAXX 09154 67477 NIL=
201402091200 AAXX 09124 67477 NIL=
201402090900 AAXX 09094 67477 NIL=
201402090600 AAXX 09064 67477 NIL=
201402082100 AAXX 08214 67477 NIL=
201402081800 AAXX 08184 67477 NIL=
201402081500 AAXX 08154 67477 NIL=
201402081200 AAXX 08124 67477 NIL=
201402080900 AAXX 08094 67477 NIL=
201402080600 AAXX 08064 67477 NIL=
201402080300 AAXX 08034 67477 NIL=
201402080000 AAXX 08004 67477 NIL=
201402071800 AAXX 07184 67477 NIL=
201402071500 AAXX 07154 67477 NIL=
201402071200 AAXX 07124 67477 NIL=
201402070900 AAXX 07094 67477 NIL=
201402070600 AAXX 07064 67477 11320 83305 10180 20177 48506 60074 76166 8352/
                   333 10262 20174 58008 83609 88459 91019=
201402070300 AAXX 07034 67477 NIL=
201402070000 AAXX 07004 67477 NIL=
201402062100 AAXX 06214 67477 NIL=
201402061800 AAXX 06184 67477 NIL=
201402061500 AAXX 06154 67477 NIL=
201402061200 AAXX 06124 67477 NIL=
201402060900 AAXX 06094 67477 NIL=
201402060600 AAXX 06064 67477 NIL=
201402060300 AAXX 06034 67477 NIL=
201402060000 AAXX 06004 67477 NIL=
201402052100 AAXX 05214 67477 NIL=
201402051800 AAXX 05184 67477 NIL=
201402051500 AAXX 05154 67477 NIL=
201402051200 AAXX 05124 67477 NIL=
201402050900 AAXX 05094 67477 NIL=
201402050600 AAXX 05064 67477 NIL=
201402050300 AAXX 05034 67477 NIL=
201402041800 AAXX 04184 67477 NIL=
201402041500 AAXX 04154 67477 NIL=
201402041200 AAXX 04124 67477 NIL=
201402040900 AAXX 04094 67477 NIL=
201402040600 AAXX 04064 67477 11478 70000 10189 20177 48514 60164 72842 875//
                   333 10280 20165 58010 87610 91020=
201402040300 AAXX 04034 67477 NIL=
201402032100 AAXX 03214 67477 NIL=
201402031800 AAXX 03184 67477 NIL=
201402031500 AAXX 03154 67477 NIL=
201402031200 AAXX 03124 67477 NIL=
201402030900 AAXX 03094 67477 NIL=
201402030600 AAXX 03064 67477 NIL=
201402021800 AAXX 02184 67477 NIL=
201402021500 AAXX 02154 67477 NIL=
201402021200 AAXX 02124 67477 NIL=
201402020900 AAXX 02094 67477 NIL=
201402020600 AAXX 02064 67477 NIL=
201402020300 AAXX 02034 67477 NIL=
201402012100 AAXX 01214 67477 NIL=
201402011800 AAXX 01184 67477 NIL=
201402011500 AAXX 01154 67477 NIL=
201402011200 AAXX 01124 67477 NIL=
201402010900 AAXX 01094 67477 NIL=
201402010600 AAXX 01064 67477 NIL=

################################################################################
#  SYNOPS from 67481, Isoka (Zambia) | 10-07S | 032-38E | 1360 m
################################################################################
201403030300 AAXX 03034 67481 NIL=
201403030000 AAXX 03004 67481 NIL=
201403022100 AAXX 02214 67481 NIL=
201403021800 AAXX 02184 67481 NIL=
201403021500 AAXX 02154 67481 NIL=
201403021200 AAXX 02124 67481 NIL=
201403020900 AAXX 02094 67481 NIL=
201403020600 AAXX 02064 67481 NIL=
201403020300 AAXX 02034 67481 NIL=
201403020000 AAXX 02004 67481 NIL=
201403012100 AAXX 01214 67481 NIL=
201403011800 AAXX 01184 67481 NIL=
201403011500 AAXX 01154 67481 NIL=
201403011200 AAXX 01121 67481 NIL=
201403010900 AAXX 01094 67481 NIL=
201403010600 AAXX 01064 67481 NIL=
201403010000 AAXX 01004 67481 NIL=
201402282100 AAXX 28214 67481 NIL=
201402281800 AAXX 28184 67481 NIL=
201402281500 AAXX 28154 67481 NIL=
201402281200 AAXX 28124 67481 42680 50401 10258 20178 84232
                   333 58002 84831 81361 82080=
201402280900 AAXX 28094 67481 42580 71201 10243 20180 8382/
                   333 58003 83826 82628 87361=
201402280600 AAXX 28064 67481 32480 60000 10215 20183 83230
                   333 10243 20178 58001 83815 86361=
201402280300 AAXX 28034 67481 NIL=
201402280000 AAXX 28004 67481 NIL=
201402272100 AAXX 27214 67481 NIL=
201402271800 AAXX 27184 67481 NIL=
201402271500 AAXX 27154 67481 NIL=
201402271200 AAXX 27124 67481 41480 70301 10235 20174 71799 85207
                   333 58004 82919 83819 87280=
201402270900 AAXX 27094 67481 42480 80000 10230 20197 85570
                   333 58011 85615 88460=
201402270600 AAXX 27064 67481 12380 80000 10200 20193 60374 8367/
                   333 10284 58003 83709 88460=
201402262100 AAXX 26214 67481 NIL=
201402261500 AAXX 26154 67481 NIL=
201402261200 AAXX 26124 67481 42680 60104 10276 20170 84232
                   333 59007 81945 84845 82361 82080=
201402260900 AAXX 26094 67481 42580 70201 10249 20184 83830
                   333 59006 81925 81825 82627 87361=
201402260600 AAXX 26064 67481 12980 73601 10196 20167 60034 8707/
                   333 10231 20179 59001 87360=
201402260300 AAXX 26034 67481 NIL=
201402252100 AAXX 25214 67481 NIL=
201402251500 AAXX 25154 67481 NIL=
201402251200 AAXX 25124 67481 41475 73605 10216 20186 72162 83577
                   333 58015 83614 85360 87280=
201402250900 AAXX 25094 67481 41475 73603 10207 20182 75155 8467/
                   333 58013 84710 87460=
201402250600 AAXX 25064 67481 11375 70303 10192 20182 60044 75052 8467/
                   333 10255 20179 58001 84707 87460=
201402250300 AAXX 25034 67481 NIL=
201402242100 AAXX 24214 67481 NIL=
201402241800 AAXX 24184 67481 NIL=
201402241500 AAXX 24154 67481 NIL=
201402241200 AAXX 24124 67481 41580 63504 10214 20194 71722 84207
                   333 59008 81921 84821 86280=
201402240900 AAXX 24094 67481 42480 62102 10235 20191 84532
                   333 59009 84617 83361 82080=
201402240600 AAXX 24064 67481 12380 70000 10189 20175 60024 8367/
                   333 10265 20172 59009 83709 87360=
201402240300 AAXX 24034 67481 NIL=
201402240000 AAXX 24004 67481 NIL=
201402232100 AAXX 23214 67481 NIL=
201402231500 AAXX 23154 67481 NIL=
201402230900 AAXX 23094 67481 NIL=
201402230600 AAXX 23064 67481 NIL=
201402230300 AAXX 23034 67481 NIL=
201402221800 AAXX 22184 67481 NIL=
201402221500 AAXX 22154 67481 NIL=
201402220900 AAXX 22094 67481 NIL=
201402220600 AAXX 22064 67481 NIL=
201402211500 AAXX 21154 67481 NIL=
201402211200 AAXX 21124 67481 42680 70106 10267 20181 84207
                   333 59006 81934 84834 87280=
201402210900 AAXX 21094 67481 42480 73601 10226 20180 84587
                   333 5//// 84615 83361 87280=
201402210600 AAXX 21064 67481 12380 73603 10199 20184 69974 82687
                   333 10255 20180 5//// 82707 85360 87280=
201402202100 AAXX 20214 67481 NIL=
201402201200 AAXX 20124 67481 41480 60102 10243 20197 72095 85807
                   333 58014 82919 83819 81620 86280=
201402200900 AAXX 20094 67481 42580 60205 10249 20192 84232
                   333 5//// 81920 84820 83361 85080=
201402200600 AAXX 20064 67481 12480 60302 10215 20196 60294 84532
                   333 10260 20179 5//// 84610 85361 83080=
201402200300 AAXX 20034 67481 NIL=
201402192100 AAXX 19214 67481 NIL=
201402191800 AAXX 19184 67481 NIL=
201402191200 AAXX 19124 67481 41480 70000 10205 20197 76096 85808
                   333 59016 81916 83816 84619 85280=
201402190900 AAXX 19094 67481 41580 60302 10245 20194 71722 85202
                   333 59013 82920 84820 84080=
201402190600 AAXX 19064 67481 32480 63502 10209 20194 48/// 84582
                   333 10256 20192 59010 84610 85361 85080
                   555 00/// 20000=
201402190300 AAXX 19034 67481 NIL=
201402190000 AAXX 19004 67481 NIL=
201402181500 AAXX 18154 67481 NIL=
201402181200 AAXX 18124 67481 42580 70701 10248 20199 87802
                   333 59007 83820 86622 84080=
201402180900 AAXX 18094 67481 42480 70202 10234 20184 85807
                   333 59004 82819 85620 86280=
201402180600 AAXX 18064 67481 42380 70000 10205 20190 84507
                   333 10268 20189 58094 84609 87280=
201402180300 AAXX 18034 67481 NIL=
201402180000 AAXX 18004 67481 NIL=
201402172100 AAXX 17214 67481 NIL=
201402171500 AAXX 17154 67481 NIL=
201402171200 AAXX 17124 67481 42680 62605 10243 20154 82848
                   333 58023 82836 81637 84361 86280=
201402170900 AAXX 17094 67481 42480 73402 10216 20167 48/// 84837
                   333 58025 81815 84616 83360 87280=
201402170600 AAXX 17064 67481 32380 73302 10191 20164 85607
                   333 10254 20187 59031 85706 87280=
201402161800 AAXX 16184 67481 NIL=
201402161500 AAXX 16154 67481 NIL=
201402161200 AAXX 16124 67481 NIL=
201402160900 AAXX 16094 67481 NIL=
201402160600 AAXX 16064 67481 NIL=
201402160300 AAXX 16034 67481 NIL=
201402152100 AAXX 15214 67481 NIL=
201402151800 AAXX 15184 67481 NIL=
201402151500 AAXX 15154 67481 NIL=
201402151200 AAXX 15124 67481 NIL=
201402150900 AAXX 15094 67481 NIL=
201402150600 AAXX 15064 67481 NIL=
201402150300 AAXX 15034 67481 NIL=
201402142100 AAXX 14214 67481 NIL=
201402141200 AAXX 14124 67481 41580 60000 10207 20193 71796 84502
                   333 58014 82928 82628 85080=
201402140900 AAXX 14094 67481 42580 73201 10234 20183 878//
                   333 58010 82822 87625=
201402140600 AAXX 14064 67481 11380 70301 10192 20189 60254 72166 83777
                   333 10269 20180 58000 83707 84460 87280=
201402140300 AAXX 14034 67481 NIL=
201402132100 AAXX 13214 67481 NIL=
201402131200 AAXX 13124 67481 42580 60406 10250 20191 48/// 58001 81925
                   333 84825 83080=
201402130900 AAXX 13094 67481 NIL=
201402130600 AAXX 13064 67481 11380 73601 10180 20174 60044 72166 83778
                   333 10255 20176 58001 83708 84460 86280=
201402130300 AAXX 13034 67481 NIL=
201402130000 AAXX 13004 67481 NIL=
201402121800 AAXX 12184 67481 NIL=
201402121500 AAXX 12154 67481 NIL=
201402121200 AAXX 12124 67481 42680 63003 10245 20168 86802
                   333 59016 84831 84633 84080=
201402120900 AAXX 12094 67481 42580 62707 10221 20174 48/// 85830
                   333 59002 82820 84621 84361=
201402120600 AAXX 12064 67481 11380 70000 10182 20174 60074 72166 8477/
                   333 10226 20176 59002 84707 87460=
201402120000 AAXX 12004 67481 NIL=
201402112100 AAXX 11214 67481 NIL=
201402111800 AAXX 11184 67481 NIL=
201402111200 AAXX 11124 67481 NIL=
201402110900 AAXX 11094 67481 NIL=
201402110600 AAXX 11064 67481 11380 80000 10189 20181 60134 75052 8777/
                   333 10259 20178 58008 87707 88460=
201402102100 AAXX 10214 67481 NIL=
201402101800 AAXX 10184 67481 NIL=
201402101500 AAXX 10154 67481 NIL=
201402101200 AAXX 10124 67481 41680 73601 10237 20195 71796 83907
                   333 58004 82932 82832 85634 86280=
201402100900 AAXX 10094 67481 42580 10242 20192 58004 83822=
201402100600 AAXX 10064 67481 12980 70404 10192 20167 60124 86077
                   333 10266 20173 59001 86360 87280=
201402092100 AAXX 09214 67481 NIL=
201402091800 AAXX 09184 67481 NIL=
201402091500 AAXX 09154 67481 NIL=
201402091200 AAXX 09124 67481 NIL=
201402090900 AAXX 09094 67481 NIL=
201402090600 AAXX 09064 67481 NIL=
201402082100 AAXX 08214 67481 NIL=
201402081800 AAXX 08184 67481 NIL=
201402081500 AAXX 08154 67481 NIL=
201402081200 AAXX 08124 67481 NIL=
201402080900 AAXX 08094 67481 NIL=
201402080600 AAXX 08064 67481 NIL=
201402080300 AAXX 08034 67481 NIL=
201402080000 AAXX 08004 67481 NIL=
201402071800 AAXX 07184 67481 NIL=
201402071500 AAXX 07154 67481 NIL=
201402071200 AAXX 07124 67481 41375 83303 10193 20187 76166 8477/
                   333 58013 84706 88460=
201402070900 AAXX 07094 67481 41375 83603 10204 20184 76065 8477/
                   333 58011 84707 88460=
201402070600 AAXX 07064 67481 31375 83602 10190 20179 71082 84707
                   333 10281 20180 58010 84706 88280=
201402070300 AAXX 07034 67481 NIL=
201402070000 AAXX 07004 67481 NIL=
201402062100 AAXX 06214 67481 NIL=
201402061800 AAXX 06184 67481 NIL=
201402061500 AAXX 06154 67481 NIL=
201402061200 AAXX 06124 67481 42680 62407 10272 20162 83868
                   333 58003 83842 81645 82361 86280=
201402060900 AAXX 06094 67481 42680 63002 10252 20168 83832
                   333 59003 82831 82633 81361 85080=
201402060600 AAXX 06064 67481 32480 73402 10217 20178 81162
                   333 10285 20178 59007 81815 84360 85080
                   555 00/// 20071=
201402060300 AAXX 06034 67481 NIL=
201402060000 AAXX 06004 67481 NIL=
201402052100 AAXX 05214 67481 NIL=
201402051800 AAXX 05184 67481 NIL=
201402051500 AAXX 05154 67481 NIL=
201402051200 AAXX 05124 67481 42680 63006 10274 20175 83802=
201402050900 AAXX 05094 67481 42580 63604 10234 20186 82132
                   333 58003 82820 84361 83080=
201402050600 AAXX 05064 67481 12380 60302 10198 20185 60714 83667
                   333 10265 20174 58004 83708 84360 86280=
201402050300 AAXX 05034 67481 NIL=
201402041800 AAXX 04184 67481 NIL=
201402041500 AAXX 04154 67481 NIL=
201402041200 AAXX 04124 67481 NIL=
201402040900 AAXX 04094 67481 42480 73502 10255 20187 84807
                   333 5//// 81927 84827 85629 86280=
201402040600 AAXX 04064 67481 32480 53602 10217 20183 81161
                   333 10305 20184 5//// 81814 84361 83080=
201402040300 AAXX 04034 67481 NIL=
201402032100 AAXX 03214 67481 NIL=
201402031800 AAXX 03184 67481 NIL=
201402031500 AAXX 03154 67481 NIL=
201402031200 AAXX 03124 67481 NIL=
201402030900 AAXX 03094 67481 42580 50203 10262 20184 82231
                   333 5//// 82829 84360 83080=
201402030600 AAXX 03064 67481 32980 60103 10215 20187 86062
                   333 10284 20166 5//// 86360 83080=
201402021800 AAXX 02184 67481 NIL=
201402021500 AAXX 02154 67481 NIL=
201402021200 AAXX 02124 67481 NIL=
201402020900 AAXX 02094 67481 NIL=
201402020600 AAXX 02064 67481 NIL=
201402020300 AAXX 02034 67481 NIL=
201402012100 AAXX 01214 67481 NIL=
201402011800 AAXX 01184 67481 NIL=
201402011500 AAXX 01154 67481 NIL=
201402011200 AAXX 01124 67481 NIL=
201402010900 AAXX 01094 67481 NIL=
201402010600 AAXX 01064 67481 NIL=

################################################################################
#  SYNOPS from 67531, Zambezi (Zambia) | 13-32S | 023-07E | 1077 m
################################################################################
201403030300 AAXX 03034 67531 NIL=
201403030000 AAXX 03004 67531 NIL=
201403022100 AAXX 02214 67531 NIL=
201403021800 AAXX 02184 67531 NIL=
201403021500 AAXX 02154 67531 NIL=
201403021200 AAXX 02124 67531 NIL=
201403020900 AAXX 02094 67531 NIL=
201403020600 AAXX 02064 67531 NIL=
201403020300 AAXX 02034 67531 NIL=
201403020000 AAXX 02004 67531 NIL=
201403012100 AAXX 01214 67531 NIL=
201403011800 AAXX 01184 67531 NIL=
201403011500 AAXX 01154 67531 NIL=
201403011200 AAXX 01121 67531 NIL=
201403010900 AAXX 01094 67531 NIL=
201403010600 AAXX 01064 67531 NIL=
201403010000 AAXX 01004 67531 NIL=
201402282100 AAXX 28214 67531 NIL=
201402281800 AAXX 28184 67531 NIL=
201402281500 AAXX 28154 67531 NIL=
201402281200 AAXX 28124 67531 NIL=
201402280900 AAXX 28094 67531 NIL=
201402280600 AAXX 28064 67531 11380 80501 10201 20192 48/// 60024 76066 8277/
                   333 10315 20198 58006 82706 88460=
201402280300 AAXX 28034 67531 NIL=
201402280000 AAXX 28004 67531 NIL=
201402272100 AAXX 27214 67531 NIL=
201402271800 AAXX 27184 67531 NIL=
201402271500 AAXX 27154 67531 NIL=
201402271200 AAXX 27124 67531 NIL=
201402270900 AAXX 27094 67531 NIL=
201402270600 AAXX 27064 67531 12980 70901 10201 20200 48/// 60014 8707/
                   333 10299 20190 58005 87460=
201402262100 AAXX 26214 67531 NIL=
201402261500 AAXX 26154 67531 NIL=
201402261200 AAXX 26124 67531 NIL=
201402260900 AAXX 26094 67531 42580 73005 10259 20196 48/// 8113/
                   333 5//// 81825 87361=
201402260600 AAXX 26064 67531 12980 70301 10205 20192 48/// 60014 8703/
                   333 10290 20182 58009 87360=
201402260300 AAXX 26034 67531 NIL=
201402252100 AAXX 25214 67531 NIL=
201402251500 AAXX 25154 67531 NIL=
201402251200 AAXX 25124 67531 NIL=
201402250900 AAXX 25094 67531 NIL=
201402250600 AAXX 25064 67531 NIL=
201402250300 AAXX 25034 67531 NIL=
201402242100 AAXX 24214 67531 NIL=
201402241800 AAXX 24184 67531 NIL=
201402241500 AAXX 24154 67531 NIL=
201402241200 AAXX 24121 67531 NIL=
201402240900 AAXX 24094 67531 42580 73105 10265 20201 48/// 83838
                   333 58001 82828 81628 83361 87280=
201402240600 AAXX 24064 67531 12980 70000 10206 20200 48/// 60174 8707/
                   333 10286 20182 58000 87360=
201402240300 AAXX 24034 67531 NIL=
201402240000 AAXX 24004 67531 NIL=
201402232100 AAXX 23214 67531 NIL=
201402231500 AAXX 23154 67531 NIL=
201402230900 AAXX 23094 67531 NIL=
201402230600 AAXX 23064 67531 NIL=
201402230300 AAXX 23034 67531 NIL=
201402221800 AAXX 22184 67531 NIL=
201402221500 AAXX 22154 67531 NIL=
201402220900 AAXX 22094 67531 NIL=
201402220600 AAXX 22064 67531 NIL=
201402211500 AAXX 21154 67531 NIL=
201402211200 AAXX 21124 67531 NIL=
201402210900 AAXX 21094 67531 NIL=
201402210600 AAXX 21064 67531 32980 73302 10207 20200 48/// 85631
                   333 10285 20183 5//// 85706 82361 81080=
201402202100 AAXX 20214 67531 NIL=
201402201200 AAXX 20124 67531 NIL=
201402200900 AAXX 20094 67531 NIL=
201402200600 AAXX 20064 67531 11380 70000 10201 20187 48/// 60064 72162 8267/
                   333 10285 20195 5//// 82706 87460=
201402200300 AAXX 20034 67531 NIL=
201402192100 AAXX 19214 67531 NIL=
201402191800 AAXX 19184 67531 NIL=
201402191200 AAXX 19124 67531 NIL=
201402190900 AAXX 19094 67531 NIL=
201402190600 AAXX 19064 67531 11380 71202 10198 20194 48/// 60064 72166 8267/
                   333 10260 20194 59006 87459
                   555 00195 20002=
201402190300 AAXX 19034 67531 NIL=
201402190000 AAXX 19004 67531 NIL=
201402181500 AAXX 18154 67531 NIL=
201402181200 AAXX 18124 67531 NIL=
201402180900 AAXX 18094 67531 NIL=
201402180600 AAXX 18064 67531 12380 70901 10201 20194 48/// 60024 8367/
                   333 10263 20193 58012 83706 87460
                   555 00197=
201402180300 AAXX 18034 67531 NIL=
201402180000 AAXX 18004 67531 NIL=
201402172100 AAXX 17214 67531 NIL=
201402171500 AAXX 17154 67531 NIL=
201402171200 AAXX 17124 67531 NIL=
201402170900 AAXX 17094 67531 NIL=
201402170600 AAXX 17064 67531 11380 81203 10200 20194 48/// 60194 72166 8577/
                   333 10300 20190 59002 85706 87460=
201402161800 AAXX 16184 67531 NIL=
201402161500 AAXX 16154 67531 NIL=
201402161200 AAXX 16124 67531 NIL=
201402160900 AAXX 16094 67531 NIL=
201402160600 AAXX 16064 67531 NIL=
201402160300 AAXX 16034 67531 NIL=
201402152100 AAXX 15214 67531 NIL=
201402151800 AAXX 15184 67531 NIL=
201402151500 AAXX 15154 67531 NIL=
201402151200 AAXX 15124 67531 NIL=
201402150900 AAXX 15094 67531 NIL=
201402150600 AAXX 15064 67531 NIL=
201402150300 AAXX 15034 67531 NIL=
201402142100 AAXX 14214 67531 NIL=
201402141200 AAXX 14121 67531 NIL=
201402140900 AAXX 14094 67531 NIL=
201402140600 AAXX 14064 67531 12980 61101 10194 20184 48/// 60114 70222 86030
                   333 10301 20179 59003 86362=
201402140300 AAXX 14034 67531 NIL=
201402132100 AAXX 13214 67531 NIL=
201402131200 AAXX 13124 67531 NIL=
201402130900 AAXX 13094 67531 41580 73603 10255 20198 48/// 70262 8113/
                   333 58003 81825 87361=
201402130600 AAXX 13064 67531 11980 70101 10205 20184 48/// 69944 76062 8707/
                   333 10297 20190 59001 87360=
201402130300 AAXX 13034 67531 NIL=
201402130000 AAXX 13004 67531 NIL=
201402121800 AAXX 12184 67531 NIL=
201402121500 AAXX 12154 67531 NIL=
201402121200 AAXX 12124 67531 42680 73605 10273 20182 48/// 85282
                   333 58005 85838 82360 81080=
201402120900 AAXX 12094 67531 NIL=
201402120600 AAXX 12064 67531 12380 70702 10197 2//// 48/// 60054 70222 8267/
                   333 10324 20197 58005 82706 87360=
201402120000 AAXX 12004 67531 NIL=
201402112100 AAXX 11214 67531 NIL=
201402111800 AAXX 11184 67531 NIL=
201402111200 AAXX 11124 67531 NIL=
201402110900 AAXX 11094 67531 NIL=
201402110600 AAXX 11064 67531 32980 70000 10212 20165 48/// 8707/
                   333 10325 20176 58006 87360=
201402102100 AAXX 10214 67531 NIL=
201402101800 AAXX 10184 67531 NIL=
201402101500 AAXX 10154 67531 NIL=
201402101200 AAXX 10124 67531 42680 62403 10306 20147 48/// 84102
                   333 58011 84857 83080=
201402100900 AAXX 10094 67531 NIL=
201402100600 AAXX 10064 67531 32980 40103 10215 20184 48/// 70222 82032
                   333 10310 20190 58011 82362 82080=
201402092100 AAXX 09214 67531 NIL=
201402091800 AAXX 09184 67531 NIL=
201402091500 AAXX 09154 67531 NIL=
201402091200 AAXX 09124 67531 NIL=
201402090900 AAXX 09094 67531 NIL=
201402090600 AAXX 09064 67531 NIL=
201402082100 AAXX 08214 67531 NIL=
201402081800 AAXX 08184 67531 NIL=
201402081500 AAXX 08154 67531 NIL=
201402081200 AAXX 08124 67531 NIL=
201402080900 AAXX 08094 67531 NIL=
201402080600 AAXX 08064 67531 NIL=
201402080300 AAXX 08034 67531 NIL=
201402080000 AAXX 08004 67531 NIL=
201402071800 AAXX 07184 67531 NIL=
201402071500 AAXX 07154 67531 NIL=
201402071200 AAXX 07124 67531 NIL=
201402070900 AAXX 07094 67531 NIL=
201402070600 AAXX 07064 67531 12380 73602 10197 20178 48/// 60034 70222 8467/
                   333 10300 20187 58017 84707 86360=
201402070300 AAXX 07034 67531 NIL=
201402070000 AAXX 07004 67531 NIL=
201402062100 AAXX 06214 67531 NIL=
201402061800 AAXX 06184 67531 NIL=
201402061500 AAXX 06154 67531 NIL=
201402061200 AAXX 06124 67531 NIL=
201402060900 AAXX 06094 67531 NIL=
201402060600 AAXX 06064 67531 12980 73302 10214 20197 48/// 69914 70222 8707/
                   333 10315 20196 5//// 87362=
201402060300 AAXX 06034 67531 NIL=
201402060000 AAXX 06004 67531 NIL=
201402052100 AAXX 05214 67531 NIL=
201402051800 AAXX 05184 67531 NIL=
201402051500 AAXX 05154 67531 NIL=
201402051200 AAXX 05124 67531 NIL=
201402050900 AAXX 05094 67531 NIL=
201402050600 AAXX 05064 67531 32380 73603 10203 20186 48/// 8667/
                   333 10315 20194 5//// 84706 82609 87460=
201402050300 AAXX 05034 67531 NIL=
201402041800 AAXX 04184 67531 NIL=
201402041500 AAXX 04154 67531 NIL=
201402041200 AAXX 04124 67531 NIL=
201402040900 AAXX 04094 67531 NIL=
201402040600 AAXX 04064 67531 11380 71002 10208 20198 48/// 69904 72166 8467/
                   333 10303 20197 58014 84606 87460=
201402040300 AAXX 04034 67531 NIL=
201402032100 AAXX 03214 67531 NIL=
201402031800 AAXX 03184 67531 NIL=
201402031500 AAXX 03154 67531 NIL=
201402031200 AAXX 03124 67531 NIL=
201402030900 AAXX 03094 67531 NIL=
201402030600 AAXX 03064 67531 32980 33604 10225 20189 48/// 70222 86030
                   333 10285 20200 58000 86360=
201402021800 AAXX 02184 67531 NIL=
201402021500 AAXX 02154 67531 NIL=
201402021200 AAXX 02124 67531 NIL=
201402020900 AAXX 02094 67531 NIL=
201402020600 AAXX 02064 67531 NIL=
201402020300 AAXX 02034 67531 NIL=
201402012100 AAXX 01214 67531 NIL=
201402011800 AAXX 01184 67531 NIL=
201402011500 AAXX 01154 67531 NIL=
201402011200 AAXX 01124 67531 NIL=
201402010900 AAXX 01094 67531 NIL=
201402010600 AAXX 01064 67531 NIL=

################################################################################
#  SYNOPS from 67541, Kasempa (Zambia) | 13-32S | 025-51E | 1234 m
################################################################################
201403030300 AAXX 03034 67541 NIL=
201403030000 AAXX 03004 67541 NIL=
201403022100 AAXX 02214 67541 NIL=
201403021800 AAXX 02184 67541 NIL=
201403021500 AAXX 02154 67541 NIL=
201403021200 AAXX 02124 67541 NIL=
201403020900 AAXX 02094 67541 NIL=
201403020600 AAXX 02064 67541 NIL=
201403020300 AAXX 02034 67541 NIL=
201403020000 AAXX 02004 67541 NIL=
201403012100 AAXX 01214 67541 NIL=
201403011800 AAXX 01184 67541 NIL=
201403011500 AAXX 01154 67541 NIL=
201403011200 AAXX 01121 67541 NIL=
201403010900 AAXX 01094 67541 NIL=
201403010600 AAXX 01064 67541 NIL=
201403010000 AAXX 01004 67541 NIL=
201402282100 AAXX 28214 67541 NIL=
201402281800 AAXX 28184 67541 NIL=
201402281500 AAXX 28154 67541 NIL=
201402281200 AAXX 28124 67541 NIL=
201402280900 AAXX 28094 67541 NIL=
201402280600 AAXX 28064 67541 12380 70303 10200 20189 48505 60054 70222 8353/
                   333 10/// 20/// 59001 83606 87360=
201402280300 AAXX 28034 67541 NIL=
201402280000 AAXX 28004 67541 NIL=
201402272100 AAXX 27214 67541 NIL=
201402271800 AAXX 27184 67541 NIL=
201402271500 AAXX 27154 67541 NIL=
201402271200 AAXX 27124 67541 NIL=
201402270900 AAXX 27094 67541 NIL=
201402270600 AAXX 27064 67541 12980 70000 10193 20190 48506 60014 8703/
                   333 10/// 20/// 58003 87360=
201402262100 AAXX 26214 67541 NIL=
201402261500 AAXX 26154 67541 NIL=
201402261200 AAXX 26124 67541 NIL=
201402260900 AAXX 26094 67541 NIL=
201402260600 AAXX 26064 67541 12380 70000 10204 20197 48503 60014 8353/
                   333 10/// 20/// 58003 83607 87360=
201402260300 AAXX 26034 67541 NIL=
201402252100 AAXX 25214 67541 NIL=
201402251500 AAXX 25154 67541 NIL=
201402251200 AAXX 25124 67541 NIL=
201402250900 AAXX 25094 67541 NIL=
201402250600 AAXX 25064 67541 12380 70000 10185 20182 48500 60314 8253/
                   333 10/// 20/// 58002 82606 87360=
201402250300 AAXX 25034 67541 NIL=
201402242100 AAXX 24214 67541 NIL=
201402241800 AAXX 24184 67541 NIL=
201402241500 AAXX 24154 67541 NIL=
201402241200 AAXX 24121 67541 NIL=
201402240900 AAXX 24094 67541 NIL=
201402240600 AAXX 24064 67541 12980 70000 10201 20192 48498 69904 8703/
                   333 10/// 20/// 59003 87360=
201402240300 AAXX 24034 67541 NIL=
201402240000 AAXX 24004 67541 NIL=
201402232100 AAXX 23214 67541 NIL=
201402231500 AAXX 23154 67541 NIL=
201402230900 AAXX 23094 67541 NIL=
201402230600 AAXX 23064 67541 NIL=
201402230300 AAXX 23034 67541 NIL=
201402221800 AAXX 22184 67541 NIL=
201402221500 AAXX 22154 67541 NIL=
201402220900 AAXX 22094 67541 NIL=
201402220600 AAXX 22064 67541 NIL=
201402211500 AAXX 21154 67541 NIL=
201402211200 AAXX 21124 67541 NIL=
201402210900 AAXX 21094 67541 NIL=
201402210600 AAXX 21064 67541 12380 70000 10200 20196 48498 60034 70222 8153/
                   333 10/// 20/// 5//// 81606 87360=
201402202100 AAXX 20214 67541 NIL=
201402201200 AAXX 20124 67541 NIL=
201402200900 AAXX 20094 67541 NIL=
201402200600 AAXX 20064 67541 NIL=
201402200300 AAXX 20034 67541 NIL=
201402192100 AAXX 19214 67541 NIL=
201402191800 AAXX 19184 67541 NIL=
201402191200 AAXX 19124 67541 NIL=
201402190900 AAXX 19094 67541 NIL=
201402190600 AAXX 19064 67541 11370 70000 10191 20191 48502 60414 76062 8363/
                   333 10/// 20/// 59012 83706 87360
                   555 00/// 20007=
201402190300 AAXX 19034 67541 NIL=
201402190000 AAXX 19004 67541 NIL=
201402181500 AAXX 18154 67541 NIL=
201402181200 AAXX 18124 67541 NIL=
201402180900 AAXX 18094 67541 NIL=
201402180600 AAXX 18064 67541 11360 70000 10190 20190 48514 60074 76062 8363/
                   333 10/// 20/// 58003 83706 87360=
201402180300 AAXX 18034 67541 NIL=
201402180000 AAXX 18004 67541 NIL=
201402172100 AAXX 17214 67541 NIL=
201402171500 AAXX 17154 67541 NIL=
201402171200 AAXX 17124 67541 NIL=
201402170900 AAXX 17094 67541 NIL=
201402170600 AAXX 17064 67541 11360 70000 10190 20190 48511 60234 76062 8367/
                   333 10/// 20/// 58011 83706 87360=
201402161800 AAXX 16184 67541 NIL=
201402161500 AAXX 16154 67541 NIL=
201402161200 AAXX 16124 67541 NIL=
201402160900 AAXX 16094 67541 NIL=
201402160600 AAXX 16064 67541 NIL=
201402160300 AAXX 16034 67541 NIL=
201402152100 AAXX 15214 67541 NIL=
201402151800 AAXX 15184 67541 NIL=
201402151500 AAXX 15154 67541 NIL=
201402151200 AAXX 15124 67541 NIL=
201402150900 AAXX 15094 67541 NIL=
201402150600 AAXX 15064 67541 NIL=
201402150300 AAXX 15034 67541 NIL=
201402142100 AAXX 14214 67541 NIL=
201402141200 AAXX 14121 67541 NIL=
201402140900 AAXX 14094 67541 NIL=
201402140600 AAXX 14064 67541 12380 60000 10199 20186 48492 60014 70222 83530
                   333 10/// 20/// 58001 83606 83360=
201402140300 AAXX 14034 67541 NIL=
201402132100 AAXX 13214 67541 NIL=
201402131200 AAXX 13124 67541 NIL=
201402130900 AAXX 13094 67541 NIL=
201402130600 AAXX 13064 67541 12980 70000 10190 20176 48491 60204 8703/
                   333 10/// 20/// 59006 87360=
201402130300 AAXX 13034 67541 NIL=
201402130000 AAXX 13004 67541 NIL=
201402121800 AAXX 12184 67541 NIL=
201402121500 AAXX 12154 67541 NIL=
201402121200 AAXX 12124 67541 NIL=
201402120900 AAXX 12094 67541 NIL=
201402120600 AAXX 12064 67541 12980 70000 10188 20174 48497 69904 70222 8703/
                   333 10/// 20/// 58006 87360=
201402120000 AAXX 12004 67541 NIL=
201402112100 AAXX 11214 67541 NIL=
201402111800 AAXX 11184 67541 NIL=
201402111200 AAXX 11124 67541 NIL=
201402110900 AAXX 11094 67541 NIL=
201402110600 AAXX 11064 67541 12980 70000 10194 20191 48491 60014 8703/
                   333 10/// 20/// 58003 87360=
201402102100 AAXX 10214 67541 NIL=
201402101800 AAXX 10184 67541 NIL=
201402101500 AAXX 10154 67541 NIL=
201402101200 AAXX 10124 67541 NIL=
201402100900 AAXX 10094 67541 NIL=
201402100600 AAXX 10064 67541 32380 70000 10204 20184 48488 70222 8353/
                   333 10/// 20/// 59016 83606 87360=
201402092100 AAXX 09214 67541 NIL=
201402091800 AAXX 09184 67541 NIL=
201402091500 AAXX 09154 67541 NIL=
201402091200 AAXX 09124 67541 NIL=
201402090900 AAXX 09094 67541 NIL=
201402090600 AAXX 09064 67541 NIL=
201402082100 AAXX 08214 67541 NIL=
201402081800 AAXX 08184 67541 NIL=
201402081500 AAXX 08154 67541 NIL=
201402081200 AAXX 08124 67541 NIL=
201402080900 AAXX 08094 67541 NIL=
201402080600 AAXX 08064 67541 NIL=
201402080300 AAXX 08034 67541 NIL=
201402080000 AAXX 08004 67541 NIL=
201402071800 AAXX 07184 67541 NIL=
201402071500 AAXX 07154 67541 NIL=
201402071200 AAXX 07124 67541 NIL=
201402070900 AAXX 07094 67541 NIL=
201402070600 AAXX 07064 67541 32480 70000 10209 20180 48496 70222 8253/
                   333 10/// 20/// 58013 82610 87360=
201402070300 AAXX 07034 67541 NIL=
201402070000 AAXX 07004 67541 NIL=
201402062100 AAXX 06214 67541 NIL=
201402061800 AAXX 06184 67541 NIL=
201402061500 AAXX 06154 67541 NIL=
201402061200 AAXX 06124 67541 NIL=
201402060900 AAXX 06094 67541 NIL=
201402060600 AAXX 06064 67541 12980 70000 10202 20190 48483 60024 70222 8703/
                   333 10/// 20/// 58005 87360=
201402060300 AAXX 06034 67541 NIL=
201402060000 AAXX 06004 67541 NIL=
201402052100 AAXX 05214 67541 NIL=
201402051800 AAXX 05184 67541 NIL=
201402051500 AAXX 05154 67541 NIL=
201402051200 AAXX 05124 67541 NIL=
201402050900 AAXX 05094 67541 NIL=
201402050600 AAXX 05064 67541 12980 70000 10202 20181 48478 60014 70222 8703/
                   333 10/// 20/// 59007 87360=
201402050300 AAXX 05034 67541 NIL=
201402041800 AAXX 04184 67541 NIL=
201402041500 AAXX 04154 67541 NIL=
201402041200 AAXX 04124 67541 NIL=
201402040900 AAXX 04094 67541 NIL=
201402040600 AAXX 04064 67541 12980 70000 10179 20174 48485 60174 70222 8703/
                   333 10/// 20/// 58005 87360=
201402040300 AAXX 04034 67541 NIL=
201402032100 AAXX 03214 67541 NIL=
201402031800 AAXX 03184 67541 NIL=
201402031500 AAXX 03154 67541 NIL=
201402031200 AAXX 03124 67541 NIL=
201402030900 AAXX 03094 67541 NIL=
201402030600 AAXX 03064 67541 32980 70000 10196 20186 48480 70222 8703/
                   333 10/// 20/// 5//// 87360=
201402021800 AAXX 02184 67541 NIL=
201402021500 AAXX 02154 67541 NIL=
201402021200 AAXX 02124 67541 NIL=
201402020900 AAXX 02094 67541 NIL=
201402020600 AAXX 02064 67541 NIL=
201402020300 AAXX 02034 67541 NIL=
201402012100 AAXX 01214 67541 NIL=
201402011800 AAXX 01184 67541 NIL=
201402011500 AAXX 01154 67541 NIL=
201402011200 AAXX 01124 67541 NIL=
201402010900 AAXX 01094 67541 NIL=
201402010600 AAXX 01064 67541 NIL=

################################################################################
#  SYNOPS from 67543, Kabompo (Zambia) | 13-36S | 024-12E | 1075 m
################################################################################
201403030300 AAXX 03034 67543 NIL=
201403030000 AAXX 03004 67543 NIL=
201403022100 AAXX 02214 67543 NIL=
201403021800 AAXX 02184 67543 NIL=
201403021500 AAXX 02154 67543 NIL=
201403021200 AAXX 02124 67543 NIL=
201403020900 AAXX 02094 67543 NIL=
201403020600 AAXX 02064 67543 NIL=
201403020300 AAXX 02034 67543 NIL=
201403020000 AAXX 02004 67543 NIL=
201403012100 AAXX 01214 67543 NIL=
201403011800 AAXX 01184 67543 NIL=
201403011500 AAXX 01154 67543 NIL=
201403011200 AAXX 01121 67543 NIL=
201403010900 AAXX 01094 67543 NIL=
201403010600 AAXX 01064 67543 NIL=
201403010000 AAXX 01004 67543 NIL=
201402282100 AAXX 28214 67543 NIL=
201402281800 AAXX 28184 67543 NIL=
201402281500 AAXX 28154 67543 NIL=
201402281200 AAXX 28124 67543 NIL=
201402280900 AAXX 28094 67543 NIL=
201402280600 AAXX 28064 67543 NIL=
201402280300 AAXX 28034 67543 NIL=
201402280000 AAXX 28004 67543 NIL=
201402272100 AAXX 27214 67543 NIL=
201402271800 AAXX 27184 67543 NIL=
201402271500 AAXX 27154 67543 NIL=
201402271200 AAXX 27124 67543 NIL=
201402270900 AAXX 27094 67543 NIL=
201402270600 AAXX 27064 67543 NIL=
201402262100 AAXX 26214 67543 NIL=
201402261500 AAXX 26154 67543 NIL=
201402261200 AAXX 26124 67543 NIL=
201402260900 AAXX 26094 67543 NIL=
201402260300 AAXX 26034 67543 NIL=
201402252100 AAXX 25214 67543 NIL=
201402251500 AAXX 25154 67543 NIL=
201402251200 AAXX 25124 67543 NIL=
201402250900 AAXX 25094 67543 NIL=
201402250600 AAXX 25064 67543 NIL=
201402250300 AAXX 25034 67543 NIL=
201402242100 AAXX 24214 67543 NIL=
201402241800 AAXX 24184 67543 NIL=
201402241500 AAXX 24154 67543 NIL=
201402241200 AAXX 24121 67543 NIL=
201402240900 AAXX 24094 67543 NIL=
201402240600 AAXX 24064 67543 NIL=
201402240300 AAXX 24034 67543 NIL=
201402240000 AAXX 24004 67543 NIL=
201402232100 AAXX 23214 67543 NIL=
201402231500 AAXX 23154 67543 NIL=
201402230900 AAXX 23094 67543 NIL=
201402230600 AAXX 23064 67543 NIL=
201402230300 AAXX 23034 67543 NIL=
201402221800 AAXX 22184 67543 NIL=
201402221500 AAXX 22154 67543 NIL=
201402220900 AAXX 22094 67543 NIL=
201402220600 AAXX 22064 67543 NIL=
201402211500 AAXX 21154 67543 NIL=
201402211200 AAXX 21124 67543 NIL=
201402210900 AAXX 21094 67543 NIL=
201402210600 AAXX 21064 67543 NIL=
201402202100 AAXX 20214 67543 NIL=
201402201200 AAXX 20124 67543 NIL=
201402200900 AAXX 20094 67543 NIL=
201402200600 AAXX 20064 67543 NIL=
201402200300 AAXX 20034 67543 NIL=
201402192100 AAXX 19214 67543 NIL=
201402191800 AAXX 19184 67543 NIL=
201402191200 AAXX 19124 67543 NIL=
201402190900 AAXX 19094 67543 NIL=
201402190600 AAXX 19064 67543 NIL=
201402190300 AAXX 19034 67543 NIL=
201402190000 AAXX 19004 67543 NIL=
201402181500 AAXX 18154 67543 NIL=
201402181200 AAXX 18124 67543 NIL=
201402180900 AAXX 18094 67543 NIL=
201402180600 AAXX 18064 67543 NIL=
201402180300 AAXX 18034 67543 NIL=
201402180000 AAXX 18004 67543 NIL=
201402172100 AAXX 17214 67543 NIL=
201402171500 AAXX 17154 67543 NIL=
201402171200 AAXX 17124 67543 NIL=
201402170900 AAXX 17094 67543 NIL=
201402170600 AAXX 17064 67543 NIL=
201402161800 AAXX 16184 67543 NIL=
201402161500 AAXX 16154 67543 NIL=
201402161200 AAXX 16124 67543 NIL=
201402160900 AAXX 16094 67543 NIL=
201402160600 AAXX 16064 67543 NIL=
201402160300 AAXX 16034 67543 NIL=
201402152100 AAXX 15214 67543 NIL=
201402151800 AAXX 15184 67543 NIL=
201402151500 AAXX 15154 67543 NIL=
201402151200 AAXX 15124 67543 NIL=
201402150900 AAXX 15094 67543 NIL=
201402150600 AAXX 15064 67543 NIL=
201402150300 AAXX 15034 67543 NIL=
201402142100 AAXX 14214 67543 NIL=
201402141200 AAXX 14121 67543 NIL=
201402140900 AAXX 14094 67543 NIL=
201402140600 AAXX 14064 67543 NIL=
201402140300 AAXX 14034 67543 NIL=
201402132100 AAXX 13214 67543 NIL=
201402131200 AAXX 13124 67543 NIL=
201402130900 AAXX 13094 67543 NIL=
201402130600 AAXX 13064 67543 NIL=
201402130300 AAXX 13034 67543 NIL=
201402130000 AAXX 13004 67543 NIL=
201402121800 AAXX 12184 67543 NIL=
201402121500 AAXX 12154 67543 NIL=
201402121200 AAXX 12124 67543 NIL=
201402120900 AAXX 12094 67543 NIL=
201402120600 AAXX 12064 67543 NIL=
201402120000 AAXX 12004 67543 NIL=
201402112100 AAXX 11214 67543 NIL=
201402111800 AAXX 11184 67543 NIL=
201402111200 AAXX 11124 67543 NIL=
201402110900 AAXX 11094 67543 NIL=
201402110600 AAXX 11064 67543 NIL=
201402102100 AAXX 10214 67543 NIL=
201402101800 AAXX 10184 67543 NIL=
201402101500 AAXX 10154 67543 NIL=
201402101200 AAXX 10124 67543 NIL=
201402100900 AAXX 10094 67543 NIL=
201402100600 AAXX 10060 67543 NIL=
201402092100 AAXX 09214 67543 NIL=
201402091800 AAXX 09184 67543 NIL=
201402091500 AAXX 09154 67543 NIL=
201402091200 AAXX 09124 67543 NIL=
201402090900 AAXX 09094 67543 NIL=
201402090600 AAXX 09064 67543 NIL=
201402082100 AAXX 08214 67543 NIL=
201402081800 AAXX 08184 67543 NIL=
201402081500 AAXX 08154 67543 NIL=
201402081200 AAXX 08124 67543 NIL=
201402080900 AAXX 08094 67543 NIL=
201402080600 AAXX 08064 67543 NIL=
201402080300 AAXX 08034 67543 NIL=
201402080000 AAXX 08004 67543 NIL=
201402071800 AAXX 07184 67543 NIL=
201402071500 AAXX 07154 67543 NIL=
201402071200 AAXX 07124 67543 NIL=
201402070900 AAXX 07094 67543 NIL=
201402070600 AAXX 07064 67543 NIL=
201402070300 AAXX 07034 67543 NIL=
201402070000 AAXX 07004 67543 NIL=
201402062100 AAXX 06214 67543 NIL=
201402061800 AAXX 06184 67543 NIL=
201402061500 AAXX 06154 67543 NIL=
201402061200 AAXX 06124 67543 NIL=
201402060900 AAXX 06094 67543 NIL=
201402060600 AAXX 06064 67543 NIL=
201402060300 AAXX 06034 67543 NIL=
201402060000 AAXX 06004 67543 NIL=
201402052100 AAXX 05214 67543 NIL=
201402051800 AAXX 05184 67543 NIL=
201402051500 AAXX 05154 67543 NIL=
201402051200 AAXX 05124 67543 NIL=
201402050900 AAXX 05094 67543 NIL=
201402050600 AAXX 05064 67543 NIL=
201402050300 AAXX 05034 67543 NIL=
201402041800 AAXX 04184 67543 NIL=
201402041500 AAXX 04154 67543 NIL=
201402041200 AAXX 04124 67543 NIL=
201402040900 AAXX 04094 67543 NIL=
201402040600 AAXX 04064 67543 NIL=
201402040300 AAXX 04034 67543 NIL=
201402032100 AAXX 03214 67543 NIL=
201402031800 AAXX 03184 67543 NIL=
201402031500 AAXX 03154 67543 NIL=
201402031200 AAXX 03124 67543 NIL=
201402030900 AAXX 03094 67543 NIL=
201402030600 AAXX 03064 67543 NIL=
201402021800 AAXX 02184 67543 NIL=
201402021500 AAXX 02154 67543 NIL=
201402021200 AAXX 02124 67543 NIL=
201402020900 AAXX 02094 67543 NIL=
201402020600 AAXX 02064 67543 NIL=
201402020300 AAXX 02034 67543 NIL=
201402012100 AAXX 01214 67543 NIL=
201402011800 AAXX 01184 67543 NIL=
201402011500 AAXX 01154 67543 NIL=
201402011200 AAXX 01124 67543 NIL=
201402010900 AAXX 01094 67543 NIL=
201402010600 AAXX 01064 67543 NIL=

################################################################################
#  SYNOPS from 67551, Solwezi (Zambia) | 12-11S | 026-23E | 1386 m
################################################################################
201403030300 AAXX 03034 67551 NIL=
201403030000 AAXX 03004 67551 NIL=
201403022100 AAXX 02214 67551 NIL=
201403021800 AAXX 02184 67551 NIL=
201403021500 AAXX 02154 67551 NIL=
201403021200 AAXX 02124 67551 NIL=
201403020900 AAXX 02094 67551 NIL=
201403020600 AAXX 02064 67551 NIL=
201403020300 AAXX 02034 67551 NIL=
201403020000 AAXX 02004 67551 NIL=
201403012100 AAXX 01214 67551 NIL=
201403011800 AAXX 01184 67551 NIL=
201403011500 AAXX 01154 67551 NIL=
201403011200 AAXX 01121 67551 NIL=
201403010900 AAXX 01094 67551 NIL=
201403010600 AAXX 01064 67551 NIL=
201403010000 AAXX 01004 67551 NIL=
201402282100 AAXX 28214 67551 NIL=
201402281800 AAXX 28184 67551 NIL=
201402281500 AAXX 28154 67551 NIL=
201402281200 AAXX 28124 67551 NIL=
201402280900 AAXX 28094 67551 NIL=
201402280600 AAXX 28064 67551 NIL=
201402280300 AAXX 28034 67551 NIL=
201402280000 AAXX 28004 67551 NIL=
201402272100 AAXX 27214 67551 NIL=
201402271800 AAXX 27184 67551 NIL=
201402271500 AAXX 27154 67551 NIL=
201402271200 AAXX 27124 67551 NIL=
201402270900 AAXX 27094 67551 NIL=
201402270600 AAXX 27064 67551 11970 70000 10185 20177 48527 60014 75055 8707/
                   333 10260 20167 58001 87362 91019=
201402262100 AAXX 26214 67551 NIL=
201402261500 AAXX 26154 67551 NIL=
201402261200 AAXX 26124 67551 NIL=
201402260900 AAXX 26094 67551 NIL=
201402260300 AAXX 26034 67551 NIL=
201402252100 AAXX 25214 67551 NIL=
201402251500 AAXX 25154 67551 NIL=
201402251200 AAXX 25124 67551 NIL=
201402250900 AAXX 25094 67551 NIL=
201402250600 AAXX 25064 67551 NIL=
201402250300 AAXX 25034 67551 NIL=
201402242100 AAXX 24214 67551 NIL=
201402241800 AAXX 24184 67551 NIL=
201402241500 AAXX 24154 67551 NIL=
201402241200 AAXX 24121 67551 NIL=
201402240900 AAXX 24094 67551 NIL=
201402240600 AAXX 24064 67551 NIL=
201402240300 AAXX 24034 67551 NIL=
201402240000 AAXX 24004 67551 NIL=
201402232100 AAXX 23214 67551 NIL=
201402231500 AAXX 23154 67551 NIL=
201402230900 AAXX 23094 67551 NIL=
201402230600 AAXX 23064 67551 NIL=
201402230300 AAXX 23034 67551 NIL=
201402221800 AAXX 22184 67551 NIL=
201402221500 AAXX 22154 67551 NIL=
201402220900 AAXX 22094 67551 NIL=
201402220600 AAXX 22064 67551 NIL=
201402211500 AAXX 21154 67551 NIL=
201402211200 AAXX 21124 67551 NIL=
201402210900 AAXX 21094 67551 NIL=
201402210600 AAXX 21064 67551 11358 83303 10174 20171 48509 60604 76166 8577/
                   333 10261 20170 58005 85607 87361 91018=
201402202100 AAXX 20214 67551 NIL=
201402201200 AAXX 20124 67551 NIL=
201402200900 AAXX 20094 67551 NIL=
201402200600 AAXX 20064 67551 NIL=
201402200300 AAXX 20034 67551 NIL=
201402192100 AAXX 19214 67551 NIL=
201402191800 AAXX 19184 67551 NIL=
201402191200 AAXX 19124 67551 NIL=
201402190900 AAXX 19094 67551 NIL=
201402190600 AAXX 19064 67551 NIL=
201402190300 AAXX 19034 67551 NIL=
201402190000 AAXX 19004 67551 NIL=
201402181500 AAXX 18154 67551 NIL=
201402181200 AAXX 18124 67551 NIL=
201402180900 AAXX 18094 67551 NIL=
201402180600 AAXX 18064 67551 NIL=
201402180300 AAXX 18034 67551 NIL=
201402180000 AAXX 18004 67551 NIL=
201402172100 AAXX 17214 67551 NIL=
201402171500 AAXX 17154 67551 NIL=
201402171200 AAXX 17124 67551 NIL=
201402170900 AAXX 17094 67551 NIL=
201402170600 AAXX 17064 67551 NIL=
201402161800 AAXX 16184 67551 NIL=
201402161500 AAXX 16154 67551 NIL=
201402161200 AAXX 16124 67551 NIL=
201402160900 AAXX 16094 67551 NIL=
201402160600 AAXX 16064 67551 NIL=
201402160300 AAXX 16034 67551 NIL=
201402152100 AAXX 15214 67551 NIL=
201402151800 AAXX 15184 67551 NIL=
201402151500 AAXX 15154 67551 NIL=
201402151200 AAXX 15124 67551 NIL=
201402150900 AAXX 15094 67551 NIL=
201402150600 AAXX 15064 67551 NIL=
201402150300 AAXX 15034 67551 NIL=
201402142100 AAXX 14214 67551 NIL=
201402141200 AAXX 14121 67551 NIL=
201402140900 AAXX 14094 67551 NIL=
201402140600 AAXX 14064 67551 12370 82904 10181 20171 48508 60014 72842 885//
                   333 10277 20168 58001 88608 91017=
201402140300 AAXX 14034 67551 NIL=
201402132100 AAXX 13214 67551 NIL=
201402131200 AAXX 13124 67551 NIL=
201402130900 AAXX 13094 67551 NIL=
201402130600 AAXX 13064 67551 11370 73203 10186 20165 48501 60024 8457/
                   333 10255 20167 59013 84607 87362 91017=
201402130300 AAXX 13034 67551 NIL=
201402130000 AAXX 13004 67551 NIL=
201402121800 AAXX 12184 67551 NIL=
201402121500 AAXX 12154 67551 NIL=
201402121200 AAXX 12124 67551 NIL=
201402120900 AAXX 12094 67551 NIL=
201402120600 AAXX 12064 67551 11370 82703 10163 20162 48515 60284 76166 8272/
                   333 10275 20161 58007 82707 88462 91019=
201402120000 AAXX 12004 67551 NIL=
201402112100 AAXX 11214 67551 NIL=
201402111800 AAXX 11184 67551 NIL=
201402111200 AAXX 11124 67551 NIL=
201402110900 AAXX 11094 67551 NIL=
201402110600 AAXX 11064 67551 12982 73603 10185 20179 48510 60064 8707/
                   333 10232 20171 58011 87362 91018=
201402102100 AAXX 10214 67551 NIL=
201402101800 AAXX 10184 67551 NIL=
201402101500 AAXX 10154 67551 NIL=
201402101200 AAXX 10124 67551 NIL=
201402100900 AAXX 10094 67551 NIL=
201402100600 AAXX 10060 67551 NIL=
201402092100 AAXX 09214 67551 NIL=
201402091800 AAXX 09184 67551 NIL=
201402091500 AAXX 09154 67551 NIL=
201402091200 AAXX 09124 67551 NIL=
201402090900 AAXX 09094 67551 NIL=
201402090600 AAXX 09064 67551 NIL=
201402082100 AAXX 08214 67551 NIL=
201402081800 AAXX 08184 67551 NIL=
201402081500 AAXX 08154 67551 NIL=
201402081200 AAXX 08124 67551 NIL=
201402080900 AAXX 08094 67551 NIL=
201402080600 AAXX 08064 67551 NIL=
201402080300 AAXX 08034 67551 NIL=
201402080000 AAXX 08004 67551 NIL=
201402071800 AAXX 07184 67551 NIL=
201402071500 AAXX 07154 67551 NIL=
201402071200 AAXX 07124 67551 NIL=
201402070900 AAXX 07094 67551 NIL=
201402070600 AAXX 07064 67551 11358 83003 10181 20181 48509 60114 76166 8477/
                   333 10262 20176 58017 84707 87362 91018=
201402070300 AAXX 07034 67551 NIL=
201402070000 AAXX 07004 67551 NIL=
201402062100 AAXX 06214 67551 NIL=
201402061800 AAXX 06184 67551 NIL=
201402061500 AAXX 06154 67551 NIL=
201402061200 AAXX 06124 67551 NIL=
201402060900 AAXX 06094 67551 NIL=
201402060600 AAXX 06064 67551 12975 73304 10191 20181 48493 69934 72052 8707/
                   333 10274 20171 59001 87362 91016=
201402060300 AAXX 06034 67551 NIL=
201402060000 AAXX 06004 67551 NIL=
201402052100 AAXX 05214 67551 NIL=
201402051800 AAXX 05184 67551 NIL=
201402051500 AAXX 05154 67551 NIL=
201402051200 AAXX 05124 67551 NIL=
201402050900 AAXX 05094 67551 NIL=
201402050600 AAXX 05064 67551 12970 73305 10187 20175 48494 8707/
                   333 10278 20171 59011 87362 91016=
201402050300 AAXX 05034 67551 NIL=
201402041800 AAXX 04184 67551 NIL=
201402041500 AAXX 04154 67551 NIL=
201402041200 AAXX 04124 67551 NIL=
201402040900 AAXX 04094 67551 NIL=
201402040600 AAXX 04064 67551 12375 73504 10180 20172 48504 60054 8377/
                   333 10277 20174 58006 83707 87362 91017=
201402040300 AAXX 04034 67551 NIL=
201402032100 AAXX 03214 67551 NIL=
201402031800 AAXX 03184 67551 NIL=
201402031500 AAXX 03154 67551 NIL=
201402031200 AAXX 03124 67551 NIL=
201402030900 AAXX 03094 67551 NIL=
201402030600 AAXX 03064 67551 32975 73605 10195 20174 48494 8707/
                   333 10289 20158 59006 87362 91016=
201402021800 AAXX 02184 67551 NIL=
201402021500 AAXX 02154 67551 NIL=
201402021200 AAXX 02124 67551 NIL=
201402020900 AAXX 02094 67551 NIL=
201402020600 AAXX 02064 67551 NIL=
201402020300 AAXX 02034 67551 NIL=
201402012100 AAXX 01214 67551 NIL=
201402011800 AAXX 01184 67551 NIL=
201402011500 AAXX 01154 67551 NIL=
201402011200 AAXX 01124 67551 NIL=
201402010900 AAXX 01094 67551 NIL=
201402010600 AAXX 01064 67551 NIL=

################################################################################
#  SYNOPS from 67561, Ndola (Zambia) | 13-00S | 028-39E | 1269 m
################################################################################
201403030300 AAXX 03034 67561 NIL=
201403030000 AAXX 03004 67561 NIL=
201403022100 AAXX 02214 67561 NIL=
201403021800 AAXX 02184 67561 NIL=
201403021500 AAXX 02154 67561 NIL=
201403021200 AAXX 02124 67561 NIL=
201403020900 AAXX 02094 67561 NIL=
201403020600 AAXX 02064 67561 NIL=
201403020300 AAXX 02034 67561 NIL=
201403020000 AAXX 02004 67561 NIL=
201403012100 AAXX 01214 67561 NIL=
201403011800 AAXX 01184 67561 NIL=
201403011500 AAXX 01154 67561 NIL=
201403011200 AAXX 01121 67561 NIL=
201403010900 AAXX 01094 67561 NIL=
201403010600 AAXX 01064 67561 NIL=
201403010000 AAXX 01004 67561 NIL=
201402282100 AAXX 28214 67561 NIL=
201402281800 AAXX 28184 67561 NIL=
201402281500 AAXX 28154 67561 NIL=
201402281200 AAXX 28124 67561 NIL=
201402280900 AAXX 28094 67561 NIL=
201402280600 AAXX 28064 67561 NIL=
201402280300 AAXX 28034 67561 NIL=
201402280000 AAXX 28004 67561 NIL=
201402272100 AAXX 27214 67561 NIL=
201402271800 AAXX 27184 67561 NIL=
201402271500 AAXX 27154 67561 NIL=
201402271200 AAXX 27124 67561 NIL=
201402270900 AAXX 27094 67561 NIL=
201402270600 AAXX 27064 67561 NIL=
201402262100 AAXX 26214 67561 NIL=
201402261500 AAXX 26154 67561 NIL=
201402261200 AAXX 26124 67561 NIL=
201402260900 AAXX 26094 67561 NIL=
201402260300 AAXX 26034 67561 NIL=
201402252100 AAXX 25214 67561 NIL=
201402251500 AAXX 25154 67561 NIL=
201402251200 AAXX 25124 67561 NIL=
201402250900 AAXX 25094 67561 NIL=
201402250600 AAXX 25064 67561 NIL=
201402250300 AAXX 25034 67561 NIL=
201402242100 AAXX 24214 67561 NIL=
201402241800 AAXX 24184 67561 NIL=
201402241500 AAXX 24154 67561 NIL=
201402241200 AAXX 24121 67561 NIL=
201402240900 AAXX 24094 67561 NIL=
201402240600 AAXX 24064 67561 NIL=
201402240300 AAXX 24034 67561 NIL=
201402240000 AAXX 24004 67561 NIL=
201402232100 AAXX 23214 67561 NIL=
201402231500 AAXX 23154 67561 NIL=
201402230900 AAXX 23094 67561 NIL=
201402230600 AAXX 23064 67561 NIL=
201402230300 AAXX 23034 67561 NIL=
201402221800 AAXX 22184 67561 NIL=
201402221500 AAXX 22154 67561 NIL=
201402220900 AAXX 22094 67561 NIL=
201402220600 AAXX 22064 67561 NIL=
201402211500 AAXX 21154 67561 NIL=
201402211200 AAXX 21124 67561 NIL=
201402210900 AAXX 21094 67561 NIL=
201402210600 AAXX 21064 67561 NIL=
201402202100 AAXX 20214 67561 NIL=
201402201200 AAXX 20124 67561 NIL=
201402200900 AAXX 20094 67561 NIL=
201402200600 AAXX 20064 67561 NIL=
201402200300 AAXX 20034 67561 NIL=
201402192100 AAXX 19214 67561 NIL=
201402191800 AAXX 19184 67561 NIL=
201402191200 AAXX 19124 67561 NIL=
201402190900 AAXX 19094 67561 NIL=
201402190600 AAXX 19064 67561 NIL=
201402190300 AAXX 19034 67561 NIL=
201402190000 AAXX 19004 67561 NIL=
201402181500 AAXX 18154 67561 NIL=
201402181200 AAXX 18124 67561 NIL=
201402180900 AAXX 18094 67561 NIL=
201402180600 AAXX 18064 67561 NIL=
201402180300 AAXX 18034 67561 NIL=
201402180000 AAXX 18004 67561 NIL=
201402172100 AAXX 17214 67561 NIL=
201402171500 AAXX 17154 67561 NIL=
201402171200 AAXX 17124 67561 NIL=
201402170900 AAXX 17094 67561 NIL=
201402170600 AAXX 17064 67561 NIL=
201402161800 AAXX 16184 67561 NIL=
201402161500 AAXX 16154 67561 NIL=
201402161200 AAXX 16124 67561 NIL=
201402160900 AAXX 16094 67561 NIL=
201402160600 AAXX 16064 67561 NIL=
201402160300 AAXX 16034 67561 NIL=
201402152100 AAXX 15214 67561 NIL=
201402151800 AAXX 15184 67561 NIL=
201402151500 AAXX 15154 67561 NIL=
201402151200 AAXX 15124 67561 NIL=
201402150900 AAXX 15094 67561 NIL=
201402150600 AAXX 15064 67561 NIL=
201402150300 AAXX 15034 67561 NIL=
201402142100 AAXX 14214 67561 NIL=
201402141200 AAXX 14121 67561 NIL=
201402140900 AAXX 14094 67561 NIL=
201402140600 AAXX 14064 67561 NIL=
201402140300 AAXX 14034 67561 NIL=
201402132100 AAXX 13214 67561 NIL=
201402131200 AAXX 13124 67561 NIL=
201402130900 AAXX 13094 67561 NIL=
201402130600 AAXX 13064 67561 NIL=
201402130300 AAXX 13034 67561 NIL=
201402130000 AAXX 13004 67561 NIL=
201402121800 AAXX 12184 67561 NIL=
201402121500 AAXX 12154 67561 NIL=
201402121200 AAXX 12124 67561 NIL=
201402120900 AAXX 12094 67561 NIL=
201402120600 AAXX 12064 67561 NIL=
201402120000 AAXX 12004 67561 NIL=
201402112100 AAXX 11214 67561 NIL=
201402111800 AAXX 11184 67561 NIL=
201402111200 AAXX 11124 67561 NIL=
201402110900 AAXX 11094 67561 NIL=
201402110600 AAXX 11064 67561 NIL=
201402102100 AAXX 10214 67561 NIL=
201402101800 AAXX 10184 67561 NIL=
201402101500 AAXX 10154 67561 NIL=
201402101200 AAXX 10124 67561 NIL=
201402100900 AAXX 10094 67561 NIL=
201402100600 AAXX 10060 67561 NIL=
201402092100 AAXX 09214 67561 NIL=
201402091800 AAXX 09184 67561 NIL=
201402091500 AAXX 09154 67561 NIL=
201402091200 AAXX 09124 67561 NIL=
201402090900 AAXX 09094 67561 NIL=
201402090600 AAXX 09064 67561 NIL=
201402082100 AAXX 08214 67561 NIL=
201402081800 AAXX 08184 67561 NIL=
201402081500 AAXX 08154 67561 NIL=
201402081200 AAXX 08124 67561 NIL=
201402080900 AAXX 08094 67561 NIL=
201402080600 AAXX 08064 67561 NIL=
201402080300 AAXX 08034 67561 NIL=
201402080000 AAXX 08004 67561 NIL=
201402071800 AAXX 07184 67561 NIL=
201402071500 AAXX 07154 67561 NIL=
201402071200 AAXX 07124 67561 NIL=
201402070900 AAXX 07094 67561 NIL=
201402070600 AAXX 07064 67561 11230 80000 10185 20185 48502 60364 76396 8777/
                   333 10/// 20180 58014 87703 819// 88459 91017=
201402070300 AAXX 07034 67561 NIL=
201402070000 AAXX 07004 67561 NIL=
201402062100 AAXX 06214 67561 NIL=
201402061800 AAXX 06184 67561 NIL=
201402061500 AAXX 06154 67561 NIL=
201402061200 AAXX 06124 67561 NIL=
201402060900 AAXX 06094 67561 NIL=
201402060600 AAXX 06064 67561 NIL=
201402060300 AAXX 06034 67561 NIL=
201402060000 AAXX 06004 67561 NIL=
201402052100 AAXX 05214 67561 NIL=
201402051800 AAXX 05184 67561 NIL=
201402051500 AAXX 05154 67561 NIL=
201402051200 AAXX 05124 67561 NIL=
201402050900 AAXX 05094 67561 NIL=
201402050600 AAXX 05064 67561 NIL=
201402050300 AAXX 05034 67561 NIL=
201402041800 AAXX 04184 67561 NIL=
201402041500 AAXX 04154 67561 NIL=
201402041200 AAXX 04124 67561 NIL=
201402040900 AAXX 04094 67561 NIL=
201402040600 AAXX 04064 67561 NIL=
201402040300 AAXX 04034 67561 NIL=
201402032100 AAXX 03214 67561 NIL=
201402031800 AAXX 03184 67561 NIL=
201402031500 AAXX 03154 67561 NIL=
201402031200 AAXX 03124 67561 NIL=
201402030900 AAXX 03094 67561 NIL=
201402030600 AAXX 03064 67561 NIL=
201402021800 AAXX 02184 67561 NIL=
201402021500 AAXX 02154 67561 NIL=
201402021200 AAXX 02124 67561 NIL=
201402020900 AAXX 02094 67561 NIL=
201402020600 AAXX 02064 67561 NIL=
201402020300 AAXX 02034 67561 NIL=
201402012100 AAXX 01214 67561 NIL=
201402011800 AAXX 01184 67561 NIL=
201402011500 AAXX 01154 67561 NIL=
201402011200 AAXX 01124 67561 NIL=
201402010900 AAXX 01094 67561 NIL=
201402010600 AAXX 01064 67561 NIL=

################################################################################
#  SYNOPS from 67563, Kafironda (Zambia) | 12-36S | 028-07E | 1243 m
################################################################################
201403030300 AAXX 03034 67563 NIL=
201403030000 AAXX 03004 67563 NIL=
201403022100 AAXX 02214 67563 NIL=
201403021800 AAXX 02184 67563 NIL=
201403021500 AAXX 02154 67563 NIL=
201403021200 AAXX 02124 67563 NIL=
201403020900 AAXX 02094 67563 NIL=
201403020600 AAXX 02064 67563 NIL=
201403020300 AAXX 02034 67563 NIL=
201403020000 AAXX 02004 67563 NIL=
201403012100 AAXX 01214 67563 NIL=
201403011800 AAXX 01184 67563 NIL=
201403011500 AAXX 01154 67563 NIL=
201403011200 AAXX 01121 67563 NIL=
201403010900 AAXX 01094 67563 NIL=
201403010600 AAXX 01064 67563 NIL=
201403010000 AAXX 01004 67563 NIL=
201402282100 AAXX 28214 67563 NIL=
201402281800 AAXX 28184 67563 NIL=
201402281500 AAXX 28154 67563 NIL=
201402281200 AAXX 28124 67563 NIL=
201402280900 AAXX 28094 67563 NIL=
201402280600 AAXX 28064 67563 11378 73602 10194 20190 48/// 60084 72162 81770
                   333 10275 20176 5//// 81708 87360
                   555 00176 20033=
201402280300 AAXX 28034 67563 NIL=
201402280000 AAXX 28004 67563 NIL=
201402272100 AAXX 27214 67563 NIL=
201402271800 AAXX 27184 67563 NIL=
201402271500 AAXX 27154 67563 NIL=
201402271200 AAXX 27124 67563 NIL=
201402270900 AAXX 27094 67563 NIL=
201402270600 AAXX 27064 67563 NIL=
201402262100 AAXX 26214 67563 NIL=
201402261500 AAXX 26154 67563 NIL=
201402261200 AAXX 26124 67563 NIL=
201402260900 AAXX 26094 67563 NIL=
201402260600 AAXX 26064 67563 11340 80000 10192 20190 48/// 60434 76062 887//
                   333 10266 20179 58007 88708=
201402260300 AAXX 26034 67563 NIL=
201402252100 AAXX 25214 67563 NIL=
201402251500 AAXX 25154 67563 NIL=
201402251200 AAXX 25124 67563 NIL=
201402250900 AAXX 25094 67563 NIL=
201402250600 AAXX 25064 67563 NIL=
201402250300 AAXX 25034 67563 NIL=
201402242100 AAXX 24214 67563 NIL=
201402241800 AAXX 24184 67563 NIL=
201402241500 AAXX 24154 67563 NIL=
201402241200 AAXX 24121 67563 NIL=
201402240900 AAXX 24094 67563 NIL=
201402240600 AAXX 24064 67563 NIL=
201402240300 AAXX 24034 67563 NIL=
201402240000 AAXX 24004 67563 NIL=
201402232100 AAXX 23214 67563 NIL=
201402231500 AAXX 23154 67563 NIL=
201402230900 AAXX 23094 67563 NIL=
201402230600 AAXX 23064 67563 NIL=
201402230300 AAXX 23034 67563 NIL=
201402221800 AAXX 22184 67563 NIL=
201402221500 AAXX 22154 67563 NIL=
201402220900 AAXX 22094 67563 NIL=
201402220600 AAXX 22064 67563 NIL=
201402211500 AAXX 21154 67563 NIL=
201402211200 AAXX 21124 67563 NIL=
201402210900 AAXX 21094 67563 NIL=
201402210600 AAXX 21064 67563 NIL=
201402202100 AAXX 20214 67563 NIL=
201402201200 AAXX 20124 67563 NIL=
201402200900 AAXX 20094 67563 NIL=
201402200600 AAXX 20064 67563 NIL=
201402200300 AAXX 20034 67563 NIL=
201402192100 AAXX 19214 67563 NIL=
201402191800 AAXX 19184 67563 NIL=
201402191200 AAXX 19124 67563 NIL=
201402190900 AAXX 19094 67563 NIL=
201402190600 AAXX 19064 67563 11980 80403 10180 20170 48/// 60074 72162 8807/
                   333 10274 20176 59011 88358
                   555 00175 20001=
201402190300 AAXX 19034 67563 NIL=
201402190000 AAXX 19004 67563 NIL=
201402181500 AAXX 18154 67563 NIL=
201402181200 AAXX 18124 67563 NIL=
201402180900 AAXX 18094 67563 NIL=
201402180600 AAXX 18064 67563 12945 30101 10212 20190 48/// 60014 70440 83070
                   333 10250 20166 58002 83358=
201402180300 AAXX 18034 67563 NIL=
201402180000 AAXX 18004 67563 NIL=
201402172100 AAXX 17214 67563 NIL=
201402171500 AAXX 17154 67563 NIL=
201402171200 AAXX 17124 67563 NIL=
201402170900 AAXX 17094 67563 NIL=
201402170600 AAXX 17064 67563 NIL=
201402161800 AAXX 16184 67563 NIL=
201402161500 AAXX 16154 67563 NIL=
201402161200 AAXX 16124 67563 NIL=
201402160900 AAXX 16094 67563 NIL=
201402160600 AAXX 16064 67563 NIL=
201402160300 AAXX 16034 67563 NIL=
201402152100 AAXX 15214 67563 NIL=
201402151800 AAXX 15184 67563 NIL=
201402151500 AAXX 15154 67563 NIL=
201402151200 AAXX 15124 67563 NIL=
201402150900 AAXX 15094 67563 NIL=
201402150600 AAXX 15064 67563 NIL=
201402150300 AAXX 15034 67563 NIL=
201402142100 AAXX 14214 67563 NIL=
201402141200 AAXX 14121 67563 NIL=
201402140900 AAXX 14094 67563 NIL=
201402140600 AAXX 14064 67563 32380 50401 10210 20190 48/// 81602
                   333 10244 20180 58008 81709 85080
                   555 00176 20001=
201402140300 AAXX 14034 67563 NIL=
201402132100 AAXX 13214 67563 NIL=
201402131200 AAXX 13124 67563 NIL=
201402130900 AAXX 13094 67563 NIL=
201402130600 AAXX 13064 67563 NIL=
201402130300 AAXX 13034 67563 NIL=
201402130000 AAXX 13004 67563 NIL=
201402121800 AAXX 12184 67563 NIL=
201402121500 AAXX 12154 67563 NIL=
201402121200 AAXX 12124 67563 NIL=
201402120900 AAXX 12094 67563 NIL=
201402120600 AAXX 12064 67563 NIL=
201402120000 AAXX 12004 67563 NIL=
201402112100 AAXX 11214 67563 NIL=
201402111800 AAXX 11184 67563 NIL=
201402111200 AAXX 11124 67563 NIL=
201402110900 AAXX 11094 67563 NIL=
201402110600 AAXX 11064 67563 NIL=
201402102100 AAXX 10214 67563 NIL=
201402101800 AAXX 10184 67563 NIL=
201402101500 AAXX 10154 67563 NIL=
201402101200 AAXX 10124 67563 NIL=
201402100900 AAXX 10094 67563 NIL=
201402100600 AAXX 10064 67563 11580 73502 10201 20190 48/// 60014 70522 87070
                   333 10250 20167 59005 87359=
201402092100 AAXX 09214 67563 NIL=
201402091800 AAXX 09184 67563 NIL=
201402091500 AAXX 09154 67563 NIL=
201402091200 AAXX 09124 67563 NIL=
201402090900 AAXX 09094 67563 NIL=
201402090600 AAXX 09064 67563 NIL=
201402082100 AAXX 08214 67563 NIL=
201402081800 AAXX 08184 67563 NIL=
201402081500 AAXX 08154 67563 NIL=
201402081200 AAXX 08124 67563 NIL=
201402080900 AAXX 08094 67563 NIL=
201402080600 AAXX 08064 67563 NIL=
201402080300 AAXX 08034 67563 NIL=
201402080000 AAXX 08004 67563 NIL=
201402071800 AAXX 07184 67563 NIL=
201402071500 AAXX 07154 67563 NIL=
201402071200 AAXX 07124 67563 NIL=
201402070900 AAXX 07094 67563 NIL=
201402070600 AAXX 07064 67563 NIL=
201402070300 AAXX 07034 67563 NIL=
201402070000 AAXX 07004 67563 NIL=
201402062100 AAXX 06214 67563 NIL=
201402061800 AAXX 06184 67563 NIL=
201402061500 AAXX 06154 67563 NIL=
201402061200 AAXX 06124 67563 NIL=
201402060900 AAXX 06094 67563 NIL=
201402060600 AAXX 06064 67563 NIL=
201402060300 AAXX 06034 67563 NIL=
201402060000 AAXX 06004 67563 NIL=
201402052100 AAXX 05214 67563 NIL=
201402051800 AAXX 05184 67563 NIL=
201402051500 AAXX 05154 67563 NIL=
201402051200 AAXX 05124 67563 NIL=
201402050900 AAXX 05094 67563 NIL=
201402050600 AAXX 05064 67563 12380 73402 10204 20190 48/// 69904 82670
                   333 10281 20173 59012 82708 87358
                   555 00166=
201402050300 AAXX 05034 67563 NIL=
201402041800 AAXX 04184 67563 NIL=
201402041500 AAXX 04154 67563 NIL=
201402041200 AAXX 04124 67563 NIL=
201402040900 AAXX 04094 67563 NIL=
201402040600 AAXX 04064 67563 12380 72602 10202 20190 48/// 60154 81770
                   333 10294 20180 58005 81707 87359=
201402040300 AAXX 04034 67563 NIL=
201402032100 AAXX 03214 67563 NIL=
201402031800 AAXX 03184 67563 NIL=
201402031500 AAXX 03154 67563 NIL=
201402031200 AAXX 03124 67563 NIL=
201402030900 AAXX 03094 67563 NIL=
201402030600 AAXX 03064 67563 NIL=
201402021800 AAXX 02184 67563 NIL=
201402021500 AAXX 02154 67563 NIL=
201402021200 AAXX 02124 67563 NIL=
201402020900 AAXX 02094 67563 NIL=
201402020600 AAXX 02064 67563 NIL=
201402020300 AAXX 02034 67563 NIL=
201402012100 AAXX 01214 67563 NIL=
201402011800 AAXX 01184 67563 NIL=
201402011500 AAXX 01154 67563 NIL=
201402011200 AAXX 01124 67563 NIL=
201402010900 AAXX 01094 67563 NIL=
201402010600 AAXX 01064 67563 NIL=

################################################################################
#  SYNOPS from 67571, Serenje (Zambia) | 13-14S | 030-13E | 1384 m
################################################################################
201403030300 AAXX 03034 67571 NIL=
201403030000 AAXX 03004 67571 NIL=
201403022100 AAXX 02214 67571 NIL=
201403021800 AAXX 02184 67571 NIL=
201403021500 AAXX 02154 67571 NIL=
201403021200 AAXX 02124 67571 NIL=
201403020900 AAXX 02094 67571 NIL=
201403020600 AAXX 02064 67571 NIL=
201403020300 AAXX 02034 67571 NIL=
201403020000 AAXX 02004 67571 NIL=
201403012100 AAXX 01214 67571 NIL=
201403011800 AAXX 01184 67571 NIL=
201403011500 AAXX 01154 67571 NIL=
201403011200 AAXX 01121 67571 NIL=
201403010900 AAXX 01094 67571 NIL=
201403010600 AAXX 01064 67571 NIL=
201403010000 AAXX 01004 67571 NIL=
201402282100 AAXX 28214 67571 NIL=
201402281800 AAXX 28184 67571 NIL=
201402281500 AAXX 28154 67571 NIL=
201402281200 AAXX 28124 67571 41265 83003 10184 20177 48501 76566 8177/
                   333 58015 81705 88460=
201402280900 AAXX 28094 67571 NIL=
201402280600 AAXX 28064 67571 11278 72702 10190 20182 48511 60374 72162 83638
                   333 10241 20178 58002 83705 86360 87280=
201402280300 AAXX 28034 67571 NIL=
201402280000 AAXX 28004 67571 NIL=
201402272100 AAXX 27214 67571 NIL=
201402271800 AAXX 27184 67571 NIL=
201402271500 AAXX 27154 67571 NIL=
201402271200 AAXX 27124 67571 NIL=
201402270900 AAXX 27094 67571 NIL=
201402270600 AAXX 27064 67571 11482 83602 10201 20187 48511 60024 70262 885//
                   333 10266 20179 58009 88616=
201402262100 AAXX 26214 67571 NIL=
201402261500 AAXX 26154 67571 NIL=
201402261200 AAXX 26124 67571 42582 73002 10254 20175 48473 70222 85208
                   333 58001 81923 85828 87281=
201402260900 AAXX 26094 67571 42482 73003 10220 20181 48503 70222 875//
                   333 58008 87615=
201402260600 AAXX 26064 67571 12282 73603 10190 20181 48501 60154 70222 876//
                   333 10258 20176 58001 87705=
201402260300 AAXX 26034 67571 NIL=
201402252100 AAXX 25214 67571 NIL=
201402251500 AAXX 25154 67571 NIL=
201402251200 AAXX 25124 67571 42582 73003 10248 20183 48473 70222 83208
                   333 58003 81920 83825 87281=
201402250900 AAXX 25094 67571 42482 73604 10211 20174 48492 70222 82538
                   333 58000 82615 83360 87280=
201402250600 AAXX 25064 67571 11378 73302 10178 20172 48501 60064 75055 8673/
                   333 10254 20169 59001 86707 87360=
201402250300 AAXX 25034 67571 NIL=
201402242100 AAXX 24214 67571 NIL=
201402241800 AAXX 24184 67571 NIL=
201402241500 AAXX 24154 67571 NIL=
201402241200 AAXX 24124 67571 41481 73603 10201 20191 48472 76262
                   333 59017 81918 87820=
201402240900 AAXX 24094 67571 42482 71204 10/// 20169 48493 70222 875//
                   333 59014 87618=
201402240600 AAXX 24064 67571 12380 71203 10188 20173 48501 60084 70222 876//
                   333 10248 20176 59012 87707=
201402240300 AAXX 24034 67571 NIL=
201402240000 AAXX 24004 67571 NIL=
201402232100 AAXX 23214 67571 NIL=
201402231500 AAXX 23154 67571 NIL=
201402230900 AAXX 23094 67571 NIL=
201402230600 AAXX 23064 67571 NIL=
201402230300 AAXX 23034 67571 NIL=
201402221800 AAXX 22184 67571 NIL=
201402221500 AAXX 22154 67571 NIL=
201402220900 AAXX 22094 67571 NIL=
201402220600 AAXX 22064 67571 NIL=
201402211500 AAXX 21154 67571 NIL=
201402211200 AAXX 21124 67571 NIL=
201402210900 AAXX 21094 67571 NIL=
201402210600 AAXX 21064 67571 11478 82702 10194 20185 48511 60094 76066 885//
                   333 10270 20180 58014 88616
                   555 00/// 20000=
201402202100 AAXX 20214 67571 NIL=
201402201200 AAXX 20124 67571 NIL=
201402200900 AAXX 20094 67571 42482 73305 10243 20183 48493 70222 82888
                   333 59003 82615 81817 86360 87280=
201402200600 AAXX 20064 67571 32382 73602 10183 20175 48491 70222 876//
                   333 10286 20171 59011 87706=
201402200300 AAXX 20034 67571 NIL=
201402192100 AAXX 19214 67571 NIL=
201402191800 AAXX 19184 67571 NIL=
201402191200 AAXX 19124 67571 42582 53302 10265 20183 48474 70222 81365
                   333 59016 81925 81830 83361 85281=
201402190900 AAXX 19094 67571 42582 73604 10248 20176 48504 70222 84208
                   333 59013 81923 84827 87281=
201402190600 AAXX 19064 67571 12482 60000 10204 20186 48501 70224 81238
                   333 10265 20170 59007 81818 84360 84280
                   555 00/// 20008=
201402190300 AAXX 19034 67571 NIL=
201402190000 AAXX 19004 67571 NIL=
201402181500 AAXX 18154 67571 NIL=
201402181200 AAXX 18124 67571 42582 51203 10256 20179 48484 70222 84206
                   333 58008 81920 84825 85281=
201402180900 AAXX 18094 67571 42482 71803 10236 20181 48513 70222 875//
                   333 58008 87615=
201402180600 AAXX 18064 67571 12482 71203 10189 20175 48511 70222 81536
                   333 10261 20180 58009 81615 81360 87280=
201402180300 AAXX 18034 67571 NIL=
201402180000 AAXX 18004 67571 NIL=
201402172100 AAXX 17214 67571 NIL=
201402171500 AAXX 17154 67571 NIL=
201402171200 AAXX 17124 67571 42582 73602 10246 20176 48483 70222 83238=
201402170900 AAXX 17094 67571 42582 73602 10229 20176 48513 70222 85208
                   333 58011 81924 84624 82828 87280=
201402170600 AAXX 17064 67571 12482 70000 10206 20169 48512 60074 70222 84538
                   333 10264 20159 58011 84619 84360 84360 87280
                   555 00/// 20038=
201402161800 AAXX 16184 67571 NIL=
201402161500 AAXX 16154 67571 NIL=
201402161200 AAXX 16124 67571 NIL=
201402160900 AAXX 16094 67571 NIL=
201402160600 AAXX 16064 67571 NIL=
201402160300 AAXX 16034 67571 NIL=
201402152100 AAXX 15214 67571 NIL=
201402151800 AAXX 15184 67571 NIL=
201402151500 AAXX 15154 67571 NIL=
201402151200 AAXX 15124 67571 NIL=
201402150900 AAXX 15094 67571 NIL=
201402150600 AAXX 15064 67571 NIL=
201402150300 AAXX 15034 67571 NIL=
201402142100 AAXX 14214 67571 NIL=
201402141200 AAXX 14124 67571 41578 71503 10203 20193 48472 79596 83238
                   333 58006 81922 83826 84360 87280=
201402140900 AAXX 14094 67571 NIL=
201402140600 AAXX 14064 67571 32482 70000 10197 20179 48492 70222 82538
                   333 10280 20175 58002 82615 82360 87280=
201402140300 AAXX 14034 67571 NIL=
201402132100 AAXX 13214 67571 NIL=
201402131200 AAXX 13124 67571 42482 40302 10255 20170 48463 70222 84263
                   333 58000 81918 84820 82360 81080=
201402130900 AAXX 13094 67571 42482 63603 10228 20176 48493 70222 83248
                   333 58003 81918 83818 84360 86280=
201402130600 AAXX 13064 67571 12378 73303 10185 20177 48491 69924 70222 876//
                   333 10265 20155 59005 87707=
201402130300 AAXX 13034 67571 NIL=
201402130000 AAXX 13004 67571 NIL=
201402121800 AAXX 12184 67571 NIL=
201402121500 AAXX 12154 67571 NIL=
201402121200 AAXX 12124 67571 41482 63603 10243 20168 48463 71792 86265
                   333 59001 81919 86823 83359 82280=
201402120900 AAXX 12094 67571 42482 63003 10226 20174 48493 70222 86500
                   333 58000 86615=
201402120600 AAXX 12064 67571 11278 83002 10177 20175 48501 69984 72844 886//
                   333 10257 20178 58001 88705=
201402120000 AAXX 12004 67571 NIL=
201402112100 AAXX 11214 67571 NIL=
201402111800 AAXX 11184 67571 NIL=
201402111200 AAXX 11124 67571 41580 73602 10247 20187 48473 72998 85238
                   333 59005 81921 85830 84360 87280=
201402110900 AAXX 11094 67571 NIL=
201402110600 AAXX 11064 67571 12278 70000 10197 20177 48502 60044 70222 81138
                   333 10245 20164 58003 81704 81815 86360 87280=
201402102100 AAXX 10214 67571 NIL=
201402101800 AAXX 10184 67571 NIL=
201402101500 AAXX 10154 67571 NIL=
201402101200 AAXX 10124 67571 NIL=
201402100900 AAXX 10094 67571 41378 82702 10187 20176 48491 76166 8377/ 58011 83708 88460=
201402100600 AAXX 10064 67571 11075 80000 10170 20166 48500 60124 76366 8177/
                   333 10239 20166 58006 81701 88460=
201402092100 AAXX 09214 67571 NIL=
201402091800 AAXX 09184 67571 NIL=
201402091500 AAXX 09154 67571 NIL=
201402091200 AAXX 09124 67571 NIL=
201402090900 AAXX 09094 67571 NIL=
201402090600 AAXX 09064 67571 NIL=
201402082100 AAXX 08214 67571 NIL=
201402081800 AAXX 08184 67571 NIL=
201402081500 AAXX 08154 67571 NIL=
201402081200 AAXX 08124 67571 NIL=
201402080900 AAXX 08094 67571 NIL=
201402080600 AAXX 08064 67571 NIL=
201402080300 AAXX 08034 67571 NIL=
201402080000 AAXX 08004 67571 NIL=
201402071800 AAXX 07184 67571 NIL=
201402071500 AAXX 07154 67571 NIL=
201402071200 AAXX 07124 67571 41378 83002 10190 20183 48471 76166 887//
                   333 58019 81916 87707=
201402070900 AAXX 07094 67571 NIL=
201402070600 AAXX 07064 67571 11270 83002 10184 20168 48491 60074 76366 887//
                   333 10282 20182 59009 88705=
201402070300 AAXX 07034 67571 NIL=
201402070000 AAXX 07004 67571 NIL=
201402062100 AAXX 06214 67571 NIL=
201402061800 AAXX 06184 67571 NIL=
201402061500 AAXX 06154 67571 NIL=
201402061200 AAXX 06124 67571 41482 73602 10244 20186 48453 72166 8327/
                   333 59004 81920 83825 87360=
201402060900 AAXX 06094 67571 42482 73603 10246 20192 48463 70222 8283/
                   333 59001 82818 87360=
201402060600 AAXX 06064 67571 12382 73302 10195 20179 48482 60244 70222 8263/
                   333 10280 20184 59003 82707 87360=
201402060300 AAXX 06034 67571 NIL=
201402060000 AAXX 06004 67571 NIL=
201402052100 AAXX 05214 67571 NIL=
201402051800 AAXX 05184 67571 NIL=
201402051500 AAXX 05154 67571 NIL=
201402051200 AAXX 05124 67571 42582 73006 10276 20188 48464 70222 86261
                   333 59015 81923 85830 81360 82080=
201402050900 AAXX 05094 67571 NIL=
201402050600 AAXX 05064 67571 12982 73002 10184 20173 48491 69914 70222 8707/
                   333 10256 20160 59011 87360=
201402050300 AAXX 05034 67571 NIL=
201402041800 AAXX 04184 67571 NIL=
201402041500 AAXX 04154 67571 NIL=
201402041200 AAXX 04124 67571 NIL=
201402040900 AAXX 04094 67571 NIL=
201402040600 AAXX 04064 67571 NIL=
201402040300 AAXX 04034 67571 NIL=
201402032100 AAXX 03214 67571 NIL=
201402031800 AAXX 03184 67571 NIL=
201402031500 AAXX 03154 67571 NIL=
201402031200 AAXX 03124 67571 NIL=
201402030900 AAXX 03094 67571 NIL=
201402030600 AAXX 03064 67571 NIL=
201402021800 AAXX 02184 67571 NIL=
201402021500 AAXX 02154 67571 NIL=
201402021200 AAXX 02124 67571 NIL=
201402020900 AAXX 02094 67571 NIL=
201402020600 AAXX 02064 67571 NIL=
201402020300 AAXX 02034 67571 NIL=
201402012100 AAXX 01214 67571 NIL=
201402011800 AAXX 01184 67571 NIL=
201402011500 AAXX 01154 67571 NIL=
201402011200 AAXX 01124 67571 NIL=
201402010900 AAXX 01094 67571 NIL=
201402010600 AAXX 01064 67571 NIL=

################################################################################
#  SYNOPS from 67575, Mkushi (Zambia) | 13-38S | 029-53E | 1237 m
################################################################################
201403030300 AAXX 03034 67575 NIL=
201403030000 AAXX 03004 67575 NIL=
201403022100 AAXX 02214 67575 NIL=
201403021800 AAXX 02184 67575 NIL=
201403021500 AAXX 02154 67575 NIL=
201403021200 AAXX 02124 67575 NIL=
201403020900 AAXX 02094 67575 NIL=
201403020600 AAXX 02064 67575 NIL=
201403020300 AAXX 02034 67575 NIL=
201403020000 AAXX 02004 67575 NIL=
201403012100 AAXX 01214 67575 NIL=
201403011800 AAXX 01184 67575 NIL=
201403011500 AAXX 01154 67575 NIL=
201403011200 AAXX 01121 67575 NIL=
201403010900 AAXX 01094 67575 NIL=
201403010600 AAXX 01064 67575 NIL=
201403010000 AAXX 01004 67575 NIL=
201402282100 AAXX 28214 67575 NIL=
201402281800 AAXX 28184 67575 NIL=
201402281500 AAXX 28154 67575 NIL=
201402281200 AAXX 28124 67575 NIL=
201402280900 AAXX 28094 67575 NIL=
201402280600 AAXX 28064 67575 NIL=
201402280300 AAXX 28034 67575 NIL=
201402280000 AAXX 28004 67575 NIL=
201402272100 AAXX 27214 67575 NIL=
201402271800 AAXX 27184 67575 NIL=
201402271500 AAXX 27154 67575 NIL=
201402271200 AAXX 27124 67575 NIL=
201402270900 AAXX 27094 67575 NIL=
201402270600 AAXX 27064 67575 NIL=
201402262100 AAXX 26214 67575 NIL=
201402261500 AAXX 26154 67575 NIL=
201402261200 AAXX 26124 67575 NIL=
201402260900 AAXX 26094 67575 NIL=
201402260300 AAXX 26034 67575 NIL=
201402252100 AAXX 25214 67575 NIL=
201402251500 AAXX 25154 67575 NIL=
201402251200 AAXX 25124 67575 NIL=
201402250900 AAXX 25094 67575 NIL=
201402250600 AAXX 25064 67575 NIL=
201402250300 AAXX 25034 67575 NIL=
201402242100 AAXX 24214 67575 NIL=
201402241800 AAXX 24184 67575 NIL=
201402241500 AAXX 24154 67575 NIL=
201402241200 AAXX 24124 67575 NIL=
201402240900 AAXX 24094 67575 NIL=
201402240600 AAXX 24064 67575 NIL=
201402240300 AAXX 24034 67575 NIL=
201402240000 AAXX 24004 67575 NIL=
201402232100 AAXX 23214 67575 NIL=
201402231500 AAXX 23154 67575 NIL=
201402230900 AAXX 23094 67575 NIL=
201402230600 AAXX 23064 67575 NIL=
201402230300 AAXX 23034 67575 NIL=
201402221800 AAXX 22184 67575 NIL=
201402221500 AAXX 22154 67575 NIL=
201402220900 AAXX 22094 67575 NIL=
201402220600 AAXX 22064 67575 NIL=
201402211500 AAXX 21154 67575 NIL=
201402211200 AAXX 21124 67575 NIL=
201402210900 AAXX 21094 67575 NIL=
201402210600 AAXX 21064 67575 NIL=
201402202100 AAXX 20214 67575 NIL=
201402201200 AAXX 20124 67575 NIL=
201402200900 AAXX 20094 67575 NIL=
201402200600 AAXX 20064 67575 NIL=
201402200300 AAXX 20034 67575 NIL=
201402192100 AAXX 19214 67575 NIL=
201402191800 AAXX 19184 67575 NIL=
201402191200 AAXX 19124 67575 NIL=
201402190900 AAXX 19094 67575 NIL=
201402190600 AAXX 19064 67575 NIL=
201402190300 AAXX 19034 67575 NIL=
201402190000 AAXX 19004 67575 NIL=
201402181500 AAXX 18154 67575 NIL=
201402181200 AAXX 18124 67575 NIL=
201402180900 AAXX 18094 67575 NIL=
201402180600 AAXX 18064 67575 NIL=
201402180300 AAXX 18034 67575 NIL=
201402180000 AAXX 18004 67575 NIL=
201402172100 AAXX 17214 67575 NIL=
201402171500 AAXX 17154 67575 NIL=
201402171200 AAXX 17124 67575 NIL=
201402170900 AAXX 17094 67575 NIL=
201402170600 AAXX 17064 67575 NIL=
201402161800 AAXX 16184 67575 NIL=
201402161500 AAXX 16154 67575 NIL=
201402161200 AAXX 16124 67575 NIL=
201402160900 AAXX 16094 67575 NIL=
201402160600 AAXX 16064 67575 NIL=
201402160300 AAXX 16034 67575 NIL=
201402152100 AAXX 15214 67575 NIL=
201402151800 AAXX 15184 67575 NIL=
201402151500 AAXX 15154 67575 NIL=
201402151200 AAXX 15124 67575 NIL=
201402150900 AAXX 15094 67575 NIL=
201402150600 AAXX 15064 67575 NIL=
201402150300 AAXX 15034 67575 NIL=
201402142100 AAXX 14214 67575 NIL=
201402141200 AAXX 14124 67575 NIL=
201402140900 AAXX 14094 67575 NIL=
201402140600 AAXX 14064 67575 NIL=
201402140300 AAXX 14034 67575 NIL=
201402132100 AAXX 13214 67575 NIL=
201402131200 AAXX 13124 67575 NIL=
201402130900 AAXX 13094 67575 NIL=
201402130600 AAXX 13064 67575 NIL=
201402130300 AAXX 13034 67575 NIL=
201402130000 AAXX 13004 67575 NIL=
201402121800 AAXX 12184 67575 NIL=
201402121500 AAXX 12154 67575 NIL=
201402121200 AAXX 12124 67575 NIL=
201402120900 AAXX 12094 67575 NIL=
201402120600 AAXX 12064 67575 NIL=
201402120000 AAXX 12004 67575 NIL=
201402112100 AAXX 11214 67575 NIL=
201402111800 AAXX 11184 67575 NIL=
201402111200 AAXX 11124 67575 NIL=
201402110900 AAXX 11094 67575 NIL=
201402110600 AAXX 11064 67575 NIL=
201402102100 AAXX 10214 67575 NIL=
201402101800 AAXX 10184 67575 NIL=
201402101500 AAXX 10154 67575 NIL=
201402101200 AAXX 10124 67575 NIL=
201402100900 AAXX 10094 67575 NIL=
201402100600 AAXX 10060 67575 NIL=
201402092100 AAXX 09214 67575 NIL=
201402091800 AAXX 09184 67575 NIL=
201402091500 AAXX 09154 67575 NIL=
201402091200 AAXX 09124 67575 NIL=
201402090900 AAXX 09094 67575 NIL=
201402090600 AAXX 09064 67575 NIL=
201402082100 AAXX 08214 67575 NIL=
201402081800 AAXX 08184 67575 NIL=
201402081500 AAXX 08154 67575 NIL=
201402081200 AAXX 08124 67575 NIL=
201402080900 AAXX 08094 67575 NIL=
201402080600 AAXX 08064 67575 NIL=
201402080300 AAXX 08034 67575 NIL=
201402080000 AAXX 08004 67575 NIL=
201402071800 AAXX 07184 67575 NIL=
201402071500 AAXX 07154 67575 NIL=
201402071200 AAXX 07124 67575 NIL=
201402070900 AAXX 07094 67575 NIL=
201402070600 AAXX 07064 67575 NIL=
201402070300 AAXX 07034 67575 NIL=
201402070000 AAXX 07004 67575 NIL=
201402062100 AAXX 06214 67575 NIL=
201402061800 AAXX 06184 67575 NIL=
201402061500 AAXX 06154 67575 NIL=
201402061200 AAXX 06124 67575 NIL=
201402060900 AAXX 06094 67575 NIL=
201402060600 AAXX 06064 67575 NIL=
201402060300 AAXX 06034 67575 NIL=
201402060000 AAXX 06004 67575 NIL=
201402052100 AAXX 05214 67575 NIL=
201402051800 AAXX 05184 67575 NIL=
201402051500 AAXX 05154 67575 NIL=
201402051200 AAXX 05124 67575 NIL=
201402050900 AAXX 05094 67575 NIL=
201402050600 AAXX 05064 67575 NIL=
201402050300 AAXX 05034 67575 NIL=
201402041800 AAXX 04184 67575 NIL=
201402041500 AAXX 04154 67575 NIL=
201402041200 AAXX 04124 67575 NIL=
201402040900 AAXX 04094 67575 NIL=
201402040600 AAXX 04064 67575 NIL=
201402040300 AAXX 04034 67575 NIL=
201402032100 AAXX 03214 67575 NIL=
201402031800 AAXX 03184 67575 NIL=
201402031500 AAXX 03154 67575 NIL=
201402031200 AAXX 03124 67575 NIL=
201402030900 AAXX 03094 67575 NIL=
201402030600 AAXX 03064 67575 NIL=
201402021800 AAXX 02184 67575 NIL=
201402021500 AAXX 02154 67575 NIL=
201402021200 AAXX 02124 67575 NIL=
201402020900 AAXX 02094 67575 NIL=
201402020600 AAXX 02064 67575 NIL=
201402020300 AAXX 02034 67575 NIL=
201402012100 AAXX 01214 67575 NIL=
201402011800 AAXX 01184 67575 NIL=
201402011500 AAXX 01154 67575 NIL=
201402011200 AAXX 01124 67575 NIL=
201402010900 AAXX 01094 67575 NIL=
201402010600 AAXX 01064 67575 NIL=

################################################################################
#  SYNOPS from 67580, Msekera (Zambia) | 13-39S | 032-34E | 1025 m
################################################################################
201403030300 AAXX 03034 67580 NIL=
201403030000 AAXX 03004 67580 NIL=
201403022100 AAXX 02214 67580 NIL=
201403021800 AAXX 02184 67580 NIL=
201403021500 AAXX 02154 67580 NIL=
201403021200 AAXX 02124 67580 NIL=
201403020900 AAXX 02094 67580 NIL=
201403020600 AAXX 02064 67580 NIL=
201403020300 AAXX 02034 67580 NIL=
201403020000 AAXX 02004 67580 NIL=
201403012100 AAXX 01214 67580 NIL=
201403011800 AAXX 01184 67580 NIL=
201403011500 AAXX 01154 67580 NIL=
201403011200 AAXX 01121 67580 NIL=
201403010900 AAXX 01094 67580 NIL=
201403010600 AAXX 01064 67580 NIL=
201403010000 AAXX 01004 67580 NIL=
201402282100 AAXX 28214 67580 NIL=
201402281800 AAXX 28184 67580 NIL=
201402281500 AAXX 28154 67580 NIL=
201402281200 AAXX 28124 67580 NIL=
201402280900 AAXX 28094 67580 42680 73002 10250 20200 48/// 8513/
                   333 58002 85834 87360=
201402280600 AAXX 28064 67580 12480 70000 10220 20196 48/// 60234 81131
                   333 10294 20/// 59006 81818 85361 82080=
201402280300 AAXX 28034 67580 NIL=
201402280000 AAXX 28004 67580 NIL=
201402272100 AAXX 27214 67580 NIL=
201402271800 AAXX 27184 67580 NIL=
201402271500 AAXX 27154 67580 NIL=
201402271200 AAXX 27124 67580 NIL=
201402270900 AAXX 27094 67580 41580 70603 10225 20205 48/// 70362 83570
                   333 58011 83624 87360=
201402270600 AAXX 27064 67580 11780 80000 10200 20194 48/// 60324 76162 8357/
                   333 10287 20/// 58014 83610 88459=
201402262100 AAXX 26214 67580 NIL=
201402261500 AAXX 26154 67580 NIL=
201402261200 AAXX 26124 67580 42780 73304 10283 20212 48/// 85238
                   333 58007 85856 81360 87280=
201402260900 AAXX 26094 67580 42680 60603 10263 20210 48/// 86202
                   333 58005 86840 82080=
201402260600 AAXX 26064 67580 12480 73603 10230 20199 48/// 60064 8217/
                   333 10292 20/// 58007 82815 87460=
201402260300 AAXX 26034 67580 NIL=
201402252100 AAXX 25214 67580 NIL=
201402251500 AAXX 25154 67580 NIL=
201402251200 AAXX 25124 67580 42780 73603 10272 20212 48/// 86208
                   333 59003 86856 87280=
201402250900 AAXX 25094 67580 42680 73604 10252 20203 48/// 84238
                   333 58007 84835 85362 86280=
201402250600 AAXX 25064 67580 12580 70000 10217 20202 48/// 60164 8457/
                   333 10269 20/// 58003 84620 87460=
201402250300 AAXX 25034 67580 NIL=
201402242100 AAXX 24214 67580 NIL=
201402241800 AAXX 24184 67580 NIL=
201402241500 AAXX 24154 67580 NIL=
201402241200 AAXX 24124 67580 NIL=
201402240900 AAXX 24094 67580 42680 72402 10259 20209 48/// 87231
                   333 59009 87834 81361 81080=
201402240600 AAXX 24064 67580 12480 70000 10220 20198 48/// 60134 82531
                   333 10304 20/// 59015 82616 87360 81080=
201402240300 AAXX 24034 67580 NIL=
201402240000 AAXX 24004 67580 NIL=
201402232100 AAXX 23214 67580 NIL=
201402231500 AAXX 23154 67580 NIL=
201402230900 AAXX 23094 67580 NIL=
201402230600 AAXX 23064 67580 NIL=
201402230300 AAXX 23034 67580 NIL=
201402221800 AAXX 22184 67580 NIL=
201402221500 AAXX 22154 67580 NIL=
201402220900 AAXX 22094 67580 NIL=
201402220600 AAXX 22064 67580 NIL=
201402211500 AAXX 21154 67580 NIL=
201402211200 AAXX 21124 67580 NIL=
201402210900 AAXX 21094 67580 NIL=
201402210600 AAXX 21064 67580 12480 70000 10209 20196 48/// 60124 70262 81538
                   333 10300 20/// 58024 81614 82360 87280=
201402202100 AAXX 20214 67580 NIL=
201402201200 AAXX 20124 67580 NIL=
201402200900 AAXX 20094 67580 NIL=
201402200600 AAXX 20064 67580 12480 70902 10234 20209 48/// 69904 8153/
                   333 10314 20/// 59010 81616 87360=
201402200300 AAXX 20034 67580 NIL=
201402192100 AAXX 19214 67580 NIL=
201402191800 AAXX 19184 67580 NIL=
201402191200 AAXX 19124 67580 NIL=
201402190900 AAXX 19094 67580 42680 52103 10269 20187 48/// 84131
                   333 59013 84838 81362 81080=
201402190600 AAXX 19064 67580 32980 00000 10221 20174 48/// 80001
                   333 10274 20/// 59014 83080
                   555 00/// 20028=
201402190300 AAXX 19034 67580 NIL=
201402190000 AAXX 19004 67580 NIL=
201402181500 AAXX 18154 67580 NIL=
201402181200 AAXX 18124 67580 NIL=
201402180900 AAXX 18094 67580 NIL=
201402180600 AAXX 18064 67580 12480 71202 10204 20187 48/// 60284 85531
                   333 10294 20/// 58010 85614 82360 81080=
201402180300 AAXX 18034 67580 NIL=
201402180000 AAXX 18004 67580 NIL=
201402172100 AAXX 17214 67580 NIL=
201402171500 AAXX 17154 67580 NIL=
201402171200 AAXX 17124 67580 NIL=
201402170900 AAXX 17094 67580 NIL=
201402170600 AAXX 17064 67580 12480 71203 10214 20194 48/// 69904 8353/
                   333 10279 20/// 58012 83614 87360=
201402161800 AAXX 16184 67580 NIL=
201402161500 AAXX 16154 67580 NIL=
201402161200 AAXX 16124 67580 NIL=
201402160900 AAXX 16094 67580 NIL=
201402160600 AAXX 16064 67580 NIL=
201402160300 AAXX 16034 67580 NIL=
201402152100 AAXX 15214 67580 NIL=
201402151800 AAXX 15184 67580 NIL=
201402151500 AAXX 15154 67580 NIL=
201402151200 AAXX 15124 67580 NIL=
201402150900 AAXX 15094 67580 NIL=
201402150600 AAXX 15064 67580 NIL=
201402150300 AAXX 15034 67580 NIL=
201402142100 AAXX 14214 67580 NIL=
201402141200 AAXX 14124 67580 42680 70000 10281 20205 48/// 85208
                   333 59003 81945 85850 87280=
201402140900 AAXX 14094 67580 42680 71603 10268 20197 48/// 86208
                   333 5//// 86840 87280=
201402140600 AAXX 14064 67580 NIL=
201402140300 AAXX 14034 67580 NIL=
201402132100 AAXX 13214 67580 NIL=
201402131200 AAXX 13124 67580 41780 70000 10278 20198 48/// 71522 86203
                   333 58006 81950 86850 82080=
201402130900 AAXX 13094 67580 42680 61603 10268 20206 48/// 86202
                   333 5//// 86840 83080=
201402130600 AAXX 13064 67580 12480 70000 10230 20191 48/// 69904 81238
                   333 10290 20/// 59001 81818 81362 87280=
201402130300 AAXX 13034 67580 NIL=
201402130000 AAXX 13004 67580 NIL=
201402121800 AAXX 12184 67580 NIL=
201402121500 AAXX 12154 67580 NIL=
201402121200 AAXX 12124 67580 41680 72703 10283 20194 48/// 71522 85238
                   333 59007 81940 85845 81362 87280=
201402120900 AAXX 12094 67580 42680 71602 10247 20197 48/// 83238
                   333 59004 83835 85362 87280=
201402120600 AAXX 12064 67580 12580 71803 10215 20193 48/// 60174 81178
                   333 10267 20/// 59002 81820 86360 87280=
201402120000 AAXX 12004 67580 NIL=
201402112100 AAXX 11214 67580 NIL=
201402111800 AAXX 11184 67580 NIL=
201402111200 AAXX 11124 67580 41680 72703 10248 20211 48/// 72582
                   333 58005 81935 86840=
201402110900 AAXX 11094 67580 41678 71204 10241 20200 48/// 72162 872//
                   333 58006 81930 87832=
201402110600 AAXX 11064 67580 12580 70000 10216 20202 48/// 60754 8527/
                   333 10256 20/// 58005 85820 87460=
201402102100 AAXX 10214 67580 NIL=
201402101800 AAXX 10184 67580 NIL=
201402101500 AAXX 10154 67580 NIL=
201402101200 AAXX 10124 67580 41665 83004 10214 20206 48/// 76162 8627/
                   333 58005 86830 87460=
201402100900 AAXX 10094 67580 41675 73002 10230 20199 48///
                   333 58007 87835=
201402100600 AAXX 10064 67580 11475 80000 10204 20199 48/// 60204 72162 8657/
                   333 10252 20/// 58004 86616 87460=
201402092100 AAXX 09214 67580 NIL=
201402091800 AAXX 09184 67580 NIL=
201402091500 AAXX 09154 67580 NIL=
201402091200 AAXX 09124 67580 NIL=
201402090900 AAXX 09094 67580 NIL=
201402090600 AAXX 09064 67580 NIL=
201402082100 AAXX 08214 67580 NIL=
201402081800 AAXX 08184 67580 NIL=
201402081500 AAXX 08154 67580 NIL=
201402081200 AAXX 08124 67580 NIL=
201402080900 AAXX 08094 67580 NIL=
201402080600 AAXX 08064 67580 NIL=
201402080300 AAXX 08034 67580 NIL=
201402080000 AAXX 08004 67580 NIL=
201402071800 AAXX 07184 67580 NIL=
201402071500 AAXX 07154 67580 NIL=
201402071200 AAXX 07124 67580 NIL=
201402070900 AAXX 07094 67580 NIL=
201402070600 AAXX 07064 67580 12980 72702 10219 20201 48/// 69974 84038
                   333 10300 20/// 59001 84360 87280=
201402070300 AAXX 07034 67580 NIL=
201402070000 AAXX 07004 67580 NIL=
201402062100 AAXX 06214 67580 NIL=
201402061800 AAXX 06184 67580 NIL=
201402061500 AAXX 06154 67580 NIL=
201402061200 AAXX 06124 67580 NIL=
201402060900 AAXX 06094 67580 42680 73003 10262 20216 48/// 84830
                   333 59001 83834 81636 84361=
201402060600 AAXX 06064 67580 12980 70000 10225 20204 48/// 60014 87030
                   333 10300 20/// 59007 87360=
201402060300 AAXX 06034 67580 NIL=
201402060000 AAXX 06004 67580 NIL=
201402052100 AAXX 05214 67580 NIL=
201402051800 AAXX 05184 67580 NIL=
201402051500 AAXX 05154 67580 NIL=
201402051200 AAXX 05124 67580 42780 73302 10268 20203 48/// 81238
                   333 59008 81856 82362 87280=
201402050900 AAXX 05094 67580 42680 73603 10255 20204 48/// 8327/
                   333 59009 83840 87361=
201402050600 AAXX 05064 67580 12980 70302 10230 20208 48/// 60014 8707/
                   333 10296 20/// 59004 87460=
201402050300 AAXX 05034 67580 NIL=
201402041800 AAXX 04184 67580 NIL=
201402041500 AAXX 04154 67580 NIL=
201402041200 AAXX 04124 67580 42780 73003 10279 20203 48/// 84238
                   333 58014 84856 81362 87280=
201402040900 AAXX 04094 67580 42980 72703 10257 20205 48/// 83238
                   333 58006 83835 87280=
201402040600 AAXX 04064 67580 12980 70000 10221 20203 48/// 69904 83038
                   333 10314 20/// 58000 83361 87280=
201402040300 AAXX 04034 67580 NIL=
201402032100 AAXX 03214 67580 NIL=
201402031800 AAXX 03184 67580 NIL=
201402031500 AAXX 03154 67580 NIL=
201402031200 AAXX 03124 67580 NIL=
201402030900 AAXX 03094 67580 42680 53003 10283 20206 48/// 81361 81080=
201402030600 AAXX 03064 67580 NIL=
201402021800 AAXX 02184 67580 NIL=
201402021500 AAXX 02154 67580 NIL=
201402021200 AAXX 02124 67580 NIL=
201402020900 AAXX 02094 67580 NIL=
201402020600 AAXX 02064 67580 NIL=
201402020300 AAXX 02034 67580 NIL=
201402012100 AAXX 01214 67580 NIL=
201402011800 AAXX 01184 67580 NIL=
201402011500 AAXX 01154 67580 NIL=
201402011200 AAXX 01124 67580 NIL=
201402010900 AAXX 01094 67580 NIL=
201402010600 AAXX 01064 67580 NIL=

################################################################################
#  SYNOPS from 67581, Chipata (Zambia) | 13-33S | 032-35E | 1028 m
################################################################################
201403030300 AAXX 03034 67581 NIL=
201403030000 AAXX 03004 67581 NIL=
201403022100 AAXX 02214 67581 NIL=
201403021800 AAXX 02184 67581 NIL=
201403021500 AAXX 02154 67581 NIL=
201403021200 AAXX 02124 67581 NIL=
201403020900 AAXX 02094 67581 NIL=
201403020600 AAXX 02064 67581 NIL=
201403020300 AAXX 02034 67581 NIL=
201403020000 AAXX 02004 67581 NIL=
201403012100 AAXX 01214 67581 NIL=
201403011800 AAXX 01184 67581 NIL=
201403011500 AAXX 01154 67581 NIL=
201403011200 AAXX 01121 67581 NIL=
201403010900 AAXX 01094 67581 NIL=
201403010600 AAXX 01064 67581 NIL=
201403010000 AAXX 01004 67581 NIL=
201402282100 AAXX 28214 67581 NIL=
201402281800 AAXX 28184 67581 NIL=
201402281500 AAXX 28154 67581 NIL=
201402281200 AAXX 28124 67581 NIL=
201402280900 AAXX 28094 67581 42680 60902 10247 20196 48537 83130
                   333 58005 83835 86360 91018=
201402280600 AAXX 28064 67581 12680 60000 10220 20188 48529 60124 82130
                   333 10275 20175 59007 82830 86359 91018=
201402280300 AAXX 28034 67581 NIL=
201402280000 AAXX 28004 67581 NIL=
201402272100 AAXX 27214 67581 NIL=
201402271800 AAXX 27184 67581 NIL=
201402271500 AAXX 27154 67581 NIL=
201402271200 AAXX 27124 67581 42580 60000 10247 20192 48506 82172
                   333 58013 82820 84360 83080 91015=
201402270900 AAXX 27094 67581 42380 70000 10230 20193 48528 8357/
                   333 58012 83610 86460 91018=
201402270600 AAXX 27064 67581 11330 80000 10196 20190 48532 60164 76066 8577/
                   333 10286 20180 58025 85706 88460 91019=
201402262100 AAXX 26214 67581 NIL=
201402261500 AAXX 26154 67581 NIL=
201402261200 AAXX 26124 67581 NIL=
201402260900 AAXX 26094 67581 NIL=
201402260600 AAXX 26064 67581 12680 52706 10226 20191 48520 60044 70322 81132
                   333 10285 20176 58004 81830 83360 82080 91017=
201402260300 AAXX 26034 67581 NIL=
201402252100 AAXX 25214 67581 NIL=
201402251500 AAXX 25154 67581 NIL=
201402251200 AAXX 25124 67581 41580 63104 10273 20204 48493 71722 81908
                   333 5//// 81920 86820 81280 91013=
201402250900 AAXX 25094 67581 42580 63105 10242 20195 48516 86230
                   333 86820 83358 91016=
201402250600 AAXX 25064 67581 12580 60000 10213 20198 48515 60524 83270
                   333 10252 20175 58001 83820 86458 91017=
201402250300 AAXX 25034 67581 NIL=
201402242100 AAXX 24214 67581 NIL=
201402241800 AAXX 24184 67581 NIL=
201402241500 AAXX 24154 67581 NIL=
201402241200 AAXX 24124 67581 NIL=
201402240900 AAXX 24094 67581 NIL=
201402240600 AAXX 24064 67581 12460 70000 10206 20196 48512 60674 85770
                   333 10280 20176 59011 85715 87459 91017=
201402240300 AAXX 24034 67581 NIL=
201402240000 AAXX 24004 67581 NIL=
201402232100 AAXX 23214 67581 NIL=
201402231500 AAXX 23154 67581 NIL=
201402230900 AAXX 23094 67581 NIL=
201402230600 AAXX 23064 67581 NIL=
201402230300 AAXX 23034 67581 NIL=
201402221800 AAXX 22184 67581 NIL=
201402221500 AAXX 22154 67581 NIL=
201402220900 AAXX 22094 67581 NIL=
201402220600 AAXX 22064 67581 NIL=
201402211500 AAXX 21154 67581 NIL=
201402211200 AAXX 21124 67581 42580 83105 10244 20194 48514 8197/
                   333 58028 81920 86820 88458 91016=
201402210900 AAXX 21094 67581 42580 83602 1//// 20193 48529 8417/
                   333 58019 84820 88458 91017=
201402210600 AAXX 21064 67581 12180 80000 10200 20193 48531 60254 8157/
                   333 10291 20176 81603 88458 91019=
201402202100 AAXX 20214 67581 NIL=
201402201200 AAXX 20124 67581 NIL=
201402200900 AAXX 20094 67581 NIL=
201402200600 AAXX 20064 67581 11580 73002 10228 20206 48513 69904 70288 83730
                   333 10302 20196 59008 83720 87360 91016=
201402200300 AAXX 20034 67581 NIL=
201402192100 AAXX 19214 67581 NIL=
201402191800 AAXX 19184 67581 NIL=
201402191200 AAXX 19124 67581 NIL=
201402190900 AAXX 19094 67581 NIL=
201402190600 AAXX 19064 67581 NIL=
201402190300 AAXX 19034 67581 NIL=
201402190000 AAXX 19004 67581 NIL=
201402181500 AAXX 18154 67581 NIL=
201402181200 AAXX 18124 67581 NIL=
201402180900 AAXX 18094 67581 42680 62501 10244 20177 48531 85230
                   333 58008 85835 82360 91018=
201402180600 AAXX 18064 67581 11580 61502 10212 20182 48533 60164 70244 85830
                   333 10259 20170 58010 82825 83630 84360 91018=
201402180300 AAXX 18034 67581 NIL=
201402180000 AAXX 18004 67581 NIL=
201402172100 AAXX 17214 67581 NIL=
201402171500 AAXX 17154 67581 NIL=
201402171200 AAXX 17124 67581 41556 70000 10230 20201 48500 78066 8327/
                   333 58014 81925 83825 87458 91015=
201402170900 AAXX 17094 67581 41550 70000 10226 20202 48520 76052 8522/
                   333 58022 81925 85825 87458 91017=
201402170600 AAXX 17064 67581 NIL=
201402161800 AAXX 16184 67581 NIL=
201402161500 AAXX 16154 67581 NIL=
201402161200 AAXX 16124 67581 NIL=
201402160900 AAXX 16094 67581 NIL=
201402160600 AAXX 16064 67581 NIL=
201402160300 AAXX 16034 67581 NIL=
201402152100 AAXX 15214 67581 NIL=
201402151800 AAXX 15184 67581 NIL=
201402151500 AAXX 15154 67581 NIL=
201402151200 AAXX 15124 67581 NIL=
201402150900 AAXX 15094 67581 NIL=
201402150600 AAXX 15064 67581 NIL=
201402150300 AAXX 15034 67581 NIL=
201402142100 AAXX 14214 67581 NIL=
201402141200 AAXX 14124 67581 NIL=
201402140900 AAXX 14094 67581 NIL=
201402140600 AAXX 14064 67581 NIL=
201402140300 AAXX 14034 67581 NIL=
201402132100 AAXX 13214 67581 NIL=
201402131200 AAXX 13124 67581 NIL=
201402130900 AAXX 13094 67581 NIL=
201402130600 AAXX 13064 67581 32580 52703 10221 20198 48510 70222 82132
                   333 10285 20182 59001 82825 82360 82080 91016=
201402130300 AAXX 13034 67581 NIL=
201402130000 AAXX 13004 67581 NIL=
201402121800 AAXX 12184 67581 NIL=
201402121500 AAXX 12154 67581 NIL=
201402121200 AAXX 12124 67581 NIL=
201402120900 AAXX 12094 67581 42680 61201 10253 20197 48508 84230
                   333 59010 84835 85359 91015=
201402120600 AAXX 12064 67581 12680 61802 10229 20191 48511 69954 82130
                   333 10258 20152 59003 82832 86359 91016=
201402120000 AAXX 12004 67581 NIL=
201402112100 AAXX 11214 67581 NIL=
201402111800 AAXX 11184 67581 NIL=
201402111200 AAXX 11124 67581 NIL=
201402110900 AAXX 11094 67581 NIL=
201402110600 AAXX 11064 67581 12380 70000 10205 20190 48510 60314 8673/
                   333 10252 20175 58005 86710 82358 91016=
201402102100 AAXX 10214 67581 NIL=
201402101800 AAXX 10184 67581 NIL=
201402101500 AAXX 10154 67581 NIL=
201402101200 AAXX 10124 67581 NIL=
201402100900 AAXX 10094 67581 NIL=
201402100600 AAXX 10064 67581 11206 80000 10196 20193 48505 60354 76166 887//
                   333 10255 20176 58002 88704 91016=
201402092100 AAXX 09214 67581 NIL=
201402091800 AAXX 09184 67581 NIL=
201402091500 AAXX 09154 67581 NIL=
201402091200 AAXX 09124 67581 NIL=
201402090900 AAXX 09094 67581 NIL=
201402090600 AAXX 09064 67581 NIL=
201402082100 AAXX 08214 67581 NIL=
201402081800 AAXX 08184 67581 NIL=
201402081500 AAXX 08154 67581 NIL=
201402081200 AAXX 08124 67581 NIL=
201402080900 AAXX 08094 67581 NIL=
201402080600 AAXX 08064 67581 NIL=
201402080300 AAXX 08034 67581 NIL=
201402080000 AAXX 08004 67581 NIL=
201402071800 AAXX 07184 67581 NIL=
201402071500 AAXX 07154 67581 NIL=
201402071200 AAXX 07124 67581 41570 82806 10245 20201 48477 71722 8557/
                   333 58007 81925 85625 88458 91012=
201402070900 AAXX 07094 67581 42580 72705 10253 20197 48498 84571
                   333 59002 84628 84460 82080 91014=
201402070600 AAXX 07064 67581 32580 70000 10217 20203 48494 8357/
                   333 59003 83625 87460 91014=
201402070300 AAXX 07034 67581 NIL=
201402070000 AAXX 07004 67581 NIL=
201402062100 AAXX 06214 67581 NIL=
201402061800 AAXX 06184 67581 NIL=
201402061500 AAXX 06154 67581 NIL=
201402061200 AAXX 06124 67581 NIL=
201402060900 AAXX 06094 67581 NIL=
201402060600 AAXX 06064 67581 12580 80000 10220 20192 48499 60334 70222 82138
                   333 10281 20186 59006 82825 84360 86280
                   555 00185 20000 91015=
201402060300 AAXX 06034 67581 NIL=
201402060000 AAXX 06004 67581 NIL=
201402052100 AAXX 05214 67581 NIL=
201402051800 AAXX 05184 67581 NIL=
201402051500 AAXX 05154 67581 NIL=
201402051200 AAXX 05124 67581 42580 62703 10266 20207 48482 82278
                   333 59009 81925 82825 84459 82280 91012=
201402050900 AAXX 05094 67581 42580 63104 10265 20213 48504 84230
                   333 59009 81925 84825 82359 91015=
201402050600 AAXX 05064 67581 32480 70403 10220 20199 48503 8157/
                   333 10281 20196 59003 81610 87459 91015=
201402050300 AAXX 05034 67581 NIL=
201402041800 AAXX 04184 67581 NIL=
201402041500 AAXX 04154 67581 NIL=
201402041200 AAXX 04124 67581 NIL=
201402040900 AAXX 04094 67581 42660 73007 10256 20207 48511 85870
                   333 58012 83833 82635 87459 91016=
201402040600 AAXX 04064 67581 11660 70000 10209 20198 48504 60264 70244 82170
                   333 10305 20176 58000 82830 87459 91016=
201402040300 AAXX 04034 67581 NIL=
201402032100 AAXX 03214 67581 NIL=
201402031800 AAXX 03184 67581 NIL=
201402031500 AAXX 03154 67581 NIL=
201402031200 AAXX 03124 67581 NIL=
201402030900 AAXX 03094 67581 42680 52804 10278 20201 48502 82132 59015 82830 81360 82080=
201402030600 AAXX 03064 67581 32980 72803 10245 20208 48510 87030
                   333 59006 87362 91016=
201402021800 AAXX 02184 67581 NIL=
201402021500 AAXX 02154 67581 NIL=
201402021200 AAXX 02124 67581 NIL=
201402020900 AAXX 02094 67581 NIL=
201402020600 AAXX 02064 67581 NIL=
201402020300 AAXX 02034 67581 NIL=
201402012100 AAXX 01214 67581 NIL=
201402011800 AAXX 01184 67581 NIL=
201402011500 AAXX 01154 67581 NIL=
201402011200 AAXX 01124 67581 NIL=
201402010900 AAXX 01094 67581 NIL=
201402010600 AAXX 01064 67581 NIL=

################################################################################
#  SYNOPS from 67583, Lundazi (Zambia) | 12-17S | 033-12E | 1143 m
################################################################################
201403030300 AAXX 03034 67583 NIL=
201403030000 AAXX 03004 67583 NIL=
201403022100 AAXX 02214 67583 NIL=
201403021800 AAXX 02184 67583 NIL=
201403021500 AAXX 02154 67583 NIL=
201403021200 AAXX 02124 67583 NIL=
201403020900 AAXX 02094 67583 NIL=
201403020600 AAXX 02064 67583 NIL=
201403020300 AAXX 02034 67583 NIL=
201403020000 AAXX 02004 67583 NIL=
201403012100 AAXX 01214 67583 NIL=
201403011800 AAXX 01184 67583 NIL=
201403011500 AAXX 01154 67583 NIL=
201403011200 AAXX 01121 67583 NIL=
201403010900 AAXX 01094 67583 NIL=
201403010600 AAXX 01064 67583 NIL=
201403010000 AAXX 01004 67583 NIL=
201402282100 AAXX 28214 67583 NIL=
201402281800 AAXX 28184 67583 NIL=
201402281500 AAXX 28154 67583 NIL=
201402281200 AAXX 28124 67583 NIL=
201402280900 AAXX 28094 67583 NIL=
201402280600 AAXX 28064 67583 NIL=
201402280300 AAXX 28034 67583 NIL=
201402280000 AAXX 28004 67583 NIL=
201402272100 AAXX 27214 67583 NIL=
201402271800 AAXX 27184 67583 NIL=
201402271500 AAXX 27154 67583 NIL=
201402271200 AAXX 27124 67583 NIL=
201402270900 AAXX 27094 67583 NIL=
201402270600 AAXX 27064 67583 12980 80000 10211 20194 69904 85037
                   333 10300 20191 5//// 85360 88280=
201402262100 AAXX 26214 67583 NIL=
201402261500 AAXX 26154 67583 NIL=
201402261200 AAXX 26124 67583 NIL=
201402260900 AAXX 26094 67583 NIL=
201402260600 AAXX 26064 67583 12980 71801 10209 20197 60114 70222 87030
                   333 10260 20185 5//// 87360
                   555 00/// 20008=
201402260300 AAXX 26034 67583 NIL=
201402252100 AAXX 25214 67583 NIL=
201402251500 AAXX 25154 67583 NIL=
201402251200 AAXX 25124 67583 NIL=
201402250900 AAXX 25094 67583 NIL=
201402250600 AAXX 25064 67583 NIL=
201402250300 AAXX 25034 67583 NIL=
201402242100 AAXX 24214 67583 NIL=
201402241800 AAXX 24184 67583 NIL=
201402241500 AAXX 24154 67583 NIL=
201402241200 AAXX 24124 67583 NIL=
201402240900 AAXX 24094 67583 NIL=
201402240600 AAXX 24064 67583 12980 80000 10200 20193 60364 70222 83031
                   333 10295 20184 5//// 83360 88280=
201402240300 AAXX 24034 67583 NIL=
201402240000 AAXX 24004 67583 NIL=
201402232100 AAXX 23214 67583 NIL=
201402231500 AAXX 23154 67583 NIL=
201402230900 AAXX 23094 67583 NIL=
201402230600 AAXX 23064 67583 NIL=
201402230300 AAXX 23034 67583 NIL=
201402221800 AAXX 22184 67583 NIL=
201402221500 AAXX 22154 67583 NIL=
201402220900 AAXX 22094 67583 NIL=
201402220600 AAXX 22064 67583 NIL=
201402211500 AAXX 21154 67583 NIL=
201402211200 AAXX 21124 67583 NIL=
201402210900 AAXX 21094 67583 NIL=
201402210600 AAXX 21064 67583 NIL=
201402202100 AAXX 20214 67583 NIL=
201402201200 AAXX 20124 67583 NIL=
201402200900 AAXX 20094 67583 NIL=
201402200600 AAXX 20064 67583 NIL=
201402200300 AAXX 20034 67583 NIL=
201402192100 AAXX 19214 67583 NIL=
201402191800 AAXX 19184 67583 NIL=
201402191200 AAXX 19124 67583 NIL=
201402190900 AAXX 19094 67583 NIL=
201402190600 AAXX 19064 67583 32980 20901 10240 20203 81031
                   333 10285 20175 5//// 81360 82080
                   555 00/// 20004=
201402190300 AAXX 19034 67583 NIL=
201402190000 AAXX 19004 67583 NIL=
201402181500 AAXX 18154 67583 NIL=
201402181200 AAXX 18124 67583 NIL=
201402180900 AAXX 18094 67583 NIL=
201402180600 AAXX 18064 67583 12580 80000 10210 20193 60044 70222 8157/
                   333 10270 20190 5//// 81625 88360=
201402180300 AAXX 18034 67583 NIL=
201402180000 AAXX 18004 67583 NIL=
201402172100 AAXX 17214 67583 NIL=
201402171500 AAXX 17154 67583 NIL=
201402171200 AAXX 17124 67583 NIL=
201402170900 AAXX 17094 67583 NIL=
201402170600 AAXX 17064 67583 NIL=
201402161800 AAXX 16184 67583 NIL=
201402161500 AAXX 16154 67583 NIL=
201402161200 AAXX 16124 67583 NIL=
201402160900 AAXX 16094 67583 NIL=
201402160600 AAXX 16064 67583 NIL=
201402160300 AAXX 16034 67583 NIL=
201402152100 AAXX 15214 67583 NIL=
201402151800 AAXX 15184 67583 NIL=
201402151500 AAXX 15154 67583 NIL=
201402151200 AAXX 15124 67583 NIL=
201402150900 AAXX 15094 67583 NIL=
201402150600 AAXX 15064 67583 NIL=
201402150300 AAXX 15034 67583 NIL=
201402142100 AAXX 14214 67583 NIL=
201402141200 AAXX 14124 67583 NIL=
201402140900 AAXX 14094 67583 NIL=
201402140600 AAXX 14064 67583 NIL=
201402140300 AAXX 14034 67583 NIL=
201402132100 AAXX 13214 67583 NIL=
201402131200 AAXX 13124 67583 NIL=
201402130900 AAXX 13094 67583 NIL=
201402130600 AAXX 13064 67583 12580 71801 10205 20188 60024 81537
                   333 10300 20175 5//// 81625 82360 87280=
201402130300 AAXX 13034 67583 NIL=
201402130000 AAXX 13004 67583 NIL=
201402121800 AAXX 12184 67583 NIL=
201402121500 AAXX 12154 67583 NIL=
201402121200 AAXX 12124 67583 NIL=
201402120900 AAXX 12094 67583 NIL=
201402120600 AAXX 12064 67583 12680 70000 10210 20194 60054 70222 82131
                   333 10260 20169 5//// 82828 81360 87280=
201402120000 AAXX 12004 67583 NIL=
201402112100 AAXX 11214 67583 NIL=
201402111800 AAXX 11184 67583 NIL=
201402111200 AAXX 11124 67583 NIL=
201402110900 AAXX 11094 67583 NIL=
201402110600 AAXX 11064 67583 12980 83601 10195 20188 60294 8807/
                   333 10268 20175 5//// 88460
                   555 00/// 20039=
201402102100 AAXX 10214 67583 NIL=
201402101800 AAXX 10184 67583 NIL=
201402101500 AAXX 10154 67583 NIL=
201402101200 AAXX 10124 67583 NIL=
201402100900 AAXX 10094 67583 NIL=
201402100600 AAXX 10060 67583 NIL=
201402092100 AAXX 09214 67583 NIL=
201402091800 AAXX 09184 67583 NIL=
201402091500 AAXX 09154 67583 NIL=
201402091200 AAXX 09124 67583 NIL=
201402090900 AAXX 09094 67583 NIL=
201402090600 AAXX 09064 67583 NIL=
201402082100 AAXX 08214 67583 NIL=
201402081800 AAXX 08184 67583 NIL=
201402081500 AAXX 08154 67583 NIL=
201402081200 AAXX 08124 67583 NIL=
201402080900 AAXX 08094 67583 NIL=
201402080600 AAXX 08064 67583 NIL=
201402080300 AAXX 08034 67583 NIL=
201402080000 AAXX 08004 67583 NIL=
201402071800 AAXX 07184 67583 NIL=
201402071500 AAXX 07154 67583 NIL=
201402071200 AAXX 07124 67583 NIL=
201402070900 AAXX 07094 67583 NIL=
201402070600 AAXX 07064 67583 NIL=
201402070300 AAXX 07034 67583 NIL=
201402070000 AAXX 07004 67583 NIL=
201402062100 AAXX 06214 67583 NIL=
201402061800 AAXX 06184 67583 NIL=
201402061500 AAXX 06154 67583 NIL=
201402061200 AAXX 06124 67583 NIL=
201402060900 AAXX 06094 67583 NIL=
201402060600 AAXX 06064 67583 NIL=
201402060300 AAXX 06034 67583 NIL=
201402060000 AAXX 06004 67583 NIL=
201402052100 AAXX 05214 67583 NIL=
201402051800 AAXX 05184 67583 NIL=
201402051500 AAXX 05154 67583 NIL=
201402051200 AAXX 05124 67583 NIL=
201402050900 AAXX 05094 67583 NIL=
201402050600 AAXX 05064 67583 NIL=
201402050300 AAXX 05034 67583 NIL=
201402041800 AAXX 04184 67583 NIL=
201402041500 AAXX 04154 67583 NIL=
201402041200 AAXX 04124 67583 NIL=
201402040900 AAXX 04094 67583 NIL=
201402040600 AAXX 04064 67583 NIL=
201402040300 AAXX 04034 67583 NIL=
201402032100 AAXX 03214 67583 NIL=
201402031800 AAXX 03184 67583 NIL=
201402031500 AAXX 03154 67583 NIL=
201402031200 AAXX 03124 67583 NIL=
201402030900 AAXX 03094 67583 NIL=
201402030600 AAXX 03064 67583 12980 10000 10230 20193 60134 70100 81031
                   333 10285 20167 5//// 81360 81080=
201402021800 AAXX 02184 67583 NIL=
201402021500 AAXX 02154 67583 NIL=
201402021200 AAXX 02124 67583 NIL=
201402020900 AAXX 02094 67583 NIL=
201402020600 AAXX 02064 67583 NIL=
201402020300 AAXX 02034 67583 NIL=
201402012100 AAXX 01214 67583 NIL=
201402011800 AAXX 01184 67583 NIL=
201402011500 AAXX 01154 67583 NIL=
201402011200 AAXX 01124 67583 NIL=
201402010900 AAXX 01094 67583 NIL=
201402010600 AAXX 01064 67583 NIL=

################################################################################
#  SYNOPS from 67599, Mfuwe (Zambia) | 13-16S | 031-56E | 568 m
################################################################################
201403030300 AAXX 03034 67599 NIL=
201403030000 AAXX 03004 67599 NIL=
201403022100 AAXX 02214 67599 NIL=
201403021800 AAXX 02184 67599 NIL=
201403021500 AAXX 02154 67599 NIL=
201403021200 AAXX 02124 67599 NIL=
201403020900 AAXX 02094 67599 NIL=
201403020600 AAXX 02064 67599 NIL=
201403020300 AAXX 02034 67599 NIL=
201403020000 AAXX 02004 67599 NIL=
201403012100 AAXX 01214 67599 NIL=
201403011800 AAXX 01184 67599 NIL=
201403011500 AAXX 01154 67599 NIL=
201403011200 AAXX 01121 67599 NIL=
201403010900 AAXX 01094 67599 NIL=
201403010600 AAXX 01064 67599 NIL=
201403010000 AAXX 01004 67599 NIL=
201402282100 AAXX 28214 67599 NIL=
201402281800 AAXX 28184 67599 NIL=
201402281500 AAXX 28154 67599 NIL=
201402281200 AAXX 28124 67599 NIL=
201402280900 AAXX 28094 67599 NIL=
201402280600 AAXX 28064 67599 NIL=
201402280300 AAXX 28034 67599 NIL=
201402280000 AAXX 28004 67599 NIL=
201402272100 AAXX 27214 67599 NIL=
201402271800 AAXX 27184 67599 NIL=
201402271500 AAXX 27154 67599 NIL=
201402271200 AAXX 27124 67599 NIL=
201402270900 AAXX 27094 67599 NIL=
201402270600 AAXX 27064 67599 11280 80000 10215 20215 48529 60214 76066 8477/
                   333 10328 20210 58015 84704 88459 91018=
201402262100 AAXX 26214 67599 NIL=
201402261500 AAXX 26154 67599 NIL=
201402261200 AAXX 26124 67599 NIL=
201402260900 AAXX 26094 67599 NIL=
201402260300 AAXX 26034 67599 NIL=
201402252100 AAXX 25214 67599 NIL=
201402251500 AAXX 25154 67599 NIL=
201402251200 AAXX 25124 67599 NIL=
201402250900 AAXX 25094 67599 NIL=
201402250600 AAXX 25064 67599 NIL=
201402250300 AAXX 25034 67599 NIL=
201402242100 AAXX 24214 67599 NIL=
201402241800 AAXX 24184 67599 NIL=
201402241500 AAXX 24154 67599 NIL=
201402241200 AAXX 24124 67599 NIL=
201402240900 AAXX 24094 67599 NIL=
201402240600 AAXX 24064 67599 NIL=
201402240300 AAXX 24034 67599 NIL=
201402240000 AAXX 24004 67599 NIL=
201402232100 AAXX 23214 67599 NIL=
201402231500 AAXX 23154 67599 NIL=
201402230900 AAXX 23094 67599 NIL=
201402230600 AAXX 23064 67599 NIL=
201402230300 AAXX 23034 67599 NIL=
201402221800 AAXX 22184 67599 NIL=
201402221500 AAXX 22154 67599 NIL=
201402220900 AAXX 22094 67599 NIL=
201402220600 AAXX 22064 67599 NIL=
201402211500 AAXX 21154 67599 NIL=
201402211200 AAXX 21124 67599 NIL=
201402210900 AAXX 21094 67599 NIL=
201402210600 AAXX 21064 67599 NIL=
201402202100 AAXX 20214 67599 NIL=
201402201200 AAXX 20124 67599 NIL=
201402200900 AAXX 20094 67599 NIL=
201402200600 AAXX 20064 67599 NIL=
201402200300 AAXX 20034 67599 NIL=
201402192100 AAXX 19214 67599 NIL=
201402191800 AAXX 19184 67599 NIL=
201402191200 AAXX 19124 67599 NIL=
201402190900 AAXX 19094 67599 NIL=
201402190600 AAXX 19064 67599 NIL=
201402190300 AAXX 19034 67599 NIL=
201402190000 AAXX 19004 67599 NIL=
201402181500 AAXX 18154 67599 NIL=
201402181200 AAXX 18124 67599 NIL=
201402180900 AAXX 18094 67599 NIL=
201402180600 AAXX 18064 67599 NIL=
201402180300 AAXX 18034 67599 NIL=
201402180000 AAXX 18004 67599 NIL=
201402172100 AAXX 17214 67599 NIL=
201402171500 AAXX 17154 67599 NIL=
201402171200 AAXX 17124 67599 NIL=
201402170900 AAXX 17094 67599 NIL=
201402170600 AAXX 17064 67599 NIL=
201402161800 AAXX 16184 67599 NIL=
201402161500 AAXX 16154 67599 NIL=
201402161200 AAXX 16124 67599 NIL=
201402160900 AAXX 16094 67599 NIL=
201402160600 AAXX 16064 67599 NIL=
201402160300 AAXX 16034 67599 NIL=
201402152100 AAXX 15214 67599 NIL=
201402151800 AAXX 15184 67599 NIL=
201402151500 AAXX 15154 67599 NIL=
201402151200 AAXX 15124 67599 NIL=
201402150900 AAXX 15094 67599 NIL=
201402150600 AAXX 15064 67599 NIL=
201402150300 AAXX 15034 67599 NIL=
201402142100 AAXX 14214 67599 NIL=
201402141200 AAXX 14124 67599 NIL=
201402140900 AAXX 14094 67599 NIL=
201402140600 AAXX 14064 67599 NIL=
201402140300 AAXX 14034 67599 NIL=
201402132100 AAXX 13214 67599 NIL=
201402131200 AAXX 13124 67599 NIL=
201402130900 AAXX 13094 67599 NIL=
201402130600 AAXX 13064 67599 NIL=
201402130300 AAXX 13034 67599 NIL=
201402130000 AAXX 13004 67599 NIL=
201402121800 AAXX 12184 67599 NIL=
201402121500 AAXX 12154 67599 NIL=
201402121200 AAXX 12124 67599 NIL=
201402120900 AAXX 12094 67599 NIL=
201402120600 AAXX 12064 67599 NIL=
201402120000 AAXX 12004 67599 NIL=
201402112100 AAXX 11214 67599 NIL=
201402111800 AAXX 11184 67599 NIL=
201402111200 AAXX 11124 67599 NIL=
201402110900 AAXX 11094 67599 NIL=
201402110600 AAXX 11064 67599 NIL=
201402102100 AAXX 10214 67599 NIL=
201402101800 AAXX 10184 67599 NIL=
201402101500 AAXX 10154 67599 NIL=
201402101200 AAXX 10124 67599 NIL=
201402100900 AAXX 10094 67599 NIL=
201402100600 AAXX 10064 67599 11257 80000 10220 20215 48510 60484 76066 877//
                   333 10295 20208 58003 87705 91015=
201402092100 AAXX 09214 67599 NIL=
201402091800 AAXX 09184 67599 NIL=
201402091500 AAXX 09154 67599 NIL=
201402091200 AAXX 09124 67599 NIL=
201402090900 AAXX 09094 67599 NIL=
201402090600 AAXX 09064 67599 NIL=
201402082100 AAXX 08214 67599 NIL=
201402081800 AAXX 08184 67599 NIL=
201402081500 AAXX 08154 67599 NIL=
201402081200 AAXX 08124 67599 NIL=
201402080900 AAXX 08094 67599 NIL=
201402080600 AAXX 08064 67599 NIL=
201402080300 AAXX 08034 67599 NIL=
201402080000 AAXX 08004 67599 NIL=
201402071800 AAXX 07184 67599 NIL=
201402071500 AAXX 07154 67599 NIL=
201402071200 AAXX 07124 67599 NIL=
201402070900 AAXX 07094 67599 NIL=
201402070600 AAXX 07064 67599 NIL=
201402070300 AAXX 07034 67599 NIL=
201402070000 AAXX 07004 67599 NIL=
201402062100 AAXX 06214 67599 NIL=
201402061800 AAXX 06184 67599 NIL=
201402061500 AAXX 06154 67599 NIL=
201402061200 AAXX 06124 67599 NIL=
201402060900 AAXX 06094 67599 NIL=
201402060600 AAXX 06064 67599 NIL=
201402060300 AAXX 06034 67599 NIL=
201402060000 AAXX 06004 67599 NIL=
201402052100 AAXX 05214 67599 NIL=
201402051800 AAXX 05184 67599 NIL=
201402051500 AAXX 05154 67599 NIL=
201402051200 AAXX 05124 67599 NIL=
201402050900 AAXX 05094 67599 NIL=
201402050600 AAXX 05064 67599 NIL=
201402050300 AAXX 05034 67599 NIL=
201402041800 AAXX 04184 67599 NIL=
201402041500 AAXX 04154 67599 NIL=
201402041200 AAXX 04124 67599 NIL=
201402040900 AAXX 04094 67599 NIL=
201402040600 AAXX 04064 67599 NIL=
201402040300 AAXX 04034 67599 NIL=
201402032100 AAXX 03214 67599 NIL=
201402031800 AAXX 03184 67599 NIL=
201402031500 AAXX 03154 67599 NIL=
201402031200 AAXX 03124 67599 NIL=
201402030900 AAXX 03094 67599 NIL=
201402030600 AAXX 03064 67599 NIL=
201402021800 AAXX 02184 67599 NIL=
201402021500 AAXX 02154 67599 NIL=
201402021200 AAXX 02124 67599 NIL=
201402020900 AAXX 02094 67599 NIL=
201402020600 AAXX 02064 67599 NIL=
201402020300 AAXX 02034 67599 NIL=
201402012100 AAXX 01214 67599 NIL=
201402011800 AAXX 01184 67599 NIL=
201402011500 AAXX 01154 67599 NIL=
201402011200 AAXX 01124 67599 NIL=
201402010900 AAXX 01094 67599 NIL=
201402010600 AAXX 01064 67599 NIL=

################################################################################
#  SYNOPS from 67625, Kalabo (Zambia) | 14-51S | 022-42E | 1033 m
################################################################################
201403030300 AAXX 03034 67625 NIL=
201403030000 AAXX 03004 67625 NIL=
201403022100 AAXX 02214 67625 NIL=
201403021800 AAXX 02184 67625 NIL=
201403021500 AAXX 02154 67625 NIL=
201403021200 AAXX 02124 67625 NIL=
201403020900 AAXX 02094 67625 NIL=
201403020600 AAXX 02064 67625 NIL=
201403020300 AAXX 02034 67625 NIL=
201403020000 AAXX 02004 67625 NIL=
201403012100 AAXX 01214 67625 NIL=
201403011800 AAXX 01184 67625 NIL=
201403011500 AAXX 01154 67625 NIL=
201403011200 AAXX 01121 67625 NIL=
201403010900 AAXX 01094 67625 NIL=
201403010600 AAXX 01064 67625 NIL=
201403010000 AAXX 01004 67625 NIL=
201402282100 AAXX 28214 67625 NIL=
201402281800 AAXX 28184 67625 NIL=
201402281500 AAXX 28154 67625 NIL=
201402281200 AAXX 28124 67625 NIL=
201402280900 AAXX 28094 67625 NIL=
201402280600 AAXX 28064 67625 NIL=
201402280300 AAXX 28034 67625 NIL=
201402280000 AAXX 28004 67625 NIL=
201402272100 AAXX 27214 67625 NIL=
201402271800 AAXX 27184 67625 NIL=
201402271500 AAXX 27154 67625 NIL=
201402271200 AAXX 27124 67625 NIL=
201402270900 AAXX 27094 67625 NIL=
201402270600 AAXX 27064 67625 NIL=
201402262100 AAXX 26214 67625 NIL=
201402261500 AAXX 26154 67625 NIL=
201402261200 AAXX 26124 67625 NIL=
201402260900 AAXX 26094 67625 NIL=
201402260300 AAXX 26034 67625 NIL=
201402252100 AAXX 25214 67625 NIL=
201402251500 AAXX 25154 67625 NIL=
201402251200 AAXX 25124 67625 NIL=
201402250900 AAXX 25094 67625 NIL=
201402250600 AAXX 25064 67625 NIL=
201402250300 AAXX 25034 67625 NIL=
201402242100 AAXX 24214 67625 NIL=
201402241800 AAXX 24184 67625 NIL=
201402241500 AAXX 24154 67625 NIL=
201402241200 AAXX 24124 67625 NIL=
201402240900 AAXX 24094 67625 NIL=
201402240600 AAXX 24064 67625 32982 60603 10230 20209 48/// 8603/
                   333 10290 20215 58000 86360=
201402240300 AAXX 24034 67625 NIL=
201402240000 AAXX 24004 67625 NIL=
201402232100 AAXX 23214 67625 NIL=
201402231500 AAXX 23154 67625 NIL=
201402230900 AAXX 23094 67625 NIL=
201402230600 AAXX 23064 67625 NIL=
201402230300 AAXX 23034 67625 NIL=
201402221800 AAXX 22184 67625 NIL=
201402221500 AAXX 22154 67625 NIL=
201402220900 AAXX 22094 67625 NIL=
201402220600 AAXX 22064 67625 NIL=
201402211500 AAXX 21154 67625 NIL=
201402211200 AAXX 21124 67625 NIL=
201402210900 AAXX 21094 67625 NIL=
201402210600 AAXX 21064 67625 32982 53503 10236 20206 48/// 85031
                   333 10334 20190 59015 83360 82075=
201402202100 AAXX 20214 67625 NIL=
201402201200 AAXX 20124 67625 NIL=
201402200900 AAXX 20094 67625 NIL=
201402200600 AAXX 20064 67625 32982 50904 10231 20208 48/// 83032
                   333 10300 20194 59013 83360 82075=
201402200300 AAXX 20034 67625 NIL=
201402192100 AAXX 19214 67625 NIL=
201402191800 AAXX 19184 67625 NIL=
201402191200 AAXX 19124 67625 NIL=
201402190900 AAXX 19094 67625 NIL=
201402190600 AAXX 19064 67625 12482 73604 10215 20202 48/// 60044 8463/
                   333 10290 20185 58000 84715 85360
                   555 00/// 20001=
201402190300 AAXX 19034 67625 NIL=
201402190000 AAXX 19004 67625 NIL=
201402181500 AAXX 18154 67625 NIL=
201402181200 AAXX 18124 67625 NIL=
201402180900 AAXX 18094 67625 NIL=
201402180600 AAXX 18064 67625 12982 73603 10224 20204 48/// 60014 8702/
                   333 10350 20190 58004 87460=
201402180300 AAXX 18034 67625 NIL=
201402180000 AAXX 18004 67625 NIL=
201402172100 AAXX 17214 67625 NIL=
201402171500 AAXX 17154 67625 NIL=
201402171200 AAXX 17124 67625 NIL=
201402170900 AAXX 17094 67625 NIL=
201402170600 AAXX 17064 67625 32982 60704 10225 20209 48/// 83011
                   333 10354 20200 59005 83460 83075=
201402161800 AAXX 16184 67625 NIL=
201402161500 AAXX 16154 67625 NIL=
201402161200 AAXX 16124 67625 NIL=
201402160900 AAXX 16094 67625 NIL=
201402160600 AAXX 16064 67625 NIL=
201402160300 AAXX 16034 67625 NIL=
201402152100 AAXX 15214 67625 NIL=
201402151800 AAXX 15184 67625 NIL=
201402151500 AAXX 15154 67625 NIL=
201402151200 AAXX 15124 67625 NIL=
201402150900 AAXX 15094 67625 NIL=
201402150600 AAXX 15064 67625 NIL=
201402150300 AAXX 15034 67625 NIL=
201402142100 AAXX 14214 67625 NIL=
201402141200 AAXX 14120 67625 NIL=
201402140900 AAXX 14094 67625 NIL=
201402140600 AAXX 14064 67625 32982 50504 10247 20216 48/// 70311 85030
                   333 10305 20190 59002 85360=
201402140300 AAXX 14034 67625 NIL=
201402132100 AAXX 13214 67625 NIL=
201402131200 AAXX 13124 67625 NIL=
201402130900 AAXX 13094 67625 NIL=
201402130600 AAXX 13064 67625 NIL=
201402130300 AAXX 13034 67625 NIL=
201402130000 AAXX 13004 67625 NIL=
201402121800 AAXX 12184 67625 NIL=
201402121500 AAXX 12154 67625 NIL=
201402121200 AAXX 12124 67625 NIL=
201402120900 AAXX 12094 67625 NIL=
201402120600 AAXX 12064 67625 NIL=
201402120000 AAXX 12004 67625 NIL=
201402112100 AAXX 11214 67625 NIL=
201402111800 AAXX 11184 67625 NIL=
201402111200 AAXX 11124 67625 NIL=
201402110900 AAXX 11094 67625 NIL=
201402110600 AAXX 11064 67625 NIL=
201402102100 AAXX 10214 67625 NIL=
201402101800 AAXX 10184 67625 NIL=
201402101500 AAXX 10154 67625 NIL=
201402101200 AAXX 10124 67625 NIL=
201402100900 AAXX 10094 67625 NIL=
201402100600 AAXX 10060 67625 NIL=
201402092100 AAXX 09214 67625 NIL=
201402091800 AAXX 09184 67625 NIL=
201402091500 AAXX 09154 67625 NIL=
201402091200 AAXX 09124 67625 NIL=
201402090900 AAXX 09094 67625 NIL=
201402090600 AAXX 09064 67625 NIL=
201402082100 AAXX 08214 67625 NIL=
201402081800 AAXX 08184 67625 NIL=
201402081500 AAXX 08154 67625 NIL=
201402081200 AAXX 08124 67625 NIL=
201402080900 AAXX 08094 67625 NIL=
201402080600 AAXX 08064 67625 NIL=
201402080300 AAXX 08034 67625 NIL=
201402080000 AAXX 08004 67625 NIL=
201402071800 AAXX 07184 67625 NIL=
201402071500 AAXX 07154 67625 NIL=
201402071200 AAXX 07124 67625 NIL=
201402070900 AAXX 07094 67625 NIL=
201402070600 AAXX 07064 67625 NIL=
201402070300 AAXX 07034 67625 NIL=
201402070000 AAXX 07004 67625 NIL=
201402062100 AAXX 06214 67625 NIL=
201402061800 AAXX 06184 67625 NIL=
201402061500 AAXX 06154 67625 NIL=
201402061200 AAXX 06124 67625 NIL=
201402060900 AAXX 06094 67625 NIL=
201402060600 AAXX 06064 67625 NIL=
201402060300 AAXX 06034 67625 NIL=
201402060000 AAXX 06004 67625 NIL=
201402052100 AAXX 05214 67625 NIL=
201402051800 AAXX 05184 67625 NIL=
201402051500 AAXX 05154 67625 NIL=
201402051200 AAXX 05124 67625 NIL=
201402050900 AAXX 05094 67625 NIL=
201402050600 AAXX 05064 67625 NIL=
201402050300 AAXX 05034 67625 NIL=
201402041800 AAXX 04184 67625 NIL=
201402041500 AAXX 04154 67625 NIL=
201402041200 AAXX 04124 67625 NIL=
201402040900 AAXX 04094 67625 NIL=
201402040600 AAXX 04064 67625 NIL=
201402040300 AAXX 04034 67625 NIL=
201402032100 AAXX 03214 67625 NIL=
201402031800 AAXX 03184 67625 NIL=
201402031500 AAXX 03154 67625 NIL=
201402031200 AAXX 03124 67625 NIL=
201402030900 AAXX 03094 67625 NIL=
201402030600 AAXX 03064 67625 NIL=
201402021800 AAXX 02184 67625 NIL=
201402021500 AAXX 02154 67625 NIL=
201402021200 AAXX 02124 67625 NIL=
201402020900 AAXX 02094 67625 NIL=
201402020600 AAXX 02064 67625 NIL=
201402020300 AAXX 02034 67625 NIL=
201402012100 AAXX 01214 67625 NIL=
201402011800 AAXX 01184 67625 NIL=
201402011500 AAXX 01154 67625 NIL=
201402011200 AAXX 01124 67625 NIL=
201402010900 AAXX 01094 67625 NIL=
201402010600 AAXX 01064 67625 NIL=

################################################################################
#  SYNOPS from 67633, Mongu (Zambia) | 15-15S | 023-09E | 1052 m
################################################################################
201403030300 AAXX 03034 67633 NIL=
201403030000 AAXX 03004 67633 NIL=
201403022100 AAXX 02214 67633 NIL=
201403021800 AAXX 02184 67633 NIL=
201403021500 AAXX 02154 67633 NIL=
201403021200 AAXX 02124 67633 NIL=
201403020900 AAXX 02094 67633 NIL=
201403020600 AAXX 02064 67633 NIL=
201403020300 AAXX 02034 67633 NIL=
201403020000 AAXX 02004 67633 NIL=
201403012100 AAXX 01214 67633 NIL=
201403011800 AAXX 01184 67633 NIL=
201403011500 AAXX 01154 67633 NIL=
201403011200 AAXX 01121 67633 NIL=
201403010900 AAXX 01094 67633 NIL=
201403010600 AAXX 01064 67633 NIL=
201403010000 AAXX 01004 67633 NIL=
201402282100 AAXX 28214 67633 NIL=
201402281800 AAXX 28184 67633 NIL=
201402281500 AAXX 28154 67633 NIL=
201402281200 AAXX 28124 67633 NIL=
201402280900 AAXX 28094 67633 42580 63602 10239 20195 48500 70322 81178
                   333 58002 81820 83460 86280 91016=
201402280600 AAXX 28064 67633 12980 73603 10205 20196 48501 60124 70322 8367/
                   333 10307 20195 58000 83708 87460 91016=
201402280300 AAXX 28034 67633 NIL=
201402280000 AAXX 28004 67633 NIL=
201402272100 AAXX 27214 67633 NIL=
201402271800 AAXX 27184 67633 NIL=
201402271500 AAXX 27154 67633 NIL=
201402271200 AAXX 27124 67633 41580 53601 10251 20212 48482 72999 85208
                   333 58001 81940 84850 83280 91013=
201402270900 AAXX 27094 67633 42580 50901 10267 20211 48504 70322 84208
                   333 59001 84830 82280 91016=
201402270600 AAXX 27064 67633 12980 60901 10223 20209 48495 60024 86038
                   333 10301 20192 58003 86360 83280 91016=
201402262100 AAXX 26214 67633 NIL=
201402261500 AAXX 26154 67633 NIL=
201402261200 AAXX 26124 67633 NIL=
201402260900 AAXX 26094 67633 42680 62801 10266 20206 48504 70322 84238
                   333 58006 84230 84361 82280 91016=
201402260600 AAXX 26064 67633 12480 60903 10218 20207 48501 70322 82532
                   333 10281 20202 58006 82615 83361 84080 91016=
201402260300 AAXX 26034 67633 NIL=
201402252100 AAXX 25214 67633 NIL=
201402251500 AAXX 25154 67633 NIL=
201402251200 AAXX 25124 67633 NIL=
201402250900 AAXX 25094 67633 NIL=
201402250600 AAXX 25064 67633 12980 70302 10242 20184 48498 60014 85038
                   333 10303 20205 58005 85360 86280 91015=
201402250300 AAXX 25034 67633 NIL=
201402242100 AAXX 24214 67633 NIL=
201402241800 AAXX 24184 67633 NIL=
201402241500 AAXX 24154 67633 NIL=
201402241200 AAXX 24124 67633 NIL=
201402240900 AAXX 24094 67633 NIL=
201402240600 AAXX 24064 67633 12980 50904 10230 20201 48492 60014 70122 85030
                   333 10276 20202 59009 85361 91014=
201402240300 AAXX 24034 67633 NIL=
201402240000 AAXX 24004 67633 NIL=
201402232100 AAXX 23214 67633 NIL=
201402231500 AAXX 23154 67633 NIL=
201402230900 AAXX 23094 67633 NIL=
201402230600 AAXX 23064 67633 NIL=
201402230300 AAXX 23034 67633 NIL=
201402221800 AAXX 22184 67633 NIL=
201402221500 AAXX 22154 67633 NIL=
201402220900 AAXX 22094 67633 NIL=
201402220600 AAXX 22064 67633 NIL=
201402211500 AAXX 21154 67633 NIL=
201402211200 AAXX 21124 67633 NIL=
201402210900 AAXX 21094 67633 NIL=
201402210600 AAXX 21064 67633 32480 33304 10234 20213 48502 82530
                   333 10316 20206 58008 82615 83361 91016=
201402202100 AAXX 20214 67633 NIL=
201402201200 AAXX 20124 67633 NIL=
201402200900 AAXX 20094 67633 NIL=
201402200600 AAXX 20064 67633 32980 40904 10231 20208 48495 70122 84030
                   333 10305 20195 58015 84361 91015=
201402200300 AAXX 20034 67633 NIL=
201402192100 AAXX 19214 67633 NIL=
201402191800 AAXX 19184 67633 NIL=
201402191200 AAXX 19124 67633 NIL=
201402190900 AAXX 19094 67633 42680 63603 10242 20204 48504 84232
                   333 59001 84830 84360 84080 91016=
201402190600 AAXX 19064 67633 NIL=
201402190300 AAXX 19034 67633 NIL=
201402190000 AAXX 19004 67633 NIL=
201402181500 AAXX 18154 67633 NIL=
201402181200 AAXX 18124 67633 NIL=
201402180900 AAXX 18094 67633 42580 70301 10264 20203 48503 70222 84230
                   333 59002 85825 84361 91016=
201402180600 AAXX 18064 67633 32980 70101 10234 20210 48503 70222 87030
                   333 10298 20205 58012 87360 91017=
201402180300 AAXX 18034 67633 NIL=
201402180000 AAXX 18004 67633 NIL=
201402172100 AAXX 17214 67633 NIL=
201402171500 AAXX 17154 67633 NIL=
201402171200 AAXX 17124 67633 42680 60904 10275 20208 48496 70222 85230
                   333 58016 81940 84850 83361 91014=
201402170900 AAXX 17094 67633 42480 60903 10263 20196 48503 70322 84230
                   333 58006 84830 83361 91016=
201402170600 AAXX 17064 67633 32980 60303 10226 20199 48497 69904 70222 86030
                   333 10319 20209 58002 86460 91015=
201402161800 AAXX 16184 67633 NIL=
201402161500 AAXX 16154 67633 NIL=
201402161200 AAXX 16124 67633 NIL=
201402160900 AAXX 16094 67633 NIL=
201402160600 AAXX 16064 67633 NIL=
201402160300 AAXX 16034 67633 NIL=
201402152100 AAXX 15214 67633 NIL=
201402151800 AAXX 15184 67633 NIL=
201402151500 AAXX 15154 67633 NIL=
201402151200 AAXX 15124 67633 NIL=
201402150900 AAXX 15094 67633 NIL=
201402150600 AAXX 15064 67633 NIL=
201402150300 AAXX 15034 67633 NIL=
201402142100 AAXX 14214 67633 NIL=
201402141200 AAXX 14120 67633 NIL=
201402140900 AAXX 14094 67633 NIL=
201402140600 AAXX 14064 67633 32980 30000 10255 20197 48500 70200 83030
                   333 10320 20198 58011 83361 91015=
201402140300 AAXX 14034 67633 NIL=
201402132100 AAXX 13214 67633 NIL=
201402131200 AAXX 13124 67633 42680 53304 10302 20195 48489 70300 85208
                   333 58006 85857 81280 91013=
201402130900 AAXX 13094 67633 42780 63402 10301 20192 48489 70300 83208
                   333 59012 83856 87280 91013=
201402130600 AAXX 13064 67633 12980 63602 10236 20191 48487 70222 86030
                   333 10329 20212 59010 86360 91014=
201402130300 AAXX 13034 67633 NIL=
201402130000 AAXX 13004 67633 NIL=
201402121800 AAXX 12184 67633 NIL=
201402121500 AAXX 12154 67633 42780 63201 10310 20163 48460 70222 83202
                   333 10329 20198 59016 83856 82080 91010=
201402121200 AAXX 12124 67633 42680 42702 10284 20199 48476 70300 83202
                   333 58005 83830 82080 91012=
201402120900 AAXX 12094 67633 42580 40000 10270 20193 48494 70200 84232
                   333 58011 84825 81360 82080 91014=
201402120600 AAXX 12064 67633 32980 70000 10217 20186 48486 70222 86032
                   333 10325 20194 58011 86360 82080 91015=
201402120000 AAXX 12004 67633 NIL=
201402112100 AAXX 11214 67633 NIL=
201402111800 AAXX 11184 67633 NIL=
201402111200 AAXX 11124 67633 NIL=
201402110900 AAXX 11094 67633 42980 63401 10291 20182 48488 70300 83038
                   333 59008 83361 87280 91013=
201402110600 AAXX 11064 67633 32980 50903 10237 20192 48486 70222 85030
                   333 10315 20218 58003 85361 91014=
201402102100 AAXX 10214 67633 NIL=
201402101800 AAXX 10184 67633 NIL=
201402101500 AAXX 10154 67633 NIL=
201402101200 AAXX 10124 67633 NIL=
201402100900 AAXX 10094 67633 NIL=
201402100600 AAXX 10060 67633 NIL=
201402092100 AAXX 09214 67633 NIL=
201402091800 AAXX 09184 67633 NIL=
201402091500 AAXX 09154 67633 NIL=
201402091200 AAXX 09124 67633 NIL=
201402090900 AAXX 09094 67633 NIL=
201402090600 AAXX 09064 67633 NIL=
201402082100 AAXX 08214 67633 NIL=
201402081800 AAXX 08184 67633 NIL=
201402081500 AAXX 08154 67633 NIL=
201402081200 AAXX 08124 67633 NIL=
201402080900 AAXX 08094 67633 NIL=
201402080600 AAXX 08064 67633 NIL=
201402080300 AAXX 08034 67633 NIL=
201402080000 AAXX 08004 67633 NIL=
201402071800 AAXX 07184 67633 NIL=
201402071500 AAXX 07154 67633 NIL=
201402071200 AAXX 07124 67633 NIL=
201402070900 AAXX 07094 67633 NIL=
201402070600 AAXX 07064 67633 NIL=
201402070300 AAXX 07034 67633 NIL=
201402070000 AAXX 07004 67633 NIL=
201402062100 AAXX 06214 67633 NIL=
201402061800 AAXX 06184 67633 NIL=
201402061500 AAXX 06154 67633 NIL=
201402061200 AAXX 06124 67633 NIL=
201402060900 AAXX 06094 67633 NIL=
201402060600 AAXX 06064 67633 NIL=
201402060300 AAXX 06034 67633 NIL=
201402060000 AAXX 06004 67633 NIL=
201402052100 AAXX 05214 67633 NIL=
201402051800 AAXX 05184 67633 NIL=
201402051500 AAXX 05154 67633 NIL=
201402051200 AAXX 05124 67633 NIL=
201402050900 AAXX 05094 67633 NIL=
201402050600 AAXX 05064 67633 NIL=
201402050300 AAXX 05034 67633 NIL=
201402041800 AAXX 04184 67633 NIL=
201402041500 AAXX 04154 67633 NIL=
201402041200 AAXX 04124 67633 NIL=
201402040900 AAXX 04094 67633 NIL=
201402040600 AAXX 04064 67633 NIL=
201402040300 AAXX 04034 67633 NIL=
201402032100 AAXX 03214 67633 NIL=
201402031800 AAXX 03184 67633 NIL=
201402031500 AAXX 03154 67633 NIL=
201402031200 AAXX 03124 67633 NIL=
201402030900 AAXX 03094 67633 NIL=
201402030600 AAXX 03064 67633 32980 60303 10231 20207 48479 86030
                   333 10315 20209 59008 86360 91013=
201402021800 AAXX 02184 67633 NIL=
201402021500 AAXX 02154 67633 NIL=
201402021200 AAXX 02124 67633 NIL=
201402020900 AAXX 02094 67633 NIL=
201402020600 AAXX 02064 67633 NIL=
201402020300 AAXX 02034 67633 NIL=
201402012100 AAXX 01214 67633 NIL=
201402011800 AAXX 01184 67633 NIL=
201402011500 AAXX 01154 67633 NIL=
201402011200 AAXX 01124 67633 NIL=
201402010900 AAXX 01094 67633 NIL=
201402010600 AAXX 01064 67633 NIL=

################################################################################
#  SYNOPS from 67641, Kaoma (Zambia) | 14-48S | 024-48E | 1213 m
################################################################################
201403030300 AAXX 03034 67641 NIL=
201403030000 AAXX 03004 67641 NIL=
201403022100 AAXX 02214 67641 NIL=
201403021800 AAXX 02184 67641 NIL=
201403021500 AAXX 02154 67641 NIL=
201403021200 AAXX 02124 67641 NIL=
201403020900 AAXX 02094 67641 NIL=
201403020600 AAXX 02064 67641 NIL=
201403020300 AAXX 02034 67641 NIL=
201403020000 AAXX 02004 67641 NIL=
201403012100 AAXX 01214 67641 NIL=
201403011800 AAXX 01184 67641 NIL=
201403011500 AAXX 01154 67641 NIL=
201403011200 AAXX 01121 67641 NIL=
201403010900 AAXX 01094 67641 NIL=
201403010600 AAXX 01064 67641 NIL=
201403010000 AAXX 01004 67641 NIL=
201402282100 AAXX 28214 67641 NIL=
201402281800 AAXX 28184 67641 NIL=
201402281500 AAXX 28154 67641 NIL=
201402281200 AAXX 28124 67641 NIL=
201402280900 AAXX 28094 67641 NIL=
201402280600 AAXX 28064 67641 11982 70000 10195 20189 48490 60394 70262 8603/
                   333 10297 20191 59008 86360 91015=
201402280300 AAXX 28034 67641 NIL=
201402280000 AAXX 28004 67641 NIL=
201402272100 AAXX 27214 67641 NIL=
201402271800 AAXX 27184 67641 NIL=
201402271500 AAXX 27154 67641 NIL=
201402271200 AAXX 27124 67641 42682 71602 10291 20201 48486 70262 86261
                   333 59007 81940 85840 81360 81080 91013=
201402270900 AAXX 27094 67641 NIL=
201402270600 AAXX 27064 67641 12982 70000 10210 20203 48500 60034 70222 8707/
                   333 10299 20197 58007 87360 91016=
201402262100 AAXX 26214 67641 NIL=
201402261500 AAXX 26154 67641 NIL=
201402261200 AAXX 26124 67641 41682 73503 10245 20195 48488 78092 829//
                   333 59002 82940 86841 91014=
201402260900 AAXX 26094 67641 NIL=
201402260600 AAXX 26064 67641 12982 70000 10210 20200 48493 60114 70222 8703/
                   333 10274 20195 58003 87360
                   555 00/// 20992 40462 91015=
201402260300 AAXX 26034 67641 NIL=
201402252100 AAXX 25214 67641 NIL=
201402251500 AAXX 25154 67641 NIL=
201402251200 AAXX 25124 67641 41682 70000 10240 20205 48489 72998 8227/
                   333 58011 82840 86360 91014=
201402250900 AAXX 25094 67641 NIL=
201402250600 AAXX 25064 67641 11982 73202 10214 20203 48490 6///4 72162 8707/
                   333 10306 20206 59002 87360 91015=
201402250300 AAXX 25034 67641 NIL=
201402242100 AAXX 24214 67641 NIL=
201402241800 AAXX 24184 67641 NIL=
201402241500 AAXX 24154 67641 NIL=
201402241200 AAXX 24124 67641 NIL=
201402240900 AAXX 24094 67641 NIL=
201402240600 AAXX 24064 67641 12982 60403 10215 20199 48492 60034 86030
                   333 10289 20195 59001 86360 91013=
201402240300 AAXX 24034 67641 NIL=
201402240000 AAXX 24004 67641 NIL=
201402232100 AAXX 23214 67641 NIL=
201402231500 AAXX 23154 67641 NIL=
201402230900 AAXX 23094 67641 NIL=
201402230600 AAXX 23064 67641 NIL=
201402230300 AAXX 23034 67641 NIL=
201402221800 AAXX 22184 67641 NIL=
201402221500 AAXX 22154 67641 NIL=
201402220900 AAXX 22094 67641 NIL=
201402220600 AAXX 22064 67641 NIL=
201402211500 AAXX 21154 67641 NIL=
201402211200 AAXX 21124 67641 42682 61403 10301 20175 48482 70222 84202
                   333 59002 84840 82080 91013=
201402210900 AAXX 21094 67641 42682 62401 10273 20206 48498 70222 84101
                   333 58002 84840 82080 91015=
201402210600 AAXX 21064 67641 12982 50301 10205 20198 48492 60194 70301 80001
                   333 10295 20173 58006 85080
                   555 00/// 20005 91015=
201402202100 AAXX 20214 67641 NIL=
201402201200 AAXX 20124 67641 42682 73601 10276 20209 48482 70222 872//
                   333 59012 87840 91013=
201402200900 AAXX 20094 67641 42682 73502 10255 20206 48493 70222 878//
                   333 59009 84838 83640 91014=
201402200600 AAXX 20064 67641 12582 80302 10210 20201 48486 60054 70222 886//
                   333 20198 59012 88720 91014=
201402200300 AAXX 20034 67641 NIL=
201402192100 AAXX 19214 67641 NIL=
201402191800 AAXX 19184 67641 NIL=
201402191200 AAXX 19124 67641 41682 73202 10228 20204 48488 72162 8427/
                   333 59003 84840 83360 91014=
201402190900 AAXX 19094 67641 42682 71001 10245 20199 48503 70222 8357/
                   333 59003 83638 84360 91016=
201402190600 AAXX 19064 67641 12682 70000 10210 20201 48498 60034 70222 8357/
                   333 10280 20193 59003 83635 85360
                   555 00/// 20002 40326
                   QNH 1015.8=
201402190300 AAXX 19034 67641 NIL=
201402190000 AAXX 19004 67641 NIL=
201402181500 AAXX 18154 67641 NIL=
201402181200 AAXX 18124 67641 NIL=
201402180900 AAXX 18094 67641 NIL=
201402180600 AAXX 18064 67641 12982 70102 10209 20200 48500 60024 87030
                   333 10289 20194 58007 87360 91016=
201402180300 AAXX 18034 67641 NIL=
201402180000 AAXX 18004 67641 NIL=
201402172100 AAXX 17214 67641 NIL=
201402171500 AAXX 17154 67641 NIL=
201402171200 AAXX 17124 67641 NIL=
201402170900 AAXX 17094 67641 NIL=
201402170600 AAXX 17064 67641 32582 70802 10206 20191 48493 83538
                   333 58009 83620 82360 87280 91015=
201402161800 AAXX 16184 67641 NIL=
201402161500 AAXX 16154 67641 NIL=
201402161200 AAXX 16124 67641 NIL=
201402160900 AAXX 16094 67641 NIL=
201402160600 AAXX 16064 67641 NIL=
201402160300 AAXX 16034 67641 NIL=
201402152100 AAXX 15214 67641 NIL=
201402151800 AAXX 15184 67641 NIL=
201402151500 AAXX 15154 67641 NIL=
201402151200 AAXX 15124 67641 NIL=
201402150900 AAXX 15094 67641 NIL=
201402150600 AAXX 15064 67641 NIL=
201402150300 AAXX 15034 67641 NIL=
201402142100 AAXX 14214 67641 NIL=
201402141200 AAXX 14120 67641 NIL=
201402140900 AAXX 14094 67641 NIL=
201402140600 AAXX 14064 67641 12582 71701 10200 20193 48491 60194 70222 877//
                   333 10317 20193 58009 87720 91015=
201402140300 AAXX 14034 67641 NIL=
201402132100 AAXX 13214 67641 NIL=
201402131200 AAXX 13124 67641 42682 50303 10301 20209 48479 70222 85230
                   333 59003 85845 81360 91013=
201402130900 AAXX 13094 67641 42682 73403 10253 20208 48491 70222
                   333 59003 81845 87360 91014=
201402130600 AAXX 13064 67641 12982 72702 10215 20202 48483 60074 70298 8707/
                   333 10325 20186 87360 91014=
201402130300 AAXX 13034 67641 NIL=
201402130000 AAXX 13004 67641 NIL=
201402121800 AAXX 12184 67641 NIL=
201402121500 AAXX 12154 67641 NIL=
201402121200 AAXX 12124 67641 NIL=
201402120900 AAXX 12094 67641 NIL=
201402120600 AAXX 12064 67641 NIL=
201402120000 AAXX 12004 67641 NIL=
201402112100 AAXX 11214 67641 NIL=
201402111800 AAXX 11184 67641 NIL=
201402111200 AAXX 11124 67641 NIL=
201402110900 AAXX 11094 67641 NIL=
201402110600 AAXX 11064 67641 NIL=
201402102100 AAXX 10214 67641 NIL=
201402101800 AAXX 10184 67641 NIL=
201402101500 AAXX 10154 67641 NIL=
201402101200 AAXX 10124 67641 NIL=
201402100900 AAXX 10094 67641 NIL=
201402100600 AAXX 10060 67641 NIL=
201402092100 AAXX 09214 67641 NIL=
201402091800 AAXX 09184 67641 NIL=
201402091500 AAXX 09154 67641 NIL=
201402091200 AAXX 09124 67641 NIL=
201402090900 AAXX 09094 67641 NIL=
201402090600 AAXX 09064 67641 NIL=
201402082100 AAXX 08214 67641 NIL=
201402081800 AAXX 08184 67641 NIL=
201402081500 AAXX 08154 67641 NIL=
201402081200 AAXX 08124 67641 NIL=
201402080900 AAXX 08094 67641 NIL=
201402080600 AAXX 08064 67641 NIL=
201402080300 AAXX 08034 67641 NIL=
201402080000 AAXX 08004 67641 NIL=
201402071800 AAXX 07184 67641 NIL=
201402071500 AAXX 07154 67641 NIL=
201402071200 AAXX 07124 67641 42682 72804 10282 20183 48472 70222 8527/
                   333 58006 85240 83462 91012=
201402070900 AAXX 07094 67641 42682 72705 10259 20198 48485 70222 8213/
                   333 58010 82840 86362 91013=
201402070600 AAXX 07064 67641 12682 72002 10205 20180 48481 69904 70282 8453/
                   333 10307 20189 58014 84638 84360 91014=
201402070300 AAXX 07034 67641 NIL=
201402070000 AAXX 07004 67641 NIL=
201402062100 AAXX 06214 67641 NIL=
201402061800 AAXX 06184 67641 NIL=
201402061500 AAXX 06154 67641 NIL=
201402061200 AAXX 06124 67641 NIL=
201402060900 AAXX 06094 67641 NIL=
201402060600 AAXX 06064 67641 12982 72203 10205 20193 48467 60014 87030
                   333 10285 20193 59010 87360 91012=
201402060300 AAXX 06034 67641 NIL=
201402060000 AAXX 06004 67641 NIL=
201402052100 AAXX 05214 67641 NIL=
201402051800 AAXX 05184 67641 NIL=
201402051500 AAXX 05154 67641 NIL=
201402051200 AAXX 05124 67641 42682 72606 10250 20193 48474 70262 878//=
201402050900 AAXX 05094 67641 NIL=
201402050600 AAXX 05064 67641 12982 70202 10207 20189 48478 69964 70222 8707/
                   333 10301 20198 59007 87360 91013=
201402050300 AAXX 05034 67641 NIL=
201402041800 AAXX 04184 67641 NIL=
201402041500 AAXX 04154 67641 NIL=
201402041200 AAXX 04124 67641 42682 72805 10280 20195 48475 70262 8327/
                   333 58005 83840 85360 91012=
201402040900 AAXX 04094 67641 41682 73402 10236 20199 48484 76062 8117/
                   333 59001 81840 87360 91014=
201402040600 AAXX 04064 67641 12582 72802 10196 20187 48483 60274 70222 8477/
                   333 10316 20190 58005 84720 85360 91014=
201402040300 AAXX 04034 67641 NIL=
201402032100 AAXX 03214 67641 NIL=
201402031800 AAXX 03184 67641 NIL=
201402031500 AAXX 03154 67641 NIL=
201402031200 AAXX 03124 67641 42682 70202 10285 20201 48471 70222 8426/ 59001 84842 82360=
201402030900 AAXX 03094 67641 42682 73303 10250 20197 48486 70222 8117/
                   333 58000 81842 87360 91014=
201402030600 AAXX 03064 67641 32982 71602 10212 20192 48480 70222 8707/
                   333 10324 20206 59006 87360 91013=
201402021800 AAXX 02184 67641 NIL=
201402021500 AAXX 02154 67641 NIL=
201402021200 AAXX 02124 67641 NIL=
201402020900 AAXX 02094 67641 NIL=
201402020600 AAXX 02064 67641 NIL=
201402020300 AAXX 02034 67641 NIL=
201402012100 AAXX 01214 67641 NIL=
201402011800 AAXX 01184 67641 NIL=
201402011500 AAXX 01154 67641 NIL=
201402011200 AAXX 01124 67641 NIL=
201402010900 AAXX 01094 67641 NIL=
201402010600 AAXX 01064 67641 NIL=

################################################################################
#  SYNOPS from 67655, Mumbwa (Zambia) | 15-04S | 027-11E | 1216 m
################################################################################
201403030300 AAXX 03034 67655 NIL=
201403030000 AAXX 03004 67655 NIL=
201403022100 AAXX 02214 67655 NIL=
201403021800 AAXX 02184 67655 NIL=
201403021500 AAXX 02154 67655 NIL=
201403021200 AAXX 02124 67655 NIL=
201403020900 AAXX 02094 67655 NIL=
201403020600 AAXX 02064 67655 NIL=
201403020300 AAXX 02034 67655 NIL=
201403020000 AAXX 02004 67655 NIL=
201403012100 AAXX 01214 67655 NIL=
201403011800 AAXX 01184 67655 NIL=
201403011500 AAXX 01154 67655 NIL=
201403011200 AAXX 01121 67655 NIL=
201403010900 AAXX 01094 67655 NIL=
201403010600 AAXX 01064 67655 NIL=
201403010000 AAXX 01004 67655 NIL=
201402282100 AAXX 28214 67655 NIL=
201402281800 AAXX 28184 67655 NIL=
201402281500 AAXX 28154 67655 NIL=
201402281200 AAXX 28124 67655 NIL=
201402280900 AAXX 28094 67655 NIL=
201402280600 AAXX 28064 67655 NIL=
201402280300 AAXX 28034 67655 NIL=
201402280000 AAXX 28004 67655 NIL=
201402272100 AAXX 27214 67655 NIL=
201402271800 AAXX 27184 67655 NIL=
201402271500 AAXX 27154 67655 NIL=
201402271200 AAXX 27124 67655 NIL=
201402270900 AAXX 27094 67655 NIL=
201402270600 AAXX 27064 67655 NIL=
201402262100 AAXX 26214 67655 NIL=
201402261500 AAXX 26154 67655 NIL=
201402261200 AAXX 26124 67655 NIL=
201402260900 AAXX 26094 67655 NIL=
201402260600 AAXX 26064 67655 32580 60904 10245 20185 48516 84531
                   333 10277 20/// 58001 84620 82360 86280 91018=
201402260300 AAXX 26034 67655 NIL=
201402252100 AAXX 25214 67655 NIL=
201402251500 AAXX 25154 67655 NIL=
201402251200 AAXX 25124 67655 NIL=
201402250900 AAXX 25094 67655 NIL=
201402250600 AAXX 25064 67655 NIL=
201402250300 AAXX 25034 67655 NIL=
201402242100 AAXX 24214 67655 NIL=
201402241800 AAXX 24184 67655 NIL=
201402241500 AAXX 24154 67655 NIL=
201402241200 AAXX 24124 67655 NIL=
201402240900 AAXX 24094 67655 NIL=
201402240600 AAXX 24064 67655 NIL=
201402240300 AAXX 24034 67655 NIL=
201402240000 AAXX 24004 67655 NIL=
201402232100 AAXX 23214 67655 NIL=
201402231500 AAXX 23154 67655 NIL=
201402230900 AAXX 23094 67655 NIL=
201402230600 AAXX 23064 67655 NIL=
201402230300 AAXX 23034 67655 NIL=
201402221800 AAXX 22184 67655 NIL=
201402221500 AAXX 22154 67655 NIL=
201402220900 AAXX 22094 67655 NIL=
201402220600 AAXX 22064 67655 NIL=
201402211500 AAXX 21154 67655 NIL=
201402211200 AAXX 21124 67655 NIL=
201402210900 AAXX 21094 67655 NIL=
201402210600 AAXX 21064 67655 NIL=
201402202100 AAXX 20214 67655 NIL=
201402201200 AAXX 20124 67655 NIL=
201402200900 AAXX 20094 67655 NIL=
201402200600 AAXX 20064 67655 NIL=
201402200300 AAXX 20034 67655 NIL=
201402192100 AAXX 19214 67655 NIL=
201402191800 AAXX 19184 67655 NIL=
201402191200 AAXX 19124 67655 NIL=
201402190900 AAXX 19094 67655 NIL=
201402190600 AAXX 19064 67655 12980 40000 10220 20198 48519 60284 84070
                   333 10273 20/// 59015 84360
                   555 00/// 91018=
201402190300 AAXX 19034 67655 NIL=
201402190000 AAXX 19004 67655 NIL=
201402181500 AAXX 18154 67655 NIL=
201402181200 AAXX 18124 67655 NIL=
201402180900 AAXX 18094 67655 NIL=
201402180600 AAXX 18064 67655 NIL=
201402180300 AAXX 18034 67655 NIL=
201402180000 AAXX 18004 67655 NIL=
201402172100 AAXX 17214 67655 NIL=
201402171500 AAXX 17154 67655 NIL=
201402171200 AAXX 17124 67655 NIL=
201402170900 AAXX 17094 67655 NIL=
201402170600 AAXX 17064 67655 NIL=
201402161800 AAXX 16184 67655 NIL=
201402161500 AAXX 16154 67655 NIL=
201402161200 AAXX 16124 67655 NIL=
201402160900 AAXX 16094 67655 NIL=
201402160600 AAXX 16064 67655 NIL=
201402160300 AAXX 16034 67655 NIL=
201402152100 AAXX 15214 67655 NIL=
201402151800 AAXX 15184 67655 NIL=
201402151500 AAXX 15154 67655 NIL=
201402151200 AAXX 15124 67655 NIL=
201402150900 AAXX 15094 67655 NIL=
201402150600 AAXX 15064 67655 NIL=
201402150300 AAXX 15034 67655 NIL=
201402142100 AAXX 14214 67655 NIL=
201402141200 AAXX 14120 67655 NIL=
201402140900 AAXX 14094 67655 NIL=
201402140600 AAXX 14064 67655 NIL=
201402140300 AAXX 14034 67655 NIL=
201402132100 AAXX 13214 67655 NIL=
201402131200 AAXX 13124 67655 NIL=
201402130900 AAXX 13094 67655 NIL=
201402130600 AAXX 13064 67655 NIL=
201402130300 AAXX 13034 67655 NIL=
201402130000 AAXX 13004 67655 NIL=
201402121800 AAXX 12184 67655 NIL=
201402121500 AAXX 12154 67655 NIL=
201402121200 AAXX 12124 67655 NIL=
201402120900 AAXX 12094 67655 NIL=
201402120600 AAXX 12064 67655 NIL=
201402120000 AAXX 12004 67655 NIL=
201402112100 AAXX 11214 67655 NIL=
201402111800 AAXX 11184 67655 NIL=
201402111200 AAXX 11124 67655 NIL=
201402110900 AAXX 11094 67655 NIL=
201402110600 AAXX 11064 67655 NIL=
201402102100 AAXX 10214 67655 NIL=
201402101800 AAXX 10184 67655 NIL=
201402101500 AAXX 10154 67655 NIL=
201402101200 AAXX 10124 67655 NIL=
201402100900 AAXX 10094 67655 NIL=
201402100600 AAXX 10060 67655 NIL=
201402092100 AAXX 09214 67655 NIL=
201402091800 AAXX 09184 67655 NIL=
201402091500 AAXX 09154 67655 NIL=
201402091200 AAXX 09124 67655 NIL=
201402090900 AAXX 09094 67655 NIL=
201402090600 AAXX 09064 67655 NIL=
201402082100 AAXX 08214 67655 NIL=
201402081800 AAXX 08184 67655 NIL=
201402081500 AAXX 08154 67655 NIL=
201402081200 AAXX 08124 67655 NIL=
201402080900 AAXX 08094 67655 NIL=
201402080600 AAXX 08064 67655 NIL=
201402080300 AAXX 08034 67655 NIL=
201402080000 AAXX 08004 67655 NIL=
201402071800 AAXX 07184 67655 NIL=
201402071500 AAXX 07154 67655 NIL=
201402071200 AAXX 07124 67655 NIL=
201402070900 AAXX 07094 67655 NIL=
201402070600 AAXX 07064 67655 11450 82804 10200 20197 48508 60204 76266 8472/
                   333 10252 20/// 58012 84715 88459 91017=
201402070300 AAXX 07034 67655 NIL=
201402070000 AAXX 07004 67655 NIL=
201402062100 AAXX 06214 67655 NIL=
201402061800 AAXX 06184 67655 NIL=
201402061500 AAXX 06154 67655 NIL=
201402061200 AAXX 06124 67655 NIL=
201402060900 AAXX 06094 67655 NIL=
201402060600 AAXX 06064 67655 NIL=
201402060300 AAXX 06034 67655 NIL=
201402060000 AAXX 06004 67655 NIL=
201402052100 AAXX 05214 67655 NIL=
201402051800 AAXX 05184 67655 NIL=
201402051500 AAXX 05154 67655 NIL=
201402051200 AAXX 05124 67655 NIL=
201402050900 AAXX 05094 67655 NIL=
201402050600 AAXX 05064 67655 NIL=
201402050300 AAXX 05034 67655 NIL=
201402041800 AAXX 04184 67655 NIL=
201402041500 AAXX 04154 67655 NIL=
201402041200 AAXX 04124 67655 NIL=
201402040900 AAXX 04094 67655 NIL=
201402040600 AAXX 04064 67655 NIL=
201402040300 AAXX 04034 67655 NIL=
201402032100 AAXX 03214 67655 NIL=
201402031800 AAXX 03184 67655 NIL=
201402031500 AAXX 03154 67655 NIL=
201402031200 AAXX 03124 67655 NIL=
201402030900 AAXX 03094 67655 NIL=
201402030600 AAXX 03064 67655 NIL=
201402021800 AAXX 02184 67655 NIL=
201402021500 AAXX 02154 67655 NIL=
201402021200 AAXX 02124 67655 NIL=
201402020900 AAXX 02094 67655 NIL=
201402020600 AAXX 02064 67655 NIL=
201402020300 AAXX 02034 67655 NIL=
201402012100 AAXX 01214 67655 NIL=
201402011800 AAXX 01184 67655 NIL=
201402011500 AAXX 01154 67655 NIL=
201402011200 AAXX 01124 67655 NIL=
201402010900 AAXX 01094 67655 NIL=
201402010600 AAXX 01064 67655 NIL=

################################################################################
#  SYNOPS from 67659, Kafue Polder (Zambia) | 15-46S | 027-55E | 978 m
################################################################################
201403030300 AAXX 03034 67659 NIL=
201403030000 AAXX 03004 67659 NIL=
201403022100 AAXX 02214 67659 NIL=
201403021800 AAXX 02184 67659 NIL=
201403021500 AAXX 02154 67659 NIL=
201403021200 AAXX 02124 67659 NIL=
201403020900 AAXX 02094 67659 NIL=
201403020600 AAXX 02064 67659 NIL=
201403020300 AAXX 02034 67659 NIL=
201403020000 AAXX 02004 67659 NIL=
201403012100 AAXX 01214 67659 NIL=
201403011800 AAXX 01184 67659 NIL=
201403011500 AAXX 01154 67659 NIL=
201403011200 AAXX 01121 67659 NIL=
201403010900 AAXX 01094 67659 NIL=
201403010600 AAXX 01064 67659 NIL=
201403010000 AAXX 01004 67659 NIL=
201402282100 AAXX 28214 67659 NIL=
201402281800 AAXX 28184 67659 NIL=
201402281500 AAXX 28154 67659 NIL=
201402281200 AAXX 28124 67659 NIL=
201402280900 AAXX 28094 67659 NIL=
201402280600 AAXX 28064 67659 NIL=
201402280300 AAXX 28034 67659 NIL=
201402280000 AAXX 28004 67659 NIL=
201402272100 AAXX 27214 67659 NIL=
201402271800 AAXX 27184 67659 NIL=
201402271500 AAXX 27154 67659 NIL=
201402271200 AAXX 27124 67659 NIL=
201402270900 AAXX 27094 67659 NIL=
201402270600 AAXX 27064 67659 NIL=
201402262100 AAXX 26214 67659 NIL=
201402261500 AAXX 26154 67659 NIL=
201402261200 AAXX 26124 67659 NIL=
201402260900 AAXX 26094 67659 NIL=
201402260300 AAXX 26034 67659 NIL=
201402252100 AAXX 25214 67659 NIL=
201402251500 AAXX 25154 67659 NIL=
201402251200 AAXX 25124 67659 NIL=
201402250900 AAXX 25094 67659 NIL=
201402250600 AAXX 25064 67659 NIL=
201402250300 AAXX 25034 67659 NIL=
201402242100 AAXX 24214 67659 NIL=
201402241800 AAXX 24184 67659 NIL=
201402241500 AAXX 24154 67659 NIL=
201402241200 AAXX 24124 67659 NIL=
201402240900 AAXX 24094 67659 NIL=
201402240600 AAXX 24064 67659 NIL=
201402240300 AAXX 24034 67659 NIL=
201402240000 AAXX 24004 67659 NIL=
201402232100 AAXX 23214 67659 NIL=
201402231500 AAXX 23154 67659 NIL=
201402230900 AAXX 23094 67659 NIL=
201402230600 AAXX 23064 67659 NIL=
201402230300 AAXX 23034 67659 NIL=
201402221800 AAXX 22184 67659 NIL=
201402221500 AAXX 22154 67659 NIL=
201402220900 AAXX 22094 67659 NIL=
201402220600 AAXX 22064 67659 NIL=
201402211500 AAXX 21154 67659 NIL=
201402211200 AAXX 21124 67659 NIL=
201402210900 AAXX 21094 67659 NIL=
201402210600 AAXX 21064 67659 NIL=
201402202100 AAXX 20214 67659 NIL=
201402201200 AAXX 20124 67659 NIL=
201402200900 AAXX 20094 67659 NIL=
201402200600 AAXX 20064 67659 NIL=
201402200300 AAXX 20034 67659 NIL=
201402192100 AAXX 19214 67659 NIL=
201402191800 AAXX 19184 67659 NIL=
201402191200 AAXX 19124 67659 NIL=
201402190900 AAXX 19094 67659 NIL=
201402190600 AAXX 19064 67659 NIL=
201402190300 AAXX 19034 67659 NIL=
201402190000 AAXX 19004 67659 NIL=
201402181500 AAXX 18154 67659 NIL=
201402181200 AAXX 18124 67659 NIL=
201402180900 AAXX 18094 67659 NIL=
201402180600 AAXX 18064 67659 NIL=
201402180300 AAXX 18034 67659 NIL=
201402180000 AAXX 18004 67659 NIL=
201402172100 AAXX 17214 67659 NIL=
201402171500 AAXX 17154 67659 NIL=
201402171200 AAXX 17124 67659 NIL=
201402170900 AAXX 17094 67659 NIL=
201402170600 AAXX 17064 67659 NIL=
201402161800 AAXX 16184 67659 NIL=
201402161500 AAXX 16154 67659 NIL=
201402161200 AAXX 16124 67659 NIL=
201402160900 AAXX 16094 67659 NIL=
201402160600 AAXX 16064 67659 NIL=
201402160300 AAXX 16034 67659 NIL=
201402152100 AAXX 15214 67659 NIL=
201402151800 AAXX 15184 67659 NIL=
201402151500 AAXX 15154 67659 NIL=
201402151200 AAXX 15124 67659 NIL=
201402150900 AAXX 15094 67659 NIL=
201402150600 AAXX 15064 67659 NIL=
201402150300 AAXX 15034 67659 NIL=
201402142100 AAXX 14214 67659 NIL=
201402141200 AAXX 14120 67659 NIL=
201402140900 AAXX 14094 67659 NIL=
201402140600 AAXX 14064 67659 NIL=
201402140300 AAXX 14034 67659 NIL=
201402132100 AAXX 13214 67659 NIL=
201402131200 AAXX 13124 67659 NIL=
201402130900 AAXX 13094 67659 NIL=
201402130600 AAXX 13064 67659 NIL=
201402130300 AAXX 13034 67659 NIL=
201402130000 AAXX 13004 67659 NIL=
201402121800 AAXX 12184 67659 NIL=
201402121500 AAXX 12154 67659 NIL=
201402121200 AAXX 12124 67659 NIL=
201402120900 AAXX 12094 67659 NIL=
201402120600 AAXX 12064 67659 NIL=
201402120000 AAXX 12004 67659 NIL=
201402112100 AAXX 11214 67659 NIL=
201402111800 AAXX 11184 67659 NIL=
201402111200 AAXX 11124 67659 NIL=
201402110900 AAXX 11094 67659 NIL=
201402110600 AAXX 11064 67659 NIL=
201402102100 AAXX 10214 67659 NIL=
201402101800 AAXX 10184 67659 NIL=
201402101500 AAXX 10154 67659 NIL=
201402101200 AAXX 10124 67659 NIL=
201402100900 AAXX 10094 67659 NIL=
201402100600 AAXX 10060 67659 NIL=
201402092100 AAXX 09214 67659 NIL=
201402091800 AAXX 09184 67659 NIL=
201402091500 AAXX 09154 67659 NIL=
201402091200 AAXX 09124 67659 NIL=
201402090900 AAXX 09094 67659 NIL=
201402090600 AAXX 09064 67659 NIL=
201402082100 AAXX 08214 67659 NIL=
201402081800 AAXX 08184 67659 NIL=
201402081500 AAXX 08154 67659 NIL=
201402081200 AAXX 08124 67659 NIL=
201402080900 AAXX 08094 67659 NIL=
201402080600 AAXX 08064 67659 NIL=
201402080300 AAXX 08034 67659 NIL=
201402080000 AAXX 08004 67659 NIL=
201402071800 AAXX 07184 67659 NIL=
201402071500 AAXX 07154 67659 NIL=
201402071200 AAXX 07124 67659 NIL=
201402070900 AAXX 07094 67659 NIL=
201402070600 AAXX 07064 67659 NIL=
201402070300 AAXX 07034 67659 NIL=
201402070000 AAXX 07004 67659 NIL=
201402062100 AAXX 06214 67659 NIL=
201402061800 AAXX 06184 67659 NIL=
201402061500 AAXX 06154 67659 NIL=
201402061200 AAXX 06124 67659 NIL=
201402060900 AAXX 06094 67659 NIL=
201402060600 AAXX 06064 67659 NIL=
201402060300 AAXX 06034 67659 NIL=
201402060000 AAXX 06004 67659 NIL=
201402052100 AAXX 05214 67659 NIL=
201402051800 AAXX 05184 67659 NIL=
201402051500 AAXX 05154 67659 NIL=
201402051200 AAXX 05124 67659 NIL=
201402050900 AAXX 05094 67659 NIL=
201402050600 AAXX 05064 67659 NIL=
201402050300 AAXX 05034 67659 NIL=
201402041800 AAXX 04184 67659 NIL=
201402041500 AAXX 04154 67659 NIL=
201402041200 AAXX 04124 67659 NIL=
201402040900 AAXX 04094 67659 NIL=
201402040600 AAXX 04064 67659 NIL=
201402040300 AAXX 04034 67659 NIL=
201402032100 AAXX 03214 67659 NIL=
201402031800 AAXX 03184 67659 NIL=
201402031500 AAXX 03154 67659 NIL=
201402031200 AAXX 03124 67659 NIL=
201402030900 AAXX 03094 67659 NIL=
201402030600 AAXX 03064 67659 NIL=
201402021800 AAXX 02184 67659 NIL=
201402021500 AAXX 02154 67659 NIL=
201402021200 AAXX 02124 67659 NIL=
201402020900 AAXX 02094 67659 NIL=
201402020600 AAXX 02064 67659 NIL=
201402020300 AAXX 02034 67659 NIL=
201402012100 AAXX 01214 67659 NIL=
201402011800 AAXX 01184 67659 NIL=
201402011500 AAXX 01154 67659 NIL=
201402011200 AAXX 01124 67659 NIL=
201402010900 AAXX 01094 67659 NIL=
201402010600 AAXX 01064 67659 NIL=

################################################################################
#  SYNOPS from 67662, Kabwe Agric (Zambia) | 14-24S | 028-30E | 1165 m
################################################################################
201403030300 AAXX 03034 67662 NIL=
201403030000 AAXX 03004 67662 NIL=
201403022100 AAXX 02214 67662 NIL=
201403021800 AAXX 02184 67662 NIL=
201403021500 AAXX 02154 67662 NIL=
201403021200 AAXX 02124 67662 NIL=
201403020900 AAXX 02094 67662 NIL=
201403020600 AAXX 02064 67662 NIL=
201403020300 AAXX 02034 67662 NIL=
201403020000 AAXX 02004 67662 NIL=
201403012100 AAXX 01214 67662 NIL=
201403011800 AAXX 01184 67662 NIL=
201403011500 AAXX 01154 67662 NIL=
201403011200 AAXX 01121 67662 NIL=
201403010900 AAXX 01094 67662 NIL=
201403010600 AAXX 01064 67662 NIL=
201403010000 AAXX 01004 67662 NIL=
201402282100 AAXX 28214 67662 NIL=
201402281800 AAXX 28184 67662 NIL=
201402281500 AAXX 28154 67662 NIL=
201402281200 AAXX 28124 67662 NIL=
201402280900 AAXX 28094 67662 NIL=
201402280600 AAXX 28064 67662 NIL=
201402280300 AAXX 28034 67662 NIL=
201402280000 AAXX 28004 67662 NIL=
201402272100 AAXX 27214 67662 NIL=
201402271800 AAXX 27184 67662 NIL=
201402271500 AAXX 27154 67662 NIL=
201402271200 AAXX 27124 67662 NIL=
201402270900 AAXX 27094 67662 NIL=
201402270600 AAXX 27064 67662 NIL=
201402262100 AAXX 26214 67662 NIL=
201402261500 AAXX 26154 67662 NIL=
201402261200 AAXX 26124 67662 NIL=
201402260900 AAXX 26094 67662 NIL=
201402260300 AAXX 26034 67662 NIL=
201402252100 AAXX 25214 67662 NIL=
201402251500 AAXX 25154 67662 NIL=
201402251200 AAXX 25124 67662 NIL=
201402250900 AAXX 25094 67662 NIL=
201402250600 AAXX 25064 67662 NIL=
201402250300 AAXX 25034 67662 NIL=
201402242100 AAXX 24214 67662 NIL=
201402241800 AAXX 24184 67662 NIL=
201402241500 AAXX 24154 67662 NIL=
201402241200 AAXX 24124 67662 NIL=
201402240900 AAXX 24094 67662 NIL=
201402240600 AAXX 24064 67662 NIL=
201402240300 AAXX 24034 67662 NIL=
201402240000 AAXX 24004 67662 NIL=
201402232100 AAXX 23214 67662 NIL=
201402231500 AAXX 23154 67662 NIL=
201402230900 AAXX 23094 67662 NIL=
201402230600 AAXX 23064 67662 NIL=
201402230300 AAXX 23034 67662 NIL=
201402221800 AAXX 22184 67662 NIL=
201402221500 AAXX 22154 67662 NIL=
201402220900 AAXX 22094 67662 NIL=
201402220600 AAXX 22064 67662 NIL=
201402211500 AAXX 21154 67662 NIL=
201402211200 AAXX 21124 67662 NIL=
201402210900 AAXX 21094 67662 NIL=
201402210600 AAXX 21064 67662 NIL=
201402202100 AAXX 20214 67662 NIL=
201402201200 AAXX 20124 67662 NIL=
201402200900 AAXX 20094 67662 NIL=
201402200600 AAXX 20064 67662 NIL=
201402200300 AAXX 20034 67662 NIL=
201402192100 AAXX 19214 67662 NIL=
201402191800 AAXX 19184 67662 NIL=
201402191200 AAXX 19124 67662 NIL=
201402190900 AAXX 19094 67662 NIL=
201402190600 AAXX 19064 67662 NIL=
201402190300 AAXX 19034 67662 NIL=
201402190000 AAXX 19004 67662 NIL=
201402181500 AAXX 18154 67662 NIL=
201402181200 AAXX 18124 67662 NIL=
201402180900 AAXX 18094 67662 NIL=
201402180600 AAXX 18064 67662 NIL=
201402180300 AAXX 18034 67662 NIL=
201402180000 AAXX 18004 67662 NIL=
201402172100 AAXX 17214 67662 NIL=
201402171500 AAXX 17154 67662 NIL=
201402171200 AAXX 17124 67662 NIL=
201402170900 AAXX 17094 67662 NIL=
201402170600 AAXX 17064 67662 NIL=
201402161800 AAXX 16184 67662 NIL=
201402161500 AAXX 16154 67662 NIL=
201402161200 AAXX 16124 67662 NIL=
201402160900 AAXX 16094 67662 NIL=
201402160600 AAXX 16064 67662 NIL=
201402160300 AAXX 16034 67662 NIL=
201402152100 AAXX 15214 67662 NIL=
201402151800 AAXX 15184 67662 NIL=
201402151500 AAXX 15154 67662 NIL=
201402151200 AAXX 15124 67662 NIL=
201402150900 AAXX 15094 67662 NIL=
201402150600 AAXX 15064 67662 NIL=
201402150300 AAXX 15034 67662 NIL=
201402142100 AAXX 14214 67662 NIL=
201402141200 AAXX 14120 67662 NIL=
201402140900 AAXX 14094 67662 NIL=
201402140600 AAXX 14064 67662 NIL=
201402140300 AAXX 14034 67662 NIL=
201402132100 AAXX 13214 67662 NIL=
201402131200 AAXX 13124 67662 NIL=
201402130900 AAXX 13094 67662 NIL=
201402130600 AAXX 13064 67662 NIL=
201402130300 AAXX 13034 67662 NIL=
201402130000 AAXX 13004 67662 NIL=
201402121800 AAXX 12184 67662 NIL=
201402121500 AAXX 12154 67662 NIL=
201402121200 AAXX 12124 67662 NIL=
201402120900 AAXX 12094 67662 NIL=
201402120600 AAXX 12064 67662 NIL=
201402120000 AAXX 12004 67662 NIL=
201402112100 AAXX 11214 67662 NIL=
201402111800 AAXX 11184 67662 NIL=
201402111200 AAXX 11124 67662 NIL=
201402110900 AAXX 11094 67662 NIL=
201402110600 AAXX 11064 67662 NIL=
201402102100 AAXX 10214 67662 NIL=
201402101800 AAXX 10184 67662 NIL=
201402101500 AAXX 10154 67662 NIL=
201402101200 AAXX 10124 67662 NIL=
201402100900 AAXX 10094 67662 NIL=
201402100600 AAXX 10060 67662 NIL=
201402092100 AAXX 09214 67662 NIL=
201402091800 AAXX 09184 67662 NIL=
201402091500 AAXX 09154 67662 NIL=
201402091200 AAXX 09124 67662 NIL=
201402090900 AAXX 09094 67662 NIL=
201402090600 AAXX 09064 67662 NIL=
201402082100 AAXX 08214 67662 NIL=
201402081800 AAXX 08184 67662 NIL=
201402081500 AAXX 08154 67662 NIL=
201402081200 AAXX 08124 67662 NIL=
201402080900 AAXX 08094 67662 NIL=
201402080600 AAXX 08064 67662 NIL=
201402080300 AAXX 08034 67662 NIL=
201402080000 AAXX 08004 67662 NIL=
201402071800 AAXX 07184 67662 NIL=
201402071500 AAXX 07154 67662 NIL=
201402071200 AAXX 07124 67662 NIL=
201402070900 AAXX 07094 67662 NIL=
201402070600 AAXX 07064 67662 NIL=
201402070300 AAXX 07034 67662 NIL=
201402070000 AAXX 07004 67662 NIL=
201402062100 AAXX 06214 67662 NIL=
201402061800 AAXX 06184 67662 NIL=
201402061500 AAXX 06154 67662 NIL=
201402061200 AAXX 06124 67662 NIL=
201402060900 AAXX 06094 67662 NIL=
201402060600 AAXX 06064 67662 NIL=
201402060300 AAXX 06034 67662 NIL=
201402060000 AAXX 06004 67662 NIL=
201402052100 AAXX 05214 67662 NIL=
201402051800 AAXX 05184 67662 NIL=
201402051500 AAXX 05154 67662 NIL=
201402051200 AAXX 05124 67662 NIL=
201402050900 AAXX 05094 67662 NIL=
201402050600 AAXX 05064 67662 NIL=
201402050300 AAXX 05034 67662 NIL=
201402041800 AAXX 04184 67662 NIL=
201402041500 AAXX 04154 67662 NIL=
201402041200 AAXX 04124 67662 NIL=
201402040900 AAXX 04094 67662 NIL=
201402040600 AAXX 04064 67662 NIL=
201402040300 AAXX 04034 67662 NIL=
201402032100 AAXX 03214 67662 NIL=
201402031800 AAXX 03184 67662 NIL=
201402031500 AAXX 03154 67662 NIL=
201402031200 AAXX 03124 67662 NIL=
201402030900 AAXX 03094 67662 NIL=
201402030600 AAXX 03064 67662 NIL=
201402021800 AAXX 02184 67662 NIL=
201402021500 AAXX 02154 67662 NIL=
201402021200 AAXX 02124 67662 NIL=
201402020900 AAXX 02094 67662 NIL=
201402020600 AAXX 02064 67662 NIL=
201402020300 AAXX 02034 67662 NIL=
201402012100 AAXX 01214 67662 NIL=
201402011800 AAXX 01184 67662 NIL=
201402011500 AAXX 01154 67662 NIL=
201402011200 AAXX 01124 67662 NIL=
201402010900 AAXX 01094 67662 NIL=
201402010600 AAXX 01064 67662 NIL=

################################################################################
#  SYNOPS from 67663, Kabwe (Zambia) | 14-27S | 028-28E | 1206 m
################################################################################
201403030300 AAXX 03034 67663 NIL=
201403030000 AAXX 03004 67663 NIL=
201403022100 AAXX 02214 67663 NIL=
201403021800 AAXX 02184 67663 NIL=
201403021500 AAXX 02154 67663 NIL=
201403021200 AAXX 02124 67663 NIL=
201403020900 AAXX 02094 67663 NIL=
201403020600 AAXX 02064 67663 NIL=
201403020300 AAXX 02034 67663 NIL=
201403020000 AAXX 02004 67663 NIL=
201403012100 AAXX 01214 67663 NIL=
201403011800 AAXX 01184 67663 NIL=
201403011500 AAXX 01154 67663 NIL=
201403011200 AAXX 01121 67663 NIL=
201403010900 AAXX 01094 67663 NIL=
201403010600 AAXX 01064 67663 NIL=
201403010000 AAXX 01004 67663 NIL=
201402282100 AAXX 28214 67663 NIL=
201402281800 AAXX 28184 67663 NIL=
201402281500 AAXX 28154 67663 NIL=
201402281200 AAXX 28124 67663 NIL=
201402280900 AAXX 28094 67663 NIL=
201402280600 AAXX 28064 67663 NIL=
201402280300 AAXX 28034 67663 NIL=
201402280000 AAXX 28004 67663 NIL=
201402272100 AAXX 27214 67663 NIL=
201402271800 AAXX 27184 67663 NIL=
201402271500 AAXX 27154 67663 NIL=
201402271200 AAXX 27124 67663 NIL=
201402270900 AAXX 27094 67663 NIL=
201402270600 AAXX 27064 67663 NIL=
201402262100 AAXX 26214 67663 NIL=
201402261500 AAXX 26154 67663 NIL=
201402261200 AAXX 26124 67663 NIL=
201402260900 AAXX 26094 67663 NIL=
201402260300 AAXX 26034 67663 NIL=
201402252100 AAXX 25214 67663 NIL=
201402251500 AAXX 25154 67663 NIL=
201402251200 AAXX 25124 67663 NIL=
201402250900 AAXX 25094 67663 NIL=
201402250600 AAXX 25064 67663 NIL=
201402250300 AAXX 25034 67663 NIL=
201402242100 AAXX 24214 67663 NIL=
201402241800 AAXX 24184 67663 NIL=
201402241500 AAXX 24154 67663 NIL=
201402241200 AAXX 24124 67663 NIL=
201402240900 AAXX 24094 67663 NIL=
201402240600 AAXX 24064 67663 NIL=
201402240300 AAXX 24034 67663 NIL=
201402240000 AAXX 24004 67663 NIL=
201402232100 AAXX 23214 67663 NIL=
201402231500 AAXX 23154 67663 NIL=
201402230900 AAXX 23094 67663 NIL=
201402230600 AAXX 23064 67663 NIL=
201402230300 AAXX 23034 67663 NIL=
201402221800 AAXX 22184 67663 NIL=
201402221500 AAXX 22154 67663 NIL=
201402220900 AAXX 22094 67663 NIL=
201402220600 AAXX 22064 67663 NIL=
201402211500 AAXX 21154 67663 NIL=
201402211200 AAXX 21124 67663 NIL=
201402210900 AAXX 21094 67663 NIL=
201402210600 AAXX 21064 67663 NIL=
201402202100 AAXX 20214 67663 NIL=
201402201200 AAXX 20124 67663 NIL=
201402200900 AAXX 20094 67663 NIL=
201402200600 AAXX 20064 67663 NIL=
201402200300 AAXX 20034 67663 NIL=
201402192100 AAXX 19214 67663 NIL=
201402191800 AAXX 19184 67663 NIL=
201402191200 AAXX 19124 67663 NIL=
201402190900 AAXX 19094 67663 NIL=
201402190600 AAXX 19064 67663 NIL=
201402190300 AAXX 19034 67663 NIL=
201402190000 AAXX 19004 67663 NIL=
201402181500 AAXX 18154 67663 NIL=
201402181200 AAXX 18124 67663 NIL=
201402180900 AAXX 18094 67663 NIL=
201402180600 AAXX 18064 67663 NIL=
201402180300 AAXX 18034 67663 NIL=
201402180000 AAXX 18004 67663 NIL=
201402172100 AAXX 17214 67663 NIL=
201402171500 AAXX 17154 67663 NIL=
201402171200 AAXX 17124 67663 NIL=
201402170900 AAXX 17094 67663 NIL=
201402170600 AAXX 17064 67663 NIL=
201402161800 AAXX 16184 67663 NIL=
201402161500 AAXX 16154 67663 NIL=
201402161200 AAXX 16124 67663 NIL=
201402160900 AAXX 16094 67663 NIL=
201402160600 AAXX 16064 67663 NIL=
201402160300 AAXX 16034 67663 NIL=
201402152100 AAXX 15214 67663 NIL=
201402151800 AAXX 15184 67663 NIL=
201402151500 AAXX 15154 67663 NIL=
201402151200 AAXX 15124 67663 NIL=
201402150900 AAXX 15094 67663 NIL=
201402150600 AAXX 15064 67663 NIL=
201402150300 AAXX 15034 67663 NIL=
201402142100 AAXX 14214 67663 NIL=
201402141200 AAXX 14120 67663 NIL=
201402140900 AAXX 14094 67663 NIL=
201402140600 AAXX 14064 67663 NIL=
201402140300 AAXX 14034 67663 NIL=
201402132100 AAXX 13214 67663 NIL=
201402131200 AAXX 13124 67663 NIL=
201402130900 AAXX 13094 67663 NIL=
201402130600 AAXX 13064 67663 NIL=
201402130300 AAXX 13034 67663 NIL=
201402130000 AAXX 13004 67663 NIL=
201402121800 AAXX 12184 67663 NIL=
201402121500 AAXX 12154 67663 NIL=
201402121200 AAXX 12124 67663 NIL=
201402120900 AAXX 12094 67663 NIL=
201402120600 AAXX 12064 67663 NIL=
201402120000 AAXX 12004 67663 NIL=
201402112100 AAXX 11214 67663 NIL=
201402111800 AAXX 11184 67663 NIL=
201402111200 AAXX 11124 67663 NIL=
201402110900 AAXX 11094 67663 NIL=
201402110600 AAXX 11064 67663 NIL=
201402102100 AAXX 10214 67663 NIL=
201402101800 AAXX 10184 67663 NIL=
201402101500 AAXX 10154 67663 NIL=
201402101200 AAXX 10124 67663 NIL=
201402100900 AAXX 10094 67663 NIL=
201402100600 AAXX 10060 67663 NIL=
201402092100 AAXX 09214 67663 NIL=
201402091800 AAXX 09184 67663 NIL=
201402091500 AAXX 09154 67663 NIL=
201402091200 AAXX 09124 67663 NIL=
201402090900 AAXX 09094 67663 NIL=
201402090600 AAXX 09064 67663 NIL=
201402082100 AAXX 08214 67663 NIL=
201402081800 AAXX 08184 67663 NIL=
201402081500 AAXX 08154 67663 NIL=
201402081200 AAXX 08124 67663 NIL=
201402080900 AAXX 08094 67663 NIL=
201402080600 AAXX 08064 67663 NIL=
201402080300 AAXX 08034 67663 NIL=
201402080000 AAXX 08004 67663 NIL=
201402071800 AAXX 07184 67663 NIL=
201402071500 AAXX 07154 67663 NIL=
201402071200 AAXX 07124 67663 NIL=
201402070900 AAXX 07094 67663 NIL=
201402070600 AAXX 07064 67663 NIL=
201402070300 AAXX 07034 67663 NIL=
201402070000 AAXX 07004 67663 NIL=
201402062100 AAXX 06214 67663 NIL=
201402061800 AAXX 06184 67663 NIL=
201402061500 AAXX 06154 67663 NIL=
201402061200 AAXX 06124 67663 NIL=
201402060900 AAXX 06094 67663 NIL=
201402060600 AAXX 06064 67663 NIL=
201402060300 AAXX 06034 67663 NIL=
201402060000 AAXX 06004 67663 NIL=
201402052100 AAXX 05214 67663 NIL=
201402051800 AAXX 05184 67663 NIL=
201402051500 AAXX 05154 67663 NIL=
201402051200 AAXX 05124 67663 NIL=
201402050900 AAXX 05094 67663 NIL=
201402050600 AAXX 05064 67663 NIL=
201402050300 AAXX 05034 67663 NIL=
201402041800 AAXX 04184 67663 NIL=
201402041500 AAXX 04154 67663 NIL=
201402041200 AAXX 04124 67663 NIL=
201402040900 AAXX 04094 67663 NIL=
201402040600 AAXX 04064 67663 NIL=
201402040300 AAXX 04034 67663 NIL=
201402032100 AAXX 03214 67663 NIL=
201402031800 AAXX 03184 67663 NIL=
201402031500 AAXX 03154 67663 NIL=
201402031200 AAXX 03124 67663 NIL=
201402030900 AAXX 03094 67663 NIL=
201402030600 AAXX 03064 67663 NIL=
201402021800 AAXX 02184 67663 NIL=
201402021500 AAXX 02154 67663 NIL=
201402021200 AAXX 02124 67663 NIL=
201402020900 AAXX 02094 67663 NIL=
201402020600 AAXX 02064 67663 NIL=
201402020300 AAXX 02034 67663 NIL=
201402012100 AAXX 01214 67663 NIL=
201402011800 AAXX 01184 67663 NIL=
201402011500 AAXX 01154 67663 NIL=
201402011200 AAXX 01124 67663 NIL=
201402010900 AAXX 01094 67663 NIL=
201402010600 AAXX 01064 67663 NIL=

################################################################################
#  SYNOPS from 67665, Lusaka Internationalairport (Zambia) | 15-19S | 028-27E | 1152 m
################################################################################
201403030300 AAXX 03034 67665 42980 41202 10184 20160 48511 84030
                   333 58009 84360 91018=
201403030000 AAXX 03004 67665 42760 41404 10183 20159 48513 84030
                   333 59004 81957 84360=
201403022100 AAXX 02214 67665 42760 61504 10187 20173 48521 72999 81930
                   333 59007 81956 86360=
201403021800 AAXX 02184 67665 42780 41303 10214 20194 48512 71392 81930
                   333 10300 58007 81956 84360=
201403021500 AAXX 02154 67665 41680 73404 10234 20183 48493 71790 81930
                   333 81948 85850 85360=
201403021200 AAXX 02124 67665 42680 60603 10292 20199 48507 84231
                   333 58004 84840 85360 82080=
201403020900 AAXX 02094 67665 NIL=
201403020600 AAXX 02064 67665 NIL=
201403020300 AAXX 02034 67665 41360 70705 10186 20178 48503 71799 86630
                   333 59001 86707 81935 86360=
201403020000 AAXX 02004 67665 42960 61403 10184 20168 48516 86030
                   333 58013 86360=
201403012100 AAXX 01214 67665 42760 71305 10193 20170 48528 81930
                   333 58020 81950 87360 81080=
201403011800 AAXX 01184 67665 42760 71004 10195 20180 48502 8193/
                   333 10280 58006 81950 87360=
201403011500 AAXX 01154 67665 42680 70804 10240 20178 48498 8193/
                   333 58002 81940 87360=
201403011200 AAXX 01124 67665 41560 73105 10265 20166 48501 8193/
                   333 59005 81925 83828 87360=
201403010900 AAXX 01094 67665 42460 73204 10255 20193 48532 85530
                   333 58003 85615 85360=
201403010600 AAXX 01064 67665 11359 73404 10210 20203 48526 60094 71022 8563/
                   333 10283 20/// 58006 85707 87360=
201403010000 AAXX 01004 67665 NIL=
201402282100 AAXX 28214 67665 NIL=
201402281800 AAXX 28184 67665 NIL=
201402281500 AAXX 28154 67665 41680 61805 10213 20199 48488 71762 81932
                   333 58007 81930 83835 85360 83080=
201402281200 AAXX 28124 67665 42580 70606 10268 20193 48504 85832
                   333 59003 83620 85825 83360 85080=
201402280900 AAXX 28094 67665 41460 61206 10236 20194 48527 71622 86830
                   333 58000 83815 83618 81360 91019=
201402280600 AAXX 28064 67665 32360 70905 10205 20197 48520 70322 877//
                   333 10289 20/// 59005 87707
                   555 00///=
201402280300 AAXX 28034 67665 42360 51302 10196 20177 48506 81630
                   333 59003 81706 84360=
201402280000 AAXX 28004 67665 41760 41202 10189 20180 48503 71322 81930
                   333 58000 81950 83360=
201402272100 AAXX 27214 67665 41780 41402 10197 20182 48521 71322 81930
                   333 58000 81950 82360=
201402271800 AAXX 27184 67665 NIL=
201402271500 AAXX 27154 67665 NIL=
201402271200 AAXX 27124 67665 NIL=
201402270900 AAXX 27094 67665 42480 60708 10257 20214 48529 70122 85101
                   333 58007 85815 83080=
201402270600 AAXX 27064 67665 32380 70906 10198 20174 48524 70322 86631
                   333 10295 20/// 58008 86706 83360 83060=
201402262100 AAXX 26214 67665 41680 40903 10196 20177 48521 71311 81930
                   333 58010 81940 84360=
201402261500 AAXX 26154 67665 NIL=
201402261200 AAXX 26124 67665 NIL=
201402260900 AAXX 26094 67665 42480 60907 10252 20209 48521 70222 85831
                   333 58002 84617 83820 82360 83080=
201402260300 AAXX 26034 67665 42980 31504 10185 20174 48497 83030
                   333 59007 83360=
201402252100 AAXX 25214 67665 42980 31103 10187 20171 48510 83030
                   333 59009 83360=
201402251800 AAXX 25184 67665 41780 61503 10201 20199 48493 71322 81932
                   333 58001 81950 81360 84080=
201402251500 AAXX 25154 67665 41660 61208 10239 20204 48482 71722 81902
                   333 58001 84835 81940 84080=
201402251200 AAXX 25124 67665 41560 71314 10225 20197 48495 71722 85370
                   333 58000 81622 85825 81925 84360=
201402250900 AAXX 25094 67665 41480 70507 10217 20194 48514 72052 86830
                   333 50991 84612 83815 85360=
201402250600 AAXX 25064 67665 31360 70905 10200 20180 48515 75022 8563/
                   333 10273 20/// 59002 85707 86360=
201402250300 AAXX 25034 67665 42980 21503 10171 20155 48488 70200 82030
                   333 59012 82360 91015=
201402250000 AAXX 25004 67665 42980 21402 10184 20168 48492 70200 82030
                   333 59011 82360=
201402242100 AAXX 24214 67665 42980 21103 10193 20176 48500 70200 82030
                   333 59014 82360 91017=
201402241800 AAXX 24184 67665 42980 41003 10207 20177 48493 83031
                   333 10274 59017 83360 83080=
201402241500 AAXX 24154 67665 42680 51010 10260 20186 48483 85201
                   333 59020 85845 85080=
201402241200 AAXX 24124 67665 42680 61104 10265 20183 48500 86801
                   333 59012 84630 86832 82080=
201402240900 AAXX 24094 67665 NIL=
201402240600 AAXX 24061 67665 12470 61107 10208 20193 48518 60024 83530
                   333 10287 20//0 59010 86360=
201402240300 AAXX 24034 67665 42360 71203 10186 20157 48502 85630
                   333 59013 85706 86360=
201402240000 AAXX 24004 67665 42960 61803 10185 20161 48501 85032
                   333 59013 85360 81080=
201402232100 AAXX 23214 67665 42960 10180 20147 48514 82032
                   333 59007 82360 83080=
201402231800 AAXX 23184 67665 41760 61004 10194 20128 48507 71322 81932
                   333 10287 59007 81950 84360 82080=
201402231500 AAXX 23154 67665 41660 60907 10253 20177 48501 72582 81932
                   333 58001 81935 82840 84360=
201402231200 AAXX 23124 67665 41559 80709 10230 20216 48507 78182 8197/
                   333 59003 81925 85825 87459=
201402230900 AAXX 23094 67665 42480 71015 10246 20198 48533 865//
                   333 58001 86615=
201402230600 AAXX 23064 67665 32380 71011 10208 20196 48528 8663/
                   333 58000 86708 84360=
201402230300 AAXX 23034 67665 42660 61303 10191 20184 48515 70222 8603/
                   333 58011 86360=
201402221800 AAXX 22184 67665 41660 61010 10206 20176 48516 71792 81931
                   333 58011 81930 84360 82080=
201402221500 AAXX 22154 67665 42580 71013 10252 20199 48500 85801
                   333 59001 83625 81928 84080=
201402221200 AAXX 22124 67665 42580 70712 10261 20186 48513 86201
                   333 58011 81925 86828 83080=
201402220900 AAXX 22094 67665 42480 70611 10244 20192 48531 875//
                   333 58011 87612=
201402220600 AAXX 22064 67665 42260 70808 10204 20195 48527 877//
                   333 58015 87705=
201402211500 AAXX 21154 67665 41360 70209 10240 20195 48497 79522 83730
                   333 58009 83706 81912 83360=
201402211200 AAXX 21124 67665 42480 61305 10274 20215 48501 86831
                   333 58012 85620 83825 82360 83080=
201402210900 AAXX 21094 67665 42460 73002 10248 20204 48521 70222 877//
                   333 58012 82710 86612=
201402210600 AAXX 21064 67665 32360 73503 10202 20178 48512 70222 86730
                   333 10290 20//0 58010 86705 86360=
201402202100 AAXX 20214 67665 41356 60000 10199 20175 48502 74622 84730
                   333 59001 84705 86360=
201402201200 AAXX 20124 67665 NIL=
201402200900 AAXX 20094 67665 42480 63006 10258 20203 48510 85231
                   333 59010 85820 82360 81080=
201402200600 AAXX 20064 67665 12980 73202 10211 20187 48503 60034 87031
                   333 59014 87360 81080=
201402200300 AAXX 20034 67665 42975 52802 10191 20184 48495 83032
                   333 59005 83360 81080=
201402192100 AAXX 19214 67665 42960 60702 10202 20191 49504 85032
                   333 59014 85360 83080=
201402191800 AAXX 19184 67665 41659 72502 10209 20200 48498 78088 81972
                   333 59009 81945 84459 85078=
201402191200 AAXX 19124 67665 NIL=
201402190900 AAXX 19094 67665 41680 70303 10256 20187 48520 71622 86230
                   333 59016 86830 82360=
201402190600 AAXX 19064 67665 12480 50803 10229 20202 48520 69924 82230
                   333 10284 20/// 59016 82815 84360=
201402190300 AAXX 19034 67665 42980 31502 10175 20151 48499 83030
                   333 59010 555 59019 83360 91016=
201402190000 AAXX 19004 67665 42/80 41403 10182 20163 48502 84030
                   333 59014 819// 84360=
201402181800 AAXX 18184 67665 41780 61504 10213 20178 48506 71322 81932
                   333 10280 59010 81956 84360 84080=
201402181500 AAXX 18154 67665 42680 61105 10253 20189 48502 84231
                   333 59007 84850 84360 83080=
201402181200 AAXX 18124 67665 42680 61005 10265 20199 48511 85231
                   333 59001 85835 83360 82080=
201402180900 AAXX 18094 67665 42580 60206 10241 20195 48533 86230
                   333 58005 86820 83360=
201402180600 AAXX 18061 67665 12380 70705 10205 20195 48529 60104 8663/
                   333 10285 20//0 58008 86706 84360=
201402180300 AAXX 18034 67665 41254 71404 10188 20173 48518 74244 84630
                   333 58017 84706 86360=
201402180000 AAXX 18004 67665 42280 70805 10189 20168 48516 8563/
                   333 58021 85706 86360=
201402172100 AAXX 17214 67665 42980 51304 10199 20175 48530 84032
                   333 58026 84360 81080=
201402171800 AAXX 17184 67665 42980 51304 10201 20126 48515 83032
                   333 10285 58019 83360 82080=
201402171500 AAXX 17154 67665 41660 61708 10210 20196 48504 71622 81932
                   333 81930 85360 83080=
201402171200 AAXX 17124 67665 41560 73105 10240 20196 48508 71622 81930
                   333 58007 81918 84820 83360=
201402170900 AAXX 17094 67665 NIL=
201402170600 AAXX 17064 67665 NIL=
201402170300 AAXX 17034 67665 42690 60902 10181 20174 48501 70222 86030
                   333 58007 86360=
201402161800 AAXX 16184 67665 42460 41402 10210 20179 48498 81931
                   333 59002 81920 81360 82080=
201402161500 AAXX 16154 67665 41680 62504 10249 20188 48488 71722 82930
                   333 58000 82932 83835 83360=
201402161200 AAXX 16124 67665 42680 70608 10260 20177 48503 86231
                   333 58000 81930 85830 81360 81080=
201402160900 AAXX 16094 67665 42580 50707 10245 20176 48517 84230
                   333 59003 84820 81360 91018=
201402160600 AAXX 16064 67665 NIL=
201402160300 AAXX 16034 67665 42960 41402 10177 20169 48494 80002
                   333 59009 84080=
201402152100 AAXX 15214 67665 42680 31602 10186 20172 48511 81930
                   333 58001 81935 83360=
201402151800 AAXX 15184 67665 42480 31408 10202 20172 48498 81930
                   333 58002 81920 83360 81080=
201402151500 AAXX 15154 67665 42580 61210 10251 20192 48498 82930
                   333 58005 82930 84830 83360=
201402151200 AAXX 15124 67665 42480 71006 10244 20186 48501 86830
                   333 58011 86618 86820 83360=
201402150900 AAXX 15094 67665 NIL=
201402150600 AAXX 15061 67665 12380 71009 10194 20175 48516 60014 70262 85770
                   333 10293 20//0 58011 85709 87559=
201402150300 AAXX 15034 67665 41460 70815 10184 20184 48503 76162 84730
                   333 58007 84705 87359=
201402142100 AAXX 14214 67665 41780 40902 10196 20196 48511 71322 81930
                   333 58003 81950 84360=
201402141800 AAXX 14184 67665 41780 61002 10211 20207 48497 71322 81932
                   333 58003 81950 84360 85080=
201402141500 AAXX 14154 67665 41660 61307 10228 20201 48481 72582 81972
                   333 58008 81940 84359 85080=
201402141200 AAXX 14124 67665 42680 61003 10277 20198 48495 85202
                   333 59001 85835 81080=
201402140900 AAXX 14094 67665 NIL=
201402140600 AAXX 14064 67665 NIL=
201402140300 AAXX 14034 67665 41920 41903 10185 20177 48496 74222 84030
                   333 58010 84360=
201402132100 AAXX 13214 67665 42980 41503 10200 20185 84032
                   333 58014 84360 83080=
201402131200 AAXX 13124 67665 41680 60804 10242 20199 48491 70292
                   333 58012 81940 83842 84360 82080=
201402130900 AAXX 13094 67665 41660 61214 10225 20205 48510 71622 85230
                   333 58007 81930 85830 81360=
201402130600 AAXX 13061 67665 11560 43003 10209 20196 48506 60124 72844 84830
                   333 10270 20//0 58000 82815 83618 81360=
201402130300 AAXX 13034 67665 41901 23303 10173 20149 48485 74144 82030
                   333 59002 82360 91015=
201402130000 AAXX 13004 67665 42980 30000 10182 20159 48478 83030
                   333 59014 83360=
201402121800 AAXX 12184 67665 42660 61302 10192 20184 48485 71322 81932
                   333 10270 59006 81950 84360 83080=
201402121500 AAXX 12154 67665 41659 63103 10235 20228 48477 72999 81932
                   333 58001 81930 85359 82080=
201402121200 AAXX 12124 67665 41580 73104 10264 20196 48482 71722 81930
                   333 59009 81930 95830=
201402120900 AAXX 12094 67665 42580 63006 10234 20191 48503 85230
                   333 59011 85818 84360=
201402120600 AAXX 12064 67665 11358 83303 10197 20194 48505 60354 72842 8663/
                   333 10275 20//0 59006 86706 87359=
201402120000 AAXX 12004 67665 42960 63305 10196 20174 48494 86032
                   333 59005 86360 82080=
201402112100 AAXX 11214 67665 42460 63405 10193 20176 48504 83530
                   333 58003 83610 86360=
201402111800 AAXX 11184 67665 41758 73403 10198 20198 48482 79692 8297/
                   333 10275 58002 82950 87459=
201402111500 AAXX 11154 67665 42680 70802 10262 20193 48478 81902
                   333 58017 81935 86840 82080=
201402111200 AAXX 11124 67665 42575 70505 10264 20185 48491 85232
                   333 59011 81920 85825 85080=
201402110900 AAXX 11094 67665 42475 71403 10235 20182 48513 85532
                   333 58001 85615 82360 85080=
201402110600 AAXX 11064 67665 11359 80000 10192 20169 48510 60054 71044 976//
                   333 10245 20//0 58015 87705=
201402110300 AAXX 11034 67665 42660 60000 10184 20152 48500 70242 866//
                   333 58018 86704=
201402102100 AAXX 10214 67665 42960 60000 10184 20152 48500 70222 8603/
                   333 58011 86360=
201402101800 AAXX 10184 67665 42960 61003 10199 20158 48490 86031
                   333 58017 86360 82080=
201402101500 AAXX 10154 67665 42480 71003 10220 20176 48483 84531
                   333 10278 20/// 58027 84615 86360 81080=
201402101200 AAXX 10124 67665 41360 81503 10196 20181 48495 76166 8177/
                   333 58024 81709 88459=
201402100900 AAXX 10094 67665 41457 81305 10190 20190 48506 79592 8197/
                   333 58012 81912 85615 88459=
201402100600 AAXX 10064 67665 12360 80403 10212 20203 48498 69904 70322 86673
                   333 10285 20/// 59001 86705 87360=
201402100000 AAXX 10004 67665 42960 40000 10206 20188 48479 84030
                   333 59001 84360=
201402092100 AAXX 09214 67665 42760 40000 10214 20201 48493 81930
                   333 58002 81956 85360=
201402091800 AAXX 09184 67665 42780 40000 10229 20214 48472 70122 81931
                   333 59005 81956 83360 83080=
201402091500 AAXX 09154 67665 42680 53004 10236 20236 48461 70122 83231
                   333 58000 83845 82360 83080=
201402091200 AAXX 09124 67665 42680 63006 10251 20230 48477 70222 86831
                   333 58000 83634 85835 82360 81080=
201402090900 AAXX 09094 67665 41480 72909 10212 20205 48497 75155 86831
                   333 58000 85615 84820 86359 81080=
201402090600 AAXX 09064 67665 NIL=
201402082100 AAXX 08214 67665 NIL=
201402081800 AAXX 08184 67665 41660 73202 10221 20192 48498 71322
                   333 10252 59006 81940 85360 83080=
201402081500 AAXX 08154 67665 42580 63208 10245 20193 48460 81332
                   333 59028 81925 81360 85080=
201402081200 AAXX 08124 67665 NIL=
201402080900 AAXX 08094 67665 NIL=
201402080600 AAXX 08064 67665 NIL=
201402080300 AAXX 08034 67665 NIL=
201402080000 AAXX 08004 67665 NIL=
201402071800 AAXX 07184 67665 42760 71002 10194 20171 48483 70222 8193/
                   333 10288 58010 81950 87360=
201402071500 AAXX 07154 67665 41459 72607 10226 20226 48485 76122 8457/
                   333 5//// 84615 87459=
201402071200 AAXX 07124 67665 41375 72809 10225 20185 48487 70252 8467/
                   333 58018 84707 87360=
201402070900 AAXX 07094 67665 41360 82410 10219 20200 48503 71522 8663/
                   333 58017 86708 88360=
201402070600 AAXX 07061 67665 32380 72809 10213 20196 48493 8563/
                   333 10209 20//0 59002 85707 87360=
201402070300 AAXX 07034 67665 42980 42904 10201 20183 48476 84030
                   333 59002 84360=
201402070000 AAXX 07004 67665 NIL=
201402062100 AAXX 06214 67665 42980 42103 10221 20184 48495 84030
                   333 58009 84360=
201402061800 AAXX 06184 67665 NIL=
201402061500 AAXX 06154 67665 NIL=
201402061200 AAXX 06124 67665 NIL=
201402060900 AAXX 06094 67665 NIL=
201402060600 AAXX 06061 67665 32380 63403 10210 20201 48495 83631
                   333 10292 20//0 59001 83708 86360 81080=
201402060300 AAXX 06034 67665 42980 53204 10199 20174 48478 84032
                   333 59004 84360 83080=
201402060000 AAXX 06004 67665 42980 62405 10209 48479 85032
                   333 59006 85360 83080=
201402052100 AAXX 05214 67665 42980 52506 10209 20169 48485 84032
                   333 59011 84360 83080=
201402051800 AAXX 05184 67665 42980 52404 10224 20188 48476 83032
                   333 10292 59007 83360 83080=
201402051500 AAXX 05154 67665 42680 72709 10254 20196 48465 85832
                   333 59005 83638 85840 81360 84080=
201402051200 AAXX 05124 67665 42680 63503 10275 20194 48483 84232
                   333 59011 84830 81360 85080=
201402050900 AAXX 05094 67665 NIL=
201402050600 AAXX 05064 67665 12480 73003 10224 20187 48498 60024 70322 84532
                   333 10286 20/// 59013 84615 84360 82080
                   555 00///=
201402050300 AAXX 05034 67665 NIL=
201402041800 AAXX 04184 67665 NIL=
201402041500 AAXX 04154 67665 NIL=
201402041200 AAXX 04124 67665 NIL=
201402040900 AAXX 04094 67665 42460 62804 10245 20193 48509 85832
                   333 58003 84618 83820 81360 84080=
201402040600 AAXX 04064 67665 12360 62909 10213 20198 48508 60064 84632
                   333 10//0 20//0 58009 84708 86360 82080=
201402040300 AAXX 04034 67665 41/01 90000 10197 20175 48487 74742 8////
                   333 58003 8////=
201402040000 AAXX 04004 67665 41660 63402 10207 20177 48484 71322 81932
                   333 59010 81950 84359 81080=
201402032100 AAXX 03214 67665 42660 63002 10203 20183 48495 81932
                   333 58000 81935 84359 81080=
201402031800 AAXX 03184 67665 41558 70905 10209 20186 48483 76166 81931
                   333 58003 81920 86359=
201402031500 AAXX 03154 67665 42680 51506 10246 20224 48484 82932
                   333 58012 82935 85360 81080=
201402031200 AAXX 03124 67665 41558 60204 10237 20213 48483 76082 81932
                   333 59002 81925 85830 81080=
201402030900 AAXX 03094 67665 42460 62904 10256 20221 48500 70222 85631
                   333 59013 82614 84815 82360 82080=
201402030600 AAXX 03064 67665 NIL=
201402021800 AAXX 02184 67665 42660 70903 10213 20197 48480 81932
                   333 10283 59023 81945 83360 85080=
201402021500 AAXX 02154 67665 42660 71804 10268 20181 48474 84202
                   333 59016 84835 86080=
201402021200 AAXX 02124 67665 NIL=
201402020900 AAXX 02094 67665 42460 82804 10226 20204 48511 70222 8577/
                   333 59006 85618 87460=
201402020600 AAXX 02064 67665 11359 83603 10197 20197 48503 8377/
                   333 59013 83708 87459=
201402020300 AAXX 02034 67665 41359 73305 10188 20188 48499 76166 8477/
                   333 58001 84705 87460=
201402020000 AAXX 02004 67665 42/80 50000 10185 20169 48494 85030
                   333 819// 85360=
201402012100 AAXX 01214 67665 42760 62803 10194 20171 48511 70222 81930
                   333 58004 81956 86360 91018=
201402011800 AAXX 01184 67665 41780 82103 10208 20181 48501 81972
                   333 58008 81950 83359 87080=
201402011500 AAXX 01154 67665 NIL=
201402011200 AAXX 01124 67665 42680 73106 10270 20190 48500 85230
                   333 58002 85840 86360=
201402010900 AAXX 01094 67665 42680 72905 10248 20200 48519 81230
                   333 59004 81830 87360=
201402010600 AAXX 01064 67665 NIL=

################################################################################
#  SYNOPS from 67666, Lusaka City Airport (Zambia) | 15-25S | 028-19E | 1280 m
################################################################################
201403030300 AAXX 03034 67666 NIL=
201403030000 AAXX 03004 67666 NIL=
201403022100 AAXX 02214 67666 NIL=
201403021800 AAXX 02184 67666 NIL=
201403021500 AAXX 02154 67666 NIL=
201403021200 AAXX 02124 67666 NIL=
201403020900 AAXX 02094 67666 NIL=
201403020600 AAXX 02064 67666 NIL=
201403020300 AAXX 02034 67666 NIL=
201403020000 AAXX 02004 67666 NIL=
201403012100 AAXX 01214 67666 NIL=
201403011800 AAXX 01184 67666 NIL=
201403011500 AAXX 01154 67666 NIL=
201403011200 AAXX 01121 67666 NIL=
201403010900 AAXX 01094 67666 NIL=
201403010600 AAXX 01064 67666 NIL=
201403010000 AAXX 01004 67666 NIL=
201402282100 AAXX 28214 67666 NIL=
201402281800 AAXX 28184 67666 NIL=
201402281500 AAXX 28154 67666 NIL=
201402281200 AAXX 28124 67666 NIL=
201402280900 AAXX 28094 67666 NIL=
201402280600 AAXX 28064 67666 32380 80807 10205 20191 48501 886//
                   333 10270 20191 59006 88708 91018=
201402280300 AAXX 28034 67666 NIL=
201402280000 AAXX 28004 67666 NIL=
201402272100 AAXX 27214 67666 NIL=
201402271800 AAXX 27184 67666 NIL=
201402271500 AAXX 27154 67666 NIL=
201402271200 AAXX 27124 67666 42580 60908 10260 20185 48499 84238
                   333 58010 84822 81360 84280 91016=
201402270900 AAXX 27094 67666 NIL=
201402270600 AAXX 27064 67666 32380 70912 10205 20188 48520 8563/
                   333 10280 20185 58010 85705 83358 91018=
201402262100 AAXX 26214 67666 NIL=
201402261500 AAXX 26154 67666 NIL=
201402261200 AAXX 26124 67666 42480 51011 10262 20193 48490 81300
                   333 59003 81910 84825 91014=
201402260900 AAXX 26094 67666 42480 51012 10240 20188 48517 85200
                   333 58007 85818 91018=
201402260600 AAXX 26064 67666 12380 71211 10205 20198 48509 60044 875//
                   333 10245 20180 58002 87610 91017=
201402260300 AAXX 26034 67666 NIL=
201402252100 AAXX 25214 67666 NIL=
201402251500 AAXX 25154 67666 NIL=
201402251200 AAXX 25124 67666 NIL=
201402250900 AAXX 25094 67666 41480 70705 10230 20200 48510 72522 86830
                   333 59004 83610 83820 83358 91017=
201402250600 AAXX 25064 67666 12380 70911 10202 20185 48507 69904 8763/
                   333 10265 20180 59005 85709 84358 91017=
201402250300 AAXX 25034 67666 NIL=
201402242100 AAXX 24214 67666 NIL=
201402241800 AAXX 24184 67666 NIL=
201402241500 AAXX 24154 67666 NIL=
201402241200 AAXX 24124 67666 41580 61304 10248 20188 48494 72522 86821
                   333 59010 83630 83830 82360 83280 91015=
201402240900 AAXX 24094 67666 42480 71108 10225 20180 48513 8642/
                   333 59010 86620 81360 91017=
201402240600 AAXX 24064 67666 12980 60910 10205 20192 48514 69914 86020
                   333 10/// 20170 58008 86360 91018=
201402240300 AAXX 24034 67666 NIL=
201402240000 AAXX 24004 67666 NIL=
201402232100 AAXX 23214 67666 NIL=
201402231500 AAXX 23154 67666 NIL=
201402230900 AAXX 23094 67666 NIL=
201402230600 AAXX 23064 67666 NIL=
201402230300 AAXX 23034 67666 NIL=
201402221800 AAXX 22184 67666 NIL=
201402221500 AAXX 22154 67666 NIL=
201402220900 AAXX 22094 67666 NIL=
201402220600 AAXX 22064 67666 NIL=
201402211500 AAXX 21154 67666 NIL=
201402211200 AAXX 21124 67666 NIL=
201402210900 AAXX 21094 67666 NIL=
201402210600 AAXX 21064 67666 12380 40505 10200 20193 48508 60014 84630
                   333 10220 20188 58010 84706 83360 91017=
201402202100 AAXX 20214 67666 NIL=
201402201200 AAXX 20124 67666 NIL=
201402200900 AAXX 20094 67666 NIL=
201402200600 AAXX 20064 67666 12980 70000 10200 20185 48498 60074 8707/
                   333 10265 20171 59011 87459 91016=
201402200300 AAXX 20034 67666 NIL=
201402192100 AAXX 19214 67666 NIL=
201402191800 AAXX 19184 67666 NIL=
201402191200 AAXX 19124 67666 NIL=
201402190900 AAXX 19094 67666 NIL=
201402190600 AAXX 19064 67666 32380 60000 10225 20195 48503 60104 82531
                   333 10269 20175 59016 82610 83359 82080
                   555 00/// 20012 91017=
201402190300 AAXX 19034 67666 NIL=
201402190000 AAXX 19004 67666 NIL=
201402181500 AAXX 18154 67666 NIL=
201402181200 AAXX 18124 67666 NIL=
201402180900 AAXX 18094 67666 42480 71207 10235 20193 48523 84230
                   333 58008 84820 81360 91019=
201402180600 AAXX 18064 67666 32480 80907 10201 20183 48520 60124 885//
                   333 10250 20191 58009 88610 91019=
201402180300 AAXX 18034 67666 NIL=
201402180000 AAXX 18004 67666 NIL=
201402172100 AAXX 17214 67666 NIL=
201402171500 AAXX 17154 67666 NIL=
201402171200 AAXX 17124 67666 NIL=
201402170900 AAXX 17094 67666 42480 70707 10221 20188 48519 875//
                   333 58010 87618 91018=
201402170600 AAXX 17064 67666 32480 71012 10205 20184 48516 875//
                   333 10260 20180 58008 87610 91018=
201402161800 AAXX 16184 67666 NIL=
201402161500 AAXX 16154 67666 NIL=
201402161200 AAXX 16124 67666 NIL=
201402160900 AAXX 16094 67666 NIL=
201402160600 AAXX 16064 67666 NIL=
201402160300 AAXX 16034 67666 NIL=
201402152100 AAXX 15214 67666 NIL=
201402151800 AAXX 15184 67666 NIL=
201402151500 AAXX 15154 67666 NIL=
201402151200 AAXX 15124 67666 NIL=
201402150900 AAXX 15094 67666 NIL=
201402150600 AAXX 15064 67666 NIL=
201402150300 AAXX 15034 67666 NIL=
201402142100 AAXX 14214 67666 NIL=
201402141200 AAXX 14124 67666 NIL=
201402140900 AAXX 14094 67666 42580 60903 10250 48510 84201
                   333 58004 84820 82080 91017=
201402140600 AAXX 14064 67666 11480 60000 10225 20190 48504 69904 72822 81501
                   333 10265 20180 58016 81615 85080 91016=
201402140300 AAXX 14034 67666 NIL=
201402132100 AAXX 13214 67666 NIL=
201402131200 AAXX 13124 67666 NIL=
201402130900 AAXX 13094 67666 42580 71008 10247 20195 48505 8423/
                   333 58007 84820 83359 91018=
201402130600 AAXX 13064 67666 11380 60000 10207 20189 48491 60344 72854 83530
                   333 10262 20171 59003 83610 84458 91016=
201402130300 AAXX 13034 67666 NIL=
201402130000 AAXX 13004 67666 NIL=
201402121800 AAXX 12184 67666 NIL=
201402121500 AAXX 12154 67666 NIL=
201402121200 AAXX 12124 67666 NIL=
201402120900 AAXX 12094 67666 42480 70405 10229 20186 48491 8623/
                   333 59008 86218 84360 91016=
201402120600 AAXX 12064 67666 31380 80405 10200 20193 48499 72854 886//
                   333 10260 20185 59008 88707 91016=
201402120000 AAXX 12004 67666 NIL=
201402112100 AAXX 11214 67666 NIL=
201402111800 AAXX 11184 67666 NIL=
201402111200 AAXX 11124 67666 42480 71206 10245 20176 48487 87270
                   333 59001 85820 83360 91014=
201402110900 AAXX 11094 67666 42480 71006 10225 20178 48504 85270
                   333 58004 85218 84360 82078 91016=
201402110600 AAXX 11064 67666 12380 80804 10185 20176 48505 60054 8867/
                   333 10200 20165 58017 87706 82458 91017=
201402102100 AAXX 10214 67666 NIL=
201402101800 AAXX 10184 67666 NIL=
201402101500 AAXX 10154 67666 NIL=
201402101200 AAXX 10124 67666 NIL=
201402100900 AAXX 10094 67666 NIL=
201402100600 AAXX 10064 67666 11380 80106 10205 20196 48491 60094 75055 8657/
                   333 10260 20185 59009 86709 88458 91015=
201402092100 AAXX 09214 67666 NIL=
201402091800 AAXX 09184 67666 NIL=
201402091500 AAXX 09154 67666 NIL=
201402091200 AAXX 09124 67666 NIL=
201402090900 AAXX 09094 67666 NIL=
201402090600 AAXX 09064 67666 NIL=
201402082100 AAXX 08214 67666 NIL=
201402081800 AAXX 08184 67666 NIL=
201402081500 AAXX 08154 67666 NIL=
201402081200 AAXX 08124 67666 NIL=
201402080900 AAXX 08094 67666 NIL=
201402080600 AAXX 08064 67666 NIL=
201402080300 AAXX 08034 67666 NIL=
201402080000 AAXX 08004 67666 NIL=
201402071800 AAXX 07184 67666 NIL=
201402071500 AAXX 07154 67666 NIL=
201402071200 AAXX 07124 67666 NIL=
201402070900 AAXX 07094 67666 NIL=
201402070600 AAXX 07064 67666 32480 33207 10209 20189 48482 84538
                   333 10283 20197 58000 84610 83359 87280 91015=
201402070300 AAXX 07034 67666 NIL=
201402070000 AAXX 07004 67666 NIL=
201402062100 AAXX 06214 67666 NIL=
201402061800 AAXX 06184 67666 NIL=
201402061500 AAXX 06154 67666 NIL=
201402061200 AAXX 06124 67666 42580 72705 10275 20206 48458 84230
                   333 59006 84825 83359 91012=
201402060900 AAXX 06094 67666 42480 70807 10245 20202 48487 8583/
                   333 59008 84618 82820 87359 91014=
201402060600 AAXX 06064 67666 31380 70705 10217 20196 48482 69904 70500 84530
                   333 10283 20195 59001 84610 87459 91015=
201402060300 AAXX 06034 67666 NIL=
201402060000 AAXX 06004 67666 NIL=
201402052100 AAXX 05214 67666 NIL=
201402051800 AAXX 05184 67666 NIL=
201402051500 AAXX 05154 67666 NIL=
201402051200 AAXX 05124 67666 NIL=
201402050900 AAXX 05094 67666 NIL=
201402050600 AAXX 05064 67666 32380 70000 10203 20183 48481 60094 8577/
                   333 10271 20183 59013 85608 87459 91015=
201402050300 AAXX 05034 67666 NIL=
201402041800 AAXX 04184 67666 NIL=
201402041500 AAXX 04154 67666 NIL=
201402041200 AAXX 04124 67666 NIL=
201402040900 AAXX 04094 67666 NIL=
201402040600 AAXX 04064 67666 12480 73108 10205 20182 48502 69954 8453/
                   333 10291 20185 58006 84615 87360 91016=
201402040300 AAXX 04034 67666 NIL=
201402032100 AAXX 03214 67666 NIL=
201402031800 AAXX 03184 67666 NIL=
201402031500 AAXX 03154 67666 NIL=
201402031200 AAXX 03124 67666 NIL=
201402030900 AAXX 03094 67666 42680 63605 10250 20191 48495 84231
                   333 59010 84830 82360 82080 91015=
201402030600 AAXX 03064 67666 12480 70505 10210 20188 48496 69904 8257/
                   333 10278 20174 58007 82615 87459 91016=
201402021800 AAXX 02184 67666 NIL=
201402021500 AAXX 02154 67666 NIL=
201402021200 AAXX 02124 67666 NIL=
201402020900 AAXX 02094 67666 NIL=
201402020600 AAXX 02064 67666 NIL=
201402020300 AAXX 02034 67666 NIL=
201402012100 AAXX 01214 67666 NIL=
201402011800 AAXX 01184 67666 NIL=
201402011500 AAXX 01154 67666 NIL=
201402011200 AAXX 01124 67666 NIL=
201402010900 AAXX 01094 67666 NIL=
201402010600 AAXX 01064 67666 NIL=

################################################################################
#  SYNOPS from 67667, Mount Makulu (Zambia) | 15-33S | 028-15E | 1213 m
################################################################################
201403030300 AAXX 03034 67667 NIL=
201403030000 AAXX 03004 67667 NIL=
201403022100 AAXX 02214 67667 NIL=
201403021800 AAXX 02184 67667 NIL=
201403021500 AAXX 02154 67667 NIL=
201403021200 AAXX 02124 67667 NIL=
201403020900 AAXX 02094 67667 NIL=
201403020600 AAXX 02064 67667 NIL=
201403020300 AAXX 02034 67667 NIL=
201403020000 AAXX 02004 67667 NIL=
201403012100 AAXX 01214 67667 NIL=
201403011800 AAXX 01184 67667 NIL=
201403011500 AAXX 01154 67667 NIL=
201403011200 AAXX 01121 67667 NIL=
201403010900 AAXX 01094 67667 NIL=
201403010600 AAXX 01064 67667 NIL=
201403010000 AAXX 01004 67667 NIL=
201402282100 AAXX 28214 67667 NIL=
201402281800 AAXX 28184 67667 NIL=
201402281500 AAXX 28154 67667 NIL=
201402281200 AAXX 28124 67667 NIL=
201402280900 AAXX 28094 67667 NIL=
201402280600 AAXX 28064 67667 NIL=
201402280300 AAXX 28034 67667 NIL=
201402280000 AAXX 28004 67667 NIL=
201402272100 AAXX 27214 67667 NIL=
201402271800 AAXX 27184 67667 NIL=
201402271500 AAXX 27154 67667 NIL=
201402271200 AAXX 27124 67667 NIL=
201402270900 AAXX 27094 67667 NIL=
201402270600 AAXX 27064 67667 NIL=
201402262100 AAXX 26214 67667 NIL=
201402261500 AAXX 26154 67667 NIL=
201402261200 AAXX 26124 67667 NIL=
201402260900 AAXX 26094 67667 NIL=
201402260300 AAXX 26034 67667 NIL=
201402252100 AAXX 25214 67667 NIL=
201402251500 AAXX 25154 67667 NIL=
201402251200 AAXX 25124 67667 NIL=
201402250900 AAXX 25094 67667 NIL=
201402250600 AAXX 25064 67667 NIL=
201402250300 AAXX 25034 67667 NIL=
201402242100 AAXX 24214 67667 NIL=
201402241800 AAXX 24184 67667 NIL=
201402241500 AAXX 24154 67667 NIL=
201402241200 AAXX 24124 67667 NIL=
201402240900 AAXX 24094 67667 NIL=
201402240600 AAXX 24064 67667 NIL=
201402240300 AAXX 24034 67667 NIL=
201402240000 AAXX 24004 67667 NIL=
201402232100 AAXX 23214 67667 NIL=
201402231500 AAXX 23154 67667 NIL=
201402230900 AAXX 23094 67667 NIL=
201402230600 AAXX 23064 67667 NIL=
201402230300 AAXX 23034 67667 NIL=
201402221800 AAXX 22184 67667 NIL=
201402221500 AAXX 22154 67667 NIL=
201402220900 AAXX 22094 67667 NIL=
201402220600 AAXX 22064 67667 NIL=
201402211500 AAXX 21154 67667 NIL=
201402211200 AAXX 21124 67667 NIL=
201402210900 AAXX 21094 67667 NIL=
201402210600 AAXX 21064 67667 NIL=
201402202100 AAXX 20214 67667 NIL=
201402201200 AAXX 20124 67667 NIL=
201402200900 AAXX 20094 67667 NIL=
201402200600 AAXX 20064 67667 NIL=
201402200300 AAXX 20034 67667 NIL=
201402192100 AAXX 19214 67667 NIL=
201402191800 AAXX 19184 67667 NIL=
201402191200 AAXX 19124 67667 NIL=
201402190900 AAXX 19094 67667 NIL=
201402190600 AAXX 19064 67667 NIL=
201402190300 AAXX 19034 67667 NIL=
201402190000 AAXX 19004 67667 NIL=
201402181500 AAXX 18154 67667 NIL=
201402181200 AAXX 18124 67667 NIL=
201402180900 AAXX 18094 67667 NIL=
201402180600 AAXX 18064 67667 NIL=
201402180300 AAXX 18034 67667 NIL=
201402180000 AAXX 18004 67667 NIL=
201402172100 AAXX 17214 67667 NIL=
201402171500 AAXX 17154 67667 NIL=
201402171200 AAXX 17124 67667 NIL=
201402170900 AAXX 17094 67667 NIL=
201402170600 AAXX 17064 67667 NIL=
201402161800 AAXX 16184 67667 NIL=
201402161500 AAXX 16154 67667 NIL=
201402161200 AAXX 16124 67667 NIL=
201402160900 AAXX 16094 67667 NIL=
201402160600 AAXX 16064 67667 NIL=
201402160300 AAXX 16034 67667 NIL=
201402152100 AAXX 15214 67667 NIL=
201402151800 AAXX 15184 67667 NIL=
201402151500 AAXX 15154 67667 NIL=
201402151200 AAXX 15124 67667 NIL=
201402150900 AAXX 15094 67667 NIL=
201402150600 AAXX 15064 67667 NIL=
201402150300 AAXX 15034 67667 NIL=
201402142100 AAXX 14214 67667 NIL=
201402141200 AAXX 14124 67667 NIL=
201402140900 AAXX 14094 67667 NIL=
201402140600 AAXX 14064 67667 NIL=
201402140300 AAXX 14034 67667 NIL=
201402132100 AAXX 13214 67667 NIL=
201402131200 AAXX 13124 67667 NIL=
201402130900 AAXX 13094 67667 NIL=
201402130600 AAXX 13064 67667 NIL=
201402130300 AAXX 13034 67667 NIL=
201402130000 AAXX 13004 67667 NIL=
201402121800 AAXX 12184 67667 NIL=
201402121500 AAXX 12154 67667 NIL=
201402121200 AAXX 12124 67667 NIL=
201402120900 AAXX 12094 67667 NIL=
201402120600 AAXX 12064 67667 NIL=
201402120000 AAXX 12004 67667 NIL=
201402112100 AAXX 11214 67667 NIL=
201402111800 AAXX 11184 67667 NIL=
201402111200 AAXX 11124 67667 NIL=
201402110900 AAXX 11094 67667 NIL=
201402110600 AAXX 11064 67667 NIL=
201402102100 AAXX 10214 67667 NIL=
201402101800 AAXX 10184 67667 NIL=
201402101500 AAXX 10154 67667 NIL=
201402101200 AAXX 10124 67667 NIL=
201402100900 AAXX 10094 67667 NIL=
201402100600 AAXX 10060 67667 NIL=
201402092100 AAXX 09214 67667 NIL=
201402091800 AAXX 09184 67667 NIL=
201402091500 AAXX 09154 67667 NIL=
201402091200 AAXX 09124 67667 NIL=
201402090900 AAXX 09094 67667 NIL=
201402090600 AAXX 09064 67667 NIL=
201402082100 AAXX 08214 67667 NIL=
201402081800 AAXX 08184 67667 NIL=
201402081500 AAXX 08154 67667 NIL=
201402081200 AAXX 08124 67667 NIL=
201402080900 AAXX 08094 67667 NIL=
201402080600 AAXX 08064 67667 NIL=
201402080300 AAXX 08034 67667 NIL=
201402080000 AAXX 08004 67667 NIL=
201402071800 AAXX 07184 67667 NIL=
201402071500 AAXX 07154 67667 NIL=
201402071200 AAXX 07124 67667 NIL=
201402070900 AAXX 07094 67667 NIL=
201402070600 AAXX 07064 67667 NIL=
201402070300 AAXX 07034 67667 NIL=
201402070000 AAXX 07004 67667 NIL=
201402062100 AAXX 06214 67667 NIL=
201402061800 AAXX 06184 67667 NIL=
201402061500 AAXX 06154 67667 NIL=
201402061200 AAXX 06124 67667 NIL=
201402060900 AAXX 06094 67667 NIL=
201402060600 AAXX 06064 67667 NIL=
201402060300 AAXX 06034 67667 NIL=
201402060000 AAXX 06004 67667 NIL=
201402052100 AAXX 05214 67667 NIL=
201402051800 AAXX 05184 67667 NIL=
201402051500 AAXX 05154 67667 NIL=
201402051200 AAXX 05124 67667 NIL=
201402050900 AAXX 05094 67667 NIL=
201402050600 AAXX 05064 67667 NIL=
201402050300 AAXX 05034 67667 NIL=
201402041800 AAXX 04184 67667 NIL=
201402041500 AAXX 04154 67667 NIL=
201402041200 AAXX 04124 67667 NIL=
201402040900 AAXX 04094 67667 NIL=
201402040600 AAXX 04064 67667 NIL=
201402040300 AAXX 04034 67667 NIL=
201402032100 AAXX 03214 67667 NIL=
201402031800 AAXX 03184 67667 NIL=
201402031500 AAXX 03154 67667 NIL=
201402031200 AAXX 03124 67667 NIL=
201402030900 AAXX 03094 67667 NIL=
201402030600 AAXX 03064 67667 NIL=
201402021800 AAXX 02184 67667 NIL=
201402021500 AAXX 02154 67667 NIL=
201402021200 AAXX 02124 67667 NIL=
201402020900 AAXX 02094 67667 NIL=
201402020600 AAXX 02064 67667 NIL=
201402020300 AAXX 02034 67667 NIL=
201402012100 AAXX 01214 67667 NIL=
201402011800 AAXX 01184 67667 NIL=
201402011500 AAXX 01154 67667 NIL=
201402011200 AAXX 01124 67667 NIL=
201402010900 AAXX 01094 67667 NIL=
201402010600 AAXX 01064 67667 NIL=

################################################################################
#  SYNOPS from 67673, Petauke (Zambia) | 14-15S | 031-17E | 1035 m
################################################################################
201403030300 AAXX 03034 67673 NIL=
201403030000 AAXX 03004 67673 NIL=
201403022100 AAXX 02214 67673 NIL=
201403021800 AAXX 02184 67673 NIL=
201403021500 AAXX 02154 67673 NIL=
201403021200 AAXX 02124 67673 NIL=
201403020900 AAXX 02094 67673 NIL=
201403020600 AAXX 02064 67673 NIL=
201403020300 AAXX 02034 67673 NIL=
201403020000 AAXX 02004 67673 NIL=
201403012100 AAXX 01214 67673 NIL=
201403011800 AAXX 01184 67673 NIL=
201403011500 AAXX 01154 67673 NIL=
201403011200 AAXX 01121 67673 NIL=
201403010900 AAXX 01094 67673 NIL=
201403010600 AAXX 01064 67673 NIL=
201403010000 AAXX 01004 67673 NIL=
201402282100 AAXX 28214 67673 NIL=
201402281800 AAXX 28184 67673 NIL=
201402281500 AAXX 28154 67673 NIL=
201402281200 AAXX 28124 67673 NIL=
201402280900 AAXX 28094 67673 NIL=
201402280600 AAXX 28064 67673 NIL=
201402280300 AAXX 28034 67673 NIL=
201402280000 AAXX 28004 67673 NIL=
201402272100 AAXX 27214 67673 NIL=
201402271800 AAXX 27184 67673 NIL=
201402271500 AAXX 27154 67673 NIL=
201402271200 AAXX 27124 67673 NIL=
201402270900 AAXX 27094 67673 NIL=
201402270600 AAXX 27064 67673 NIL=
201402262100 AAXX 26214 67673 NIL=
201402261500 AAXX 26154 67673 NIL=
201402261200 AAXX 26124 67673 NIL=
201402260900 AAXX 26094 67673 42680 61001 10250 20198 48534 86201
                   333 58012 86832 84080=
201402260600 AAXX 26064 67673 12580 73601 10220 20198 48531 69994 875//
                   333 10285 20195 58010 87625=
201402260300 AAXX 26034 67673 NIL=
201402252100 AAXX 25214 67673 NIL=
201402251500 AAXX 25154 67673 NIL=
201402251200 AAXX 25124 67673 NIL=
201402250900 AAXX 25094 67673 42580 63601 10248 20203 48522 86231
                   333 59001 86829 83360 83080=
201402250600 AAXX 25064 67673 12570 81303 10214 20200 48521 60084 886//
                   333 10230 20196 59008 88724=
201402250300 AAXX 25034 67673 NIL=
201402242100 AAXX 24214 67673 NIL=
201402241800 AAXX 24184 67673 NIL=
201402241500 AAXX 24154 67673 NIL=
201402241200 AAXX 24124 67673 41560 61504 10268 20207 48501 71522 86231
                   333 59003 86830 85360 83080=
201402240900 AAXX 24094 67673 42680 61702 10245 20203 48524 85831
                   333 59006 82828 83630 84360 82080=
201402240600 AAXX 24064 67673 12580 71201 10220 20197 48529 69904 86530
                   333 10285 20190 59004 86625 84360=
201402240300 AAXX 24034 67673 NIL=
201402240000 AAXX 24004 67673 NIL=
201402232100 AAXX 23214 67673 NIL=
201402231500 AAXX 23154 67673 NIL=
201402230900 AAXX 23094 67673 NIL=
201402230600 AAXX 23064 67673 NIL=
201402230300 AAXX 23034 67673 NIL=
201402221800 AAXX 22184 67673 NIL=
201402221500 AAXX 22154 67673 NIL=
201402220900 AAXX 22094 67673 NIL=
201402220600 AAXX 22064 67673 NIL=
201402211500 AAXX 21154 67673 NIL=
201402211200 AAXX 21124 67673 NIL=
201402210900 AAXX 21094 67673 42580 73203 10235 20202 48532 8513/
                   333 58000 85827 87360=
201402210600 AAXX 21064 67673 12580 80401 10200 20198 48530 60044 885//
                   333 10300 20194 58016 88625=
201402202100 AAXX 20214 67673 NIL=
201402201200 AAXX 20124 67673 NIL=
201402200900 AAXX 20094 67673 42580 60201 10262 20203 48520 85230
                   333 59004 85830 86360=
201402200600 AAXX 20064 67673 12580 80401 10220 20197 48518 69904 8253/
                   333 10300 20206 59013 82626 88360=
201402200300 AAXX 20034 67673 NIL=
201402192100 AAXX 19214 67673 NIL=
201402191800 AAXX 19184 67673 NIL=
201402191200 AAXX 19124 67673 42680 50701 10287 20179 48503 85130
                   333 59012 85836 81360=
201402190900 AAXX 19094 67673 42680 61001 10268 20173 48526 86100
                   333 59010 86835=
201402190600 AAXX 19064 67673 12580 30000 10240 20180 485340 60014 81131
                   333 10287 20186 59004 81825 82360 83080
                   555 00/// 20001=
201402190300 AAXX 19034 67673 NIL=
201402190000 AAXX 19004 67673 NIL=
201402181500 AAXX 18154 67673 NIL=
201402181200 AAXX 18124 67673 42680 61202 10275 20182 48551 86231
                   333 59008 86831 84360 82080=
201402180900 AAXX 18094 67673 42580 70802 10248 20185 48531 875//
                   333 59002 87629=
201402180600 AAXX 18064 67673 12575 51101 10207 20184 48532 60014 85531
                   333 10265 20180 59004 85625 84360 83080=
201402180300 AAXX 18034 67673 NIL=
201402180000 AAXX 18004 67673 NIL=
201402172100 AAXX 17214 67673 NIL=
201402171500 AAXX 17154 67673 NIL=
201402171200 AAXX 17124 67673 41680 61002 10246 20191 48517 76062 85230
                   333 58024 85835 86360=
201402170900 AAXX 17094 67673 NIL=
201402170600 AAXX 17064 67673 NIL=
201402161800 AAXX 16184 67673 NIL=
201402161500 AAXX 16154 67673 NIL=
201402161200 AAXX 16124 67673 NIL=
201402160900 AAXX 16094 67673 NIL=
201402160600 AAXX 16064 67673 NIL=
201402160300 AAXX 16034 67673 NIL=
201402152100 AAXX 15214 67673 NIL=
201402151800 AAXX 15184 67673 NIL=
201402151500 AAXX 15154 67673 NIL=
201402151200 AAXX 15124 67673 NIL=
201402150900 AAXX 15094 67673 NIL=
201402150600 AAXX 15064 67673 NIL=
201402150300 AAXX 15034 67673 NIL=
201402142100 AAXX 14214 67673 NIL=
201402141200 AAXX 14124 67673 NIL=
201402140900 AAXX 14094 67673 NIL=
201402140600 AAXX 14064 67673 NIL=
201402140300 AAXX 14034 67673 NIL=
201402132100 AAXX 13214 67673 NIL=
201402131200 AAXX 13124 67673 42680 50000 10280 20185 48500 85201
                   333 58001 85840 83080=
201402130900 AAXX 13094 67673 42680 60902 10254 20195 48520 86200=
201402130600 AAXX 13064 67673 12580 40902 10228 20195 48523 60234 84131
                   333 10290 20180 58002 84825 82360 82080=
201402130300 AAXX 13034 67673 NIL=
201402130000 AAXX 13004 67673 NIL=
201402121800 AAXX 12184 67673 NIL=
201402121500 AAXX 12154 67673 42680 50501 10288 20188 48487 85231
                   333 59002 85840 81360 82080=
201402121200 AAXX 12124 67673 42680 63601 10278 20193 48499 86231
                   333 59007 86835 82360 82080=
201402120900 AAXX 12094 67673 42680 60901 10246 20185 48513 86231
                   333 59009 86832 84360 82080=
201402120600 AAXX 12064 67673 12975 61001 10224 20195 48520 69904 86031
                   333 10274 20165 59009 86360 85080
                   555 00/// 20006=
201402120000 AAXX 12004 67673 NIL=
201402112100 AAXX 11214 67673 NIL=
201402111800 AAXX 11184 67673 NIL=
201402111200 AAXX 11124 67673 42680 70701 10268 20197 48504 872//=
201402110900 AAXX 11094 67673 42580 60902 10235 20192 48521 86231
                   333 85625 86230 84360 82080=
201402110600 AAXX 11064 67673 11575 71501 10205 20192 48536 60064 76122 8553/
                   333 10275 20180 58014 85620 87360=
201402102100 AAXX 10214 67673 NIL=
201402101800 AAXX 10184 67673 NIL=
201402101500 AAXX 10154 67673 NIL=
201402101200 AAXX 10124 67673 NIL=
201402100900 AAXX 10094 67673 NIL=
201402100600 AAXX 10064 67673 12470 72901 10204 20197 48512 60134 8457/
                   333 10228 20191 58017 84618 87360=
201402092100 AAXX 09214 67673 NIL=
201402091800 AAXX 09184 67673 NIL=
201402091500 AAXX 09154 67673 NIL=
201402091200 AAXX 09124 67673 NIL=
201402090900 AAXX 09094 67673 NIL=
201402090600 AAXX 09064 67673 NIL=
201402082100 AAXX 08214 67673 NIL=
201402081800 AAXX 08184 67673 NIL=
201402081500 AAXX 08154 67673 NIL=
201402081200 AAXX 08124 67673 NIL=
201402080900 AAXX 08094 67673 NIL=
201402080600 AAXX 08064 67673 NIL=
201402080300 AAXX 08034 67673 NIL=
201402080000 AAXX 08004 67673 NIL=
201402071800 AAXX 07184 67673 NIL=
201402071500 AAXX 07154 67673 NIL=
201402071200 AAXX 07124 67673 41560 82001 10203 20200 48495 79562 883//
                   333 58010 81924 88624=
201402070900 AAXX 07094 67673 42580 73601 10230 20200 48506 875//
                   333 10270 20198 58005 87625=
201402070600 AAXX 07064 67673 NIL=
201402070300 AAXX 07034 67673 NIL=
201402070000 AAXX 07004 67673 NIL=
201402062100 AAXX 06214 67673 NIL=
201402061800 AAXX 06184 67673 NIL=
201402061500 AAXX 06154 67673 NIL=
201402061200 AAXX 06124 67673 NIL=
201402060900 AAXX 06094 67673 NIL=
201402060600 AAXX 06064 67673 NIL=
201402060300 AAXX 06034 67673 NIL=
201402060000 AAXX 06004 67673 NIL=
201402052100 AAXX 05214 67673 NIL=
201402051800 AAXX 05184 67673 NIL=
201402051500 AAXX 05154 67673 NIL=
201402051200 AAXX 05124 67673 42684 52601 10295 20194 48494 85834=
201402050900 AAXX 05094 67673 42584 43503 10275 20186 48512 84131
                   333 59011 84830 82360 84080=
201402050600 AAXX 05064 67673 12580 63201 10240 20196 48515 69904 82131
                   333 10300 20205 59009 82825 84360 86080=
201402050300 AAXX 05034 67673 NIL=
201402041800 AAXX 04184 67673 NIL=
201402041500 AAXX 04154 67673 NIL=
201402041200 AAXX 04124 67673 42680 62702 10290 20230 48505 86231
                   333 58011 86840 84360 83080=
201402040900 AAXX 04094 67673 42580 70901 10262 20189 48520 8423/
                   333 58006 84830 87360=
201402040600 AAXX 04064 67673 12580 81101 10222 20189 48521 8117/
                   333 10226 20196 58007 81825 88360=
201402040300 AAXX 04034 67673 NIL=
201402032100 AAXX 03214 67673 NIL=
201402031800 AAXX 03184 67673 NIL=
201402031500 AAXX 03154 67673 NIL=
201402031200 AAXX 03124 67673 42680 53402 10299 20201 48492 85231
                   333 59005 85836 83360 85080=
201402030900 AAXX 03094 67673 42680 53601 10274 20216 48516 58002 85835=
201402030600 AAXX 03064 67673 32580 60101 10235 20212 48517 83131
                   333 10290 20209 58003 83825 84360 86080=
201402021800 AAXX 02184 67673 NIL=
201402021500 AAXX 02154 67673 NIL=
201402021200 AAXX 02124 67673 NIL=
201402020900 AAXX 02094 67673 NIL=
201402020600 AAXX 02064 67673 NIL=
201402020300 AAXX 02034 67673 NIL=
201402012100 AAXX 01214 67673 NIL=
201402011800 AAXX 01184 67673 NIL=
201402011500 AAXX 01154 67673 NIL=
201402011200 AAXX 01124 67673 NIL=
201402010900 AAXX 01094 67673 NIL=
201402010600 AAXX 01064 67673 NIL=

################################################################################
#  SYNOPS from 67731, Senanga (Zambia) | 16-06S | 023-16E | 1027 m
################################################################################
201403030300 AAXX 03034 67731 NIL=
201403030000 AAXX 03004 67731 NIL=
201403022100 AAXX 02214 67731 NIL=
201403021800 AAXX 02184 67731 NIL=
201403021500 AAXX 02154 67731 NIL=
201403021200 AAXX 02124 67731 NIL=
201403020900 AAXX 02094 67731 NIL=
201403020600 AAXX 02064 67731 NIL=
201403020300 AAXX 02034 67731 NIL=
201403020000 AAXX 02004 67731 NIL=
201403012100 AAXX 01214 67731 NIL=
201403011800 AAXX 01184 67731 NIL=
201403011500 AAXX 01154 67731 NIL=
201403011200 AAXX 01121 67731 NIL=
201403010900 AAXX 01094 67731 NIL=
201403010600 AAXX 01064 67731 NIL=
201403010000 AAXX 01004 67731 NIL=
201402282100 AAXX 28214 67731 NIL=
201402281800 AAXX 28184 67731 NIL=
201402281500 AAXX 28154 67731 NIL=
201402281200 AAXX 28124 67731 NIL=
201402280900 AAXX 28094 67731 NIL=
201402280600 AAXX 28064 67731 12580 704// 10220 20205 48/// 61594 83220
                   333 10315 20194 5//// 83825 84460=
201402280300 AAXX 28034 67731 NIL=
201402280000 AAXX 28004 67731 NIL=
201402272100 AAXX 27214 67731 NIL=
201402271800 AAXX 27184 67731 NIL=
201402271500 AAXX 27154 67731 NIL=
201402271200 AAXX 27124 67731 NIL=
201402270900 AAXX 27094 67731 NIL=
201402270600 AAXX 27064 67731 12980 422// 10238 20206 48/// 60014 84038
                   333 10309 20199 5//// 84361 83280=
201402262100 AAXX 26214 67731 NIL=
201402261500 AAXX 26154 67731 NIL=
201402261200 AAXX 26124 67731 NIL=
201402260900 AAXX 26094 67731 NIL=
201402260600 AAXX 26064 67731 12480 711// 10218 20189 48/// 60084 83532
                   333 10320 20164 5//// 83612 83360 86080=
201402260300 AAXX 26034 67731 NIL=
201402252100 AAXX 25214 67731 NIL=
201402251500 AAXX 25154 67731 NIL=
201402251200 AAXX 25124 67731 NIL=
201402250900 AAXX 25094 67731 NIL=
201402250600 AAXX 25064 67731 12880 609// 10240 20214 48/// 60024 86010
                   333 10320 20212 5//// 86462=
201402250300 AAXX 25034 67731 NIL=
201402242100 AAXX 24214 67731 NIL=
201402241800 AAXX 24184 67731 NIL=
201402241500 AAXX 24154 67731 NIL=
201402241200 AAXX 24124 67731 NIL=
201402240900 AAXX 24094 67731 NIL=
201402240600 AAXX 24064 67731 12870 810// 10223 20193 48/// 60014 87207
                   333 10308 20205 5//// 87460 81272=
201402240300 AAXX 24034 67731 NIL=
201402240000 AAXX 24004 67731 NIL=
201402232100 AAXX 23214 67731 NIL=
201402231500 AAXX 23154 67731 NIL=
201402230900 AAXX 23094 67731 NIL=
201402230600 AAXX 23064 67731 NIL=
201402230300 AAXX 23034 67731 NIL=
201402221800 AAXX 22184 67731 NIL=
201402221500 AAXX 22154 67731 NIL=
201402220900 AAXX 22094 67731 NIL=
201402220600 AAXX 22064 67731 NIL=
201402211500 AAXX 21154 67731 NIL=
201402211200 AAXX 21124 67731 NIL=
201402210900 AAXX 21094 67731 NIL=
201402210600 AAXX 21064 67731 NIL=
201402202100 AAXX 20214 67731 NIL=
201402201200 AAXX 20124 67731 NIL=
201402200900 AAXX 20094 67731 NIL=
201402200600 AAXX 20064 67731 12980 118// 10226 20207 48/// 60064 81001
                   333 10310 20190 5//// 81075=
201402200300 AAXX 20034 67731 NIL=
201402192100 AAXX 19214 67731 NIL=
201402191800 AAXX 19184 67731 NIL=
201402191200 AAXX 19124 67731 NIL=
201402190900 AAXX 19094 67731 NIL=
201402190600 AAXX 19064 67731 42580 408// 10241 20188 48/// 81111
                   333 10265 20200 5//// 81825 82460 81073
                   555 00/// 20000=
201402190300 AAXX 19034 67731 NIL=
201402190000 AAXX 19004 67731 NIL=
201402181500 AAXX 18154 67731 NIL=
201402181200 AAXX 18124 67731 NIL=
201402180900 AAXX 18094 67731 NIL=
201402180600 AAXX 18064 67731 12480 703// 10220 20206 48/// 60114 81911
                   333 10290 20198 5//// 81918 85460 81073=
201402180300 AAXX 18034 67731 NIL=
201402180000 AAXX 18004 67731 NIL=
201402172100 AAXX 17214 67731 NIL=
201402171500 AAXX 17154 67731 NIL=
201402171200 AAXX 17124 67731 NIL=
201402170900 AAXX 17094 67731 NIL=
201402170600 AAXX 17064 67731 12480 609// 10227 20201 48/// 60204 83130
                   333 10304 20159 5//// 83810 85360=
201402161800 AAXX 16184 67731 NIL=
201402161500 AAXX 16154 67731 NIL=
201402161200 AAXX 16124 67731 NIL=
201402160900 AAXX 16094 67731 NIL=
201402160600 AAXX 16064 67731 NIL=
201402160300 AAXX 16034 67731 NIL=
201402152100 AAXX 15214 67731 NIL=
201402151800 AAXX 15184 67731 NIL=
201402151500 AAXX 15154 67731 NIL=
201402151200 AAXX 15124 67731 NIL=
201402150900 AAXX 15094 67731 NIL=
201402150600 AAXX 15064 67731 NIL=
201402150300 AAXX 15034 67731 NIL=
201402142100 AAXX 14214 67731 NIL=
201402141200 AAXX 14124 67731 NIL=
201402140900 AAXX 14094 67731 NIL=
201402140600 AAXX 14064 67731 12580 119// 10240 20206 48/// 60034 81100
                   333 10330 20200 5//// 81820=
201402140300 AAXX 14034 67731 NIL=
201402132100 AAXX 13214 67731 NIL=
201402131200 AAXX 13124 67731 NIL=
201402130900 AAXX 13094 67731 NIL=
201402130600 AAXX 13064 67731 NIL=
201402130300 AAXX 13034 67731 NIL=
201402130000 AAXX 13004 67731 NIL=
201402121800 AAXX 12184 67731 NIL=
201402121500 AAXX 12154 67731 NIL=
201402121200 AAXX 12124 67731 NIL=
201402120900 AAXX 12094 67731 NIL=
201402120600 AAXX 12064 67731 12480 513// 10236 20208 48/// 60044 83530
                   333 10305 20179 5//// 83615 84360
                   555 00///=
201402120000 AAXX 12004 67731 NIL=
201402112100 AAXX 11214 67731 NIL=
201402111800 AAXX 11184 67731 NIL=
201402111200 AAXX 11124 67731 NIL=
201402110900 AAXX 11094 67731 NIL=
201402110600 AAXX 11064 67731 NIL=
201402102100 AAXX 10214 67731 NIL=
201402101800 AAXX 10184 67731 NIL=
201402101500 AAXX 10154 67731 NIL=
201402101200 AAXX 10124 67731 NIL=
201402100900 AAXX 10094 67731 NIL=
201402100600 AAXX 10060 67731 NIL=
201402092100 AAXX 09214 67731 NIL=
201402091800 AAXX 09184 67731 NIL=
201402091500 AAXX 09154 67731 NIL=
201402091200 AAXX 09124 67731 NIL=
201402090900 AAXX 09094 67731 NIL=
201402090600 AAXX 09064 67731 NIL=
201402082100 AAXX 08214 67731 NIL=
201402081800 AAXX 08184 67731 NIL=
201402081500 AAXX 08154 67731 NIL=
201402081200 AAXX 08124 67731 NIL=
201402080900 AAXX 08094 67731 NIL=
201402080600 AAXX 08064 67731 NIL=
201402080300 AAXX 08034 67731 NIL=
201402080000 AAXX 08004 67731 NIL=
201402071800 AAXX 07184 67731 NIL=
201402071500 AAXX 07154 67731 NIL=
201402071200 AAXX 07124 67731 NIL=
201402070900 AAXX 07094 67731 NIL=
201402070600 AAXX 07064 67731 NIL=
201402070300 AAXX 07034 67731 NIL=
201402070000 AAXX 07004 67731 NIL=
201402062100 AAXX 06214 67731 NIL=
201402061800 AAXX 06184 67731 NIL=
201402061500 AAXX 06154 67731 NIL=
201402061200 AAXX 06124 67731 NIL=
201402060900 AAXX 06094 67731 NIL=
201402060600 AAXX 06064 67731 NIL=
201402060300 AAXX 06034 67731 NIL=
201402060000 AAXX 06004 67731 NIL=
201402052100 AAXX 05214 67731 NIL=
201402051800 AAXX 05184 67731 NIL=
201402051500 AAXX 05154 67731 NIL=
201402051200 AAXX 05124 67731 NIL=
201402050900 AAXX 05094 67731 NIL=
201402050600 AAXX 05064 67731 NIL=
201402050300 AAXX 05034 67731 NIL=
201402041800 AAXX 04184 67731 NIL=
201402041500 AAXX 04154 67731 NIL=
201402041200 AAXX 04124 67731 NIL=
201402040900 AAXX 04094 67731 NIL=
201402040600 AAXX 04064 67731 NIL=
201402040300 AAXX 04034 67731 NIL=
201402032100 AAXX 03214 67731 NIL=
201402031800 AAXX 03184 67731 NIL=
201402031500 AAXX 03154 67731 NIL=
201402031200 AAXX 03124 67731 NIL=
201402030900 AAXX 03094 67731 NIL=
201402030600 AAXX 03064 67731 NIL=
201402021800 AAXX 02184 67731 NIL=
201402021500 AAXX 02154 67731 NIL=
201402021200 AAXX 02124 67731 NIL=
201402020900 AAXX 02094 67731 NIL=
201402020600 AAXX 02064 67731 NIL=
201402020300 AAXX 02034 67731 NIL=
201402012100 AAXX 01214 67731 NIL=
201402011800 AAXX 01184 67731 NIL=
201402011500 AAXX 01154 67731 NIL=
201402011200 AAXX 01124 67731 NIL=
201402010900 AAXX 01094 67731 NIL=
201402010600 AAXX 01064 67731 NIL=

################################################################################
#  SYNOPS from 67741, Sesheke (Zambia) | 17-28S | 024-18E | 949 m
################################################################################
201403030300 AAXX 03034 67741 NIL=
201403030000 AAXX 03004 67741 NIL=
201403022100 AAXX 02214 67741 NIL=
201403021800 AAXX 02184 67741 NIL=
201403021500 AAXX 02154 67741 NIL=
201403021200 AAXX 02124 67741 NIL=
201403020900 AAXX 02094 67741 NIL=
201403020600 AAXX 02064 67741 NIL=
201403020300 AAXX 02034 67741 NIL=
201403020000 AAXX 02004 67741 NIL=
201403012100 AAXX 01214 67741 NIL=
201403011800 AAXX 01184 67741 NIL=
201403011500 AAXX 01154 67741 NIL=
201403011200 AAXX 01121 67741 NIL=
201403010900 AAXX 01094 67741 NIL=
201403010600 AAXX 01064 67741 NIL=
201403010000 AAXX 01004 67741 NIL=
201402282100 AAXX 28214 67741 NIL=
201402281800 AAXX 28184 67741 NIL=
201402281500 AAXX 28154 67741 NIL=
201402281200 AAXX 28124 67741 41680 60903 10299 20218 48486 71792 85202
                   333 59009 81950 84850 82080=
201402280900 AAXX 28094 67741 42680 60402 10276 20220 48511 85232
                   333 5//// 85848 81362 82080=
201402280600 AAXX 28064 67741 12680 50902 10217 20207 48499 60044 81572
                   333 10314 20205 59011 81630
                   555 64362 83080=
201402280300 AAXX 28034 67741 NIL=
201402280000 AAXX 28004 67741 NIL=
201402272100 AAXX 27214 67741 NIL=
201402271800 AAXX 27184 67741 NIL=
201402271500 AAXX 27154 67741 NIL=
201402271200 AAXX 27124 67741 NIL=
201402270900 AAXX 27094 67741 NIL=
201402270600 AAXX 27064 67741 32680 70000 10214 20186 48508 8157/
                   333 10323 20195 58007 81645 87461=
201402262100 AAXX 26214 67741 NIL=
201402261500 AAXX 26154 67741 NIL=
201402261200 AAXX 26124 67741 NIL=
201402260900 AAXX 26094 67741 42680 70901 10286 20211 48521 84201
                   333 58000 84845 87080=
201402260600 AAXX 26064 67741 32680 60000 10231 20207 48502 81231
                   333 10308 20199 58006 81845 81362 86080=
201402260300 AAXX 26034 67741 NIL=
201402252100 AAXX 25214 67741 NIL=
201402251500 AAXX 25154 67741 NIL=
201402251200 AAXX 25124 67741 42680 70904 10286 20222 48494 84241
                   333 59003 84840 81362 86080=
201402250900 AAXX 25094 67741 42680 70910 10262 20219 48517 8457/
                   333 58001 84640 86362=
201402250600 AAXX 25064 67741 31680 70000 10226 20219 48502 72841 8154/
                   333 10306 20195 59007 82640 86362=
201402250300 AAXX 25034 67741 NIL=
201402242100 AAXX 24214 67741 NIL=
201402241800 AAXX 24184 67741 NIL=
201402241500 AAXX 24154 67741 NIL=
201402241200 AAXX 24124 67741 41680 60902 10290 20212 48504 71522 86202
                   333 59009 81950 85850 81080=
201402240900 AAXX 24094 67741 NIL=
201402240600 AAXX 24064 67741 32980 30902 10218 20204 48510 81032
                   333 10305 20195 59009 81362 83080=
201402240300 AAXX 24034 67741 NIL=
201402240000 AAXX 24004 67741 NIL=
201402232100 AAXX 23214 67741 NIL=
201402231500 AAXX 23154 67741 NIL=
201402230900 AAXX 23094 67741 NIL=
201402230600 AAXX 23064 67741 NIL=
201402230300 AAXX 23034 67741 NIL=
201402221800 AAXX 22184 67741 NIL=
201402221500 AAXX 22154 67741 NIL=
201402220900 AAXX 22094 67741 NIL=
201402220600 AAXX 22064 67741 NIL=
201402211500 AAXX 21154 67741 NIL=
201402211200 AAXX 21124 67741 NIL=
201402210900 AAXX 21094 67741 NIL=
201402210600 AAXX 21064 67741 32980 22802 10235 20207 48502 80002
                   333 10330 20194 58002 82080=
201402202100 AAXX 20214 67741 NIL=
201402201200 AAXX 20124 67741 42680 40000 10307 20213 48497 84202
                   333 59006 84850 81080=
201402200900 AAXX 20094 67741 NIL=
201402200600 AAXX 20064 67741 32980 23502 10226 20196 48492 81032
                   333 10320 20190 59020 81362 82080=
201402200300 AAXX 20034 67741 NIL=
201402192100 AAXX 19214 67741 NIL=
201402191800 AAXX 19184 67741 NIL=
201402191200 AAXX 19124 67741 NIL=
201402190900 AAXX 19094 67741 NIL=
201402190600 AAXX 19064 67741 32680 31801 10226 20206 48512 81102
                   333 10315 20187 59010 81840 83080
                   555 00/// 20000=
201402190300 AAXX 19034 67741 NIL=
201402190000 AAXX 19004 67741 NIL=
201402181500 AAXX 18154 67741 NIL=
201402181200 AAXX 18124 67741 32680 50902 10298 20215 48515 85202
                   333 58002 85850 81080=
201402180900 AAXX 18094 67741 NIL=
201402180600 AAXX 18064 67741 32680 20802 10235 20207 48521 81132
                   333 10315 20189 58008 81840 81362 82080=
201402180300 AAXX 18034 67741 NIL=
201402180000 AAXX 18004 67741 NIL=
201402172100 AAXX 17214 67741 NIL=
201402171500 AAXX 17154 67741 NIL=
201402171200 AAXX 17124 67741 42680 40904 10293 20202 48504 84800
                   333 58005 84840 81641=
201402170900 AAXX 17094 67741 42680 50907 10271 20206 48519 85500
                   333 58003 85640=
201402170600 AAXX 17064 67741 32980 10904 10219 20199 48510 81081
                   333 10301 20170 58005 81362 81080=
201402161800 AAXX 16184 67741 NIL=
201402161500 AAXX 16154 67741 NIL=
201402161200 AAXX 16124 67741 NIL=
201402160900 AAXX 16094 67741 NIL=
201402160600 AAXX 16064 67741 NIL=
201402160300 AAXX 16034 67741 NIL=
201402152100 AAXX 15214 67741 NIL=
201402151800 AAXX 15184 67741 NIL=
201402151500 AAXX 15154 67741 NIL=
201402151200 AAXX 15124 67741 NIL=
201402150900 AAXX 15094 67741 NIL=
201402150600 AAXX 15064 67741 NIL=
201402150300 AAXX 15034 67741 NIL=
201402142100 AAXX 14214 67741 NIL=
201402141200 AAXX 14124 67741 42680 51003 10297 20208 48496 85800
                   333 58015 85840 81640=
201402140900 AAXX 14094 67741 NIL=
201402140600 AAXX 14064 67741 12680 10000 10222 20219 48491 69904 81500
                   333 10311 20199 58010 81640=
201402140300 AAXX 14034 67741 NIL=
201402132100 AAXX 13214 67741 NIL=
201402131200 AAXX 13124 67741 41680 50902 10297 20219 48486 71792 85202
                   333 59006 81940 84840 81080=
201402130900 AAXX 13094 67741 42680 20903 10275 20220 48497 85200
                   333 59002 85840=
201402130600 AAXX 13064 67741 31980 30000 10233 20222 48493 72842 82032
                   333 10285 20188 59005 82362 81080=
201402130300 AAXX 13034 67741 NIL=
201402130000 AAXX 13004 67741 NIL=
201402121800 AAXX 12184 67741 NIL=
201402121500 AAXX 12154 67741 42980 70000 10249 20213 48467 8707/
                   333 10285 20224 59016 87460=
201402121200 AAXX 12124 67741 41680 73601 10253 20215 48477 71792 8594/
                   333 59011 81940 82840 83645 84362=
201402120900 AAXX 12094 67741 42680 70901 10256 20226 48498 8357/
                   333 59011 83640 87461=
201402120600 AAXX 12064 67741 12980 70000 10219 20216 48491 60044 8707/
                   333 10255 20206 59009 87461=
201402120000 AAXX 12004 67741 NIL=
201402112100 AAXX 11214 67741 NIL=
201402111800 AAXX 11184 67741 NIL=
201402111200 AAXX 11124 67741 42680 70901 10234 20210 48483 84570
                   333 58023 84635 86460=
201402110900 AAXX 11094 67741 NIL=
201402110600 AAXX 11064 67741 NIL=
201402102100 AAXX 10214 67741 NIL=
201402101800 AAXX 10184 67741 NIL=
201402101500 AAXX 10154 67741 NIL=
201402101200 AAXX 10124 67741 NIL=
201402100900 AAXX 10094 67741 NIL=
201402100600 AAXX 10060 67741 NIL=
201402092100 AAXX 09214 67741 NIL=
201402091800 AAXX 09184 67741 NIL=
201402091500 AAXX 09154 67741 NIL=
201402091200 AAXX 09124 67741 NIL=
201402090900 AAXX 09094 67741 NIL=
201402090600 AAXX 09064 67741 NIL=
201402082100 AAXX 08214 67741 NIL=
201402081800 AAXX 08184 67741 NIL=
201402081500 AAXX 08154 67741 NIL=
201402081200 AAXX 08124 67741 NIL=
201402080900 AAXX 08094 67741 NIL=
201402080600 AAXX 08064 67741 NIL=
201402080300 AAXX 08034 67741 NIL=
201402080000 AAXX 08004 67741 NIL=
201402071800 AAXX 07184 67741 NIL=
201402071500 AAXX 07154 67741 NIL=
201402071200 AAXX 07124 67741 NIL=
201402070900 AAXX 07094 67741 NIL=
201402070600 AAXX 07064 67741 NIL=
201402070300 AAXX 07034 67741 NIL=
201402070000 AAXX 07004 67741 NIL=
201402062100 AAXX 06214 67741 NIL=
201402061800 AAXX 06184 67741 NIL=
201402061500 AAXX 06154 67741 NIL=
201402061200 AAXX 06124 67741 NIL=
201402060900 AAXX 06094 67741 NIL=
201402060600 AAXX 06064 67741 NIL=
201402060300 AAXX 06034 67741 NIL=
201402060000 AAXX 06004 67741 NIL=
201402052100 AAXX 05214 67741 NIL=
201402051800 AAXX 05184 67741 NIL=
201402051500 AAXX 05154 67741 NIL=
201402051200 AAXX 05124 67741 NIL=
201402050900 AAXX 05094 67741 NIL=
201402050600 AAXX 05064 67741 NIL=
201402050300 AAXX 05034 67741 NIL=
201402041800 AAXX 04184 67741 NIL=
201402041500 AAXX 04154 67741 NIL=
201402041200 AAXX 04124 67741 NIL=
201402040900 AAXX 04094 67741 NIL=
201402040600 AAXX 04064 67741 NIL=
201402040300 AAXX 04034 67741 NIL=
201402032100 AAXX 03214 67741 NIL=
201402031800 AAXX 03184 67741 NIL=
201402031500 AAXX 03154 67741 NIL=
201402031200 AAXX 03124 67741 NIL=
201402030900 AAXX 03094 67741 NIL=
201402030600 AAXX 03064 67741 NIL=
201402021800 AAXX 02184 67741 NIL=
201402021500 AAXX 02154 67741 NIL=
201402021200 AAXX 02124 67741 NIL=
201402020900 AAXX 02094 67741 NIL=
201402020600 AAXX 02064 67741 NIL=
201402020300 AAXX 02034 67741 NIL=
201402012100 AAXX 01214 67741 NIL=
201402011800 AAXX 01184 67741 NIL=
201402011500 AAXX 01154 67741 NIL=
201402011200 AAXX 01124 67741 NIL=
201402010900 AAXX 01094 67741 NIL=
201402010600 AAXX 01064 67741 NIL=

################################################################################
#  SYNOPS from 67743, Livingstone (Zambia) | 17-49S | 025-49E | 985 m
################################################################################
201403030300 AAXX 03034 67743 NIL=
201403030000 AAXX 03004 67743 NIL=
201403022100 AAXX 02214 67743 NIL=
201403021800 AAXX 02184 67743 NIL=
201403021500 AAXX 02154 67743 42680 70000 10248 20216 48486 8113/
                   333 58011 81830 87360=
201403021200 AAXX 02124 67743 NIL=
201403020900 AAXX 02094 67743 42480 62703 10251 20227 48518 8153/
                   333 58009 81618 86359 91017=
201403020600 AAXX 02064 67743 12480 82702 10211 20206 48510 60074 8457/
                   333 10300 20197 58008 84615 88459
                   555 00/// 91017=
201403020300 AAXX 02034 67743 NIL=
201403020000 AAXX 02004 67743 NIL=
201403012100 AAXX 01214 67743 NIL=
201403011800 AAXX 01184 67743 NIL=
201403011500 AAXX 01154 67743 42580 62009 10290 20195 48494 70222 83831
                   333 58008 82630 81835 82359 85080=
201403011200 AAXX 01124 67743 42580 63606 10275 20194 70222
                   333 59001 83830 81359 85080 91013=
201403010900 AAXX 01094 67743 42580 73106 10264 20194 70222 83832
                   333 59003 83620 81359 86080 91016=
201403010600 AAXX 01064 67743 NIL=
201403010000 AAXX 01004 67743 NIL=
201402282100 AAXX 28214 67743 NIL=
201402281800 AAXX 28184 67743 NIL=
201402281500 AAXX 28154 67743 NIL=
201402281200 AAXX 28124 67743 42680 50406 10305 20196 48498 84231
                   333 59008 84835 82360 82080 91013=
201402280900 AAXX 28094 67743 NIL=
201402280600 AAXX 28064 67743 31480 73603 10210 20195 48516 60094 8527/
                   333 10292 20185 59002 85815 87460
                   555 91017=
201402280300 AAXX 28034 67743 NIL=
201402280000 AAXX 28004 67743 NIL=
201402272100 AAXX 27214 67743 NIL=
201402271800 AAXX 27184 67743 NIL=
201402271500 AAXX 27154 67743 42680 50000 10231 20216 48484 82231
                   333 59001 82335 82359 81080=
201402271200 AAXX 27124 67743 41670 71507 10285 20206 48504 72922 81370
                   333 59002 81935 85835 82360 91014=
201402270900 AAXX 27094 67743 42580 50807 10268 20203 48524 83330
                   333 58004 83725 81360 91017=
201402270600 AAXX 27064 67743 12480 41010 10224 20212 48537 60014 82600
                   333 10275 20202 58010 82610 82810
                   555 00/// 91017=
201402262100 AAXX 26214 67743 NIL=
201402261500 AAXX 26154 67743 41475 62807 10243 20217 48488 71722 82932
                   333 59016 81930 82625 83360 86080=
201402261200 AAXX 26124 67743 41580 61105 10262 20213 48501 71722 82331
                   333 58007 81935 82835 84360 85080 91014=
201402260900 AAXX 26094 67743 NIL=
201402260600 AAXX 26064 67743 12980 50501 10230 20201 48512 60074 81081
                   333 10300 20195 59006 81359 84080
                   555 00/// 91016=
201402260300 AAXX 26034 67743 NIL=
201402252100 AAXX 25214 67743 NIL=
201402251500 AAXX 25154 67743 42680 20103 10293 20200 48481 81131
                   333 58002 81830 81360 81080=
201402251200 AAXX 25124 67743 42480 63403 10206 20197 48493 72995 81970
                   333 58008 81915 83815 85458
                   555 91015=
201402250900 AAXX 25094 67743 42580 70805 10250 20206 48530 84270
                   333 58000 84830 86458=
201402250600 AAXX 25064 67743 31470 80915 10211 48524 76222 8557/
                   333 10313 20205 59002 85610 88458
                   555 00/// 91017=
201402250300 AAXX 25034 67743 NIL=
201402242100 AAXX 24214 67743 NIL=
201402241800 AAXX 24184 67743 NIL=
201402241500 AAXX 24154 67743 42780 31109 10294 20198 48479 70100 81281
                   333 59021 81858 83360 81080=
201402241200 AAXX 24124 67743 42680 61109 10292 20206 48500 70322 85201
                   333 59017 85835 82080 91014=
201402240900 AAXX 24094 67743 42480 40909 10263 20208 42522 70122 84801
                   333 59013 84820 82086 91017=
201402240600 AAXX 24064 67743 32380 71107 10217 20204 48576 60104 70321 8655/
                   333 10287 20200 59009 86606 83359
                   555 91017=
201402240300 AAXX 24034 67743 NIL=
201402240000 AAXX 24004 67743 NIL=
201402232100 AAXX 23214 67743 NIL=
201402231500 AAXX 23154 67743 42580 41506 10266 20207 48496 82832
                   333 59003 81625 81830 81359 83080=
201402231200 AAXX 23124 67743 42580 60805 10272 20204 48514 82832
                   333 58000 81625 82830 84359 82080 91016=
201402230900 AAXX 23094 67743 NIL=
201402230600 AAXX 23064 67743 NIL=
201402230300 AAXX 23034 67743 NIL=
201402221800 AAXX 22184 67743 NIL=
201402221500 AAXX 22154 67743 42680 41114 10286 20196 48501 82230
                   333 58015 82840 82360=
201402221200 AAXX 22124 67743 42680 60810 10289 20194 48517 84230
                   333 58014 84840 82360
                   555 91016=
201402220900 AAXX 22094 67743 NIL=
201402220600 AAXX 22064 67743 NIL=
201402211500 AAXX 21154 67743 42880 31011 10320 20136 48493 70100 81061
                   333 58014 81358 82080=
201402211200 AAXX 21124 67743 42780 41107 10325 20173 48510 70300 84101
                   333 58013 84850 81080 91014=
201402210900 AAXX 21094 67743 42680 32804 10291 20206 48525 70300 81101
                   333 58015 81835 83080 91017=
201402210600 AAXX 21064 67743 32980 33404 10223 20190 48503 70200 80001
                   333 10338 20175 58006 83080
                   555 00/// 91016=
201402202100 AAXX 20214 67743 NIL=
201402201500 AAXX 20154 67743 42780 20702 10325 20158 48502 81201
                   333 59006 81850 81080=
201402201200 AAXX 20124 67743 42680 32706 10316 20182 48494 83201
                   333 59009 83840 82080 91013=
201402200900 AAXX 20094 67743 42680 20803 10290 20195 48510 81101
                   333 59015 81840 82080 91015=
201402200600 AAXX 20064 67743 32980 23202 10220 20190 48499 80001
                   333 10330 20160 59018 82080
                   555 91015=
201402200300 AAXX 20034 67743 NIL=
201402192100 AAXX 19214 67743 NIL=
201402191800 AAXX 19184 67743 NIL=
201402191200 AAXX 19124 67743 42780 41505 10316 20180 48503 84100
                   333 59020 84850 555 91014=
201402190900 AAXX 19094 67743 42680 51504 10285 20206 48523 85101
                   333 59021 85830 81080=
201402190600 AAXX 19064 67743 32680 31802 10230 20193 48510 81531
                   333 10360 20185 59017 81630 82080 91017=
201402190300 AAXX 19034 67743 NIL=
201402190000 AAXX 19004 67743 NIL=
201402181500 AAXX 18154 67743 42780 51108 10300 20182 48546 84231
                   333 50004 84856 82360 82080=
201402181200 AAXX 18124 67743 42780 61806 10295 20201 48519 85231
                   333 58006 85856 83360 82080
                   555 91016=
201402180900 AAXX 18094 67743 NIL=
201402180600 AAXX 18064 67743 32480 61206 10215 20194 48531 85530
                   333 10355 20192 58011 85515 85360
                   555 91019=
201402180300 AAXX 18034 67743 NIL=
201402180000 AAXX 18004 67743 NIL=
201402172100 AAXX 17214 67743 NIL=
201402171500 AAXX 17154 67743 42580 31004 10289 20187 48500 70200 83800
                   333 58004 82630 81935=
201402171200 AAXX 17124 67743 42680 51004 10296 20192 48515 70200 85200
                   333 58001 85830 91015=
201402170900 AAXX 17094 67743 NIL=
201402170600 AAXX 17064 67743 32980 11107 10215 20185 48520 80001
                   333 10300 20175 58007 81080
                   555 00/// 91018=
201402161800 AAXX 16184 67743 NIL=
201402161500 AAXX 16154 67743 NIL=
201402161200 AAXX 16124 67743 42680 61208 10280 20192 48511 85230
                   333 59007 85840 91015=
201402160900 AAXX 16094 67743 42680 50907 10260 20180 48525 83130
                   333 59005 83830 82360=
201402160600 AAXX 16064 67743 42980 10907 10217 20169 48514 80012
                   333 10288 20179 81080
                   555 91017=
201402160300 AAXX 16034 67743 NIL=
201402152100 AAXX 15214 67743 NIL=
201402151800 AAXX 15184 67743 NIL=
201402151500 AAXX 15154 67743 42680 61010 10280 20166 48499 83231
                   333 58014 83840 84358 81080=
201402151200 AAXX 15124 67743 42680 70908 10260 20194 48514 83251
                   333 58013 83830 85358 81080 91016=
201402150900 AAXX 15094 67743 42680 61009 10260 20194 48530 82351
                   333 58013 83830 84358 81080 91018=
201402150600 AAXX 15064 67743 32980 11015 10225 20172 48517 81031
                   333 10335 20205 58009 81360 81080
                   555 00/// 91017=
201402150300 AAXX 15034 67743 NIL=
201402142100 AAXX 14214 67743 NIL=
201402141200 AAXX 14124 67743 42580 41505 10305 20221 48508 70222 84200
                   333 58013 84835 91014=
201402141013 AAXX 14104 67743 42580 31506 10300 20202 48489 20200 10335 91013=
201402140900 AAXX 14094 67743 42480 51005 10266 20207 48518 85200
                   333 58012 85820 91016=
201402140600 AAXX 14064 67743 32480 50905 10220 20213 48508 84531
                   333 10305 20190 58009 84618 81359 81080 91016=
201402140300 AAXX 14034 67743 NIL=
201402132100 AAXX 13214 67743 NIL=
201402131500 AAXX 13154 67743 42680 51006 20208 48481 85230
                   333 58004 85830 84360=
201402131200 AAXX 13124 67743 42680 60906 10290 20214 48492 70222 86200
                   333 58008 86835 91013=
201402130900 AAXX 13094 67743 42580 70906 10270 20213 48508 85230
                   333 59007 85825 86360=
201402130600 AAXX 13064 67743 32480 80907 10220 20212 48499 8567/
                   333 10291 20198 59001 85610 88460
                   555 91015=
201402130300 AAXX 13034 67743 NIL=
201402130000 AAXX 13004 67743 NIL=
201402121800 AAXX 12184 67743 NIL=
201402121500 AAXX 12154 67743 41670 62707 10250 20199 48472 71722 81362
                   333 59008 81930 82830 83080=
201402121200 AAXX 12124 67743 42680 60909 10285 20214 48484 84232
                   333 59015 84830 81360 82080 91012=
201402120900 AAXX 12094 67743 42580 81005 10242 20208 48499 85531
                   333 59009 84620 87360 91015=
201402120600 AAXX 12064 67743 34480 70905 1//// 20206 48497
                   333 10266 20201 59006 82610 85359
                   555 91015=
201402120000 AAXX 12004 67743 NIL=
201402112100 AAXX 11214 67743 NIL=
201402111800 AAXX 11184 67743 NIL=
201402111200 AAXX 11124 67743 42580 53508 10253 20197 48494 82531
                   333 58012 82720 82825 82359 81070 91014=
201402110900 AAXX 11094 67743 42580 70805 10256 20211 48513 70222 85831
                   333 58008 85825 82359 81070 91016=
201402110600 AAXX 11064 67743 11480 80906 10217 20204 48526 60014 72052 886//
                   333 10256 20202 58035 88715
                   555 91016=
201402102100 AAXX 10214 67743 NIL=
201402101800 AAXX 10184 67743 NIL=
201402101500 AAXX 10154 67743 42580 60906 10250 20214 48470 81130
                   333 58025 81830 85359=
201402101200 AAXX 10124 67743 42580 70905 10250 20214 48582 84230
                   333 58025 84830 86358
                   555 91013=
201402100900 AAXX 10094 67743 NIL=
201402100600 AAXX 10064 67743 11480 80907 10200 20200 48491 60084 78022 8557/
                   333 10305 20190 59024 85610 88458
                   555 91014=
201402092100 AAXX 09214 67743 NIL=
201402091800 AAXX 09184 67743 NIL=
201402091500 AAXX 09154 67743 42680 50903 10300 20198 48454 81261
                   333 58001 81840 81360 84080=
201402091200 AAXX 09124 67743 42680 60506 10290 20212 48464 82238
                   333 58000 82835 81360 86279 91010=
201402090900 AAXX 09094 67743 42980 61002 10261 20204 48471 86030
                   333 59010 86359 91012=
201402090600 AAXX 09064 67743 32980 53604 10224 20194 48470 85030
                   333 10310 20195 59007 85359
                   555 91012=
201402082100 AAXX 08214 67743 NIL=
201402081800 AAXX 08184 67743 NIL=
201402081500 AAXX 08154 67743 42580 73508 10285 20189 48451 70322 82431
                   333 59016 82730 81359 86079=
201402081200 AAXX 08124 67743 42580 73005 10276 20202 48463 70222 85231
                   333 59013 83830 84359 81079 91010=
201402080900 AAXX 08094 67743 42580 73505 10255 20204 48481 85230
                   333 59006 85825 83359 91013=
201402080600 AAXX 08064 67743 12480 73505 10210 20203 48477 69934 8153/
                   333 10284 20195 59004 81618 87358
                   555 91013=
201402080300 AAXX 08034 67743 NIL=
201402080000 AAXX 08004 67743 NIL=
201402071800 AAXX 07184 67743 NIL=
201402071500 AAXX 07154 67743 42680 73003 10279 20208 48466 8117/
                   333 58024 81835 87458=
201402071200 AAXX 07124 67743 NIL=
201402070900 AAXX 07094 67743 NIL=
201402070600 AAXX 07064 67743 NIL=
201402070300 AAXX 07034 67743 NIL=
201402070000 AAXX 07004 67743 NIL=
201402062100 AAXX 06214 67743 NIL=
201402061800 AAXX 06184 67743 NIL=
201402061500 AAXX 06154 67743 NIL=
201402061200 AAXX 06124 67743 42680 53204 10304 20212 48466 84131
                   333 59008 84835 82360 82080 91010=
201402060900 AAXX 06094 67743 42680 43004 10279 20210 48478 81131
                   333 59002 81830 82360 82080 91012=
201402060600 AAXX 06064 67743 12480 60000 10220 20205 48469 60204 81530
                   333 10280 20193 59008 81615 86359
                   555 91012=
201402060300 AAXX 06034 67743 NIL=
201402060000 AAXX 06004 67743 NIL=
201402052100 AAXX 05214 67743 NIL=
201402051800 AAXX 05184 67743 NIL=
201402051500 AAXX 05154 67743 41480 73501 10210 20204 48453 72999 81268
                   333 59005 81830 81359 86279=
201402051200 AAXX 05124 67743 NIL=
201402050900 AAXX 05094 67743 NIL=
201402050600 AAXX 05064 67743 12480 72702 10208 20202 48477 70222 82671
                   333 10281 20195 59020 82710 87359 91013=
201402050300 AAXX 05034 67743 NIL=
201402041800 AAXX 04184 67743 NIL=
201402041500 AAXX 04154 67743 42680 61104 10254 20220 48464 81130
                   333 59000 81830 85360=
201402041200 AAXX 04124 67743 42580 62705 10260 20216 48481 83130
                   333 59004 83820 84360
                   555 91012=
201402040900 AAXX 04094 67743 42680 73608 10270 20196 48498 86230
                   333 59008 86830 85360=
201402040600 AAXX 04064 67743 12980 83601 10220 20206 48498 60144 8807/
                   333 10295 20200 88458
                   555 00/// 91015=
201402040300 AAXX 04034 67743 NIL=
201402032100 AAXX 03214 67743 NIL=
201402031800 AAXX 03184 67743 NIL=
201402031500 AAXX 03154 67743 42680 62706 10250 20208 48463 81237
                   333 58003 81835 82360 84280=
201402031200 AAXX 03124 67743 NIL=
201402030900 AAXX 03094 67743 41570 80904 10233 20222 48498 76022 8453/
                   333 58004 84620 87360 91015=
201402030600 AAXX 03064 67743 32480 80000 10234 20206 48490 8258/
                   333 10320 20214 59004 88359
                   555 91014=
201402021800 AAXX 02184 67743 NIL=
201402021500 AAXX 02154 67743 42580 73005 10301 20223 48470 72922 82331
                   333 59020 81935 82835 82360 86080=
201402021200 AAXX 02124 67743 71602 10296 20209 48483 70322 82201
                   333 59019 82835 86080 91012=
201402020900 AAXX 02094 67743 42580 60901 10260 20202 48499 81138
                   333 59007 81820 85359 83279 91014=
201402020600 AAXX 02064 67743 12980 70902 10220 20198 48494 60244 8702/
                   333 10293 87359 555 91014=
201402020300 AAXX 02034 67743 NIL=
201402012100 AAXX 01214 67743 NIL=
201402011800 AAXX 01184 67743 NIL=
201402011500 AAXX 01154 67743 NIL=
201402011200 AAXX 01124 67743 NIL=
201402010900 AAXX 01094 67743 NIL=
201402010600 AAXX 01064 67743 12980 83602 10225 20214 48501 69004 8807/
                   333 10295 20205 59008 88458
                   555 91015=

################################################################################
#  SYNOPS from 67751, Magoye (Zambia) | 16-00S | 027-36E | 1018 m
################################################################################
201403030300 AAXX 03034 67751 NIL=
201403030000 AAXX 03004 67751 NIL=
201403022100 AAXX 02214 67751 NIL=
201403021800 AAXX 02184 67751 NIL=
201403021500 AAXX 02154 67751 NIL=
201403021200 AAXX 02124 67751 NIL=
201403020900 AAXX 02094 67751 NIL=
201403020600 AAXX 02064 67751 NIL=
201403020300 AAXX 02034 67751 NIL=
201403020000 AAXX 02004 67751 NIL=
201403012100 AAXX 01214 67751 NIL=
201403011800 AAXX 01184 67751 NIL=
201403011500 AAXX 01154 67751 NIL=
201403011200 AAXX 01121 67751 NIL=
201403010900 AAXX 01094 67751 NIL=
201403010600 AAXX 01064 67751 NIL=
201403010000 AAXX 01004 67751 NIL=
201402282100 AAXX 28214 67751 NIL=
201402281800 AAXX 28184 67751 NIL=
201402281500 AAXX 28154 67751 NIL=
201402281200 AAXX 28124 67751 NIL=
201402280900 AAXX 28094 67751 NIL=
201402280600 AAXX 28064 67751 NIL=
201402280300 AAXX 28034 67751 NIL=
201402280000 AAXX 28004 67751 NIL=
201402272100 AAXX 27214 67751 NIL=
201402271800 AAXX 27184 67751 NIL=
201402271500 AAXX 27154 67751 NIL=
201402271200 AAXX 27124 67751 NIL=
201402270900 AAXX 27094 67751 NIL=
201402270600 AAXX 27064 67751 NIL=
201402262100 AAXX 26214 67751 NIL=
201402261500 AAXX 26154 67751 NIL=
201402261200 AAXX 26124 67751 NIL=
201402260900 AAXX 26094 67751 NIL=
201402260300 AAXX 26034 67751 NIL=
201402252100 AAXX 25214 67751 NIL=
201402251500 AAXX 25154 67751 NIL=
201402251200 AAXX 25124 67751 NIL=
201402250900 AAXX 25094 67751 NIL=
201402250600 AAXX 25064 67751 NIL=
201402250300 AAXX 25034 67751 NIL=
201402242100 AAXX 24214 67751 NIL=
201402241800 AAXX 24184 67751 NIL=
201402241500 AAXX 24154 67751 NIL=
201402241200 AAXX 24124 67751 NIL=
201402240900 AAXX 24094 67751 NIL=
201402240600 AAXX 24064 67751 NIL=
201402240300 AAXX 24034 67751 NIL=
201402240000 AAXX 24004 67751 NIL=
201402232100 AAXX 23214 67751 NIL=
201402231500 AAXX 23154 67751 NIL=
201402230900 AAXX 23094 67751 NIL=
201402230600 AAXX 23064 67751 NIL=
201402230300 AAXX 23034 67751 NIL=
201402221800 AAXX 22184 67751 NIL=
201402221500 AAXX 22154 67751 NIL=
201402220900 AAXX 22094 67751 NIL=
201402220600 AAXX 22064 67751 NIL=
201402211500 AAXX 21154 67751 NIL=
201402211200 AAXX 21124 67751 NIL=
201402210900 AAXX 21094 67751 NIL=
201402210600 AAXX 21064 67751 NIL=
201402202100 AAXX 20214 67751 NIL=
201402201200 AAXX 20124 67751 NIL=
201402200900 AAXX 20094 67751 NIL=
201402200600 AAXX 20064 67751 NIL=
201402200300 AAXX 20034 67751 NIL=
201402192100 AAXX 19214 67751 NIL=
201402191800 AAXX 19184 67751 NIL=
201402191200 AAXX 19124 67751 NIL=
201402190900 AAXX 19094 67751 NIL=
201402190600 AAXX 19064 67751 NIL=
201402190300 AAXX 19034 67751 NIL=
201402190000 AAXX 19004 67751 NIL=
201402181500 AAXX 18154 67751 NIL=
201402181200 AAXX 18124 67751 NIL=
201402180900 AAXX 18094 67751 NIL=
201402180600 AAXX 18064 67751 NIL=
201402180300 AAXX 18034 67751 NIL=
201402180000 AAXX 18004 67751 NIL=
201402172100 AAXX 17214 67751 NIL=
201402171500 AAXX 17154 67751 NIL=
201402171200 AAXX 17124 67751 NIL=
201402170900 AAXX 17094 67751 NIL=
201402170600 AAXX 17064 67751 NIL=
201402161800 AAXX 16184 67751 NIL=
201402161500 AAXX 16154 67751 NIL=
201402161200 AAXX 16124 67751 NIL=
201402160900 AAXX 16094 67751 NIL=
201402160600 AAXX 16064 67751 NIL=
201402160300 AAXX 16034 67751 NIL=
201402152100 AAXX 15214 67751 NIL=
201402151800 AAXX 15184 67751 NIL=
201402151500 AAXX 15154 67751 NIL=
201402151200 AAXX 15124 67751 NIL=
201402150900 AAXX 15094 67751 NIL=
201402150600 AAXX 15064 67751 NIL=
201402150300 AAXX 15034 67751 NIL=
201402142100 AAXX 14214 67751 NIL=
201402141200 AAXX 14124 67751 NIL=
201402140900 AAXX 14094 67751 NIL=
201402140600 AAXX 14064 67751 NIL=
201402140300 AAXX 14034 67751 NIL=
201402132100 AAXX 13214 67751 NIL=
201402131200 AAXX 13124 67751 NIL=
201402130900 AAXX 13094 67751 NIL=
201402130600 AAXX 13064 67751 NIL=
201402130300 AAXX 13034 67751 NIL=
201402130000 AAXX 13004 67751 NIL=
201402121800 AAXX 12184 67751 NIL=
201402121500 AAXX 12154 67751 NIL=
201402121200 AAXX 12124 67751 NIL=
201402120900 AAXX 12094 67751 NIL=
201402120600 AAXX 12064 67751 NIL=
201402120000 AAXX 12004 67751 NIL=
201402112100 AAXX 11214 67751 NIL=
201402111800 AAXX 11184 67751 NIL=
201402111200 AAXX 11124 67751 NIL=
201402110900 AAXX 11094 67751 NIL=
201402110600 AAXX 11064 67751 NIL=
201402102100 AAXX 10214 67751 NIL=
201402101800 AAXX 10184 67751 NIL=
201402101500 AAXX 10154 67751 NIL=
201402101200 AAXX 10124 67751 NIL=
201402100900 AAXX 10094 67751 NIL=
201402100600 AAXX 10064 67751 NIL=
201402092100 AAXX 09214 67751 NIL=
201402091800 AAXX 09184 67751 NIL=
201402091500 AAXX 09154 67751 NIL=
201402091200 AAXX 09124 67751 NIL=
201402090900 AAXX 09094 67751 NIL=
201402090600 AAXX 09064 67751 NIL=
201402082100 AAXX 08214 67751 NIL=
201402081800 AAXX 08184 67751 NIL=
201402081500 AAXX 08154 67751 NIL=
201402081200 AAXX 08124 67751 NIL=
201402080900 AAXX 08094 67751 NIL=
201402080600 AAXX 08064 67751 NIL=
201402080300 AAXX 08034 67751 NIL=
201402080000 AAXX 08004 67751 NIL=
201402071800 AAXX 07184 67751 NIL=
201402071500 AAXX 07154 67751 NIL=
201402071200 AAXX 07124 67751 NIL=
201402070900 AAXX 07094 67751 NIL=
201402070600 AAXX 07064 67751 NIL=
201402070300 AAXX 07034 67751 NIL=
201402070000 AAXX 07004 67751 NIL=
201402062100 AAXX 06214 67751 NIL=
201402061800 AAXX 06184 67751 NIL=
201402061500 AAXX 06154 67751 NIL=
201402061200 AAXX 06124 67751 NIL=
201402060900 AAXX 06094 67751 NIL=
201402060600 AAXX 06064 67751 NIL=
201402060300 AAXX 06034 67751 NIL=
201402060000 AAXX 06004 67751 NIL=
201402052100 AAXX 05214 67751 NIL=
201402051800 AAXX 05184 67751 NIL=
201402051500 AAXX 05154 67751 NIL=
201402051200 AAXX 05124 67751 NIL=
201402050900 AAXX 05094 67751 NIL=
201402050600 AAXX 05064 67751 NIL=
201402050300 AAXX 05034 67751 NIL=
201402041800 AAXX 04184 67751 NIL=
201402041500 AAXX 04154 67751 NIL=
201402041200 AAXX 04124 67751 NIL=
201402040900 AAXX 04094 67751 NIL=
201402040600 AAXX 04064 67751 NIL=
201402040300 AAXX 04034 67751 NIL=
201402032100 AAXX 03214 67751 NIL=
201402031800 AAXX 03184 67751 NIL=
201402031500 AAXX 03154 67751 NIL=
201402031200 AAXX 03124 67751 NIL=
201402030900 AAXX 03094 67751 NIL=
201402030600 AAXX 03064 67751 NIL=
201402021800 AAXX 02184 67751 NIL=
201402021500 AAXX 02154 67751 NIL=
201402021200 AAXX 02124 67751 NIL=
201402020900 AAXX 02094 67751 NIL=
201402020600 AAXX 02064 67751 NIL=
201402020300 AAXX 02034 67751 NIL=
201402012100 AAXX 01214 67751 NIL=
201402011800 AAXX 01184 67751 NIL=
201402011500 AAXX 01154 67751 NIL=
201402011200 AAXX 01124 67751 NIL=
201402010900 AAXX 01094 67751 NIL=
201402010600 AAXX 01064 67751 NIL=

################################################################################
#  SYNOPS from 67753, Choma (Zambia) | 16-50S | 027-04E | 1213 m
################################################################################
201403030300 AAXX 03034 67753 NIL=
201403030000 AAXX 03004 67753 NIL=
201403022100 AAXX 02214 67753 NIL=
201403021800 AAXX 02184 67753 NIL=
201403021500 AAXX 02154 67753 NIL=
201403021200 AAXX 02124 67753 NIL=
201403020900 AAXX 02094 67753 NIL=
201403020600 AAXX 02064 67753 NIL=
201403020300 AAXX 02034 67753 NIL=
201403020000 AAXX 02004 67753 NIL=
201403012100 AAXX 01214 67753 NIL=
201403011800 AAXX 01184 67753 NIL=
201403011500 AAXX 01154 67753 NIL=
201403011200 AAXX 01121 67753 NIL=
201403010900 AAXX 01094 67753 NIL=
201403010600 AAXX 01064 67753 NIL=
201403010000 AAXX 01004 67753 NIL=
201402282100 AAXX 28214 67753 NIL=
201402281800 AAXX 28184 67753 NIL=
201402281500 AAXX 28154 67753 NIL=
201402281200 AAXX 28124 67753 NIL=
201402280900 AAXX 28094 67753 NIL=
201402280600 AAXX 28064 67753 12560 60903 10192 20192 48/// 69924 8287/
                   333 10272 20169 59023 81620 81825 84360=
201402280300 AAXX 28034 67753 NIL=
201402280000 AAXX 28004 67753 NIL=
201402272100 AAXX 27214 67753 NIL=
201402271800 AAXX 27184 67753 NIL=
201402271500 AAXX 27154 67753 NIL=
201402271200 AAXX 27124 67753 NIL=
201402270900 AAXX 27094 67753 NIL=
201402270600 AAXX 27064 67753 12560 63004 10189 20183 48/// 60164 83831
                   333 10272 20178 58074 82620 81825 82360 81080=
201402262100 AAXX 26214 67753 NIL=
201402261500 AAXX 26154 67753 NIL=
201402261200 AAXX 26124 67753 NIL=
201402260900 AAXX 26094 67753 NIL=
201402260600 AAXX 26064 67753 31560 80204 10201 20196 48/// 71722 8587/
                   333 10279 20170 5//// 85620 81825 83360=
201402260300 AAXX 26034 67753 NIL=
201402252100 AAXX 25214 67753 NIL=
201402251500 AAXX 25154 67753 NIL=
201402251200 AAXX 25124 67753 NIL=
201402250900 AAXX 25094 67753 NIL=
201402250600 AAXX 25064 67753 NIL=
201402250300 AAXX 25034 67753 NIL=
201402242100 AAXX 24214 67753 NIL=
201402241800 AAXX 24184 67753 NIL=
201402241500 AAXX 24154 67753 NIL=
201402241200 AAXX 24124 67753 NIL=
201402240900 AAXX 24094 67753 NIL=
201402240600 AAXX 24064 67753 32560 80709 10201 20186 48/// 8553/
                   333 10265 20180 5//// 85620 83360=
201402240300 AAXX 24034 67753 NIL=
201402240000 AAXX 24004 67753 NIL=
201402232100 AAXX 23214 67753 NIL=
201402231500 AAXX 23154 67753 NIL=
201402230900 AAXX 23094 67753 NIL=
201402230600 AAXX 23064 67753 NIL=
201402230300 AAXX 23034 67753 NIL=
201402221800 AAXX 22184 67753 NIL=
201402221500 AAXX 22154 67753 NIL=
201402220900 AAXX 22094 67753 NIL=
201402220600 AAXX 22064 67753 NIL=
201402211500 AAXX 21154 67753 NIL=
201402211200 AAXX 21124 67753 NIL=
201402210900 AAXX 21094 67753 NIL=
201402210600 AAXX 21064 67753 31560 83508 10193 20191 48/// 74122 84807
                   333 10301 20176 5//// 83620 81825 84280=
201402202100 AAXX 20214 67753 NIL=
201402201200 AAXX 20124 67753 NIL=
201402200900 AAXX 20094 67753 NIL=
201402200600 AAXX 20064 67753 32560 23305 10215 20201 48/// 81101
                   333 10295 20152 59142 81825 81080=
201402200300 AAXX 20034 67753 NIL=
201402192100 AAXX 19214 67753 NIL=
201402191800 AAXX 19184 67753 NIL=
201402191200 AAXX 19124 67753 NIL=
201402190900 AAXX 19094 67753 NIL=
201402190600 AAXX 19064 67753 11560 40908 10196 20192 48/// 60034 74040 84500
                   333 10259 20159 5//// 84620
                   555 00///=
201402190300 AAXX 19034 67753 NIL=
201402190000 AAXX 19004 67753 NIL=
201402181500 AAXX 18154 67753 NIL=
201402181200 AAXX 18124 67753 NIL=
201402180900 AAXX 18094 67753 NIL=
201402180600 AAXX 18064 67753 32560 70304 10200 20186 48/// 8453/
                   333 10275 20178 58093 83620 81825 83360=
201402180300 AAXX 18034 67753 NIL=
201402180000 AAXX 18004 67753 NIL=
201402172100 AAXX 17214 67753 NIL=
201402171500 AAXX 17154 67753 NIL=
201402171200 AAXX 17124 67753 NIL=
201402170900 AAXX 17094 67753 NIL=
201402170600 AAXX 17064 67753 32560 30911 10205 20184 48/// 83800
                   333 10260 20260 555 10260 20152 58068 82620
                   81825=
201402161800 AAXX 16184 67753 NIL=
201402161500 AAXX 16154 67753 NIL=
201402161200 AAXX 16124 67753 NIL=
201402160900 AAXX 16094 67753 NIL=
201402160600 AAXX 16064 67753 NIL=
201402160300 AAXX 16034 67753 NIL=
201402152100 AAXX 15214 67753 NIL=
201402151800 AAXX 15184 67753 NIL=
201402151500 AAXX 15154 67753 NIL=
201402151200 AAXX 15124 67753 NIL=
201402150900 AAXX 15094 67753 NIL=
201402150600 AAXX 15064 67753 NIL=
201402150300 AAXX 15034 67753 NIL=
201402142100 AAXX 14214 67753 NIL=
201402141200 AAXX 14124 67753 NIL=
201402140900 AAXX 14094 67753 NIL=
201402140600 AAXX 14064 67753 NIL=
201402140300 AAXX 14034 67753 NIL=
201402132100 AAXX 13214 67753 NIL=
201402131200 AAXX 13124 67753 NIL=
201402130900 AAXX 13094 67753 NIL=
201402130600 AAXX 13064 67753 12550 73603 10195 20186 48/// 69964 74142 8453/
                   333 10279 20170 5//// 83620 81825 83360=
201402130300 AAXX 13034 67753 NIL=
201402130000 AAXX 13004 67753 NIL=
201402121800 AAXX 12184 67753 NIL=
201402121500 AAXX 12154 67753 NIL=
201402121200 AAXX 12124 67753 NIL=
201402120900 AAXX 12094 67753 NIL=
201402120600 AAXX 12064 67753 12560 61007 10214 20192 48/// 60034 84832
                   333 10256 20165 5//// 83620 81825 81360 81080
                   555 00///=
201402120000 AAXX 12004 67753 NIL=
201402112100 AAXX 11214 67753 NIL=
201402111800 AAXX 11184 67753 NIL=
201402111200 AAXX 11124 67753 NIL=
201402110900 AAXX 11094 67753 NIL=
201402110600 AAXX 11064 67753 12560 70608 10210 20197 48/// 60144 8453/
                   333 10264 20180 5//// 84620 83360=
201402102100 AAXX 10214 67753 NIL=
201402101800 AAXX 10184 67753 NIL=
201402101500 AAXX 10154 67753 NIL=
201402101200 AAXX 10124 67753 NIL=
201402100900 AAXX 10094 67753 NIL=
201402100600 AAXX 10064 67753 NIL=
201402092100 AAXX 09214 67753 NIL=
201402091800 AAXX 09184 67753 NIL=
201402091500 AAXX 09154 67753 NIL=
201402091200 AAXX 09124 67753 NIL=
201402090900 AAXX 09094 67753 NIL=
201402090600 AAXX 09064 67753 NIL=
201402082100 AAXX 08214 67753 NIL=
201402081800 AAXX 08184 67753 NIL=
201402081500 AAXX 08154 67753 NIL=
201402081200 AAXX 08124 67753 NIL=
201402080900 AAXX 08094 67753 NIL=
201402080600 AAXX 08064 67753 NIL=
201402080300 AAXX 08034 67753 NIL=
201402080000 AAXX 08004 67753 NIL=
201402071800 AAXX 07184 67753 NIL=
201402071500 AAXX 07154 67753 NIL=
201402071200 AAXX 07124 67753 NIL=
201402070900 AAXX 07094 67753 NIL=
201402070600 AAXX 07064 67753 12560 82808 10214 20188 48/// 60014 8157/
                   333 10279 20195 5//// 81620 87360=
201402070300 AAXX 07034 67753 NIL=
201402070000 AAXX 07004 67753 NIL=
201402062100 AAXX 06214 67753 NIL=
201402061800 AAXX 06184 67753 NIL=
201402061500 AAXX 06154 67753 NIL=
201402061200 AAXX 06124 67753 NIL=
201402060900 AAXX 06094 67753 NIL=
201402060600 AAXX 06064 67753 31550 61111 10196 20189 48/// 74142 8353/
                   333 10280 20170 5//// 83622 83360=
201402060300 AAXX 06034 67753 NIL=
201402060000 AAXX 06004 67753 NIL=
201402052100 AAXX 05214 67753 NIL=
201402051800 AAXX 05184 67753 NIL=
201402051500 AAXX 05154 67753 NIL=
201402051200 AAXX 05124 67753 NIL=
201402050900 AAXX 05094 67753 NIL=
201402050600 AAXX 05064 67753 12360 83507 10194 20191 48/// 60034 83607
                   333 10260 20181 5//// 83709 85280=
201402050300 AAXX 05034 67753 NIL=
201402041800 AAXX 04184 67753 NIL=
201402041500 AAXX 04154 67753 NIL=
201402041200 AAXX 04124 67753 NIL=
201402040900 AAXX 04094 67753 NIL=
201402040600 AAXX 04064 67753 12360 73510 10200 20189 48/// 69964 8363/
                   333 10281 20185 5//// 83709 84360=
201402040300 AAXX 04034 67753 NIL=
201402032100 AAXX 03214 67753 NIL=
201402031800 AAXX 03184 67753 NIL=
201402031500 AAXX 03154 67753 NIL=
201402031200 AAXX 03124 67753 NIL=
201402030900 AAXX 03094 67753 NIL=
201402030600 AAXX 03064 67753 32360 53408 10206 20201 48/// 81632
                   333 10280 20184 5//// 81709 83360 81080=
201402021800 AAXX 02184 67753 NIL=
201402021500 AAXX 02154 67753 NIL=
201402021200 AAXX 02124 67753 NIL=
201402020900 AAXX 02094 67753 NIL=
201402020600 AAXX 02064 67753 NIL=
201402020300 AAXX 02034 67753 NIL=
201402012100 AAXX 01214 67753 NIL=
201402011800 AAXX 01184 67753 NIL=
201402011500 AAXX 01154 67753 NIL=
201402011200 AAXX 01124 67753 NIL=
201402010900 AAXX 01094 67753 NIL=
201402010600 AAXX 01064 67753 NIL=

################################################################################
#  SYNOPS from 67855, Lupaki (Zambia) | 17-03-00S | 024-46-00E | 1000 m
################################################################################
201403021800 AAXX 02184 67855 NIL=
201403021200 AAXX 02124 67855 NIL=
201403020600 AAXX 02064 67855 12975 70000 10210 20203 3//// 48/// 69904 8707/
                   333 20203 5//// 87459=
201403011800 AAXX 01184 67855 NIL=
201403011200 AAXX 01124 67855 41670 73102 10254 20214 3//// 48/// 71798 84273
                   333 5//// 81925 83830 87459=
201403010600 AAXX 01064 67855 12675 63602 10224 20210 3//// 48/// 69904 84532
                   333 20202 5//// 84630 86080=
201402281800 AAXX 28184 67855 NIL=
201402281200 AAXX 28124 67855 41670 53603 10288 20206 38/// 48/// 71798 85233
                   333 5//// 81925 84830=
201402280600 AAXX 28064 67855 32975 70602 10210 20183 3//// 48/// 8703/
                   333 20196 5//// 87360=
201402271200 AAXX 27124 67855 NIL=
201402270600 AAXX 27064 67855 12375 71803 10212 20202 38/// 48/// 60104 8168/
                   333 20193 5//// 81707 87360=
201402261800 AAXX 26184 67855 NIL=
201402261200 AAXX 26124 67855 41670 73301 10210 20198 38/// 48/// 71798 84263
                   333 5//// 81925 83830 87080=
201402260600 AAXX 26064 67855 12375 40604 10228 20199 38/// 48/// 69904 70282 84601
                   333 20198 5//// 84707=
201402251200 AAXX 25124 67855 42775 40304 10310 20205 38/// 48/// 84501
                   333 5//// 84650=
201402250600 AAXX 25064 67855 12675 40602 10218 20195 3//// 48/// 69904 82531
                   333 20190 5//// 82630 84080=
201402241200 AAXX 24124 67855 42675 51602 10304 20199 3//// 48/// 85531
                   333 5//// 85645=
201402240600 AAXX 24064 67855 32375 60603 10224 20189 3//// 48/// 81631
                   333 20194 5//// 81707 83360 86080=
201402231800 AAXX 23184 67855 NIL=
201402231200 AAXX 23124 67855 42775 51803 10212 20213 3//// 48/// 85230
                   333 5//// 85850=
201402230600 AAXX 23064 67855 11375 30905 10220 20194 3//// 48/// 60294 70282 81631
                   333 20203 5//// 81707 83360=
201402221800 AAXX 22184 67855 NIL=
201402221200 AAXX 22124 67855 41770 50301 10310 20188 3//// 48/// 78082 85262
                   333 5//// 85850 83360=
201402220600 AAXX 22064 67855 31970 70608 10234 20193 38/// 48/// 70511 83032
                   333 20194 5//// 83360 87080=
201402211200 AAXX 21124 67855 42775 41902 10336 20164 38/// 48/// 84202
                   333 5//// 84850=
201402210600 AAXX 21064 67855 31970 11801 10206 20173 38/// 48/// 70500 80001
                   333 20157 5//// 81080=
201402201800 AAXX 20184 67855 NIL=
201402201200 AAXX 20124 67855 42775 31902 10320 20134 38/// 48/// 83101
                   333 5//// 83850=
201402200600 AAXX 20064 67855 31970 40603 10205 20153 38/// 48/// 70500 80001
                   333 20137 5//// 84080=
201402191800 AAXX 19184 67855 NIL=
201402191200 AAXX 19124 67855 42775 10602 10306 20147 38/// 48/// 81101
                   333 5//// 81850=
201402190600 AAXX 19064 67855 31970 10801 10176 20145 3//// 48/// 70500 81030
                   333 20127 5//// 81360=
201402181200 AAXX 18124 67855 42775 52301 10294 20190 3//// 48/// 85200
                   333 5//// 85850=
201402180600 AAXX 18064 67855 11970 01402 10196 20146 3//// 48/// 69904 70500
                   333 20153 5////=
201402171800 AAXX 17184 67855 NIL=
201402171200 AAXX 17124 67855 NIL=
201402170600 AAXX 17064 67855 31370 10305 10198 20175 38/// 48/// 70500 81600
                   333 20166 5//// 81707=
201402161800 AAXX 16184 67855 NIL=
201402161200 AAXX 16124 67855 NIL=
201402160600 AAXX 16064 67855 32375 31102 10200 20163 3//// 48/// 83600
                   333 20163 5//// 83707=
201402151200 AAXX 15124 67855 42680 71803 10268 20169 38/// 48/// 84232
                   333 5//// 84845 87360=
201402150600 AAXX 15064 67855 12975 71801 10204 20178 3//// 48/// 69904 8703/
                   333 20160 5//// 87360=
201402141800 AAXX 14184 67855 NIL=
201402141200 AAXX 14124 67855 41675 71401 10266 20186 3//// 48/// 72582 8227/
                   333 5//// 82845 87459=
201402140600 AAXX 14064 67855 32375 50302 10206 20178 3//// 48/// 81631
                   333 20166 5//// 81707 85080=
201402131800 AAXX 13184 67855 NIL=
201402131200 AAXX 13124 67855 42775 50000 10292 20188 3//// 48/// 85202
                   333 5//// 85850=
201402130600 AAXX 13064 67855 32975 10903 10198 20155 38/// 48/// 81030
                   333 20154 5//// 81360=
201402121800 AAXX 12184 67855 NIL=
201402121200 AAXX 12124 67855 42775 61401 10297 20191 3//// 48/// 86231
                   333 5//// 85850 83360=
201402120600 AAXX 12064 67855 32975 10302 10210 20176 38/// 48/// 81030
                   333 20184 5//// 81360=
201402111800 AAXX 11184 67855 NIL=
201402111200 AAXX 11124 67855 42775 51402 10290 20220 38/// 48/// 85230
                   333 5//// 85850=
201402110600 AAXX 11064 67855 12375 40604 10205 20204 38/// 48/// 60084 81681
                   333 20194 5//// 81707 84360=
201402101800 AAXX 10184 67855 NIL=
201402101200 AAXX 10124 67855 41670 73601 10268 20203 38/// 48/// 78085 85231
                   333 5//// 85845 87080=
201402100600 AAXX 10064 67855 11375 70603 10212 20203 3//// 48/// 60324 70262 85781
                   333 20195 5//// 85707 87080=
201402091800 AAXX 09184 67855 NIL=
201402091200 AAXX 09124 67855 NIL=
201402090600 AAXX 09064 67855 11975 70501 10206 20199 3//// 48/// 60024 70262 8707/
                   333 20202 5//// 87459=
201402081200 AAXX 08124 67855 42675 70602 10290 20200 3//// 48/// 84231
                   333 5//// 84845 87080=
201402080600 AAXX 08064 67855 12375 70601 10208 20194 3//// 48/// 69904 8767/
                   333 20203 5//// 87707=
201402071200 AAXX 07124 67855 41970 73601 10258 20210 3//// 48/// 76098 8707/
                   333 5//// 87458=
201402070600 AAXX 07064 67855 NIL=
201402061200 AAXX 06124 67855 42775 53401 10312 20204 38/// 48/// 83232
                   333 5//// 83850 85080=
201402060600 AAXX 06064 67855 12980 63301 10226 20199 38/// 48/// 69904 81032
                   333 20193 5//// 81360 86080=
201402060000 AAXX 06004 67855 NIL=
201402051200 AAXX 05124 67855 42680 53304 10296 20209 38/// 48/// 85231
                   333 5//// 85845 83360=
201402050600 AAXX 05064 67855 12375 70601 10208 20203 3//// 48/// 60314 87673
                   333 20189 5//// 87707=
201402041800 AAXX 04184 67855 NIL=
201402041200 AAXX 04124 67855 41670 72703 10266 20221 3//// 48/// 71798 85273
                   333 5//// 81925 84830 87080=
201402040600 AAXX 04064 67855 11375 70602 10226 20214 3//// 48/// 60074 70398 83681
                   333 20204 5//// 83707 85360 87080=
201402031200 AAXX 03124 67855 41670 73603 10270 20223 3//// 48/// 71798 85233
                   333 5//// 81925 84835 87080=
201402030600 AAXX 03064 67855 11370 70301 10206 20203 3//// 48/// 60414 76162 8477/
                   333 20205 5//// 84707 87458=
201402021800 AAXX 02184 67855 NIL=
201402021200 AAXX 02124 67855 NIL=
201402020600 AAXX 02064 67855 11375 70601 10220 20214 38/// 48/// 69954 70262 8767/
                   333 20203 5//// 87707=
201402011800 AAXX 01184 67855 NIL=
201402011200 AAXX 01124 67855 41670 73605 10278 20206 38/// 48/// 71592 85273
                   333 5//// 81925 84830 87080=
201402010600 AAXX 01064 67855 12975 70000 10226 20213 3//// 48/// 60024 83032
                   333 20205 5//// 83360 87080=
