################################################################################
# Query made at 04/10/2022 06:58:06 UTC
# Country like Zamb*
# Time interval: from 12/01/2019 05:30  to 12/31/2019 06:30  UTC
################################################################################

################################################################################
#  SYNOPS from 67403, Kawambwa (Zambia) | 09-48S | 029-05E | 1323 m
################################################################################
201912260900 AAXX 26094 67403 NIL=
201912240900 AAXX 24094 67403 NIL=
201912170900 AAXX 17094 67403 NIL=
201912121200 AAXX 12124 67403 NIL=
201912120900 AAXX 12094 67403 NIL=
201912120600 AAXX 12064 67403 11480 73001 10205 20193 48512 60134 8353/
                   333 10246 20181 58006 83610 87360=
201912110600 AAXX 11064 67403 11440 80000 10193 20189 48506 60174 76196 8197/
                   333 10260 20182 58005 819// 82610 87460
                   555 00192=
201912091200 AAXX 09124 67403 42780 63001 10247 20216 48474 83230
                   333 5//// 83850 85360=
201912090600 AAXX 09064 67403 11480 73002 10200 20186 48504 60054 8353/
                   333 10280 20181 59003 83610 87360
                   555 00187=
201912060600 AAXX 06064 67403 11980 40501 10215 20188 48509 69954 81530
                   333 10265 20184 59018 81610 84360
                   555 00194=
201912051200 AAXX 05124 67403 NIL=
201912050900 AAXX 05094 67403 NIL=
201912050600 AAXX 05064 67403 11480 80601 10185 20177 48525 60064 8353/
                   333 10278 20174 58007 83610 88360
                   555 00188=
201912031200 AAXX 03124 67403 NIL=
201912030900 AAXX 03094 67403 NIL=
201912030600 AAXX 03064 67403 11375 81801 10200 20193 48511 60044 8273/
                   333 10296 20187 59005 82708 88360
                   555 00202=
201912020900 AAXX 02094 67403 NIL=
201912020600 AAXX 02064 67403 11380 80901 10200 20187 48516 60054 8273/
                   333 10228 20188 5//// 82708 88360
                   555 00204=

################################################################################
#  SYNOPS from 67413, Mbala (Zambia) | 08-51S | 031-20E | 1673 m
################################################################################
201912300600 AAXX 30064 67413 12480 81208 10176 20169 48520 60204 8352/
                   333 1//// 20102 59014 83610 87459 91021=
201912260900 AAXX 26094 67413 NIL=
201912240900 AAXX 24094 67413 NIL=
201912240600 AAXX 24064 67413 12580 40000 10204 20152 48538 60054 83170
                   333 10276 20164 59007 83825 83356 91024=
201912230600 AAXX 23064 67413 11575 80000 10158 20153 48459 60324 78166 875//
                   333 10271 20091 5//// 87620 91025=
201912190600 AAXX 19064 67413 12980 80000 10200 20169 48535 60184 8807/
                   333 1//// 20082 5//// 88360 91023=
201912170900 AAXX 17094 67413 NIL=
201912130600 AAXX 13064 67413 32980 70000 10191 20165 48/// 87070
                   333 1//// 20098 5//// 87360=
201912121200 AAXX 12124 67413 NIL=
201912120900 AAXX 12094 67413 NIL=
201912110600 AAXX 11064 67413 NIL=
201912091200 AAXX 09124 67413 NIL=
201912051200 AAXX 05124 67413 NIL=
201912050900 AAXX 05094 67413 NIL=
201912031200 AAXX 03124 67413 NIL=
201912030900 AAXX 03094 67413 NIL=
201912030600 AAXX 03064 67413 NIL=
201912020900 AAXX 02094 67413 NIL=
201912020600 AAXX 02064 67413 NIL=

################################################################################
#  SYNOPS from 67441, Mwinilunga (Zambia) | 11-45S | 024-26E | 1361 m
################################################################################
201912310600 AAXX 31064 67441 12380 50000 10200 20183 48540 60374 83630
                   333 10260 2//// 58002 83708 85360=
201912300600 AAXX 30064 67441 11375 70000 10195 20186 48538 60084 76066 877//
                   333 10270 2//// 5//// 87708=
201912271200 AAXX 27124 67441 41680 60000 10265 20179 48518 71799 83300
                   333 5//// 83940 85845=
201912270600 AAXX 27064 67441 12580 70000 10215 20189 48546 60044 875//
                   333 10270 2//// 5//// 87625=
201912260900 AAXX 26094 67441 42680 72703 10250 20192 48/// 875//
                   333 5//// 87630=
201912260600 AAXX 26064 67441 12380 70000 10195 20186 48/// 8463/
                   333 10292 2//// 5//// 84709 87359=
201912240900 AAXX 24094 67441 NIL=
201912200600 AAXX 20064 67441 12480 80903 10190 20178 48567 60044 885//
                   333 10310 2//// 88615=
201912190600 AAXX 19064 67441 32480 80000 10195 20178 48/// 885//
                   333 10290 2//// 5//// 88615=
201912180900 AAXX 18094 67441 42680 50000 10255 20175 48555 85200
                   333 5//// 85840=
201912180600 AAXX 18064 67441 11309 60000 10185 20177 48541 60054 74244 83630
                   333 10290 2//// 59006 83707 86358=
201912170900 AAXX 17094 67441 NIL=
201912160900 AAXX 16094 67441 42480 60000 10220 20177 48555 84530
                   333 5//// 84620 84360=
201912160600 AAXX 16064 67441 12980 60000 10180 20173 48549 60054 86020
                   333 10274 2//// 5//// 86459=
201912130600 AAXX 13064 67441 12380 70000 10200 20174 48547 60024 876//
                   333 10287 2//// 5//// 87708=
201912121200 AAXX 12124 67441 NIL=
201912120900 AAXX 12094 67441 NIL=
201912120600 AAXX 12064 67441 12980 70000 10180 20162 48/// 60014 8703/
                   333 10285 2//// 5//// 87359=
201912110600 AAXX 11064 67441 32580 70000 10205 20179 48544 875//
                   333 10270 20//0 5//// 87620=
201912091200 AAXX 09124 67441 NIL=
201912090600 AAXX 09064 67441 11365 80000 10195 20187 48530 60164 76066 8472/
                   333 10267 2//// 5//// 84707 88459=
201912060600 AAXX 06064 67441 12380 80000 10200 20182 48548 60034 886//
                   333 10268 2//// 5//// 88707=
201912051200 AAXX 05124 67441 NIL=
201912050900 AAXX 05094 67441 NIL=
201912031200 AAXX 03124 67441 NIL=
201912030900 AAXX 03094 67441 42580 70000 10265 20200 48/// 84230
                   333 5//// 84825 83360=
201912030600 AAXX 03064 67441 NIL=
201912020900 AAXX 02094 67441 NIL=
201912020600 AAXX 02064 67441 NIL=

################################################################################
#  SYNOPS from 67461, Mansa (Zambia) | 11-06S | 028-51E | 1382 m
################################################################################
201912310600 AAXX 31064 67461 11480 73405 10210 20195 48487 60054 72162 8117/
                   333 10240 20179 58001 81810 87360 91015=
201912300600 AAXX 30064 67461 11360 82704 10200 20193 48485 60204 76166 8662/
                   333 10272 20172 58001 86709 88460 91015=
201912270600 AAXX 27064 67461 11480 71202 10206 20197 48500 69904 72992 8487/
                   333 10280 20180 58000 83610 81815 87360 91016=
201912261200 AAXX 26124 67461 42680 61808 10270 20196 48476 83235
                   333 5//// 83838 83360 82080 91013=
201912260900 AAXX 26094 67461 42480 72405 10215 20196 48486 8457/
                   333 5//// 84612 87360 91015=
201912240900 AAXX 24094 67461 NIL=
201912240600 AAXX 24064 67461 12480 61206 10215 20193 48513 60034 81131
                   333 10286 20169 58000 81810 84360 82080 91017=
201912230900 AAXX 23094 67461 42680 60609 10260 20194 48513 81330
                   333 58009 81930 84832 84360 91017=
201912230600 AAXX 23064 67461 32480 71803 10205 20183 48512 8353/
                   333 10289 20162 58000 83610 87360 91017=
201912200900 AAXX 20094 67461 42680 72311 10260 20200 48503 85831
                   333 58001 83630 82832 85360 81080 91016=
201912200600 AAXX 20064 67461 12380 72709 10206 20191 48511 60024 8353/
                   333 10310 20175 58001 83610 87360 91017=
201912190600 AAXX 19064 67461 32980 21802 10230 20185 48513 81031
                   333 10286 20160 58009 81360 81080 91017=
201912180600 AAXX 18064 67461 32480 61209 10212 20189 48502 83531
                   333 10272 20150 59011 83612 83360 81080 91016=
201912170900 AAXX 17094 67461 42580 71312 10255 20196 48503 8133/
                   333 59011 81926 84830 83360 91016=
201912170600 AAXX 17064 67461 11480 61606 10210 20194 48513 60054 72844 81130
                   333 10270 20172 58001 81812 87360 91017=
201912160600 AAXX 16064 67461 11358 82710 10180 20180 48510 60114 79566 8192/
                   333 10286 20165 59007 81909 82810 88460 91017=
201912130900 AAXX 13094 67461 42680 70811 10265 20199 48503 84235
                   333 59003 84830 85360 83080 91016=
201912121200 AAXX 12124 67461 42580 72302 10230 20200 48474 8222/
                   333 58001 82825 87460 91013=
201912120900 AAXX 12094 67461 42580 72709 10225 20197 48503 8137/
                   333 58016 81925 83828 87460 91016=
201912120600 AAXX 12064 67461 12380 83404 10205 20190 48502 69964 8667/
                   333 10268 20178 58014 86708 88360 91016=
201912110600 AAXX 11064 67461 11380 73402 10185 20177 48487 60214 76162 8362/
                   333 10264 20162 58004 83709 87460 91015=
201912091200 AAXX 09124 67461 41478 72912 10205 20190 48461 76162 8327/
                   333 59019 83810 87460 91012=
201912090600 AAXX 09064 67461 12380 83408 10209 20195 48485 60124 8667/
                   333 10278 20175 59016 86608 88360 91015=
201912060600 AAXX 06064 67461 32480 71209 10220 20190 48502 8353/
                   333 10278 20178 59019 83616 87360 91016=
201912051200 AAXX 05124 67461 42680 70813 10266 20192 48487 83235
                   333 58012 83832 86360 82080 91014=
201912050900 AAXX 05094 67461 41480 70611 10212 20194 48512 72162 8317/
                   333 58011 83810 87360 91017=
201912050600 AAXX 05064 67461 12380 70209 10210 20187 48520 69904 8117/
                   333 10275 20175 58016 81810 87360 91019=
201912031200 AAXX 03124 67461 NIL=
201912030900 AAXX 03094 67461 NIL=
201912030600 AAXX 03064 67461 11380 73604 10200 20192 48501 60334 72166 8667/
                   333 10268 20172 58016 86708 87460 91016=
201912021200 AAXX 02124 67461 41480 73208 10220 20205 48472 76169 8227/
                   333 59011 82812 87360 91013=
201912020900 AAXX 02094 67461 42580 70109 10245 20193 48486 8327/
                   333 59019 83823 87360 91014=
201912020600 AAXX 02064 67461 12480 70809 10225 20187 48487 60164 8117/
                   333 10272 20169 59015 81828 87360 91015=

################################################################################
#  SYNOPS from 67469, Samfya (Zambia) | 11-22S | 029-54E | 1171 m
################################################################################
201912310600 AAXX 31064 67469 12480 72905 10220 20220 48/// 60234 8453/
                   333 10231 20197 5//// 84613 87360=
201912270600 AAXX 27064 67469 12480 73001 10226 20190 48/// 60084 8453/
                   333 10280 20205 5//// 84613 82360=
201912260900 AAXX 26094 67469 42480 60703 10242 20210 48/// 86432
                   333 5//// 86617 84820 82360 81080=
201912240900 AAXX 24094 67469 42580 40804 10263 20210 48/// 84231
                   333 5//// 84824 82360 81080=
201912230600 AAXX 23064 67469 12380 52604 10212 20210 48/// 60124 82632
                   333 10281 20206 5//// 82706 81910 82612 85815=
201912201200 AAXX 20124 67469 42580 52402 10274 20200 48/// 81932
                   333 5//// 81929 85829 82360 81080=
201912200900 AAXX 20094 67469 42580 53405 10265 20200 48/// 81932
                   333 5//// 81920 83624 85824 84360=
201912200600 AAXX 20064 67469 12380 42704 10223 20220 48/// 60184 82632
                   333 10291 20198 5//// 82706 84610 83360 81080=
201912191200 AAXX 19124 67469 42480 41004 10287 20200 48/// 81930
                   333 5//// 81917 84817 81360=
201912190600 AAXX 19064 67469 32480 21504 10248 20190 48/// 81130
                   333 10272 20197 5//// 81817 82360=
201912180600 AAXX 18064 67469 32480 21307 10226 20190 48/// 82530
                   333 10271 20197 5//// 82613 82360=
201912170900 AAXX 17094 67469 42580 61206 10253 20200 48/// 85432
                   333 5//// 84624 86827 83360 81080=
201912160600 AAXX 16064 67469 12280 62107 10192 20190 48/// 60114 83632
                   333 10289 20189 5//// 83703 83610 84815 86360=
201912121200 AAXX 12124 67469 42480 61105 10245 20210 48/// 81932
                   333 5//// 81913 86813 83360 82080=
201912120900 AAXX 12094 67469 41380 72001 10213 20210 48/// 8574/
                   333 5//// 85706 84610 84815 87460=
201912120600 AAXX 12064 67469 11280 82905 10198 20190 48/// 60074 8574/
                   333 10259 20195 5//// 85703 84610 88460=
201912111200 AAXX 11124 67469 42480 51005 10241 20200 48/// 81932
                   333 5//// 81917 83620 85825 83360=
201912110600 AAXX 11064 67469 11280 82904 10188 20180 48/// 60104 8574/
                   333 10266 20180 5//// 85703 85610 88460=
201912091200 AAXX 09124 67469 NIL=
201912060600 AAXX 06064 67469 32380 61107 10217 20190 48/// 82632
                   333 10258 20206 5//// 82706 83610 86360 81080=
201912051200 AAXX 05124 67469 42480 51007 10257 20200 48/// 82432
                   333 5//// 82618 85820 82360 81080=
201912050900 AAXX 05094 67469 NIL=
201912050600 AAXX 05064 67469 11280 70000 10208 20200 48/// 60324 8274/
                   333 10277 20191 5//// 82703 83610 87460=
201912031200 AAXX 03124 67469 42580 51004 10279 20210 48/// 81932
                   333 5//// 81924 85824 82360 81080=
201912030900 AAXX 03094 67469 42480 60903 10263 20210 48/// 81930
                   333 5//// 81913 82615 86820 82360=
201912030600 AAXX 03064 67469 12380 61501 10228 20200 48/// 60054 84632
                   333 10275 20210 5//// 84706 86610 82360 81080=
201912021200 AAXX 02124 67469 42480 50705 10258 20210 48/// 81932
                   333 5//// 81918 85818 81360 81080=
201912020900 AAXX 02094 67469 42480 60805 10252 20220 48/// 83432
                   333 5//// 83614 86825 83360 81080=
201912020600 AAXX 02064 67469 12360 61206 10215 20200 48/// 60154 83632
                   333 10280 20187 5//// 83706 83610 83660 81080=

################################################################################
#  SYNOPS from 67475, Kasama (Zambia) | 10-13S | 031-08E | 1382 m
################################################################################
201912310600 AAXX 31064 67475 12560 82705 10192 20184 48516 60204 8327/
                   333 10271 20175 58008 83820 87460 91019=
201912300600 AAXX 30064 67475 12460 82104 10190 20182 48508 60094 8867/
                   333 10268 20176 59004 88612 91018=
201912271200 AAXX 27124 67475 42680 62707 10265 20180 48/// 85201
                   333 5//// 85835 82080=
201912270900 AAXX 27094 67475 42680 73004 10247 20191 48511 86231
                   333 58088 83830 82360 83460 91019=
201912270600 AAXX 27064 67475 12580 83303 10198 20194 48514 60314 83661
                   333 10298 20186 59011 83722 86460 85080 91019=
201912260900 AAXX 26094 67475 NIL=
201912240900 AAXX 24094 67475 42560 51704 1//// 20189 48514 84200
                   333 58001 84835 91020=
201912230600 AAXX 23064 67475 32580 61906 10208 20180 48535 83230
                   333 10298 20171 58002 83820 84460 83480 91021=
201912201200 AAXX 20124 67475 42680 60000 10274 20176 48493 84501
                   333 58009 81930 84830 83080 91017=
201912200900 AAXX 20094 67475 42680 71805 10250 20183 48520 86501
                   333 58005 86830 82080 91020=
201912200600 AAXX 20064 67475 32580 81504 10194 20182 48531 885//
                   333 10312 20174 58004 88620 91021=
201912190600 AAXX 19064 67475 32560 81905 10201 20170 48/// 8217/
                   333 10302 20172 5//// 82820 87360 91020=
201912180600 AAXX 18064 67475 12560 61705 10199 20179 48/// 69904 82231
                   333 10272 20152 5//// 82820 84360 82080=
201912170900 AAXX 17094 67475 NIL=
201912160900 AAXX 16094 67475 42680 61605 10259 20187 48/// 85201
                   333 5//// 85830 82080=
201912160600 AAXX 16064 67475 11680 51902 10223 20182 48525 60034 83231
                   333 10312 20160 59010 83835 84360 82080 91020=
201912121200 AAXX 12124 67475 NIL=
201912120900 AAXX 12094 67475 NIL=
201912120600 AAXX 12064 67475 12560 62706 10207 20184 48518 60064 83570
                   333 10212 20176 58002 83620 86460 91020=
201912110600 AAXX 11064 67475 12560 73404 10202 20193 48516 60264 8357/
                   333 10288 20176 59006 83820 86460 91019=
201912101200 AAXX 10124 67475 42560 82003 10207 20191 48479 78022 87501
                   333 58002 81920 87620 81080 91015=
201912091200 AAXX 09124 67475 42680 62710 10255 20188 48475 85201
                   333 59013 81935 85835 83080 91015=
201912090600 AAXX 09064 67475 12980 83305 10200 20184 48512 60184 86071
                   333 10268 20169 59004 86460 82080 91019=
201912060600 AAXX 06064 67475 32580 80907 10204 20183 48525 885//
                   333 10279 20186 59010 88620 91021=
201912051200 AAXX 05124 67475 42680 70606 10253 20178 48503 85230
                   333 58009 81930 85830 83362 91018=
201912050900 AAXX 05094 67475 42580 80905 10212 20172 48531 8157/
                   333 58016 81620 88461 91021=
201912050600 AAXX 05064 67475 12480 80606 10193 20180 48534 60044 8157/
                   333 10308 20163 58015 81615 88460 91022=
201912040600 AAXX 04064 67475 12480 73604 10195 20189 48518 60374 8157/
                   333 10310 20175 58002 81615 87460 91020=
201912031200 AAXX 03124 67475 41680 50904 10286 20170 48480 71792 84230
                   333 59006 81935 84835 81362 91015=
201912030900 AAXX 03094 67475 42680 51206 10264 20173 48498 84230
                   333 59009 81930 84830 81362 91018=
201912030600 AAXX 03064 67475 12580 50906 10210 20188 48517 69944 81531
                   333 10296 20188 59012 81620 84360 81080 91019=
201912021200 AAXX 02124 67475 41660 70000 10275 20178 48485 86200
                   333 59004 81930 86830 91016=
201912020900 AAXX 02094 67475 41760 70905 10247 20186 48516 86230
                   333 58008 83840 82360 91020=
201912020600 AAXX 02064 67475 11/30 /1603 10188 20188 48528 60164 74300
                   333 10330 20154 58008 91021=

################################################################################
#  SYNOPS from 67476, Misamfu (Zambia) | 10-06S | 031-15E | 1536 m
################################################################################
201912310600 AAXX 31064 67476 11380 82903 10204 20190 48/// 60064 72065 8267/
                   333 10239 20145 5//// 82708 81613 88460=
201912301200 AAXX 30124 67476 41656 80000 10201 20190 48/// 79585 8197/
                   333 5//// 81935 81838 88460=
201912300600 AAXX 30064 67476 11378 82603 10195 20185 48/// 60114 75066 8677/
                   333 10241 20144 5//// 86708 88460=
201912271200 AAXX 27124 67476 41663 72004 10270 20174 48/// 71622 85202
                   333 5//// 85845 83080=
201912270600 AAXX 27064 67476 12380 70103 10207 20193 48/// 60684 81678
                   333 10286 20142 59011 81709 81615 84360 87280=
201912261200 AAXX 26124 67476 41677 50102 10271 20188 48/// 71522 81302
                   333 5//// 81945 83848 82080=
201912260900 AAXX 26094 67476 42580 73002 10243 20188 48/// 8523/
                   333 5//// 85828 85360=
201912260600 AAXX 26064 67476 11370 71701 10193 20187 48/// 60174 76162 8167/
                   333 10270 20135 58001 81707 87460=
201912240900 AAXX 24094 67476 41575 60703 10250 20171 48/// 71522 81332
                   333 5//// 81927 84830 81360 82080=
201912240600 AAXX 24064 67476 12580 60702 10215 20193 48/// 60094 81270
                   333 10270 20135 59004 81820 82360 85360=
201912230900 AAXX 23094 67476 41570 60000 10245 20180 48/// 71562 81372
                   333 5//// 81928 83830 81080=
201912230600 AAXX 23064 67476 12580 52401 10220 20180 48/// 60014 83231
                   333 10276 20138 58000 83820 81360 82080=
201912201200 AAXX 20124 67476 41675 73502 10270 20180 48/// 71522 81308
                   333 58005 81937 83840 86280=
201912200900 AAXX 20094 67476 41577 72404 10245 20177 48/// 71522 81338
                   333 58004 81927 84830 83360 86280=
201912200600 AAXX 20064 67476 12480 82501 10205 20182 48/// 69934 81477
                   333 10287 20140 58004 82615 81360 88280=
201912191200 AAXX 19124 67476 41659 70904 10275 20188 48/// 71692 81978
                   333 5//// 81935 83838 83460 84280=
201912190600 AAXX 19064 67476 31780 70000 10205 20184 48/// 71422 8127/
                   333 10279 20140 5//// 81850 87360=
201912180900 AAXX 18094 67476 42680 50304 10250 20163 48/// 85201
                   333 5//// 85833 81080=
201912180600 AAXX 18064 67476 12480 50804 10211 20176 48/// 69914 82430
                   333 10245 20116 5//// 82618 83820 81360=
201912170900 AAXX 17094 67476 42580 71606 10216 20176 48/// 8127/
                   333 58011 81825 83625 87360=
201912170600 AAXX 17064 67476 12480 71805 10194 20182 48/// 60254 8667/
                   333 10266 20132 58000 86610 87360=
201912161200 AAXX 16124 67476 41675 61803 10255 20201 48/// 71796 81978
                   333 5//// 81940 82843 81360 85280=
201912160900 AAXX 16094 67476 41662 42702 10255 20183 48/// 71621 84202
                   333 5//// 84830 81080=
201912160600 AAXX 16064 67476 12680 42702 10213 20180 48/// 60194 81271
                   333 10280 20118 5//// 81848 83360 81080=
201912130900 AAXX 13094 67476 41580 60702 10225 20166 48/// 72165 8127/
                   333 58014 81825 86460=
201912130600 AAXX 13064 67476 11980 72702 10194 20186 48/// 60054 72166 8707/
                   333 10267 20133 58011 87460=
201912121200 AAXX 12124 67476 41670 71303 10226 20196 48/// 76099 81978
                   333 59001 81940 81842 84460 87280=
201912120900 AAXX 12094 67476 NIL=
201912120600 AAXX 12064 67476 12480 72603 10200 20182 48/// 60044 81478
                   333 10251 20142 58001 81613 81820 81360 87280=
201912111200 AAXX 11124 67476 41670 72701 10215 20193 48/// 79598 81978
                   333 58013 81940 82842 84460 86280=
201912110900 AAXX 11094 67476 41565 62902 10240 20180 48/// 71622 81372
                   333 58003 81925 83828 81460 82080=
201912110600 AAXX 11064 67476 12480 70103 10201 20190 48/// 60214 8647/
                   333 10250 20140 58007 86613 87360=
201912101200 AAXX 10124 67476 41668 72703 10220 20196 48/// 71782 81978
                   333 58003 81935 82838 83460 87280=
201912091200 AAXX 09124 67476 41665 53107 10264 20186 48/// 71762 81978
                   333 5//// 81936 82840 82360 84280=
201912090600 AAXX 09064 67476 12480 73003 10210 20189 48/// 60344 8167/
                   333 10244 20137 5//// 81708 81613 87360=
201912060600 AAXX 06064 67476 12580 71204 10210 20186 48/// 69904 875//
                   333 10268 20152 5//// 87620=
201912051200 AAXX 05124 67476 42680 40903 10244 20171 48/// 83232
                   333 58010 83840 81360 81080=
201912050900 AAXX 05094 67476 41680 81104 10211 20163 48/// 72065 8127/
                   333 58015 81825 88360=
201912050600 AAXX 05064 67476 11480 80903 10190 20182 48/// 60074 75065 8577/
                   333 10271 20130 58016 85710 82615 87460=
201912041200 AAXX 04124 67476 41657 70105 10282 20148 48/// 71692 8197/
                   333 5//// 81930 83833 87460=
201912040600 AAXX 04064 67476 11360 70000 10200 20188 48/// 60404 72162 8167/
                   333 10290 20140 5//// 81706 87360=
201912031200 AAXX 03124 67476 41658 61205 10284 20183 48/// 71622 81372
                   333 5//// 81942 83845 83460 83080=
201912030900 AAXX 03094 67476 42680 40903 10264 20183 48/// 83230
                   333 5//// 83835 82360=
201912030600 AAXX 03064 67476 31580 50803 10216 20186 48/// 71422 81272
                   333 10281 20150 5//// 81820 83360 81080=
201912021200 AAXX 02124 67476 41670 60502 10270 20159 48/// 71622 81332
                   333 5//// 81938 83840 81360 83080=
201912020900 AAXX 02094 67476 41578 51003 10247 20176 48/// 71522 84232
                   333 5//// 84825 81360 82080=
201912020600 AAXX 02064 67476 11280 82503 10197 20192 48/// 60184 72844 886//
                   333 10275 20143 58006 88705=

################################################################################
#  SYNOPS from 67477, Mpika (Zambia) | 11-54S | 031-26E | 1400 m
################################################################################
201912310600 AAXX 31064 67477 11270 82703 10195 20183 48/// 60124 78066 86770
                   333 10220 20180 5//// 86704 88459
                   555 00174=
201912300600 AAXX 30064 67477 11975 81203 10190 20175 48/// 60184 72166 88070
                   333 10247 20187 5//// 88459
                   555 00177=
201912271200 AAXX 27124 67477 41678 73301 10194 20190 48/// 79599 81971
                   333 5//// 81936 81836 86464 83080=
201912270600 AAXX 27064 67477 12480 60000 10206 20180 48/// 60044 83570
                   333 10292 20183 5//// 83612 85459
                   555 00173=
201912261200 AAXX 26124 67477 41680 62203 10264 20170 48/// 71799 84201
                   333 5//// 81936 84836 84080=
201912260900 AAXX 26094 67477 42580 51204 10263 20170 48/// 84201
                   333 5//// 84822 82080=
201912240900 AAXX 24094 67477 NIL=
201912230900 AAXX 23094 67477 42580 61204 10236 20168 48/// 86500
                   333 5//// 86625=
201912230600 AAXX 23064 67477 32480 51209 10207 20172 48/// 85500
                   333 10270 20171 5//// 85613
                   555 00169=
201912201200 AAXX 20124 67477 41680 41803 10277 20180 48/// 71799 82203
                   333 5//// 81936 82836 83080=
201912200900 AAXX 20094 67477 42580 51802 10244 20199 48/// 85800
                   333 5//// 82825 84627=
201912200600 AAXX 20064 67477 11475 61803 10209 20186 48/// 60024 72166 82570
                   333 10280 20175 5//// 82610 86460
                   555 00172=
201912190600 AAXX 19064 67477 32580 40903 10232 20185 48/// 82530
                   333 10276 20165 5//// 82621 83360
                   555 00154=
201912180600 AAXX 18064 67477 12480 61206 10203 20185 48/// 60014 86500
                   333 10248 20148 5//// 86614
                   555 00137=
201912170900 AAXX 17094 67477 NIL=
201912170600 AAXX 17064 67477 11970 71206 10190 20175 48/// 60104 76166 87070
                   333 10264 20173 5//// 87459
                   555 00164=
201912160900 AAXX 16094 67477 41580 42704 10245 20190 48/// 75152 84800
                   333 5//// 82827 83629=
201912160600 AAXX 16064 67477 32480 52403 10202 20173 48/// 84530
                   333 10288 20172 5//// 84613 82360
                   555 00155=
201912130900 AAXX 13094 67477 42580 81802 10266 20170 48/// 84231
                   333 5//// 84828 82360 83080=
201912130600 AAXX 13064 67477 11480 80000 10212 20170 48/// 69904 72122 8357/
                   333 10263 20177 5//// 83611 87459
                   555 00170=
201912121200 AAXX 12124 67477 41680 73301 10256 20170 48/// 71799 83271
                   333 5//// 81932 83832 83463 82080=
201912120900 AAXX 12094 67477 41580 62702 10234 20170 48/// 71799 84231
                   333 5//// 81928 84828 82361 82080=
201912120600 AAXX 12064 67477 12480 80000 10198 20180 48/// 60034 8457/
                   333 10242 20172 5//// 84612 87459
                   555 00171=
201912111200 AAXX 11124 67477 41680 60000 10228 20190 48/// 71799 84271
                   333 5//// 81930 84830 83461 82080=
201912110600 AAXX 11064 67477 11480 82701 10189 20180 48/// 60024 72122 8457/
                   333 10253 20178 5//// 84612 87460
                   555 00140=
201912101200 AAXX 10124 67477 42680 51803 10253 20160 48/// 84201
                   333 5//// 84836 83080=
201912091200 AAXX 09124 67477 41680 51806 10272 20180 48/// 71799 84201
                   333 5//// 81932 84832 82080=
201912090600 AAXX 09064 67477 12480 62702 10213 20170 48/// 60184 86531
                   333 10259 20163 5//// 86612 81359 81080
                   555 00174=
201912060600 AAXX 06064 67477 32480 31209 10216 20150 48/// 82530
                   333 10273 20168 5//// 82612 81359 81080
                   555 00158=
201912051200 AAXX 05124 67477 42680 41205 10268 20140 48/// 82231
                   333 5//// 82835 82363 82080=
201912050900 AAXX 05094 67477 42580 71203 10242 20160 48/// 86131
                   333 5//// 85822 82361 82080=
201912050600 AAXX 05064 67477 12480 80000 10196 20180 48/// 60024 8557/
                   333 10268 20182 5//// 85612 87459
                   555 00156=
201912040600 AAXX 04064 67477 32480 30000 10223 20170 48/// 82131
                   333 10293 20177 5//// 82814 82359 82080
                   555 00166=
201912031200 AAXX 03124 67477 42680 51202 10299 20140 48/// 84201
                   333 5//// 81935 83835 82080=
201912030900 AAXX 03094 67477 42580 51803 10263 20160 48/// 84201
                   333 5//// 84825 82080=
201912030600 AAXX 03064 67477 31480 31202 10229 20160 48/// 82501
                   333 10292 20164 5//// 82612 82359
                   555 00155=
201912021200 AAXX 02124 67477 41680 62704 10265 20150 48/// 71799 81931
                   333 5//// 81936 83836 83363 82080=
201912020900 AAXX 02094 67477 NIL=
201912020600 AAXX 02064 67477 12480 62702 10221 20170 48/// 60034 86501
                   333 10289 20187 5//// 86612 82080
                   555 00163=

################################################################################
#  SYNOPS from 67481, Isoka (Zambia) | 10-07S | 032-38E | 1360 m
################################################################################
201912310600 AAXX 31064 67481 12480 63002 10204 20186 48/// 60584 83570
                   333 10222 20182 5//// 83610 86360=
201912301200 AAXX 30124 67481 41480 82002 10218 20191 48/// 72166 8257/
                   333 5//// 82615 88460=
201912300600 AAXX 30064 67481 11365 83002 10192 20189 48/// 60044 76062 887//
                   333 10236 20188 5//// 88706=
201912270600 AAXX 27064 67481 11380 73002 10198 20193 48/// 60634 72166 8377/
                   333 10278 20188 5//// 83708 87460=
201912260900 AAXX 26094 67481 NIL=
201912240900 AAXX 24094 67481 42580 53003 10242 20186 48/// 85201
                   333 5//// 85820 81080=
201912240600 AAXX 24064 67481 32480 53002 10212 20185 48/// 83530
                   333 10260 20186 5//// 83610 84360=
201912200600 AAXX 20064 67481 12980 70902 10202 20176 48/// 60024 8707/
                   333 10268 20188 5//// 87360=
201912190600 AAXX 19064 67481 32480 53303 10204 20165 48/// 81130
                   333 10288 20182 5//// 81810 85360=
201912180600 AAXX 18064 67481 12480 22402 10212 20172 48/// 60014 82100
                   333 10264 20164 5//// 82810=
201912170900 AAXX 17094 67481 NIL=
201912170600 AAXX 17064 67481 11980 82102 10199 20190 48/// 60074 72052 8807/
                   333 10288 20172 5//// 88460=
201912130600 AAXX 13064 67481 12980 62202 10196 20174 48/// 60164 83031
                   333 10224 20168 5//// 83360 86080=
201912121200 AAXX 12124 67481 NIL=
201912120900 AAXX 12094 67481 NIL=
201912120600 AAXX 12064 67481 11480 73302 10204 20196 48/// 60024 72842 8357/
                   333 10272 20174 5//// 83610 87460=
201912110600 AAXX 11064 67481 12480 73302 10202 20186 48/// 60384 8657/
                   333 10265 20174 5//// 86610 87360=
201912091200 AAXX 09124 67481 NIL=
201912090600 AAXX 09064 67481 12980 73302 10218 20183 48/// 60144 8707/
                   333 10296 20198 5//// 87360=
201912060600 AAXX 06064 67481 12380 81202 10202 20120 48/// 60044 886//
                   333 10293 20186 5//// 88708=
201912051200 AAXX 05124 67481 NIL=
201912050900 AAXX 05094 67481 NIL=
201912050600 AAXX 05064 67481 11360 83002 10170 20170 48/// 60374 76396 8377/
                   333 10278 20170 5//// 83707 81925 88460=
201912040900 AAXX 04094 67481 41575 63602 10232 20186 48/// 76022 86200
                   333 5//// 81925 86825=
201912040600 AAXX 04064 67481 32480 60302 10220 20187 48/// 82130
                   333 10308 20192 5//// 82815 86360=
201912031200 AAXX 03124 67481 42680 30302 10294 20143 48/// 83200
                   333 5//// 83840=
201912030900 AAXX 03094 67481 42680 20903 10275 20155 48/// 82200
                   333 5//// 82835=
201912030600 AAXX 03064 67481 32480 10902 10235 20173 48/// 81130
                   333 10300 20180 5//// 81810 81360=
201912020900 AAXX 02094 67481 NIL=
201912020600 AAXX 02064 67481 NIL=

################################################################################
#  SYNOPS from 67531, Zambezi (Zambia) | 13-32S | 023-07E | 1077 m
################################################################################
201912310600 AAXX 31064 67531 32380 62806 10213 20200 48/// 8263/
                   333 10275 20195 58007 82706 86362
                   555 00222=
201912300600 AAXX 30064 67531 11360 80902 10203 20202 48/// 60264 76166 8477/
                   333 10254 20193 58004 84706 88460
                   555 00230=
201912270600 AAXX 27064 67531 12480 73602 10230 20210 48/// 60054 8287/
                   333 10331 20200 59006 81812 81612 87360
                   555 00230=
201912261200 AAXX 26124 67531 42780 52008 10312 20202 48/// 85200
                   333 59009 85856=
201912260900 AAXX 26094 67531 42680 42705 10270 20204 48/// 83130
                   333 59008 83848 82362=
201912240900 AAXX 24094 67531 42680 33603 10289 20191 48/// 83130
                   333 59011 83848 81362=
201912230600 AAXX 23064 67531 32980 52705 10212 20180 48/// 85070
                   333 10310 20176 58008 85362
                   555 00221=
201912201200 AAXX 20124 67531 42680 63004 10280 20193 48/// 82108
                   333 58020 82835 85280=
201912200600 AAXX 20064 67531 32480 63310 10225 20196 48/// 86802
                   333 10336 20199 58010 83815 83615 81080
                   555 00175=
201912191200 AAXX 19124 67531 42680 42702 10315 20189 48/// 84100
                   333 58007 84847=
201912190600 AAXX 19064 67531 32980 33603 10221 20191 48/// 80001
                   333 10330 20184 59008 83081
                   555 00182=
201912181200 AAXX 18124 67531 42780 31403 10310 20181 48/// 83102
                   333 59009 83850 81080=
201912180900 AAXX 18094 67531 42680 30903 10285 20184 48/// 81102
                   333 59006 81842 82081=
201912180600 AAXX 18064 67531 11980 20000 10240 20206 48/// 69934 80002
                   333 10316 20179 59006 82081
                   555 00183=
201912171200 AAXX 17124 67531 41680 60000 10254 20206 48/// 79599 86202
                   333 59027 81942 86842 81080=
201912170900 AAXX 17094 67531 42680 20605 10297 20197 48/// 82130
                   333 58000 82842 81361=
201912170600 AAXX 17064 67531 11980 70000 10210 20198 48/// 69924 76062 8707/
                   333 10300 20194 58002 87360
                   555 00201=
201912160900 AAXX 16094 67531 42580 70903 10271 20214 48/// 83108
                   333 5//// 83823 86280=
201912160600 AAXX 16064 67531 12480 70000 10221 20200 48/// 60054 8157/
                   333 10290 20194 59020 81610 87360
                   555 00195=
201912130900 AAXX 13094 67531 42680 23205 10270 20195 48/// 81130
                   333 58016 81831 82361=
201912130600 AAXX 13064 67531 12980 30000 10230 20193 48/// 60054 83030
                   333 10331 20183 58016 83361
                   555 00185=
201912121200 AAXX 12124 67531 41780 60000 10317 20180 48/// 81792
                   333 59007 81956 86856 81080=
201912120900 AAXX 12094 67531 NIL=
201912120600 AAXX 12064 67531 32980 13308 10239 20190 48/// 81032
                   333 10330 20180 58008 81361 81081
                   555 00180=
201912110600 AAXX 11064 67531 32480 20609 10230 20189 48/// 81102
                   333 10335 20185 58009 81810 82081
                   555 00180=
201912101200 AAXX 10124 67531 42780 33002 10320 20169 48/// 83100
                   333 58004 83856=
201912091200 AAXX 09124 67531 NIL=
201912090600 AAXX 09064 67531 12380 73602 10221 20204 48/// 69944 8167/
                   333 10280 20195 59005 81707 87460
                   555 00196=
201912060600 AAXX 06064 67531 11380 70904 10220 20198 48/// 60204 8357/
                   333 10316 20198 5//// 82609 87360
                   555 00208=
201912051200 AAXX 05124 67531 NIL=
201912050900 AAXX 05094 67531 42780 53005 10265 20179 48/// 84230
                   333 5//// 84850 82362=
201912050600 AAXX 05064 67531 32980 60904 10205 20184 48/// 86030
                   333 10297 20182 5//// 86362
                   555 00184=
201912040600 AAXX 04064 67531 12380 63603 10215 20196 48/// 69904 8267/
                   333 10308 20192 5//// 82709 85362
                   555 00193=
201912031200 AAXX 03124 67531 41780 53511 10295 20204 48/// 71792 85201
                   333 58002 81956 85856 82080=
201912030900 AAXX 03094 67531 42780 53608 10270 20195 48/// 84130
                   333 59001 84856 82362=
201912030600 AAXX 03064 67531 32980 50904 10232 20196 48/// 85031
                   333 10315 20186 59001 85362 81080
                   555 00189=
201912020900 AAXX 02094 67531 42680 63606 10266 20210 48/// 8423/
                   333 59001 84838 84362=
201912020600 AAXX 02064 67531 12480 51002 10224 20211 48/// 60134 83530
                   333 10226 20195 59010 83610 84362
                   555 00199=

################################################################################
#  SYNOPS from 67541, Kasempa (Zambia) | 13-32S | 025-51E | 1234 m
################################################################################
201912300600 AAXX 30064 67541 12980 70000 10207 20196 48/// 60204 8703/
                   333 10294 20160 5//// 87360=
201912270600 AAXX 27064 67541 12980 70603 10206 20206 48/// 60054 8703/
                   333 10298 20152 5//// 87360=
201912260900 AAXX 26094 67541 NIL=
201912240900 AAXX 24094 67541 42680 30604 10275 20186 48/// 83100
                   333 5//// 83835=
201912230900 AAXX 23094 67541 42580 60604 10260 20194 48/// 86200
                   333 5//// 86826=
201912230600 AAXX 23064 67541 12980 20000 10205 20190 48/// 60024 82030
                   333 10282 20150 5//// 82360=
201912200600 AAXX 20064 67541 32380 70304 10213 20198 48/// 8353/
                   333 10320 20150 5//// 83607 87360 87360=
201912190600 AAXX 19064 67541 32980 70000 10208 20188 48/// 87030
                   333 10310 20146 5//// 87360=
201912180600 AAXX 18064 67541 32980 40402 10220 20174 48/// 80004
                   333 10302 20152 5//// 84080=
201912170900 AAXX 17094 67541 42580 70403 10260 20202 48/// 82205
                   333 5//// 82822 85080=
201912170600 AAXX 17064 67541 12980 40000 10200 20193 48/// 60074 81033
                   333 10300 20160 5//// 81360 83080=
201912160900 AAXX 16094 67541 42580 70303 10260 20209 48/// 8213/
                   333 5//// 82820 87360=
201912160600 AAXX 16064 67541 12380 70304 10210 20195 48/// 60024 8353/
                   333 10284 20152 5//// 83606 87360=
201912130900 AAXX 13094 67541 42680 70000 10270 20197 48/// 81130
                   333 5//// 81830 86360=
201912121200 AAXX 12124 67541 NIL=
201912120900 AAXX 12094 67541 NIL=
201912120600 AAXX 12064 67541 12980 20000 10215 20192 48/// 60014 82030
                   333 10296 20154 5//// 82360=
201912111200 AAXX 11124 67541 42480 70000 10240 20208 48/// 82230
                   333 5//// 82815 87360=
201912110600 AAXX 11064 67541 11360 80102 10170 20170 48/// 60184 76066 8353/
                   333 10302 20142 5//// 83706 87360=
201912091200 AAXX 09124 67541 NIL=
201912090600 AAXX 09064 67541 12380 80000 10200 20195 48/// 60554 8253/
                   333 10282 20160 5//// 82606 87360=
201912060600 AAXX 06064 67541 12980 70605 10215 20183 48/// 60024 8703/
                   333 10282 20160 5//// 87360=
201912051200 AAXX 05124 67541 42580 70000 10225 20203 48/// 8323/
                   333 5//// 83820 87360=
201912050900 AAXX 05094 67541 42480 70406 10245 20193 48/// 8323/
                   333 5//// 83819 87360=
201912050600 AAXX 05064 67541 12380 70000 10200 20193 48/// 60024 82530
                   333 10304 20152 5//// 82606 87360=
201912031200 AAXX 03124 67541 41580 70503 10205 20198 48/// 71721 8423/
                   333 5//// 81915 83825 87360=
201912030900 AAXX 03094 67541 NIL=
201912030600 AAXX 03064 67541 32980 40000 10215 20192 48/// 84030
                   333 10300 20154 5//// 84360=
201912020900 AAXX 02094 67541 NIL=
201912020600 AAXX 02064 67541 NIL=

################################################################################
#  SYNOPS from 67543, Kabompo (Zambia) | 13-36S | 024-12E | 1075 m
################################################################################
201912310600 AAXX 31064 67543 32382 70000 10220 20201 48/// 8365/
                   333 10310 20202 5//// 83708 87360=
201912300600 AAXX 30064 67543 12380 70000 10214 20196 48/// 60234 8263/
                   333 10316 20190 5//// 82727 87360=
201912270600 AAXX 27064 67543 11375 80000 10216 20205 48/// 60014 72844 886//
                   333 10256 20196 5//// 88707=
201912261200 AAXX 26124 67543 41682 71802 10332 20183 48/// 71792 84973
                   333 5//// 81935 84835 86362 81085=
201912260900 AAXX 26094 67543 42582 73401 10280 20187 48/// 8213/
                   333 5//// 82825 87360=
201912240900 AAXX 24094 67543 NIL=
201912230900 AAXX 23094 67543 42582 50301 10278 20186 48/// 84231
                   333 5//// 84820 82361 81085=
201912230600 AAXX 23064 67543 12980 60000 10224 20195 48/// 60054 86031
                   333 10328 20180 5//// 86360 81080=
201912190600 AAXX 19064 67543 32980 50000 10222 20184 48/// 80005
                   333 10330 20176 5//// 85280=
201912180600 AAXX 18064 67543 12980 50000 10224 20196 48/// 69904 80005
                   333 10306 20178 5//// 85280=
201912170900 AAXX 17094 67543 42582 40000 10278 20201 48/// 82131
                   333 5//// 82820 83361 81080=
201912170600 AAXX 17064 67543 12380 70000 10216 20199 48/// 60034 85630
                   333 10308 20194 5//// 85707 84360=
201912160600 AAXX 16064 67543 12380 70000 10214 20199 48/// 60254 876//
                   333 10220 20190 5//// 87707=
201912121200 AAXX 12124 67543 41575 70000 10192 20181 48/// 76199 8232/
                   333 5//// 81924 82824 87262=
201912120900 AAXX 12094 67543 42582 63402 10290 20193 48/// 85231
                   333 5//// 85825 82360 81085=
201912120600 AAXX 12064 67543 12980 40000 10236 20197 48/// 60014 83031
                   333 10334 20188 5//// 83362 82085=
201912111200 AAXX 11124 67543 42682 60000 10308 20185 48/// 85231
                   333 5//// 85830 82362 81080=
201912110600 AAXX 11064 67543 32380 73601 10216 20195 48/// 85635
                   333 10330 20180 5//// 85708 82360 83280=
201912101200 AAXX 10124 67543 41582 73604 10278 20194 48/// 72992 8633/
                   333 5//// 81928 86826 84361=
201912091200 AAXX 09124 67543 42580 73603 10254 20193 48/// 8351/
                   333 5//// 83625 87461=
201912090900 AAXX 09094 67543 42480 73302 10234 20200 48/// 8457/
                   333 5//// 84614 87360=
201912090600 AAXX 09064 67543 12380 80000 10210 20198 48/// 60044 8367/
                   333 10236 20198 5//// 83707 /7360=
201912060600 AAXX 06064 67543 12480 70000 10212 20199 48/// 60254 84530
                   333 10288 20180 5//// 84612 86360=
201912051200 AAXX 05124 67543 42682 63401 10304 20179 48/// 84205
                   333 5//// 84830 84280=
201912050900 AAXX 05094 67543 42582 71201 10268 20182 48/// 85235
                   333 5//// 85822 81361 83280=
201912050600 AAXX 05064 67543 12482 70601 10220 20190 48/// 60024 875//
                   333 10310 20184 5//// 87612=
201912031200 AAXX 03124 67543 NIL=
201912030900 AAXX 03094 67543 NIL=
201912030600 AAXX 03064 67543 32982 60000 10226 20200 48/// 82035
                   333 10294 20188 5//// 82360 85280=
201912021200 AAXX 02124 67543 42682 71203 10282 20182 48/// 83235
                   333 5//// 83830 82361 85280=
201912020900 AAXX 02094 67543 42580 70603 10280 20200 48/// 85530
                   333 5//// 85620 83360=
201912020600 AAXX 02064 67543 12480 70000 10232 20208 48/// 60164 84530
                   333 10288 20198 5//// 84612 86360=

################################################################################
#  SYNOPS from 67551, Solwezi (Zambia) | 12-11S | 026-23E | 1386 m
################################################################################
201912310600 AAXX 31064 67551 12370 53003 10202 20184 48505 60014 81130
                   333 10275 20181 59006 81810 85362 91018=
201912300900 AAXX 30094 67551 42475 73603 10226 20179 48509 86570
                   333 58009 86615 87362 91018=
201912300600 AAXX 30064 67551 11370 80000 10190 20188 48518 60094 76062 8667/
                   333 10269 20178 58009 86703 88362 91019=
201912270900 AAXX 27094 67551 42570 72706 10252 20199 48511 87200
                   333 59003 87825 91018=
201912270600 AAXX 27064 67551 32270 23404 10198 20188 48508 82501
                   333 10296 20175 59004 82606 81080 91018=
201912260900 AAXX 26094 67551 NIL=
201912260600 AAXX 26064 67551 12370 73204 10201 20187 48512 60114 81520
                   333 10265 20183 59007 81610 87362 91019=
201912240900 AAXX 24094 67551 NIL=
201912230900 AAXX 23094 67551 42575 73603 10238 20178 48531 86230
                   333 59016 86822 86362 91020=
201912230600 AAXX 23064 67551 12470 60000 10204 20184 48531 60104 84530
                   333 10292 20172 58001 84610 86362 91021=
201912200900 AAXX 20094 67551 42470 62004 10232 20184 48523 81120
                   333 58006 81815 85462 91020=
201912200600 AAXX 20064 67551 11970 71203 10189 20163 48533 60014 76062 8702/
                   333 10309 20164 58010 87462 91020=
201912191200 AAXX 19124 67551 42670 70704 10292 20166 48492 87200
                   333 59007 87845 91015=
201912190600 AAXX 19064 67551 31970 11003 10224 2//// 48522 81030
                   333 10284 20161 58006 81362 91019=
201912180900 AAXX 18094 67551 42580 61206 10261 20165 48517 86230
                   333 59004 86825 91018=
201912180600 AAXX 18064 67551 32975 50903 10210 20180 48514 82030
                   333 10294 20162 58000 82362 81080 91019=
201912170900 AAXX 17094 67551 NIL=
201912170600 AAXX 17064 67551 12975 51205 10206 20172 48514 60184 85030
                   333 10301 20169 59009 85362 91019=
201912160900 AAXX 16094 67551 42470 62905 10230 20190 48525 83530
                   333 59003 83615 86362 91020=
201912160600 AAXX 16064 67551 12370 72705 10186 20179 48526 60164 72996 8267/
                   333 10254 20179 59003 82707 87362 91020=
201912130900 AAXX 13094 67551 42570 71504 10243 20188 48514 82130
                   333 58001 82825 87362=
201912121200 AAXX 12124 67551 42680 73604 10251 20175 48496 86230
                   333 58004 86830 86362 91016=
201912120900 AAXX 12094 67551 42580 83504 10230 20169 48551 8387/
                   333 59002 83820 88362 91018=
201912120600 AAXX 12064 67551 12980 83004 10187 20172 48522 69904 72166 8807/
                   333 10251 20173 58009 88362 91019=
201912111200 AAXX 11124 67551 41680 73004 10207 20172 48488 71799 81930
                   333 58022 81933 84840 86362 91016=
201912110600 AAXX 11064 67551 12975 70304 10188 20167 48509 69954 8707/
                   333 10235 20171 58010 87362 91018=
201912091200 AAXX 09124 67551 42370 73405 10234 20176 48476 81630
                   333 58011 81708 84830 86360 91014=
201912090600 AAXX 09064 67551 12370 73405 10188 20180 48500 60294 8267/
                   333 10240 20170 59013 82706 87360 91017=
201912060600 AAXX 06064 67551 12370 70905 10194 20176 48514 83630
                   333 10235 20184 59004 83706 87360 91019=
201912051200 AAXX 05124 67551 42370 60905 10236 20191 48490 72166 81930
                   333 58003 81945 85360 91016=
201912050900 AAXX 05094 67551 42570 60605 10241 20182 48517 85231
                   333 58003 85845 82362 81080 91019=
201912050600 AAXX 05064 67551 12370 60605 10203 20181 48524 60014 83830
                   333 10272 20177 58010 83610 82845 85360 91020=
201912031200 AAXX 03124 67551 42670 70404 10264 20174 48488 86201
                   333 59003 86840 82080 91015=
201912030900 AAXX 03094 67551 42570 70606 10235 20175 48512 82230
                   333 58000 82825 86362 91018=
201912030600 AAXX 03064 67551 12370 71305 10202 20179 48517 60014 8257/
                   333 10273 20180 58000 82610 87362 91019=
201912021200 AAXX 02124 67551 42670 60905 10266 20176 48492 85231
                   333 58002 85840 86362 81080 91015=
201912020900 AAXX 02094 67551 42570 70605 10256 20171 48514 83131
                   333 59004 83825 86360 81080 91018=
201912020600 AAXX 02064 67551 NIL=

################################################################################
#  SYNOPS from 67561, Ndola (Zambia) | 13-00S | 028-39E | 1269 m
################################################################################
201912310600 AAXX 31064 67561 11359 73503 10218 20203 48509 69934 70422 85638
                   333 10272 20202 58001 85706 85360 86280 91018=
201912300600 AAXX 30064 67561 11456 70000 10211 20202 48510 60124 74342 8573/
                   333 10265 20204 58000 85707 87360 91018=
201912270600 AAXX 27064 67561 31260 79903 10228 20200 48513 70522 83638
                   333 10305 20198 59002 83704 85360 86280 91018=
201912260900 AAXX 26094 67561 NIL=
201912260600 AAXX 26064 67561 11259 80605 10205 20194 48514 60064 74122 8667/
                   333 10292 20192 59008 86704 88459 91018=
201912240900 AAXX 24094 67561 41560 51305 10275 20180 48526 70522 85201
                   333 59011 85825 83080 91019=
201912200600 AAXX 20064 67561 11359 60000 10225 20193 48524 60094 70422 83638
                   333 10316 20180 59004 83706 83360 86280 91019=
201912190600 AAXX 19064 67561 31958 20603 10231 20184 48528 74240 81031
                   333 10291 20181 58009 81360 82080 91020=
201912180600 AAXX 18064 67561 31959 20804 10232 20163 48/// 72844 82030
                   333 10290 20192 59013 82360 91019=
201912170900 AAXX 17094 67561 NIL=
201912160600 AAXX 16064 67561 11465 70000 10190 20183 48519 60494 70522 82538
                   333 10299 20165 59013 82610 86360 87280 91019=
201912130900 AAXX 13094 67561 41560 70000 10256 20186 48520 70522 82231
                   333 58003 82820 86360 83080 91019=
201912130600 AAXX 13064 67561 11959 70203 10211 20183 48523 69914 70422 84038
                   333 10272 20189 58001 84360 87280 91019=
201912121200 AAXX 12124 67561 NIL=
201912120900 AAXX 12094 67561 NIL=
201912120600 AAXX 12064 67561 11370 70503 10203 20185 48526 60024 70522 84538
                   333 10260 20190 58014 84660 87360 86280 91019=
201912111200 AAXX 11124 67561 41670 60000 10250 20188 48490 70552 84230
                   333 58016 81930 84835 86280 91015=
201912110600 AAXX 11064 67561 11370 79903 10193 20181 48507 60034 70565 8577/
                   333 10277 20185 58005 85708 87460 91018=
201912091200 AAXX 09124 67561 41560 60303 10263 20184 48471 70522 86202
                   333 59010 86825 82080 91013=
201912090600 AAXX 09064 67561 11260 70000 10207 20192 48504 69914 72052 8473/
                   333 10275 20192 59006 84705 87360 91017=
201912060600 AAXX 06064 67561 31460 60806 10228 20171 48529 70522 83238
                   333 10270 20174 59011 83810 85360 86280 91019=
201912051200 AAXX 05124 67561 NIL=
201912050900 AAXX 05094 67561 41560 60805 10232 20177 48531 76022 85230
                   333 85825 83360 91020=
201912050600 AAXX 05064 67561 11370 60704 10224 20182 48534 60014 70562 81630
                   333 10295 20194 58014 81709 86360 91020=
201912031200 AAXX 03124 67561 41660 50204 10289 20169 48489 85232
                   333 59002 85840 81360 82080 91015=
201912030900 AAXX 03094 67561 41560 50403 10260 20184 48518 70522 84230
                   333 59006 84825 84360 91018=
201912030600 AAXX 03064 67561 11959 50903 10244 20180 48519 60194 70422 85081
                   333 10289 20186 59001 85360 83080 91019=
201912020900 AAXX 02094 67561 NIL=
201912020600 AAXX 02064 67561 11460 70000 10205 20183 48517 60144 70522 84632
                   333 10266 20189 59001 84708 86360 84980 91019=

################################################################################
#  SYNOPS from 67563, Kafironda (Zambia) | 12-36S | 028-07E | 1243 m
################################################################################
201912310600 AAXX 31064 67563 11380 70203 10206 20200 48/// 60144 72162 8477/
                   333 10285 20190 5//// 84708 87359
                   555 00188=
201912300600 AAXX 30064 67563 11380 70802 10218 20190 48/// 60094 72162 83770
                   333 10289 20167 5//// 83708 87358
                   555 00163=
201912260900 AAXX 26094 67563 NIL=
201912260600 AAXX 26064 67563 11380 80404 10205 20190 48/// 60134 72162 887//
                   333 10290 20170 5//// 88708
                   555 00164=
201912240900 AAXX 24094 67563 NIL=
201912240600 AAXX 24064 67563 12380 30404 10228 20190 48/// 60054 83600
                   333 10285 20176 5//// 83709
                   555 00162=
201912200600 AAXX 20064 67563 12980 33603 10220 20190 48/// 60054 80002
                   333 10317 20171 5//// 83080
                   555 00166=
201912190600 AAXX 19064 67563 32980 00803 10232 20190 48/// 80001
                   333 10302 20172 5//// 83080
                   555 00162=
201912180600 AAXX 18064 67563 32380 11503 10230 20190 48/// 81600
                   333 10296 20152 5//// 81708
                   555 00142=
201912170900 AAXX 17094 67563 NIL=
201912170600 AAXX 17064 67563 11378 40802 10224 20190 48/// 60014 70520 81670
                   333 10294 20176 5//// 81708 83360
                   555 00170=
201912160600 AAXX 16064 67563 11380 72802 10202 20180 48/// 60774 72162 8277/
                   333 10308 20173 5//// 82708 87359
                   555 00169=
201912130600 AAXX 13064 67563 11978 70402 10230 20190 48/// 60024 70522 87070
                   333 10280 20181 5//// 87360
                   555 00173=
201912121200 AAXX 12124 67563 NIL=
201912120900 AAXX 12094 67563 NIL=
201912120600 AAXX 12064 67563 11365 80302 10191 20190 48/// 60334 76162 8577/
                   333 10290 20186 5//// 85708 88359
                   555 00180=
201912110600 AAXX 11064 67563 11378 73603 10208 20190 48/// 60254 70562 83770
                   333 10265 20178 58007 83709 87358
                   555 00170=
201912091200 AAXX 09124 67563 NIL=
201912090600 AAXX 09064 67563 11378 83304 10218 20190 48/// 60024 72162 8477/
                   333 10289 20183 59003 84708 88358
                   555 00171=
201912060600 AAXX 06064 67563 11975 71302 10205 20174 48/// 60124 8707/
                   333 10250 20184 59014 87358
                   555 00165=
201912051200 AAXX 05124 67563 NIL=
201912050900 AAXX 05094 67563 NIL=
201912050600 AAXX 05064 67563 11375 70701 10220 20190 48/// 69934 70562 8663/
                   333 10310 20184 58015 86708 81358
                   555 00171=
201912040600 AAXX 04064 67563 11975 41511 10230 20185 48/// 60024 70511 84070
                   333 10310 20170 59001 84359
                   555 00160=
201912031200 AAXX 03124 67563 NIL=
201912030900 AAXX 03094 67563 NIL=
201912030600 AAXX 03064 67563 11375 71101 10230 20201 48/// 60034 70522 82570
                   333 10294 20190 59002 85359
                   555 00181=
201912020900 AAXX 02094 67563 NIL=
201912020600 AAXX 02064 67563 11378 83502 10207 20190 48/// 60154 72162 8277/
                   333 10290 20182 58000 82708 88358
                   555 00170=

################################################################################
#  SYNOPS from 67571, Serenje (Zambia) | 13-14S | 030-13E | 1384 m
################################################################################
201912310600 AAXX 31064 67571 11378 81502 10193 20189 48461 60054 75155 887//
                   333 10259 20179 58005 88708=
201912301200 AAXX 30124 67571 41682 71808 10251 20187 48443 76166 8523/
                   333 58006 81935 85635 87360=
201912300600 AAXX 30064 67571 12482 71508 10215 20183 48452 60024 875//
                   333 10257 20183 59001 87619=
201912270600 AAXX 27064 67571 12582 73603 10214 20198 48462 81538
                   333 10271 20171 59023 81620 81360 87280=
201912261200 AAXX 26124 67571 41680 70000 10245 20191 48473 78098 82958
                   333 58001 81932 82832 81360 87280=
201912260900 AAXX 26094 67571 NIL=
201912260600 AAXX 26064 67571 11378 73605 10211 20189 48482 60014 72842 85638
                   333 10279 20174 58002 85708 81360 87280=
201912240900 AAXX 24094 67571 NIL=
201912240600 AAXX 24064 67571 12582 50902 10214 20181 48482 69904 82531
                   333 10270 20175 59014 82621 82360 84080=
201912230900 AAXX 23094 67571 42682 71505 10240 20173 48473 70262 8563/
                   333 59005 81930 85630 87360=
201912230600 AAXX 23064 67571 12482 71506 10198 20173 48492 69904 70262 875//
                   333 10281 20178 58010 87618=
201912200900 AAXX 20094 67571 42582 73305 10253 20181 48/// 872//
                   333 5//// 81928 87828=
201912200600 AAXX 20064 67571 32982 70000 10210 20181 48/// 80008
                   333 10294 20176 5//// 87080=
201912191200 AAXX 19124 67571 41670 60305 10274 20171 48453 71682 86200
                   333 58000 81945 86845=
201912180600 AAXX 18064 67571 32480 71205 10216 20169 48472 83508
                   333 10269 20164 58012 83618 86280=
201912170900 AAXX 17094 67571 NIL=
201912170600 AAXX 17064 67571 12482 71208 10202 20179 48/// 69904 875//
                   333 10285 20166 5//// 87620=
201912160900 AAXX 16094 67571 42582 72402 10257 20179 48474 872//
                   333 59012 81925 87825=
201912131200 AAXX 13124 67571 41477 80906 10223 20181 48452 79596 84547
                   333 58007 81920 85620 83360 88280=
201912130900 AAXX 13094 67571 42582 73302 10252 20173 48473 85238
                   333 58007 81928 85828 81360 86280=
201912130600 AAXX 13064 67571 32582 73602 10213 20176 48472 81138
                   333 10243 20174 58017 81820 81360 87280=
201912121200 AAXX 12124 67571 NIL=
201912120900 AAXX 12094 67571 NIL=
201912111200 AAXX 11124 67571 42582 73603 10250 20176 48/// 83241
                   333 5//// 81925 83825 81360 84080=
201912110900 AAXX 11094 67571 42482 73603 10215 20178 48/// 8257/
                   333 5//// 81618 87460=
201912110600 AAXX 11064 67571 NIL=
201912101200 AAXX 10124 67571 42582 73306 10217 20181 48/// 875//
                   333 5//// 87625=
201912091200 AAXX 09124 67571 42682 3//// 10271 20154 48/// 83208
                   333 5//// 81935 83835 87280=
201912090600 AAXX 09064 67571 32582 73605 10203 20175 48462 875//
                   333 10287 20180 59018 87620=
201912060600 AAXX 06064 67571 12482 71205 10193 20178 48482 60034 875//
                   333 10272 20174 59009 87615=
201912051200 AAXX 05124 67571 NIL=
201912050900 AAXX 05094 67571 42482 71504 10214 20181 48482 875//
                   333 58022 87615=
201912050600 AAXX 05064 67571 11270 81504 10180 20174 48491 60474 75355 887//
                   333 10299 20173 58018 88705=
201912040600 AAXX 04064 67571 32582 70604 10225 20181 48473 83538
                   333 10299 20173 58002 83623 81360 87280=
201912031200 AAXX 03124 67571 42680 51204 10280 20149 48443 85200
                   333 59012 81940 85840=
201912030900 AAXX 03094 67571 42682 60603 10267 20164 48464 86200
                   333 58001 81930 86830=
201912030600 AAXX 03064 67571 12582 30602 10237 20167 48473 60024 83230
                   333 10285 20181 59007 83825 81360=
201912020900 AAXX 02094 67571 NIL=
201912020600 AAXX 02064 67571 12482 70000 10214 20189 48483 60374 875//
                   333 10277 20177 58018 87618=

################################################################################
#  SYNOPS from 67575, Mkushi (Zambia) | 13-38-00S | 029-26-00E | 1237 m
################################################################################
201912310600 AAXX 31064 67575 12380 70402 10212 20202 48/// 60014 87630
                   333 10305 20180 5//// 87708 81360
                   555 00194=
201912271200 AAXX 27124 67575 41660 53606 10288 20199 48/// 71792 83273
                   333 5//// 81935 83835 81360 82080=
201912270600 AAXX 27064 67575 12980 60302 10218 20199 48470 69964 81088
                   333 10294 20207 59003 81360 86278
                   555 00200=
201912260900 AAXX 26094 67575 42580 73605 10270 20198 48473 83208
                   333 5//// 83828 85280=
201912240900 AAXX 24094 67575 NIL=
201912240600 AAXX 24064 67575 12480 50903 10235 20189 48491 60034 82508
                   333 10297 20180 59013 82615 84278
                   555 00179=
201912230900 AAXX 23094 67575 42680 41205 10260 20177 48/// 84233
                   333 5//// 81932 84832 81361 81080=
201912230600 AAXX 23064 67575 32480 71007 10217 20174 48502 84571
                   333 10301 20175 58008 84615 83360 81080
                   555 00178=
201912201200 AAXX 20124 67575 42680 72001 10292 20184 48453 81208
                   333 58003 81837 87280=
201912200900 AAXX 20094 67575 42680 73501 10274 20187 48/// 82208
                   333 5//// 82830 86280=
201912200600 AAXX 20064 67575 32980 70901 10214 20193 48/// 80008
                   333 10322 20170 5//// 87278
                   555 00174=
201912191200 AAXX 19124 67575 42680 31202 10306 20172 48452 83200
                   333 59013 83837=
201912180600 AAXX 18064 67575 32480 51205 10216 20176 48/// 82508
                   333 10284 20181 5//// 82612 84278
                   555 00165=
201912170900 AAXX 17094 67575 42680 61207 10258 20171 48/// 83200
                   333 5//// 83830 84280=
201912170600 AAXX 17064 67575 32480 61307 10227 20181 48/// 82508
                   333 10300 20165 5//// 82612 85278
                   555 00175=
201912160900 AAXX 16094 67575 42680 22601 10265 20183 48/// 82202
                   333 5//// 82830 81080=
201912160600 AAXX 16064 67575 12380 50000 10211 20187 48/// 69924 81671
                   333 10295 20176 5//// 81709 85360 81080
                   555 00176=
201912130900 AAXX 13094 67575 42680 42901 10273 20187 48480 82232
                   333 58001 82830 82362 81080=
201912121200 AAXX 12124 67575 42680 63603 10278 20187 48/// 83273
                   333 5//// 81936 83836 82363 82080=
201912120900 AAXX 12094 67575 42580 73602 10245 20193 48478 81272
                   333 58009 81825 84362 83080=
201912120600 AAXX 12064 67575 12480 83602 10194 20188 48475 60374 8167/
                   333 10290 20166 58012 81708 88460=
201912111200 AAXX 11124 67575 42680 52703 10260 20177 48/// 82232
                   333 5//// 82836 83362 81080=
201912110600 AAXX 11064 67575 11380 73401 10194 20183 48463 60214 72162 81670
                   333 1//// 20170 58004 81708 87460
                   555 00179=
201912101200 AAXX 10124 67575 41580 53601 10242 20197 48/// 72162 82208
                   333 5//// 82827 84278=
201912091200 AAXX 09124 67575 41680 53204 10280 20182 48/// 72992 84273
                   333 5//// 81937 84837 81363 81080=
201912090600 AAXX 09064 67575 12480 73602 10210 20194 48462 86571
                   333 10306 20185 59003 86612 81360 82080
                   555 00190=
201912060600 AAXX 06064 67575 32480 60908 10222 20173 48/// 85531
                   333 10275 20185 5//// 85615 81360 82080
                   555 00178=
201912051200 AAXX 05124 67575 42680 51208 10258 20172 48466 83233
                   333 5//// 81936 83836 83262 81080=
201912050900 AAXX 05094 67575 42580 71005 10222 20181 48/// 86270
                   333 5//// 86825 82360=
201912050600 AAXX 05064 67575 12480 71209 10206 20177 48/// 60074 86570
                   333 10292 20175 5//// 86613 82360
                   555 00175=
201912040600 AAXX 04064 67575 32480 23602 10227 20185 48477 81102
                   333 10305 20165 59002 81815 82080
                   555 00162=
201912031200 AAXX 03124 67575 42680 21202 10294 20157 48446 82200
                   333 59012 82838=
201912030900 AAXX 03094 67575 42680 30905 10274 20169 48475 82230
                   333 59005 82832 82361=
201912030600 AAXX 03064 67575 12490 62701 10230 20193 48479 60014 81170
                   333 10292 20190 59007 81815 86360
                   555 00188=
201912021200 AAXX 02124 67575 41640 60705 10216 20184 48453 79598 84273
                   333 5//// 81937 84837 82360 81080=
201912020900 AAXX 02094 67575 42680 33401 10265 20198 48480 83200
                   333 5//// 83830=
201912020600 AAXX 02064 67575 12480 40905 10223 20187 48485 60174 83501
                   333 10287 20176 58006 83615 81078
                   555 00180=

################################################################################
#  SYNOPS from 67580, Msekera (Zambia) | 13-39S | 032-34E | 1025 m
################################################################################
201912310600 AAXX 31064 67580 11975 72403 10216 20210 48/// 60124 72162 8807/
                   333 10292 20204 5//// 88460=
201912300600 AAXX 30064 67580 11680 71505 10228 20205 48/// 60024 76062 8787/
                   333 10295 20209 5//// 83832 84634 85360=
201912270900 AAXX 27094 67580 42680 63004 10285 20212 48/// 83208
                   333 5//// 83845 85280=
201912270600 AAXX 27064 67580 12680 71203 10258 20221 48/// 60054 81138
                   333 10330 20206 5//// 81830 81362 87280=
201912261200 AAXX 26124 67580 41780 72707 10286 20202 48/// 71522 84238
                   333 59009 81950 84856 81360 87280=
201912260900 AAXX 26094 67580 42680 70306 10298 20209 48/// 86208
                   333 5//// 86845 87280=
201912260600 AAXX 26064 67580 12580 71204 10260 20202 48/// 69934 82138
                   333 10312 20196 5//// 82820 81360 87280=
201912240900 AAXX 24094 67580 NIL=
201912230600 AAXX 23064 67580 12580 71207 10232 20187 48/// 60034 8117/
                   333 10326 20212 59003 81820 87460=
201912200600 AAXX 20064 67580 32680 70304 10254 20199 48488 83131
                   333 10328 20218 58005 83832 81361 87080=
201912190600 AAXX 19064 67580 32680 50602 10253 20189 48/// 83031
                   333 10333 20198 5//// 83360 82080=
201912170900 AAXX 17094 67580 42580 70000 10252 20185 48/// 84208
                   333 5//// 84840 87280=
201912170600 AAXX 17064 67580 32480 71506 10248 20192 48/// 83237
                   333 10324 20199 5//// 83818 81360 87280=
201912160900 AAXX 16094 67580 42680 72103 10298 20189 48/// 87130
                   333 5//// 87848 81361=
201912160600 AAXX 16064 67580 32980 51202 10258 20201 48/// 85031
                   333 10317 20210 5//// 85360 81080=
201912130900 AAXX 13094 67580 41680 70000 10219 20205 48/// 8227/
                   333 5//// 82830 87460=
201912130600 AAXX 13064 67580 11470 72704 10223 20210 48/// 60874 71562 8627/
                   333 10302 20189 5//// 86818 87460=
201912121200 AAXX 12124 67580 41560 72712 10220 20202 48/// 79792 839//
                   333 5//// 83920 86820=
201912120900 AAXX 12094 67580 41680 71205 10284 20209 48/// 71522 85238
                   333 5//// 85840 81360 87280=
201912120600 AAXX 12064 67580 11975 70000 10232 20212 48/// 60024 72162 86078
                   333 10336 20208 5//// 86460 87280=
201912110600 AAXX 11064 67580 NIL=
201912091200 AAXX 09124 67580 NIL=
201912060600 AAXX 06064 67580 12680 71505 10242 20189 48/// 69924 84830
                   333 10302 20194 5//// 82832 82634 85360=
201912051200 AAXX 05124 67580 NIL=
201912050900 AAXX 05094 67580 NIL=
201912050600 AAXX 05064 67580 12680 71205 10242 20195 48/// 60034 81130
                   333 10344 20207 5//// 81832 87360=
201912040600 AAXX 04064 67580 32680 40902 10290 20184 48/// 81130
                   333 10340 20219 5//// 81834 83360=
201912031200 AAXX 03124 67580 NIL=
201912030900 AAXX 03094 67580 42780 70903 10302 20184 48/// 87200
                   333 5//// 87850=
201912030600 AAXX 03064 67580 32680 10903 10266 20182 48/// 81100
                   333 10337 20200 5//// 81834=
201912020900 AAXX 02094 67580 NIL=
201912020600 AAXX 02064 67580 NIL=

################################################################################
#  SYNOPS from 67581, Chipata (Zambia) | 13-33S | 032-35E | 1028 m
################################################################################
201912310600 AAXX 31064 67581 11470 81204 10216 20206 48501 60224 76166 8677/
                   333 1//// 20206 5//// 86710 88459 91015=
201912260900 AAXX 26094 67581 NIL=
201912260600 AAXX 26064 67581 12580 50605 10250 20193 48531 69904 81132
                   333 1//// 20196 59003 81820 82360 85080 91018=
201912240900 AAXX 24094 67581 NIL=
201912230600 AAXX 23064 67581 11580 71406 10236 20168 48550 69904 75052 83132
                   333 10//0 20220 59004 83830 84360 82080 91020=
201912200600 AAXX 20064 67581 32580 60406 10255 20188 48539 83202
                   333 1//// 20226 5//// 83820 86080 91018=
201912190600 AAXX 19064 67581 12980 31405 10256 20176 48/// 69904
                   333 1//// 20194 5//// 83360=
201912170900 AAXX 17094 67581 NIL=
201912130900 AAXX 13094 67581 41680 60704 10259 20178 48543 71792 83232
                   333 5//// 81936 82836 84360 91019=
201912130600 AAXX 13064 67581 12680 81206 10223 20186 48542 60074 8217/
                   333 1//// 20191 5//// 82830 88459 91021=
201912121200 AAXX 12124 67581 NIL=
201912120900 AAXX 12094 67581 42580 73010 10270 20197 48/// 862//
                   333 5//// 86825=
201912120600 AAXX 12064 67581 12980 70000 10237 20197 48/// 69904 8707/
                   333 1//// 20202 5//// 87460=
201912110600 AAXX 11064 67581 12680 61606 10236 20198 48520 60014 82132
                   333 1//// 20204 58007 82835 84360 82080 91017=
201912091200 AAXX 09124 67581 NIL=
201912090600 AAXX 09064 67581 32680 71206 10249 20194 48513 82132
                   333 1//// 20214 58003 82835 86360 82080 91016=
201912060600 AAXX 06064 67581 12580 31612 10238 20178 48/// 69904 82130
                   333 1//// 20202 5//// 82820 83360=
201912051200 AAXX 05124 67581 NIL=
201912050900 AAXX 05094 67581 NIL=
201912040900 AAXX 04094 67581 42680 60710 10310 20162 48531 8423/
                   333 5//// 84835 85360 91017=
201912040600 AAXX 04064 67581 32980 30608 10270 20170 48532 83030
                   333 1//// 20224 5//// 83360 91017=
201912031200 AAXX 03124 67581 NIL=
201912030900 AAXX 03094 67581 NIL=
201912030600 AAXX 03064 67581 32680 21205 10262 20166 48/// 82100
                   333 1//// 20204 5//// 82835=
201912020900 AAXX 02094 67581 NIL=
201912020600 AAXX 02064 67581 32980 40605 10255 20171 48544 84030
                   333 1//// 20226 58008 84360 91019=

################################################################################
#  SYNOPS from 67583, Lundazi (Zambia) | 12-17S | 033-12E | 1143 m
################################################################################
201912310600 AAXX 31064 67583 12060 83602 10202 20202 48/// 60424 8572/
                   333 10196 2//// 5//// 85701 88459=
201912301200 AAXX 30124 67583 41050 83602 10192 20192 48/// 76366 84202
                   333 58007 81701 88458=
201912270900 AAXX 27094 67583 42680 71203 10284 20202 48/// 8323/
                   333 5//// 83832 87360=
201912270600 AAXX 27064 67583 12980 70000 10222 20202 48/// 69904 8703/
                   333 10300 2//// 5//// 87359=
201912260900 AAXX 26094 67583 NIL=
201912240900 AAXX 24094 67583 42680 70000 10278 20193 48/// 872//
                   333 5//// 87835=
201912200600 AAXX 20064 67583 12880 70000 10242 20202 48/// 60114 8703/
                   333 10324 2//// 5//// 87358=
201912191200 AAXX 19124 67583 42780 60000 10308 20173 48/// 85201
                   333 5//// 85850 81080=
201912190600 AAXX 19064 67583 32980 60000 10248 20192 48/// 81036
                   333 10308 2//// 5//// 81359 86280=
201912170900 AAXX 17094 67583 NIL=
201912170600 AAXX 17064 67583 12480 71803 10224 20192 48/// 60174 875//
                   333 10300 2//// 5//// 87612=
201912160900 AAXX 16094 67583 41680 60000 10292 20172 48/// 71792 81931
                   333 5//// 81940 84848 81080=
201912121200 AAXX 12124 67583 42580 73502 10264 20196 48/// 81238
                   333 5//// 81825 81360 87280=
201912120900 AAXX 12094 67583 42580 73602 10260 20196 48/// 83238
                   333 5//// 83822 81359 87280=
201912120600 AAXX 12064 67583 12480 70200 10242 20202 48/// 69904 81238
                   333 10300 2//// 5//// 81818 83359 87280=
201912110600 AAXX 11064 67583 32980 70000 10238 20203 48/// 83038
                   333 10290 2//// 5//// 83359 87280=
201912091200 AAXX 09124 67583 NIL=
201912090600 AAXX 09064 67583 12980 73602 10236 20182 48/// 60014 8703/
                   333 10298 2//// 5//// 87359=
201912060600 AAXX 06064 67583 32480 70902 10232 20200 48/// 875//
                   333 10324 2//// 5//// 87615=
201912051200 AAXX 05124 67583 42680 70602 10318 20155 48/// 81901
                   333 5//// 81945 84850 82080=
201912050900 AAXX 05094 67583 NIL=
201912050600 AAXX 05064 67583 12580 71802 10246 20185 48/// 60014 8123/
                   333 10320 2//// 5//// 81825 87359=
201912040900 AAXX 04094 67583 41680 61202 10306 20173 48/// 71792 81900
                   333 5//// 81945 85850=
201912031200 AAXX 03124 67583 41680 70902 10306 20162 48/// 71792 819//
                   333 5//// 81948 87850=
201912030900 AAXX 03094 67583 NIL=
201912030600 AAXX 03064 67583 32680 40902 10266 20182 48/// 83230
                   333 10318 2//// 5//// 83835 81359=
201912021200 AAXX 02124 67583 42780 51202 10316 20163 48/// 83231
                   333 5//// 83850 81361 82080=
201912020900 AAXX 02094 67583 42680 71103 10298 20184 48/// 8223/
                   333 5//// 82846 87359=
201912020600 AAXX 02064 67583 NIL=

################################################################################
#  SYNOPS from 67599, Mfuwe (Zambia) | 13-16S | 031-56E | 568 m
################################################################################
201912310600 AAXX 31064 67599 11856 82401 10231 20231 48497 60344 76262 8802/
                   333 10296 20212 59003 88458
                   555 00230 91013=
201912270600 AAXX 27064 67599 32980 71003 10271 20214 48515 83031
                   333 10365 20205 59012 83360 82080
                   555 00219=
201912260900 AAXX 26094 67599 NIL=
201912240900 AAXX 24094 67599 NIL=
201912200600 AAXX 20064 67599 32980 70102 10259 20209 48530 8707/
                   333 10384 20234 59008 87460
                   555 00243 91016=
201912190600 AAXX 19064 67599 11975 60000 10264 20216 48537 70521 86030
                   333 10349 20218 59002 86360
                   555 00217 91017=
201912180600 AAXX 18064 67599 12580 31603 10262 20208 48539 60074 82131
                   333 10330 20197 59005 82820 81360
                   555 00203 91017=
201912170900 AAXX 17094 67599 NIL=
201912160600 AAXX 16064 67599 32980 70000 10273 20216 48527 8707/
                   333 10353 20227 59025 87460
                   555 00228 91015=
201912121200 AAXX 12124 67599 NIL=
201912120900 AAXX 12094 67599 NIL=
201912120600 AAXX 12064 67599 11459 72502 10255 20227 48516 60014 76062 8177/
                   333 10349 20218 58008 81710 87458
                   555 00226 91015=
201912110600 AAXX 11064 67599 12380 73502 10254 20226 48551 60024 81531
                   333 10310 20215 59009 81610 86360 81080
                   555 00228 91014=
201912091200 AAXX 09124 67599 NIL=
201912090600 AAXX 09064 67599 31480 73402 10269 20212 48500 76022 8657/
                   333 10367 20226 59008 85618 87460
                   555 00226 91013=
201912060600 AAXX 06064 67599 11575 71705 10259 20217 48535 60154 81130
                   333 10324 20206 59004 81825 87360
                   555 00212 91017=
201912051200 AAXX 05124 67599 NIL=
201912050900 AAXX 05094 67599 NIL=
201912050600 AAXX 05064 67599 11575 72504 10255 20204 48542 60104 70522 8117/
                   333 10395 20215 58027 81825 87460
                   555 00222=
201912040600 AAXX 04064 67599 32680 51302 1//// 20186 48534 82131
                   333 10390 20218 59004 82840 83360 83080
                   555 00230 91015=
201912031200 AAXX 03124 67599 NIL=
201912030900 AAXX 03094 67599 NIL=
201912030600 AAXX 03064 67599 32980 20910 10296 20176 48534 82030
                   333 10291 20208 59005 82360
                   555 00210=
201912020900 AAXX 02094 67599 NIL=
201912020600 AAXX 02064 67599 12680 50606 10286 20182 48536 69904 81131
                   333 10306 20225 58003 81838 85360 82080
                   555 00236 91016=

################################################################################
#  SYNOPS from 67625, Kalabo (Zambia) | 14-51S | 022-42E | 1033 m
################################################################################
201912260900 AAXX 26094 67625 NIL=
201912240900 AAXX 24094 67625 NIL=
201912230600 AAXX 23064 67625 32982 73306 10230 20193 48/// 81083
                   333 10325 20200 58004 81360 87075=
201912180600 AAXX 18064 67625 12982 71105 10240 20198 48/// 60114 80003
                   333 10306 20195 58002 87075=
201912170900 AAXX 17094 67625 NIL=
201912160600 AAXX 16064 67625 12982 72704 10225 20187 48/// 69904 85073
                   333 10326 20196 59018 85360 87075=
201912130900 AAXX 13094 67625 42982 83505 10294 20166 48/// 82040
                   333 58001 82360=
201912121200 AAXX 12124 67625 NIL=
201912120900 AAXX 12094 67625 42682 33111 10290 20193 48/// 81133
                   333 58014 81836 81360 83075=
201912120600 AAXX 12064 67625 32982 23310 10225 20185 48/// 81031
                   333 10345 20174 58017 81360 82075=
201912110600 AAXX 11064 67625 32982 63308 10215 20193 48/// 80003
                   333 10355 20180 58007 86075=
201912101200 AAXX 10124 67625 42982 71806 10340 20102 48/// 81033
                   333 58001 81360 87075=
201912091200 AAXX 09124 67625 NIL=
201912090600 AAXX 09064 67625 12982 33308 10230 20211 48/// 60024 82083
                   333 10276 20203 59015 82360 83075=
201912060600 AAXX 06064 67625 11582 80801 10205 20197 48/// 60074 72052 8802/
                   333 10270 20194 59004 88520=
201912051200 AAXX 05124 67625 NIL=
201912050900 AAXX 05094 67625 NIL=
201912050600 AAXX 05064 67625 12982 70000 10199 20193 48/// 60234 87073
                   333 10286 20184 58013 87460 87075=
201912031200 AAXX 03124 67625 NIL=
201912030900 AAXX 03094 67625 NIL=
201912030600 AAXX 03064 67625 NIL=
201912020900 AAXX 02094 67625 NIL=
201912020600 AAXX 02064 67625 NIL=

################################################################################
#  SYNOPS from 67633, Mongu (Zambia) | 15-15S | 023-09E | 1052 m
################################################################################
201912310600 AAXX 31064 67633 12980 62402 10244 20215 48507 60014 82032
                   333 10286 20210 59018 82360 86280
                   555 00210 91016=
201912301200 AAXX 30124 67633 42680 61804 10265 20216 48494 85200
                   333 5//// 85830 91014=
201912300600 AAXX 30064 67633 12960 73602 10223 20204 48497 60054 87070
                   333 10325 20205 5//// 87360
                   555 00214 91015=
201912271200 AAXX 27124 67633 41680 62704 10295 20196 48499 71792 81931
                   333 58019 81930 84830 86360 81080 91015=
201912270600 AAXX 27064 67633 12980 72703 10235 20210 48500 60024 87030
                   333 10343 20217 59008 87360
                   555 00217 91015=
201912261200 AAXX 26124 67633 42680 62702 10310 20198 48489 83202
                   333 5//// 81940 83840 85080 91013=
201912260900 AAXX 26094 67633 42680 63602 10260 20196 48510 82138
                   333 59005 82840 81360 86280 91016=
201912240900 AAXX 24094 67633 NIL=
201912240600 AAXX 24064 67633 32980 02903 10245 20179 48521
                   333 10330 20191 59001
                   555 00190 91018=
201912230600 AAXX 23064 67633 12980 23603 10235 20184 48525 69944 80002
                   333 10324 20190 82080
                   555 00195 91018=
201912201200 AAXX 20124 67633 41680 83605 10225 20183 48498 79899 81901
                   333 58019 81930 84835 84080 91016=
201912200900 AAXX 20094 67633 42680 42703 10305 20207 48530 84202
                   333 58008 84835 83080 91018=
201912200600 AAXX 20064 67633 12980 73602 10250 20210 48521 60024 81038
                   333 10351 20200 59009 81361 86280 91018=
201912190600 AAXX 19064 67633 12980 63604 10240 20200 48529 69954 86030
                   333 10341 20213 58019 86360
                   555 00210 91019=
201912180600 AAXX 18064 67633 32980 20902 10246 20187 48512 80002
                   333 10322 20200 59001 82080
                   555 00190=
201912170900 AAXX 17094 67633 42680 50901 10305 20192 48/// 85200
                   333 59006 85830 91017=
201912170600 AAXX 17064 67633 12980 60902 10235 20201 48509 60014 84031
                   333 10322 20205 59004 84360 82080
                   555 00206 91017=
201912160600 AAXX 16064 67633 12480 63601 10220 20199 48514 60674 83538
                   333 10343 20180 59023 83615 84360 86280
                   555 00180 91017=
201912131200 AAXX 13124 67633 42680 50302 10330 20168 48503 85201
                   333 58005 81940 84840 81080 91014=
201912130900 AAXX 13094 67633 42980 13605 10293 20171 48520 80001
                   333 58004 81080 91017=
201912121200 AAXX 12124 67633 NIL=
201912120900 AAXX 12094 67633 42680 53606 10285 20201 48507 82230
                   333 58007 81840 83360 91016=
201912120600 AAXX 12064 67633 32980 30905 10244 20190 48519 83030
                   333 10351 20186 58020 83360
                   555 00175 91017=
201912110600 AAXX 11064 67633 NIL=
201912091200 AAXX 09124 67633 NIL=
201912090600 AAXX 09064 67633 32980 63605 10233 20206 48479 86030
                   333 10290 20215 58002 86360
                   555 00202 91014=
201912060900 AAXX 06094 67633 42680 61006 10260 20204 48513 86200
                   333 59012 86840 91016=
201912060600 AAXX 06064 67633 12980 60906 10235 20192 48503 60144 86071
                   333 10279 2//// 58002 84360 82080
                   555 00203 91017=
201912051200 AAXX 05124 67633 42680 71802 10215 20204 48477 71792 81970
                   333 58002 81930 84830 87460 91014=
201912050900 AAXX 05094 67633 42680 62701 10260 20196 48522 85201
                   333 58012 85830 82080 91018=
201912050600 AAXX 05064 67633 32580 60902 10220 20198 48506 82530
                   333 10310 20190 58009 82620 86360
                   555 00190 91017=
201912031200 AAXX 03124 67633 NIL=
201912030900 AAXX 03094 67633 NIL=
201912030600 AAXX 03064 67633 NIL=
201912021200 AAXX 02124 67633 42680 60902 10320 20201 48493 86201
                   333 58009 81940 84840 83080 91014=
201912020900 AAXX 02094 67633 42680 70906 10285 20198 48517 85201
                   333 58016 85230 82080 91017=
201912020600 AAXX 02064 67633 12980 71302 10244 20210 48500 60044 84038
                   333 10324 20210 59009 84360 87280
                   555 00216 91016=

################################################################################
#  SYNOPS from 67641, Kaoma (Zambia) | 14-48S | 024-48E | 1213 m
################################################################################
201912310600 AAXX 31064 67641 12580 72702 10235 20211 48510 60104 81188
                   333 10319 20211 58009 81828 83358 85275 91016=
201912301200 AAXX 30124 67641 41580 71703 10262 20218 48484 72582 85202
                   333 58005 85834 82080 91013=
201912300600 AAXX 30064 67641 32480 70402 10228 20202 48497 875//
                   333 10307 20203 58005 87626 91015=
201912270600 AAXX 27064 67641 12980 62604 10239 20190 48486 69924 83038
                   333 10336 20207 59013 83361 86280 91014=
201912260900 AAXX 26094 67641 NIL=
201912260600 AAXX 26064 67641 12980 63002 10256 20196 48502 69904 82032
                   333 10361 20210 59015 82361 84080 91015=
201912240900 AAXX 24094 67641 42580 51003 10312 20197 48523 80310
                   333 59011 85834 91017=
201912200900 AAXX 20094 67641 42680 32806 10294 20183 48507 82131
                   333 59005 82835 81360 81080 91015=
201912200600 AAXX 20064 67641 32980 42302 10245 20179 48508 83031
                   333 10356 20131 59003 83360 81080 91016=
201912170900 AAXX 17094 67641 NIL=
201912170600 AAXX 17064 67641 32980 71102 10252 20207 48515 80001
                   333 10325 20193 58000 87080=
201912160600 AAXX 16064 67641 12680 63402 10221 20192 48512 60014 82530
                   333 10297 20197 58005 82630 86360 91017=
201912130900 AAXX 13094 67641 42580 11102 10302 20198 48513 81130
                   333 58001 81835 81361 91016=
201912121200 AAXX 12124 67641 NIL=
201912120900 AAXX 12094 67641 NIL=
201912120600 AAXX 12064 67641 32580 72402 10217 20193 48504 8353/
                   333 10327 20198 58010 83632 87362 91016=
201912110600 AAXX 11064 67641 32980 70402 10219 20193 48498 8703/
                   333 10327 20203 58019 87360 87360 91015=
201912091200 AAXX 09124 67641 NIL=
201912090600 AAXX 09064 67641 12580 72804 10214 20195 48477 60024 83530
                   333 10270 20198 59004 83625 87360 91013=
201912061200 AAXX 06124 67641 41570 70406 10265 20195 48490 78082 8626/
                   333 59004 86836 82359 91014=
201912060600 AAXX 06064 67641 12580 71202 10220 20205 48509 60124 8483/
                   333 10291 20190 59002 82828 83629 87360 91017=
201912051200 AAXX 05124 67641 NIL=
201912050900 AAXX 05094 67641 42580 71403 10236 20202 48515 8327/
                   333 58017 83834 87360 91017=
201912050600 AAXX 05064 67641 11970 71602 10195 20182 48510 60064 76062 8707/
                   333 10337 20187 58017 87460 91017=
201912031200 AAXX 03124 67641 NIL=
201912030900 AAXX 03094 67641 NIL=
201912030600 AAXX 03064 67641 12980 63001 10254 20192 48497 60014 82038
                   333 10324 20208 59004 82361 86280 91015=
201912020900 AAXX 02094 67641 NIL=
201912020600 AAXX 02064 67641 12980 63602 10251 20195 48503 69934 82032
                   333 10314 20210 59006 82360 84080 91015=

################################################################################
#  SYNOPS from 67655, Mumbwa (Zambia) | 15-04S | 027-11E | 1216 m
################################################################################
201912260900 AAXX 26094 67655 NIL=
201912240900 AAXX 24094 67655 NIL=
201912240600 AAXX 24064 67655 32980 21005 10242 20173 48537 81031
                   333 10321 20199 59001 81360 82080 91020=
201912230600 AAXX 23064 67655 32980 31006 10240 20148 48538 80001
                   333 10331 20182 58000 83080 91020=
201912200600 AAXX 20064 67655 32980 53512 10250 20184 48536 85030
                   333 10340 20181 58003 85360 91018=
201912190600 AAXX 19064 67655 32980 30000 10279 20150 48524 80001
                   333 10315 20180 59006 83080 91018=
201912180600 AAXX 18064 67655 32980 40910 10212 20183 48523 80001
                   333 10305 20181 59009 84080 91019=
201912170900 AAXX 17094 67655 NIL=
201912130600 AAXX 13064 67655 32580 41205 10236 20187 48516 82130
                   333 10280 20200 58006 82820 83359 91019=
201912121200 AAXX 12124 67655 NIL=
201912120900 AAXX 12094 67655 NIL=
201912110600 AAXX 11064 67655 NIL=
201912091200 AAXX 09124 67655 NIL=
201912090600 AAXX 09064 67655 12380 70000 10225 20188 48498 60094 875//
                   333 10300 20155 59003 87606 91015=
201912051200 AAXX 05124 67655 NIL=
201912050900 AAXX 05094 67655 NIL=
201912050600 AAXX 05064 67655 12360 70000 10215 20187 48538 60294 876//
                   333 10330 20173 58026 87708 91020=
201912040600 AAXX 04064 67655 32980 60000 10258 20178 48516 83031
                   333 1//// 20192 59006 83360 84080 91017=
201912031200 AAXX 03124 67655 NIL=
201912030900 AAXX 03094 67655 NIL=
201912030600 AAXX 03064 67655 32680 40402 10260 20173 48523 82130
                   333 10305 20170 59009 82830 82360 91018=
201912020900 AAXX 02094 67655 NIL=
201912020600 AAXX 02064 67655 12680 30420 10236 20184 48530 60054 83130
                   333 10304 20163 58008 83830 83080 91019=

################################################################################
#  SYNOPS from 67659, Kafue Polder (Zambia) | 15-46S | 027-55E | 978 m
################################################################################
201912310600 AAXX 31064 67659 12980 63602 10252 20200 48/// 69904 86030
                   333 10332 20205 5//// 86359=
201912300600 AAXX 30064 67659 32480 71004 10252 20207 48/// 8257/
                   333 10320 20205 5//// 82610 85460 81080=
201912270600 AAXX 27064 67659 32980 60802 10260 20207 48/// 86030
                   333 10365 20196 5//// 86360=
201912260900 AAXX 26094 67659 NIL=
201912240900 AAXX 24094 67659 NIL=
201912240600 AAXX 24064 67659 32980 11206 10267 20166 48/// 81030
                   333 10345 20188 5//// 81360=
201912230900 AAXX 23094 67659 42580 20907 10310 20172 48/// 82200
                   333 5//// 82830=
201912230600 AAXX 23064 67659 32980 00907 10265 20173 48///
                   333 10344 20192 5////=
201912200900 AAXX 20094 67659 42980 11802 10320 20180 48/// 81030
                   333 5//// 81360=
201912200600 AAXX 20064 67659 32980 23605 10260 20172 48/// 82030
                   333 10347 20154 5//// 82360=
201912190600 AAXX 19064 67659 32980 00906 10250 20189 48///
                   333 10325 20160 5////=
201912180600 AAXX 18064 67659 32980 11406 10238 20182 48/// 81030
                   333 10312 20188 5//// 81360=
201912170900 AAXX 17094 67659 42580 50706 10281 20190 48/// 82233
                   333 5//// 82830 81360 83080=
201912170600 AAXX 17064 67659 32980 40905 10249 20196 48/// 81033
                   333 10334 20200 5//// 81360 83080=
201912160900 AAXX 16094 67659 42580 2//// 10285 20209 48/// 82230
                   333 5//// 82830 81360=
201912160600 AAXX 16064 67659 32480 40704 10248 20206 48/// 83530
                   333 10300 20200 5//// 83620 81360=
201912121200 AAXX 12124 67659 NIL=
201912120900 AAXX 12094 67659 NIL=
201912120600 AAXX 12064 67659 12980 63602 10221 20191 48/// 60014 86030
                   333 10320 20200 5//// 86360=
201912110600 AAXX 11064 67659 12480 40504 10227 20197 48/// 83530
                   333 10272 20189 5//// 83615 81360=
201912091200 AAXX 09124 67659 NIL=
201912090600 AAXX 09064 67659 12580 81404 10215 20192 48/// 60244 8357/
                   333 10290 20191 5//// 83620 86461=
201912060600 AAXX 06064 67659 32480 70906 10241 20182 48/// 8257/
                   333 10308 20202 5//// 82615 85460=
201912051200 AAXX 05124 67659 NIL=
201912050900 AAXX 05094 67659 42580 60705 10278 20180 48/// 83830
                   333 5//// 82627 81830 84360=
201912050600 AAXX 05064 67659 12480 71207 10225 20188 48/// 69904 8357/
                   333 10341 20190 5//// 83620 85460=
201912031200 AAXX 03124 67659 NIL=
201912030900 AAXX 03094 67659 NIL=
201912030600 AAXX 03064 67659 32980 00706 10285 20202 48///
                   333 10348 20188 5////=
201912020900 AAXX 02094 67659 42680 63607 10320 20190 48/// 84233
                   333 5//// 84830 81360 82080=
201912020600 AAXX 02064 67659 32580 50705 10275 20194 48/// 83230
                   333 10350 20200 58007 83820 82360=

################################################################################
#  SYNOPS from 67662, Kabwe Agric (Zambia) | 14-24S | 028-30E | 1165 m
################################################################################
201912301200 AAXX 30124 67662 41680 70000 10283 20198 48/// 84272
                   333 5//// 84830 81360 82080=
201912300900 AAXX 30094 67662 41680 70000 10265 20199 48/// 83272
                   333 5//// 83830 83360 82080=
201912300600 AAXX 30064 67662 31980 70000 10211 20194 48/// 84072
                   333 10282 20148 5//// 84359 83075=
201912270900 AAXX 27094 67662 41680 50601 10282 20207 48/// 83202
                   333 5//// 83830 82080=
201912270600 AAXX 27064 67662 11980 53602 10252 20214 48/// 60304 82072
                   333 10322 20150 5//// 82358 83080=
201912261200 AAXX 26124 67662 41680 50604 10278 20193 48/// 83202
                   333 5//// 83835 82080=
201912260900 AAXX 26094 67662 NIL=
201912240900 AAXX 24094 67662 NIL=
201912240600 AAXX 24064 67662 31480 30904 10250 20178 48/// 81502
                   333 10310 20144 5//// 81616 82080=
201912200900 AAXX 20094 67662 41980 40000 10270 20180 48/// 82072
                   333 5//// 81360 83080=
201912180900 AAXX 18094 67662 41580 40504 10262 20183 48/// 84200
                   333 5//// 84228=
201912180600 AAXX 18064 67662 31480 41006 10232 20184 48/// 84500
                   333 10295 20190 5//// 84614=
201912170900 AAXX 17094 67662 NIL=
201912170600 AAXX 17064 67662 31980 40902 10230 20182 48/// 80001
                   333 10300 20146 5//// 84080=
201912160900 AAXX 16094 67662 41680 40000 10275 20189 48/// 82272
                   333 5//// 81832 81360 82080=
201912160600 AAXX 16064 67662 31980 40000 10230 20178 48/// 82071
                   333 10305 20136 5//// 81360 82080=
201912130600 AAXX 13064 67662 31580 50000 10252 20190 48/// 81272
                   333 10280 20152 5//// 81820 82358 82080=
201912121200 AAXX 12124 67662 41680 60000 10268 20189 48/// 83270
                   333 5//// 83830 86360=
201912120900 AAXX 12094 67662 41680 70000 10247 20178 48/// 81270
                   333 5//// 81830 86360=
201912120600 AAXX 12064 67662 11980 70000 10235 20182 48/// 69904 87070
                   333 10290 20150 5//// 87360=
201912110600 AAXX 11064 67662 11480 63602 10218 20191 48/// 60084 83570
                   333 10241 20146 5//// 83612 83358=
201912091200 AAXX 09124 67662 NIL=
201912051200 AAXX 05124 67662 NIL=
201912050900 AAXX 05094 67662 NIL=
201912050600 AAXX 05064 67662 12480 71803 10215 20187 48/// 60014 84570
                   333 10295 20138 5//// 84616 83360=
201912031200 AAXX 03124 67662 41680 40904 10299 20164 48/// 84200
                   333 5//// 84842=
201912030900 AAXX 03094 67662 41680 40604 10287 20197 48/// 83270
                   333 5//// 83835 81360=
201912030600 AAXX 03064 67662 11980 20902 10247 20176 48/// 60074 82070
                   333 10300 20152 5//// 82859=
201912020900 AAXX 02094 67662 41580 50903 10282 20198 48/// 85200
                   333 5//// 85830=
201912020600 AAXX 02064 67662 11480 40604 10231 20196 48/// 60134 81531
                   333 10295 20154 5//// 81618 82360 81080=

################################################################################
#  SYNOPS from 67663, Kabwe (Zambia) | 14-27S | 028-28E | 1206 m
################################################################################
201912310600 AAXX 31064 67663 32980 53509 10241 20202 48491 82032
                   333 10310 20192 58001 82360 83080
                   555 00290=
201912301200 AAXX 30124 67663 42680 73507 10291 20187 48488 85232
                   333 58002 85836 83360 84080=
201912300900 AAXX 30094 67663 42580 73603 10268 20201 48484 86532
                   333 58003 86625 83360 84080=
201912300600 AAXX 30064 67663 32980 73304 10213 20193 48490 83032
                   333 10289 20188 58002 83360 86080
                   555 00236=
201912270600 AAXX 27064 67663 12980 73406 10253 20204 48501 60124 82087
                   333 10326 20196 59008 82360 87280
                   555 00278=
201912261200 AAXX 26124 67663 42680 73509 10310 20202 48491 85238
                   333 58001 85837 81360 86280=
201912260900 AAXX 26094 67663 42680 70808 10288 20202 48501 85538
                   333 59001 85633 81360 86280=
201912240900 AAXX 24094 67663 NIL=
201912240600 AAXX 24064 67663 32480 30806 10240 20174 48527 81101
                   333 10215 20185 59007 81818 83080
                   555 00286=
201912200900 AAXX 20094 67663 42980 73606 10295 20166 48504 80007
                   333 5//// 87280=
201912200600 AAXX 20064 67663 32980 63307 10230 20178 48505 80008
                   333 10332 20178 59005 86280
                   555 00268=
201912170900 AAXX 17094 67663 NIL=
201912121200 AAXX 12124 67663 NIL=
201912120900 AAXX 12094 67663 NIL=
201912120600 AAXX 12064 67663 12980 71903 10221 20187 48497 69904 8707/
                   333 10299 20183 58003 87360
                   555 00258=
201912110600 AAXX 11064 67663 12380 73607 10210 20187 48495 60194 84631
                   333 10242 20180 58009 84709 86360 81080
                   555 00244=
201912091200 AAXX 09124 67663 NIL=
201912090600 AAXX 09064 67663 12480 73613 10226 20192 48486 69904 875//
                   333 10259 20204 5//// 87618
                   555 00242=
201912051200 AAXX 05124 67663 NIL=
201912050900 AAXX 05094 67663 NIL=
201912040600 AAXX 04064 67663 32980 52507 10236 20186 48515 80008
                   333 10321 20179 58001 85280
                   555 00324=
201912031200 AAXX 03124 67663 NIL=
201912030900 AAXX 03094 67663 NIL=
201912030600 AAXX 03064 67663 NIL=
201912020900 AAXX 02094 67663 NIL=
201912020600 AAXX 02064 67663 NIL=

################################################################################
#  SYNOPS from 67665, Lusaka Internationalairport (Zambia) | 15-19S | 028-27E | 1152 m
################################################################################
201912310600 AAXX 31064 67665 32980 39902 10233 20197 48518 82032
                   333 1//// 2//// 59002 82360 81080 91018=
201912301500 AAXX 30154 67665 42780 71209 10296 20184 48486 70222 85208
                   333 59002 85850 86280
                   555 10///=
201912301200 AAXX 30124 67665 42680 70906 10289 20176 48505 70322 85208
                   333 59003 85835 86280=
201912300900 AAXX 30094 67665 42560 60604 10255 20189 48520 70222 84530
                   333 59006 84620 83360=
201912300600 AAXX 30064 67665 32460 60705 10237 20193 48521 83532
                   333 10//0 20//0 59004 83612 84360 81080
                   555 00///=
201912300300 AAXX 30034 67665 42380 71303 10208 20185 48502 8163/
                   333 59010 81705 87360=
201912300000 AAXX 30004 67665 42/80 41603 10217 20184 48502 81932
                   333 59006 819// 84360=
201912291800 AAXX 29184 67665 42980 30904 10233 20187 48495 70321 81962
                   333 59003 819// 81360 82080 91015=
201912291500 AAXX 29154 67665 42780 61308 10277 20177 48586 70122 85202
                   333 59001 81950 85850 81080
                   555 10/// 91014=
201912291200 AAXX 29124 67665 42680 70910 10264 20165 48503 70322 87202
                   333 58002 81935 87840 81080 91016=
201912290900 AAXX 29094 67665 42580 70813 10243 20184 48514 70322 85632
                   333 58003 81920 85625 84360 83080 91018=
201912290000 AAXX 29004 67665 42/80 41603 10217 20184 48502 81932
                   333 59006 819// 84360=
201912281800 AAXX 28184 67665 42780 70000 10236 20199 48499 8193/
                   333 58010 81956 87360=
201912281500 AAXX 28154 67665 42680 70605 10266 20184 48486 81932
                   333 58009 81938 83360 86279=
201912281200 AAXX 28124 67665 41660 71105 10235 20183 48499 71799 81932
                   333 58010 81935 86359 82080=
201912280900 AAXX 28094 67665 42580 61004 10265 20183 48523 84231
                   333 58008 84825 82360 81080=
201912280600 AAXX 28064 67665 11459 73503 10200 20193 48520 60094 75066 83470
                   333 10//0 20//0 58007 83612 87459=
201912280300 AAXX 28034 67665 41/59 61704 10188 20172 48498 79590 81940
                   333 59001 819// 86459=
201912280000 AAXX 28004 67665 42980 32604 10205 20182 48498 70200 81930
                   333 59001 819// 83360=
201912272100 AAXX 27214 67665 41/80 51402 10238 20194 48508 71700 81930
                   333 58001 819// 83360=
201912270900 AAXX 27094 67665 42680 60505 10296 20176 48521 70222 86200
                   333 59006 86830=
201912270600 AAXX 27064 67665 32980 63406 10253 20183 48519 84032
                   333 10/// 20/// 59008 84360 85080=
201912262100 AAXX 26214 67665 42980 43203 10240 20170 48507 70200 80032
                   333 59007 83360 83080=
201912261800 AAXX 26184 67665 42980 40403 10266 20174 48498 70122 81932
                   333 59011 81956 83360 83080=
201912261500 AAXX 26154 67665 42780 60710 10329 20154 48484 70222 85202
                   333 59019 85850 82080=
201912261200 AAXX 26124 67665 42680 50404 10318 20166 48502 70222 85202
                   333 59007 85845 83080=
201912260900 AAXX 26094 67665 42680 63607 10285 20171 48525 85230
                   333 59010 85840 82360=
201912260600 AAXX 26064 67665 32980 43307 10252 20185 48527 84031
                   333 10//0 20//0 59010 84360 82080=
201912251800 AAXX 25184 67665 42980 50803 10254 20187 48506 70222 85032
                   333 59004 85360 84080=
201912251200 AAXX 25124 67665 42680 61113 10305 20150 48511 70222 86200
                   333 59005 86800=
201912250900 AAXX 25094 67665 42580 51103 10278 20189 48535 70222 84532
                   333 59009 84625 83360 84080=
201912250600 AAXX 25064 67665 32980 51103 10245 20184 48537 82032
                   333 59013 82360 84280
                   555 00///=
201912250000 AAXX 25004 67665 42980 01302 10210 20146 70200
                   333 59017=
201912242100 AAXX 24214 67665 42980 01402 10223 20143 48518 70100
                   333 59018=
201912240900 AAXX 24094 67665 NIL=
201912231800 AAXX 23184 67665 42980 11103 10247 20134 48518 70200 81030
                   333 59006 81360=
201912231500 AAXX 23154 67665 42980 31112 10301 20089 48514 70100 82031
                   333 59001 82360 81080=
201912231200 AAXX 23124 67665 42680 51208 10298 20109 48533 85200
                   333 58004 85845=
201912230900 AAXX 23094 67665 42680 60613 10284 20121 48552 86230
                   333 58004 86235 86235 81360 91021=
201912221800 AAXX 22184 67665 42980 01206 10247 20133 48524
                   333 58010=
201912221500 AAXX 22154 67665 42680 21211 10304 20129 48515 82200
                   333 58014 82842=
201912221200 AAXX 22124 67665 42680 41110 10305 48530 84200
                   333 58002 84835=
201912220900 AAXX 22094 67665 42680 40713 10276 20152 48548 84500
                   333 58009 84630=
201912220600 AAXX 22064 67665 32480 30810 10242 20182 48550 70300 82501
                   333 10//0 20//0 58010 82618 82080=
201912220300 AAXX 22034 67665 42980 11502 10201 20170 48531 70300 80001
                   333 58020 82080=
201912220000 AAXX 22004 67665 42980 00000 10204 20173 48523 70100
                   333 58021=
201912212100 AAXX 21214 67665 42980 21303 10220 20174 48532 70200 80001
                   333 58022 82080=
201912210600 AAXX 21064 67665 31959 40906 10239 20162 48540 70522 81032
                   333 10//0 20//0 59008 81362 84080=
201912210000 AAXX 21004 67665 42980 40000 10208 20161 48503 70200 84032
                   333 59004 84360 81080=
201912201800 AAXX 20184 67665 42980 40603 10270 20163 48505 70200 82032
                   333 58003 82360 84080=
201912201500 AAXX 20154 67665 42680 50907 10315 20122 48500 70222 82102
                   333 58006 82850 84080=
201912201200 AAXX 20124 67665 42680 51404 10312 20139 48513 70222 81102
                   333 58000 81835 84080=
201912200600 AAXX 20064 67665 32980 69902 10233 20146 48531 70321 80008
                   333 10//0 20//0 59004 86280
                   555 00/// 91019=
201912191500 AAXX 19154 67665 42680 21206 10311 20080 48595 70100 82200
                   333 59016 82848=
201912191200 AAXX 19124 67665 42680 60905 10309 20135 48513 70222 86200
                   333 59010 86838=
201912190900 AAXX 19094 67665 42580 41003 10274 20185 48535 70300 84100
                   333 59001 84825=
201912190600 AAXX 19064 67665 32980 05003 10232 20161 48535 70200
                   333 10//0 20//0 59006
                   555 00///=
201912190300 AAXX 19034 67665 42980 00000 10174 20156 48514 70200
                   333 59009=
201912181800 AAXX 18184 67665 42980 11303 10235 20165 48507 70121 81030
                   333 10/// 59011 81360 91017=
201912181500 AAXX 18154 67665 42780 40906 10283 20133 48508 70122 84200
                   333 59005 84850 555 10/// 91016=
201912181200 AAXX 18124 67665 42680 69906 10277 20154 45520 70222 86200
                   333 59015 86840 91017=
201912180900 AAXX 18094 67665 42580 50911 10244 20168 48533 70222 85100
                   333 58006 85825 91020=
201912171800 AAXX 17184 67665 42980 20806 10224 20170 48515 82030
                   333 58004 82360=
201912171500 AAXX 17154 67665 42680 31009 10269 20132 48512 83231
                   333 59012 83845 81360 81080=
201912171200 AAXX 17124 67665 42660 60812 10273 20145 48533 85202
                   333 58024 85835 82080=
201912170900 AAXX 17094 67665 42580 70709 10253 20176 48546 86202
                   333 58012 86825 84080 91021=
201912170600 AAXX 17064 67665 32480 61009 10223 20190 48541 70200 85531
                   333 58009 83615 84360 83080=
201912160900 AAXX 16094 67665 42580 62704 10281 20184 48538 85201
                   333 59013 85825 81080 91019=
201912160600 AAXX 16064 67665 32980 42905 10235 20191 48536 70200 82031
                   333 59014 82360 83080=
201912160000 AAXX 16004 67665 42/80 52802 10223 20193 48518 70222 81930
                   333 59023 819// 85360=
201912152100 AAXX 15214 67665 41/80 61902 10222 20193 48524 71322 81930
                   333 59019 819// 86360=
201912151800 AAXX 15184 67665 42980 41402 10230 20193 48512 70200 84030
                   333 10//0 20//0 59029 84360=
201912151500 AAXX 15154 67665 42780 61505 10258 20183 48505 70222 82230
                   333 59019 82845 85360=
201912150600 AAXX 15064 67665 12470 50604 10210 20185 48546 60044 83530
                   333 10285 20//0 59005 83615 84360=
201912150300 AAXX 15034 67665 42460 70000 10188 20180 48530 70222 8263/
                   333 59001 82710 87459=
201912142100 AAXX 14214 67665 42460 71403 10196 20182 48540 70222 8263/
                   333 58008 82710 87459=
201912141800 AAXX 14184 67665 42359 73504 10199 20184 48541 72052 8563/
                   333 58022 85709 87459=
201912141500 AAXX 14154 67665 42660 61006 10240 20188 48523 70222 84232
                   333 58009 84840 85360 83080=
201912141200 AAXX 14124 67665 42560 71006 10216 20194 48532 72166 8623/
                   333 58014 86820 86459=
201912140600 AAXX 14064 67665 12480 70807 10211 20187 48551 60014 70342 875//
                   333 10//0 20//0 58018 87610
                   555 00/// 91022=
201912131800 AAXX 13184 67665 42660 41405 10213 20190 48521 70200 81932
                   333 58018 81950 83359 84080=
201912131500 AAXX 13154 67665 42660 71206 10220 20191 48511 71522 81932
                   333 58022 81928 85835 84359 86080=
201912131200 AAXX 13124 67665 42560 70808 10254 20187 48522 70222 81902
                   333 58027 81928 85835 84080=
201912130900 AAXX 13094 67665 41560 71308 10211 20189 48536 71792 81902
                   333 58015 81920 85822 84080=
201912130600 AAXX 13064 67665 32480 41304 10229 20192 48536 82532
                   333 10//0 20//0 59013 82612 81360 84280
                   555 00///=
201912130300 AAXX 13034 67665 42980 31102 10197 20181 48512 82031
                   333 58002 82360 81080=
201912130000 AAXX 13004 67665 42/60 73003 10215 20200 48515 8707/
                   333 8193/ 59020 819// 87459=
201912122100 AAXX 12214 67665 42760 73201 10221 20191 48519 70322 8193/
                   333 58008 81956 87360=
201912121200 AAXX 12124 67665 42680 79905 10266 20192 48504 85232
                   333 58008 81928 85830 85360 84080 91016=
201912120900 AAXX 12094 67665 NIL=
201912111800 AAXX 11184 67665 42/60 63105 10235 20183 48500 81931
                   333 58010 819// 85360 81080=
201912111500 AAXX 11154 67665 42660 61106 10283 20186 48480 82932
                   333 59008 82948 84360 82080=
201912111200 AAXX 11124 67665 42660 63008 10282 20176 48497 86200
                   333 58002 86840=
201912110900 AAXX 11094 67665 42680 63010 10260 20186 48515 70322 86530
                   333 59010 86635 82360 91017=
201912110600 AAXX 11064 67665 12580 63107 10232 20194 48515 60014 83230
                   333 1//// 2//// 58011 83825 82360 91018=
201912100900 AAXX 10094 67665 41358 81505 10186 20186 48515 78582 8567/
                   333 58023 85709 88459=
201912100600 AAXX 10064 67665 12358 83405 10209 20202 48501 60204 75155 8567/
                   333 10//0 20//0 58000 85709 88459=
201912100300 AAXX 10034 67665 42960 70604 10198 20194 48483 70222 8707/
                   333 59005 87459=
201912100000 AAXX 10004 67665 41/59 70602 10200 20196 48488 76022 8197/
                   333 59001 819// 87459=
201912092100 AAXX 09214 67665 41/59 71502 10195 20195 48490 79599 8197/
                   333 58001 819// 87459=
201912091200 AAXX 09124 67665 NIL=
201912090600 AAXX 09064 67665 12460 72903 10219 20197 48503 60164 82830
                   333 10312 20//0 59006 81810 81815 87360=
201912081800 AAXX 08184 67665 42780 50603 10258 20183 48483 70132 81931
                   333 59018 91956=
201912081500 AAXX 08154 67665 42780 50304 10298 20160 48464 70122 83201
                   333 59017 83850 83080=
201912081200 AAXX 08124 67665 42680 52903 10307 20162 48471 70222 84201
                   333 59019 84835 83080=
201912080600 AAXX 08064 67665 32980 73005 10235 20192 48511 70321 87030
                   333 10//0 20//0 59014 87360
                   555 00/// 91017=
201912071800 AAXX 07184 67665 42980 42805 10243 20166 48498 81932
                   333 59017 819// 83360 83080=
201912071200 AAXX 07124 67665 42980 63309 10289 20158 48498 85202
                   333 58028 85835 83080=
201912070000 AAXX 07004 67665 42980 41501 10193 20176 48502 83031
                   333 59022 83360 81080=
201912062100 AAXX 06214 67665 42980 10903 10206 20166 48517 80001
                   333 59021 81080=
201912061800 AAXX 06184 67665 42980 10905 10220 20174 48512 70121 80001
                   333 10//0 59012 81080 91017=
201912061200 AAXX 06124 67665 42680 70510 10259 20169 48522 70322 872//
                   333 59004 81935 87840 91018=
201912060900 AAXX 06094 67665 42580 70812 10242 20165 48538 70222 8757/
                   333 58009 85708 86359 91020=
201912060000 AAXX 06004 67665 42980 41501 10193 20176 48502 83031
                   333 59022 83360 81080=
201912051800 AAXX 05184 67665 42/80 30808 10231 20167 48525 81932
                   333 58010 819// 82360 81080=
201912051500 AAXX 05154 67665 41680 40810 10254 20171 48511 72582 81932
                   333 58031 81945 83850 81360 81080
                   555 10///=
201912051200 AAXX 05124 67665 NIL=
201912050900 AAXX 05094 67665 42580 70714 10232 20169 48546 70222 8657/
                   333 58024 86620 87459 91021=
201912050600 AAXX 05064 67665 12480 60809 10196 20174 48547 60044 75052 8677/
                   333 10//0 20//0 58030 84718 87459
                   555 00/// 91022=
201912040900 AAXX 04094 67665 42680 53505 10280 20166 48529 70322 85200
                   333 58001 85830=
201912040600 AAXX 04064 67665 32580 33206 10240 20171 48524 70200 82501
                   333 10//0 20//0 59007 82620 83080=
201912040300 AAXX 04034 67665 42980 23302 10194 20144 48502 70300 80001
                   333 59013 82080=
201912040000 AAXX 04004 67665 42980 00000 10213 20149 48499 70200
                   333 59010=
201912032100 AAXX 03214 67665 42980 10000 10228 20149 40507 70200 80001
                   333 59011 81080=
201912031200 AAXX 03124 67665 NIL=
201912030900 AAXX 03094 67665 NIL=
201912030600 AAXX 03064 67665 NIL=
201912021800 AAXX 02184 67665 41/80 73203 10223 20193 48507 71322 81931
                   333 59001 819// 85360=
201912021500 AAXX 02154 67665 42680 61008 10309 20165 48492 70222 85201
                   333 59009 85845 82080=
201912021200 AAXX 02124 67665 42680 50808 10305 20187 48509 70222 85201
                   333 59001 85835 82080=
201912020900 AAXX 02094 67665 NIL=
201912020600 AAXX 02064 67665 32480 40306 10245 20185 48539 70300 83430
                   333 10320 20191 58006 83615 82360
                   555 10251 91020=
201912011800 AAXX 01184 67665 42980 41402 10260 20150 48510 70100 81931
                   333 58001 819// 82360 83080=
201912011500 AAXX 01154 67665 42680 60812 10303 20139 48500 70322 81931
                   333 58003 819// 84845 82360 84080=
201912011200 AAXX 01124 67665 42680 60813 10307 20149 48510 70222 85231
                   333 59008 82635 85835 82360 82080=
201912010900 AAXX 01094 67665 42580 60711 10289 20194 48534 70222 85501
                   333 59006 85625 82080=
201912010600 AAXX 01064 67665 32580 30711 10250 20174 48533 70300 81531
                   333 10312 20//0 59011 81620 82360 81080
                   555 00///=

################################################################################
#  SYNOPS from 67666, Lusaka City Airport (Zambia) | 15-25-00S | 028-28-00E | 1280 m
################################################################################
201912310600 AAXX 31064 67666 32980 50906 10240 20195 48511 83038
                   333 10290 2//// 59003 83359 84280 91017=
201912300600 AAXX 30064 67666 32480 70807 10220 20190 48512 82537
                   333 10276 2//// 59002 82612 85360 84080 91017=
201912270600 AAXX 27064 67666 32980 80000 10254 20188 48512 80007
                   333 10322 2//// 59009 88280 91017=
201912260900 AAXX 26094 67666 NIL=
201912240900 AAXX 24094 67666 NIL=
201912240600 AAXX 24064 67666 32980 10915 10230 20157 48532 80001
                   333 10320 2//// 59003 81080 91021=
201912230600 AAXX 23064 67666 31580 10820 10234 20148 48543 81101
                   333 10312 20//0 58002 81820 81080 91021=
201912200900 AAXX 20094 67666 42980 60804 10283 20147 48521 80006
                   333 59006 86080 91018=
201912200600 AAXX 20064 67666 31978 60305 10245 20156 48525 70500 80006
                   333 10322 2//// 59003 86078 91019=
201912170900 AAXX 17094 67666 NIL=
201912170600 AAXX 17064 67666 32980 70912 10220 20174 48533 80008
                   333 10258 2//// 58006 87280 91020=
201912130900 AAXX 13094 67666 42480 61811 10249 20192 48530 81930
                   333 59014 81910 85820 81360 91019=
201912130600 AAXX 13064 67666 11480 41510 10220 20203 48530 60384 81531
                   333 10267 2//// 58017 81612 81359 81080 91019=
201912121200 AAXX 12124 67666 NIL=
201912120900 AAXX 12094 67666 NIL=
201912120600 AAXX 12064 67666 11975 80601 1//// 20185 48511 60174 76062 8807/
                   333 10292 2//// 58007 88459 91017=
201912110600 AAXX 11064 67666 11475 42705 10224 20178 48506 60024 70500 84530
                   333 10238 2//// 58010 84615 81360 91017=
201912091200 AAXX 09124 67666 41680 71203 10225 20203 48474 72966 8197/
                   333 58008 81930 84609 87460 91013=
201912090900 AAXX 09094 67666 41478 73201 10220 20190 48493 79582 8197/
                   333 59005 81920 83615 85820 87460 91015=
201912090600 AAXX 09064 67666 12480 72702 10210 20188 48496 60174 8257/
                   333 10304 2//// 59006 82610 87459 91016=
201912060600 AAXX 06064 67666 32380 70915 10205 20166 48534 8567/
                   333 10310 2//// 59007 85708 87459 91020=
201912051200 AAXX 05124 67666 NIL=
201912050900 AAXX 05094 67666 NIL=
201912050600 AAXX 05064 67666 12480 80912 10190 20185 48539 60024 8772/
                   333 10310 2//// 58027 87715 88456 91021=
201912031200 AAXX 03124 67666 NIL=
201912030900 AAXX 03094 67666 NIL=
201912030600 AAXX 03064 67666 NIL=
201912020900 AAXX 02094 67666 42680 60907 10276 20168 48525 82801
                   333 5//// 86630 86835 81080 91019=
201912020600 AAXX 02064 67666 32580 30715 10238 20197 48530 82881
                   333 10298 20210 5//// 81620 81825 81359 81078
                   91019=

################################################################################
#  SYNOPS from 67667, Mount Makulu (Zambia) | 15-33S | 028-15E | 1213 m
################################################################################
201912260900 AAXX 26094 67667 NIL=
201912260600 AAXX 26064 67667 32680 33601 10260 20202 48558 81102
                   333 10332 20220 5//// 81830 82080=
201912240900 AAXX 24094 67667 42680 21405 10282 20178 48/// 82101
                   333 5//// 82830 81080=
201912240600 AAXX 24064 67667 32980 20907 1//// 20160 48/// 80001
                   333 10338 20185 5//// 82080=
201912230900 AAXX 23094 67667 42680 31010 10280 20160 48/// 83101
                   333 5//// 83830 81080=
201912230600 AAXX 23064 67667 32680 10913 10240 20175 48/// 81101
                   333 10330 20204 5//// 81830 81080=
201912201200 AAXX 20124 67667 42680 60902 10318 20154 48530 82102
                   333 59001 82835 86080=
201912200900 AAXX 20094 67667 42680 63603 10300 20167 48548 81102
                   333 5//// 81830 86080=
201912200600 AAXX 20064 67667 32980 63605 10260 20164 48/// 80002
                   333 10342 20178 5//// 86080=
201912191200 AAXX 19124 67667 42680 41902 10304 20175 48532 84101
                   333 59008 84835 81080=
201912190600 AAXX 19064 67667 32980 00902 10256 20188 48///
                   333 10324 20122 5////=
201912180600 AAXX 18064 67667 32980 11802 10224 20181 48/// 80001
                   333 10315 20180 5//// 81080=
201912170900 AAXX 17094 67667 NIL=
201912170600 AAXX 17064 67667 32980 41904 10226 20191 48/// 80001
                   333 10334 20194 5//// 84080=
201912160600 AAXX 16064 67667 12980 23401 10242 20212 48/// 60044 80001
                   333 10304 20200 5//// 82080=
201912130600 AAXX 13064 67667 12580 61003 10214 20210 48/// 60084 86502
                   333 10303 20192 5//// 86620 84080=
201912121200 AAXX 12124 67667 74680 73004 10245 20188 48530 86203
                   333 58008 81950 86835 85080=
201912120900 AAXX 12094 67667 42680 62702 10266 20182 48555 83102
                   333 5//// 83838 86080=
201912120600 AAXX 12064 67667 12680 71703 10202 20194 48554 60164 85508
                   333 10328 20133 5//// 85630 87280=
201912110600 AAXX 11064 67667 12580 42804 10220 20192 48/// 60014 84101
                   333 10268 20190 5//// 84825 81080=
201912091200 AAXX 09124 67667 NIL=
201912090600 AAXX 09064 67667 12580 80901 10216 20208 48/// 60824 85508
                   333 10326 20192 5//// 85625 86280=
201912061200 AAXX 06124 67667 42680 60910 10265 20183 48541 88302
                   333 59005 86835 83080=
201912060900 AAXX 06094 67667 42680 61307 10248 20176 48563 86202
                   333 5//// 83830 82080=
201912060600 AAXX 06064 67667 32580 61405 10225 20180 48/// 85102
                   333 10301 20198 5//// 85825 85080=
201912051200 AAXX 05124 67667 42680 51012 10264 20180 48551 85202
                   333 58013 85835 83080=
201912050900 AAXX 05094 67667 42680 50910 10250 20175 48/// 85202
                   333 5//// 85830 83080=
201912050600 AAXX 05064 67667 32580 72002 10200 20182 48/// 86508
                   333 10348 20200 5//// 86625 87280=
201912040600 AAXX 04064 67667 32680 20902 10268 20182 48/// 82101
                   333 10352 20198 5//// 82830 81080=
201912031200 AAXX 03124 67667 NIL=
201912030900 AAXX 03094 67667 NIL=
201912030600 AAXX 03064 67667 NIL=
201912020900 AAXX 02094 67667 NIL=
201912020600 AAXX 02064 67667 32680 52001 10254 20191 48/// 85102
                   333 10340 20206 5//// 85835 81080=

################################################################################
#  SYNOPS from 67673, Petauke (Zambia) | 14-15S | 031-17E | 1035 m
################################################################################
201912301200 AAXX 30124 67673 41675 70902 10264 20200 48/// 8527/
                   333 5//// 85830 84360=
201912270900 AAXX 27094 67673 42680 51802 10292 20171 48/// 82205
                   333 5//// 82830 85280=
201912270600 AAXX 27064 67673 12980 71802 10254 20209 48/// 81035
                   333 10330 20190 5//// 81360 87280=
201912261200 AAXX 26124 67673 42680 63501 10314 20193 48/// 86201
                   333 5//// 81935 86835 84080=
201912260900 AAXX 26094 67673 42680 63004 10279 20209 48/// 84131
                   333 5//// 84832 86360 83080=
201912260600 AAXX 26064 67673 12580 63003 10250 20208 48/// 60014 83131
                   333 10310 20195 5//// 83828 85360 84080=
201912240900 AAXX 24094 67673 42680 4//// 10260 20193 48/// 84231
                   333 5//// 84830 82360 81080=
201912230900 AAXX 23094 67673 42680 83605 10280 20178 48/// 86230
                   333 5//// 86832 84360=
201912200600 AAXX 20064 67673 32680 51803 10254 20192 48/// 81035
                   333 10346 20208 5//// 81360 85280=
201912191200 AAXX 19124 67673 42680 50000 10320 20185 48/// 85200
                   333 5//// 85837=
201912190600 AAXX 19064 67673 32980 20000 10250 20185 48/// 82030
                   333 10308 20178 5//// 82360=
201912170900 AAXX 17094 67673 42580 60503 10260 20187 48/// 86131
                   333 5//// 86830 83360 84080=
201912170600 AAXX 17064 67673 32580 60504 10242 20180 48/// 86801
                   333 10330 20180 5//// 82827 84628 84080=
201912160900 AAXX 16094 67673 42680 20000 10300 20210 48/// 82100
                   333 5//// 82830=
201912130600 AAXX 13064 67673 12580 63002 10220 20205 48/// 60034 85531
                   333 10278 20190 5//// 85625 86360 84080=
201912121200 AAXX 12124 67673 NIL=
201912120900 AAXX 12094 67673 41670 70901 10220 20210 48/// 76062 8217/
                   333 5//// 82827 87460=
201912120600 AAXX 12064 67673 11970 80000 10180 20180 48/// 60534 76062 8807/
                   333 10320 20156 5//// 88459=
201912111200 AAXX 11124 67673 42680 53601 10310 20192 48/// 85231
                   333 5//// 85835 82360 84080=
201912110600 AAXX 11064 67673 32580 73601 10216 20205 48/// 8653/
                   333 10278 20175 5//// 86625 87360=
201912091200 AAXX 09124 67673 41680 72601 10303 20193 48/// 71792 81931
                   333 5//// 81935 84831 81360 83080=
201912090600 AAXX 09064 67673 32980 80000 10236 20200 48/// 84037
                   333 10310 20185 5//// 84359 88280=
201912060600 AAXX 06064 67673 12580 70804 10220 20191 48/// 60134 8643/
                   333 10284 20170 5//// 82824 84625 82360=
201912051200 AAXX 05124 67673 41580 63602 10230 20200 48/// 72992 86231
                   333 5//// 81930 86830 84360 84080=
201912050900 AAXX 05094 67673 42580 50903 10264 20201 48/// 84231
                   333 5//// 84830 85360 84080=
201912050600 AAXX 05064 67673 11980 60804 10218 20190 48/// 60194 76066 8707/
                   333 10335 20174 5//// 87459=
201912031200 AAXX 03124 67673 NIL=
201912030900 AAXX 03094 67673 NIL=
201912030600 AAXX 03064 67673 32980 00804 10264 20170 48///
                   333 10298 20190 5////=
201912021200 AAXX 02124 67673 42680 63604 10304 20180 48/// 86231
                   333 5//// 86835 83360 84080=
201912020900 AAXX 02094 67673 41675 61003 10270 20195 48/// 71522 86231
                   333 5//// 83830 84360 81080=
201912020600 AAXX 02064 67673 32580 43602 10270 20205 48/// 84131
                   333 10320 20200 5//// 84830 82360 81080=

################################################################################
#  SYNOPS from 67731, Senanga (Zambia) | 16-06S | 023-16E | 1027 m
################################################################################
201912310600 AAXX 31064 67731 12980 618// 10239 20178 48/// 60034 84038
                   333 10346 20169 5//// 84360 85280
                   555 00099=
201912301200 AAXX 30124 67731 42680 507// 10331 20209 48/// 84202
                   333 58007 81930 84835 84080=
201912300600 AAXX 30064 67731 12480 526// 10256 20208 48/// 69904 82201
                   333 10341 20200 59001 82814 84080
                   555 00102=
201912260900 AAXX 26094 67731 42580 631// 10301 20206 48/// 83132
                   333 58002 83829 84362 86080=
201912260600 AAXX 26064 67731 32480 718// 10249 20205 48/// 83538
                   333 10360 20198 59011 83617 85360 87280
                   555 00101=
201912240900 AAXX 24094 67731 42580 118// 10318 20194 48/// 81200
                   333 59013 81823=
201912230900 AAXX 23094 67731 42580 519// 10299 20199 48/// 84102
                   333 58007 84825 83080=
201912230600 AAXX 23064 67731 12980 431// 10258 20200 48/// 60024 80002
                   333 10341 20186 58008 84080=
201912201200 AAXX 20124 67731 42680 521// 10348 20180 48/// 81301
                   333 5//// 81930 84832 81080=
201912200900 AAXX 20094 67731 42580 120// 10340 20203 48/// 81200
                   333 5//// 81824=
201912200600 AAXX 20064 67731 12980 017// 10266 20210 48/// 60024
                   333 10358 20200 5////
                   555 00088=
201912180600 AAXX 18064 67731 32980 419// 10258 20203 48/// 80002
                   333 10369 20200 59010 84080
                   555 00111=
201912170900 AAXX 17094 67731 42580 315// 10324 20186 48/// 83200
                   333 59003 83825=
201912170600 AAXX 17064 67731 12980 028// 10268 20200 48/// 60024
                   333 10357 20205 58001
                   555 00099=
201912161200 AAXX 16124 67731 42680 510// 10342 20178 48/// 82251
                   333 59010 82832 83365 82832 83365 81080=
201912160900 AAXX 16094 67731 42580 525// 10314 20194 48/// 81230
                   333 59012 81823 85363=
201912160600 AAXX 16064 67731 32980 118// 10258 20200 48/// 81050
                   333 10349 20203 59017 81360
                   555 00102=
201912131200 AAXX 13124 67731 42680 417// 10336 20159 48/// 84200
                   333 58004 84832=
201912130900 AAXX 13094 67731 42980 016// 10301 20195 48///
                   333 5////=
201912121200 AAXX 12124 67731 NIL=
201912120900 AAXX 12094 67731 42580 324// 10314 20199 48/// 81130
                   333 58007 81822 82362=
201912120600 AAXX 12064 67731 32580 218// 10249 20182 48/// 81250
                   333 10348 20212 58017 81826 81360
                   555 00086=
201912110600 AAXX 11064 67731 32980 517// 10261 20194 48/// 80002
                   333 10346 20201 5//// 85080
                   555 00097=
201912091200 AAXX 09124 67731 42580 610// 10298 20228 48/// 81932
                   333 5//// 81920 82823 86362 83080=
201912090600 AAXX 09064 67731 32480 617// 10239 20205 48/// 81530
                   333 10320 20216 59013 81616 86360
                   555 00082=
201912060600 AAXX 06064 67731 12480 721// 10237 20198 48/// 60054 83518
                   333 10321 20198 59003 83616 84460 87280
                   555 00069=
201912051200 AAXX 05124 67731 NIL=
201912050900 AAXX 05094 67731 42580 523// 10258 20207 48/// 82250
                   333 5//// 82823 84362=
201912050600 AAXX 05064 67731 12480 718// 10214 20198 48/// 60074 81830
                   333 10312 20195 58012 81615 87360
                   555 00073=
201912031200 AAXX 03124 67731 41670 718// 10309 20225 48/// 76166 81902
                   333 58002 81930 84835 86080=
201912030900 AAXX 03094 67731 NIL=
201912030600 AAXX 03064 67731 12480 631// 10244 20207 48/// 60094 83538
                   333 10350 20197 58001 83615 84360 86280
                   555 00072=
201912020900 AAXX 02094 67731 NIL=
201912020600 AAXX 02064 67731 NIL=

################################################################################
#  SYNOPS from 67741, Sesheke (Zambia) | 17-28S | 024-18E | 949 m
################################################################################
201912310600 AAXX 31064 67741 12980 20000 10252 20213 48506 60114 82030
                   333 10366 20212 59003 82362=
201912300600 AAXX 30064 67741 32980 33001 10268 20197 48510 81031
                   333 10338 20196 59001 81362 83080=
201912270600 AAXX 27064 67741 32980 71801 10258 20206 48517 8707/
                   333 10376 20234 58003 87362=
201912260900 AAXX 26094 67741 NIL=
201912260600 AAXX 26064 67741 32980 70000 10278 20176 48512 8707/
                   333 10392 20218 59008 87362=
201912240900 AAXX 24094 67741 NIL=
201912240600 AAXX 24064 67741 32980 10901 10276 20124 48541 81030
                   333 10364 20179 59007 81362=
201912230600 AAXX 23064 67741 12980 50000 10241 20207 48542 60024 85070
                   333 10371 20194 58009 85362=
201912201200 AAXX 20124 67741 42680 30901 10376 20148 48510 83100
                   333 5//// 83850=
201912200900 AAXX 20094 67741 42680 10000 10354 20154 48525 81101
                   333 58000 81850 81080=
201912200600 AAXX 20064 67741 32980 12001 10278 20197 48521 80001
                   333 10368 20200 59002 81080=
201912190600 AAXX 19064 67741 32980 10601 10274 20163 48519 81030
                   333 10348 20219 59013 81362=
201912180600 AAXX 18064 67741 12980 50000 10246 20204 48535 60034 85030
                   333 10356 20207 58001 85362=
201912170900 AAXX 17094 67741 42680 10901 10314 20170 48537 81530
                   333 59001 81645 81362=
201912160900 AAXX 16094 67741 42680 21801 10314 20189 48537 81130
                   333 5//// 81850 82362=
201912160600 AAXX 16064 67741 32980 21802 10254 20192 48525 82030
                   333 10356 20210 59010 82362=
201912130900 AAXX 13094 67741 42680 13601 10308 20195 48527 81100
                   333 5//// 81850=
201912121200 AAXX 12124 67741 NIL=
201912120900 AAXX 12094 67741 NIL=
201912120600 AAXX 12064 67741 32980 30000 10260 20193 48517 83030
                   333 10335 20208 58016 83362=
201912111200 AAXX 11124 67741 42680 20801 10321 20177 48489 82230
                   333 5//// 82850 81362=
201912110600 AAXX 11064 67741 32980 30000 10242 20182 48494 80001
                   333 10330 20183 58013 83080=
201912091200 AAXX 09124 67741 42680 50802 10281 20198 48473 81130
                   333 5//// 81850 85362=
201912090600 AAXX 09064 67741 12680 70000 10220 20207 48491 60034 8257/
                   333 10306 20206 59005 82635 87460=
201912060600 AAXX 06064 67741 12680 61001 10221 20202 48531 60174 83530
                   333 10314 20200 58003 83640 85362=
201912051200 AAXX 05124 67741 NIL=
201912050900 AAXX 05094 67741 42680 50902 10281 20181 48531 85530
                   333 58007 85645 81362=
201912050600 AAXX 05064 67741 11680 60801 10214 20195 48529 60014 76062 83570
                   333 10301 20200 58010 83640 85460=
201912031200 AAXX 03124 67741 42680 62701 10338 20187 48493 85208
                   333 59008 85850 84280=
201912030900 AAXX 03094 67741 42680 50701 10308 20195 48517 81209
                   333 59004 81850 85280=
201912030600 AAXX 03064 67741 12980 53501 10254 20197 48516 60024 80008
                   333 10344 20206 59007 85280=
201912021200 AAXX 02124 67741 42680 60904 10306 20183 48497 83570
                   333 5//// 83648 85462=
201912020900 AAXX 02094 67741 42680 50801 10314 20188 48527 85501
                   333 5//// 85650 81080=
201912020600 AAXX 02064 67741 32980 10000 10261 20200 48527 80001
                   333 10351 20200 59002 81080=

################################################################################
#  SYNOPS from 67743, Livingstone (Zambia) | 17-49S | 025-49E | 985 m
################################################################################
201912310600 AAXX 31064 67743 12680 52703 10239 20214 48506 60014 81131
                   333 10344 20210 59003 81840 82360 84080 91015=
201912260900 AAXX 26094 67743 NIL=
201912260600 AAXX 26064 67743 32980 53502 10280 20169 48518 70220 83031
                   333 10388 20239 59011 83359 82080 91016=
201912240900 AAXX 24094 67743 42680 20306 10320 20150 48536 82100
                   333 59012 82845 555 91017=
201912240600 AAXX 24064 67743 32980 00112 10273 20144 48539
                   333 10367 20211 59013 91019=
201912200600 AAXX 20064 67743 32980 12904 10268 20171 48521 81030
                   333 10374 20221 59005 81360 91017=
201912191200 AAXX 19124 67743 42780 21409 10355 20134 48507 70100 82101
                   333 59006 82850 81080 91013=
201912190600 AAXX 19064 67743 32980 20303 10270 20144 48527 70200 82030
                   333 10355 20200 59008 82360 91017=
201912180600 AAXX 18064 67743 12980 31206 10246 20186 48531 60054 83030
                   333 10250 20196 59004 83360 91018=
201912170900 AAXX 17094 67743 42680 30409 10310 20176 48533 70200 83100
                   333 58002 83845 91017=
201912170600 AAXX 17064 67743 12980 11208 10260 20186 48535 60034 81031
                   333 10341 20209 58008 81360 81080
                   555 00/// 91019=
201912130900 AAXX 13094 67743 42680 30807 10310 20194 48535 70322 83101
                   333 58019 83835 81080 91017=
201912130600 AAXX 13064 67743 32980 11106 10255 20188 48531 70200 81031
                   333 10354 20205 58021 81359 81080 91018=
201912121200 AAXX 12124 67743 NIL=
201912120900 AAXX 12094 67743 NIL=
201912120600 AAXX 12064 67743 32980 42305 10256 20184 48511 82031
                   333 10329 20202 58006 82360 83080 91016=
201912111200 AAXX 11124 67743 42680 41002 10294 20182 48488 70311 83230
                   333 58014 83838 83358 91013=
201912110600 AAXX 11064 67743 12580 61107 10229 20203 48499 60024 70222 84830
                   333 10312 20200 58003 84680 81825 85358 91015=
201912091200 AAXX 09124 67743 NIL=
201912090900 AAXX 09094 67743 11459 80704 10219 20204 48492 76262 8377/
                   333 58008 83715 88358 91014=
201912090600 AAXX 09064 67743 11458 83506 10212 20203 48484 60054 76062 8457/
                   333 10305 20204 59012 84615 88358 91014=
201912060600 AAXX 06064 67743 12580 40904 10228 20198 48530 60104 82830
                   333 10320 20196 59004 81628 82835 83360 91019=
201912051200 AAXX 05124 67743 NIL=
201912050900 AAXX 05094 67743 42680 60612 10295 20164 48542 82831
                   333 58027 81630 81835 85360 82080 91019=
201912050600 AAXX 05064 67743 32480 70817 10240 20187 48535 60054 70222 81631
                   333 10350 20209 58020 81710 86359 82079 91019=
201912040600 AAXX 04064 67743 32780 72707 10250 20189 48518 8257/
                   333 10374 20229 59004 82650 87359 91017=
201912031200 AAXX 03124 67743 NIL=
201912030900 AAXX 03094 67743 NIL=
201912030600 AAXX 03064 67743 32680 61510 10266 20187 48526 70222 82260
                   333 10405 20216 59002 82847 85360 91017=
201912020900 AAXX 02094 67743 NIL=
201912020600 AAXX 02064 67743 32680 20404 10276 20178 48529 70200 81130
                   333 10375 20211 59006 81845 82359 91017=

################################################################################
#  SYNOPS from 67751, Magoye (Zambia) | 16-00S | 027-36E | 1018 m
################################################################################
201912310600 AAXX 31064 67751 32980 10102 10254 20191 48/// 81033
                   333 10315 20209 58008 81360 81080=
201912300600 AAXX 30064 67751 32480 70805 10246 20192 48/// 8117/
                   333 10300 20211 58007 81812 87360=
201912260900 AAXX 26094 67751 NIL=
201912240900 AAXX 24094 67751 NIL=
201912240600 AAXX 24064 67751 32980 10802 10266 20166 48/// 80001
                   333 10332 20177 58004=
201912230600 AAXX 23064 67751 32680 10810 10263 20155 81101
                   333 10290 20183 59002 81842 81080=
201912200900 AAXX 20094 67751 42980 23502 10316 20142 48/// 80002
                   333 58006 82080=
201912200600 AAXX 20064 67751 32980 20402 10265 20140 48/// 80001
                   333 10339 20168 58009 82080=
201912190600 AAXX 19064 67751 32980 01001 10233 20184 48///
                   333 10312 20167 58004=
201912170900 AAXX 17094 67751 NIL=
201912160900 AAXX 16094 67751 42680 22803 10283 20207 48/// 81201
                   333 5//// 81832 81080=
201912160600 AAXX 16064 67751 32980 12701 10245 20192 48/// 81031
                   333 10288 20209 58012 81360 81080=
201912130900 AAXX 13094 67751 41680 50303 10285 20202 48/// 71792 85200
                   333 59011 81935 85835=
201912121200 AAXX 12124 67751 NIL=
201912120900 AAXX 12094 67751 42680 23003 10285 20183 48/// 82201
                   333 59010 82840 81080=
201912120600 AAXX 12064 67751 32980 33602 10239 20198 48/// 80002
                   333 10315 20203 59009 83080=
201912110600 AAXX 11064 67751 12480 53502 10224 20205 48/// 60074 82230
                   333 10260 20189 5//// 82810 83360=
201912091200 AAXX 09124 67751 42688 70202 10277 20193 48/// 84260
                   333 5//// 84835 83360=
201912090600 AAXX 09064 67751 11980 70000 10206 20198 48/// 60144 72166 8707/
                   333 10336 20199 5//// 87360=
201912060600 AAXX 06064 67751 32680 71005 10243 20181 86530
                   333 10300 20215 5//// 86634 81360=
201912051200 AAXX 05124 67751 NIL=
201912050900 AAXX 05094 67751 42680 40306 10265 20183 48/// 83231
                   333 5//// 83835 81360 81080=
201912050600 AAXX 05064 67751 11980 70402 10220 20175 48/// 60084 76062 8707/
                   333 10344 20191 5//// 87360=
201912031200 AAXX 03124 67751 NIL=
201912030900 AAXX 03094 67751 32780 33605 10321 20186 48/// 83200
                   333 58014 83856=
201912030600 AAXX 03064 67751 32980 10704 10292 20171 69974 80001
                   333 10322 20189 5//// 81080=
201912020900 AAXX 02094 67751 42680 60107 10295 20185 85260
                   333 5//// 85841 82360=
201912020600 AAXX 02064 67751 32980 31002 10256 20197 48/// 81132
                   333 1//// 20188 5//// 81825 82360 81018=

################################################################################
#  SYNOPS from 67753, Choma (Zambia) | 16-50S | 027-04E | 1213 m
################################################################################
201912310600 AAXX 31064 67753 32980 30000 10245 20209 48505 83030
                   333 10300 20198 59002 83360=
201912300600 AAXX 30064 67753 32980 62705 10232 20194 48560 86030
                   333 10281 20194 5//// 86360=
201912270600 AAXX 27064 67753 31580 70000 10266 20184 48506 81230
                   333 10330 20200 59017 81825 86360=
201912260900 AAXX 26094 67753 NIL=
201912240900 AAXX 24094 67753 NIL=
201912230600 AAXX 23064 67753 32980 00000 10245 20157 48552
                   333 10324 20186 5////=
201912200600 AAXX 20064 67753 31980 10000 10278 20124 48/// 81030
                   333 10339 20185 5//// 81360=
201912190600 AAXX 19064 67753 31980 11703 10231 20161 48/// 80001
                   333 10317 20176 5//// 81080=
201912180600 AAXX 18064 67753 31980 10000 10235 20189 48/// 81030
                   333 10300 20182 5//// 81360=
201912170900 AAXX 17094 67753 NIL=
201912160600 AAXX 16064 67753 31980 30903 10246 20185 48/// 83030
                   333 10301 20200 5//// 83360=
201912121200 AAXX 12124 67753 41680 60000 10303 20169 48489 71792 86300
                   333 58003 81930 85833=
201912120900 AAXX 12094 67753 NIL=
201912120600 AAXX 12064 67753 31980 20000 10235 20189 48504 81031
                   333 10295 20186 58006 81360 81080=
201912110600 AAXX 11064 67753 11580 80000 10200 20191 48500 69974 84507
                   333 10266 20180 58011 84620 88280=
201912091200 AAXX 09124 67753 NIL=
201912090600 AAXX 09064 67753 11480 80000 10176 20174 48488 60084 76162 82604
                   333 10311 20172 59001 82708 88080=
201912051200 AAXX 05124 67753 NIL=
201912050900 AAXX 05094 67753 NIL=
201912050600 AAXX 05064 67753 11980 72608 10206 20174 48/// 60014 87030
                   333 10316 20188 5//// 87360=
201912031200 AAXX 03124 67753 NIL=
201912030900 AAXX 03094 67753 NIL=
201912030600 AAXX 03064 67753 NIL=
201912020900 AAXX 02094 67753 NIL=
201912020600 AAXX 02064 67753 NIL=

################################################################################
#  SYNOPS from 67855, Lupaki (Zambia) | 17-03-00S | 024-46-00E | 1000 m
################################################################################
201912310600 AAXX 31064 67855 31975 63602 10278 20168 3//// 48/// 70511 81032
                   333 5//// 81360 85080=
201912300600 AAXX 30064 67855 32975 50305 10262 20173 3//// 48/// 80001
                   333 20196 5//// 85080=
201912290600 AAXX 29064 67855 12675 70301 10246 20203 3//// 48/// 60024 81531
                   333 20203 5//// 81630 87080=
201912281200 AAXX 28124 67855 41670 70305 10330 20178 3//// 48/// 79598 85233
                   333 5//// 81940 84845 87360=
201912271200 AAXX 27124 67855 41670 70304 10340 20180 3//// 48/// 79598 85233
                   333 5//// 81940 84845 87080=
201912270600 AAXX 27064 67855 12975 53607 10290 20170 3//// 48/// 69904 85071
                   333 20206 5//// 85360=
201912260600 AAXX 26064 67855 12975 73607 10286 20173 3//// 48/// 69904 80001
                   333 20210 5//// 87080=
201912251200 AAXX 25124 67855 42875 50602 10382 20204 3//// 48/// 85200
                   333 5//// 85857=
201912250600 AAXX 25064 67855 32975 00305 10280 20163 3//// 48///
                   333 20175 5////=
201912241200 AAXX 24124 67855 42775 52301 10360 20128 3//// 48/// 85100
                   333 5//// 82856=
201912231200 AAXX 23124 67855 42775 50302 10356 20130 3//// 48/// 85100
                   333 5//// 85850=
201912201200 AAXX 20124 67855 42875 41404 10390 20132 3//// 48/// 84200
                   333 5//// 84857=
201912200600 AAXX 20064 67855 32975 21801 10282 20158 3//// 48/// 82030
                   333 20180 5//// 82360=
201912190600 AAXX 19064 67855 32975 13602 10266 20159 3//// 48/// 80001
                   333 20145 5//// 81080=
201912181200 AAXX 18124 67855 42775 51802 10340 20098 3//// 48/// 82201
                   333 5//// 82856 85080=
201912180600 AAXX 18064 67855 32975 10301 10244 20169 3//// 48/// 81030
                   333 20150 5//// 81360=
201912171200 AAXX 17124 67855 42775 51803 10314 20175 3//// 48/// 85200
                   333 5//// 85850=
201912161200 AAXX 16124 67855 41870 51802 10372 20146 3//// 48/// 71582 85232
                   333 5//// 85857=
201912160600 AAXX 16064 67855 32975 73601 10286 20177 3//// 48/// 80001
                   333 20180 5//// 87080=
201912151200 AAXX 15124 67855 42875 52001 10366 20134 3//// 48/// 85201
                   333 5//// 85857 83080=
201912141200 AAXX 14124 67855 41770 53601 10334 20153 3//// 48/// 70500 83101
                   333 5//// 83850 85080=
201912140600 AAXX 14064 67855 32975 00302 10242 20153 3//// 48///
                   333 20198 5////=
201912131200 AAXX 13124 67855 42775 50902 10334 20158 3//// 48/// 85200
                   333 5//// 85850=
201912130600 AAXX 13064 67855 32675 50603 10252 20178 3//// 48/// 81501
                   333 20190 5//// 81630 85080=
201912121200 AAXX 12124 67855 42775 70000 10332 20093 3//// 48/// 84101
                   333 5//// 84850 87080=
201912120600 AAXX 12064 67855 32975 70901 10240 20197 3//// 48/// 80002
                   333 20170 5//// 87080=
201912110600 AAXX 11064 67855 12575 72601 10212 20194 3//// 48/// 69904 875//
                   333 20172 5//// 87620=
201912100600 AAXX 10064 67855 11575 80601 10200 20192 3//// 48/// 60134 70262 8557/
                   333 20190 5//// 85620 88459=
201912071200 AAXX 07124 67855 42775 73302 10336 20160 3//// 48/// 85272
                   333 5//// 85850 87459=
201912061200 AAXX 06124 67855 42775 53104 10330 20160 3//// 48/// 85531
                   333 5//// 85650=
201912050600 AAXX 05064 67855 12675 70405 10220 20152 3//// 48/// 60024 875//
                   333 20182 5//// 87630=
201912040600 AAXX 04064 67855 12975 70601 10286 20144 3//// 48/// 69904 70262 87072
                   333 20240 5//// 87459=
