################################################################################
# Query made at 04/17/2022 11:29:16 UTC
# Country like Zamb*
# Time interval: from 08/01/2008 05:30  to 08/31/2008 05:30  UTC
################################################################################

################################################################################
#  SYNOPS from 67413, Mbala (Zambia) | 08-51S | 031-20E | 1673 m
################################################################################
200808290600 AAXX 29064 67413 32980 01712 10195 20088 48///
                   333 10280 20130 58007=
200808210600 AAXX 21064 67413 32980 11413 10175 20105 48551 81031
                   333 10275 20125 58010 81080 91025=
200808121200 AAXX 12124 67413 42580 11111 10255 20090 48503 81100
                   333 59011 81830=

################################################################################
#  SYNOPS from 67441, Mwinilunga (Zambia) | 11-45S | 024-26E | 1361 m
################################################################################
200808290600 AAXX 29064 67441 31965 00000 10180 20054 48567 70500
                   333 10311 20160 58004=
200808280900 AAXX 28094 67441 41970 00608 10275 20041 48537 70500
                   333 58004=
200808280600 AAXX 28064 67441 31960 02002 10141 20097 48530 70500
                   333 10320 20104 59007=
200808271200 AAXX 27124 67441 41665 10303 10305 20102 48513 70500 81100
                   333 58003 81840=
200808270600 AAXX 27064 67441 31960 00000 10148 20106 48537 70500
                   333 10320 20113 59007=
200808220600 AAXX 22064 67441 31975 01203 10104 20039 48/// 70500
                   333 10292 20114 5////=
200808140600 AAXX 14064 67441 31970 01803 10140 20104 48558 70500
                   333 10300 20095 58000=
200808110600 AAXX 11064 67441 31970 11210 10150 20063 48563 70500 81030
                   333 10285 20130 59002 81030=
200808070900 AAXX 07094 67441 41975 00811 10245 20099 48553 70500
                   333 59020=
200808010900 AAXX 01094 67441 31970 01011 10230 20020 48558 70500
                   333 59002=

################################################################################
#  SYNOPS from 67461, Mansa (Zambia) | 11-06S | 028-51E | 1382 m
################################################################################
200808280600 AAXX 28064 67461 31965 00902 10181 20096 48494 70500
                   333 10320 20123 59007=
200808270600 AAXX 27064 67461 31965 01402 10176 20107 48512 70500
                   333 10320 20102 59005=
200808200600 AAXX 20064 67461 31965 21506 10150 20099 48521 70522 80002
                   333 10265 20115 59004 82080=
200808180900 AAXX 18094 67461 41770 20913 10252 20084 48532 70400 82100
                   333 58014 82857=
200808180600 AAXX 18064 67461 31965 11503 10179 20096 48531 70500 81030
                   333 10299 20134 58015 81362=

################################################################################
#  SYNOPS from 67475, Kasama (Zambia) | 10-13S | 031-08E | 1382 m
################################################################################
200808290600 AAXX 29064 67475 31970 00115 10194 20102 48519 70500
                   333 10304 20115 58006=
200808280900 AAXX 28094 67475 41970 01215 10271 20108 48512 70500
                   333 59007=
200808280600 AAXX 28064 67475 31970 00808 10196 20136 48574 70500
                   333 10305 20123 59006=
200808270600 AAXX 27064 67475 31970 00314 10199 20121 48520 70500
                   333 10310 20126 59007=
200808260600 AAXX 26064 67475 31970 03606 10190 20122 48526 70500
                   333 10300 20115 59006=
200808220900 AAXX 22094 67475 41970 01412 10222 20085 48/// 70500
                   333 5////=
200808220600 AAXX 22064 67475 31970 01611 10174 20064 48550 70500
                   333 10271 20115 58003=
200808180900 AAXX 18094 67475 41670 20918 10250 20117 48534 70500 81200
                   333 58007 82845=
200808180600 AAXX 18064 67475 31970 21012 10181 20113 48531 70500 82030
                   333 10290 20154 58000 82360=
200808140600 AAXX 14064 67475 31970 50620 10198 20118 48547 70522 80002
                   333 10280 20118 58010 85080=
200808110600 AAXX 11064 67475 31970 01220 10166 20093 48563 70500
                   333 10217 20137 59002=
200808080600 AAXX 08064 67475 31965 30605 10168 20120 48539 70521 83030
                   333 10257 20127 58009 83360=
200808070900 AAXX 07094 67475 41965 00910 10235 20111 48/// 70500
                   333 5////=
200808040600 AAXX 04064 67475 31470 41012 10154 20112 48543 70521 81130
                   333 10243 20124 58004 81815 84360=

################################################################################
#  SYNOPS from 67476, Misamfu (Zambia) | 10-06S | 031-15E | 1536 m
################################################################################
200808280900 AAXX 28094 67476 41970 01409 10263 20106 48/// 70500
                   333 59011=
200808200600 AAXX 20064 67476 31970 00806 10170 20089 70500
                   333 10256 20088 5////=
200808040600 AAXX 04064 67476 31470 21214 20171 48/// 70510 81130
                   333 10250 20121 58001 81815 82361=

################################################################################
#  SYNOPS from 67477, Mpika (Zambia) | 11-54S | 031-26E | 1400 m
################################################################################
200808280600 AAXX 28064 67477 31970 01511 10188 20102 48508 70500
                   333 10280 20121 59009=
200808220900 AAXX 22094 67477 41975 00913 10203 20054 48561 70500
                   333 58001=
200808220600 AAXX 22064 67477 31970 01214 10154 20060 48552 70500
                   333 10240 20098 59001=
200808200600 AAXX 20064 67477 31970 00912 10155 20080 48540 70500
                   333 10230 20100 59005=
200808110600 AAXX 11064 67477 31970 01518 10153 20073 48556 70500
                   333 10230 20018 58005=
200808070900 AAXX 07094 67477 41970 00810 10205 20102 48533 70500
                   333 59012=
200808070600 AAXX 07064 67477 31970 11214 10155 20101 48533 70500 81030
                   333 10230 20117 59016 81361=
200808010900 AAXX 01094 67477 31975 01108 10210 20046 48543 70500
                   333 59008=
200808010600 AAXX 01064 67477 31975 01104 10155 20050 48541 70500
                   333 10225 20065 59013=

################################################################################
#  SYNOPS from 67531, Zambezi (Zambia) | 13-32S | 023-07E | 1077 m
################################################################################
200808290600 AAXX 29064 67531 31975 01008 10207 20056 48/// 70500
                   333 10351 20130 58003=
200808280900 AAXX 28094 67531 41965 00809 10290 20072 48/// 70500
                   333 5////=
200808280600 AAXX 28064 67531 31965 01101 10182 20079 48/// 70500
                   333 10345 20105 5////=
200808270600 AAXX 27064 67531 31960 00301 10177 20084 48/// 70500
                   333 10338 20093 5////=
200808200600 AAXX 20064 67531 31975 01006 10145 20070 48/// 70500
                   333 10301 20112 59008=
200808180600 AAXX 18064 67531 31965 01108 10189 20056 48/// 70500
                   333 10325 20150 5////=
200808080600 AAXX 08064 67531 31965 01050 10145 20102 48/// 70500
                   333 10265 20080 58006=
200808070900 AAXX 07094 67531 41978 71805 10222 20106 48/// 70522 8703/
                   333 59012 87362=
200808070600 AAXX 07064 67531 31978 61804 10160 20096 48/// 70522 86030
                   333 10271 20115 59013 86362=
200808040600 AAXX 04064 67531 31978 01202 10101 20075 48/// 70500
                   333 10275 20085 5////=

################################################################################
#  SYNOPS from 67551, Solwezi (Zambia) | 12-11S | 026-23E | 1386 m
################################################################################
200808290600 AAXX 29064 67551 31960 00000 10136 20069 48512 70500
                   333 10307 20099 58009=
200808010600 AAXX 01064 67551 31960 00000 10105 20052 48532 70500
                   333 10252 20056 59008=

################################################################################
#  SYNOPS from 67561, Ndola (Zambia) | 13-00S | 028-39E | 1269 m
################################################################################
200808301500 AAXX 30154 67561 41959 02105 10314 20050 48494 70400
                   333 59001=
200808300600 AAXX 30064 67561 31957 00000 10172 20089 48529 70400
                   333 10315 20113 58001=
200808290600 AAXX 29064 67561 31960 00606 10185 20064 48518 70500
                   333 10316 20119 58009=
200808280900 AAXX 28094 67561 41957 00304 10284 20062 48521 70400
                   333 59003=
200808280600 AAXX 28064 67561 31957 00000 10183 20066 48510 70400
                   333 10323 20121 59003=
200808271200 AAXX 27124 67561 41960 11803 10315 20047 48496 70500 81030
                   333 58000 81361=
200808270600 AAXX 27064 67561 31975 00403 10180 20069 48513 70400
                   333 10319 20102 59011=
200808261500 AAXX 26154 67561 41958 10000 10308 20061 48488 70400 81030
                   333 59007 81361=
200808261200 AAXX 26124 67561 41965 01505 10303 20031 48495 70500
                   333 59008=
200808260600 AAXX 26064 67561 31965 00000 10166 20156 48521 70500
                   333 10212 20110 59001=
200808250900 AAXX 25094 67561 41965 00505 10270 20072 48529 70400
                   333 59013=
200808250600 AAXX 25064 67561 31930 00000 10153 20084 48521 70410
                   333 10//0 20104 59012=
200808241200 AAXX 24124 67561 41970 00000 10285 20039 48512 70500
                   333 59019=
200808230900 AAXX 23094 67561 41970 00603 10245 20051 48556 70500
                   333 59004=
200808230600 AAXX 23064 67561 31965 00706 10173 20068 48552 70500
                   333 10280 20098 59003=
200808230400 AAXX 23044 67561 41960 00000 10098 20068 48538 70500
                   333 59004=
200808220600 AAXX 22064 67561 31970 01105 10156 20070 48553 70500
                   333 10290 20100 58000=
200808210600 AAXX 21064 67561 31965 00000 10152 20064 48554 70500
                   333 10202 20083 58013=
200808201500 AAXX 20154 67561 41970 01405 10258 20026 48518 70500
                   333 59002=
200808200600 AAXX 20064 67561 31970 00805 10160 20094 48542 70510
                   333 10266 20111 59004=
200808191200 AAXX 19124 67561 41770 30000 10248 20076 48531 70500 83200
                   333 5//// 83856=
200808190600 AAXX 19064 67561 31962 00000 10151 20086 48544 70500
                   333 10281 20119 58003=
200808180900 AAXX 18094 67561 41765 10813 10250 20096 48548 70500 81130
                   333 58016 81850 81361=
200808180600 AAXX 18064 67561 31965 01117 10203 20077 48546 70511
                   333 10304 20097 58019=
200808160600 AAXX 16064 67561 31958 00000 10180 20085 48514 70400
                   333 10294 20100 59026=
200808141500 AAXX 14154 67561 41975 00000 10284 20090 48505 70500
                   333 59004=
200808140600 AAXX 14064 67561 31959 00000 10159 20096 48540 70500
                   333 10287 20101 58008=
200808121500 AAXX 12154 67561 42980 30905 10256 20090 48500 83030
                   333 59016 83361=
200808121200 AAXX 12124 67561 42780 11106 10260 20088 48512 81100
                   333 59016 81850=
200808110600 AAXX 11064 67561 31965 01210 10153 20075 48549 70511
                   333 10271 20114 58000=
200808100900 AAXX 10094 67561 41970 01113 10246 20089 48560 70511
                   333 58011 91023=
200808081200 AAXX 08124 67561 41765 20000 10280 20092 48518 70500 82100
                   333 58005 82856=
200808080600 AAXX 08064 67561 31920 70000 10156 20101 48539 70411 8703/
                   333 10284 20124 58004 87361=
200808030600 AAXX 03064 67561 31975 60704 10170 20070 48546 70500
                   333 10267 20105 58006=
200808021500 AAXX 02154 67561 41958 01208 10246 20018 48516 70400
                   333 58004=
200808020600 AAXX 02064 67561 31960 00703 10146 20047 48539 70500
                   333 10265 20087 58000=
200808010900 AAXX 01094 67561 41970 01207 10224 20058 48549 70500
                   333 59008=
200808010600 AAXX 01064 67561 32980 01210 10175 20049 48541
                   333 10260 20085 59011=

################################################################################
#  SYNOPS from 67563, Kafironda (Zambia) | 12-36S | 028-07E | 1243 m
################################################################################
200808290600 AAXX 29064 67563 31970 00000 10132 20080 70500
                   333 10322 20056 58023=

################################################################################
#  SYNOPS from 67571, Serenje (Zambia) | 13-14S | 030-13E | 1384 m
################################################################################
200808290600 AAXX 29064 67571 31975 00604 10189 20074 48521 70500
                   333 10283 20137 58006=
200808200600 AAXX 20064 67571 31975 00906 10145 20096 48539 70500
                   333 10227 20112 58003=
200808070900 AAXX 07094 67571 41970 00603 10215 20060 48533 70500
                   333 59013=

################################################################################
#  SYNOPS from 67580, Msekera (Zambia) | 13-39S | 032-34E | 1025 m
################################################################################
200808290600 AAXX 29064 67580 31975 01513 10236 20081 48/// 70500
                   333 10304 20157 5////=
200808280900 AAXX 28094 67580 41970 00907 10284 20079 48/// 70500
                   333 58001=
200808220900 AAXX 22094 67580 41975 11610 10237 20076 48/// 70500 81100
                   333 59001 81850=
200808121200 AAXX 12124 67580 41775 60000 10246 20104 48/// 70522 86100
                   333 59012 86850=
200808070900 AAXX 07094 67580 41675 11606 10240 20092 48/// 70500 81100
                   333 59014 81845=
200808040600 AAXX 04064 67580 11575 81213 10168 20087 48/// 69904 70522
                   333 10262 20152 58008 81520 88360=

################################################################################
#  SYNOPS from 67581, Chipata (Zambia) | 13-33S | 032-35E | 1028 m
################################################################################
200808290600 AAXX 29064 67581 32980 01904 10235 20085 48537
                   333 10309 20100 58013=
200808280900 AAXX 28094 67581 42980 00806 10275 20090 48536
                   333 59002=
200808280600 AAXX 28064 67581 32980 00804 10236 20096 48524
                   333 10320 20196 59010=
200808270600 AAXX 27064 67581 32980 00805 10239 20132 48536
                   333 10303 20200 59005=
200808241200 AAXX 24124 67581 50807 10269 20095 48539 81160
                   333 59015 81845 84359=
200808220600 AAXX 22064 67581 32984 01607 10185 20085 48569
                   333 10270 20165 58001=
200808191200 AAXX 19124 67581 41670 51106 10268 20102 48549 70511 85100
                   333 58000 85845=
200808180900 AAXX 18094 67581 41670 11210 10246 20100 48580 70500 81100
                   333 5//// 81830=
200808180600 AAXX 18064 67581 11670 11408 10205 20135 48571 69904 70500 81100
                   333 10290 20165 58031 81830=
200808141200 AAXX 14124 67581 41875 10906 10289 20096 48538 70500 81160
                   333 58008 81858 81359=
200808140600 AAXX 14064 67581 31975 00810 10218 20115 48558 70500
                   333 10285 20186 58000=
200808120600 AAXX 12064 67581 31975 01206 10179 20095 48560 81030
                   333 10268 20129 59016 81362=
200808110600 AAXX 11064 67581 31675 11205 10171 20096 48574 70500 81100
                   333 10268 20150 58004 81830=
200808080600 AAXX 08064 67581 31970 00702 10199 20104 48554 70500
                   333 10275 20131 58002=
200808070900 AAXX 07094 67581 41780 10906 10243 20096 48551 70500 81100
                   333 58014 81857=
200808070600 AAXX 07064 67581 32984 01305 10191 20080 48551
                   333 10269 20148 59008=
200808010600 AAXX 01064 67581 32980 00706 10205 20051 48554
                   333 10269 20099 59011=

################################################################################
#  SYNOPS from 67583, Lundazi (Zambia) | 12-17S | 033-12E | 1143 m
################################################################################
200808290600 AAXX 29064 67583 31975 01204 10223 20109 70500
                   333 10257 20110 58009=
200808280900 AAXX 28094 67583 41980 01204 10279 20093 48/// 70500
                   333 59006=
200808121200 AAXX 12124 67583 41680 50902 10254 20120 48/// 70522 85100
                   333 59017 85835=
200808070900 AAXX 07094 67583 41980 20902 10254 20126 48/// 70500 82100
                   333 5//// 82825=

################################################################################
#  SYNOPS from 67599, Mfuwe (Zambia) | 13-16S | 031-56E | 568 m
################################################################################
200808301500 AAXX 30154 67599 41959 00904 10345 20167 48516 70500
                   333 59015=
200808290600 AAXX 29064 67599 31959 00000 10225 20116 48541 70500
                   333 10355 20//0 58013=
200808271200 AAXX 27124 67599 23107 10350 20107 48535 70500 81100
                   333 59005 81858=
200808260600 AAXX 26064 67599 31959 01403 10224 20137 48542 70500
                   333 10350 20//0 58005=
200808250600 AAXX 25064 67599 31959 01805 10210 20118 70500
                   333 10332 20//0 59019=
200808230600 AAXX 23064 67599 31960 00000 10186 20114 48569 70500
                   333 10320 20/// 5////=
200808220900 AAXX 22094 67599 41960 00307 10270 20122 48614 70500
                   333 58001=
200808220600 AAXX 22064 67599 31960 01804 10190 20/// 48581 70500
                   333 10320 20/// 58004=
200808191200 AAXX 19124 67599 41859 51405 10290 20127 48564 70521 84130
                   333 58008 84857 81360=
200808160600 AAXX 16064 67599 31959 70000 10197 20116 48526 70522
                   333 10338 20//0 59026=
200808121500 AAXX 12154 67599 41770 11404 10275 20140 48537 70500 81100
                   333 58030 81850=
200808121200 AAXX 12124 67599 41670 13304 10275 20134 48554 70500 81100
                   333 59019 81850=
200808091500 AAXX 09154 67599 41970 11205 10253 20092 48558 70500 81030
                   333 58008 81360 555 10264=
200808091200 AAXX 09124 67599 41959 30905 10246 20104 48559 70500 83030
                   333 58014 83360=
200808090900 AAXX 09094 67599 41970 00407 10270 20133 48578 70500
                   333 58004=
200808081500 AAXX 08154 67599 41959 00000 10310 20137 48552 70500
                   333 58002=
200808081200 AAXX 08124 67599 41959 00000 10306 20150 48555 70500
                   333 58008=
200808080600 AAXX 08064 67599 31975 02003 10185 20011 48560 70500
                   333 58003=
200808070900 AAXX 07094 67599 41975 01006 10260 20120 48575 70510
                   333 59020=
200808070600 AAXX 07064 67599 31975 20000 20190 48560 70522 82030
                   333 10305 20/// 59011 82360=
200808040600 AAXX 04064 67599 12980 80000 10185 20151 48568 60034 8807/
                   333 10280 20//0 58007 88460=

################################################################################
#  SYNOPS from 67633, Mongu (Zambia) | 15-15S | 023-09E | 1052 m
################################################################################
200808280600 AAXX 28064 67633 31970 00905 10195 20036 48488 70500
                   333 10350 20150 59010=
200808270600 AAXX 27064 67633 31975 00000 10200 20052 48499 70500
                   333 10346 20135 59013=
200808211200 AAXX 21124 67633 41970 00806 10310 20044 48549 70500
                   333 58013 91020=
200808200600 AAXX 20064 67633 31970 00906 10165 20070 48535 70500
                   333 10312 20128 58005=
200808180900 AAXX 18094 67633 41870 10912 10240 20114 48554 70500 81100
                   333 58023 81838=
200808180600 AAXX 18064 67633 31970 10204 10195 20055 48527 70500 81030
                   333 10332 20165 58012 81361=
200808121200 AAXX 12124 67633 41970 00000 10260 20072 48528 70500
                   333 59011=
200808080600 AAXX 08064 67633 31975 40902 10168 20079 48537 70511 84030
                   333 10280 20140 58013 84360=
200808040600 AAXX 04064 67633 31975 11508 10160 20075 48543 70500 80001
                   333 10290 20105 58004 81080=

################################################################################
#  SYNOPS from 67641, Kaoma (Zambia) | 14-48S | 024-48E | 1213 m
################################################################################
200808280600 AAXX 28064 67641 31975 00000 10173 20103 48494 70500
                   333 10346 20139 59006=
200808270600 AAXX 27064 67641 31975 03601 10141 20087 48497 70500
                   333 10336 20103 59008=
200808200600 AAXX 20064 67641 31975 00000 10117 20082 48523 70500
                   333 10296 20088 5////=
200808180600 AAXX 18064 67641 31975 00901 10169 20066 48521 70500
                   333 10321 20109 58014=
200808140600 AAXX 14064 67641 32980 00402 10170 20089 48543
                   333 10293 20075 59001=
200808110600 AAXX 11064 67641 31975 00804 10136 20042 48540 70500
                   333 10280 20018 58005=
200808070600 AAXX 07064 67641 31975 70902 10140 20085 48521 70522 87030
                   333 10267 20113 59017 87361=

################################################################################
#  SYNOPS from 67655, Mumbwa (Zambia) | 15-04S | 027-11E | 1216 m
################################################################################
200808260600 AAXX 26064 67655 31975 00308 10206 20121 48512 70500
                   333 10300 20145 59010=
200808220600 AAXX 22064 67655 31975 00903 10142 20072 48573 70500
                   333 10275 20074 59002=

################################################################################
#  SYNOPS from 67659, Kafue Polder (Zambia) | 15-46S | 027-55E | 978 m
################################################################################
200808280900 AAXX 28094 67659 41960 00908 10296 20070 48/// 70500
                   333 58001=
200808121200 AAXX 12124 67659 41965 00905 10237 20101 48/// 70500
                   333 59008=
200808080600 AAXX 08064 67659 31965 70902 10159 20094 70522 8702/
                   333 10256 20//0 87460=
200808070900 AAXX 07094 67659 41960 00907 10224 20105 48/// 70500
                   333 58001=

################################################################################
#  SYNOPS from 67663, Kabwe (Zambia) | 14-27S | 028-28E | 1206 m
################################################################################
200808270600 AAXX 27064 67663 31960 00904 10205 20076 48514 70500
                   333 10310 20134 59009=
200808211200 AAXX 21124 67663 41970 01009 10247 20053 48546 70500
                   333 58011=
200808180900 AAXX 18094 67663 41670 10912 10240 20114 48554 70500 81100
                   333 58023 81838=

################################################################################
#  SYNOPS from 67665, Lusaka Internationalairport (Zambia) | 15-19S | 028-27E | 1152 m
################################################################################
200808301800 AAXX 30184 67665 41960 00000 10217 20//0 48503 70500
                   333 10330 59014=
200808301500 AAXX 30154 67665 41960 00000 10304 20070 48499 70500
                   333 59009=
200808301200 AAXX 30124 67665 41960 03502 10306 20042 48514 70500
                   333 59006=
200808300600 AAXX 30064 67665 31958 00000 10194 20051 48529 70500
                   333 10305 20109 59004=
200808300400 AAXX 30044 67665 41960 00000 10105 20//0 48505 70500
                   333 59002=
200808300300 AAXX 30034 67665 42980 00000 10117 20//0 48519
                   333 59010=
200808300000 AAXX 30004 67665 42980 00000 10151 20//0 48508
                   333 59008=
200808292100 AAXX 29214 67665 42980 01702 10150 20//0 48519 70200
                   333 59001=
200808291800 AAXX 29184 67665 41960 01002 10194 20//0 48513 70500
                   333 58000=
200808291500 AAXX 29154 67665 41960 00604 10289 20095 48507
                   333 58000=
200808291200 AAXX 29124 67665 41960 00606 10295 20078 48518 70500
                   333 58003=
200808290900 AAXX 29094 67665 41959 00405 10270 20075 48545 70500
                   333 58006 91020=
200808290600 AAXX 29064 67665 31959 00000 10196 20078 48534 70500
                   333 10315 20125 58008 91020=
200808290400 AAXX 29044 67665 42980 00000 10127 20/// 48507
                   333 58009=
200808280900 AAXX 28094 67665 41960 00507 10277 20073 48541 70500
                   333 59002=
200808280600 AAXX 28064 67665 31960 01502 10183 20056 48524 70500
                   333 10314 20089 59001=
200808280400 AAXX 28044 67665 41970 00000 10150 20//0 48503
                   333 59008=
200808280300 AAXX 28034 67665 41960 00000 10149 20//0 48496
                   333 59012=
200808280000 AAXX 28004 67665 41960 00000 10142 20//0 48501
                   333 59006=
200808272100 AAXX 27214 67665 41960 00000 10174 20//0 48518
                   333 59004=
200808271800 AAXX 27184 67665 41960 00000 10198 20//0 48512 70500
                   333 59005=
200808271200 AAXX 27124 67665 41960 00904 10304 20069 48518 70500
                   333 58001=
200808270600 AAXX 27064 67665 31960 00000 10183 20079 48523 70500
                   333 10300 20079 59006=
200808270000 AAXX 27004 67665 42960 00000 10129 20//0 48504 70500
                   333 59006=
200808261800 AAXX 26184 67665 41958 00000 10203 20//0 48517 70500
                   333 10305 59007=
200808261500 AAXX 26154 67665 41958 01204 10291 20070 48507 70500
                   333 59008=
200808261200 AAXX 26124 67665 41960 01203 10302 20075 48517 70500
                   333 59005=
200808260900 AAXX 26094 67665 41970 01204 10275 20096 48540 70500
                   333 59005=
200808260600 AAXX 26064 67665 31970 00000 10195 20101 48530 70500
                   333 10293 20121 59009=
200808251200 AAXX 25124 67665 41965 03102 10284 20093 48520 70500
                   333 59014=
200808250900 AAXX 25094 67665 42980 00802 10252 20105 48545
                   333 59018=
200808250600 AAXX 25064 67665 31970 00000 10150 20108 48535 70500
                   333 10270 20115 59014=
200808241200 AAXX 24124 67665 41980 00607 10261 20087 48529 70500
                   333 59029=
200808240900 AAXX 24094 67665 41980 00605 10231 20089 48558 70500
                   333 59029=
200808240600 AAXX 24064 67665 31980 01103 10154 20075 48549 70500
                   333 10265 20081 59023=
200808240400 AAXX 24044 67665 42980 00000 10104 20//0 48532
                   333 59018=
200808240300 AAXX 24034 67665 42980 00000 10103 20//0 48532
                   333 59014=
200808232100 AAXX 23214 67665 42980 00000 10235 20//0 48549
                   333 59012=
200808231500 AAXX 23154 67665 42980 00904 10250 20076 48547
                   333 59011=
200808231200 AAXX 23124 67665 42980 00603 10251 20065 48558
                   333 59006=
200808230900 AAXX 23094 67665 42980 00805 10215 20068 48583
                   333 59002=
200808230600 AAXX 23064 67665 32980 01104 10145 20066 48570
                   333 10250 20080 59006=
200808221800 AAXX 22184 67665 42980 01205 10144 20//0 48558
                   333 10245 59004=
200808221500 AAXX 22154 67665 42980 10907 10235 20055 48556 80001
                   333 59004 81080 555 10245=
200808221200 AAXX 22124 67665 42980 01106 10239 20029 48563
                   333 59006=
200808220900 AAXX 22094 67665 42680 10808 10216 20074 48586 81100
                   333 59003 81830=
200808220600 AAXX 22064 67665 32980 01105 10145 20080 48574
                   333 10255 20076 58000=
200808220400 AAXX 22044 67665 42980 01102 10083 20//0 48553
                   333 58003=
200808220300 AAXX 22034 67665 42980 01403 10093 20//0 48552
                   333 58007=
200808220000 AAXX 22004 67665 42980 00000 10102 20//0 48552
                   333 58007=
200808212100 AAXX 21214 67665 42980 00000 10123 20//0 48563
                   333 58008=
200808211200 AAXX 21124 67665 42980 01010 10248 20038 48570
                   333 58020 91024=
200808210600 AAXX 21064 67665 32970 00803 10158 48574
                   333 10249 20096 58016=
200808201800 AAXX 20184 67665 41980 00000 10176 20//0 48552 70500
                   333 10249 58003=
200808201500 AAXX 20154 67665 41980 00904 10249 20067 48547 70500
                   333 59001=
200808200600 AAXX 20064 67665 31970 00000 10143 20095 48557 70500
                   333 10241 20086 59010=
200808191800 AAXX 19184 67665 42980 01003 10158 20//0 48540
                   333 59007=
200808191500 AAXX 19154 67665 42780 10804 10225 20102 48545 81100
                   333 59004 81856=
200808191200 AAXX 19124 67665 42680 10806 10225 20112 48557 81100
                   333 58002 81840=
200808190600 AAXX 19064 67665 31459 71109 10160 20120 48570 70522 87800
                   333 10272 20107 58006 87613=
200808181500 AAXX 18154 67665 41975 10907 10232 20095 48549 70500 81030
                   333 58019 81360=
200808180900 AAXX 18094 67665 41559 10911 10221 20094 48574 70500 81100
                   333 58027 81830=
200808180600 AAXX 18064 67665 31970 00904 10119 48566 70500
                   333 10259 20135 58034=
200808180400 AAXX 18044 67665 42980 01004 10138 20//0 48549 70200
                   333 58014=
200808180300 AAXX 18034 67665 42980 01204 10136 20//0 48543 70200
                   333 58034=
200808180000 AAXX 18004 67665 42980 00000 10147 20//0 48522 70200
                   333 58026=
200808172100 AAXX 17214 67665 42980 01502 10158 20//0 48549 70200
                   333 58029=
200808171800 AAXX 17184 67665 42980 01402 10190 20//0 48542
                   333 10304 58000=
200808171500 AAXX 17154 67665 41975 00906 10271 20056 48535 70500
                   333 58031=
200808171200 AAXX 17124 67665 41770 10909 10293 20064 48534 70500 81100
                   333 58021 81856=
200808170900 AAXX 17094 67665 41960 00603 10262 20088 48553 70500
                   333 58017 91021=
200808170600 AAXX 17064 67665 31960 00000 10187 20098 48536 70500
                   333 10300 20120 58011 91021=
200808161800 AAXX 16184 67665 42980 10000 10190 20//0 48516 70200 80001
                   333 10300 58007 81080=
200808161500 AAXX 16154 67665 41970 21003 10286 20086 48566 70500 81031
                   333 58013 81360 81080
                   555 10300=
200808161200 AAXX 16124 67665 41970 12502 10289 20069 48513 70500 81030
                   333 59011 91017=
200808160600 AAXX 16064 67665 31960 01203 10176 20097 48524 70500
                   333 10285 20120 5////=
200808160400 AAXX 16044 67665 41960 00000 10131 20//0 48507 70500
                   333 59029=
200808160300 AAXX 16034 67665 41960 00000 10139 20//0 48502
                   333 59031=
200808152100 AAXX 15214 67665 41959 14002 10147 20//0 48519 70500
                   333 59015=
200808151800 AAXX 15184 67665 42980 21302 10186 20//0 48521 82030
                   333 10285 58002 82360=
200808151500 AAXX 15154 67665 41770 21203 10269 20090 48515 70500 82030
                   333 59010 82360 555 10285=
200808151200 AAXX 15124 67665 41770 40503 10261 20088 48527 70500 84200
                   333 58003 84856 91019=
200808141800 AAXX 14184 67665 42980 00000 10180 20//0 48530
                   333 10283 59008=
200808141500 AAXX 14154 67665 41959 11204 10270 20089 48527 81030
                   333 59003 81360=
200808141200 AAXX 14124 67665 41770 11203 10275 20094 48540 70500 81100
                   333 58005 81850=
200808140600 AAXX 14064 67665 31970 11502 19153 20095 48550 70500 80001
                   333 10272 20094 58004 81080=
200808131800 AAXX 13184 67665 42970 21402 10162 20//0 48535 70500 82030
                   333 58000 82360 555 10272=
200808131200 AAXX 13124 67665 41659 19904 10249 20102 48532 70500 81100
                   333 59007 81842=
200808121800 AAXX 12184 67665 42980 51202 10159 20//0 48538 85030
                   333 10235 59020 85360=
200808121500 AAXX 12154 67665 42880 31002 10220 20095 48526 83100
                   333 59026 83857=
200808121200 AAXX 12124 67665 42680 21004 10222 20114 48536 82100
                   333 59026 81845=
200808120900 AAXX 12094 67665 42680 50706 10181 20089 48563 85100
                   333 59016 85830=
200808120600 AAXX 12064 67665 32480 10804 10114 20066 48553 81100
                   333 10249 20070 59017 81815=
200808120400 AAXX 12044 67665 42980 01402 10080 20//0 48534
                   333 59004=
200808120300 AAXX 12034 67665 42980 00000 10083 20//0 48531
                   333 59022=
200808112100 AAXX 11214 67665 42980 00000 10100 20//0 48599
                   333 59011=
200808111500 AAXX 11154 67665 42780 10905 10202 20080 48549 81100
                   333 59010 81856=
200808110600 AAXX 11064 67665 32970 01106 10137 20089 48571 70500
                   333 10246 20087 59006=
200808101200 AAXX 10124 67665 41970 00911 10236 20086 48563 70500
                   333 58005 91023=
200808100900 AAXX 10094 67665 41970 00708 10216 20090 48586 70500
                   333 58012 91026=
200808100600 AAXX 10064 67665 31970 71006 10170 20102 48583 70522 87030
                   333 58020 87360=
200808100400 AAXX 10044 67665 42980 71210 10158 20//0 48568 8703/
                   333 58019 87360=
200808100300 AAXX 10034 67665 42980 01108 10154 20//0 48553
                   333 58020=
200808100000 AAXX 10004 67665 42980 41202 10138 20//0 48554 84030
                   333 58011 84360=
200808092100 AAXX 09214 67665 42980 01103 10145 20//0 48564 81030
                   333 58013 81360=
200808091800 AAXX 09184 67665 42980 11401 10164 20//0 48560 81030
                   333 10264 58016 81360=
200808090900 AAXX 09094 67665 41970 70907 10206 20096 48573 70522
                   333 58008 87360=
200808090600 AAXX 09064 67665 31970 71107 10154 20085 48561 70522 87030
                   333 10258 20111 58006 87360=
200808081800 AAXX 08184 67665 42980 00000 10166 20//0 48546
                   333 10258 58008=
200808081500 AAXX 08154 67665 41970 00904 10245 20076 48539
                   333 58007=
200808081200 AAXX 08124 67665 41970 00706 10244 20085 48544 70500
                   333 58009=
200808080900 AAXX 08094 67665 41970 61010 10215 20081 48567 70522 86030
                   333 58007 86360 91024=
200808080600 AAXX 08064 67665 31970 71104 10158 20084 48557 70522 87030
                   333 10249 20115 58002 87360 91023=
200808071200 AAXX 07124 67665 42670 11205 10235 20096 48534 70500 81100
                   333 59016 81842=
200808070900 AAXX 07094 67665 42980 00805 10215 20090 48560
                   333 59011=
200808070600 AAXX 07064 67665 32980 51203 10128 20101 48551 85030
                   333 10247 20058 59014 85360=
200808061500 AAXX 06154 67665 42980 20910 10221 20085 48542 82030
                   333 59007 82360=
200808061200 AAXX 06124 67665 41680 41008 10229 20099 48550 70522 84200
                   333 59014 84845=
200808060600 AAXX 06064 67665 32975 01104 10146 20112 48565 70500
                   333 10225 20112 59001=
200808060400 AAXX 06044 67665 42980 51205 10134 20//0 48553 85030
                   333 59005 85360=
200808060300 AAXX 06034 67665 42980 50000 10134 20//0 48553 85030
                   333 58000 85360=
200808060000 AAXX 06004 67665 42980 50000 10130 20//0 48552 85030
                   333 59003 85360=
200808052100 AAXX 05214 67665 42980 60000 10141 20//0 48565 86030
                   333 59002 86360=
200808051800 AAXX 05184 67665 42980 40000 10160 20056 48558 84030
                   333 10225 59008 84360=
200808051200 AAXX 05124 67665 41670 60904 10210 20085 48561 70522 83132
                   333 59003 83845 82360 86280=
200808050900 AAXX 05094 67665 41970 60813 10179 20090 48581 70522 86030
                   333 58000 86360=
200808050400 AAXX 05044 67665 41960 61104 10128 20//0 48555 70522 86030
                   333 59003 86360=
200808050300 AAXX 05034 67665 41950 61005 10137 20//0 48553 70522 85030
                   333 59003 85360=
200808050000 AAXX 05004 67665 41960 61203 10137 20//0 48556 70522 86030
                   333 58003 86360=
200808042100 AAXX 04214 67665 41960 71104 10146 20//0 48565 70522 87030
                   333 58001 87360=
200808041200 AAXX 04124 67665 42680 60912 10214 20066 48564 82130
                   333 58004 82840 86360 91023=
200808040900 AAXX 04094 67665 42680 61017 10195 20079 48584 83530
                   333 58005 83625 86360=
200808040600 AAXX 04064 67665 32980 21104 10142 20082 48567 81030
                   333 10245 20094 58012 82360=
200808031800 AAXX 03184 67665 42980 20000 10147 20//0 48555 82030
                   333 10245 58009 82360=
200808031500 AAXX 03154 67665 41780 31011 10236 20076 48556 70500 82230
                   333 58011 82850 82360
                   555 10245=
200808031200 AAXX 03124 67665 41780 40613 10236 20083 48564 70500 84200
                   333 58016 84835=
200808030900 AAXX 03094 67665 41560 40812 10211 20108 48580 70500 84200
                   333 58009 84820=
200808030600 AAXX 03064 67665 31960 01002 10131 20064 48562 70500
                   333 10256 20075 58001=
200808021800 AAXX 02184 67665 42980 00000 10150 20//0 48548
                   333 10256 58004=
200808021500 AAXX 02154 67665 41980 01006 10237 20019 48546 70500
                   333 58010=
200808020600 AAXX 02064 67665 32980 01403 10130 20050 48554
                   333 10251 20083 58004=
200808010900 AAXX 01094 67665 41970 00604 10217 20075 48567 70500
                   333 59012=
200808010600 AAXX 01064 67665 31970 01202 10133 20055 48548 70500
                   333 10//0 20072 59016=

################################################################################
#  SYNOPS from 67666, Lusaka City Airport (Zambia) | 15-25S | 028-19E | 1280 m
################################################################################
200808290600 AAXX 29064 67666 31950 00904 10205 20100 48523 70500
                   333 10295 20130 59003=
200808280900 AAXX 28094 67666 41975 00810 10260 20141 48530 70500
                   333 58001=
200808260600 AAXX 26064 67666 31970 01004 10215 20113 48524 70500
                   333 10288 20130 59010=
200808220900 AAXX 22094 67666 41579 11015 10205 20110 48566 70500 81100
                   333 59004 81820=
200808220600 AAXX 22064 67666 31975 00708 10150 20095 48563 70500
                   333 10245 20117 5////=
200808200600 AAXX 20064 67666 31970 00910 10155 20101 48649 70500
                   333 10218 20110 59009=
200808080600 AAXX 08064 67666 32980 71009 10170 20076 48549 8703/
                   333 10236 20136 58006 87360=
200808040600 AAXX 04064 67666 32975 10911 10155 20111 48562 81030
                   333 10230 20120 58002 81360=
200808010600 AAXX 01064 67666 31978 01004 10165 20053 48543 70500
                   333 10235 20110 59017=

################################################################################
#  SYNOPS from 67667, Mount Makulu (Zambia) | 15-33S | 028-15E | 1213 m
################################################################################
200808050600 AAXX 05064 67667 31959 70907 10146 20095 48566 70522 87030
                   333 10232 20136 59003 87360=

################################################################################
#  SYNOPS from 67673, Petauke (Zambia) | 14-15S | 031-17E | 1035 m
################################################################################
200808290600 AAXX 29064 67673 31970 00303 10226 20089 48534 70500
                   333 10311 20160 58004=
200808280900 AAXX 28094 67673 41970 01205 10285 20071 48545 70500
                   333 58003=
200808220900 AAXX 22094 67673 41575 11207 10231 20100 48557 70500 81100
                   333 59030 81825=
200808080600 AAXX 08064 67673 31975 71403 10189 20077 48570 70522 87030
                   333 10265 20143 58002 87360=
200808070900 AAXX 07094 67673 41975 00906 10233 20118 48559 70510
                   333 59014=

################################################################################
#  SYNOPS from 67743, Livingstone (Zambia) | 17-49S | 025-49E | 985 m
################################################################################
200808301500 AAXX 30154 67743 41959 01303 10340 20075 48441 70500
                   333 59025=
200808300600 AAXX 30064 67743 31959 00703 10199 20062 48526 70500
                   333 10350 20153 59004=
200808290600 AAXX 29064 67743 31970 00703 10180 20066 48510 70500
                   333 10350 20152 58013=
200808280900 AAXX 28094 67743 41970 01208 10305 20068 48519 70500
                   333 59018=
200808280600 AAXX 28064 67743 31970 01603 10187 20061 48495 70500
                   333 10345 20161 59012=
200808271200 AAXX 27124 67743 41975 01108 10329 20060 48501 70500
                   333 59007=
200808270600 AAXX 27064 67743 31975 00000 10166 20079 48505 70500
                   333 10335 20134 59003=
200808261500 AAXX 26154 67743 41970 01903 10321 20064 48501 70500
                   333 59010=
200808261200 AAXX 26124 67743 41970 01703 10326 20057 48513 70500
                   333 59011=
200808260600 AAXX 26064 67743 31980 01702 10165 20081 48507 70500
                   333 10340 20125 59017=
200808250900 AAXX 25094 67743 41970 01903 10271 20086 48537 70500
                   333 59020=
200808241200 AAXX 24124 67743 41970 00000 10290 20053 48531 70500
                   333 59031=
200808230900 AAXX 23094 67743 41970 01106 10240 20066 48580 70500
                   333 58000=
200808230600 AAXX 23064 67743 32970 00805 10155 20056 48560
                   333 10284 20095 59002=
200808220900 AAXX 22094 67743 41970 00506 10240 20070 48585 70500
                   333 59001=
200808220600 AAXX 22064 67743 31970 00704 10162 20049 48566 70500
                   333 10296 20104 59002=
200808210600 AAXX 21064 67743 31970 00809 10185 20085 48574 70500
                   333 10300 20132 58020=
200808201500 AAXX 20154 67743 41970 01110 10280 20082 48540 70500
                   333 58006=
200808200600 AAXX 20064 67743 31970 00907 10159 20104 48550 70500
                   333 10290 20121 59007=
200808191200 AAXX 19124 67743 41975 00506 10275 20101 48546 70500
                   333 58001=
200808180900 AAXX 18094 67743 41970 61011 10245 20121 48567 70500 86030
                   333 58026 86360=
200808180600 AAXX 18064 67743 31970 31010 10192 20125 48555 70500 83030
                   333 10328 20/// 58032 83360=
200808160600 AAXX 16064 67743 31970 00000 10170 20079 48506 70500
                   333 10310 20110 59028=
200808141200 AAXX 14124 67743 41970 01706 10274 20059 48536 70500
                   333 58003=
200808140600 AAXX 14064 67743 41970 00000 10144 20089 48541 70500
                   333 10275 20104 58000=
200808121500 AAXX 12154 67743 41770 11105 10242 20056 48523 70500 81100
                   333 58035 81857=
200808110600 AAXX 11064 67743 31970 01009 10147 20054 48579 70500
                   333 10263 20129 58002=
200808090900 AAXX 09094 67743 41970 01605 10231 20058 48582 70500
                   333 58017=
200808081500 AAXX 08154 67743 41970 01604 10270 20032 48538 70500
                   333 58007=
200808081200 AAXX 08124 67743 41970 01406 10265 20039 48545 70500
                   333 58008=
200808080600 AAXX 08064 67743 41970 01304 10140 20035 48545 70500
                   333 10267 20090 58005=
200808070900 AAXX 07094 67743 41970 00911 10220 20034 48560 70500
                   333 59014=
200808070600 AAXX 07064 67743 31970 01204 10140 20081 48544 70500
                   333 10252 20100 58008=
200808051200 AAXX 05124 67743 41770 41905 10236 20074 48563 70500 84100
                   333 59003 84856=
200808040600 AAXX 04064 67743 31975 11105 10414 20051 48567 70500 81030
                   333 10270 20110 58009 81360=
200808030600 AAXX 03064 67743 31975 01401 10125 20042 48552 70500
                   333 10282 20085 58015=
200808020600 AAXX 02064 67743 31960 00806 10110 20047 48/// 70500
                   333 10281 20079 58002=
200808010900 AAXX 01094 67743 41970 01002 10235 20050 48556 70500
                   333 59004=
200808010600 AAXX 01064 67743 31970 00000 10166 20062 48539 70500
                   333 10266 20075 59016=

################################################################################
#  SYNOPS from 67751, Magoye (Zambia) | 16-00S | 027-36E | 1018 m
################################################################################
200808080600 AAXX 08064 67751 31976 71802 10174 20086 70522 87030
                   333 10264 20091 87360=
200808070900 AAXX 07094 67751 41978 00907 10227 20041 48/// 70500
                   333 58018=

################################################################################
#  SYNOPS from 67753, Choma (Zambia) | 16-50S | 027-04E | 1213 m
################################################################################
200808290600 AAXX 29064 67753 31960 00906 10206 20074 48/// 70500
                   333 10317 20127 5////=
200808280600 AAXX 28064 67753 31960 03605 10197 20073 48/// 70500
                   333 10320 20148 5////=
200808270600 AAXX 27064 67753 31960 00906 10192 20077 48/// 70500
                   333 10315 20115 5////=
200808220900 AAXX 22094 67753 41978 00907 10255 20053 48/// 70500
                   333 5////=
200808180900 AAXX 18094 67753 41960 00912 10229 20123 48/// 70500 81100
                   333 5////=
200808180600 AAXX 18064 67753 31960 00905 10175 20134 48/// 70500
                   333 10299 20122 5////=
200808140600 AAXX 14064 67753 31960 00905 10112 20094 70500
                   333 10260 20070=
200808121200 AAXX 12124 67753 41660 20906 10220 20087 48/// 70522 82100
                   333 5//// 82830=
200808080600 AAXX 08064 67753 31960 10906 10132 20086 48/// 70500 81030
                   333 10345 20058 5//// 81360=
200808070900 AAXX 07094 67753 41960 00608 10205 20094 48/// 70500
                   333 5////=
200808070600 AAXX 07064 67753 31960 00905 10135 20088 48/// 70500
                   333 10231 20052 5////=
200808040600 AAXX 04064 67753 31960 00907 10152 20092 48/// 70500
                   333 10239 20069 5////=

################################################################################
#  SYNOPS from 67855, Lupaki (Zambia) | 17-03-00S | 024-46-00E | 1000 m
################################################################################
200808260600 AAXX 26064 67855 NIL=
200808260000 AAXX 26004 67855 NIL=
200808251800 AAXX 25184 67855 NIL=
200808250600 AAXX 25064 67855 NIL=
200808250000 AAXX 25004 67855 NIL=
200808241800 AAXX 24184 67855 NIL=
200808241200 AAXX 24124 67855 NIL=
200808240600 AAXX 24064 67855 NIL=
200808240000 AAXX 24004 67855 NIL=
200808231800 AAXX 23184 67855 NIL=
200808231200 AAXX 23124 67855 NIL=
200808230600 AAXX 23064 67855 32980 00000 10104 20032 3//// 48///
                   333 20050 5////=
200808230000 AAXX 23004 67855 NIL=
200808221200 AAXX 22124 67855 NIL=
200808220600 AAXX 22064 67855 32980 01401 10139 20047 3//// 48///
                   333 20092 5////=
200808220000 AAXX 22004 67855 NIL=
200808211800 AAXX 21184 67855 NIL=
200808211200 AAXX 21124 67855 NIL=
200808210600 AAXX 21064 67855 32980 00801 10156 20064 3//// 48///
                   333 20093 5////=
200808210000 AAXX 21004 67855 NIL=
200808201800 AAXX 20184 67855 NIL=
200808201200 AAXX 20124 67855 NIL=
200808200600 AAXX 20064 67855 NIL=
200808200000 AAXX 20004 67855 NIL=
200808191800 AAXX 19184 67855 NIL=
200808191200 AAXX 19124 67855 NIL=
200808190600 AAXX 19064 67855 NIL=
200808190000 AAXX 19004 67855 NIL=
200808181200 AAXX 18124 67855 NIL=
200808180600 AAXX 18064 67855 32980 70302 10176 20123 3//// 48/// 8703/
                   333 20149 5//// 87358=
200808180000 AAXX 18004 67855 NIL=
200808171800 AAXX 17184 67855 NIL=
200808171200 AAXX 17124 67855 NIL=
200808170600 AAXX 17064 67855 32980 12301 10148 20054 38/// 48/// 81030
                   333 20090 5//// 81360=
200808170000 AAXX 17004 67855 NIL=
200808161800 AAXX 16184 67855 NIL=
200808161200 AAXX 16124 67855 NIL=
200808160600 AAXX 16064 67855 NIL=
200808160000 AAXX 16004 67855 NIL=
200808151800 AAXX 15184 67855 NIL=
200808151200 AAXX 15124 67855 NIL=
200808150600 AAXX 15064 67855 NIL=
200808150000 AAXX 15004 67855 NIL=
200808141200 AAXX 14124 67855 NIL=
200808140600 AAXX 14064 67855 32980 00801 10096 20047 3//// 48///
                   333 20039 5////=
200808140000 AAXX 14004 67855 NIL=
200808131800 AAXX 13184 67855 NIL=
200808131200 AAXX 13124 67855 NIL=
200808130600 AAXX 13064 67855 32980 01601 10078 20029 3//// 48///
                   333 20030 5////=
200808130000 AAXX 13004 67855 NIL=
200808121800 AAXX 12184 67855 NIL=
200808121200 AAXX 12124 67855 NIL=
200808120600 AAXX 12064 67855 NIL=
200808120000 AAXX 12004 67855 NIL=
200808111800 AAXX 11184 67855 NIL=
200808111200 AAXX 11124 67855 NIL=
200808110600 AAXX 11064 67855 32980 00901 10104 20041 38/// 48///
                   333 20046 5////=
200808110000 AAXX 11004 67855 NIL=
200808101800 AAXX 10184 67855 NIL=
200808101200 AAXX 10124 67855 NIL=
200808100600 AAXX 10064 67855 NIL=
200808091800 AAXX 09184 67855 NIL=
200808091200 AAXX 09124 67855 NIL=
200808090600 AAXX 09064 67855 NIL=
200808090000 AAXX 09004 67855 NIL=
200808081800 AAXX 08184 67855 NIL=
200808081200 AAXX 08124 67855 NIL=
200808080600 AAXX 08064 67855 NIL=
200808080000 AAXX 08004 67855 NIL=
200808071800 AAXX 07184 67855 NIL=
200808071200 AAXX 07124 67855 NIL=
200808070000 AAXX 07004 67855 NIL=
200808061800 AAXX 06184 67855 NIL=
200808050600 AAXX 05064 67855 NIL=
200808050000 AAXX 05004 67855 NIL=
200808041800 AAXX 04184 67855 NIL=
200808041200 AAXX 04124 67855 NIL=
200808040600 AAXX 04064 67855 NIL=
200808040000 AAXX 04004 67855 NIL=
200808031800 AAXX 03184 67855 NIL=
200808031200 AAXX 03124 67855 NIL=
200808030600 AAXX 03064 67855 NIL=
200808030000 AAXX 03004 67855 NIL=
200808021800 AAXX 02184 67855 NIL=
200808020600 AAXX 02064 67855 NIL=
200808011800 AAXX 01184 67855 NIL=
200808010600 AAXX 01064 67855 NIL=
