################################################################################
# Query made at 04/15/2022 01:57:18 UTC
# Country like Zamb*
# Time interval: from 12/01/2010 05:30  to 12/31/2010 06:30  UTC
################################################################################

################################################################################
#  SYNOPS from 67403, Kawambwa (Zambia) | 09-48S | 029-05E | 1323 m
################################################################################
201012080600 AAXX 08064 67403 12580 70802 10198 20186 48511 60134 82532
                   333 10249 20145 59020 82620 85362 84080=

################################################################################
#  SYNOPS from 67413, Mbala (Zambia) | 08-51S | 031-20E | 1673 m
################################################################################
201012150600 AAXX 15064 67413 32980 10604 10220 20141 48524 81030
                   333 10278 20148 58004 81359=
201012140600 AAXX 14064 67413 32680 20915 10213 20153 48520 82100
                   333 10266 20144 5//// 82830=
201012100600 AAXX 10064 67413 12980 71206 10190 20174 48531 60234 8707/
                   333 10205 20150 59007 87359=

################################################################################
#  SYNOPS from 67441, Mwinilunga (Zambia) | 11-45S | 024-26E | 1361 m
################################################################################
201012310600 AAXX 31064 67441 11980 60000 10175 20172 48526 60044 72844 86030
                   333 10265 20/// 59004 86360=
201012230600 AAXX 23064 67441 12980 72504 10189 20159 48531 60044 8703/
                   333 10210 20/// 58004 87360=
201012220600 AAXX 22064 67441 12580 80000 10181 20172 48527 69904 885//
                   333 10240 20//0 59007 88620=
201012200900 AAXX 20094 67441 42580 72704 10232 20184 48523 8113/
                   333 5//// 81820 87361=
201012150600 AAXX 15064 67441 11980 70000 10175 20160 48547 60144 72999 8707/
                   333 10308 20/// 58002 87360=
201012140600 AAXX 14064 67441 11960 80000 10170 20163 48536 60024 76164 8802/
                   333 10277 20/// 58021 88460=
201012100900 AAXX 10094 67441 41580 80000 10198 20190 48534 72162 8117/
                   333 59004 81825 88360=
201012100600 AAXX 10064 67441 12980 80000 10190 20183 48538 60044 8707/
                   333 10260 20//0 58007 88360=
201012090600 AAXX 09064 67441 12380 73607 10200 20169 48526 60014 8563/
                   333 10273 20/// 58020 85709 87360=
201012080600 AAXX 08064 67441 12480 70308 10196 20179 48525 60044 83134
                   333 10230 20/// 59001 83818 85360 81080=
201012061200 AAXX 06124 67441 41682 70000 10234 20191 48493 81134
                   333 5//// 81830 86362 81080=
201012031200 AAXX 03124 67441 41682 60000 10220 20185 48515 72162 83232
                   333 58010 83830 84362 81080=

################################################################################
#  SYNOPS from 67461, Mansa (Zambia) | 11-06S | 028-51E | 1382 m
################################################################################
201012310600 AAXX 31064 67461 12580 81206 10178 20174 48504 60084 8357/
                   333 10290 20158 58005 83620 88461=
201012230600 AAXX 23064 67461 32580 70000 10198 20174 48502 81538
                   333 10266 20157 58001 81620 84362 87280=
201012220600 AAXX 22064 67461 12980 82706 10189 20173 48505 60014 8707/
                   333 10234 20164 59012 88462=
201012150900 AAXX 15094 67461 42980 11502 10290 20162 48507 81030
                   333 58002 81362=
201012150600 AAXX 15064 67461 32980 11203 10250 20174 48510 81030
                   333 10307 20173 58001 81362=
201012140600 AAXX 14064 67461 32580 10907 10225 20189 48507 81500
                   333 10295 29154 58002 81620=
201012101200 AAXX 10124 67461 42580 71902 10242 20178 48491 84270
                   333 59007 84825 87462=
201012100900 AAXX 10094 67461 42580 80803 10217 20172 48523 8457/
                   333 59005 84620 88462=
201012100600 AAXX 10064 67461 11275 81902 10177 20174 48520 60024 76062 8557/
                   333 10262 20157 58007 85620 88461=
201012090600 AAXX 09064 67461 12580 82102 10190 20176 48516 60124 8157/
                   333 10277 20161 58012 81618 88462=
201012080900 AAXX 08094 67461 42580 73407 10240 20178 48507 85230
                   333 58026 85830 84362=
201012080600 AAXX 08064 67461 12580 73102 10205 20180 48505 60024 83538
                   333 10255 20155 58022 83620 86362 85280=
201012031200 AAXX 03124 67461 41680 72102 10263 20180 48494 71799 8423/
                   333 58013 81940 84840 84362=
201012030600 AAXX 03064 67461 12580 73302 10200 20185 48508 60284 8157/
                   333 10285 20160 58009 81620 87462=
201012010900 AAXX 01094 67461 42580 61202 10240 20180 48502 70322 81231
                   333 58000 81830 82080 85362=

################################################################################
#  SYNOPS from 67475, Kasama (Zambia) | 10-13S | 031-08E | 1382 m
################################################################################
201012310600 AAXX 31064 67475 32580 61803 10223 20187 48513 85502
                   333 10282 20182 58007 85625 86080=
201012230600 AAXX 23064 67475 32580 62708 10220 20167 48507 83530
                   333 10238 20170 59003 83625 86361=
201012150600 AAXX 15064 67475 32980 20103 10240 20144 48516 82030
                   333 10300 20170 58001 82361=
201012140600 AAXX 14064 67475 32580 20909 10241 20172 48515 82100
                   333 10282 20155 58002 82825=
201012090600 AAXX 09064 67475 NIL=
201012080600 AAXX 08064 67475 11480 83604 10196 20163 48517 60224 75622 8357/
                   333 10260 20164 58026 83620 88460=

################################################################################
#  SYNOPS from 67476, Misamfu (Zambia) | 10-06S | 031-15E | 1536 m
################################################################################
201012150600 AAXX 15064 67476 32980 10806 10245 20159 48/// 81030
                   333 10291 20164 59001 81360=
201012100600 AAXX 10064 67476 11365 83506 10190 20176 60144 76162 887//
                   333 10235 20172 59004 88707=

################################################################################
#  SYNOPS from 67477, Mpika (Zambia) | 11-54S | 031-26E | 1400 m
################################################################################
201012170900 AAXX 17094 67477 42680 70903 10289 20152 48506 81131
                   333 58015 81846 86360 81080=
201012101200 AAXX 10124 67477 41580 70903 10235 20174 48481 70262 8123/
                   333 59014 81926 81826 87361=
201012100900 AAXX 10094 67477 41480 83203 10211 20197 48/// 76065 8577/
                   333 59012 85707 88460=
201012100600 AAXX 10064 67477 12280 82701 10184 20172 48525 69954 8767/
                   333 10232 29163 59003 87704 88360=
201012090600 AAXX 09064 67477 12380 82701 10176 20169 48528 60114 8177/
                   333 10245 20147 58019 81708 88460=
201012080600 AAXX 08064 67477 12580 73102 10205 20180 48505 60024 83538
                   333 10255 20155 58022 83620 86362 85280=
201012061200 AAXX 06124 67477 41680 73303 10251 20171 48456 71592 85203
                   333 5//// 81936 85836 82080=
201012030600 AAXX 03064 67477 12480 43203 10205 20174 48518 60114 81130
                   333 10269 20188 58003 81840 83362=
201012010600 AAXX 01064 67477 12480 71106 10209 20170 48507 60034 82108
                   333 10297 20149 58001 82818 86280=

################################################################################
#  SYNOPS from 67481, Isoka (Zambia) | 10-07S | 032-38E | 1360 m
################################################################################
201012080600 AAXX 08064 67481 12480 72303 10195 20176 48/// 60214 85507
                   333 10260 20150 58026 85610 87280=

################################################################################
#  SYNOPS from 67531, Zambezi (Zambia) | 13-32S | 023-07E | 1077 m
################################################################################
201012310600 AAXX 31064 67531 12480 73605 10215 20194 48/// 69914 84531
                   333 10300 20175 59013 84610 82362 83081=
201012290600 AAXX 29064 67531 12380 70404 10205 20182 48/// 60194 8163/
                   333 10260 20182 59003 81707 87360=
201012270900 AAXX 27094 67531 42580 73403 10246 20194 48/// 8583/
                   333 5//// 84820 81620 85362=
201012270600 AAXX 27064 67531 12380 80602 10205 20196 48/// 60044 8707/
                   333 10290 20192 58011 87707 88460=
201012230600 AAXX 23064 67531 12380 73605 10192 20179 48/// 69904 8167/
                   333 10255 20180 58004 81707 87360=
201012220600 AAXX 22064 67531 11380 73604 10200 20185 48/// 60424 70142 8667/
                   333 10239 20180 59008 86707 87360=
201012200900 AAXX 20094 67531 42480 80000 10225 20181 48/// 8482/
                   333 5//// 81817 83617 88460=
201012150900 AAXX 15094 67531 42680 70605 10240 20175 48/// 8287/
                   333 5//// 81830 81630 87460=
201012150600 AAXX 15064 67531 12380 72102 10202 20181 48/// 69924 8167/
                   333 10323 20176 58006 81707 87360=
201012140600 AAXX 14064 67531 11480 33304 10220 20197 48/// 60054 72844 82130
                   333 10279 20176 58022 82811 82361=
201012130600 AAXX 13064 67531 11980 80906 10195 20180 48/// 69914 76166 8177/
                   333 10260 20186 58024 81707 88459=
201012101200 AAXX 10124 67531 41580 83307 10225 20196 48/// 72165 8557/
                   333 59018 85615 88460=
201012100900 AAXX 10094 67531 41380 83203 10211 20197 48/// 76065 8577/
                   333 59012 85707 88460=
201012100600 AAXX 10064 67531 11380 83305 10208 20197 48/// 60034 72052 8777/
                   333 10276 20196 59006 87706 88460=
201012090600 AAXX 09064 67531 11375 81001 10194 20188 48/// 60134 76166 8877/
                   333 10267 20185 58017 83706 88460=
201012080900 AAXX 08094 67531 41480 73001 10232 20186 48/// 8687/
                   333 58003 84818 82618 87460=
201012080600 AAXX 08064 67531 11350 82701 10181 20179 48/// 60234 76166 8677/
                   333 10237 20176 58010 86707 88460=
201012061200 AAXX 06124 67531 42680 73005 10294 20176 48/// 85208
                   333 5//// 85848 84280=
201012030900 AAXX 03094 67531 42680 70208 10262 20194 48/// 85830
                   333 58011 83830 82630 83361=
201012010900 AAXX 01094 67531 41580 73004 10225 20184 48/// 70262 8287/
                   333 59010 81829 81620 87360=
201012010600 AAXX 01064 67531 11380 80000 10190 20182 48/// 60014 76066 8177/
                   333 10241 20181 59002 81706 88360=

################################################################################
#  SYNOPS from 67541, Kasempa (Zambia) | 13-32S | 025-51E | 1234 m
################################################################################
201012090600 AAXX 09064 67541 NIL=
201012080600 AAXX 08064 67541 NIL=

################################################################################
#  SYNOPS from 67551, Solwezi (Zambia) | 12-11S | 026-23E | 1386 m
################################################################################
201012270600 AAXX 27064 67551 12380 70000 10185 20171 48504 60524 8267/
                   333 10250 20167 59001 82709 87362=
201012080600 AAXX 08064 67551 12380 73206 10200 20180 48490 60094 8667/
                   333 10230 20162 58005 86707 87362=

################################################################################
#  SYNOPS from 67561, Ndola (Zambia) | 13-00S | 028-39E | 1269 m
################################################################################
201012310600 AAXX 31064 67561 12580 70000 10200 20175 48512 60194 82438
                   333 10289 20167 58006 82620 86360 87280=
201012270600 AAXX 27064 67561 11370 70907 10195 20178 48511 60264 70522 82638
                   333 10268 20175 5//// 82708 87360 87280=
201012240600 AAXX 24064 67561 31975 72903 10215 20180 48517 70522 85032
                   333 10/// 20172 58012 85361 83080=
201012220600 AAXX 22064 67561 11360 80000 10190 20181 48503 60114 70522 83638
                   333 10//0 20170 59010 83707 85360 87280=
201012170900 AAXX 17094 67561 42580 61102 10269 20172 48520 82238
                   333 58018 82837 84362 86080=
201012170600 AAXX 17064 67561 11975 70705 10216 20176 48511 60994 70522 86032
                   333 10294 20179 58012 86360 84080=
201012150600 AAXX 15064 67561 32980 10506 10227 20163 48513 80001
                   333 10302 20164 58000 81080=
201012100900 AAXX 10094 67561 41460 82405 10197 20172 48520 76162 8527/
                   333 58002 81915 85815 88459=
201012090600 AAXX 09064 67561 11359 80604 10185 20180 48520 60234 72162 8667/
                   333 10262 20170 58022 86706 88459=
201012080600 AAXX 08064 67561 11370 80205 10204 20182 48500 60094 78052 8667/
                   333 10255 20184 58020 86708 88459=
201012030900 AAXX 03094 67561 41565 71810 10245 20182 48507 71722 85238
                   333 59002 81920 85820 84360 86280=
201012030600 AAXX 03064 67561 11960 70000 10228 20187 48576 60154 70522 85038
                   333 10300 20175 58007 85360 87280=

################################################################################
#  SYNOPS from 67563, Kafironda (Zambia) | 12-36S | 028-07E | 1243 m
################################################################################
201012080600 AAXX 08064 67563 11475 70402 10210 20190 48/// 60024 70522 87730
                   333 10236 20174 58014 87704 81358=

################################################################################
#  SYNOPS from 67571, Serenje (Zambia) | 13-14S | 030-13E | 1384 m
################################################################################
201012140600 AAXX 14064 67571 32484 20605 10234 20161 48513 81101
                   333 10296 20181 58007 81815 82080=
201012090600 AAXX 09064 67571 11465 80000 10178 20172 48521 60624 76566 885//
                   333 10240 20160 58024 88616=
201012080600 AAXX 08064 67571 11480 83603 10191 20181 48501 60144 72055 8855/
                   333 10247 20161 58024 88616=
201012031200 AAXX 03124 67571 41584 73602 10224 20173 48482 70296 81938
                   333 58004 81925 81845 83361 87280=
201012010900 AAXX 01094 67571 42484 70904 10253 20177 48494 83238
                   333 59013 81916 83820 83360 87280=

################################################################################
#  SYNOPS from 67580, Msekera (Zambia) | 13-39S | 032-34E | 1025 m
################################################################################
201012290600 AAXX 29064 67580 12480 71804 10219 20198 48/// 60414 84531
                   333 10279 20184 58017 84616 86360 82080=
201012150900 AAXX 15094 67580 42680 62404 10292 20177 48/// 86200
                   333 59005 86845=
201012150600 AAXX 15064 67580 32980 40000 10254 20186 48/// 83031
                   333 10318 20195 58002 83360 81080=
201012140600 AAXX 14064 67580 32980 20905 10265 20154 48/// 80001
                   333 10303 20186 58003 82080=
201012100900 AAXX 10094 67580 42680 70604 10262 20198 48/// 86231
                   333 59015 86834 82361 81080=
201012080900 AAXX 08094 67580 42680 70305 10245 20193 48/// 8517/
                   333 58021 85835 87360=
201012080600 AAXX 08064 67580 12480 70000 10200 20187 48/// 60044 8217/
                   333 10239 20191 5//// 82815 87460=
201012010900 AAXX 01094 67580 42680 63303 10279 20175 48/// 70222 82138
                   333 58004 82836 82361 85280=

################################################################################
#  SYNOPS from 67581, Chipata (Zambia) | 13-33S | 032-35E | 1028 m
################################################################################
201012310600 AAXX 31064 67581 32582 70503 10240 20180 48528 81130
                   333 10300 20190 58001 81820 87360=
201012090600 AAXX 09064 67581 11470 80000 10204 20192 48533 60104 70266 8637/
                   333 10270 20190 58015 86618 88460=
201012080600 AAXX 08064 67581 12684 60305 10218 20192 48520 60054 85530
                   333 10246 20194 58014 85635 84360=

################################################################################
#  SYNOPS from 67599, Mfuwe (Zambia) | 13-16S | 031-56E | 568 m
################################################################################
201012270600 AAXX 27064 67599 32980 70000 10241 20211 48530 8703/
                   333 10328 20214 58002 87360=
201012161200 AAXX 16124 67599 42680 30307 10342 20202 48496 82901
                   333 59019 82945 83080=
201012150900 AAXX 15094 67599 42680 33005 10331 20211 48541 83230
                   333 59011 83835 82360=
201012150600 AAXX 15064 67599 32980 30000 10264 20203 48536 82032
                   333 10359 20199 59002 82360 82080=
201012140600 AAXX 14064 67599 12980 20000 10256 20233 48535 60014 81032
                   333 10319 20204 58000 81360 81080=
201012101200 AAXX 10124 67599 42570 70909 10274 20217 48510 8197/
                   333 59023 81920 83825 87360=
201012100900 AAXX 10094 67599 41370 71406 10246 20223 48526 76066 8257/
                   333 59022 82605 84825 87360=
201012100600 AAXX 10064 67599 12480 71606 10254 20218 48541 60014 8427/
                   333 10278 20216 59008 84813 87360=
201012090600 AAXX 09064 67599 11380 80000 10212 20208 48535 60374 76066 8457/
                   333 10308 20200 58018 84603 88459=
201012080600 AAXX 08064 67599 11480 80000 10235 20215 48526 60064 72162 8177/
                   333 10259 20211 58029 81810 88459=
201012031200 AAXX 03124 67599 42680 50000 10360 20195 48507 81900
                   333 59007 81940 85842=
201012030600 AAXX 03064 67599 32980 30000 10280 20224 48528 83030
                   333 10341 20235 59011 83360=

################################################################################
#  SYNOPS from 67625, Kalabo (Zambia) | 14-51S | 022-42E | 1033 m
################################################################################
201012080600 AAXX 08064 67625 12682 61510 10217 20185 48/// 60074 82130
                   333 10277 20176 58014 82835 86360=

################################################################################
#  SYNOPS from 67633, Mongu (Zambia) | 15-15S | 023-09E | 1052 m
################################################################################
201012310600 AAXX 31064 67633 12980 60504 10218 20181 48488 60104 86030
                   333 10270 20198 58013 86360=
201012290600 AAXX 29064 67633 12480 70204 10212 20192 48514 60024 8453/
                   333 10253 20196 58019 84610 87360=
201012270900 AAXX 27094 67633 42582 73404 10253 20192 48493 85238
                   333 59009 85825 82361 86280=
201012220600 AAXX 22064 67633 12482 73401 10217 20196 48490 60304 86530
                   333 10250 20197 59007 86610 83360=
201012200900 AAXX 20094 67633 42482 72701 10233 20182 48500 8583/
                   333 58016 83815 82620 87360=
201012140600 AAXX 14064 67633 12982 60501 10228 20197 48512 60034 86080
                   333 10290 20203 58024 86360=
201012100900 AAXX 10094 67633 41480 71807 10232 20193 48500 75052 8457/
                   333 59012 84625 87460=
201012090600 AAXX 09064 67633 11382 80602 10206 20197 48507 60134 76066 8677/
                   333 10266 20200 58014 86707 88460=
201012080600 AAXX 08064 67633 12382 71301 10207 20190 48494 60184 8363/
                   333 10245 20188 59024 83708 87360=
201012030900 AAXX 03094 67633 42582 73604 10245 20208 48509 84238
                   333 58018 84820 85360 86280=

################################################################################
#  SYNOPS from 67641, Kaoma (Zambia) | 14-48S | 024-48E | 1213 m
################################################################################
201012310600 AAXX 31064 67641 12582 60402 10217 20190 48491 60014 81530
                   333 10298 20180 59005 81640 86360=
201012080600 AAXX 08064 67641 11482 70601 10199 20192 48485 60344 75055 875//
                   333 10304 20178 58019 87630=

################################################################################
#  SYNOPS from 67655, Mumbwa (Zambia) | 15-04S | 027-11E | 1216 m
################################################################################
201012290600 AAXX 29064 67655 12480 70906 10192 20180 48523 60764 8467/
                   333 10247 20167 58011 84710 87360=
201012100600 AAXX 10064 67655 11375 80704 10194 20189 48520 60404 75155 887//
                   333 10205 20168 58006 88710=
201012060600 AAXX 06064 67655 11380 73603 10201 20186 48491 60074 70222 83532
                   333 10219 20186 59020 83606 83360 85080
                   555 00195 91015=

################################################################################
#  SYNOPS from 67659, Kafue Polder (Zambia) | 15-46S | 027-55E | 978 m
################################################################################
201012080600 AAXX 08064 67659 11350 81106 10194 20191 48/// 60154 76166 8167/
                   333 10239 20174 58009 81705 82610 85459=

################################################################################
#  SYNOPS from 67663, Kabwe (Zambia) | 14-27S | 028-28E | 1206 m
################################################################################
201012090600 AAXX 09064 67663 11375 80902 10182 20177 48519 60334 76366 8377/
                   333 10240 20176 58034 83708 88458=
201012080600 AAXX 08064 67663 12480 70302 10202 20182 48489 60254 8453/
                   333 10216 20180 58038 84618 87360=

################################################################################
#  SYNOPS from 67665, Lusaka Internationalairport (Zambia) | 15-19S | 028-27E | 1152 m
################################################################################
201012310600 AAXX 31064 67665 11480 71401 10185 20177 48522 60014 72162 81138
                   333 10290 20180 58004 81810 83360 87280=
201012291200 AAXX 29124 67665 42680 61006 10270 20213 48507 85230
                   333 58011 85235 82361=
201012290900 AAXX 29094 67665 42480 70805 10225 20204 48529 8523/
                   333 58009 85818 86360 91019=
201012290600 AAXX 29064 67665 12360 70605 10196 20186 48526 60044 8473/
                   333 10272 20183 58013 84706 87359
                   555 00196 91020=
201012290400 AAXX 29044 67665 42360 70000 10186 20186 48523 8273/
                   333 58019 82705 87359=
201012290300 AAXX 29034 67665 42360 70903 10187 20187 48516 8573/
                   333 58015 85705 87359=
201012282100 AAXX 28214 67665 41360 72805 10197 20197 48519 72162 8373/
                   333 58007 83707 81945 87359=
201012281800 AAXX 28184 67665 41356 73608 10198 20198 48525 79592 8573/
                   333 10272 58021 84709 82946 87359=
201012280900 AAXX 28094 67665 42680 60608 10255 20227 48524 86232
                   333 58003 86830 83360 81080=
201012280600 AAXX 28064 67665 12480 50808 10222 20222 48518 60024 85530
                   333 10275 20164 59006 85610 81360=
201012271200 AAXX 27124 67665 42680 70605 10267 20224 48501 86232
                   333 58017 85840 84360 81080=
201012270900 AAXX 27094 67665 42580 70606 10237 20218 48513 84232
                   333 58012 84820 85360 82080=
201012270600 AAXX 27064 67665 11360 70206 10194 20194 48516 60044 72166 8377/
                   333 10284 20175 58011 83708 87360=
201012270000 AAXX 27004 67665 41/60 80908 10193 20193 48514 72992 8197/
                   333 58025 819// 85703 87459=
201012262100 AAXX 26214 67665 41360 80407 10187 20187 48468 79599 8197/
                   333 58016 83705 81925 87459=
201012261500 AAXX 26154 67665 42780 71802 10214 20207 48485 83232
                   333 58016 81945 83849 85360 84080 91014=
201012261200 AAXX 26124 67665 42680 71007 10274 20202 48484 83232
                   333 59006 81940 83845 81360 84080 91013=
201012260900 AAXX 26094 67665 42680 70807 10253 20225 48508 83232
                   333 59003 83830 81360 83080=
201012260600 AAXX 26064 67665 32480 70201 10216 20200 48513 81132
                   333 10299 20195 59003 81815 86360 81080=
201012251500 AAXX 25154 67665 42780 60906 10279 20215 48497 82232
                   333 59021 81950 81850 81360 84080=
201012251200 AAXX 25124 67665 42680 51005 10285 20206 48492 83232
                   333 59004 83845 81360 82080=
201012250600 AAXX 25064 67665 32975 53302 10214 20188 48515 70522 81032
                   333 10290 20170 59005 81360 85080
                   555 00181 91018=
201012241200 AAXX 24124 67665 41680 72510 10277 20217 48495 71522 81932
                   333 58006 81940 85845 82360 84080 91015=
201012240900 AAXX 24094 67665 42580 52610 10226 20184 48518 82102
                   333 58012 82825 83080 91018=
201012240600 AAXX 24064 67665 12480 62706 10224 20180 48521 69904 81132
                   333 10297 20185 58014 81810 82360 85080=
201012221200 AAXX 22124 67665 42680 60302 10265 20199 48489 85230
                   333 5//// 85840 83360=
201012220600 AAXX 22064 67665 32480 63205 10221 20212 48509 82830
                   333 10276 20189 59012 82815 81615 86360=
201012220400 AAXX 22044 67665 42380 73103 10192 20192 48497 81730
                   333 59012 81706 87360=
201012220300 AAXX 22034 67665 42380 73002 10202 20202 48492 81730
                   333 59015 81706 87360=
201012212100 AAXX 21214 67665 42980 70000 10198 20198 48500 87030
                   333 59010 87360=
201012210900 AAXX 21094 67665 42580 72805 10223 20209 48519 70322 83732
                   333 59005 83720 85360 83080 91018=
201012210600 AAXX 21064 67665 12380 72907 10197 20197 48518 60074 70222 82732
                   333 10256 20184 58004 82708 85360 84080 91018=
201012201200 AAXX 20124 67665 42560 72903 10222 20214 48498 8223/
                   333 58019 82820 87359=
201012200900 AAXX 20094 67665 41340 83405 10181 20181 48516 76366 8473/
                   333 58020 83705 88359=
201012200600 AAXX 20064 67665 12480 70902 10204 20196 48514 69924 81130
                   333 10285 20184 58009 81810 87360=
201012200400 AAXX 20044 67665 41180 71102 10197 20197 48499 8177/
                   333 59009 81702 87459=
201012200300 AAXX 20034 67665 42980 70902 10193 20193 48490 70222 87030
                   333 59012 87360=
201012200000 AAXX 20004 67665 42980 51302 10192 20192 48485 70222 85030
                   333 59009 85360 819//=
201012192100 AAXX 19214 67665 41780 70904 10197 20197 48593 71322 81930
                   333 58001 81950 87360=
201012191800 AAXX 19184 67665 41780 70903 10208 20208 48501 71322 81930
                   333 58004 81956 87360=
201012191500 AAXX 19154 67665 42780 70707 10256 20183 48475 81930
                   333 59012 81950 81850 87360=
201012191200 AAXX 19124 67665 42680 60707 10261 20217 48484 81932
                   333 59019 81935 84840 83360 85080 91014=
201012190600 AAXX 19064 67665 11460 71005 10205 20197 48506 76022 8177/
                   333 10305 20194 59019 81610 87460
                   555 00201 91017=
201012180600 AAXX 18064 67665 32980 61407 10220 20184 48526 70222 84032
                   333 10227 20197 58004 84360 85080
                   555 00190=
201012171200 AAXX 17124 67665 41660 71903 10224 20189 48507 72992 81932
                   333 58032 81935 82840 81360 86080=
201012170900 AAXX 17094 67665 41580 62807 10266 20192 48526 71722 81932
                   333 58022 81920 85825 83360 81080 91018=
201012170600 AAXX 17064 67665 32980 71904 10232 20186 48523 70322 84032
                   333 10299 20190 58014 84360 85080
                   555 00189=
201012161200 AAXX 16124 67665 41660 60305 10286 20207 48483 71522 85202
                   333 59021 81940 84840 85080=
201012160400 AAXX 16044 67665 42/80 63003 10178 20178 48498 81982
                   333 59017 819// 81360 86080=
201012160300 AAXX 16034 67665 42/80 52802 10186 20186 48494 81982
                   333 59009 819// 81360 85080=
201012151200 AAXX 15124 67665 42680 50308 10286 20174 48504 84202
                   333 58005 84840 85080=
201012150900 AAXX 15094 67665 42480 50708 10266 20216 48533 82132
                   333 58000 81820 82360 85080=
201012150600 AAXX 15064 67665 32980 51109 10243 20214 48529 83032
                   333 10299 20185 58001 83360 84080=
201012141500 AAXX 14154 67665 42780 50804 10267 20202 48497 82232
                   333 58004 81850 81360 83080 91015=
201012141200 AAXX 14124 67665 42680 50406 10287 20216 48510 82230
                   333 58001 82845 83360 91016=
201012140900 AAXX 14094 67665 42680 40409 10272 20215 48524 84200
                   333 58003 84830=
201012140600 AAXX 14064 67665 32480 30707 10239 20196 48528 82832
                   333 10280 20173 58001 81815 81616 81360 81080=
201012140400 AAXX 14044 67665 42980 51303 10185 20185 48515 70300 83032
                   333 59001 82360 85080=
201012140300 AAXX 14034 67665 42980 51403 10193 20193 48511 70300 83032
                   333 58001 82360 83080=
201012140000 AAXX 14004 67665 42980 21403 10202 20202 40502 80002
                   333 59002 82080=
201012132100 AAXX 13214 67665 42780 21503 10194 20194 48511 81902
                   333 58006 81950 82080=
201012131800 AAXX 13184 67665 41780 20805 10215 20208 48504 71300 81902
                   333 10280 58007 81950 82080=
201012131500 AAXX 13154 67665 42780 30707 10265 20172 48492 82231
                   333 58003 82850 81360 81080=
201012131200 AAXX 13124 67665 42680 60609 10274 20210 48507 83230
                   333 58018 83830 85360=
201012130600 AAXX 13064 67665 12480 70906 10195 20182 48522 60034 70322 875//
                   333 10200 20174 58016 87610
                   555 00175 91019=
201012120600 AAXX 12064 67665 12480 70706 10201 20184 48506 69924 86530
                   333 10261 20180 59007 86610 85360
                   555 00189 91017=
201012110900 AAXX 11094 67665 41480 80607 10224 20184 48511 78022 8653/
                   333 59014 86615 85360=
201012101200 AAXX 10124 67665 42570 70807 10228 20213 48502 85830
                   333 59013 83828 84830 85360=
201012100900 AAXX 10094 67665 42459 80908 10206 20203 48523 71522 8657/
                   333 59005 86615 88360=
201012100600 AAXX 10064 67665 11370 80908 10191 20189 48528 60104 70355 8687/
                   333 10232 20179 58002 83706 86612 87359=
201012100400 AAXX 10044 67665 41359 80906 10180 20180 48519 75162 887//
                   333 5//// 88705=
201012100300 AAXX 10034 67665 41359 80906 10180 20180 48512 76122 8677/
                   333 5//// 86705 87459=
201012091200 AAXX 09124 67665 41460 70306 10225 20225 48515 72162 8687/
                   333 58033 85610 83815 84459=
201012090900 AAXX 09094 67665 41459 80809 10208 20208 48529 76166 8677/
                   333 58033 86709 88459=
201012090600 AAXX 09064 67665 11403 80906 10196 20196 48527 60844 76166 8677/
                   333 10245 20115 58035 86705 88459=
201012081800 AAXX 08184 67665 41359 80904 10194 20194 48498 76166 8577/
                   333 10245 58020 85706 88359=
201012081500 AAXX 08154 67665 41340 80503 10216 20216 48489 76366 8577/
                   333 58022 85707 88359=
201012081200 AAXX 08124 67665 41560 71804 10233 20226 48482 72166 8427/
                   333 58012 81920 83820 87360=
201012080900 AAXX 08094 67665 41456 80208 10225 20197 48499 76066 8677/
                   333 58016 86710 87460=
201012080600 AAXX 08064 67665 11354 80204 10193 20189 48492 61134 76166 8677/
                   333 10224 20180 58016 86705 88459=
201012080400 AAXX 08044 67665 41256 80407 10211 20211 48479 76166 8777/
                   333 58007 87704 88459=
201012080300 AAXX 08034 67665 41356 83103 10208 20208 48475 76166 8577/
                   333 58008 85705 88459=
201012080000 AAXX 08004 67665 41356 82701 10209 20209 48476 76166 8677/
                   333 58012 86704 88459=
201012072100 AAXX 07214 67665 41356 83303 10214 20214 48494 76366 8677/
                   333 58021 86705 88459 91015=
201012071800 AAXX 07184 67665 41260 10213 20213 48481 76166 86677
                   333 58017 86705 88459 91014=
201012071500 AAXX 07154 67665 41330 83002 10199 20199 48565 76066 8677/=
201012070900 AAXX 07094 67665 42480 71010 10214 20197 48482 876//
                   333 59004 87610=
201012070600 AAXX 07064 67665 11359 81308 10204 20189 48478 60254 75055 887//
                   333 10254 20185 59012 88706=
201012061800 AAXX 06184 67665 42980 62401 10200 20200 48463 84032
                   333 10254 59030 84360 84080=
201012061500 AAXX 06154 67665 41680 71302 10204 20196 48477 81932
                   333 59039 81925 83840 85360 83080=
201012061200 AAXX 06124 67665 41356 81410 10191 20191 48462 76262 8197/
                   333 59015 819// 85708 85830 87460=
201012060900 AAXX 06094 67665 42580 73503 10234 20186 48489 70322 8523/
                   333 59025 85820 87360 91015=
201012060600 AAXX 06064 67665 11360 73603 10201 20186 48491 60074 70222 83532
                   333 10//0 20186 59020 83606 86367 81080
                   555 00195 91015=
201012050900 AAXX 05094 67665 41460 73006 10208 20208 48510 72999 8197/
                   333 59001 81915 83820 87459 91017=
201012050600 AAXX 05064 67665 11460 73507 10204 20204 48509 60044 79569 8197/
                   333 59005 81910 87459
                   555 00196=
201012050400 AAXX 05044 67665 41/80 70000 10210 20210 48491 71792 81930
                   333 59011 819// 87360=
201012050300 AAXX 05034 67665 42980 61501 10201 20201 48487 86030
                   333 59007 86360=
201012042100 AAXX 04214 67665 42980 42001 10207 20207 48503 84030
                   333 59006 84360=
201012040900 AAXX 04094 67665 42580 60303 10274 20193 48519 70322 82131
                   333 59005 82830 85361 81080=
201012031800 AAXX 03184 67665 41780 60805 10212 20212 48505 70992 81932
                   333 10275 59008 81950 83360 84080=
201012031500 AAXX 03154 67665 42780 71205 10250 20227 48476 82232
                   333 58015 82850 83360 87280=
201012031200 AAXX 03124 67665 42680 73203 1026/ 20186 48481 8323/
                   333 58020 83840 86360=
201012030900 AAXX 03094 67665 42580 73603 10257 20221 48521 85230
                   333 58006 85825 83360=
201012030600 AAXX 03064 67665 12480 73601 10228 20221 48519 6//// 81532
                   333 10//0 20//0 58000 81610 87360 81080=
201012021800 AAXX 02184 67665 41980 70306 10228 20228 48500 71796 81932
                   333 10//0 58000 819// 85360 84280=
201012021500 AAXX 02154 67665 41780 60505 10256 20205 48478 71792 81932
                   333 58000 81950 83856 83360 85280=
201012021200 AAXX 02124 67665 41680 50106 10274 20207 48484 71622 81231
                   333 59008 81940 85245 83360 81080=
201012020900 AAXX 02094 67665 42680 50107 10281 20231 48516 83532
                   333 58003 85830 82360 83080 91017=
201012020600 AAXX 02064 67665 12480 60505 10222 20195 48517 60034 70200 83532
                   333 10274 20205 58002 83615 83360 81080 91018=
201012020400 AAXX 02044 67665 42380 71302 10211 20204 48503 70222 83532
                   333 5//// 83608 85360 82080=
201012020300 AAXX 02034 67665 42980 60000 10209 20209 48499 70322 8603/
                   333 5//// 86360=
201012020000 AAXX 02004 67665 42980 50000 10194 20194 48491 70200 85030
                   333 5//// 85360 819//=
201012012100 AAXX 01214 67665 42/80 61403 10196 20196 48504 70222 81931
                   333 5//// 819// 83360 82080=
201012011500 AAXX 01154 67665 42760 51703 10254 20226 48477 70222 86902
                   333 59015 81940 83845 83080 91013=
201012011200 AAXX 01124 67665 42560 61408 10204 20204 48484 70222 86902
                   333 59026 81930 86835 82080 91014=
201012010900 AAXX 01094 67665 42580 61206 10251 20192 48512 86800
                   333 59005 85822 81625=
201012010600 AAXX 01064 67665 12480 71009 10214 20186 48514 69934 85530
                   333 10245 20170 59010 86616 84360=

################################################################################
#  SYNOPS from 67666, Lusaka City Airport (Zambia) | 15-25S | 028-19E | 1280 m
################################################################################
201012290600 AAXX 29064 67666 12480 70000 10189 20177 48522 60134 8257/
                   333 10270 20163 58013 82615 87460=
201012270600 AAXX 27064 67666 11480 81007 10187 20181 48516 60114 75022 8354/
                   333 10270 20160 58010 83616 88459=
201012230600 AAXX 23064 67666 32980 22710 10209 20164 48498 80002
                   333 10290 20168 59003 82080=
201012200900 AAXX 20094 67666 41480 81805 10190 20175 48509 78022 8557/
                   333 58020 85612 88460=
201012171200 AAXX 17124 67666 42580 70000 10220 20190 48501 81933
                   333 81935 83835 81360=
201012170600 AAXX 17064 67666 32480 72707 10215 20185 48521 82830
                   333 10300 20180 58019 82615 82818 84360=
201012150900 AAXX 15094 67666 42680 50710 10268 20173 48517 81102
                   333 58001 81840 85080=
201012150600 AAXX 15064 67666 32980 30507 10240 20171 48521 80001
                   333 10290 20190 58000 83080=
201012140900 AAXX 14094 67666 42680 21010 10265 20175 48521 82100
                   333 58002 82830=
201012130600 AAXX 13064 67666 12480 50711 10200 20187 48513 60024 84530
                   333 10215 20170 58013 84612 82360 91018=
201012101200 AAXX 10124 67666 41580 70904 10222 20180 48494 72162 85830
                   333 59013 82625 85828 87360=
201012100900 AAXX 10094 67666 42480 80906 10198 20177 48517 868//
                   333 59005 86618 83820=
201012090600 AAXX 09064 67666 11480 81010 10170 20170 48517 60624 76166 887//
                   333 10225 20160 58034 88707=
201012080600 AAXX 08064 67666 11204 81306 10190 20182 48486 60544 74022 887//
                   333 10230 20160 58012 88706=
201012031200 AAXX 03124 67666 42580 70804 10256 20181 48493 82272
                   333 58003 82828 85360=
201012030600 AAXX 03064 67666 12980 70000 10226 20180 48515 60084 8707/
                   333 10290 20170 58002 87460=
201012010900 AAXX 01094 67666 42580 60908 10243 20186 48503 86201
                   333 59003 86825 81080=
201012010600 AAXX 01064 67666 12480 60910 10205 20182 48507 60014 83530
                   333 10240 20155 59009 83612 83360=

################################################################################
#  SYNOPS from 67667, Mount Makulu (Zambia) | 15-33S | 028-15E | 1213 m
################################################################################
201012080600 AAXX 08064 67667 11480 80000 10195 20187 48/// 60364 70562 886//
                   333 10240 20171 58010 88715=

################################################################################
#  SYNOPS from 67673, Petauke (Zambia) | 14-15S | 031-17E | 1035 m
################################################################################
201012290600 AAXX 29064 67673 12580 61903 10209 20183 48539 60164 8557/
                   333 10289 20190 58024 85620 86360=
201012230600 AAXX 23064 67673 12580 63502 10224 20197 48516 60014 85830
                   333 10292 20200 58002 84625 86360=
201012200900 AAXX 20094 67673 41680 70902 10229 20194 48504 71792 87202
                   333 59012 81930 87830 81080=
201012171200 AAXX 17124 67673 41675 60904 10269 20180 48503 71592 85323
                   333 58026 81942 85842 83360 86080=
201012150900 AAXX 15094 67673 42684 40706 10311 20164 48526 83202
                   333 59004 83830 81080=
201012150600 AAXX 15064 67673 32984 20903 10275 20186 48535 81082
                   333 10322 20207 58002 81362 82080=
201012140900 AAXX 14094 67673 42684 10405 10300 20155 48528 81101
                   333 59006 81832 81080=
201012140600 AAXX 14064 67673 32984 10405 10265 20182 48532 81031
                   333 10310 20200 59008 81362 81080=
201012101200 AAXX 10124 67673 41680 70000 10240 20175 48504 71792 8427/
                   333 59016 81940 84840 87362=
201012100900 AAXX 10094 67673 41680 71203 10240 20194 48520 71522 86230
                   333 59019 81930 86830 83363=
201012100600 AAXX 10064 67673 12580 70804 10216 20189 48531 60014 8653/
                   333 10268 20193 59005 86620 87362=
201012090600 AAXX 09064 67673 11580 83603 10196 20185 48532 60094 70366 885//
                   333 10226 20183 58025 88620=
201012080900 AAXX 08094 67673 42680 83604 10232 20188 48515 8652/
                   333 58020 86630 88462=
201012080600 AAXX 08064 67673 11580 80803 10196 20166 48508 60294 8357/
                   333 10216 20176 58015 83620 88460=
201012031200 AAXX 03124 67673 41680 72605 10270 20196 48495 71792 83976
                   333 58007 83938 82836 84360 86280=

################################################################################
#  SYNOPS from 67731, Senanga (Zambia) | 16-06S | 023-16E | 1027 m
################################################################################
201012080600 AAXX 08064 67731 11475 81402 10206 20183 48/// 60214 76066 8657/
                   333 10280 20174 5//// 86615 87460=

################################################################################
#  SYNOPS from 67743, Livingstone (Zambia) | 17-49S | 025-49E | 985 m
################################################################################
201012310600 AAXX 31064 67743 32980 70807 10225 20195 48515 81038
                   333 10316 2//// 58004 81360 86280=
201012290600 AAXX 29064 67743 12980 50902 10226 20194 60014 84072
                   333 10300 58010 84360 81080=
201012270900 AAXX 27094 67743 42580 71108 10251 20192 48518 84130
                   333 58009 84830 85360=
201012270600 AAXX 27064 67743 12480 71109 10210 20195 48511 69904 84530
                   333 10295 20/// 58002 84615 84360=
201012171200 AAXX 17124 67743 42780 73206 10264 20191 48508 8217/
                   333 58046 82850 87360=
201012170900 AAXX 17094 67743 42680 72003 10244 20174 48520 8287/
                   333 58034 82835 81640 87460=
201012170600 AAXX 17064 67743 11959 70903 10216 20209 48511 69924 76052 87071
                   333 10320 20//0 58017 87459=
201012161200 AAXX 16124 67743 42780 63307 10307 20193 48470 84242
                   333 59058 84850 81360 84080=
201012150900 AAXX 15094 67743 42680 82005 10256 20210 48519 8423/
                   333 58007 84830 86360=
201012150600 AAXX 15064 67743 12680 70906 10206 20190 48514 69984 83132
                   333 10321 2//// 58003 83830 85360 83080=
201012140900 AAXX 14094 67743 42680 53106 10310 20178 48521 84202
                   333 58003 84845 81080=
201012140600 AAXX 14064 67743 12980 21107 10250 20199 48518 69904 81082
                   333 10320 20/// 58006 81359 81359 81080=
201012131200 AAXX 13124 67743 42780 50808 10305 20170 48496 84232
                   333 58021 84850 82360 82080=
201012130600 AAXX 13064 67743 12480 50807 10227 20185 48509 69944 81142
                   333 10329 20//0 58018 81810 81360 84080
                   555 00/// 20000 91016=
201012100900 AAXX 10094 67743 42680 70908 10252 20187 48522 85531
                   333 59009 85630 84360=
201012100600 AAXX 10064 67743 11410 70909 10210 20194 48519 69904 75022 8553/
                   333 10266 20//0 59006 85615 83360=
201012091200 AAXX 09124 67743 42780 71410 10252 20182 48511 875//
                   333 58010 87650=
201012090600 AAXX 09064 67743 32480 61210 10210 20157 48524 86531
                   333 10/// 20/// 58018 86610 82360=
201012080900 AAXX 08094 67743 42480 81010 10238 20176 48514 84841
                   333 58019 83620 82825 84460 82080=
201012080600 AAXX 08064 67743 12480 71309 10204 20172 48505 60034 83841
                   333 58024 82825 84460 82080=
201012070900 AAXX 07094 67743 42580 81409 10225 20190 48495 885//
                   333 58011 88620=
201012061500 AAXX 06154 67743 41780 61005 10253 20181 48447 71792 84261
                   333 59025 84856 82956 84360=
201012061200 AAXX 06124 67743 42680 51606 10295 20188 48470 84101
                   333 59018 84840 83080=
201012060900 AAXX 06094 67743 42680 51706 10260 20185 48489 83131
                   333 59025 83835 82360 84080=
201012031500 AAXX 03154 67743 42780 71402 10239 20196 48474 8123/
                   333 58010 81850 87160=
201012030900 AAXX 03094 67743 42580 72903 10261 20200 48517 8487/
                   333 5//// 82625 84830 87360=
201012030600 AAXX 03064 67743 12380 83006 10233 20207 48513 60014 8477/
                   333 10325 2//// 58019 84708 87459=
201012021500 AAXX 02154 67743 42680 72807 10266 20193 48469 70322 82330
                   333 58004 82945 83848 84360=
201012021200 AAXX 02124 67743 41680 63412 10316 20174 48476 71722 82331
                   333 59013 82945 83848 83360 81080=
201012010900 AAXX 01094 67743 42580 60203 10271 20174 48506 82131
                   333 59028 82835 85360 82080=
201012010600 AAXX 01064 67743 12380 51104 10203 20191 48508 60014 82630
                   333 10236 20//0 59011 82709 84360=

################################################################################
#  SYNOPS from 67753, Choma (Zambia) | 16-50S | 027-04E | 1213 m
################################################################################
201012310600 AAXX 31064 67753 32980 73408 10189 20169 48/// 82038
                   333 10263 20164 5//// 82360 87280=
201012171200 AAXX 17124 67753 41680 73012 10257 20177 71792 85208 333=
201012170900 AAXX 17094 67753 41580 73612 10234 20187 48/// 72162 8197/
                   333 5//// 81920 81820 87459=
201012150900 AAXX 15094 67753 42680 70612 10248 20196 48/// 83100
                   333 5//// 83835 87280=
201012150600 AAXX 15064 67753 12480 70907 10212 20193 48/// 60064 82508
                   333 10288 20170 5//// 82610 87280=
201012140900 AAXX 14094 67753 42680 70612 10267 20188 48/// 87208
                   333 5//// 87830 87280=
201012140600 AAXX 14064 67753 12980 70605 10223 20195 48/// 60184 80008
                   333 10281 20169 5//// 87280=
201012101200 AAXX 10124 67753 41680 70607 10266 20181 48/// 72582 87208
                   333 5//// 81940 87840 85280=
201012100600 AAXX 10064 67753 12380 80608 10181 20170 48/// 60024 8767/
                   333 10221 20168 5//// 87708 88459=
201012090600 AAXX 09064 67753 NIL=
201012080600 AAXX 08064 67753 11304 81005 10175 20174 48/// 60454 76162 8777/
                   333 10234 20169 5//// 87708 88459=
201012061200 AAXX 06124 67753 41680 70906 10269 20189 48/// 71522 87208
                   333 5//// 81935 87835 84280=

################################################################################
#  SYNOPS from 67855, Lupaki (Zambia) | 17-03-00S | 024-46-00E | 1000 m
################################################################################
201012310600 AAXX 31064 67855 NIL=
201012301200 AAXX 30124 67855 41680 50701 10292 20188 38/// 48/// 72582 85230
                   333 5//// 85840=
201012300900 AAXX 30094 67855 42680 50601 10270 20159 3//// 48/// 85230
                   333 5//// 85840=
201012300600 AAXX 30064 67855 12980 40801 10236 20193 3//// 48/// 60054 84030
                   333 20170 5//// 84360=
201012291200 AAXX 29124 67855 42680 53302 10284 20188 3//// 48/// 84232
                   333 5//// 84840 85080=
201012290600 AAXX 29064 67855 31370 70000 10224 20200 3//// 48/// 75052 8573/
                   333 20185 5//// 85707 87359=
201012280600 AAXX 28064 67855 12580 30601 10236 20195 3//// 48/// 60034 82102
                   333 20188 5//// 82820=
201012271200 AAXX 27124 67855 41680 70602 10292 20182 38/// 48/// 72058 86232
                   333 5//// 86840=
201012270600 AAXX 27064 67855 12380 70702 10222 20198 38/// 48/// 69904 876//
                   333 20190 5//// 87707=
201012260600 AAXX 26064 67855 11380 70302 10204 20193 3//// 48/// 72582 8363/
                   333 20190 5//// 83707 87360=
201012250600 AAXX 25064 67855 12980 61501 10218 20193 3//// 48/// 60064 83032
                   333 2//// 5//// 83360 83080=
201012241200 AAXX 24124 67855 NIL=
201012240600 AAXX 24064 67855 NIL=
201012231200 AAXX 23124 67855 NIL=
201012230600 AAXX 23064 67855 32980 02701 10212 20196 38/// 48///
                   333 20178 5////=
201012220600 AAXX 22064 67855 NIL=
201012211200 AAXX 21124 67855 NIL=
201012210600 AAXX 21064 67855 NIL=
201012201200 AAXX 20124 67855 41680 72702 10286 20200 3//// 48/// 72592 8423/
                   333 5//// 84840 87360=
201012200600 AAXX 20064 67855 12380 50806 10248 20194 3//// 48/// 69904 84630
                   333 20/// 5//// 84707 83360=
201012191200 AAXX 19124 67855 NIL=
201012190600 AAXX 19064 67855 12980 73601 10238 20198 3//// 48/// 85031
                   333 20191 5//// 85360 83080=
201012181200 AAXX 18124 67855 42780 61802 10324 20164 38/// 48/// 85230
                   333 5//// 85850 83360=
201012180600 AAXX 18064 67855 12980 41402 10236 20195 3//// 48/// 60084 84030
                   333 20179 5//// 84360=
201012171200 AAXX 17124 67855 NIL=
201012170600 AAXX 17064 67855 NIL=
201012151200 AAXX 15124 67855 NIL=
201012150600 AAXX 15064 67855 NIL=
201012141200 AAXX 14124 67855 NIL=
201012140600 AAXX 14064 67855 NIL=
201012131200 AAXX 13124 67855 42680 60703 10322 20179 3//// 48/// 85230
                   333 5//// 85840=
201012130600 AAXX 13064 67855 12980 53605 10226 20175 3//// 48/// 69904 85030
                   333 20190 5//// 85360=
201012120600 AAXX 12064 67855 NIL=
201012111200 AAXX 11124 67855 42670 53603 10318 20175 3//// 48/// 71592 84203
                   333 5//// 81930 84840=
201012101200 AAXX 10124 67855 NIL=
201012100600 AAXX 10064 67855 NIL=
201012091200 AAXX 09124 67855 42680 70605 10272 20181 3//// 48/// 8423/
                   333 5//// 84840 87360=
201012090600 AAXX 09064 67855 32980 71403 10212 20154 3//// 48/// 8703/
                   333 20188 5//// 87360=
201012081200 AAXX 08124 67855 41680 71504 10250 20176 3//// 48/// 72582 8223/
                   333 5//// 82840 87359=
201012080600 AAXX 08064 67855 32380 71704 10210 20155 3//// 48/// 8363/
                   333 20150 5//// 83707 87360=
201012071200 AAXX 07124 67855 42680 71601 10270 20173 3//// 48/// 8423/
                   333 5//// 84840 87359=
201012070600 AAXX 07064 67855 11370 7//// 10216 20175 3//// 48/// 69904 75082 8463/
                   333 20195 5//// 84707 87359=
201012061200 AAXX 06124 67855 NIL=
201012060600 AAXX 06064 67855 12980 72002 10220 20197 3//// 48/// 60474 8703/
                   333 20185 5//// 87360=
201012051200 AAXX 05124 67855 NIL=
201012050600 AAXX 05064 67855 32980 72001 10224 20204 3//// 48/// 8703/
                   333 20195 5//// 87360=
201012041200 AAXX 04124 67855 NIL=
201012040600 AAXX 04064 67855 NIL=
201012030600 AAXX 03064 67855 NIL=
201012021200 AAXX 02124 67855 42680 50302 10320 20173 3//// 48/// 85230
                   333 5//// 85840=
201012020600 AAXX 02064 67855 32980 20602 10304 20175 3//// 48/// 82030
                   333 20199 5//// 82360=
201012011200 AAXX 01124 67855 42680 70201 10286 20174 38/// 48/// 8423/
                   333 5//// 84840 87360=
201012010600 AAXX 01064 67855 11380 70000 10198 20187 3//// 48/// 60664 8463/
                   333 20163 5//// 84707 87360=
