################################################################################
# Query made at 04/14/2022 03:24:43 UTC
# Country like Zamb*
# Time interval: from 04/01/2016 05:30  to 05/01/2016 06:30  UTC
################################################################################

################################################################################
#  SYNOPS from 67403, Kawambwa (Zambia) | 09-48S | 029-05E | 1323 m
################################################################################
201604290900 AAXX 29094 67403 NIL=
201604280600 AAXX 28064 67403 32980 11105 10200 20167 48518 81031
                   333 10/// 20160 59004 81360 81080=
201604270900 AAXX 27094 67403 NIL=
201604250600 AAXX 25064 67403 32980 01405 10181 20123 48509 70100
                   333 10/// 20135 59004=
201604220900 AAXX 22094 67403 NIL=
201604210900 AAXX 21094 67403 NIL=
201604210600 AAXX 21064 67403 32980 10807 10215 20172 48531 70100 81031
                   333 10/// 20177 59006=
201604150600 AAXX 15064 67403 32480 10908 10204 20172 48530 70300 81830
                   333 10/// 20126=
201604141200 AAXX 14124 67403 NIL=
201604140900 AAXX 14094 67403 NIL=
201604130900 AAXX 13094 67403 NIL=
201604130600 AAXX 13064 67403 12375 81205 10192 20182 48533 60034 70362 8463/
                   333 10/// 20175 59005 84708 87360=
201604110600 AAXX 11064 67403 12380 60908 10183 20169 48526 60124 70322 81630
                   333 10/// 20160 59008 81708 86360=
201604080600 AAXX 08064 67403 NIL=
201604050900 AAXX 05094 67403 NIL=
201604040600 AAXX 04064 67403 12980 80902 10193 20173 48539 61034 70262 8707/
                   333 10//0 20175 58018 87361=
201604010600 AAXX 01064 67403 32980 30903 10206 20175 48511 81081
                   333 10/// 20167 59013 81360 83080=

################################################################################
#  SYNOPS from 67413, Mbala (Zambia) | 08-51S | 031-20E | 1673 m
################################################################################
201604290900 AAXX 29094 67413 NIL=
201604290600 AAXX 29064 67413 32380 20910 10205 20157 48526 81502
                   333 10270 20/// 58001 81606=
201604280600 AAXX 28064 67413 32480 51510 10185 20153 48533 85500
                   333 10270 20/// 59005 85612=
201604270900 AAXX 27094 67413 NIL=
201604270600 AAXX 27064 67413 32480 30906 10205 20158 48537 81140
                   333 10280 20//0 58004 81820 82359 91024=
201604260600 AAXX 26064 67413 32980 01005 10195 20147 48534
                   333 10280 20//0 58004 91023=
201604250600 AAXX 25064 67413 31380 11020 10185 20144 48529 81601
                   333 10270 20/// 59007 81706 81080 91023=
201604220900 AAXX 22094 67413 NIL=
201604220600 AAXX 22064 67413 32480 31008 10210 20172 48546 81141
                   333 10290 20/// 59003 81815=
201604210900 AAXX 21094 67413 NIL=
201604210600 AAXX 21064 67413 32480 31007 10200 20169 48550 82100
                   333 10285 20/// 59005 82812=
201604150600 AAXX 15064 67413 32480 40914 10195 20163 48541 84500
                   333 10260 20/// 58001 84610 91024=
201604141200 AAXX 14124 67413 NIL=
201604140900 AAXX 14094 67413 NIL=
201604140600 AAXX 14064 67413 32480 71012 10180 20156 48541 875//
                   333 10260 20/// 59005 87610=
201604130900 AAXX 13094 67413 NIL=
201604120600 AAXX 12064 67413 12380 70912 10190 20157 48556 69954 87600
                   333 10270 20/// 58004=
201604080600 AAXX 08064 67413 32480 61010 10200 20169 48553 84540
                   333 10275 20/// 58024 84610 82359 91026=
201604070600 AAXX 07064 67413 12480 71012 10185 20170 48530 60054 875//
                   333 10240 20/// 59007=
201604050900 AAXX 05094 67413 NIL=
201604010600 AAXX 01064 67413 12480 40910 10205 20174 48524 60204 81530
                   333 10265 20/// 59015 81603 83357 91022=

################################################################################
#  SYNOPS from 67441, Mwinilunga (Zambia) | 11-45S | 024-26E | 1361 m
################################################################################
201604290900 AAXX 29094 67441 NIL=
201604270900 AAXX 27094 67441 NIL=
201604270600 AAXX 27064 67441 32982 315// 10165 20140 48564 80001
                   333 10275 20/// 58005=
201604260600 AAXX 26064 67441 32980 018// 10180 20139 48559
                   333 10270 20/// 58006=
201604250600 AAXX 25064 67441 32982 215// 10160 20126 48553 82040
                   333 10290 20/// 59005=
201604220900 AAXX 22094 67441 NIL=
201604220600 AAXX 22064 67441 11982 300// 10200 20185 48563 60294 80005
                   333 10300 20//0 59006 83080=
201604210900 AAXX 21094 67441 NIL=
201604210600 AAXX 21064 67441 11982 400// 10200 20185 48569 69904 72844 84030
                   333 10295 20/// 58002 87360=
201604200600 AAXX 20064 67441 12982 700// 10190 20175 48567 60154 87030
                   333 10285 20/// 58002 87360=
201604141200 AAXX 14124 67441 NIL=
201604140900 AAXX 14094 67441 NIL=
201604130900 AAXX 13094 67441 NIL=
201604080600 AAXX 08064 67441 32382 818// 10185 20185 48577 887//
                   333 10275 20/// 59027 88709=
201604070600 AAXX 07064 67441 12382 706// 10205 20181 48550 69904 876//
                   333 10285 20/// 5//// 87709=
201604050900 AAXX 05094 67441 NIL=
201604010600 AAXX 01064 67441 32982 600// 10185 20177 48551 80005
                   333 10/// 20/// 5//// 86280=

################################################################################
#  SYNOPS from 67461, Mansa (Zambia) | 11-06S | 028-51E | 1382 m
################################################################################
201604290900 AAXX 29094 67461 NIL=
201604290600 AAXX 29064 67461 32480 50903 10210 20183 48523 81508
                   333 10284 20153 59009 81612 85280 91019=
201604280600 AAXX 28064 67461 32980 40910 10198 20171 48531 80001
                   333 10280 20141 59005 84080=
201604270900 AAXX 27094 67461 NIL=
201604260600 AAXX 26064 67461 32980 10905 10184 20154 48529 81030
                   333 10272 20123 58007 81360 91020=
201604250600 AAXX 25064 67461 NIL=
201604220900 AAXX 22094 67461 NIL=
201604210900 AAXX 21094 67461 NIL=
201604150600 AAXX 15064 67461 32480 61310 10200 20181 48542 86530
                   333 10280 20160 58003 86618 83360 91021=
201604141200 AAXX 14124 67461 NIL=
201604140900 AAXX 14094 67461 NIL=
201604140600 AAXX 14064 67461 32480 41005 10192 20176 48537 84530
                   333 10265 20158 59005 84612=
201604130900 AAXX 13094 67461 NIL=
201604130600 AAXX 13064 67461 32480 80906 10187 20178 48541 885//
                   333 10268 20116 59005 88612=
201604080600 AAXX 08064 67461 NIL=
201604050900 AAXX 05094 67461 NIL=
201604040600 AAXX 04064 67461 32480 71302 10218 20205 48539 875//
                   333 10294 20185 59013 87610=
201604010600 AAXX 01064 67461 32980 61202 10210 20183 48516 80008
                   333 10300 20155 59015 86280 91018=

################################################################################
#  SYNOPS from 67475, Kasama (Zambia) | 10-13S | 031-08E | 1382 m
################################################################################
201604290900 AAXX 29094 67475 42660 51007 10264 20176 48521 85131
                   333 59008 85835 81360 81080 91020=
201604280900 AAXX 28094 67475 42660 61011 10245 20160 48529 865//
                   333 59006 86635 91021=
201604280600 AAXX 28064 67475 32560 61312 10197 20166 48530 8357/
                   333 10252 20166 59008 83620 85360 91021=
201604270900 AAXX 27094 67475 NIL=
201604260900 AAXX 26094 67475 42660 31210 10242 20145 48531 83100
                   333 58005 83845 91021=
201604250600 AAXX 25064 67475 32960 11212 10191 20133 48529 80001
                   333 10291 20123 59000 81080 91021=
201604220900 AAXX 22094 67475 NIL=
201604220600 AAXX 22064 67475 32960 21008 10223 20157 48538 70222 80001
                   333 10292 20150 59004 82080 91022=
201604210900 AAXX 21094 67475 NIL=
201604200600 AAXX 20064 67475 32460 31006 10207 20177 48547 70342 83631
                   333 10286 20156 59006=
201604180600 AAXX 18064 67475 12370 80903 10187 20180 48556 60064 70304 886//
                   333 10280 20144 58009 88710=
201604150600 AAXX 15064 67475 32470 51011 10208 20174 48547 70322 83670
                   333 10271 20161 58007=
201604141200 AAXX 14124 67475 NIL=
201604140900 AAXX 14094 67475 NIL=
201604130900 AAXX 13094 67475 NIL=
201604130600 AAXX 13064 67475 12360 71111 10190 20179 48543 60044 70322 876//
                   333 10262 20173 59013 87709 91022=
201604110600 AAXX 11064 67475 32460 81311 10181 20170 48553 70322 866//
                   333 10250 20166 58002 86710 91024=
201604080600 AAXX 08064 67475 11360 71211 10193 20184 48541 69904 75022 8677/
                   333 10253 20175 58018 86707 87459 91023=
201604070600 AAXX 07064 67475 11350 81101 10183 20180 48520 60224 75105 887//
                   333 10257=
201604050900 AAXX 05094 67475 NIL=
201604040600 AAXX 04064 67475 12460 71008 10210 20192 48544 60034 70362 8457/
                   333 10278 20179 59006 84612 87360 91022=
201604011200 AAXX 01124 67475 42760 41006 10284 20140 48488 84200
                   333 59013 84850 91016=
201604010600 AAXX 01064 67475 32960 10103 10206 20174 48518 80001
                   333 10290 20146 59011 81080 91020=

################################################################################
#  SYNOPS from 67476, Misamfu (Zambia) | 10-06S | 031-15E | 1536 m
################################################################################
201604290900 AAXX 29094 67476 NIL=
201604280600 AAXX 28064 67476 32680 41604 10198 20170 48/// 84500
                   333 10252 20158 5//// 84630=
201604270900 AAXX 27094 67476 NIL=
201604250600 AAXX 25064 67476 32980 11204 10183 20135 48/// 80001
                   333 10292 20150 5//// 81080=
201604220900 AAXX 22094 67476 NIL=
201604210900 AAXX 21094 67476 NIL=
201604150600 AAXX 15064 67476 12580 51703 10193 20172 48/// 69904 84530
                   333 10265 20161 58008 84624 83359=
201604141200 AAXX 14124 67476 NIL=
201604140900 AAXX 14094 67476 NIL=
201604130900 AAXX 13094 67476 NIL=
201604130600 AAXX 13064 67476 12580 81006 10195 20175 48/// 60054 885//
                   333 10257 20178 59006=
201604080600 AAXX 08064 67476 NIL=
201604050900 AAXX 05094 67476 NIL=
201604010600 AAXX 01064 67476 32980 01501 10195 20169 48///
                   333 10295 20152 59011=

################################################################################
#  SYNOPS from 67477, Mpika (Zambia) | 11-54S | 031-26E | 1400 m
################################################################################
201604290900 AAXX 29094 67477 NIL=
201604270900 AAXX 27094 67477 NIL=
201604250600 AAXX 25064 67477 NIL=
201604220900 AAXX 22094 67477 NIL=
201604210900 AAXX 21094 67477 NIL=
201604210600 AAXX 21064 67477 32980 01206 10206 20//0 48543
                   333 10270 20146 59006=
201604150600 AAXX 15064 67477 11478 80901 10189 20//0 48553 69904 75022 885//
                   333 10250 20172 58007 88612=
201604141200 AAXX 14124 67477 NIL=
201604140900 AAXX 14094 67477 NIL=
201604130900 AAXX 13094 67477 NIL=
201604130600 AAXX 13064 67477 11478 81208 10178 20/// 48/// 69904 75052 885//
                   333 10240 20172 5//// 88610=
201604120600 AAXX 12064 67477 11478 80906 10176 20/// 48562 885//
                   333 10237 20166 58000=
201604080600 AAXX 08064 67477 NIL=
201604050900 AAXX 05094 67477 NIL=
201604010600 AAXX 01064 67477 32980 31405 10211 20/// 48521 70300 80001
                   333 10275 20151 59015 83080=

################################################################################
#  SYNOPS from 67481, Isoka (Zambia) | 10-07S | 032-38E | 1360 m
################################################################################
201604290900 AAXX 29094 67481 NIL=
201604280600 AAXX 28064 67481 31470 22001 10200 20173 48/// 70500 81101
                   333 10267 20162 59009 81811 82080=
201604271200 AAXX 27124 67481 41678 63004 10253 20172 48/// 70522 84201
                   333 58002 81935 84835=
201604270900 AAXX 27094 67481 NIL=
201604270600 AAXX 27064 67481 32480 10906 10205 20157 48/// 81130
                   333 10265 20164 58004 81815 81360=
201604260600 AAXX 26064 67481 32980 00604 10193 20148 48///
                   333 10336 20149 58006=
201604250600 AAXX 25064 67481 32980 20602 10190 20131 48/// 80001
                   333 10283 20141 5//// 82080=
201604220900 AAXX 22094 67481 NIL=
201604220600 AAXX 22064 67481 32480 23202 10215 20185 48/// 81101
                   333 10285 20165 59006 81813=
201604210900 AAXX 21094 67481 NIL=
201604210600 AAXX 21064 67481 32480 23003 10215 20177 48/// 82100
                   333 10279 20159 59005 82815=
201604200600 AAXX 20064 67481 32480 43002 10210 20187 48/// 83501
                   333 10275 20169 58004 83610 82080=
201604180900 AAXX 18094 67481 42580 61203 10245 20180 48/// 85210
                   333 5//// 84827 81627 81627 81361=
201604180600 AAXX 18064 67481 12480 52701 10200 20181 48/// 69954 83520
                   333 10255 20168 5//// 83610 84361=
201604150600 AAXX 15064 67481 32380 70602 10187 20176 48/// 875//
                   333 10263 20170 58008=
201604141200 AAXX 14124 67481 NIL=
201604140900 AAXX 14094 67481 NIL=
201604140600 AAXX 14064 67481 11380 73304 10182 20174 48/// 60134 72052 875//
                   333 10247 20170 59007 87607=
201604130900 AAXX 13094 67481 NIL=
201604130600 AAXX 13064 67481 11380 62804 10182 20180 48/// 60574 72162 8577/
                   333 10220 20180 5//// 85706 86360=
201604110600 AAXX 11064 67481 11280 80902 10183 20177 48/// 69954 72844 886//
                   333 10235=
201604080600 AAXX 08064 67481 11320 73302 10188 20188 48/// 60034 74364 877//
                   333 10217 20188 58021 87706=
201604060600 AAXX 06064 67481 11380 80000 10195 20192 48/// 60184 75022 8667/
                   333 10260 20180=
201604050900 AAXX 05094 67481 NIL=
201604010600 AAXX 01064 67481 32980 22402 10208 20174 48/// 80001
                   333 10280 20167 59010 82080=

################################################################################
#  SYNOPS from 67531, Zambezi (Zambia) | 13-32S | 023-07E | 1077 m
################################################################################
201604290900 AAXX 29094 67531 NIL=
201604290600 AAXX 29064 67531 32980 10000 10151 20136 48/// 70200 80001
                   333 10295 20088 5////=
201604280600 AAXX 28064 67531 32980 10000 10176 20136 48/// 80001
                   333 10300 20101 5////=
201604270900 AAXX 27094 67531 NIL=
201604270600 AAXX 27064 67531 32980 11005 10194 20143 48/// 81030
                   333 10290 20119 5////=
201604260600 AAXX 26064 67531 32980 10904 10196 20136 48/// 80001
                   333 10295 20109 5////=
201604250600 AAXX 25064 67531 32980 11105 10180 20130 48/// 70200 80001
                   333 10303 20114 5////=
201604220900 AAXX 22094 67531 NIL=
201604220600 AAXX 22064 67531 32980 50000 10169 20162 48/// 70222 81038
                   333 10318 20122 5//// 81362 85280=
201604210900 AAXX 21094 67531 NIL=
201604210600 AAXX 21064 67531 32980 11205 10191 20164 48/// 70200 81030
                   333 10315 20131 5//// 81362=
201604200600 AAXX 20064 67531 32980 10801 10204 20185 48/// 70200 81030
                   333 10318 20138 5////=
201604150600 AAXX 15064 67531 32980 51205 10202 20162 48/// 70222 85030
                   333 10302 20146 5////=
201604141200 AAXX 14124 67531 NIL=
201604140900 AAXX 14094 67531 NIL=
201604140600 AAXX 14064 67531 32980 01105 10194 20172 48///
                   333 10300 20126 5////=
201604130900 AAXX 13094 67531 NIL=
201604130600 AAXX 13064 67531 32980 11206 10186 20169 48/// 70200 81030
                   333 10301 20137 5//// 81362=
201604110600 AAXX 11064 67531 32480 31602 10185 20172 48/// 70200 83500
                   333 10262 20142 5//// 83610=
201604080600 AAXX 08064 67531 32980 11202 10186 20168 48/// 70200 81030
                   333 10297 20145 5////=
201604070600 AAXX 07064 67531 12980 51005 10212 20185 48/// 69914 70222 80008
                   333 10306 20172=
201604050900 AAXX 05094 67531 NIL=
201604040600 AAXX 04064 67531 32980 40902 10200 20187 48/// 70211 80008
                   333 10314 20145 5////=
201604010600 AAXX 01064 67531 32980 70802 10201 20194 48/// 70222 84038
                   333 10321 20160 5//// 84361 86280=

################################################################################
#  SYNOPS from 67541, Kasempa (Zambia) | 13-32S | 025-51E | 1234 m
################################################################################
201604290900 AAXX 29094 67541 NIL=
201604270900 AAXX 27094 67541 NIL=
201604250600 AAXX 25064 67541 32980 20604 10196 20128 48529 70222 80002
                   333 10/// 20/// 58006 82080=
201604220900 AAXX 22094 67541 NIL=
201604220600 AAXX 22064 67541 32980 30000 10175 20161 48526 70222 82031
                   333 10/// 20/// 59005 82360 81080=
201604210900 AAXX 21094 67541 NIL=
201604210600 AAXX 21064 67541 32980 20000 10200 20156 48531 70222 81031
                   333 10/// 20/// 59005 81360 81080=
201604200600 AAXX 20064 67541 32980 10000 10196 20163 48536 70222 80001
                   333 10//0 20//0 59002 81080=
201604150600 AAXX 15064 67541 32980 10802 10195 20181 48536 70222 80001
                   333 10/// 20/// 59003=
201604141200 AAXX 14124 67541 NIL=
201604140900 AAXX 14094 67541 NIL=
201604140600 AAXX 14064 67541 32480 10000 10198 20182 48539 70222 81100
                   333 10/// 20/// 59012=
201604130900 AAXX 13094 67541 NIL=
201604130600 AAXX 13064 67541 32980 10000 10196 20171 48551 70222 81030
                   333 10/// 2//// 59001=
201604110600 AAXX 11064 67541 32380 70603 10171 20171 48551 70222 8353/
                   333 10/// 20/// 58005=
201604080600 AAXX 08064 67541 NIL=
201604050900 AAXX 05094 67541 NIL=
201604010600 AAXX 01064 67541 NIL=

################################################################################
#  SYNOPS from 67543, Kabompo (Zambia) | 13-36S | 024-12E | 1075 m
################################################################################
201604290900 AAXX 29094 67543 NIL=
201604270900 AAXX 27094 67543 NIL=
201604250600 AAXX 25064 67543 NIL=
201604220900 AAXX 22094 67543 NIL=
201604210900 AAXX 21094 67543 NIL=
201604141200 AAXX 14124 67543 NIL=
201604140900 AAXX 14094 67543 NIL=
201604130900 AAXX 13094 67543 NIL=
201604080600 AAXX 08064 67543 NIL=
201604050900 AAXX 05094 67543 NIL=
201604040600 AAXX 04064 67543 32975 4//00 10202 20193 48/// 81045
                   333 10324 20150 5//// 81360=
201604010600 AAXX 01064 67543 32975 7//00 10194 20187 48/// 80007
                   333 10320 20149 5////=

################################################################################
#  SYNOPS from 67551, Solwezi (Zambia) | 12-11S | 026-23E | 1386 m
################################################################################
201604290900 AAXX 29094 67551 NIL=
201604290600 AAXX 29064 67551 32980 40504 10198 20150 48522 80002
                   333 10271 20/// 58014 84080=
201604280600 AAXX 28064 67551 32980 40904 10174 20144 48539 84030
                   333 10274 20/// 58001 84362=
201604270900 AAXX 27094 67551 NIL=
201604270600 AAXX 27064 67551 32980 31204 10168 20131 48522 82030
                   333 10266 20/// 58004 82362=
201604260600 AAXX 26064 67551 32980 01506 10171 20136 48533
                   333 10259 20//0 58000 91021=
201604250600 AAXX 25064 67551 32980 41506 10171 20101 48533 84030
                   333 10244 20/// 58003 84362=
201604220900 AAXX 22094 67551 NIL=
201604220600 AAXX 22064 67551 32975 40704 10200 20137 48534 80002
                   333 10289 20115 59006 84080 91021=
201604210900 AAXX 21094 67551 NIL=
201604210600 AAXX 21064 67551 32980 40904 10189 20151 48549 80002
                   333 10286 20128 58005 84080=
201604200600 AAXX 20064 67551 32980 00000 10205 20152 48536
                   333 10261 20144 59005 91021=
201604150600 AAXX 15064 67551 32480 4//// 10195 20175 48545 84100
                   333 10276 20174 59009 84810 91022=
201604141200 AAXX 14124 67551 NIL=
201604140900 AAXX 14094 67551 NIL=
201604140600 AAXX 14064 67551 32375 30904 10184 20164 48539 81630
                   333 10269 20148 59009 81708=
201604130900 AAXX 13094 67551 NIL=
201604130600 AAXX 13064 67551 32475 70903 10177 20163 48543 84630
                   333 10245 20157 59013 84708=
201604120600 AAXX 12064 67551 32375 71005 10179 20159 48539 875//
                   333 10241 20156 58012 87608=
201604080600 AAXX 08064 67551 NIL=
201604070600 AAXX 07064 67551 32360 71607 10188 20173 48532 85630
                   333 10293 20169 59000 85706=
201604060600 AAXX 06064 67551 12370 40904 10207 20184 48529 60074 84600
                   333 10262 20162 59005=
201604050900 AAXX 05094 67551 NIL=
201604050600 AAXX 05064 67551 12370 70904 10206 20187 48534 60104 8577/
                   333 10276 20180 59009=
201604040600 AAXX 04064 67551 32475 71204 10201 20179 48542 8705/
                   333 10282 20161 59001 87610=
201604010600 AAXX 01064 67551 32980 40904 10/// 20169 48512 80002
                   333 10291 20145 59006 84080=

################################################################################
#  SYNOPS from 67561, Ndola (Zambia) | 13-00S | 028-39E | 1269 m
################################################################################
201604290900 AAXX 29094 67561 NIL=
201604290600 AAXX 29064 67561 31957 20000 10184 20154 48532 70442 80002
                   333 10279 20130 59013 82080 91020=
201604280600 AAXX 28064 67561 31359 50000 10189 20144 48535 70422 83132
                   333 10280 20130 59003=
201604270900 AAXX 27094 67561 NIL=
201604270600 AAXX 27064 67561 31960 00000 10185 20136 48538 70500
                   333 10280 20175 58005=
201604260600 AAXX 26064 67561 41970 00906 10204 20134 48535 70500
                   333 10266 20124 58000 91021=
201604250600 AAXX 25064 67561 NIL=
201604220900 AAXX 22094 67561 NIL=
201604210900 AAXX 21094 67561 NIL=
201604141200 AAXX 14124 67561 NIL=
201604140900 AAXX 14094 67561 NIL=
201604140600 AAXX 14064 67561 31970 60904 10194 20166 48535 70511 86030
                   333 10274 20154 59005=
201604130900 AAXX 13094 67561 NIL=
201604130600 AAXX 13064 67561 31975 11003 10196 20172 48549 70511 81030
                   333 10240 20146 59011 81360 91023=
201604110600 AAXX 11064 67561 31360 60000 10180 20162 48558 70522 84630
                   333 10234 20155 58008 84706 86360 91024=
201604080600 AAXX 08064 67561 NIL=
201604070600 AAXX 07064 67561 11960 31211 10195 20150 48532 60014 70500 83030
                   333 10296 20165 58008 83360 91021=
201604050900 AAXX 05094 67561 NIL=
201604010600 AAXX 01064 67561 NIL=

################################################################################
#  SYNOPS from 67563, Kafironda (Zambia) | 12-36S | 028-07E | 1243 m
################################################################################
201604290900 AAXX 29094 67563 NIL=
201604290600 AAXX 29064 67563 32970 00000 10175 20160 48/// 70100
                   333 10285 20115 59016=
201604280600 AAXX 28064 67563 32970 10000 10170 20170 48/// 70100 81030
                   333 10290 20105 59005 81362=
201604270900 AAXX 27094 67563 NIL=
201604270600 AAXX 27064 67563 32970 31204 10200 20168 48/// 70100 80002
                   333 10300 20070 58002 82080=
201604250600 AAXX 25064 67563 32970 31204 10200 20188 48/// 70211 80008
                   333 10295 20175 58001 83280=
201604220900 AAXX 22094 67563 NIL=
201604220600 AAXX 22064 67563 32970 11204 10215 20182 48/// 70100 80002
                   333 10295 20175 59003 81080=
201604210900 AAXX 21094 67563 NIL=
201604210600 AAXX 21064 67563 32970 00000 10210 20172 48/// 70100
                   333 10310 20170 58006=
201604150600 AAXX 15064 67563 32970 01002 10200 20172 48/// 70100
                   333 10290 20130 58010=
201604141200 AAXX 14124 67563 NIL=
201604140900 AAXX 14094 67563 NIL=
201604140600 AAXX 14064 67563 32970 11201 10190 20175 48/// 70200 81030
                   333 10280 20135 59008 81360=
201604130900 AAXX 13094 67563 NIL=
201604080600 AAXX 08064 67563 NIL=
201604050900 AAXX 05094 67563 NIL=
201604010600 AAXX 01064 67563 32970 20000 10210 20180 48/// 70200 80002
                   333 10305 20140 59008 82080=

################################################################################
#  SYNOPS from 67571, Serenje (Zambia) | 13-14S | 030-13E | 1384 m
################################################################################
201604290900 AAXX 29094 67571 NIL=
201604290600 AAXX 29064 67571 32982 70603 10214 20147 48522 70222 81038
                   333 10271 20154 59012=
201604280600 AAXX 28064 67571 32982 11206 10189 20126 48531 70200 80001
                   333 10260 20156 59009 81081=
201604270900 AAXX 27094 67571 NIL=
201604250600 AAXX 25064 67571 32482 71205 10180 20131 48541 70222 83508
                   333 10268 20117 58010=
201604220900 AAXX 22094 67571 NIL=
201604210900 AAXX 21094 67571 NIL=
201604210600 AAXX 21064 67571 32982 00903 10208 20139 48542
                   333 10284 20145 5////=
201604180900 AAXX 18094 67571 42582 60602 10255 20175 48555 70222 86501
                   333 59005 86628 82080=
201604150600 AAXX 15064 67571 32482 70908 10185 20163 48551 70222 875//
                   333 10246 20170 58009 87615=
201604141200 AAXX 14124 67571 NIL=
201604140900 AAXX 14094 67571 NIL=
201604130900 AAXX 13094 67571 NIL=
201604130600 AAXX 13064 67571 12482 81206 10180 20159 48550 69904 70322 885//
                   333 10239 20170 59010 88610=
201604120600 AAXX 12064 67571 11380 81208 10172 20164 48560 69904 75155 887//
                   333 10228 20167=
201604110600 AAXX 11064 67571 11380 71206 1//// 20162 48560 69904 75155 877//
                   333 10211 20161 58013 87709=
201604080600 AAXX 08064 67571 11380 71506 10163 20156 48549 60024 75355 877//
                   333 10250 20159 58022 87708=
201604060600 AAXX 06064 67571 12482 21506 10206 20170 48522 69904 70111 81531
                   333 10265 20175 59006 81618 81360 81080=
201604051200 AAXX 05124 67571 41682 71506 10250 20165 48504 70222 8253/
                   333 59007 82630 87360=
201604050900 AAXX 05094 67571 41480 72002 10230 20188 48/// 71422 8528/
                   333 59017 82818 83618 86361=
201604010600 AAXX 01064 67571 NIL=

################################################################################
#  SYNOPS from 67575, Mkushi (Zambia) | 13-38-00S | 029-26-00E | 1237 m
################################################################################
201604290900 AAXX 29094 67575 NIL=
201604280600 AAXX 28064 67575 32480 11106 10193 20138 48/// 70300 81101
                   333 10275 20135 5//// 81815 81080=
201604270900 AAXX 27094 67575 NIL=
201604270600 AAXX 27064 67575 32480 21208 10205 20140 48/// 70222 81501
                   333 10275 20145 5//// 81615 81080=
201604250600 AAXX 25064 67575 32580 31403 10195 20128 48/// 70300 81271
                   333 10295 20095 5////=
201604220900 AAXX 22094 67575 NIL=
201604210900 AAXX 21094 67575 NIL=
201604200600 AAXX 20064 67575 32980 00604 10230 20159 48/// 70222
                   333 10285 20175 5////=
201604150600 AAXX 15064 67575 32480 70903 10194 20172 48/// 70322 87500
                   333 10264 20151 5//// 87615=
201604141200 AAXX 14124 67575 NIL=
201604140900 AAXX 14094 67575 NIL=
201604130900 AAXX 13094 67575 NIL=
201604130600 AAXX 13064 67575 32480 50904 10210 20163 48/// 70222 85200
                   333 10240 20150 5////=
201604120600 AAXX 12064 67575 32380 80905 10187 20160 48/// 70322 887//
                   333 10245 20170 5//// 88706=
201604110600 AAXX 11064 67575 32380 81204 10185 20162 48/// 70222 887//
                   333 10220 20150 5//// 88708=
201604080600 AAXX 08064 67575 32480 81205 10187 20155 48/// 70222 885//
                   333 10250 20172 5//// 88615=
201604070600 AAXX 07064 67575 32480 31204 10202 20150 48/// 70300 83500
                   333 10290 20160 5////=
201604050900 AAXX 05094 67575 NIL=
201604010600 AAXX 01064 67575 NIL=

################################################################################
#  SYNOPS from 67580, Msekera (Zambia) | 13-39S | 032-34E | 1025 m
################################################################################
201604290900 AAXX 29094 67580 42780 60603 10299 20188 48/// 86200
                   333 5//// 86856=
201604280900 AAXX 28094 67580 42680 72403 10260 20156 48/// 82130
                   333 59014 82842 87361=
201604280600 AAXX 28064 67580 32980 71503 10200 20144 48/// 8703/
                   333 10298 20/// 59014 87360=
201604270900 AAXX 27094 67580 41680 21504 10260 20155 48/// 70500 82100
                   333 5//// 82840=
201604250600 AAXX 25064 67580 32580 21003 10213 20153 48/// 81101
                   333 10289 20/// 5//// 81824 81080=
201604220900 AAXX 22094 67580 42980 01503 10300 20122 48///
                   333 59009=
201604210900 AAXX 21094 67580 42780 12703 10286 20153 48/// 81100
                   333 59006 81856=
201604210600 AAXX 21064 67580 32980 00000 10220 20162 48///
                   333 10310 20//0 59007=
201604200900 AAXX 20094 67580 42680 22102 10270 20171 48/// 82100
                   333 5//// 82840=
201604180900 AAXX 18094 67580 42680 72104 10279 20195 48/// 87201
                   333 5//// 87842 81080=
201604150600 AAXX 15064 67580 32580 21205 10225 20182 48/// 82800
                   333 10298 20/// 5//// 81824 81626=
201604141200 AAXX 14124 67580 NIL=
201604140900 AAXX 14094 67580 42680 71305 10265 20181 48/// 86130
                   333 59013 86838 82361=
201604140600 AAXX 14064 67580 12980 41204 10225 20176 48/// 69904 84030
                   333 10290 20/// 59009 84360=
201604130900 AAXX 13094 67580 42680 71204 10251 20185 48/// 87830
                   333 59007 86838 81640=
201604130600 AAXX 13064 67580 32580 41502 10214 20177 48/// 81130
                   333 10280 20/// 59027 81824 83361=
201604080600 AAXX 08064 67580 12580 71205 10195 20166 48/// 69904 87530
                   333 10275 20/// 5//// 87620 82360=
201604060900 AAXX 06094 67580 42680 61503 10281 20184 48/// 86200
                   333 59005 86844=
201604060600 AAXX 06064 67580 32580 21503 10234 20196 48/// 81101
                   333 10314 20/// 59008 81828 81080=
201604050900 AAXX 05094 67580 NIL=
201604040600 AAXX 04064 67580 12580 71203 10234 20206 48/// 69904 8457/
                   333 10322 20//0 58008 84628 85360=
201604010900 AAXX 01094 67580 42780 72103 10295 20193 48/// 87200
                   333 59017 87850=
201604010600 AAXX 01064 67580 32980 01503 10234 20189 48///
                   333 10305 20/// 59026=

################################################################################
#  SYNOPS from 67581, Chipata (Zambia) | 13-33S | 032-35E | 1028 m
################################################################################
201604290900 AAXX 29094 67581 NIL=
201604270900 AAXX 27094 67581 NIL=
201604250600 AAXX 25064 67581 31560 31604 10215 20140 48550 70500 81101
                   333 10305 20130 58006=
201604220900 AAXX 22094 67581 NIL=
201604220600 AAXX 22064 67581 32980 00000 10240 20134 48549
                   333 10314 20103 59004 91020=
201604210900 AAXX 21094 67581 NIL=
201604210600 AAXX 21064 67581 32980 00000 10215 20151 48549
                   333 10310 20089 59010 91021=
201604141200 AAXX 14124 67581 NIL=
201604140900 AAXX 14094 67581 NIL=
201604130900 AAXX 13094 67581 NIL=
201604130600 AAXX 13064 67581 12680 51606 10220 20174 48564 60014 82130
                   333 10232 20140 59007 82835 85360 91022=
201604080600 AAXX 08064 67581 12580 61208 10190 20158 48561 60034 83570
                   333 10285 20139 58021 83625 85460 91023=
201604050900 AAXX 05094 67581 NIL=
201604010600 AAXX 01064 67581 32980 11205 10210 20158 48525 81010
                   333 10286 20142 59025 81825=

################################################################################
#  SYNOPS from 67583, Lundazi (Zambia) | 12-17S | 033-12E | 1143 m
################################################################################
201604290900 AAXX 29094 67583 NIL=
201604290600 AAXX 29064 67583 32580 50903 10235 20179 48/// 81531
                   333 10/// 20/// 59007 81618=
201604280600 AAXX 28064 67583 32480 21203 10215 20168 48/// 82530
                   333 10/// 20/// 59011 82616=
201604270900 AAXX 27094 67583 NIL=
201604270600 AAXX 27064 67583 32480 61806 10212 20170 48/// 8173/
                   333 10/// 20/// 58005 81710 86359=
201604250600 AAXX 25064 67583 32680 51803 10207 20168 48/// 81531
                   333 10/// 20/// 59007 81629=
201604220900 AAXX 22094 67583 NIL=
201604220600 AAXX 22064 67583 32980 01801 10200 20175 48///
                   333 10//0 20//0 59004=
201604210900 AAXX 21094 67583 NIL=
201604210600 AAXX 21064 67583 32980 00000 10185 20153 48/// 70200
                   333 10//0 20//0 59007=
201604150600 AAXX 15064 67583 32480 21503 10227 20190 48/// 70300 82630
                   333 10/// 20/// 58006 82618 81359=
201604141200 AAXX 14124 67583 NIL=
201604140900 AAXX 14094 67583 NIL=
201604140600 AAXX 14064 67583 32480 51605 10208 20180 48/// 70300 84730
                   333 10/// 20/// 59004=
201604130900 AAXX 13094 67583 NIL=
201604130600 AAXX 13064 67583 32580 70901 10210 20186 48/// 70120 8453/
                   333 10/// 20/// 59013=
201604080600 AAXX 08064 67583 12580 81205 10195 20185 48/// 60034 885//
                   333 10/// 20/// 58017 88620=
201604050900 AAXX 05094 67583 NIL=
201604040600 AAXX 04064 67583 11975 81501 10210 20203 48/// 60104 72162 8807/
                   333 10//0 20//0 58009 88460=
201604010600 AAXX 01064 67583 32980 21801 10210 20177 48/// 70200 81031
                   333 10/// 20/// 59016 81360 82080=

################################################################################
#  SYNOPS from 67599, Mfuwe (Zambia) | 13-16S | 031-56E | 568 m
################################################################################
201605010600 AAXX 01064 67599 32980 10000 10242 20206 48526 81030 333=
201604290900 AAXX 29094 67599 NIL=
201604280600 AAXX 28064 67599 32980 70000 10211 20163 48535 8707/ 333=
201604270900 AAXX 27094 67599 NIL=
201604270600 AAXX 27064 67599 32980 01805 10235 20174 48552
                   333 10337=
201604260600 AAXX 26064 67599 32980 60000 10230 20173 48546 86030
                   333 10329 20200 58001 86360=
201604250600 AAXX 25064 67599 32980 10000 10217 20167 48541 80001
                   333 10347 20165 58007 81080 91019=
201604220900 AAXX 22094 67599 NIL=
201604210900 AAXX 21094 67599 NIL=
201604210600 AAXX 21064 67599 32980 01805 10205 21076 48539
                   333 10345 20160 59006 91019=
201604181500 AAXX 18154 67599 42680 70000 10305 20224 48534 82231
                   333 59019 81940 82845 82360 83080=
201604180900 AAXX 18094 67599 42680 50000 10300 20216 48574 69904 85231 333=
201604180600 AAXX 18064 67599 12980 60000 10237 20213 48559 69904 84031 333=
201604150600 AAXX 15064 67599 12980 10000 10230 20201 48561 69904 81030
                   333 10327 20186 58010=
201604141200 AAXX 14124 67599 NIL=
201604140900 AAXX 14094 67599 NIL=
201604130900 AAXX 13094 67599 NIL=
201604130600 AAXX 13064 67599 12980 50803 10230 20201 48560 69954 70222 85730
                   333 10313 20185=
201604121200 AAXX 12124 67599 41680 70000 10301 20195 48565 71522 87230
                   333 59004 59004 87845 81360 91018=
201604120900 AAXX 12094 67599 42680 71803 10284 20199 48582 85230 333=
201604120600 AAXX 12064 67599 32980 72103 10223 20195 48563 87030
                   333 10297 59008 87359
                   555 00/// 20000 91021=
201604110600 AAXX 11064 67599 32980 70000 10216 20189 48570 8707/
                   333 10293 20190 58008 87459 91022=
201604080900 AAXX 08094 67599 42680 71805 10260 20176 48576 875//
                   333 58023 87638 91021=
201604080600 AAXX 08064 67599 12580 61804 10225 20180 48563 69924 86500
                   333 10310 20205 58026 86620 91021=
201604071200 AAXX 07124 67599 42680 70000 10299 20191 48546 85130 333=
201604070900 AAXX 07094 67599 42680 61804 10275 20186 48558 82130 333=
201604050900 AAXX 05094 67599 NIL=
201604040600 AAXX 04064 67599 11180 80000 10234 20227 48551 60394 76162 8177/
                   333 10324 20206 58011 81702 88458 91019=
201604010600 AAXX 01064 67599 32880 30000 10221 20189 48510 83030
                   333 10347 20169 58026 83358 91015=

################################################################################
#  SYNOPS from 67625, Kalabo (Zambia) | 14-51S | 022-42E | 1033 m
################################################################################
201604290900 AAXX 29094 67625 NIL=
201604280600 AAXX 28064 67625 32982 60903 10180 20155 48/// 85074
                   333 10293 20149 5//// 85360 86075=
201604270900 AAXX 27094 67625 NIL=
201604250600 AAXX 25064 67625 32982 00911 10230 20207 48///
                   333 10320 20170 5////=
201604220900 AAXX 22094 67625 42982 80706 10296 20127 48/// 80004
                   333 5//// 88075=
201604210900 AAXX 21094 67625 NIL=
201604200900 AAXX 20094 67625 42982 10910 10276 20155 48/// 80001
                   333 59002 81075=
201604180900 AAXX 18094 67625 42682 10612 10287 20180 48/// 81130
                   333 5//// 81842 81360=
201604150600 AAXX 15064 67625 32982 00810 10218 20167 48///
                   333 10299 20172 58014=
201604141200 AAXX 14124 67625 42782 31010 10282 20155 48/// 83100
                   333 59012 85850=
201604140900 AAXX 14094 67625 42682 10910 10263 20180 48/// 81100
                   333 59002 81835=
201604130900 AAXX 13094 67625 42682 10605 10256 20169 48/// 81100
                   333 59023 81835=
201604130600 AAXX 13064 67625 32982 00907 10217 20177 48///
                   333 10298 20220 59009=
201604110600 AAXX 11064 67625 12982 10905 10212 20170 48/// 69904 81030
                   333 10266 20173 58013 81360=
201604080600 AAXX 08064 67625 32482 60910 10205 20171 48/// 86600
                   333 10299 20194 58022 86714=
201604050900 AAXX 05094 67625 NIL=
201604040600 AAXX 04064 67625 32982 50809 10243 20203 48/// 85030
                   333 10316 20205 58023 85360=
201604010600 AAXX 01064 67625 32482 70301 10234 20209 48/// 85104
                   333 10322 20195 58006 85810 87075=

################################################################################
#  SYNOPS from 67633, Mongu (Zambia) | 15-15S | 023-09E | 1052 m
################################################################################
201604290900 AAXX 29094 67633 NIL=
201604290600 AAXX 29064 67633 32980 40904 10211 20144 48521 70200 84030
                   333 10312 20150 59007 84361 91018=
201604270900 AAXX 27094 67633 NIL=
201604260600 AAXX 26064 67633 32980 00904 10170 20119 48527 70200
                   333 10314 20120 58014=
201604250600 AAXX 25064 67633 32980 00904 10212 20117 48524 70200
                   333 10335 20162 59013=
201604220900 AAXX 22094 67633 NIL=
201604220600 AAXX 22064 67633 32980 40903 10224 20149 48516 70222 82038
                   333 10324 20184 59017=
201604210900 AAXX 21094 67633 NIL=
201604210600 AAXX 21064 67633 32980 20905 10217 20146 48535 70200 82030
                   333 10336 20175 58007=
201604200600 AAXX 20064 67633 32980 50804 10207 20156 48524 70222 82038
                   333 10343 20162 59007 82361 85280 91020=
201604150600 AAXX 15064 67633 32980 00903 10205 20155 48543 70200
                   333 10319 20165 58000=
201604141200 AAXX 14124 67633 NIL=
201604140900 AAXX 14094 67633 NIL=
201604140600 AAXX 14064 67633 32980 00905 10212 20170 48543 70200
                   333 10313 20156 58000=
201604130900 AAXX 13094 67633 NIL=
201604130600 AAXX 13064 67633 32980 00904 10207 20163 48543 70200
                   333 10316 20159 59002=
201604080600 AAXX 08064 67633 NIL=
201604070600 AAXX 07064 67633 12980 40908 10220 20166 48528 60024 70222 82038
                   333 10306 20187 58008 82361 82280 91019=
201604050900 AAXX 05094 67633 NIL=
201604050600 AAXX 05064 67633 32980 40904 10240 20203 48535 70200 84030
                   333 10331 20205 59014=
201604040600 AAXX 04064 67633 32980 30908 10245 20193 48548 70200 83030
                   333 10338 20211 58006 83361 91021=
201604010600 AAXX 01064 67633 32980 70903 10245 20217 48518 70222 84038
                   333 10350 20209 59008 84360 83280 91017=

################################################################################
#  SYNOPS from 67641, Kaoma (Zambia) | 14-48S | 024-48E | 1213 m
################################################################################
201604290900 AAXX 29094 67641 NIL=
201604290600 AAXX 29064 67641 32980 00601 10191 20159 48588
                   333 10//0 20118 59025 91015=
201604280600 AAXX 28064 67641 32980 00000 10146 20138 48501
                   333 10//0 20116 59027 91017=
201604270900 AAXX 27094 67641 NIL=
201604270600 AAXX 27064 67641 32982 11203 10180 20140 48534 81030
                   333 10//0 20119 58010 81360 91021=
201604250600 AAXX 25064 67641 NIL=
201604220900 AAXX 22094 67641 NIL=
201604210900 AAXX 21094 67641 NIL=
201604210600 AAXX 21064 67641 32982 00000 10151 20138 48528
                   333 10//0 20126 58007 91020=
201604200600 AAXX 20064 67641 32982 10502 10181 20148 48525 81032
                   333 10//0 20135 58000 81360 81080 91020=
201604150600 AAXX 15064 67641 32980 00701 10182 20164 48515
                   333 10//0 20145 58001 91018=
201604141200 AAXX 14124 67641 NIL=
201604140900 AAXX 14094 67641 NIL=
201604140600 AAXX 14064 67641 32980 01201 10196 20172 48517
                   333 10//0 20156 59011 91018=
201604130900 AAXX 13094 67641 NIL=
201604130600 AAXX 13064 67641 32980 10701 10185 20165 48525 81030
                   333 10/// 20144 59020 81360 91020=
201604080600 AAXX 08064 67641 32680 71202 10191 20175 48536 84530
                   333 10/// 20175 58022 84630=
201604050900 AAXX 05094 67641 NIL=
201604010600 AAXX 01064 67641 32980 30000 10217 20188 48500 81031
                   333 10/// 20190 59008 82360 81080 91016=

################################################################################
#  SYNOPS from 67655, Mumbwa (Zambia) | 15-04S | 027-11E | 1216 m
################################################################################
201604290900 AAXX 29094 67655 NIL=
201604270900 AAXX 27094 67655 NIL=
201604250600 AAXX 25064 67655 NIL=
201604220900 AAXX 22094 67655 NIL=
201604210900 AAXX 21094 67655 NIL=
201604141200 AAXX 14124 67655 NIL=
201604140900 AAXX 14094 67655 NIL=
201604130900 AAXX 13094 67655 NIL=
201604080600 AAXX 08064 67655 NIL=
201604050900 AAXX 05094 67655 NIL=
201604010600 AAXX 01064 67655 NIL=

################################################################################
#  SYNOPS from 67659, Kafue Polder (Zambia) | 15-46S | 027-55E | 978 m
################################################################################
201604290900 AAXX 29094 67659 NIL=
201604290600 AAXX 29064 67659 32980 71403 10198 20166 48/// 70322 87030
                   333 10255 20/// 5////=
201604270900 AAXX 27094 67659 NIL=
201604250600 AAXX 25064 67659 NIL=
201604220900 AAXX 22094 67659 NIL=
201604220600 AAXX 22064 67659 32980 00804 10202 20//0 48/// 70500
                   333 10318 20//0 5////=
201604210900 AAXX 21094 67659 NIL=
201604150600 AAXX 15064 67659 32380 31204 10210 20176 48/// 70222 83200
                   333 10276 20/// 5//// 83825=
201604141200 AAXX 14124 67659 NIL=
201604140900 AAXX 14094 67659 NIL=
201604130900 AAXX 13094 67659 NIL=
201604080600 AAXX 08064 67659 32389 71806 10177 20160 48/// 70222 87500
                   333 10267 20/// 5////=
201604050900 AAXX 05094 67659 NIL=
201604010600 AAXX 01064 67659 NIL=

################################################################################
#  SYNOPS from 67662, Kabwe Agric (Zambia) | 14-24S | 028-30E | 1165 m
################################################################################
201604290900 AAXX 29094 67662 NIL=
201604280600 AAXX 28064 67662 32980 10000 10174 20142 48/// 80001
                   333 10275 20/// 5////=
201604270900 AAXX 27094 67662 NIL=
201604250600 AAXX 25064 67662 NIL=
201604220900 AAXX 22094 67662 NIL=
201604210900 AAXX 21094 67662 NIL=
201604141200 AAXX 14124 67662 NIL=
201604140900 AAXX 14094 67662 NIL=
201604140600 AAXX 14064 67662 32980 11203 10180 20166 48/// 81030
                   333 10255 20/// 5////=
201604130900 AAXX 13094 67662 NIL=
201604080600 AAXX 08064 67662 NIL=
201604050900 AAXX 05094 67662 NIL=
201604010600 AAXX 01064 67662 32980 10000 10200 20192 48/// 81030
                   333 10299 20/// 5//// 81360=

################################################################################
#  SYNOPS from 67663, Kabwe (Zambia) | 14-27S | 028-28E | 1206 m
################################################################################
201604290900 AAXX 29094 67663 NIL=
201604290600 AAXX 29064 67663 32980 20903 10200 20148 48547 70100 81032
                   333 10282 20161 59017=
201604270900 AAXX 27094 67663 NIL=
201604270600 AAXX 27064 67663 32980 10914 10190 20143 48566 80002
                   333 10265 20142 58014 81080=
201604260600 AAXX 26064 67663 32980 00907 10183 20138 48545
                   333 10258 20136 5////=
201604250600 AAXX 25064 67663 32980 11709 10173 20130 48546 80002
                   333 10286 20135 58008=
201604220900 AAXX 22094 67663 NIL=
201604220600 AAXX 22064 67663 32980 10504 10205 20129 48537 70200 80002
                   333 10296 20159 59006=
201604210900 AAXX 21094 67663 NIL=
201604210600 AAXX 21064 67663 32980 10614 10197 20146 48544 80002
                   333 10288 20136 59017=
201604200600 AAXX 20064 67663 32980 10907 10196 20152 48560 81030
                   333 10271 20144 58009=
201604150600 AAXX 15064 67663 32980 00507 10192 20166 48567
                   333 10263 20156 58017=
201604141200 AAXX 14124 67663 NIL=
201604140900 AAXX 14094 67663 NIL=
201604140600 AAXX 14064 67663 32480 21906 10185 20174 48551 82500
                   333 10253 20147 59005=
201604130900 AAXX 13094 67663 NIL=
201604130600 AAXX 13064 67663 32480 10910 10193 20183 48556 70300 81500
                   333 10237 20153 59014 81618=
201604080600 AAXX 08064 67663 NIL=
201604050900 AAXX 05094 67663 NIL=
201604040600 AAXX 04064 67663 32580 81005 10213 20200 48555 70322 875//
                   333 10292 20186 58003 87620=
201604010600 AAXX 01064 67663 32980 00304 10226 20178 48522 70200
                   333 10298 20170 58011=

################################################################################
#  SYNOPS from 67665, Lusaka Internationalairport (Zambia) | 15-19S | 028-27E | 1152 m
################################################################################
201604301500 AAXX 30154 67665 42780 21205 10270 20163 48512 81260
                   333 58001 81856 81359=
201604301200 AAXX 30124 67665 42680 41704 10273 20166 48520 84200
                   333 58001 84840=
201604290900 AAXX 29094 67665 NIL=
201604290600 AAXX 29064 67665 42980 21104 10203 20162 48534 70200 82030
                   333 59016 83360=
201604290300 AAXX 29034 67665 42980 01203 10167 20130 48520 70200
                   333 59016=
201604282100 AAXX 28214 67665 42980 01403 10175 20129 48527 70200
                   333 59025=
201604280900 AAXX 28094 67665 42480 20405 10231 20170 48551 70300 81101
                   333 59018 81820 81080=
201604280600 AAXX 28064 67665 32980 21005 10175 20142 48547 70200 80001
                   333 10260 20//0 59014 82080=
201604280300 AAXX 28034 67665 42980 00000 10121 20113 48526 70200
                   333 59009=
201604280000 AAXX 28004 67665 42980 01503 10137 20120 48534 70200
                   333 59001=
201604272100 AAXX 27214 67665 42980 01402 10147 20121 48547 70200
                   333 58005=
201604271800 AAXX 27184 67665 42980 41104 10172 20139 48550 70222 80001
                   333 58007 84080=
201604271200 AAXX 27124 67665 42680 60912 10243 20187 48548 70222 86201
                   333 58005 86830=
201604270900 AAXX 27094 67665 NIL=
201604270600 AAXX 27064 67665 32380 61008 10179 20155 48561 86630
                   333 10270 20//0 58015 85709 82360=
201604270300 AAXX 27034 67665 42980 21203 10142 20114 48540 82030
                   333 58006 82360=
201604270000 AAXX 27004 67665 42980 31303 10144 20116 48535 83030
                   333 58001 83360=
201604262100 AAXX 26214 67665 42980 01303 10170 20136 48545
                   333 58004=
201604261800 AAXX 26184 67665 42980 21402 10182 20149 48544 70200 82030
                   333 10270 58005 82360=
201604261500 AAXX 26154 67665 42980 21009 10245 20160 48543 82060
                   333 58007 82360=
201604261200 AAXX 26124 67665 42680 51010 10239 20145 48543 70322 85200
                   333 58003 85835=
201604260900 AAXX 26094 67665 42680 30914 10226 20146 48566 83100
                   333 58003 83832=
201604260600 AAXX 26064 67665 32980 21304 10166 20133 48553 82030
                   333 10295 20//0 58006 82360=
201604260000 AAXX 26004 67665 42980 00000 10135 20108 48534
                   333 58000=
201604252100 AAXX 25214 67665 42980 00000 10143 20116 48537 80000
                   333 58001=
201604251800 AAXX 25184 67665 42980 01404 10170 20115 48538
                   333 10295 20//0 58005=
201604251500 AAXX 25154 67665 42680 30908 10224 20124 48532 83200
                   333 58000 83842=
201604251200 AAXX 25124 67665 42680 51113 10249 20156 48542 85500
                   333 58002 85632=
201604250600 AAXX 25064 67665 NIL=
201604250300 AAXX 25034 67665 42980 01202 10134 20116 48531
                   333 58012=
201604242100 AAXX 24214 67665 42980 01402 10162 20099 48539
                   333 58009=
201604241500 AAXX 24154 67665 42980 31111 10260 20159 48537 80001
                   333 58009 83080=
201604240900 AAXX 24094 67665 42980 30909 10257 20162 48566 70300 80001
                   333 58013 83080=
201604240600 AAXX 24064 67665 32980 11404 10194 20145 48545 70200 80001
                   333 10300 20//0 58006 81080=
201604240000 AAXX 24004 67665 42980 01902 10141 20196 48520 70200
                   333 58002=
201604231800 AAXX 23184 67665 42980 01203 10195 20117 48528
                   333 58001=
201604230900 AAXX 23094 67665 42980 00908 10262 20187 48553
                   333 59003=
201604230600 AAXX 23064 67665 32980 01204 10191 20151 48543
                   333 10300 20/// 59005=
201604221200 AAXX 22124 67665 42680 20809 10285 20181 48539 70300 82100
                   333 59001 82840=
201604220900 AAXX 22094 67665 NIL=
201604220600 AAXX 22064 67665 42980 01404 10188 20156 48547 70200
                   333 59003=
201604220300 AAXX 22034 67665 42980 01802 10134 20127 48522 70200 59004=
201604210900 AAXX 21094 67665 42980 00809 10263 20189 48565 70200
                   333 59003=
201604210600 AAXX 21064 67665 32980 01102 10180 20130 48549 70200
                   333 10310 20//0 59007=
201604210300 AAXX 21034 67665 42980 01001 10141 20124 48528 70200
                   333 59009=
201604202100 AAXX 20214 67665 42980 01303 10154 20130 48537 60200
                   333 59007=
201604201800 AAXX 20184 67665 42980 01406 10179 20119 48534 70200
                   333 59005=
201604201500 AAXX 20154 67665 42980 00809 10263 20172 48534 70200
                   333 59004=
201604201200 AAXX 20124 67665 42680 11012 10271 20181 48544 70200 81100
                   333 59006 81840=
201604200900 AAXX 20094 67665 42980 00710 10250 20174 48563 70200
                   333 59001=
201604200600 AAXX 20064 67665 32980 01104 10164 20135 48553
                   333 10280 20//0 59002=
201604200000 AAXX 20004 67665 42980 01803 10144 20126 48538
                   333 58004=
201604192100 AAXX 19214 67665 42980 01603 10141 20124 48543
                   333 58005=
201604191800 AAXX 19184 67665 42980 01304 10185 20155 48541
                   333 10280 59004=
201604191500 AAXX 19154 67665 42980 01109 10261 20173 48538 70200
                   333 59007=
201604191200 AAXX 19124 67665 42680 21010 10263 20171 48549 70200 82100
                   333 59004 82845=
201604190900 AAXX 19094 67665 42680 51011 10239 20169 48566 85200
                   333 59012 85830=
201604190600 AAXX 19064 67665 32980 00907 10192 20173 48559
                   333 59008=
201604181800 AAXX 18184 67665 42980 01403 10203 20155 48546
                   333 10290 20//0 59013=
201604181500 AAXX 18154 67665 42680 31108 10268 20186 48546 82202
                   333 59007 82845 81080=
201604181200 AAXX 18124 67665 42680 50909 10274 20184 48554 85200
                   333 59002 85838=
201604180900 AAXX 18094 67665 42680 40612 10244 20162=
201604180600 AAXX 18064 67665 32980 01105 10205 20140 48569 70200
                   333 10287 20//0 58000=
201604180300 AAXX 18034 67665 42980 01504 10163 20129 48541
                   333 59005=
201604172100 AAXX 17214 67665 42980 01503 10179 20127 48560
                   333 58001=
201604171800 AAXX 17184 67665 42980 11004 10208 20145 48560 81030
                   333 58001 81360=
201604170900 AAXX 17094 67665 42580 50910 10242 20179 48580 70320 85500
                   333 59001 85625=
201604170600 AAXX 17064 67665 32980 01007 10197 20157 48566 70200
                   333 10266 20//0 59004=
201604170300 AAXX 17034 67665 42980 10148 20127 48540 70222
                   333 59003=
201604161500 AAXX 16154 67665 42580 60810 10237 20184 48552 82230
                   333 59003 82845 86360=
201604160900 AAXX 16094 67665 42480 70812 10225 20203 48579 8653/
                   333 58003 86612 85360=
201604160600 AAXX 16064 67665 32380 60904 10186 20176 48571 85630
                   333 10250 20//0 58001 85709 84360=
201604151500 AAXX 15154 67665 42680 70812 10235 20165 48552 70222 8223/
                   333 58009 82835 87358=
201604150900 AAXX 15094 67665 42480 50813 10219 20181 48578 85500
                   333 58007 85620=
201604150600 AAXX 15064 67665 32480 21008 10187 20163 48570 82500
                   333 10264 20//0 58012 82615=
201604150000 AAXX 15004 67665 42980 01204 10157 20141 48546
                   333 58007=
201604141500 AAXX 14154 67665 42680 21010 10241 20153 48546 82800
                   333 59003 81630 82832=
201604141200 AAXX 14124 67665 NIL=
201604140900 AAXX 14094 67665 NIL=
201604140600 AAXX 14064 67665 32480 21105 10180 20139 48567 70300 82500
                   333 10265 20//0 59009 82615=
201604140300 AAXX 14034 67665 42980 01403 10148 20139 48533 70200
                   333 59017=
201604132100 AAXX 13214 67665 41953 01202 10160 20149 48550 70400
                   333 59019=
201604131800 AAXX 13184 67665 42980 11203 10188 20138 48549 81030
                   333 10260 20//0 59021 81360=
201604131500 AAXX 13154 67665 42680 40608 10242 20174 48549 84200
                   333 59022 84838=
201604131200 AAXX 13124 67665 42580 60906 10246 20178 48556 86800
                   333 59022 83628 83830=
201604130900 AAXX 13094 67665 NIL=
201604130300 AAXX 13034 67665 42980 11203 10136 20110 48548 81030
                   333 59005 81360=
201604130000 AAXX 13004 67665 42980 11502 10142 20116 48555 81030
                   333 58002 81360=
201604122100 AAXX 12214 67665 42980 11102 10158 20133 48568 81030
                   333 58002 81360=
201604121500 AAXX 12154 67665 42680 61005 10221 20190 48568 70122 85230
                   333 58003 85835 83360=
201604121200 AAXX 12124 67665 42580 70907 10226 20187 48575 70222 86530
                   333 58006 86620 85360=
201604120600 AAXX 12064 67665 32480 70910 10176 20150 48578 875//
                   333 10236 20//0 59002 87612=
201604120300 AAXX 12034 67665 42980 10904 10141 20124 48554 81030
                   333 59001 81360=
201604120000 AAXX 12004 67665 42980 11203 10152 20129 48554 81030
                   333 59003 81360=
201604112100 AAXX 11214 67665 42980 11002 10161 20131 48566 81030
                   333 58003 81360=
201604111500 AAXX 11154 67665 42680 71010 10217 20171 48565 87500
                   333 58008 87632=
201604111200 AAXX 11124 67665 42680 60910 10223 20168 48568 86500
                   333 58008 86630=
201604110900 AAXX 11094 67665 42480 70912 10201 20162 48585 70222 85540
                   333 58007 85615 86459=
201604102100 AAXX 10214 67665 42960 71004 10175 20142 48567 70222 87030
                   333 59007 87360=
201604101800 AAXX 10184 67665 42660 61202 10183 20151 48564 70122 81530
                   333 10225 59002 81645 86360=
201604101500 AAXX 10154 67665 42660 70810 10203 20180 48555 70322 875//
                   333 59009=
201604101200 AAXX 10124 67665 42560 80609 10208 20194 48559 70322 8753/
                   333 59011 87628 88459=
201604100900 AAXX 10094 67665 42560 80710 10188 20173 48577 70322 8777/
                   333 59009=
201604100600 AAXX 10064 67665 12480 71009 10162 20145 48560 60414 70222 8453/
                   333 10214 20//0 58001 84620 86358=
201604091500 AAXX 09154 67665 41360 80708 10163 20155 48558 72055 887//
                   333 58004 88710=
201604090900 AAXX 09094 67665 41356 80907 10156 20156 48583 75856 887//
                   333 58002 88706=
201604090600 AAXX 09064 67665 11356 80807 10159 20159 48567 76666 887//
                   333 59004 88706=
201604081800 AAXX 08184 67665 42980 71006 10179 20160 48563 70222 8707/
                   333 58009 87360=
201604081200 AAXX 08124 67665 42480 80710 10199 20168 48566 70252 885//
                   333 58023 88615=
201604080900 AAXX 08094 67665 42359 80809 10184 20160 48582 887//
                   333 58022 88706=
201604080600 AAXX 08064 67665 42280 80711 10171=
201604080000 AAXX 08004 67665 42980 71011 10182 20153=
201604072100 AAXX 07214 67665 42980 71208 10186 20131=
201604071800 AAXX 07184 67665 42980 71007 10202 20145 48558 70222 8703/ 333=
201604071500 AAXX 07154 67665 42680 50915 10244 20154 70122 83231 333=
201604071200 AAXX 07124 67665 42560 61118 10241 20154 48551 70122 86500 333=
201604070900 AAXX 07094 67665 42460 70919 10224 20178 48567 70222 87500
                   333 58025 87615=
201604070600 AAXX 07064 67665 32460 71010 10187 20164 48553 70222 87500
                   333 10283 20//0 58015 87612=
201604070300 AAXX 07034 67665 42980 00910 10166 20150 48531 70200
                   333 58008=
201604070000 AAXX 07004 67665 42980 00906 10172 20156 48534 70200
                   333 58005=
201604062100 AAXX 06214 67665 42980 01105 10184 20160 48534 70200
                   333 58007=
201604061800 AAXX 06184 67665 42980 11305 10194 20154 48526 70200 81030
                   333 58004 81360=
201604061500 AAXX 06154 67665 42680 30914 10255 20172 48519 70122 83200
                   333 59002 83835=
201604061200 AAXX 06124 67665 42680 41009 10268 20178 48529 70122 84200=
201604060600 AAXX 06064 67665 32980 11205 10189 20131 48539 81030
                   333 59011 81360=
201604060300 AAXX 06034 67665 42980 01404 10162 20142 48523
                   333 59007=
201604052100 AAXX 05214 67665 42980 01104 10184 20149 48528
                   333 59017=
201604051500 AAXX 05154 67665 42680 51204 10246 20176 48520 70222 84202
                   333 59019 84840 82080=
201604051200 AAXX 05124 67665 42580 70504 10249 20178 48536 70222 87200
                   333 59016 87828=
201604050900 AAXX 05094 67665 NIL=
201604041800 AAXX 04184 67665 42780 61006 10202 20186 48541 81932
                   333 59002 81956 83360 85080=
201604041500 AAXX 04154 67665 42580 60910 10229 20214 48536 83532
                   333 58000 83625 83360 85080=
201604041200 AAXX 04124 67665 42360 70914 10229 20229 48549 877//
                   333 58011 87709=
201604040900 AAXX 04094 67665 42360 61013 10231 20198 48569 70128 86771=
201604031800 AAXX 03184 67665 42659 61105 10203 20190 48543 8197/
                   333 58023 81950 85459=
201604031200 AAXX 03124 67665 42680 51005 10265 20174 48543 70222 85230
                   333 58028 85835 83360=
201604030900 AAXX 03094 67665 42580 61212 10244 20174 48571 70222 84530
                   333 58034 84625 85360=
201604030600 AAXX 03064 67665 32580 71006 10207 20173 48558 70222 8157/
                   333 10317 20//0 58030 81625 87359=
201604020600 AAXX 02064 67665 42980 11003 10215 20186 48532 80001
                   333 10300 20//0 59001 81080=
201604011200 AAXX 01124 67665 42680 41306 10282 20194 48508 70310 84201
                   333 59012 84838 81080=
201604010900 AAXX 01094 67665 42680 10707 10262 20187 48535 81100
                   333 59013 81830=
201604010600 AAXX 01064 67665 NIL=

################################################################################
#  SYNOPS from 67666, Lusaka City Airport (Zambia) | 15-25-00S | 028-28-00E | 1280 m
################################################################################
201604291200 AAXX 29124 67666 42580 60905 10260 20153 48511 86200
                   333 59007 86830 91017=
201604290900 AAXX 29094 67666 NIL=
201604290600 AAXX 29064 67666 32980 50904 10210 20146 48530 85030
                   333 10260 20/// 59014 85360=
201604281200 AAXX 28124 67666 42680 31006 10255 20143 48518 83200
                   333 59024 83830 91018=
201604280900 AAXX 28094 67666 42580 11006 10230 20152 48545 81100
                   333 59009 81820 91021=
201604280600 AAXX 28064 67666 32980 41203 10180 20139 48540 80001
                   333 10251 20/// 59014 84080 91021=
201604270900 AAXX 27094 67666 NIL=
201604270600 AAXX 27064 67666 32459 31007 10177 20150 48552 70310 83530
                   333 10259 20//0 58005 83616 82359 91023=
201604250600 AAXX 25064 67666 42980 00906 10183 20151 48537
                   333 10275 20/// 59003 91021=
201604220900 AAXX 22094 67666 NIL=
201604220600 AAXX 22064 67666 32980 01305 10210 20124 48542
                   333 10280 20//0 59004 91021=
201604210900 AAXX 21094 67666 NIL=
201604210600 AAXX 21064 67666 32980 01306 10210 20137 48546
                   333 10270 20/// 59007 91021=
201604200600 AAXX 20064 67666 32980 00908 10204 20133 48552
                   333 10288 20/// 59001 91022=
201604150600 AAXX 15064 67666 32980 01008 10190 20161 48562
                   333 10266 20/// 58011 91024=
201604141200 AAXX 14124 67666 NIL=
201604140900 AAXX 14094 67666 NIL=
201604140600 AAXX 14064 67666 32480 40908 10185 20161 48552 70300 84500
                   333 10250 20/// 59009=
201604130900 AAXX 13094 67666 NIL=
201604130600 AAXX 13064 67666 32480 60907 10180 20156 48559 86530
                   333 10239 20/// 59010=
201604110600 AAXX 11064 67666 32380 80910 10170 20154 48570 886//
                   333 10265 20/// 58008 88709=
201604080600 AAXX 08064 67666 NIL=
201604050900 AAXX 05094 67666 NIL=
201604040600 AAXX 04064 67666 32480 80809 10203 20193 48558 60084 8477/
                   333 10270 20//0 58005 84708 91023=
201604010600 AAXX 01064 67666 32970 00000 10211 20181 48521
                   333 10291 20/// 59009 91019=

################################################################################
#  SYNOPS from 67667, Mount Makulu (Zambia) | 15-33S | 028-15E | 1213 m
################################################################################
201604290900 AAXX 29094 67667 NIL=
201604290600 AAXX 29064 67667 32980 70906 10220 20134 48/// 80008
                   333 10275 20165 59018=
201604280600 AAXX 28064 67667 32980 00904 10190 20145 48///
                   333 10255 20105 59010=
201604270900 AAXX 27094 67667 NIL=
201604260600 AAXX 26064 67667 32980 10910 10200 20150 48/// 80001
                   333 10255 20100 58007 81080=
201604250600 AAXX 25064 67667 32580 10905 10199 20136 48/// 81100
                   333 10285 20115 58003=
201604220900 AAXX 22094 67667 NIL=
201604220600 AAXX 22064 67667 32980 10903 10218 20110 48/// 80001
                   333 10300 20150 59007=
201604210900 AAXX 21094 67667 NIL=
201604210600 AAXX 21064 67667 32980 13607 10226 20119 48/// 80001
                   333 10285 20160 59006=
201604200600 AAXX 20064 67667 32980 00902 10210 20134 48///
                   333 10285 20110 58000=
201604141200 AAXX 14124 67667 NIL=
201604140900 AAXX 14094 67667 NIL=
201604140600 AAXX 14064 67667 32580 40903 10200 20165 48/// 87500
                   333 10255 20150 59008=
201604130900 AAXX 13094 67667 NIL=
201604130600 AAXX 13064 67667 32580 61203 10193 20169 48/// 86500
                   333 10251 20124 59012 86625=
201604120600 AAXX 12064 67667 12580 80906 10190 20150 48/// 885//
                   333 10240 20136 58002=
201604080600 AAXX 08064 67667 NIL=
201604070600 AAXX 07064 67667 32580 70903 10200 20161 48/// 87502
                   333 10272 20150 58020 87625=
201604060600 AAXX 06064 67667 12580 20910 10215 20176 48/// 60014 82501
                   333 10260 20170 59010=
201604050900 AAXX 05094 67667 NIL=
201604050600 AAXX 05064 67667 12580 40915 10220 20176 48/// 60014 84502
                   333 10364 20175 59017 84625 83080=
201604040600 AAXX 04064 67667 11580 71104 10205 20198 48/// 60054 72162 87502
                   333 10280 20176 59004 87625 83080=
201604010600 AAXX 01064 67667 32980 2//// 10230 20160 48/// 80001
                   333 10291 20155 59010=

################################################################################
#  SYNOPS from 67673, Petauke (Zambia) | 14-15S | 031-17E | 1035 m
################################################################################
201604291200 AAXX 29124 67673 42684 50000 10290 20169 48528 85230
                   333 59011 85830 83360=
201604290900 AAXX 29094 67673 42684 53602 10270 20173 48546 85200
                   333 59016 85830=
201604290600 AAXX 29064 67673 32584 43602 10250 20172 48547 82130
                   333 10//0 20186 59022 82828 84360=
201604280900 AAXX 28094 67673 42684 30902 10276 20138 48564 81131
                   333 59021 81835 82360 81080=
201604280600 AAXX 28064 67673 32984 40902 10225 20145 48567 84030
                   333 10/// 20155 59011=
201604270900 AAXX 27094 67673 NIL=
201604250600 AAXX 25064 67673 NIL=
201604220900 AAXX 22094 67673 42984 00802 10300 20100 48558
                   333 59006=
201604220600 AAXX 22064 67673 32584 10401 10250 20141 48565 81100
                   333 10/// 20160 58004 81828=
201604210900 AAXX 21094 67673 NIL=
201604210600 AAXX 21064 67673 32980 00000 10256 20134 48561
                   333 10//0 20155 59006=
201604200600 AAXX 20064 67673 32980 00901 10230 20160 48564
                   333 10//0 20155 59011=
201604180900 AAXX 18094 67673 42684 40902 10270 20183 48583 84200
                   333 5//// 84832=
201604141200 AAXX 14124 67673 NIL=
201604140900 AAXX 14094 67673 NIL=
201604130900 AAXX 13094 67673 NIL=
201604110600 AAXX 11064 67673 32580 71305 10200 20168 48582 83530
                   333 10/// 20168 59001 83625=
201604081200 AAXX 08124 67673 42580 80804 10208 20152 48573 885//
                   333 58026 88630=
201604080600 AAXX 08064 67673 NIL=
201604050900 AAXX 05094 67673 42684 50502 10255 20178 48563 85100
                   333 59015 85830=
201604041200 AAXX 04124 67673 42684 50902 10275 20177 48551 82831
                   333 58012 84835 84635 85360=
201604040600 AAXX 04064 67673 42684 50902 10275 20177 48551 82831
                   333 58012 84835 84635 85360 81080=
201604011200 AAXX 01124 67673 42684 50000 10288 20167 48524 85200
                   333 59009 85835=
201604010600 AAXX 01064 67673 32984 00901 10240 20195 48540
                   333 10/// 20170 59012=

################################################################################
#  SYNOPS from 67731, Senanga (Zambia) | 16-06S | 023-16E | 1027 m
################################################################################
201604290900 AAXX 29094 67731 NIL=
201604290600 AAXX 29064 67731 32980 418// 10233 20150 48/// 70322 84030
                   333 10309 20182 59015=
201604270900 AAXX 27094 67731 NIL=
201604270600 AAXX 27064 67731 32980 005// 10227 20161 48///
                   333 10302 20134 58001=
201604260600 AAXX 26064 67731 32980 033// 10226 20137 48///
                   333 10297 20126 58008=
201604250600 AAXX 25064 67731 31978 018// 10216 20128 48/// 70500
                   333 10300 20137 58001=
201604220900 AAXX 22094 67731 NIL=
201604220600 AAXX 22064 67731 32980 412// 10241 20163 48/// 70222 84030
                   333 10312 20169 58001=
201604210900 AAXX 21094 67731 NIL=
201604210600 AAXX 21064 67731 32980 309// 10237 20157 48/// 70222 80008
                   333 10306 20162 59001 83280=
201604200600 AAXX 20064 67731 32980 119// 10215 20160 48/// 70200 80001
                   333 10314 20166 58003 81080=
201604150600 AAXX 15064 67731 32980 016// 10228 20150 48///
                   333 10300 20153 58003=
201604141200 AAXX 14124 67731 NIL=
201604140900 AAXX 14094 67731 NIL=
201604140600 AAXX 14064 67731 32980 010// 10226 20153 48/// 70000
                   333 10308 20164 59007=
201604130900 AAXX 13094 67731 NIL=
201604130600 AAXX 13064 67731 32980 033// 10236 20153 48/// 70000
                   333 10304 20156 59017=
201604080600 AAXX 08064 67731 NIL=
201604070600 AAXX 07064 67731 12980 110// 10229 20185 48/// 60014 70200 80008
                   333 10308 20179=
201604050900 AAXX 05094 67731 NIL=
201604010600 AAXX 01064 67731 32980 412// 10247 20192 48/// 70222 84030
                   333 10332 20200 59002=

################################################################################
#  SYNOPS from 67741, Sesheke (Zambia) | 17-28S | 024-18E | 949 m
################################################################################
201604290900 AAXX 29094 67741 NIL=
201604280600 AAXX 28064 67741 32980 00901 10192 20147 48542
                   333 10303 20116 58012=
201604270900 AAXX 27094 67741 NIL=
201604270600 AAXX 27064 67741 32980 00000 10177 20135 48549
                   333 10302 20111 58006=
201604250600 AAXX 25064 67741 32980 00601 10204 20138 48544
                   333 10330 20111 5////=
201604220900 AAXX 22094 67741 NIL=
201604210900 AAXX 21094 67741 NIL=
201604210600 AAXX 21064 67741 32980 13601 10224 20156 48538 80001
                   333 10338 20159 59001 81080=
201604150600 AAXX 15064 67741 32980 01001 10193 20151 48561
                   333 10301 20117 58005=
201604141200 AAXX 14124 67741 NIL=
201604140900 AAXX 14094 67741 NIL=
201604140600 AAXX 14064 67741 32980 00701 10226 20179 48569
                   333 10302 20120 59008=
201604130900 AAXX 13094 67741 NIL=
201604130600 AAXX 13064 67741 32980 10901 10/// 20180 48565 81030
                   333 10298 20145 5////=
201604110600 AAXX 11064 67741 32980 10000 10185 20167 48577 81030
                   333 10262 20124 58015=
201604080600 AAXX 08064 67741 NIL=
201604070600 AAXX 07064 67741 32680 20906 10235 20178 48550 82530
                   333 10301 20196 58016 82640=
201604050900 AAXX 05094 67741 NIL=
201604040600 AAXX 04064 67741 32680 10601 10251 20201 48564 81530
                   333 10333 20196 5//// 81645 81362=
201604010600 AAXX 01064 67741 32680 53601 10243 20193 48523 81201
                   333 10333 20192 59006 81850 85080=

################################################################################
#  SYNOPS from 67743, Livingstone (Zambia) | 17-49S | 025-49E | 985 m
################################################################################
201604290900 AAXX 29094 67743 NIL=
201604280600 AAXX 28064 67743 32980 01108 10189 20115 48540
                   333 10304 20152 58016 91021=
201604270900 AAXX 27094 67743 NIL=
201604270600 AAXX 27064 67743 32980 01404 10198 20114 48558
                   333 10315 20131 58007 91023=
201604250600 AAXX 25064 67743 NIL=
201604220900 AAXX 22094 67743 NIL=
201604220600 AAXX 22064 67743 32980 10000 10210 20126 48537 80001
                   333 10335 20140 58001 81080 91020=
201604210900 AAXX 21094 67743 NIL=
201604141200 AAXX 14124 67743 NIL=
201604140900 AAXX 14094 67743 NIL=
201604140600 AAXX 14064 67743 32980 01305 10186 20128 48554 70200
                   333 10313 20147 59011 91022=
201604130900 AAXX 13094 67743 NIL=
201604130600 AAXX 13064 67743 32480 11206 10200 20157 48566 70200 81530
                   333 10283 20138 59010=
201604110600 AAXX 11064 67743 32480 51304 10171 20150 48573 72842 84530
                   333 10269 20140 58015 84610 85358 91025=
201604080600 AAXX 08064 67743 NIL=
201604050900 AAXX 05094 67743 NIL=
201604010600 AAXX 01064 67743 NIL=

################################################################################
#  SYNOPS from 67751, Magoye (Zambia) | 16-00S | 027-36E | 1018 m
################################################################################
201604290900 AAXX 29094 67751 NIL=
201604280600 AAXX 28064 67751 32980 10904 10132 20132 48/// 81030
                   333 10/// 20128 5////=
201604270900 AAXX 27094 67751 NIL=
201604260600 AAXX 26064 67751 32980 10409 10195 20100 48/// 81030
                   333 10/// 20110 5////=
201604250600 AAXX 25064 67751 NIL=
201604220900 AAXX 22094 67751 NIL=
201604210900 AAXX 21094 67751 NIL=
201604200600 AAXX 20064 67751 32980 00802 10209 20151 48///
                   333 10//0 20135 5////=
201604150600 AAXX 15064 67751 32980 01302 10216 20176 48///
                   333 10//0 20134 5////=
201604141200 AAXX 14124 67751 NIL=
201604140900 AAXX 14094 67751 NIL=
201604130900 AAXX 13094 67751 NIL=
201604130600 AAXX 13064 67751 32980 40807 10196 20176 48/// 81100
                   333 10/// 20133 5////=
201604080600 AAXX 08064 67751 NIL=
201604060600 AAXX 06064 67751 32980 01602 10220 20185 48///
                   333 10//0 20156 5////=
201604050900 AAXX 05094 67751 NIL=
201604010600 AAXX 01064 67751 32980 10000 10216 20197 48/// 80001
                   333 10/// 20152 58007 81080=

################################################################################
#  SYNOPS from 67753, Choma (Zambia) | 16-50S | 027-04E | 1213 m
################################################################################
201604290900 AAXX 29094 67753 NIL=
201604280600 AAXX 28064 67753 32960 41704 10172 20137 48536 84030
                   333 10259 20144 59015=
201604270900 AAXX 27094 67753 NIL=
201604270600 AAXX 27064 67753 32960 40802 10166 20143 48555 84030
                   333 10264 20121 58004 84360=
201604260600 AAXX 26064 67753 32960 11008 10192 20125 48548 80001
                   333 10259 20096 5////=
201604250600 AAXX 25064 67753 32960 00000 10187 20122 48///
                   333 10285 20131 5////=
201604220900 AAXX 22094 67753 NIL=
201604210900 AAXX 21094 67753 31960 00000 10197 20147 48/// 70500
                   333 10284 20110 5////=
201604210600 AAXX 21064 67753 31960 00000 10197 20147 48/// 70500
                   333 10284 20110 5////=
201604200600 AAXX 20064 67753 31960 00000 10198 20148 48549 70500
                   333 10285 20131 59002=
201604150600 AAXX 15064 67753 31560 50000 10191 20180 48557 70500 85800
                   333 10257 20136 5////=
201604141200 AAXX 14124 67753 NIL=
201604140900 AAXX 14094 67753 NIL=
201604140600 AAXX 14064 67753 31560 60000 10180 20176 48/// 70500 8650/
                   333 10259 20132 5////=
201604130900 AAXX 13094 67753 NIL=
201604130600 AAXX 13064 67753 31560 10000 10190 20169 48557 70500 81100
                   333 10240 20130=
201604110600 AAXX 11064 67753 11560 80000 10167 20165 48/// 60014 75052 8253/
                   333 10215 20127 5//// 82620 86360=
201604080600 AAXX 08064 67753 12560 81421 10147 20135 48573 60014 8352/
                   333 10249 2//// 5////=
201604050900 AAXX 05094 67753 NIL=
201604040600 AAXX 04064 67753 11360 70000 10200 20195 48/// 60124 72160 8262/
                   333 10281 20184=
201604010600 AAXX 01064 67753 32960 13504 10299 20189 48521 80001
                   333 10299 20155 5////=

################################################################################
#  SYNOPS from 67855, Lupaki (Zambia) | 17-03-00S | 024-46-00E | 1000 m
################################################################################
201605010600 AAXX 01064 67855 32975 00604 10174 20116 3//// 48///
                   333 20090 5////=
201604301800 AAXX 30184 67855 NIL=
201604301200 AAXX 30124 67855 NIL=
201604300600 AAXX 30064 67855 32975 00000 10148 20110 3//// 48///
                   333 20090 5////=
201604291800 AAXX 29184 67855 NIL=
201604291200 AAXX 29124 67855 NIL=
201604290600 AAXX 29064 67855 31970 00000 10150 20125 3//// 48/// 70500
                   333 20105 5////=
201604281800 AAXX 28184 67855 NIL=
201604281200 AAXX 28124 67855 42975 00603 10296 20083 3//// 48///
                   333 5////=
201604280600 AAXX 28064 67855 31970 00502 10120 20103 3//// 48/// 70500
                   333 20165 5////=
201604271800 AAXX 27184 67855 NIL=
201604271200 AAXX 27124 67855 42675 51401 10272 20129 3//// 48/// 85500
                   333 5//// 85640=
201604270600 AAXX 27064 67855 31970 00605 10182 20148 3//// 48/// 70500
                   333 20132 5////=
201604261800 AAXX 26184 67855 NIL=
201604261200 AAXX 26124 67855 NIL=
201604260600 AAXX 26064 67855 31970 02001 10152 20114 3//// 48/// 70500
                   333 20105 5////=
201604251800 AAXX 25184 67855 NIL=
201604251200 AAXX 25124 67855 42775 50604 10308 20148 3//// 48/// 85500
                   333 5//// 85650=
201604250600 AAXX 25064 67855 31970 10701 10184 20158 3//// 48/// 70500 81030
                   333 20150 5//// 81360=
201604241800 AAXX 24184 67855 NIL=
201604241200 AAXX 24124 67855 NIL=
201604240600 AAXX 24064 67855 31570 11701 10160 20123 3//// 48/// 70500 81501
                   333 20118 5//// 81620=
201604231800 AAXX 23184 67855 NIL=
201604231200 AAXX 23124 67855 41770 42002 10336 20133 3//// 48/// 70500 84200
                   333 5//// 84856=
201604230600 AAXX 23064 67855 NIL=
201604221800 AAXX 22184 67855 NIL=
201604221200 AAXX 22124 67855 NIL=
201604220600 AAXX 22064 67855 31970 00000 10168 20135 3//// 48/// 70500
                   333 20128 5////=
201604211800 AAXX 21184 67855 NIL=
201604211200 AAXX 21124 67855 41770 10000 10326 20108 3//// 48/// 70500 81100
                   333 5//// 81856=
201604210600 AAXX 21064 67855 31970 00000 10158 20143 3//// 48/// 70500
                   333 20130 5////=
201604201200 AAXX 20124 67855 42775 30401 10314 20112 3//// 48/// 83101
                   333 5//// 83850 83080=
201604200600 AAXX 20064 67855 31970 00000 10174 20143 3//// 48/// 70500
                   333 20123 5////=
201604191800 AAXX 19184 67855 NIL=
201604191200 AAXX 19124 67855 42775 10704 10310 20115 3//// 48/// 81100
                   333 5//// 81850=
201604190600 AAXX 19064 67855 32975 00000 10176 20150 3//// 48///
                   333 20125 5////=
201604181800 AAXX 18184 67855 NIL=
201604181200 AAXX 18124 67855 42775 20301 10320 20163 3//// 48/// 82100
                   333 5//// 82850=
201604180600 AAXX 18064 67855 NIL=
201604171800 AAXX 17184 67855 NIL=
201604171200 AAXX 17124 67855 NIL=
201604170600 AAXX 17064 67855 32975 20203 10196 20163 3//// 48/// 82030
                   333 20151 5//// 81360=
201604161800 AAXX 16184 67855 NIL=
201604161200 AAXX 16124 67855 42775 30302 10302 20146 3//// 48/// 83100
                   333 5//// 83850=
201604160600 AAXX 16064 67855 31970 00401 10196 20165 3//// 48/// 70500
                   333 20156 5////=
201604151200 AAXX 15124 67855 42775 42002 10302 20150 3//// 48/// 84200
                   333 5//// 84850=
201604150600 AAXX 15064 67855 31970 00902 10172 20144 3//// 48/// 70500
                   333 20126 5////=
201604141800 AAXX 14184 67855 NIL=
201604141200 AAXX 14124 67855 42775 13601 10288 20123 3//// 48/// 81100
                   333 5//// 81850=
201604140600 AAXX 14064 67855 31970 01801 10134 20119 3//// 48/// 70500
                   333 20100 5////=
201604131800 AAXX 13184 67855 NIL=
201604131200 AAXX 13124 67855 41770 10703 10296 20113 3//// 48/// 70500 81100
                   333 5//// 81850=
201604130600 AAXX 13064 67855 31970 03501 10162 20128 3//// 48/// 70500
                   333 20125 5////=
201604120600 AAXX 12064 67855 32975 01001 10172 20156 3//// 48///
                   333 20134 5////=
201604111800 AAXX 11184 67855 NIL=
201604111200 AAXX 11124 67855 42775 53603 10284 20148 3//// 48/// 84200
                   333 5//// 84850=
201604110600 AAXX 11064 67855 32575 11702 10162 20152 3//// 48/// 81500
                   333 20124 5//// 81620=
201604101800 AAXX 10184 67855 NIL=
201604101200 AAXX 10124 67855 NIL=
201604100600 AAXX 10064 67855 32575 10801 10150 20143 3//// 48/// 81500
                   333 20124 5//// 81620=
201604091800 AAXX 09184 67855 NIL=
201604091200 AAXX 09124 67855 41675 81101 10208 20159 3//// 48/// 70252 8857/
                   333 5//// 85630 88360=
201604090600 AAXX 09064 67855 11580 71201 10160 20151 3//// 48/// 60184 75165 875//
                   333 20150 5//// 87620=
201604081800 AAXX 08184 67855 NIL=
201604081200 AAXX 08124 67855 42975 81301 10244 20148 3//// 48/// 8807/
                   333 5//// 88360=
201604080600 AAXX 08064 67855 11368 71515 10143 20123 38762 48580 69904 75052 875//
                   333 20082=
201604071800 AAXX 07184 67855 NIL=
201604071200 AAXX 07124 67855 42675 71407 10252 20139 3//// 48/// 83570
                   333 5//// 83635 87360=
201604070600 AAXX 07064 67855 12575 31110 10186 20118 3//// 48/// 69904 81530
                   333 20166 5//// 81620 83360=
201604061800 AAXX 06184 67855 NIL=
201604061200 AAXX 06124 67855 41670 71902 10256 20184 3//// 48/// 79598 85273
                   333 5//// 81930=
201604060600 AAXX 06064 67855 11975 70000 10204 20195 3//// 48/// 70262 8707/
                   333 20198 5//// 87360=
201604051200 AAXX 05124 67855 NIL=
201604050600 AAXX 05064 67855 12975 60403 10204 20193 3//// 48/// 60064 86070
                   333 20195 5//// 86360=
201604041800 AAXX 04184 67855 NIL=
201604041200 AAXX 04124 67855 41670 61001 10268 20210 3//// 48/// 75152 85530
                   333 5//// 85630 83360=
201604040600 AAXX 04064 67855 12975 61401 10208 20203 3//// 48/// 60104 86071
                   333 20179 5//// 86360=
201604031800 AAXX 03184 67855 NIL=
201604031200 AAXX 03124 67855 42775 41403 10332 20159 3//// 48/// 84230
                   333 5//// 84856=
201604030600 AAXX 03064 67855 31970 00301 10180 20131 3//// 48/// 70500
                   333 20130 5////=
201604021800 AAXX 02184 67855 NIL=
201604021200 AAXX 02124 67855 42775 21901 10326 20125 3//// 48/// 82100
                   333 5//// 82856=
201604020600 AAXX 02064 67855 31970 10000 10188 20154 3//// 48/// 70500 80001
                   333 20150 5//// 81080=
201604011800 AAXX 01184 67855 NIL=
201604011200 AAXX 01124 67855 42775 51801 10310 20123 3//// 48/// 82102
                   333 5//// 82856 85080=
201604010600 AAXX 01064 67855 31970 10000 10186 20153 3//// 48/// 70500 80001
                   333 20141 5//// 81080=
