################################################################################
# Query made at 04/14/2022 12:12:35 UTC
# Country like Zamb*
# Time interval: from 04/01/2013 05:30  to 05/01/2013 06:30  UTC
################################################################################

################################################################################
#  SYNOPS from 67403, Kawambwa (Zambia) | 09-48S | 029-05E | 1323 m
################################################################################
201305010600 AAXX 01064 67403 NIL=
201305010300 AAXX 01034 67403 NIL=
201305010000 AAXX 01004 67403 NIL=
201304302100 AAXX 30214 67403 NIL=
201304301800 AAXX 30184 67403 NIL=
201304301500 AAXX 30154 67403 NIL=
201304301200 AAXX 30124 67403 NIL=
201304300900 AAXX 30094 67403 NIL=
201304300300 AAXX 30034 67403 NIL=
201304300000 AAXX 30004 67403 NIL=
201304291800 AAXX 29184 67403 NIL=
201304291500 AAXX 29154 67403 NIL=
201304290900 AAXX 29094 67403 NIL=
201304290000 AAXX 29004 67403 NIL=
201304281500 AAXX 28154 67403 NIL=
201304280900 AAXX 28094 67403 NIL=
201304280600 AAXX 28064 67403 NIL=
201304280300 AAXX 28034 67403 NIL=
201304280000 AAXX 28004 67403 NIL=
201304271800 AAXX 27184 67403 NIL=
201304271500 AAXX 27154 67403 NIL=
201304270300 AAXX 27034 67403 NIL=
201304262100 AAXX 26214 67403 NIL=
201304260000 AAXX 26004 67403 NIL=
201304251800 AAXX 25184 67403 NIL=
201304251200 AAXX 25124 67403 NIL=
201304250900 AAXX 25094 67403 NIL=
201304250600 AAXX 25064 67403 12580 71004 10190 20167 48549 60024 82530
                   333 10296 20/// 58017 82620 85362=
201304231200 AAXX 23121 67403 NIL=
201304230600 AAXX 23064 67403 32980 30000 10210 20166 48521 80001
                   333 10310 20//0 59011 83080=
201304230300 AAXX 23034 67403 NIL=
201304230000 AAXX 23004 67403 NIL=
201304222100 AAXX 22214 67403 NIL=
201304221500 AAXX 22154 67403 NIL=
201304220900 AAXX 22094 67403 NIL=
201304220600 AAXX 22064 67403 32980 30000 10212 20162 48541 80001
                   333 10307 20//0 59011 83080=
201304220000 AAXX 22004 67403 NIL=
201304211800 AAXX 21184 67403 NIL=
201304211500 AAXX 21154 67403 NIL=
201304211200 AAXX 21121 67403 NIL=
201304210900 AAXX 21094 67403 NIL=
201304210000 AAXX 21004 67403 NIL=
201304202100 AAXX 20214 67403 NIL=
201304201500 AAXX 20154 67403 NIL=
201304201200 AAXX 20120 67403 NIL=
201304200300 AAXX 20034 67403 NIL=
201304200000 AAXX 20004 67403 NIL=
201304191800 AAXX 19184 67403 NIL=
201304191500 AAXX 19154 67403 NIL=
201304190900 AAXX 19094 67403 NIL=
201304181800 AAXX 18184 67403 NIL=
201304181500 AAXX 18154 67403 NIL=
201304181200 AAXX 18124 67403 NIL=
201304180900 AAXX 18094 67403 NIL=
201304180300 AAXX 18034 67403 NIL=
201304180000 AAXX 18004 67403 NIL=
201304171800 AAXX 17184 67403 NIL=
201304171200 AAXX 17124 67403 NIL=
201304170900 AAXX 17094 67403 NIL=
201304170600 AAXX 17061 67403 32980 31401 10175 20151 48538 81031
                   333 10280 20//0 59002 81362 82080=
201304170000 AAXX 17004 67403 NIL=
201304161500 AAXX 16154 67403 NIL=
201304160300 AAXX 16034 67403 NIL=
201304160000 AAXX 16004 67403 NIL=
201304152100 AAXX 15214 67403 NIL=
201304151800 AAXX 15184 67403 NIL=
201304151500 AAXX 15154 67403 NIL=
201304151200 AAXX 15124 67403 NIL=
201304150000 AAXX 15004 67403 NIL=
201304142100 AAXX 14214 67403 NIL=
201304141800 AAXX 14184 67403 NIL=
201304141500 AAXX 14154 67403 NIL=
201304140600 AAXX 14060 67403 NIL=
201304140300 AAXX 14034 67403 NIL=
201304140000 AAXX 14004 67403 NIL=
201304132100 AAXX 13214 67403 NIL=
201304131800 AAXX 13184 67403 NIL=
201304131500 AAXX 13154 67403 NIL=
201304131200 AAXX 13120 67403 NIL=
201304130300 AAXX 13034 67403 NIL=
201304130000 AAXX 13004 67403 NIL=
201304122100 AAXX 12214 67403 NIL=
201304121800 AAXX 12184 67403 NIL=
201304121500 AAXX 12154 67403 NIL=
201304121200 AAXX 12124 67403 NIL=
201304120900 AAXX 12094 67403 NIL=
201304120600 AAXX 12064 67403 12580 60000 10193 20185 48530 60214 82532
                   333 10290 20/// 59001 82620 84362 83080=
201304090600 AAXX 09064 67403 32980 40000 10212 20178 48541 84030
                   333 10295 20//0 58003 84362=
201304090300 AAXX 09034 67403 NIL=
201304090000 AAXX 09004 67403 NIL=
201304081800 AAXX 08184 67403 NIL=
201304081500 AAXX 08154 67403 NIL=
201304080900 AAXX 08094 67403 NIL=
201304080600 AAXX 08061 67403 32480 61002 10197 20187 48540 83531
                   333 10285 20//0 59008 83618 82362 81080=
201304080300 AAXX 08034 67403 NIL=
201304080000 AAXX 08004 67403 NIL=
201304072100 AAXX 07214 67403 NIL=
201304071800 AAXX 07184 67403 NIL=
201304071500 AAXX 07154 67403 NIL=
201304071200 AAXX 07120 67403 NIL=
201304070900 AAXX 07094 67403 NIL=
201304070600 AAXX 07061 67403 NIL=
201304070300 AAXX 07034 67403 NIL=
201304070000 AAXX 07004 67403 NIL=
201304062100 AAXX 06214 67403 NIL=
201304061500 AAXX 06154 67403 NIL=
201304061200 AAXX 06120 67403 NIL=
201304060900 AAXX 06094 67403 NIL=
201304060600 AAXX 06064 67403 NIL=
201304060300 AAXX 06034 67403 NIL=
201304060000 AAXX 06004 67403 NIL=
201304051800 AAXX 05184 67403 NIL=
201304051200 AAXX 05124 67403 NIL=
201304050900 AAXX 05094 67403 NIL=
201304050600 AAXX 05064 67403 32980 70000 10202 20184 48530 82038
                   333 10307 20//0 59006 82362 86280=
201304050300 AAXX 05034 67403 NIL=
201304050000 AAXX 05004 67403 NIL=
201304041800 AAXX 04184 67403 NIL=

################################################################################
#  SYNOPS from 67413, Mbala (Zambia) | 08-51S | 031-20E | 1673 m
################################################################################
201305010600 AAXX 01064 67413 NIL=
201305010300 AAXX 01034 67413 NIL=
201305010000 AAXX 01004 67413 NIL=
201304302100 AAXX 30214 67413 NIL=
201304301800 AAXX 30184 67413 NIL=
201304301500 AAXX 30154 67413 NIL=
201304301200 AAXX 30124 67413 NIL=
201304300900 AAXX 30094 67413 NIL=
201304300600 AAXX 30064 67413 32980 41107 10195 20147 48549 81045
                   333 10270 20/// 58005 81358 83078 91025=
201304300300 AAXX 30034 67413 NIL=
201304300000 AAXX 30004 67413 NIL=
201304291800 AAXX 29184 67413 NIL=
201304291500 AAXX 29154 67413 NIL=
201304290900 AAXX 29094 67413 NIL=
201304290600 AAXX 29064 67413 32480 51508 10170 20146 48544 81538
                   333 10260 20/// 58006 81610 84357 85277
                   555 00/// 91029=
201304290000 AAXX 29004 67413 NIL=
201304281500 AAXX 28154 67413 NIL=
201304280900 AAXX 28094 67413 NIL=
201304280600 AAXX 28064 67413 NIL=
201304280300 AAXX 28034 67413 NIL=
201304280000 AAXX 28004 67413 NIL=
201304271800 AAXX 27184 67413 NIL=
201304271500 AAXX 27154 67413 NIL=
201304270300 AAXX 27034 67413 NIL=
201304262100 AAXX 26214 67413 NIL=
201304260000 AAXX 26004 67413 NIL=
201304251800 AAXX 25184 67413 NIL=
201304251200 AAXX 25124 67413 NIL=
201304250900 AAXX 25094 67413 NIL=
201304250600 AAXX 25064 67413 32380 40112 10190 20150 48557 84600
                   333 10275 20/// 58018 84709 91025=
201304231200 AAXX 23121 67413 NIL=
201304230600 AAXX 23064 67413 32980 61310 10215 20152 48525 80005
                   333 10280 20/// 59006 86080 91022=
201304230300 AAXX 23034 67413 NIL=
201304230000 AAXX 23004 67413 NIL=
201304222100 AAXX 22214 67413 NIL=
201304221500 AAXX 22154 67413 NIL=
201304220900 AAXX 22094 67413 NIL=
201304220600 AAXX 22064 67413 32980 31208 10210 20163 48532 80001
                   333 10275 20/// 59001 83080
                   555 00///=
201304220000 AAXX 22004 67413 NIL=
201304211800 AAXX 21184 67413 NIL=
201304211500 AAXX 21154 67413 NIL=
201304211200 AAXX 21121 67413 NIL=
201304210900 AAXX 21094 67413 NIL=
201304210000 AAXX 21004 67413 NIL=
201304202100 AAXX 20214 67413 NIL=
201304201500 AAXX 20154 67413 NIL=
201304201200 AAXX 20120 67413 NIL=
201304200300 AAXX 20034 67413 NIL=
201304200000 AAXX 20004 67413 NIL=
201304191800 AAXX 19184 67413 NIL=
201304191500 AAXX 19154 67413 NIL=
201304190900 AAXX 19094 67413 NIL=
201304190600 AAXX 19064 67413 12980 20912 10195 20164 48523 69954 81031
                   333 10251 20/// 59007 81358 81078
                   555 00/// 91022=
201304181800 AAXX 18184 67413 NIL=
201304181500 AAXX 18154 67413 NIL=
201304181200 AAXX 18124 67413 NIL=
201304180900 AAXX 18094 67413 NIL=
201304180300 AAXX 18034 67413 NIL=
201304180000 AAXX 18004 67413 NIL=
201304171800 AAXX 17184 67413 NIL=
201304171200 AAXX 17124 67413 NIL=
201304170900 AAXX 17094 67413 NIL=
201304170600 AAXX 17064 67413 32980 50107 10175 20150 48534 83072
                   333 10265 20/// 58003 83359 82080
                   555 00/// 91023=
201304170000 AAXX 17004 67413 NIL=
201304161500 AAXX 16154 67413 NIL=
201304160300 AAXX 16034 67413 NIL=
201304160000 AAXX 16004 67413 NIL=
201304152100 AAXX 15214 67413 NIL=
201304151800 AAXX 15184 67413 NIL=
201304151500 AAXX 15154 67413 NIL=
201304151200 AAXX 15124 67413 NIL=
201304150600 AAXX 15064 67413 32480 20412 10165 20130 48545 82200
                   333 10240 20/// 58000 82810
                   555 00/// 91024=
201304150000 AAXX 15004 67413 NIL=
201304142100 AAXX 14214 67413 NIL=
201304141800 AAXX 14184 67413 NIL=
201304141500 AAXX 14154 67413 NIL=
201304140600 AAXX 14060 67413 NIL=
201304140300 AAXX 14034 67413 NIL=
201304140000 AAXX 14004 67413 NIL=
201304132100 AAXX 13214 67413 NIL=
201304131800 AAXX 13184 67413 NIL=
201304131500 AAXX 13154 67413 NIL=
201304131200 AAXX 13120 67413 NIL=
201304130300 AAXX 13034 67413 NIL=
201304130000 AAXX 13004 67413 NIL=
201304122100 AAXX 12214 67413 NIL=
201304121800 AAXX 12184 67413 NIL=
201304121500 AAXX 12154 67413 NIL=
201304121200 AAXX 12124 67413 NIL=
201304120900 AAXX 12094 67413 NIL=
201304120600 AAXX 12064 67413 12580 61207 10195 20179 48541 60214 82535
                   333 10255 20/// 59010 82820 81359 83280
                   555 00/// 91024=
201304090600 AAXX 09064 67413 NIL=
201304090300 AAXX 09034 67413 NIL=
201304090000 AAXX 09004 67413 NIL=
201304081800 AAXX 08184 67413 NIL=
201304081500 AAXX 08154 67413 NIL=
201304080900 AAXX 08094 67413 NIL=
201304080600 AAXX 08060 67413 NIL=
201304080300 AAXX 08034 67413 NIL=
201304080000 AAXX 08004 67413 NIL=
201304072100 AAXX 07214 67413 NIL=
201304071800 AAXX 07184 67413 NIL=
201304071500 AAXX 07154 67413 NIL=
201304071200 AAXX 07120 67413 NIL=
201304070900 AAXX 07094 67413 NIL=
201304070600 AAXX 07061 67413 NIL=
201304070300 AAXX 07034 67413 NIL=
201304070000 AAXX 07004 67413 NIL=
201304062100 AAXX 06214 67413 NIL=
201304061500 AAXX 06154 67413 NIL=
201304061200 AAXX 06120 67413 NIL=
201304060900 AAXX 06094 67413 NIL=
201304060600 AAXX 06064 67413 NIL=
201304060300 AAXX 06034 67413 NIL=
201304060000 AAXX 06004 67413 NIL=
201304051800 AAXX 05184 67413 NIL=
201304051200 AAXX 05124 67413 NIL=
201304050900 AAXX 05094 67413 NIL=
201304050600 AAXX 05064 67413 12980 70000 10175 20160 48544 60024 8707/
                   333 10270 20/// 58007 87359=
201304050300 AAXX 05034 67413 NIL=
201304050000 AAXX 05004 67413 NIL=
201304041800 AAXX 04184 67413 NIL=

################################################################################
#  SYNOPS from 67441, Mwinilunga (Zambia) | 11-45S | 024-26E | 1361 m
################################################################################
201305010600 AAXX 01064 67441 NIL=
201305010300 AAXX 01034 67441 NIL=
201305010000 AAXX 01004 67441 NIL=
201304302100 AAXX 30214 67441 NIL=
201304301800 AAXX 30184 67441 NIL=
201304301500 AAXX 30154 67441 NIL=
201304301200 AAXX 30124 67441 42682 414// 10263 20118 48561 81105
                   333 58019 81835 84280=
201304300900 AAXX 30094 67441 NIL=
201304300600 AAXX 30064 67441 32980 300// 10145 20110 48577 80001
                   333 10270 20/// 58014 83080=
201304300300 AAXX 30034 67441 NIL=
201304300000 AAXX 30004 67441 NIL=
201304291800 AAXX 29184 67441 NIL=
201304291500 AAXX 29154 67441 NIL=
201304290900 AAXX 29094 67441 42982 115// 10240 20134 48569 80001
                   333 5//// 81080=
201304290600 AAXX 29064 67441 32980 10000 10150 20114 48563 80001
                   333 10275 20/// 58005 81080=
201304290000 AAXX 29004 67441 NIL=
201304281500 AAXX 28154 67441 NIL=
201304280900 AAXX 28094 67441 NIL=
201304280600 AAXX 28064 67441 NIL=
201304280300 AAXX 28034 67441 NIL=
201304280000 AAXX 28004 67441 NIL=
201304271800 AAXX 27184 67441 NIL=
201304271500 AAXX 27154 67441 NIL=
201304270300 AAXX 27034 67441 NIL=
201304262100 AAXX 26214 67441 NIL=
201304261200 AAXX 26124 67441 42682 213// 10256 20103 48554 82100
                   333 59013 82835=
201304260900 AAXX 26094 67441 42982 115// 10235 20124 48579 80001
                   333 59011 81080=
201304260000 AAXX 26004 67441 NIL=
201304251800 AAXX 25184 67441 NIL=
201304251200 AAXX 25124 67441 42680 613// 10264 20154 48537 84104
                   333 58028 84835 82080=
201304250900 AAXX 25094 67441 42682 609// 10238 20161 48591 86100
                   333 58021 86835=
201304250600 AAXX 25064 67441 32380 712// 10178 20168 48578 877//
                   333 10295 20/// 58030 87709=
201304231200 AAXX 23121 67441 NIL=
201304230600 AAXX 23064 67441 32680 100// 10192 20176 48542 81134
                   333 10295 20/// 59006 81830 81360 81080=
201304230300 AAXX 23034 67441 NIL=
201304230000 AAXX 23004 67441 NIL=
201304222100 AAXX 22214 67441 NIL=
201304221500 AAXX 22154 67441 NIL=
201304221200 AAXX 22124 67441 42682 515// 10280 20170 48523 82232
                   333 5//// 82840 83360 81280=
201304220900 AAXX 22094 67441 42682 600// 10275 20181 48553 84231
                   333 5//// 82835 84361 81080=
201304220600 AAXX 22064 67441 31980 600// 10180 20177 48547 72844 85031
                   333 10295 20/// 58000 85360 82080=
201304220000 AAXX 22004 67441 NIL=
201304211800 AAXX 21184 67441 NIL=
201304211500 AAXX 21154 67441 NIL=
201304211200 AAXX 21121 67441 NIL=
201304210900 AAXX 21094 67441 NIL=
201304210000 AAXX 21004 67441 NIL=
201304202100 AAXX 20214 67441 NIL=
201304201500 AAXX 20154 67441 NIL=
201304201200 AAXX 20120 67441 NIL=
201304200300 AAXX 20034 67441 NIL=
201304200000 AAXX 20004 67441 NIL=
201304191800 AAXX 19184 67441 NIL=
201304191500 AAXX 19154 67441 NIL=
201304190900 AAXX 19094 67441 42682 30604 10270 20172 48545 82230
                   333 59004 82830 81360=
201304190600 AAXX 19064 67441 11906 00000 10155 20150 48540 69904 74440
                   333 10280 20/// 59007=
201304181800 AAXX 18184 67441 NIL=
201304181500 AAXX 18154 67441 NIL=
201304181200 AAXX 18124 67441 NIL=
201304180900 AAXX 18094 67441 42680 60000 10266 20160 48549 84230
                   333 59006 84830 82360=
201304180600 AAXX 18064 67441 12980 60000 10183 20166 48546 86030
                   333 10285 20/// 59007 86360=
201304180300 AAXX 18034 67441 NIL=
201304180000 AAXX 18004 67441 NIL=
201304171800 AAXX 17184 67441 NIL=
201304171200 AAXX 17124 67441 42680 12902 10266 20140 48530 84130
                   333 59004 84835 87360=
201304170900 AAXX 17094 67441 42680 20000 10255 20155 48555 81101
                   333 59002 81820 82080=
201304170600 AAXX 17064 67441 32960 30000 10185 20177 48553 80005
                   333 10275 20/// 58002 83080
                   555 00///=
201304170000 AAXX 17004 67441 NIL=
201304161500 AAXX 16154 67441 NIL=
201304160900 AAXX 16094 67441 42980 218// 10249 20116 48557 80008
                   333 59011 82280=
201304160600 AAXX 16064 67441 32980 222// 10146 20126 48551 80008
                   333 10285 20/// 59012 82280
                   555 00///=
201304160300 AAXX 16034 67441 NIL=
201304160000 AAXX 16004 67441 NIL=
201304152100 AAXX 15214 67441 NIL=
201304151800 AAXX 15184 67441 NIL=
201304151500 AAXX 15154 67441 NIL=
201304151200 AAXX 15124 67441 NIL=
201304150900 AAXX 15094 67441 42982 015// 10244 20101 48568
                   333 5////=
201304150600 AAXX 15064 67441 32980 10000 10156 20138 48563 80008
                   333 10290 20/// 59007 81280=
201304150000 AAXX 15004 67441 NIL=
201304142100 AAXX 14214 67441 NIL=
201304141800 AAXX 14184 67441 NIL=
201304141500 AAXX 14154 67441 NIL=
201304140600 AAXX 14060 67441 NIL=
201304140300 AAXX 14034 67441 NIL=
201304140000 AAXX 14004 67441 NIL=
201304132100 AAXX 13214 67441 NIL=
201304131800 AAXX 13184 67441 NIL=
201304131500 AAXX 13154 67441 NIL=
201304131200 AAXX 13120 67441 NIL=
201304130300 AAXX 13034 67441 NIL=
201304130000 AAXX 13004 67441 NIL=
201304122100 AAXX 12214 67441 NIL=
201304121800 AAXX 12184 67441 NIL=
201304121500 AAXX 12154 67441 NIL=
201304121200 AAXX 12124 67441 NIL=
201304120900 AAXX 12094 67441 42980 500// 10193 20143 48553 81135
                   333 58007 81835 81360 84080=
201304120600 AAXX 12064 67441 32980 600// 10178 20170 48557 85038
                   333 10290 20/// 58012 85360 82280=
201304090900 AAXX 09094 67441 42680 315// 10267 20168 48561 82130
                   333 59003 82835 81362=
201304090600 AAXX 09064 67441 12980 618// 10189 20185 48555 69994 86030
                   333 10270 20/// 58003 86360=
201304090300 AAXX 09034 67441 NIL=
201304090000 AAXX 09004 67441 NIL=
201304081800 AAXX 08184 67441 NIL=
201304081500 AAXX 08154 67441 NIL=
201304080900 AAXX 08094 67441 42680 615// 10252 20164 48564 81130
                   333 5//// 81830 86360=
201304080600 AAXX 08064 67441 12980 700// 10187 20183 48555 69904 8703/
                   333 10280 20/// 58004 87360=
201304080300 AAXX 08034 67441 NIL=
201304080000 AAXX 08004 67441 NIL=
201304072100 AAXX 07214 67441 NIL=
201304071800 AAXX 07184 67441 NIL=
201304071500 AAXX 07154 67441 NIL=
201304071200 AAXX 07120 67441 NIL=
201304070900 AAXX 07094 67441 NIL=
201304070600 AAXX 07061 67441 NIL=
201304070300 AAXX 07034 67441 NIL=
201304070000 AAXX 07004 67441 NIL=
201304062100 AAXX 06214 67441 NIL=
201304061500 AAXX 06154 67441 NIL=
201304061200 AAXX 06120 67441 NIL=
201304060900 AAXX 06094 67441 NIL=
201304060600 AAXX 06064 67441 NIL=
201304060300 AAXX 06034 67441 NIL=
201304060000 AAXX 06004 67441 NIL=
201304051800 AAXX 05184 67441 NIL=
201304051200 AAXX 05124 67441 NIL=
201304050900 AAXX 05094 67441 NIL=
201304050600 AAXX 05064 67441 32980 709// 10196 20178 48546 8703/
                   333 10310 20/// 59004 87360=
201304050300 AAXX 05034 67441 NIL=
201304050000 AAXX 05004 67441 NIL=
201304041800 AAXX 04184 67441 NIL=

################################################################################
#  SYNOPS from 67461, Mansa (Zambia) | 11-06S | 028-51E | 1382 m
################################################################################
201305010600 AAXX 01064 67461 NIL=
201305010300 AAXX 01034 67461 NIL=
201305010000 AAXX 01004 67461 NIL=
201304302100 AAXX 30214 67461 NIL=
201304301800 AAXX 30184 67461 NIL=
201304301500 AAXX 30154 67461 NIL=
201304301200 AAXX 30124 67461 NIL=
201304300900 AAXX 30094 67461 NIL=
201304300300 AAXX 30034 67461 NIL=
201304300000 AAXX 30004 67461 NIL=
201304291800 AAXX 29184 67461 NIL=
201304291500 AAXX 29154 67461 NIL=
201304290900 AAXX 29094 67461 NIL=
201304290000 AAXX 29004 67461 NIL=
201304281500 AAXX 28154 67461 NIL=
201304280900 AAXX 28094 67461 NIL=
201304280600 AAXX 28064 67461 NIL=
201304280300 AAXX 28034 67461 NIL=
201304280000 AAXX 28004 67461 NIL=
201304271800 AAXX 27184 67461 NIL=
201304271500 AAXX 27154 67461 NIL=
201304270300 AAXX 27034 67461 NIL=
201304262100 AAXX 26214 67461 NIL=
201304260000 AAXX 26004 67461 NIL=
201304251800 AAXX 25184 67461 NIL=
201304251200 AAXX 25124 67461 NIL=
201304250900 AAXX 25094 67461 NIL=
201304250600 AAXX 25064 67461 32580 60913 10198 20170 48544 70322 84530
                   333 10295 20150 58023 84635 83362 91022=
201304231200 AAXX 23121 67461 NIL=
201304230600 AAXX 23064 67461 32980 60802 10207 20180 48515 70222 84031
                   333 10305 20157 59001 84362 83080 91018=
201304230300 AAXX 23034 67461 NIL=
201304230000 AAXX 23004 67461 NIL=
201304222100 AAXX 22214 67461 NIL=
201304221500 AAXX 22154 67461 NIL=
201304220900 AAXX 22094 67461 NIL=
201304220600 AAXX 22064 67461 32980 41302 10210 20180 48517 70200 84031
                   333 10300 20155 59001 84363 82080 91018=
201304220000 AAXX 22004 67461 NIL=
201304211800 AAXX 21184 67461 NIL=
201304211500 AAXX 21154 67461 NIL=
201304211200 AAXX 21121 67461 NIL=
201304210900 AAXX 21094 67461 NIL=
201304210000 AAXX 21004 67461 NIL=
201304202100 AAXX 20214 67461 NIL=
201304201500 AAXX 20154 67461 NIL=
201304201200 AAXX 20120 67461 NIL=
201304200300 AAXX 20034 67461 NIL=
201304200000 AAXX 20004 67461 NIL=
201304191800 AAXX 19184 67461 NIL=
201304191500 AAXX 19154 67461 NIL=
201304190900 AAXX 19094 67461 42680 31902 10280 20180 48518 70200 83230
                   333 59005 83842 81363 91017=
201304181800 AAXX 18184 67461 NIL=
201304181500 AAXX 18154 67461 NIL=
201304181200 AAXX 18124 67461 NIL=
201304180900 AAXX 18094 67461 42680 41802 10275 20191 48522 70300 84200
                   333 59009 84847 91018=
201304180300 AAXX 18034 67461 NIL=
201304180000 AAXX 18004 67461 NIL=
201304171800 AAXX 17184 67461 NIL=
201304171200 AAXX 17124 67461 NIL=
201304170900 AAXX 17094 67461 NIL=
201304170600 AAXX 17060 67461 NIL=
201304170000 AAXX 17004 67461 NIL=
201304161500 AAXX 16154 67461 NIL=
201304160600 AAXX 16064 67461 32980 40803 10170 20149 48526 70200 80001
                   333 10275 20112 59020 84080 91020=
201304160300 AAXX 16034 67461 NIL=
201304160000 AAXX 16004 67461 NIL=
201304152100 AAXX 15214 67461 NIL=
201304151800 AAXX 15184 67461 NIL=
201304151500 AAXX 15154 67461 NIL=
201304151200 AAXX 15124 67461 NIL=
201304150000 AAXX 15004 67461 NIL=
201304142100 AAXX 14214 67461 NIL=
201304141800 AAXX 14184 67461 NIL=
201304141500 AAXX 14154 67461 NIL=
201304140600 AAXX 14060 67461 NIL=
201304140300 AAXX 14034 67461 NIL=
201304140000 AAXX 14004 67461 NIL=
201304132100 AAXX 13214 67461 NIL=
201304131800 AAXX 13184 67461 NIL=
201304131500 AAXX 13154 67461 NIL=
201304131200 AAXX 13120 67461 NIL=
201304130300 AAXX 13034 67461 NIL=
201304130000 AAXX 13004 67461 NIL=
201304122100 AAXX 12214 67461 NIL=
201304121800 AAXX 12184 67461 NIL=
201304121500 AAXX 12154 67461 NIL=
201304121200 AAXX 12124 67461 NIL=
201304120900 AAXX 12094 67461 NIL=
201304120600 AAXX 12064 67461 32580 70807 10200 20176 48526 70322 8157/
                   333 10300 20145 58010 81630 87463 91019=
201304090600 AAXX 09064 67461 NIL=
201304090300 AAXX 09034 67461 NIL=
201304090000 AAXX 09004 67461 NIL=
201304081800 AAXX 08184 67461 NIL=
201304081500 AAXX 08154 67461 NIL=
201304080900 AAXX 08094 67461 42580 31405 10262 20186 48522 83201
                   333 58007 83830 82080 91021=
201304080600 AAXX 08064 67461 32980 11203 10198 20178 48524 80001
                   333 10290 20139 58011 81080
                   555 00/// 20000 91020=
201304080300 AAXX 08034 67461 NIL=
201304080000 AAXX 08004 67461 NIL=
201304072100 AAXX 07214 67461 NIL=
201304071800 AAXX 07184 67461 NIL=
201304071500 AAXX 07154 67461 NIL=
201304071200 AAXX 07120 67461 NIL=
201304070900 AAXX 07094 67461 NIL=
201304070600 AAXX 07061 67461 NIL=
201304070300 AAXX 07034 67461 NIL=
201304070000 AAXX 07004 67461 NIL=
201304062100 AAXX 06214 67461 NIL=
201304061500 AAXX 06154 67461 NIL=
201304061200 AAXX 06120 67461 NIL=
201304060900 AAXX 06094 67461 NIL=
201304060600 AAXX 06064 67461 NIL=
201304060300 AAXX 06034 67461 NIL=
201304060000 AAXX 06004 67461 NIL=
201304051800 AAXX 05184 67461 NIL=
201304051200 AAXX 05124 67461 NIL=
201304050900 AAXX 05094 67461 42580 71515 10268 20197 48522 84208
                   333 58007 84823 87280 91019=
201304050600 AAXX 05064 67461 32380 71307 10204 20192 48506 82608
                   333 10316 20145 58011 82608 87280
                   555 00/// 20000 91019=
201304050300 AAXX 05034 67461 NIL=
201304050000 AAXX 05004 67461 NIL=
201304041800 AAXX 04184 67461 NIL=

################################################################################
#  SYNOPS from 67475, Kasama (Zambia) | 10-13S | 031-08E | 1382 m
################################################################################
201305010600 AAXX 01064 67475 32478 61214 10177 20122 48556 82501
                   333 10261 20144 58009 82610 86080
                   555 00/// 91024=
201305010300 AAXX 01034 67475 NIL=
201305010000 AAXX 01004 67475 NIL=
201304302100 AAXX 30214 67475 NIL=
201304301800 AAXX 30184 67475 NIL=
201304301500 AAXX 30154 67475 42780 61206 10240 20140 48530 82232
                   333 58016 82856 84362 86280
                   555 10261 91021=
201304301200 AAXX 30124 67475 42680 71206 10246 20152 48/// 8523/
                   333 5//// 85856 87362=
201304300900 AAXX 30094 67475 NIL=
201304300300 AAXX 30034 67475 NIL=
201304300000 AAXX 30004 67475 NIL=
201304291800 AAXX 29184 67475 NIL=
201304291500 AAXX 29154 67475 NIL=
201304290900 AAXX 29094 67475 NIL=
201304290600 AAXX 29064 67475 32980 30903 10187 20140 48539 80001
                   333 10262 20118 58001 83080
                   555 00/// 91022=
201304290000 AAXX 29004 67475 NIL=
201304281500 AAXX 28154 67475 NIL=
201304280900 AAXX 28094 67475 NIL=
201304280600 AAXX 28064 67475 NIL=
201304280300 AAXX 28034 67475 NIL=
201304280000 AAXX 28004 67475 NIL=
201304271800 AAXX 27184 67475 NIL=
201304271500 AAXX 27154 67475 NIL=
201304270300 AAXX 27034 67475 NIL=
201304262100 AAXX 26214 67475 NIL=
201304260000 AAXX 26004 67475 NIL=
201304251800 AAXX 25184 67475 NIL=
201304251200 AAXX 25124 67475 NIL=
201304250900 AAXX 25094 67475 NIL=
201304250600 AAXX 25064 67475 NIL=
201304231200 AAXX 23121 67475 NIL=
201304230600 AAXX 23064 67475 32980 30303 10200 20168 48516 80001
                   333 10302 20145 59005 83080
                   555 00/// 91009=
201304230300 AAXX 23034 67475 NIL=
201304230000 AAXX 23004 67475 NIL=
201304222100 AAXX 22214 67475 NIL=
201304221500 AAXX 22154 67475 NIL=
201304220900 AAXX 22094 67475 42680 30402 10270 20167 48521 83101
                   333 5//// 83840 83080=
201304220600 AAXX 22064 67475 32980 30403 10192 20173 48521 80001
                   333 10292 20140 59005 83080
                   555 00/// 91020=
201304220000 AAXX 22004 67475 NIL=
201304211800 AAXX 21184 67475 NIL=
201304211500 AAXX 21154 67475 NIL=
201304211200 AAXX 21121 67475 NIL=
201304210900 AAXX 21094 67475 NIL=
201304210000 AAXX 21004 67475 NIL=
201304202100 AAXX 20214 67475 NIL=
201304201500 AAXX 20154 67475 NIL=
201304201200 AAXX 20120 67475 NIL=
201304200300 AAXX 20034 67475 NIL=
201304200000 AAXX 20004 67475 NIL=
201304191800 AAXX 19184 67475 NIL=
201304191500 AAXX 19154 67475 NIL=
201304190900 AAXX 19094 67475 42780 30304 10263 20180 48515 82130
                   333 58013 82850 83362 91019=
201304181800 AAXX 18184 67475 NIL=
201304181500 AAXX 18154 67475 NIL=
201304181200 AAXX 18124 67475 NIL=
201304180900 AAXX 18094 67475 NIL=
201304180300 AAXX 18034 67475 NIL=
201304180000 AAXX 18004 67475 NIL=
201304171800 AAXX 17184 67475 NIL=
201304171200 AAXX 17124 67475 42880 60000 10283 20157 48502 86200
                   333 59006 86857 91018=
201304170900 AAXX 17094 67475 42780 50000 10252 20156 48525 84101
                   333 58011 84850 85080 91020=
201304170600 AAXX 17064 67475 32980 40102 10192 20148 48/// 80001
                   333 10270 20134 5//// 84080
                   555 00///=
201304170000 AAXX 17004 67475 NIL=
201304161500 AAXX 16154 67475 NIL=
201304160300 AAXX 16034 67475 NIL=
201304160000 AAXX 16004 67475 NIL=
201304152100 AAXX 15214 67475 NIL=
201304151800 AAXX 15184 67475 NIL=
201304151500 AAXX 15154 67475 NIL=
201304151200 AAXX 15124 67475 NIL=
201304150000 AAXX 15004 67475 NIL=
201304142100 AAXX 14214 67475 NIL=
201304141800 AAXX 14184 67475 NIL=
201304141500 AAXX 14154 67475 NIL=
201304140600 AAXX 14060 67475 NIL=
201304140300 AAXX 14034 67475 NIL=
201304140000 AAXX 14004 67475 NIL=
201304132100 AAXX 13214 67475 NIL=
201304131800 AAXX 13184 67475 NIL=
201304131500 AAXX 13154 67475 NIL=
201304131200 AAXX 13120 67475 NIL=
201304130300 AAXX 13034 67475 NIL=
201304130000 AAXX 13004 67475 NIL=
201304122100 AAXX 12214 67475 NIL=
201304121800 AAXX 12184 67475 NIL=
201304121500 AAXX 12154 67475 NIL=
201304121200 AAXX 12124 67475 41980 73608 10235 20185 48508 71522 872//
                   333 58016 87856 91018=
201304120900 AAXX 12094 67475 41778 61008 10238 20180 48535 71522 86201
                   333 58008 86856 84080=
201304120600 AAXX 12064 67475 12578 71106 10195 20184 48532 60994 875//
                   333 10290 20170 58011 87620
                   555 00/// 91021=
201304090600 AAXX 09064 67475 32980 30102 10207 20176 48537 83031
                   333 10290 20147 58002 83360 83080
                   555 00/// 20000 91022=
201304090300 AAXX 09034 67475 NIL=
201304090000 AAXX 09004 67475 NIL=
201304081800 AAXX 08184 67475 NIL=
201304081500 AAXX 08154 67475 NIL=
201304080900 AAXX 08094 67475 42680 51202 10250 20152 48534 85101
                   333 5//// 85849 83080 91022=
201304080600 AAXX 08060 67475 32980 60102 10172 20170 48533 83031
                   333 10280 20147 58007 83360 86080
                   555 00197 20000 91021=
201304080300 AAXX 08034 67475 NIL=
201304080000 AAXX 08004 67475 NIL=
201304072100 AAXX 07214 67475 NIL=
201304071800 AAXX 07184 67475 NIL=
201304071500 AAXX 07154 67475 NIL=
201304071200 AAXX 07120 67475 NIL=
201304070900 AAXX 07094 67475 NIL=
201304070600 AAXX 07061 67475 NIL=
201304070300 AAXX 07034 67475 NIL=
201304070000 AAXX 07004 67475 NIL=
201304062100 AAXX 06214 67475 NIL=
201304061500 AAXX 06154 67475 NIL=
201304061200 AAXX 06120 67475 NIL=
201304060900 AAXX 06094 67475 NIL=
201304060600 AAXX 06064 67475 12480 81204 10185 20182 48535 60054 885//
                   333 10278 20175 58005 88615
                   555 00/// 91022=
201304060300 AAXX 06034 67475 NIL=
201304060000 AAXX 06004 67475 NIL=
201304051800 AAXX 05184 67475 NIL=
201304051200 AAXX 05124 67475 41780 60000 10265 20194 48499 72582 85271
                   333 58009 85856 85462 86080 91017=
201304050900 AAXX 05094 67475 42680 60304 10257 20178 48527 85207
                   333 58010 85830 86280=
201304050600 AAXX 05064 67475 32980 63604 10205 20185 48530 84082
                   333 10293 20164 58009 84360 86080
                   555 00226 91021=
201304050300 AAXX 05034 67475 NIL=
201304050000 AAXX 05004 67475 NIL=
201304041800 AAXX 04184 67475 NIL=

################################################################################
#  SYNOPS from 67476, Misamfu (Zambia) | 10-06S | 031-15E | 1536 m
################################################################################
201305010600 AAXX 01064 67476 NIL=
201305010300 AAXX 01034 67476 NIL=
201305010000 AAXX 01004 67476 NIL=
201304302100 AAXX 30214 67476 NIL=
201304301800 AAXX 30184 67476 NIL=
201304301500 AAXX 30154 67476 NIL=
201304301200 AAXX 30124 67476 NIL=
201304300900 AAXX 30094 67476 NIL=
201304300300 AAXX 30034 67476 NIL=
201304300000 AAXX 30004 67476 NIL=
201304291800 AAXX 29184 67476 NIL=
201304291500 AAXX 29154 67476 NIL=
201304290900 AAXX 29094 67476 NIL=
201304290000 AAXX 29004 67476 NIL=
201304281500 AAXX 28154 67476 NIL=
201304280900 AAXX 28094 67476 NIL=
201304280600 AAXX 28064 67476 NIL=
201304280300 AAXX 28034 67476 NIL=
201304280000 AAXX 28004 67476 NIL=
201304271800 AAXX 27184 67476 NIL=
201304271500 AAXX 27154 67476 NIL=
201304270300 AAXX 27034 67476 NIL=
201304262100 AAXX 26214 67476 NIL=
201304260000 AAXX 26004 67476 NIL=
201304251800 AAXX 25184 67476 NIL=
201304251200 AAXX 25124 67476 NIL=
201304250900 AAXX 25094 67476 NIL=
201304250600 AAXX 25064 67476 NIL=
201304231200 AAXX 23121 67476 NIL=
201304230600 AAXX 23064 67476 NIL=
201304230300 AAXX 23034 67476 NIL=
201304230000 AAXX 23004 67476 NIL=
201304222100 AAXX 22214 67476 NIL=
201304221500 AAXX 22154 67476 NIL=
201304220900 AAXX 22094 67476 NIL=
201304220600 AAXX 22064 67476 NIL=
201304220000 AAXX 22004 67476 NIL=
201304211800 AAXX 21184 67476 NIL=
201304211500 AAXX 21154 67476 NIL=
201304211200 AAXX 21121 67476 NIL=
201304210900 AAXX 21094 67476 NIL=
201304210000 AAXX 21004 67476 NIL=
201304202100 AAXX 20214 67476 NIL=
201304201500 AAXX 20154 67476 NIL=
201304201200 AAXX 20120 67476 NIL=
201304200300 AAXX 20034 67476 NIL=
201304200000 AAXX 20004 67476 NIL=
201304191800 AAXX 19184 67476 NIL=
201304191500 AAXX 19154 67476 NIL=
201304190900 AAXX 19094 67476 NIL=
201304181800 AAXX 18184 67476 NIL=
201304181500 AAXX 18154 67476 NIL=
201304181200 AAXX 18124 67476 NIL=
201304180900 AAXX 18094 67476 NIL=
201304180300 AAXX 18034 67476 NIL=
201304180000 AAXX 18004 67476 NIL=
201304171800 AAXX 17184 67476 NIL=
201304171200 AAXX 17124 67476 NIL=
201304170900 AAXX 17094 67476 NIL=
201304170600 AAXX 17064 67476 32980 00903 10250 20158 48///
                   333 10275 20080 5////
                   555 00///=
201304170000 AAXX 17004 67476 NIL=
201304161500 AAXX 16154 67476 NIL=
201304160300 AAXX 16034 67476 NIL=
201304160000 AAXX 16004 67476 NIL=
201304152100 AAXX 15214 67476 NIL=
201304151800 AAXX 15184 67476 NIL=
201304151500 AAXX 15154 67476 NIL=
201304151200 AAXX 15124 67476 NIL=
201304150000 AAXX 15004 67476 NIL=
201304142100 AAXX 14214 67476 NIL=
201304141800 AAXX 14184 67476 NIL=
201304141500 AAXX 14154 67476 NIL=
201304140600 AAXX 14060 67476 NIL=
201304140300 AAXX 14034 67476 NIL=
201304140000 AAXX 14004 67476 NIL=
201304132100 AAXX 13214 67476 NIL=
201304131800 AAXX 13184 67476 NIL=
201304131500 AAXX 13154 67476 NIL=
201304131200 AAXX 13120 67476 NIL=
201304130300 AAXX 13034 67476 NIL=
201304130000 AAXX 13004 67476 NIL=
201304122100 AAXX 12214 67476 NIL=
201304121800 AAXX 12184 67476 NIL=
201304121500 AAXX 12154 67476 NIL=
201304121200 AAXX 12124 67476 NIL=
201304120900 AAXX 12094 67476 NIL=
201304120600 AAXX 12064 67476 NIL=
201304090300 AAXX 09034 67476 NIL=
201304090000 AAXX 09004 67476 NIL=
201304081800 AAXX 08184 67476 NIL=
201304081500 AAXX 08154 67476 NIL=
201304080900 AAXX 08094 67476 NIL=
201304080600 AAXX 08060 67476 NIL=
201304080300 AAXX 08034 67476 NIL=
201304080000 AAXX 08004 67476 NIL=
201304072100 AAXX 07214 67476 NIL=
201304071800 AAXX 07184 67476 NIL=
201304071500 AAXX 07154 67476 NIL=
201304071200 AAXX 07120 67476 NIL=
201304070900 AAXX 07094 67476 NIL=
201304070600 AAXX 07061 67476 NIL=
201304070300 AAXX 07034 67476 NIL=
201304070000 AAXX 07004 67476 NIL=
201304062100 AAXX 06214 67476 NIL=
201304061500 AAXX 06154 67476 NIL=
201304061200 AAXX 06120 67476 NIL=
201304060900 AAXX 06094 67476 NIL=
201304060600 AAXX 06064 67476 NIL=
201304060300 AAXX 06034 67476 NIL=
201304060000 AAXX 06004 67476 NIL=
201304051800 AAXX 05184 67476 NIL=
201304051200 AAXX 05124 67476 NIL=
201304050900 AAXX 05094 67476 NIL=
201304050600 AAXX 05064 67476 NIL=
201304050300 AAXX 05034 67476 NIL=
201304050000 AAXX 05004 67476 NIL=
201304041800 AAXX 04184 67476 NIL=

################################################################################
#  SYNOPS from 67477, Mpika (Zambia) | 11-54S | 031-26E | 1400 m
################################################################################
201305010600 AAXX 01064 67477 NIL=
201305010300 AAXX 01034 67477 NIL=
201305010000 AAXX 01004 67477 NIL=
201304302100 AAXX 30214 67477 NIL=
201304301800 AAXX 30184 67477 NIL=
201304301500 AAXX 30154 67477 NIL=
201304301200 AAXX 30124 67477 NIL=
201304300900 AAXX 30094 67477 NIL=
201304300300 AAXX 30034 67477 NIL=
201304300000 AAXX 30004 67477 NIL=
201304291800 AAXX 29184 67477 NIL=
201304291500 AAXX 29154 67477 NIL=
201304290900 AAXX 29094 67477 NIL=
201304290600 AAXX 29064 67477 32480 31203 10180 20131 48534 83501
                   333 10234 20138 59010 83611 81080
                   555 00///=
201304290000 AAXX 29004 67477 NIL=
201304281500 AAXX 28154 67477 NIL=
201304280900 AAXX 28094 67477 NIL=
201304280600 AAXX 28064 67477 NIL=
201304280300 AAXX 28034 67477 NIL=
201304280000 AAXX 28004 67477 NIL=
201304271800 AAXX 27184 67477 NIL=
201304271500 AAXX 27154 67477 NIL=
201304270300 AAXX 27034 67477 NIL=
201304262100 AAXX 26214 67477 NIL=
201304260000 AAXX 26004 67477 NIL=
201304251800 AAXX 25184 67477 NIL=
201304251200 AAXX 25124 67477 NIL=
201304250900 AAXX 25094 67477 NIL=
201304250600 AAXX 25064 67477 NIL=
201304231200 AAXX 23121 67477 NIL=
201304230600 AAXX 23064 67477 32480 40906 10215 20168 48512 81101
                   333 10280 20150 59005 81812 84080
                   555 00///=
201304230300 AAXX 23034 67477 NIL=
201304230000 AAXX 23004 67477 NIL=
201304222100 AAXX 22214 67477 NIL=
201304221500 AAXX 22154 67477 NIL=
201304220900 AAXX 22094 67477 NIL=
201304220600 AAXX 22064 67477 32980 30902 10223 20163 48517 80001
                   333 10265 20/// 57007 82080
                   555 00///=
201304220000 AAXX 22004 67477 NIL=
201304211800 AAXX 21184 67477 NIL=
201304211500 AAXX 21154 67477 NIL=
201304211200 AAXX 21121 67477 NIL=
201304210900 AAXX 21094 67477 NIL=
201304210000 AAXX 21004 67477 NIL=
201304202100 AAXX 20214 67477 NIL=
201304201500 AAXX 20154 67477 NIL=
201304201200 AAXX 20120 67477 NIL=
201304200300 AAXX 20034 67477 NIL=
201304200000 AAXX 20004 67477 NIL=
201304191800 AAXX 19184 67477 NIL=
201304191500 AAXX 19154 67477 NIL=
201304190900 AAXX 19094 67477 NIL=
201304190600 AAXX 19064 67477 12980 70000 10201 20168 48517 60044 86081
                   333 10295 20/// 59002 86361 81080=
201304181800 AAXX 18184 67477 NIL=
201304181500 AAXX 18154 67477 NIL=
201304181200 AAXX 18124 67477 NIL=
201304180900 AAXX 18094 67477 NIL=
201304180300 AAXX 18034 67477 NIL=
201304180000 AAXX 18004 67477 NIL=
201304171800 AAXX 17184 67477 NIL=
201304171200 AAXX 17124 67477 NIL=
201304170900 AAXX 17094 67477 NIL=
201304170600 AAXX 17064 67477 32980 61202 10191 20123 48521 80001
                   333 10246 20/// 59008 86080
                   555 00///=
201304170000 AAXX 17004 67477 NIL=
201304161500 AAXX 16154 67477 NIL=
201304160300 AAXX 16034 67477 NIL=
201304160000 AAXX 16004 67477 NIL=
201304152100 AAXX 15214 67477 NIL=
201304151800 AAXX 15184 67477 NIL=
201304151500 AAXX 15154 67477 NIL=
201304151200 AAXX 15124 67477 NIL=
201304150600 AAXX 15064 67477 32480 20910 10173 20109 48536 81101
                   333 10235 20107 59016 81811 82080=
201304150000 AAXX 15004 67477 NIL=
201304142100 AAXX 14214 67477 NIL=
201304141800 AAXX 14184 67477 NIL=
201304141500 AAXX 14154 67477 NIL=
201304140600 AAXX 14060 67477 NIL=
201304140300 AAXX 14034 67477 NIL=
201304140000 AAXX 14004 67477 NIL=
201304132100 AAXX 13214 67477 NIL=
201304131800 AAXX 13184 67477 NIL=
201304131500 AAXX 13154 67477 NIL=
201304131200 AAXX 13120 67477 NIL=
201304130300 AAXX 13034 67477 NIL=
201304130000 AAXX 13004 67477 NIL=
201304122100 AAXX 12214 67477 NIL=
201304121800 AAXX 12184 67477 NIL=
201304121500 AAXX 12154 67477 NIL=
201304121200 AAXX 12124 67477 NIL=
201304120900 AAXX 12094 67477 NIL=
201304120600 AAXX 12064 67477 11480 71203 10176 20161 48530 60024 75052 875//
                   333 10269 20151 58012 87611=
201304090600 AAXX 09064 67477 32980 01201 10214 20144 48531
                   333 10266 20120 59003=
201304090300 AAXX 09034 67477 NIL=
201304090000 AAXX 09004 67477 NIL=
201304081800 AAXX 08184 67477 NIL=
201304081500 AAXX 08154 67477 NIL=
201304080900 AAXX 08094 67477 NIL=
201304080600 AAXX 08060 67477 NIL=
201304080300 AAXX 08034 67477 NIL=
201304080000 AAXX 08004 67477 NIL=
201304072100 AAXX 07214 67477 NIL=
201304071800 AAXX 07184 67477 NIL=
201304071500 AAXX 07154 67477 NIL=
201304071200 AAXX 07120 67477 NIL=
201304070900 AAXX 07094 67477 NIL=
201304070600 AAXX 07061 67477 NIL=
201304070300 AAXX 07034 67477 NIL=
201304070000 AAXX 07004 67477 NIL=
201304062100 AAXX 06214 67477 NIL=
201304061500 AAXX 06154 67477 NIL=
201304061200 AAXX 06120 67477 NIL=
201304060900 AAXX 06094 67477 NIL=
201304060600 AAXX 06064 67477 NIL=
201304060300 AAXX 06034 67477 NIL=
201304060000 AAXX 06004 67477 NIL=
201304051800 AAXX 05184 67477 NIL=
201304051200 AAXX 05124 67477 NIL=
201304050900 AAXX 05094 67477 NIL=
201304050600 AAXX 05064 67477 NIL=
201304050300 AAXX 05034 67477 NIL=
201304050000 AAXX 05004 67477 NIL=
201304041800 AAXX 04184 67477 NIL=

################################################################################
#  SYNOPS from 67481, Isoka (Zambia) | 10-07S | 032-38E | 1360 m
################################################################################
201305010600 AAXX 01064 67481 NIL=
201305010300 AAXX 01034 67481 NIL=
201305010000 AAXX 01004 67481 NIL=
201304302100 AAXX 30214 67481 NIL=
201304301800 AAXX 30184 67481 NIL=
201304301500 AAXX 30154 67481 NIL=
201304301200 AAXX 30124 67481 NIL=
201304300900 AAXX 30094 67481 NIL=
201304300300 AAXX 30034 67481 NIL=
201304300000 AAXX 30004 67481 NIL=
201304291800 AAXX 29184 67481 NIL=
201304291500 AAXX 29154 67481 NIL=
201304290900 AAXX 29094 67481 NIL=
201304290000 AAXX 29004 67481 NIL=
201304281500 AAXX 28154 67481 NIL=
201304280900 AAXX 28094 67481 NIL=
201304280600 AAXX 28064 67481 NIL=
201304280300 AAXX 28034 67481 NIL=
201304280000 AAXX 28004 67481 NIL=
201304271800 AAXX 27184 67481 NIL=
201304271500 AAXX 27154 67481 NIL=
201304270300 AAXX 27034 67481 NIL=
201304262100 AAXX 26214 67481 NIL=
201304260600 AAXX 26064 67481 31475 63606 10180 20146 70522 83508
                   333 10280 20116 5//// 83612 86280
                   555 00131 20000=
201304260000 AAXX 26004 67481 NIL=
201304251800 AAXX 25184 67481 NIL=
201304251200 AAXX 25124 67481 NIL=
201304250900 AAXX 25094 67481 NIL=
201304250600 AAXX 25064 67481 32480 82708 10180 20168 885//
                   333 10285 20142 5//// 88610
                   555 00140 20000=
201304231200 AAXX 23121 67481 NIL=
201304230600 AAXX 23064 67481 32980 60000 10200 20180 80008
                   333 10300 20130 5//// 86280
                   555 00135 20000=
201304230300 AAXX 23034 67481 NIL=
201304230000 AAXX 23004 67481 NIL=
201304222100 AAXX 22214 67481 NIL=
201304221500 AAXX 22154 67481 NIL=
201304220900 AAXX 22094 67481 NIL=
201304220600 AAXX 22064 67481 32980 13602 10211 20182 80002
                   333 10285 20121 5//// 81080
                   555 00128 20000=
201304220000 AAXX 22004 67481 NIL=
201304211800 AAXX 21184 67481 NIL=
201304211500 AAXX 21154 67481 NIL=
201304211200 AAXX 21121 67481 NIL=
201304210900 AAXX 21094 67481 NIL=
201304210000 AAXX 21004 67481 NIL=
201304202100 AAXX 20214 67481 NIL=
201304201500 AAXX 20154 67481 NIL=
201304201200 AAXX 20120 67481 NIL=
201304200300 AAXX 20034 67481 NIL=
201304200000 AAXX 20004 67481 NIL=
201304191800 AAXX 19184 67481 NIL=
201304191500 AAXX 19154 67481 NIL=
201304190900 AAXX 19094 67481 42580 30502 10265 20185
                   333 5//// 82825 82361=
201304181800 AAXX 18184 67481 NIL=
201304181500 AAXX 18154 67481 NIL=
201304181200 AAXX 18124 67481 41680 72402 10235 20180 71792 86202
                   333 5//// 81930 86830 84080=
201304180900 AAXX 18094 67481 42580 63402 10260 20175 86801
                   333 5//// 84825 83630 81080=
201304180600 AAXX 18064 67481 32480 33602 10205 20175 83530
                   333 10280 20130 5//// 83616 81362
                   555 00140 20000=
201304180300 AAXX 18034 67481 NIL=
201304180000 AAXX 18004 67481 NIL=
201304171800 AAXX 17184 67481 NIL=
201304171200 AAXX 17124 67481 42680 62102 10260 20180 35802
                   333 5//// 83230 83635 83080=
201304170900 AAXX 17094 67481 42580 61902 10235 20165 85502
                   333 5//// 85520 83080=
201304170600 AAXX 17060 67481 32480 60000 10190 20165 85502
                   333 10260 20115 5//// 85614 83080
                   555 00120 20000=
201304170000 AAXX 17004 67481 NIL=
201304161500 AAXX 16154 67481 NIL=
201304160900 AAXX 16094 67481 42580 51202 10230 20160 82830
                   333 5//// 82830 84080=
201304160300 AAXX 16034 67481 NIL=
201304160000 AAXX 16004 67481 NIL=
201304152100 AAXX 15214 67481 NIL=
201304151800 AAXX 15184 67481 NIL=
201304151500 AAXX 15154 67481 NIL=
201304151200 AAXX 15124 67481 42980 12402 10240 20125 80001
                   333 5//// 81080=
201304150600 AAXX 15064 67481 32980 23402 10170 20140 80002
                   333 10274 20095 5//// 82080
                   555 00104 20002=
201304150000 AAXX 15004 67481 NIL=
201304142100 AAXX 14214 67481 NIL=
201304141800 AAXX 14184 67481 NIL=
201304141500 AAXX 14154 67481 NIL=
201304140600 AAXX 14060 67481 NIL=
201304140300 AAXX 14034 67481 NIL=
201304140000 AAXX 14004 67481 NIL=
201304132100 AAXX 13214 67481 NIL=
201304131800 AAXX 13184 67481 NIL=
201304131500 AAXX 13154 67481 NIL=
201304131200 AAXX 13120 67481 NIL=
201304130300 AAXX 13034 67481 NIL=
201304130000 AAXX 13004 67481 NIL=
201304122100 AAXX 12214 67481 NIL=
201304121800 AAXX 12184 67481 NIL=
201304121500 AAXX 12154 67481 NIL=
201304121200 AAXX 12124 67481 NIL=
201304120900 AAXX 12094 67481 NIL=
201304120600 AAXX 12064 67481 11375 72408 10191 20189 60064 71022 876//
                   333 10294 20151 5//// 87708
                   555 00177 20000=
201304090600 AAXX 09064 67481 32980 40603 10215 20166 82032
                   333 10275 20115 5//// 82361 83080
                   555 00173 20000=
201304090300 AAXX 09034 67481 NIL=
201304090000 AAXX 09004 67481 NIL=
201304081800 AAXX 08184 67481 NIL=
201304081500 AAXX 08154 67481 NIL=
201304080900 AAXX 08094 67481 NIL=
201304080600 AAXX 08064 67481 32480 22403 10209 20172 81102
                   333 10272 20131 5//// 81815 82080
                   555 00171 20000=
201304080300 AAXX 08034 67481 NIL=
201304080000 AAXX 08004 67481 NIL=
201304072100 AAXX 07214 67481 NIL=
201304071800 AAXX 07184 67481 NIL=
201304071500 AAXX 07154 67481 NIL=
201304071200 AAXX 07120 67481 NIL=
201304070900 AAXX 07094 67481 NIL=
201304070600 AAXX 07061 67481 NIL=
201304070300 AAXX 07034 67481 NIL=
201304070000 AAXX 07004 67481 NIL=
201304062100 AAXX 06214 67481 NIL=
201304061500 AAXX 06154 67481 NIL=
201304061200 AAXX 06120 67481 NIL=
201304060900 AAXX 06094 67481 NIL=
201304060600 AAXX 06064 67481 NIL=
201304060300 AAXX 06034 67481 NIL=
201304060000 AAXX 06004 67481 NIL=
201304051800 AAXX 05184 67481 NIL=
201304051200 AAXX 05124 67481 NIL=
201304050900 AAXX 05094 67481 41480 70000 10210 20189 72162 83278
                   333 5//// 83810 84360 86280=
201304050600 AAXX 05064 67481 11375 73403 10205 20192 60124 76062 87708
                   555 00185 20000=
201304050300 AAXX 05034 67481 NIL=
201304050000 AAXX 05004 67481 NIL=
201304041800 AAXX 04184 67481 NIL=

################################################################################
#  SYNOPS from 67531, Zambezi (Zambia) | 13-32S | 023-07E | 1077 m
################################################################################
201305010600 AAXX 01064 67531 NIL=
201305010300 AAXX 01034 67531 NIL=
201305010000 AAXX 01004 67531 NIL=
201304302100 AAXX 30214 67531 NIL=
201304301800 AAXX 30184 67531 NIL=
201304301500 AAXX 30154 67531 NIL=
201304301200 AAXX 30124 67531 NIL=
201304300900 AAXX 30094 67531 NIL=
201304300600 AAXX 30064 67531 32980 11007 10196 20112 48/// 80001
                   333 10303 20101 58013 81082=
201304300300 AAXX 30034 67531 NIL=
201304300000 AAXX 30004 67531 NIL=
201304291800 AAXX 29184 67531 NIL=
201304291500 AAXX 29154 67531 NIL=
201304290900 AAXX 29094 67531 42980 11206 10246 20126 48/// 80001
                   333 5//// 81082=
201304290600 AAXX 29064 67531 32980 01306 10170 20113 48563
                   333 10285 20105 58008=
201304290000 AAXX 29004 67531 NIL=
201304281500 AAXX 28154 67531 NIL=
201304280900 AAXX 28094 67531 NIL=
201304280600 AAXX 28064 67531 NIL=
201304280300 AAXX 28034 67531 NIL=
201304280000 AAXX 28004 67531 NIL=
201304271800 AAXX 27184 67531 NIL=
201304271500 AAXX 27154 67531 NIL=
201304270300 AAXX 27034 67531 NIL=
201304262100 AAXX 26214 67531 NIL=
201304261200 AAXX 26124 67531 42780 71407 10280 20115 48/// 87100
                   333 59002 87856=
201304260600 AAXX 26064 67531 32980 71207 10200 20145 48/// 87030
                   333 10303 20141 58003 87361=
201304260000 AAXX 26004 67531 NIL=
201304251800 AAXX 25184 67531 NIL=
201304251200 AAXX 25124 67531 NIL=
201304250900 AAXX 25094 67531 42980 31407 10259 20166 48/// 81032
                   333 58019 81362 83081=
201304250600 AAXX 25064 67531 32980 21207 10195 20165 48/// 81032
                   333 10316 20152 58018 81362 82080=
201304231200 AAXX 23121 67531 NIL=
201304230600 AAXX 23064 67531 32980 11503 10216 20145 48/// 81034
                   333 10301 20146 59004 81362 81082=
201304230300 AAXX 23034 67531 NIL=
201304230000 AAXX 23004 67531 NIL=
201304222100 AAXX 22214 67531 NIL=
201304221500 AAXX 22154 67531 NIL=
201304221200 AAXX 22124 67531 42880 71603 10290 20101 48/// 82108
                   333 5//// 82857 87280=
201304220900 AAXX 22094 67531 NIL=
201304220600 AAXX 22064 67531 12980 71501 10206 20191 48/// 60014 83078
                   333 10321 20185 58012 83360 87280=
201304220000 AAXX 22004 67531 NIL=
201304211800 AAXX 21184 67531 NIL=
201304211500 AAXX 21154 67531 NIL=
201304211200 AAXX 21121 67531 NIL=
201304210900 AAXX 21094 67531 NIL=
201304210000 AAXX 21004 67531 NIL=
201304202100 AAXX 20214 67531 NIL=
201304201500 AAXX 20154 67531 NIL=
201304201200 AAXX 20120 67531 NIL=
201304200300 AAXX 20034 67531 NIL=
201304200000 AAXX 20004 67531 NIL=
201304191800 AAXX 19184 67531 NIL=
201304191500 AAXX 19154 67531 NIL=
201304191200 AAXX 19124 67531 42880 73003 10305 20147 48/// 83108
                   333 5//// 83857 85281=
201304190900 AAXX 19094 67531 NIL=
201304190600 AAXX 19064 67531 31975 10301 10193 20160 48/// 80004
                   333 10326 20114 59005 81082=
201304181800 AAXX 18184 67531 NIL=
201304181500 AAXX 18154 67531 NIL=
201304181200 AAXX 18124 67531 NIL=
201304180900 AAXX 18094 67531 NIL=
201304180600 AAXX 18064 67531 32980 10000 10170 20146 48/// 81030
                   333 10311 20105 59005 81362=
201304180300 AAXX 18034 67531 NIL=
201304180000 AAXX 18004 67531 NIL=
201304171800 AAXX 17184 67531 NIL=
201304171200 AAXX 17124 67531 NIL=
201304170900 AAXX 17094 67531 NIL=
201304170600 AAXX 17064 67531 32980 10000 10186 20126 48/// 80001
                   333 10305 20102 59010 81082
                   555 00100=
201304170000 AAXX 17004 67531 NIL=
201304161500 AAXX 16154 67531 NIL=
201304160600 AAXX 16064 67531 32980 01105 10185 20132 48///
                   333 10305 20109 59012
                   555 00101=
201304160300 AAXX 16034 67531 NIL=
201304160000 AAXX 16004 67531 NIL=
201304152100 AAXX 15214 67531 NIL=
201304151800 AAXX 15184 67531 NIL=
201304151500 AAXX 15154 67531 NIL=
201304151200 AAXX 15124 67531 NIL=
201304150900 AAXX 15094 67531 42980 01209 10269 20123 48///
                   333 5////=
201304150600 AAXX 15064 67531 32980 01107 10186 20128 48///
                   333 10305 20130 59008
                   555 00121=
201304150000 AAXX 15004 67531 NIL=
201304142100 AAXX 14214 67531 NIL=
201304141800 AAXX 14184 67531 NIL=
201304141500 AAXX 14154 67531 NIL=
201304140600 AAXX 14060 67531 NIL=
201304140300 AAXX 14034 67531 NIL=
201304140000 AAXX 14004 67531 NIL=
201304132100 AAXX 13214 67531 NIL=
201304131800 AAXX 13184 67531 NIL=
201304131500 AAXX 13154 67531 NIL=
201304131200 AAXX 13120 67531 NIL=
201304130300 AAXX 13034 67531 NIL=
201304130000 AAXX 13004 67531 NIL=
201304122100 AAXX 12214 67531 NIL=
201304121800 AAXX 12184 67531 NIL=
201304121500 AAXX 12154 67531 NIL=
201304121200 AAXX 12124 67531 42780 40702 10295 20165 48/// 84101
                   333 58015 84840 81082=
201304120900 AAXX 12094 67531 NIL=
201304120600 AAXX 12064 67531 32980 20904 10186 20137 48/// 80001
                   333 10324 20132 58010 82082=
201304090600 AAXX 09064 67531 32980 10000 10200 20172 48/// 80002
                   333 10311 20129 58003 81082
                   555 00/// 20000=
201304090300 AAXX 09034 67531 NIL=
201304090000 AAXX 09004 67531 NIL=
201304081800 AAXX 08184 67531 NIL=
201304081500 AAXX 08154 67531 NIL=
201304080900 AAXX 08094 67531 42580 30902 10271 20153 48/// 81131
                   333 5//// 81846 81363 82082=
201304080600 AAXX 08064 67531 32980 50904 10196 20159 48/// 83031
                   333 10300 20131 58005 83362 83082=
201304080300 AAXX 08034 67531 NIL=
201304080000 AAXX 08004 67531 NIL=
201304072100 AAXX 07214 67531 NIL=
201304071800 AAXX 07184 67531 NIL=
201304071500 AAXX 07154 67531 NIL=
201304071200 AAXX 07120 67531 NIL=
201304070900 AAXX 07094 67531 NIL=
201304070600 AAXX 07061 67531 NIL=
201304070300 AAXX 07034 67531 NIL=
201304070000 AAXX 07004 67531 NIL=
201304062100 AAXX 06214 67531 NIL=
201304061500 AAXX 06154 67531 NIL=
201304061200 AAXX 06120 67531 NIL=
201304060900 AAXX 06094 67531 NIL=
201304060600 AAXX 06064 67531 NIL=
201304060300 AAXX 06034 67531 NIL=
201304060000 AAXX 06004 67531 NIL=
201304051800 AAXX 05184 67531 NIL=
201304051200 AAXX 05124 67531 NIL=
201304050900 AAXX 05094 67531 NIL=
201304050600 AAXX 05064 67531 32980 21803 10210 20190 48/// 81032
                   333 10312 20135 58004 81362 81082=
201304050300 AAXX 05034 67531 NIL=
201304050000 AAXX 05004 67531 NIL=
201304041800 AAXX 04184 67531 NIL=

################################################################################
#  SYNOPS from 67541, Kasempa (Zambia) | 13-32S | 025-51E | 1234 m
################################################################################
201305010600 AAXX 01064 67541 NIL=
201305010300 AAXX 01034 67541 NIL=
201305010000 AAXX 01004 67541 NIL=
201304302100 AAXX 30214 67541 NIL=
201304301800 AAXX 30184 67541 NIL=
201304301500 AAXX 30154 67541 NIL=
201304301200 AAXX 30124 67541 NIL=
201304300900 AAXX 30094 67541 NIL=
201304300300 AAXX 30034 67541 NIL=
201304300000 AAXX 30004 67541 NIL=
201304291800 AAXX 29184 67541 NIL=
201304291500 AAXX 29154 67541 NIL=
201304290900 AAXX 29094 67541 NIL=
201304290000 AAXX 29004 67541 NIL=
201304281500 AAXX 28154 67541 NIL=
201304280900 AAXX 28094 67541 NIL=
201304280600 AAXX 28064 67541 NIL=
201304280300 AAXX 28034 67541 NIL=
201304280000 AAXX 28004 67541 NIL=
201304271800 AAXX 27184 67541 NIL=
201304271500 AAXX 27154 67541 NIL=
201304270300 AAXX 27034 67541 NIL=
201304262100 AAXX 26214 67541 NIL=
201304260000 AAXX 26004 67541 NIL=
201304251800 AAXX 25184 67541 NIL=
201304251200 AAXX 25124 67541 NIL=
201304250900 AAXX 25094 67541 NIL=
201304250600 AAXX 25064 67541 NIL=
201304231200 AAXX 23121 67541 NIL=
201304230600 AAXX 23064 67541 32980 10000 10213 20170 48513 70222 81030
                   333 10//0 20160 58007 81362=
201304230300 AAXX 23034 67541 NIL=
201304230000 AAXX 23004 67541 NIL=
201304222100 AAXX 22214 67541 NIL=
201304221500 AAXX 22154 67541 NIL=
201304220900 AAXX 22094 67541 NIL=
201304220600 AAXX 22064 67541 32980 60000 10203 20180 48506 70222 86030
                   333 10//0 20156 59026 86362=
201304220000 AAXX 22004 67541 NIL=
201304211800 AAXX 21184 67541 NIL=
201304211500 AAXX 21154 67541 NIL=
201304211200 AAXX 21121 67541 NIL=
201304210900 AAXX 21094 67541 NIL=
201304210000 AAXX 21004 67541 NIL=
201304202100 AAXX 20214 67541 NIL=
201304201500 AAXX 20154 67541 NIL=
201304201200 AAXX 20120 67541 NIL=
201304200600 AAXX 20064 67541 32980 70000 10205 20182 48531 70222 8703/
                   333 10/// 20164 58023 87360=
201304200300 AAXX 20034 67541 NIL=
201304200000 AAXX 20004 67541 NIL=
201304191800 AAXX 19184 67541 NIL=
201304191500 AAXX 19154 67541 NIL=
201304190900 AAXX 19094 67541 NIL=
201304181800 AAXX 18184 67541 NIL=
201304181500 AAXX 18154 67541 NIL=
201304181200 AAXX 18124 67541 NIL=
201304180900 AAXX 18094 67541 42780 70000 10280 20149 48514 70222 83130
                   333 59007 83850 84362=
201304180300 AAXX 18034 67541 NIL=
201304180000 AAXX 18004 67541 NIL=
201304171800 AAXX 17184 67541 NIL=
201304171200 AAXX 17124 67541 42780 20000 10273 20134 48500 70222 82200
                   333 59002 82850=
201304170900 AAXX 17094 67541 NIL=
201304170600 AAXX 17061 67541 32980 10000 10161 20136 48517 70222 80001
                   333 10//0 20080 59004 81080=
201304170000 AAXX 17004 67541 NIL=
201304161500 AAXX 16154 67541 NIL=
201304160300 AAXX 16034 67541 NIL=
201304160000 AAXX 16004 67541 NIL=
201304152100 AAXX 15214 67541 NIL=
201304151800 AAXX 15184 67541 NIL=
201304151500 AAXX 15154 67541 NIL=
201304151200 AAXX 15124 67541 41780 10000 10276 20131 48518 70222 81100
                   333 5//// 81850=
201304150900 AAXX 15094 67541 41970 00000 10262 20145 48541 70500
                   333 58041=
201304150000 AAXX 15004 67541 NIL=
201304142100 AAXX 14214 67541 NIL=
201304141800 AAXX 14184 67541 NIL=
201304141500 AAXX 14154 67541 NIL=
201304140600 AAXX 14060 67541 NIL=
201304140300 AAXX 14034 67541 NIL=
201304140000 AAXX 14004 67541 NIL=
201304132100 AAXX 13214 67541 NIL=
201304131800 AAXX 13184 67541 NIL=
201304131500 AAXX 13154 67541 NIL=
201304131200 AAXX 13120 67541 NIL=
201304130300 AAXX 13034 67541 NIL=
201304130000 AAXX 13004 67541 NIL=
201304122100 AAXX 12214 67541 NIL=
201304121800 AAXX 12184 67541 NIL=
201304121500 AAXX 12154 67541 NIL=
201304121200 AAXX 12124 67541 42680 70000 10284 20165 48508 84203
                   333 58006 84845 83082=
201304120900 AAXX 12094 67541 NIL=
201304120600 AAXX 12064 67541 32980 30000 10208 20154 48530 80003
                   333 10/// 20136 58013 83082=
201304090600 AAXX 09064 67541 32980 10000 10180 20149 48525 70222 80001
                   333 10//0 20117 59002 81080=
201304090300 AAXX 09034 67541 NIL=
201304090000 AAXX 09004 67541 NIL=
201304081800 AAXX 08184 67541 NIL=
201304081500 AAXX 08154 67541 NIL=
201304080900 AAXX 08094 67541 NIL=
201304080600 AAXX 08064 67541 32980 10000 10179 20155 48527 70222 81030
                   333 10/// 20099 58006 81360=
201304080300 AAXX 08034 67541 NIL=
201304080000 AAXX 08004 67541 NIL=
201304072100 AAXX 07214 67541 NIL=
201304071800 AAXX 07184 67541 NIL=
201304071500 AAXX 07154 67541 NIL=
201304071200 AAXX 07120 67541 NIL=
201304070900 AAXX 07094 67541 NIL=
201304070600 AAXX 07061 67541 NIL=
201304070300 AAXX 07034 67541 NIL=
201304070000 AAXX 07004 67541 NIL=
201304062100 AAXX 06214 67541 NIL=
201304061500 AAXX 06154 67541 NIL=
201304061200 AAXX 06120 67541 NIL=
201304060900 AAXX 06094 67541 NIL=
201304060600 AAXX 06064 67541 NIL=
201304060300 AAXX 06034 67541 NIL=
201304060000 AAXX 06004 67541 NIL=
201304051800 AAXX 05184 67541 NIL=
201304051200 AAXX 05124 67541 NIL=
201304050900 AAXX 05094 67541 NIL=
201304050600 AAXX 05064 67541 12980 10000 10231 20184 48516 69904 70222 81030
                   333 10//0 20160 58010 81360=
201304050300 AAXX 05034 67541 NIL=
201304050000 AAXX 05004 67541 NIL=
201304041800 AAXX 04184 67541 NIL=

################################################################################
#  SYNOPS from 67543, Kabompo (Zambia) | 13-36S | 024-12E | 1075 m
################################################################################
201305010600 AAXX 01064 67543 NIL=
201305010300 AAXX 01034 67543 NIL=
201305010000 AAXX 01004 67543 NIL=
201304302100 AAXX 30214 67543 NIL=
201304301800 AAXX 30184 67543 NIL=
201304301500 AAXX 30154 67543 NIL=
201304301200 AAXX 30124 67543 NIL=
201304300900 AAXX 30094 67543 NIL=
201304300300 AAXX 30034 67543 NIL=
201304300000 AAXX 30004 67543 NIL=
201304291800 AAXX 29184 67543 NIL=
201304291500 AAXX 29154 67543 NIL=
201304290900 AAXX 29094 67543 NIL=
201304290000 AAXX 29004 67543 NIL=
201304281500 AAXX 28154 67543 NIL=
201304280900 AAXX 28094 67543 NIL=
201304280600 AAXX 28064 67543 NIL=
201304280300 AAXX 28034 67543 NIL=
201304280000 AAXX 28004 67543 NIL=
201304271800 AAXX 27184 67543 NIL=
201304271500 AAXX 27154 67543 NIL=
201304270300 AAXX 27034 67543 NIL=
201304262100 AAXX 26214 67543 NIL=
201304260000 AAXX 26004 67543 NIL=
201304251800 AAXX 25184 67543 NIL=
201304251200 AAXX 25124 67543 NIL=
201304250900 AAXX 25094 67543 NIL=
201304250600 AAXX 25064 67543 NIL=
201304231200 AAXX 23121 67543 NIL=
201304230600 AAXX 23064 67543 NIL=
201304230300 AAXX 23034 67543 NIL=
201304230000 AAXX 23004 67543 NIL=
201304222100 AAXX 22214 67543 NIL=
201304221500 AAXX 22154 67543 NIL=
201304220900 AAXX 22094 67543 NIL=
201304220600 AAXX 22064 67543 NIL=
201304220000 AAXX 22004 67543 NIL=
201304211800 AAXX 21184 67543 NIL=
201304211500 AAXX 21154 67543 NIL=
201304211200 AAXX 21121 67543 NIL=
201304210900 AAXX 21094 67543 NIL=
201304210000 AAXX 21004 67543 NIL=
201304202100 AAXX 20214 67543 NIL=
201304201500 AAXX 20154 67543 NIL=
201304201200 AAXX 20120 67543 NIL=
201304200300 AAXX 20034 67543 NIL=
201304200000 AAXX 20004 67543 NIL=
201304191800 AAXX 19184 67543 NIL=
201304191500 AAXX 19154 67543 NIL=
201304190900 AAXX 19094 67543 NIL=
201304181800 AAXX 18184 67543 NIL=
201304181500 AAXX 18154 67543 NIL=
201304181200 AAXX 18124 67543 NIL=
201304180900 AAXX 18094 67543 NIL=
201304180300 AAXX 18034 67543 NIL=
201304180000 AAXX 18004 67543 NIL=
201304171800 AAXX 17184 67543 NIL=
201304171200 AAXX 17124 67543 NIL=
201304170900 AAXX 17094 67543 NIL=
201304170600 AAXX 17060 67543 NIL=
201304170000 AAXX 17004 67543 NIL=
201304161500 AAXX 16154 67543 NIL=
201304160300 AAXX 16034 67543 NIL=
201304160000 AAXX 16004 67543 NIL=
201304152100 AAXX 15214 67543 NIL=
201304151800 AAXX 15184 67543 NIL=
201304151500 AAXX 15154 67543 NIL=
201304151200 AAXX 15124 67543 NIL=
201304150000 AAXX 15004 67543 NIL=
201304142100 AAXX 14214 67543 NIL=
201304141800 AAXX 14184 67543 NIL=
201304141500 AAXX 14154 67543 NIL=
201304140600 AAXX 14060 67543 NIL=
201304140300 AAXX 14034 67543 NIL=
201304140000 AAXX 14004 67543 NIL=
201304132100 AAXX 13214 67543 NIL=
201304131800 AAXX 13184 67543 NIL=
201304131500 AAXX 13154 67543 NIL=
201304131200 AAXX 13120 67543 NIL=
201304130300 AAXX 13034 67543 NIL=
201304130000 AAXX 13004 67543 NIL=
201304122100 AAXX 12214 67543 NIL=
201304121800 AAXX 12184 67543 NIL=
201304121500 AAXX 12154 67543 NIL=
201304121200 AAXX 12124 67543 NIL=
201304120900 AAXX 12094 67543 NIL=
201304120600 AAXX 12064 67543 NIL=
201304090600 AAXX 09064 67543 NIL=
201304090300 AAXX 09034 67543 NIL=
201304090000 AAXX 09004 67543 NIL=
201304081800 AAXX 08184 67543 NIL=
201304081500 AAXX 08154 67543 NIL=
201304080900 AAXX 08094 67543 NIL=
201304080600 AAXX 08060 67543 NIL=
201304080300 AAXX 08034 67543 NIL=
201304080000 AAXX 08004 67543 NIL=
201304072100 AAXX 07214 67543 NIL=
201304071800 AAXX 07184 67543 NIL=
201304071500 AAXX 07154 67543 NIL=
201304071200 AAXX 07120 67543 NIL=
201304070900 AAXX 07094 67543 NIL=
201304070600 AAXX 07061 67543 NIL=
201304070300 AAXX 07034 67543 NIL=
201304070000 AAXX 07004 67543 NIL=
201304062100 AAXX 06214 67543 NIL=
201304061500 AAXX 06154 67543 NIL=
201304061200 AAXX 06120 67543 NIL=
201304060900 AAXX 06094 67543 NIL=
201304060600 AAXX 06064 67543 NIL=
201304060300 AAXX 06034 67543 NIL=
201304060000 AAXX 06004 67543 NIL=
201304051800 AAXX 05184 67543 NIL=
201304051200 AAXX 05124 67543 NIL=
201304050900 AAXX 05094 67543 NIL=
201304050600 AAXX 05064 67543 NIL=
201304050300 AAXX 05034 67543 NIL=
201304050000 AAXX 05004 67543 NIL=
201304041800 AAXX 04184 67543 NIL=

################################################################################
#  SYNOPS from 67551, Solwezi (Zambia) | 12-11S | 026-23E | 1386 m
################################################################################
201305010600 AAXX 01064 67551 NIL=
201305010300 AAXX 01034 67551 NIL=
201305010000 AAXX 01004 67551 NIL=
201304302100 AAXX 30214 67551 NIL=
201304301800 AAXX 30184 67551 NIL=
201304301500 AAXX 30154 67551 NIL=
201304301200 AAXX 30124 67551 NIL=
201304300900 AAXX 30094 67551 NIL=
201304300300 AAXX 30034 67551 NIL=
201304300000 AAXX 30004 67551 NIL=
201304291800 AAXX 29184 67551 NIL=
201304291500 AAXX 29154 67551 NIL=
201304290900 AAXX 29094 67551 NIL=
201304290000 AAXX 29004 67551 NIL=
201304281500 AAXX 28154 67551 NIL=
201304280900 AAXX 28094 67551 NIL=
201304280600 AAXX 28064 67551 NIL=
201304280300 AAXX 28034 67551 NIL=
201304280000 AAXX 28004 67551 NIL=
201304271800 AAXX 27184 67551 NIL=
201304271500 AAXX 27154 67551 NIL=
201304270300 AAXX 27034 67551 NIL=
201304262100 AAXX 26214 67551 NIL=
201304260000 AAXX 26004 67551 NIL=
201304251800 AAXX 25184 67551 NIL=
201304251200 AAXX 25124 67551 NIL=
201304250900 AAXX 25094 67551 NIL=
201304250600 AAXX 25064 67551 32470 61208 10180 20154 48563 86530
                   333 10273 20164 58025 86610 82362=
201304231200 AAXX 23121 67551 NIL=
201304230600 AAXX 23064 67551 32975 21404 10203 20168 48518 80001
                   333 10295 20144 59002 82080
                   555 00/// 91020=
201304230300 AAXX 23034 67551 NIL=
201304230000 AAXX 23004 67551 NIL=
201304222100 AAXX 22214 67551 NIL=
201304221500 AAXX 22154 67551 NIL=
201304220900 AAXX 22094 67551 NIL=
201304220600 AAXX 22064 67551 32970 20603 10171 20169 48521
                   333 10280 20130 59003 82080=
201304220000 AAXX 22004 67551 NIL=
201304211800 AAXX 21184 67551 NIL=
201304211500 AAXX 21154 67551 NIL=
201304211200 AAXX 21121 67551 NIL=
201304210900 AAXX 21094 67551 NIL=
201304210000 AAXX 21004 67551 NIL=
201304202100 AAXX 20214 67551 NIL=
201304201500 AAXX 20154 67551 NIL=
201304201200 AAXX 20120 67551 NIL=
201304200300 AAXX 20034 67551 NIL=
201304200000 AAXX 20004 67551 NIL=
201304191800 AAXX 19184 67551 NIL=
201304191500 AAXX 19154 67551 NIL=
201304190900 AAXX 19094 67551 NIL=
201304190600 AAXX 19064 67551 12970 70000 10186 20180 48525 60034 8703/
                   333 10220 20146 58000 87362=
201304181800 AAXX 18184 67551 NIL=
201304181500 AAXX 18154 67551 NIL=
201304181200 AAXX 18124 67551 NIL=
201304180900 AAXX 18094 67551 NIL=
201304180300 AAXX 18034 67551 NIL=
201304180000 AAXX 18004 67551 NIL=
201304171800 AAXX 17184 67551 NIL=
201304171200 AAXX 17124 67551 NIL=
201304170900 AAXX 17094 67551 NIL=
201304170600 AAXX 17064 67551 32975 21004 10167 20134 48533 80002
                   333 10271 20134 59002 82080=
201304170000 AAXX 17004 67551 NIL=
201304161500 AAXX 16154 67551 NIL=
201304160300 AAXX 16034 67551 NIL=
201304160000 AAXX 16004 67551 NIL=
201304152100 AAXX 15214 67551 NIL=
201304151800 AAXX 15184 67551 NIL=
201304151500 AAXX 15154 67551 NIL=
201304151200 AAXX 15124 67551 NIL=
201304150000 AAXX 15004 67551 NIL=
201304142100 AAXX 14214 67551 NIL=
201304141800 AAXX 14184 67551 NIL=
201304141500 AAXX 14154 67551 NIL=
201304140600 AAXX 14060 67551 NIL=
201304140300 AAXX 14034 67551 NIL=
201304140000 AAXX 14004 67551 NIL=
201304132100 AAXX 13214 67551 NIL=
201304131800 AAXX 13184 67551 NIL=
201304131500 AAXX 13154 67551 NIL=
201304131200 AAXX 13120 67551 NIL=
201304130300 AAXX 13034 67551 NIL=
201304130000 AAXX 13004 67551 NIL=
201304122100 AAXX 12214 67551 NIL=
201304121800 AAXX 12184 67551 NIL=
201304121500 AAXX 12154 67551 NIL=
201304121200 AAXX 12124 67551 NIL=
201304120900 AAXX 12094 67551 NIL=
201304120600 AAXX 12064 67551 NIL=
201304090600 AAXX 09064 67551 NIL=
201304090300 AAXX 09034 67551 NIL=
201304090000 AAXX 09004 67551 NIL=
201304081800 AAXX 08184 67551 NIL=
201304081500 AAXX 08154 67551 NIL=
201304080900 AAXX 08094 67551 NIL=
201304080600 AAXX 08060 67551 32975 30904 10175 20144 48531 83030
                   333 10203 20105 59002 83362=
201304080300 AAXX 08034 67551 NIL=
201304080000 AAXX 08004 67551 NIL=
201304072100 AAXX 07214 67551 NIL=
201304071800 AAXX 07184 67551 NIL=
201304071500 AAXX 07154 67551 NIL=
201304071200 AAXX 07120 67551 NIL=
201304070900 AAXX 07094 67551 NIL=
201304070600 AAXX 07061 67551 NIL=
201304070300 AAXX 07034 67551 NIL=
201304070000 AAXX 07004 67551 NIL=
201304062100 AAXX 06214 67551 NIL=
201304061500 AAXX 06154 67551 NIL=
201304061200 AAXX 06120 67551 NIL=
201304060900 AAXX 06094 67551 NIL=
201304060600 AAXX 06064 67551 NIL=
201304060300 AAXX 06034 67551 NIL=
201304060000 AAXX 06004 67551 NIL=
201304051800 AAXX 05184 67551 NIL=
201304051200 AAXX 05124 67551 NIL=
201304050900 AAXX 05094 67551 NIL=
201304050600 AAXX 05064 67551 32975 50704 10210 20163 48525 85030
                   333 10300 20150 58005 85362=
201304050300 AAXX 05034 67551 NIL=
201304050000 AAXX 05004 67551 NIL=
201304041800 AAXX 04184 67551 NIL=

################################################################################
#  SYNOPS from 67561, Ndola (Zambia) | 13-00S | 028-39E | 1269 m
################################################################################
201305010600 AAXX 01064 67561 NIL=
201305010300 AAXX 01034 67561 NIL=
201305010000 AAXX 01004 67561 NIL=
201304302100 AAXX 30214 67561 NIL=
201304301800 AAXX 30184 67561 NIL=
201304301500 AAXX 30154 67561 42980 41106 10253 20111 48541 84261
                   333 58019 84859 81360 81080
                   555 10273 91021=
201304301200 AAXX 30124 67561 42780 61406 10255 20109 48542 86201
                   333 58027 86850 81080 91021=
201304300900 AAXX 30094 67561 NIL=
201304300300 AAXX 30034 67561 NIL=
201304300000 AAXX 30004 67561 NIL=
201304291800 AAXX 29184 67561 NIL=
201304291500 AAXX 29154 67561 NIL=
201304290900 AAXX 29094 67561 42680 11204 10248 20109 48546 81100
                   333 59001 81840 91022=
201304290600 AAXX 29064 67561 42780 51205 10228 20114 48530 85200
                   333 59020 85856 555 10262=
201304290000 AAXX 29004 67561 NIL=
201304281500 AAXX 28154 67561 NIL=
201304280900 AAXX 28094 67561 NIL=
201304280600 AAXX 28064 67561 NIL=
201304280300 AAXX 28034 67561 NIL=
201304280000 AAXX 28004 67561 NIL=
201304271800 AAXX 27184 67561 NIL=
201304271500 AAXX 27154 67561 NIL=
201304270300 AAXX 27034 67561 NIL=
201304262100 AAXX 26214 67561 NIL=
201304260000 AAXX 26004 67561 NIL=
201304251800 AAXX 25184 67561 NIL=
201304251200 AAXX 25124 67561 42680 71305 10222 20141 48555 872//
                   333 58024 87835 91023=
201304250900 AAXX 25094 67561 41575 80704 10211 20137 48574 70522 885//
                   333 58022 88620 555 91021=
201304250600 AAXX 25064 67561 NIL=
201304231200 AAXX 23121 67561 NIL=
201304230600 AAXX 23064 67561 31970 30000 10208 20167 48517 70511 80002
                   333 10303 20150 59008 83080=
201304230300 AAXX 23034 67561 NIL=
201304230000 AAXX 23004 67561 NIL=
201304222100 AAXX 22214 67561 NIL=
201304221500 AAXX 22154 67561 NIL=
201304220900 AAXX 22094 67561 42680 50609 10281 20148 48527 83208
                   333 59004 83840 85280 91019=
201304220600 AAXX 22064 67561 31975 50000 10209 20157 48525 80008
                   333 10291 20134 59001 85280
                   555 00/// 91020=
201304220000 AAXX 22004 67561 NIL=
201304211800 AAXX 21184 67561 NIL=
201304211500 AAXX 21154 67561 42980 40803 10274 20154 48499 82232
                   333 59004 82859 81360 82080
                   555 10291 91016=
201304211200 AAXX 21121 67561 NIL=
201304210900 AAXX 21094 67561 NIL=
201304210600 AAXX 21064 67561 31975 70000 10190 20152 48516 70522 81038
                   333 10296 20146 59006 81360 87280
                   555 00/// 91020=
201304210000 AAXX 21004 67561 NIL=
201304202100 AAXX 20214 67561 NIL=
201304201500 AAXX 20154 67561 NIL=
201304201200 AAXX 20120 67561 NIL=
201304200300 AAXX 20034 67561 NIL=
201304200000 AAXX 20004 67561 NIL=
201304191800 AAXX 19184 67561 41960 71110 10216 20168 48510 71392 81938
                   333 10300 58013 81959 86360 87280 91018=
201304191500 AAXX 19154 67561 NIL=
201304190900 AAXX 19094 67561 41560 60305 10271 20182 48521 70522 83138
                   333 59001 83830 86360 85280 91019=
201304190600 AAXX 19064 67561 31960 60304 10196 20178 48519 70522 86038
                   333 59001 86360 85280
                   555 00///=
201304181800 AAXX 18184 67561 NIL=
201304181500 AAXX 18154 67561 NIL=
201304181200 AAXX 18124 67561 NIL=
201304180900 AAXX 18094 67561 NIL=
201304180300 AAXX 18034 67561 NIL=
201304180000 AAXX 18004 67561 NIL=
201304171800 AAXX 17184 67561 NIL=
201304171200 AAXX 17124 67561 NIL=
201304170900 AAXX 17094 67561 42680 60000 10258 20110 48531 81108
                   333 59003 81845 85280 91020=
201304170600 AAXX 17060 67561 31960 50000 10163 20132 48524 70522 80008
                   333 10285 20109 59002 85280
                   555 00/// 91020=
201304170000 AAXX 17004 67561 NIL=
201304161500 AAXX 16154 67561 NIL=
201304160600 AAXX 16064 67561 31930 00000 10155 20129 48525 74600
                   333 10274 20090 59015
                   555 00/// 91020=
201304160300 AAXX 16034 67561 NIL=
201304160000 AAXX 16004 67561 NIL=
201304152100 AAXX 15214 67561 NIL=
201304151800 AAXX 15184 67561 41970 11406 10202 20106 48520 70500 81030
                   333 10274 59016 81360 91019=
201304151500 AAXX 15154 67561 NIL=
201304151200 AAXX 15124 67561 42680 31305 10265 20100 48525 83100
                   333 59013 83850 555 66/// 77107 8862/ 98004
                   91019=
201304150600 AAXX 15064 67561 31960 20000 10158 20124 48510 70500 80002
                   333 10274 20106 59012 82080=
201304150000 AAXX 15004 67561 NIL=
201304142100 AAXX 14214 67561 NIL=
201304141800 AAXX 14184 67561 NIL=
201304141500 AAXX 14154 67561 NIL=
201304140600 AAXX 14060 67561 NIL=
201304140300 AAXX 14034 67561 NIL=
201304140000 AAXX 14004 67561 NIL=
201304132100 AAXX 13214 67561 NIL=
201304131800 AAXX 13184 67561 NIL=
201304131500 AAXX 13154 67561 NIL=
201304131200 AAXX 13120 67561 NIL=
201304130300 AAXX 13034 67561 NIL=
201304130000 AAXX 13004 67561 NIL=
201304122100 AAXX 12214 67561 NIL=
201304121800 AAXX 12184 67561 NIL=
201304121500 AAXX 12154 67561 NIL=
201304121200 AAXX 12124 67561 NIL=
201304120900 AAXX 12094 67561 NIL=
201304120600 AAXX 12064 67561 31960 20000 10190 20160 48532 70522 81038
                   333 10295 20145 58014 81360 87280=
201304090600 AAXX 09064 67561 31960 20000 10194 20138 48538 70500 80002
                   333 10293 20110 58006 82080=
201304090300 AAXX 09034 67561 NIL=
201304090000 AAXX 09004 67561 NIL=
201304081800 AAXX 08184 67561 NIL=
201304081500 AAXX 08154 67561 NIL=
201304080900 AAXX 08094 67561 42680 10000 10260 20133 48538 81100
                   333 58001 81835 91021=
201304080600 AAXX 08060 67561 NIL=
201304080300 AAXX 08034 67561 NIL=
201304080000 AAXX 08004 67561 NIL=
201304072100 AAXX 07214 67561 NIL=
201304071800 AAXX 07184 67561 NIL=
201304071500 AAXX 07154 67561 NIL=
201304071200 AAXX 07120 67561 NIL=
201304070900 AAXX 07094 67561 NIL=
201304070600 AAXX 07061 67561 NIL=
201304070300 AAXX 07034 67561 NIL=
201304070000 AAXX 07004 67561 NIL=
201304062100 AAXX 06214 67561 NIL=
201304061500 AAXX 06154 67561 NIL=
201304061200 AAXX 06120 67561 NIL=
201304060900 AAXX 06094 67561 NIL=
201304060600 AAXX 06064 67561 NIL=
201304060300 AAXX 06034 67561 NIL=
201304060000 AAXX 06004 67561 NIL=
201304051800 AAXX 05184 67561 NIL=
201304051200 AAXX 05124 67561 NIL=
201304050900 AAXX 05094 67561 NIL=
201304050600 AAXX 05064 67561 31370 51005 10218 20173 48531 70522 83538
                   333 10308 58012 83610 83360 85280
                   555 00/// 91020=
201304050300 AAXX 05034 67561 NIL=
201304050000 AAXX 05004 67561 NIL=
201304041800 AAXX 04184 67561 NIL=

################################################################################
#  SYNOPS from 67563, Kafironda (Zambia) | 12-36S | 028-07E | 1243 m
################################################################################
201305010600 AAXX 01064 67563 NIL=
201305010300 AAXX 01034 67563 NIL=
201305010000 AAXX 01004 67563 NIL=
201304302100 AAXX 30214 67563 NIL=
201304301800 AAXX 30184 67563 NIL=
201304301500 AAXX 30154 67563 NIL=
201304301200 AAXX 30124 67563 NIL=
201304300900 AAXX 30094 67563 NIL=
201304300600 AAXX 30064 67563 31970 30702 10173 20140 48/// 70500 83030
                   333 10286 20070 58008 83360=
201304300300 AAXX 30034 67563 NIL=
201304300000 AAXX 30004 67563 NIL=
201304291800 AAXX 29184 67563 NIL=
201304291500 AAXX 29154 67563 NIL=
201304290900 AAXX 29094 67563 NIL=
201304290600 AAXX 29064 67563 31970 11202 10160 20130 48/// 70500 80001
                   333 10282 20067 58003 81080=
201304290000 AAXX 29004 67563 NIL=
201304281500 AAXX 28154 67563 NIL=
201304280900 AAXX 28094 67563 NIL=
201304280600 AAXX 28064 67563 NIL=
201304280300 AAXX 28034 67563 NIL=
201304280000 AAXX 28004 67563 NIL=
201304271800 AAXX 27184 67563 NIL=
201304271500 AAXX 27154 67563 NIL=
201304270300 AAXX 27034 67563 NIL=
201304262100 AAXX 26214 67563 NIL=
201304261200 AAXX 26124 67563 41670 31204 10264 20140 48/// 70500 83100
                   333 59023 83842=
201304260900 AAXX 26094 67563 41670 21607 10242 20140 48/// 70500 82100
                   333 59011 82830=
201304260600 AAXX 26064 67563 31970 11702 10160 20130 48/// 72840 80001
                   333 10246 20087 59005 81080=
201304260000 AAXX 26004 67563 NIL=
201304251800 AAXX 25184 67563 NIL=
201304251200 AAXX 25124 67563 NIL=
201304250900 AAXX 25094 67563 41475 71207 10217 20160 48/// 70522 87500
                   333 58054 87618=
201304250600 AAXX 25064 67563 11375 61506 10186 20160 48/// 60014 72842 86600
                   333 10290 20121 58031 86707=
201304231200 AAXX 23121 67563 NIL=
201304230600 AAXX 23064 67563 31970 11902 10216 20170 48/// 70500 80001
                   333 10311 20114 59007 81080=
201304230300 AAXX 23034 67563 NIL=
201304230000 AAXX 23004 67563 NIL=
201304222100 AAXX 22214 67563 NIL=
201304221500 AAXX 22154 67563 NIL=
201304220900 AAXX 22094 67563 NIL=
201304220600 AAXX 22064 67563 31970 10702 10184 20180 48/// 70500 80001
                   333 10303 20116 58001 81080
                   555 00116=
201304220000 AAXX 22004 67563 NIL=
201304211800 AAXX 21184 67563 NIL=
201304211500 AAXX 21154 67563 NIL=
201304211200 AAXX 21121 67563 NIL=
201304210900 AAXX 21094 67563 NIL=
201304210000 AAXX 21004 67563 NIL=
201304202100 AAXX 20214 67563 NIL=
201304201500 AAXX 20154 67563 NIL=
201304201200 AAXX 20120 67563 NIL=
201304200300 AAXX 20034 67563 NIL=
201304200000 AAXX 20004 67563 NIL=
201304191800 AAXX 19184 67563 NIL=
201304191500 AAXX 19154 67563 NIL=
201304190900 AAXX 19094 67563 NIL=
201304190600 AAXX 19064 67563 31970 72801 10186 20180 48/// 70521 87070
                   333 10309 20152 58000 87360
                   555 00150=
201304181800 AAXX 18184 67563 NIL=
201304181500 AAXX 18154 67563 NIL=
201304181200 AAXX 18124 67563 NIL=
201304180900 AAXX 18094 67563 NIL=
201304180300 AAXX 18034 67563 NIL=
201304180000 AAXX 18004 67563 NIL=
201304171800 AAXX 17184 67563 NIL=
201304171200 AAXX 17124 67563 NIL=
201304170900 AAXX 17094 67563 NIL=
201304170600 AAXX 17064 67563 31970 30401 10170 20140 48/// 70500 80001
                   333 10286 20089 59003 83080
                   555 00089=
201304170000 AAXX 17004 67563 NIL=
201304161500 AAXX 16154 67563 NIL=
201304160600 AAXX 16064 67563 31970 11801 10150 20130 48/// 70500 80001
                   333 10284 20069 59016 81080
                   555 00069=
201304160300 AAXX 16034 67563 NIL=
201304160000 AAXX 16004 67563 NIL=
201304152100 AAXX 15214 67563 NIL=
201304151800 AAXX 15184 67563 NIL=
201304151500 AAXX 15154 67563 NIL=
201304151200 AAXX 15124 67563 NIL=
201304150900 AAXX 15094 67563 41670 11304 10252 20140 48/// 70500 81100
                   333 5//// 81840=
201304150600 AAXX 15064 67563 31970 00000 10170 20140 48/// 70500
                   333 10280 20076 59009
                   555 00084=
201304150000 AAXX 15004 67563 NIL=
201304142100 AAXX 14214 67563 NIL=
201304141800 AAXX 14184 67563 NIL=
201304141500 AAXX 14154 67563 NIL=
201304140600 AAXX 14060 67563 NIL=
201304140300 AAXX 14034 67563 NIL=
201304140000 AAXX 14004 67563 NIL=
201304132100 AAXX 13214 67563 NIL=
201304131800 AAXX 13184 67563 NIL=
201304131500 AAXX 13154 67563 NIL=
201304131200 AAXX 13120 67563 NIL=
201304130300 AAXX 13034 67563 NIL=
201304130000 AAXX 13004 67563 NIL=
201304122100 AAXX 12214 67563 NIL=
201304121800 AAXX 12184 67563 NIL=
201304121500 AAXX 12154 67563 NIL=
201304121200 AAXX 12124 67563 NIL=
201304120900 AAXX 12094 67563 NIL=
201304120600 AAXX 12064 67563 32970 31502 10196 20160 48/// 70500 80002
                   333 10299 20119 58014 83080
                   555 00118=
201304090600 AAXX 09064 67563 31970 10000 10200 20160 48/// 70500 81030
                   333 10294 20104 58001 81360
                   555 00104=
201304090300 AAXX 09034 67563 NIL=
201304090000 AAXX 09004 67563 NIL=
201304081800 AAXX 08184 67563 NIL=
201304081500 AAXX 08154 67563 NIL=
201304081200 AAXX 08124 67563 41670 31703 10278 20160 48/// 70500 83100
                   333 5//// 83842=
201304080900 AAXX 08094 67563 41670 10201 10260 20150 48/// 70500 81100
                   333 5//// 81835=
201304080600 AAXX 08060 67563 NIL=
201304080300 AAXX 08034 67563 NIL=
201304080000 AAXX 08004 67563 NIL=
201304072100 AAXX 07214 67563 NIL=
201304071800 AAXX 07184 67563 NIL=
201304071500 AAXX 07154 67563 NIL=
201304071200 AAXX 07120 67563 NIL=
201304070900 AAXX 07094 67563 NIL=
201304070600 AAXX 07061 67563 NIL=
201304070300 AAXX 07034 67563 NIL=
201304070000 AAXX 07004 67563 NIL=
201304062100 AAXX 06214 67563 NIL=
201304061500 AAXX 06154 67563 NIL=
201304061200 AAXX 06120 67563 NIL=
201304060900 AAXX 06094 67563 NIL=
201304060600 AAXX 06064 67563 NIL=
201304060300 AAXX 06034 67563 NIL=
201304060000 AAXX 06004 67563 NIL=
201304051800 AAXX 05184 67563 NIL=
201304051200 AAXX 05124 67563 NIL=
201304050900 AAXX 05094 67563 NIL=
201304050600 AAXX 05064 67563 31970 31201 10230 20180 48/// 70500 81032
                   333 10345 20156 58009 81360 83080=
201304050300 AAXX 05034 67563 NIL=
201304050000 AAXX 05004 67563 NIL=
201304041800 AAXX 04184 67563 NIL=

################################################################################
#  SYNOPS from 67571, Serenje (Zambia) | 13-14S | 030-13E | 1384 m
################################################################################
201305010600 AAXX 01064 67571 NIL=
201305010300 AAXX 01034 67571 NIL=
201305010000 AAXX 01004 67571 NIL=
201304302100 AAXX 30214 67571 NIL=
201304301800 AAXX 30184 67571 NIL=
201304301500 AAXX 30154 67571 NIL=
201304301200 AAXX 30124 67571 NIL=
201304300900 AAXX 30094 67571 NIL=
201304300300 AAXX 30034 67571 NIL=
201304300000 AAXX 30004 67571 NIL=
201304291800 AAXX 29184 67571 NIL=
201304291500 AAXX 29154 67571 NIL=
201304290900 AAXX 29094 67571 42682 50905 10223 20126 48543 70311 85100
                   333 59002 85840=
201304290000 AAXX 29004 67571 NIL=
201304281500 AAXX 28154 67571 NIL=
201304280900 AAXX 28094 67571 NIL=
201304280600 AAXX 28064 67571 NIL=
201304280300 AAXX 28034 67571 NIL=
201304280000 AAXX 28004 67571 NIL=
201304271800 AAXX 27184 67571 NIL=
201304271500 AAXX 27154 67571 NIL=
201304270300 AAXX 27034 67571 NIL=
201304262100 AAXX 26214 67571 NIL=
201304260000 AAXX 26004 67571 NIL=
201304251800 AAXX 25184 67571 NIL=
201304251200 AAXX 25124 67571 NIL=
201304250900 AAXX 25094 67571 NIL=
201304250600 AAXX 25064 67571 12482 80910 10171 20134 48569 69904 70222 885//
                   333 10261 20159 58028 88617
                   555 00/// 20000=
201304231200 AAXX 23121 67571 42782 71204 10279 20156 48495 70222 84108
                   333 58003 84850 87280=
201304230600 AAXX 23064 67571 32582 70905 10213 20165 48522 70222 81108
                   333 10290 20115 59004 81820 87280
                   555 00/// 20000=
201304230300 AAXX 23034 67571 NIL=
201304230000 AAXX 23004 67571 NIL=
201304222100 AAXX 22214 67571 NIL=
201304221500 AAXX 22154 67571 NIL=
201304220900 AAXX 22094 67571 42682 70904 10268 20149 48525 70222 82108
                   333 58000 82849 87280=
201304220600 AAXX 22064 67571 32982 70902 10216 20158 48523 70222 80008
                   333 10289 20147 58001 87280
                   555 00/// 20000=
201304220000 AAXX 22004 67571 NIL=
201304211800 AAXX 21184 67571 NIL=
201304211500 AAXX 21154 67571 NIL=
201304211200 AAXX 21121 67571 NIL=
201304210900 AAXX 21094 67571 NIL=
201304210000 AAXX 21004 67571 NIL=
201304202100 AAXX 20214 67571 NIL=
201304201500 AAXX 20154 67571 NIL=
201304201200 AAXX 20120 67571 NIL=
201304200300 AAXX 20034 67571 NIL=
201304200000 AAXX 20004 67571 NIL=
201304191800 AAXX 19184 67571 NIL=
201304191500 AAXX 19154 67571 NIL=
201304190900 AAXX 19094 67571 NIL=
201304181800 AAXX 18184 67571 NIL=
201304181500 AAXX 18154 67571 NIL=
201304181200 AAXX 18124 67571 NIL=
201304180900 AAXX 18094 67571 42582 12704 10268 20141 48515 70200 81101
                   333 59005 81824 81080=
201304180300 AAXX 18034 67571 NIL=
201304180000 AAXX 18004 67571 NIL=
201304171800 AAXX 17184 67571 NIL=
201304171200 AAXX 17124 67571 NIL=
201304170900 AAXX 17094 67571 NIL=
201304170600 AAXX 17060 67571 32982 70903 10211 20114 48522 70222 80008
                   333 10268 20110 59005 87280
                   555 00/// 20000=
201304170000 AAXX 17004 67571 NIL=
201304161500 AAXX 16154 67571 NIL=
201304160300 AAXX 16034 67571 NIL=
201304160000 AAXX 16004 67571 NIL=
201304152100 AAXX 15214 67571 NIL=
201304151800 AAXX 15184 67571 NIL=
201304151500 AAXX 15154 67571 NIL=
201304151200 AAXX 15124 67571 42682 10904 10237 20101 48524 70200 81101
                   333 59015 81834 81081=
201304150600 AAXX 15064 67571 32482 21203 10200 20122 48542 70100 82501
                   333 10243 20097 59012 82617 81080
                   555 00/// 20990=
201304150000 AAXX 15004 67571 NIL=
201304142100 AAXX 14214 67571 NIL=
201304141800 AAXX 14184 67571 NIL=
201304141500 AAXX 14154 67571 NIL=
201304140600 AAXX 14060 67571 NIL=
201304140300 AAXX 14034 67571 NIL=
201304140000 AAXX 14004 67571 NIL=
201304132100 AAXX 13214 67571 NIL=
201304131800 AAXX 13184 67571 NIL=
201304131500 AAXX 13154 67571 NIL=
201304131200 AAXX 13120 67571 NIL=
201304130300 AAXX 13034 67571 NIL=
201304130000 AAXX 13004 67571 NIL=
201304122100 AAXX 12214 67571 NIL=
201304121800 AAXX 12184 67571 NIL=
201304121500 AAXX 12154 67571 NIL=
201304121200 AAXX 12124 67571 NIL=
201304120900 AAXX 12094 67571 NIL=
201304120600 AAXX 12064 67571 NIL=
201304090600 AAXX 09064 67571 32982 21202 10227 20121 48533 70100 80001
                   333 10282 20116 58004 82080
                   555 00/// 20000=
201304090300 AAXX 09034 67571 NIL=
201304090000 AAXX 09004 67571 NIL=
201304081800 AAXX 08184 67571 NIL=
201304081500 AAXX 08154 67571 NIL=
201304080900 AAXX 08094 67571 42582 41203 10256 20127 48552 70300 82101
                   333 58006 82826 83080=
201304080600 AAXX 08064 67571 32982 21202 10215 20124 48533 70100 80001
                   333 10266 20146 58005 82080
                   555 00/// 20000=
201304080300 AAXX 08034 67571 NIL=
201304080000 AAXX 08004 67571 NIL=
201304072100 AAXX 07214 67571 NIL=
201304071800 AAXX 07184 67571 NIL=
201304071500 AAXX 07154 67571 NIL=
201304071200 AAXX 07120 67571 NIL=
201304070900 AAXX 07094 67571 NIL=
201304070600 AAXX 07061 67571 NIL=
201304070300 AAXX 07034 67571 NIL=
201304070000 AAXX 07004 67571 NIL=
201304062100 AAXX 06214 67571 NIL=
201304061500 AAXX 06154 67571 NIL=
201304061200 AAXX 06120 67571 NIL=
201304060900 AAXX 06094 67571 NIL=
201304060600 AAXX 06064 67571 32482 80907 10166 20139 48540 70222 885//
                   333 10267 20153 58009 88617
                   555 00/// 20990=
201304060300 AAXX 06034 67571 NIL=
201304060000 AAXX 06004 67571 NIL=
201304051800 AAXX 05184 67571 NIL=
201304051200 AAXX 05124 67571 NIL=
201304050900 AAXX 05094 67571 NIL=
201304050600 AAXX 05064 67571 11276 81503 10188 20166 48531 69904 72052 887//
                   333 10304 20170 58015 88705
                   555 00/// 20990=
201304050300 AAXX 05034 67571 NIL=
201304050000 AAXX 05004 67571 NIL=
201304041800 AAXX 04184 67571 NIL=

################################################################################
#  SYNOPS from 67575, Mkushi (Zambia) | 13-38S | 029-53E | 1237 m
################################################################################
201305010600 AAXX 01064 67575 NIL=
201305010300 AAXX 01034 67575 NIL=
201305010000 AAXX 01004 67575 NIL=
201304302100 AAXX 30214 67575 NIL=
201304301800 AAXX 30184 67575 NIL=
201304301500 AAXX 30154 67575 NIL=
201304301200 AAXX 30124 67575 NIL=
201304300900 AAXX 30094 67575 NIL=
201304300300 AAXX 30034 67575 NIL=
201304300000 AAXX 30004 67575 NIL=
201304291800 AAXX 29184 67575 NIL=
201304291500 AAXX 29154 67575 NIL=
201304290900 AAXX 29094 67575 NIL=
201304290600 AAXX 29064 67575 32980 01204 10171 20110 48///
                   333 10262 20110 5////
                   555 00///=
201304290000 AAXX 29004 67575 NIL=
201304281500 AAXX 28154 67575 NIL=
201304280900 AAXX 28094 67575 NIL=
201304280600 AAXX 28064 67575 NIL=
201304280300 AAXX 28034 67575 NIL=
201304280000 AAXX 28004 67575 NIL=
201304271800 AAXX 27184 67575 NIL=
201304271500 AAXX 27154 67575 NIL=
201304270300 AAXX 27034 67575 NIL=
201304262100 AAXX 26214 67575 NIL=
201304260000 AAXX 26004 67575 NIL=
201304251800 AAXX 25184 67575 NIL=
201304251200 AAXX 25124 67575 NIL=
201304250900 AAXX 25094 67575 NIL=
201304250600 AAXX 25064 67575 NIL=
201304231200 AAXX 23121 67575 NIL=
201304230600 AAXX 23064 67575 NIL=
201304230300 AAXX 23034 67575 NIL=
201304230000 AAXX 23004 67575 NIL=
201304222100 AAXX 22214 67575 NIL=
201304221500 AAXX 22154 67575 NIL=
201304220900 AAXX 22094 67575 NIL=
201304220600 AAXX 22064 67575 32980 10000 10213 20161 48/// 80001
                   333 10306 20130 5//// 81080
                   555 00///=
201304220000 AAXX 22004 67575 NIL=
201304211800 AAXX 21184 67575 NIL=
201304211500 AAXX 21154 67575 NIL=
201304211200 AAXX 21121 67575 NIL=
201304210900 AAXX 21094 67575 NIL=
201304210000 AAXX 21004 67575 NIL=
201304202100 AAXX 20214 67575 NIL=
201304201500 AAXX 20154 67575 NIL=
201304201200 AAXX 20120 67575 NIL=
201304200300 AAXX 20034 67575 NIL=
201304200000 AAXX 20004 67575 NIL=
201304191800 AAXX 19184 67575 NIL=
201304191500 AAXX 19154 67575 NIL=
201304190900 AAXX 19094 67575 NIL=
201304190600 AAXX 19064 67575 32980 10000 10200 20169 48/// 81030
                   333 10303 20143 5//// 81360=
201304181800 AAXX 18184 67575 NIL=
201304181500 AAXX 18154 67575 NIL=
201304181200 AAXX 18124 67575 NIL=
201304180900 AAXX 18094 67575 NIL=
201304180300 AAXX 18034 67575 NIL=
201304180000 AAXX 18004 67575 NIL=
201304171800 AAXX 17184 67575 NIL=
201304171200 AAXX 17124 67575 NIL=
201304170900 AAXX 17094 67575 NIL=
201304170600 AAXX 17064 67575 32980 11302 10188 20139 48/// 80001
                   333 10280 20132 5//// 81080
                   555 00///=
201304170000 AAXX 17004 67575 NIL=
201304161500 AAXX 16154 67575 NIL=
201304160300 AAXX 16034 67575 NIL=
201304160000 AAXX 16004 67575 NIL=
201304152100 AAXX 15214 67575 NIL=
201304151800 AAXX 15184 67575 NIL=
201304151500 AAXX 15154 67575 NIL=
201304151200 AAXX 15124 67575 NIL=
201304150600 AAXX 15064 67575 32980 01301 10168 20128 48///
                   333 10266 20095 5////=
201304150000 AAXX 15004 67575 NIL=
201304142100 AAXX 14214 67575 NIL=
201304141800 AAXX 14184 67575 NIL=
201304141500 AAXX 14154 67575 NIL=
201304140600 AAXX 14060 67575 NIL=
201304140300 AAXX 14034 67575 NIL=
201304140000 AAXX 14004 67575 NIL=
201304132100 AAXX 13214 67575 NIL=
201304131800 AAXX 13184 67575 NIL=
201304131500 AAXX 13154 67575 NIL=
201304131200 AAXX 13120 67575 NIL=
201304130300 AAXX 13034 67575 NIL=
201304130000 AAXX 13004 67575 NIL=
201304122100 AAXX 12214 67575 NIL=
201304121800 AAXX 12184 67575 NIL=
201304121500 AAXX 12154 67575 NIL=
201304121200 AAXX 12124 67575 NIL=
201304120900 AAXX 12094 67575 NIL=
201304120600 AAXX 12064 67575 32480 31306 10189 20152 48/// 82531
                   333 10300 20157 5//// 85615 81360 82080=
201304090600 AAXX 09064 67575 32980 10000 10170 20122 48/// 80001
                   333 10300 20155 59004 91020=
201304090300 AAXX 09034 67575 NIL=
201304090000 AAXX 09004 67575 NIL=
201304081800 AAXX 08184 67575 NIL=
201304081500 AAXX 08154 67575 NIL=
201304080900 AAXX 08094 67575 NIL=
201304080600 AAXX 08060 67575 NIL=
201304080300 AAXX 08034 67575 NIL=
201304080000 AAXX 08004 67575 NIL=
201304072100 AAXX 07214 67575 NIL=
201304071800 AAXX 07184 67575 NIL=
201304071500 AAXX 07154 67575 NIL=
201304071200 AAXX 07120 67575 NIL=
201304070900 AAXX 07094 67575 NIL=
201304070600 AAXX 07061 67575 NIL=
201304070300 AAXX 07034 67575 NIL=
201304070000 AAXX 07004 67575 NIL=
201304062100 AAXX 06214 67575 NIL=
201304061500 AAXX 06154 67575 NIL=
201304061200 AAXX 06120 67575 NIL=
201304060900 AAXX 06094 67575 NIL=
201304060600 AAXX 06064 67575 NIL=
201304060300 AAXX 06034 67575 NIL=
201304060000 AAXX 06004 67575 NIL=
201304051800 AAXX 05184 67575 NIL=
201304051200 AAXX 05124 67575 NIL=
201304050900 AAXX 05094 67575 NIL=
201304050600 AAXX 05064 67575 NIL=
201304050300 AAXX 05034 67575 NIL=
201304050000 AAXX 05004 67575 NIL=
201304041800 AAXX 04184 67575 NIL=

################################################################################
#  SYNOPS from 67580, Msekera (Zambia) | 13-39S | 032-34E | 1025 m
################################################################################
201305010600 AAXX 01064 67580 32480 31610 10188 20120 48/// 81131
                   333 10274 20//0 58018 81818 81360 82080
                   555 00///=
201305010300 AAXX 01034 67580 NIL=
201305010000 AAXX 01004 67580 NIL=
201304302100 AAXX 30214 67580 NIL=
201304301800 AAXX 30184 67580 NIL=
201304301500 AAXX 30154 67580 NIL=
201304301200 AAXX 30124 67580 42780 61207 10253 20125 48/// 86100
                   333 58023 86856=
201304300900 AAXX 30094 67580 42680 31208 10248 20112 48/// 81130
                   333 5//// 81845 82360=
201304300300 AAXX 30034 67580 NIL=
201304300000 AAXX 30004 67580 NIL=
201304291800 AAXX 29184 67580 NIL=
201304291500 AAXX 29154 67580 NIL=
201304290900 AAXX 29094 67580 42680 61605 10250 20121 48/// 86800
                   333 59008 82835 85640=
201304290000 AAXX 29004 67580 NIL=
201304281500 AAXX 28154 67580 NIL=
201304280900 AAXX 28094 67580 NIL=
201304280600 AAXX 28064 67580 32480 11604 10190 20134 48/// 81130
                   333 10265 20//0 58001 81818 81362
                   555 00/// 20000=
201304280300 AAXX 28034 67580 NIL=
201304280000 AAXX 28004 67580 NIL=
201304271800 AAXX 27184 67580 NIL=
201304271500 AAXX 27154 67580 NIL=
201304270300 AAXX 27034 67580 NIL=
201304262100 AAXX 26214 67580 NIL=
201304260000 AAXX 26004 67580 NIL=
201304251800 AAXX 25184 67580 NIL=
201304251200 AAXX 25124 67580 NIL=
201304250900 AAXX 25094 67580 42580 51208 10232 20136 48/// 84101
                   333 58018 84824 82080=
201304250600 AAXX 25064 67580 12480 71506 10191 20146 48/// 69904 86501
                   333 10274 20/// 58029 86612 82080
                   555 00/// 20996=
201304231200 AAXX 23121 67580 42880 71504 10321 20160 48/// 86201
                   333 58000 86857 82080=
201304230600 AAXX 23064 67580 32580 41203 10255 20193 48/// 81101
                   333 10327 20//0 59002 81822 83080
                   555 00/// 20000=
201304230300 AAXX 23034 67580 NIL=
201304230000 AAXX 23004 67580 NIL=
201304222100 AAXX 22214 67580 NIL=
201304221500 AAXX 22154 67580 NIL=
201304220900 AAXX 22094 67580 NIL=
201304220600 AAXX 22064 67580 32980 12802 10240 20188 48/// 81010
                   333 10319 20//0 59002 81361
                   555 00/// 20000=
201304220000 AAXX 22004 67580 NIL=
201304211800 AAXX 21184 67580 NIL=
201304211500 AAXX 21154 67580 NIL=
201304211200 AAXX 21121 67580 NIL=
201304210900 AAXX 21094 67580 NIL=
201304210000 AAXX 21004 67580 NIL=
201304202100 AAXX 20214 67580 NIL=
201304201500 AAXX 20154 67580 NIL=
201304201200 AAXX 20120 67580 NIL=
201304200300 AAXX 20034 67580 NIL=
201304200000 AAXX 20004 67580 NIL=
201304191800 AAXX 19184 67580 NIL=
201304191500 AAXX 19154 67580 NIL=
201304190900 AAXX 19094 67580 42680 70000 10302 20182 48/// 85238
                   333 59001 85848 82362 85280=
201304181800 AAXX 18184 67580 NIL=
201304181500 AAXX 18154 67580 NIL=
201304181200 AAXX 18124 67580 42880 52703 10305 20170 48/// 84102
                   333 59012 84857 81080=
201304180900 AAXX 18094 67580 42680 11205 10281 20156 48/// 81100
                   333 59009 81845=
201304180300 AAXX 18034 67580 NIL=
201304180000 AAXX 18004 67580 NIL=
201304171800 AAXX 17184 67580 NIL=
201304171200 AAXX 17124 67580 42780 62403 10290 20140 48/// 84101
                   333 59006 84856 82080=
201304170900 AAXX 17094 67580 42680 42103 10270 20144 48/// 83101
                   333 59011 83834 81080=
201304170600 AAXX 17064 67580 32980 22702 10210 20153 48/// 80001
                   333 10290 20/// 59011 82080
                   555 00/// 20000=
201304170000 AAXX 17004 67580 NIL=
201304161500 AAXX 16154 67580 NIL=
201304160300 AAXX 16034 67580 NIL=
201304160000 AAXX 16004 67580 NIL=
201304152100 AAXX 15214 67580 NIL=
201304151800 AAXX 15184 67580 NIL=
201304151500 AAXX 15154 67580 NIL=
201304151200 AAXX 15124 67580 42880 11806 10258 20120 48/// 81100
                   333 59011 81857=
201304150000 AAXX 15004 67580 NIL=
201304142100 AAXX 14214 67580 NIL=
201304141800 AAXX 14184 67580 NIL=
201304141500 AAXX 14154 67580 NIL=
201304140600 AAXX 14061 67580 32580 10306 10191 20129 48/// 81130
                   333 10257 20//0 58000 81820 81360
                   555 00/// 20990=
201304140300 AAXX 14034 67580 NIL=
201304140000 AAXX 14004 67580 NIL=
201304132100 AAXX 13214 67580 NIL=
201304131800 AAXX 13184 67580 NIL=
201304131500 AAXX 13154 67580 NIL=
201304131200 AAXX 13120 67580 42780 71608 10245 20153 48/// 83131
                   333 58026 83850 82360 83080=
201304130300 AAXX 13034 67580 NIL=
201304130000 AAXX 13004 67580 NIL=
201304122100 AAXX 12214 67580 NIL=
201304121800 AAXX 12184 67580 NIL=
201304121500 AAXX 12154 67580 NIL=
201304121200 AAXX 12124 67580 42680 72108 10240 20211 48/// 8483/
                   333 58027 83836 81638 85360=
201304120900 AAXX 12094 67580 42580 71507 10230 20174 48/// 8783/
                   333 58022 83825 85628 81360=
201304120600 AAXX 12064 67580 32480 71511 10218 20169 48/// 87501
                   333 10300 20/// 5//// 87614 82080
                   555 00/// 20000=
201304090600 AAXX 09064 67580 32980 10000 10225 20153 48/// 80001
                   333 10307 20//0 58006 81080
                   555 00/// 20000=
201304090300 AAXX 09034 67580 NIL=
201304090000 AAXX 09004 67580 NIL=
201304081800 AAXX 08184 67580 NIL=
201304081500 AAXX 08154 67580 NIL=
201304080900 AAXX 08094 67580 42680 52703 10274 20150 48/// 85100
                   333 58004 85840=
201304080600 AAXX 08061 67580 32980 01103 10232 20160 48///
                   333 10294 20//0 58001
                   555 00/// 20000=
201304080300 AAXX 08034 67580 NIL=
201304080000 AAXX 08004 67580 NIL=
201304072100 AAXX 07214 67580 NIL=
201304071800 AAXX 07184 67580 NIL=
201304071500 AAXX 07154 67580 NIL=
201304071200 AAXX 07120 67580 NIL=
201304070900 AAXX 07094 67580 NIL=
201304070600 AAXX 07061 67580 NIL=
201304070300 AAXX 07034 67580 NIL=
201304070000 AAXX 07004 67580 NIL=
201304062100 AAXX 06214 67580 NIL=
201304061500 AAXX 06154 67580 NIL=
201304061200 AAXX 06120 67580 NIL=
201304060900 AAXX 06094 67580 NIL=
201304060600 AAXX 06064 67580 NIL=
201304060300 AAXX 06034 67580 NIL=
201304060000 AAXX 06004 67580 NIL=
201304051800 AAXX 05184 67580 NIL=
201304051200 AAXX 05124 67580 41680 71606 10254 20192 48/// 71522 872//
                   333 58021 81945 86850=
201304050900 AAXX 05094 67580 42680 71804 10249 20181 48/// 85231
                   333 58020 85840 84360 82080=
201304050600 AAXX 05064 67580 12480 71204 10213 20181 48/// 69954 8117/
                   333 10317 20/// 58020 81818 87460
                   555 00/// 20000=
201304050300 AAXX 05034 67580 NIL=
201304050000 AAXX 05004 67580 NIL=
201304041800 AAXX 04184 67580 NIL=

################################################################################
#  SYNOPS from 67581, Chipata (Zambia) | 13-33S | 032-35E | 1028 m
################################################################################
201305010600 AAXX 01064 67581 NIL=
201305010300 AAXX 01034 67581 NIL=
201305010000 AAXX 01004 67581 NIL=
201304302100 AAXX 30214 67581 NIL=
201304301800 AAXX 30184 67581 NIL=
201304301500 AAXX 30154 67581 NIL=
201304301200 AAXX 30124 67581 NIL=
201304300900 AAXX 30094 67581 42680 51512 10243 20126 48570 83130
                   333 58012 83835 82360 91022=
201304300300 AAXX 30034 67581 NIL=
201304300000 AAXX 30004 67581 NIL=
201304291800 AAXX 29184 67581 NIL=
201304291500 AAXX 29154 67581 NIL=
201304290900 AAXX 29094 67581 42680 41503 10244 20136 48558 84100
                   333 59008 84835 91021=
201304290000 AAXX 29004 67581 NIL=
201304281500 AAXX 28154 67581 NIL=
201304280900 AAXX 28094 67581 NIL=
201304280600 AAXX 28064 67581 32680 11605 10194 20129 48559 81130
                   333 10265 20151 59002 81830 81360
                   555 00220 20000 91022=
201304280300 AAXX 28034 67581 NIL=
201304280000 AAXX 28004 67581 NIL=
201304271800 AAXX 27184 67581 NIL=
201304271500 AAXX 27154 67581 NIL=
201304270600 AAXX 27064 67581 32680 11509 10202 20114 48562 81102
                   333 20262 40146 59008 81830 81360
                   555 00165 20000 91022=
201304270300 AAXX 27034 67581 NIL=
201304262100 AAXX 26214 67581 NIL=
201304260000 AAXX 26004 67581 NIL=
201304251800 AAXX 25184 67581 NIL=
201304251200 AAXX 25124 67581 41680 61608 10261 20149 48563 70522 84201
                   333 58016 84835 83080 91021=
201304250900 AAXX 25094 67581 42680 21410 10239 20139 48586 82100
                   333 58019 82835 91024=
201304250600 AAXX 25064 67581 12680 31006 10200 20145 48576 69904 83100
                   333 10292 20175 58027 83830
                   555 00165 20000 91024=
201304231200 AAXX 23121 67581 42680 50603 10313 20153 48517 85200
                   333 58000 85840 91015=
201304230600 AAXX 23064 67581 32680 20805 10253 20186 48536 81102
                   333 10305 20185 59002 81835 82080
                   555 00140 20000 91018=
201304230300 AAXX 23034 67581 NIL=
201304230000 AAXX 23004 67581 NIL=
201304222100 AAXX 22214 67581 NIL=
201304221500 AAXX 22154 67581 NIL=
201304220900 AAXX 22094 67581 NIL=
201304220600 AAXX 22064 67581 32680 11206 10249 20172 48538 70200 81100
                   333 10305 20172 59003 81830
                   555 00/// 20000 91018=
201304220000 AAXX 22004 67581 NIL=
201304211800 AAXX 21184 67581 NIL=
201304211500 AAXX 21154 67581 NIL=
201304211200 AAXX 21121 67581 NIL=
201304210900 AAXX 21094 67581 NIL=
201304210000 AAXX 21004 67581 NIL=
201304202100 AAXX 20214 67581 NIL=
201304201500 AAXX 20154 67581 NIL=
201304201200 AAXX 20120 67581 NIL=
201304200300 AAXX 20034 67581 NIL=
201304200000 AAXX 20004 67581 NIL=
201304191800 AAXX 19184 67581 NIL=
201304191500 AAXX 19154 67581 NIL=
201304190900 AAXX 19094 67581 42680 40705 10291 20186 48546 83108
                   333 58000 83840 82280 91018=
201304190600 AAXX 19064 67581 32680 30705 10244 20182 48533 81130
                   333 10309 20210 59001 81835 83360
                   555 00/// 20000 91018=
201304181800 AAXX 18184 67581 NIL=
201304181500 AAXX 18154 67581 NIL=
201304181200 AAXX 18124 67581 42680 31806 10302 20174 48510 70200 83100
                   333 59011 83845 91015=
201304180900 AAXX 18094 67581 42680 21604 10276 20187 48534 70200 82100
                   333 59001 82835 91018=
201304180600 AAXX 18064 67581 32980 01206 10240 20172 48534 70200
                   333 10298 20192 59006 91018=
201304180300 AAXX 18034 67581 NIL=
201304180000 AAXX 18004 67581 NIL=
201304171800 AAXX 17184 67581 NIL=
201304171200 AAXX 17124 67581 NIL=
201304170900 AAXX 17094 67581 NIL=
201304170600 AAXX 17064 67581 32980 23503 10225 20154 48536 80002
                   333 10286 20130 59007 82080
                   555 00/// 20000 91019=
201304170000 AAXX 17004 67581 NIL=
201304161500 AAXX 16154 67581 NIL=
201304160300 AAXX 16034 67581 NIL=
201304160000 AAXX 16004 67581 NIL=
201304152100 AAXX 15214 67581 NIL=
201304151800 AAXX 15184 67581 NIL=
201304151500 AAXX 15154 67581 NIL=
201304151200 AAXX 15124 67581 NIL=
201304150000 AAXX 15004 67581 NIL=
201304142100 AAXX 14214 67581 NIL=
201304141800 AAXX 14184 67581 NIL=
201304141500 AAXX 14154 67581 NIL=
201304140600 AAXX 14060 67581 32580 21207 10184 20124 48567 70200 82100
                   333 10232 20139 58001 82825
                   555 00/// 20000 91023=
201304140300 AAXX 14034 67581 NIL=
201304140000 AAXX 14004 67581 NIL=
201304132100 AAXX 13214 67581 NIL=
201304131800 AAXX 13184 67581 NIL=
201304131500 AAXX 13154 67581 NIL=
201304131200 AAXX 13120 67581 NIL=
201304130300 AAXX 13034 67581 NIL=
201304130000 AAXX 13004 67581 NIL=
201304122100 AAXX 12214 67581 NIL=
201304121800 AAXX 12184 67581 NIL=
201304121500 AAXX 12154 67581 NIL=
201304121200 AAXX 12124 67581 NIL=
201304120900 AAXX 12094 67581 NIL=
201304120600 AAXX 12064 67581 32680 41206 10219 20186 48550 70200 83130
                   333 10/// 20186 58021 83830 81360
                   555 00/// 20000 91021=
201304090600 AAXX 09064 67581 32980 01902 10226 20157 48545
                   333 10/// 20136 58004
                   555 00/// 20000 91020=
201304090300 AAXX 09034 67581 NIL=
201304090000 AAXX 09004 67581 NIL=
201304081800 AAXX 08184 67581 NIL=
201304081500 AAXX 08154 67581 NIL=
201304080900 AAXX 08094 67581 NIL=
201304080600 AAXX 08061 67581 32980 01604 10212 20147 48540 70200
                   333 10//0 20149 58001
                   555 00/// 20000 91019=
201304080300 AAXX 08034 67581 NIL=
201304080000 AAXX 08004 67581 NIL=
201304072100 AAXX 07214 67581 NIL=
201304071800 AAXX 07184 67581 NIL=
201304071500 AAXX 07154 67581 NIL=
201304071200 AAXX 07120 67581 NIL=
201304070900 AAXX 07094 67581 NIL=
201304070600 AAXX 07061 67581 NIL=
201304070300 AAXX 07034 67581 NIL=
201304070000 AAXX 07004 67581 NIL=
201304062100 AAXX 06214 67581 NIL=
201304061500 AAXX 06154 67581 NIL=
201304061200 AAXX 06120 67581 NIL=
201304060900 AAXX 06094 67581 NIL=
201304060600 AAXX 06064 67581 NIL=
201304060300 AAXX 06034 67581 NIL=
201304060000 AAXX 06004 67581 NIL=
201304051800 AAXX 05184 67581 NIL=
201304051200 AAXX 05124 67581 NIL=
201304050900 AAXX 05094 67581 NIL=
201304050600 AAXX 05064 67581 NIL=
201304050300 AAXX 05034 67581 NIL=
201304050000 AAXX 05004 67581 NIL=
201304041800 AAXX 04184 67581 NIL=

################################################################################
#  SYNOPS from 67583, Lundazi (Zambia) | 12-17S | 033-12E | 1143 m
################################################################################
201305010600 AAXX 01064 67583 NIL=
201305010300 AAXX 01034 67583 NIL=
201305010000 AAXX 01004 67583 NIL=
201304302100 AAXX 30214 67583 NIL=
201304301800 AAXX 30184 67583 NIL=
201304301500 AAXX 30154 67583 NIL=
201304301200 AAXX 30124 67583 42680 70906 10280 20165 82130
                   333 5//// 82835 86360=
201304300900 AAXX 30094 67583 NIL=
201304300300 AAXX 30034 67583 NIL=
201304300000 AAXX 30004 67583 NIL=
201304291800 AAXX 29184 67583 NIL=
201304291500 AAXX 29154 67583 NIL=
201304290900 AAXX 29094 67583 NIL=
201304290600 AAXX 29064 67583 32980 01204 10200 20160 48///
                   333 10285 20130 5////=
201304290000 AAXX 29004 67583 NIL=
201304281500 AAXX 28154 67583 NIL=
201304280900 AAXX 28094 67583 NIL=
201304280600 AAXX 28064 67583 NIL=
201304280300 AAXX 28034 67583 NIL=
201304280000 AAXX 28004 67583 NIL=
201304271800 AAXX 27184 67583 NIL=
201304271500 AAXX 27154 67583 NIL=
201304270300 AAXX 27034 67583 NIL=
201304262100 AAXX 26214 67583 NIL=
201304260000 AAXX 26004 67583 NIL=
201304251800 AAXX 25184 67583 NIL=
201304251200 AAXX 25124 67583 42680 71805 10250 20156 82131
                   333 5//// 82838 86360 81080=
201304250900 AAXX 25094 67583 NIL=
201304250600 AAXX 25064 67583 32580 51204 10200 20160 85501
                   333 10300 20169 5//// 85625 81080
                   555 00/// 20000=
201304231200 AAXX 23121 67583 42680 51204 10300 20181 85201
                   333 5//// 85840 82080=
201304230600 AAXX 23064 67583 32580 51801 10215 20174 81508
                   333 10335 20140 5//// 81625 85280
                   555 00/// 20000=
201304230300 AAXX 23034 67583 NIL=
201304230000 AAXX 23004 67583 NIL=
201304222100 AAXX 22214 67583 NIL=
201304221500 AAXX 22154 67583 NIL=
201304220900 AAXX 22094 67583 42680 30901 10290 20184 83100
                   333 5//// 83835=
201304220600 AAXX 22064 67583 32980 01201 10210 20180
                   333 10330 20140 5////
                   555 00/// 20000=
201304220000 AAXX 22004 67583 NIL=
201304211800 AAXX 21184 67583 NIL=
201304211500 AAXX 21154 67583 NIL=
201304211200 AAXX 21121 67583 NIL=
201304210900 AAXX 21094 67583 NIL=
201304210000 AAXX 21004 67583 NIL=
201304202100 AAXX 20214 67583 NIL=
201304201500 AAXX 20154 67583 NIL=
201304201200 AAXX 20120 67583 NIL=
201304200300 AAXX 20034 67583 NIL=
201304200000 AAXX 20004 67583 NIL=
201304191800 AAXX 19184 67583 NIL=
201304191500 AAXX 19154 67583 NIL=
201304190900 AAXX 19094 67583 NIL=
201304181800 AAXX 18184 67583 NIL=
201304181500 AAXX 18154 67583 NIL=
201304181200 AAXX 18124 67583 NIL=
201304180900 AAXX 18094 67583 NIL=
201304180300 AAXX 18034 67583 NIL=
201304180000 AAXX 18004 67583 NIL=
201304171800 AAXX 17184 67583 NIL=
201304171200 AAXX 17124 67583 NIL=
201304170900 AAXX 17094 67583 NIL=
201304170600 AAXX 17060 67583 32980 71501 10185 20144 80007
                   333 10300 20115 5//// 87280
                   555 00/// 20000=
201304170000 AAXX 17004 67583 NIL=
201304161500 AAXX 16154 67583 NIL=
201304160600 AAXX 16064 67583 32980 01801 10185 20144
                   333 10280 20105 5////
                   555 00/// 20000=
201304160300 AAXX 16034 67583 NIL=
201304160000 AAXX 16004 67583 NIL=
201304152100 AAXX 15214 67583 NIL=
201304151800 AAXX 15184 67583 NIL=
201304151500 AAXX 15154 67583 NIL=
201304151200 AAXX 15124 67583 NIL=
201304150600 AAXX 15064 67583 32980 00000 10180 20134
                   333 10272 20105 5////
                   555 00/// 20000=
201304150000 AAXX 15004 67583 NIL=
201304142100 AAXX 14214 67583 NIL=
201304141800 AAXX 14184 67583 NIL=
201304141500 AAXX 14154 67583 NIL=
201304140600 AAXX 14060 67583 NIL=
201304140300 AAXX 14034 67583 NIL=
201304140000 AAXX 14004 67583 NIL=
201304132100 AAXX 13214 67583 NIL=
201304131800 AAXX 13184 67583 NIL=
201304131500 AAXX 13154 67583 NIL=
201304131200 AAXX 13120 67583 NIL=
201304130300 AAXX 13034 67583 NIL=
201304130000 AAXX 13004 67583 NIL=
201304122100 AAXX 12214 67583 NIL=
201304121800 AAXX 12184 67583 NIL=
201304121500 AAXX 12154 67583 NIL=
201304121200 AAXX 12124 67583 NIL=
201304120900 AAXX 12094 67583 NIL=
201304120600 AAXX 12064 67583 12580 71205 10219 20184 48/// 60024 83531
                   333 10315 20183 5//// 83620 82360 81080=
201304090600 AAXX 09064 67583 32980 11201 10205 20157 80001
                   333 10305 20130 5//// 81080
                   555 00/// 20000=
201304090300 AAXX 09034 67583 NIL=
201304090000 AAXX 09004 67583 NIL=
201304081800 AAXX 08184 67583 NIL=
201304081500 AAXX 08154 67583 NIL=
201304080900 AAXX 08094 67583 NIL=
201304080600 AAXX 08060 67583 NIL=
201304080300 AAXX 08034 67583 NIL=
201304080000 AAXX 08004 67583 NIL=
201304072100 AAXX 07214 67583 NIL=
201304071800 AAXX 07184 67583 NIL=
201304071500 AAXX 07154 67583 NIL=
201304071200 AAXX 07120 67583 NIL=
201304070900 AAXX 07094 67583 NIL=
201304070600 AAXX 07061 67583 NIL=
201304070300 AAXX 07034 67583 NIL=
201304070000 AAXX 07004 67583 NIL=
201304062100 AAXX 06214 67583 NIL=
201304061500 AAXX 06154 67583 NIL=
201304061200 AAXX 06120 67583 NIL=
201304060900 AAXX 06094 67583 NIL=
201304060600 AAXX 06064 67583 NIL=
201304060300 AAXX 06034 67583 NIL=
201304060000 AAXX 06004 67583 NIL=
201304051800 AAXX 05184 67583 NIL=
201304051200 AAXX 05124 67583 NIL=
201304050900 AAXX 05094 67583 NIL=
201304050600 AAXX 05064 67583 NIL=
201304050300 AAXX 05034 67583 NIL=
201304050000 AAXX 05004 67583 NIL=
201304041800 AAXX 04184 67583 NIL=

################################################################################
#  SYNOPS from 67599, Mfuwe (Zambia) | 13-16S | 031-56E | 568 m
################################################################################
201305010600 AAXX 01064 67599 32980 41806 10220 20149 48596 70200 84030
                   333 10318 20185 58015 84360 91025=
201305010300 AAXX 01034 67599 NIL=
201305010000 AAXX 01004 67599 NIL=
201304302100 AAXX 30214 67599 NIL=
201304301800 AAXX 30184 67599 NIL=
201304301500 AAXX 30154 67599 NIL=
201304301200 AAXX 30124 67599 NIL=
201304300900 AAXX 30094 67599 NIL=
201304300300 AAXX 30034 67599 NIL=
201304300000 AAXX 30004 67599 NIL=
201304291800 AAXX 29184 67599 NIL=
201304291500 AAXX 29154 67599 NIL=
201304290900 AAXX 29094 67599 NIL=
201304290600 AAXX 29064 67599 32980 50000 10209 20151 48571 85030
                   333 10315 20146 58002 85360=
201304290000 AAXX 29004 67599 NIL=
201304281500 AAXX 28154 67599 NIL=
201304280900 AAXX 28094 67599 NIL=
201304280600 AAXX 28064 67599 NIL=
201304280300 AAXX 28034 67599 NIL=
201304280000 AAXX 28004 67599 NIL=
201304271800 AAXX 27184 67599 NIL=
201304271500 AAXX 27154 67599 NIL=
201304270300 AAXX 27034 67599 NIL=
201304262100 AAXX 26214 67599 NIL=
201304260000 AAXX 26004 67599 NIL=
201304251800 AAXX 25184 67599 NIL=
201304251200 AAXX 25124 67599 NIL=
201304250900 AAXX 25094 67599 NIL=
201304250600 AAXX 25064 67599 NIL=
201304231200 AAXX 23121 67599 NIL=
201304230600 AAXX 23064 67599 32980 30000 10246 20193 48538 83031
                   333 10370 20199 59004 83360 81080
                   555 00205 91018=
201304230300 AAXX 23034 67599 NIL=
201304230000 AAXX 23004 67599 NIL=
201304222100 AAXX 22214 67599 NIL=
201304221500 AAXX 22154 67599 NIL=
201304221200 AAXX 22124 67599 42680 30000 10345 20184 48531 70322 83201
                   333 59007 83840 83080 91013=
201304220900 AAXX 22094 67599 42480 10000 10320 20197 48557 70300 81201
                   333 59004 81820 81080 91017=
201304220600 AAXX 22064 67599 NIL=
201304220000 AAXX 22004 67599 NIL=
201304211800 AAXX 21184 67599 NIL=
201304211500 AAXX 21154 67599 NIL=
201304211200 AAXX 21121 67599 NIL=
201304210900 AAXX 21094 67599 NIL=
201304210000 AAXX 21004 67599 NIL=
201304202100 AAXX 20214 67599 NIL=
201304201500 AAXX 20154 67599 42880 30904 10338 20174 48548 83200
                   333 58020 83857 555 10360 91015=
201304201200 AAXX 20124 67599 42880 50706 10345 20176 48553 85200
                   333 58026 85856 91015=
201304200900 AAXX 20094 67599 42680 43607 10325 20168 48570 84100
                   333 58019 84848 91018=
201304200300 AAXX 20034 67599 NIL=
201304200000 AAXX 20004 67599 NIL=
201304191800 AAXX 19184 67599 NIL=
201304191500 AAXX 19154 67599 NIL=
201304191200 AAXX 19124 67599 42880 60906 10346 20206 48529 85230
                   333 58000 81956 84856 83360 91013=
201304190900 AAXX 19094 67599 42680 40905 10325 20212 48552 83130
                   333 59002 83849 81360 91016=
201304190600 AAXX 19064 67599 32980 40908 10267 20196 48551 84030
                   333 10360 20185 58004 84360
                   555 00185 91018=
201304181800 AAXX 18184 67599 NIL=
201304181500 AAXX 18154 67599 NIL=
201304181200 AAXX 18124 67599 NIL=
201304180900 AAXX 18094 67599 42980 00000 10295 20192 48536
                   333 59014 91016=
201304180600 AAXX 18064 67599 32980 00000 10215 20176 48527
                   333 10345 20161 59015 91017=
201304180300 AAXX 18034 67599 NIL=
201304180000 AAXX 18004 67599 NIL=
201304171800 AAXX 17184 67599 NIL=
201304171200 AAXX 17124 67599 42680 30000 10320 20179 48538 70322 83101
                   333 59015 83845 82080 91015=
201304170900 AAXX 17094 67599 NIL=
201304170600 AAXX 17064 67599 32980 30000 10200 20151 48538 70100 80001
                   333 10335 20140 59021 83080 91019=
201304170000 AAXX 17004 67599 NIL=
201304161500 AAXX 16154 67599 NIL=
201304160300 AAXX 16034 67599 NIL=
201304160000 AAXX 16004 67599 NIL=
201304152100 AAXX 15214 67599 NIL=
201304151800 AAXX 15184 67599 NIL=
201304151500 AAXX 15154 67599 NIL=
201304151200 AAXX 15124 67599 NIL=
201304150000 AAXX 15004 67599 NIL=
201304142100 AAXX 14214 67599 NIL=
201304141800 AAXX 14184 67599 NIL=
201304141500 AAXX 14154 67599 NIL=
201304140600 AAXX 14060 67599 NIL=
201304140300 AAXX 14034 67599 NIL=
201304140000 AAXX 14004 67599 NIL=
201304132100 AAXX 13214 67599 NIL=
201304131800 AAXX 13184 67599 NIL=
201304131500 AAXX 13154 67599 NIL=
201304131200 AAXX 13120 67599 NIL=
201304130900 AAXX 13094 67599 42580 71507 10265 20183 48613 70222 872//
                   333 58032 87825 91024=
201304130300 AAXX 13034 67599 NIL=
201304130000 AAXX 13004 67599 NIL=
201304122100 AAXX 12214 67599 NIL=
201304121800 AAXX 12184 67599 NIL=
201304121500 AAXX 12154 67599 NIL=
201304121200 AAXX 12124 67599 NIL=
201304120900 AAXX 12094 67599 NIL=
201304120600 AAXX 12064 67599 32980 60000 10225 20188 48554 70200 8603/
                   333 10345 20185 58018 86360 91020=
201304090600 AAXX 09064 67599 32980 01806 10215 20160 48546
                   333 10350 20155 54004 91020=
201304090300 AAXX 09034 67599 NIL=
201304090000 AAXX 09004 67599 NIL=
201304081800 AAXX 08184 67599 NIL=
201304081500 AAXX 08154 67599 42980 20000 10324 20168 40541 82030
                   333 58011 82360 555 10350 91015=
201304080900 AAXX 08094 67599 NIL=
201304080600 AAXX 08064 67599 32980 10000 10202 20167 48547 80001
                   333 10335 20150 58006 81080
                   555 00145 91020=
201304080300 AAXX 08034 67599 NIL=
201304080000 AAXX 08004 67599 NIL=
201304072100 AAXX 07214 67599 NIL=
201304071800 AAXX 07184 67599 NIL=
201304071500 AAXX 07154 67599 NIL=
201304071200 AAXX 07120 67599 NIL=
201304070900 AAXX 07094 67599 NIL=
201304070600 AAXX 07061 67599 NIL=
201304070300 AAXX 07034 67599 NIL=
201304070000 AAXX 07004 67599 NIL=
201304062100 AAXX 06214 67599 NIL=
201304061500 AAXX 06154 67599 NIL=
201304060900 AAXX 06094 67599 NIL=
201304060600 AAXX 06064 67599 NIL=
201304060300 AAXX 06034 67599 NIL=
201304060000 AAXX 06004 67599 NIL=
201304051800 AAXX 05184 67599 NIL=
201304051200 AAXX 05124 67599 NIL=
201304050900 AAXX 05094 67599 NIL=
201304050600 AAXX 05064 67599 32480 61806 10245 20208 48560 81130
                   333 10356 20220 58027 81818 86360=
201304050300 AAXX 05034 67599 NIL=
201304050000 AAXX 05004 67599 NIL=
201304041800 AAXX 04184 67599 NIL=

################################################################################
#  SYNOPS from 67625, Kalabo (Zambia) | 14-51S | 022-42E | 1033 m
################################################################################
201305010600 AAXX 01064 67625 NIL=
201305010300 AAXX 01034 67625 NIL=
201305010000 AAXX 01004 67625 NIL=
201304302100 AAXX 30214 67625 NIL=
201304301800 AAXX 30184 67625 NIL=
201304301500 AAXX 30154 67625 NIL=
201304301200 AAXX 30124 67625 NIL=
201304300900 AAXX 30094 67625 NIL=
201304300300 AAXX 30034 67625 NIL=
201304300000 AAXX 30004 67625 NIL=
201304291800 AAXX 29184 67625 NIL=
201304291500 AAXX 29154 67625 NIL=
201304290900 AAXX 29094 67625 NIL=
201304290000 AAXX 29004 67625 NIL=
201304281500 AAXX 28154 67625 NIL=
201304280900 AAXX 28094 67625 NIL=
201304280600 AAXX 28064 67625 NIL=
201304280300 AAXX 28034 67625 NIL=
201304280000 AAXX 28004 67625 NIL=
201304271800 AAXX 27184 67625 NIL=
201304271500 AAXX 27154 67625 NIL=
201304270300 AAXX 27034 67625 NIL=
201304262100 AAXX 26214 67625 NIL=
201304260000 AAXX 26004 67625 NIL=
201304251800 AAXX 25184 67625 NIL=
201304251200 AAXX 25124 67625 NIL=
201304250900 AAXX 25094 67625 NIL=
201304250600 AAXX 25064 67625 NIL=
201304231200 AAXX 23121 67625 NIL=
201304230600 AAXX 23064 67625 NIL=
201304230300 AAXX 23034 67625 NIL=
201304230000 AAXX 23004 67625 NIL=
201304222100 AAXX 22214 67625 NIL=
201304221500 AAXX 22154 67625 NIL=
201304220900 AAXX 22094 67625 NIL=
201304220600 AAXX 22064 67625 NIL=
201304220000 AAXX 22004 67625 NIL=
201304211800 AAXX 21184 67625 NIL=
201304211500 AAXX 21154 67625 NIL=
201304211200 AAXX 21121 67625 NIL=
201304210900 AAXX 21094 67625 NIL=
201304210000 AAXX 21004 67625 NIL=
201304202100 AAXX 20214 67625 NIL=
201304201500 AAXX 20154 67625 NIL=
201304201200 AAXX 20120 67625 NIL=
201304200300 AAXX 20034 67625 NIL=
201304200000 AAXX 20004 67625 NIL=
201304191800 AAXX 19184 67625 NIL=
201304191500 AAXX 19154 67625 NIL=
201304190900 AAXX 19094 67625 NIL=
201304181800 AAXX 18184 67625 NIL=
201304181500 AAXX 18154 67625 NIL=
201304181200 AAXX 18124 67625 NIL=
201304180900 AAXX 18094 67625 NIL=
201304180300 AAXX 18034 67625 NIL=
201304180000 AAXX 18004 67625 NIL=
201304171800 AAXX 17184 67625 NIL=
201304171200 AAXX 17124 67625 NIL=
201304170900 AAXX 17094 67625 NIL=
201304170600 AAXX 17060 67625 NIL=
201304170000 AAXX 17004 67625 NIL=
201304161500 AAXX 16154 67625 NIL=
201304160300 AAXX 16034 67625 NIL=
201304160000 AAXX 16004 67625 NIL=
201304152100 AAXX 15214 67625 NIL=
201304151800 AAXX 15184 67625 NIL=
201304151500 AAXX 15154 67625 NIL=
201304151200 AAXX 15124 67625 NIL=
201304150000 AAXX 15004 67625 NIL=
201304142100 AAXX 14214 67625 NIL=
201304141800 AAXX 14184 67625 NIL=
201304141500 AAXX 14154 67625 NIL=
201304140600 AAXX 14060 67625 NIL=
201304140300 AAXX 14034 67625 NIL=
201304140000 AAXX 14004 67625 NIL=
201304132100 AAXX 13214 67625 NIL=
201304131800 AAXX 13184 67625 NIL=
201304131500 AAXX 13154 67625 NIL=
201304131200 AAXX 13120 67625 NIL=
201304130300 AAXX 13034 67625 NIL=
201304130000 AAXX 13004 67625 NIL=
201304122100 AAXX 12214 67625 NIL=
201304121800 AAXX 12184 67625 NIL=
201304121500 AAXX 12154 67625 NIL=
201304121200 AAXX 12124 67625 NIL=
201304120900 AAXX 12094 67625 NIL=
201304120600 AAXX 12064 67625 31982 11005 10216 20/// 48/// 80001
                   333 10317 20170 5//// 81080=
201304090600 AAXX 09064 67625 NIL=
201304090300 AAXX 09034 67625 NIL=
201304090000 AAXX 09004 67625 NIL=
201304081800 AAXX 08184 67625 NIL=
201304081500 AAXX 08154 67625 NIL=
201304080900 AAXX 08094 67625 NIL=
201304080600 AAXX 08060 67625 NIL=
201304080300 AAXX 08034 67625 NIL=
201304080000 AAXX 08004 67625 NIL=
201304072100 AAXX 07214 67625 NIL=
201304071800 AAXX 07184 67625 NIL=
201304071500 AAXX 07154 67625 NIL=
201304071200 AAXX 07120 67625 NIL=
201304070900 AAXX 07094 67625 NIL=
201304070600 AAXX 07061 67625 NIL=
201304070300 AAXX 07034 67625 NIL=
201304070000 AAXX 07004 67625 NIL=
201304062100 AAXX 06214 67625 NIL=
201304061500 AAXX 06154 67625 NIL=
201304061200 AAXX 06120 67625 NIL=
201304060900 AAXX 06094 67625 NIL=
201304060600 AAXX 06064 67625 NIL=
201304060300 AAXX 06034 67625 NIL=
201304060000 AAXX 06004 67625 NIL=
201304051800 AAXX 05184 67625 NIL=
201304051200 AAXX 05124 67625 NIL=
201304050900 AAXX 05094 67625 NIL=
201304050600 AAXX 05064 67625 NIL=
201304050300 AAXX 05034 67625 NIL=
201304050000 AAXX 05004 67625 NIL=
201304041800 AAXX 04184 67625 NIL=

################################################################################
#  SYNOPS from 67633, Mongu (Zambia) | 15-15S | 023-09E | 1052 m
################################################################################
201305010600 AAXX 01064 67633 32980 00000 10155 20094 48556 70200
                   333 10310 20106 58006
                   555 00/// 91023=
201305010300 AAXX 01034 67633 NIL=
201305010000 AAXX 01004 67633 NIL=
201304302100 AAXX 30214 67633 NIL=
201304301800 AAXX 30184 67633 NIL=
201304301500 AAXX 30154 67633 NIL=
201304301200 AAXX 30124 67633 NIL=
201304300900 AAXX 30094 67633 NIL=
201304300300 AAXX 30034 67633 NIL=
201304300000 AAXX 30004 67633 NIL=
201304291800 AAXX 29184 67633 NIL=
201304291500 AAXX 29154 67633 NIL=
201304290900 AAXX 29094 67633 42982 00904 10247 20087 48559
                   333 58000 91022=
201304290000 AAXX 29004 67633 NIL=
201304281500 AAXX 28154 67633 NIL=
201304280900 AAXX 28094 67633 NIL=
201304280600 AAXX 28064 67633 NIL=
201304280300 AAXX 28034 67633 NIL=
201304280000 AAXX 28004 67633 NIL=
201304271800 AAXX 27184 67633 NIL=
201304271500 AAXX 27154 67633 NIL=
201304270300 AAXX 27034 67633 NIL=
201304262100 AAXX 26214 67633 NIL=
201304260600 AAXX 26064 67633 32980 50908 10202 20142 48555 70222 85030
                   333 10330 20159 59001 85361=
201304260000 AAXX 26004 67633 NIL=
201304251800 AAXX 25184 67633 NIL=
201304251200 AAXX 25124 67633 42880 41305 10297 20136 48554 84200
                   333 58027 91021=
201304250900 AAXX 25094 67633 42880 31012 10273 20160 48575 81102
                   333 58023 81857 82080 91023=
201304250600 AAXX 25064 67633 32980 30908 10196 20161 48554 81032
                   333 10330 20168 58030 81360 83080
                   555 00/// 91022=
201304231200 AAXX 23121 67633 42980 40906 10302 20089 48519 70300 80008
                   333 58002 84280 91016=
201304230600 AAXX 23064 67633 32980 40906 10210 20054 48520 70122 84030
                   333 10304 20120 59002 84361 91018=
201304230300 AAXX 23034 67633 NIL=
201304230000 AAXX 23004 67633 NIL=
201304222100 AAXX 22214 67633 NIL=
201304221500 AAXX 22154 67633 NIL=
201304220900 AAXX 22094 67633 42980 51202 10300 20081 48538 70322 80002
                   333 59002 85280 555 91018=
201304220600 AAXX 22064 67633 32980 33602 10200 48521 70200 80001
                   333 10306 20155 58004 83080
                   555 00/// 91018=
201304220000 AAXX 22004 67633 NIL=
201304211800 AAXX 21184 67633 NIL=
201304211500 AAXX 21154 67633 NIL=
201304211200 AAXX 21121 67633 NIL=
201304210900 AAXX 21094 67633 NIL=
201304210000 AAXX 21004 67633 NIL=
201304202100 AAXX 20214 67633 NIL=
201304201500 AAXX 20154 67633 NIL=
201304201200 AAXX 20120 67633 NIL=
201304200300 AAXX 20034 67633 NIL=
201304200000 AAXX 20004 67633 NIL=
201304191800 AAXX 19184 67633 NIL=
201304191500 AAXX 19154 67633 NIL=
201304190900 AAXX 19094 67633 42980 13610 10295 20171 48511 70200 80001
                   333 58000 81080 555 91016=
201304181800 AAXX 18184 67633 NIL=
201304181500 AAXX 18154 67633 NIL=
201304181200 AAXX 18124 67633 NIL=
201304180900 AAXX 18094 67633 NIL=
201304180300 AAXX 18034 67633 NIL=
201304180000 AAXX 18004 67633 NIL=
201304171800 AAXX 17184 67633 NIL=
201304171200 AAXX 17124 67633 NIL=
201304170900 AAXX 17094 67633 NIL=
201304170600 AAXX 17064 67633 32980 00804 10200 20124 48502
                   333 10320 20140 59024
                   555 00/// 91016=
201304170000 AAXX 17004 67633 NIL=
201304161500 AAXX 16154 67633 NIL=
201304160600 AAXX 16064 67633 32980 30000 10205 20130 48544 70200 83030
                   333 10325 20169 59012 83361
                   555 00/// 91019=
201304160300 AAXX 16034 67633 NIL=
201304160000 AAXX 16004 67633 NIL=
201304152100 AAXX 15214 67633 NIL=
201304151800 AAXX 15184 67633 NIL=
201304151500 AAXX 15154 67633 NIL=
201304151200 AAXX 15124 67633 NIL=
201304150900 AAXX 15094 67633 42980 00904 10295 20128 48553
                   333 59021 91019=
201304150600 AAXX 15064 67633 32980 00902 10205 20135 48536
                   333 20161 59016=
201304150000 AAXX 15004 67633 NIL=
201304142100 AAXX 14214 67633 NIL=
201304141800 AAXX 14184 67633 NIL=
201304141500 AAXX 14154 67633 NIL=
201304140600 AAXX 14060 67633 NIL=
201304140300 AAXX 14034 67633 NIL=
201304140000 AAXX 14004 67633 NIL=
201304132100 AAXX 13214 67633 NIL=
201304131800 AAXX 13184 67633 NIL=
201304131500 AAXX 13154 67633 NIL=
201304131200 AAXX 13120 67633 NIL=
201304130300 AAXX 13034 67633 NIL=
201304130000 AAXX 13004 67633 NIL=
201304122100 AAXX 12214 67633 NIL=
201304121800 AAXX 12184 67633 NIL=
201304121500 AAXX 12154 67633 NIL=
201304121200 AAXX 12124 67633 NIL=
201304120900 AAXX 12094 67633 NIL=
201304120600 AAXX 12064 67633 32980 40906 10211 20132 48528 70200 80008
                   333 10337 20167 58015 84280
                   555 00/// 91019=
201304090600 AAXX 09064 67633 32980 10000 10214 20152 48534 70200 81030
                   333 10307 20155 58002 81360
                   555 00/// 91019=
201304090300 AAXX 09034 67633 NIL=
201304090000 AAXX 09004 67633 NIL=
201304081800 AAXX 08184 67633 NIL=
201304081500 AAXX 08154 67633 NIL=
201304080900 AAXX 08094 67633 NIL=
201304080600 AAXX 08060 67633 NIL=
201304080300 AAXX 08034 67633 NIL=
201304080000 AAXX 08004 67633 NIL=
201304072100 AAXX 07214 67633 NIL=
201304071800 AAXX 07184 67633 NIL=
201304071500 AAXX 07154 67633 NIL=
201304071200 AAXX 07120 67633 NIL=
201304070900 AAXX 07094 67633 NIL=
201304070600 AAXX 07061 67633 NIL=
201304070300 AAXX 07034 67633 NIL=
201304070000 AAXX 07004 67633 NIL=
201304062100 AAXX 06214 67633 NIL=
201304061500 AAXX 06154 67633 NIL=
201304061200 AAXX 06120 67633 NIL=
201304060900 AAXX 06094 67633 NIL=
201304060600 AAXX 06064 67633 NIL=
201304060300 AAXX 06034 67633 NIL=
201304060000 AAXX 06004 67633 NIL=
201304051800 AAXX 05184 67633 NIL=
201304051200 AAXX 05124 67633 NIL=
201304050900 AAXX 05094 67633 NIL=
201304050600 AAXX 05064 67633 NIL=
201304050300 AAXX 05034 67633 NIL=
201304050000 AAXX 05004 67633 NIL=
201304041800 AAXX 04184 67633 NIL=

################################################################################
#  SYNOPS from 67641, Kaoma (Zambia) | 14-48S | 024-48E | 1213 m
################################################################################
201305010600 AAXX 01064 67641 NIL=
201305010300 AAXX 01034 67641 NIL=
201305010000 AAXX 01004 67641 NIL=
201304302100 AAXX 30214 67641 NIL=
201304301800 AAXX 30184 67641 NIL=
201304301500 AAXX 30154 67641 NIL=
201304301200 AAXX 30124 67641 NIL=
201304300900 AAXX 30094 67641 NIL=
201304300300 AAXX 30034 67641 NIL=
201304300000 AAXX 30004 67641 NIL=
201304291800 AAXX 29184 67641 NIL=
201304291500 AAXX 29154 67641 NIL=
201304290900 AAXX 29094 67641 NIL=
201304290000 AAXX 29004 67641 NIL=
201304281500 AAXX 28154 67641 NIL=
201304280900 AAXX 28094 67641 NIL=
201304280600 AAXX 28064 67641 NIL=
201304280300 AAXX 28034 67641 NIL=
201304280000 AAXX 28004 67641 NIL=
201304271800 AAXX 27184 67641 NIL=
201304271500 AAXX 27154 67641 NIL=
201304270300 AAXX 27034 67641 NIL=
201304262100 AAXX 26214 67641 NIL=
201304260000 AAXX 26004 67641 NIL=
201304251800 AAXX 25184 67641 NIL=
201304251200 AAXX 25124 67641 NIL=
201304250900 AAXX 25094 67641 NIL=
201304250600 AAXX 25064 67641 NIL=
201304231200 AAXX 23121 67641 NIL=
201304230600 AAXX 23064 67641 32982 21404 10184 20107 48508 80002
                   333 10310 20126 59001 82080
                   555 00/// 91017=
201304230300 AAXX 23034 67641 NIL=
201304230000 AAXX 23004 67641 NIL=
201304222100 AAXX 22214 67641 NIL=
201304221500 AAXX 22154 67641 NIL=
201304220900 AAXX 22094 67641 NIL=
201304220600 AAXX 22064 67641 32982 41206 10246 20141 48517 80002
                   333 10316 20180 58002 84080
                   555 00/// 91071=
201304220000 AAXX 22004 67641 NIL=
201304211800 AAXX 21184 67641 NIL=
201304211500 AAXX 21154 67641 NIL=
201304211200 AAXX 21121 67641 NIL=
201304210900 AAXX 21094 67641 NIL=
201304210000 AAXX 21004 67641 NIL=
201304202100 AAXX 20214 67641 NIL=
201304201500 AAXX 20154 67641 NIL=
201304201200 AAXX 20120 67641 NIL=
201304200300 AAXX 20034 67641 NIL=
201304200000 AAXX 20004 67641 NIL=
201304191800 AAXX 19184 67641 NIL=
201304191500 AAXX 19154 67641 NIL=
201304190900 AAXX 19094 67641 NIL=
201304181800 AAXX 18184 67641 NIL=
201304181500 AAXX 18154 67641 NIL=
201304181200 AAXX 18124 67641 NIL=
201304180900 AAXX 18094 67641 NIL=
201304180600 AAXX 18064 67641 32982 21204 10158 20127 48496 82030
                   333 10320 20116 59013 82360
                   555 91016=
201304180300 AAXX 18034 67641 NIL=
201304180000 AAXX 18004 67641 NIL=
201304171800 AAXX 17184 67641 NIL=
201304171200 AAXX 17124 67641 NIL=
201304170900 AAXX 17094 67641 NIL=
201304170600 AAXX 17064 67641 32982 00703 10164 20126 48511
                   333 10300 20117 59007
                   555 91017=
201304170000 AAXX 17004 67641 NIL=
201304161500 AAXX 16154 67641 NIL=
201304160600 AAXX 16064 67641 32982 01004 10180 20136 48519
                   333 10309 20133 59013
                   555 00/// 91018=
201304160300 AAXX 16034 67641 NIL=
201304160000 AAXX 16004 67641 NIL=
201304152100 AAXX 15214 67641 NIL=
201304151800 AAXX 15184 67641 NIL=
201304151500 AAXX 15154 67641 NIL=
201304151200 AAXX 15124 67641 NIL=
201304150000 AAXX 15004 67641 NIL=
201304142100 AAXX 14214 67641 NIL=
201304141800 AAXX 14184 67641 NIL=
201304141500 AAXX 14154 67641 NIL=
201304140600 AAXX 14060 67641 NIL=
201304140300 AAXX 14034 67641 NIL=
201304140000 AAXX 14004 67641 NIL=
201304132100 AAXX 13214 67641 NIL=
201304131800 AAXX 13184 67641 NIL=
201304131500 AAXX 13154 67641 NIL=
201304131200 AAXX 13120 67641 NIL=
201304130300 AAXX 13034 67641 NIL=
201304130000 AAXX 13004 67641 NIL=
201304122100 AAXX 12214 67641 NIL=
201304121800 AAXX 12184 67641 NIL=
201304121500 AAXX 12154 67641 NIL=
201304121200 AAXX 12124 67641 NIL=
201304120900 AAXX 12094 67641 NIL=
201304120600 AAXX 12064 67641 32982 40803 10170 20140 48520 80002
                   333 10322 20135 58013 84080
                   555 00/// 91018=
201304090600 AAXX 09064 67641 32982 21002 10180 20156 48522 80002
                   333 10312 20117 58004 82080
                   555 00/// 91018=
201304090300 AAXX 09034 67641 NIL=
201304090000 AAXX 09004 67641 NIL=
201304081800 AAXX 08184 67641 NIL=
201304081500 AAXX 08154 67641 NIL=
201304080900 AAXX 08094 67641 NIL=
201304080600 AAXX 08060 67641 NIL=
201304080300 AAXX 08034 67641 NIL=
201304080000 AAXX 08004 67641 NIL=
201304072100 AAXX 07214 67641 NIL=
201304071800 AAXX 07184 67641 NIL=
201304071500 AAXX 07154 67641 NIL=
201304071200 AAXX 07120 67641 NIL=
201304070900 AAXX 07094 67641 NIL=
201304070600 AAXX 07061 67641 NIL=
201304070300 AAXX 07034 67641 NIL=
201304070000 AAXX 07004 67641 NIL=
201304062100 AAXX 06214 67641 NIL=
201304061500 AAXX 06154 67641 NIL=
201304061200 AAXX 06120 67641 NIL=
201304060900 AAXX 06094 67641 NIL=
201304060600 AAXX 06064 67641 NIL=
201304060300 AAXX 06034 67641 NIL=
201304060000 AAXX 06004 67641 NIL=
201304051800 AAXX 05184 67641 NIL=
201304051200 AAXX 05124 67641 NIL=
201304050900 AAXX 05094 67641 NIL=
201304050600 AAXX 05064 67641 32982 31206 10195 20171 48515 83030
                   333 10324 20167 58008 83360
                   555 00/// 91017=
201304050300 AAXX 05034 67641 NIL=
201304050000 AAXX 05004 67641 NIL=
201304041800 AAXX 04184 67641 NIL=

################################################################################
#  SYNOPS from 67655, Mumbwa (Zambia) | 15-04S | 027-11E | 1216 m
################################################################################
201305010600 AAXX 01064 67655 NIL=
201305010300 AAXX 01034 67655 NIL=
201305010000 AAXX 01004 67655 NIL=
201304302100 AAXX 30214 67655 NIL=
201304301800 AAXX 30184 67655 NIL=
201304301500 AAXX 30154 67655 NIL=
201304301200 AAXX 30124 67655 NIL=
201304300900 AAXX 30094 67655 NIL=
201304300600 AAXX 30064 67655 32980 00903 10172 20126 48565
                   333 10271 20/// 58007 91025=
201304300300 AAXX 30034 67655 NIL=
201304300000 AAXX 30004 67655 NIL=
201304291800 AAXX 29184 67655 NIL=
201304291500 AAXX 29154 67655 NIL=
201304290900 AAXX 29094 67655 NIL=
201304290000 AAXX 29004 67655 NIL=
201304281500 AAXX 28154 67655 NIL=
201304280900 AAXX 28094 67655 NIL=
201304280600 AAXX 28064 67655 NIL=
201304280300 AAXX 28034 67655 NIL=
201304280000 AAXX 28004 67655 NIL=
201304271800 AAXX 27184 67655 NIL=
201304271500 AAXX 27154 67655 NIL=
201304270300 AAXX 27034 67655 NIL=
201304262100 AAXX 26214 67655 NIL=
201304260000 AAXX 26004 67655 NIL=
201304251800 AAXX 25184 67655 NIL=
201304251200 AAXX 25124 67655 NIL=
201304250900 AAXX 25094 67655 NIL=
201304250600 AAXX 25064 67655 32480 70908 10171 20153 48570 85530
                   333 10290 20/// 58030 85610 82360=
201304231200 AAXX 23121 67655 NIL=
201304230600 AAXX 23064 67655 NIL=
201304230300 AAXX 23034 67655 NIL=
201304230000 AAXX 23004 67655 NIL=
201304222100 AAXX 22214 67655 NIL=
201304221500 AAXX 22154 67655 NIL=
201304220900 AAXX 22094 67655 NIL=
201304220600 AAXX 22064 67655 11880 50000 10215 20193 48524 60024 72882 85030
                   333 10305 20/// 59029 85360
                   555 00/// 91021=
201304220000 AAXX 22004 67655 NIL=
201304211800 AAXX 21184 67655 NIL=
201304211500 AAXX 21154 67655 NIL=
201304211200 AAXX 21121 67655 NIL=
201304210900 AAXX 21094 67655 NIL=
201304210000 AAXX 21004 67655 NIL=
201304202100 AAXX 20214 67655 NIL=
201304201500 AAXX 20154 67655 NIL=
201304201200 AAXX 20120 67655 NIL=
201304200300 AAXX 20034 67655 NIL=
201304200000 AAXX 20004 67655 NIL=
201304191800 AAXX 19184 67655 NIL=
201304191500 AAXX 19154 67655 NIL=
201304190900 AAXX 19094 67655 NIL=
201304181800 AAXX 18184 67655 NIL=
201304181500 AAXX 18154 67655 NIL=
201304181200 AAXX 18124 67655 NIL=
201304180900 AAXX 18094 67655 NIL=
201304180600 AAXX 18064 67655 32980 70704 10195 20128 48522 8705/
                   333 10288 20/// 59014 87360=
201304180300 AAXX 18034 67655 NIL=
201304180000 AAXX 18004 67655 NIL=
201304171800 AAXX 17184 67655 NIL=
201304171200 AAXX 17124 67655 NIL=
201304170900 AAXX 17094 67655 NIL=
201304170600 AAXX 17064 67655 32980 10805 10200 20119 48521 80001
                   333 10285 20/// 59010 81080 91021=
201304170000 AAXX 17004 67655 NIL=
201304161500 AAXX 16154 67655 NIL=
201304160300 AAXX 16034 67655 NIL=
201304160000 AAXX 16004 67655 NIL=
201304152100 AAXX 15214 67655 NIL=
201304151800 AAXX 15184 67655 NIL=
201304151500 AAXX 15154 67655 NIL=
201304151200 AAXX 15124 67655 NIL=
201304150600 AAXX 15064 67655 32980 00000 10176 20125 48560
                   333 10275 20/// 59013=
201304150000 AAXX 15004 67655 NIL=
201304142100 AAXX 14214 67655 NIL=
201304141800 AAXX 14184 67655 NIL=
201304141500 AAXX 14154 67655 NIL=
201304140600 AAXX 14060 67655 NIL=
201304140300 AAXX 14034 67655 NIL=
201304140000 AAXX 14004 67655 NIL=
201304132100 AAXX 13214 67655 NIL=
201304131800 AAXX 13184 67655 NIL=
201304131500 AAXX 13154 67655 NIL=
201304131200 AAXX 13120 67655 NIL=
201304130300 AAXX 13034 67655 NIL=
201304130000 AAXX 13004 67655 NIL=
201304122100 AAXX 12214 67655 NIL=
201304121800 AAXX 12184 67655 NIL=
201304121500 AAXX 12154 67655 NIL=
201304121200 AAXX 12124 67655 NIL=
201304120900 AAXX 12094 67655 NIL=
201304120600 AAXX 12064 67655 32480 30904 10180 20147 48553 81601
                   333 10300 20/// 58022 81618 83080 91023=
201304090600 AAXX 09064 67655 32980 10903 10210 20112 48546 80001
                   333 10300 20/// 59006 81080
                   555 00/// 91022=
201304090300 AAXX 09034 67655 NIL=
201304090000 AAXX 09004 67655 NIL=
201304081800 AAXX 08184 67655 NIL=
201304081500 AAXX 08154 67655 NIL=
201304080900 AAXX 08094 67655 NIL=
201304080600 AAXX 08060 67655 NIL=
201304080300 AAXX 08034 67655 NIL=
201304080000 AAXX 08004 67655 NIL=
201304072100 AAXX 07214 67655 NIL=
201304071800 AAXX 07184 67655 NIL=
201304071500 AAXX 07154 67655 NIL=
201304071200 AAXX 07120 67655 NIL=
201304070900 AAXX 07094 67655 NIL=
201304070600 AAXX 07061 67655 NIL=
201304070300 AAXX 07034 67655 NIL=
201304070000 AAXX 07004 67655 NIL=
201304062100 AAXX 06214 67655 NIL=
201304061500 AAXX 06154 67655 NIL=
201304061200 AAXX 06120 67655 NIL=
201304060900 AAXX 06094 67655 NIL=
201304060600 AAXX 06064 67655 NIL=
201304060300 AAXX 06034 67655 NIL=
201304060000 AAXX 06004 67655 NIL=
201304051800 AAXX 05184 67655 NIL=
201304051200 AAXX 05124 67655 NIL=
201304050900 AAXX 05094 67655 NIL=
201304050600 AAXX 05064 67655 32580 40905 10200 20176 48546 82230
                   333 10300 20/// 58012 82820 83358=
201304050300 AAXX 05034 67655 NIL=
201304050000 AAXX 05004 67655 NIL=
201304041800 AAXX 04184 67655 NIL=

################################################################################
#  SYNOPS from 67659, Kafue Polder (Zambia) | 15-46S | 027-55E | 978 m
################################################################################
201305010600 AAXX 01064 67659 NIL=
201305010300 AAXX 01034 67659 NIL=
201305010000 AAXX 01004 67659 NIL=
201304302100 AAXX 30214 67659 NIL=
201304301800 AAXX 30184 67659 NIL=
201304301500 AAXX 30154 67659 NIL=
201304301200 AAXX 30124 67659 NIL=
201304300900 AAXX 30094 67659 NIL=
201304300300 AAXX 30034 67659 NIL=
201304300000 AAXX 30004 67659 NIL=
201304291800 AAXX 29184 67659 NIL=
201304291500 AAXX 29154 67659 NIL=
201304290900 AAXX 29094 67659 NIL=
201304290000 AAXX 29004 67659 NIL=
201304281500 AAXX 28154 67659 NIL=
201304280900 AAXX 28094 67659 NIL=
201304280600 AAXX 28064 67659 NIL=
201304280300 AAXX 28034 67659 NIL=
201304280000 AAXX 28004 67659 NIL=
201304271800 AAXX 27184 67659 NIL=
201304271500 AAXX 27154 67659 NIL=
201304270300 AAXX 27034 67659 NIL=
201304262100 AAXX 26214 67659 NIL=
201304260000 AAXX 26004 67659 NIL=
201304251800 AAXX 25184 67659 NIL=
201304251200 AAXX 25124 67659 NIL=
201304250900 AAXX 25094 67659 NIL=
201304250600 AAXX 25064 67659 NIL=
201304231200 AAXX 23121 67659 NIL=
201304230600 AAXX 23064 67659 NIL=
201304230300 AAXX 23034 67659 NIL=
201304230000 AAXX 23004 67659 NIL=
201304222100 AAXX 22214 67659 NIL=
201304221500 AAXX 22154 67659 NIL=
201304220900 AAXX 22094 67659 NIL=
201304220600 AAXX 22064 67659 NIL=
201304220000 AAXX 22004 67659 NIL=
201304211800 AAXX 21184 67659 NIL=
201304211500 AAXX 21154 67659 NIL=
201304211200 AAXX 21121 67659 NIL=
201304210900 AAXX 21094 67659 NIL=
201304210000 AAXX 21004 67659 NIL=
201304202100 AAXX 20214 67659 NIL=
201304201500 AAXX 20154 67659 NIL=
201304201200 AAXX 20120 67659 NIL=
201304200300 AAXX 20034 67659 NIL=
201304200000 AAXX 20004 67659 NIL=
201304191800 AAXX 19184 67659 NIL=
201304191500 AAXX 19154 67659 NIL=
201304190900 AAXX 19094 67659 NIL=
201304181800 AAXX 18184 67659 NIL=
201304181500 AAXX 18154 67659 NIL=
201304181200 AAXX 18124 67659 NIL=
201304180900 AAXX 18094 67659 NIL=
201304180300 AAXX 18034 67659 NIL=
201304180000 AAXX 18004 67659 NIL=
201304171800 AAXX 17184 67659 NIL=
201304171200 AAXX 17124 67659 NIL=
201304170900 AAXX 17094 67659 NIL=
201304170600 AAXX 17060 67659 NIL=
201304170000 AAXX 17004 67659 NIL=
201304161500 AAXX 16154 67659 NIL=
201304160300 AAXX 16034 67659 NIL=
201304160000 AAXX 16004 67659 NIL=
201304152100 AAXX 15214 67659 NIL=
201304151800 AAXX 15184 67659 NIL=
201304151500 AAXX 15154 67659 NIL=
201304151200 AAXX 15124 67659 NIL=
201304150000 AAXX 15004 67659 NIL=
201304142100 AAXX 14214 67659 NIL=
201304141800 AAXX 14184 67659 NIL=
201304141500 AAXX 14154 67659 NIL=
201304140600 AAXX 14060 67659 NIL=
201304140300 AAXX 14034 67659 NIL=
201304140000 AAXX 14004 67659 NIL=
201304132100 AAXX 13214 67659 NIL=
201304131800 AAXX 13184 67659 NIL=
201304131500 AAXX 13154 67659 NIL=
201304131200 AAXX 13120 67659 NIL=
201304130300 AAXX 13034 67659 NIL=
201304130000 AAXX 13004 67659 NIL=
201304122100 AAXX 12214 67659 NIL=
201304121800 AAXX 12184 67659 NIL=
201304121500 AAXX 12154 67659 NIL=
201304121200 AAXX 12124 67659 NIL=
201304120900 AAXX 12094 67659 NIL=
201304120600 AAXX 12064 67659 NIL=
201304090600 AAXX 09064 67659 NIL=
201304090300 AAXX 09034 67659 NIL=
201304090000 AAXX 09004 67659 NIL=
201304081800 AAXX 08184 67659 NIL=
201304081500 AAXX 08154 67659 NIL=
201304080900 AAXX 08094 67659 NIL=
201304080600 AAXX 08060 67659 NIL=
201304080300 AAXX 08034 67659 NIL=
201304080000 AAXX 08004 67659 NIL=
201304072100 AAXX 07214 67659 NIL=
201304071800 AAXX 07184 67659 NIL=
201304071500 AAXX 07154 67659 NIL=
201304071200 AAXX 07120 67659 NIL=
201304070900 AAXX 07094 67659 NIL=
201304070600 AAXX 07061 67659 NIL=
201304070300 AAXX 07034 67659 NIL=
201304070000 AAXX 07004 67659 NIL=
201304062100 AAXX 06214 67659 NIL=
201304061500 AAXX 06154 67659 NIL=
201304061200 AAXX 06120 67659 NIL=
201304060900 AAXX 06094 67659 NIL=
201304060600 AAXX 06064 67659 NIL=
201304060300 AAXX 06034 67659 NIL=
201304060000 AAXX 06004 67659 NIL=
201304051800 AAXX 05184 67659 NIL=
201304051200 AAXX 05124 67659 NIL=
201304050900 AAXX 05094 67659 NIL=
201304050600 AAXX 05064 67659 NIL=
201304050300 AAXX 05034 67659 NIL=
201304050000 AAXX 05004 67659 NIL=
201304041800 AAXX 04184 67659 NIL=

################################################################################
#  SYNOPS from 67662, Kabwe Agric (Zambia) | 14-24S | 028-30E | 1165 m
################################################################################
201305010600 AAXX 01064 67662 NIL=
201305010300 AAXX 01034 67662 NIL=
201305010000 AAXX 01004 67662 NIL=
201304302100 AAXX 30214 67662 NIL=
201304301800 AAXX 30184 67662 NIL=
201304301500 AAXX 30154 67662 NIL=
201304301200 AAXX 30124 67662 NIL=
201304300900 AAXX 30094 67662 NIL=
201304300300 AAXX 30034 67662 NIL=
201304300000 AAXX 30004 67662 NIL=
201304291800 AAXX 29184 67662 NIL=
201304291500 AAXX 29154 67662 NIL=
201304290900 AAXX 29094 67662 NIL=
201304290000 AAXX 29004 67662 NIL=
201304281500 AAXX 28154 67662 NIL=
201304280900 AAXX 28094 67662 NIL=
201304280600 AAXX 28064 67662 NIL=
201304280300 AAXX 28034 67662 NIL=
201304280000 AAXX 28004 67662 NIL=
201304271800 AAXX 27184 67662 NIL=
201304271500 AAXX 27154 67662 NIL=
201304270300 AAXX 27034 67662 NIL=
201304262100 AAXX 26214 67662 NIL=
201304260000 AAXX 26004 67662 NIL=
201304251800 AAXX 25184 67662 NIL=
201304251200 AAXX 25124 67662 NIL=
201304250900 AAXX 25094 67662 NIL=
201304250600 AAXX 25064 67662 NIL=
201304231200 AAXX 23121 67662 NIL=
201304230600 AAXX 23064 67662 NIL=
201304230300 AAXX 23034 67662 NIL=
201304230000 AAXX 23004 67662 NIL=
201304222100 AAXX 22214 67662 NIL=
201304221500 AAXX 22154 67662 NIL=
201304220900 AAXX 22094 67662 NIL=
201304220600 AAXX 22064 67662 NIL=
201304220000 AAXX 22004 67662 NIL=
201304211800 AAXX 21184 67662 NIL=
201304211500 AAXX 21154 67662 NIL=
201304211200 AAXX 21121 67662 NIL=
201304210900 AAXX 21094 67662 NIL=
201304210000 AAXX 21004 67662 NIL=
201304202100 AAXX 20214 67662 NIL=
201304201500 AAXX 20154 67662 NIL=
201304201200 AAXX 20120 67662 NIL=
201304200300 AAXX 20034 67662 NIL=
201304200000 AAXX 20004 67662 NIL=
201304191800 AAXX 19184 67662 NIL=
201304191500 AAXX 19154 67662 NIL=
201304190900 AAXX 19094 67662 NIL=
201304181800 AAXX 18184 67662 NIL=
201304181500 AAXX 18154 67662 NIL=
201304181200 AAXX 18124 67662 NIL=
201304180900 AAXX 18094 67662 NIL=
201304180300 AAXX 18034 67662 NIL=
201304180000 AAXX 18004 67662 NIL=
201304171800 AAXX 17184 67662 NIL=
201304171200 AAXX 17124 67662 NIL=
201304170900 AAXX 17094 67662 NIL=
201304170600 AAXX 17060 67662 NIL=
201304170000 AAXX 17004 67662 NIL=
201304161500 AAXX 16154 67662 NIL=
201304160300 AAXX 16034 67662 NIL=
201304160000 AAXX 16004 67662 NIL=
201304152100 AAXX 15214 67662 NIL=
201304151800 AAXX 15184 67662 NIL=
201304151500 AAXX 15154 67662 NIL=
201304151200 AAXX 15124 67662 NIL=
201304150000 AAXX 15004 67662 NIL=
201304142100 AAXX 14214 67662 NIL=
201304141800 AAXX 14184 67662 NIL=
201304141500 AAXX 14154 67662 NIL=
201304140600 AAXX 14060 67662 NIL=
201304140300 AAXX 14034 67662 NIL=
201304140000 AAXX 14004 67662 NIL=
201304132100 AAXX 13214 67662 NIL=
201304131800 AAXX 13184 67662 NIL=
201304131500 AAXX 13154 67662 NIL=
201304131200 AAXX 13120 67662 NIL=
201304130300 AAXX 13034 67662 NIL=
201304130000 AAXX 13004 67662 NIL=
201304122100 AAXX 12214 67662 NIL=
201304121800 AAXX 12184 67662 NIL=
201304121500 AAXX 12154 67662 NIL=
201304121200 AAXX 12124 67662 NIL=
201304120900 AAXX 12094 67662 NIL=
201304120600 AAXX 12064 67662 NIL=
201304090600 AAXX 09064 67662 NIL=
201304090300 AAXX 09034 67662 NIL=
201304090000 AAXX 09004 67662 NIL=
201304081800 AAXX 08184 67662 NIL=
201304081500 AAXX 08154 67662 NIL=
201304080900 AAXX 08094 67662 NIL=
201304080600 AAXX 08060 67662 NIL=
201304080300 AAXX 08034 67662 NIL=
201304080000 AAXX 08004 67662 NIL=
201304072100 AAXX 07214 67662 NIL=
201304071800 AAXX 07184 67662 NIL=
201304071500 AAXX 07154 67662 NIL=
201304071200 AAXX 07120 67662 NIL=
201304070900 AAXX 07094 67662 NIL=
201304070600 AAXX 07061 67662 NIL=
201304070300 AAXX 07034 67662 NIL=
201304070000 AAXX 07004 67662 NIL=
201304062100 AAXX 06214 67662 NIL=
201304061500 AAXX 06154 67662 NIL=
201304061200 AAXX 06120 67662 NIL=
201304060900 AAXX 06094 67662 NIL=
201304060600 AAXX 06064 67662 NIL=
201304060300 AAXX 06034 67662 NIL=
201304060000 AAXX 06004 67662 NIL=
201304051800 AAXX 05184 67662 NIL=
201304051200 AAXX 05124 67662 NIL=
201304050900 AAXX 05094 67662 NIL=
201304050600 AAXX 05064 67662 NIL=
201304050300 AAXX 05034 67662 NIL=
201304050000 AAXX 05004 67662 NIL=
201304041800 AAXX 04184 67662 NIL=

################################################################################
#  SYNOPS from 67663, Kabwe (Zambia) | 14-27S | 028-28E | 1206 m
################################################################################
201305010600 AAXX 01064 67663 NIL=
201305010300 AAXX 01034 67663 NIL=
201305010000 AAXX 01004 67663 NIL=
201304302100 AAXX 30214 67663 NIL=
201304301800 AAXX 30184 67663 NIL=
201304301500 AAXX 30154 67663 NIL=
201304301200 AAXX 30124 67663 NIL=
201304300900 AAXX 30094 67663 NIL=
201304300300 AAXX 30034 67663 NIL=
201304300000 AAXX 30004 67663 NIL=
201304291800 AAXX 29184 67663 NIL=
201304291500 AAXX 29154 67663 NIL=
201304290900 AAXX 29094 67663 NIL=
201304290000 AAXX 29004 67663 NIL=
201304281500 AAXX 28154 67663 NIL=
201304280900 AAXX 28094 67663 NIL=
201304280600 AAXX 28064 67663 NIL=
201304280300 AAXX 28034 67663 NIL=
201304280000 AAXX 28004 67663 NIL=
201304271800 AAXX 27184 67663 NIL=
201304271500 AAXX 27154 67663 NIL=
201304270300 AAXX 27034 67663 NIL=
201304262100 AAXX 26214 67663 NIL=
201304260000 AAXX 26004 67663 NIL=
201304251800 AAXX 25184 67663 NIL=
201304251200 AAXX 25124 67663 NIL=
201304250900 AAXX 25094 67663 NIL=
201304250600 AAXX 25064 67663 NIL=
201304231200 AAXX 23121 67663 NIL=
201304230600 AAXX 23064 67663 NIL=
201304230300 AAXX 23034 67663 NIL=
201304230000 AAXX 23004 67663 NIL=
201304222100 AAXX 22214 67663 NIL=
201304221500 AAXX 22154 67663 NIL=
201304220900 AAXX 22094 67663 NIL=
201304220600 AAXX 22064 67663 32980 20000 10233 20184 48547 82030
                   333 10293 20167 58019 82360
                   555 00/// 20007=
201304220000 AAXX 22004 67663 NIL=
201304211800 AAXX 21184 67663 NIL=
201304211500 AAXX 21154 67663 NIL=
201304211200 AAXX 21121 67663 NIL=
201304210900 AAXX 21094 67663 NIL=
201304210000 AAXX 21004 67663 NIL=
201304202100 AAXX 20214 67663 NIL=
201304201500 AAXX 20154 67663 NIL=
201304201200 AAXX 20120 67663 NIL=
201304200300 AAXX 20034 67663 NIL=
201304200000 AAXX 20004 67663 NIL=
201304191800 AAXX 19184 67663 NIL=
201304191500 AAXX 19154 67663 NIL=
201304190900 AAXX 19094 67663 NIL=
201304190600 AAXX 19064 67663 32980 30805 10221 20168 48509 83032
                   333 10303 20167 59001 83360 81080=
201304181800 AAXX 18184 67663 NIL=
201304181500 AAXX 18154 67663 NIL=
201304181200 AAXX 18124 67663 NIL=
201304180900 AAXX 18094 67663 NIL=
201304180300 AAXX 18034 67663 NIL=
201304180000 AAXX 18004 67663 NIL=
201304171800 AAXX 17184 67663 NIL=
201304171200 AAXX 17124 67663 NIL=
201304170900 AAXX 17094 67663 NIL=
201304170600 AAXX 17064 67663 32980 20803 10191 20138 48527 80002
                   333 10290 20135 59004 82080
                   555 00///=
201304170000 AAXX 17004 67663 NIL=
201304161500 AAXX 16154 67663 NIL=
201304160300 AAXX 16034 67663 NIL=
201304160000 AAXX 16004 67663 NIL=
201304152100 AAXX 15214 67663 NIL=
201304151800 AAXX 15184 67663 NIL=
201304151500 AAXX 15154 67663 NIL=
201304151200 AAXX 15124 67663 NIL=
201304150600 AAXX 15064 67663 32980 00803 10179 20134 48492
                   333 10261 20124 59035=
201304150000 AAXX 15004 67663 NIL=
201304142100 AAXX 14214 67663 NIL=
201304141800 AAXX 14184 67663 NIL=
201304141500 AAXX 14154 67663 NIL=
201304140600 AAXX 14060 67663 NIL=
201304140300 AAXX 14034 67663 NIL=
201304140000 AAXX 14004 67663 NIL=
201304132100 AAXX 13214 67663 NIL=
201304131800 AAXX 13184 67663 NIL=
201304131500 AAXX 13154 67663 NIL=
201304131200 AAXX 13120 67663 NIL=
201304130300 AAXX 13034 67663 NIL=
201304130000 AAXX 13004 67663 NIL=
201304122100 AAXX 12214 67663 NIL=
201304121800 AAXX 12184 67663 NIL=
201304121500 AAXX 12154 67663 NIL=
201304121200 AAXX 12124 67663 NIL=
201304120900 AAXX 12094 67663 NIL=
201304120600 AAXX 12064 67663 NIL=
201304090600 AAXX 09064 67663 32980 33404 10213 20126 48533 80002
                   333 10286 20101 58017 83080=
201304090300 AAXX 09034 67663 NIL=
201304090000 AAXX 09004 67663 NIL=
201304081800 AAXX 08184 67663 NIL=
201304081500 AAXX 08154 67663 NIL=
201304080900 AAXX 08094 67663 NIL=
201304080600 AAXX 08060 67663 NIL=
201304080300 AAXX 08034 67663 NIL=
201304080000 AAXX 08004 67663 NIL=
201304072100 AAXX 07214 67663 NIL=
201304071800 AAXX 07184 67663 NIL=
201304071500 AAXX 07154 67663 NIL=
201304071200 AAXX 07120 67663 NIL=
201304070900 AAXX 07094 67663 NIL=
201304070600 AAXX 07061 67663 NIL=
201304070300 AAXX 07034 67663 NIL=
201304070000 AAXX 07004 67663 NIL=
201304062100 AAXX 06214 67663 NIL=
201304061500 AAXX 06154 67663 NIL=
201304061200 AAXX 06120 67663 NIL=
201304060900 AAXX 06094 67663 NIL=
201304060600 AAXX 06064 67663 NIL=
201304060300 AAXX 06034 67663 NIL=
201304060000 AAXX 06004 67663 NIL=
201304051800 AAXX 05184 67663 NIL=
201304051200 AAXX 05124 67663 NIL=
201304050900 AAXX 05094 67663 NIL=
201304050600 AAXX 05064 67663 NIL=
201304050300 AAXX 05034 67663 NIL=
201304050000 AAXX 05004 67663 NIL=
201304041800 AAXX 04184 67663 NIL=

################################################################################
#  SYNOPS from 67665, Lusaka Internationalairport (Zambia) | 15-19S | 028-27E | 1152 m
################################################################################
201305010600 AAXX 01064 67665 NIL=
201305010300 AAXX 01034 67665 42980 11109 10119 20110 48564 81030
                   333 58020 81360 91025=
201305010000 AAXX 01004 67665 42980 11208 10125 20104 48563 81030
                   333 58022 81360=
201304302100 AAXX 30214 67665 42980 11407 10139 20119 48571 81030
                   333 58022 81360 91025=
201304301800 AAXX 30184 67665 NIL=
201304301500 AAXX 30154 67665 NIL=
201304301200 AAXX 30124 67665 42580 50910 10238 20178 48856 70200 85500
                   333 58024 85630=
201304300900 AAXX 30094 67665 NIL=
201304300300 AAXX 30034 67665 NIL=
201304300000 AAXX 30004 67665 NIL=
201304291800 AAXX 29184 67665 NIL=
201304291500 AAXX 29154 67665 42780 11111 10230 20160 48541 81100
                   333 59002 81850=
201304291200 AAXX 29124 67665 42680 20611 10235 20165 48542 82100
                   333 59007 82835=
201304290900 AAXX 29094 67665 42480 21808 10219 20172 48567 70311 82800
                   333 59004 81820 82820=
201304290300 AAXX 29034 67665 42980 01103 10132 20132 48537
                   333 58000=
201304290000 AAXX 29004 67665 NIL=
201304282100 AAXX 28214 67665 42980 01004 10133 20121 48573
                   333 58000=
201304281800 AAXX 28184 67665 42980 01004 10153 20136 48545
                   333 10249 58000=
201304281500 AAXX 28154 67665 NIL=
201304281200 AAXX 28124 67665 42780 21014 10235 20165 48549 82100
                   333 59003 82850=
201304280900 AAXX 28094 67665 42580 31011 10219 20181 48571 83500
                   333 59005 83625 91024=
201304280600 AAXX 28064 67665 42980 11109 10143 20134 48554 70300 81030
                   333 59006 81360 555 00/// 91023=
201304280300 AAXX 28034 67665 NIL=
201304280000 AAXX 28004 67665 NIL=
201304271800 AAXX 27184 67665 NIL=
201304271500 AAXX 27154 67665 NIL=
201304271200 AAXX 27124 67665 42680 41212 10239 20177 48553 84100
                   333 59009 84840=
201304270900 AAXX 27094 67665 42580 50711 10226 20188 48577 85500
                   333 59009 85625=
201304270600 AAXX 27064 67665 32480 11207 10140 20131 48559 81500
                   333 10255 20089 59007 81610=
201304270300 AAXX 27034 67665 42980 01309 10110 20104 48537
                   333 59019=
201304262100 AAXX 26214 67665 NIL=
201304261800 AAXX 26184 67665 42980 11506 10161 20154 48553 81030
                   333 10223 59014 81360=
201304261500 AAXX 26154 67665 42880 20912 10230 20193 48554 81130
                   333 59015 81856 82360=
201304260900 AAXX 26094 67665 42580 51213 10213 20175 48583 85500
                   333 59008 85625=
201304260600 AAXX 26064 67665 32480 10912 10160 20143 48569 81530
                   333 10241 20110 59012 81610 81360=
201304260000 AAXX 26004 67665 NIL=
201304251800 AAXX 25184 67665 NIL=
201304251200 AAXX 25124 67665 42680 61114 10232 20172 48575 86800
                   333 58019 84630 83832=
201304250900 AAXX 25094 67665 NIL=
201304250600 AAXX 25064 67665 NIL=
201304240600 AAXX 24064 67665 32580 41110 10198 20174 48561 84500
                   333 10305 20155 58027 84620=
201304231500 AAXX 23154 67665 42680 21011 10267 20175 48517 81101
                   333 58010 81845 81080
                   555 10305 91017=
201304231200 AAXX 23124 67665 42680 51213 10268 20211 48525 85200
                   333 58010 85830 91018=
201304230900 AAXX 23094 67665 42480 51012 10261 20219 48543 70311 85100
                   333 58002 85815=
201304230600 AAXX 23064 67665 32980 11309 10199 20176 48536 80002
                   333 10314 20175 58001 81080=
201304230300 AAXX 23034 67665 NIL=
201304230000 AAXX 23004 67665 NIL=
201304222100 AAXX 22214 67665 NIL=
201304221800 AAXX 22184 67665 41760 30902 10218 20218 48518 70500 81930
                   333 10314 5//// 81957 83360=
201304221500 AAXX 22154 67665 NIL=
201304220900 AAXX 22094 67665 NIL=
201304220600 AAXX 22064 67665 12580 42412 10234 20192 48536 69904 82131
                   333 10305 20178 58000 81820 81360 83080
                   555 00/// 91020=
201304220000 AAXX 22004 67665 NIL=
201304211800 AAXX 21184 67665 NIL=
201304211500 AAXX 21154 67665 NIL=
201304211200 AAXX 21121 67665 NIL=
201304210900 AAXX 21094 67665 NIL=
201304210600 AAXX 21064 67665 32980 71303 10209 20182 48534 87031
                   333 10295 20181 59005 87360 81080=
201304210000 AAXX 21004 67665 NIL=
201304202100 AAXX 20214 67665 42980 21403 10214 20206 48534 82030
                   333 58016 82060=
201304201800 AAXX 20184 67665 42980 31404 10230 20223 48532 83030
                   333 10296 58023 83360=
201304201500 AAXX 20154 67665 NIL=
201304201200 AAXX 20120 67665 NIL=
201304200900 AAXX 20094 67665 42580 70410 10264 20221 48547 82230
                   333 58017 82825 86360=
201304200600 AAXX 20064 67665 31960 70000 10200 20185 48537 70522 87080
                   333 10310 20160 58014 87360=
201304200300 AAXX 20034 67665 NIL=
201304200000 AAXX 20004 67665 NIL=
201304191800 AAXX 19184 67665 42980 11204 10228 20214 48510 80001
                   333 10310 58005 81080=
201304191500 AAXX 19154 67665 42780 40902 10278 20228 48498 83201
                   333 58004 83850 82080=
201304191200 AAXX 19124 67665 42680 60601 10300 20230 48508 85201
                   333 58002 85835 82080=
201304190900 AAXX 19094 67665 NIL=
201304190600 AAXX 19064 67665 32980 50000 10205 20190 48525 83031
                   333 10329 20150 59005 83360 82080
                   555 00/// 91020=
201304190300 AAXX 19034 67665 42980 31802 10186 20187 48503 70300 83030
                   333 58008 83360 91017=
201304190000 AAXX 19004 67665 42980 11602 10190 20174 48503 70200 81030
                   333 59009 81360=
201304182100 AAXX 18214 67665 42980 11802 10204 20194 48512 81030
                   333 59005 81360 91018=
201304181800 AAXX 18184 67665 NIL=
201304181500 AAXX 18154 67665 NIL=
201304181200 AAXX 18124 67665 42580 51402 10277 20197 48504 85200
                   333 59014 85850=
201304180900 AAXX 18094 67665 42480 30703 10250 20199 48531 81130
                   333 59012 81815 82360=
201304180600 AAXX 18064 67665 32980 41703 10182 20163 48526 84030
                   333 10296 20120 59011 84360=
201304180300 AAXX 18034 67665 NIL=
201304180000 AAXX 18004 67665 NIL=
201304171800 AAXX 17184 67665 NIL=
201304171200 AAXX 17124 67665 NIL=
201304170900 AAXX 17094 67665 42980 10905 10236 20207 48541 70300 81100
                   333 59007 81810=
201304170600 AAXX 17064 67665 32980 11003 10178 20161 48536 80002
                   333 10278 20/// 58006 82080
                   555 00/// 91021=
201304170300 AAXX 17034 67665 42980 01003 10155 20147 48515
                   333 59014=
201304170000 AAXX 17004 67665 NIL=
201304162100 AAXX 16214 67665 42980 01002 10162 20152 48523
                   333 59008=
201304161800 AAXX 16184 67665 42980 11202 10188 20173 48527 81030
                   333 10279 59008 81360=
201304161500 AAXX 16154 67665 42780 21307 10262 20201 48519 81130
                   333 58015 81856 81360
                   555 10279 91018=
201304161200 AAXX 16124 67665 41675 41105 10256 20188 48525 70500 84100
                   333 58016 84840 91018=
201304160900 AAXX 16094 67665 41675 10606 10226 20174 48547 70500 81100
                   333 59016 81830=
201304160600 AAXX 16064 67665 31970 01204 10165 20140 48541 70500
                   333 10274 20106 59014=
201304160300 AAXX 16034 67665 NIL=
201304160000 AAXX 16004 67665 NIL=
201304152100 AAXX 15214 67665 NIL=
201304151800 AAXX 15184 67665 42980 01504 10186 20171 48535
                   333 59014=
201304151500 AAXX 15154 67665 42980 20908 10247 20196 48533 82030
                   333 59021 82360=
201304151200 AAXX 15124 67665 42680 41107 10252 20201 48536 84100
                   333 59018 84840=
201304150900 AAXX 15094 67665 42580 11105 10220 20165 48561 81100
                   333 59018 81825=
201304150600 AAXX 15064 67665 32980 01203 10164 20131 48542
                   333 10269 20115 58017=
201304150000 AAXX 15004 67665 NIL=
201304142100 AAXX 14214 67665 42980 01102 10155 20148 48548
                   333 59020=
201304141800 AAXX 14184 67665 NIL=
201304141500 AAXX 14154 67665 NIL=
201304141200 AAXX 14124 67665 32680 21009 10249 20174 48557 82230
                   333 59012 82840 81360 91022=
201304140900 AAXX 14094 67665 42580 51012 10214 20184 48577 85500
                   333 59005 85625=
201304140600 AAXX 14060 67665 NIL=
201304140300 AAXX 14034 67665 NIL=
201304140000 AAXX 14004 67665 NIL=
201304132100 AAXX 13214 67665 NIL=
201304131800 AAXX 13184 67665 NIL=
201304131500 AAXX 13154 67665 31211 327// 10230 20200 48560 83201
                   333 58015 83856 81080=
201304131200 AAXX 13120 67665 NIL=
201304130900 AAXX 13094 67665 42580 60808 10228 20183 48585 86500
                   333 58019 86625=
201304130600 AAXX 13064 67665 32380 30808 10190 20158 48574 83630
                   333 10274 20145 58020 83709 81360=
201304130300 AAXX 13034 67665 42980 51107 10174 20166 48555 70322 85030
                   333 58040 85360 91023=
201304130000 AAXX 13004 67665 NIL=
201304122100 AAXX 12214 67665 42680 11304 10164 20146 48555 81030
                   333 58024 81360=
201304121800 AAXX 12184 67665 NIL=
201304121500 AAXX 12154 67665 NIL=
201304121200 AAXX 12124 67665 NIL=
201304120900 AAXX 12094 67665 NIL=
201304120600 AAXX 12064 67665 NIL=
201304111500 AAXX 11154 67665 42980 41109 10254 20161 48519 81031
                   333 59008 81360 83080
                   555 10299 91018=
201304102100 AAXX 10214 67665 42980 00902 10191 20160 48525
                   333 59007=
201304101800 AAXX 10184 67665 42980 01105 10215 20169 48521
                   333 10305 58000=
201304101200 AAXX 10124 67665 42780 10903 10271 20190 48521 81100
                   333 59005 81850=
201304091500 AAXX 09154 67665 42980 11004 10271 20190 48518 81030
                   333 59003 81360=
201304090900 AAXX 09094 67665 42680 10905 10255 20180 48553 81100
                   333 59002 81830=
201304090600 AAXX 09064 67665 32980 00000 10180 20156 48544
                   333 10288 20112 58004=
201304090300 AAXX 09034 67665 NIL=
201304090000 AAXX 09004 67665 NIL=
201304081800 AAXX 08184 67665 NIL=
201304081500 AAXX 08154 67665 42680 10807 10264 20190 48519 81100
                   333 58005 81845=
201304081200 AAXX 08124 67665 42680 20806 10260 20185 48528 82100
                   333 58007 82830=
201304080900 AAXX 08094 67665 NIL=
201304080600 AAXX 08060 67665 NIL=
201304080300 AAXX 08034 67665 42980 11802 10148 20148 48518 81030
                   333 58002 81360 91019=
201304080000 AAXX 08004 67665 NIL=
201304072100 AAXX 07214 67665 NIL=
201304071800 AAXX 07184 67665 42980 01703 10171 20155 48530
                   333 59009 91020=
201304071500 AAXX 07154 67665 42680 31406 10254 20184 48513 83200
                   333 59014 83840=
201304071200 AAXX 07120 67665 42580 51206 10256 20189 48515 85230
                   333 59016 85825 82360=
201304070900 AAXX 07094 67665 42480 51307 10235 20199 48545 85500
                   333 59017 85618=
201304070600 AAXX 07061 67665 NIL=
201304070300 AAXX 07034 67665 NIL=
201304070000 AAXX 07004 67665 NIL=
201304062100 AAXX 06214 67665 NIL=
201304061500 AAXX 06154 67665 NIL=
201304061200 AAXX 06120 67665 NIL=
201304060900 AAXX 06094 67665 NIL=
201304060600 AAXX 06064 67665 32380 70906 10186 20171 48557 70322 87600
                   333 10265 20158 58013 87710=
201304060300 AAXX 06034 67665 NIL=
201304060000 AAXX 06004 67665 NIL=
201304051800 AAXX 05184 67665 NIL=
201304051200 AAXX 05124 67665 NIL=
201304050900 AAXX 05094 67665 NIL=
201304050600 AAXX 05064 67665 NIL=
201304050300 AAXX 05034 67665 NIL=
201304050000 AAXX 05004 67665 NIL=
201304041800 AAXX 04184 67665 NIL=
201304041200 AAXX 04124 67665 42680 51004 10296 20177 48519 85230
                   333 58001 85848 81360=
201304040600 AAXX 04064 67665 32980 11203 10199 20170 48525 81030
                   333 10308 20140 59011 81360=
201304031800 AAXX 03184 67665 42980 22004 10215 20193 48514 82030
                   333 59018 82360=
201304031200 AAXX 03124 67665 42680 51004 10288 20201 48517 85200
                   333 59031 85830=
201304030900 AAXX 03094 67665 42580 10406 10256 20208 48536 81100
                   333 59028 81822=
201304030300 AAXX 03034 67665 42980 10000 10170 20173 48521 81030
                   333 58021 81360=
201304030000 AAXX 03004 67665 42980 11603 10173 20173 48520 81030
                   333 59029 81360=
201304012100 AAXX 01214 67665 43298 01403 10178 20169 48551
                   333 58000 91022=
201304011800 AAXX 01184 67665 42980 11503 10199 20168 48549 70200 81030
                   333 10294 58002 81360=
201304011500 AAXX 01154 67665 41780 11407 10275 20241 48549 71600 81930
                   333 58003 81950 555 10275=
201304011200 AAXX 01124 67665 42680 31205 10268 20219 48554 70200 83200
                   333 58006 83835 91022=

################################################################################
#  SYNOPS from 67666, Lusaka City Airport (Zambia) | 15-25S | 028-19E | 1280 m
################################################################################
201305010600 AAXX 01064 67666 NIL=
201305010300 AAXX 01034 67666 NIL=
201305010000 AAXX 01004 67666 NIL=
201304302100 AAXX 30214 67666 NIL=
201304301800 AAXX 30184 67666 NIL=
201304301500 AAXX 30154 67666 NIL=
201304301200 AAXX 30124 67666 42680 31010 10240 20091 48557 83100
                   333 58024 83840 91023=
201304300900 AAXX 30094 67666 42580 20910 10225 20082 48580 82100
                   333 58020 81825 91026=
201304300300 AAXX 30034 67666 NIL=
201304300000 AAXX 30004 67666 NIL=
201304291800 AAXX 29184 67666 NIL=
201304291500 AAXX 29154 67666 NIL=
201304291200 AAXX 29124 67666 42680 11704 10240 20080 48534 81100
                   333 59006 81830 91020=
201304290900 AAXX 29094 67666 NIL=
201304290600 AAXX 29064 67666 32980 00907 10175 20105 48554
                   333 10240 20109 58003
                   555 00/// 91023=
201304290000 AAXX 29004 67666 NIL=
201304281500 AAXX 28154 67666 NIL=
201304280900 AAXX 28094 67666 NIL=
201304280600 AAXX 28064 67666 NIL=
201304280300 AAXX 28034 67666 NIL=
201304280000 AAXX 28004 67666 NIL=
201304271800 AAXX 27184 67666 NIL=
201304271500 AAXX 27154 67666 NIL=
201304270300 AAXX 27034 67666 NIL=
201304262100 AAXX 26214 67666 NIL=
201304261200 AAXX 26124 67666 42680 51008 10220 20115 48560 85200
                   333 59018 85835 91022=
201304260600 AAXX 26064 67666 31480 20908 10165 20134 48565 70500 82500
                   333 10230 20138 59013 82610
                   555 00/// 91024=
201304260000 AAXX 26004 67666 NIL=
201304251800 AAXX 25184 67666 NIL=
201304251200 AAXX 25124 67666 42580 70904 10220 20139 48574 876//
                   333 58020 87620 91024=
201304250900 AAXX 25094 67666 NIL=
201304250600 AAXX 25064 67666 32480 70909 10180 20136 48579 876//
                   333 10265 20140 58027 87710 91026=
201304231200 AAXX 23121 67666 NIL=
201304230600 AAXX 23064 67666 12980 20000 10230 20161 48519 69904 82031
                   333 10290 20155 59002 82360 91019=
201304230300 AAXX 23034 67666 NIL=
201304230000 AAXX 23004 67666 NIL=
201304222100 AAXX 22214 67666 NIL=
201304221500 AAXX 22154 67666 NIL=
201304220900 AAXX 22094 67666 NIL=
201304220600 AAXX 22064 67666 NIL=
201304220000 AAXX 22004 67666 NIL=
201304211800 AAXX 21184 67666 NIL=
201304211500 AAXX 21154 67666 NIL=
201304211200 AAXX 21121 67666 NIL=
201304210900 AAXX 21094 67666 NIL=
201304210000 AAXX 21004 67666 NIL=
201304202100 AAXX 20214 67666 NIL=
201304201500 AAXX 20154 67666 NIL=
201304201200 AAXX 20120 67666 NIL=
201304200300 AAXX 20034 67666 NIL=
201304200000 AAXX 20004 67666 NIL=
201304191800 AAXX 19184 67666 NIL=
201304191500 AAXX 19154 67666 NIL=
201304190900 AAXX 19094 67666 NIL=
201304190600 AAXX 19064 67666 31980 30906 10219 20157 48520 70500 83030
                   333 10290 20154 59002 83360
                   555 00/// 91018=
201304181800 AAXX 18184 67666 NIL=
201304181500 AAXX 18154 67666 NIL=
201304181200 AAXX 18124 67666 NIL=
201304180900 AAXX 18094 67666 NIL=
201304180300 AAXX 18034 67666 NIL=
201304180000 AAXX 18004 67666 NIL=
201304171800 AAXX 17184 67666 NIL=
201304171200 AAXX 17124 67666 42680 12902 10275 20109 48510 81100
                   333 59008 81850 91017=
201304170900 AAXX 17094 67666 42680 10603 10245 20121 48533 81100
                   333 59007 81840 91020=
201304170600 AAXX 17064 67666 31978 10906 10190 20131 48530 70500 80001
                   333 10265 20125 59008 81080
                   555 00/// 91020=
201304170000 AAXX 17004 67666 NIL=
201304161500 AAXX 16154 67666 NIL=
201304161200 AAXX 16124 67666 42680 30907 10250 20116 48516 83100
                   333 59018 83845 91018=
201304160900 AAXX 16094 67666 42680 10701 10230 20131 48539 81100
                   333 59015 81835 91020=
201304160600 AAXX 16064 67666 31978 00906 10175 20124 48536 70500
                   333 10262 20120 59013
                   555 00/// 91021=
201304160300 AAXX 16034 67666 NIL=
201304160000 AAXX 16004 67666 NIL=
201304152100 AAXX 15214 67666 NIL=
201304151800 AAXX 15184 67666 NIL=
201304151500 AAXX 15154 67666 NIL=
201304151200 AAXX 15124 67666 NIL=
201304150900 AAXX 15094 67666 42680 10908 10224 20136 48568 81100
                   333 59016 81830 91022=
201304150600 AAXX 15064 67666 32980 00908 10180 20120 48550
                   333 10260 20135 59017
                   555 00/// 91022=
201304150000 AAXX 15004 67666 NIL=
201304142100 AAXX 14214 67666 NIL=
201304141800 AAXX 14184 67666 NIL=
201304141500 AAXX 14154 67666 NIL=
201304140600 AAXX 14060 67666 NIL=
201304140300 AAXX 14034 67666 NIL=
201304140000 AAXX 14004 67666 NIL=
201304132100 AAXX 13214 67666 NIL=
201304131800 AAXX 13184 67666 NIL=
201304131500 AAXX 13154 67666 NIL=
201304131200 AAXX 13120 67666 NIL=
201304130300 AAXX 13034 67666 NIL=
201304130000 AAXX 13004 67666 NIL=
201304122100 AAXX 12214 67666 NIL=
201304121800 AAXX 12184 67666 NIL=
201304121500 AAXX 12154 67666 NIL=
201304121200 AAXX 12124 67666 NIL=
201304120900 AAXX 12094 67666 NIL=
201304120600 AAXX 12064 67666 32580 70813 10180 20147 48554 87500
                   333 10290 20158 58019 87620
                   555 00/// 91022=
201304090600 AAXX 09064 67666 31970 00000 10215 20131 48542 70500
                   333 10279 20120 58004 91021=
201304090300 AAXX 09034 67666 NIL=
201304090000 AAXX 09004 67666 NIL=
201304081800 AAXX 08184 67666 NIL=
201304081500 AAXX 08154 67666 NIL=
201304080900 AAXX 08094 67666 NIL=
201304080600 AAXX 08060 67666 NIL=
201304080300 AAXX 08034 67666 NIL=
201304080000 AAXX 08004 67666 NIL=
201304072100 AAXX 07214 67666 NIL=
201304071800 AAXX 07184 67666 NIL=
201304071500 AAXX 07154 67666 NIL=
201304071200 AAXX 07120 67666 NIL=
201304070900 AAXX 07094 67666 NIL=
201304070600 AAXX 07061 67666 NIL=
201304070300 AAXX 07034 67666 NIL=
201304070000 AAXX 07004 67666 NIL=
201304062100 AAXX 06214 67666 NIL=
201304061500 AAXX 06154 67666 NIL=
201304061200 AAXX 06120 67666 NIL=
201304060900 AAXX 06094 67666 NIL=
201304060600 AAXX 06064 67666 NIL=
201304060300 AAXX 06034 67666 NIL=
201304060000 AAXX 06004 67666 NIL=
201304051800 AAXX 05184 67666 NIL=
201304051200 AAXX 05124 67666 NIL=
201304050900 AAXX 05094 67666 NIL=
201304050600 AAXX 05064 67666 32480 70910 10185 20170 48539 878//
                   333 10285 20165 58019 87710=
201304050300 AAXX 05034 67666 NIL=
201304050000 AAXX 05004 67666 NIL=
201304041800 AAXX 04184 67666 NIL=

################################################################################
#  SYNOPS from 67667, Mount Makulu (Zambia) | 15-33S | 028-15E | 1213 m
################################################################################
201305010600 AAXX 01064 67667 NIL=
201305010300 AAXX 01034 67667 NIL=
201305010000 AAXX 01004 67667 NIL=
201304302100 AAXX 30214 67667 NIL=
201304301800 AAXX 30184 67667 NIL=
201304301500 AAXX 30154 67667 NIL=
201304301200 AAXX 30124 67667 NIL=
201304300900 AAXX 30094 67667 NIL=
201304300300 AAXX 30034 67667 NIL=
201304300000 AAXX 30004 67667 NIL=
201304291800 AAXX 29184 67667 NIL=
201304291500 AAXX 29154 67667 NIL=
201304290900 AAXX 29094 67667 NIL=
201304290600 AAXX 29064 67667 32980 00901 10185 20114 48///
                   333 10249 20055 58004
                   555 00///=
201304290000 AAXX 29004 67667 NIL=
201304281500 AAXX 28154 67667 NIL=
201304280900 AAXX 28094 67667 NIL=
201304280600 AAXX 28064 67667 NIL=
201304280300 AAXX 28034 67667 NIL=
201304280000 AAXX 28004 67667 NIL=
201304271800 AAXX 27184 67667 NIL=
201304271500 AAXX 27154 67667 NIL=
201304270300 AAXX 27034 67667 NIL=
201304262100 AAXX 26214 67667 NIL=
201304260000 AAXX 26004 67667 NIL=
201304251800 AAXX 25184 67667 NIL=
201304251200 AAXX 25124 67667 NIL=
201304250900 AAXX 25094 67667 NIL=
201304250600 AAXX 25064 67667 NIL=
201304231200 AAXX 23121 67667 NIL=
201304230600 AAXX 23064 67667 32980 20904 10198 20160 48/// 80002
                   333 10310 20119 58000 82080=
201304230300 AAXX 23034 67667 NIL=
201304230000 AAXX 23004 67667 NIL=
201304222100 AAXX 22214 67667 NIL=
201304221500 AAXX 22154 67667 NIL=
201304220900 AAXX 22094 67667 NIL=
201304220600 AAXX 22064 67667 NIL=
201304220000 AAXX 22004 67667 NIL=
201304211800 AAXX 21184 67667 NIL=
201304211500 AAXX 21154 67667 NIL=
201304211200 AAXX 21121 67667 NIL=
201304210900 AAXX 21094 67667 NIL=
201304210000 AAXX 21004 67667 NIL=
201304202100 AAXX 20214 67667 NIL=
201304201500 AAXX 20154 67667 NIL=
201304201200 AAXX 20120 67667 NIL=
201304200300 AAXX 20034 67667 NIL=
201304200000 AAXX 20004 67667 NIL=
201304191800 AAXX 19184 67667 NIL=
201304191500 AAXX 19154 67667 NIL=
201304190900 AAXX 19094 67667 NIL=
201304181800 AAXX 18184 67667 NIL=
201304181500 AAXX 18154 67667 NIL=
201304181200 AAXX 18124 67667 NIL=
201304180900 AAXX 18094 67667 NIL=
201304180300 AAXX 18034 67667 NIL=
201304180000 AAXX 18004 67667 NIL=
201304171800 AAXX 17184 67667 NIL=
201304171200 AAXX 17124 67667 NIL=
201304170900 AAXX 17094 67667 NIL=
201304170600 AAXX 17064 67667 32980 10902 10205 20124 48/// 80001
                   333 10275 20132 59010 81080
                   555 00///=
201304170000 AAXX 17004 67667 NIL=
201304161500 AAXX 16154 67667 NIL=
201304160300 AAXX 16034 67667 NIL=
201304160000 AAXX 16004 67667 NIL=
201304152100 AAXX 15214 67667 NIL=
201304151800 AAXX 15184 67667 NIL=
201304151500 AAXX 15154 67667 NIL=
201304151200 AAXX 15124 67667 NIL=
201304150000 AAXX 15004 67667 NIL=
201304142100 AAXX 14214 67667 NIL=
201304141800 AAXX 14184 67667 NIL=
201304141500 AAXX 14154 67667 NIL=
201304140600 AAXX 14060 67667 NIL=
201304140300 AAXX 14034 67667 NIL=
201304140000 AAXX 14004 67667 NIL=
201304132100 AAXX 13214 67667 NIL=
201304131800 AAXX 13184 67667 NIL=
201304131500 AAXX 13154 67667 NIL=
201304131200 AAXX 13120 67667 NIL=
201304130300 AAXX 13034 67667 NIL=
201304130000 AAXX 13004 67667 NIL=
201304122100 AAXX 12214 67667 NIL=
201304121800 AAXX 12184 67667 NIL=
201304121500 AAXX 12154 67667 NIL=
201304121200 AAXX 12124 67667 NIL=
201304120900 AAXX 12094 67667 NIL=
201304120600 AAXX 12064 67667 NIL=
201304090600 AAXX 09064 67667 32980 01801 10210 20146 48///
                   333 10290 20100 58001=
201304090300 AAXX 09034 67667 NIL=
201304090000 AAXX 09004 67667 NIL=
201304081800 AAXX 08184 67667 NIL=
201304081500 AAXX 08154 67667 NIL=
201304080900 AAXX 08094 67667 NIL=
201304080600 AAXX 08060 67667 NIL=
201304080300 AAXX 08034 67667 NIL=
201304080000 AAXX 08004 67667 NIL=
201304072100 AAXX 07214 67667 NIL=
201304071800 AAXX 07184 67667 NIL=
201304071500 AAXX 07154 67667 NIL=
201304071200 AAXX 07120 67667 NIL=
201304070900 AAXX 07094 67667 NIL=
201304070600 AAXX 07061 67667 NIL=
201304070300 AAXX 07034 67667 NIL=
201304070000 AAXX 07004 67667 NIL=
201304062100 AAXX 06214 67667 NIL=
201304061500 AAXX 06154 67667 NIL=
201304061200 AAXX 06120 67667 NIL=
201304060900 AAXX 06094 67667 NIL=
201304060600 AAXX 06064 67667 NIL=
201304060300 AAXX 06034 67667 NIL=
201304060000 AAXX 06004 67667 NIL=
201304051800 AAXX 05184 67667 NIL=
201304051200 AAXX 05124 67667 NIL=
201304050900 AAXX 05094 67667 NIL=
201304050600 AAXX 05064 67667 NIL=
201304050300 AAXX 05034 67667 NIL=
201304050000 AAXX 05004 67667 NIL=
201304041800 AAXX 04184 67667 NIL=

################################################################################
#  SYNOPS from 67673, Petauke (Zambia) | 14-15S | 031-17E | 1035 m
################################################################################
201305010600 AAXX 01064 67673 32584 41509 10185 20126 48593 84531
                   333 10280 20149 58024 84625 82360 81080
                   555 00/// 20000=
201305010300 AAXX 01034 67673 NIL=
201305010000 AAXX 01004 67673 NIL=
201304302100 AAXX 30214 67673 NIL=
201304301800 AAXX 30184 67673 NIL=
201304301500 AAXX 30154 67673 42780 71505 10252 20110 48554 87500
                   333 58007 87658 555 10280=
201304301200 AAXX 30124 67673 42680 61405 10262 20106 48564 86100
                   333 58024 86830=
201304300900 AAXX 30094 67673 42580 71407 10237 20131 48585 81130
                   333 58019 81825 87362=
201304300300 AAXX 30034 67673 NIL=
201304300000 AAXX 30004 67673 NIL=
201304291800 AAXX 29184 67673 NIL=
201304291500 AAXX 29154 67673 NIL=
201304290900 AAXX 29094 67673 42580 71205 10256 20135 48570 82130
                   333 58000 82826 87362=
201304290000 AAXX 29004 67673 NIL=
201304281500 AAXX 28154 67673 NIL=
201304280900 AAXX 28094 67673 NIL=
201304280600 AAXX 28064 67673 NIL=
201304280300 AAXX 28034 67673 NIL=
201304280000 AAXX 28004 67673 NIL=
201304271800 AAXX 27184 67673 NIL=
201304271500 AAXX 27154 67673 NIL=
201304270900 AAXX 27094 67673 42684 51207 10230 20128 48583 85101
                   333 59011 85830 82080=
201304270600 AAXX 27064 67673 32584 31206 10193 20121 48574 83101
                   333 10260 20135 59013 83820 81080
                   555 00/// 20000=
201304270300 AAXX 27034 67673 NIL=
201304262100 AAXX 26214 67673 NIL=
201304260000 AAXX 26004 67673 NIL=
201304251800 AAXX 25184 67673 NIL=
201304251200 AAXX 25124 67673 42684 61005 10240 20133 48580 85130
                   333 58010 85835 86360=
201304250900 AAXX 25094 67673 42684 60908 10240 20130 48603 86800
                   333 58018 83832 83634=
201304250600 AAXX 25064 67673 32580 61006 10200 20144 48595 86501
                   333 10255 20160 58028 86625 81080
                   555 00/// 20990=
201304231200 AAXX 23121 67673 NIL=
201304230600 AAXX 23064 67673 32980 11404 10243 20189 48536 81080
                   333 10320 20190 59002 81362
                   555 00///=
201304230300 AAXX 23034 67673 NIL=
201304230000 AAXX 23004 67673 NIL=
201304222100 AAXX 22214 67673 NIL=
201304221500 AAXX 22154 67673 NIL=
201304220900 AAXX 22094 67673 42580 30605 10298 20165 48544 83202
                   333 59007 83826 81080=
201304220600 AAXX 22064 67673 32980 10404 10250 20174 48539 81080
                   333 10320 20200 59004 81362
                   555 00/// 20990=
201304220000 AAXX 22004 67673 NIL=
201304211800 AAXX 21184 67673 NIL=
201304211500 AAXX 21154 67673 NIL=
201304211200 AAXX 21121 67673 NIL=
201304210900 AAXX 21094 67673 NIL=
201304210000 AAXX 21004 67673 NIL=
201304202100 AAXX 20214 67673 NIL=
201304201500 AAXX 20154 67673 NIL=
201304201200 AAXX 20120 67673 NIL=
201304200600 AAXX 20064 67673 12584 60201 10240 20189 48559 60064 81131
                   333 10335 20205 58017 81825 86360 82080
                   555 00/// 20000=
201304200300 AAXX 20034 67673 NIL=
201304200000 AAXX 20004 67673 NIL=
201304191800 AAXX 19184 67673 NIL=
201304191500 AAXX 19154 67673 41570 60701 10224 20180 48507 76322 85231
                   333 81930 85830 86360 83080
                   555 10335=
201304191200 AAXX 19124 67673 42684 61202 10328 20176 48524 86201
                   333 58000 86845 82080=
201304190900 AAXX 19094 67673 42684 33601 10300 20174 48549 83131
                   333 58000 83840 81360 82080=
201304190600 AAXX 19064 67673 32984 30104 10250 20174 48545 82031
                   333 10302 20198 58001 82360 83080
                   555 00/// 20000=
201304181800 AAXX 18184 67673 NIL=
201304181500 AAXX 18154 67673 42684 20000 10295 20157 48515 82100
                   333 59002 82845 555 10320=
201304181200 AAXX 18124 67673 42684 52601 10310 20154 48521 85100
                   333 59007 85845=
201304180900 AAXX 18094 67673 42684 20901 10300 20144 48550 82100
                   333 58002 82840=
201304180600 AAXX 18064 67673 32984 00602 10244 20153 48542
                   333 10307 20165 58000
                   555 00/// 20000=
201304180300 AAXX 18034 67673 NIL=
201304180000 AAXX 18004 67673 NIL=
201304171800 AAXX 17184 67673 NIL=
201304171200 AAXX 17124 67673 NIL=
201304170900 AAXX 17094 67673 42680 10105 10275 20140 48542 81100
                   333 59015 81830=
201304170600 AAXX 17060 67673 32980 10904 10223 20140 48540 80001
                   333 10286 20148 59012 81080
                   555 00///=
201304170000 AAXX 17004 67673 NIL=
201304161500 AAXX 16154 67673 42680 11504 10260 20127 48522 81100
                   333 59017 81830 555 10286=
201304160300 AAXX 16034 67673 NIL=
201304160000 AAXX 16004 67673 NIL=
201304152100 AAXX 15214 67673 NIL=
201304151800 AAXX 15184 67673 NIL=
201304151500 AAXX 15154 67673 42980 00903 10239 20131 48536
                   333 59028 555 10268=
201304151200 AAXX 15124 67673 42680 41405 10257 20132 48547 84100
                   333 59027 84835=
201304150600 AAXX 15064 67673 32480 11004 10194 20126 48559 81500
                   333 10270 20127 59025 81615
                   555 00///=
201304150000 AAXX 15004 67673 NIL=
201304142100 AAXX 14214 67673 NIL=
201304141800 AAXX 14184 67673 NIL=
201304141500 AAXX 14154 67673 NIL=
201304140600 AAXX 14060 67673 NIL=
201304140300 AAXX 14034 67673 NIL=
201304140000 AAXX 14004 67673 NIL=
201304132100 AAXX 13214 67673 NIL=
201304131800 AAXX 13184 67673 NIL=
201304131500 AAXX 13154 67673 42684 40902 10220 20134 48576 82130
                   333 58026 82830 84360
                   555 10250=
201304131200 AAXX 13124 67673 42680 60904 10240 20144 48582 84130
                   333 58028 84830 86360=
201304130600 AAXX 13064 67673 32584 61208 10200 20154 48585 86500
                   333 10265 20165 58025 86620
                   555 00/// 20000=
201304130300 AAXX 13034 67673 NIL=
201304130000 AAXX 13004 67673 NIL=
201304122100 AAXX 12214 67673 NIL=
201304121800 AAXX 12184 67673 NIL=
201304121500 AAXX 12154 67673 42584 61004 10229 20160 48553 82130
                   333 58033 82835 86360
                   555 10265=
201304121200 AAXX 12124 67673 42684 70907 10260 20154 48558 8513/
                   333 58027 85838 87360=
201304120900 AAXX 12094 67673 42684 51207 10250 20157 48577 85131
                   333 58029 85835 82360 83080=
201304120600 AAXX 12064 67673 32584 50908 10210 20154 48563 84831
                   333 10302 20174 58028 82820 82622 85360 83080
                   555 00/// 20000=
201304090600 AAXX 09064 67673 32980 01204 10252 20149 48552
                   333 10302 20168 59009
                   555 00///=
201304090300 AAXX 09034 67673 NIL=
201304090000 AAXX 09004 67673 NIL=
201304081800 AAXX 08184 67673 NIL=
201304081500 AAXX 08154 67673 42684 10000 10283 20114 48527 81130
                   333 58001 81840 81360
                   555 10302=
201304081200 AAXX 08124 67673 42684 31702 10296 20114 48536 83100
                   333 59001 83840=
201304080900 AAXX 08094 67673 42684 42702 10283 20133 48562 84100
                   333 58007 84835=
201304080600 AAXX 08064 67673 32984 10802 10240 20144 48559 81030
                   333 10300 20159 58005
                   555 81360 00/// 20000=
201304080300 AAXX 08034 67673 NIL=
201304080000 AAXX 08004 67673 NIL=
201304072100 AAXX 07214 67673 NIL=
201304071800 AAXX 07184 67673 NIL=
201304071500 AAXX 07154 67673 NIL=
201304071200 AAXX 07120 67673 NIL=
201304070900 AAXX 07094 67673 NIL=
201304070600 AAXX 07061 67673 NIL=
201304070300 AAXX 07034 67673 NIL=
201304070000 AAXX 07004 67673 NIL=
201304062100 AAXX 06214 67673 NIL=
201304061500 AAXX 06154 67673 NIL=
201304061200 AAXX 06120 67673 NIL=
201304060900 AAXX 06094 67673 NIL=
201304060600 AAXX 06064 67673 32580 61003 10185 20153 48564 86500
                   333 10257 20158 58023 86620
                   555 00/// 20000=
201304060300 AAXX 06034 67673 NIL=
201304060000 AAXX 06004 67673 NIL=
201304051800 AAXX 05184 67673 NIL=
201304051200 AAXX 05124 67673 42680 71605 10241 20198 48535 87800
                   333 58034 82830 86635=
201304050900 AAXX 05094 67673 42580 81406 10225 20180 48553 885//
                   333 58028 88620=
201304050600 AAXX 05064 67673 32480 71406 10210 20177 48546 875//
                   333 10330 20186 58021 87616
                   555 00///=
201304050300 AAXX 05034 67673 NIL=
201304050000 AAXX 05004 67673 NIL=
201304041800 AAXX 04184 67673 NIL=

################################################################################
#  SYNOPS from 67731, Senanga (Zambia) | 16-06S | 023-16E | 1027 m
################################################################################
201305010600 AAXX 01064 67731 NIL=
201305010300 AAXX 01034 67731 NIL=
201305010000 AAXX 01004 67731 NIL=
201304302100 AAXX 30214 67731 NIL=
201304301800 AAXX 30184 67731 NIL=
201304301500 AAXX 30154 67731 NIL=
201304301200 AAXX 30124 67731 NIL=
201304300900 AAXX 30094 67731 NIL=
201304300300 AAXX 30034 67731 NIL=
201304300000 AAXX 30004 67731 NIL=
201304291800 AAXX 29184 67731 NIL=
201304291500 AAXX 29154 67731 NIL=
201304290900 AAXX 29094 67731 NIL=
201304290000 AAXX 29004 67731 NIL=
201304281500 AAXX 28154 67731 NIL=
201304280900 AAXX 28094 67731 NIL=
201304280600 AAXX 28064 67731 NIL=
201304280300 AAXX 28034 67731 NIL=
201304280000 AAXX 28004 67731 NIL=
201304271800 AAXX 27184 67731 NIL=
201304271500 AAXX 27154 67731 NIL=
201304270300 AAXX 27034 67731 NIL=
201304262100 AAXX 26214 67731 NIL=
201304260000 AAXX 26004 67731 NIL=
201304251800 AAXX 25184 67731 NIL=
201304251200 AAXX 25124 67731 NIL=
201304250900 AAXX 25094 67731 42580 310// 10272 20207 48/// 83100
                   333 5//// 83825=
201304250600 AAXX 25064 67731 32980 025// 10213 20128 48///
                   333 10341 20121 5////
                   555 00/// 20000=
201304231200 AAXX 23121 67731 NIL=
201304230600 AAXX 23064 67731 32480 520// 10174 20069 48/// 83570
                   333 10323 20115 5//// 83613 84460
                   555 00/// 20000=
201304230300 AAXX 23034 67731 NIL=
201304230000 AAXX 23004 67731 NIL=
201304222100 AAXX 22214 67731 NIL=
201304221500 AAXX 22154 67731 NIL=
201304220900 AAXX 22094 67731 NIL=
201304220600 AAXX 22064 67731 32980 022// 10226 20149 48///
                   333 10325 20171 5////
                   555 00/// 20000=
201304220000 AAXX 22004 67731 NIL=
201304211800 AAXX 21184 67731 NIL=
201304211500 AAXX 21154 67731 NIL=
201304211200 AAXX 21121 67731 NIL=
201304210900 AAXX 21094 67731 NIL=
201304210000 AAXX 21004 67731 NIL=
201304202100 AAXX 20214 67731 NIL=
201304201500 AAXX 20154 67731 NIL=
201304201200 AAXX 20120 67731 NIL=
201304200300 AAXX 20034 67731 NIL=
201304200000 AAXX 20004 67731 NIL=
201304191800 AAXX 19184 67731 NIL=
201304191500 AAXX 19154 67731 NIL=
201304190900 AAXX 19094 67731 NIL=
201304181800 AAXX 18184 67731 NIL=
201304181500 AAXX 18154 67731 NIL=
201304181200 AAXX 18124 67731 NIL=
201304180900 AAXX 18094 67731 NIL=
201304180300 AAXX 18034 67731 NIL=
201304180000 AAXX 18004 67731 NIL=
201304171800 AAXX 17184 67731 NIL=
201304171200 AAXX 17124 67731 NIL=
201304170900 AAXX 17094 67731 NIL=
201304170600 AAXX 17060 67731 32980 032// 10225 20158 48///
                   333 10325 20154 5////
                   555 00/// 20000=
201304170000 AAXX 17004 67731 NIL=
201304161500 AAXX 16154 67731 NIL=
201304160300 AAXX 16034 67731 NIL=
201304160000 AAXX 16004 67731 NIL=
201304152100 AAXX 15214 67731 NIL=
201304151800 AAXX 15184 67731 NIL=
201304151500 AAXX 15154 67731 NIL=
201304151200 AAXX 15124 67731 NIL=
201304150000 AAXX 15004 67731 NIL=
201304142100 AAXX 14214 67731 NIL=
201304141800 AAXX 14184 67731 NIL=
201304141500 AAXX 14154 67731 NIL=
201304140600 AAXX 14060 67731 NIL=
201304140300 AAXX 14034 67731 NIL=
201304140000 AAXX 14004 67731 NIL=
201304132100 AAXX 13214 67731 NIL=
201304131800 AAXX 13184 67731 NIL=
201304131500 AAXX 13154 67731 NIL=
201304131200 AAXX 13120 67731 NIL=
201304130300 AAXX 13034 67731 NIL=
201304130000 AAXX 13004 67731 NIL=
201304122100 AAXX 12214 67731 NIL=
201304121800 AAXX 12184 67731 NIL=
201304121500 AAXX 12154 67731 NIL=
201304121200 AAXX 12124 67731 NIL=
201304120900 AAXX 12094 67731 NIL=
201304120600 AAXX 12064 67731 NIL=
201304090600 AAXX 09064 67731 32980 023// 10229 20151 48///
                   333 10346 20159 5////
                   555 00/// 20000=
201304090300 AAXX 09034 67731 NIL=
201304090000 AAXX 09004 67731 NIL=
201304081800 AAXX 08184 67731 NIL=
201304081500 AAXX 08154 67731 NIL=
201304080900 AAXX 08094 67731 42580 120// 10291 20180 48/// 81100
                   333 5//// 81828=
201304080600 AAXX 08060 67731 32980 017// 10241 20164 48///
                   333 10336 20179 5////
                   555 00/// 20000=
201304080300 AAXX 08034 67731 NIL=
201304080000 AAXX 08004 67731 NIL=
201304072100 AAXX 07214 67731 NIL=
201304071800 AAXX 07184 67731 NIL=
201304071500 AAXX 07154 67731 NIL=
201304071200 AAXX 07120 67731 NIL=
201304070900 AAXX 07094 67731 NIL=
201304070600 AAXX 07061 67731 NIL=
201304070300 AAXX 07034 67731 NIL=
201304070000 AAXX 07004 67731 NIL=
201304062100 AAXX 06214 67731 NIL=
201304061500 AAXX 06154 67731 NIL=
201304061200 AAXX 06120 67731 NIL=
201304060900 AAXX 06094 67731 NIL=
201304060600 AAXX 06064 67731 NIL=
201304060300 AAXX 06034 67731 NIL=
201304060000 AAXX 06004 67731 NIL=
201304051800 AAXX 05184 67731 NIL=
201304051200 AAXX 05124 67731 NIL=
201304050900 AAXX 05094 67731 NIL=
201304050600 AAXX 05064 67731 32980 030// 10230 20193 48///
                   333 10319 20175 5////
                   555 00/// 20000=
201304050300 AAXX 05034 67731 NIL=
201304050000 AAXX 05004 67731 NIL=
201304041800 AAXX 04184 67731 NIL=

################################################################################
#  SYNOPS from 67741, Sesheke (Zambia) | 17-28S | 024-18E | 949 m
################################################################################
201305010600 AAXX 01064 67741 32980 00902 10175 20105 48576
                   333 10285 20090 58017
                   555 00///=
201305010300 AAXX 01034 67741 NIL=
201305010000 AAXX 01004 67741 NIL=
201304302100 AAXX 30214 67741 NIL=
201304301800 AAXX 30184 67741 NIL=
201304301500 AAXX 30154 67741 42680 10904 10274 20097 48558 81100
                   333 10285 20155 58017 81835=
201304301200 AAXX 30124 67741 42680 10905 10280 20085 48570 81100
                   333 58016 81835=
201304300900 AAXX 30094 67741 NIL=
201304300300 AAXX 30034 67741 NIL=
201304300000 AAXX 30004 67741 NIL=
201304291800 AAXX 29184 67741 NIL=
201304291500 AAXX 29154 67741 NIL=
201304290900 AAXX 29094 67741 NIL=
201304290000 AAXX 29004 67741 NIL=
201304281500 AAXX 28154 67741 NIL=
201304280900 AAXX 28094 67741 NIL=
201304280600 AAXX 28064 67741 NIL=
201304280300 AAXX 28034 67741 NIL=
201304280000 AAXX 28004 67741 NIL=
201304271800 AAXX 27184 67741 NIL=
201304271500 AAXX 27154 67741 NIL=
201304270300 AAXX 27034 67741 NIL=
201304262100 AAXX 26214 67741 NIL=
201304260000 AAXX 26004 67741 NIL=
201304251800 AAXX 25184 67741 NIL=
201304251200 AAXX 25124 67741 42680 30904 10270 20172 48577 83500
                   333 58021 83635=
201304250900 AAXX 25094 67741 42680 60905 10242 20168 48590 86500
                   333 58024 86635=
201304250600 AAXX 25064 67741 32680 10903 10206 20174 48574 81100
                   333 10313 20092 58021 81835
                   555 00///=
201304231200 AAXX 23121 67741 42980 10000 10296 20068 48524 80002
                   333 59035 81080=
201304230600 AAXX 23064 67741 32980 10000 10154 20063 48524 80002
                   333 10313 20048 59005 81080
                   555 00///=
201304230300 AAXX 23034 67741 NIL=
201304230000 AAXX 23004 67741 NIL=
201304222100 AAXX 22214 67741 NIL=
201304221500 AAXX 22154 67741 32980 01802 10305 20046 48516
                   333 10313 20174 5////=
201304220900 AAXX 22094 67741 42980 10902 10265 20050 48556 80002
                   333 5//// 81080=
201304220600 AAXX 22064 67741 NIL=
201304220000 AAXX 22004 67741 NIL=
201304211800 AAXX 21184 67741 NIL=
201304211500 AAXX 21154 67741 NIL=
201304211200 AAXX 21121 67741 NIL=
201304210900 AAXX 21094 67741 NIL=
201304210000 AAXX 21004 67741 NIL=
201304202100 AAXX 20214 67741 NIL=
201304201500 AAXX 20154 67741 NIL=
201304201200 AAXX 20120 67741 NIL=
201304200300 AAXX 20034 67741 NIL=
201304200000 AAXX 20004 67741 NIL=
201304191800 AAXX 19184 67741 NIL=
201304191500 AAXX 19154 67741 NIL=
201304190900 AAXX 19094 67741 NIL=
201304181800 AAXX 18184 67741 NIL=
201304181500 AAXX 18154 67741 NIL=
201304181200 AAXX 18124 67741 NIL=
201304180900 AAXX 18094 67741 NIL=
201304180300 AAXX 18034 67741 NIL=
201304180000 AAXX 18004 67741 NIL=
201304171800 AAXX 17184 67741 NIL=
201304171200 AAXX 17124 67741 NIL=
201304170900 AAXX 17094 67741 NIL=
201304170600 AAXX 17060 67741 NIL=
201304170000 AAXX 17004 67741 NIL=
201304161500 AAXX 16154 67741 NIL=
201304160300 AAXX 16034 67741 NIL=
201304160000 AAXX 16004 67741 NIL=
201304152100 AAXX 15214 67741 NIL=
201304151800 AAXX 15184 67741 NIL=
201304151500 AAXX 15154 67741 NIL=
201304151200 AAXX 15124 67741 NIL=
201304150000 AAXX 15004 67741 NIL=
201304142100 AAXX 14214 67741 NIL=
201304141800 AAXX 14184 67741 NIL=
201304141500 AAXX 14154 67741 NIL=
201304140600 AAXX 14060 67741 NIL=
201304140300 AAXX 14034 67741 NIL=
201304140000 AAXX 14004 67741 NIL=
201304132100 AAXX 13214 67741 NIL=
201304131800 AAXX 13184 67741 NIL=
201304131500 AAXX 13154 67741 NIL=
201304131200 AAXX 13120 67741 NIL=
201304130300 AAXX 13034 67741 NIL=
201304130000 AAXX 13004 67741 NIL=
201304122100 AAXX 12214 67741 NIL=
201304121800 AAXX 12184 67741 NIL=
201304121500 AAXX 12154 67741 NIL=
201304121200 AAXX 12124 67741 NIL=
201304120900 AAXX 12094 67741 NIL=
201304120600 AAXX 12064 67741 32980 10803 10212 20128 48536 80002
                   333 10342 20172 58014 81080=
201304090600 AAXX 09064 67741 32980 01801 10179 20111 48530
                   333 10325 20131 58000=
201304090300 AAXX 09034 67741 NIL=
201304090000 AAXX 09004 67741 NIL=
201304081800 AAXX 08184 67741 NIL=
201304081500 AAXX 08154 67741 NIL=
201304080900 AAXX 08094 67741 NIL=
201304080600 AAXX 08060 67741 NIL=
201304080300 AAXX 08034 67741 NIL=
201304080000 AAXX 08004 67741 NIL=
201304072100 AAXX 07214 67741 NIL=
201304071800 AAXX 07184 67741 NIL=
201304071500 AAXX 07154 67741 NIL=
201304071200 AAXX 07120 67741 NIL=
201304070900 AAXX 07094 67741 NIL=
201304070600 AAXX 07061 67741 NIL=
201304070300 AAXX 07034 67741 NIL=
201304070000 AAXX 07004 67741 NIL=
201304062100 AAXX 06214 67741 NIL=
201304061500 AAXX 06154 67741 NIL=
201304061200 AAXX 06120 67741 NIL=
201304060900 AAXX 06094 67741 NIL=
201304060600 AAXX 06064 67741 NIL=
201304060300 AAXX 06034 67741 NIL=
201304060000 AAXX 06004 67741 NIL=
201304051800 AAXX 05184 67741 NIL=
201304051200 AAXX 05124 67741 NIL=
201304050900 AAXX 05094 67741 NIL=
201304050600 AAXX 05064 67741 NIL=
201304050300 AAXX 05034 67741 NIL=
201304050000 AAXX 05004 67741 NIL=
201304041800 AAXX 04184 67741 NIL=

################################################################################
#  SYNOPS from 67743, Livingstone (Zambia) | 17-49S | 025-49E | 985 m
################################################################################
201305010600 AAXX 01064 67743 NIL=
201305010300 AAXX 01034 67743 NIL=
201305010000 AAXX 01004 67743 NIL=
201304302100 AAXX 30214 67743 NIL=
201304301800 AAXX 30184 67743 NIL=
201304301500 AAXX 30154 67743 NIL=
201304301200 AAXX 30124 67743 42880 11108 10285 20046 48580 81100
                   333 58028 81857 91023=
201304301023 AAXX 30104 67743 42980 01014 10272 20064 48576 59033 81857 91023=
201304300900 AAXX 30094 67743 42780 10910 10245 20100 48596 81100
                   333 58022 81850 91026=
201304300300 AAXX 30034 67743 NIL=
201304300000 AAXX 30004 67743 NIL=
201304291800 AAXX 29184 67743 NIL=
201304291500 AAXX 29154 67743 NIL=
201304290900 AAXX 29094 67743 NIL=
201304290000 AAXX 29004 67743 NIL=
201304281500 AAXX 28154 67743 42980 00904 10274 20082 48545
                   333 58001 555 10283=
201304280900 AAXX 28094 67743 42680 20803 10244 20132 48575 82100
                   333 59005 82830=
201304280600 AAXX 28064 67743 NIL=
201304280300 AAXX 28034 67743 NIL=
201304280000 AAXX 28004 67743 NIL=
201304271800 AAXX 27184 67743 NIL=
201304271500 AAXX 27154 67743 NIL=
201304270600 AAXX 27064 67743 32980 01205 10169 20097 48560
                   333 10284 20116 59006
                   555 00/// 91024=
201304270300 AAXX 27034 67743 NIL=
201304262100 AAXX 26214 67743 NIL=
201304260000 AAXX 26004 67743 NIL=
201304251800 AAXX 25184 67743 NIL=
201304251500 AAXX 25154 67743 42780 10908 10270 20131 48569 81100
                   333 58020 81850 555 10286 91022=
201304251200 AAXX 25124 67743 NIL=
201304250900 AAXX 25094 67743 42680 20913 10236 20147 48598 81130
                   333 58030 81840 82358 91025=
201304250600 AAXX 25064 67743 32680 41106 10192 20153 48536 845//
                   333 20176 84635 555 91026=
201304231200 AAXX 23121 67743 NIL=
201304230900 AAXX 23094 67743 42980 11209 10273 20081 48551 80001
                   333 58005 81080 91020=
201304230600 AAXX 23064 67743 32980 20000 10155 20053 48522 80002
                   333 10329 20081 59005 82080
                   555 91019=
201304230300 AAXX 23034 67743 NIL=
201304230000 AAXX 23004 67743 NIL=
201304222100 AAXX 22214 67743 NIL=
201304221500 AAXX 22154 67743 NIL=
201304220900 AAXX 22094 67743 42980 11306 10270 20022 48552 80001
                   333 58002 81080 91020=
201304220600 AAXX 22064 67743 32980 11902 10189 20077 48535 80001
                   333 10336 20116 58007 81080
                   555 00/// 91021=
201304220000 AAXX 22004 67743 NIL=
201304211800 AAXX 21184 67743 NIL=
201304211500 AAXX 21154 67743 42880 11804 10322 20103 48517 81101
                   333 58002 81858 81080
                   555 10336 91015=
201304211200 AAXX 21124 67743 42880 21804 10314 20123 48526 81101
                   333 58008 81857 81080
                   555 91016=
201304210900 AAXX 21094 67743 42980 21206 10281 20146 48550 71031 82100
                   333 58021 81360 81080
                   555 91020=
201304210000 AAXX 21004 67743 NIL=
201304202100 AAXX 20214 67743 NIL=
201304201500 AAXX 20154 67743 42980 43607 10320 20152 48516 84231
                   333 58027 84846 82360 85080
                   555 91015=
201304201200 AAXX 20124 67743 42780 53612 10330 20146 48523 85230
                   333 58026 85856 81360
                   555 91015=
201304200600 AAXX 20064 67743 32980 30610 10240 20162 48520 81030
                   333 10355 20155 58016 81360
                   555 00/// 91017=
201304200300 AAXX 20034 67743 NIL=
201304200000 AAXX 20004 67743 NIL=
201304191800 AAXX 19184 67743 NIL=
201304191500 AAXX 19154 67743 42880 23005 10326 20104 48490 82100
                   333 59015 82857 555 10355 91012=
201304191200 AAXX 19124 67743 42880 12708 10336 20094 48497 81100
                   333 59022 81857 91013=
201304190900 AAXX 19094 67743 42980 03408 10311 20125 48518
                   333 59005 91015=
201304181800 AAXX 18184 67743 NIL=
201304181500 AAXX 18154 67743 NIL=
201304181200 AAXX 18124 67743 42880 12004 10321 20060 48495 81100
                   333 59021 81857 91013=
201304181016 AAXX 18104 67743 42980 10407 10300 20089 48545 58020 81859 91016=
201304180900 AAXX 18094 67743 NIL=
201304180600 AAXX 18064 67743 32980 00000 10186 20105 48494
                   333 10319 20/// 59023
                   555 91016=
201304180300 AAXX 18034 67743 NIL=
201304180000 AAXX 18004 67743 NIL=
201304171800 AAXX 17184 67743 NIL=
201304171500 AAXX 17154 67743 42980 01204 10311 20050 48503
                   333 59038 555 10319 91014=
201304171200 AAXX 17124 67743 42980 03504 10307 20059 48514
                   333 59019 555 91015=
201304170900 AAXX 17094 67743 42980 02407 10270 20121 48537 70200
                   333 59015 91018=
201304170600 AAXX 17060 67743 NIL=
201304170000 AAXX 17004 67743 NIL=
201304161500 AAXX 16154 67743 42980 01006 10296 20064 48541
                   333 58005 555 91018=
201304160600 AAXX 16064 67743 32980 00903 10198 20139 48545
                   333 20150 59012 555 00/// 91021=
201304160300 AAXX 16034 67743 NIL=
201304160000 AAXX 16004 67743 NIL=
201304152100 AAXX 15214 67743 NIL=
201304151800 AAXX 15184 67743 NIL=
201304151500 AAXX 15154 67743 NIL=
201304151200 AAXX 15124 67743 NIL=
201304150600 AAXX 15064 67743 32980 01004 10186 20143 48551
                   333 10310 20134 59009
                   555 00/// 91022=
201304150000 AAXX 15004 67743 NIL=
201304142100 AAXX 14214 67743 NIL=
201304141800 AAXX 14184 67743 NIL=
201304141500 AAXX 14154 67743 NIL=
201304140900 AAXX 14094 67743 42980 00508 10260 20160 48584
                   333 59007 91024=
201304140600 AAXX 14060 67743 NIL=
201304140300 AAXX 14034 67743 NIL=
201304140000 AAXX 14004 67743 NIL=
201304132100 AAXX 13214 67743 NIL=
201304131800 AAXX 13184 67743 NIL=
201304131500 AAXX 13154 67743 42780 20907 10286 20163 48560 81101
                   333 58024 81840 81080
                   555 10299 91021=
201304131200 AAXX 13124 67743 42780 31009 10282 20163 48566 81101
                   333 58022 81840 82080
                   555 91022=
201304130600 AAXX 13064 67743 32980 10906 10205 20157 48572 81031
                   333 10310 20164 58021 81360 81081
                   555 00/// 91024=
201304130300 AAXX 13034 67743 NIL=
201304130000 AAXX 13004 67743 NIL=
201304122100 AAXX 12214 67743 NIL=
201304121800 AAXX 12184 67743 NIL=
201304121500 AAXX 12154 67743 NIL=
201304121200 AAXX 12124 67743 NIL=
201304120900 AAXX 12094 67743 NIL=
201304120600 AAXX 12064 67743 NIL=
201304090600 AAXX 09064 67743 32980 10000 10180 20123 48528 81001
                   333 10320 20106 59002 81080
                   555 00/// 92019=
201304090300 AAXX 09034 67743 NIL=
201304090000 AAXX 09004 67743 NIL=
201304081800 AAXX 08184 67743 NIL=
201304081500 AAXX 08154 67743 NIL=
201304080900 AAXX 08094 67743 42980 10906 10290 20096 48549 81030
                   333 59002 81359 555 91020=
201304080600 AAXX 08064 67743 32980 10000 10190 20132 48524 81030
                   333 10304 20125 59003 81359
                   555 00/// 91020=
201304080300 AAXX 08034 67743 NIL=
201304080000 AAXX 08004 67743 NIL=
201304072100 AAXX 07214 67743 NIL=
201304071800 AAXX 07184 67743 NIL=
201304071500 AAXX 07154 67743 NIL=
201304071200 AAXX 07120 67743 NIL=
201304070900 AAXX 07094 67743 NIL=
201304070600 AAXX 07061 67743 NIL=
201304070300 AAXX 07034 67743 NIL=
201304070000 AAXX 07004 67743 NIL=
201304062100 AAXX 06214 67743 NIL=
201304061500 AAXX 06154 67743 NIL=
201304061200 AAXX 06120 67743 NIL=
201304060900 AAXX 06094 67743 NIL=
201304060600 AAXX 06064 67743 NIL=
201304060300 AAXX 06034 67743 NIL=
201304060000 AAXX 06004 67743 NIL=
201304051800 AAXX 05184 67743 NIL=
201304051200 AAXX 05124 67743 NIL=
201304050900 AAXX 05094 67743 NIL=
201304050600 AAXX 05064 67743 11459 81510 10178 20155 48551 60214 75052 885//
                   333 10320 20169 58038 88616
                   555 00/// 91022=
201304050300 AAXX 05034 67743 NIL=
201304050000 AAXX 05004 67743 NIL=
201304041800 AAXX 04184 67743 NIL=
201304041500 AAXX 04154 67743 42780 63606 10210 20194 48501 81930
                   333 58018 81956 83856 84360=
201304041200 AAXX 04124 67743 42780 43606 10305 20158 48519 83130
                   333 58011 83856 81360
                   555 91016=

################################################################################
#  SYNOPS from 67751, Magoye (Zambia) | 16-00S | 027-36E | 1018 m
################################################################################
201305010600 AAXX 01064 67751 NIL=
201305010300 AAXX 01034 67751 NIL=
201305010000 AAXX 01004 67751 NIL=
201304302100 AAXX 30214 67751 NIL=
201304301800 AAXX 30184 67751 NIL=
201304301500 AAXX 30154 67751 NIL=
201304301200 AAXX 30124 67751 NIL=
201304300900 AAXX 30094 67751 NIL=
201304300300 AAXX 30034 67751 NIL=
201304300000 AAXX 30004 67751 NIL=
201304291800 AAXX 29184 67751 NIL=
201304291500 AAXX 29154 67751 NIL=
201304290900 AAXX 29094 67751 NIL=
201304290000 AAXX 29004 67751 NIL=
201304281500 AAXX 28154 67751 NIL=
201304280900 AAXX 28094 67751 NIL=
201304280600 AAXX 28064 67751 NIL=
201304280300 AAXX 28034 67751 NIL=
201304280000 AAXX 28004 67751 NIL=
201304271800 AAXX 27184 67751 NIL=
201304271500 AAXX 27154 67751 NIL=
201304270300 AAXX 27034 67751 NIL=
201304262100 AAXX 26214 67751 NIL=
201304260000 AAXX 26004 67751 NIL=
201304251800 AAXX 25184 67751 NIL=
201304251200 AAXX 25124 67751 NIL=
201304250900 AAXX 25094 67751 NIL=
201304250600 AAXX 25064 67751 NIL=
201304231200 AAXX 23121 67751 NIL=
201304230600 AAXX 23064 67751 NIL=
201304230300 AAXX 23034 67751 NIL=
201304230000 AAXX 23004 67751 NIL=
201304222100 AAXX 22214 67751 NIL=
201304221500 AAXX 22154 67751 NIL=
201304220900 AAXX 22094 67751 NIL=
201304220600 AAXX 22064 67751 12980 60000 10226 20195 60044 86070
                   333 10302 20/// 59007 86360
                   555 00/// 20000=
201304220000 AAXX 22004 67751 NIL=
201304211800 AAXX 21184 67751 NIL=
201304211500 AAXX 21154 67751 NIL=
201304211200 AAXX 21121 67751 NIL=
201304210900 AAXX 21094 67751 NIL=
201304210000 AAXX 21004 67751 NIL=
201304202100 AAXX 20214 67751 NIL=
201304201500 AAXX 20154 67751 NIL=
201304201200 AAXX 20120 67751 NIL=
201304200300 AAXX 20034 67751 NIL=
201304200000 AAXX 20004 67751 NIL=
201304191800 AAXX 19184 67751 NIL=
201304191500 AAXX 19154 67751 NIL=
201304190900 AAXX 19094 67751 NIL=
201304181800 AAXX 18184 67751 NIL=
201304181500 AAXX 18154 67751 NIL=
201304181200 AAXX 18124 67751 NIL=
201304180900 AAXX 18094 67751 NIL=
201304180300 AAXX 18034 67751 NIL=
201304180000 AAXX 18004 67751 NIL=
201304171800 AAXX 17184 67751 NIL=
201304171200 AAXX 17124 67751 NIL=
201304170900 AAXX 17094 67751 NIL=
201304170600 AAXX 17064 67751 32980 01101 10185 20140
                   333 10300 20/// 58012
                   555 00/// 20000=
201304170000 AAXX 17004 67751 NIL=
201304161500 AAXX 16154 67751 NIL=
201304160300 AAXX 16034 67751 NIL=
201304160000 AAXX 16004 67751 NIL=
201304152100 AAXX 15214 67751 NIL=
201304151800 AAXX 15184 67751 NIL=
201304151500 AAXX 15154 67751 NIL=
201304151200 AAXX 15124 67751 NIL=
201304150000 AAXX 15004 67751 NIL=
201304142100 AAXX 14214 67751 NIL=
201304141800 AAXX 14184 67751 NIL=
201304141500 AAXX 14154 67751 NIL=
201304140600 AAXX 14060 67751 NIL=
201304140300 AAXX 14034 67751 NIL=
201304140000 AAXX 14004 67751 NIL=
201304132100 AAXX 13214 67751 NIL=
201304131800 AAXX 13184 67751 NIL=
201304131500 AAXX 13154 67751 NIL=
201304131200 AAXX 13120 67751 NIL=
201304130300 AAXX 13034 67751 NIL=
201304130000 AAXX 13004 67751 NIL=
201304122100 AAXX 12214 67751 NIL=
201304121800 AAXX 12184 67751 NIL=
201304121500 AAXX 12154 67751 NIL=
201304121200 AAXX 12124 67751 NIL=
201304120900 AAXX 12094 67751 NIL=
201304120600 AAXX 12064 67751 NIL=
201304090600 AAXX 09064 67751 32980 00000 10180 20131 48///
                   333 10311 20/// 59001=
201304090300 AAXX 09034 67751 NIL=
201304090000 AAXX 09004 67751 NIL=
201304081800 AAXX 08184 67751 NIL=
201304081500 AAXX 08154 67751 NIL=
201304080900 AAXX 08094 67751 NIL=
201304080600 AAXX 08064 67751 32980 00000 10173 20130
                   333 10310 20/// 58003
                   555 00/// 20000=
201304080300 AAXX 08034 67751 NIL=
201304080000 AAXX 08004 67751 NIL=
201304072100 AAXX 07214 67751 NIL=
201304071800 AAXX 07184 67751 NIL=
201304071500 AAXX 07154 67751 NIL=
201304071200 AAXX 07120 67751 NIL=
201304070900 AAXX 07094 67751 NIL=
201304070600 AAXX 07061 67751 NIL=
201304070300 AAXX 07034 67751 NIL=
201304070000 AAXX 07004 67751 NIL=
201304062100 AAXX 06214 67751 NIL=
201304061500 AAXX 06154 67751 NIL=
201304061200 AAXX 06120 67751 NIL=
201304060900 AAXX 06094 67751 NIL=
201304060600 AAXX 06064 67751 NIL=
201304060300 AAXX 06034 67751 NIL=
201304060000 AAXX 06004 67751 NIL=
201304051800 AAXX 05184 67751 NIL=
201304051200 AAXX 05124 67751 NIL=
201304050900 AAXX 05094 67751 NIL=
201304050600 AAXX 05064 67751 32380 70000 10203 20175 875//
                   333 10308 20/// 59023 87608
                   555 00/// 20000=
201304050300 AAXX 05034 67751 NIL=
201304050000 AAXX 05004 67751 NIL=
201304041800 AAXX 04184 67751 NIL=

################################################################################
#  SYNOPS from 67753, Choma (Zambia) | 16-50S | 027-04E | 1213 m
################################################################################
201305010600 AAXX 01064 67753 NIL=
201305010300 AAXX 01034 67753 NIL=
201305010000 AAXX 01004 67753 NIL=
201304302100 AAXX 30214 67753 NIL=
201304301800 AAXX 30184 67753 NIL=
201304301500 AAXX 30154 67753 NIL=
201304301200 AAXX 30124 67753 NIL=
201304300900 AAXX 30094 67753 NIL=
201304300300 AAXX 30034 67753 NIL=
201304300000 AAXX 30004 67753 NIL=
201304291800 AAXX 29184 67753 NIL=
201304291500 AAXX 29154 67753 NIL=
201304290900 AAXX 29094 67753 NIL=
201304290600 AAXX 29064 67753 31960 00608 10196 20114 48///
                   333 10249 20079 5////
                   555 00///=
201304290000 AAXX 29004 67753 NIL=
201304281500 AAXX 28154 67753 NIL=
201304280900 AAXX 28094 67753 NIL=
201304280600 AAXX 28064 67753 NIL=
201304280300 AAXX 28034 67753 NIL=
201304280000 AAXX 28004 67753 NIL=
201304271800 AAXX 27184 67753 NIL=
201304271500 AAXX 27154 67753 NIL=
201304270300 AAXX 27034 67753 NIL=
201304262100 AAXX 26214 67753 NIL=
201304260000 AAXX 26004 67753 NIL=
201304251800 AAXX 25184 67753 NIL=
201304251200 AAXX 25124 67753 NIL=
201304250900 AAXX 25094 67753 NIL=
201304250600 AAXX 25064 67753 NIL=
201304231200 AAXX 23121 67753 NIL=
201304230600 AAXX 23064 67753 32960 31804 10206 20099 48/// 80002
                   333 10296 20105 5//// 83080
                   555 00///=
201304230300 AAXX 23034 67753 NIL=
201304230000 AAXX 23004 67753 NIL=
201304222100 AAXX 22214 67753 NIL=
201304221500 AAXX 22154 67753 NIL=
201304220900 AAXX 22094 67753 NIL=
201304220600 AAXX 22064 67753 12960 61904 10195 20111 48/// 69904 81038
                   333 10293 20152 5//// 81360 85280
                   555 00///=
201304220000 AAXX 22004 67753 NIL=
201304211800 AAXX 21184 67753 NIL=
201304211500 AAXX 21154 67753 NIL=
201304211200 AAXX 21121 67753 NIL=
201304210900 AAXX 21094 67753 NIL=
201304210000 AAXX 21004 67753 NIL=
201304202100 AAXX 20214 67753 NIL=
201304201500 AAXX 20154 67753 NIL=
201304200300 AAXX 20034 67753 NIL=
201304200000 AAXX 20004 67753 NIL=
201304191500 AAXX 19154 67753 NIL=
201304190900 AAXX 19094 67753 NIL=
201304190600 AAXX 19064 67753 32960 03308 10235 20158 48///
                   333 10297 20143 5////
                   555 00///=
201304181800 AAXX 18184 67753 NIL=
201304181500 AAXX 18154 67753 NIL=
201304181200 AAXX 18124 67753 NIL=
201304180900 AAXX 18094 67753 NIL=
201304180300 AAXX 18034 67753 NIL=
201304180000 AAXX 18004 67753 NIL=
201304171800 AAXX 17184 67753 NIL=
201304171200 AAXX 17124 67753 NIL=
201304170900 AAXX 17094 67753 NIL=
201304170600 AAXX 17064 67753 32960 00404 10200 20141 48///
                   333 10271 20096 5////=
201304170000 AAXX 17004 67753 NIL=
201304161500 AAXX 16154 67753 NIL=
201304160300 AAXX 16034 67753 NIL=
201304160000 AAXX 16004 67753 NIL=
201304152100 AAXX 15214 67753 NIL=
201304151800 AAXX 15184 67753 NIL=
201304151500 AAXX 15154 67753 NIL=
201304151200 AAXX 15124 67753 NIL=
201304150600 AAXX 15064 67753 32960 03604 10195 20147 48///
                   333 10267 20108 5////=
201304150000 AAXX 15004 67753 NIL=
201304142100 AAXX 14214 67753 NIL=
201304141800 AAXX 14184 67753 NIL=
201304141500 AAXX 14154 67753 NIL=
201304140600 AAXX 14060 67753 NIL=
201304140300 AAXX 14034 67753 NIL=
201304140000 AAXX 14004 67753 NIL=
201304132100 AAXX 13214 67753 NIL=
201304131800 AAXX 13184 67753 NIL=
201304131500 AAXX 13154 67753 NIL=
201304131200 AAXX 13120 67753 NIL=
201304130300 AAXX 13034 67753 NIL=
201304130000 AAXX 13004 67753 NIL=
201304122100 AAXX 12214 67753 NIL=
201304121800 AAXX 12184 67753 NIL=
201304121500 AAXX 12154 67753 NIL=
201304121200 AAXX 12124 67753 NIL=
201304120900 AAXX 12094 67753 NIL=
201304120600 AAXX 12064 67753 32560 51208 10181 20162 48/// 85500
                   333 10299 20115 5//// 85625=
201304090600 AAXX 09064 67753 32960 10304 10216 20131 48/// 80001
                   333 10286 20091 5//// 81080
                   555 00///=
201304090300 AAXX 09034 67753 NIL=
201304090000 AAXX 09004 67753 NIL=
201304081800 AAXX 08184 67753 NIL=
201304081500 AAXX 08154 67753 NIL=
201304080900 AAXX 08094 67753 NIL=
201304080600 AAXX 08064 67753 31960 11004 10199 20127 48/// 81030
                   333 10273 20092 5//// 81360
                   555 00///=
201304080300 AAXX 08034 67753 NIL=
201304080000 AAXX 08004 67753 NIL=
201304072100 AAXX 07214 67753 NIL=
201304071800 AAXX 07184 67753 NIL=
201304071500 AAXX 07154 67753 NIL=
201304071200 AAXX 07120 67753 NIL=
201304070900 AAXX 07094 67753 NIL=
201304070600 AAXX 07061 67753 NIL=
201304070300 AAXX 07034 67753 NIL=
201304070000 AAXX 07004 67753 NIL=
201304062100 AAXX 06214 67753 NIL=
201304061500 AAXX 06154 67753 NIL=
201304061200 AAXX 06120 67753 NIL=
201304060900 AAXX 06094 67753 NIL=
201304060600 AAXX 06064 67753 NIL=
201304060300 AAXX 06034 67753 NIL=
201304060000 AAXX 06004 67753 NIL=
201304051800 AAXX 05184 67753 NIL=
201304051200 AAXX 05124 67753 NIL=
201304050900 AAXX 05094 67753 NIL=
201304050600 AAXX 05064 67753 11560 71008 10156 20152 48/// 69904 76022 8453/
                   333 10299 20155 5//// 84620 83360
                   555 00///=
201304050300 AAXX 05034 67753 NIL=
201304050000 AAXX 05004 67753 NIL=
201304041800 AAXX 04184 67753 NIL=

################################################################################
#  SYNOPS from 67855, Lupaki (Zambia) | 17-03-00S | 024-46-00E | 1000 m
################################################################################
201305010600 AAXX 01064 67855 NIL=
201304301800 AAXX 30184 67855 NIL=
201304301200 AAXX 30124 67855 NIL=
201304300600 AAXX 30064 67855 NIL=
201304291200 AAXX 29124 67855 NIL=
201304281800 AAXX 28184 67855 NIL=
201304281200 AAXX 28124 67855 NIL=
201304280600 AAXX 28064 67855 32975 01301 10130 20096 3//// 48///
                   333 20063 5////=
201304271800 AAXX 27184 67855 NIL=
201304271200 AAXX 27124 67855 42675 11601 10263 20079 3//// 48/// 81100
                   333 5//// 81845=
201304261200 AAXX 26124 67855 42775 11304 10283 20096 38/// 48/// 81100
                   333 5//// 81850=
201304260600 AAXX 26064 67855 32975 00401 10124 20116 3//// 48///
                   333 20055 5////=
201304251800 AAXX 25184 67855 NIL=
201304251200 AAXX 25124 67855 42775 10701 10272 20107 3//// 48/// 81100
                   333 5//// 81850=
201304250600 AAXX 25064 67855 32975 01601 10155 20119 3//// 48///
                   333 20045 5////=
201304241800 AAXX 24184 67855 NIL=
201304241200 AAXX 24124 67855 NIL=
201304231800 AAXX 23184 67855 NIL=
201304231200 AAXX 23124 67855 NIL=
201304230600 AAXX 23064 67855 32975 01101 10141 20101 38/// 48///
                   333 20075 5////=
201304221800 AAXX 22184 67855 NIL=
201304221200 AAXX 22124 67855 42775 13202 10310 20073 38/// 48/// 81100
                   333 5//// 81856=
201304211800 AAXX 21184 67855 NIL=
201304211200 AAXX 21124 67855 NIL=
201304210600 AAXX 21064 67855 12675 70000 10193 20188 3//// 48/// 60024 84278
                   333 20170 5//// 84835=
201304201800 AAXX 20184 67855 NIL=
201304201200 AAXX 20124 67855 42875 50105 10323 20162 3//// 48/// 82208
                   333 5//// 82857 83280=
201304200600 AAXX 20064 67855 32975 00000 10177 20157 3//// 48///
                   333 20124 5////=
201304191800 AAXX 19184 67855 NIL=
201304191200 AAXX 19124 67855 42875 20104 10333 20114 3//// 48/// 82102
                   333 5//// 82857=
201304190600 AAXX 19064 67855 32975 00401 10173 20104 38/// 48///
                   333 20089 5////=
201304181200 AAXX 18124 67855 NIL=
201304180600 AAXX 18064 67855 32975 00000 10141 20102 38/// 48///
                   333 20076 5////=
201304171800 AAXX 17184 67855 NIL=
201304171200 AAXX 17124 67855 42975 00000 10301 20065 38/// 48///
                   333 5////=
201304170600 AAXX 17064 67855 32975 00000 10122 20042 38/// 48///
                   333 20049 5////=
201304161800 AAXX 16184 67855 NIL=
201304161200 AAXX 16124 67855 42975 01402 10300 20035 38/// 48///
                   333 5////=
201304160600 AAXX 16064 67855 32975 01101 10128 20088 3//// 48///
                   333 20074 5////=
201304141800 AAXX 14184 67855 NIL=
201304141200 AAXX 14124 67855 42775 21401 10291 20123 3//// 48/// 82100
                   333 5//// 82856=
201304140600 AAXX 14064 67855 NIL=
201304131800 AAXX 13184 67855 NIL=
201304131200 AAXX 13124 67855 42775 33001 10286 20158 38/// 48/// 82102
                   333 5//// 82850=
201304130600 AAXX 13064 67855 32975 50401 10175 20143 38/// 48/// 80008
                   333 20124 5//// 85280=
201304121800 AAXX 12184 67855 NIL=
201304121200 AAXX 12124 67855 42875 13404 10308 20141 38/// 48/// 81101
                   333 5//// 81857=
201304120600 AAXX 12064 67855 32975 01001 10172 20134 38/// 48///
                   333 20123 5////=
201304111800 AAXX 11184 67855 NIL=
201304111200 AAXX 11124 67855 42875 21002 10323 20101 38/// 48/// 82101
                   333 5//// 82857=
201304110600 AAXX 11064 67855 32975 10000 10160 20106 3//// 48/// 80001
                   333 20101 5//// 81080=
201304101200 AAXX 10124 67855 42875 10101 10330 20086 3//// 48/// 81100
                   333 5//// 81857=
201304100600 AAXX 10064 67855 32975 00000 10150 20124 3//// 48///
                   333 20074 5////=
201304091800 AAXX 09184 67855 NIL=
201304091200 AAXX 09124 67855 NIL=
201304090600 AAXX 09064 67855 NIL=
201304081800 AAXX 08184 67855 NIL=
201304081200 AAXX 08124 67855 NIL=
201304080600 AAXX 08064 67855 NIL=
201304071800 AAXX 07184 67855 NIL=
201304071200 AAXX 07124 67855 NIL=
201304070600 AAXX 07064 67855 32975 00000 10130 20096 3//// 48///
                   333 20071 5////=
201304061200 AAXX 06124 67855 42675 13501 10267 20105 38/// 48/// 81100
                   333 5//// 81845=
201304060600 AAXX 06064 67855 32975 00000 10137 20125 3//// 48///
                   333 20090 5////=
201304051200 AAXX 05124 67855 42575 71601 10238 20145 3//// 48/// 878//
                   333 5//// 84820 83625=
201304050600 AAXX 05064 67855 12475 60903 10188 20124 3//// 48/// 60124 8657/
                   333 20155 5//// 86615=
201304041800 AAXX 04184 67855 NIL=
201304041200 AAXX 04124 67855 NIL=
201304040600 AAXX 04064 67855 11975 50701 10201 20185 38/// 48/// 69904 70262 85070
                   333 20180 5//// 85460=
201304031200 AAXX 03124 67855 42875 30401 10336 20154 38/// 48/// 83100
                   333 5//// 83857=
201304030600 AAXX 03064 67855 32975 00000 10194 20158 3//// 48///
                   333 20130 5////=
201304021200 AAXX 02124 67855 42775 30000 10321 20151 3//// 48/// 83100
                   333 5//// 83856=
201304020600 AAXX 02064 67855 NIL=
201304011800 AAXX 01184 67855 NIL=
201304011200 AAXX 01124 67855 NIL=
201304010600 AAXX 01064 67855 32975 11102 10201 20165 3//// 48/// 81030
                   333 20150 5//// 81360=
