################################################################################
# Query made at 04/15/2022 01:50:01 UTC
# Country like Zamb*
# Time interval: from 02/01/2010 05:30  to 03/03/2010 06:30  UTC
################################################################################

################################################################################
#  SYNOPS from 67403, Kawambwa (Zambia) | 09-48S | 029-05E | 1323 m
################################################################################
201002230600 AAXX 23064 67403 11980 70000 10208 20197 48531 60014 72162 8707/
                   333 20280 20180 58006 87361=
201002100900 AAXX 10094 67403 42580 60000 10252 20181 49544 82132
                   333 58010 82826 83362 82080=

################################################################################
#  SYNOPS from 67413, Mbala (Zambia) | 08-51S | 031-20E | 1673 m
################################################################################
201003030600 AAXX 03064 67413 12980 70000 10185 20161 48549 60024 8707/
                   333 10240 20140 58005 87459=
201002230600 AAXX 23064 67413 32980 81405 10190 20178 48534 8807/
                   333 10260 20170 58004 88460=
201002170600 AAXX 17064 67413 12480 70000 10190 20174 48544 60054 8257/
                   333 10276 20169 58007 82612 87360=

################################################################################
#  SYNOPS from 67441, Mwinilunga (Zambia) | 11-45S | 024-26E | 1361 m
################################################################################
201003020600 AAXX 02064 67441 12480 83605 10190 20183 48542 69904 885//
                   333 10295 20/// 58013 88618=
201003010600 AAXX 01064 67441 11980 70000 10191 20180 48529 60254 72162 8703/
                   333 10265 20//// 5//// 87360=
201002251200 AAXX 25124 67441 42680 73503 10264 20185 48512 82135
                   333 58008 82835 83362 87280=
201002250600 AAXX 25064 67441 12380 70000 10195 20189 48530 60054 876//
                   333 10250 20/// 58015 87709=
201002230900 AAXX 23094 67441 42682 73306 10255 20204 48524 8413/
                   333 59005 84830 87361=
201002230600 AAXX 23064 67441 12580 70000 10215 20200 48526 60134 8213/
                   333 10256 20/// 59002 82820 87360=
201002220600 AAXX 22064 67441 12980 80000 10200 20193 48527 60104 8807/
                   333 10260 20/// 58002 88360=
201002200600 AAXX 20064 67441 32480 70000 10180 20172 48537 8113/
                   333 10280 20/// 58011 81815 87360=
201002190600 AAXX 19064 67441 12980 72803 10190 20183 48542 60154 8707/
                   333 10270 20/// 59016 87360=
201002180600 AAXX 18064 67441 11960 80000 10175 20167 48557 60144 76166 8802/
                   333 10280 20/// 58004 88460=
201002170600 AAXX 17064 67441 42582 70000 10220 20191 48565 8117/
                   333 58013 81825 87360=
201002160600 AAXX 16064 67441 11960 80000 10180 20180 48541 60044 76166 8802/
                   333 10285 20/// 58008 88460=
201002150600 AAXX 15064 67441 12480 70000 10205 20190 48533 48533 60024 8117/
                   333 10315 20/// 58003 81818 87360=
201002120600 AAXX 12064 67441 11980 60000 10198 20185 48558 69904 72844 86030
                   333 10285 20//0 59009 86360=
201002110600 AAXX 11064 67441 11980 70000 10170 20170 48561 60924 72166 8707/
                   333 10230 20/// 58001 87360=
201002100600 AAXX 10064 67441 12480 70000 10185 20177 48560 60144 8117/
                   333 10290 20/// 58032 81815 87360=
201002091200 AAXX 09124 67441 12480 10000 10200 20179 48533 60084 81140
                   333 10270 20/// 59012 81818 81360=
201002080600 AAXX 08064 67441 12480 70000 10200 20194 48546 60124 8113/
                   333 10296 20/// 58004 81815 87360=
201002050600 AAXX 05064 67441 12380 70000 10195 20180 48527 60074 876//
                   333 10255 20/// 59011 87709=
201002040900 AAXX 04094 67441 42582 70000 10245 20176 48540 8113/
                   333 58005 82825 87360=
201002040600 AAXX 04064 67441 11580 70000 10230 20156 48538 60034 72162 8117/
                   333 10250 20/// 58009 81820 87360=
201002010900 AAXX 01094 67441 42682 30000 10290 20192 48542 83130
                   333 5//// 83840 81361=
201002010600 AAXX 01064 67441 32980 20000 10220 20190 48542 81044
                   333 10306 20/// 59004 81360 8280=

################################################################################
#  SYNOPS from 67461, Mansa (Zambia) | 11-06S | 028-51E | 1382 m
################################################################################
201003020600 AAXX 02064 67461 11560 83509 10195 20184 48529 60134 76062 8807/
                   333 10277 20182 58027 88362=
201003010600 AAXX 01064 67461 11570 70000 10195 20192 48506 60044 74142 83538
                   333 10292 20180 58032 83620 83362 87280=
201002250600 AAXX 25064 67461 11579 79999 19189 29173 47515 59974 62155 7256/
                   333 10281 20170 58013 82620 88461=
201002230600 AAXX 23064 67461 12580 70702 10198 20192 48514 60074 82578
                   333 10286 20176 58007 83620 85462 86280=
201002220600 AAXX 22064 67461 12580 63502 10204 20195 48508 60174 8257/
                   333 10248 20174 58006 82620 86462=
201002200600 AAXX 20064 67461 32980 73202 10205 20190 48520 48520 8707/
                   333 10280 20192 59003 87462=
201002190600 AAXX 19064 67461 12580 73601 10193 20189 48512 60074 8257/
                   333 10275 20176 59006 82620 87461=
201002180600 AAXX 18064 67461 NIL=
201002160600 AAXX 16064 67461 NIL=
201002150600 AAXX 15064 67461 NIL=
201002120600 AAXX 12064 67461 32580 61405 10215 20200 48521 85207
                   333 10300 20170 59017 82620 86280=
201002110600 AAXX 11064 67461 12580 71002 10188 20183 48538 60044 82538
                   333 10295 20165 58012 82618 82362 87280=
201002100600 AAXX 10064 67461 NIL=
201002091200 AAXX 09124 67461 32580 71205 10194 20180 48518 8557/
                   333 10288 20170 58000 85620 87462=
201002080600 AAXX 08064 67461 12580 70000 10195 20190 48506 60064 8257/
                   333 10284 20186 58011 82620 87462=
201002050600 AAXX 05064 67461 12580 83603 10208 20196 48506 60054 8357/
                   333 10278 20185 59004 83620 88462=
201002040600 AAXX 04064 67461 32580 72703 10202 20193 48510 70322 8357/
                   333 10292 20184 58014 83620 87461=
201002021200 AAXX 02124 67461 42680 62902 10284 20187 48479 82238
                   333 59020 82835 84362 86280=
201002010600 AAXX 01064 67461 31980 83402 10225 20209 48552 72844 82038
                   333 10315 20188 58000 82362 87280=

################################################################################
#  SYNOPS from 67475, Kasama (Zambia) | 10-13S | 031-08E | 1382 m
################################################################################
201003020600 AAXX 02064 67475 12980 73516 10195 20182 48531 60054 8707/
                   333 10276 20178 58020 87361=
201003010900 AAXX 01094 67475 42580 60304 10238 20184 48507 85232
                   333 59017 81925 85825 85361 86080=
201003010600 AAXX 01064 67475 12480 73604 10182 20176 48510 60174 86732
                   333 10281 20169 59027 86710 85360 87080=
201002250600 AAXX 25064 67475 11303 80000 10186 20182 48521 60264 76066 8677/
                   333 10250 20173 58006 85705 88460=
201002230600 AAXX 23064 67475 11370 83606 10174 20174 48523 60244 72166 8277/
                   333 10278 20166 58006 82708 88460=
201002220600 AAXX 22064 67475 12975 73606 10206 20188 48519 60044 76062 8707/
                   333 10272 20179 58007 87460=
201002200600 AAXX 20064 67475 11475 80000 10194 20183 48522 60154 76062 8157/
                   333 10224 20174 58001 81610 88460=
201002190600 AAXX 19064 67475 12980 72708 10216 20194 48508 60284 86037
                   333 10301 20151 59018 86360 87280=
201002180900 AAXX 18094 67475 42680 43307 10276 20185 48526 83232
                   333 59012 81930 83830 84361 83080=
201002180600 AAXX 18064 67475 12980 53304 10217 20188 48528 69904 85032
                   333 10/// 20174 59003 85361 83080=
201002170600 AAXX 17064 67475 12980 70000 10190 20174 48544 60054 8257/
                   333 10276 20169 58007 82612 87360=
201002160600 AAXX 16064 67475 NIL=
201002150600 AAXX 15064 67475 12980 80000 10209 20194 48501 60014 86033
                   333 10302 20131 59015 86361 87080=
201002120600 AAXX 12064 67475 32480 40913 10229 20187 48519 82102
                   333 10290 20176 59022 82815 84080=
201002110900 AAXX 11094 67475 42580 60909 10255 20182 48534 84202
                   333 58002 84825 86080=
201002110600 AAXX 11064 67475 31405 72702 10182 20182 48538 74442 83608
                   333 10275 20148 58011 83710 87280=
201002100900 AAXX 10094 67475 42680 70208 10238 20163 48532 85238
                   333 58017 85830 81361 87280=
201002100600 AAXX 10064 67475 NIL=
201002091200 AAXX 09124 67475 12480 73604 10192 20188 48526 60044 8547/
                   333 10271 20170 58005 84610 87361=
201002080600 AAXX 08064 67475 12480 71705 10209 20187 48522 60134 81582
                   333 10294 20172 58000 81610 82361 87080=
201002050600 AAXX 05064 67475 NIL=
201002040900 AAXX 04094 67475 42580 73411 10237 20167 48523 8257/
                   333 58019 82620 87461=
201002040600 AAXX 04064 67475 12980 83609 10190 20184 48531 60164 8807/
                   333 10296 20170 5802188460=
201002010900 AAXX 01094 67475 42680 73309 10275 20181 48518 8217/
                   333 59007 82835 87360=
201002010600 AAXX 01064 67475 12980 73606 10214 20196 48519 60094 8707/
                   333 10299 20180 59014 87460=

################################################################################
#  SYNOPS from 67476, Misamfu (Zambia) | 10-06S | 031-15E | 1536 m
################################################################################
201002190900 AAXX 19094 67476 41660 82709 10197 20189 79192 8227/
                   333 59016 81930 82830 88460=

################################################################################
#  SYNOPS from 67477, Mpika (Zambia) | 11-54S | 031-26E | 1400 m
################################################################################
201003020600 AAXX 02064 67477 11380 80000 10189 20184 48536 60204 76166 8277/
                   333 10248 20180 58029 82708 88459=
201003010600 AAXX 01064 67477 NIL=
201002250600 AAXX 25064 67477 NIL=
201002220600 AAXX 22064 67477 NIL=
201002190600 AAXX 19064 67477 NIL=
201002180600 AAXX 18064 67477 NIL=
201002160600 AAXX 16064 67477 NIL=
201002150600 AAXX 15064 67477 NIL=
201002120600 AAXX 12064 67477 32580 41108 10225 20173 48515 81101
                   333 10275 20183 59022 81820 84080=
201002110600 AAXX 11064 67477 32480 61006 10217 20176 48537 81138
                   333 10259 20170 58007 81817 81361 85280=
201002100600 AAXX 10064 67477 12480 71106 10195 20173 48528 69904 84507
                   333 10259 20170 58008 84610 87280=
201002091200 AAXX 09124 67477 12480 71405 10209 20187 48521 60054 8653/
                   333 10269 20174 59006 86612 85361=
201002050600 AAXX 05064 67477 12980 73502 10210 20184 48519 69954 8703/
                   333 10260 20178 59009 87361=
201002040600 AAXX 04064 67477 11980 83302 10188 20176 48529 60214 76166 8807/
                   333 20167 58015 88460=
201002010600 AAXX 01064 67477 31975 63102 10226 20187 48518 70522 86081
                   333 10283 20180 59005 86361 81080=

################################################################################
#  SYNOPS from 67481, Isoka (Zambia) | 10-07S | 032-38E | 1360 m
################################################################################
201002230600 AAXX 23064 67481 12380 70302 10202 20181 48/// 60044 83677
                   333 10260 20177 5//// 83708 85360 87280=

################################################################################
#  SYNOPS from 67531, Zambezi (Zambia) | 13-32S | 023-07E | 1077 m
################################################################################
201003020600 AAXX 02064 67531 12380 71201 10215 20202 48/// 60034 8162/
                   333 10300 20190 5//// 87706 87460=
201003010600 AAXX 01064 67531 32980 70000 10210 20193 48/// 8167/
                   333 10330 20183 5//// 81707 87460=
201002260600 AAXX 26064 67531 12380 73607 10225 20195 48/// 60014 84638
                   333 10287 20191 5//// 81706 83612 81361=
201002250600 AAXX 25064 67531 11380 70301 10206 20196 48/// 60164 76066 8277/
                   333 10258 20192 5//// 82706 87460=
201002230600 AAXX 23064 67531 11380 70102 10215 20207 48/// 60624 72166 8467/
                   333 10288 20191 5//// 84706 87460=
201002220600 AAXX 22064 67531 11380 83604 10219 20211 48/// 60284 76062 8767/
                   333 10259 20194 5//// 87706 88460=
201002190600 AAXX 19064 67531 NIL=
201002180600 AAXX 18064 67531 NIL=
201002160600 AAXX 16064 67531 NIL=
201002150600 AAXX 15064 67531 32980 53601 10225 20203 48/// 80008
                   333 10336 20186 5//// 85282=
201002110600 AAXX 11064 67531 12380 70304 10200 20186 48/// 60014 8367/
                   333 10294 20179 5//// 83706 87460=
201002100600 AAXX 10064 67531 32480 70602 10212 20188 48/// 8553/
                   333 10305 20189 5//// 85610 87362=
201002091200 AAXX 09124 67531 12980 11403 10222 20191 48/// 60084 80001
                   333 10291 20166 5//// 81082=
201002080600 AAXX 08064 67531 12980 71002 10220 20206 48/// 69934 8707/
                   333 10295 20200 5//// 87360=
201002050600 AAXX 05064 67531 11350 83304 10199 20188 48/// 60664 8777/
                   333 10277 20185 5//// 87706 88460=
201002040600 AAXX 04064 67531 11380 80000 10206 20203 48/// 60504 76066 8272/
                   333 10287 20193 5//// 82706 88460=
201002010600 AAXX 01064 67531 32980 10000 10255 20212 48/// 81031
                   333 10311 20186 5//// 81363 81080=

################################################################################
#  SYNOPS from 67541, Kasempa (Zambia) | 13-32S | 025-51E | 1234 m
################################################################################
201003020600 AAXX 02064 67541 NIL=
201003010600 AAXX 01064 67541 NIL=
201002250600 AAXX 25064 67541 NIL=
201002220600 AAXX 22064 67541 NIL=
201002190600 AAXX 19064 67541 NIL=
201002180600 AAXX 18064 67541 NIL=
201002160600 AAXX 16064 67541 NIL=
201002150600 AAXX 15064 67541 NIL=
201002110600 AAXX 11064 67541 NIL=
201002100600 AAXX 10064 67541 NIL=
201002091200 AAXX 09124 67541 NIL=
201002050600 AAXX 05064 67541 NIL=
201002040600 AAXX 04064 67541 NIL 67561 11265 80306 10196 20187 48508 60064 70562 8767/
                   333 10282 20186 58019 87703=
201002010600 AAXX 01064 67541 NIL=

################################################################################
#  SYNOPS from 67561, Ndola (Zambia) | 13-00S | 028-39E | 1269 m
################################################################################
201003030600 AAXX 03064 67561 11259 80000 10187 20187 48537 60274 74022 8463/
                   333 10219 20180 58022 84708 87360=
201003020600 AAXX 02064 67561 11268 80603 10199 20192 48517 60224 72162 8577/
                   333 10272 20184 58015 85703 88459=
201003010900 AAXX 01094 67561 41570 70000 10251 20192 48500 70522 86238
                   333 59033 81920 85820 83360 87280=
201003010600 AAXX 01064 67561 11370 70000 10201 20196 48502 60094 70522 86538
                   333 10290 20175 59030 81708 84610 83360 86280=
201002261200 AAXX 26124 67561 41670 71703 10234 20194 48489 71722 85230
                   333 59002 81945 85845 86360=
201002260600 AAXX 26064 67561 11360 80204 10205 20192 48512 60044 70522 8767/
                   333 10254 20191 59004 87708 88460=
201002251200 AAXX 25124 67561 41560 70000 10238 20164 48501 70522 84238
                   333 58014 81918 84818 86360 87280=
201002250900 AAXX 25094 67561 41558 80304 10200 20193 48509 76166 8467/
                   333 58002 84705 87459=
201002250600 AAXX 25064 67561 11356 80000 10189 20184 48515 60974 76166
                   333 10269 20177 58000 86704 87459=
201002230600 AAXX 23064 67561 11370 80604 10191 20183 48507 60354 70596 8567/
                   333 10296 20213 59003 82706 83615 87460=
201002220600 AAXX 22064 67561 11358 80000 10198 20188 48501 60244 74142 84638
                   333 10213 20184 58005 84707 85359 87280=
201002210900 AAXX 21094 67561 41220 80106 10210 20195 48498 76262 8677/
                   333 58001 86704 88459 Q1017.1=
201002191500 AAXX 19154 67561 41760 70105 10244 20199 48471 71722 86432
                   333 59026 81950 86658 81360 81080=
201002191200 AAXX 19124 67561 41660 61805 10269 20190 48476 70522 86200
                   333 59018 81940 85840=
201002190600 AAXX 19064 67561 11460 60000 10215 20191 48508 60564 70522 84538
                   333 10289 20190 59014 84610 84360 85280=
201002180600 AAXX 18064 67561 11370 70000 10194 20178 48520 60034 70562 81638
                   333 10270 20185 59004 81706 86360 87280=
201002170600 AAXX 17064 67561 11358 80000 10200 20194 48525 60054 76122 8477/
                   333 10266 20195 68015 84707 88460 Q1020.3=
201002160600 AAXX 16064 67561 11370 80000 10197 20186 48510 60074 70596 81678
                   333 10303 20184 58010 81706 87459 88280=
201002150600 AAXX 15064 67561 11975 60804 10216 20203 48502 60044 70522 80008
                   333 10306 20183 59007 86280 67581 NIL=
201002141500 AAXX 14154 67561 41660 70000 10265 20192 48470 72192 85238
                   333 59019 81935 85835 85360 87280=
201002141200 AAXX 14124 67561 41560 51004 10300 20190 48488 70522 85200
                   333 59018 81930 85830=
201002130600 AAXX 13064 67561 11975 70000 10221 20196 48527 60074 70522 83038
                   333 10308 20184 58005 83360 87280=
201002110900 AAXX 11094 67561 42580 70808 10254 20189 48538 85231
                   333 59001 85825 86361 83080=
201002110600 AAXX 11064 67561 12480 70000 10198 20183 48536 60114 81131
                   333 10276 20169 58008 81810 87360 81080=
201002100600 AAXX 10064 67561 11956 60905 10211 20178 48529 69904 70522 86638
                   333 10288 20175 58007 86360 85280=
201002091200 AAXX 09124 67561 32980 20708 10210 20178 48523 82030
                   333 10294 20165 59015 82361=
201002080900 AAXX 08094 67561 41675 61006 10266 20189 48526 48522 86202
                   333 59002 86830 83080=
201002080600 AAXX 08064 67561 11475 70608 10219 20194 48528 60024 70522 85538
                   333 10268 20186 58007 85615 84360=
201002050900 AAXX 05094 67561 42580 73005 10245 20189 48506 86230
                   333 58001 86820 83361 91017=
201002050600 AAXX 05064 67561 11365 70304 10196 20184 48511 60014 70511 86630
                   333 10256 20174 58004 86706 87360=
201002040600 AAXX 04064 67561 11265 80306 10196 20187 48508 60064 70562 8767/
                   333 10282 20186 58019 87703=
201002021200 AAXX 02124 67561 42680 72406 10252 20183 48471 85238
                   333 58001 81940 85840 85360 87280=
201002020900 AAXX 02094 67561 42680 72108 10246 20184 48497 84238
                   333 59013 84830 86360 87280=
201002020600 AAXX 02064 67561 11470 70000 10206 20189 48496 60024 70522 81538
                   333 10291 20182 59016 86360 87280=
201002010600 AAXX 01064 67561 11980 80000 10195 20189 48511 60144 70592 85078
                   333 10291 20172 59010 85459 88280=

################################################################################
#  SYNOPS from 67563, Kafironda (Zambia) | 12-36S | 028-07E | 1243 m
################################################################################
201003030600 AAXX 03064 67563 12380 70901 10198 20180 48/// 60064 82720
                   333 10221 20179 58021 82703 86358=

################################################################################
#  SYNOPS from 67571, Serenje (Zambia) | 13-14S | 030-13E | 1384 m
################################################################################
201002230600 AAXX 23064 67571 12484 80000 10198 20179 48512 60074 8117/
                   333 10250 20176 58006 81818 88460=

################################################################################
#  SYNOPS from 67580, Msekera (Zambia) | 13-39S | 032-34E | 1025 m
################################################################################
201003030600 AAXX 03064 67580 12980 72403 10216 20196 48/// 60134 87031
                   333 10238 20179 58009 87360 83080=
201002230600 AAXX 23064 67580 11475 80000 10207 20204 48/// 60334 76166 8357/
                   333 10264 20198 58007 83614 88459=
201002190900 AAXX 19094 67580 42580 70304 10254 20202 48/// 85231
                   333 5//// 59015 87620=
201002120600 AAXX 12064 67580 12582 71206 10249 20204 48/// 60204 82508
                   333 10294 20184 59016 82620 86280=
201002021200 AAXX 02124 67580 42780 73004 10299 20194 48/// 8323/
                   333 59002 83850 87362=

################################################################################
#  SYNOPS from 67581, Chipata (Zambia) | 13-33S | 032-35E | 1028 m
################################################################################
201003020600 AAXX 02064 67581 NIL=
201003010600 AAXX 01064 67581 12580 70000 10215 20208 48509 60084 82532
                   333 10315 20192 59016 82630 83360 81080=
201002260600 AAXX 26064 67581 11380 80000 10212 20198 48524 69904 76066 8177/
                   333 10272 20196 58004 81706 88459=
201002250600 AAXX 25064 67581 11380 73604 10207 20196 48518 60174 72162 8167/
                   333 10254 20194 59003 81709 87460=
201002230600 AAXX 23064 67581 11370 80000 10201 20201 48523 61064 76166 8577/
                   333 10276 20192 58008 85709 88460=
201002220600 AAXX 22064 67581 12480 80000 10218 20206 48519 60274 8357/
                   333 10321 20198 58003 83610 88459=
201002190600 AAXX 19064 67581 12582 83602 10216 20206 48510 60104 8653/
                   333 10275 20195 59017 86625 84359=
201002180600 AAXX 18064 67581 11270 80000 10202 20202 48525 61164 76166 8677/
                   333 10272 20195 58000 86704 88459=
201002160600 AAXX 16064 67581 11270 80000 10190 20190 48526 61424 76166 8777/
                   333 10308 20185 58021 87704 88459=
201002120600 AAXX 12064 67581 32580 60904 10259 20206 48537 70222 82138
                   333 10303 20196 59015 82825 82360 85280=
201002110600 AAXX 11064 67581 12582 61603 10236 20199 48546 60314 81130
                   333 10290 20178 58002 81825 86360=
201002100600 AAXX 10064 67581 12580 60000 10228 20193 48544 60224 83130
                   333 10294 20204 58011 83820 86360 82080=
201002091200 AAXX 09124 67581 32982 30901 10239 20168 48536 83030
                   333 10309 20210 59005 83360=
201002080600 AAXX 08064 67581 12580 41405 10230 20188 48539 60014 82130
                   333 10302 20185 58013 82820 83360=
201002050600 AAXX 05064 67581 11682 82302 10226 20210 48529 69964 76166 8117/
                   333 10272 20210 59002 81830 88460=
201002040600 AAXX 04064 67581 12980 80000 10210 20189 48530 60024 8807/
                   333 10307 20194 58013 88460=
201002010600 AAXX 01064 67581 32982 12501 10244 20209 48523 85038
                   333 10299 20187 59006 85360 86280=

################################################################################
#  SYNOPS from 67583, Lundazi (Zambia) | 12-17S | 033-12E | 1143 m
################################################################################
201003030600 AAXX 03064 67583 11975 71901 10210 20203 48/// 60264 76162 83037
                   333 10295 20185 5//// 83360 87280=
201002230600 AAXX 23064 67583 11970 83602 10200 20197 48/// 60134 76162 8707/
                   333 10250 20190 5//// 87460=

################################################################################
#  SYNOPS from 67599, Mfuwe (Zambia) | 13-16S | 031-56E | 568 m
################################################################################
201003030600 AAXX 03064 67599 12280 80000 10223 20211 48556 60084 8277/
                   333 10260 20205 5808 82704 88459=
201003021500 AAXX 02154 67599 42580 70000 10255 20234 48525 84208
                   333 58035 84820 87280=
201003020600 AAXX 02064 67599 11256 80000 10220 48549 60454 76066 8777/
                   333 10327 20203 58039 87703 88459 Q1020.2=
201003010600 AAXX 01064 67599 32259 80000 10235 20228 48519 60014 887//
                   333 10325 20214 59018 88704=
201002271200 AAXX 27124 67599 42580 80000 10295 20239 48538 70122 82871
                   333 58015 82825 86462 88080 Q1016.0=
201002261500 AAXX 26154 67599 42580 70000 10283 20238 48507 70122 8197/
                   333 59003 81920 82822 87460=
201002260900 AAXX 26094 67599 41459 80000 10248 20228 48542 70256 878//
                   333 58008 83610 86812=
201002260600 AAXX 26064 67599 11259 80000 10220 20220 48524 75066 8277/
                   333 10273 20210 58002 82705 88459=
201002251200 AAXX 25124 67599 42460 80000 10266 20236 48509 8722/
                   333 58001 8715 88360=
201002250600 AAXX 25064 67599 11257 80000 10222 20219 48522 60374 76166 8772/
                   333 10292 20205 59002 87704 88360=
201002230600 AAXX 23064 67599 11257 80000 10220 20220 48532 60324 76066 877//
                   333 10299 20210 58014 87704=
201002201500 AAXX 20154 67599 42680 40000 10310 20234 48599 82232
                   333 59001 82830 81360 83080=
201002201200 AAXX 20124 67599 42580 71405 10300 20238 48511 83238
                   333 58001 83825 84360 87280=
201002200600 AAXX 20064 67599 12380 70000 10240 20226 48523 8357/
                   333 10335 20210 59001 83606 87460
                   555 00/// 59001 20004 Q1016.2=
201002191200 AAXX 19124 67599 41660 60000 10288 20239 48504 70322 83201
                   333 59013 83835=
201002190900 AAXX 19094 67599 42480 71004 10240 20203 48524 70222 84571
                   333 59010 84620 86360=
201002180600 AAXX 18064 67599 31240 80000 10230 20224 48532 60184 76362 8677/
                   333 10313 20218 59009 86704 88460=
201002171200 AAXX 17124 67599 42580 60207 10295 20232 48529 84232
                   333 58008 81925 84828 83360 85080=
201002170600 AAXX 17064 67599 12380 70000 10235 20228 48540 60024
                   333 10300 20220 58010 84607 87459 Q1018.5=
201002161500 AAXX 16154 67599 42580 70000 10295 20240 48507 81938
                   333 58024 81922 83825 87280=
201002160900 AAXX 16094 67599 42380 70000 10250 20229 48534 8457/
                   333 58018 84609 87460=
201002160600 AAXX 16064 67599 11258 80000 10215 20215 48524 6//// 76066 887//
                   333 10335 20205 58019 88702=
201002151200 AAXX 15124 67599 41580 70000 10308 20242 48509 75052 81901
                   333 58002 81925 83830 87080=
201002141200 AAXX 14124 67599 41580 50000 10341 20243 48516 71722 81901
                   333 59021 81930 85835 86080=
201002130600 AAXX 13064 67599 12470 50000 10286 20234 48542 69904 81230
                   333 10340 20206 58001 81836 85360=
201002121500 AAXX 12154 67599 41580 80000 10280 20239 48517 72799 8197/
                   333 59005 81925 83832 88460=
201002120600 AAXX 12064 67599 32980 70000 10250 20221 48541 81037
                   333 10322 20215 59019 81360 87280 Q1017.8=
201002111200 AAXX 11124 67599 42580 70000 10315 20231 48543 83207
                   333 59017 83828 87280=
201002110900 AAXX 11094 67599 42580 50305 10285 20229 48561 83207
                   333 59002 83820 85280=
201002091200 AAXX 09124 67599 41670 70000 10270 20227 48520 71592 8197/
                   333 59001 81930 85843 87360=
201002081500 AAXX 08154 67599 42680 32105 10320 20222 48521 83200
                   333 58002 81932 83835=
201002081200 AAXX 08124 67599 42680 50508 10276 20211 48529 85200
                   333 58010 85839=
201002070700 AAXX 07074 67599 12280 40000 10235 20221 48533 60234 81530
                   333 10325 20205 58002 81605 84360=
201002070600 AAXX 07064 67599 12280 40000 10235 20221 48533 60234 81530
                   333 10325 20205 58002 81605 84360=
201002051200 AAXX 05124 67599 42660 80000 10320 20218 48523 70222 82271
                   333 59019 82835 83362 85080 Q1012.9=
201002050900 AAXX 05094 67599 42560 70000 10286 20244 48555 70122 8227/
                   333 59011 82820 87360=
201002050600 AAXX 05064 67599 31958 81704 10245 20236 48533 78022 8870/
                   333 10310 20230 59008 88360=
201002040600 AAXX 04064 67599 31257 80000 10227 20223 48537 60614 75022 8257/
                   333 10325 20206 58015 82605 88360=
201002010600 AAXX 01064 67599 12956 80000 10225 20218 48524 70522 8807/
                   333 10345 20200 58002 88459=

################################################################################
#  SYNOPS from 67625, Kalabo (Zambia) | 14-51S | 022-42E | 1033 m
################################################################################
201002230600 AAXX 23064 67625 12682 80210 10218 20217 48/// 60254 8657/
                   333 10282 20196 58002 86635 84360=
201002170600 AAXX 17064 67625 12682 53610 10238 20176 48/// 60044 81231
                   333 10312 20187 58005 81835 83360 83080=
201002120600 AAXX 12064 67625 32982 13410 10239 20158 48/// 80001
                   333 10317 20173 59008 81080=

################################################################################
#  SYNOPS from 67633, Mongu (Zambia) | 15-15S | 023-09E | 1052 m
################################################################################
201003020600 AAXX 02064 67633 12382 60906 10224 20195 48508 60104 84650
                   333 10295 20204 59005 84706 86361=
201003010900 AAXX 01094 67633 42580 61802 10254 20216 48517 85232
                   333 59016 81920 84820 83361 83080=
201003010600 AAXX 01064 67633 12982 70000 10210 20198 48512 60354 84038
                   333 10314 20192 59014 84361 87280=
201002250900 AAXX 25094 67633 42582 70808 10237 20196 48481 87830
                   333 58007 82820 86625 82361=
201002250600 AAXX 25064 67633 12382 70909 10220 20193 48478 60044 86732
                   333 10270 20206 58010 86708 85361 87080=
201002230600 AAXX 23064 67633 11382 70000 10224 20213 48479 60014 76066 8357/
                   333 10296 20213 59003 82706 83615 87460=
201002220600 AAXX 22064 67633 11382 70604 10218 20212 48481 60014 75056 8472/
                   333 10280 20212 59007 84715 87460=
201002200600 AAXX 20064 67633 12482 70302 10210 20203 48487 60194 8357/
                   333 10260 20196 58010 83610 87461=
201002190600 AAXX 19064 67633 32982 60000 10235 20214 48508 86030
                   333 10293 20210 59011 86360=
201002180900 AAXX 18094 67633 42582 60000 10268 20203 48526 83832
                   333 58003 83820 81625 81360 84080=
201002180600 AAXX 18064 67633 12482 73604 10224 20210 48515 60034 8263/
                   333 10303 20208 58005 82707 87360=
201002160600 AAXX 16064 67633 32982 60000 10232 20203 48508 83038
                   333 10330 20205 58011 83361 86280=
201002150600 AAXX 15064 67633 32982 70908 10248 20194 48499 80007
                   333 10340 20225 59008 87280=
201002121200 AAXX 12124 67633 42782 62706 10306 20194 48519 85202
                   333 59009 81950 84836 82080=
201002120600 AAXX 12064 67633 32982 30902 10243 20185 48525 80002
                   333 10300 20189 59013 83080=
201002110600 AAXX 11064 67633 12982 70000 10205 20183 48531 60514 82037
                   333 10299 20178 58011 82361 87280=
201002100900 AAXX 10094 67633 42680 60212 10268 20187 48541 86232
                   333 58018 86830 82351 81080=
201002100600 AAXX 10064 67633 32980 20703 10218 20187 48530 82082
                   333 10275 20171 58003 82360 81080=
201002080600 AAXX 08064 67633 32980 70906 10236 20205 48513 86032
                   333 10303 20220 58014 86361 82080=
201002050600 AAXX 05064 67633 11370 82005 10212 20206 48468 60474 76166 8117/
                   333 10272 20210 59002 81830 88460=
201002040600 AAXX 04064 67633 32982 70000 10224 20205 48502 83037
                   333 10313 20211 58014 83360 87280=
201002010900 AAXX 01094 67633 42682 42806 10310 20191 48513 82232
                   333 59009 82830 81361 84080=
201002010600 AAXX 01064 67633 12982 30000 10266 20205 48511 69904 83032
                   333 10320 20221 59012 83361 82080=

################################################################################
#  SYNOPS from 67641, Kaoma (Zambia) | 14-48S | 024-48E | 1213 m
################################################################################
201003020600 AAXX 02064 67641 11682 81001 10211 20197 48503 69904 72055 865//
                   333 10300 20200 59005 86630=
201003010600 AAXX 01064 67641 12682 52801 10221 20207 48509 60884 82532
                   333 10315 20192 59016 82630 83360 81080=
201002260600 AAXX 26064 67641 12682 72601 10206 20194 48484 60014 81508
                   333 10295 20194 58002 81630 82360 87280=
201002250600 AAXX 25064 67641 11682 83602 10206 20196 48476 69954 75055 855//
                   333 10267 20200 58009 85630=
201002230600 AAXX 23064 67641 11682 80901 10204 20199 48480 60314 76166 8457/
                   333 10264 20196 58002 84630 87461=
201002220600 AAXX 22064 67641 11682 60201 10216 20207 48480 60274 72055 82532
                   333 10250 20205 59001 82630 84360 87080=
201002190600 AAXX 19064 67641 12682 61801 10218 20202 48500 60154 83532
                   333 10260 20194 59003 83630 82360 81080=
201002180600 AAXX 18064 67641 12982 80401 10198 20189 48501 60214 8703/
                   333 10300 20184 58001 87360=
201002160600 AAXX 16064 67641 12682 60201 10218 20204 48492 60124 83532
                   333 10324 20205 58002 83630 81360 83080=
201002150600 AAXX 15064 67641 32982 31801 10249 20208 48494 82032
                   333 10335 20188 59011 82360 81080=
201002120600 AAXX 12064 67641 32982 20301 10219 20197 48516 81032
                   333 10308 20178 59006 81360 81080=
201002100600 AAXX 10064 67641 32682 20601 10236 20196 48512 81532
                   333 10300 20184 59009 81630 81360 81080=
201002091200 AAXX 09124 67641 NIL=
201002080600 AAXX 08064 67641 12982 51001 10230 20206 48508 60144 82032
                   333 10296 20196 58016 82360 83080=
201002050600 AAXX 05064 67641 11680 70901 10200 20193 48468 60254 72055 875//
                   333 10280 20200 59011 87630=
201002040600 AAXX 04064 67641 11680 82402 10190 20188 48480 60614 72166 865//
                   333 10300 20189 58002 86630=
201002010600 AAXX 01064 67641 11582 72601 10224 20211 48494 60484 71796 82530
                   333 10301 20200 59009 81920 81630 86360=

################################################################################
#  SYNOPS from 67655, Mumbwa (Zambia) | 15-04S | 027-11E | 1216 m
################################################################################
201002080900 AAXX 0809/ 67655 42380 30812 10265 20172 48538 82601
                   333 58014 82709 82077=

################################################################################
#  SYNOPS from 67663, Kabwe (Zambia) | 14-27S | 028-28E | 1206 m
################################################################################
201003020600 AAXX 02064 67663 12382 60906 10224 20195 48508 60104 84650
                   333 10295 20204 59005 84706 86361=
201003010600 AAXX 01064 67663 NIL=
201002260600 AAXX 26064 67663 11980 70000 10202 20193 48493 60034 76166 87070
                   333 10271 20191 59003 87460=
201002250600 AAXX 25064 67663 11980 70902 10190 20183 48504 60504 8707/
                   333 10275 20180 59006 87460=
201002230600 AAXX 23064 67663 12480 80503 10198 20190 48499 60304 8557/
                   333 10253 20182 58000 85617 88460=
201002220600 AAXX 22064 67663 12380 80903 10200 20192 48499 60134 8363/
                   333 10230 20180 58004 83708 84018 85360=
201002190600 AAXX 19064 67663 11380 70000 10213 20200 48505 69924 70342 83670
                   333 10292 20192 58006 830707 84618 86460=
201002180600 AAXX 18064 67663 11480 80000 10192 20189 48498 60354 72166 8157/
                   333 10298 20182 59007 81618 88460=
201002160600 AAXX 16064 67663 11680 72702 10205 20190 48504 60484 70162 8247/
                   333 10298 20185 59008 82630 87460=
201002150600 AAXX 15064 67663 12980 30902 10225 20199 48498 69904 81032
                   333 10315 20190 59007 81830 83080=
201002110600 AAXX 11064 67663 32380 71805 10197 20188 48564 87638
                   333 10287 20179 58007 87707 84360 84280=
201002100600 AAXX 10064 67663 32980 20703 10218 20187 48530 82082
                   333 10275 20171 58003 82360 81080=
201002091200 AAXX 09124 67663 32980 00902 10206 20160 48526
                   333 10284 20150 58012=
201002080600 AAXX 08064 67663 12980 20806 10220 20179 48515 60014 81032
                   333 10272 20178 58008 81360 82080=
201002050600 AAXX 05064 67663 12380 83603 10210 20187 48495 69964 85532
                   333 10260 20188 58004 85815 83360=
201002040600 AAXX 04064 67663 11365 83602 10195 20190 48494 60204 76366 8377/
                   333 10253 20189 58020 83706 88460=
201002010600 AAXX 01064 67663 32580 73602 10205 20188 48496 8257/
                   333 10305 20195 59015 82362 87460=

################################################################################
#  SYNOPS from 67665, Lusaka Internationalairport (Zambia) | 15-19S | 028-27E | 1152 m
################################################################################
201003030600 AAXX 03064 67665 12360 73606 10205 20205 48545 60094 8573/
                   333 10267 20205 58015 85708 87360=
201003021800 AAXX 02184 67665 42358 80604 10199 20199 48520 8163/
                   333 10267 58011 81709 87359=
201003021500 AAXX 02154 67665 41456 83310 10197 20197 48505 76066 84632
                   333 58012 84710 86830 83359 84080=
201003021200 AAXX 02124 67665 41359 70209 10260 20214 48513 71662 82602
                   333 58005 82708 86820 83080=
201003020900 AAXX 02094 67665 42360 80312 10236 20236 48533 70222 8663/
                   333 58008 86704 87360 Q1020.0=
201003020600 AAXX 02064 67665 11358 80606 10199 20199 48529 60094 76152 8664/
                   333 10245 20193 58010 88705 88359=
201003011200 AAXX 01124 67665 42480 80918 10234 20234 48505 885//
                   333 59011 88612 Q1016.9=
201003010900 AAXX 01094 67665 41380 70911 10212 20212 48522 71662 8553/
                   333 59018 85609 87359=
201003010600 AAXX 01064 67665 12380 70909 10208 20199 48521 60014 8553/
                   333 10285 20195 59019 85608 87360=
201003010400 AAXX 01044 67665 42358 81307 10199 20199 48511 75822 8453/
                   333 59017 84706 87359=
201003010300 AAXX 01034 67665 42280 81207 10201 20201 48507 70322 8473/
                   333 58023 84705 87359=
201003010000 AAXX 01004 67665 42980 70803 10205 20205 48506 70222 84031
                   333 58024 84360 86080=
201002282100 AAXX 28214 67665 42/80 61404 10212 20212 48522 70322 85031
                   333 58021 85360 82080=
201002281800 AAXX 28184 67665 42780 61204 10227 20225 48517 71322 81233 59011 819// 83361
                   86080=
201002281200 AAXX 28124 67665 42680 61706 10265 20250 48519 85231
                   333 58004 85837 81360 81080=
201002280900 AAXX 28094 67665 42580 61105 10249 20242 48546 86202
                   333 58003 86825 81080=
201002280600 AAXX 28064 67665 12360 70803 10223 20223 48541 60014 83632
                   333 10290 20189 58002 83708 83360 86080=
201002280400 AAXX 28044 67665 41959 71503 10193 20193 48526 74122 84032
                   333 58004 84360 85080=
201002280300 AAXX 28034 67665 42460 71301 10193 20193 48522 8153/
                   333 58010 81610 87360=
201002272100 AAXX 27214 67665 41760 71301 10210 20210 48542 71322 8193/
                   333 58015 81950 87359=
201002271800 AAXX 27184 67665 41759 71502 10202 20202 48524 76162 81931
                   333 10290 59002 81950 85359 86080=
201002271500 AAXX 27154 67665 41459 81210 10199 20199 48515 79596 8193/
                   333 59025 83510 81950 88359=
201002271200 AAXX 27124 67665 41670 62702 10288 20234 48518 71722 81930 58021 81940 85845
                   83360 555 Q1017.6=
201002270600 AAXX 27064 67665 12460 70902 10208 20208 48536 69934 8453/
                   333 10254 20193 58023 84609 87360=
201002261800 AAXX 26184 67665 41357 83104 10205 20205 48518 76062 8263/
                   333 10254 58025 82710 83850 87360=
201002261500 AAXX 26154 67665 42657 80805 10233 20214 48494 8193/
                   333 58014 81930 85835 87360=
201002261200 AAXX 26124 67665 41557 82402 10234 20234 48502 72122 8553/
                   333 59009 85720 88360=
201002260900 AAXX 26094 67665 42460 83201 10224 20224 48518 8653/
                   333 58001 86610 88360=
201002251200 AAXX 25124 67665 42480 73205 10238 20201 48494 8383/
                   333 58008 82616 81820 86360=
201002250900 AAXX 25094 67665 42480 83506 10229 20201 48519 8567/
                   333 58005 85710 87360=
201002250600 AAXX 25064 67665 11258 80104 10198 20186 48513 60314 72166 8567/
                   333 10272 20191 58000 85703 88359=
201002241200 AAXX 24124 67665 42575 63505 10261 20204 48490 70322 8623/
                   333 59009 82929 86832 82360=
201002240600 AAXX 24064 67665 12370 70605 10233 20233 48517 60074 70222 85630
                   333 10270 20199 58002 85707 86360 Q1018.2=
201002231200 AAXX 23124 67665 42580 73408 10263 20263 48497 86230
                   333 58009 86820 85360=
201002230900 AAXX 23094 67665 42480 70605 10235 20205 48520 8653/
                   333 58008 86610 87360=
201002230600 AAXX 23064 67665 11280 70103 10203 20195 48511 60034 8663/
                   333 10256 20192 58004 86606 87359=
201002230400 AAXX 23044 67665 42280 80302 10192 20192 48503 8463/
                   333 58010 84703 88359=
201002230300 AAXX 23034 67665 42280 70403 10197 20197 48449 8463/
                   333 58011 84703 87360=
201002230000 AAXX 23004 67665 42280 73202 10198 20198 48500 84631
                   333 58011 84703 85360 81080=
201002222100 AAXX 22214 67665 42280 70602 10203 20203 48508 83631
                   333 58008 83705 85360 82080=
201002221800 AAXX 22184 67665 42980 60402 10208 20208 48499 85031
                   333 10256 58008 85360 83080=
201002221200 AAXX 22124 67665 413580 63406 10240 20208 48490 71682
                   333 58004 81610 85825 84360=
201002220900 AAXX 22094 67665 42580 63303 10238 20238 48512 85230
                   333 59002 85820 84360=
201002220600 AAXX 22064 67665 12370 73003 10192 20192 48506 60144 70242 8567/
                   333 10263 20165 59002 85708 87359=
201002220400 AAXX 22044 67665 42260 83104 10192 20192 48493 8575/
                   333 59006 85704 88610=
201002220300 AAXX 22034 67665 42260 83302 10194 20194 48488 8477/
                   333 59009 84704 87459=
201002212100 AAXX 21214 67665 42360 81103 10203 20203 48502 8577/ 33 59005 85707 87459=
201002211800 AAXX 21184 67665 41580 80904 10250 20250 48496 72562 8357/
                   333 10263 59007 83620 87459=
201002211200 AAXX 21124 67665 42580 60609 10249 20249 48487 85830
                   333 59013 83625 85828 84360=
201002210900 AAXX 21094 67665 41358 80612 10244 20244 48514 76166 8553/
                   333 59006 85607 88359 Q1017.8=
201002210600 AAXX 21064 67665 11370 80706 10196 20196 48508 60054 75022 8673/
                   333 10269 20194 59010 86706 88359
                   555 00194 Q1017.8=
201002210000 AAXX 21004 67665 41365 70708 10245 20245 48501 72552 8473/
                   333 59003 84706 85359=
201002202100 AAXX 20214 67665 41365 70807 10245 20245 48512 75052 8773/
                   333 58002 86706 83359=
201002201800 AAXX 20184 67665 41359 60909 10209 20209 48499 76122 83732
                   333 10269 59006 83706 81945 84360 81080=
201002201500 AAXX 20154 67665 42680 70910 10231 20231 48484 8583/
                   333 58001 82830 83632 83360=
201002201200 AAXX 20124 67665 41560 71012 10230 20230 48496 71622 8553/
                   333 58013 85625 87360=
201002200900 AAXX 20094 67665 42480 70608 10251 20251 48521 70322 8553/
                   333 59005 85610 87360 Q1018.5=
201002200600 AAXX 20064 67665 12360 81002 10201 20201 48514 69984 8673/
                   333 10255 20198 58001 86707 88360=
201002191800 AAXX 19184 67665 41359 71005 10214 20214 48464 76022 81932
                   333 10281 59004 81608 819// 86360 83080=
201002191500 AAXX 19154 67665 42680 71502 10209 20197 48481 84232
                   333 59009 84835 86360 83080=
201002191200 AAXX 19124 67665 41570 73403 10274 20198 48490 71522 81932
                   333 59019 81925 85830 82360 84080=
201002190900 AAXX 19094 67665 42480 70905 10244 20241 48516 71522 8557/
                   333 59012 85617 84360=
201002190600 AAXX 19064 67665 12365 71107 10244 20197 48518 69904 70344 82731
                   333 10283 20194 59006 82706 81359 86078=
201002181800 AAXX 18184 67665 42780 71304 10225 20225 48511 70222 8193/
                   333 58005 819// 86360 Q1017.5=
201002180900 AAXX 18094 67665 42480 71303 10222 20196 48528 8267/
                   333 58001 82615 87460=
201002180600 AAXX 18064 67665 11380 73402 10195 20195 48517 60074 8367/
                   333 10298 20186 59006 83608 87460=
201002171200 AAXX 17124 67665 42580 72507 10278 20231 48502 86232
                   333 59014 81925 85828 82360 86080=
201002170600 AAXX 17064 67665 32260 73004 10213 20213 48526 70322 83630
                   333 10270 20185 58001 83706 87360
                   555 00193 Q1019.6=
201002170400 AAXX 17044 67665 41358 83001 10215 20215 48515 74622 8563/
                   333 58002 85706 88360=
201002170300 AAXX 17034 67665 42380 63501 10213 20213 48512 70322 83630
                   333 58009 83706 83360=
201002170000 AAXX 17004 67665 41780 63102 10208 20208 48508 71300 81931
                   333 58004 81950 83360 83080=
201002162100 AAXX 16214 67665 41780 64001 10222 20222 48517 81931
                   333 58007 81950 83360 83080=
201002161800 AAXX 16184 67665 41880 53503 10219 20219 48499 81931
                   333 10270 59001 81950 84360 83080=
201002161500 AAXX 16154 67665 42680 70504 10256 20198 48492 83272
                   333 58011 83840 86360 85280=
201002161200 AAXX 16124 67665 42580 71004 10260 20202 48513 85232
                   333 58009 85828 84360 85280=
201002160900 AAXX 16094 67665 42480 73202 10242 20202 48516 85132
                   333 59007 85815 84360 85080=
201002160600 AAXX 16064 67665 11358 73506 10208 20197 48525 60014 75022 8563/
                   333 10289 20194 58008 85708 87360=
201002160300 AAXX 16034 67665 42/80 50404 10234 20234 48506 81930
                   333 58003 819// 85360=
201002152100 AAXX 15214 67665 41780 11403 10232 20232 48512 71300
                   333 58004 81950 81360=
201002151800 AAXX 15184 67665 42980 11204 10221 20221 48502 81030
                   333 10289 59009 81360=
201002151500 AAXX 15153 67665 41780 80511 10259 20259 48480 71522 83232
                   333 59015 83845 82360 84080=
201002151200 AAXX 15124 67665 41580 60505 10274 20239 48506 71522 86201
                   333 58009 86835 81080=
201002150900 AAXX 15094 67665 42580 70405 10258 20249 48525 70222 85502
                   333 58002 85620 87080 Q1018.8=
201002150600 AAXX 15064 67665 32480 80707 10245 20230 48521 84502
                   333 10320 20196 59002 84612 87080=
201002150000 AAXX 15004 67665 41780 11203 10226 20226 48507 71300 81930
                   333 58004 81950 81360=
201002141800 AAXX 14184 67665 42980 51203 10225 20225 48494 81032
                   333 59015 81360 85080=
201002141500 AAXX 14154 67665 41780 70902 10265 20237 48497 72992 81932
                   333 59012 81950 81850 83360 85080=
201002141200 AAXX 14124 67665 42680 40607 10306 20244 48506 84202
                   333 59021 84840 81080=
201002140900 AAXX 14095 67665 42580 40407 10288 20274 48528 70322 83202
                   333 59022 83820 81080 Q1018.3=
201002140600 AAXX 14064 67665 32980 31004 10230 20214 48518 70222 80001
                   333 10304 20190 59023 83080
                   555 00185 Q1018.5 Q1018.3=
201002131800 AAXX 13184 67665 42980 41204 10231 20228 48509 80001
                   333 59017 84080=
201002130900 AAXX 13094 67665 42680 50507 10187 20267 48549 84202
                   333 58002 84835 81080=
201002130600 AAXX 13064 67665 32980 20902 10221 20221 48539 81032
                   333 10299 20184 58003 81360 82080=
201002121800 AAXX 12184 67665 42980 11104 10223 20223 48524 82031
                   333 10299 59005 81360 81080=
201002121500 AAXX 12154 67665 41780 61005 10284 20221 48516 71522 84232
                   333 59006 84845 84080=
201002121200 AAXX 12124 67665 42580 60306 10288 20249 48528 84202
                   333 59006 84830 85080=
201002120900 AAXX 12094 67665 42480 60608 10267 20247 48543 70222 83131
                   333 59008 83815 82360 85080 Q1020.8=
201002120600 AAXX 12064 67665 32980 60904 10220 20220 48536 70222 82032
                   333 10293 20177 59013 82360 86080 Q1020.6=
201002111200 AAXX 11124 67665 42580 60705 10275 20233 48533 86200
                   333 59002 86829=
201002110900 AAXX 11094 67665 42480 60507 10267 20247 48551 85231
                   333 59008 85815 82360 82080=
201002110600 AAXX 11064 67665 32359 60301 10222 20222 48549 84632
                   333 10286 20/// 58001 84606 83360 85280=
201002110400 AAXX 11044 67665 42280 72402 10231 20231 48543 70322 81632
                   333 58010 81703 83360 86280=
201002110300 AAXX 11034 67665 42980 41801 10230 20230 48538 70322 84030
                   333 58011 84360=
201002102100 AAXX 10214 67665 42980 41002 10213 20213 48543 70222 81932
                   333 58018 819// 82360 83080=
201002101800 AAXX 10184 67665 41980 31204 10202 20202 48529 71322 81932
                   333 10286 58011 819// 82360 83280=
201002101500 AAXX 10154 67665 41780 61210 10220 20213 48516 71722 81932
                   333 58011 81940 86850 83280=
201002101200 AAXX 10124 67665 42580 60407 10264 20236 48532 86201
                   333 58011 86840 81080=
201002100900 AAXX 10094 67665 42680 60309 10258 20244 48559 86800
                   333 59004 83625 85830=
201002100600 AAXX 10064 67665 32480 40807 10204 20204 48545 84501
                   333 10279 20/// 58000 84615 81080=
201002100400 AAXX 10044 67665 42980 11203 10179 20179 48527 81081
                   333 59003 81360 81080=
201002100300 AAXX 10034 67665 42980 01104 10172 20172 48523
                   333 59002=
201002100000 AAXX 10004 67665 42980 10000 10180 20180 48518 81030
                   333 59003 81360=
201002092100 AAXX 09214 67665 42980 00903 10186 20186 48525
                   333 59006=
201002091800 AAXX 09184 67665 42980 11004 10218 20218 48521 81030
                   333 10218 58009 81360=
201002091500 AAXX 09154 67665 42780 50807 10268 20217 48512 85200
                   333 59004 85856=
201002091200 AAXX 09124 67665 32480 20808 10202 20178 48545 81100
                   333 10281 20176 58005 82812=
201002090900 AAXX 09094 67665 42580 50611 10249 20231 48541 70322 85800
                   333 59001 83622 82825 Q1021.0=
201002090600 AAXX 09064 67665 32480 20808 10202 20178 48545 70322 81100 10281 20176 58005
                   82812 555 00145 Q1021.9=
201002081800 AAXX 08184 67665 42980 01002 10210 20210 48517
                   333 10231 58004=
201002081500 AAXX 08153 67665 42680 30809 10272 20207 48516 83100
                   333 58016 83845=
201002081200 AAXX 08124 67665 42680 50508 10276 20211 48529 85200
                   333 58010 85839=
201002080900 AAXX 08094 67665 42680 50510 10257 20236 48546 85800
                   333 58011 84830 81632=
201002080600 AAXX 08064 67665 32480 20805 10212 20212 48541 81132
                   333 10286 20176 58015 81810 81360 81080=
201002071200 AAXX 07124 67665 42680 60405 10270 20249 48520 70222 86230
                   333 58024 86835 81360=
201002070900 AAXX 07094 67665 42580 60109 10243 20238 48532 86830
                   333 58017 82825 85627 81360=
201002070600 AAXX 07064 67665 31460 50604 10234 20234 48529 60104 72842 84530
                   333 10279 20198 84610 85360=
201002070400 AAXX 07044 67665 41380 80802 10236 20236 48515 71022 8553/
                   333 58010 85606 86360=
201002070300 AAXX 07034 67665 42380 61003 10235 20235 48513 70222 82630
                   333 58008 82706 85360=
201002062100 AAXX 06214 67665 42280 51003 10242 20242 48518 70322 82630
                   333 59001 819// 82704 85360=
201002061200 AAXX 06124 67665 42580 60606 10268 20258 48495 70322 8623/
                   333 59011 81935 86838 82360=
201002060900 AAXX 06094 67665 42570 60210 10239 20239 48518 70222 861// 58000 85825 Q1018.2=
201002060600 AAXX 06064 67665 12470 70405 10207 20207 48516 70222 86530
                   333 10275 20192 58000 86610 83360 Q1018.3=
201002051200 AAXX 05124 67665 42580 60608 10268 20261 48496 70222 85230
                   333 59010 85830 84360 Q1015.3=
201002050900 AAXX 05094 67665 42480 70308 10233 20233 48517 86830
                   333 58006 85610 85815 85360=
201002050600 AAXX 05064 67665 12359 80505 10234 20234 48518 60044 8773/
                   333 10250 20202 58007 87706 85360=
201002041800 AAXX 04184 67665 42580 60604 10217 20217 48506 83532
                   333 58019 83525 84360 83080=
201002041500 AAXX 04154 67665 42580 60606 10239 20239 48492 84232
                   333 58016 84828 85360 83080=
201002041200 AAXX 04124 67665 41460 70306 10234 20234 48501 72562 8557/
                   333 58023 85615 86459=
201002040900 AAXX 04094 67665 41359 80106 10215 20215 48508 76066 8677/
                   333 58018 86707 88459=
201002040600 AAXX 04064 67665 11258 80109 10232 20232 48511 60644 76166 8677/
                   333 10260 20190 58018 86703 88459=
201002040400 AAXX 04044 67665 41259 80607 10228 20228 48496 76166 8473/
                   333 58010 84704 88359=
201002040300 AAXX 04034 67665 41260 70606 10227 20227 48491 76066 8473/
                   333 58011 84704 87359=
201002032100 AAXX 03214 67665 41240 72803 10201 20201 48495 76566 8473/
                   333 58007 84705 87359=
201002031800 AAXX 03184 67665 42560 70903 10233 20233 48488 8467/
                   333 58006 84618 81930 86460=
201002031200 AAXX 03124 67665 41459 80304 10219 20219 48477 76166 8677/
                   333 58000 86710 87459=
201002030900 AAXX 03094 67665 41359 80208 10213 20213 48491 76066 8677/
                   333 59003 86705 88459 Q1015.5=
201002030600 AAXX 03064 67665 31156 80905 10228 20228 48493 76366 8573/
                   333 59009 85703 88359
                   555 00196 Q1015.5=
201002030000 AAXX 03004 67665 42370 70704 10226 20226 48477 70322 84530
                   333 59024 84705 87359=
201002021800 AAXX 02184 67665 42458 70603 10208 20208 48480 8463/
                   333 10266 59012 84610 84840 84360=
201002021500 AAXX 02154 67665 42580 60703 10214 20214 48462 83531
                   333 59014 83620 84830 84360 83080=
201002021200 AAXX 02124 67665 41557 71305 10216 20216 48477 76066 85802
                   333 59013 83820 86625 83080=
201002020900 AAXX 02094 67665 41460 72904 10222 20222 48495 76066 85830
                   333 59019 82815 84616 86360=
201002020600 AAXX 02064 67665 11340 82504 10225 20225 48500 60864 76366 8473/
                   333 10256 20/// 59016 84708 88359=
201002011200 AAXX 01124 67665 41358 82903 10237 20237 48491 76066 8477/
                   333 59006 84706 88459=
201002010900 AAXX 01094 67665 41301 81604 10234 20234 48515 76566 8577/
                   333 59003 85706 88459=
201002010600 AAXX 01064 67665 11357 83501 10219 20219 48513 60024 76066 8277/
                   333 10310 20201 58003 82706 88459=

################################################################################
#  SYNOPS from 67666, Lusaka City Airport (Zambia) | 15-25S | 028-19E | 1280 m
################################################################################
201003030600 AAXX 03064 67666 12480 70910 10202 20192 48538 60044 875//
                   333 10260 20179 58017 87615=
201002260900 AAXX 26094 67666 41578 80000 10209 20200 48510 78162 8657/
                   333 58003 86620 88460=
201002260600 AAXX 26064 67666 11858 80000 10185 20185 48/// 60374 76366 8802/
                   333 10254 20165 58010 88458=
201002250600 AAXX 25064 67666 12480 80904 10193 20187 48506 60264 75022 8467/
                   333 10264 20170 58000 84712 88458=
201002190900 AAXX 19094 67666 41478 70906 10220 20198 48509 78021 875//
                   333 59015 87620=
201002170600 AAXX 17064 67666 32480 82808 10203 20189 48524 885//
                   333 10263 20168 58005 88615=
201002160900 AAXX 16094 67666 42680 71003 10237 20194 48507 8423/
                   333 59010 84830 87360=
201002160600 AAXX 16064 67666 12480 81006 10201 20191 48518 60034 8657/
                   333 10276 20183 58009 86618 88458=
201002151200 AAXX 15124 67666 41680 51009 10273 20197 48498 78022 81901
                   333 58005 81938 84838 81080=
201002120600 AAXX 12064 67666 32980 50906 10222 20172 48530 80008
                   333 10283 20180 59013 86280=
201002100900 AAXX 10094 67666 42580 61012 1-245 20187 48547 86800
                   333 58014 84620 82822=
201002080900 AAXX 0809/ 67666 42580 41008 10245 20170 48538 84200
                   333 58012 84828=
201002051200 AAXX 05124 67666 42580 60909 10258 20193 48488 86231
                   333 59015 86828 81360 Q1014.7=
201002021200 AAXX 02124 67666 41480 70802 10216 20207 48479 76166 8587/
                   333 59016 83614 84818 86360=

################################################################################
#  SYNOPS from 67667, Mount Makulu (Zambia) | 15-33S | 028-15E | 1213 m
################################################################################
201002230600 AAXX 23064 67667 12680 70902 10210 20195 48/// 69904 86508
                   333 10250 20185 5//// 86620 87280=

################################################################################
#  SYNOPS from 67673, Petauke (Zambia) | 14-15S | 031-17E | 1035 m
################################################################################
201002230600 AAXX 23064 67673 11910 80202 10202 20198 48525 60284 74666 8802/
                   333 10275 20195 58012 88460=
201002120600 AAXX 12064 67673 12980 70902 10250 20198 48850 60014 80001
                   333 10310 20195 59004 87080=

################################################################################
#  SYNOPS from 67731, Senanga (Zambia) | 16-06S | 023-16E | 1027 m
################################################################################
201002230600 AAXX 23064 67731 12380 80902 10228 20184 48/// 60104 8377/
                   333 10270 20159 5//// 83709 88460=

################################################################################
#  SYNOPS from 67741, Sesheke (Zambia) | 17-28S | 024-18E | 949 m
################################################################################
201002230600 AAXX 23064 67741 12580 70908 10221 20212 48499 60114 875//
                   333 10264 20210 58000 87620=

################################################################################
#  SYNOPS from 67743, Livingstone (Zambia) | 17-49S | 025-49E | 985 m
################################################################################
201003030600 AAXX 03064 67743 12380 80907 10210 20203 48524 60014 887//
                   333 10300 20200 589004 88708=
201003021500 AAXX 02154 67743 42680 50909 10280 20201 48499 82862
                   333 59006 82840 82360 83080=
201003021200 AAXX 02124 67743 41580 70507 10260 20201 48531 76022 86870
                   333 59010 82630 84835 82360=
201003020600 AAXX 02064 67743 12380 60108 10220 20205 48527 69904 8277/
                   333 10290 20200 59002 82708 86360=
201003010900 AAXX 01094 67743 42680 61210 10240 20180 48516 85100
                   333 59014 85830=
201003010600 AAXX 01064 67743 32480 51306 10210 20185 48536 84530
                   333 10300 20185 59009 84610 83360=
201002261500 AAXX 26154 67743 41380 80304 10210 20206 48484 72996 81962
                   333 58013 81708 82940 82360 86080=
201002260900 AAXX 26094 67743 42580 82804 10238 20204 48503 8257/
                   333 58000 82630 82460 85080=
201002251200 AAXX 25124 67743 42680 71003 10243 20211 48472 82330 59004 82935 83835 84360=
201002250900 AAXX 25094 67743 42480 70802 10259 20198 48506 84230
                   333 59007 84820 84360=
201002250600 AAXX 25064 67743 32480 70904 10226 20213 48501 84530
                   333 10291 20210 59002 83615 82820 84360=
201002230900 AAXX 23094 67743 42480 71213 10242 20213 48509 875//
                   333 58004 87615=
201002230600 AAXX 23064 67743 11359 81009 10210 20203 48502 60054 76162 8557/
                   333 10260 20204 58001 85610 87460=
201002221200 AAXX 22124 67743 42570 70611 10250 20206 48484 83820
                   333 59009 81620 82825 85460=
201002220600 AAXX 22064 67743 11459 80808 10205 20205 48498 60224 78086 8272/
                   333 10275 20200 59007 82710 87459=
201002210900 AAXX 21094 67743 41459 81009 10215 20200 48506 75162 8557/
                   333 59016 85610 88459 Q1019.0=
201002200600 AAXX 20064 67743 12980 80203 10201 20192 48486 60064 84071
                   333 10292 20193 58020 82459 85080=
201002191500 AAXX 19154 67743 42680 70902 10236 20219 48484 71722 85231
                   333 59012 82530 86360 82080=
201002191200 AAXX 19124 67743 42680 73602 10277 20200 48502 85230
                   333 59014 85835 83360=
201002190900 AAXX 19094 67743 42580 71004 10240 20203 48524 70222 8457/
                   333 59010 84620 86360=
201002190600 AAXX 19064 67743 12480 60706 10215 20200 48516 69964 8357/
                   333 10275 20202 59006 83510 86360=
201002180900 AAXX 18094 67743 41580 80906 10216 20206 48530 78062 8457/
                   333 58014 84520 88360=
201002180600 AAXX 18064 67743 11480 80000 10206 20204 48522 60134 72582 8357/
                   333 10300 20195 58013 83512 88360=
201002161200 AAXX 16124 67743 41680 83108 10250 20206 48495 71799 8427/
                   333 59002 81945 84845 86459=
201002160900 AAXX 16094 67743 42680 72710 10278 20193 48517 84232
                   333 59009 84845 84362 82080=
201002160600 AAXX 16064 67743 12980 31009 10220 20190 48505 69904 83030
                   333 10308 20195 59003 83360=
201002151500 AAXX 15153 67743 42680 63203 10241 20193 48486 81370 58014
                   333 83845 84360=
201002151200 AAXX 15124 67743 42680 73306 10268 20187 48500 72922 82971
                   333 58005 81940 82845 84360 82080=
201002150600 AAXX 15064 67743 32980 30606 10241 20207 48518 83071
                   333 10360 20218 58007 83360 83080=
201002141200 AAXX 14124 67743 42780 20807 10349 20173 48511 82100
                   333 59020 82858=
201002130900 AAXX 13094 67743 42780 20904 10315 20182 48546 82100
                   333 58002 82850=
201002121500 AAXX 12154 67743 42780 71608 10320 20120 48513 82232
                   333 59008 82850 83360 84080=
201002121200 AAXX 12124 67743 42780 50404 10326 20169 48527 83231
                   333 59012 83850 81360 81080=
201002120600 AAXX 12064 67743 32980 30205 10230 20193 48529 80001
                   333 10330 20184 59012 83080 Q1019.0=
201002111200 AAXX 11124 67743 42780 50806 10305 20179 48534 83101
                   333 59001 83856 83080=
201002110900 AAXX 11094 67743 42680 52006 10280 20192 48553 83102
                   333 59002 83845 87080=
201002110600 AAXX 11064 67743 32980 70000 10218 20182 48539 80002
                   333 10321 20190 59005 87080=
201002101500 AAXX 10154 67743 42780 51104 10303 20176 48515 83230
                   333 59004 82850 82360=
201002101200 AAXX 10124 67743 42680 61006 10304 20156 48535 83230
                   333 58005 84845 82360=
201002100900 AAXX 10094 67743 42680 60906 10281 20174 48555 70220 83102
                   333 58009 84840 82080=
201002100600 AAXX 10064 67743 32480 41006 10224 20174 48546 82502
                   333 10310 20184 5//// 82619 81080=
201002091200 AAXX 09124 67743 42680 41111 10300 20144 48532 84200
                   333 58001 84848=
201002081500 AAXX 08153 67743 42480 40909 10306 20170 48516 82231
                   333 58012 82850 81360 81080=
201002081200 AAXX 08124 67743 42680 70808 10300 20190 48522 84231
                   333 58020 84850 82360 83080=
201002080900 AAXX 08094 67743 42680 60509 10290 20181 48547 83131
                   333 58018 83835 81360 83080=
201002080600 AAXX 08064 67743 32980 50807 10239 20212 48536 80001
                   333 10320 20195 58017 85080=
201002070600 AAXX 07064 67743 32980 41707 10235 20204 48517 84030
                   333 10302 20200 58009 84360=
201002050900 AAXX 05093 67743 42680 71012 10259 20208 48511 84230
                   333 59003 84830 86361=
201002050600 AAXX 05064 67743 32480 71108 10225 20209 48505 8457/
                   333 10281 20205 58001 84612 87361=
201002040900 AAXX 04094 67743 42580 60908 10262 20207 48514 83840
                   333 58011 83620 82830 84360=
201002040600 AAXX 04064 67743 32580 72508 10231 20217 48504 82541
                   333 10320 20217 58003 83615 86360 83080=
201002021500 AAXX 02154 67743 42780 60908 10310 20193 48464 83203
                   333 59008 81950 82850 84080=
201002021200 AAXX 02124 67743 42780 60811 10315 20207 48487 84203
                   333 59003 83850 84080=
201002020900 AAXX 02094 67743 42680 60907 10285 20223 48499 84231
                   333 59009 84848 82360 82080=
201002020600 AAXX 02064 67743 32580 60000 10240 20211 48499 81232
                   333 10290 20210 59007 81835 82360 84080=
201002010900 AAXX 01094 67743 42580 73004 10256 20213 48507 81137
                   333 59015 81820 84360 87080=
201002010600 AAXX 01064 67743 32450 80906 10220 20213 48503 8257/
                   333 10285 20214 59009 82610 87360=

################################################################################
#  SYNOPS from 67751, Magoye (Zambia) | 16-00S | 027-36E | 1018 m
################################################################################
201002230600 AAXX 23064 67751 12980 70000 10228 20208 48/// 60024 8707/
                   333 10279 20205 59005 87360=

################################################################################
#  SYNOPS from 67753, Choma (Zambia) | 16-50S | 027-04E | 1213 m
################################################################################
201003020600 AAXX 02064 67753 NIL=
201002250600 AAXX 25064 67753 NIL=
201002220600 AAXX 22064 67753 NIL=
201002190600 AAXX 19064 67753 11305 81005 10202 20199 48/// 60024 75052 8777/
                   333 10272 20177 5//// 87708 888459=
201002180600 AAXX 18064 67753 12380 72005 10207 20194 48/// 60394 83508
                   333 10271 20175 5//// 83609 87280=
201002160600 AAXX 16064 67753 NIL=
201002120600 AAXX 12064 67753 32980 70908 10219 20204 48/// 80008
                   333 10269 20151 5//// 87280=
201002100600 AAXX 10064 67753 32480 70805 10204 20181 48/// 81508
                   333 10266 20157 5//// 81610 87280=
201002091200 AAXX 09124 67753 32380 70910 10216 20189 48/// 87500
                   333 10277 20159 87609=
201002080600 AAXX 08064 67753 12980 10605 10220 20191 48/// 60034 8002
                   333 10272 20164 5//// 81080=
201002050600 AAXX 05064 67753 NIL=
201002040600 AAXX 04064 67753 NIL=
201002010600 AAXX 01064 67753 NIL=

################################################################################
#  SYNOPS from 67855, Lupaki (Zambia) | 17-03-00S | 024-46-00E | 1000 m
################################################################################
201003030600 AAXX 03064 67855 11375 70802 10218 20202 3//// 48/// 60054 72165 8463/
                   333 20200 5//// 84707 87360=
201003021200 AAXX 02124 67855 42980 70604 10300 20200 3//// 48/// 86232
                   333 5//// 86850 83360=
201003020600 AAXX 02064 67855 32980 71301 10210 20180 3//// 48/// 86031
                   333 20185 5//// 86360=
201003011200 AAXX 01124 67855 NIL=
201003010600 AAXX 01064 67855 32380 50904 10210 20175 3//// 48/// 84632
                   333 20175 5//// 84707=
201002280600 AAXX 28064 67855 NIL=
201002271200 AAXX 27124 67855 41970 70307 10218 20209 3//// 48/// 76166 8707/
                   333 5//// 87460=
201002270600 AAXX 27064 67855 NIL=
201002261200 AAXX 26124 67855 41370 83501 10202 20200 3//// 48/// 76192 8477/
                   333 5//// 84707 88460=
201002260600 AAXX 26064 67855 NIL=
201002251200 AAXX 25124 67855 42780 60302 10314 20196 3//// 48/// 86200
                   333 67976=
201002250600 AAXX 25064 67855 NIL=
201002241200 AAXX 24124 67855 NIL=
201002240600 AAXX 24064 67855 NIL=
201002231200 AAXX 23124 67855 41770 60904 10302 20202 3//// 48/// 76165 83272
                   333 5//// 83856 83460=
201002230600 AAXX 23064 67855 12380 60904 10228 20197 3//// 48/// 69904 81632
                   333 20214 5//// 81706 84359=
201002221200 AAXX 22124 67855 41775 71102 10290 20205 38/// 48/// 72582 83272
                   333 5//// 83850 83460=
201002220600 AAXX 22064 67855 32980 60903 10224 20189 3//// 48/// 85050
                   333 20205 5//// 85359=
201002211200 AAXX 21124 67855 42680 61103 10294 20186 3//// 48/// 85202
                   333 5//// 85856=
201002210600 AAXX 21064 67855 10380 50904 10218 20186 3//// 48/// 60014 82632
                   333 20185 5//// 82706 83080=
201002201200 AAXX 20124 67855 NIL=
201002200600 AAXX 20064 67855 NIL=
201002191200 AAXX 19124 67855 41770 60902 10248 20200 3//// 48/// 76062 81270
                   333 5//// 81856 85460=
201002190600 AAXX 19064 67855 12980 63302 10214 20190 3//// 48/// 60314 86070
                   333 20195 5//// 86360=
201002180600 AAXX 18064 67855 NIL=
201002170600 AAXX 17064 67855 32980 50901 10220 20202 3//// 48/// 84032
                   333 20190 5//// 84359=
201002161200 AAXX 16124 67855 42780 63404 10310 20198 3//// 48/// 85202
                   333 5//// 85856=
201002160600 AAXX 16064 67855 12380 63604 10220 20200 3//// 48/// 60134 81672
                   333 20185 5//// 81706 84460=
201002151200 AAXX 15124 67855 41780 52101 10322 20180 3//// 48/// 71792 85202
                   333 5//// 85856=
201002141200 AAXX 14124 67855 NIL=
201002140600 AAXX 14064 67855 NIL=
201002131200 AAXX 13124 67855 NIL=
201002130600 AAXX 13064 67855 12980 00901 10210 20199 3//// 48/// 69904
                   333 20175 5////=
201002121200 AAXX 12124 67855 42780 63002 10348 20177 3//// 48/// 84272
                   333 5//// 84856=
201002120600 AAXX 12064 67855 32980 72601 10208 20198 3//// 48/// 80002
                   333 20168 5//// 87080=
201002111200 AAXX 11124 67855 42780 70302 10318 20188 3//// 48/// 83231
                   333 5//// 83856 84080=
201002110600 AAXX 11064 67855 NIL=
201002101200 AAXX 10124 67855 42780 60301 10300 20184 3//// 48/// 86202
                   333 5//// 86856=
201002100600 AAXX 10064 67855 32980 50902 10226 20172 3//// 48/// 81032
                   333 20145 5//// 81360 85080=
201002091200 AAXX 09124 67855 42780 50302 10318 20175 3//// 48/// 85200
                   333 5//// 85856=
201002090600 AAXX 09064 67855 NIL=
201002081200 AAXX 08124 67855 42780 50604 10312 20178 3//// 48/// 85200
                   333 5//// 85856=
201002080600 AAXX 08064 67855 32980 01501 10216 20161 3//// 48///
                   333 20165 5////=
201002070600 AAXX 07064 67855 12980 73607 10220 3//// 48/// 60014 8703/
                   333 20205 5//// 87359=
201002061200 AAXX 06124 67855 NIL=
201002060600 AAXX 06064 67855 NIL=
201002051200 AAXX 05124 67855 41970 70901 10230 20204 3//// 48/// 76196 8707/
                   333 5//// 87460=
201002030600 AAXX 03064 67855 32980 71803 10218 20186 3//// 48/// 80002
                   333 20184 5//// 87080=
201002011200 AAXX 01124 67855 41870 60000 10298 20219 3//// 48/// 72582 84272
                   333 5//// 84857=
201002010600 AAXX 01064 67855 NIL=
