################################################################################
# Query made at 04/10/2022 06:52:16 UTC
# Country like Zamb*
# Time interval: from 06/01/2019 05:30  to 07/01/2019 06:30  UTC
################################################################################

################################################################################
#  SYNOPS from 67403, Kawambwa (Zambia) | 09-48S | 029-05E | 1323 m
################################################################################
201906250600 AAXX 25064 67403 31975 10901 10162 20088 48520 70500 80001
                   333 10268 20116 58001 81080
                   555 00098=
201906200600 AAXX 20064 67403 31975 01203 10145 20111 48552 70500
                   333 10274 20114 59010
                   555 00100=
201906180600 AAXX 18064 67403 31975 01202 10148 20091 48559 70500
                   333 10266 20112 59006
                   555 00106=
201906130600 AAXX 13064 67403 31975 01602 10165 20112 48560 70500
                   333 10280 20134 58002
                   555 00128=
201906120600 AAXX 12064 67403 31975 01602 10154 20103 48556 70500
                   333 10262 20119 58009
                   555 00120=
201906110600 AAXX 11064 67403 31975 00905 10142 20092 48547 70500
                   333 10255 20106 59006
                   555 00104=
201906101200 AAXX 10124 67403 NIL=
201906031200 AAXX 03124 67403 NIL=
201906030600 AAXX 03064 67403 31975 00904 10150 20087 48544 70500
                   333 10264 20104 58003
                   555 00087=

################################################################################
#  SYNOPS from 67413, Mbala (Zambia) | 08-51S | 031-20E | 1673 m
################################################################################
201906101200 AAXX 10124 67413 NIL=
201906050600 AAXX 05064 67413 32980 21309 10146 20093 48555 80002
                   333 1//// 20096 59005 82080
                   555 00090 91025=
201906031200 AAXX 03124 67413 NIL=
201906030600 AAXX 03064 67413 NIL=

################################################################################
#  SYNOPS from 67441, Mwinilunga (Zambia) | 11-45S | 024-26E | 1361 m
################################################################################
201906190900 AAXX 19094 67441 42980 00903 10210 20082 48610
                   333 58001=
201906180600 AAXX 18064 67441 32980 00000 10105 20080 48498
                   333 10250 20//0 59003
                   555 00///=
201906101200 AAXX 10124 67441 NIL=
201906031200 AAXX 03124 67441 NIL=
201906030600 AAXX 03064 67441 NIL=

################################################################################
#  SYNOPS from 67461, Mansa (Zambia) | 11-06S | 028-51E | 1382 m
################################################################################
201906250600 AAXX 25064 67461 32980 01203 10141 20104 48541
                   333 10264 20081 58004 91021=
201906200600 AAXX 20064 67461 32980 01507 10135 20108 48551
                   333 10248 20090 59002
                   555 00/// 91023=
201906190900 AAXX 19094 67461 42680 21207 10215 20102 48569 82100
                   333 58019 82838 91024=
201906180600 AAXX 18064 67461 32980 01306 10128 20095 48552
                   333 10248 20072 59010
                   555 00/// 91024=
201906130600 AAXX 13064 67461 32980 01003 10157 20115 48568
                   333 10268 20097 58015 91025=
201906120600 AAXX 12064 67461 32980 01006 10140 20108 48553
                   333 10232 20089 59008 91023=
201906110900 AAXX 11094 67461 42580 61109 10//0 20105 48567 86200
                   333 59003 86820 91024=
201906110600 AAXX 11064 67461 32980 01005 10135 20104 48556
                   333 10240 20077 59008
                   555 00/// 91024=
201906101200 AAXX 10124 67461 42580 31315 10238 20094 48552 83200
                   333 59015 83830 91022=
201906050900 AAXX 05094 67461 42680 51211 10220 20091 48546 85500
                   333 59002 85642 91021=
201906031200 AAXX 03124 67461 NIL=
201906030900 AAXX 03094 67461 42680 51308 10220 20099 48547 85800
                   333 58011 85638 81840 91021=
201906030600 AAXX 03064 67461 32980 01205 10150 20105 48531
                   333 10258 20082 58000=

################################################################################
#  SYNOPS from 67469, Samfya (Zambia) | 11-22S | 029-54E | 1171 m
################################################################################
201906250600 AAXX 25064 67469 32980 01103 10171 20140 48///
                   333 10241 20142 5////=
201906200600 AAXX 20064 67469 32480 11707 10168 20130 48/// 81100
                   333 10234 20136 5//// 81813
                   555 00///=
201906190900 AAXX 19094 67469 42580 11212 10204 20140 48/// 82200
                   333 5//// 82826=
201906180600 AAXX 18064 67469 32480 11309 10155 20120 48/// 81100
                   333 10231 20132 5//// 81813
                   555 00///=
201906130600 AAXX 13064 67469 32980 01408 10195 20150 48///
                   333 10224 20144 5////=
201906120600 AAXX 12064 67469 32480 11013 10166 20130 48/// 81500
                   333 10226 20139 5//// 81613=
201906110600 AAXX 11064 67469 32480 51713 10160 20110 48/// 85500
                   333 10224 20140 5//// 85619
                   555 00///=
201906101200 AAXX 10124 67469 NIL=
201906060600 AAXX 06064 67469 32980 21309 10187 20130 48///
                   333 10230 20137 5//// 82360=
201906050900 AAXX 05094 67469 42580 31016 10207 20100 48/// 83100
                   333 5//// 83824=
201906040600 AAXX 04064 67469 32980 01016 10175 20100 48///
                   333 10231 20142 5////=
201906031200 AAXX 03124 67469 42580 31210 10231 20100 48/// 83100
                   333 5//// 83825=
201906030900 AAXX 03094 67469 42580 21013 10210 20120 48/// 82100
                   333 5//// 82825=
201906030600 AAXX 03064 67469 32980 01404 10186 20120 48///
                   333 10245 20148 5////=

################################################################################
#  SYNOPS from 67475, Kasama (Zambia) | 10-13S | 031-08E | 1382 m
################################################################################
201906250600 AAXX 25064 67475 31960 00000 10174 20090 48454 70500
                   333 10261 20084 58001 91023=
201906190900 AAXX 19094 67475 41660 21017 10215 20184 48581 70500 82100
                   333 58004 82830 91027=
201906180600 AAXX 18064 67475 31960 01507 10146 20099 48573 70500
                   333 10251 20073 59004
                   555 00/// 91027=
201906130600 AAXX 13064 67475 32960 01603 10165 20118 48572
                   333 10251 20096 59001=
201906120600 AAXX 12064 67475 32960 01708 10160 20119 48573
                   333 10233 20092 58009=
201906110600 AAXX 11064 67475 32980 01509 10144 20116 48534
                   333 10242 20078 59005
                   555 00///=
201906101200 AAXX 10124 67475 42660 61217 10213 20095 48552 83260
                   333 59009 83840 86358 91023=
201906040600 AAXX 04064 67475 32960 01412 10160 20080 48561
                   333 10249 20091 58004 91025=
201906031200 AAXX 03124 67475 42660 21808 10237 20051 48530 82100
                   333 59005 82840 91021=
201906030600 AAXX 03064 67475 32960 01706 10144 20182 48555
                   333 10256 20092 58005 91024=

################################################################################
#  SYNOPS from 67476, Misamfu (Zambia) | 10-06S | 031-15E | 1536 m
################################################################################
201906250600 AAXX 25064 67476 31976 11305 10146 20103 48/// 70500 80001
                   333 10260 20037 5//// 81080=
201906200600 AAXX 20064 67476 31977 00905 10150 20112 48/// 70500
                   333 10252 20039 59014
                   555 00///=
201906190900 AAXX 19094 67476 41678 11408 10219 20081 48/// 70500 81100
                   333 58002 81837=
201906180600 AAXX 18064 67476 31977 01207 10145 20105 48/// 70500
                   333 10245 20030 5////
                   555 00///=
201906130600 AAXX 13064 67476 31976 01205 10155 20130 48/// 70500
                   333 10253 20059 5////=
201906120600 AAXX 12064 67476 31977 00906 10160 20113 48/// 70500
                   333 10241 20042 58010=
201906110600 AAXX 11064 67476 31578 11209 10150 20103 48/// 70500 81100
                   333 10245 20045 58024 81820
                   555 00///=
201906101200 AAXX 10124 67476 41678 71808 10209 20096 48/// 70522 87100
                   333 5//// 87847=
201906060900 AAXX 06094 67476 42680 11306 10229 20116 48/// 81100
                   333 59000 81835=
201906051200 AAXX 05124 67476 42780 21807 10221 20085 48/// 82100
                   333 59014 82850=
201906050900 AAXX 05094 67476 42680 21208 10208 20084 48/// 82101
                   333 5//// 82835 81080=
201906050600 AAXX 05064 67476 32980 11708 10150 20110 48/// 80001
                   333 10231 20070 5//// 81080=
201906031200 AAXX 03124 67476 42780 11807 10238 20061 48/// 81100
                   333 5//// 81850=
201906030900 AAXX 03094 67476 42680 11209 10218 20071 48/// 81100
                   333 5//// 81835=
201906030600 AAXX 03064 67476 32980 01407 10150 20090 48///
                   333 10252 20040 58007=

################################################################################
#  SYNOPS from 67477, Mpika (Zambia) | 11-54S | 031-26E | 1400 m
################################################################################
201906250600 AAXX 25064 67477 32980 01202 10160 20115 48///
                   333 10238 20103 5////
                   555 00098=
201906200600 AAXX 20064 67477 32480 31208 10135 20116 48/// 83500
                   333 10229 20100 5//// 83610
                   555 00086=
201906180600 AAXX 18064 67477 32480 31505 10143 20112 48/// 83500
                   333 10212 20092 5//// 83612
                   555 00080=
201906130600 AAXX 13064 67477 32978 01206 10157 20100 48/// 70500
                   333 10241 20180 5////
                   555 00134=
201906120600 AAXX 12064 67477 32480 10917 10159 20115 48/// 81500
                   333 10230 20110 5//// 81615=
201906110900 AAXX 11094 67477 42580 20912 10189 20112 48/// 82500
                   333 5//// 82628=
201906110600 AAXX 11064 67477 32480 21205 10146 20105 48/// 82500
                   333 10214 20102 5//// 82613
                   555 00090=
201906101200 AAXX 10124 67477 42580 51203 10197 20110 48/// 85100
                   333 5//// 85828=
201906050900 AAXX 05094 67477 42580 51808 10195 20123 48/// 85500
                   333 5//// 85628=
201906031200 AAXX 03124 67477 NIL=
201906030900 AAXX 03094 67477 42580 21209 10188 20095 48563 82500
                   333 58003=
201906030600 AAXX 03064 67477 32980 00908 10145 20095 48563
                   333 10221 20070 58007
                   555 00050=

################################################################################
#  SYNOPS from 67481, Isoka (Zambia) | 10-07S | 032-38E | 1360 m
################################################################################
201906250600 AAXX 25064 67481 31975 03003 10176 20103 48/// 70500
                   333 10253 20073 5////=
201906130600 AAXX 13064 67481 31978 10504 10173 20128 48/// 80001
                   333 10253 20118 5//// 81080=
201906101200 AAXX 10124 67481 NIL=
201906060600 AAXX 06064 67481 32980 13003 10172 20124 48/// 80001
                   333 10242 20102 5//// 81080=
201906050600 AAXX 05064 67481 32480 13002 10153 20116 48/// 81100
                   333 10230 20098 5//// 81810=
201906040600 AAXX 04064 67481 32980 13003 10145 20026 48/// 80001
                   333 10268 20122 5//// 81080=
201906031200 AAXX 03124 67481 NIL=
201906030600 AAXX 03064 67481 32980 13003 10166 20106 48/// 80001
                   333 10236 20098 5//// 81080=

################################################################################
#  SYNOPS from 67531, Zambezi (Zambia) | 13-32S | 023-07E | 1077 m
################################################################################
201906250600 AAXX 25064 67531 32980 00000 10092 20069 48///
                   333 10227 20045 58002
                   555 00050=
201906200600 AAXX 20064 67531 32980 01003 10106 20076 48///
                   333 10265 20075 59013
                   555 00060=
201906190900 AAXX 19094 67531 42980 01503 10222 20083 48///
                   333 58003=
201906180600 AAXX 18064 67531 32980 01002 10105 20069 48///
                   333 10266 20071 58007
                   555 00065=
201906101200 AAXX 10124 67531 NIL=
201906050900 AAXX 05094 67531 42980 10910 10236 20083 48/// 80001
                   333 59012 81081=
201906050600 AAXX 05064 67531 32980 00903 10127 20082 48///
                   333 10255 20072 59012
                   555 00056=
201906031200 AAXX 03124 67531 42980 01610 10265 20042 48///
                   333 58021=
201906030900 AAXX 03094 67531 42980 01408 10246 20037 48///
                   333 58021=
201906030600 AAXX 03064 67531 32980 01003 10130 20067 48///
                   333 10275 20061 58014
                   555 00042=

################################################################################
#  SYNOPS from 67541, Kasempa (Zambia) | 13-32S | 025-51E | 1234 m
################################################################################
201906250600 AAXX 25064 67541 32980 20000 10095 20065 48/// 80002
                   333 10270 20018 5//// 82080=
201906200600 AAXX 20064 67541 32980 00000 10145 20089 48///
                   333 10206 20072 5////
                   555 00///=
201906190900 AAXX 19094 67541 42980 10905 10217 20085 48/// 80001
                   333 5//// 81080=
201906180600 AAXX 18064 67541 32980 10000 10125 20088 48/// 81030
                   333 10260 20060 5//// 81360
                   555 00///=
201906130600 AAXX 13064 67541 32980 20000 10110 20087 48/// 80002
                   333 10260 20058 5//// 82080=
201906120600 AAXX 12064 67541 32980 10000 10115 20086 48/// 80001
                   333 10250 20040 5//// 81080=
201906110900 AAXX 11094 67541 42680 20710 10210 20085 48/// 81101
                   333 5//// 81848 81080=
201906110600 AAXX 11064 67541 32980 10000 10150 20093 48/// 80001
                   333 10298 20084 5//// 81080
                   555 00///=
201906101200 AAXX 10124 67541 42780 20803 10250 20105 48/// 82100
                   333 5//// 82856=
201906031200 AAXX 03124 67541 NIL=
201906030600 AAXX 03064 67541 NIL=

################################################################################
#  SYNOPS from 67543, Kabompo (Zambia) | 13-36S | 024-12E | 1075 m
################################################################################
201906101200 AAXX 10124 67543 NIL=
201906031200 AAXX 03124 67543 NIL=
201906030600 AAXX 03064 67543 NIL=

################################################################################
#  SYNOPS from 67551, Solwezi (Zambia) | 12-11S | 026-23E | 1386 m
################################################################################
201906250600 AAXX 25064 67551 31970 01003 10126 20076 48508 70500
                   333 10238 20053 59001 91022=
201906200600 AAXX 20064 67551 31970 01505 10114 20091 48557 70500
                   333 10236 20074 59015
                   555 00/// 91024=
201906180600 AAXX 18064 67551 32980 01205 10111 20080 48565
                   333 10224 20070 59006
                   555 00/// 91026=
201906120600 AAXX 12064 67551 32980 01203 10115 20080 48564
                   333 10231 20073 58004 91025=
201906101200 AAXX 10124 67551 NIL=
201906031200 AAXX 03124 67551 NIL=
201906030600 AAXX 03064 67551 NIL=

################################################################################
#  SYNOPS from 67561, Ndola (Zambia) | 13-00S | 028-39E | 1269 m
################################################################################
201906200600 AAXX 20064 67561 31959 00000 10152 20111 48568 70400
                   333 10245 20099 59011
                   555 00/// 91025=
201906180600 AAXX 18064 67561 31960 00906 10140 20073 48573 70500
                   333 10242 20100 59008
                   555 00/// 9////=
201906130600 AAXX 13064 67561 31956 00000 10135 20116 48574 74100
                   333 10259 20125 58003 91026=
201906101200 AAXX 10124 67561 NIL=
201906040600 AAXX 04064 67561 31959 00000 10136 20065 48565 72840
                   333 10233 20062 58007 91025=
201906031200 AAXX 03124 67561 NIL=
201906030600 AAXX 03064 67561 31958 50000 10146 20087 48559 70422 85030
                   333 10225 20072 58006 85360 91024=

################################################################################
#  SYNOPS from 67563, Kafironda (Zambia) | 12-36S | 028-07E | 1243 m
################################################################################
201906250600 AAXX 25064 67563 31970 00601 10100 20078 48/// 70500
                   333 10274 20030 58002
                   555 00025=
201906200600 AAXX 20064 67563 31970 01802 10125 20098 48/// 70500
                   333 10260 20030 5////
                   555 00025=
201906101200 AAXX 10124 67563 NIL=
201906060600 AAXX 06064 67563 31970 00602 10125 20088 48/// 70500
                   333 10260 20035 5////
                   555 00025=
201906040600 AAXX 04064 67563 31970 00000 10145 20088 48/// 70500
                   333 10258 20022 58004
                   555 00010=
201906031200 AAXX 03124 67563 NIL=
201906030600 AAXX 03064 67563 11970 01402 10128 20090 48/// 70500
                   333 10272 20028 58007
                   555 00020=

################################################################################
#  SYNOPS from 67571, Serenje (Zambia) | 13-14S | 030-13E | 1384 m
################################################################################
201906250600 AAXX 25064 67571 32980 10903 10177 20086 48/// 70500 81030
                   333 10233 20111 5//// 81360=
201906200600 AAXX 20064 67571 11277 80904 10120 20092 48/// 69904 70552 887//
                   333 10224 20109 5//// 88705
                   555 00///=
201906180600 AAXX 18064 67571 32980 00903 10136 20080 48/// 70500
                   333 10212 20079 5////
                   555 00///=
201906130600 AAXX 13064 67571 32978 01206 10257 20099 48/// 70500
                   333 10235 20119=
201906120600 AAXX 12064 67571 32980 00605 10149 20090 48/// 70500
                   333 10208 20118 5////=
201906110900 AAXX 11094 67571 42580 70604 10160 20086 48/// 70522 875//
                   333 5//// 87625=
201906110600 AAXX 11064 67571 12478 40906 10130 20093 48/// 70500 84500
                   333 10201 20075 5//// 84619
                   555 00///=
201906101200 AAXX 10124 67571 42581 40907 10180 20077 48/// 84500
                   333 5//// 84623=
201906050900 AAXX 05094 67571 42682 70905 10178 20096 48/// 875//
                   333 5//// 87360=
201906050600 AAXX 05064 67571 32980 01206 10152 20094 48/// 70500
                   333 10204 20094 5////=
201906040600 AAXX 04064 67571 32480 20605 10143 20096 48/// 82530
                   333 10199 20083 5//// 82616 81360=
201906031200 AAXX 03124 67571 42680 70904 10180 20084 48/// 70522 8153/
                   333 5//// 81632 87360=
201906030900 AAXX 03094 67571 42580 60607 10168 20086 48/// 70522 86500
                   333 5//// 86620=
201906030600 AAXX 03064 67571 32980 70605 10153 20080 48/// 70522 8703/
                   333 10224 20089 5//// 87360=

################################################################################
#  SYNOPS from 67575, Mkushi (Zambia) | 13-38-00S | 029-26-00E | 1237 m
################################################################################
201906101200 AAXX 10124 67575 NIL=
201906040600 AAXX 04064 67575 31475 10901 10137 20065 48525 70500 81100
                   333 10235 20030 58006 81815
                   555 00039=
201906031200 AAXX 03124 67575 NIL=
201906030600 AAXX 03064 67575 NIL=

################################################################################
#  SYNOPS from 67580, Msekera (Zambia) | 13-39S | 032-34E | 1025 m
################################################################################
201906250600 AAXX 25064 67580 32980 71004 10205 20138 48/// 8703/
                   333 10280 20156 58008 87358=
201906200600 AAXX 20064 67580 32480 11607 10157 20083 48/// 81130
                   333 10253 20120 59006 81818 81362
                   555 00///=
201906180600 AAXX 18064 67580 32980 10000 10166 20116 48/// 81030
                   333 10272 20106 59009 81360
                   555 00///=
201906130600 AAXX 13064 67580 32580 41504 10192 20139 48/// 84500
                   333 10286 20134 59007 84620=
201906120600 AAXX 12064 67580 32580 11203 10182 20130 48/// 81100
                   333 10268 20118 58007 81820=
201906110900 AAXX 11094 67580 42680 21203 10225 20109 48/// 82100
                   333 59010 82835=
201906110600 AAXX 11064 67580 32480 10903 10159 20121 48/// 81100
                   333 10252 20108 5//// 81818
                   555 00///=
201906101200 AAXX 10124 67580 NIL=
201906050900 AAXX 05094 67580 42675 22006 10230 20130 48/// 82130
                   333 59016 82835 81360=
201906050600 AAXX 05064 67580 31575 11203 10178 20133 48/// 70500 81130
                   333 10242 20137 5//// 81820 81360=
201906040600 AAXX 04064 67580 31475 71208 10180 20122 48/// 70521 875//
                   333 10244 20092 5//// 87618=
201906031200 AAXX 03124 67580 NIL=
201906030900 AAXX 03094 67580 41675 21504 10210 20093 48/// 70500 82100
                   333 5//// 82835=
201906030600 AAXX 03064 67580 31575 10000 10160 20116 48/// 70500 81100
                   333 10260 20110 58007 81825=

################################################################################
#  SYNOPS from 67581, Chipata (Zambia) | 13-33S | 032-35E | 1028 m
################################################################################
201906250600 AAXX 25064 67581 32980 51402 10188 20126 48560 85030
                   333 10264 20162 59007 85360 91022=
201906200600 AAXX 20064 67581 32980 01606 10161 20//0 48581
                   333 10246 20132 59009
                   555 00/// 91026=
201906180600 AAXX 18064 67581 32980 31204 10184 20100 48593 83030
                   333 10250 59009 83360
                   555 00/// 91027=
201906130600 AAXX 13064 67581 32980 30607 10213 20113 48594 83030
                   333 10270 20144 59007 83360 91026=
201906120600 AAXX 12064 67581 32980 20806 10194 20113 48597
                   333 10256 20138 58005 91027=
201906101200 AAXX 10124 67581 NIL=
201906031200 AAXX 03124 67581 NIL=
201906030600 AAXX 03064 67581 32980 01705 10173 20078 48573
                   333 10267 20104 58009 91024=

################################################################################
#  SYNOPS from 67583, Lundazi (Zambia) | 12-17S | 033-12E | 1143 m
################################################################################
201906250600 AAXX 25064 67583 31956 10000 10140 20124 48/// 70500 80001
                   333 10288 2//// 5//// 81080=
201906200600 AAXX 20064 67583 31957 11802 10132 20114 48/// 70500 81030
                   333 10274 20//0 81359
                   555 00///=
201906190900 AAXX 19094 67583 41660 51001 10238 20126 48/// 70522 83130
                   333 5//// 83830 82360=
201906180600 AAXX 18064 67583 31560 11803 10164 20132 48/// 70500 81500
                   333 10270 20//0 5//// 81625
                   555 00///=
201906130600 AAXX 13064 67583 31957 01602 10165 20143
                   333 10284 2//// 5////=
201906120600 AAXX 12064 67583 31458 11802 10168 20138 48/// 70500 81630
                   333 10270 2//// 5//// 81710 81360=
201906101200 AAXX 10124 67583 NIL=
201906031200 AAXX 03124 67583 NIL=
201906030600 AAXX 03064 67583 31959 02702 10132 20113 48/// 70500
                   333 10268 2//// 5////=

################################################################################
#  SYNOPS from 67599, Mfuwe (Zambia) | 13-16S | 031-56E | 568 m
################################################################################
201906250600 AAXX 25064 67599 32980 51402 10191 20114 48548 85030
                   333 10310 20121 58006 85359
                   555 00150 91021=
201906200600 AAXX 20064 67599 32980 01607 10186 20087 48580
                   333 10294 20112 58002
                   555 00149 91025=
201906180600 AAXX 18064 67599 32980 41303 10188 20100 48588 84030
                   333 10300 20100 59010 84359
                   555 00116 91025=
201906130600 AAXX 13064 67599 32980 21504 10188 20120 48582 82030
                   333 10320 20096 59010 82360
                   555 00116 91025=
201906120600 AAXX 12064 67599 32980 00000 10180 20123 48588
                   333 10300 20100 58011
                   555 00125 91026=
201906110600 AAXX 11064 67599 32980 00000 10188 20132 48581
                   333 10298 20090 555 00105 91025=
201906101200 AAXX 10124 67599 NIL=
201906060600 AAXX 06064 67599 32980 00000 10180 20120 48557
                   333 10300 20095 59003
                   555 00120 91022=
201906031200 AAXX 03124 67599 NIL=
201906030600 AAXX 03064 67599 32980 11404 10176 20114 48562 81030
                   333 10300 20100 58002 81360
                   555 00100 91023=

################################################################################
#  SYNOPS from 67625, Kalabo (Zambia) | 14-51S | 022-42E | 1033 m
################################################################################
201906250600 AAXX 25064 67625 32982 01206 10145 20068 48///
                   333 10277 20105 58000=
201906200600 AAXX 20064 67625 32982 01206 10117 20070 48///
                   333 10255 20094 58000
                   555 00///=
201906190900 AAXX 19094 67625 42682 01019 10220 20057 48///
                   333 58009=
201906180600 AAXX 18064 67625 32982 01208 10119 20061 48///
                   333 10260 20095 58000
                   555 00///=
201906130600 AAXX 13064 67625 32982 01210 10126 20075 48///
                   333 10260 20096 58008=
201906120600 AAXX 12064 67625 32982 00906 10126 20075 48///
                   333 10212 20095 59001=
201906110900 AAXX 11094 67625 42982 00616 10230 20050 48///
                   333 59007=
201906110600 AAXX 11064 67625 32982 01107 10135 20086 48///
                   333 10260 20100 59008
                   555 00///=
201906101200 AAXX 10124 67625 42982 10914 10253 20091 48/// 81030
                   333 5//// 81360=
201906050900 AAXX 05094 67625 42982 01013 10235 20072 48///
                   333 58003=
201906031200 AAXX 03124 67625 42982 01419 10275 20006 48///
                   333 5////=
201906030900 AAXX 03094 67625 42982 01022 10250 20019 48///
                   333 5////=
201906030600 AAXX 03064 67625 32982 01411 10140 20050 48///
                   333 10292 20106 58014=

################################################################################
#  SYNOPS from 67633, Mongu (Zambia) | 15-15S | 023-09E | 1052 m
################################################################################
201906200600 AAXX 20064 67633 32980 01002 10134 20069 48567
                   333 10266 20092 59010
                   555 00/// 91025=
201906190900 AAXX 19094 67633 42980 01005 10223 20049 48559
                   333 58005 91027=
201906180600 AAXX 18064 67633 32980 00903 10140 20057 48574
                   333 10264 20095 58005
                   555 00/// 91026=
201906130600 AAXX 13064 67633 32980 01002 10146 20075 48575
                   333 10265 20108 58018 91026=
201906101200 AAXX 10124 67633 NIL=
201906050900 AAXX 05094 67633 42980 00804 10245 20084 48567
                   333 59025 91023=
201906050600 AAXX 05064 67633 32980 00904 10138 20070 48546
                   333 10275 20104 59019 91022=
201906031200 AAXX 03124 67633 NIL=
201906030600 AAXX 03064 67633 32980 00904 10143 20060 48559
                   333 10296 20108 58000 91024=

################################################################################
#  SYNOPS from 67641, Kaoma (Zambia) | 14-48S | 024-48E | 1213 m
################################################################################
201906250600 AAXX 25064 67641 31980 00000 10082 20063 48521 70500
                   333 10280 20080 58011 91022=
201906190900 AAXX 19094 67641 41975 01111 10222 20072 48589 70500
                   333 58006 91026=
201906180600 AAXX 18064 67641 31965 00000 10104 20068 48560 70500
                   333 10264 20068 59011
                   555 00/// 91025=
201906170900 AAXX 17094 67641 42980 01307 10220 20071 48587
                   333 91025=
201906120600 AAXX 12064 67641 31958 00603 10187 20169 48573 70500
                   333 10260 20060 58009 91024=
201906101200 AAXX 10124 67641 NIL=
201906060900 AAXX 06094 67641 42980 01105 10250 20103 48555
                   333 59001 91022=
201906031200 AAXX 03124 67641 NIL=
201906030600 AAXX 03064 67641 32980 01403 10098 20065 48547
                   333 10280 20048 58017 91023=

################################################################################
#  SYNOPS from 67655, Mumbwa (Zambia) | 15-04S | 027-11E | 1216 m
################################################################################
201906200600 AAXX 20064 67655 32980 10907 10134 20092 48578 81030
                   333 10250 20085 59008 81360
                   555 00/// 91026=
201906120600 AAXX 12064 67655 32980 30810 10161 20095 48594 83030
                   333 10270 20098 58004 83360 91026=
201906110600 AAXX 11064 67655 32980 00910 10132 20034 48569
                   333 10235 20081 59012
                   555 91026=
201906101200 AAXX 10124 67655 NIL=
201906050600 AAXX 05064 67655 32980 00000 10120 20075 48563
                   333 10235 20067 59004 91024=
201906031200 AAXX 03124 67655 NIL=
201906030600 AAXX 03064 67655 32980 01006 10135 20068 48584
                   333 10274 20061 58021 91025=

################################################################################
#  SYNOPS from 67659, Kafue Polder (Zambia) | 15-46S | 027-55E | 978 m
################################################################################
201906200600 AAXX 20064 67659 32480 30904 10169 20118 48/// 81530
                   333 10249 20054 59008 81615 82360
                   555 00///=
201906180600 AAXX 18064 67659 32480 11404 10164 20110 48/// 81100
                   333 10241 20050 5//// 81820
                   555 00///=
201906101200 AAXX 10124 67659 NIL=
201906060600 AAXX 06064 67659 32975 00903 10145 20087 48/// 70500
                   333 10268 20069 59007=
201906050600 AAXX 05064 67659 32975 01204 10150 20094 48/// 70500
                   333 10251 20060 59010=
201906031200 AAXX 03124 67659 NIL=
201906030600 AAXX 03064 67659 32980 01206 10168 20084 48///
                   333 10260 20060 58017=

################################################################################
#  SYNOPS from 67662, Kabwe Agric (Zambia) | 14-24S | 028-30E | 1165 m
################################################################################
201906250600 AAXX 25064 67662 32980 60000 10139 20088 86030
                   333 10256 20036 5//// 86360=
201906200600 AAXX 20064 67662 32980 71402 10127 20096 48/// 87300
                   333 10225 20042 87360
                   555 00///=
201906180600 AAXX 18064 67662 32980 00000 10135 20074 48///
                   333 10235 20024 555 00///=
201906101200 AAXX 10124 67662 NIL=
201906060600 AAXX 06064 67662 32980 00000 10142 20095 48///
                   333 10250 20018 5////=
201906040600 AAXX 04064 67662 32980 00000 10146 20065 48///
                   333 10232 20004 5////=
201906031200 AAXX 03124 67662 NIL=
201906030600 AAXX 03064 67662 32980 1//// 10166 20087 48/// 80001
                   333 10250 20018 5//// 81080=

################################################################################
#  SYNOPS from 67663, Kabwe (Zambia) | 14-27S | 028-28E | 1206 m
################################################################################
201906200600 AAXX 20064 67663 32480 50808 10123 20097 48580 85500
                   333 10226 20090 58000 85619
                   555 00152=
201906180600 AAXX 18064 67663 32980 00808 10141 20074 48///
                   333 10227 20086 58004
                   555 00192=
201906101200 AAXX 10124 67663 NIL=
201906040600 AAXX 04064 67663 32980 01209 10151 20066 48568
                   333 10226 20071 58012=
201906031200 AAXX 03124 67663 NIL=
201906030600 AAXX 03064 67663 NIL=

################################################################################
#  SYNOPS from 67665, Lusaka Internationalairport (Zambia) | 15-19S | 028-27E | 1152 m
################################################################################
201907010600 AAXX 01064 67665 32980 01403 10149 20094 48562 70200
                   333 10244 20//0 59016
                   555 00///=
201907010000 AAXX 01004 67665 42980 01502 10105 20064 48548 70200
                   333 59006=
201906302100 AAXX 30214 67665 42980 01802 10124 20065 48550 70200
                   333 59003=
201906301800 AAXX 30184 67665 42980 01203 10162 20065 48560 70200
                   333 10244 59004=
201906301500 AAXX 30154 67665 42980 20407 10228 20032 48559 70200 80001
                   333 58001 81080=
201906300900 AAXX 30094 67665 42980 00608 10214 20039 48589 70200
                   333 58000=
201906300600 AAXX 30064 67665 32980 01112 10129 20073 48574 70200
                   333 10244 58006 91026=
201906291800 AAXX 29184 67665 42980 01605 10159 20050 48573 70200
                   333 10244 58002=
201906291500 AAXX 29154 67665 42980 01407 10227 20020 48557
                   333 59001 555 10244=
201906291200 AAXX 29124 67665 42980 42980 11106 10232 20040 48555 70100 81030
                   333 58001 81030=
201906290900 AAXX 29094 67665 42580 20708 10206 20040 48589 70200 81103
                   333 59009=
201906290600 AAXX 29064 67665 32980 09902 10126 20077 48568 70200
                   333 10239 20//0 59012
                   555 00/// 91025=
201906290000 AAXX 29004 67665 42980 09903 10080 20048 48554 70200
                   333 59006 91024=
201906281500 AAXX 28154 67665 42980 21306 10224 20042 48555 70300 82060
                   333 59016 82360 555 10239 91022=
201906281200 AAXX 28124 67665 42680 41807 10225 20044 48564 70211 84500
                   333 59012 84645 91023=
201906280900 AAXX 28094 67665 42580 30907 10208 20057 48597 83130
                   333 59001 83825 81360=
201906280600 AAXX 28064 67665 42980 11402 10135 20078 48581 81030
                   333 10233 20//0 59002 81360=
201906280300 AAXX 28034 67665 42980 10082 20062 48558
                   333 58001=
201906280000 AAXX 28004 67665 42980 01901 10110 20061 48564
                   333 58005=
201906272100 AAXX 27214 67665 42980 01802 10103 20063 48570
                   333 58014=
201906271800 AAXX 27184 67665 42980 41503 10153 20068 48573 84030
                   333 58007 84360=
201906270900 AAXX 27094 67665 42680 50909 10196 20088 48597 70310 85200
                   333 58012 85835=
201906270600 AAXX 27064 67665 32980 01106 10137 20111 48583 70200
                   333 58008=
201906270300 AAXX 27034 67665 42980 01502 10102 20058 48561 70200
                   333 58011=
201906270000 AAXX 27004 67665 42980 01702 10104 20046 48558 70200
                   333 58016=
201906262100 AAXX 26214 67665 42980 21503 10130 20050 48572 70100 82030
                   333 58023 82360=
201906252100 AAXX 25214 67665 42980 51403 10130 20070 48551 70222 85030
                   333 58007 85360=
201906251800 AAXX 25184 67665 42980 31005 10174 20075 48553 70200 83030
                   333 58011 83360=
201906251500 AAXX 25154 67665 42780 61011 10222 20067 48548 70322 86500
                   333 58014 86650=
201906251200 AAXX 25124 67665 42680 51310 10231 20066 48551 70222 85500
                   333 58013 85640=
201906250900 AAXX 25094 67665 42480 31106 10226 20058 48574 83130
                   333 58011 83825 81360=
201906250300 AAXX 25034 67665 42980 00000 10107 20065 48534 70200
                   333 58005=
201906250000 AAXX 25004 67665 42980 01802 10119 20070 48534 70200
                   333 58008=
201906241800 AAXX 24184 67665 42980 41302 10184 20045 48544 70200 84030
                   333 58001 84360 83080=
201906241500 AAXX 24154 67665 42980 40403 10249 20039 48538 70100 84030
                   333 59004 84360=
201906241200 AAXX 24124 67665 42680 51204 10247 20036 48541 70222 85130
                   333 59008 85835 83360=
201906240900 AAXX 24094 67665 42580 51402 10224 20055 48562 70300 82102
                   333 59006 83825 83080=
201906240600 AAXX 24064 67665 32980 32980 60803 10125 20076 48544 70221 81038
                   333 10244 20/// 59006 81360 85280
                   555 00/// Q1022.9=
201906231800 AAXX 23184 67665 42980 01102 10170 20065 48533
                   333 10244 59016=
201906231500 AAXX 23154 67665 42980 21006 10232 20088 48535 81032
                   333 59004 81360 82080
                   555 10244=
201906231200 AAXX 23124 67665 42680 41307 10221 20058 48545 84200
                   333 59013 84845=
201906230900 AAXX 23094 67665 42980 50907 10221 20076 48565 70222
                   333 59014=
201906230600 AAXX 23064 67665 32980 01202 10145 20083 48552 70200
                   333 10234 59019=
201906221800 AAXX 22184 67665 42980 41204 10182 20092 48559 70211 84030
                   333 10234 59013 84360 91023=
201906221500 AAXX 22154 67665 42980 50609 10212 20075 48550 70322 85060
                   333 59015 85360 555 10234 91022=
201906221200 AAXX 22124 67665 42680 50810 10221 20074 48557 70221 85500
                   333 59016 85645 91023=
201906220900 AAXX 22094 67665 42680 40614 10195 20088 48578 84500
                   333 59020 84630=
201906220300 AAXX 22034 67665 42980 11303 10089 20068 48552 81030
                   333 59018 81360=
201906210900 AAXX 21094 67665 42680 51310 10190 20056 48596 70311 85500
                   333 59002 91028=
201906210600 AAXX 21064 67665 32980 01204 10129 20048 48583 70200
                   333 10230 20//0 59002=
201906210300 AAXX 21034 67665 42980 01202 10078 20026 48567 70200
                   333 58001=
201906210000 AAXX 21004 67665 42980 01902 10094 20043 48568 70200
                   333 58000=
201906202100 AAXX 20214 67665 42980 01602 10095 20046 48575 70200
                   333 59001=
201906201800 AAXX 20184 67665 42980 01102 10128 20035 48577
                   333 59008=
201906201500 AAXX 20154 67665 42980 01109 10206 20025 48574
                   333 59009=
201906201200 AAXX 20124 67665 42680 11406 10215 20025 48577 81500
                   333 59014 81640=
201906200600 AAXX 20064 67665 32980 11104 10114 20085 48581 70200 81030
                   333 10228 59007 81360=
201906200300 AAXX 20034 67665 42980 00000 10088 20068 48569 70200
                   333 59004=
201906191800 AAXX 19184 67665 42980 21102 10143 20081 48586 70200 82030
                   333 58007 82360=
201906191500 AAXX 19154 67665 42680 60911 10200 20070 48585 70122 86530
                   333 58005 86640 82360=
201906191200 AAXX 19124 67665 42580 70911 10206 20071 48589 70222 86530
                   333 58009 86630 83360=
201906190600 AAXX 19064 67665 32980 69903 10114 20074 48588 70311 86030
                   333 10235 20//0 58005 86360
                   555 91028=
201906181800 AAXX 18184 67665 42980 01304 10151 20065 48581 70200
                   333 10235 59002=
201906180900 AAXX 18094 67665 42580 30913 10204 20056 48603 70300 83500
                   333 59011 83625=
201906180600 AAXX 18064 67665 32980 11205 10125 20076 48586 70300 81030
                   333 10230 20//0 59011 81360
                   555 00///=
201906180300 AAXX 18034 67665 42980 01602 10090 20048 48569 70200
                   333 59005=
201906180000 AAXX 18004 67665 42980 01603 10093 20051 48569 70200
                   333 59001=
201906172100 AAXX 17214 67665 42980 01703 10101 20053 48579
                   333 70200 59002=
201906171800 AAXX 17184 67665 42980 00904 10142 20054 48581
                   333 10230 59002=
201906171500 AAXX 17154 67665 42980 10910 10215 20041 48560 81030
                   333 58000 81360 555 10230=
201906171200 AAXX 17124 67665 42680 40911 10218 20056 48594 84500
                   333 58012 84640=
201906170900 AAXX 17094 67665 42580 50714 10200 20082 48613 70322 85500
                   333 58009 85625=
201906170600 AAXX 17064 67665 32980 01105 10132 20081 48597 70200
                   333 10235 58009 91029=
201906160900 AAXX 16094 67665 42680 20812 10191 20083 48603 82100
                   333 59002 82830=
201906160600 AAXX 16064 67665 32980 61206 10139 20103 48590 86030
                   333 10212 20//0 58000 86359=
201906160300 AAXX 16034 67665 42380 61205 10123 20103 48572 81630
                   333 58000 81706 86359=
201906160000 AAXX 16004 67665 42980 71102 10132 20106 48575 8703/
                   333 59002 87359=
201906152100 AAXX 15214 67665 42980 31103 10123 20097 48582 83030
                   333 59002 83359=
201906151800 AAXX 15184 67665 42980 31206 10141 20095 48580 83030
                   333 59008 83358=
201906150900 AAXX 15094 67665 42480 71207 10173 20103 48564 70122 875//
                   333 59002 87612 91029=
201906150600 AAXX 15064 67665 32480 40903 10118 20074 48587 70300 84500
                   333 10230 20//0 59005 84612=
201906150300 AAXX 15034 67665 42980 11105 10085 20051 48568 70300 81030
                   333 59005 81360=
201906150000 AAXX 15004 67665 42980 01303 10100 20036 48572 70200
                   333 58006=
201906142100 AAXX 14214 67665 42980 01402 10102 20034 48581 70200
                   333 58005=
201906140900 AAXX 14094 67665 42680 51117 10212 20058 48610 70300 85530
                   333 58009 91028=
201906131800 AAXX 13184 67665 42980 11404 10161 20077 48579 70200 81030
                   333 58008 81360=
201906131500 AAXX 13154 67665 42980 11008 10230 20025 48575 70200 81030
                   333 58005 81360=
201906131200 AAXX 13124 67665 42580 31206 10247 20036 48581 70200 83100
                   333 58006 83825=
201906130600 AAXX 13064 67665 32980 31402 10166 20094 48589 70100 83030
                   333 10242 20//0 59001 83360
                   555 00///=
201906130300 AAXX 13034 67665 43980 51206 10138 20092 48573 85030
                   333 58002 85360=
201906130000 AAXX 13004 67665 42980 51502 10126 20078 48566 85030
                   333 59005 85360=
201906122100 AAXX 12214 67665 42980 51404 10141 20076 48570 70322 85030
                   333 59008 85360=
201906121800 AAXX 12184 67665 42980 11306 10174 20080 48572 70100 81030
                   333 59006 81360=
201906121500 AAXX 12154 67665 42680 41205 10200 20069 48566 70200 84500
                   333 59002 84646=
201906121200 AAXX 12124 67665 42680 60811 10211 20084 48571 70222 86500
                   333 59001 86635=
201906120900 AAXX 12094 67665 42580 40910 10192 20091 48595 70300 84500
                   333 58027 84628=
201906120000 AAXX 12004 67665 42980 51502 10126 20078 48566 85030
                   333 59005 85360=
201906111800 AAXX 11184 67665 42980 01004 10156 20071 48577 70200
                   333 10244 59008=
201906111200 AAXX 11124 67665 42680 10711 10231 20045 48575 81100
                   333 59013 81845=
201906110900 AAXX 11094 67665 42480 50913 10206 20079 48906 70122 85500
                   333 59016 85620=
201906110600 AAXX 11064 67665 32980 11204 10122 20084 48581 70200 81030
                   333 10128 20//0 59014 91027=
201906101500 AAXX 10154 67665 42780 41012 10211 20048 48580 70122 84500
                   333 59016 84650 555 10227 91025=
201906101200 AAXX 10124 67665 NIL=
201906100900 AAXX 10094 67665 42580 60813 10186 20098 48609 70222 86500
                   333 59002 86625=
201906091800 AAXX 09184 67665 42980 10807 10154 20070 48595 70200 81030
                   333 58012 81360 91028=
201906091200 AAXX 09124 67665 34268 30715 10232 20070 48599 70122 84500
                   333 58013 84540 91027=
201906090900 AAXX 09094 67665 45580 70916 10217 20082 48617 70200 87500
                   333 58014 87625 91030=
201906090600 AAXX 09064 67665 32380 10149 20124 48606 85600
                   333 10267 20//0 58017 85708=
201906090300 AAXX 09034 67665 42980 01103 10115 20096 48587
                   333 58020=
201906090000 AAXX 09004 67665 42980 01504 10121 20094 48584
                   333 58023=
201906082100 AAXX 08214 67665 42980 01801 10117 20078 48587
                   333 58023=
201906081800 AAXX 08184 67665 42980 01602 10173 20057 48590
                   333 58021=
201906081500 AAXX 08154 67665 42680 10809 10253 20046 48584 81100
                   333 58019 81848=
201906081200 AAXX 08124 67665 42680 31305 10249 20056 48589 83100
                   333 58024 83838=
201906080600 AAXX 08064 67665 32980 01404 10160 20098 48590 70200
                   333 10281 20//0 58024=
201906080000 AAXX 08004 67665 42980 00000 10113 20040 48561 70200
                   333 58026=
201906071800 AAXX 07184 67665 42980 01004 10172 20029 48567 70200
                   333 58014=
201906071500 AAXX 07154 67665 42980 00910 10252 21022 48565 70200
                   333 58033=
201906071200 AAXX 07124 67665 42980 00813 10269 21039 48568 70200
                   333 58008=
201906070600 AAXX 07064 67665 32980 01402 10158 20046 48567 70200
                   333 10274 20//0 58004
                   555 00///=
201906070300 AAXX 07034 67665 42980 00000 10100 20048 48539
                   333 59001=
201906070000 AAXX 07004 67665 42980 00000 10107 20043 48537
                   333 59007=
201906062100 AAXX 06214 67665 42980 00000 10138 20058 48548 70200
                   333 59005=
201906061800 AAXX 06184 67665 42980 01601 10155 20058 48552
                   333 58004=
201906061500 AAXX 06154 67665 42980 00207 10252 20044 48551
                   333 58004=
201906061200 AAXX 06124 67665 42980 01009 10269 21008 48560
                   333 58000=
201906060900 AAXX 06094 67665 42980 00506 10227 20046 48576 70200
                   333 59008=
201906060600 AAXX 06064 67665 32980 09901 10147 20081 48562 70200
                   333 10256 20//0 59007 91024=
201906052100 AAXX 05214 67665 42980 02002 10131 20073 48552 70200
                   333 59015 91023=
201906051800 AAXX 05184 67665 42980 01403 10158 20074 48554 70200
                   333 10256 59019=
201906051500 AAXX 05154 67665 42980 00808 10241 20055 48544 70100
                   333 58019 555 10256=
201906051200 AAXX 05124 67665 42780 11006 10246 20048 48553 70100 81100
                   333 59016 81850=
201906050900 AAXX 05094 67665 42580 21108 10211 20087 48581 70200 82100
                   333 59011 82830=
201906050600 AAXX 05064 67665 32980 01304 10158 20088 48570 70200
                   333 10244 20//0 59010 91025=
201906041500 AAXX 04154 67665 42780 11208 10227 20046 48562 70100 81100
                   333 59006 81856 555 10244 91023=
201906040900 AAXX 04094 67665 42680 30912 10206 20066 48592 83500
                   333 58001 83635=
201906031500 AAXX 03154 67665 42980 01408 10213 20037 48566 70100
                   333 58012=
201906031200 AAXX 03124 67665 NIL=
201906030900 AAXX 03094 67665 42680 61107 10201 20094 48589 70311 86200
                   333 58014 86840 91020=
201906030600 AAXX 03064 67665 NIL=
201906021500 AAXX 02154 67665 42980 01608 10225 20020 48557
                   333 58020=
201906021200 AAXX 02124 67665 42680 11311 10253 20033 48560 81100
                   333 58015 81840=
201906020600 AAXX 02064 67665 32980 01602 10145 20078 48565
                   333 10//0 20//0 58015=
201906012100 AAXX 01214 67665 42980 0//// 10//0 20//0 48///
                   333 58009=
201906011800 AAXX 01184 67665 42980 02002 10145 20045 48559
                   333 58014=
201906011500 AAXX 01154 67665 42980 11207 10230 20021 48537 80001
                   333 58004 81080=
201906010600 AAXX 01064 67665 42980 01303 10133 20065 48548 70200
                   333 59008=

################################################################################
#  SYNOPS from 67666, Lusaka City Airport (Zambia) | 15-25-00S | 028-28-00E | 1280 m
################################################################################
201906250600 AAXX 25064 67666 32980 01507 10174 20076 48554
                   333 10250 20103 58012 91023=
201906200600 AAXX 20064 67666 32480 10908 10125 20099 48579 81500
                   333 10212 20100 59010 81610
                   555 00/// 91026=
201906180600 AAXX 18064 67666 32980 01210 10134 20093 48581
                   333 10219 20098 59011
                   555 00/// 91026=
201906120600 AAXX 12064 67666 32980 00910 10141 20098 48581
                   333 10228 20115 59007 91027=
201906110600 AAXX 11064 67666 31980 00910 10130 20082 48561 70500
                   333 10220 20091 59017
                   555 00/// 91026=
201906101200 AAXX 10124 67666 42680 40910 10205 20076 48576 84200
                   333 59015 84830 91025=
201906060600 AAXX 06064 67666 32960 00905 10154 20089 48553
                   333 10248 20091 59009 91023=
201906050900 AAXX 05094 67666 42580 11009 10210 20085 48573 81100
                   333 59008 81825 91025=
201906050600 AAXX 05064 67666 32980 00905 10160 20086 48565
                   333 10230 20100 59010 91024=
201906040600 AAXX 04064 67666 32980 01207 10160 20069 48574
                   333 10220 20090 58002 91029=
201906031200 AAXX 03124 67666 NIL=
201906030600 AAXX 03064 67666 31970 00908 10154 20061 48572 70500
                   333 10234 20098 58009 91025=

################################################################################
#  SYNOPS from 67667, Mount Makulu (Zambia) | 15-33S | 028-15E | 1213 m
################################################################################
201906200600 AAXX 20064 67667 32580 21201 10138 20108 48622 82100
                   333 10249 20079 59006 82825
                   555 00///=
201906190900 AAXX 19094 67667 42680 61803 10197 20100 48630 86100
                   333 58004 86835=
201906180600 AAXX 18064 67667 32580 10906 10146 20098 48625 81100
                   333 10252 20115 59008 81825
                   555 00///=
201906170900 AAXX 17094 67667 42680 50906 10198 20089 48641 85100
                   333 5//// 85830=
201906130600 AAXX 13064 67667 32980 01001 10187 20095 48630
                   333 10243 20104 58001=
201906110600 AAXX 11064 67667 32580 10901 10150 20099 48627 81100
                   333 10242 20122 59011 81830
                   555 00///=
201906101200 AAXX 10124 67667 42680 51202 10204 20117 85100
                   333 5//// 85835=
201906060900 AAXX 06094 67667 42980 00902 10242 20085 48602
                   333 58003=
201906060600 AAXX 06064 67667 32980 00904 10170 20082 48598
                   333 10274 20110 59009=
201906051200 AAXX 05124 67667 42680 10902 10244 20110 48576 81100
                   333 59001=
201906050900 AAXX 05094 67667 42580 11204 10226 20092 48609 81100
                   333 59016 81830=
201906050600 AAXX 05064 67667 32980 01701 10170 20101 48608
                   333 10258 20065 59009=
201906040600 AAXX 04064 67667 32980 00802 10160 20080 48612
                   333 10242 20049 59002=
201906031200 AAXX 03124 67667 42680 10902 10218 20060 48594 81100
                   333 5//// 81835=
201906030600 AAXX 03064 67667 32680 11801 10158 20080 48616 81100
                   333 10262 20050 58017 81830=

################################################################################
#  SYNOPS from 67673, Petauke (Zambia) | 14-15S | 031-17E | 1035 m
################################################################################
201906250600 AAXX 25064 67673 32980 30000 10184 20130 48570 83030
                   333 10280 20125 59026 83360=
201906180600 AAXX 18064 67673 31960 11503 10164 20125 48570 70500 81030
                   333 10258 20110 59040 81360
                   555 00///=
201906130600 AAXX 13064 67673 32980 71502 10180 20130 48577 8703/
                   333 10264 87360=
201906120600 AAXX 12064 67673 32584 20804 10192 20127 48599 82100
                   333 10250 20120 5////=
201906101200 AAXX 10124 67673 NIL=
201906060600 AAXX 06064 67673 32980 00000 10200 20110 48554
                   333 10256 20120 59021=
201906050900 AAXX 05094 67673 42684 40909 10230 20110 48577 84130
                   333 59021 84832 82360=
201906050600 AAXX 05064 67673 32584 20802 10190 20122 48572 81130
                   333 10250 20120 59018 81825 82360=
201906031200 AAXX 03124 67673 NIL=
201906030600 AAXX 03064 67673 NIL=

################################################################################
#  SYNOPS from 67731, Senanga (Zambia) | 16-06S | 023-16E | 1027 m
################################################################################
201906200600 AAXX 20064 67731 32980 012// 10129 20062 48///
                   333 10262 20094 58002
                   555 00027=
201906180600 AAXX 18064 67731 32980 031// 10154 20081 48///
                   333 10269 20065 59002
                   555 00022=
201906120600 AAXX 12064 67731 32980 003// 10137 20056 48///
                   333 10265 20090 59005
                   555 00021=
201906101200 AAXX 10124 67731 NIL=
201906060600 AAXX 06064 67731 32980 006// 10194 20081 48///
                   333 10278 20079 59001
                   555 00031=
201906040600 AAXX 04064 67731 32980 009// 10151 20068 48///
                   333 10268 20079 5////
                   555 00025=
201906031200 AAXX 03124 67731 NIL=
201906030600 AAXX 03064 67731 32980 010// 10149 20069 48///
                   333 10298 20089 58021
                   555 00027=

################################################################################
#  SYNOPS from 67741, Sesheke (Zambia) | 17-28S | 024-18E | 949 m
################################################################################
201906250600 AAXX 25064 67741 32980 00000 10120 20//0 48///
                   333 10276 20044 5////=
201906200600 AAXX 20064 67741 32980 00901 10104 20//0 48///
                   333 10257 20019 5////
                   555 00///=
201906180600 AAXX 18064 67741 32980 00000 10136 20//0 48///
                   333 10264 20040 5////
                   555 00///=
201906130600 AAXX 13064 67741 32980 00000 10132 20//0 48///
                   333 10266 20056 5////=
201906120600 AAXX 12064 67741 32980 01301 10155 20//0 48///
                   333 10265 20039 5////=
201906110600 AAXX 11064 67741 32980 00901 10135 20//0 48///
                   333 10279 20048 5////
                   555 00///=
201906101200 AAXX 10124 67741 NIL=
201906060600 AAXX 06064 67741 32980 00000 10137 2//// 48///
                   333 10281 20031 5////=
201906050600 AAXX 05064 67741 32980 01401 10128 2//// 48///
                   333 10264 20038 5////=
201906031200 AAXX 03124 67741 NIL=
201906030600 AAXX 03064 67741 32980 01201 10160 2//// 48///
                   333 10286 20056 5////=

################################################################################
#  SYNOPS from 67743, Livingstone (Zambia) | 17-49S | 025-49E | 985 m
################################################################################
201906200600 AAXX 20064 67743 32980 01107 10126 20021 48584
                   333 10252 20072 58000
                   555 00/// 91028=
201906180600 AAXX 18064 67743 32980 00000 10117 20050 48575
                   333 10255 20064 59009
                   555 00/// 91027=
201906101200 AAXX 10124 67743 NIL=
201906040600 AAXX 04064 67743 32980 01704 10145 20034 48578
                   333 10260 20070 58002 91026=
201906031200 AAXX 03124 67743 NIL=
201906030600 AAXX 03064 67743 NIL=

################################################################################
#  SYNOPS from 67751, Magoye (Zambia) | 16-00S | 027-36E | 1018 m
################################################################################
201906200600 AAXX 20064 67751 32980 70904 10160 20089 87030
                   333 10//0 20067 58009 87360
                   555 00050=
201906180600 AAXX 18064 67751 32980 00000 10157 20090 48///
                   333 10//0 20067 555 00///=
201906120600 AAXX 12064 67751 32980 00403 10172 20100
                   333 10//0 20076 5////=
201906110600 AAXX 11064 67751 32980 00803 10166 20096 48///
                   333 10//0 20070 5////
                   555 00///=
201906101200 AAXX 10124 67751 NIL=
201906060600 AAXX 06064 67751 32980 00000 10136 20066 48///
                   333 1//// 20058 5////=
201906050600 AAXX 05064 67751 32980 00802 10153 20080 48///
                   333 1//// 20077 58014=
201906040600 AAXX 04064 67751 32980 00802 10148 20074 48///
                   333 1//// 20073 5////=
201906031200 AAXX 03124 67751 NIL=
201906030600 AAXX 03064 67751 32980 01803 10155 20082 48///
                   333 1//// 20063 5////=

################################################################################
#  SYNOPS from 67753, Choma (Zambia) | 16-50S | 027-04E | 1213 m
################################################################################
201906200600 AAXX 20064 67753 31580 10000 10110 20071 48578 70500 81500
                   333 10216 20066 59005 81620
                   555 00///=
201906110600 AAXX 11064 67753 31975 00000 10111 20084 48/// 70400
                   333 10224 20040 5////
                   555 00///=
201906101200 AAXX 10124 67753 NIL=
201906031200 AAXX 03124 67753 NIL=
201906030600 AAXX 03064 67753 NIL=

################################################################################
#  SYNOPS from 67855, Lupaki (Zambia) | 17-03-00S | 024-46-00E | 1000 m
################################################################################
201906300600 AAXX 30064 67855 32975 60901 10080 20040 38/// 48/// 80008
                   333 20036 5//// 86280=
201906291200 AAXX 29124 67855 42975 72303 10258 20025 3//// 48/// 80002
                   333 5//// 87080=
201906290600 AAXX 29064 67855 32975 70000 10080 20035 3//// 48/// 82032
                   333 20020 5//// 82360 86080=
201906280600 AAXX 28064 67855 32975 50000 10120 20083 3//// 48/// 85030
                   333 20092 5//// 85360=
201906271200 AAXX 27124 67855 42975 70501 10232 20094 3//// 48/// 8707/
                   333 5//// 87459=
201906261200 AAXX 26124 67855 42975 70302 10242 20093 3//// 48/// 875//
                   333 5//// 87459=
201906260600 AAXX 26064 67855 32975 70703 10180 20100 3//// 48/// 8707/
                   333 20076 5//// 87459=
201906250600 AAXX 25064 67855 32975 00000 10078 20058 3//// 48///
                   333 20043 5////=
201906241200 AAXX 24124 67855 42975 01801 10266 20065 3//// 48///
                   333 5////=
201906220600 AAXX 22064 67855 32975 00000 10096 20075 3//// 48///
                   333 20053 5////=
201906180600 AAXX 18064 67855 32975 00000 10070 20038 3//// 48///
                   333 20030 5////=
201906170600 AAXX 17064 67855 31970 00000 10080 20028 3//// 48/// 70500
                   333 20035 5////=
201906141200 AAXX 14124 67855 41670 60309 10248 20053 3//// 48/// 70511 86100
                   333 5//// 86840=
201906131200 AAXX 13124 67855 41970 01804 10260 20029 3//// 48/// 70500
                   333 5////=
201906130600 AAXX 13064 67855 31970 00201 10074 20030 3//// 48/// 70500
                   333 20042 5////=
201906111200 AAXX 11124 67855 41970 00607 10254 20065 3//// 48/// 70500
                   333 5////=
201906110600 AAXX 11064 67855 31970 01801 10098 20088 3//// 48/// 70500
                   333 20055 5////=
201906100600 AAXX 10064 67855 31970 00902 10096 20076 3//// 48/// 70500
                   333 20054 5////=
201906060600 AAXX 06064 67855 32975 01801 10070 21013 3//// 48///
                   333 20000 5////=
201906051200 AAXX 05124 67855 42975 00402 10270 20003 3//// 48///
                   333 5////=
201906050600 AAXX 05064 67855 32975 00901 10068 20020 3//// 48///
                   333 20025 5////=
201906040600 AAXX 04064 67855 32975 00000 10070 20048 3//// 48///
                   333 20030 5////=
201906031200 AAXX 03124 67855 42675 11808 10244 20043 3//// 48/// 81100
                   333 5//// 81830=
201906030600 AAXX 03064 67855 0//// 10273=
201906021200 AAXX 02124 67855 42975 01807 10260 21005 3//// 48///
                   333 5////=
201906020600 AAXX 02064 67855 31970 00000 10078 20030 3//// 48/// 70500
                   333 20030 5////=
201906010600 AAXX 01064 67855 32970 01801 10088 20040 3//// 48/// 70500
                   333 20050 5////=
