################################################################################
# Query made at 04/14/2022 12:17:48 UTC
# Country like Zamb*
# Time interval: from 08/01/2013 05:30  to 08/31/2013 06:30  UTC
################################################################################

################################################################################
#  SYNOPS from 67403, Kawambwa (Zambia) | 09-48S | 029-05E | 1323 m
################################################################################
201308310600 AAXX 31060 67403 NIL=
201308310300 AAXX 31034 67403 NIL=
201308301500 AAXX 30154 67403 NIL=
201308301200 AAXX 30121 67403 NIL=
201308300600 AAXX 30060 67403 NIL=
201308290900 AAXX 29094 67403 NIL=
201308290600 AAXX 29060 67403 NIL=
201308290300 AAXX 29034 67403 NIL=
201308290000 AAXX 29004 67403 NIL=
201308282100 AAXX 28214 67403 NIL=
201308281800 AAXX 28184 67403 NIL=
201308281200 AAXX 28120 67403 NIL=
201308280900 AAXX 28090 67403 NIL=
201308280600 AAXX 28064 67403 NIL=
201308271800 AAXX 27184 67403 NIL=
201308271500 AAXX 27154 67403 NIL=
201308271200 AAXX 27124 67403 NIL=
201308270900 AAXX 27094 67403 NIL=
201308270600 AAXX 27064 67403 NIL=
201308230600 AAXX 23064 67403 NIL=
201308221500 AAXX 22154 67403 NIL=
201308221200 AAXX 22120 67403 NIL=
201308220900 AAXX 22094 67403 NIL=
201308211800 AAXX 21184 67403 NIL=
201308211500 AAXX 21154 67403 NIL=
201308211200 AAXX 21124 67403 NIL=
201308210900 AAXX 21094 67403 NIL=
201308210600 AAXX 21064 67403 31970 21603 10163 20086 48550 70500 80001
                   333 10294 20/// 58005 82080=
201308202100 AAXX 20214 67403 NIL=
201308201800 AAXX 20184 67403 NIL=
201308201200 AAXX 20120 67403 NIL=
201308200600 AAXX 20064 67403 NIL=
201308200000 AAXX 20004 67403 NIL=
201308192100 AAXX 19214 67403 NIL=
201308191800 AAXX 19184 67403 NIL=
201308191500 AAXX 19154 67403 NIL=
201308191200 AAXX 19121 67403 NIL=
201308190900 AAXX 19094 67403 NIL=
201308190600 AAXX 19060 67403 NIL=
201308181800 AAXX 18184 67403 NIL=
201308181200 AAXX 18120 67403 NIL=
201308180600 AAXX 18060 67403 NIL=
201308171800 AAXX 17184 67403 NIL=
201308171200 AAXX 17121 67403 NIL=
201308170600 AAXX 17060 67403 NIL=
201308161200 AAXX 16120 67403 NIL=
201308160900 AAXX 16094 67403 NIL=
201308160600 AAXX 16064 67403 31970 00000 10190 20080 48540 70500
                   333 10305 20/// 59001=
201308151200 AAXX 15120 67403 NIL=
201308150900 AAXX 15094 67403 NIL=
201308150600 AAXX 15064 67403 31970 00000 10180 20040 48539 70500
                   333 10305 20/// 58004=
201308141500 AAXX 14154 67403 NIL=
201308141200 AAXX 14120 67403 NIL=
201308140900 AAXX 14094 67403 NIL=
201308140600 AAXX 14060 67403 NIL=
201308131800 AAXX 13184 67403 NIL=
201308131500 AAXX 13154 67403 NIL=
201308131200 AAXX 13121 67403 NIL=
201308130600 AAXX 13064 67403 NIL=
201308121800 AAXX 12184 67403 NIL=
201308121200 AAXX 12120 67403 NIL=
201308120900 AAXX 12094 67403 NIL=
201308120600 AAXX 12064 67403 31975 21001 10160 20075 48556 70500 80001
                   333 10272 20//0 59004 82080=
201308120300 AAXX 12034 67403 NIL=
201308112100 AAXX 11214 67403 NIL=
201308111800 AAXX 11184 67403 NIL=
201308111200 AAXX 11121 67403 NIL=
201308110900 AAXX 11094 67403 NIL=
201308110600 AAXX 11060 67403 NIL=
201308110300 AAXX 11034 67403 NIL=
201308110000 AAXX 11004 67403 NIL=
201308102100 AAXX 10214 67403 NIL=
201308101800 AAXX 10184 67403 NIL=
201308101500 AAXX 10154 67403 NIL=
201308101200 AAXX 10121 67403 NIL=
201308100900 AAXX 10090 67403 NIL=
201308100600 AAXX 10060 67403 NIL=
201308100300 AAXX 10034 67403 NIL=
201308100000 AAXX 10004 67403 NIL=
201308092100 AAXX 09214 67403 NIL=
201308091800 AAXX 09184 67403 NIL=
201308091500 AAXX 09154 67403 NIL=
201308091200 AAXX 09120 67403 NIL=
201308090900 AAXX 09094 67403 NIL=
201308090600 AAXX 09061 67403 31975 01003 10188 20103 48540 70500
                   333 10305 20//0 58015=
201308090300 AAXX 09034 67403 NIL=
201308081800 AAXX 08184 67403 NIL=
201308081500 AAXX 08154 67403 NIL=
201308081200 AAXX 08120 67403 NIL=
201308080900 AAXX 08094 67403 NIL=
201308080600 AAXX 08061 67403 31975 2//// 10180 20095 48529 70500 80001
                   333 10286 20//0 59022 82080=
201308080300 AAXX 08034 67403 NIL=
201308072100 AAXX 07214 67403 NIL=
201308071800 AAXX 07184 67403 NIL=
201308071500 AAXX 07154 67403 NIL=
201308071200 AAXX 07120 67403 NIL=
201308070900 AAXX 07094 67403 NIL=
201308070600 AAXX 07061 67403 31975 70000 10160 20110 48546 70500 8703/
                   333 10278 20//0 59001 87362=
201308070300 AAXX 07034 67403 NIL=
201308070000 AAXX 07004 67403 NIL=
201308061800 AAXX 06184 67403 NIL=
201308061500 AAXX 06154 67403 NIL=
201308061200 AAXX 06120 67403 NIL=
201308060900 AAXX 06094 67403 NIL=
201308041500 AAXX 04154 67403 NIL=
201308041200 AAXX 04120 67403 NIL=
201308040600 AAXX 04060 67403 NIL=
201308040300 AAXX 04034 67403 NIL=
201308032100 AAXX 03214 67403 NIL=
201308031800 AAXX 03184 67403 NIL=
201308031500 AAXX 03154 67403 NIL=
201308031200 AAXX 03121 67403 NIL=
201308030900 AAXX 03094 67403 NIL=
201308030600 AAXX 03060 67403 NIL=
201308030300 AAXX 03034 67403 NIL=
201308021800 AAXX 02184 67403 NIL=
201308021200 AAXX 02124 67403 NIL=
201308020900 AAXX 02094 67403 NIL=
201308020600 AAXX 02064 67403 31975 31203 10140 20098 48573 70500 82031
                   333 10250 20/// 58002 82362 81080=
201308020300 AAXX 02034 67403 NIL=
201308012100 AAXX 01214 67403 NIL=
201308011800 AAXX 01184 67403 NIL=
201308011500 AAXX 01154 67403 NIL=
201308011200 AAXX 01121 67403 NIL=
201308010900 AAXX 01094 67403 NIL=
201308010600 AAXX 01064 67403 NIL=

################################################################################
#  SYNOPS from 67413, Mbala (Zambia) | 08-51S | 031-20E | 1673 m
################################################################################
201308310600 AAXX 31060 67413 NIL=
201308310300 AAXX 31034 67413 NIL=
201308301500 AAXX 30154 67413 NIL=
201308301200 AAXX 30121 67413 NIL=
201308300600 AAXX 30060 67413 NIL=
201308290900 AAXX 29094 67413 NIL=
201308290600 AAXX 29064 67413 32980 01115 10180 20090 48547
                   333 10280 20/// 59014 91025=
201308290300 AAXX 29034 67413 NIL=
201308290000 AAXX 29004 67413 NIL=
201308282100 AAXX 28214 67413 NIL=
201308281800 AAXX 28184 67413 NIL=
201308281200 AAXX 28120 67413 NIL=
201308280900 AAXX 28090 67413 NIL=
201308280600 AAXX 28064 67413 32980 01108 10165 20092 48562
                   333 10260 20/// 58000
                   555 00/// 91026=
201308271800 AAXX 27184 67413 NIL=
201308271500 AAXX 27154 67413 NIL=
201308271200 AAXX 27124 67413 NIL=
201308270900 AAXX 27094 67413 NIL=
201308270600 AAXX 27064 67413 NIL=
201308230600 AAXX 23064 67413 NIL=
201308221500 AAXX 22154 67413 NIL=
201308221200 AAXX 22120 67413 NIL=
201308220900 AAXX 22094 67413 NIL=
201308211800 AAXX 21184 67413 NIL=
201308211500 AAXX 21154 67413 NIL=
201308211200 AAXX 21124 67413 NIL=
201308210900 AAXX 21094 67413 NIL=
201308210600 AAXX 21064 67413 31978 40915 10155 20066 48550 70500 80001
                   333 10255 20/// 59004 84080 91025=
201308202100 AAXX 20214 67413 NIL=
201308201800 AAXX 20184 67413 NIL=
201308201200 AAXX 20120 67413 NIL=
201308200600 AAXX 20064 67413 31978 20914 10186 20084 48553 70500 80002
                   333 10290 20//0 58014 82080
                   555 00/// 91025=
201308200000 AAXX 20004 67413 NIL=
201308192100 AAXX 19214 67413 NIL=
201308191800 AAXX 19184 67413 NIL=
201308191500 AAXX 19154 67413 NIL=
201308191200 AAXX 19121 67413 NIL=
201308190900 AAXX 19094 67413 NIL=
201308190600 AAXX 19060 67413 NIL=
201308181800 AAXX 18184 67413 NIL=
201308181200 AAXX 18120 67413 NIL=
201308180600 AAXX 18060 67413 NIL=
201308171800 AAXX 17184 67413 NIL=
201308171200 AAXX 17121 67413 NIL=
201308170600 AAXX 17060 67413 NIL=
201308161200 AAXX 16120 67413 NIL=
201308160900 AAXX 16094 67413 NIL=
201308160600 AAXX 16064 67413 31975 01205 10190 20102 48532 70500
                   333 10285 20/// 58000 91023=
201308151200 AAXX 15120 67413 NIL=
201308150900 AAXX 15094 67413 NIL=
201308150600 AAXX 15060 67413 NIL=
201308141500 AAXX 14154 67413 NIL=
201308141200 AAXX 14120 67413 NIL=
201308140900 AAXX 14094 67413 NIL=
201308140600 AAXX 14064 67413 31979 00905 10186 20084 48533 70500
                   333 10280 2//// 59002 91024=
201308131800 AAXX 13184 67413 NIL=
201308131500 AAXX 13154 67413 NIL=
201308131200 AAXX 13121 67413 NIL=
201308130600 AAXX 13064 67413 NIL=
201308121800 AAXX 12184 67413 NIL=
201308121200 AAXX 12120 67413 NIL=
201308120900 AAXX 12094 67413 NIL=
201308120600 AAXX 12064 67413 32980 01012 10160 20075 48547
                   333 10260 20/// 59004 91024=
201308120300 AAXX 12034 67413 NIL=
201308112100 AAXX 11214 67413 NIL=
201308111800 AAXX 11184 67413 NIL=
201308111200 AAXX 11121 67413 NIL=
201308110900 AAXX 11094 67413 NIL=
201308110600 AAXX 11060 67413 NIL=
201308110300 AAXX 11034 67413 NIL=
201308110000 AAXX 11004 67413 NIL=
201308102100 AAXX 10214 67413 NIL=
201308101800 AAXX 10184 67413 NIL=
201308101500 AAXX 10154 67413 NIL=
201308101200 AAXX 10121 67413 NIL=
201308100900 AAXX 10090 67413 NIL=
201308100600 AAXX 10060 67413 NIL=
201308100300 AAXX 10034 67413 NIL=
201308100000 AAXX 10004 67413 NIL=
201308092100 AAXX 09214 67413 NIL=
201308091800 AAXX 09184 67413 NIL=
201308091500 AAXX 09154 67413 NIL=
201308091200 AAXX 09120 67413 NIL=
201308090900 AAXX 09094 67413 NIL=
201308090600 AAXX 09064 67413 NIL=
201308090300 AAXX 09034 67413 NIL=
201308081800 AAXX 08184 67413 NIL=
201308081500 AAXX 08154 67413 NIL=
201308081200 AAXX 08120 67413 NIL=
201308080900 AAXX 08094 67413 NIL=
201308080600 AAXX 08064 67413 32980 1//// 10190 20092 48534 80001
                   333 10256 20/// 59003 81078 91024=
201308080300 AAXX 08034 67413 NIL=
201308072100 AAXX 07214 67413 NIL=
201308071800 AAXX 07184 67413 NIL=
201308071500 AAXX 07154 67413 NIL=
201308071200 AAXX 07120 67413 NIL=
201308070900 AAXX 07094 67413 NIL=
201308070600 AAXX 07064 67413 NIL=
201308070300 AAXX 07034 67413 NIL=
201308070000 AAXX 07004 67413 NIL=
201308061800 AAXX 06184 67413 NIL=
201308061500 AAXX 06154 67413 NIL=
201308061200 AAXX 06120 67413 NIL=
201308060900 AAXX 06094 67413 NIL=
201308060600 AAXX 06064 67413 32480 20905 10150 20105 48538 81530
                   333 10230 20/// 59009 81609 82357
                   555 00/// 91023=
201308041500 AAXX 04154 67413 NIL=
201308041200 AAXX 04120 67413 NIL=
201308040600 AAXX 04060 67413 NIL=
201308040300 AAXX 04034 67413 NIL=
201308032100 AAXX 03214 67413 NIL=
201308031800 AAXX 03184 67413 NIL=
201308031500 AAXX 03154 67413 NIL=
201308031200 AAXX 03121 67413 NIL=
201308030900 AAXX 03094 67413 NIL=
201308030600 AAXX 03060 67413 NIL=
201308030300 AAXX 03034 67413 NIL=
201308021800 AAXX 02184 67413 NIL=
201308021200 AAXX 02124 67413 NIL=
201308020900 AAXX 02094 67413 NIL=
201308020600 AAXX 02061 67413 NIL=
201308020300 AAXX 02034 67413 NIL=
201308012100 AAXX 01214 67413 NIL=
201308011800 AAXX 01184 67413 NIL=
201308011500 AAXX 01154 67413 NIL=
201308011200 AAXX 01121 67413 NIL=
201308010900 AAXX 01094 67413 NIL=
201308010600 AAXX 01064 67413 NIL=

################################################################################
#  SYNOPS from 67441, Mwinilunga (Zambia) | 11-45S | 024-26E | 1361 m
################################################################################
201308310600 AAXX 31060 67441 NIL=
201308310300 AAXX 31034 67441 NIL=
201308301500 AAXX 30154 67441 NIL=
201308301200 AAXX 30121 67441 NIL=
201308300600 AAXX 30060 67441 NIL=
201308290900 AAXX 29094 67441 NIL=
201308290600 AAXX 29060 67441 NIL=
201308290300 AAXX 29034 67441 NIL=
201308290000 AAXX 29004 67441 NIL=
201308282100 AAXX 28214 67441 NIL=
201308281800 AAXX 28184 67441 NIL=
201308281200 AAXX 28120 67441 NIL=
201308280900 AAXX 28090 67441 NIL=
201308280600 AAXX 28064 67441 NIL=
201308271800 AAXX 27184 67441 NIL=
201308271500 AAXX 27154 67441 NIL=
201308271200 AAXX 27124 67441 NIL=
201308270900 AAXX 27094 67441 NIL=
201308270600 AAXX 27064 67441 31965 015// 10173 20068 48568 70500
                   333 10305 20/// 58001=
201308230600 AAXX 23064 67441 31960 00000 10150 20098 48556 70500
                   333 10315 20/// 58000=
201308221500 AAXX 22154 67441 NIL=
201308221200 AAXX 22120 67441 NIL=
201308220900 AAXX 22094 67441 NIL=
201308211800 AAXX 21184 67441 NIL=
201308211500 AAXX 21154 67441 NIL=
201308211200 AAXX 21124 67441 NIL=
201308210900 AAXX 21094 67441 NIL=
201308210600 AAXX 21064 67441 31960 20000 10140 20087 48566 70500 80005
                   333 10290 20/// 59003 82080=
201308202100 AAXX 20214 67441 NIL=
201308201800 AAXX 20184 67441 NIL=
201308201200 AAXX 20120 67441 NIL=
201308200600 AAXX 20064 67441 NIL=
201308200000 AAXX 20004 67441 NIL=
201308192100 AAXX 19214 67441 NIL=
201308191800 AAXX 19184 67441 NIL=
201308191500 AAXX 19154 67441 NIL=
201308191200 AAXX 19121 67441 NIL=
201308190900 AAXX 19094 67441 NIL=
201308190600 AAXX 19064 67441 31960 00000 10105 20067 48554 70500
                   333 10320 20/// 59003=
201308181800 AAXX 18184 67441 NIL=
201308181200 AAXX 18120 67441 NIL=
201308180600 AAXX 18060 67441 NIL=
201308171800 AAXX 17184 67441 NIL=
201308171200 AAXX 17121 67441 NIL=
201308170600 AAXX 17060 67441 NIL=
201308161200 AAXX 16120 67441 NIL=
201308160900 AAXX 16094 67441 NIL=
201308160600 AAXX 16064 67441 31960 00000 10100 20064 48552 70500
                   333 10315 20/// 58001=
201308151200 AAXX 15120 67441 NIL=
201308150900 AAXX 15094 67441 NIL=
201308150600 AAXX 15064 67441 31960 00000 10105 20053 48551 70500
                   333 10310 20/// 58007=
201308141500 AAXX 14154 67441 NIL=
201308141200 AAXX 14120 67441 NIL=
201308140900 AAXX 14094 67441 NIL=
201308140600 AAXX 14060 67441 NIL=
201308131800 AAXX 13184 67441 NIL=
201308131500 AAXX 13154 67441 NIL=
201308131200 AAXX 13121 67441 NIL=
201308130600 AAXX 13064 67441 31960 00000 10090 20039 48557 70500
                   333 10285 20/// 59005=
201308121800 AAXX 12184 67441 NIL=
201308121200 AAXX 12120 67441 NIL=
201308120900 AAXX 12094 67441 NIL=
201308120600 AAXX 12064 67441 31960 00000 10110 20073 48562 70500
                   333 10295 20/// 58007=
201308120300 AAXX 12034 67441 NIL=
201308112100 AAXX 11214 67441 NIL=
201308111800 AAXX 11184 67441 NIL=
201308111200 AAXX 11121 67441 NIL=
201308110900 AAXX 11094 67441 NIL=
201308110600 AAXX 11060 67441 NIL=
201308110300 AAXX 11034 67441 NIL=
201308110000 AAXX 11004 67441 NIL=
201308102100 AAXX 10214 67441 NIL=
201308101800 AAXX 10184 67441 NIL=
201308101500 AAXX 10154 67441 NIL=
201308101200 AAXX 10121 67441 NIL=
201308100900 AAXX 10090 67441 NIL=
201308100600 AAXX 10060 67441 NIL=
201308100300 AAXX 10034 67441 NIL=
201308100000 AAXX 10004 67441 NIL=
201308092100 AAXX 09214 67441 NIL=
201308091800 AAXX 09184 67441 NIL=
201308091500 AAXX 09154 67441 NIL=
201308091200 AAXX 09120 67441 NIL=
201308090900 AAXX 09094 67441 NIL=
201308090600 AAXX 09064 67441 NIL=
201308090300 AAXX 09034 67441 NIL=
201308081800 AAXX 08184 67441 NIL=
201308081500 AAXX 08154 67441 NIL=
201308081200 AAXX 08120 67441 NIL=
201308080900 AAXX 08094 67441 NIL=
201308080600 AAXX 08064 67441 31960 70000 10140 20096 48536 70500 87030
                   333 10290 20/// 59011 87360=
201308080300 AAXX 08034 67441 NIL=
201308072100 AAXX 07214 67441 NIL=
201308071800 AAXX 07184 67441 NIL=
201308071500 AAXX 07154 67441 NIL=
201308071200 AAXX 07120 67441 NIL=
201308070900 AAXX 07094 67441 NIL=
201308070600 AAXX 07064 67441 31960 00000 10090 20051 48546 70500
                   333 10270 20/// 59013=
201308070300 AAXX 07034 67441 NIL=
201308070000 AAXX 07004 67441 NIL=
201308061800 AAXX 06184 67441 NIL=
201308061500 AAXX 06154 67441 NIL=
201308061200 AAXX 06120 67441 NIL=
201308060900 AAXX 06094 67441 NIL=
201308060600 AAXX 06064 67441 31965 10000 10125 20048 48559 70500 80001
                   333 10260 20/// 59014 81080=
201308041500 AAXX 04154 67441 NIL=
201308041200 AAXX 04120 67441 NIL=
201308040600 AAXX 04060 67441 NIL=
201308040300 AAXX 04034 67441 NIL=
201308032100 AAXX 03214 67441 NIL=
201308031800 AAXX 03184 67441 NIL=
201308031500 AAXX 03154 67441 NIL=
201308031200 AAXX 03121 67441 NIL=
201308030900 AAXX 03094 67441 NIL=
201308030600 AAXX 03060 67441 NIL=
201308030300 AAXX 03034 67441 NIL=
201308021800 AAXX 02184 67441 NIL=
201308021200 AAXX 02124 67441 NIL=
201308020900 AAXX 02094 67441 NIL=
201308020600 AAXX 02061 67441 NIL=
201308020300 AAXX 02034 67441 NIL=
201308012100 AAXX 01214 67441 NIL=
201308011800 AAXX 01184 67441 NIL=
201308011500 AAXX 01154 67441 NIL=
201308011200 AAXX 01121 67441 NIL=
201308010900 AAXX 01094 67441 NIL=
201308010600 AAXX 01064 67441 NIL=

################################################################################
#  SYNOPS from 67461, Mansa (Zambia) | 11-06S | 028-51E | 1382 m
################################################################################
201308310600 AAXX 31060 67461 NIL=
201308310300 AAXX 31034 67461 NIL=
201308301500 AAXX 30154 67461 NIL=
201308301200 AAXX 30121 67461 NIL=
201308300600 AAXX 30060 67461 NIL=
201308290900 AAXX 29094 67461 NIL=
201308290600 AAXX 29060 67461 NIL=
201308290300 AAXX 29034 67461 NIL=
201308290000 AAXX 29004 67461 NIL=
201308282100 AAXX 28214 67461 NIL=
201308281800 AAXX 28184 67461 NIL=
201308281200 AAXX 28120 67461 NIL=
201308280900 AAXX 28090 67461 NIL=
201308280600 AAXX 28064 67461 NIL=
201308271800 AAXX 27184 67461 NIL=
201308271500 AAXX 27154 67461 NIL=
201308271200 AAXX 27124 67461 NIL=
201308270900 AAXX 27094 67461 41957 00811 10242 20098 48558 70500
                   333 59001 91023=
201308270600 AAXX 27064 67461 31940 00807 10164 20104 48553 70500
                   333 10280 20115 58011 91023=
201308230600 AAXX 23064 67461 31960 01102 10173 20115 48536 70500
                   333 10294 20134 58008 91021=
201308221500 AAXX 22154 67461 NIL=
201308221200 AAXX 22120 67461 NIL=
201308220900 AAXX 22094 67461 41975 11208 10255 20119 48530 70500 80001
                   333 59008 81080 91021=
201308220600 AAXX 22064 67461 31975 20902 10160 20126 48512 70500 80001=
201308211800 AAXX 21184 67461 NIL=
201308211500 AAXX 21154 67461 NIL=
201308211200 AAXX 21124 67461 NIL=
201308210900 AAXX 21094 67461 NIL=
201308210600 AAXX 21064 67461 31970 20905 10/// 20111 48521 70500 80001
                   333 10275 20115 59002 82080
                   555 00/// QNH 1021.7 HPA=
201308202100 AAXX 20214 67461 NIL=
201308201800 AAXX 20184 67461 NIL=
201308201200 AAXX 20120 67461 NIL=
201308200600 AAXX 20064 67461 31960 00607 10165 20085 48543 70500
                   333 10305 20120 58013 91021=
201308200000 AAXX 20004 67461 NIL=
201308192100 AAXX 19214 67461 NIL=
201308191800 AAXX 19184 67461 NIL=
201308191500 AAXX 19154 67461 NIL=
201308191200 AAXX 19121 67461 NIL=
201308190900 AAXX 19094 67461 NIL=
201308190600 AAXX 19064 67461 31940 00000 10181 20069 48532 70500
                   333 10/// 20/// 58004 91020=
201308181800 AAXX 18184 67461 NIL=
201308181200 AAXX 18120 67461 NIL=
201308180600 AAXX 18060 67461 NIL=
201308171800 AAXX 17184 67461 NIL=
201308171200 AAXX 17121 67461 NIL=
201308170600 AAXX 17060 67461 NIL=
201308161200 AAXX 16120 67461 NIL=
201308160900 AAXX 16094 67461 NIL=
201308160600 AAXX 16064 67461 31920 00802 10170 20071 48518 70500
                   333 10260 20106 59005 91019=
201308151200 AAXX 15120 67461 NIL=
201308150900 AAXX 15094 67461 NIL=
201308150600 AAXX 15064 67461 31960 00000 10167 20090 48522 70500
                   333 10310 20105 58005 91019=
201308141500 AAXX 14154 67461 NIL=
201308141200 AAXX 14120 67461 NIL=
201308140900 AAXX 14094 67461 NIL=
201308140600 AAXX 14064 67461 31975 00903 10170 20090 48503 70500
                   333 10293 20120 59003
                   555 00/// QNH 1019.8 HPA=
201308131800 AAXX 13184 67461 NIL=
201308131500 AAXX 13154 67461 NIL=
201308131200 AAXX 13121 67461 NIL=
201308130600 AAXX 13064 67461 32980 00906 10157 20095 48502
                   333 10274 20100 59010
                   555 00/// 91019=
201308121800 AAXX 12184 67461 NIL=
201308121200 AAXX 12120 67461 NIL=
201308120900 AAXX 12094 67461 NIL=
201308120600 AAXX 12064 67461 NIL=
201308120300 AAXX 12034 67461 NIL=
201308112100 AAXX 11214 67461 NIL=
201308111800 AAXX 11184 67461 NIL=
201308111200 AAXX 11121 67461 NIL=
201308110900 AAXX 11094 67461 NIL=
201308110600 AAXX 11060 67461 NIL=
201308110300 AAXX 11034 67461 NIL=
201308110000 AAXX 11004 67461 NIL=
201308102100 AAXX 10214 67461 NIL=
201308101800 AAXX 10184 67461 NIL=
201308101500 AAXX 10154 67461 NIL=
201308101200 AAXX 10121 67461 NIL=
201308100900 AAXX 10090 67461 NIL=
201308100600 AAXX 10060 67461 NIL=
201308100300 AAXX 10034 67461 NIL=
201308100000 AAXX 10004 67461 NIL=
201308092100 AAXX 09214 67461 NIL=
201308091800 AAXX 09184 67461 NIL=
201308091500 AAXX 09154 67461 NIL=
201308091200 AAXX 09120 67461 NIL=
201308090900 AAXX 09094 67461 NIL=
201308090600 AAXX 09064 67461 NIL=
201308090300 AAXX 09034 67461 NIL=
201308081800 AAXX 08184 67461 NIL=
201308081500 AAXX 08154 67461 NIL=
201308081200 AAXX 08120 67461 NIL=
201308080900 AAXX 08094 67461 NIL=
201308080600 AAXX 08064 67461 31970 71008 10165 20125 48517 70522 8707/
                   333 10279 20121 59006 87463 91019=
201308080300 AAXX 08034 67461 NIL=
201308072100 AAXX 07214 67461 NIL=
201308071800 AAXX 07184 67461 NIL=
201308071500 AAXX 07154 67461 NIL=
201308071200 AAXX 07120 67461 NIL=
201308070900 AAXX 07094 67461 NIL=
201308070600 AAXX 07064 67461 NIL=
201308070300 AAXX 07034 67461 NIL=
201308070000 AAXX 07004 67461 NIL=
201308061800 AAXX 06184 67461 NIL=
201308061500 AAXX 06154 67461 NIL=
201308061200 AAXX 06120 67461 NIL=
201308060900 AAXX 06094 67461 NIL=
201308041500 AAXX 04154 67461 NIL=
201308041200 AAXX 04120 67461 NIL=
201308040600 AAXX 04060 67461 NIL=
201308040300 AAXX 04034 67461 NIL=
201308032100 AAXX 03214 67461 NIL=
201308031800 AAXX 03184 67461 NIL=
201308031500 AAXX 03154 67461 NIL=
201308031200 AAXX 03121 67461 NIL=
201308030900 AAXX 03094 67461 NIL=
201308030600 AAXX 03060 67461 NIL=
201308030300 AAXX 03034 67461 NIL=
201308021800 AAXX 02184 67461 NIL=
201308021200 AAXX 02124 67461 NIL=
201308020900 AAXX 02094 67461 NIL=
201308020600 AAXX 02064 67461 32580 61209 10130 20105 48555 86500
                   333 10247 20090 58003 86620
                   555 00/// QNH 1025/9=
201308020300 AAXX 02034 67461 NIL=
201308012100 AAXX 01214 67461 NIL=
201308011800 AAXX 01184 67461 NIL=
201308011500 AAXX 01154 67461 NIL=
201308011200 AAXX 01121 67461 NIL=
201308010900 AAXX 01094 67461 NIL=
201308010600 AAXX 01064 67461 32980 00908 10130 20093 48546
                   333 10258 20095 58000 91025=

################################################################################
#  SYNOPS from 67475, Kasama (Zambia) | 10-13S | 031-08E | 1382 m
################################################################################
201308310600 AAXX 31060 67475 NIL=
201308310300 AAXX 31034 67475 NIL=
201308301500 AAXX 30154 67475 NIL=
201308301200 AAXX 30121 67475 NIL=
201308300900 AAXX 30094 67475 41970 10604 10252 20105 48529 70500 80001
                   333 59016 81080 91021=
201308300600 AAXX 30060 67475 31970 00702 10175 20109 48529 70500
                   333 10293 20129 59013
                   555 00/// 91021=
201308291200 AAXX 29124 67475 41970 01102 10281 20050 48513 70500
                   333 59017 91019=
201308290900 AAXX 29094 67475 41970 00804 10237 20087 48545 70500
                   333 59014 91022=
201308290600 AAXX 29060 67475 31970 00703 10175 20094 48542 70500
                   333 10279 20121 59013
                   555 00/// 91022=
201308290300 AAXX 29034 67475 NIL=
201308290000 AAXX 29004 67475 NIL=
201308282100 AAXX 28214 67475 NIL=
201308281800 AAXX 28184 67475 NIL=
201308281200 AAXX 28124 67475 41970 01003 10268 20055 48530 70500
                   333 59002 91021=
201308280900 AAXX 28094 67475 41970 00906 10234 20073 48558 70500
                   333 59002 91024=
201308280600 AAXX 28064 67475 31970 00303 10156 20092 48554 70500
                   333 10267 20095 59005
                   555 00/// 91024=
201308271800 AAXX 27184 67475 NIL=
201308271500 AAXX 27154 67475 NIL=
201308271200 AAXX 27124 67475 41970 01505 10259 20064 48532 70500
                   333 58002 91021=
201308270900 AAXX 27094 67475 41770 00906 10225 20067 48560 70500 81100
                   333 58005 81856 91024=
201308270600 AAXX 27064 67475 31970 01204 10168 20085 48560 70500
                   333 10271 20093 58005
                   555 91025=
201308230600 AAXX 23060 67475 31970 00604 10177 20109 48542 70500
                   333 10280 20120 58002
                   555 00/// 91022=
201308221500 AAXX 22154 67475 NIL=
201308221200 AAXX 22124 67475 41970 11702 10274 20072 48515 70500 81101
                   333 59007 81858 81080 91019=
201308220900 AAXX 22094 67475 41970 10603 10238 20096 70500 80001
                   333 59008 81080 91022=
201308220600 AAXX 22064 67475 31970 10704 10166 20094 48539 70500 80001
                   333 10272 20101 59009 81080
                   555 91022=
201308211800 AAXX 21184 67475 NIL=
201308211500 AAXX 21154 67475 NIL=
201308211200 AAXX 21124 67475 41970 21605 10260 20072 48521 70500 81101
                   333 59011 81858 81080 91020=
201308210900 AAXX 21094 67475 41970 20908 10238 20066 48549 70500 80001
                   333 59008 82080 91023=
201308210600 AAXX 21064 67475 31970 40904 10172 20090 48548 70500 80001
                   333 10257 20132 59004 84080
                   555 00/// 91023=
201308202100 AAXX 20214 67475 NIL=
201308201800 AAXX 20184 67475 NIL=
201308201200 AAXX 20124 67475 41770 61210 10243 20096 48532 70521 83130
                   333 58025 83856 85360 91021=
201308200900 AAXX 20094 67475 41670 11307 10226 20106 48556 70511 81130
                   333 58018 81845 81360 91024=
201308200600 AAXX 20064 67475 31970 61406 10174 20090 48552 70522 86030
                   333 10296 20138 86358 555=
201308200000 AAXX 20004 67475 NIL=
201308192100 AAXX 19214 67475 NIL=
201308191800 AAXX 19184 67475 NIL=
201308191500 AAXX 19154 67475 41970 01105 10276 21012 48510 70500
                   333 5//// 555 10296 91019=
201308191200 AAXX 19124 67475 41970 01506 10291 20034 48508 70500
                   333 5//// 91018=
201308190900 AAXX 19094 67475 41970 01408 10256 20066 48540 70500
                   333 5//// 91022=
201308190600 AAXX 19060 67475 31970 03602 10161 20090 48533 70500
                   333 10300 20110 555 91021=
201308181800 AAXX 18184 67475 NIL=
201308181200 AAXX 18120 67475 NIL=
201308180600 AAXX 18060 67475 NIL=
201308171800 AAXX 17184 67475 NIL=
201308171200 AAXX 17121 67475 NIL=
201308170600 AAXX 17060 67475 NIL=
201308161200 AAXX 16124 67475 41970 01303 10289 20084 48500 70500
                   333 58001 91017=
201308160900 AAXX 16094 67475 41970 01206 10261 20080 48529 70500
                   333 58006 91020=
201308160600 AAXX 16064 67475 31970 03502 10168 20079 48528 70500
                   333 10296 20116 58005
                   555 00/// 91021=
201308151200 AAXX 15120 67475 NIL=
201308150900 AAXX 15094 67475 41970 01306 10264 20050 48522 70500
                   333 59000 91020=
201308150600 AAXX 15060 67475 31970 00202 10178 20069 48524 70500
                   333 10296 20100 59001
                   555 00/// 91020=
201308141500 AAXX 14154 67475 41970 02003 10272 20046 48493 70500
                   333 59010 555 10296
                   QNH 1016.9 HPA=
201308141200 AAXX 14124 67475 41970 02504 10292 20024 48497 70500
                   333 59008 91017=
201308140900 AAXX 14094 67475 41970 01004 10259 20059 48522 70500
                   333 59009 91020=
201308140600 AAXX 14064 67475 31970 03602 10173 20067 48524 70500
                   333 10290 20108 59006
                   555 00/// 91020=
201308131800 AAXX 13184 67475 NIL=
201308131500 AAXX 13154 67475 NIL=
201308131200 AAXX 13121 67475 NIL=
201308130600 AAXX 13064 67475 31970 03604 10154 20088 48529 70500
                   333 10282 20092 59011
                   555 00/// 91022=
201308121800 AAXX 12184 67475 NIL=
201308121200 AAXX 12120 67475 NIL=
201308120900 AAXX 12094 67475 NIL=
201308120600 AAXX 12064 67475 NIL=
201308120300 AAXX 12034 67475 NIL=
201308112100 AAXX 11214 67475 NIL=
201308111800 AAXX 11184 67475 NIL=
201308111200 AAXX 11121 67475 NIL=
201308110900 AAXX 11094 67475 NIL=
201308110600 AAXX 11060 67475 NIL=
201308110300 AAXX 11034 67475 NIL=
201308110000 AAXX 11004 67475 NIL=
201308102100 AAXX 10214 67475 NIL=
201308101800 AAXX 10184 67475 NIL=
201308101500 AAXX 10154 67475 NIL=
201308101200 AAXX 10121 67475 NIL=
201308100900 AAXX 10090 67475 NIL=
201308100600 AAXX 10060 67475 NIL=
201308100300 AAXX 10034 67475 NIL=
201308100000 AAXX 10004 67475 NIL=
201308092100 AAXX 09214 67475 NIL=
201308091800 AAXX 09184 67475 NIL=
201308091500 AAXX 09154 67475 NIL=
201308091200 AAXX 09120 67475 NIL=
201308090900 AAXX 09094 67475 NIL=
201308090600 AAXX 09064 67475 31970 01206 10195 20110 48540 70500
                   333 10280 20115 58013
                   555 00/// QNH 1023.0 HPA=
201308090300 AAXX 09034 67475 NIL=
201308081800 AAXX 08184 67475 NIL=
201308081500 AAXX 08154 67475 NIL=
201308081200 AAXX 08120 67475 NIL=
201308080900 AAXX 08094 67475 NIL=
201308080600 AAXX 08064 67475 31970 60608 10172 20133 48525 70522 86030
                   333 10262 20128 59009
                   555 00/// 91021=
201308080300 AAXX 08034 67475 NIL=
201308072100 AAXX 07214 67475 NIL=
201308071800 AAXX 07184 67475 NIL=
201308071500 AAXX 07154 67475 NIL=
201308071200 AAXX 07120 67475 NIL=
201308070900 AAXX 07094 67475 NIL=
201308070600 AAXX 07064 67475 31970 71210 10170 20117 48534 70522 8703/
                   333 10250 20135 59006 87360
                   555 00/// 91022=
201308070300 AAXX 07034 67475 NIL=
201308070000 AAXX 07004 67475 NIL=
201308061800 AAXX 06184 67475 NIL=
201308061500 AAXX 06154 67475 NIL=
201308061200 AAXX 06120 67475 NIL=
201308060900 AAXX 06094 67475 NIL=
201308041500 AAXX 04154 67475 NIL=
201308041200 AAXX 04120 67475 NIL=
201308040600 AAXX 04060 67475 NIL=
201308040300 AAXX 04034 67475 NIL=
201308032100 AAXX 03214 67475 NIL=
201308031800 AAXX 03184 67475 NIL=
201308031500 AAXX 03154 67475 NIL=
201308031200 AAXX 03121 67475 NIL=
201308030900 AAXX 03094 67475 NIL=
201308030600 AAXX 03060 67475 NIL=
201308030300 AAXX 03034 67475 NIL=
201308021800 AAXX 02184 67475 NIL=
201308021200 AAXX 02124 67475 NIL=
201308020900 AAXX 02094 67475 NIL=
201308020600 AAXX 02064 67475 31970 31214 10143 20095 48581 70500 83030
                   333 10240 20107 58001 83360
                   555 00/// QNH 1028.0 HPA=
201308020300 AAXX 02034 67475 NIL=
201308012100 AAXX 01214 67475 NIL=
201308011800 AAXX 01184 67475 NIL=
201308011500 AAXX 01154 67475 NIL=
201308011200 AAXX 01121 67475 NIL=
201308010900 AAXX 01094 67475 NIL=
201308010600 AAXX 01064 67475 31970 01210 10142 20090 48578 70500
                   333 10236 20100 58003
                   555 00/// QNH 1027.0 HPA=

################################################################################
#  SYNOPS from 67476, Misamfu (Zambia) | 10-06S | 031-15E | 1536 m
################################################################################
201308310600 AAXX 31060 67476 NIL=
201308310300 AAXX 31034 67476 NIL=
201308301500 AAXX 30154 67476 NIL=
201308301200 AAXX 30121 67476 NIL=
201308300600 AAXX 30064 67476 NIL=
201308290900 AAXX 29094 67476 NIL=
201308290600 AAXX 29064 67476 NIL=
201308290300 AAXX 29034 67476 NIL=
201308290000 AAXX 29004 67476 NIL=
201308282100 AAXX 28214 67476 NIL=
201308281800 AAXX 28184 67476 NIL=
201308281200 AAXX 28124 67476 NIL=
201308280900 AAXX 28090 67476 NIL=
201308280600 AAXX 28064 67476 NIL=
201308271800 AAXX 27184 67476 NIL=
201308271500 AAXX 27154 67476 NIL=
201308271200 AAXX 27124 67476 NIL=
201308270900 AAXX 27094 67476 NIL=
201308270600 AAXX 27064 67476 NIL=
201308230600 AAXX 23064 67476 NIL=
201308221500 AAXX 22154 67476 NIL=
201308221200 AAXX 22120 67476 NIL=
201308220900 AAXX 22094 67476 NIL=
201308211800 AAXX 21184 67476 NIL=
201308211500 AAXX 21154 67476 NIL=
201308211200 AAXX 21124 67476 NIL=
201308210900 AAXX 21094 67476 NIL=
201308210600 AAXX 21064 67476 NIL=
201308202100 AAXX 20214 67476 NIL=
201308201800 AAXX 20184 67476 NIL=
201308201200 AAXX 20124 67476 NIL=
201308200600 AAXX 20064 67476 NIL=
201308200000 AAXX 20004 67476 NIL=
201308192100 AAXX 19214 67476 NIL=
201308191800 AAXX 19184 67476 NIL=
201308191500 AAXX 19154 67476 NIL=
201308191200 AAXX 19121 67476 NIL=
201308190900 AAXX 19094 67476 NIL=
201308190600 AAXX 19064 67476 NIL=
201308181800 AAXX 18184 67476 NIL=
201308181200 AAXX 18120 67476 NIL=
201308180600 AAXX 18060 67476 NIL=
201308171800 AAXX 17184 67476 NIL=
201308171200 AAXX 17121 67476 NIL=
201308170600 AAXX 17060 67476 NIL=
201308161200 AAXX 16124 67476 NIL=
201308160900 AAXX 16094 67476 NIL=
201308160600 AAXX 16064 67476 NIL=
201308151200 AAXX 15120 67476 NIL=
201308150900 AAXX 15094 67476 NIL=
201308150600 AAXX 15064 67476 NIL=
201308141500 AAXX 14154 67476 NIL=
201308141200 AAXX 14124 67476 NIL=
201308140900 AAXX 14094 67476 NIL=
201308140600 AAXX 14060 67476 NIL=
201308131800 AAXX 13184 67476 NIL=
201308131500 AAXX 13154 67476 NIL=
201308131200 AAXX 13121 67476 NIL=
201308130600 AAXX 13064 67476 NIL=
201308121800 AAXX 12184 67476 NIL=
201308121200 AAXX 12120 67476 NIL=
201308120900 AAXX 12094 67476 NIL=
201308120600 AAXX 12064 67476 31973 00904 10204 20173 48/// 70500
                   333 10287 20128 5////=
201308120300 AAXX 12034 67476 NIL=
201308112100 AAXX 11214 67476 NIL=
201308111800 AAXX 11184 67476 NIL=
201308111200 AAXX 11121 67476 NIL=
201308110900 AAXX 11094 67476 NIL=
201308110600 AAXX 11060 67476 NIL=
201308110300 AAXX 11034 67476 NIL=
201308110000 AAXX 11004 67476 NIL=
201308102100 AAXX 10214 67476 NIL=
201308101800 AAXX 10184 67476 NIL=
201308101500 AAXX 10154 67476 NIL=
201308101200 AAXX 10121 67476 NIL=
201308100900 AAXX 10090 67476 NIL=
201308100600 AAXX 10060 67476 NIL=
201308100300 AAXX 10034 67476 NIL=
201308100000 AAXX 10004 67476 NIL=
201308092100 AAXX 09214 67476 NIL=
201308091800 AAXX 09184 67476 NIL=
201308091500 AAXX 09154 67476 NIL=
201308091200 AAXX 09120 67476 NIL=
201308090900 AAXX 09094 67476 NIL=
201308090600 AAXX 09064 67476 NIL=
201308090300 AAXX 09034 67476 NIL=
201308081800 AAXX 08184 67476 NIL=
201308081500 AAXX 08154 67476 NIL=
201308081200 AAXX 08120 67476 NIL=
201308080900 AAXX 08094 67476 NIL=
201308080600 AAXX 08064 67476 NIL=
201308080300 AAXX 08034 67476 NIL=
201308072100 AAXX 07214 67476 NIL=
201308071800 AAXX 07184 67476 NIL=
201308071500 AAXX 07154 67476 NIL=
201308071200 AAXX 07120 67476 NIL=
201308070900 AAXX 07094 67476 NIL=
201308070600 AAXX 07064 67476 NIL=
201308070300 AAXX 07034 67476 NIL=
201308070000 AAXX 07004 67476 NIL=
201308061800 AAXX 06184 67476 NIL=
201308061500 AAXX 06154 67476 NIL=
201308061200 AAXX 06120 67476 NIL=
201308060900 AAXX 06094 67476 NIL=
201308041500 AAXX 04154 67476 NIL=
201308041200 AAXX 04120 67476 NIL=
201308040600 AAXX 04060 67476 NIL=
201308040300 AAXX 04034 67476 NIL=
201308032100 AAXX 03214 67476 NIL=
201308031800 AAXX 03184 67476 NIL=
201308031500 AAXX 03154 67476 NIL=
201308031200 AAXX 03121 67476 NIL=
201308030900 AAXX 03094 67476 NIL=
201308030600 AAXX 03060 67476 NIL=
201308030300 AAXX 03034 67476 NIL=
201308021800 AAXX 02184 67476 NIL=
201308021200 AAXX 02124 67476 NIL=
201308020900 AAXX 02094 67476 NIL=
201308020600 AAXX 02061 67476 NIL=
201308020300 AAXX 02034 67476 NIL=
201308012100 AAXX 01214 67476 NIL=
201308011800 AAXX 01184 67476 NIL=
201308011500 AAXX 01154 67476 NIL=
201308011200 AAXX 01121 67476 NIL=
201308010900 AAXX 01094 67476 NIL=
201308010600 AAXX 01064 67476 NIL=

################################################################################
#  SYNOPS from 67477, Mpika (Zambia) | 11-54S | 031-26E | 1400 m
################################################################################
201308310600 AAXX 31060 67477 NIL=
201308310300 AAXX 31034 67477 NIL=
201308301500 AAXX 30154 67477 NIL=
201308301200 AAXX 30121 67477 NIL=
201308300600 AAXX 30064 67477 31970 01210 10180 20100 48529 70500
                   333 10272 20135 59015=
201308290900 AAXX 29094 67477 NIL=
201308290600 AAXX 29064 67477 NIL=
201308290300 AAXX 29034 67477 NIL=
201308290000 AAXX 29004 67477 NIL=
201308282100 AAXX 28214 67477 NIL=
201308281800 AAXX 28184 67477 NIL=
201308281200 AAXX 28124 67477 NIL=
201308280900 AAXX 28090 67477 NIL=
201308280600 AAXX 28064 67477 NIL=
201308271800 AAXX 27184 67477 NIL=
201308271500 AAXX 27154 67477 NIL=
201308271200 AAXX 27124 67477 NIL=
201308270900 AAXX 27094 67477 NIL=
201308270600 AAXX 27064 67477 31475 10604 10171 20080 48562 70500 81100
                   333 10246 20080 58006 81814=
201308230600 AAXX 23064 67477 31975 00906 10190 20112 48547 70500
                   333 10265 20115 58011=
201308221500 AAXX 22154 67477 NIL=
201308221200 AAXX 22120 67477 NIL=
201308220900 AAXX 22094 67477 NIL=
201308211800 AAXX 21184 67477 NIL=
201308211500 AAXX 21154 67477 NIL=
201308211200 AAXX 21124 67477 NIL=
201308210900 AAXX 21094 67477 NIL=
201308210600 AAXX 21064 67477 31975 51509 10173 20091 48550 70522 80001
                   333 10216 20060 59007=
201308202100 AAXX 20214 67477 NIL=
201308201800 AAXX 20184 67477 NIL=
201308201200 AAXX 20124 67477 NIL=
201308200600 AAXX 20064 67477 31470 71110 10160 20109 48557 70522 875//
                   333 10275 20140 58022 87616=
201308200000 AAXX 20004 67477 NIL=
201308192100 AAXX 19214 67477 NIL=
201308191800 AAXX 19184 67477 NIL=
201308191500 AAXX 19154 67477 NIL=
201308191200 AAXX 19121 67477 NIL=
201308190900 AAXX 19094 67477 NIL=
201308190600 AAXX 19064 67477 31970 00000 10175 20070 48536 70500
                   333 10280 20074 58004=
201308181800 AAXX 18184 67477 NIL=
201308181200 AAXX 18120 67477 NIL=
201308180600 AAXX 18060 67477 NIL=
201308171800 AAXX 17184 67477 NIL=
201308171200 AAXX 17121 67477 NIL=
201308170600 AAXX 17060 67477 NIL=
201308161200 AAXX 16124 67477 NIL=
201308160900 AAXX 16094 67477 NIL=
201308160600 AAXX 16064 67477 NIL=
201308151200 AAXX 15120 67477 NIL=
201308150900 AAXX 15094 67477 NIL=
201308150600 AAXX 15064 67477 31970 01204 10200 20069 48526 70500
                   333 10311 20142 59001=
201308141500 AAXX 14154 67477 NIL=
201308141200 AAXX 14124 67477 NIL=
201308140900 AAXX 14094 67477 NIL=
201308140600 AAXX 14064 67477 31975 00704 10201 20055 48525 70500
                   333 10252 20119 59008=
201308131800 AAXX 13184 67477 NIL=
201308131500 AAXX 13154 67477 NIL=
201308131200 AAXX 13121 67477 NIL=
201308130600 AAXX 13064 67477 31978 01202 10170 48531 70500
                   333 10248 20109 59013=
201308121800 AAXX 12184 67477 NIL=
201308121200 AAXX 12120 67477 NIL=
201308120900 AAXX 12094 67477 NIL=
201308120600 AAXX 12064 67477 31975 00906 10175 20086 48545 70500
                   333 10250 20065 59006=
201308120300 AAXX 12034 67477 NIL=
201308112100 AAXX 11214 67477 NIL=
201308111800 AAXX 11184 67477 NIL=
201308111200 AAXX 11121 67477 NIL=
201308110900 AAXX 11094 67477 NIL=
201308110600 AAXX 11060 67477 NIL=
201308110300 AAXX 11034 67477 NIL=
201308110000 AAXX 11004 67477 NIL=
201308102100 AAXX 10214 67477 NIL=
201308101800 AAXX 10184 67477 NIL=
201308101500 AAXX 10154 67477 NIL=
201308101200 AAXX 10121 67477 NIL=
201308100900 AAXX 10090 67477 NIL=
201308100600 AAXX 10060 67477 NIL=
201308100300 AAXX 10034 67477 NIL=
201308100000 AAXX 10004 67477 NIL=
201308092100 AAXX 09214 67477 NIL=
201308091800 AAXX 09184 67477 NIL=
201308091500 AAXX 09154 67477 NIL=
201308091200 AAXX 09120 67477 NIL=
201308090900 AAXX 09094 67477 NIL=
201308090600 AAXX 09064 67477 31975 01113 10177 20123 48537 70500
                   333 10250 20133 58006
                   555 00///=
201308090300 AAXX 09034 67477 NIL=
201308081800 AAXX 08184 67477 NIL=
201308081500 AAXX 08154 67477 NIL=
201308081200 AAXX 08120 67477 NIL=
201308080900 AAXX 08094 67477 NIL=
201308080600 AAXX 08064 67477 32980 70610 10170 20100 48530 8703/
                   333 10247 20142 58001 87360=
201308080300 AAXX 08034 67477 NIL=
201308072100 AAXX 07214 67477 NIL=
201308071800 AAXX 07184 67477 NIL=
201308071500 AAXX 07154 67477 NIL=
201308071200 AAXX 07120 67477 NIL=
201308070900 AAXX 07094 67477 NIL=
201308070600 AAXX 07064 67477 31975 71204 10164 20097 48529 70522 87020
                   333 10234 20123 59011 87360=
201308070300 AAXX 07034 67477 NIL=
201308070000 AAXX 07004 67477 NIL=
201308061800 AAXX 06184 67477 NIL=
201308061500 AAXX 06154 67477 NIL=
201308061200 AAXX 06120 67477 NIL=
201308060900 AAXX 06094 67477 NIL=
201308060600 AAXX 06064 67477 31975 01208 10160 20094 48540 70500
                   333 10225 20110 59012=
201308041500 AAXX 04154 67477 NIL=
201308041200 AAXX 04120 67477 NIL=
201308040600 AAXX 04060 67477 NIL=
201308040300 AAXX 04034 67477 NIL=
201308032100 AAXX 03214 67477 NIL=
201308031800 AAXX 03184 67477 NIL=
201308031500 AAXX 03154 67477 NIL=
201308031200 AAXX 03121 67477 NIL=
201308030900 AAXX 03094 67477 NIL=
201308030600 AAXX 03060 67477 NIL=
201308030300 AAXX 03034 67477 NIL=
201308021800 AAXX 02184 67477 NIL=
201308021200 AAXX 02124 67477 NIL=
201308020900 AAXX 02094 67477 NIL=
201308020600 AAXX 02061 67477 NIL=
201308020300 AAXX 02034 67477 NIL=
201308012100 AAXX 01214 67477 NIL=
201308011800 AAXX 01184 67477 NIL=
201308011500 AAXX 01154 67477 NIL=
201308011200 AAXX 01121 67477 NIL=
201308010900 AAXX 01094 67477 NIL=
201308010600 AAXX 01064 67477 NIL=

################################################################################
#  SYNOPS from 67481, Isoka (Zambia) | 10-07S | 032-38E | 1360 m
################################################################################
201308310600 AAXX 31060 67481 NIL=
201308310300 AAXX 31034 67481 NIL=
201308301500 AAXX 30154 67481 NIL=
201308301200 AAXX 30121 67481 NIL=
201308300600 AAXX 30064 67481 NIL=
201308290900 AAXX 29094 67481 NIL=
201308290600 AAXX 29064 67481 31975 01102 10201 20090 70500
                   333 10280 20075 5////
                   555 00105=
201308290300 AAXX 29034 67481 NIL=
201308290000 AAXX 29004 67481 NIL=
201308282100 AAXX 28214 67481 NIL=
201308281800 AAXX 28184 67481 NIL=
201308281200 AAXX 28124 67481 NIL=
201308280900 AAXX 28090 67481 NIL=
201308280600 AAXX 28064 67481 31975 02402 10177 20105 70500
                   333 10260 20076 5////
                   555 00095=
201308271800 AAXX 27184 67481 NIL=
201308271500 AAXX 27154 67481 NIL=
201308271200 AAXX 27124 67481 NIL=
201308270900 AAXX 27094 67481 NIL=
201308270600 AAXX 27064 67481 NIL=
201308230600 AAXX 23064 67481 31975 00603 10195 20105 48/// 70500
                   333 10285 20085 5////=
201308221500 AAXX 22154 67481 NIL=
201308221200 AAXX 22120 67481 NIL=
201308220900 AAXX 22094 67481 NIL=
201308211800 AAXX 21184 67481 NIL=
201308211500 AAXX 21154 67481 NIL=
201308211200 AAXX 21124 67481 NIL=
201308210900 AAXX 21094 67481 NIL=
201308210600 AAXX 21064 67481 31975 20302 10190 20079 48/// 70500 81031
                   333 10265 20076 5//// 81361 82080=
201308202100 AAXX 20214 67481 NIL=
201308201800 AAXX 20184 67481 NIL=
201308201200 AAXX 20124 67481 NIL=
201308200600 AAXX 20064 67481 31975 52108 10176 20104 48/// 70522 85070
                   333 10300 20104 5//// 85361=
201308200000 AAXX 20004 67481 NIL=
201308192100 AAXX 19214 67481 NIL=
201308191800 AAXX 19184 67481 NIL=
201308191500 AAXX 19154 67481 NIL=
201308191200 AAXX 19121 67481 NIL=
201308190900 AAXX 19094 67481 NIL=
201308190600 AAXX 19064 67481 31975 00503 10214 20116 48/// 70500
                   333 10295 20090 5////=
201308181800 AAXX 18184 67481 NIL=
201308181200 AAXX 18120 67481 NIL=
201308180600 AAXX 18060 67481 NIL=
201308171800 AAXX 17184 67481 NIL=
201308171200 AAXX 17121 67481 NIL=
201308170600 AAXX 17060 67481 NIL=
201308161200 AAXX 16124 67481 NIL=
201308160900 AAXX 16094 67481 NIL=
201308160600 AAXX 16064 67481 31975 00403 10210 20113 48/// 70500
                   333 10300 20096 5////=
201308151200 AAXX 15120 67481 NIL=
201308150900 AAXX 15094 67481 NIL=
201308150600 AAXX 15064 67481 31975 00000 10206 20118 48/// 70500
                   333 10295 20064 5////=
201308141500 AAXX 14154 67481 NIL=
201308141200 AAXX 14124 67481 NIL=
201308140900 AAXX 14094 67481 NIL=
201308140600 AAXX 14064 67481 31970 00000 10194 20099 48/// 70500
                   333 10281 20060 5////=
201308131800 AAXX 13184 67481 NIL=
201308131500 AAXX 13154 67481 NIL=
201308131200 AAXX 13121 67481 NIL=
201308130600 AAXX 13064 67481 31975 00403 10194 20105 48/// 70500
                   333 10290 20085 5////=
201308121800 AAXX 12184 67481 NIL=
201308121200 AAXX 12120 67481 NIL=
201308120900 AAXX 12094 67481 NIL=
201308120600 AAXX 12064 67481 NIL=
201308120300 AAXX 12034 67481 NIL=
201308112100 AAXX 11214 67481 NIL=
201308111800 AAXX 11184 67481 NIL=
201308111200 AAXX 11121 67481 NIL=
201308110900 AAXX 11094 67481 NIL=
201308110600 AAXX 11060 67481 NIL=
201308110300 AAXX 11034 67481 NIL=
201308110000 AAXX 11004 67481 NIL=
201308102100 AAXX 10214 67481 NIL=
201308101800 AAXX 10184 67481 NIL=
201308101500 AAXX 10154 67481 NIL=
201308101200 AAXX 10121 67481 NIL=
201308100900 AAXX 10090 67481 NIL=
201308100600 AAXX 10060 67481 NIL=
201308100300 AAXX 10034 67481 NIL=
201308100000 AAXX 10004 67481 NIL=
201308092100 AAXX 09214 67481 NIL=
201308091800 AAXX 09184 67481 NIL=
201308091500 AAXX 09154 67481 NIL=
201308091200 AAXX 09120 67481 NIL=
201308090900 AAXX 09094 67481 NIL=
201308090600 AAXX 09064 67481 31975 00901 10194 20113 48/// 70500
                   333 10285 20085 5////=
201308090300 AAXX 09034 67481 NIL=
201308081800 AAXX 08184 67481 NIL=
201308081500 AAXX 08154 67481 NIL=
201308081200 AAXX 08120 67481 NIL=
201308080900 AAXX 08094 67481 NIL=
201308080600 AAXX 08064 67481 31975 01502 10189 20087 48/// 70500
                   333 10275 20089 5////=
201308080300 AAXX 08034 67481 NIL=
201308072100 AAXX 07214 67481 NIL=
201308071800 AAXX 07184 67481 NIL=
201308071500 AAXX 07154 67481 NIL=
201308071200 AAXX 07120 67481 NIL=
201308070900 AAXX 07094 67481 NIL=
201308070600 AAXX 07064 67481 31975 20000 10182 20119 48/// 70500 82030
                   333 10255 20104 5//// 82362=
201308070300 AAXX 07034 67481 NIL=
201308070000 AAXX 07004 67481 NIL=
201308061800 AAXX 06184 67481 NIL=
201308061500 AAXX 06154 67481 NIL=
201308061200 AAXX 06124 67481 41770 61503 10244 20076 70522 86200
                   333 5//// 86856=
201308060900 AAXX 06094 67481 NIL=
201308060600 AAXX 06064 67481 31975 00604 10175 20103 48/// 70500
                   333 10240 20065 5////=
201308041500 AAXX 04154 67481 NIL=
201308041200 AAXX 04120 67481 NIL=
201308040600 AAXX 04060 67481 NIL=
201308040300 AAXX 04034 67481 NIL=
201308032100 AAXX 03214 67481 NIL=
201308031800 AAXX 03184 67481 NIL=
201308031500 AAXX 03154 67481 NIL=
201308031200 AAXX 03121 67481 NIL=
201308030900 AAXX 03094 67481 NIL=
201308030600 AAXX 03060 67481 NIL=
201308030300 AAXX 03034 67481 NIL=
201308021800 AAXX 02184 67481 NIL=
201308021200 AAXX 02124 67481 NIL=
201308020900 AAXX 02094 67481 NIL=
201308020600 AAXX 02061 67481 NIL=
201308020300 AAXX 02034 67481 NIL=
201308012100 AAXX 01214 67481 NIL=
201308011800 AAXX 01184 67481 NIL=
201308011500 AAXX 01154 67481 NIL=
201308011200 AAXX 01121 67481 NIL=
201308010900 AAXX 01094 67481 NIL=
201308010600 AAXX 01064 67481 31475 20412 10145 20096 48/// 70500 82500
                   333 10223 20073 5//// 82616
                   555 00084=

################################################################################
#  SYNOPS from 67531, Zambezi (Zambia) | 13-32S | 023-07E | 1077 m
################################################################################
201308310600 AAXX 31060 67531 NIL=
201308310300 AAXX 31034 67531 NIL=
201308301500 AAXX 30154 67531 NIL=
201308301200 AAXX 30121 67531 NIL=
201308300600 AAXX 30060 67531 NIL=
201308290900 AAXX 29094 67531 NIL=
201308290600 AAXX 29060 67531 NIL=
201308290300 AAXX 29034 67531 NIL=
201308290000 AAXX 29004 67531 NIL=
201308282100 AAXX 28214 67531 NIL=
201308281800 AAXX 28184 67531 NIL=
201308281200 AAXX 28120 67531 NIL=
201308280900 AAXX 28090 67531 NIL=
201308280600 AAXX 28061 67531 NIL=
201308271800 AAXX 27184 67531 NIL=
201308271500 AAXX 27154 67531 NIL=
201308271200 AAXX 27124 67531 NIL=
201308270900 AAXX 27094 67531 NIL=
201308270600 AAXX 27064 67531 31965 01104 10170 20092 48/// 70500
                   333 10315 20158 58004=
201308230600 AAXX 23064 67531 31960 01002 10166 20089 48/// 70500
                   333 10316 20094 58009=
201308221500 AAXX 22154 67531 NIL=
201308221200 AAXX 22120 67531 NIL=
201308220900 AAXX 22094 67531 NIL=
201308211800 AAXX 21184 67531 NIL=
201308211500 AAXX 21154 67531 NIL=
201308211200 AAXX 21124 67531 NIL=
201308210900 AAXX 21094 67531 NIL=
201308210600 AAXX 21064 67531 31950 60907 10165 20113 48/// 70522 80008
                   333 10312 20127 58001 86280=
201308202100 AAXX 20214 67531 NIL=
201308201800 AAXX 20184 67531 NIL=
201308201200 AAXX 20120 67531 NIL=
201308200600 AAXX 20064 67531 31950 01004 10165 20055 48/// 70500
                   333 10330 20121 58013=
201308200000 AAXX 20004 67531 NIL=
201308192100 AAXX 19214 67531 NIL=
201308191800 AAXX 19184 67531 NIL=
201308191500 AAXX 19154 67531 NIL=
201308191200 AAXX 19121 67531 NIL=
201308190900 AAXX 19094 67531 NIL=
201308190600 AAXX 19064 67531 31950 01602 10141 20067 48/// 70500
                   333 10326 20082 58002=
201308181800 AAXX 18184 67531 NIL=
201308181200 AAXX 18121 67531 NIL=
201308180600 AAXX 18061 67531 NIL=
201308171800 AAXX 17184 67531 NIL=
201308171200 AAXX 17121 67531 NIL=
201308170600 AAXX 17060 67531 NIL=
201308161200 AAXX 16120 67531 NIL=
201308160900 AAXX 16094 67531 NIL=
201308160600 AAXX 16064 67531 31950 01703 10170 20080 48/// 70500
                   333 10337 20097 58005=
201308151200 AAXX 15120 67531 NIL=
201308150900 AAXX 15094 67531 NIL=
201308150600 AAXX 15064 67531 31950 01002 10150 20088 48/// 70500
                   333 10327 20090 59001=
201308141500 AAXX 14154 67531 NIL=
201308141200 AAXX 14121 67531 NIL=
201308140900 AAXX 14094 67531 NIL=
201308140600 AAXX 14064 67531 31950 01103 10145 20072 48/// 70500
                   333 10320 20110 59002=
201308131800 AAXX 13184 67531 NIL=
201308131500 AAXX 13154 67531 NIL=
201308131200 AAXX 13121 67531 NIL=
201308130600 AAXX 13064 67531 31960 50000 10156 20073 48/// 70511 80008
                   333 10317 20093 59004 85280=
201308121800 AAXX 12184 67531 NIL=
201308121200 AAXX 12120 67531 NIL=
201308120900 AAXX 12094 67531 NIL=
201308120600 AAXX 12064 67531 31960 00706 10185 20071 48/// 70500
                   333 10321 20139 58001=
201308120300 AAXX 12034 67531 NIL=
201308112100 AAXX 11214 67531 NIL=
201308111800 AAXX 11184 67531 NIL=
201308111200 AAXX 11121 67531 NIL=
201308110900 AAXX 11094 67531 NIL=
201308110600 AAXX 11061 67531 NIL=
201308110300 AAXX 11034 67531 NIL=
201308110000 AAXX 11004 67531 NIL=
201308102100 AAXX 10214 67531 NIL=
201308101800 AAXX 10184 67531 NIL=
201308101500 AAXX 10154 67531 NIL=
201308101200 AAXX 10121 67531 NIL=
201308100900 AAXX 10090 67531 NIL=
201308100600 AAXX 10060 67531 NIL=
201308100300 AAXX 10034 67531 NIL=
201308100000 AAXX 10004 67531 NIL=
201308092100 AAXX 09214 67531 NIL=
201308091800 AAXX 09184 67531 NIL=
201308091500 AAXX 09154 67531 NIL=
201308091200 AAXX 09121 67531 NIL=
201308090900 AAXX 09094 67531 41960 00907 10277 20125 48/// 70500
                   333 58001=
201308090600 AAXX 09064 67531 31960 00903 10169 20106 48/// 70500
                   333 10300 20108 5////=
201308090300 AAXX 09034 67531 NIL=
201308081800 AAXX 08184 67531 NIL=
201308081500 AAXX 08154 67531 NIL=
201308081200 AAXX 08120 67531 NIL=
201308080900 AAXX 08094 67531 41950 01503 10255 20110 48/// 70520
                   333 5////=
201308080600 AAXX 08064 67531 31960 71501 10144 20096 48/// 70500 87030
                   333 10295 20096 59013 87361=
201308080300 AAXX 08034 67531 NIL=
201308072100 AAXX 07214 67531 NIL=
201308071800 AAXX 07184 67531 NIL=
201308071500 AAXX 07154 67531 NIL=
201308071200 AAXX 07120 67531 NIL=
201308070900 AAXX 07094 67531 NIL=
201308070600 AAXX 07064 67531 31965 01104 10120 20053 48/// 70500
                   333 10279 20040 59014=
201308070300 AAXX 07034 67531 NIL=
201308070000 AAXX 07004 67531 NIL=
201308061800 AAXX 06184 67531 NIL=
201308061500 AAXX 06154 67531 NIL=
201308061200 AAXX 06120 67531 NIL=
201308060900 AAXX 06094 67531 41965 01407 10250 20068 48/// 70500
                   333 5////=
201308060600 AAXX 06064 67531 31965 01302 10112 20059 48/// 70500
                   333 10274 20063 5////=
201308041500 AAXX 04154 67531 NIL=
201308041200 AAXX 04120 67531 NIL=
201308040600 AAXX 04060 67531 NIL=
201308040300 AAXX 04034 67531 NIL=
201308032100 AAXX 03214 67531 NIL=
201308031800 AAXX 03184 67531 NIL=
201308031500 AAXX 03154 67531 NIL=
201308031200 AAXX 03121 67531 NIL=
201308030900 AAXX 03094 67531 NIL=
201308030600 AAXX 03060 67531 NIL=
201308030300 AAXX 03034 67531 NIL=
201308021800 AAXX 02184 67531 NIL=
201308021200 AAXX 02124 67531 NIL=
201308020900 AAXX 02094 67531 NIL=
201308020600 AAXX 02061 67531 NIL=
201308020300 AAXX 02034 67531 NIL=
201308012100 AAXX 01214 67531 NIL=
201308011800 AAXX 01184 67531 NIL=
201308011500 AAXX 01154 67531 NIL=
201308011200 AAXX 01121 67531 NIL=
201308010900 AAXX 01094 67531 NIL=
201308010600 AAXX 01064 67531 31975 11209 10156 20088 48/// 70500 81030
                   333 10280 20135 58006 81360
                   555 00118=

################################################################################
#  SYNOPS from 67541, Kasempa (Zambia) | 13-32S | 025-51E | 1234 m
################################################################################
201308310600 AAXX 31060 67541 NIL=
201308310300 AAXX 31034 67541 NIL=
201308301500 AAXX 30154 67541 NIL=
201308301200 AAXX 30121 67541 NIL=
201308300600 AAXX 30064 67541 31950 00000 10137 20079 48506 70500
                   333 10/// 20/// 59018=
201308290900 AAXX 29094 67541 NIL=
201308290600 AAXX 29060 67541 NIL=
201308290300 AAXX 29034 67541 NIL=
201308290000 AAXX 29004 67541 NIL=
201308282100 AAXX 28214 67541 NIL=
201308281800 AAXX 28184 67541 NIL=
201308281200 AAXX 28120 67541 NIL=
201308280900 AAXX 28090 67541 NIL=
201308280600 AAXX 28061 67541 NIL=
201308271800 AAXX 27184 67541 NIL=
201308271500 AAXX 27154 67541 NIL=
201308271200 AAXX 27124 67541 NIL=
201308270900 AAXX 27094 67541 NIL=
201308270600 AAXX 27064 67541 NIL=
201308230600 AAXX 23064 67541 31960 00000 10213 20076 48531 70500
                   333 10/// 20/// 58003=
201308221500 AAXX 22154 67541 NIL=
201308221200 AAXX 22120 67541 NIL=
201308220900 AAXX 22094 67541 NIL=
201308211800 AAXX 21184 67541 NIL=
201308211500 AAXX 21154 67541 NIL=
201308211200 AAXX 21124 67541 NIL=
201308210900 AAXX 21094 67541 NIL=
201308210600 AAXX 21064 67541 31960 50000 10163 20104 48536 70522 80005
                   333 10/// 20/// 59011 85082=
201308202100 AAXX 20214 67541 NIL=
201308201800 AAXX 20184 67541 NIL=
201308201200 AAXX 20120 67541 NIL=
201308200600 AAXX 20064 67541 31960 00804 10195 20070 48547 70500
                   333 10/// 20/// 58026=
201308200000 AAXX 20004 67541 NIL=
201308192100 AAXX 19214 67541 NIL=
201308191800 AAXX 19184 67541 NIL=
201308191500 AAXX 19154 67541 NIL=
201308191200 AAXX 19121 67541 NIL=
201308190900 AAXX 19094 67541 NIL=
201308190600 AAXX 19064 67541 31960 00000 10118 20073 48521 70500
                   333 10/// 20/// 58001=
201308181800 AAXX 18184 67541 NIL=
201308181200 AAXX 18121 67541 NIL=
201308180600 AAXX 18061 67541 NIL=
201308171800 AAXX 17184 67541 NIL=
201308171200 AAXX 17121 67541 NIL=
201308170600 AAXX 17060 67541 NIL=
201308161200 AAXX 16120 67541 NIL=
201308160900 AAXX 16094 67541 NIL=
201308160600 AAXX 16064 67541 31958 00000 10129 20092 48508 70500
                   333 1//// 2//// 59004=
201308151200 AAXX 15120 67541 NIL=
201308150900 AAXX 15094 67541 NIL=
201308150600 AAXX 15061 67541 NIL=
201308141500 AAXX 14154 67541 NIL=
201308141200 AAXX 14121 67541 NIL=
201308140900 AAXX 14094 67541 NIL=
201308140600 AAXX 14061 67541 NIL=
201308131800 AAXX 13184 67541 NIL=
201308131500 AAXX 13154 67541 NIL=
201308131200 AAXX 13121 67541 NIL=
201308130600 AAXX 13060 67541 NIL=
201308121800 AAXX 12184 67541 NIL=
201308121200 AAXX 12120 67541 NIL=
201308120900 AAXX 12094 67541 NIL=
201308120600 AAXX 12064 67541 31958 00000 10175 20086 48547 70500
                   333 10250 20065 59006=
201308120300 AAXX 12034 67541 NIL=
201308112100 AAXX 11214 67541 NIL=
201308111800 AAXX 11184 67541 NIL=
201308111200 AAXX 11121 67541 NIL=
201308110900 AAXX 11094 67541 NIL=
201308110600 AAXX 11061 67541 NIL=
201308110300 AAXX 11034 67541 NIL=
201308110000 AAXX 11004 67541 NIL=
201308102100 AAXX 10214 67541 NIL=
201308101800 AAXX 10184 67541 NIL=
201308101500 AAXX 10154 67541 NIL=
201308101200 AAXX 10121 67541 NIL=
201308100900 AAXX 10090 67541 NIL=
201308100600 AAXX 10060 67541 NIL=
201308100300 AAXX 10034 67541 NIL=
201308100000 AAXX 10004 67541 NIL=
201308092100 AAXX 09214 67541 NIL=
201308091800 AAXX 09184 67541 NIL=
201308091500 AAXX 09154 67541 NIL=
201308091200 AAXX 09121 67541 NIL=
201308090900 AAXX 09094 67541 NIL=
201308090600 AAXX 09061 67541 NIL=
201308090300 AAXX 09034 67541 NIL=
201308081800 AAXX 08184 67541 NIL=
201308081500 AAXX 08154 67541 NIL=
201308081200 AAXX 08120 67541 NIL=
201308080900 AAXX 08094 67541 NIL=
201308080600 AAXX 08064 67541 31960 70000 10158 20118 48504 70522 8703/
                   333 10/// 20/// 59015 87360=
201308080300 AAXX 08034 67541 NIL=
201308072100 AAXX 07214 67541 NIL=
201308071800 AAXX 07184 67541 NIL=
201308071500 AAXX 07154 67541 NIL=
201308071200 AAXX 07120 67541 NIL=
201308070900 AAXX 07094 67541 NIL=
201308070600 AAXX 07064 67541 31958 00000 10118 20079 48519 70500
                   333 10/// 20/// 59013=
201308070300 AAXX 07034 67541 NIL=
201308070000 AAXX 07004 67541 NIL=
201308061800 AAXX 06184 67541 NIL=
201308061500 AAXX 06154 67541 NIL=
201308061200 AAXX 06120 67541 NIL=
201308060900 AAXX 06094 67541 NIL=
201308060600 AAXX 06064 67541 31958 00000 10134 20067 48532 70500
                   333 10/// 20/// 59008=
201308041500 AAXX 04154 67541 NIL=
201308041200 AAXX 04120 67541 NIL=
201308040600 AAXX 04060 67541 NIL=
201308040300 AAXX 04034 67541 NIL=
201308032100 AAXX 03214 67541 NIL=
201308031800 AAXX 03184 67541 NIL=
201308031500 AAXX 03154 67541 NIL=
201308031200 AAXX 03121 67541 NIL=
201308030900 AAXX 03094 67541 NIL=
201308030600 AAXX 03060 67541 NIL=
201308030300 AAXX 03034 67541 NIL=
201308021800 AAXX 02184 67541 NIL=
201308021200 AAXX 02124 67541 NIL=
201308020900 AAXX 02094 67541 NIL=
201308020600 AAXX 02061 67541 NIL=
201308020300 AAXX 02034 67541 NIL=
201308012100 AAXX 01214 67541 NIL=
201308011800 AAXX 01184 67541 NIL=
201308011500 AAXX 01154 67541 NIL=
201308011200 AAXX 01121 67541 NIL=
201308010900 AAXX 01094 67541 NIL=
201308010600 AAXX 01064 67541 NIL=

################################################################################
#  SYNOPS from 67543, Kabompo (Zambia) | 13-36S | 024-12E | 1075 m
################################################################################
201308310600 AAXX 31060 67543 NIL=
201308310300 AAXX 31034 67543 NIL=
201308301500 AAXX 30154 67543 NIL=
201308301200 AAXX 30121 67543 NIL=
201308300600 AAXX 30060 67543 NIL=
201308290900 AAXX 29094 67543 NIL=
201308290600 AAXX 29060 67543 NIL=
201308290300 AAXX 29034 67543 NIL=
201308290000 AAXX 29004 67543 NIL=
201308282100 AAXX 28214 67543 NIL=
201308281800 AAXX 28184 67543 NIL=
201308281200 AAXX 28120 67543 NIL=
201308280900 AAXX 28090 67543 NIL=
201308280600 AAXX 28061 67543 NIL=
201308271800 AAXX 27184 67543 NIL=
201308271500 AAXX 27154 67543 NIL=
201308271200 AAXX 27124 67543 NIL=
201308270900 AAXX 27094 67543 NIL=
201308270600 AAXX 27064 67543 NIL=
201308230600 AAXX 23060 67543 NIL=
201308221500 AAXX 22154 67543 NIL=
201308221200 AAXX 22120 67543 NIL=
201308220900 AAXX 22094 67543 NIL=
201308211800 AAXX 21184 67543 NIL=
201308211500 AAXX 21154 67543 NIL=
201308211200 AAXX 21124 67543 NIL=
201308210900 AAXX 21094 67543 NIL=
201308210600 AAXX 21064 67543 NIL=
201308202100 AAXX 20214 67543 NIL=
201308201800 AAXX 20184 67543 NIL=
201308201200 AAXX 20120 67543 NIL=
201308200600 AAXX 20061 67543 NIL=
201308200000 AAXX 20004 67543 NIL=
201308192100 AAXX 19214 67543 NIL=
201308191800 AAXX 19184 67543 NIL=
201308191500 AAXX 19154 67543 NIL=
201308191200 AAXX 19121 67543 NIL=
201308190900 AAXX 19094 67543 NIL=
201308190600 AAXX 19060 67543 NIL=
201308181800 AAXX 18184 67543 NIL=
201308181200 AAXX 18121 67543 NIL=
201308180600 AAXX 18061 67543 NIL=
201308171800 AAXX 17184 67543 NIL=
201308171200 AAXX 17121 67543 NIL=
201308170600 AAXX 17060 67543 NIL=
201308161200 AAXX 16120 67543 NIL=
201308160900 AAXX 16094 67543 NIL=
201308160600 AAXX 16060 67543 NIL=
201308151200 AAXX 15120 67543 NIL=
201308150900 AAXX 15094 67543 NIL=
201308150600 AAXX 15061 67543 NIL=
201308141500 AAXX 14154 67543 NIL=
201308141200 AAXX 14121 67543 NIL=
201308140900 AAXX 14094 67543 NIL=
201308140600 AAXX 14061 67543 NIL=
201308131800 AAXX 13184 67543 NIL=
201308131500 AAXX 13154 67543 NIL=
201308131200 AAXX 13121 67543 NIL=
201308130600 AAXX 13060 67543 NIL=
201308121800 AAXX 12184 67543 NIL=
201308121200 AAXX 12120 67543 NIL=
201308120900 AAXX 12094 67543 NIL=
201308120600 AAXX 12064 67543 NIL=
201308120300 AAXX 12034 67543 NIL=
201308112100 AAXX 11214 67543 NIL=
201308111800 AAXX 11184 67543 NIL=
201308111200 AAXX 11121 67543 NIL=
201308110900 AAXX 11094 67543 NIL=
201308110600 AAXX 11061 67543 NIL=
201308110300 AAXX 11034 67543 NIL=
201308110000 AAXX 11004 67543 NIL=
201308102100 AAXX 10214 67543 NIL=
201308101800 AAXX 10184 67543 NIL=
201308101500 AAXX 10154 67543 NIL=
201308101200 AAXX 10121 67543 NIL=
201308100900 AAXX 10090 67543 NIL=
201308100600 AAXX 10060 67543 NIL=
201308100300 AAXX 10034 67543 NIL=
201308100000 AAXX 10004 67543 NIL=
201308092100 AAXX 09214 67543 NIL=
201308091800 AAXX 09184 67543 NIL=
201308091500 AAXX 09154 67543 NIL=
201308091200 AAXX 09121 67543 NIL=
201308090900 AAXX 09094 67543 NIL=
201308090600 AAXX 09061 67543 NIL=
201308090300 AAXX 09034 67543 NIL=
201308081800 AAXX 08184 67543 NIL=
201308081500 AAXX 08154 67543 NIL=
201308081200 AAXX 08120 67543 NIL=
201308080900 AAXX 08094 67543 NIL=
201308080600 AAXX 08060 67543 NIL=
201308080300 AAXX 08034 67543 NIL=
201308072100 AAXX 07214 67543 NIL=
201308071800 AAXX 07184 67543 NIL=
201308071500 AAXX 07154 67543 NIL=
201308071200 AAXX 07120 67543 NIL=
201308070900 AAXX 07094 67543 NIL=
201308070600 AAXX 07060 67543 NIL=
201308070300 AAXX 07034 67543 NIL=
201308070000 AAXX 07004 67543 NIL=
201308061800 AAXX 06184 67543 NIL=
201308061500 AAXX 06154 67543 NIL=
201308061200 AAXX 06120 67543 NIL=
201308060900 AAXX 06094 67543 NIL=
201308041500 AAXX 04154 67543 NIL=
201308041200 AAXX 04120 67543 NIL=
201308040600 AAXX 04060 67543 NIL=
201308040300 AAXX 04034 67543 NIL=
201308032100 AAXX 03214 67543 NIL=
201308031800 AAXX 03184 67543 NIL=
201308031500 AAXX 03154 67543 NIL=
201308031200 AAXX 03121 67543 NIL=
201308030900 AAXX 03094 67543 NIL=
201308030600 AAXX 03060 67543 NIL=
201308030300 AAXX 03034 67543 NIL=
201308021800 AAXX 02184 67543 NIL=
201308021200 AAXX 02124 67543 NIL=
201308020900 AAXX 02094 67543 NIL=
201308020600 AAXX 02061 67543 NIL=
201308020300 AAXX 02034 67543 NIL=
201308012100 AAXX 01214 67543 NIL=
201308011800 AAXX 01184 67543 NIL=
201308011500 AAXX 01154 67543 NIL=
201308011200 AAXX 01121 67543 NIL=
201308010900 AAXX 01094 67543 NIL=
201308010600 AAXX 01064 67543 NIL=

################################################################################
#  SYNOPS from 67551, Solwezi (Zambia) | 12-11S | 026-23E | 1386 m
################################################################################
201308310600 AAXX 31060 67551 NIL=
201308310300 AAXX 31034 67551 NIL=
201308301500 AAXX 30154 67551 NIL=
201308301200 AAXX 30121 67551 NIL=
201308300600 AAXX 30064 67551 31956 01304 10166 20082 48525 70500
                   333 10300 20122 59022 91019=
201308290900 AAXX 29094 67551 NIL=
201308290600 AAXX 29060 67551 NIL=
201308290300 AAXX 29034 67551 NIL=
201308290000 AAXX 29004 67551 NIL=
201308282100 AAXX 28214 67551 NIL=
201308281800 AAXX 28184 67551 NIL=
201308281200 AAXX 28120 67551 NIL=
201308280900 AAXX 28090 67551 NIL=
201308280600 AAXX 28061 67551 NIL=
201308271800 AAXX 27184 67551 NIL=
201308271500 AAXX 27154 67551 NIL=
201308271200 AAXX 27124 67551 NIL=
201308270900 AAXX 27094 67551 NIL=
201308270600 AAXX 27064 67551 31975 00804 10155 20082 48556 70500
                   333 10280 20091 59001 91023=
201308230600 AAXX 23064 67551 31965 01205 10172 20096 48540 70500
                   333 10281 20112 58008 91022=
201308221500 AAXX 22154 67551 NIL=
201308221200 AAXX 22120 67551 NIL=
201308220900 AAXX 22094 67551 NIL=
201308211800 AAXX 21184 67551 NIL=
201308211500 AAXX 21154 67551 NIL=
201308211200 AAXX 21124 67551 NIL=
201308210900 AAXX 21094 67551 NIL=
201308210600 AAXX 21064 67551 31970 01306 10140 20110 48546 70500
                   333 10270 20115 59006 91022=
201308202100 AAXX 20214 67551 NIL=
201308201800 AAXX 20184 67551 NIL=
201308201200 AAXX 20120 67551 NIL=
201308200600 AAXX 20064 67551 31965 01206 10160 20064 48551 70500
                   333 10288 20120 58015 91023=
201308200000 AAXX 20004 67551 NIL=
201308192100 AAXX 19214 67551 NIL=
201308191800 AAXX 19184 67551 NIL=
201308191500 AAXX 19154 67551 NIL=
201308191200 AAXX 19121 67551 NIL=
201308190900 AAXX 19094 67551 NIL=
201308190600 AAXX 19064 67551 31956 00905 10160 20064 48537 70500
                   333 10302 20106 58008 91021=
201308181800 AAXX 18184 67551 NIL=
201308181200 AAXX 18121 67551 NIL=
201308180600 AAXX 18061 67551 NIL=
201308171800 AAXX 17184 67551 NIL=
201308171200 AAXX 17121 67551 NIL=
201308170600 AAXX 17060 67551 NIL=
201308161200 AAXX 16120 67551 NIL=
201308160900 AAXX 16094 67551 NIL=
201308160600 AAXX 16064 67551 31965 00000 10115 20063 48521 70500
                   333 10290 20090 59003 91020=
201308151200 AAXX 15120 67551 NIL=
201308150900 AAXX 15094 67551 NIL=
201308150600 AAXX 15064 67551 31956 00804 10140 20061 48526 70500
                   333 10306 20081 58001 91020=
201308141500 AAXX 14154 67551 NIL=
201308141200 AAXX 14121 67551 NIL=
201308140900 AAXX 14094 67551 NIL=
201308140600 AAXX 14064 67551 31956 00000 10125 20064 48524 70500
                   333 10286 20067 59005 91020=
201308131800 AAXX 13184 67551 NIL=
201308131500 AAXX 13154 67551 NIL=
201308131200 AAXX 13121 67551 NIL=
201308130600 AAXX 13064 67551 31950 01005 10110 20071 48527 70500
                   333 10282 20081 59012 91021=
201308121800 AAXX 12184 67551 NIL=
201308121200 AAXX 12120 67551 NIL=
201308120900 AAXX 12094 67551 NIL=
201308120600 AAXX 12064 67551 NIL=
201308120300 AAXX 12034 67551 NIL=
201308112100 AAXX 11214 67551 NIL=
201308111800 AAXX 11184 67551 NIL=
201308111200 AAXX 11121 67551 NIL=
201308110900 AAXX 11094 67551 NIL=
201308110600 AAXX 11061 67551 NIL=
201308110300 AAXX 11034 67551 NIL=
201308110000 AAXX 11004 67551 NIL=
201308102100 AAXX 10214 67551 NIL=
201308101800 AAXX 10184 67551 NIL=
201308101500 AAXX 10154 67551 NIL=
201308101200 AAXX 10121 67551 NIL=
201308100900 AAXX 10090 67551 NIL=
201308100600 AAXX 10060 67551 NIL=
201308100300 AAXX 10034 67551 NIL=
201308100000 AAXX 10004 67551 NIL=
201308092100 AAXX 09214 67551 NIL=
201308091800 AAXX 09184 67551 NIL=
201308091500 AAXX 09154 67551 NIL=
201308091200 AAXX 09121 67551 NIL=
201308090900 AAXX 09094 67551 NIL=
201308090600 AAXX 09064 67551 31965 71205 10170 20114 48538 70522 8707/
                   333 10275 20122 58011 87362 91020=
201308090300 AAXX 09034 67551 NIL=
201308081800 AAXX 08184 67551 NIL=
201308081500 AAXX 08154 67551 NIL=
201308081200 AAXX 08120 67551 NIL=
201308080900 AAXX 08094 67551 NIL=
201308080600 AAXX 08060 67551 NIL=
201308080300 AAXX 08034 67551 NIL=
201308072100 AAXX 07214 67551 NIL=
201308071800 AAXX 07184 67551 NIL=
201308071500 AAXX 07154 67551 NIL=
201308071200 AAXX 07120 67551 NIL=
201308070900 AAXX 07094 67551 NIL=
201308070600 AAXX 07060 67551 NIL=
201308070300 AAXX 07034 67551 NIL=
201308070000 AAXX 07004 67551 NIL=
201308061800 AAXX 06184 67551 NIL=
201308061500 AAXX 06154 67551 NIL=
201308061200 AAXX 06120 67551 NIL=
201308060900 AAXX 06094 67551 NIL=
201308041500 AAXX 04154 67551 NIL=
201308041200 AAXX 04120 67551 NIL=
201308040600 AAXX 04060 67551 NIL=
201308040300 AAXX 04034 67551 NIL=
201308032100 AAXX 03214 67551 NIL=
201308031800 AAXX 03184 67551 NIL=
201308031500 AAXX 03154 67551 NIL=
201308031200 AAXX 03121 67551 NIL=
201308030900 AAXX 03094 67551 NIL=
201308030600 AAXX 03060 67551 NIL=
201308030300 AAXX 03034 67551 NIL=
201308021800 AAXX 02184 67551 NIL=
201308021200 AAXX 02124 67551 NIL=
201308020900 AAXX 02094 67551 NIL=
201308020600 AAXX 02061 67551 NIL=
201308020300 AAXX 02034 67551 NIL=
201308012100 AAXX 01214 67551 NIL=
201308011800 AAXX 01184 67551 NIL=
201308011500 AAXX 01154 67551 NIL=
201308011200 AAXX 01121 67551 NIL=
201308010900 AAXX 01094 67551 NIL=
201308010600 AAXX 01064 67551 NIL=

################################################################################
#  SYNOPS from 67561, Ndola (Zambia) | 13-00S | 028-39E | 1269 m
################################################################################
201308310600 AAXX 31060 67561 NIL=
201308310300 AAXX 31034 67561 NIL=
201308301500 AAXX 30154 67561 NIL=
201308301200 AAXX 30121 67561 NIL=
201308300600 AAXX 30064 67561 31958 00705 10170 20075 48518 70400
                   333 10290 20051 59024 91019=
201308291200 AAXX 29124 67561 41960 00000 10280 20051 48521 70500
                   333 59015 91019=
201308290900 AAXX 29094 67561 41960 00909 10254 20054 48550 70500
                   333 59012 91022=
201308290600 AAXX 29060 67561 31959 00000 10161 20060 48542 70400
                   333 10285 20106 59014
                   555 00/// 91022=
201308290300 AAXX 29034 67561 NIL=
201308290000 AAXX 29004 67561 NIL=
201308282100 AAXX 28214 67561 NIL=
201308281800 AAXX 28184 67561 NIL=
201308281200 AAXX 28124 67561 41970 00000 10271 20048 48536 70500
                   333 59004 91020=
201308280900 AAXX 28090 67561 NIL=
201308280600 AAXX 28064 67561 31959 00705 10156 20073 48552 70400
                   333 10281 20103 59007
                   555 00/// 91024=
201308271800 AAXX 27184 67561 NIL=
201308271500 AAXX 27154 67561 41960 09002 10266 20051 48531 70500
                   333 59006=
201308271200 AAXX 27124 67561 NIL=
201308270900 AAXX 27094 67561 NIL=
201308270600 AAXX 27064 67561 31960 01108 10180 20088 48563 70500
                   333 10279 20110 58002 91025=
201308230600 AAXX 23064 67561 31959 00704 10151 20072 48538 70400
                   333 10294 20110 58002
                   555 00/// BB103 CC110 DD/// 91022=
201308221500 AAXX 22154 67561 NIL=
201308221200 AAXX 22120 67561 NIL=
201308220900 AAXX 22094 67561 NIL=
201308220600 AAXX 22064 67561 31958 20000 10150 20073 48536 70400
                   333 10278 20102 59011
                   555 91021=
201308211800 AAXX 21184 67561 NIL=
201308211500 AAXX 21154 67561 NIL=
201308211200 AAXX 21124 67561 NIL=
201308210900 AAXX 21094 67561 NIL=
201308210600 AAXX 21064 67561 31970 00908 10178 20093 48549 70500
                   333 10262 20138 59009
                   555 00/// 91023=
201308202100 AAXX 20214 67561 NIL=
201308201800 AAXX 20184 67561 NIL=
201308201200 AAXX 20124 67561 41759 51109 10254 20068 48552 70411 85200
                   333 58033 85850 91022=
201308200900 AAXX 20094 67561 41659 01012 10249 20098 48573 70400 81100
                   333 58027 81845 91025=
201308200600 AAXX 20064 67561 31958 01110 10180 20096 48558 70400
                   333 10311 20120 58026
                   555 91024=
201308200000 AAXX 20004 67561 NIL=
201308192100 AAXX 19214 67561 NIL=
201308191800 AAXX 19184 67561 NIL=
201308191500 AAXX 19154 67561 NIL=
201308191200 AAXX 19124 67561 41960 01112 10306 20011 48520 70400
                   333 58005 91018=
201308190900 AAXX 19094 67561 41959 00708 10275 20028 48549 70400
                   333 58009 91022=
201308190600 AAXX 19060 67561 41940 00000 10163 20060 48531 70400
                   333 10309 20110 59001
                   555 00/// 91021=
201308181800 AAXX 18184 67561 NIL=
201308181200 AAXX 18121 67561 NIL=
201308180600 AAXX 18061 67561 NIL=
201308171800 AAXX 17184 67561 NIL=
201308171200 AAXX 17121 67561 NIL=
201308170600 AAXX 17060 67561 NIL=
201308161200 AAXX 16124 67561 41958 01506 10302 20022 48510 70400
                   333 58004 91017=
201308160900 AAXX 16094 67561 41959 00906 10285 20023 48533 70400
                   333 58002 91020=
201308160600 AAXX 16064 67561 31954 00703 10184 20036 48523 70400
                   333 10310 20116 59001
                   555 00/// 91020=
201308151200 AAXX 15120 67561 NIL=
201308150900 AAXX 15094 67561 41956 00000 10278 20048 48531 70400
                   333 58001 91020=
201308150600 AAXX 15060 67561 31909 00000 10118 20058 48519 70400
                   333 58000 555 00/// 91020=
201308141500 AAXX 14154 67561 NIL=
201308141200 AAXX 14121 67561 NIL=
201308140900 AAXX 14094 67561 41959 00000 10285 20044 48530 70400
                   333 59008 91020=
201308140600 AAXX 14064 67561 31957 00000 10130 20063 48520 70400
                   333 10295 20080 59005 91020=
201308131800 AAXX 13184 67561 NIL=
201308131500 AAXX 13154 67561 NIL=
201308131200 AAXX 13121 67561 NIL=
201308130600 AAXX 13064 67561 31959 00000 10174 20064 48529 70400
                   333 10280 20093 59019
                   555 00/// BB097 CC093 DD/// Q1020=
201308121800 AAXX 12184 67561 NIL=
201308121200 AAXX 12124 67561 41960 00000 10277 20052 48524 70500
                   333 59011 91019=
201308120900 AAXX 12094 67561 NIL=
201308120600 AAXX 12064 67561 31960 00803 10143 20056 48543 70500
                   333 10283 20110 58002
                   555 00/// 91023=
201308120300 AAXX 12034 67561 NIL=
201308112100 AAXX 11214 67561 NIL=
201308111800 AAXX 11184 67561 NIL=
201308111200 AAXX 11121 67561 NIL=
201308110900 AAXX 11094 67561 NIL=
201308110600 AAXX 11061 67561 NIL=
201308110300 AAXX 11034 67561 NIL=
201308110000 AAXX 11004 67561 NIL=
201308102100 AAXX 10214 67561 NIL=
201308101800 AAXX 10184 67561 NIL=
201308101500 AAXX 10154 67561 NIL=
201308101200 AAXX 10121 67561 NIL=
201308100900 AAXX 10090 67561 NIL=
201308100600 AAXX 10060 67561 NIL=
201308100300 AAXX 10034 67561 NIL=
201308100000 AAXX 10004 67561 NIL=
201308092100 AAXX 09214 67561 NIL=
201308091800 AAXX 09184 67561 NIL=
201308091500 AAXX 09154 67561 NIL=
201308091200 AAXX 09124 67561 41960 00000 10284 20088 48516 70500
                   333 58010 91018=
201308090900 AAXX 09094 67561 41960 00305 10246 20094 48538 70500
                   333 58005 91021=
201308090600 AAXX 09060 67561 31959 20000 10156 20092 48524 70411 82030
                   333 10282 20134 58012 82360
                   555 00/// 91021=
201308090300 AAXX 09034 67561 NIL=
201308081800 AAXX 08184 67561 NIL=
201308081500 AAXX 08154 67561 NIL=
201308081200 AAXX 08120 67561 NIL=
201308080900 AAXX 08094 67561 41960 50912 10228 20093 48531 70522 85030
                   333 59012 85360 91021=
201308080600 AAXX 08064 67561 31959 70805 10152 20096 48517 70422 87030
                   333 10275 20125 59013 87360 91019=
201308080300 AAXX 08034 67561 NIL=
201308072100 AAXX 07214 67561 NIL=
201308071800 AAXX 07184 67561 NIL=
201308071500 AAXX 07154 67561 NIL=
201308071200 AAXX 07120 67561 NIL=
201308070900 AAXX 07094 67561 NIL=
201308070600 AAXX 07064 67561 31960 00000 10140 20094 48528 70500
                   333 10265 20095 59012 91021=
201308070300 AAXX 07034 67561 NIL=
201308070000 AAXX 07004 67561 NIL=
201308061800 AAXX 06184 67561 NIL=
201308061500 AAXX 06154 67561 NIL=
201308061200 AAXX 06120 67561 NIL=
201308060900 AAXX 06094 67561 NIL=
201308060600 AAXX 06064 67561 31958 20000 10120 20064 48539 70411 82030
                   333 10251 20084 59005 82360 91026=
201308041500 AAXX 04154 67561 NIL=
201308041200 AAXX 04120 67561 NIL=
201308040600 AAXX 04060 67561 NIL=
201308040300 AAXX 04034 67561 NIL=
201308032100 AAXX 03214 67561 NIL=
201308031800 AAXX 03184 67561 NIL=
201308031500 AAXX 03154 67561 NIL=
201308031200 AAXX 03121 67561 NIL=
201308030900 AAXX 03094 67561 NIL=
201308030600 AAXX 03060 67561 NIL=
201308030300 AAXX 03034 67561 NIL=
201308021800 AAXX 02184 67561 NIL=
201308021200 AAXX 02124 67561 NIL=
201308020900 AAXX 02094 67561 NIL=
201308020600 AAXX 02064 67561 31260 31205 10141 20103 48582 70511 83130
                   333 10240 20101 58001 81830 92360=
201308020300 AAXX 02034 67561 NIL=
201308012100 AAXX 01214 67561 NIL=
201308011800 AAXX 01184 67561 NIL=
201308011500 AAXX 01154 67561 NIL=
201308011200 AAXX 01121 67561 NIL=
201308010900 AAXX 01094 67561 NIL=
201308010600 AAXX 01064 67561 NIL=

################################################################################
#  SYNOPS from 67563, Kafironda (Zambia) | 12-36S | 028-07E | 1243 m
################################################################################
201308310600 AAXX 31060 67563 NIL=
201308310300 AAXX 31034 67563 NIL=
201308301500 AAXX 30154 67563 NIL=
201308301200 AAXX 30121 67563 NIL=
201308300600 AAXX 30064 67563 NIL=
201308290900 AAXX 29094 67563 NIL=
201308290600 AAXX 29064 67563 NIL=
201308290300 AAXX 29034 67563 NIL=
201308290000 AAXX 29004 67563 NIL=
201308282100 AAXX 28214 67563 NIL=
201308281800 AAXX 28184 67563 NIL=
201308281200 AAXX 28124 67563 NIL=
201308280900 AAXX 28090 67563 NIL=
201308280600 AAXX 28064 67563 NIL=
201308271800 AAXX 27184 67563 NIL=
201308271500 AAXX 27154 67563 NIL=
201308271200 AAXX 27124 67563 NIL=
201308270900 AAXX 27094 67563 NIL=
201308270600 AAXX 27064 67563 NIL=
201308230600 AAXX 23064 67563 31950 00801 10164 20080 48/// 70500
                   333 10302 20067 58002=
201308221500 AAXX 22154 67563 NIL=
201308221200 AAXX 22120 67563 NIL=
201308220900 AAXX 22094 67563 NIL=
201308211800 AAXX 21184 67563 NIL=
201308211500 AAXX 21154 67563 NIL=
201308211200 AAXX 21124 67563 NIL=
201308210900 AAXX 21094 67563 NIL=
201308210600 AAXX 21064 67563 31960 00801 10152 20110 48/// 70500
                   333 10270 20065 59006=
201308202100 AAXX 20214 67563 NIL=
201308201800 AAXX 20184 67563 NIL=
201308201200 AAXX 20120 67563 NIL=
201308200600 AAXX 20061 67563 NIL=
201308200000 AAXX 20004 67563 NIL=
201308192100 AAXX 19214 67563 NIL=
201308191800 AAXX 19184 67563 NIL=
201308191500 AAXX 19154 67563 NIL=
201308191200 AAXX 19121 67563 NIL=
201308190900 AAXX 19094 67563 NIL=
201308190600 AAXX 19064 67563 31950 00702 10120 20050 48/// 70500
                   333 10310 20039 59003
                   555 00///=
201308181800 AAXX 18184 67563 NIL=
201308181200 AAXX 18121 67563 NIL=
201308180600 AAXX 18061 67563 NIL=
201308171800 AAXX 17184 67563 NIL=
201308171200 AAXX 17121 67563 NIL=
201308170600 AAXX 17060 67563 NIL=
201308161200 AAXX 16124 67563 NIL=
201308160900 AAXX 16094 67563 NIL=
201308160600 AAXX 16064 67563 NIL=
201308151200 AAXX 15120 67563 NIL=
201308150900 AAXX 15094 67563 NIL=
201308150600 AAXX 15064 67563 31940 00000 10105 20060 48/// 70500
                   333 10308 20043 58001=
201308141500 AAXX 14154 67563 NIL=
201308141200 AAXX 14121 67563 NIL=
201308140900 AAXX 14094 67563 NIL=
201308140600 AAXX 14064 67563 31940 00402 10117 20060 48/// 70500
                   333 10296 20040 59004=
201308131800 AAXX 13184 67563 NIL=
201308131500 AAXX 13154 67563 NIL=
201308131200 AAXX 13121 67563 NIL=
201308130600 AAXX 13064 67563 31940 00301 10106 20060 48/// 70500
                   333 10282 20032 59017=
201308121800 AAXX 12184 67563 NIL=
201308121200 AAXX 12120 67563 NIL=
201308120900 AAXX 12094 67563 NIL=
201308120600 AAXX 12064 67563 31950 01602 10142 20060 48/// 70500
                   333 10286 20037 58004=
201308120300 AAXX 12034 67563 NIL=
201308112100 AAXX 11214 67563 NIL=
201308111800 AAXX 11184 67563 NIL=
201308111200 AAXX 11121 67563 NIL=
201308110900 AAXX 11094 67563 NIL=
201308110600 AAXX 11061 67563 NIL=
201308110300 AAXX 11034 67563 NIL=
201308110000 AAXX 11004 67563 NIL=
201308102100 AAXX 10214 67563 NIL=
201308101800 AAXX 10184 67563 NIL=
201308101500 AAXX 10154 67563 NIL=
201308101200 AAXX 10121 67563 NIL=
201308100900 AAXX 10090 67563 NIL=
201308100600 AAXX 10060 67563 NIL=
201308100300 AAXX 10034 67563 NIL=
201308100000 AAXX 10004 67563 NIL=
201308092100 AAXX 09214 67563 NIL=
201308091800 AAXX 09184 67563 NIL=
201308091500 AAXX 09154 67563 NIL=
201308091200 AAXX 09124 67563 NIL=
201308090900 AAXX 09094 67563 NIL=
201308090600 AAXX 09064 67563 31950 00302 10188 20090 48/// 70500
                   333 10284 20116 58013=
201308090300 AAXX 09034 67563 NIL=
201308081800 AAXX 08184 67563 NIL=
201308081500 AAXX 08154 67563 NIL=
201308081200 AAXX 08120 67563 NIL=
201308080900 AAXX 08094 67563 NIL=
201308080600 AAXX 08064 67563 31950 50401 10165 20100 48/// 70500 85030
                   333 10279 80136 59012 85360=
201308080300 AAXX 08034 67563 NIL=
201308072100 AAXX 07214 67563 NIL=
201308071800 AAXX 07184 67563 NIL=
201308071500 AAXX 07154 67563 NIL=
201308071200 AAXX 07120 67563 NIL=
201308070900 AAXX 07094 67563 NIL=
201308070600 AAXX 07064 67563 31960 21202 10144 20080 48/// 70500 80001
                   333 10272 20053 59012 82080=
201308070300 AAXX 07034 67563 NIL=
201308070000 AAXX 07004 67563 NIL=
201308061800 AAXX 06184 67563 NIL=
201308061500 AAXX 06154 67563 NIL=
201308061200 AAXX 06120 67563 NIL=
201308060900 AAXX 06094 67563 NIL=
201308060600 AAXX 06064 67563 31960 10102 10102 20050 48/// 70500
                   333 10261 20031 58004=
201308041500 AAXX 04154 67563 NIL=
201308041200 AAXX 04120 67563 NIL=
201308040600 AAXX 04060 67563 NIL=
201308040300 AAXX 04034 67563 NIL=
201308032100 AAXX 03214 67563 NIL=
201308031800 AAXX 03184 67563 NIL=
201308031500 AAXX 03154 67563 NIL=
201308031200 AAXX 03121 67563 NIL=
201308030900 AAXX 03094 67563 NIL=
201308030600 AAXX 03060 67563 NIL=
201308030300 AAXX 03034 67563 NIL=
201308021800 AAXX 02184 67563 NIL=
201308021200 AAXX 02124 67563 NIL=
201308020900 AAXX 02094 67563 NIL=
201308020600 AAXX 02061 67563 NIL=
201308020300 AAXX 02034 67563 NIL=
201308012100 AAXX 01214 67563 NIL=
201308011800 AAXX 01184 67563 NIL=
201308011500 AAXX 01154 67563 NIL=
201308011200 AAXX 01121 67563 NIL=
201308010900 AAXX 01094 67563 NIL=
201308010600 AAXX 01064 67563 NIL=

################################################################################
#  SYNOPS from 67571, Serenje (Zambia) | 13-14S | 030-13E | 1384 m
################################################################################
201308310600 AAXX 31060 67571 NIL=
201308310300 AAXX 31034 67571 NIL=
201308301500 AAXX 30154 67571 NIL=
201308301200 AAXX 30121 67571 NIL=
201308300900 AAXX 30094 67571 41965 00602 10275 20064 48528 70500
                   333 59014=
201308300600 AAXX 30064 67571 31965 00000 10186 20096 48521 70500
                   333 10296 20119 59014
                   555 00/// 20000 AA271 BB108 CC119 DD075=
201308290900 AAXX 29094 67571 41975 00602 10253 20045 48544 70500
                   333 59020=
201308290600 AAXX 29064 67571 31975 00605 10199 20064 48542 70500
                   333 10284 20136 59016=
201308290300 AAXX 29034 67571 NIL=
201308290000 AAXX 29004 67571 NIL=
201308282100 AAXX 28214 67571 NIL=
201308281800 AAXX 28184 67571 NIL=
201308281200 AAXX 28124 67571 NIL=
201308280900 AAXX 28094 67571 42975 00903 10236 20068 48564 70500
                   333 59004=
201308280600 AAXX 28064 67571 31975 00903 10169 20061 48550 70500
                   333 10260 20089 59010
                   555 00/// 20000 AA237 BB111 CC089 DD059=
201308271800 AAXX 27184 67571 NIL=
201308271500 AAXX 27154 67571 NIL=
201308271200 AAXX 27124 67571 42680 10902 10243 20059 48544 70500 81100
                   333 59003 81845=
201308270900 AAXX 27094 67571 NIL=
201308270600 AAXX 27064 67571 32980 00904 10169 20075 48560 70500
                   333 10262 20117 58002
                   555 00/// 20000 AA256 BB108 CC117 DD080=
201308230600 AAXX 23064 67571 31975 00603 10192 20094 48551 70500
                   333 10288 20129 58009
                   555 00/// 20000 AA251 BB107 CC129 DD058=
201308221500 AAXX 22154 67571 NIL=
201308221200 AAXX 22124 67571 41678 63602 10278 20088 48515 81108
                   333 59007 81835 86281=
201308220900 AAXX 22094 67571 41975 01502 10236 20081 48544 70500
                   333 59010=
201308220600 AAXX 22064 67571 31975 00903 10192 20086 48541 70500
                   333 10264 20114 59014
                   555 00/// 20000 AA248 BB106 CC114 DD057=
201308211800 AAXX 21184 67571 NIL=
201308211500 AAXX 21154 67571 NIL=
201308211200 AAXX 21124 67571 NIL=
201308210900 AAXX 21094 67571 NIL=
201308210600 AAXX 21064 67571 NIL=
201308202100 AAXX 20214 67571 NIL=
201308201800 AAXX 20184 67571 NIL=
201308201200 AAXX 20120 67571 NIL=
201308200900 AAXX 20094 67571 41575 60605 10186 20113 48571 70522 86500
                   333 58038 86629=
201308200600 AAXX 20064 67571 31465 40903 10163 20114 48559 70500 84500
                   333 10284 20135 58028 84618
                   555 00/// 20000 AA277 BB106 CC135 DD083=
201308200000 AAXX 20004 67571 NIL=
201308192100 AAXX 19214 67571 NIL=
201308191800 AAXX 19184 67571 NIL=
201308191500 AAXX 19154 67571 NIL=
201308191200 AAXX 19121 67571 NIL=
201308190900 AAXX 19094 67571 41978 00908 10270 20009 48545 70500
                   333 58003=
201308190600 AAXX 19064 67571 31978 00903 10201 20064 48532 70500
                   333 10290 20073 58000
                   555 00/// 20000 AA257 BB107 CC073 DD058=
201308181800 AAXX 18184 67571 NIL=
201308181200 AAXX 18121 67571 NIL=
201308180600 AAXX 18061 67571 NIL=
201308171800 AAXX 17184 67571 NIL=
201308171200 AAXX 17121 67571 NIL=
201308170600 AAXX 17060 67571 NIL=
201308161200 AAXX 16124 67571 NIL=
201308160900 AAXX 16094 67571 41970 00904 10267 20029 48535 70500
                   333 58007=
201308160600 AAXX 16064 67571 31960 00902 10204 20041 48522 70500
                   333 10291 20084 58000
                   555 00/// 20000 AA264 BB105 CC084 DD060=
201308151200 AAXX 15120 67571 NIL=
201308150900 AAXX 15094 67571 NIL=
201308150600 AAXX 15064 67571 NIL=
201308141500 AAXX 14154 67571 NIL=
201308141200 AAXX 14121 67571 NIL=
201308140900 AAXX 14094 67571 41965 00000 10266 20001 48515 70500
                   333 59017=
201308140600 AAXX 14064 67571 31965 00000 10199 20061 48522 70500
                   333 10277 20114 59009
                   555 00/// AA254 BB108 CC114 DD068=
201308131800 AAXX 13184 67571 NIL=
201308131500 AAXX 13154 67571 NIL=
201308131200 AAXX 13121 67571 NIL=
201308130600 AAXX 13064 67571 NIL=
201308121800 AAXX 12184 67571 NIL=
201308121200 AAXX 12120 67571 NIL=
201308120900 AAXX 12094 67571 42980 00908 10232 20009 48543 70500
                   333 58002=
201308120600 AAXX 12064 67571 NIL=
201308120300 AAXX 12034 67571 NIL=
201308112100 AAXX 11214 67571 NIL=
201308111800 AAXX 11184 67571 NIL=
201308111200 AAXX 11121 67571 NIL=
201308110900 AAXX 11094 67571 NIL=
201308110600 AAXX 11061 67571 NIL=
201308110300 AAXX 11034 67571 NIL=
201308110000 AAXX 11004 67571 NIL=
201308102100 AAXX 10214 67571 NIL=
201308101800 AAXX 10184 67571 NIL=
201308101500 AAXX 10154 67571 NIL=
201308101200 AAXX 10121 67571 NIL=
201308100900 AAXX 10090 67571 NIL=
201308100600 AAXX 10060 67571 NIL=
201308100300 AAXX 10034 67571 NIL=
201308100000 AAXX 10004 67571 NIL=
201308092100 AAXX 09214 67571 NIL=
201308091800 AAXX 09184 67571 NIL=
201308091500 AAXX 09154 67571 NIL=
201308091200 AAXX 09124 67571 NIL=
201308090900 AAXX 09094 67571 NIL=
201308090600 AAXX 09064 67571 NIL=
201308090300 AAXX 09034 67571 NIL=
201308081800 AAXX 08184 67571 NIL=
201308081500 AAXX 08154 67571 NIL=
201308081200 AAXX 08120 67571 NIL=
201308080900 AAXX 08094 67571 42978 70902 10236 20100 48534 70522 8703/
                   333 59005 87361=
201308080600 AAXX 08064 67571 32978 70902 10160 20094 48530 70522 8703/
                   333 10250 20128 59003 87360
                   555 00/// AA223 BB098 CC128 DD037=
201308080300 AAXX 08034 67571 NIL=
201308072100 AAXX 07214 67571 NIL=
201308071800 AAXX 07184 67571 NIL=
201308071500 AAXX 07154 67571 NIL=
201308071200 AAXX 07120 67571 NIL=
201308070900 AAXX 07094 67571 42978 01204 10222 20099 48533 70500
                   333 59011=
201308070600 AAXX 07064 67571 32978 31202 10163 20112 48530 70500 83030
                   333 10250 20129 59010 83360
                   555 00/// AA222 BB104 CC129 DD056=
201308070300 AAXX 07034 67571 NIL=
201308070000 AAXX 07004 67571 NIL=
201308061800 AAXX 06184 67571 NIL=
201308061500 AAXX 06154 67571 NIL=
201308061200 AAXX 06124 67571 42682 51202 10235 20076 48524 85100
                   333 59004 85839=
201308060900 AAXX 06094 67571 42582 00908 10212 20087 48542 70300 81100
                   333 59004 81825=
201308060600 AAXX 06064 67571 32582 51205 10166 20086 48540 70122 85500
                   333 10223 20130 59014 85623
                   555 00/// AA214 BB100 CC130 DD049=
201308041500 AAXX 04154 67571 NIL=
201308041200 AAXX 04120 67571 NIL=
201308040600 AAXX 04060 67571 NIL=
201308040300 AAXX 04034 67571 NIL=
201308032100 AAXX 03214 67571 NIL=
201308031800 AAXX 03184 67571 NIL=
201308031500 AAXX 03154 67571 NIL=
201308031200 AAXX 03121 67571 NIL=
201308030900 AAXX 03094 67571 NIL=
201308030600 AAXX 03060 67571 NIL=
201308030300 AAXX 03034 67571 NIL=
201308021800 AAXX 02184 67571 NIL=
201308021200 AAXX 02124 67571 NIL=
201308020900 AAXX 02094 67571 41480 81207 10137 20099 48587 70252 885//
                   333 58001 88617=
201308020600 AAXX 02064 67571 11370 81206 10110 20099 48585 69904 75155 887//
                   333 10193 20110 58006 88708
                   555 00///=
201308020300 AAXX 02034 67571 NIL=
201308012100 AAXX 01214 67571 NIL=
201308011800 AAXX 01184 67571 NIL=
201308011500 AAXX 01154 67571 NIL=
201308011200 AAXX 01121 67571 NIL=
201308010900 AAXX 01094 67571 42582 61206 10163 20070 48588 86500
                   333 58004 86623=
201308010600 AAXX 01064 67571 NIL=

################################################################################
#  SYNOPS from 67575, Mkushi (Zambia) | 13-38S | 029-53E | 1237 m
################################################################################
201308310600 AAXX 31060 67575 NIL=
201308310300 AAXX 31034 67575 NIL=
201308301500 AAXX 30154 67575 NIL=
201308301200 AAXX 30121 67575 NIL=
201308300600 AAXX 30064 67575 NIL=
201308290900 AAXX 29094 67575 NIL=
201308290600 AAXX 29064 67575 NIL=
201308290300 AAXX 29034 67575 NIL=
201308290000 AAXX 29004 67575 NIL=
201308282100 AAXX 28214 67575 NIL=
201308281800 AAXX 28184 67575 NIL=
201308281200 AAXX 28124 67575 NIL=
201308280900 AAXX 28090 67575 NIL=
201308280600 AAXX 28064 67575 NIL=
201308271800 AAXX 27184 67575 NIL=
201308271500 AAXX 27154 67575 NIL=
201308271200 AAXX 27124 67575 NIL=
201308270900 AAXX 27094 67575 NIL=
201308270600 AAXX 27064 67575 NIL=
201308230600 AAXX 23064 67575 31965 01207 10190 20080 48/// 70500
                   333 10296 20150 5////=
201308221500 AAXX 22154 67575 NIL=
201308221200 AAXX 22120 67575 NIL=
201308220900 AAXX 22094 67575 NIL=
201308211800 AAXX 21184 67575 NIL=
201308211500 AAXX 21154 67575 NIL=
201308211200 AAXX 21124 67575 NIL=
201308210900 AAXX 21094 67575 NIL=
201308210600 AAXX 21064 67575 NIL=
201308202100 AAXX 20214 67575 NIL=
201308201800 AAXX 20184 67575 NIL=
201308201200 AAXX 20120 67575 NIL=
201308200600 AAXX 20061 67575 NIL=
201308200000 AAXX 20004 67575 NIL=
201308192100 AAXX 19214 67575 NIL=
201308191800 AAXX 19184 67575 NIL=
201308191500 AAXX 19154 67575 NIL=
201308191200 AAXX 19121 67575 NIL=
201308190900 AAXX 19094 67575 NIL=
201308190600 AAXX 19064 67575 31960 00000 10135 20055 48/// 70500
                   333 10309 20071 5////=
201308181800 AAXX 18184 67575 NIL=
201308181200 AAXX 18121 67575 NIL=
201308180600 AAXX 18061 67575 NIL=
201308171800 AAXX 17184 67575 NIL=
201308171200 AAXX 17121 67575 NIL=
201308170600 AAXX 17060 67575 NIL=
201308161200 AAXX 16124 67575 NIL=
201308160900 AAXX 16094 67575 NIL=
201308160600 AAXX 16064 67575 31960 00000 10143 20051 48/// 70500
                   333 10314 20087 5////=
201308151200 AAXX 15120 67575 NIL=
201308150900 AAXX 15094 67575 NIL=
201308150600 AAXX 15064 67575 31960 00000 10153 20047 48/// 70500
                   333 10310 20075 5////=
201308141500 AAXX 14154 67575 NIL=
201308141200 AAXX 14121 67575 NIL=
201308140900 AAXX 14094 67575 NIL=
201308140600 AAXX 14061 67575 NIL=
201308131800 AAXX 13184 67575 NIL=
201308131500 AAXX 13154 67575 NIL=
201308131200 AAXX 13121 67575 NIL=
201308130600 AAXX 13064 67575 31965 00000 10128 20052 48/// 70500
                   333 10280 20060 5////=
201308121800 AAXX 12184 67575 NIL=
201308121200 AAXX 12120 67575 NIL=
201308120900 AAXX 12094 67575 NIL=
201308120600 AAXX 12064 67575 31960 00000 10132 20052 48/// 70500
                   333 10284 20064 5////=
201308120300 AAXX 12034 67575 NIL=
201308112100 AAXX 11214 67575 NIL=
201308111800 AAXX 11184 67575 NIL=
201308111200 AAXX 11121 67575 NIL=
201308110900 AAXX 11094 67575 NIL=
201308110600 AAXX 11061 67575 NIL=
201308110300 AAXX 11034 67575 NIL=
201308110000 AAXX 11004 67575 NIL=
201308102100 AAXX 10214 67575 NIL=
201308101800 AAXX 10184 67575 NIL=
201308101500 AAXX 10154 67575 NIL=
201308101200 AAXX 10121 67575 NIL=
201308100900 AAXX 10090 67575 NIL=
201308100600 AAXX 10060 67575 NIL=
201308100300 AAXX 10034 67575 NIL=
201308100000 AAXX 10004 67575 NIL=
201308092100 AAXX 09214 67575 NIL=
201308091800 AAXX 09184 67575 NIL=
201308091500 AAXX 09154 67575 NIL=
201308091200 AAXX 09124 67575 NIL=
201308090900 AAXX 09094 67575 NIL=
201308090600 AAXX 09064 67575 31970 20603 10186 20084 48/// 70500 82030
                   333 10295 20151 5//// 82360=
201308090300 AAXX 09034 67575 NIL=
201308081800 AAXX 08184 67575 NIL=
201308081500 AAXX 08154 67575 NIL=
201308081200 AAXX 08120 67575 NIL=
201308080900 AAXX 08094 67575 NIL=
201308080600 AAXX 08064 67575 31970 70903 10175 20087 48/// 70522 87070
                   333 10274 20138 5//// 87360=
201308080300 AAXX 08034 67575 NIL=
201308072100 AAXX 07214 67575 NIL=
201308071800 AAXX 07184 67575 NIL=
201308071500 AAXX 07154 67575 NIL=
201308071200 AAXX 07120 67575 NIL=
201308070900 AAXX 07094 67575 NIL=
201308070600 AAXX 07064 67575 31970 01303 10165 20103 48/// 70500
                   333 10260 20128 5////=
201308070300 AAXX 07034 67575 NIL=
201308070000 AAXX 07004 67575 NIL=
201308061800 AAXX 06184 67575 NIL=
201308061500 AAXX 06154 67575 NIL=
201308061200 AAXX 06124 67575 NIL=
201308060900 AAXX 06094 67575 NIL=
201308060600 AAXX 06064 67575 31970 11303 10135 20077 48/// 70500 81030
                   333 10250 20095 5//// 81360=
201308041500 AAXX 04154 67575 NIL=
201308041200 AAXX 04120 67575 NIL=
201308040600 AAXX 04060 67575 NIL=
201308040300 AAXX 04034 67575 NIL=
201308032100 AAXX 03214 67575 NIL=
201308031800 AAXX 03184 67575 NIL=
201308031500 AAXX 03154 67575 NIL=
201308031200 AAXX 03121 67575 NIL=
201308030900 AAXX 03094 67575 NIL=
201308030600 AAXX 03060 67575 NIL=
201308030300 AAXX 03034 67575 NIL=
201308021800 AAXX 02184 67575 NIL=
201308021200 AAXX 02124 67575 NIL=
201308020900 AAXX 02094 67575 NIL=
201308020600 AAXX 02061 67575 NIL=
201308020300 AAXX 02034 67575 NIL=
201308012100 AAXX 01214 67575 NIL=
201308011800 AAXX 01184 67575 NIL=
201308011500 AAXX 01154 67575 NIL=
201308011200 AAXX 01121 67575 NIL=
201308010900 AAXX 01094 67575 NIL=
201308010600 AAXX 01064 67575 NIL=

################################################################################
#  SYNOPS from 67580, Msekera (Zambia) | 13-39S | 032-34E | 1025 m
################################################################################
201308310600 AAXX 31060 67580 NIL=
201308310300 AAXX 31034 67580 NIL=
201308301500 AAXX 30154 67580 NIL=
201308301200 AAXX 30121 67580 NIL=
201308300600 AAXX 30064 67580 31975 00903 10236 20104 48/// 70500
                   333 10302 20/// 5////
                   555 00///=
201308290900 AAXX 29094 67580 41675 40904 10270 20085 48/// 70500 84100
                   333 5//// 84838=
201308290600 AAXX 29061 67580 31975 00902 10236 20106 48/// 70500
                   333 10300 20//0 5////=
201308290300 AAXX 29034 67580 NIL=
201308290000 AAXX 29004 67580 NIL=
201308282100 AAXX 28214 67580 NIL=
201308281800 AAXX 28184 67580 NIL=
201308281200 AAXX 28124 67580 NIL=
201308280900 AAXX 28094 67580 41975 01004 10265 20075 48/// 70500
                   333 5////=
201308280600 AAXX 28064 67580 31975 01004 10225 20089 48/// 70500
                   333 10284 20/// 5////
                   555 00///=
201308271800 AAXX 27184 67580 NIL=
201308271500 AAXX 27154 67580 NIL=
201308271200 AAXX 27124 67580 NIL=
201308270900 AAXX 27094 67580 41675 10604 10259 20070 48/// 81100
                   333 5//// 81834=
201308270600 AAXX 27064 67580 31975 01405 10185 20093 48/// 70500
                   333 10285 20/// 5////
                   555 00///=
201308230600 AAXX 23064 67580 31975 20903 10240 20125 48/// 70511 82030
                   333 10311 20/// 58010 82361
                   555 00///=
201308221500 AAXX 22154 67580 NIL=
201308221200 AAXX 22120 67580 NIL=
201308220900 AAXX 22094 67580 41675 10602 10274 20095 48/// 70500 81100
                   333 59013 81836=
201308220600 AAXX 22064 67580 31975 00903 10229 20104 48/// 70500
                   333 10280 20/// 59022
                   555 00///=
201308211800 AAXX 21184 67580 NIL=
201308211500 AAXX 21154 67580 NIL=
201308211200 AAXX 21124 67580 NIL=
201308210900 AAXX 21094 67580 NIL=
201308210600 AAXX 21064 67580 31975 31504 10185 20116 48/// 70500 80001
                   333 10259 20/// 59006 83080
                   555 00///=
201308202100 AAXX 20214 67580 NIL=
201308201800 AAXX 20184 67580 NIL=
201308201200 AAXX 20124 67580 41670 71505 10246 20118 48/// 70522 87100
                   333 58041 87840=
201308200900 AAXX 20094 67580 41670 70906 10243 20120 48/// 70522 87800
                   333 58044 86834 81636=
201308200600 AAXX 20064 67580 31470 71505 10189 20133 48/// 70511 85530
                   333 10327 20/// 58039 85618 82360
                   555 00///=
201308200000 AAXX 20004 67580 NIL=
201308192100 AAXX 19214 67580 NIL=
201308191800 AAXX 19184 67580 NIL=
201308191500 AAXX 19154 67580 NIL=
201308191200 AAXX 19124 67580 41975 01210 10322 20048 48/// 70500
                   333 5////=
201308190900 AAXX 19094 67580 41975 01210 10292 20005 48/// 70500
                   333 59011=
201308190600 AAXX 19061 67580 31975 01203 10215 20091 48/// 70500
                   333 10320 20//0 59002
                   555 00///=
201308181800 AAXX 18184 67580 NIL=
201308181200 AAXX 18121 67580 NIL=
201308180600 AAXX 18061 67580 NIL=
201308171800 AAXX 17184 67580 NIL=
201308171200 AAXX 17121 67580 NIL=
201308170600 AAXX 17060 67580 NIL=
201308161200 AAXX 16124 67580 NIL=
201308160900 AAXX 16094 67580 NIL=
201308160600 AAXX 16064 67580 31965 00903 10202 20121 48/// 70300
                   333 10321 20/// 58011=
201308151200 AAXX 15120 67580 NIL=
201308150900 AAXX 15094 67580 NIL=
201308150600 AAXX 15064 67580 NIL=
201308141500 AAXX 14154 67580 NIL=
201308141200 AAXX 14121 67580 NIL=
201308140900 AAXX 14094 67580 NIL=
201308140600 AAXX 14061 67580 NIL=
201308131800 AAXX 13184 67580 NIL=
201308131500 AAXX 13154 67580 NIL=
201308131200 AAXX 13121 67580 NIL=
201308130600 AAXX 13064 67580 NIL=
201308121800 AAXX 12184 67580 NIL=
201308121200 AAXX 12120 67580 NIL=
201308120900 AAXX 12094 67580 NIL=
201308120600 AAXX 12064 67580 31980 00903 10132 20086 48/// 70500
                   333 10297 20/// 59004=
201308120300 AAXX 12034 67580 NIL=
201308112100 AAXX 11214 67580 NIL=
201308111800 AAXX 11184 67580 NIL=
201308111200 AAXX 11121 67580 NIL=
201308110900 AAXX 11094 67580 NIL=
201308110600 AAXX 11061 67580 NIL=
201308110300 AAXX 11034 67580 NIL=
201308110000 AAXX 11004 67580 NIL=
201308102100 AAXX 10214 67580 NIL=
201308101800 AAXX 10184 67580 NIL=
201308101500 AAXX 10154 67580 NIL=
201308101200 AAXX 10121 67580 NIL=
201308100900 AAXX 10090 67580 NIL=
201308100600 AAXX 10060 67580 NIL=
201308100300 AAXX 10034 67580 NIL=
201308100000 AAXX 10004 67580 NIL=
201308092100 AAXX 09214 67580 NIL=
201308091800 AAXX 09184 67580 NIL=
201308091500 AAXX 09154 67580 NIL=
201308091200 AAXX 09124 67580 NIL=
201308090900 AAXX 09094 67580 NIL=
201308090600 AAXX 09064 67580 NIL=
201308090300 AAXX 09034 67580 NIL=
201308081800 AAXX 08184 67580 NIL=
201308081500 AAXX 08154 67580 NIL=
201308081200 AAXX 08120 67580 NIL=
201308080900 AAXX 08094 67580 NIL=
201308080600 AAXX 08064 67580 NIL=
201308080300 AAXX 08034 67580 NIL=
201308072100 AAXX 07214 67580 NIL=
201308071800 AAXX 07184 67580 NIL=
201308071500 AAXX 07154 67580 NIL=
201308071200 AAXX 07120 67580 NIL=
201308070900 AAXX 07094 67580 NIL=
201308070600 AAXX 07064 67580 31975 50000 10213 20112 48/// 70522 85030
                   333 10265 20/// 59017 85361=
201308070300 AAXX 07034 67580 NIL=
201308070000 AAXX 07004 67580 NIL=
201308061800 AAXX 06184 67580 NIL=
201308061500 AAXX 06154 67580 NIL=
201308061200 AAXX 06124 67580 NIL=
201308060900 AAXX 06094 67580 NIL=
201308060600 AAXX 06064 67580 31980 71602 10178 20115 48/// 70522 8703/
                   333 10267 20/// 59009 87360=
201308041500 AAXX 04154 67580 NIL=
201308041200 AAXX 04120 67580 NIL=
201308040600 AAXX 04060 67580 NIL=
201308040300 AAXX 04034 67580 NIL=
201308032100 AAXX 03214 67580 NIL=
201308031800 AAXX 03184 67580 NIL=
201308031500 AAXX 03154 67580 NIL=
201308031200 AAXX 03121 67580 NIL=
201308030900 AAXX 03094 67580 NIL=
201308030600 AAXX 03060 67580 NIL=
201308030300 AAXX 03034 67580 NIL=
201308021800 AAXX 02184 67580 NIL=
201308021200 AAXX 02124 67580 NIL=
201308020900 AAXX 02094 67580 41580 71507 10200 20104 48/// 70522 87800
                   333 59001 83822 84624=
201308020600 AAXX 02064 67580 31480 71208 10144 20106 48/// 70522 875//
                   333 10220 20/// 58000 87610
                   555 00/// 20990=
201308020300 AAXX 02034 67580 NIL=
201308012100 AAXX 01214 67580 NIL=
201308011800 AAXX 01184 67580 NIL=
201308011500 AAXX 01154 67580 NIL=
201308011200 AAXX 01124 67580 41680 71203 10206 20091 48/// 70522 8713/
                   333 59019 87832 82361=
201308010900 AAXX 01094 67580 41580 71203 10191 20087 48/// 70522 87800
                   333 59007 85820 82622=
201308010600 AAXX 01064 67580 32960 71606 10120 20100 38877 48581 81130
                   333 20080 50611 5//// 59008 81620 86359
                   555 10210 7//11=

################################################################################
#  SYNOPS from 67581, Chipata (Zambia) | 13-33S | 032-35E | 1028 m
################################################################################
201308310600 AAXX 31060 67581 NIL=
201308310300 AAXX 31034 67581 NIL=
201308301500 AAXX 30154 67581 NIL=
201308301200 AAXX 30121 67581 NIL=
201308300600 AAXX 30064 67581 31960 00908 10224 20094 48546 70500
                   333 10293 20192 59018
                   555 00141 91020=
201308290900 AAXX 29094 67581 41660 30605 10262 20088 48568 70500 83100
                   333 59014 83835 91022=
201308290600 AAXX 29064 67581 31960 00604 10237 20087 48565 70500
                   333 10288 20157 59013
                   555 00130 91022=
201308290300 AAXX 29034 67581 NIL=
201308290000 AAXX 29004 67581 NIL=
201308282100 AAXX 28214 67581 NIL=
201308281800 AAXX 28184 67581 NIL=
201308281200 AAXX 28124 67581 NIL=
201308280900 AAXX 28094 67581 41970 00906 10260 20059 48583 70500
                   333 59001 91023=
201308280600 AAXX 28064 67581 31970 00906 10237 20069 48579 70500
                   333 10279 20135 59008
                   555 00109 91023=
201308271800 AAXX 27184 67581 NIL=
201308271500 AAXX 27154 67581 NIL=
201308271200 AAXX 27124 67581 NIL=
201308270900 AAXX 27094 67581 NIL=
201308270600 AAXX 27064 67581 31970 01204 10196 20088 48578 70500
                   333 10291 20148 59003
                   555 00122 91024=
201308230600 AAXX 23064 67581 32980 10703 10236 20166 48571 81030
                   333 10303 20191 58012 81360
                   555 00170 91023=
201308221500 AAXX 22154 67581 NIL=
201308221200 AAXX 22120 67581 NIL=
201308221022 AAXX 22104 67581 41970 00906 10269 20072 48566 70500 91022=
201308220900 AAXX 22094 67581 41970 00906 10269 20072 48566 70500
                   333 59012 91022=
201308220600 AAXX 22064 67581 31970 00805 10216 20105 48557 70500
                   333 10266 20125 59018
                   555 00109 QNH 1021.6 HPA=
201308211800 AAXX 21184 67581 NIL=
201308211500 AAXX 21154 67581 NIL=
201308211200 AAXX 21124 67581 NIL=
201308210900 AAXX 21094 67581 NIL=
201308210600 AAXX 21064 67581 31970 01208 10185 20110 48567 70500
                   333 10258 20144 59011 91023=
201308202100 AAXX 20214 67581 NIL=
201308201800 AAXX 20184 67581 NIL=
201308201200 AAXX 20120 67581 NIL=
201308200900 AAXX 20094 67581 41658 50908 10/// 20107 48589 70522 85200
                   333 58042 85835 91025=
201308200600 AAXX 20064 67581 31658 71405 10190 20133 48577 70522 84230
                   333 10322 20173 58039 84830 87360
                   555 00161 Q1024=
201308200000 AAXX 20004 67581 NIL=
201308192100 AAXX 19214 67581 NIL=
201308191800 AAXX 19184 67581 NIL=
201308191500 AAXX 19154 67581 NIL=
201308191200 AAXX 19121 67581 NIL=
201308190900 AAXX 19094 67581 NIL=
201308190600 AAXX 19064 67581 31960 00904 10241 20087 48551 70500
                   333 10309 20168 59001 59001
                   555 00120 91020=
201308181800 AAXX 18184 67581 NIL=
201308181200 AAXX 18121 67581 NIL=
201308180600 AAXX 18061 67581 NIL=
201308171800 AAXX 17184 67581 NIL=
201308171200 AAXX 17121 67581 NIL=
201308170600 AAXX 17060 67581 NIL=
201308161200 AAXX 16124 67581 41965 00907 10316 20050 48527 70500
                   333 58005 91016=
201308160900 AAXX 16094 67581 NIL=
201308160600 AAXX 16064 67581 31965 00607 10240 20092 48546 70500
                   333 10314 20148 58009
                   555 00126 91019=
201308151200 AAXX 15120 67581 NIL=
201308150900 AAXX 15094 67581 NIL=
201308150600 AAXX 15064 67581 31960 00904 10242 20093 48539 70500
                   333 10311 20142 59002
                   555 00112 91019=
201308141500 AAXX 14154 67581 NIL=
201308141200 AAXX 14121 67581 NIL=
201308140900 AAXX 14094 67581 NIL=
201308140600 AAXX 14064 67581 31958 00000 10228 2//// 48537 70500
                   333 10304 20116 59007
                   555 00096 1019=
201308131800 AAXX 13184 67581 NIL=
201308131500 AAXX 13154 67581 NIL=
201308131200 AAXX 13121 67581 NIL=
201308130600 AAXX 13064 67581 31970 00803 10220 20090 48543 70500
                   333 10288 20134 59022=
201308121800 AAXX 12184 67581 NIL=
201308121200 AAXX 12120 67581 NIL=
201308120900 AAXX 12094 67581 NIL=
201308120600 AAXX 12064 67581 31960 00906 10219 20081 48564 70200
                   333 10272 20140 58000=
201308120300 AAXX 12034 67581 NIL=
201308112100 AAXX 11214 67581 NIL=
201308111800 AAXX 11184 67581 NIL=
201308111200 AAXX 11121 67581 NIL=
201308110900 AAXX 11094 67581 NIL=
201308110600 AAXX 11061 67581 NIL=
201308110300 AAXX 11034 67581 NIL=
201308110000 AAXX 11004 67581 NIL=
201308102100 AAXX 10214 67581 NIL=
201308101800 AAXX 10184 67581 NIL=
201308101500 AAXX 10154 67581 NIL=
201308101200 AAXX 10121 67581 NIL=
201308100900 AAXX 10090 67581 NIL=
201308100600 AAXX 10060 67581 NIL=
201308100300 AAXX 10034 67581 NIL=
201308100000 AAXX 10004 67581 NIL=
201308092100 AAXX 09214 67581 NIL=
201308091800 AAXX 09184 67581 NIL=
201308091500 AAXX 09154 67581 NIL=
201308091200 AAXX 09124 67581 NIL=
201308090900 AAXX 09094 67581 NIL=
201308090600 AAXX 09064 67581 32980 00810 10216 20100 48553
                   333 10286 20195 58010 91021=
201308090300 AAXX 09034 67581 NIL=
201308081800 AAXX 08184 67581 NIL=
201308081500 AAXX 08154 67581 NIL=
201308081200 AAXX 08120 67581 NIL=
201308080900 AAXX 08094 67581 NIL=
201308080600 AAXX 08064 67581 31980 00812 10207 20094 48537 70500
                   333 10280 20189 59006 91020=
201308080300 AAXX 08034 67581 NIL=
201308072100 AAXX 07214 67581 NIL=
201308071800 AAXX 07184 67581 NIL=
201308071500 AAXX 07154 67581 NIL=
201308071200 AAXX 07120 67581 NIL=
201308070900 AAXX 07094 67581 NIL=
201308070600 AAXX 07064 67581 32980 40908 10216 20101 48549 84030
                   333 10266 20170 59018 84362 91021=
201308070300 AAXX 07034 67581 NIL=
201308070000 AAXX 07004 67581 NIL=
201308061800 AAXX 06184 67581 NIL=
201308061500 AAXX 06154 67581 NIL=
201308061200 AAXX 06124 67581 NIL=
201308060900 AAXX 06094 67581 NIL=
201308060600 AAXX 06064 67581 31970 61607 10176 20105 48558 70222 86030
                   333 10259 20152 59008 86360 91022=
201308041500 AAXX 04154 67581 NIL=
201308041200 AAXX 04120 67581 NIL=
201308040600 AAXX 04060 67581 NIL=
201308040300 AAXX 04034 67581 NIL=
201308032100 AAXX 03214 67581 NIL=
201308031800 AAXX 03184 67581 NIL=
201308031500 AAXX 03154 67581 NIL=
201308031200 AAXX 03121 67581 NIL=
201308030900 AAXX 03094 67581 NIL=
201308030600 AAXX 03060 67581 NIL=
201308030300 AAXX 03034 67581 NIL=
201308021800 AAXX 02184 67581 NIL=
201308021200 AAXX 02124 67581 NIL=
201308020900 AAXX 02094 67581 NIL=
201308020600 AAXX 02061 67581 NIL=
201308020300 AAXX 02034 67581 NIL=
201308012100 AAXX 01214 67581 NIL=
201308011800 AAXX 01184 67581 NIL=
201308011500 AAXX 01154 67581 NIL=
201308011200 AAXX 01121 67581 NIL=
201308010900 AAXX 01094 67581 NIL=
201308010600 AAXX 01064 67581 NIL=

################################################################################
#  SYNOPS from 67583, Lundazi (Zambia) | 12-17S | 033-12E | 1143 m
################################################################################
201308310600 AAXX 31060 67583 NIL=
201308310300 AAXX 31034 67583 NIL=
201308301500 AAXX 30154 67583 NIL=
201308301200 AAXX 30121 67583 NIL=
201308300600 AAXX 30064 67583 NIL=
201308290900 AAXX 29094 67583 NIL=
201308290600 AAXX 29064 67583 31978 00909 10215 20114 70500
                   333 10280 20100 5////=
201308290300 AAXX 29034 67583 NIL=
201308290000 AAXX 29004 67583 NIL=
201308282100 AAXX 28214 67583 NIL=
201308281800 AAXX 28184 67583 NIL=
201308281200 AAXX 28124 67583 NIL=
201308280900 AAXX 28090 67583 NIL=
201308280600 AAXX 28064 67583 NIL=
201308271800 AAXX 27184 67583 NIL=
201308271500 AAXX 27154 67583 NIL=
201308271200 AAXX 27124 67583 NIL=
201308270900 AAXX 27094 67583 NIL=
201308270600 AAXX 27064 67583 NIL=
201308230600 AAXX 23064 67583 31578 11204 10211 20141 70500 81500
                   333 10305 20125 5//// 81620
                   555 00///=
201308221500 AAXX 22154 67583 NIL=
201308221200 AAXX 22120 67583 NIL=
201308220900 AAXX 22094 67583 NIL=
201308220600 AAXX 22064 67583 31980 01201 10190 20122 70500
                   333 10250 20100 555 5//// 67461 31975 20902
                   10160 20126 48512 70500 80001=
201308211800 AAXX 21184 67583 NIL=
201308211500 AAXX 21154 67583 NIL=
201308211200 AAXX 21124 67583 NIL=
201308210900 AAXX 21094 67583 NIL=
201308210600 AAXX 21064 67583 31980 11205 10180 20127 81030
                   333 10260 20129 5//// 81360=
201308202100 AAXX 20214 67583 NIL=
201308201800 AAXX 20184 67583 NIL=
201308201200 AAXX 20120 67583 NIL=
201308200600 AAXX 20064 67583 31975 71509 10190 20141 70522 8707/
                   333 10300 20144 5//// 87360
                   555 00///=
201308200000 AAXX 20004 67583 NIL=
201308192100 AAXX 19214 67583 NIL=
201308191800 AAXX 19184 67583 NIL=
201308191500 AAXX 19154 67583 NIL=
201308191200 AAXX 19121 67583 NIL=
201308190900 AAXX 19094 67583 NIL=
201308190600 AAXX 19064 67583 NIL=
201308181800 AAXX 18184 67583 NIL=
201308181200 AAXX 18121 67583 NIL=
201308180600 AAXX 18061 67583 NIL=
201308171800 AAXX 17184 67583 NIL=
201308171200 AAXX 17121 67583 NIL=
201308170600 AAXX 17060 67583 NIL=
201308161200 AAXX 16124 67583 NIL=
201308160900 AAXX 16094 67583 NIL=
201308160600 AAXX 16064 67583 NIL=
201308151200 AAXX 15120 67583 NIL=
201308150900 AAXX 15094 67583 NIL=
201308150600 AAXX 15064 67583 NIL=
201308141500 AAXX 14154 67583 NIL=
201308141200 AAXX 14121 67583 NIL=
201308140900 AAXX 14094 67583 NIL=
201308140600 AAXX 14064 67583 32980 00000 10165 20100
                   333 10305 20091 5////
                   555 00///=
201308131800 AAXX 13184 67583 NIL=
201308131500 AAXX 13154 67583 NIL=
201308131200 AAXX 13121 67583 NIL=
201308130600 AAXX 13064 67583 32980 01501 10175 20104
                   333 10290 20095 5////=
201308121800 AAXX 12184 67583 NIL=
201308121200 AAXX 12120 67583 NIL=
201308120900 AAXX 12094 67583 NIL=
201308120600 AAXX 12064 67583 NIL=
201308120300 AAXX 12034 67583 NIL=
201308112100 AAXX 11214 67583 NIL=
201308111800 AAXX 11184 67583 NIL=
201308111200 AAXX 11121 67583 NIL=
201308110900 AAXX 11094 67583 NIL=
201308110600 AAXX 11061 67583 NIL=
201308110300 AAXX 11034 67583 NIL=
201308110000 AAXX 11004 67583 NIL=
201308102100 AAXX 10214 67583 NIL=
201308101800 AAXX 10184 67583 NIL=
201308101500 AAXX 10154 67583 NIL=
201308101200 AAXX 10121 67583 NIL=
201308100900 AAXX 10090 67583 NIL=
201308100600 AAXX 10060 67583 NIL=
201308100300 AAXX 10034 67583 NIL=
201308100000 AAXX 10004 67583 NIL=
201308092100 AAXX 09214 67583 NIL=
201308091800 AAXX 09184 67583 NIL=
201308091500 AAXX 09154 67583 NIL=
201308091200 AAXX 09124 67583 NIL=
201308090900 AAXX 09094 67583 NIL=
201308090600 AAXX 09064 67583 32980 00602 10205 20121
                   333 10295 20125 5////
                   555 00///=
201308090300 AAXX 09034 67583 NIL=
201308081800 AAXX 08184 67583 NIL=
201308081500 AAXX 08154 67583 NIL=
201308081200 AAXX 08120 67583 NIL=
201308080900 AAXX 08094 67583 NIL=
201308080600 AAXX 08064 67583 32980 11203 10200 20125 81030
                   333 10280 20155 5//// 81360
                   555 00///=
201308080300 AAXX 08034 67583 NIL=
201308072100 AAXX 07214 67583 NIL=
201308071800 AAXX 07184 67583 NIL=
201308071500 AAXX 07154 67583 NIL=
201308071200 AAXX 07120 67583 NIL=
201308070900 AAXX 07094 67583 NIL=
201308070600 AAXX 07064 67583 32980 11204 10200 20115 81030
                   333 10260 20150 5//// 81360=
201308070300 AAXX 07034 67583 NIL=
201308070000 AAXX 07004 67583 NIL=
201308061800 AAXX 06184 67583 NIL=
201308061500 AAXX 06154 67583 NIL=
201308061200 AAXX 06124 67583 NIL=
201308060900 AAXX 06094 67583 NIL=
201308060600 AAXX 06064 67583 32980 10000 10165 20121 48/// 81030
                   333 10263 20120 5//// 81360=
201308041500 AAXX 04154 67583 NIL=
201308041200 AAXX 04120 67583 NIL=
201308040600 AAXX 04060 67583 NIL=
201308040300 AAXX 04034 67583 NIL=
201308032100 AAXX 03214 67583 NIL=
201308031800 AAXX 03184 67583 NIL=
201308031500 AAXX 03154 67583 NIL=
201308031200 AAXX 03121 67583 NIL=
201308030900 AAXX 03094 67583 NIL=
201308030600 AAXX 03060 67583 NIL=
201308030300 AAXX 03034 67583 NIL=
201308021800 AAXX 02184 67583 NIL=
201308021200 AAXX 02124 67583 NIL=
201308020900 AAXX 02094 67583 NIL=
201308020600 AAXX 02064 67583 32580 30909 10160 20116 81530
                   333 10240 20124 5//// 81620 82360
                   555 00///=
201308020300 AAXX 02034 67583 NIL=
201308012100 AAXX 01214 67583 NIL=
201308011800 AAXX 01184 67583 NIL=
201308011500 AAXX 01154 67583 NIL=
201308011200 AAXX 01121 67583 NIL=
201308010900 AAXX 01094 67583 NIL=
201308010600 AAXX 01064 67583 32580 31205 10153 20114 83500
                   333 10220 20115 5//// 83620
                   555 00///=

################################################################################
#  SYNOPS from 67599, Mfuwe (Zambia) | 13-16S | 031-56E | 568 m
################################################################################
201308310600 AAXX 31060 67599 NIL=
201308310300 AAXX 31034 67599 NIL=
201308301500 AAXX 30154 67599 NIL=
201308301200 AAXX 30121 67599 NIL=
201308300600 AAXX 30064 67599 31959 00905 10234 20131 48561 70500
                   333 10332 20202 59017
                   555 00134 91021=
201308290900 AAXX 29094 67599 NIL=
201308290600 AAXX 29064 67599 31940 00000 10209 20103 48568
                   333 10325 20140 59012
                   555 00130 91022=
201308290300 AAXX 29034 67599 NIL=
201308290000 AAXX 29004 67599 NIL=
201308282100 AAXX 28214 67599 NIL=
201308281800 AAXX 28184 67599 NIL=
201308281200 AAXX 28124 67599 NIL=
201308280900 AAXX 28090 67599 NIL=
201308280600 AAXX 28064 67599 NIL=
201308271800 AAXX 27184 67599 NIL=
201308271500 AAXX 27154 67599 NIL=
201308271200 AAXX 27124 67599 NIL=
201308270900 AAXX 27094 67599 NIL=
201308270600 AAXX 27064 67599 31970 00000 10204 20119 48588 70500
                   333 10340 20132 59004 91025=
201308230600 AAXX 23064 67599 31975 20000 10227 20138 48567 70500 82030
                   333 10346 20154 59004 82360 91022=
201308221500 AAXX 22154 67599 NIL=
201308221200 AAXX 22120 67599 NIL=
201308220900 AAXX 22094 67599 41957 00000 10297 20129 48587 70500
                   333 59013 91022=
201308220600 AAXX 22064 67599 32980 01804 10194 20111 48562 70500
                   333 10324 20134 59011
                   555 00118 QNH 1022.9 HPA=
201308211800 AAXX 21184 67599 NIL=
201308211500 AAXX 21154 67599 NIL=
201308211200 AAXX 21124 67599 NIL=
201308210900 AAXX 21094 67599 NIL=
201308210600 AAXX 21064 67599 31960 11806 10210 20127 48580 70511 81030
                   333 10312 20150 58007 81360
                   555 00125 91024=
201308202100 AAXX 20214 67599 NIL=
201308201800 AAXX 20184 67599 NIL=
201308201200 AAXX 20120 67599 NIL=
201308200600 AAXX 20064 67599 NIL=
201308200000 AAXX 20004 67599 NIL=
201308192100 AAXX 19214 67599 NIL=
201308191800 AAXX 19184 67599 NIL=
201308191500 AAXX 19154 67599 NIL=
201308191200 AAXX 19121 67599 NIL=
201308190900 AAXX 19094 67599 NIL=
201308190600 AAXX 19064 67599 31930 00000 10188 20078 48542 70500
                   333 10360 20123 59013 91020=
201308181800 AAXX 18184 67599 NIL=
201308181200 AAXX 18121 67599 NIL=
201308180600 AAXX 18061 67599 NIL=
201308171800 AAXX 17184 67599 NIL=
201308171200 AAXX 17121 67599 NIL=
201308170600 AAXX 17060 67599 NIL=
201308161200 AAXX 16124 67599 NIL=
201308160900 AAXX 16094 67599 NIL=
201308160600 AAXX 16064 67599 NIL=
201308151200 AAXX 15120 67599 NIL=
201308150900 AAXX 15094 67599 NIL=
201308150600 AAXX 15064 67599 31955 01805 10191 20055 48532 70500
                   333 10355 20137 59006 91019=
201308141500 AAXX 14154 67599 NIL=
201308141200 AAXX 14121 67599 NIL=
201308140900 AAXX 14094 67599 NIL=
201308140600 AAXX 14064 67599 31960 00000 10186 20084 48533 70500
                   333 10350 20125 59006 91019=
201308131800 AAXX 13184 67599 NIL=
201308131500 AAXX 13154 67599 NIL=
201308131200 AAXX 13121 67599 NIL=
201308130600 AAXX 13064 67599 31959 01805 10182 20094 48539 70500
                   333 10340 20123 59019 91020=
201308121800 AAXX 12184 67599 NIL=
201308121200 AAXX 12120 67599 NIL=
201308120900 AAXX 12094 67599 NIL=
201308120600 AAXX 12064 67599 31975 01705 10193 20101 48559 70500
                   333 10338 20141 59001
                   555 00123 91022=
201308120300 AAXX 12034 67599 NIL=
201308112100 AAXX 11214 67599 NIL=
201308111800 AAXX 11184 67599 NIL=
201308111200 AAXX 11121 67599 NIL=
201308110900 AAXX 11094 67599 41770 10907 10295 20109 48581 70500 81200
                   333 58012 81850 91021=
201308110600 AAXX 11064 67599 41975 00000 10189 20089 48560 70500
                   333 10350 20122 58006
                   555 00120 91022=
201308110300 AAXX 11034 67599 NIL=
201308110000 AAXX 11004 67599 NIL=
201308102100 AAXX 10214 67599 NIL=
201308101800 AAXX 10184 67599 NIL=
201308101500 AAXX 10154 67599 NIL=
201308101200 AAXX 10121 67599 NIL=
201308100900 AAXX 10090 67599 NIL=
201308100600 AAXX 10060 67599 NIL=
201308100300 AAXX 10034 67599 NIL=
201308100000 AAXX 10004 67599 NIL=
201308092100 AAXX 09214 67599 NIL=
201308091800 AAXX 09184 67599 NIL=
201308091500 AAXX 09154 67599 NIL=
201308091200 AAXX 09124 67599 NIL=
201308090900 AAXX 09094 67599 NIL=
201308090600 AAXX 09064 67599 31975 00000 10192 20122 48554 70500
                   333 10336 20131 58010 91021=
201308090300 AAXX 09034 67599 NIL=
201308081800 AAXX 08184 67599 NIL=
201308081500 AAXX 08154 67599 NIL=
201308081200 AAXX 08124 67599 41780 20907 10318 20135 48550 70500 82130
                   333 59008 82856 81360=
201308080900 AAXX 08094 67599 42980 00608 10282 20129 48575 70500
                   333 59019 91020=
201308080600 AAXX 08064 67599 31975 00000 10205 20120 48548 70500
                   333 10335 20145 59007 91020=
201308080300 AAXX 08034 67599 NIL=
201308072100 AAXX 07214 67599 NIL=
201308071800 AAXX 07184 67599 NIL=
201308071500 AAXX 07154 67599 NIL=
201308071200 AAXX 07120 67599 NIL=
201308070900 AAXX 07094 67599 NIL=
201308070600 AAXX 07064 67599 32980 70000 10196 20139 48552 8703/
                   333 10316 20147 59011 87360 91021=
201308070300 AAXX 07034 67599 NIL=
201308070000 AAXX 07004 67599 NIL=
201308061800 AAXX 06184 67599 NIL=
201308061500 AAXX 06154 67599 NIL=
201308061200 AAXX 06124 67599 NIL=
201308060900 AAXX 06094 67599 NIL=
201308060600 AAXX 06064 67599 32980 61804 10211 20118 48578 86030
                   333 10315 20164 59012 86360 91023=
201308041500 AAXX 04154 67599 NIL=
201308041200 AAXX 04120 67599 NIL=
201308040600 AAXX 04060 67599 NIL=
201308040300 AAXX 04034 67599 NIL=
201308032100 AAXX 03214 67599 NIL=
201308031800 AAXX 03184 67599 NIL=
201308031500 AAXX 03154 67599 NIL=
201308031200 AAXX 03121 67599 NIL=
201308030900 AAXX 03094 67599 NIL=
201308030600 AAXX 03060 67599 NIL=
201308030300 AAXX 03034 67599 NIL=
201308021800 AAXX 02184 67599 NIL=
201308021200 AAXX 02124 67599 NIL=
201308020900 AAXX 02094 67599 NIL=
201308020600 AAXX 02064 67599 32580 51809 10195 20121 48617 85500
                   333 10275 20140 59009 85620=
201308020300 AAXX 02034 67599 NIL=
201308012100 AAXX 01214 67599 NIL=
201308011800 AAXX 01184 67599 NIL=
201308011500 AAXX 01154 67599 NIL=
201308011200 AAXX 01121 67599 NIL=
201308010900 AAXX 01094 67599 NIL=
201308010600 AAXX 01064 67599 NIL=

################################################################################
#  SYNOPS from 67625, Kalabo (Zambia) | 14-51S | 022-42E | 1033 m
################################################################################
201308310600 AAXX 31060 67625 NIL=
201308310300 AAXX 31034 67625 NIL=
201308301500 AAXX 30154 67625 NIL=
201308301200 AAXX 30120 67625 NIL=
201308300600 AAXX 30060 67625 NIL=
201308290900 AAXX 29094 67625 NIL=
201308290600 AAXX 29060 67625 NIL=
201308290300 AAXX 29034 67625 NIL=
201308290000 AAXX 29004 67625 NIL=
201308282100 AAXX 28214 67625 NIL=
201308281800 AAXX 28184 67625 NIL=
201308281200 AAXX 28120 67625 NIL=
201308280900 AAXX 28090 67625 NIL=
201308280600 AAXX 28064 67625 NIL=
201308271800 AAXX 27184 67625 NIL=
201308271500 AAXX 27154 67625 NIL=
201308271200 AAXX 27124 67625 NIL=
201308270900 AAXX 27094 67625 NIL=
201308270600 AAXX 27064 67625 NIL=
201308230600 AAXX 23060 67625 NIL=
201308221500 AAXX 22154 67625 NIL=
201308221200 AAXX 22120 67625 NIL=
201308220900 AAXX 22094 67625 NIL=
201308211800 AAXX 21184 67625 NIL=
201308211500 AAXX 21154 67625 NIL=
201308211200 AAXX 21120 67625 NIL=
201308210900 AAXX 21094 67625 NIL=
201308210600 AAXX 21064 67625 NIL=
201308202100 AAXX 20214 67625 NIL=
201308201800 AAXX 20184 67625 NIL=
201308201200 AAXX 20120 67625 NIL=
201308200600 AAXX 20060 67625 NIL=
201308200000 AAXX 20004 67625 NIL=
201308192100 AAXX 19214 67625 NIL=
201308191800 AAXX 19184 67625 NIL=
201308191500 AAXX 19154 67625 NIL=
201308191200 AAXX 19120 67625 NIL=
201308190900 AAXX 19094 67625 NIL=
201308190600 AAXX 19060 67625 NIL=
201308181800 AAXX 18184 67625 NIL=
201308181200 AAXX 18120 67625 NIL=
201308180600 AAXX 18060 67625 NIL=
201308171800 AAXX 17184 67625 NIL=
201308171200 AAXX 17120 67625 NIL=
201308170600 AAXX 17060 67625 NIL=
201308161200 AAXX 16120 67625 NIL=
201308160900 AAXX 16090 67625 NIL=
201308160600 AAXX 16060 67625 NIL=
201308151200 AAXX 15120 67625 NIL=
201308150900 AAXX 15094 67625 NIL=
201308150600 AAXX 15060 67625 NIL=
201308141500 AAXX 14154 67625 NIL=
201308141200 AAXX 14120 67625 NIL=
201308140900 AAXX 14094 67625 NIL=
201308140600 AAXX 14060 67625 NIL=
201308131800 AAXX 13184 67625 NIL=
201308131500 AAXX 13154 67625 NIL=
201308131200 AAXX 13120 67625 NIL=
201308130600 AAXX 13060 67625 NIL=
201308121800 AAXX 12184 67625 NIL=
201308121200 AAXX 12120 67625 NIL=
201308120900 AAXX 12094 67625 NIL=
201308120600 AAXX 12064 67625 NIL=
201308120300 AAXX 12034 67625 NIL=
201308112100 AAXX 11214 67625 NIL=
201308111800 AAXX 11184 67625 NIL=
201308111200 AAXX 11121 67625 NIL=
201308110900 AAXX 11094 67625 NIL=
201308110600 AAXX 11060 67625 NIL=
201308110300 AAXX 11034 67625 NIL=
201308110000 AAXX 11004 67625 NIL=
201308102100 AAXX 10214 67625 NIL=
201308101800 AAXX 10184 67625 NIL=
201308101500 AAXX 10154 67625 NIL=
201308101200 AAXX 10121 67625 NIL=
201308100900 AAXX 10090 67625 NIL=
201308100600 AAXX 10060 67625 NIL=
201308100300 AAXX 10034 67625 NIL=
201308100000 AAXX 10004 67625 NIL=
201308092100 AAXX 09214 67625 NIL=
201308091800 AAXX 09184 67625 NIL=
201308091500 AAXX 09154 67625 NIL=
201308091200 AAXX 09120 67625 NIL=
201308090900 AAXX 09094 67625 NIL=
201308090600 AAXX 09060 67625 NIL=
201308090300 AAXX 09034 67625 NIL=
201308081800 AAXX 08184 67625 NIL=
201308081500 AAXX 08154 67625 NIL=
201308081200 AAXX 08120 67625 NIL=
201308080900 AAXX 08094 67625 NIL=
201308080600 AAXX 08060 67625 NIL=
201308080300 AAXX 08034 67625 NIL=
201308072100 AAXX 07214 67625 NIL=
201308071800 AAXX 07184 67625 NIL=
201308071500 AAXX 07154 67625 NIL=
201308071200 AAXX 07120 67625 NIL=
201308070900 AAXX 07094 67625 NIL=
201308070600 AAXX 07060 67625 NIL=
201308070300 AAXX 07034 67625 NIL=
201308070000 AAXX 07004 67625 NIL=
201308061800 AAXX 06184 67625 NIL=
201308061500 AAXX 06154 67625 NIL=
201308061200 AAXX 06120 67625 NIL=
201308060900 AAXX 06094 67625 NIL=
201308041500 AAXX 04154 67625 NIL=
201308041200 AAXX 04120 67625 NIL=
201308040600 AAXX 04060 67625 NIL=
201308040300 AAXX 04034 67625 NIL=
201308032100 AAXX 03214 67625 NIL=
201308031800 AAXX 03184 67625 NIL=
201308031500 AAXX 03154 67625 NIL=
201308031200 AAXX 03120 67625 NIL=
201308030900 AAXX 03094 67625 NIL=
201308030600 AAXX 03060 67625 NIL=
201308030300 AAXX 03034 67625 NIL=
201308021800 AAXX 02184 67625 NIL=
201308021200 AAXX 02120 67625 NIL=
201308020900 AAXX 02094 67625 NIL=
201308020600 AAXX 02060 67625 NIL=
201308020300 AAXX 02034 67625 NIL=
201308012100 AAXX 01214 67625 NIL=
201308011800 AAXX 01184 67625 NIL=
201308011500 AAXX 01154 67625 NIL=
201308011200 AAXX 01120 67625 NIL=
201308010900 AAXX 01094 67625 NIL=
201308010600 AAXX 01064 67625 NIL=

################################################################################
#  SYNOPS from 67633, Mongu (Zambia) | 15-15S | 023-09E | 1052 m
################################################################################
201308310600 AAXX 31060 67633 NIL=
201308310300 AAXX 31034 67633 NIL=
201308301500 AAXX 30154 67633 NIL=
201308301200 AAXX 30120 67633 NIL=
201308300600 AAXX 30060 67633 NIL=
201308290900 AAXX 29094 67633 NIL=
201308290600 AAXX 29060 67633 NIL=
201308290300 AAXX 29034 67633 NIL=
201308290000 AAXX 29004 67633 NIL=
201308282100 AAXX 28214 67633 NIL=
201308281800 AAXX 28184 67633 NIL=
201308281200 AAXX 28120 67633 NIL=
201308280900 AAXX 28090 67633 NIL=
201308280600 AAXX 28064 67633 NIL=
201308271800 AAXX 27184 67633 NIL=
201308271500 AAXX 27154 67633 NIL=
201308271200 AAXX 27124 67633 NIL=
201308270900 AAXX 27094 67633 NIL=
201308270600 AAXX 27064 67633 31975 00913 10180 20084 48539 70500
                   333 10320 20150 59005 91021=
201308230600 AAXX 23064 67633 31975 00903 10202 20085 48536 70500
                   333 10325 20162 58007 91020=
201308221500 AAXX 22154 67633 NIL=
201308221200 AAXX 22120 67633 NIL=
201308220900 AAXX 22094 67633 NIL=
201308211800 AAXX 21184 67633 NIL=
201308211500 AAXX 21154 67633 NIL=
201308211200 AAXX 21120 67633 NIL=
201308210900 AAXX 21094 67633 42975 10905 10270 20075 48554 70500 80001
                   333 59008 81080 91021=
201308210600 AAXX 21064 67633 32975 10908 10170 20104 48529 70500 80001
                   333 10322 20138 59004 81080 91020=
201308202100 AAXX 20214 67633 NIL=
201308201800 AAXX 20184 67633 NIL=
201308201200 AAXX 20120 67633 NIL=
201308200600 AAXX 20064 67633 31970 00708 10184 20051 48535 70500
                   333 10340 20152 58011 91020=
201308200000 AAXX 20004 67633 NIL=
201308192100 AAXX 19214 67633 NIL=
201308191800 AAXX 19184 67633 NIL=
201308191500 AAXX 19154 67633 NIL=
201308191200 AAXX 19120 67633 NIL=
201308190900 AAXX 19094 67633 NIL=
201308190600 AAXX 19064 67633 32980 01804 10156 20050 48521
                   333 10345 20120 58004=
201308181800 AAXX 18184 67633 NIL=
201308181200 AAXX 18120 67633 NIL=
201308180600 AAXX 18060 67633 NIL=
201308171800 AAXX 17184 67633 NIL=
201308171200 AAXX 17120 67633 NIL=
201308170600 AAXX 17060 67633 NIL=
201308161200 AAXX 16120 67633 NIL=
201308160900 AAXX 16090 67633 NIL=
201308160600 AAXX 16064 67633 31975 00902 10184 20027 48519 70500
                   333 10350 20145 58016 91018=
201308151200 AAXX 15120 67633 NIL=
201308150900 AAXX 15094 67633 NIL=
201308150600 AAXX 15060 67633 NIL=
201308141500 AAXX 14154 67633 NIL=
201308141200 AAXX 14120 67633 NIL=
201308140900 AAXX 14094 67633 NIL=
201308140600 AAXX 14064 67633 31975 00902 10200 20089 48505 70500
                   333 10320 20134 59021 91016=
201308131800 AAXX 13184 67633 NIL=
201308131500 AAXX 13154 67633 NIL=
201308131200 AAXX 13120 67633 NIL=
201308130600 AAXX 13064 67633 32980 10903 10182 20087 48522 70200 81030
                   333 10336 20145 58002 81361 91019=
201308121800 AAXX 12184 67633 NIL=
201308121200 AAXX 12120 67633 NIL=
201308120900 AAXX 12094 67633 NIL=
201308120600 AAXX 12064 67633 32980 00905 10186 20094 48520
                   333 10342 20161 58004 91019=
201308120300 AAXX 12034 67633 NIL=
201308112100 AAXX 11214 67633 NIL=
201308111800 AAXX 11184 67633 NIL=
201308111200 AAXX 11121 67633 NIL=
201308110900 AAXX 11094 67633 NIL=
201308110600 AAXX 11060 67633 NIL=
201308110300 AAXX 11034 67633 NIL=
201308110000 AAXX 11004 67633 NIL=
201308102100 AAXX 10214 67633 NIL=
201308101800 AAXX 10184 67633 NIL=
201308101500 AAXX 10154 67633 NIL=
201308101200 AAXX 10121 67633 NIL=
201308100900 AAXX 10090 67633 NIL=
201308100600 AAXX 10060 67633 NIL=
201308100300 AAXX 10034 67633 NIL=
201308100000 AAXX 10004 67633 NIL=
201308092100 AAXX 09214 67633 NIL=
201308091800 AAXX 09184 67633 NIL=
201308091500 AAXX 09154 67633 NIL=
201308091200 AAXX 09120 67633 NIL=
201308090900 AAXX 09094 67633 NIL=
201308090600 AAXX 09064 67633 32980 41106 10196 20116 48508 84030
                   333 10310 20167 59011 84361 91017=
201308090300 AAXX 09034 67633 NIL=
201308081800 AAXX 08184 67633 NIL=
201308081500 AAXX 08154 67633 NIL=
201308081200 AAXX 08120 67633 NIL=
201308080900 AAXX 08094 67633 NIL=
201308080600 AAXX 08064 67633 32980 00903 10168 20100 48514 70200
                   333 10294 20116 59005 91018=
201308080300 AAXX 08034 67633 NIL=
201308072100 AAXX 07214 67633 NIL=
201308071800 AAXX 07184 67633 NIL=
201308071500 AAXX 07154 67633 NIL=
201308071200 AAXX 07120 67633 NIL=
201308070900 AAXX 07094 67633 NIL=
201308070600 AAXX 07060 67633 NIL=
201308070300 AAXX 07034 67633 NIL=
201308070000 AAXX 07004 67633 NIL=
201308061800 AAXX 06184 67633 NIL=
201308061500 AAXX 06154 67633 NIL=
201308061200 AAXX 06120 67633 NIL=
201308060900 AAXX 06094 67633 NIL=
201308060600 AAXX 06064 67633 32980 01104 10139 20063 48534
                   333 10280 20093 59004 91021=
201308041500 AAXX 04154 67633 NIL=
201308041200 AAXX 04120 67633 NIL=
201308040600 AAXX 04060 67633 NIL=
201308040300 AAXX 04034 67633 NIL=
201308032100 AAXX 03214 67633 NIL=
201308031800 AAXX 03184 67633 NIL=
201308031500 AAXX 03154 67633 NIL=
201308031200 AAXX 03120 67633 NIL=
201308030900 AAXX 03094 67633 NIL=
201308030600 AAXX 03060 67633 NIL=
201308030300 AAXX 03034 67633 NIL=
201308021800 AAXX 02184 67633 NIL=
201308021200 AAXX 02120 67633 NIL=
201308020900 AAXX 02094 67633 NIL=
201308020600 AAXX 02060 67633 NIL=
201308020300 AAXX 02034 67633 NIL=
201308012100 AAXX 01214 67633 NIL=
201308011800 AAXX 01184 67633 NIL=
201308011500 AAXX 01154 67633 NIL=
201308011200 AAXX 01124 67633 41775 51508 10245 20098 48576 70522 83130
                   333 58010 83850 84360 91024=
201308010900 AAXX 01094 67633 NIL=
201308010600 AAXX 01064 67633 31975 60905 10163 20105 48578 70522 8603/
                   333 10298 20140 58003 86360
                   555 00/// QNH 1026.6 HPA=

################################################################################
#  SYNOPS from 67641, Kaoma (Zambia) | 14-48S | 024-48E | 1213 m
################################################################################
201308310600 AAXX 31060 67641 NIL=
201308310300 AAXX 31034 67641 NIL=
201308301500 AAXX 30154 67641 NIL=
201308301200 AAXX 30120 67641 NIL=
201308300600 AAXX 30064 67641 31960 00702 10163 20069 48494 70500
                   333 10325 20122 59028
                   555 00/// 91016=
201308290900 AAXX 29094 67641 NIL=
201308290600 AAXX 29060 67641 NIL=
201308290300 AAXX 29034 67641 NIL=
201308290000 AAXX 29004 67641 NIL=
201308282100 AAXX 28214 67641 NIL=
201308281800 AAXX 28184 67641 NIL=
201308281200 AAXX 28124 67641 41965 00604 10301 20070 48523 70500
                   333 59008 555 00/// 91017=
201308280900 AAXX 28094 67641 41965 00408 10270 20075 48550 70500
                   333 59006 555 00/// 91021=
201308280600 AAXX 28064 67641 31960 00501 10146 20078 48536 70500
                   333 10306 20110 59004
                   555 00/// 91021=
201308271800 AAXX 27184 67641 NIL=
201308271500 AAXX 27154 67641 NIL=
201308271200 AAXX 27124 67641 41960 01206 10290 20062 48529 70500
                   333 59009 555 00/// 910180=
201308270900 AAXX 27094 67641 NIL=
201308270600 AAXX 27064 67641 31960 00902 10140 20089 48539 70500
                   333 10305 20105 58001
                   555 00/// 91022=
201308230600 AAXX 23060 67641 NIL=
201308221500 AAXX 22154 67641 NIL=
201308221200 AAXX 22120 67641 NIL=
201308220900 AAXX 22094 67641 NIL=
201308211800 AAXX 21184 67641 NIL=
201308211500 AAXX 21154 67641 NIL=
201308211200 AAXX 21120 67641 NIL=
201308210900 AAXX 21094 67641 NIL=
201308210600 AAXX 21064 67641 31958 40000 10125 20089 48529 70510 80001
                   333 10300 20094 59007 84080 91021=
201308202100 AAXX 20214 67641 NIL=
201308201800 AAXX 20184 67641 NIL=
201308201200 AAXX 20120 67641 NIL=
201308200600 AAXX 20064 67641 31958 00000 10116 20059 48535 70500
                   333 10330 20091 58002 91018=
201308200000 AAXX 20004 67641 NIL=
201308192100 AAXX 19214 67641 NIL=
201308191800 AAXX 19184 67641 NIL=
201308191500 AAXX 19154 67641 NIL=
201308191200 AAXX 19120 67641 NIL=
201308190900 AAXX 19094 67641 NIL=
201308190600 AAXX 19064 67641 31958 00000 10136 20074 48517 70500
                   333 10335 20102 58000 91018=
201308181800 AAXX 18184 67641 NIL=
201308181200 AAXX 18120 67641 NIL=
201308180600 AAXX 18060 67641 NIL=
201308171800 AAXX 17184 67641 NIL=
201308171200 AAXX 17120 67641 NIL=
201308170600 AAXX 17060 67641 NIL=
201308161200 AAXX 16124 67641 41960 01208 10320 20026 48509 70500
                   333 58002 555 00/// 91015=
201308160900 AAXX 16094 67641 41960 00807 10284 20048 48519 70500
                   333 58008 555 00/// 91017=
201308160600 AAXX 16064 67641 31958 01303 10131 20085 48506 70500
                   333 10341 20105 58006
                   555 00/// 91017=
201308151200 AAXX 15124 67641 41965 01304 10320 20035 48507 70500
                   333 58006 91015=
201308150900 AAXX 15094 67641 41965 00406 10293 20032 48518 70500
                   333 59004 555 00/// 91017=
201308150600 AAXX 15064 67641 31956 00000 10125 20083 48500 70500
                   333 10335 20101 59004
                   555 00/// 91017=
201308141500 AAXX 14154 67641 NIL=
201308141200 AAXX 14124 67641 41965 01206 10321 20040 48500 70500
                   333 59014 555 00/// 91014=
201308140900 AAXX 14094 67641 41965 00604 10290 20040 48522 70500
                   333 59014 555 00/// 91017=
201308140600 AAXX 14064 67641 31960 00000 10155 20054 48507 70500
                   333 10320 20105 59007
                   555 00/// 91017=
201308131800 AAXX 13184 67641 NIL=
201308131500 AAXX 13154 67641 NIL=
201308131200 AAXX 13120 67641 NIL=
201308130600 AAXX 13064 67641 31960 50000 10140 20073 48512 70521 85005
                   333 10320 20090 59006 85280
                   555 00/// 910181=
201308121800 AAXX 12184 67641 NIL=
201308121200 AAXX 12124 67641 41970 01207 10305 20065 48519 70500
                   333 5//// 555 00///
                   QNH 1016.7 HPA=
201308120900 AAXX 12094 67641 41970 00608 10274 20065 48535 70500
                   333 5//// 555 00/// 91019=
201308120600 AAXX 12064 67641 31970 00000 10136 20076 48518 70500
                   333 10320 20105 58000 91018=
201308120300 AAXX 12034 67641 NIL=
201308112100 AAXX 11214 67641 NIL=
201308111800 AAXX 11184 67641 NIL=
201308111200 AAXX 11121 67641 NIL=
201308110900 AAXX 11094 67641 NIL=
201308110600 AAXX 11060 67641 NIL=
201308110300 AAXX 11034 67641 NIL=
201308110000 AAXX 11004 67641 NIL=
201308102100 AAXX 10214 67641 NIL=
201308101800 AAXX 10184 67641 NIL=
201308101500 AAXX 10154 67641 NIL=
201308101200 AAXX 10121 67641 NIL=
201308100900 AAXX 10090 67641 NIL=
201308100600 AAXX 10060 67641 NIL=
201308100300 AAXX 10034 67641 NIL=
201308100000 AAXX 10004 67641 NIL=
201308092100 AAXX 09214 67641 NIL=
201308091800 AAXX 09184 67641 NIL=
201308091500 AAXX 09154 67641 NIL=
201308091200 AAXX 09120 67641 NIL=
201308090900 AAXX 09094 67641 NIL=
201308090600 AAXX 09064 67641 31970 02002 10141 20109 48507 70500
                   333 10301 20112 58003
                   555 00/// 910176=
201308090300 AAXX 09034 67641 NIL=
201308081800 AAXX 08184 67641 NIL=
201308081500 AAXX 08154 67641 NIL=
201308081200 AAXX 08124 67641 41680 21902 10280 20077 48503 70510 82100
                   333 5//// 82848 555 00/// 91015=
201308080900 AAXX 08094 67641 41980 21106 10244 20106 48524 70521 82030
                   333 5//// 82360 555 00/// 91018=
201308080600 AAXX 08064 67641 31980 70000 10144 20101 48504 70500 87030
                   333 10289 20060 5//// 87360
                   555 00/// 910174=
201308080300 AAXX 08034 67641 NIL=
201308072100 AAXX 07214 67641 NIL=
201308071800 AAXX 07184 67641 NIL=
201308071500 AAXX 07154 67641 NIL=
201308071200 AAXX 07120 67641 NIL=
201308070900 AAXX 07094 67641 NIL=
201308070600 AAXX 07060 67641 NIL=
201308070300 AAXX 07034 67641 NIL=
201308070000 AAXX 07004 67641 NIL=
201308061800 AAXX 06184 67641 NIL=
201308061500 AAXX 06154 67641 NIL=
201308061200 AAXX 06124 67641 41680 11204 10250 20053 48521 70500 81100
                   333 5//// 91017=
201308060900 AAXX 06094 67641 41680 11406 10242 20059 48536 70500 81100
                   333 5//// 81840 555 00///
                   QNH 10203=
201308060600 AAXX 06064 67641 41680 60908 10200 20085 48588 70510 86100
                   333 59011 86840=
201308041500 AAXX 04154 67641 NIL=
201308041200 AAXX 04120 67641 NIL=
201308040600 AAXX 04060 67641 NIL=
201308040300 AAXX 04034 67641 NIL=
201308032100 AAXX 03214 67641 NIL=
201308031800 AAXX 03184 67641 NIL=
201308031500 AAXX 03154 67641 NIL=
201308031200 AAXX 03120 67641 NIL=
201308030900 AAXX 03094 67641 NIL=
201308030600 AAXX 03060 67641 NIL=
201308030300 AAXX 03034 67641 NIL=
201308021800 AAXX 02184 67641 NIL=
201308021200 AAXX 02120 67641 NIL=
201308020900 AAXX 02094 67641 41680 60908 10200 20085 48588 70510 86100
                   333 59011 86840 555 00/// 910253=
201308020600 AAXX 02060 67641 NIL=
201308020300 AAXX 02034 67641 NIL=
201308012100 AAXX 01214 67641 NIL=
201308011800 AAXX 01184 67641 NIL=
201308011500 AAXX 01154 67641 NIL=
201308011200 AAXX 01120 67641 NIL=
201308010900 AAXX 01094 67641 NIL=
201308010600 AAXX 01064 67641 NIL=

################################################################################
#  SYNOPS from 67655, Mumbwa (Zambia) | 15-04S | 027-11E | 1216 m
################################################################################
201308310600 AAXX 31060 67655 NIL=
201308310300 AAXX 31034 67655 NIL=
201308301500 AAXX 30154 67655 NIL=
201308301200 AAXX 30120 67655 NIL=
201308300600 AAXX 30060 67655 NIL=
201308290900 AAXX 29094 67655 NIL=
201308290600 AAXX 29060 67655 NIL=
201308290300 AAXX 29034 67655 NIL=
201308290000 AAXX 29004 67655 NIL=
201308282100 AAXX 28214 67655 NIL=
201308281800 AAXX 28184 67655 NIL=
201308281200 AAXX 28124 67655 NIL=
201308280900 AAXX 28090 67655 NIL=
201308280600 AAXX 28064 67655 NIL=
201308271800 AAXX 27184 67655 NIL=
201308271500 AAXX 27154 67655 NIL=
201308271200 AAXX 27124 67655 NIL=
201308270900 AAXX 27094 67655 NIL=
201308270600 AAXX 27064 67655 NIL=
201308230600 AAXX 23060 67655 NIL=
201308221500 AAXX 22154 67655 NIL=
201308221200 AAXX 22120 67655 NIL=
201308220900 AAXX 22094 67655 NIL=
201308211800 AAXX 21184 67655 NIL=
201308211500 AAXX 21154 67655 NIL=
201308211200 AAXX 21120 67655 NIL=
201308210900 AAXX 21094 67655 NIL=
201308210600 AAXX 21064 67655 NIL=
201308202100 AAXX 20214 67655 NIL=
201308201800 AAXX 20184 67655 NIL=
201308201200 AAXX 20120 67655 NIL=
201308200600 AAXX 20060 67655 NIL=
201308200000 AAXX 20004 67655 NIL=
201308192100 AAXX 19214 67655 NIL=
201308191800 AAXX 19184 67655 NIL=
201308191500 AAXX 19154 67655 NIL=
201308191200 AAXX 19120 67655 NIL=
201308190900 AAXX 19094 67655 NIL=
201308190600 AAXX 19060 67655 NIL=
201308181800 AAXX 18184 67655 NIL=
201308181200 AAXX 18120 67655 NIL=
201308180600 AAXX 18060 67655 NIL=
201308171800 AAXX 17184 67655 NIL=
201308171200 AAXX 17120 67655 NIL=
201308170600 AAXX 17060 67655 NIL=
201308161200 AAXX 16124 67655 NIL=
201308160900 AAXX 16090 67655 NIL=
201308160600 AAXX 16060 67655 NIL=
201308151200 AAXX 15124 67655 NIL=
201308150900 AAXX 15094 67655 NIL=
201308150600 AAXX 15064 67655 NIL=
201308141500 AAXX 14154 67655 NIL=
201308141200 AAXX 14124 67655 NIL=
201308140900 AAXX 14094 67655 NIL=
201308140600 AAXX 14060 67655 NIL=
201308131800 AAXX 13184 67655 NIL=
201308131500 AAXX 13154 67655 NIL=
201308131200 AAXX 13120 67655 NIL=
201308130600 AAXX 13060 67655 NIL=
201308121800 AAXX 12184 67655 NIL=
201308121200 AAXX 12120 67655 NIL=
201308120900 AAXX 12094 67655 NIL=
201308120600 AAXX 12064 67655 NIL=
201308120300 AAXX 12034 67655 NIL=
201308112100 AAXX 11214 67655 NIL=
201308111800 AAXX 11184 67655 NIL=
201308111200 AAXX 11121 67655 NIL=
201308110900 AAXX 11094 67655 NIL=
201308110600 AAXX 11060 67655 NIL=
201308110300 AAXX 11034 67655 NIL=
201308110000 AAXX 11004 67655 NIL=
201308102100 AAXX 10214 67655 NIL=
201308101800 AAXX 10184 67655 NIL=
201308101500 AAXX 10154 67655 NIL=
201308101200 AAXX 10121 67655 NIL=
201308100900 AAXX 10090 67655 NIL=
201308100600 AAXX 10060 67655 NIL=
201308100300 AAXX 10034 67655 NIL=
201308100000 AAXX 10004 67655 NIL=
201308092100 AAXX 09214 67655 NIL=
201308091800 AAXX 09184 67655 NIL=
201308091500 AAXX 09154 67655 NIL=
201308091200 AAXX 09120 67655 NIL=
201308090900 AAXX 09094 67655 NIL=
201308090600 AAXX 09060 67655 NIL=
201308090300 AAXX 09034 67655 NIL=
201308081800 AAXX 08184 67655 NIL=
201308081500 AAXX 08154 67655 NIL=
201308081200 AAXX 08120 67655 NIL=
201308080900 AAXX 08094 67655 NIL=
201308080600 AAXX 08060 67655 NIL=
201308080300 AAXX 08034 67655 NIL=
201308072100 AAXX 07214 67655 NIL=
201308071800 AAXX 07184 67655 NIL=
201308071500 AAXX 07154 67655 NIL=
201308071200 AAXX 07120 67655 NIL=
201308070900 AAXX 07094 67655 NIL=
201308070600 AAXX 07064 67655 32980 00906 10150 20095 48533
                   333 10250 20/// 58020 91022=
201308070300 AAXX 07034 67655 NIL=
201308070000 AAXX 07004 67655 NIL=
201308061800 AAXX 06184 67655 NIL=
201308061500 AAXX 06154 67655 NIL=
201308061200 AAXX 06120 67655 NIL=
201308060900 AAXX 06094 67655 NIL=
201308041500 AAXX 04154 67655 NIL=
201308041200 AAXX 04120 67655 NIL=
201308040600 AAXX 04060 67655 NIL=
201308040300 AAXX 04034 67655 NIL=
201308032100 AAXX 03214 67655 NIL=
201308031800 AAXX 03184 67655 NIL=
201308031500 AAXX 03154 67655 NIL=
201308031200 AAXX 03120 67655 NIL=
201308030900 AAXX 03094 67655 NIL=
201308030600 AAXX 03060 67655 NIL=
201308030300 AAXX 03034 67655 NIL=
201308021800 AAXX 02184 67655 NIL=
201308021200 AAXX 02120 67655 NIL=
201308020900 AAXX 02094 67655 NIL=
201308020600 AAXX 02060 67655 NIL=
201308020300 AAXX 02034 67655 NIL=
201308012100 AAXX 01214 67655 NIL=
201308011800 AAXX 01184 67655 NIL=
201308011500 AAXX 01154 67655 NIL=
201308011200 AAXX 01120 67655 NIL=
201308010900 AAXX 01094 67655 NIL=
201308010600 AAXX 01064 67655 NIL=

################################################################################
#  SYNOPS from 67659, Kafue Polder (Zambia) | 15-46S | 027-55E | 978 m
################################################################################
201308310600 AAXX 31060 67659 NIL=
201308310300 AAXX 31034 67659 NIL=
201308301500 AAXX 30154 67659 NIL=
201308301200 AAXX 30120 67659 NIL=
201308300600 AAXX 30060 67659 NIL=
201308290900 AAXX 29094 67659 NIL=
201308290600 AAXX 29060 67659 NIL=
201308290300 AAXX 29034 67659 NIL=
201308290000 AAXX 29004 67659 NIL=
201308282100 AAXX 28214 67659 NIL=
201308281800 AAXX 28184 67659 NIL=
201308281200 AAXX 28124 67659 NIL=
201308280900 AAXX 28090 67659 NIL=
201308280600 AAXX 28064 67659 NIL=
201308271800 AAXX 27184 67659 NIL=
201308271500 AAXX 27154 67659 NIL=
201308271200 AAXX 27124 67659 NIL=
201308270900 AAXX 27094 67659 NIL=
201308270600 AAXX 27064 67659 NIL=
201308230600 AAXX 23060 67659 NIL=
201308221500 AAXX 22154 67659 NIL=
201308221200 AAXX 22120 67659 NIL=
201308220900 AAXX 22094 67659 NIL=
201308211800 AAXX 21184 67659 NIL=
201308211500 AAXX 21154 67659 NIL=
201308211200 AAXX 21120 67659 NIL=
201308210900 AAXX 21094 67659 NIL=
201308210600 AAXX 21064 67659 NIL=
201308202100 AAXX 20214 67659 NIL=
201308201800 AAXX 20184 67659 NIL=
201308201200 AAXX 20120 67659 NIL=
201308200600 AAXX 20060 67659 NIL=
201308200000 AAXX 20004 67659 NIL=
201308192100 AAXX 19214 67659 NIL=
201308191800 AAXX 19184 67659 NIL=
201308191500 AAXX 19154 67659 NIL=
201308191200 AAXX 19120 67659 NIL=
201308190900 AAXX 19094 67659 NIL=
201308190600 AAXX 19060 67659 NIL=
201308181800 AAXX 18184 67659 NIL=
201308181200 AAXX 18120 67659 NIL=
201308180600 AAXX 18060 67659 NIL=
201308171800 AAXX 17184 67659 NIL=
201308171200 AAXX 17120 67659 NIL=
201308170600 AAXX 17060 67659 NIL=
201308161200 AAXX 16124 67659 NIL=
201308160900 AAXX 16090 67659 NIL=
201308160600 AAXX 16060 67659 NIL=
201308151200 AAXX 15124 67659 NIL=
201308150900 AAXX 15094 67659 NIL=
201308150600 AAXX 15064 67659 NIL=
201308141500 AAXX 14154 67659 NIL=
201308141200 AAXX 14124 67659 NIL=
201308140900 AAXX 14094 67659 NIL=
201308140600 AAXX 14060 67659 NIL=
201308131800 AAXX 13184 67659 NIL=
201308131500 AAXX 13154 67659 NIL=
201308131200 AAXX 13120 67659 NIL=
201308130600 AAXX 13060 67659 NIL=
201308121800 AAXX 12184 67659 NIL=
201308121200 AAXX 12120 67659 NIL=
201308120900 AAXX 12094 67659 NIL=
201308120600 AAXX 12064 67659 NIL=
201308120300 AAXX 12034 67659 NIL=
201308112100 AAXX 11214 67659 NIL=
201308111800 AAXX 11184 67659 NIL=
201308111200 AAXX 11121 67659 NIL=
201308110900 AAXX 11094 67659 NIL=
201308110600 AAXX 11060 67659 NIL=
201308110300 AAXX 11034 67659 NIL=
201308110000 AAXX 11004 67659 NIL=
201308102100 AAXX 10214 67659 NIL=
201308101800 AAXX 10184 67659 NIL=
201308101500 AAXX 10154 67659 NIL=
201308101200 AAXX 10121 67659 NIL=
201308100900 AAXX 10090 67659 NIL=
201308100600 AAXX 10060 67659 NIL=
201308100300 AAXX 10034 67659 NIL=
201308100000 AAXX 10004 67659 NIL=
201308092100 AAXX 09214 67659 NIL=
201308091800 AAXX 09184 67659 NIL=
201308091500 AAXX 09154 67659 NIL=
201308091200 AAXX 09120 67659 NIL=
201308090900 AAXX 09094 67659 NIL=
201308090600 AAXX 09060 67659 NIL=
201308090300 AAXX 09034 67659 NIL=
201308081800 AAXX 08184 67659 NIL=
201308081500 AAXX 08154 67659 NIL=
201308081200 AAXX 08120 67659 NIL=
201308080900 AAXX 08094 67659 NIL=
201308080600 AAXX 08060 67659 NIL=
201308080300 AAXX 08034 67659 NIL=
201308072100 AAXX 07214 67659 NIL=
201308071800 AAXX 07184 67659 NIL=
201308071500 AAXX 07154 67659 NIL=
201308071200 AAXX 07120 67659 NIL=
201308070900 AAXX 07094 67659 NIL=
201308070600 AAXX 07060 67659 NIL=
201308070300 AAXX 07034 67659 NIL=
201308070000 AAXX 07004 67659 NIL=
201308061800 AAXX 06184 67659 NIL=
201308061500 AAXX 06154 67659 NIL=
201308061200 AAXX 06120 67659 NIL=
201308060900 AAXX 06094 67659 NIL=
201308041500 AAXX 04154 67659 NIL=
201308041200 AAXX 04120 67659 NIL=
201308040600 AAXX 04060 67659 NIL=
201308040300 AAXX 04034 67659 NIL=
201308032100 AAXX 03214 67659 NIL=
201308031800 AAXX 03184 67659 NIL=
201308031500 AAXX 03154 67659 NIL=
201308031200 AAXX 03120 67659 NIL=
201308030900 AAXX 03094 67659 NIL=
201308030600 AAXX 03060 67659 NIL=
201308030300 AAXX 03034 67659 NIL=
201308021800 AAXX 02184 67659 NIL=
201308021200 AAXX 02120 67659 NIL=
201308020900 AAXX 02094 67659 NIL=
201308020600 AAXX 02060 67659 NIL=
201308020300 AAXX 02034 67659 NIL=
201308012100 AAXX 01214 67659 NIL=
201308011800 AAXX 01184 67659 NIL=
201308011500 AAXX 01154 67659 NIL=
201308011200 AAXX 01120 67659 NIL=
201308010900 AAXX 01094 67659 NIL=
201308010600 AAXX 01064 67659 NIL=

################################################################################
#  SYNOPS from 67662, Kabwe Agric (Zambia) | 14-24S | 028-30E | 1165 m
################################################################################
201308310600 AAXX 31060 67662 NIL=
201308310300 AAXX 31034 67662 NIL=
201308301500 AAXX 30154 67662 NIL=
201308301200 AAXX 30120 67662 NIL=
201308300600 AAXX 30060 67662 NIL=
201308290900 AAXX 29094 67662 NIL=
201308290600 AAXX 29060 67662 NIL=
201308290300 AAXX 29034 67662 NIL=
201308290000 AAXX 29004 67662 NIL=
201308282100 AAXX 28214 67662 NIL=
201308281800 AAXX 28184 67662 NIL=
201308281200 AAXX 28124 67662 NIL=
201308280900 AAXX 28090 67662 NIL=
201308280600 AAXX 28064 67662 NIL=
201308271800 AAXX 27184 67662 NIL=
201308271500 AAXX 27154 67662 NIL=
201308271200 AAXX 27124 67662 NIL=
201308270900 AAXX 27094 67662 NIL=
201308270600 AAXX 27064 67662 NIL=
201308230600 AAXX 23060 67662 NIL=
201308221500 AAXX 22154 67662 NIL=
201308221200 AAXX 22120 67662 NIL=
201308220900 AAXX 22094 67662 NIL=
201308211800 AAXX 21184 67662 NIL=
201308211500 AAXX 21154 67662 NIL=
201308211200 AAXX 21120 67662 NIL=
201308210900 AAXX 21094 67662 NIL=
201308210600 AAXX 21064 67662 NIL=
201308202100 AAXX 20214 67662 NIL=
201308201800 AAXX 20184 67662 NIL=
201308201200 AAXX 20120 67662 NIL=
201308200600 AAXX 20060 67662 NIL=
201308200000 AAXX 20004 67662 NIL=
201308192100 AAXX 19214 67662 NIL=
201308191800 AAXX 19184 67662 NIL=
201308191500 AAXX 19154 67662 NIL=
201308191200 AAXX 19120 67662 NIL=
201308190900 AAXX 19094 67662 NIL=
201308190600 AAXX 19060 67662 NIL=
201308181800 AAXX 18184 67662 NIL=
201308181200 AAXX 18120 67662 NIL=
201308180600 AAXX 18060 67662 NIL=
201308171800 AAXX 17184 67662 NIL=
201308171200 AAXX 17120 67662 NIL=
201308170600 AAXX 17060 67662 NIL=
201308161200 AAXX 16124 67662 NIL=
201308160900 AAXX 16090 67662 NIL=
201308160600 AAXX 16060 67662 NIL=
201308151200 AAXX 15124 67662 NIL=
201308150900 AAXX 15094 67662 NIL=
201308150600 AAXX 15064 67662 NIL=
201308141500 AAXX 14154 67662 NIL=
201308141200 AAXX 14124 67662 NIL=
201308140900 AAXX 14094 67662 NIL=
201308140600 AAXX 14060 67662 NIL=
201308131800 AAXX 13184 67662 NIL=
201308131500 AAXX 13154 67662 NIL=
201308131200 AAXX 13120 67662 NIL=
201308130600 AAXX 13060 67662 NIL=
201308121800 AAXX 12184 67662 NIL=
201308121200 AAXX 12120 67662 NIL=
201308120900 AAXX 12094 67662 NIL=
201308120600 AAXX 12064 67662 NIL=
201308120300 AAXX 12034 67662 NIL=
201308112100 AAXX 11214 67662 NIL=
201308111800 AAXX 11184 67662 NIL=
201308111200 AAXX 11121 67662 NIL=
201308110900 AAXX 11094 67662 NIL=
201308110600 AAXX 11060 67662 NIL=
201308110300 AAXX 11034 67662 NIL=
201308110000 AAXX 11004 67662 NIL=
201308102100 AAXX 10214 67662 NIL=
201308101800 AAXX 10184 67662 NIL=
201308101500 AAXX 10154 67662 NIL=
201308101200 AAXX 10121 67662 NIL=
201308100900 AAXX 10090 67662 NIL=
201308100600 AAXX 10060 67662 NIL=
201308100300 AAXX 10034 67662 NIL=
201308100000 AAXX 10004 67662 NIL=
201308092100 AAXX 09214 67662 NIL=
201308091800 AAXX 09184 67662 NIL=
201308091500 AAXX 09154 67662 NIL=
201308091200 AAXX 09120 67662 NIL=
201308090900 AAXX 09094 67662 NIL=
201308090600 AAXX 09060 67662 NIL=
201308090300 AAXX 09034 67662 NIL=
201308081800 AAXX 08184 67662 NIL=
201308081500 AAXX 08154 67662 NIL=
201308081200 AAXX 08120 67662 NIL=
201308080900 AAXX 08094 67662 NIL=
201308080600 AAXX 08060 67662 NIL=
201308080300 AAXX 08034 67662 NIL=
201308072100 AAXX 07214 67662 NIL=
201308071800 AAXX 07184 67662 NIL=
201308071500 AAXX 07154 67662 NIL=
201308071200 AAXX 07120 67662 NIL=
201308070900 AAXX 07094 67662 NIL=
201308070600 AAXX 07060 67662 NIL=
201308070300 AAXX 07034 67662 NIL=
201308070000 AAXX 07004 67662 NIL=
201308061800 AAXX 06184 67662 NIL=
201308061500 AAXX 06154 67662 NIL=
201308061200 AAXX 06120 67662 NIL=
201308060900 AAXX 06094 67662 NIL=
201308041500 AAXX 04154 67662 NIL=
201308041200 AAXX 04120 67662 NIL=
201308040600 AAXX 04060 67662 NIL=
201308040300 AAXX 04034 67662 NIL=
201308032100 AAXX 03214 67662 NIL=
201308031800 AAXX 03184 67662 NIL=
201308031500 AAXX 03154 67662 NIL=
201308031200 AAXX 03120 67662 NIL=
201308030900 AAXX 03094 67662 NIL=
201308030600 AAXX 03060 67662 NIL=
201308030300 AAXX 03034 67662 NIL=
201308021800 AAXX 02184 67662 NIL=
201308021200 AAXX 02120 67662 NIL=
201308020900 AAXX 02094 67662 NIL=
201308020600 AAXX 02060 67662 NIL=
201308020300 AAXX 02034 67662 NIL=
201308012100 AAXX 01214 67662 NIL=
201308011800 AAXX 01184 67662 NIL=
201308011500 AAXX 01154 67662 NIL=
201308011200 AAXX 01120 67662 NIL=
201308010900 AAXX 01094 67662 NIL=
201308010600 AAXX 01064 67662 NIL=

################################################################################
#  SYNOPS from 67663, Kabwe (Zambia) | 14-27S | 028-28E | 1206 m
################################################################################
201308310600 AAXX 31060 67663 NIL=
201308310300 AAXX 31034 67663 NIL=
201308301500 AAXX 30154 67663 NIL=
201308301200 AAXX 30120 67663 NIL=
201308300600 AAXX 30060 67663 NIL=
201308290900 AAXX 29094 67663 NIL=
201308290600 AAXX 29060 67663 NIL=
201308290300 AAXX 29034 67663 NIL=
201308290000 AAXX 29004 67663 NIL=
201308282100 AAXX 28214 67663 NIL=
201308281800 AAXX 28184 67663 NIL=
201308281200 AAXX 28124 67663 NIL=
201308280900 AAXX 28090 67663 NIL=
201308280600 AAXX 28064 67663 NIL=
201308271800 AAXX 27184 67663 NIL=
201308271500 AAXX 27154 67663 NIL=
201308271200 AAXX 27124 67663 NIL=
201308270900 AAXX 27094 67663 NIL=
201308270600 AAXX 27064 67663 31965 01008 10166 20094 48566 70500
                   333 10267 20116 58006=
201308230600 AAXX 23064 67663 31965 00905 10196 20089 48533 70500
                   333 10298 20139 58004=
201308221500 AAXX 22154 67663 NIL=
201308221200 AAXX 22120 67663 NIL=
201308220900 AAXX 22094 67663 NIL=
201308211800 AAXX 21184 67663 NIL=
201308211500 AAXX 21154 67663 NIL=
201308211200 AAXX 21120 67663 NIL=
201308210900 AAXX 21094 67663 NIL=
201308210600 AAXX 21064 67663 31965 30805 10164 20103 48539 70500 80002
                   333 10250 20110 59027 83080=
201308202100 AAXX 20214 67663 NIL=
201308201800 AAXX 20184 67663 NIL=
201308201200 AAXX 20120 67663 NIL=
201308200600 AAXX 20064 67663 31965 00912 10171 20129 48557 70500
                   333 10303 20142 58030=
201308200000 AAXX 20004 67663 NIL=
201308192100 AAXX 19214 67663 NIL=
201308191800 AAXX 19184 67663 NIL=
201308191500 AAXX 19154 67663 NIL=
201308191200 AAXX 19120 67663 NIL=
201308190900 AAXX 19094 67663 NIL=
201308190600 AAXX 19064 67663 31965 00503 10194 20069 48540 70500
                   333 10304 20123 58013=
201308181800 AAXX 18184 67663 NIL=
201308181200 AAXX 18120 67663 NIL=
201308180600 AAXX 18060 67663 NIL=
201308171800 AAXX 17184 67663 NIL=
201308171200 AAXX 17120 67663 NIL=
201308170600 AAXX 17060 67663 NIL=
201308161200 AAXX 16124 67663 NIL=
201308160900 AAXX 16090 67663 NIL=
201308160600 AAXX 16060 67663 NIL=
201308151200 AAXX 15124 67663 NIL=
201308150900 AAXX 15094 67663 NIL=
201308150600 AAXX 15064 67663 NIL=
201308141500 AAXX 14154 67663 NIL=
201308141200 AAXX 14124 67663 NIL=
201308140900 AAXX 14094 67663 NIL=
201308140600 AAXX 14060 67663 NIL=
201308131800 AAXX 13184 67663 NIL=
201308131500 AAXX 13154 67663 NIL=
201308131200 AAXX 13120 67663 NIL=
201308130600 AAXX 13064 67663 31965 20203 10172 20060 48545 70500 80002
                   333 10286 20114 59016 82080=
201308121800 AAXX 12184 67663 NIL=
201308121200 AAXX 12120 67663 NIL=
201308120900 AAXX 12094 67663 NIL=
201308120600 AAXX 12064 67663 NIL=
201308120300 AAXX 12034 67663 NIL=
201308112100 AAXX 11214 67663 NIL=
201308111800 AAXX 11184 67663 NIL=
201308111200 AAXX 11121 67663 NIL=
201308110900 AAXX 11094 67663 NIL=
201308110600 AAXX 11060 67663 NIL=
201308110300 AAXX 11034 67663 NIL=
201308110000 AAXX 11004 67663 NIL=
201308102100 AAXX 10214 67663 NIL=
201308101800 AAXX 10184 67663 NIL=
201308101500 AAXX 10154 67663 NIL=
201308101200 AAXX 10121 67663 NIL=
201308100900 AAXX 10090 67663 NIL=
201308100600 AAXX 10060 67663 NIL=
201308100300 AAXX 10034 67663 NIL=
201308100000 AAXX 10004 67663 NIL=
201308092100 AAXX 09214 67663 NIL=
201308091800 AAXX 09184 67663 NIL=
201308091500 AAXX 09154 67663 NIL=
201308091200 AAXX 09120 67663 NIL=
201308090900 AAXX 09094 67663 NIL=
201308090600 AAXX 09060 67663 NIL=
201308090300 AAXX 09034 67663 NIL=
201308081800 AAXX 08184 67663 NIL=
201308081500 AAXX 08154 67663 NIL=
201308081200 AAXX 08120 67663 NIL=
201308080900 AAXX 08094 67663 NIL=
201308080600 AAXX 08064 67663 31965 61114 10170 20112 48529 70522 86030
                   333 10282 20147 59006 86360=
201308080300 AAXX 08034 67663 NIL=
201308072100 AAXX 07214 67663 NIL=
201308071800 AAXX 07184 67663 NIL=
201308071500 AAXX 07154 67663 NIL=
201308071200 AAXX 07120 67663 NIL=
201308070900 AAXX 07094 67663 NIL=
201308070600 AAXX 07064 67663 31970 21306 10/// 20104 48534 70500 82030
                   333 10256 20119 59014 82360
                   555 00///=
201308070300 AAXX 07034 67663 NIL=
201308070000 AAXX 07004 67663 NIL=
201308061800 AAXX 06184 67663 NIL=
201308061500 AAXX 06154 67663 NIL=
201308061200 AAXX 06120 67663 NIL=
201308060900 AAXX 06094 67663 NIL=
201308060600 AAXX 06064 67663 31970 01003 10153 20063 48544 70500
                   333 10243 20077 59006=
201308041500 AAXX 04154 67663 NIL=
201308041200 AAXX 04120 67663 NIL=
201308040600 AAXX 04060 67663 NIL=
201308040300 AAXX 04034 67663 NIL=
201308032100 AAXX 03214 67663 NIL=
201308031800 AAXX 03184 67663 NIL=
201308031500 AAXX 03154 67663 NIL=
201308031200 AAXX 03120 67663 NIL=
201308030900 AAXX 03094 67663 NIL=
201308030600 AAXX 03060 67663 NIL=
201308030300 AAXX 03034 67663 NIL=
201308021800 AAXX 02184 67663 NIL=
201308021200 AAXX 02120 67663 NIL=
201308020900 AAXX 02094 67663 NIL=
201308020600 AAXX 02060 67663 NIL=
201308020300 AAXX 02034 67663 NIL=
201308012100 AAXX 01214 67663 NIL=
201308011800 AAXX 01184 67663 NIL=
201308011500 AAXX 01154 67663 NIL=
201308011200 AAXX 01120 67663 NIL=
201308010900 AAXX 01094 67663 NIL=
201308010600 AAXX 01064 67663 11965 00914 10129 20084 48594 69904 70500
                   333 10227 20091 58006
                   555 00///=

################################################################################
#  SYNOPS from 67665, Lusaka Internationalairport (Zambia) | 15-19S | 028-27E | 1152 m
################################################################################
201308310600 AAXX 31060 67665 NIL=
201308310300 AAXX 31034 67665 41970 00000 10127 20119 48486 70500
                   333 59019=
201308302100 AAXX 30214 67665 41960 01002 10168 20095 48509 70500
                   333 59018=
201308301500 AAXX 30154 67665 41958 00903 10289 20105 48496 70500
                   333 59030=
201308301200 AAXX 30124 67665 41958 00703 10296 20090 48506 70500
                   333 59032=
201308300600 AAXX 30060 67665 NIL=
201308291200 AAXX 29124 67665 41960 01004 10284 20094 48536 70500
                   333 59016=
201308290900 AAXX 29094 67665 NIL=
201308290600 AAXX 29060 67665 NIL=
201308290300 AAXX 29034 67665 42980 00902 10123 20100 48531
                   333 59015=
201308290000 AAXX 29004 67665 42980 00000 10130 20104 48533
                   333 59020=
201308282100 AAXX 28214 67665 42980 00000 10141 20085 48545
                   333 59018=
201308281800 AAXX 28184 67665 41960 01102 10183 20059 48540 70500
                   333 59017=
201308281200 AAXX 28124 67665 NIL=
201308280900 AAXX 28090 67665 NIL=
201308280600 AAXX 28064 67665 NIL=
201308271800 AAXX 27184 67665 42980 01002 10176 20076 48557
                   333 10278 59010=
201308271500 AAXX 27154 67665 42980 00905 10260 20085 48550
                   333 59016=
201308271200 AAXX 27124 67665 NIL=
201308270900 AAXX 27094 67665 41960 00806 10230 20141 48581 70500
                   333 59011=
201308270600 AAXX 27064 67665 31960 01003 10147 20121 48573 70500
                   333 10265 20106 59002=
201308270300 AAXX 27034 67665 41970 01005 10108 20096 48556 70500
                   333 59021=
201308262100 AAXX 26214 67665 41970 00804 10132 20110 48565 70500
                   333 58000=
201308261800 AAXX 26184 67665 41970 00905 10164 20118 48563 70500
                   333 10265 59001=
201308230600 AAXX 23064 67665 31965 01008 10167 20082 48536 70250
                   333 10290 20/// 59006 91023=
201308221500 AAXX 22154 67665 41970 01003 10275 20100 48523 70500
                   333 59014=
201308221200 AAXX 22120 67665 NIL=
201308220900 AAXX 22094 67665 NIL=
201308211800 AAXX 21184 67665 41975 00000 10176 20070 48542 70500
                   333 59028=
201308211500 AAXX 21154 67665 NIL=
201308211200 AAXX 21124 67665 41675 10904 10249 20105 48550 70500 81401
                   333 59022 81645 81080=
201308210900 AAXX 21094 67665 NIL=
201308210600 AAXX 21064 67665 NIL=
201308210300 AAXX 21034 67665 41975 11202 10110 20101 48541 70500 82030
                   333 59006 82360=
201308202100 AAXX 20214 67665 41960 21102 10140 20084 48566 70500 82030
                   333 58025 82360=
201308201800 AAXX 20184 67665 41959 41203 10176 20082 48569 70500 84030
                   333 59003 84360=
201308201200 AAXX 20124 67665 41660 10615 10241 20116 48570 70500 81500
                   333 58038 81632=
201308200900 AAXX 20094 67665 41560 20814 10210 20119 48594 70500 82501
                   333 58039 82625 81072=
201308200600 AAXX 20064 67665 31458 40914 10166 20080 48577 70500 84500
                   333 10313 20117 58036 84618 91026=
201308200000 AAXX 20004 67665 41970 01003 10160 20153 48548 70500
                   333 58022=
201308192100 AAXX 19214 67665 41970 00000 10173 20091 48547 70500
                   333 58016=
201308191800 AAXX 19184 67665 41970 01004 10194 20106 48545 70500
                   333 10313 58006=
201308191500 AAXX 19154 67665 41960 01015 10282 20095 48537 70500
                   333 58017=
201308191200 AAXX 19124 67665 41960 01015 10305 20106 48541 70500
                   333 58015=
201308190900 AAXX 19094 67665 NIL=
201308190600 AAXX 19060 67665 NIL=
201308181800 AAXX 18184 67665 41957 01002 10207 20080 48531 70500
                   333 10310 59003=
201308181200 AAXX 18124 67665 41957 01009 10299 20091 48525 70500
                   333 59008=
201308180600 AAXX 18060 67665 NIL=
201308171800 AAXX 17184 67665 41958 00000 10184 20084 48531 70500
                   333 58007=
201308171200 AAXX 17124 67665 41959 01406 10295 20049 48533 70500
                   333 58008=
201308170600 AAXX 17060 67665 NIL=
201308161200 AAXX 16124 67665 NIL=
201308160900 AAXX 16090 67665 NIL=
201308160600 AAXX 16060 67665 NIL=
201308151200 AAXX 15124 67665 NIL=
201308150900 AAXX 15094 67665 NIL=
201308150600 AAXX 15064 67665 31960 00000 10182 20065 48529 70500
                   333 10310 20100 59004 91020=
201308141500 AAXX 14154 67665 NIL=
201308141200 AAXX 14124 67665 41960 01003 10300 20056 48514 70500
                   333 59015=
201308140900 AAXX 14094 67665 NIL=
201308140600 AAXX 14064 67665 31958 00000 10165 20058 48531 70500
                   333 10299 20083 59011 91020=
201308131800 AAXX 13184 67665 42970 00000 10203 20118 48524 70500
                   333 10299 59010=
201308131500 AAXX 13154 67665 42970 01103 10281 20063 48519 70500
                   333 59014=
201308131200 AAXX 13124 67665 42970 00904 10290 20060 48528 70500
                   333 59015=
201308130600 AAXX 13064 67665 31958 20000 10150 20073 48535 70500 80001
                   333 10290 20093 58017 82080 91021=
201308121800 AAXX 12184 67665 41975 01003 10183 20070 48531 70500
                   333 59006=
201308121200 AAXX 12124 67665 42980 00903 10280 20070 48542 70500
                   333 59013=
201308120900 AAXX 12094 67665 42980 00906 10252 20085 48561 70500
                   333 59011=
201308120600 AAXX 12064 67665 32980 11002 10151 20118 48551 70500 80001
                   333 10305 20078 58000 81080=
201308120300 AAXX 12034 67665 41960 01307 10114 20095 48535 70500
                   333 58005=
201308112100 AAXX 11214 67665 41960 00804 10145 20079 48551 70500
                   333 58009=
201308111800 AAXX 11184 67665 41959 01005 10183 20070 48543 70500
                   333 10305 58010=
201308111200 AAXX 11121 67665 NIL=
201308110900 AAXX 11094 67665 NIL=
201308110600 AAXX 11060 67665 NIL=
201308110300 AAXX 11034 67665 42980 01203 10164 20148 48537 70200
                   333 58014=
201308110000 AAXX 11004 67665 42980 00000 10170 20119 48539 70200
                   333 58012=
201308102100 AAXX 10214 67665 42980 01202 10178 20107 48547 70200
                   333 58006=
201308101800 AAXX 10184 67665 NIL=
201308101500 AAXX 10154 67665 NIL=
201308101200 AAXX 10121 67665 NIL=
201308100900 AAXX 10094 67665 41960 00709 10266 20080 48559 70500
                   333 59001=
201308100600 AAXX 10064 67665 31960 01203 10163 20105 48539 70500
                   333 10290 20094 58004=
201308100300 AAXX 10034 67665 42980 01002 10160 20153 48523 70500
                   333 58000=
201308100000 AAXX 10004 67665 42980 01003 10159 20128 48526 70500
                   333 59001=
201308092100 AAXX 09214 67665 42980 00000 10192 20134 48543 70500
                   333 58009=
201308091800 AAXX 09184 67665 41970 11203 10197 20111 48536 70500 81030
                   333 10290 58010 81360=
201308091500 AAXX 09154 67665 41965 11003 10269 20121 48527 70500
                   333 81030 58012 81360=
201308091200 AAXX 09124 67665 41960 01003 10276 20105 48536 70500
                   333 58015=
201308090900 AAXX 09094 67665 41960 00903 10238 20110 48555 70500
                   333 59012=
201308090600 AAXX 09064 67665 31959 11206 10175 20175 48536 70500 81031
                   333 10279 20120 58003 81360 91021=
201308090300 AAXX 09034 67665 NIL=
201308081800 AAXX 08184 67665 42980 10000 10220 20129 48529 70500 80001
                   333 10279 59003 81080=
201308081500 AAXX 08154 67665 42959 40903 10260 20088 48514 70500 80001
                   333 59004 84080=
201308081200 AAXX 08124 67665 42980 01010 10218 20132 48513 70500
                   333 59010=
201308080900 AAXX 08094 67665 NIL=
201308080600 AAXX 08064 67665 31970 21304 10150 20111 48530 70500 82030
                   333 10268 20112 59015 82360 91020=
201308080300 AAXX 08034 67665 NIL=
201308072100 AAXX 07214 67665 NIL=
201308071800 AAXX 07184 67665 42980 31002 10189 20086 48528 70500 83030
                   333 10268 59014 83360=
201308071500 AAXX 07154 67665 42780 41002 10240 20082 48517 70522 84100
                   333 59020 84856=
201308071200 AAXX 07124 67665 42680 51106 10256 20084 48528 85100
                   333 59017 85835=
201308070900 AAXX 07094 67665 NIL=
201308070600 AAXX 07060 67665 NIL=
201308070300 AAXX 07034 67665 NIL=
201308070000 AAXX 07004 67665 42980 00905 10112 20089 48531
                   333 59011=
201308061800 AAXX 06184 67665 42980 11007 10155 20080 48536 81030
                   333 10251 59010 81360=
201308061500 AAXX 06154 67665 42980 40907 10221 20079 48534 84030
                   333 59007 84360=
201308061200 AAXX 06124 67665 42680 41006 10245 20931 48553 84130
                   333 59009 84845 81360=
201308060900 AAXX 06094 67665 42580 11006 10211 20057 48571 81100
                   333 59003 81830=
201308060600 AAXX 06064 67665 32980 11307 10128 20068 48556 81030
                   333 10251 20054 59007 81360=
201308060300 AAXX 06034 67665 42980 00000 10095 20085 48533 70200
                   333 59012=
201308052100 AAXX 05214 67665 42980 21203 10117 20079 48549 70200 82030
                   333 59018 82360=
201308051500 AAXX 05154 67665 42880 40805 10211 20074 48539 81130
                   333 59023 81857 83360=
201308041800 AAXX 04184 67665 42980 31203 10168 20095 48570 70200 83030
                   333 10238 59012 83360=
201308041500 AAXX 04154 67665 42780 41210 10208 20092 48562 70100 84200
                   333 59015 84850=
201308041200 AAXX 04124 67665 42680 40910 10210 20072 48565 70200 84100
                   333 59022 84835=
201308040600 AAXX 04060 67665 NIL=
201308040300 AAXX 04034 67665 42980 00000 10114 20105 48561
                   333 59019=
201308032100 AAXX 03214 67665 42980 00000 10133 20123 48577
                   333 59017=
201308031800 AAXX 03184 67665 NIL=
201308031500 AAXX 03154 67665 NIL=
201308031200 AAXX 03124 67665 42680 60912 10208 20120 48588 70200 85800
                   333 59001 85635=
201308030900 AAXX 03094 67665 42580 70911 10171 20110 48604 875//
                   333 59002 87627=
201308030600 AAXX 03064 67665 32480 70910 10131 20106 48594 87500
                   333 10239 20059 59005 87612=
201308030300 AAXX 03034 67665 NIL=
201308021800 AAXX 02184 67665 42980 31006 10144 20066 48588 83030
                   333 59003=
201308021200 AAXX 02124 67665 42580 40915 10217 29195 48588 84500
                   333 59004 84635=
201308020900 AAXX 02094 67665 32580 40916 10196 20105 48610 70100 83530
                   333 59010 83620 81360=
201308020600 AAXX 02064 67665 32480 60713 10148 20100 48601 86530
                   333 10224 20075 59004 86610 81360=
201308020300 AAXX 02034 67665 42980 60809 10096 20076 48572 86030
                   333 59015 86359=
201308012100 AAXX 01214 67665 42980 01203 10108 20080 48588
                   333 59006=
201308011800 AAXX 01184 67665 42980 01005 10134 20076 48589
                   333 10224 58001=
201308011500 AAXX 01154 67665 42980 11110 10202 20085 48586 81030
                   333 59003 81360=
201308011200 AAXX 01120 67665 NIL=
201308010900 AAXX 01094 67665 NIL=
201308010600 AAXX 01064 67665 NIL=

################################################################################
#  SYNOPS from 67666, Lusaka City Airport (Zambia) | 15-25S | 028-19E | 1280 m
################################################################################
201308310600 AAXX 31060 67666 NIL=
201308310300 AAXX 31034 67666 NIL=
201308301500 AAXX 30154 67666 NIL=
201308301200 AAXX 30124 67666 NIL=
201308300600 AAXX 30061 67666 31980 00908 10190 20069 48520 70500
                   333 10//0 20110 59025 91019=
201308290900 AAXX 29094 67666 41978 00913 10240 20076 48550 70500
                   333 59018 91022=
201308290600 AAXX 29064 67666 31975 00910 10180 20055 48544 70500
                   333 10/// 20155 59010 91022=
201308290300 AAXX 29034 67666 NIL=
201308290000 AAXX 29004 67666 NIL=
201308282100 AAXX 28214 67666 NIL=
201308281800 AAXX 28184 67666 NIL=
201308281200 AAXX 28124 67666 NIL=
201308280900 AAXX 28094 67666 41978 01006 10223 20049 48565 70500
                   333 59008 91024=
201308280600 AAXX 28064 67666 31960 00910 10167 20048 48562 70500
                   333 10/// 20129 59007
                   555 00/// 91024=
201308271800 AAXX 27184 67666 NIL=
201308271500 AAXX 27154 67666 NIL=
201308271200 AAXX 27124 67666 41978 00306 10255 20085 48549 70500
                   333 5//// 91021=
201308270900 AAXX 27094 67666 41975 01010 10221 20086 48574 70500
                   333 59019 91025=
201308270600 AAXX 27064 67666 32980 01208 10165 20092 48565
                   333 10280 20//0 59006 91025=
201308230600 AAXX 23064 67666 31978 01208 10200 20068 48554 70500
                   333 10/// 20121 58008 91022=
201308221500 AAXX 22154 67666 NIL=
201308221200 AAXX 22124 67666 41980 02702 10260 20092 48529 70500
                   333 59011 91019=
201308220900 AAXX 22094 67666 41978 00910 10230 20090 48554 70500
                   333 59010 91023 67581 41970 00906 10269 20072
                   48566 70500 59012 91022=
201308211800 AAXX 21184 67666 NIL=
201308211500 AAXX 21154 67666 NIL=
201308211200 AAXX 21124 67666 NIL=
201308210900 AAXX 21094 67666 41580 30907 10211 20099 48514 81301
                   333 59022 83820 81080 91024=
201308210600 AAXX 21064 67666 31975 11108 10154 20100 48556 70500 80001
                   333 10/// 20124 59013 82080 91023=
201308202100 AAXX 20214 67666 NIL=
201308201800 AAXX 20184 67666 NIL=
201308201200 AAXX 20124 67666 42680 10912 10235 20108 48561 70500 81100
                   333 58038 81840 91023=
201308200900 AAXX 20094 67666 41575 11012 10200 20115 48582 70500 81100
                   333 58035 81830 91026=
201308200600 AAXX 20064 67666 31570 11118 10164 20106 48570 70500 81100
                   333 10/// 20131 58035 81820 91025=
201308200000 AAXX 20004 67666 NIL=
201308192100 AAXX 19214 67666 NIL=
201308191800 AAXX 19184 67666 NIL=
201308191500 AAXX 19154 67666 NIL=
201308191200 AAXX 19124 67666 41978 00912 10292 20034 48530 70500
                   333 58011 91019=
201308190900 AAXX 19094 67666 NIL=
201308190600 AAXX 19061 67666 31970 01502 10212 20058 48541 70500
                   333 10//0 20139 59006
                   555 00/// 91021=
201308181800 AAXX 18184 67666 NIL=
201308181200 AAXX 18120 67666 NIL=
201308180600 AAXX 18060 67666 NIL=
201308171800 AAXX 17184 67666 NIL=
201308171200 AAXX 17124 67666 NIL=
201308170600 AAXX 17060 67666 NIL=
201308161200 AAXX 16124 67666 41979 01706 10295 20050 48518 70500
                   333 58004 91017=
201308160900 AAXX 16094 67666 41975 00910 10267 20020 48539 70500
                   333 58006 91020=
201308160600 AAXX 16064 67666 31970 00909 10215 20040 48528 70500
                   333 10/// 20145 58000 91019=
201308151200 AAXX 15124 67666 NIL=
201308150900 AAXX 15094 67666 NIL=
201308150600 AAXX 15061 67666 31975 00903 10205 20039 48528 70500
                   333 10//0 20135 59001 91019=
201308141500 AAXX 14154 67666 NIL=
201308141200 AAXX 14124 67666 NIL=
201308140900 AAXX 14094 67666 NIL=
201308140600 AAXX 14064 67666 31979 00000 10200 20045 48528 70500
                   333 1//// 20120 59008 91019=
201308131800 AAXX 13184 67666 NIL=
201308131500 AAXX 13154 67666 NIL=
201308131200 AAXX 13124 67666 NIL=
201308130600 AAXX 13064 67666 31945 60000 10176 20070 48532 70500 80004
                   333 10/// 20115 59015 86080 91020=
201308121800 AAXX 12184 67666 NIL=
201308121200 AAXX 12124 67666 NIL=
201308120900 AAXX 12094 67666 42980 00912 10236 20071 48551
                   333 59011 91027=
201308120600 AAXX 12064 67666 31970 10808 10175 20079 48547 80001
                   333 10/// 20/// 59006 81080 91022=
201308120300 AAXX 12034 67666 NIL=
201308112100 AAXX 11214 67666 NIL=
201308111800 AAXX 11184 67666 NIL=
201308111200 AAXX 11121 67666 NIL=
201308110900 AAXX 11094 67666 NIL=
201308110600 AAXX 11060 67666 NIL=
201308110300 AAXX 11034 67666 NIL=
201308110000 AAXX 11004 67666 NIL=
201308102100 AAXX 10214 67666 NIL=
201308101800 AAXX 10184 67666 NIL=
201308101500 AAXX 10154 67666 NIL=
201308101200 AAXX 10121 67666 NIL=
201308100900 AAXX 10094 67666 NIL=
201308100600 AAXX 10064 67666 NIL=
201308100300 AAXX 10034 67666 NIL=
201308100000 AAXX 10004 67666 NIL=
201308092100 AAXX 09214 67666 NIL=
201308091800 AAXX 09184 67666 NIL=
201308091500 AAXX 09154 67666 NIL=
201308091200 AAXX 09124 67666 NIL=
201308090900 AAXX 09094 67666 NIL=
201308090600 AAXX 09064 67666 31978 80908 10186 20110 48532 70500 81038
                   333 10/// 20165 58006 81360 88280 91020=
201308090300 AAXX 09034 67666 NIL=
201308081800 AAXX 08184 67666 NIL=
201308081500 AAXX 08154 67666 NIL=
201308081200 AAXX 08124 67666 NIL=
201308080900 AAXX 08094 67666 NIL=
201308080600 AAXX 08064 67666 32980 40905 10164 20103 48524 70222 84030
                   333 10/// 20130 59015 84360 91019=
201308080300 AAXX 08034 67666 NIL=
201308072100 AAXX 07214 67666 NIL=
201308071800 AAXX 07184 67666 NIL=
201308071500 AAXX 07154 67666 NIL=
201308071200 AAXX 07124 67666 NIL=
201308070900 AAXX 07094 67666 NIL=
201308070600 AAXX 07064 67666 32980 50905 10145 20100 48536 85030
                   333 10/// 20120 59015 85360 91021=
201308070300 AAXX 07034 67666 NIL=
201308070000 AAXX 07004 67666 NIL=
201308061800 AAXX 06184 67666 NIL=
201308061500 AAXX 06154 67666 NIL=
201308061200 AAXX 06124 67666 42780 50905 10215 20055 48530 85200
                   333 59008 85850 91020=
201308060900 AAXX 06094 67666 NIL=
201308060600 AAXX 06064 67666 32980 00912 10145 20069 48552
                   333 10/// 20105 59013
                   555 00/// 91023=
201308041500 AAXX 04154 67666 NIL=
201308041200 AAXX 04124 67666 NIL=
201308040600 AAXX 04060 67666 NIL=
201308040300 AAXX 04034 67666 NIL=
201308032100 AAXX 03214 67666 NIL=
201308031800 AAXX 03184 67666 NIL=
201308031500 AAXX 03154 67666 NIL=
201308031200 AAXX 03124 67666 NIL=
201308030900 AAXX 03094 67666 NIL=
201308030600 AAXX 03064 67666 NIL=
201308030300 AAXX 03034 67666 NIL=
201308021800 AAXX 02184 67666 NIL=
201308021200 AAXX 02124 67666 NIL=
201308020900 AAXX 02094 67666 42580 41212 10188 20077 48598 84100
                   333 59010 84820 91028=
201308020600 AAXX 02064 67666 32480 71217 10136 20092 48582 875//
                   333 10/// 20115 59005 87615
                   555 00/// QNH 1028.1 HPA=
201308020300 AAXX 02034 67666 NIL=
201308012100 AAXX 01214 67666 NIL=
201308011800 AAXX 01184 67666 NIL=
201308011500 AAXX 01154 67666 NIL=
201308011200 AAXX 01120 67666 NIL=
201308010900 AAXX 01094 67666 42580 11016 10165 20070 48606 81500
                   333 58004 81628=
201308010600 AAXX 01064 67666 32580 11116 10121 20076 48595 81500
                   333 10/// 20098 58001 81820
                   555 00/// 91028=

################################################################################
#  SYNOPS from 67667, Mount Makulu (Zambia) | 15-33S | 028-15E | 1213 m
################################################################################
201308310600 AAXX 31060 67667 NIL=
201308310300 AAXX 31034 67667 NIL=
201308301500 AAXX 30154 67667 NIL=
201308301200 AAXX 30124 67667 NIL=
201308300600 AAXX 30064 67667 NIL=
201308290900 AAXX 29094 67667 NIL=
201308290600 AAXX 29060 67667 NIL=
201308290300 AAXX 29034 67667 NIL=
201308290000 AAXX 29004 67667 NIL=
201308282100 AAXX 28214 67667 NIL=
201308281800 AAXX 28184 67667 NIL=
201308281200 AAXX 28124 67667 NIL=
201308280900 AAXX 28090 67667 NIL=
201308280600 AAXX 28064 67667 NIL=
201308271800 AAXX 27184 67667 NIL=
201308271500 AAXX 27154 67667 NIL=
201308271200 AAXX 27124 67667 NIL=
201308270900 AAXX 27094 67667 NIL=
201308270600 AAXX 27064 67667 NIL=
201308230600 AAXX 23060 67667 NIL=
201308221500 AAXX 22154 67667 NIL=
201308221200 AAXX 22120 67667 NIL=
201308220900 AAXX 22094 67667 NIL=
201308211800 AAXX 21184 67667 NIL=
201308211500 AAXX 21154 67667 NIL=
201308211200 AAXX 21124 67667 NIL=
201308210900 AAXX 21094 67667 NIL=
201308210600 AAXX 21064 67667 NIL=
201308202100 AAXX 20214 67667 NIL=
201308201800 AAXX 20184 67667 NIL=
201308201200 AAXX 20124 67667 NIL=
201308200600 AAXX 20060 67667 NIL=
201308200000 AAXX 20004 67667 NIL=
201308192100 AAXX 19214 67667 NIL=
201308191800 AAXX 19184 67667 NIL=
201308191500 AAXX 19154 67667 NIL=
201308191200 AAXX 19124 67667 NIL=
201308190900 AAXX 19094 67667 NIL=
201308190600 AAXX 19064 67667 NIL=
201308181800 AAXX 18184 67667 NIL=
201308181200 AAXX 18120 67667 NIL=
201308180600 AAXX 18060 67667 NIL=
201308171800 AAXX 17184 67667 NIL=
201308171200 AAXX 17124 67667 NIL=
201308170600 AAXX 17060 67667 NIL=
201308161200 AAXX 16124 67667 NIL=
201308160900 AAXX 16090 67667 NIL=
201308160600 AAXX 16060 67667 NIL=
201308151200 AAXX 15124 67667 NIL=
201308150900 AAXX 15094 67667 NIL=
201308150600 AAXX 15064 67667 NIL=
201308141500 AAXX 14154 67667 NIL=
201308141200 AAXX 14124 67667 NIL=
201308140900 AAXX 14094 67667 NIL=
201308140600 AAXX 14064 67667 31975 00904 10234 20039 48/// 70500
                   333 10295 20082 59008=
201308131800 AAXX 13184 67667 NIL=
201308131500 AAXX 13154 67667 NIL=
201308131200 AAXX 13124 67667 NIL=
201308130600 AAXX 13060 67667 NIL=
201308121800 AAXX 12184 67667 NIL=
201308121200 AAXX 12124 67667 NIL=
201308120900 AAXX 12094 67667 NIL=
201308120600 AAXX 12064 67667 NIL=
201308120300 AAXX 12034 67667 NIL=
201308112100 AAXX 11214 67667 NIL=
201308111800 AAXX 11184 67667 NIL=
201308111200 AAXX 11121 67667 NIL=
201308110900 AAXX 11094 67667 NIL=
201308110600 AAXX 11060 67667 NIL=
201308110300 AAXX 11034 67667 NIL=
201308110000 AAXX 11004 67667 NIL=
201308102100 AAXX 10214 67667 NIL=
201308101800 AAXX 10184 67667 NIL=
201308101500 AAXX 10154 67667 NIL=
201308101200 AAXX 10121 67667 NIL=
201308100900 AAXX 10094 67667 NIL=
201308100600 AAXX 10064 67667 NIL=
201308100300 AAXX 10034 67667 NIL=
201308100000 AAXX 10004 67667 NIL=
201308092100 AAXX 09214 67667 NIL=
201308091800 AAXX 09184 67667 NIL=
201308091500 AAXX 09154 67667 NIL=
201308091200 AAXX 09124 67667 NIL=
201308090900 AAXX 09094 67667 NIL=
201308090600 AAXX 09064 67667 31980 60908 10202 20098 48/// 70522 80002
                   333 10276 20154 58008 86083=
201308090300 AAXX 09034 67667 NIL=
201308081800 AAXX 08184 67667 NIL=
201308081500 AAXX 08154 67667 NIL=
201308081200 AAXX 08124 67667 NIL=
201308080900 AAXX 08094 67667 NIL=
201308080600 AAXX 08064 67667 32980 00909 10188 20099 48///
                   333 10274 20149 5////=
201308080300 AAXX 08034 67667 NIL=
201308072100 AAXX 07214 67667 NIL=
201308071800 AAXX 07184 67667 NIL=
201308071500 AAXX 07154 67667 NIL=
201308071200 AAXX 07124 67667 NIL=
201308070900 AAXX 07094 67667 NIL=
201308070600 AAXX 07060 67667 NIL=
201308070300 AAXX 07034 67667 NIL=
201308070000 AAXX 07004 67667 NIL=
201308061800 AAXX 06184 67667 NIL=
201308061500 AAXX 06154 67667 NIL=
201308061200 AAXX 06124 67667 NIL=
201308060900 AAXX 06094 67667 NIL=
201308060600 AAXX 06064 67667 32980 03614 10155 20056 48/// 70200
                   333 10255 20075 5////=
201308041500 AAXX 04154 67667 NIL=
201308041200 AAXX 04124 67667 NIL=
201308040600 AAXX 04060 67667 NIL=
201308040300 AAXX 04034 67667 NIL=
201308032100 AAXX 03214 67667 NIL=
201308031800 AAXX 03184 67667 NIL=
201308031500 AAXX 03154 67667 NIL=
201308031200 AAXX 03124 67667 NIL=
201308030900 AAXX 03094 67667 NIL=
201308030600 AAXX 03064 67667 NIL=
201308030300 AAXX 03034 67667 NIL=
201308021800 AAXX 02184 67667 NIL=
201308021200 AAXX 02124 67667 NIL=
201308020900 AAXX 02094 67667 NIL=
201308020600 AAXX 02064 67667 NIL=
201308020300 AAXX 02034 67667 NIL=
201308012100 AAXX 01214 67667 NIL=
201308011800 AAXX 01184 67667 NIL=
201308011500 AAXX 01154 67667 NIL=
201308011200 AAXX 01120 67667 NIL=
201308010900 AAXX 01094 67667 NIL=
201308010600 AAXX 01064 67667 NIL=

################################################################################
#  SYNOPS from 67673, Petauke (Zambia) | 14-15S | 031-17E | 1035 m
################################################################################
201308310600 AAXX 31060 67673 NIL=
201308310300 AAXX 31034 67673 NIL=
201308301500 AAXX 30154 67673 NIL=
201308301200 AAXX 30124 67673 NIL=
201308300900 AAXX 30094 67673 41975 00504 10265 20080 48/// 70500
                   333 59028=
201308300600 AAXX 30064 67673 31975 00501 10220 20098 48575 70500
                   333 10300 20160 59007
                   555 00///=
201308290900 AAXX 29094 67673 NIL=
201308290600 AAXX 29064 67673 31975 00502 10235 20085 48575 70500
                   333 10294 20160 59021
                   555 00///=
201308290300 AAXX 29034 67673 NIL=
201308290000 AAXX 29004 67673 NIL=
201308282100 AAXX 28214 67673 NIL=
201308281800 AAXX 28184 67673 NIL=
201308281200 AAXX 28124 67673 41975 00901 10285 20030 48568 70500
                   333 59008=
201308280900 AAXX 28094 67673 41975 00902 10258 20050 48592 70500
                   333 59024=
201308280600 AAXX 28064 67673 31975 00804 10229 20064 48593 70500
                   333 10280 20130 59016
                   555 00///=
201308271800 AAXX 27184 67673 NIL=
201308271500 AAXX 27154 67673 NIL=
201308271200 AAXX 27124 67673 41675 22702 10265 20080 45601 70500 82100
                   333 58016 82835=
201308270900 AAXX 27094 67673 41975 01002 10234 20087 48609 70500
                   333 58005=
201308270600 AAXX 27064 67673 31975 01204 10188 20078 48601 70500
                   333 10275 20125 58003
                   555 00///=
201308230600 AAXX 23064 67673 31975 00504 10240 20080 48583 70500
                   333 10300 20150 58008=
201308221500 AAXX 22154 67673 NIL=
201308221200 AAXX 22120 67673 NIL=
201308220900 AAXX 22094 67673 41980 40205 10260 20075 48581 70500 84100
                   333 59008 84835=
201308211800 AAXX 21184 67673 NIL=
201308211500 AAXX 21154 67673 NIL=
201308211200 AAXX 21124 67673 41975 10904 10275 20055 48558 70500 80001
                   333 59035 81080=
201308210900 AAXX 21094 67673 41675 20904 10254 20066 48586 70500 82101
                   333 59022 82830 81080=
201308210600 AAXX 21064 67673 NIL=
201308202100 AAXX 20214 67673 NIL=
201308201800 AAXX 20184 67673 NIL=
201308201200 AAXX 20124 67673 41675 40904 10240 20094 48584 84100
                   333 58046 84835=
201308200600 AAXX 20064 67673 31975 00908 10186 20074 48590 70500
                   333 10320 20160 58034
                   555 00///=
201308200000 AAXX 20004 67673 NIL=
201308192100 AAXX 19214 67673 NIL=
201308191800 AAXX 19184 67673 NIL=
201308191500 AAXX 19154 67673 NIL=
201308191200 AAXX 19124 67673 41975 00904 10310 20009 48552 70500
                   333 5////=
201308190900 AAXX 19094 67673 NIL=
201308190600 AAXX 19064 67673 31975 00502 10250 20050 48569 70500
                   333 10320 20180 58003=
201308181800 AAXX 18184 67673 NIL=
201308181200 AAXX 18120 67673 NIL=
201308180600 AAXX 18060 67673 NIL=
201308171800 AAXX 17184 67673 NIL=
201308171200 AAXX 17124 67673 NIL=
201308170600 AAXX 17060 67673 NIL=
201308161200 AAXX 16124 67673 NIL=
201308160900 AAXX 16090 67673 NIL=
201308160600 AAXX 16064 67673 31975 00501 10251 20045 48561 70500
                   333 10355 20175 58002=
201308151200 AAXX 15124 67673 41975 00903 10314 20012 48532 70500
                   333 58002=
201308150900 AAXX 15094 67673 41975 00902 10300 20500 48558 70500
                   333 59003=
201308150600 AAXX 15064 67673 31975 00202 10245 20158 48559 70500
                   333 10320 20174 58003
                   555 00///=
201308141500 AAXX 14154 67673 NIL=
201308141200 AAXX 14124 67673 41975 00901 10312 20010 48531 70500
                   333 59017=
201308140900 AAXX 14094 67673 41975 00901 10290 20042 48560 70500
                   333 59005=
201308140600 AAXX 14064 67673 31975 00501 10240 20054 48554 70500
                   333 10294 20170 59009
                   555 00///=
201308131800 AAXX 13184 67673 NIL=
201308131500 AAXX 13154 67673 NIL=
201308131200 AAXX 13124 67673 NIL=
201308130600 AAXX 13060 67673 NIL=
201308121800 AAXX 12184 67673 NIL=
201308121200 AAXX 12124 67673 41975 00901 10284 20014 48557 70500
                   333 5////=
201308120900 AAXX 12094 67673 NIL=
201308120600 AAXX 12064 67673 NIL=
201308120300 AAXX 12034 67673 NIL=
201308112100 AAXX 11214 67673 NIL=
201308111800 AAXX 11184 67673 NIL=
201308111200 AAXX 11121 67673 NIL=
201308110900 AAXX 11094 67673 NIL=
201308110600 AAXX 11060 67673 NIL=
201308110300 AAXX 11034 67673 NIL=
201308110000 AAXX 11004 67673 NIL=
201308102100 AAXX 10214 67673 NIL=
201308101800 AAXX 10184 67673 NIL=
201308101500 AAXX 10154 67673 NIL=
201308101200 AAXX 10121 67673 NIL=
201308100900 AAXX 10094 67673 NIL=
201308100600 AAXX 10064 67673 NIL=
201308100300 AAXX 10034 67673 NIL=
201308100000 AAXX 10004 67673 NIL=
201308092100 AAXX 09214 67673 NIL=
201308091800 AAXX 09184 67673 NIL=
201308091500 AAXX 09154 67673 NIL=
201308091200 AAXX 09124 67673 NIL=
201308090900 AAXX 09094 67673 41975 00902 10254 20114 48562 70500
                   333 59002=
201308090600 AAXX 09064 67673 31975 30902 10200 20104 48564 70500 83030
                   333 10300 20150 58005 83360
                   555 00///=
201308090300 AAXX 09034 67673 NIL=
201308081800 AAXX 08184 67673 NIL=
201308081500 AAXX 08154 67673 NIL=
201308081200 AAXX 08124 67673 41675 42701 10289 20072 48541 70500 84100
                   333 59001 84835=
201308080900 AAXX 08094 67673 41975 20506 10250 20094 48564 70500 82030
                   333 59007 82360=
201308080600 AAXX 08064 67673 31975 60502 10198 20098 48559 70522 86030
                   333 10285 20140 59016 86360
                   555 00///=
201308080300 AAXX 08034 67673 NIL=
201308072100 AAXX 07214 67673 NIL=
201308071800 AAXX 07184 67673 NIL=
201308071500 AAXX 07154 67673 NIL=
201308071200 AAXX 07124 67673 NIL=
201308070900 AAXX 07094 67673 41675 30504 10245 20109 48571 70500 83100
                   333 59012 83830=
201308070600 AAXX 07064 67673 31975 61501 10178 20123 48571 70522 86030
                   333 10260 20150 59002 86360
                   555 00///=
201308070300 AAXX 07034 67673 NIL=
201308070000 AAXX 07004 67673 NIL=
201308061800 AAXX 06184 67673 NIL=
201308061500 AAXX 06154 67673 NIL=
201308061200 AAXX 06124 67673 NIL=
201308060900 AAXX 06094 67673 NIL=
201308060600 AAXX 06064 67673 31975 60903 10175 20056 48573 70522 86030
                   333 10260 20130 59008 86360=
201308041500 AAXX 04154 67673 NIL=
201308041200 AAXX 04124 67673 NIL=
201308040600 AAXX 04060 67673 NIL=
201308040300 AAXX 04034 67673 NIL=
201308032100 AAXX 03214 67673 NIL=
201308031800 AAXX 03184 67673 NIL=
201308031500 AAXX 03154 67673 NIL=
201308031200 AAXX 03124 67673 NIL=
201308030900 AAXX 03094 67673 NIL=
201308030600 AAXX 03064 67673 NIL=
201308030300 AAXX 03034 67673 NIL=
201308021800 AAXX 02184 67673 NIL=
201308021200 AAXX 02124 67673 NIL=
201308020900 AAXX 02094 67673 NIL=
201308020600 AAXX 02064 67673 NIL=
201308020300 AAXX 02034 67673 NIL=
201308012100 AAXX 01214 67673 NIL=
201308011800 AAXX 01184 67673 NIL=
201308011500 AAXX 01154 67673 NIL=
201308011200 AAXX 01120 67673 NIL=
201308010900 AAXX 01094 67673 NIL=
201308010600 AAXX 01064 67673 NIL=

################################################################################
#  SYNOPS from 67731, Senanga (Zambia) | 16-06S | 023-16E | 1027 m
################################################################################
201308310600 AAXX 31060 67731 NIL=
201308310300 AAXX 31034 67731 NIL=
201308301500 AAXX 30154 67731 NIL=
201308301200 AAXX 30124 67731 NIL=
201308300600 AAXX 30060 67731 NIL=
201308290900 AAXX 29094 67731 NIL=
201308290600 AAXX 29060 67731 NIL=
201308290300 AAXX 29034 67731 NIL=
201308290000 AAXX 29004 67731 NIL=
201308282100 AAXX 28214 67731 NIL=
201308281800 AAXX 28184 67731 NIL=
201308281200 AAXX 28124 67731 NIL=
201308280900 AAXX 28090 67731 NIL=
201308280600 AAXX 28060 67731 NIL=
201308271800 AAXX 27184 67731 NIL=
201308271500 AAXX 27154 67731 NIL=
201308271200 AAXX 27124 67731 NIL=
201308270900 AAXX 27094 67731 NIL=
201308270600 AAXX 27064 67731 32980 009// 10179 20079 48///
                   333 10316 20050 5////=
201308230600 AAXX 23064 67731 32980 009// 10200 20071 48///
                   333 10326 20139 5////=
201308221500 AAXX 22154 67731 NIL=
201308221200 AAXX 22120 67731 NIL=
201308220900 AAXX 22094 67731 NIL=
201308220600 AAXX 22064 67731 32980 012// 10184 20071 48///
                   333 10340 20145 5////
                   555 00///=
201308211800 AAXX 21184 67731 NIL=
201308211500 AAXX 21154 67731 NIL=
201308211200 AAXX 21124 67731 NIL=
201308210900 AAXX 21094 67731 NIL=
201308210600 AAXX 21064 67731 32980 212// 10164 20091 48/// 82030
                   333 10336 20141 5//// 82360=
201308202100 AAXX 20214 67731 NIL=
201308201800 AAXX 20184 67731 NIL=
201308201200 AAXX 20124 67731 NIL=
201308200600 AAXX 20064 67731 32980 013// 10189 20056 48/// 70500
                   333 10326 20144 5////=
201308200000 AAXX 20004 67731 NIL=
201308192100 AAXX 19214 67731 NIL=
201308191800 AAXX 19184 67731 NIL=
201308191500 AAXX 19154 67731 NIL=
201308191200 AAXX 19124 67731 NIL=
201308190900 AAXX 19094 67731 NIL=
201308190600 AAXX 19064 67731 NIL=
201308181800 AAXX 18184 67731 NIL=
201308181200 AAXX 18120 67731 NIL=
201308180600 AAXX 18060 67731 NIL=
201308171800 AAXX 17184 67731 NIL=
201308171200 AAXX 17124 67731 NIL=
201308170600 AAXX 17060 67731 NIL=
201308161200 AAXX 16124 67731 NIL=
201308160900 AAXX 16090 67731 NIL=
201308160600 AAXX 16064 67731 32980 031// 10160 20089 48///
                   333 10352 20136 5////=
201308151200 AAXX 15124 67731 NIL=
201308150900 AAXX 15094 67731 NIL=
201308150600 AAXX 15064 67731 32980 010// 10186 20099 48///
                   333 10326 20130 5////=
201308141500 AAXX 14154 67731 NIL=
201308141200 AAXX 14124 67731 NIL=
201308140900 AAXX 14094 67731 NIL=
201308140600 AAXX 14064 67731 32980 018// 10221 20136 48///
                   333 10341 20127 5////=
201308131800 AAXX 13184 67731 NIL=
201308131500 AAXX 13154 67731 NIL=
201308131200 AAXX 13124 67731 NIL=
201308130600 AAXX 13064 67731 31978 027// 10180 20122 48/// 70500
                   333 10336 20126 5////=
201308121800 AAXX 12184 67731 NIL=
201308121200 AAXX 12124 67731 NIL=
201308120900 AAXX 12094 67731 NIL=
201308120600 AAXX 12064 67731 32980 018// 10167 20089 48///
                   333 10341 20117 5////=
201308120300 AAXX 12034 67731 NIL=
201308112100 AAXX 11214 67731 NIL=
201308111800 AAXX 11184 67731 NIL=
201308111200 AAXX 11121 67731 NIL=
201308110900 AAXX 11094 67731 NIL=
201308110600 AAXX 11060 67731 NIL=
201308110300 AAXX 11034 67731 NIL=
201308110000 AAXX 11004 67731 NIL=
201308102100 AAXX 10214 67731 NIL=
201308101800 AAXX 10184 67731 NIL=
201308101500 AAXX 10154 67731 NIL=
201308101200 AAXX 10121 67731 NIL=
201308100900 AAXX 10094 67731 NIL=
201308100600 AAXX 10064 67731 NIL=
201308100300 AAXX 10034 67731 NIL=
201308100000 AAXX 10004 67731 NIL=
201308092100 AAXX 09214 67731 NIL=
201308091800 AAXX 09184 67731 NIL=
201308091500 AAXX 09154 67731 NIL=
201308091200 AAXX 09124 67731 NIL=
201308090900 AAXX 09094 67731 NIL=
201308090600 AAXX 09064 67731 31975 009// 10182 20066 48///
                   333 10315 20114 5////=
201308090300 AAXX 09034 67731 NIL=
201308081800 AAXX 08184 67731 NIL=
201308081500 AAXX 08154 67731 NIL=
201308081200 AAXX 08124 67731 NIL=
201308080900 AAXX 08094 67731 NIL=
201308080600 AAXX 08064 67731 31970 019// 10146 20091 48/// 70500
                   333 10296 20091 5////=
201308080300 AAXX 08034 67731 NIL=
201308072100 AAXX 07214 67731 NIL=
201308071800 AAXX 07184 67731 NIL=
201308071500 AAXX 07154 67731 NIL=
201308071200 AAXX 07124 67731 NIL=
201308070900 AAXX 07094 67731 NIL=
201308070600 AAXX 07064 67731 32980 009// 10151 20059 48///
                   333 10276 20077 5////=
201308070300 AAXX 07034 67731 NIL=
201308070000 AAXX 07004 67731 NIL=
201308061800 AAXX 06184 67731 NIL=
201308061500 AAXX 06154 67731 NIL=
201308061200 AAXX 06124 67731 NIL=
201308060900 AAXX 06094 67731 NIL=
201308060600 AAXX 06064 67731 32980 009// 10151 20083 48///
                   333 10258 20114 5////=
201308041500 AAXX 04154 67731 NIL=
201308041200 AAXX 04124 67731 NIL=
201308040600 AAXX 04060 67731 NIL=
201308040300 AAXX 04034 67731 NIL=
201308032100 AAXX 03214 67731 NIL=
201308031800 AAXX 03184 67731 NIL=
201308031500 AAXX 03154 67731 NIL=
201308031200 AAXX 03124 67731 NIL=
201308030900 AAXX 03094 67731 NIL=
201308030600 AAXX 03064 67731 NIL=
201308030300 AAXX 03034 67731 NIL=
201308021800 AAXX 02184 67731 NIL=
201308021200 AAXX 02124 67731 NIL=
201308020900 AAXX 02094 67731 NIL=
201308020600 AAXX 02064 67731 32980 412// 10138 20067 48/// 84030
                   333 10266 20090 5//// 84360
                   555 00///=
201308020300 AAXX 02034 67731 NIL=
201308012100 AAXX 01214 67731 NIL=
201308011800 AAXX 01184 67731 NIL=
201308011500 AAXX 01154 67731 NIL=
201308011200 AAXX 01120 67731 NIL=
201308010900 AAXX 01094 67731 42980 033// 10234 20077 48///
                   333 5////=
201308010600 AAXX 01064 67731 NIL=

################################################################################
#  SYNOPS from 67741, Sesheke (Zambia) | 17-28S | 024-18E | 949 m
################################################################################
201308310600 AAXX 31060 67741 NIL=
201308310300 AAXX 31034 67741 NIL=
201308301500 AAXX 30154 67741 NIL=
201308301200 AAXX 30124 67741 NIL=
201308300600 AAXX 30060 67741 NIL=
201308290900 AAXX 29094 67741 NIL=
201308290600 AAXX 29060 67741 NIL=
201308290300 AAXX 29034 67741 NIL=
201308290000 AAXX 29004 67741 NIL=
201308282100 AAXX 28214 67741 NIL=
201308281800 AAXX 28184 67741 NIL=
201308281200 AAXX 28124 67741 NIL=
201308280900 AAXX 28090 67741 NIL=
201308280600 AAXX 28060 67741 NIL=
201308271800 AAXX 27184 67741 NIL=
201308271500 AAXX 27154 67741 NIL=
201308271200 AAXX 27124 67741 NIL=
201308270900 AAXX 27094 67741 NIL=
201308270600 AAXX 27064 67741 31970 00000 10146 20090 48551 70500
                   333 10308 20070 59002
                   555 00///=
201308230600 AAXX 23064 67741 32975 00901 10156 20090 48535
                   333 10310 20072 5////
                   555 00///=
201308221500 AAXX 22154 67741 NIL=
201308221200 AAXX 22120 67741 NIL=
201308220900 AAXX 22094 67741 42975 00403 10292 20087 48/// 5////=
201308220600 AAXX 22064 67741 42975 00000 10146 20095 48///
                   333 10309 20072 5////
                   555 00///=
201308211800 AAXX 21184 67741 NIL=
201308211500 AAXX 21154 67741 NIL=
201308211200 AAXX 21124 67741 NIL=
201308210900 AAXX 21094 67741 NIL=
201308210600 AAXX 21064 67741 NIL=
201308202100 AAXX 20214 67741 NIL=
201308201800 AAXX 20184 67741 NIL=
201308201200 AAXX 20124 67741 NIL=
201308200600 AAXX 20060 67741 NIL=
201308200000 AAXX 20004 67741 NIL=
201308192100 AAXX 19214 67741 NIL=
201308191800 AAXX 19184 67741 NIL=
201308191500 AAXX 19154 67741 NIL=
201308191200 AAXX 19124 67741 NIL=
201308190900 AAXX 19094 67741 NIL=
201308190600 AAXX 19064 67741 NIL=
201308181800 AAXX 18184 67741 NIL=
201308181200 AAXX 18120 67741 NIL=
201308180600 AAXX 18060 67741 NIL=
201308171800 AAXX 17184 67741 NIL=
201308171200 AAXX 17124 67741 NIL=
201308170600 AAXX 17060 67741 NIL=
201308161200 AAXX 16124 67741 NIL=
201308160900 AAXX 16090 67741 NIL=
201308160600 AAXX 16060 67741 NIL=
201308151200 AAXX 15124 67741 NIL=
201308150900 AAXX 15094 67741 NIL=
201308150600 AAXX 15064 67741 NIL=
201308141500 AAXX 14154 67741 NIL=
201308141200 AAXX 14124 67741 NIL=
201308140900 AAXX 14094 67741 NIL=
201308140600 AAXX 14060 67741 NIL=
201308131800 AAXX 13184 67741 NIL=
201308131500 AAXX 13154 67741 NIL=
201308131200 AAXX 13124 67741 NIL=
201308130600 AAXX 13060 67741 NIL=
201308121800 AAXX 12184 67741 NIL=
201308121200 AAXX 12124 67741 NIL=
201308120900 AAXX 12094 67741 NIL=
201308120600 AAXX 12064 67741 NIL=
201308120300 AAXX 12034 67741 NIL=
201308112100 AAXX 11214 67741 NIL=
201308111800 AAXX 11184 67741 NIL=
201308111200 AAXX 11121 67741 NIL=
201308110900 AAXX 11094 67741 NIL=
201308110600 AAXX 11060 67741 NIL=
201308110300 AAXX 11034 67741 NIL=
201308110000 AAXX 11004 67741 NIL=
201308102100 AAXX 10214 67741 NIL=
201308101800 AAXX 10184 67741 NIL=
201308101500 AAXX 10154 67741 NIL=
201308101200 AAXX 10121 67741 NIL=
201308100900 AAXX 10094 67741 NIL=
201308100600 AAXX 10064 67741 NIL=
201308100300 AAXX 10034 67741 NIL=
201308100000 AAXX 10004 67741 NIL=
201308092100 AAXX 09214 67741 NIL=
201308091800 AAXX 09184 67741 NIL=
201308091500 AAXX 09154 67741 NIL=
201308091200 AAXX 09124 67741 NIL=
201308090900 AAXX 09094 67741 NIL=
201308090600 AAXX 09060 67741 NIL=
201308090300 AAXX 09034 67741 NIL=
201308081800 AAXX 08184 67741 NIL=
201308081500 AAXX 08154 67741 NIL=
201308081200 AAXX 08124 67741 NIL=
201308080900 AAXX 08094 67741 NIL=
201308080600 AAXX 08060 67741 NIL=
201308080300 AAXX 08034 67741 NIL=
201308072100 AAXX 07214 67741 NIL=
201308071800 AAXX 07184 67741 NIL=
201308071500 AAXX 07154 67741 NIL=
201308071200 AAXX 07124 67741 NIL=
201308070900 AAXX 07094 67741 NIL=
201308070600 AAXX 07064 67741 NIL=
201308070300 AAXX 07034 67741 NIL=
201308070000 AAXX 07004 67741 NIL=
201308061800 AAXX 06184 67741 NIL=
201308061500 AAXX 06154 67741 NIL=
201308061200 AAXX 06124 67741 NIL=
201308060900 AAXX 06094 67741 NIL=
201308041500 AAXX 04154 67741 NIL=
201308041200 AAXX 04124 67741 NIL=
201308040600 AAXX 04060 67741 NIL=
201308040300 AAXX 04034 67741 NIL=
201308032100 AAXX 03214 67741 NIL=
201308031800 AAXX 03184 67741 NIL=
201308031500 AAXX 03154 67741 NIL=
201308031200 AAXX 03124 67741 NIL=
201308030900 AAXX 03094 67741 NIL=
201308030600 AAXX 03064 67741 NIL=
201308030300 AAXX 03034 67741 NIL=
201308021800 AAXX 02184 67741 NIL=
201308021200 AAXX 02124 67741 NIL=
201308020900 AAXX 02094 67741 NIL=
201308020600 AAXX 02064 67741 NIL=
201308020300 AAXX 02034 67741 NIL=
201308012100 AAXX 01214 67741 NIL=
201308011800 AAXX 01184 67741 NIL=
201308011500 AAXX 01154 67741 NIL=
201308011200 AAXX 01120 67741 NIL=
201308010900 AAXX 01094 67741 NIL=
201308010600 AAXX 01064 67741 NIL=

################################################################################
#  SYNOPS from 67743, Livingstone (Zambia) | 17-49S | 025-49E | 985 m
################################################################################
201308310600 AAXX 31064 67743 42980 02004 10182 20049 48504
                   333 10348 20144 58009
                   555 00/// 91017=
201308310300 AAXX 31034 67743 NIL=
201308301500 AAXX 30154 67743 NIL=
201308301200 AAXX 30124 67743 NIL=
201308300600 AAXX 30064 67743 32970 01802 10190 20068 48499 70500
                   333 10328 20145 59038
                   555 00/// 91016=
201308290900 AAXX 29094 67743 42980 00607 10275 20080 48541
                   333 59033=
201308290600 AAXX 29064 67743 32980 01002 10160 20059 48527
                   333 10315 20122 59025
                   555 91020=
201308290300 AAXX 29034 67743 NIL=
201308290000 AAXX 29004 67743 NIL=
201308282100 AAXX 28214 67743 NIL=
201308281800 AAXX 28184 67743 NIL=
201308281200 AAXX 28124 67743 NIL=
201308281019 AAXX 28104 67743 41970 00808 10308 20056 48547 70500 91019=
201308280900 AAXX 28094 67743 42980 01006 10267 20068 48575 70200
                   333 59019 91023=
201308280600 AAXX 28064 67743 32980 01108 10178 20083 48235 70200
                   333 10293 20113 59018 91023=
201308271800 AAXX 27184 67743 NIL=
201308271500 AAXX 27154 67743 42980 01280 10/// 20088 48551
                   333 59008 555 10290 91020=
201308271200 AAXX 27124 67743 NIL=
201308270900 AAXX 27094 67743 NIL=
201308270600 AAXX 27064 67743 42980 00906 10179 20065 48571
                   333 10294 20114 59009
                   555 00/// 91025=
201308230600 AAXX 23064 67743 32980 01602 10/// 20075 48540
                   333 10315 20098 58005
                   555 91021=
201308221500 AAXX 22154 67743 NIL=
201308221200 AAXX 22120 67743 NIL=
201308220900 AAXX 22094 67743 42975 01703 10266 20093 48563 70500
                   333 59015 91021=
201308220600 AAXX 22064 67743 32980 01202 10160 20075 48538 70500
                   333 10302 20120 59016
                   555 91021=
201308211800 AAXX 21184 67743 NIL=
201308211500 AAXX 21154 67743 41975 01006 10286 20060 48533 70500
                   333 59028 555 10302 91018=
201308211200 AAXX 21124 67743 41975 00807 10280 20087 48546
                   333 58003 91020=
201308210900 AAXX 21094 67743 NIL=
201308210600 AAXX 21064 67743 32980 00907 10154 20084 48549
                   333 10316 20107 59012
                   555 00/// 91023=
201308202100 AAXX 20214 67743 NIL=
201308201800 AAXX 20184 67743 NIL=
201308201500 AAXX 20154 67743 41970 01110 10285 20085 48560 70500
                   333 58023 91021=
201308201200 AAXX 20124 67743 41970 00909 10295 20085 48581 70500
                   333 58026 555 91022=
201308200900 AAXX 20094 67743 41970 01111 10245 20111 48588 70500
                   333 58025 555 91025=
201308200600 AAXX 20064 67743 31970 01110 10175 20115 48568 70500
                   333 10330 20162 58025
                   555 00/// 91024=
201308200000 AAXX 20004 67743 NIL=
201308192100 AAXX 19214 67743 NIL=
201308191800 AAXX 19184 67743 NIL=
201308191500 AAXX 19154 67743 42980 01009 10316 21006 48543
                   333 58021 555 10330 91018=
201308191200 AAXX 19124 67743 41975 01109 10324 20006 48549 70500
                   333 58019 555 91019=
201308190900 AAXX 19094 67743 41975 01011 10277 20002 48572 70500
                   333 58018 91022=
201308190600 AAXX 19064 67743 41975 11704 10170 20020 4854/ 70500 81030
                   333 10330 20091 58010 81360
                   555 91021=
201308181800 AAXX 18184 67743 NIL=
201308181200 AAXX 18124 67743 41965 40903 10325 20046 48532 70500 82031
                   333 59008 83360 84080
                   555 91017=
201308180600 AAXX 18064 67743 31970 32802 10155 20070 48558 70500 80001
                   333 10329 20110 83080
                   555 00/// 91020=
201308171800 AAXX 17184 67743 NIL=
201308171500 AAXX 17154 67743 41970 21903 10316 20037 48524 70500 82001
                   333 59007 82080 555 10329 91016=
201308171200 AAXX 17124 67743 41959 21802 10305 20054 48537 70500 82001
                   333 58001 82080 555 91018=
201308170900 AAXX 17094 67743 41970 21804 1//// 20038 48593 70500 82001
                   333 58004 82080 91021=
201308170600 AAXX 17060 67743 NIL=
201308161200 AAXX 16124 67743 NIL=
201308160900 AAXX 16090 67743 NIL=
201308160600 AAXX 16060 67743 NIL=
201308151200 AAXX 15124 67743 NIL=
201308150900 AAXX 15094 67743 NIL=
201308150600 AAXX 15064 67743 NIL=
201308141500 AAXX 14154 67743 NIL=
201308141200 AAXX 14124 67743 41970 22601 10325 20030 48513 70500 82001
                   333 59013 82080 555 91015=
201308140900 AAXX 14094 67743 NIL=
201308140600 AAXX 14060 67743 NIL=
201308131800 AAXX 13184 67743 NIL=
201308131500 AAXX 13154 67743 NIL=
201308131200 AAXX 13124 67743 NIL=
201308130900 AAXX 13094 67743 41959 30000 10266 20082 48546 70520 83001
                   333 59001 83080 91020=
201308130600 AAXX 13064 67743 31959 60000 10147 20076 48524 70522 86001
                   333 10330 20117 59002 86080
                   555 91020=
201308121800 AAXX 12184 67743 NIL=
201308121200 AAXX 12124 67743 NIL=
201308120900 AAXX 12094 67743 41960 03606 10286 20060 48551 70500
                   333 59014 555 91020=
201308120600 AAXX 12064 67743 31959 00904 10162 20074 48528 70500
                   333 10324 20139 59010
                   555 00/// 91020=
201308120300 AAXX 12034 67743 NIL=
201308112100 AAXX 11214 67743 NIL=
201308111800 AAXX 11184 67743 NIL=
201308111200 AAXX 11124 67743 41970 10305 10319 20056 48542 70500 81100
                   333 58000 81858 555 91018=
201308110900 AAXX 11094 67743 NIL=
201308110600 AAXX 11060 67743 NIL=
201308110300 AAXX 11034 67743 NIL=
201308110000 AAXX 11004 67743 NIL=
201308102100 AAXX 10214 67743 NIL=
201308101800 AAXX 10184 67743 NIL=
201308101500 AAXX 10154 67743 41975 11306 10300 20085 48533 70500 81100
                   333 58003 81856 555 91017=
201308101200 AAXX 10124 67743 41970 00905 10305 20068 48541 70500
                   333 58018 555 91018=
201308100900 AAXX 10094 67743 42975 20909 10255 20065 48556 70500 82030
                   333 58022 82360 555 91021=
201308100600 AAXX 10064 67743 32980 33603 10150 20095 48532 83030
                   333 10333 20122 58020 83360
                   555 00/// 91020=
201308100300 AAXX 10034 67743 NIL=
201308100000 AAXX 10004 67743 NIL=
201308092100 AAXX 09214 67743 NIL=
201308091800 AAXX 09184 67743 NIL=
201308091500 AAXX 09154 67743 41959 72805 10311 20025 48521 70522 87030
                   333 58004 87360 555 10333=
201308091200 AAXX 09124 67743 41858 41704 10311 20033 48523 70500 84200
                   333 58004 84858=
201308090900 AAXX 09094 67743 41958 00208 10288 20114 48540 70500
                   333 59007 91018=
201308090600 AAXX 09064 67743 31975 10204 10212 20098 48523 70500 81030
                   333 10294 20136 59006 81360
                   555 00/// 91018=
201308090300 AAXX 09034 67743 NIL=
201308081800 AAXX 08184 67743 NIL=
201308081500 AAXX 08154 67743 41876 61303 10288 20076 48509 70500 83130=
201308081200 AAXX 08124 67743 41875 41805 10281 20072 48514 70500 84100=
201308080900 AAXX 08094 67743 41975 10704 10254 20085 48541 70500 81001
                   333 59014 81108 555 91019=
201308080600 AAXX 08064 67743 32980 30000 10/// 20074 48513 70200 83030
                   333 10288 20099 59016 83360
                   555 00/// 91019=
201308080300 AAXX 08034 67743 NIL=
201308072100 AAXX 07214 67743 NIL=
201308071800 AAXX 07184 67743 NIL=
201308071500 AAXX 07154 67743 42980 00904 10275 20011 48515
                   333 59021=
201308071200 AAXX 07124 67743 41975 1//// 10273 20037 48526 70400 81100
                   333 59026 81856 555 91017=
201308070900 AAXX 07094 67743 41975 02004 10240 20041 48553 70500
                   333 59025 555 91021=
201308070600 AAXX 07064 67743 32980 01902 10127 20062 48528
                   333 10270 20085 59011 91021=
201308070300 AAXX 07034 67743 NIL=
201308070000 AAXX 07004 67743 NIL=
201308061800 AAXX 06184 67743 NIL=
201308061500 AAXX 06154 67743 42980 11207 10255 20035 48532 81100
                   333 59017 81856 555 91018=
201308061200 AAXX 06124 67743 42880 32105 10250 20043 48547 83100
                   333 59011 82858 81080
                   555 91020=
201308060900 AAXX 06094 67743 42780 10906 10216 20059 48571 81100
                   333 59010 81857=
201308060600 AAXX 06064 67743 32980 01204 10120 20041 48550
                   333 10256 20085 59080
                   555 00/// 91023=
201308051500 AAXX 05154 67743 42880 30203 10245 20020 48546 83200
                   333 59018 83858 555 10256 91020=
201308051200 AAXX 05124 67743 42780 41703 10/// 20032 48552 84200
                   333 59012 84856 91021=
201308050900 AAXX 05094 67743 42980 11206 10223 20048 48580 81100
                   333 59008 81856 91025=
201308050600 AAXX 05064 67743 32980 11004 10150 20050 48561 81030
                   333 10259 20108 59013 81360
                   555 91024=
201308041500 AAXX 04154 67743 NIL=
201308041200 AAXX 04124 67743 NIL=
201308040900 AAXX 04094 67743 41775 20809 10210 20081 48589 70500 81130
                   333 59022 81850 82360 91026=
201308040600 AAXX 04060 67743 NIL=
201308040300 AAXX 04034 67743 NIL=
201308032100 AAXX 03214 67743 NIL=
201308031800 AAXX 03184 67743 NIL=
201308031500 AAXX 03154 67743 42980 60909 10234 20055 48576 85030
                   333 59012 75360 555 10254 91024=
201308031200 AAXX 03124 67743 42780 21009 10241 20074 48585 82100
                   333 59016 82886 555 91025=
201308030900 AAXX 03094 67743 42680 11010 10200 20094 48607 81100
                   333 59014 81840 555 91028=
201308030600 AAXX 03064 67743 42980 40904 10146 20086 48599 84030
                   333 10240 20104 59003 84360
                   555 00/// 91029=
201308030300 AAXX 03034 67743 NIL=
201308021800 AAXX 02184 67743 NIL=
201308021500 AAXX 02154 67743 42980 50910 10235 20088 48587 85030
                   333 59080 85360 555 91025=
201308021200 AAXX 02124 67743 NIL=
201308020900 AAXX 02094 67743 NIL=
201308020600 AAXX 02064 67743 NIL=
201308020300 AAXX 02034 67743 NIL=
201308012100 AAXX 01214 67743 NIL=
201308011800 AAXX 01184 67743 NIL=
201308011500 AAXX 01154 67743 NIL=
201308011200 AAXX 01124 67743 41775 31106 10229 20070 48600 70500 83100
                   333 59001 83857 555 91027=
201308010900 AAXX 01094 67743 41975 20810 10193 20063 48621 70500 82030
                   333 58004 82360 555 91030=
201308010600 AAXX 01064 67743 NIL=

################################################################################
#  SYNOPS from 67751, Magoye (Zambia) | 16-00S | 027-36E | 1018 m
################################################################################
201308310600 AAXX 31060 67751 NIL=
201308310300 AAXX 31034 67751 NIL=
201308301500 AAXX 30154 67751 NIL=
201308301200 AAXX 30124 67751 NIL=
201308300600 AAXX 30060 67751 NIL=
201308290900 AAXX 29094 67751 NIL=
201308290600 AAXX 29060 67751 NIL=
201308290300 AAXX 29034 67751 NIL=
201308290000 AAXX 29004 67751 NIL=
201308282100 AAXX 28214 67751 NIL=
201308281800 AAXX 28184 67751 NIL=
201308281200 AAXX 28124 67751 NIL=
201308280900 AAXX 28090 67751 NIL=
201308280600 AAXX 28060 67751 NIL=
201308271800 AAXX 27184 67751 NIL=
201308271500 AAXX 27154 67751 NIL=
201308271200 AAXX 27124 67751 NIL=
201308270900 AAXX 27094 67751 NIL=
201308270600 AAXX 27064 67751 NIL=
201308230600 AAXX 23064 67751 31975 01501 10205 20078 48/// 70500
                   333 10302 20104 59008=
201308221500 AAXX 22154 67751 NIL=
201308221200 AAXX 22120 67751 NIL=
201308220900 AAXX 22094 67751 NIL=
201308211800 AAXX 21184 67751 NIL=
201308211500 AAXX 21154 67751 NIL=
201308211200 AAXX 21124 67751 NIL=
201308210900 AAXX 21094 67751 NIL=
201308210600 AAXX 21064 67751 NIL=
201308202100 AAXX 20214 67751 NIL=
201308201800 AAXX 20184 67751 NIL=
201308201200 AAXX 20124 67751 NIL=
201308200600 AAXX 20064 67751 31975 01214 10194 20076 48/// 70500
                   333 10330 20144 5////=
201308200000 AAXX 20004 67751 NIL=
201308192100 AAXX 19214 67751 NIL=
201308191800 AAXX 19184 67751 NIL=
201308191500 AAXX 19154 67751 NIL=
201308191200 AAXX 19124 67751 NIL=
201308190900 AAXX 19094 67751 NIL=
201308190600 AAXX 19064 67751 31975 00000 10175 20052 48///
                   333 10323 20075 5////=
201308181800 AAXX 18184 67751 NIL=
201308181200 AAXX 18120 67751 NIL=
201308180600 AAXX 18060 67751 NIL=
201308171800 AAXX 17184 67751 NIL=
201308171200 AAXX 17124 67751 NIL=
201308170600 AAXX 17060 67751 NIL=
201308161200 AAXX 16124 67751 NIL=
201308160900 AAXX 16090 67751 NIL=
201308160600 AAXX 16060 67751 NIL=
201308151200 AAXX 15124 67751 NIL=
201308150900 AAXX 15094 67751 NIL=
201308150600 AAXX 15064 67751 31975 00000 10145 20056 48/// 70500
                   333 10329 20090 59003=
201308141500 AAXX 14154 67751 NIL=
201308141200 AAXX 14124 67751 NIL=
201308140900 AAXX 14094 67751 NIL=
201308140600 AAXX 14064 67751 31975 00000 10160 20056 48/// 70500
                   333 10303 20090 58018=
201308131800 AAXX 13184 67751 NIL=
201308131500 AAXX 13154 67751 NIL=
201308131200 AAXX 13124 67751 NIL=
201308130600 AAXX 13064 67751 31975 01501 10151 20072 48/// 70500
                   333 10306 20080 59012=
201308121800 AAXX 12184 67751 NIL=
201308121200 AAXX 12124 67751 NIL=
201308120900 AAXX 12094 67751 NIL=
201308120600 AAXX 12064 67751 NIL=
201308120300 AAXX 12034 67751 NIL=
201308112100 AAXX 11214 67751 NIL=
201308111800 AAXX 11184 67751 NIL=
201308111200 AAXX 11121 67751 NIL=
201308110900 AAXX 11094 67751 NIL=
201308110600 AAXX 11060 67751 NIL=
201308110300 AAXX 11034 67751 NIL=
201308110000 AAXX 11004 67751 NIL=
201308102100 AAXX 10214 67751 NIL=
201308101800 AAXX 10184 67751 NIL=
201308101500 AAXX 10154 67751 NIL=
201308101200 AAXX 10121 67751 NIL=
201308100900 AAXX 10094 67751 NIL=
201308100600 AAXX 10064 67751 NIL=
201308100300 AAXX 10034 67751 NIL=
201308100000 AAXX 10004 67751 NIL=
201308092100 AAXX 09214 67751 NIL=
201308091800 AAXX 09184 67751 NIL=
201308091500 AAXX 09154 67751 NIL=
201308091200 AAXX 09124 67751 NIL=
201308090900 AAXX 09094 67751 NIL=
201308090600 AAXX 09064 67751 31970 20000 10172 20100 48/// 70500 82030
                   333 10295 20118 59010 82360=
201308090300 AAXX 09034 67751 NIL=
201308081800 AAXX 08184 67751 NIL=
201308081500 AAXX 08154 67751 NIL=
201308081200 AAXX 08124 67751 NIL=
201308080900 AAXX 08094 67751 NIL=
201308080600 AAXX 08064 67751 31975 30307 10205 20102 48/// 83030
                   333 10280 20090 58014 83360=
201308080300 AAXX 08034 67751 NIL=
201308072100 AAXX 07214 67751 NIL=
201308071800 AAXX 07184 67751 NIL=
201308071500 AAXX 07154 67751 NIL=
201308071200 AAXX 07124 67751 NIL=
201308070900 AAXX 07094 67751 NIL=
201308070600 AAXX 07064 67751 NIL=
201308070300 AAXX 07034 67751 NIL=
201308070000 AAXX 07004 67751 NIL=
201308061800 AAXX 06184 67751 NIL=
201308061500 AAXX 06154 67751 NIL=
201308061200 AAXX 06124 67751 NIL=
201308060900 AAXX 06094 67751 NIL=
201308060600 AAXX 06064 67751 31978 11102 10146 20054 48/// 70500 81030
                   333 10255 20051 58010 81360=
201308041500 AAXX 04154 67751 NIL=
201308041200 AAXX 04124 67751 NIL=
201308040600 AAXX 04060 67751 NIL=
201308040300 AAXX 04034 67751 NIL=
201308032100 AAXX 03214 67751 NIL=
201308031800 AAXX 03184 67751 NIL=
201308031500 AAXX 03154 67751 NIL=
201308031200 AAXX 03124 67751 NIL=
201308030900 AAXX 03094 67751 NIL=
201308030600 AAXX 03064 67751 NIL=
201308030300 AAXX 03034 67751 NIL=
201308021800 AAXX 02184 67751 NIL=
201308021200 AAXX 02124 67751 NIL=
201308020900 AAXX 02094 67751 NIL=
201308020600 AAXX 02064 67751 NIL=
201308020300 AAXX 02034 67751 NIL=
201308012100 AAXX 01214 67751 NIL=
201308011800 AAXX 01184 67751 NIL=
201308011500 AAXX 01154 67751 NIL=
201308011200 AAXX 01120 67751 NIL=
201308010900 AAXX 01094 67751 NIL=
201308010600 AAXX 01064 67751 NIL=

################################################################################
#  SYNOPS from 67753, Choma (Zambia) | 16-50S | 027-04E | 1213 m
################################################################################
201308310600 AAXX 31060 67753 NIL=
201308310300 AAXX 31034 67753 NIL=
201308301500 AAXX 30154 67753 NIL=
201308301200 AAXX 30124 67753 NIL=
201308300600 AAXX 30064 67753 31960 03308 10195 20106 48/// 70500
                   333 10286 20114 5////=
201308290900 AAXX 29094 67753 NIL=
201308290600 AAXX 29064 67753 31960 00804 10180 20102 48/// 70500
                   333 10262 20109 5////=
201308290300 AAXX 29034 67753 NIL=
201308290000 AAXX 29004 67753 NIL=
201308282100 AAXX 28214 67753 NIL=
201308281800 AAXX 28184 67753 NIL=
201308281200 AAXX 28124 67753 NIL=
201308280900 AAXX 28090 67753 NIL=
201308280600 AAXX 28060 67753 NIL=
201308271800 AAXX 27184 67753 NIL=
201308271500 AAXX 27154 67753 NIL=
201308271200 AAXX 27124 67753 NIL=
201308270900 AAXX 27094 67753 NIL=
201308270600 AAXX 27064 67753 31960 00608 10156 20103 48/// 70500
                   333 10254 20096 5////=
201308230600 AAXX 23064 67753 31960 00510 10227 20142 48/// 70500
                   333 10286 20094 5////=
201308221500 AAXX 22154 67753 NIL=
201308221200 AAXX 22124 67753 NIL=
201308220900 AAXX 22094 67753 NIL=
201308220600 AAXX 22064 67753 31960 03304 10140 20066 48/// 70500
                   333 10266 20092 5////
                   555 00///=
201308211800 AAXX 21184 67753 NIL=
201308211500 AAXX 21154 67753 NIL=
201308211200 AAXX 21124 67753 NIL=
201308210900 AAXX 21094 67753 NIL=
201308210600 AAXX 21064 67753 31960 10000 10114 20090 48/// 70500 80001
                   333 10281 20077 5//// 81080=
201308202100 AAXX 20214 67753 NIL=
201308201800 AAXX 20184 67753 NIL=
201308201200 AAXX 20124 67753 NIL=
201308200600 AAXX 20064 67753 31960 00908 10157 20130 48/// 70500
                   333 10303 20117 5////=
201308200000 AAXX 20004 67753 NIL=
201308192100 AAXX 19214 67753 NIL=
201308191800 AAXX 19184 67753 NIL=
201308191500 AAXX 19154 67753 NIL=
201308191200 AAXX 19124 67753 NIL=
201308190900 AAXX 19094 67753 NIL=
201308190600 AAXX 19064 67753 31960 01804 10178 20062 48/// 70500
                   333 10309 20089 5////=
201308181800 AAXX 18184 67753 NIL=
201308181200 AAXX 18120 67753 NIL=
201308180600 AAXX 18060 67753 NIL=
201308171800 AAXX 17184 67753 NIL=
201308171200 AAXX 17124 67753 NIL=
201308170600 AAXX 17060 67753 NIL=
201308161200 AAXX 16124 67753 NIL=
201308160900 AAXX 16090 67753 NIL=
201308160600 AAXX 16064 67753 31960 02202 10186 20030 48///
                   333 10316 20101 5////=
201308151200 AAXX 15124 67753 NIL=
201308150900 AAXX 15094 67753 NIL=
201308150600 AAXX 15064 67753 31960 03204 10186 20058 48/// 70500
                   333 10316 20110 5////=
201308141500 AAXX 14154 67753 NIL=
201308141200 AAXX 14124 67753 NIL=
201308140900 AAXX 14094 67753 NIL=
201308140600 AAXX 14064 67753 31960 13204 10188 20056 48/// 70500 80001
                   333 10293 20107 5//// 81080=
201308131800 AAXX 13184 67753 NIL=
201308131500 AAXX 13154 67753 NIL=
201308131200 AAXX 13124 67753 NIL=
201308130600 AAXX 13064 67753 31960 23308 10199 20062 48/// 70500 80001
                   333 10294 20106 5//// 82080=
201308121800 AAXX 12184 67753 NIL=
201308121200 AAXX 12124 67753 NIL=
201308120900 AAXX 12094 67753 NIL=
201308120600 AAXX 12064 67753 NIL=
201308120300 AAXX 12034 67753 NIL=
201308112100 AAXX 11214 67753 NIL=
201308111800 AAXX 11184 67753 NIL=
201308111200 AAXX 11124 67753 NIL=
201308110900 AAXX 11094 67753 NIL=
201308110600 AAXX 11064 67753 NIL=
201308110300 AAXX 11034 67753 NIL=
201308110000 AAXX 11004 67753 NIL=
201308102100 AAXX 10214 67753 NIL=
201308101800 AAXX 10184 67753 NIL=
201308101500 AAXX 10154 67753 NIL=
201308101200 AAXX 10121 67753 NIL=
201308100900 AAXX 10094 67753 NIL=
201308100600 AAXX 10064 67753 NIL=
201308100300 AAXX 10034 67753 NIL=
201308100000 AAXX 10004 67753 NIL=
201308092100 AAXX 09214 67753 NIL=
201308091800 AAXX 09184 67753 NIL=
201308091500 AAXX 09154 67753 NIL=
201308091200 AAXX 09124 67753 NIL=
201308090900 AAXX 09094 67753 NIL=
201308090600 AAXX 09064 67753 31960 10904 10156 20112 48/// 70500 81030
                   333 10281 20100 5//// 81360=
201308090300 AAXX 09034 67753 NIL=
201308081800 AAXX 08184 67753 NIL=
201308081500 AAXX 08154 67753 NIL=
201308081200 AAXX 08124 67753 NIL=
201308080900 AAXX 08094 67753 NIL=
201308080600 AAXX 08064 67753 31960 40408 10135 20099 48/// 84030
                   333 10256 20101 5//// 84360=
201308080300 AAXX 08034 67753 NIL=
201308072100 AAXX 07214 67753 NIL=
201308071800 AAXX 07184 67753 NIL=
201308071500 AAXX 07154 67753 NIL=
201308071200 AAXX 07124 67753 NIL=
201308070900 AAXX 07094 67753 NIL=
201308070600 AAXX 07064 67753 31960 00904 10144 20066 48/// 70500
                   333 10241 20059 5////=
201308070300 AAXX 07034 67753 NIL=
201308070000 AAXX 07004 67753 NIL=
201308061800 AAXX 06184 67753 NIL=
201308061500 AAXX 06154 67753 NIL=
201308061200 AAXX 06124 67753 NIL=
201308060900 AAXX 06094 67753 NIL=
201308060600 AAXX 06064 67753 31960 12204 10146 20067 48/// 70500 81030
                   333 10236 20054 5//// 81360=
201308041500 AAXX 04154 67753 NIL=
201308041200 AAXX 04124 67753 NIL=
201308040600 AAXX 04064 67753 NIL=
201308040300 AAXX 04034 67753 NIL=
201308032100 AAXX 03214 67753 NIL=
201308031800 AAXX 03184 67753 NIL=
201308031500 AAXX 03154 67753 NIL=
201308031200 AAXX 03124 67753 NIL=
201308030900 AAXX 03094 67753 NIL=
201308030600 AAXX 03064 67753 NIL=
201308030300 AAXX 03034 67753 NIL=
201308021800 AAXX 02184 67753 NIL=
201308021200 AAXX 02124 67753 NIL=
201308020900 AAXX 02094 67753 NIL=
201308020600 AAXX 02064 67753 NIL=
201308020300 AAXX 02034 67753 NIL=
201308012100 AAXX 01214 67753 NIL=
201308011800 AAXX 01184 67753 NIL=
201308011500 AAXX 01154 67753 NIL=
201308011200 AAXX 01124 67753 NIL=
201308010900 AAXX 01094 67753 NIL=
201308010600 AAXX 01064 67753 31560 70910 10137 20073 48/// 70500 8253/
                   333 10219 20096 5//// 82620 85360
                   555 00///=

################################################################################
#  SYNOPS from 67855, Lupaki (Zambia) | 17-03-00S | 024-46-00E | 1000 m
################################################################################
201308310600 AAXX 31064 67855 31970 00000 10144 20050 3//// 48/// 70500
                   333 20114 5////=
201308301200 AAXX 30124 67855 41970 03610 10326 20073 3//// 48/// 70500
                   333 5////=
201308300600 AAXX 30064 67855 31970 03601 10166 20054 3//// 48/// 70500
                   333 20109 5////=
201308291200 AAXX 29124 67855 41970 00303 10302 20055 3//// 48/// 70500
                   333 5////=
201308290600 AAXX 29064 67855 31970 01801 10148 20020 38/// 48/// 70500
                   333 20072 5////=
201308281200 AAXX 28124 67855 41970 03603 10298 20073 3//// 48/// 70500
                   333 5////=
201308280600 AAXX 28064 67855 31970 01801 10126 21010 3//// 48/// 70500
                   333 20053 5////=
201308271200 AAXX 27124 67855 42675 22301 10288 20086 38/// 48/// 82100
                   333 5//// 82845=
201308270600 AAXX 27064 67855 NIL=
201308261200 AAXX 26124 67855 42980 00605 10296 20048 38/// 48///
                   333 5////=
201308260600 AAXX 26064 67855 32975 00606 10166 20103 3//// 48///
                   333 20148 5////=
201308251200 AAXX 25124 67855 NIL=
201308250600 AAXX 25064 67855 31970 00701 10176 20108 3//// 48/// 70500
                   333 20108 5////=
201308241200 AAXX 24124 67855 NIL=
201308240600 AAXX 24064 67855 31970 00601 10164 20080 3//// 48/// 70500
                   333 20086 5////=
201308231200 AAXX 23124 67855 NIL=
201308230600 AAXX 23064 67855 NIL=
201308221200 AAXX 22124 67855 NIL=
201308220600 AAXX 22064 67855 31970 00000 10122 20058 3//// 48/// 70500
                   333 20064 5////=
201308211200 AAXX 21124 67855 41970 03201 10288 20118 3//// 48/// 70500
                   333 5////=
201308210600 AAXX 21064 67855 31970 00000 10116 20063 38/// 48/// 70500
                   333 20078 5////=
201308201200 AAXX 20124 67855 41670 10301 10278 20147 38/// 48/// 70500 81100
                   333 5//// 81845=
201308200600 AAXX 20064 67855 31970 00702 10154 20116 3//// 48/// 70500
                   333 20108 5////=
201308191200 AAXX 19124 67855 41970 01803 10322 20097 3//// 48/// 70500
                   333 5////=
201308190600 AAXX 19064 67855 31970 00000 10120 21035 3//// 48/// 70500
                   333 20050=
201308181200 AAXX 18124 67855 NIL=
201308180600 AAXX 18064 67855 NIL=
201308171200 AAXX 17124 67855 41970 70000 10316 20075 3//// 48/// 70511 80002
                   333 5//// 87080=
201308170600 AAXX 17064 67855 31970 00000 10110 20048 38/// 48/// 70500
                   333 20069 5////=
201308161200 AAXX 16124 67855 41970 70000 10310 20090 38/// 48/// 70500 80002
                   333 5//// 87080=
201308160600 AAXX 16064 67855 31970 71101 10124 20055 3//// 48/// 70511 80002
                   333 20055 5//// 87080=
201308151200 AAXX 15124 67855 41970 00000 10328 20070 3//// 48/// 70511
                   333 5////=
201308150600 AAXX 15064 67855 31970 70000 10116 20031 38/// 48/// 70511 80002
                   333 20076 5//// 87080=
201308141200 AAXX 14124 67855 41970 70000 10316 20063 38/// 48/// 70522 80002
                   333 5//// 87080=
201308140600 AAXX 14064 67855 31970 70000 10130 20050 38/// 48/// 70511 80002
                   333 20075 5//// 87080=
201308130600 AAXX 13064 67855 31970 71801 10130 20054 3//// 48/// 70511 80001
                   333 20075 5//// 87080=
201308121200 AAXX 12124 67855 41970 03201 10306 20110 3//// 48/// 70500
                   333 5////=
201308120600 AAXX 12064 67855 31970 00306 10186 20080 3//// 48/// 70500
                   333 20133 5////=
201308111200 AAXX 11124 67855 NIL=
201308110600 AAXX 11064 67855 31970 00000 10150 20129 3//// 48/// 70500
                   333 20108 5////=
201308101200 AAXX 10124 67855 41670 40701 10314 20088 3//// 48/// 70500 84100
                   333 5//// 84845=
201308100600 AAXX 10064 67855 31970 00000 10134 20070 38/// 48/// 70500
                   333 20082 5////=
201308091200 AAXX 09124 67855 41970 00605 10296 20121 38/// 48/// 70500
                   333 5////=
201308090600 AAXX 09064 67855 31970 53602 10160 20083 38/// 48/// 70500 80002
                   333 20086 5//// 85080=
201308081200 AAXX 08124 67855 42680 52805 10288 20108 38/// 48/// 85100
                   333 5//// 85845=
201308080600 AAXX 08064 67855 NIL=
201308071200 AAXX 07124 67855 42675 40602 10260 20053 3//// 48/// 84100
                   333 5//// 84745=
201308070600 AAXX 07064 67855 32980 60000 10140 20048 38/// 48/// 86030
                   333 20083 5//// 86360=
201308061200 AAXX 06124 67855 42775 60303 10254 20095 3//// 48/// 86100
                   333 5//// 86850=
201308060600 AAXX 06064 67855 12975 41801 10082 20051 3//// 48/// 69904 84030
                   333 20040 5//// 84360=
201308051200 AAXX 05124 67855 41775 61802 10222 20040 3//// 48/// 70361 84130
                   333 5//// 84850 86360=
201308050600 AAXX 05064 67855 32975 70000 10130 20086 38/// 48/// 8707/
                   333 20108 5//// 87360=
201308041200 AAXX 04124 67855 42675 50601 10228 20105 38/// 48/// 84100
                   333 5//// 84845 83360=
201308040600 AAXX 04064 67855 32975 70701 10144 20094 3//// 48/// 8705/
                   333 20133 5//// 87360=
201308031200 AAXX 03124 67855 42675 31403 10240 20115 3//// 48/// 83100
                   333 5//// 83845=
201308030600 AAXX 03064 67855 31970 40302 10136 20080 38/// 48/// 70511 84050
                   333 20099 5//// 84360=
201308021200 AAXX 02124 67855 42680 31405 10250 20115 38/// 48/// 83130
                   333 5//// 83845=
201308020600 AAXX 02064 67855 31970 00902 10108 20060 3//// 48/// 70500
                   333 20055 5////=
201308011200 AAXX 01124 67855 NIL=
201308010600 AAXX 01064 67855 31970 00000 10100 20045 3//// 48/// 70500
                   333 20043 5////=
