################################################################################
# Query made at 04/14/2022 06:35:26 UTC
# Country like Zamb*
# Time interval: from 10/01/2014 05:30  to 10/31/2014 06:30  UTC
################################################################################

################################################################################
#  SYNOPS from 67403, Kawambwa (Zambia) | 09-48S | 029-05E | 1323 m
################################################################################
201410310600 AAXX 31064 67403 31970 60901 10227 20189 48509 70522 86031
                   333 10/// 20205 58005 86360 83080
                   555 00///=
201410300900 AAXX 30094 67403 NIL=
201410300300 AAXX 30034 67403 NIL=
201410291200 AAXX 29124 67403 NIL=
201410231200 AAXX 23124 67403 NIL=
201410220600 AAXX 22064 67403 31980 70000 10218 20160 48538 70522
                   333 10/// 20189 58008 87359
                   555 00///=
201410210600 AAXX 21064 67403 11480 70902 10219 20177 48530 60034 70322 81537
                   333 10/// 20180 58003 81615 84360 87280=
201410200600 AAXX 20064 67403 11480 60502 10214 20187 48527 60174 70322 82531
                   333 10/// 20172 58010 82615 83360 85080=
201410170600 AAXX 17064 67403 11370 73005 10226 20203 48509 60044 70522 83537
                   333 10/// 20200 59006 83610 82360 86280=
201410151200 AAXX 15124 67403 NIL=
201410140600 AAXX 14064 67403 31970 00905 10246 20107 48519 70500 80000
                   333 10/// 20183 59013=
201410130600 AAXX 13064 67403 31975 20902 10237 20123 48531 70500 80001
                   333 10/// 20177 59001 82080
                   555 00///=
201410100600 AAXX 10064 67403 11980 20904 10227 20167 48514 60044 70500 81031
                   333 10/// 20176 58007 81360 81080=
201410090900 AAXX 09094 67403 NIL=
201410090600 AAXX 09064 67403 31980 40000 10258 20154 48508 70522 84031
                   333 10/// 20222 59005 84359 82080
                   555 00///=
201410080600 AAXX 08064 67403 31980 41205 10254 20117 48523 70500 80001
                   333 10/// 20175 59015 84080
                   555 00///=
201410070900 AAXX 07094 67403 NIL=
201410070600 AAXX 07064 67403 31975 40908 10225 20114 48527 70522 80001
                   333 10/// 20192 59004 84080=
201410070300 AAXX 07034 67403 NIL=
201410061500 AAXX 06154 67403 NIL=
201410061200 AAXX 06124 67403 NIL=
201410060900 AAXX 06094 67403 NIL=
201410060600 AAXX 06064 67403 31980 30910 10212 20119 48530 70500 80001
                   333 10/// 20172 59002 83080=
201410030600 AAXX 03064 67403 31975 30902 10234 20147 48519 70500 80001
                   333 10/// 20187 58000 83080
                   555 00///=
201410020900 AAXX 02094 67403 NIL=
201410020600 AAXX 02064 67403 31975 03008 10222 20187 48519 70500 80000
                   333 10/// 20191 59002=
201410011200 AAXX 01124 67403 NIL=
201410010900 AAXX 01094 67403 NIL=
201410010600 AAXX 01064 67403 31475 13510 10222 20183 48521 70500 81500
                   333 10/// 20192 58005 81615=

################################################################################
#  SYNOPS from 67413, Mbala (Zambia) | 08-51S | 031-20E | 1673 m
################################################################################
201410300900 AAXX 30094 67413 NIL=
201410300300 AAXX 30034 67413 NIL=
201410291200 AAXX 29124 67413 NIL=
201410280600 AAXX 28064 67413 32980 01015 10205 20140 48534
                   333 10300 20/// 59011 91023=
201410231200 AAXX 23124 67413 NIL=
201410220600 AAXX 22064 67413 12980 60000 10210 20205 48531 60034 86080
                   333 10230 20/// 58018 86359 91026=
201410210600 AAXX 21064 67413 12480 80000 10175 48523 60274 8247/
                   333 82615 86359 555 00/// 20001 10259=
201410170600 AAXX 17064 67413 32370 80000 10195 20180 48531 60014 8351/
                   333 10270 20/// 59005 83610 88460 91023=
201410160600 AAXX 16064 67413 31480 70000 10205 20182 48536 74142 84602
                   333 10285 20/// 58001 84708 83080 91023=
201410151200 AAXX 15124 67413 NIL=
201410140600 AAXX 14064 67413 NIL=
201410130600 AAXX 13064 67413 NIL=
201410090900 AAXX 09094 67413 NIL=
201410070900 AAXX 07094 67413 NIL=
201410070300 AAXX 07034 67413 NIL=
201410061500 AAXX 06154 67413 NIL=
201410061200 AAXX 06124 67413 NIL=
201410060900 AAXX 06094 67413 NIL=
201410020900 AAXX 02094 67413 NIL=
201410011200 AAXX 01124 67413 NIL=
201410010900 AAXX 01094 67413 NIL=
201410010600 AAXX 01064 67413 NIL=

################################################################################
#  SYNOPS from 67441, Mwinilunga (Zambia) | 11-45S | 024-26E | 1361 m
################################################################################
201410300900 AAXX 30094 67441 NIL=
201410300300 AAXX 30034 67441 NIL=
201410291200 AAXX 29124 67441 NIL=
201410270600 AAXX 27064 67441 31975 116// 10215 20165 48547 70500 80001
                   333 10332 20/// 5//// 81080=
201410231200 AAXX 23124 67441 NIL=
201410230600 AAXX 23064 67441 31975 016// 10192 20138 48557 70500 80001
                   333 10310 20/// 59011 81080=
201410221200 AAXX 22124 67441 41765 512// 10285 20130 48532 70522 85230
                   333 58008 85840 86360=
201410220600 AAXX 22064 67441 11970 533// 10206 20175 48568 69904 70511 85030
                   333 10310 20/// 58018 85360=
201410210600 AAXX 21064 67441 11970 106// 10180 20165 48557 60094 70500 80001
                   333 10276 20/// 58004 81080=
201410200600 AAXX 20064 67441 31960 136// 10185 20170 48547 70500 80001
                   333 10298 20/// 58003 81080=
201410171200 AAXX 17124 67441 42780 30303 10303 20169 48/// 70200 83200
                   333 58018 83858=
201410170600 AAXX 17064 67441 31670 500// 10224 20186 48539 70511 82545
                   333 10320 20/// 58008 82635 83360 83080=
201410160600 AAXX 16064 67441 11970 436// 10170 20151 48538 60034 70511 80004
                   333 10345 20/// 59012 84080=
201410151200 AAXX 15124 67441 NIL=
201410141200 AAXX 14124 67441 41970 527// 10314 20100 48522 70522 85060
                   333 58000 85360=
201410140600 AAXX 14064 67441 31965 028// 10202 20136 48547 70500
                   333 10335 20/// 59009=
201410130600 AAXX 13064 67441 31970 026// 10198 20127 48557 70500
                   333 10330 20/// 5////=
201410100600 AAXX 10064 67441 11960 834// 10185 20170 48528 60224 70522 88030
                   333 10328 20/// 5//// 88360=
201410090900 AAXX 09094 67441 NIL=
201410080600 AAXX 08064 67441 31965 217// 10225 20148 48538 70511 82030
                   333 10305 20/// 59024 82360=
201410070900 AAXX 07094 67441 NIL=
201410070600 AAXX 07064 67441 31965 303// 10192 20109 48558 70500 83030
                   333 10300 20/// 58000 83360=
201410070300 AAXX 07034 67441 NIL=
201410061500 AAXX 06154 67441 NIL=
201410061200 AAXX 06124 67441 NIL=
201410060900 AAXX 06094 67441 NIL=
201410060600 AAXX 06064 67441 31965 012// 10190 20125 48558 70500
                   333 10285 20/// 59003=
201410030600 AAXX 03064 67441 31965 702// 10210 20173 48538 69904 70522 87030
                   333 10325 20/// 59009 87360
                   555 00///=
201410021200 AAXX 02124 67441 41670 634// 10320 20146 48521 70311 86130
                   333 59017 84830 82360=
201410020900 AAXX 02094 67441 NIL=
201410020600 AAXX 02064 67441 31965 636// 10185 20162 48538 70522 86030
                   333 10315 20/// 59003 86360=
201410011200 AAXX 01124 67441 41970 336// 10290 20174 48532 70111 83030
                   333 58021 83360=
201410010900 AAXX 01094 67441 41665 833// 10240 20174 48548 70322 88500
                   333 5//// 88635=
201410010600 AAXX 01064 67441 31665 336// 10190 20151 48548 70522 86600
                   333 10340 20/// 58012 86635=

################################################################################
#  SYNOPS from 67461, Mansa (Zambia) | 11-06S | 028-51E | 1382 m
################################################################################
201410310600 AAXX 31064 67461 31965 41202 10245 20150 48504 70500 80001
                   333 10334 20170 59006 84080 91016=
201410300900 AAXX 30094 67461 NIL=
201410300300 AAXX 30034 67461 NIL=
201410291200 AAXX 29124 67461 NIL=
201410231200 AAXX 23124 67461 NIL=
201410220600 AAXX 22064 67461 31975 50808 10240 20150 48536 70522 83031
                   333 10302 20164 58009 83363 83080 91020=
201410210600 AAXX 21064 67461 32980 61505 10230 20175 48526 70222 80008
                   333 10322 20153 58001 86280 91019=
201410200600 AAXX 20064 67461 11578 70802 10218 20180 48523 60024 70522 86501
                   333 10300 20160 5//// 86635 84080 91019=
201410170600 AAXX 17064 67461 31970 73103 10224 20158 40514 70522 8707/
                   333 10355 20192 58001 87463 91017=
201410151200 AAXX 15124 67461 NIL=
201410140600 AAXX 14064 67461 31958 01404 10245 20106 48527 70500
                   333 10335 20/// 58001 91019=
201410130600 AAXX 13064 67461 31960 31202 10245 20130 48526 70500 80008
                   333 10355 20/// 5//// 83080 91019=
201410100600 AAXX 10064 67461 31970 30000 10237 20165 48516 70500 80001
                   333 10330 20/// 58002 83080 91018=
201410090900 AAXX 09094 67461 NIL=
201410070900 AAXX 07094 67461 NIL=
201410070300 AAXX 07034 67461 NIL=
201410061500 AAXX 06154 67461 NIL=
201410061200 AAXX 06124 67461 NIL=
201410060900 AAXX 06094 67461 NIL=
201410020900 AAXX 02094 67461 NIL=
201410011200 AAXX 01124 67461 NIL=
201410010900 AAXX 01094 67461 NIL=
201410010600 AAXX 01064 67461 NIL=

################################################################################
#  SYNOPS from 67475, Kasama (Zambia) | 10-13S | 031-08E | 1382 m
################################################################################
201410310600 AAXX 31064 67475 31675 40109 10242 20139 48518 70522 81131
                   333 10319 20163 59002 81840 83359 81080 91019=
201410300900 AAXX 30094 67475 41775 30907 10286 20129 48512 70510 82101
                   333 59006 82850 81080 91018=
201410300300 AAXX 30034 67475 NIL=
201410291200 AAXX 29124 67475 41775 50905 10294 20106 48490 70522 85231
                   333 59006 85856 81361 81080 91016=
201410290600 AAXX 29064 67475 31675 30704 10219 20146 48/// 70521 81101
                   333 10316 20167 5//// 81835 82080=
201410280600 AAXX 28064 67475 31975 70915 10217 20139 48531 70522 80001
                   333 10309 20165 59010 87080 91021=
201410231200 AAXX 23124 67475 NIL=
201410220600 AAXX 22064 67475 32980 70604 10204 20159 48569 8707/
                   333 10285 20170 58005 87460 91023=
201410210600 AAXX 21064 67475 32480 60506 10195 20174 48544 70222 83630
                   333 10272 20169 58005 83715 86359
                   555 91023=
201410200600 AAXX 20064 67475 11470 71006 10191 20182 48539 60134 70522 875//
                   333 10286 20172 58010 87615 91022=
201410170600 AAXX 17064 67475 11970 80203 10230 20127 48518 69924 70502 86012
                   333 10330 20169 58001 86459 88080 91019=
201410160600 AAXX 16064 67475 31970 03403 10230 20167 48517 70500
                   333 10345 20155 59007
                   555 00/// 91019=
201410151200 AAXX 15124 67475 NIL=
201410140600 AAXX 14064 67475 31970 00608 10233 20109 48529 70500
                   333 10330 20150 91021=
201410131200 AAXX 13124 67475 41975 00907 10321 20021 48507 70500
                   333 59010 91018=
201410130600 AAXX 13064 67475 31975 00506 10227 20108 48545 70500
                   333 10332 20150 59003 91022=
201410100600 AAXX 10064 67475 31970 30714 10240 20117 48528 70500 80001
                   333 10350 20155 58009 83080 91020=
201410090900 AAXX 09094 67475 NIL=
201410090600 AAXX 09064 67475 31970 00909 10245 20120 48519 70500
                   333 10342 20162 59010 91019=
201410080600 AAXX 08064 67475 31970 00913 10232 20086 48528 70500
                   333 10320 20144 59016 91021=
201410070900 AAXX 07094 67475 NIL=
201410070600 AAXX 07064 67475 31970 00912 10206 20110 48543 70500
                   333 10305 20144 59007 91022=
201410070300 AAXX 07034 67475 NIL=
201410061500 AAXX 06154 67475 NIL=
201410061200 AAXX 06124 67475 41875 61608 10291 20087 48513 70510 84204
                   333 58003 84857 85080 91019=
201410060900 AAXX 06094 67475 41775 21224 10255 20106 48542 70500 81201
                   333 58003 81850 81080 91022=
201410060600 AAXX 06064 67475 31975 21319 10189 20113 48537 70521 80001
                   333 10293 20151 58002 82080 91023=
201410031200 AAXX 03124 67475 41875 31015 10329 20019 48488 70500 82201
                   333 58001 82857 82080 91016=
201410020900 AAXX 02094 67475 41975 01514 10299 20056 48521 70500
                   333 58003 91019=
201410020600 AAXX 02064 67475 31975 00312 10219 20164 48526 70500
                   333 10334 20127 59002 91020=
201410011200 AAXX 01124 67475 41875 12903 10328 20045 48488 70500 81200
                   333 58001 81858 91017=
201410010900 AAXX 01094 67475 41975 03504 10291 20084 48518 70500
                   333 59003 91019=
201410010600 AAXX 01064 67475 31975 03413 10217 20090 48528 70500
                   333 10331 20150 59002 91021=

################################################################################
#  SYNOPS from 67476, Misamfu (Zambia) | 10-06S | 031-15E | 1536 m
################################################################################
201410310600 AAXX 31064 67476 32980 10603 10233 20145 48/// 81030
                   333 10318 20179 59001 81360=
201410300900 AAXX 30094 67476 NIL=
201410300300 AAXX 30034 67476 NIL=
201410291200 AAXX 29124 67476 NIL=
201410290600 AAXX 29064 67476 32980 00903 10213 20154 48///
                   333 10300 20160 59003=
201410270600 AAXX 27064 67476 32980 00904 10224 20137 48///
                   333 10340 20175 5////=
201410231200 AAXX 23124 67476 NIL=
201410220600 AAXX 22064 67476 11980 70901 10194 20167 48/// 69904 70222 87031
                   333 10278 20178 58004 87359 82080=
201410210600 AAXX 21064 67476 11580 60602 10198 20170 48/// 69904 70222 81131
                   333 10272 20178 58005 81825 86359 82080=
201410200600 AAXX 20064 67476 12580 70902 10192 20184 48/// 60224 70224 86832
                   333 10287 20177 5//// 85625 83827 84359 82080=
201410170600 AAXX 17064 67476 11970 72802 10223 20146 48/// 69904 70500 86033
                   333 10349 20180 58002 86360 82080=
201410151200 AAXX 15124 67476 NIL=
201410140600 AAXX 14064 67476 31975 00801 10229 20116 48/// 70500
                   333 10336 20142 59016=
201410130600 AAXX 13064 67476 31976 00000 10224 20132 48524 70500
                   333 10/// 20/// 58001=
201410100600 AAXX 10064 67476 31975 00603 10235 20128 48/// 70500
                   333 10333 20173 58000=
201410090900 AAXX 09094 67476 NIL=
201410080600 AAXX 08064 67476 31975 00803 10222 20124 48///
                   333 10324 20163 59017=
201410070900 AAXX 07094 67476 NIL=
201410070300 AAXX 07034 67476 NIL=
201410061500 AAXX 06154 67476 NIL=
201410061200 AAXX 06124 67476 NIL=
201410060900 AAXX 06094 67476 NIL=
201410060600 AAXX 06064 67476 31975 00906 10189 20116 48/// 70500
                   333 10315 20164 5////=
201410020900 AAXX 02094 67476 NIL=
201410011200 AAXX 01124 67476 NIL=
201410010900 AAXX 01094 67476 NIL=
201410010600 AAXX 01064 67476 NIL=

################################################################################
#  SYNOPS from 67477, Mpika (Zambia) | 11-54S | 031-26E | 1400 m
################################################################################
201410300900 AAXX 30094 67477 NIL=
201410300300 AAXX 30034 67477 NIL=
201410291200 AAXX 29124 67477 NIL=
201410280600 AAXX 28064 67477 32480 30910 10214 20114 48537 81101
                   333 10291 20175 59013 81812 83080=
201410270600 AAXX 27064 67477 32480 70000 10212 20131 48550 875//
                   333 10330 20184 58013 87612=
201410231200 AAXX 23124 67477 NIL=
201410220600 AAXX 22064 67477 32980 10906 10218 20091 48555 81030
                   333 10296 20159 58009 81359=
201410210600 AAXX 21064 67477 32480 11203 10222 20153 48546 81101
                   333 10294 20159 58005 81812 81080=
201410200600 AAXX 20064 67477 11478 40000 10212 20167 48541 69904 70500 83530
                   333 10290 20168 58020 83611 82461
                   555 00/// 20990=
201410170600 AAXX 17064 67477 31978 80000 10210 20154 48515 70522
                   333 10325 20189 59001 88461=
201410160600 AAXX 16064 67477 31978 00000 10246 20114 48517 70500
                   333 10330 20168 59012=
201410151200 AAXX 15124 67477 NIL=
201410150600 AAXX 15064 67477 31978 00000 10248 20117 48530 70500
                   333 10329 20152 59007=
201410140600 AAXX 14064 67477 31978 00000 10251 20111 48537 70500
                   333 10320 20159 59011=
201410130600 AAXX 13064 67477 31960 00508 10250 20132 48543 70500
                   333 10332 20162 59013=
201410100600 AAXX 10064 67477 31978 00000 10258 20136 48528 70500
                   333 10339 20193 58003=
201410090900 AAXX 09094 67477 NIL=
201410090600 AAXX 09064 67477 31978 60000 10243 20123 48525 70500 86030
                   333 10327 20183 59012=
201410080600 AAXX 08064 67477 31978 00000 10226 20091 48536 70500
                   333 10295 20156 59006=
201410070900 AAXX 07094 67477 NIL=
201410070600 AAXX 07064 67477 31978 01204 10195 20074 48540 70500
                   333 10265 20140 59004=
201410070300 AAXX 07034 67477 NIL=
201410061500 AAXX 06154 67477 NIL=
201410061200 AAXX 06124 67477 NIL=
201410060900 AAXX 06094 67477 NIL=
201410060600 AAXX 06064 67477 31578 11209 10170 20097 48551 70500 81100
                   333 10280 20139 59002 81822=
201410030600 AAXX 03064 67477 31478 11206 10204 20159 48534 70500 81100
                   333 10315 20166 59002 81812
                   555 00///=
201410020900 AAXX 02094 67477 NIL=
201410020600 AAXX 02064 67477 31978 00000 10238 20093 48537 70500
                   333 10330 20159 58016=
201410011200 AAXX 01124 67477 NIL=
201410010900 AAXX 01094 67477 NIL=
201410010600 AAXX 01064 67477 31978 01206 10239 20090 48521 70500
                   333 10317 20170 59011=

################################################################################
#  SYNOPS from 67481, Isoka (Zambia) | 10-07S | 032-38E | 1360 m
################################################################################
201410310600 AAXX 31064 67481 31975 23601 10245 20131 70500 82030
                   333 10324 20179 59003 82361
                   555 00/// 20000=
201410300900 AAXX 30094 67481 41675 30603 10289 20105 48/// 70500 83200
                   333 59005 83847=
201410300300 AAXX 30034 67481 NIL=
201410291200 AAXX 29124 67481 NIL=
201410231200 AAXX 23124 67481 41775 22104 10303 20084 70500
                   333 59009 82858 81080=
201410221200 AAXX 22124 67481 42780 42705 10290 20119 83220
                   333 58005 81857 82657 83361=
201410220600 AAXX 22064 67481 12480 72502 10205 20166 69954 81570
                   333 10261 20177 58008 81615 87360
                   555 00/// 20005=
201410210600 AAXX 21064 67481 12480 61201 10203 20121 60534 83570
                   333 10263 20181 58008 83612 85361
                   555 00/// 20073=
201410200600 AAXX 20064 67481 32480 71201 10209 20179 60734 85570
                   333 10295 20186 5//// 85613 86360
                   555 00/// 20007=
201410171200 AAXX 17124 67481 41770 82702 10224 20177 79598 8592/
                   333 5//// 81958 82659 88361=
201410170600 AAXX 17064 67481 31970 73301 10/// 20172 70522 83068
                   333 10330 20208 59006 83360 87280
                   555 00/// 20000=
201410151200 AAXX 15124 67481 41770 50602 10328 20111 70422 85200
                   333 59015 85857=
201410140600 AAXX 14064 67481 31975 03602 10242 20115 70400
                   333 10329 20158 59016
                   555 00/// 20000=
201410131200 AAXX 13124 67481 41775 10604 10321 20041 70500 81101
                   333 5//// 81857 81080=
201410130600 AAXX 13064 67481 31975 00604 10196 20129 70400
                   333 10329 20170 59002
                   555 00/// 20000=
201410100600 AAXX 10064 67481 32980 10103 10243 20134 80001
                   333 10356 20176 58005 81080
                   555 00/// 20000=
201410090900 AAXX 09094 67481 NIL=
201410070900 AAXX 07094 67481 NIL=
201410070600 AAXX 07064 67481 31975 20902 10214 20105 70400 80001
                   333 10303 20144 59007 82080=
201410070300 AAXX 07034 67481 NIL=
201410061500 AAXX 06154 67481 NIL=
201410061200 AAXX 06124 67481 NIL=
201410060900 AAXX 06094 67481 NIL=
201410060600 AAXX 06064 67481 32980 21702 10199 20124 80001
                   333 10278 20150 58003 82080=
201410020900 AAXX 02094 67481 NIL=
201410011200 AAXX 01124 67481 NIL=
201410010900 AAXX 01094 67481 NIL=
201410010600 AAXX 01064 67481 NIL=

################################################################################
#  SYNOPS from 67531, Zambezi (Zambia) | 13-32S | 023-07E | 1077 m
################################################################################
201410310600 AAXX 31064 67531 31978 10802 10245 20173 48/// 70500 80002
                   333 10371 20186 58002 81081
                   555 00175=
201410300900 AAXX 30094 67531 42980 10905 10330 20121 48/// 80001
                   333 59016 81081=
201410300600 AAXX 30064 67531 32980 30302 10238 20160 48/// 83030
                   333 10346 20168 59017 83360
                   555 00158=
201410300300 AAXX 30034 67531 NIL=
201410291200 AAXX 29124 67531 41878 60000 10331 20154 48/// 70522 86100
                   333 59007 86857=
201410290600 AAXX 29064 67531 31978 33302 10212 20170 48/// 70500 81031
                   333 10355 20195 58008 81362 82080
                   555 00176=
201410280600 AAXX 28064 67531 31978 11402 10224 20161 48/// 70500 80001
                   333 10353 20166 59016 81080
                   555 00160=
201410270600 AAXX 27064 67531 11978 52702 10230 20157 48/// 60044 70522 85030
                   333 10362 20198 58017 85360=
201410231200 AAXX 23124 67531 NIL=
201410230600 AAXX 23064 67531 31978 20903 10235 20070 48/// 70500 80001
                   333 10360 20148 59019 82080
                   555 00125=
201410221200 AAXX 22124 67531 41770 21805 10352 20070 48/// 70500 82100
                   333 58002 81856=
201410220600 AAXX 22064 67531 31978 20302 10225 20092 48/// 70500 82030
                   333 10341 20146 58017 82362
                   555 00132=
201410210600 AAXX 21064 67531 11978 20000 10207 20182 48/// 60044 70500 80001
                   333 10365 20166 58005 82081=
201410200600 AAXX 20064 67531 32980 30302 10227 20166 48/// 70200 83030
                   333 10410 20168 58006 83361=
201410170600 AAXX 17064 67531 11978 70904 10230 20164 48/// 60014 70522 8707/
                   333 10374 20195 58005 87360
                   555 00185=
201410160600 AAXX 16064 67531 31978 13305 10218 20154 48/// 70500 80001
                   333 10374 20188 59012 81081
                   555 00175=
201410151200 AAXX 15124 67531 NIL=
201410141200 AAXX 14124 67531 41778 41003 10363 20128 48/// 70522 84200
                   333 59008 84858=
201410140600 AAXX 14064 67531 31978 10000 10220 20161 48/// 70500 80001
                   333 10368 20157 59009 81082=
201410130600 AAXX 13064 67531 31978 10902 10225 20134 48/// 70500 80001
                   333 10361 20160 58003 81082=
201410100600 AAXX 10064 67531 31978 23003 10340 20165 48/// 70500 81031
                   333 10366 20194 58001 81361 81081
                   555 00185=
201410090900 AAXX 09094 67531 NIL=
201410090600 AAXX 09064 67531 31978 13302 10220 20163 48/// 70500 80001
                   333 10360 20157 59014 81080
                   555 00149=
201410080600 AAXX 08064 67531 31978 20302 10214 20117 48/// 70500 81031
                   333 10342 20128 59022 81361 81080
                   555 00119=
201410070900 AAXX 07094 67531 42980 31004 10296 48/// 70200 82031
                   333 59015 82362 81080=
201410070600 AAXX 07064 67531 31978 41002 10195 20111 48/// 70522 84031
                   333 10327 20134 59009 84360 81080
                   555 00128=
201410070300 AAXX 07034 67531 NIL=
201410061500 AAXX 06154 67531 NIL=
201410061200 AAXX 06124 67531 42780 41503 10314 20130 48/// 70222 82101
                   333 5//// 82857 83082=
201410060900 AAXX 06094 67531 42980 21204 10270 20134 48/// 70200 80001
                   333 5//// 82082=
201410060600 AAXX 06064 67531 32980 21405 10206 20129 48/// 80001
                   333 10337 20185 58006 82080=
201410030600 AAXX 03064 67531 31975 23302 10213 20179 48/// 70500 80002
                   333 10364 20184 59013 82080
                   555 00165 20013=
201410020900 AAXX 02094 67531 41978 43302 10274 20159 48/// 70522 81038
                   333 58012 81362 84280=
201410020600 AAXX 02064 67531 11978 53602 10195 20169 48/// 60134 70522 85030
                   333 10373 20175 58012 85360
                   555 00172=
201410011200 AAXX 01124 67531 41778 43304 10346 20137 48/// 70500 84201
                   333 58011 84857 81080=
201410010900 AAXX 01094 67531 41978 23304 10317 20144 48/// 70500 80001
                   333 58004 82082=
201410010600 AAXX 01064 67531 31975 33602 10236 20154 48/// 70500 80008
                   333 10373 20195 58000 83280
                   555 00176=

################################################################################
#  SYNOPS from 67541, Kasempa (Zambia) | 13-32S | 025-51E | 1234 m
################################################################################
201410310600 AAXX 31064 67541 31970 30603 10250 20128 48512 70520 83030
                   333 10/// 20/// 58007 83360=
201410300900 AAXX 30094 67541 NIL=
201410300600 AAXX 30064 67541 31965 70000 10241 20124 48505 70522 80007
                   333 10/// 20/// 59008 87282=
201410300300 AAXX 30034 67541 NIL=
201410291200 AAXX 29124 67541 NIL=
201410290600 AAXX 29064 67541 31965 70704 10248 20129 48513 70522 80007
                   333 10/// 20/// 59009 87280=
201410281200 AAXX 28124 67541 41775 30000 10315 20/// 48497 70522 83200
                   333 59012 83856=
201410280600 AAXX 28064 67541 31965 70704 10225 20170 48522 70522 80007
                   333 10/// 20/// 59002 87280=
201410270600 AAXX 27064 67541 31970 00000 10227 20158 48524 70500
                   333 10/// 20/// 58014=
201410231200 AAXX 23124 67541 NIL=
201410230600 AAXX 23064 67541 31965 00000 10206 20095 48529 70500
                   333 10/// 20/// 59017=
201410221200 AAXX 22124 67541 41970 00605 10315 20069 48510 70500
                   333 58004=
201410220600 AAXX 22064 67541 31965 00000 10234 20090 48546 70500
                   333 10/// 20/// 58027=
201410210600 AAXX 21064 67541 31970 10604 10238 20167 48519 70522 81030
                   333 10/// 20/// 59006 81360=
201410201200 AAXX 20124 67541 41770 20303 10302 20132 48496 70522 82200
                   333 5//// 82850=
201410200600 AAXX 20064 67541 31970 20303 10219 20174 48525 70522 82030
                   333 10/// 20/// 58007 82368=
201410170600 AAXX 17064 67541 11370 70000 10181 20175 48511 60284 76066 8353/
                   333 10/// 20/// 58019 83706 87360=
201410160600 AAXX 16064 67541 31960 00301 10213 20148 48492 70500
                   333 10/// 20/// 59024=
201410151200 AAXX 15124 67541 NIL=
201410141200 AAXX 14124 67541 41770 10000 10351 20109 48494 70522 81100
                   333 59008 81850=
201410140600 AAXX 14064 67541 31965 20000 10220 20146 48515 70522 82030
                   333 10/// 20/// 59009 82360=
201410130600 AAXX 13064 67541 31976 00000 10224 20132 48524 70500
                   333 10/// 20/// 58001=
201410100600 AAXX 10064 67541 31965 30000 10216 20159 48494 70500 83030
                   333 10/// 20/// 59006 83360=
201410090900 AAXX 09094 67541 NIL=
201410090600 AAXX 09064 67541 31965 70000 10215 20150 48500 70522 87030
                   333 10/// 20/// 59013 87360=
201410080600 AAXX 08064 67541 31965 60700 10199 20134 48513 70522 86030
                   333 10/// 20/// 59021 86360=
201410070900 AAXX 07094 67541 NIL=
201410070600 AAXX 07064 67541 31965 00903 10211 20104 48534 70500
                   333 10/// 20/// 59006=
201410070300 AAXX 07034 67541 NIL=
201410061500 AAXX 06154 67541 NIL=
201410061200 AAXX 06124 67541 41770 20710 10291 20135 48519 70522 82100
                   333 5//// 82850=
201410060900 AAXX 06094 67541 NIL=
201410060600 AAXX 06064 67541 31965 20903 10190 20130 48540 70522 82030
                   333 10/// 20/// 59002 82360=
201410030600 AAXX 03064 67541 31965 60900 10234 20127 48510 70522 86030
                   333 10/// 20/// 59006 86360
                   555 00///=
201410020900 AAXX 02094 67541 NIL=
201410020600 AAXX 02064 67541 31970 00000 10219 20137 48516 70500
                   333 10/// 20/// 5////=
201410011200 AAXX 01124 67541 NIL=
201410010900 AAXX 01094 67541 NIL=
201410010600 AAXX 01064 67541 NIL=

################################################################################
#  SYNOPS from 67543, Kabompo (Zambia) | 13-36S | 024-12E | 1075 m
################################################################################
201410300900 AAXX 30094 67543 NIL=
201410300300 AAXX 30034 67543 NIL=
201410291200 AAXX 29124 67543 NIL=
201410231200 AAXX 23124 67543 NIL=
201410210600 AAXX 21064 67543 NIL=
201410170600 AAXX 17064 67543 NIL=
201410151200 AAXX 15124 67543 NIL=
201410140600 AAXX 14064 67543 NIL=
201410130600 AAXX 13064 67543 NIL=
201410090900 AAXX 09094 67543 NIL=
201410070900 AAXX 07094 67543 NIL=
201410070300 AAXX 07034 67543 NIL=
201410061500 AAXX 06154 67543 NIL=
201410061200 AAXX 06124 67543 NIL=
201410060900 AAXX 06094 67543 NIL=
201410020900 AAXX 02094 67543 NIL=
201410011200 AAXX 01124 67543 NIL=
201410010900 AAXX 01094 67543 NIL=
201410010600 AAXX 01064 67543 NIL=

################################################################################
#  SYNOPS from 67551, Solwezi (Zambia) | 12-11S | 026-23E | 1386 m
################################################################################
201410300900 AAXX 30094 67551 NIL=
201410300300 AAXX 30034 67551 NIL=
201410291200 AAXX 29124 67551 NIL=
201410231200 AAXX 23124 67551 NIL=
201410210600 AAXX 21064 67551 NIL=
201410170600 AAXX 17064 67551 NIL=
201410151200 AAXX 15124 67551 NIL=
201410140600 AAXX 14064 67551 NIL=
201410130600 AAXX 13064 67551 NIL=
201410090900 AAXX 09094 67551 NIL=
201410070900 AAXX 07094 67551 NIL=
201410070300 AAXX 07034 67551 NIL=
201410061500 AAXX 06154 67551 NIL=
201410061200 AAXX 06124 67551 NIL=
201410060900 AAXX 06094 67551 NIL=
201410050600 AAXX 05064 67551 31970 01607 10200 20140 48548 70500 80000
                   333 10312 20180 58028
                   555 00/// 91022=
201410030600 AAXX 03064 67551 31965 00000 10188 20153 48523 70500
                   333 10340 20164 58002
                   555 00/// 91019=
201410020900 AAXX 02094 67551 NIL=
201410020600 AAXX 02064 67551 31965 02705 10206 20158 48518 70500
                   333 10347 20185 59005 91019=
201410011200 AAXX 01124 67551 NIL=
201410010900 AAXX 01094 67551 NIL=
201410010600 AAXX 01064 67551 NIL=

################################################################################
#  SYNOPS from 67561, Ndola (Zambia) | 13-00S | 028-39E | 1269 m
################################################################################
201410300900 AAXX 30094 67561 NIL=
201410300300 AAXX 30034 67561 41960 00000 10180 20104 48499 70500
                   333 59012 91017=
201410291200 AAXX 29124 67561 NIL=
201410280300 AAXX 28034 67561 41959 21004 10177 20123 48519 70400 82030
                   333 59004 82360 91019=
201410240600 AAXX 24064 67561 31959 10226 20075 48532 70400 80002
                   333 10275 20055 59009 83080
                   555 00/// 91020=
201410231200 AAXX 23124 67561 41975 10406 10326 20025 48509 70500 81100
                   333 59012 81859 555 66/// 77116 8831/ 98040
                   91017=
201410230600 AAXX 23064 67561 31960 00705 10229 20060 48541 70500
                   333 10324 20150 59014
                   555 00/// 91021=
201410220600 AAXX 22064 67561 31959 00000 10225 20043 48554 70400
                   333 10327 20155 58013
                   555 00/// 91023=
201410210900 AAXX 21094 67561 41760 51105 10295 20093 48533 70522 81108
                   333 58008 81856 85280 91021=
201410210600 AAXX 21064 67561 31959 40707 10226 20132 48542 70411 80001
                   333 10334 20152 58006 84080
                   555 91021=
201410201200 AAXX 20124 67561 41875 51604 10321 20031 48499 70522 83202
                   333 58003 83857 84080 91016=
201410200900 AAXX 20094 67561 41760 40807 10293 20099 48533 70511 82108
                   333 58002 82850 82280 91020=
201410190600 AAXX 19064 67561 31960 03005 10230 20177 48532 70522 85030
                   333 10235 20113 58008 85030
                   555 00/// 91020=
201410180600 AAXX 18064 67561 11959 70000 10203 20177 48521 60034 70422 86038
                   333 10310 20185 58009 86360 87280
                   555 00/// 20003 91019=
201410170600 AAXX 17064 67561 41760 70000 10206 20160 48508 70522 81970
                   333 10365 20186 58007 81959 82657 87760
                   555 00/// 91018=
201410161200 AAXX 16124 67561 41858 43004 10/// 20/// 48475 70411 84100
                   333 59020 84858 91012=
201410160600 AAXX 16064 67561 31958 00000 10235 20148 48508 70400
                   333 10358 20181 59012
                   555 00/// 91018=
201410151200 AAXX 15124 67561 41860 53103 10356 20114 48489 70511 84200
                   333 59009 85857 555 66/// 77107 8838/ 98039
                   91014=
201410141200 AAXX 14124 67561 41960 31004 10351 20121 48498 70511 83200
                   333 59019 83858 91015=
201410140900 AAXX 14094 67561 41759 10806 10321 20106 48527 70400 81100
                   333 50014 81850 91019=
201410140600 AAXX 14064 67561 31957 00706 10244 20110 48531 70400
                   333 10330 20160 50010
                   555 00/// 91020=
201410130600 AAXX 13064 67561 31959 00808 10246 20120 48541 70400
                   333 10334 20166 59007
                   555 00/// 91021=
201410100600 AAXX 10064 67561 31958 40000 10218 20138 48516 70411 81032
                   333 10338 20168 59004 81360 84080
                   555 00/// 91019=
201410090900 AAXX 09094 67561 41957 30608 10290 20096 48515 70411
                   333 59004 83360=
201410090600 AAXX 09064 67561 31950 7//// 10218 20112 48509 70411 87030
                   333 10330 20190 59011 87360 91018=
201410081200 AAXX 08124 67561 41860 70000 10326 20081 48487 70522 85238
                   333 59015 85257 81362 85280 91015=
201410080600 AAXX 08064 67561 31958 10605 10218 20098 48523 70400 81030
                   333 10323 20145 59025 81360
                   555 00/// 91019=
201410070900 AAXX 07094 67561 41960 20000 10268 20079 48541 70511 80001
                   333 59009 82080 91021=
201410070600 AAXX 07064 67561 31960 60804 10206 20074 48547 70522 80008
                   333 10285 20134 59009 86280 91022=
201410070300 AAXX 07034 67561 41960 00000 10153 20086 48524 70500
                   333 59017 555 91020=
201410061500 AAXX 06154 67561 NIL=
201410061200 AAXX 06124 67561 41770 61404 10276 20096 48532 70522 81108
                   333 58012 82856 86280
                   555 66/// 77094 8856/ 98046=
201410060900 AAXX 06094 67561 NIL=
201410031200 AAXX 03124 67561 41858 10000 10325 20126 48487 70400 81100
                   333 58000 81857 91015=
201410030600 AAXX 03064 67561 41950 20000 10190 20102 48497 70400 82030
                   333 58004 82360 91017=
201410021200 AAXX 02124 67561 41958 60705 10336 20096 48493 70422 81038
                   333 50003 84360 85280 91015=
201410020900 AAXX 02094 67561 41958 60710 10305 20087 48520 70422 82038
                   333 58000 82360 86280 91018=
201410020600 AAXX 02064 67561 31954 80000 10205 20103 48523 70422 8807/
                   333 10250 20183 58000 88459 91020=
201410011200 AAXX 01124 67561 41958 10338 10/// 20072 48498 70400
                   333 58001 91015=
201410010900 AAXX 01094 67561 NIL=
201410010600 AAXX 01064 67561 42930 00000 10204 20078 48518 70400
                   333 10346 20127 59003
                   555 00/// 91019=

################################################################################
#  SYNOPS from 67563, Kafironda (Zambia) | 12-36S | 028-07E | 1243 m
################################################################################
201410300900 AAXX 30094 67563 NIL=
201410300300 AAXX 30034 67563 NIL=
201410291200 AAXX 29124 67563 NIL=
201410231200 AAXX 23124 67563 NIL=
201410210600 AAXX 21064 67563 NIL=
201410170600 AAXX 17064 67563 NIL=
201410151200 AAXX 15124 67563 NIL=
201410140600 AAXX 14064 67563 NIL=
201410130600 AAXX 13064 67563 NIL=
201410090900 AAXX 09094 67563 NIL=
201410070900 AAXX 07094 67563 NIL=
201410070300 AAXX 07034 67563 NIL=
201410061500 AAXX 06154 67563 NIL=
201410061200 AAXX 06124 67563 NIL=
201410060900 AAXX 06094 67563 NIL=
201410020900 AAXX 02094 67563 NIL=
201410011200 AAXX 01124 67563 NIL=
201410010900 AAXX 01094 67563 NIL=
201410010600 AAXX 01064 67563 NIL=

################################################################################
#  SYNOPS from 67571, Serenje (Zambia) | 13-14S | 030-13E | 1384 m
################################################################################
201410310600 AAXX 31064 67571 32679 70904 10244 20109 48513 70522 81508
                   333 10318 20165 58005 81630 87280
                   555 00/// 20000=
201410300900 AAXX 30094 67571 42780 20604 10285 20098 48505 70500 82200
                   333 59009 82850=
201410300300 AAXX 30034 67571 NIL=
201410291200 AAXX 29124 67571 42780 41204 10288 20082 48485 70500 84200
                   333 59014 81956 84856=
201410231200 AAXX 23124 67571 42980 01206 10307 21012 48517 70500
                   333 59003=
201410210600 AAXX 21064 67571 32979 10904 10243 20099 48534 70500 80001
                   333 10303 20170 58001 81080
                   555 00/// 20000=
201410200600 AAXX 20064 67571 32979 10903 10231 20143 48533 70500 81030
                   333 10299 20154 58023 81360=
201410171200 AAXX 17124 67571 42680 73006 10296 20114 48485 70522 81238
                   333 58021 81844 81360 87280=
201410170600 AAXX 17064 67571 12980 73005 10232 20158 48503 69904 70522 81038
                   333 10354 20191 59003 81360 87280
                   555 00///=
201410160600 AAXX 16064 67571 31975 03402 10224 20100 48503 70500
                   333 10332 20175 59015=
201410151200 AAXX 15124 67571 NIL=
201410140600 AAXX 14064 67571 NIL=
201410131200 AAXX 13124 67571 42776 61205 10313 20098 48506 86500
                   333 59010 86656=
201410130600 AAXX 13064 67571 32978 01203 10242 20119 48544 70500
                   333 10320 20166 59013
                   555 00///=
201410100600 AAXX 10064 67571 32978 62702 10235 20138 48513 70522 86030
                   333 10316 20164 58004 86360
                   555 00///=
201410090900 AAXX 09094 67571 42978 73603 10271 20116 48515 70522 86038
                   333 58002 86360 87281=
201410090600 AAXX 09064 67571 32978 71802 10226 20112 48523 70522 8703/
                   333 10340 20176 59005 87360
                   555 00///=
201410080600 AAXX 08064 67571 31970 71202 10234 20091 48523 70522 81038
                   333 10305 20178 59025 81360 87281
                   555 00///=
201410070900 AAXX 07094 67571 NIL=
201410070600 AAXX 07064 67571 32978 71203 10193 20051 48551 70522 80008
                   333 10250 20147 59014 87281=
201410070300 AAXX 07034 67571 NIL=
201410061500 AAXX 06154 67571 NIL=
201410061200 AAXX 06124 67571 42676 71204 10235 20094 48534 70522 81108
                   333 58007 81834 87281=
201410060900 AAXX 06094 67571 41670 70905 10206 20094 48562 70522 81508
                   333 58008 81630 87280=
201410060600 AAXX 06064 67571 31970 71211 10167 20086 48560 70522 80008
                   333 10273 20134 58002 87280=
201410031200 AAXX 03124 67571 42676 11203 10305 20130 48485 70500 81200
                   333 58000 81845=
201410030600 AAXX 03064 67571 32976 00905 10191 20147 48521 70500
                   333 10317 20166 58006
                   555 00///=
201410020900 AAXX 02094 67571 NIL=
201410020600 AAXX 02064 67571 32979 70904 10253 20062 48524 70500 8703/
                   333 10344 20164 59014 87360=
201410011200 AAXX 01124 67571 42980 05004 10330 20022 48486 70500
                   333 59004=
201410010900 AAXX 01094 67571 42980 01203 10315 20062 48507 70500
                   333 59009=
201410010600 AAXX 01064 67571 32980 00000 10227 20094 48513 70500
                   333 10328 20137 59006
                   555 00///=

################################################################################
#  SYNOPS from 67575, Mkushi (Zambia) | 13-38S | 029-53E | 1237 m
################################################################################
201410310600 AAXX 31064 67575 31970 21203 10249 20091 48/// 70500 82031
                   333 10330 20182 5//// 82360 81080
                   555 00/// 20000=
201410300900 AAXX 30094 67575 NIL=
201410300300 AAXX 30034 67575 NIL=
201410291200 AAXX 29124 67575 NIL=
201410280600 AAXX 28064 67575 41970 10802 10215 20106 48/// 70500 80001
                   333 10310 20164 5//// 81080
                   555 00/// 20000=
201410231200 AAXX 23124 67575 NIL=
201410220600 AAXX 22064 67575 31970 01205 10220 20062 48/// 70500
                   333 10320 20161 5////
                   555 00/// 20000=
201410210600 AAXX 21064 67575 31970 10903 10240 20103 48/// 70500 80001
                   333 10325 20185 5//// 81080
                   555 00/// 20000=
201410200600 AAXX 20064 67575 31965 10603 10236 20139 48/// 80001
                   333 10320 20166 5//// 81080
                   555 00/// 20000=
201410170600 AAXX 17064 67575 NIL=
201410160600 AAXX 16064 67575 31965 00602 10252 20098 48/// 70500
                   333 10355 20151 5////
                   555 00/// 20000=
201410151200 AAXX 15124 67575 NIL=
201410140600 AAXX 14064 67575 32975 00000 10247 20100 48/// 69994 70500
                   333 10330 20170 5////
                   555 00///=
201410130600 AAXX 13064 67575 NIL=
201410100600 AAXX 10064 67575 32975 00402 10245 20104 48/// 69994 70500
                   333 10350 20150 5////
                   555 00///=
201410090900 AAXX 09094 67575 NIL=
201410090600 AAXX 09064 67575 32975 70000 10232 20087 48/// 69994 70500 87030
                   333 10342 20180 5//// 87360
                   555 00///=
201410080600 AAXX 08064 67575 32975 00902 10233 20068 48/// 69994 70500
                   333 10330 20160 5////
                   555 00///=
201410070900 AAXX 07094 67575 NIL=
201410070600 AAXX 07064 67575 32975 20902 10204 20050 48/// 70500 80001
                   333 10270 20140 5//// 82080=
201410070300 AAXX 07034 67575 NIL=
201410061500 AAXX 06154 67575 NIL=
201410061200 AAXX 06124 67575 NIL=
201410060900 AAXX 06094 67575 NIL=
201410060600 AAXX 06064 67575 32975 21604 10170 20076 48/// 69994 70500 80001
                   333 10270 20150 5//// 82080=
201410020900 AAXX 02094 67575 NIL=
201410020600 AAXX 02064 67575 31975 80603 10236 20071 48/// 69994 70522 88030
                   333 10350 20175 5//// 88360=
201410011200 AAXX 01124 67575 NIL=
201410010900 AAXX 01094 67575 NIL=
201410010600 AAXX 01064 67575 31975 00000 10210 20072 48/// 70500
                   333 10340 20120 5////=

################################################################################
#  SYNOPS from 67580, Msekera (Zambia) | 13-39S | 032-34E | 1025 m
################################################################################
201410310600 AAXX 31064 67580 31980 20904 10289 20130 48/// 70500 80001
                   333 10346 20/// 59001 82080
                   555 00/// 20000=
201410300900 AAXX 30094 67580 41780 41002 10322 48/// 70500 84100
                   333 59013 84856=
201410300300 AAXX 30034 67580 NIL=
201410291200 AAXX 29124 67580 41880 61604 10314 20107 48/// 70522 86200
                   333 59016 86857=
201410231200 AAXX 23124 67580 NIL=
201410220600 AAXX 22064 67580 31980 01007 10239 20095 48/// 70500
                   333 10335 20/// 58013
                   555 00/// 20000=
201410210600 AAXX 21064 67580 31975 01003 10260 20105 48/// 70500
                   333 10343 20/// 58011
                   555 00/// 20000=
201410200600 AAXX 20064 67580 31980 10000 10258 20136 48/// 70500 81030
                   333 10304 20/// 58007 81362
                   555 00/// 20000=
201410170600 AAXX 17064 67580 31970 40303 10280 20136 48/// 70522 84030
                   333 10364 20/// 58001 84360
                   555 00/// 20000=
201410151200 AAXX 15124 67580 41870 51203 10350 20140 48/// 70510 85200
                   333 5//// 85857=
201410140600 AAXX 14064 67580 31975 00903 10298 20139 48/// 70510
                   333 10352 20/// 59013
                   555 00/// 20000=
201410130600 AAXX 13064 67580 31975 00903 10285 20134 48/// 70500
                   333 10350 20/// 59016
                   555 00///=
201410100600 AAXX 10064 67580 31975 60904 10302 20130 48/// 70522 80008
                   333 10381 20/// 5//// 86281
                   555 00/// 20000=
201410090900 AAXX 09094 67580 41975 10903 10347 20133 48/// 70500 81032
                   333 59019 81362 81080=
201410090600 AAXX 09064 67580 31975 30904 10288 20140 48/// 70510 83032
                   333 10369 20/// 5//// 83361 81080
                   555 00/// 20000=
201410080600 AAXX 08064 67580 31975 01104 10276 20111 48/// 70500
                   333 10335 20/// 59031
                   555 00///=
201410070900 AAXX 07094 67580 41975 60602 10295 20101 48/// 70522 80008
                   333 59022 86280=
201410070600 AAXX 07064 67580 31975 71503 10220 20087 48/// 70522 80008
                   333 10311 20/// 59021 87280=
201410070300 AAXX 07034 67580 NIL=
201410061500 AAXX 06154 67580 NIL=
201410061200 AAXX 06124 67580 41875 72006 10297 20100 48/// 70522 81108
                   333 59003 59003 81857 87280=
201410060900 AAXX 06094 67580 41975 61605 10257 20122 48/// 70522 80008
                   333 59002 86280=
201410060600 AAXX 06064 67580 31975 71604 10204 20105 48/// 70522 80008
                   333 10287 20/// 58006 87280=
201410020900 AAXX 02094 67580 41970 31004 10320 20118 48/// 70500 80001
                   333 58013 83080=
201410020600 AAXX 02064 67580 31970 11203 10269 20110 48/// 70500 80001
                   333 10367 20/// 58019 81080=
201410011200 AAXX 01124 67580 41975 00903 10357 20129 48/// 70500
                   333 59013=
201410010900 AAXX 01094 67580 41975 00000 10327 20092 48/// 70500
                   333 59016=
201410010600 AAXX 01064 67580 41975 00903 10290 20107 48/// 70500
                   333 10347 20/// 59012=

################################################################################
#  SYNOPS from 67581, Chipata (Zambia) | 13-33S | 032-35E | 1028 m
################################################################################
201410310600 AAXX 31064 67581 31970 20806 10277 20121 48540 70500 80001
                   333 10333 20211 59001 82080
                   555 00201 91018=
201410300900 AAXX 30094 67581 NIL=
201410300300 AAXX 30034 67581 NIL=
201410291200 AAXX 29124 67581 NIL=
201410231200 AAXX 23124 67581 41570 10000 10331 20091 48530 70500 81100
                   333 59016 81835 91016=
201410220600 AAXX 22064 67581 31960 01505 10238 20096 48574 70500
                   333 10332 20159 58013
                   555 00144 91023=
201410210600 AAXX 21064 67581 31960 01904 10249 20106 48565 70500
                   333 10325 20148 58011
                   555 00153 91022=
201410170600 AAXX 17064 67581 31960 41605 10274 20132 48512 70522 84030
                   333 10375 20214 59011 84360
                   555 00216 91015=
201410151200 AAXX 15124 67581 41670 33602 10344 20114 48509 70500 83100
                   333 59007 83840 91013=
201410140600 AAXX 14064 67581 31960 20502 10293 20112 48549 70500 80002
                   333 10349 20184 59015 82080
                   555 00185=
201410130600 AAXX 13064 67581 31960 01806 10284 20112 48561 70500
                   333 10340 20199 59014
                   555 00196 91021=
201410090900 AAXX 09094 67581 NIL=
201410090600 AAXX 09064 67581 31960 21610 10267 20141 48/// 70500 82030
                   333 10360 20186 58/// 82360
                   555 00226=
201410070900 AAXX 07094 67581 NIL=
201410070600 AAXX 07064 67581 31970 41503 10227 20083 48564 70500 80001
                   333 10307 20150 59019 84080
                   555 00150 91022=
201410070300 AAXX 07034 67581 NIL=
201410061500 AAXX 06154 67581 NIL=
201410061200 AAXX 06124 67581 41960 60903 10299 20071 48551 70522 80002
                   333 59001 86080 91019=
201410060900 AAXX 06094 67581 41960 61205 10266 20102 48577 70522 80002
                   333 58000 86080 91023=
201410060600 AAXX 06064 67581 31960 61610 10200 20098 48576 70522 80002
                   333 10295 20295 58005 86080
                   555 00140 91024=
201410030600 AAXX 03064 67581 31960 09003 10242 20152 48550 70500
                   333 10360 20175 58003
                   555 00175 91019=
201410020900 AAXX 02094 67581 NIL=
201410020600 AAXX 02064 67581 31970 01604 10262 20109 48551 70500
                   333 10360 20207 58017
                   555 00202 91012=
201410011200 AAXX 01124 67581 NIL=
201410010900 AAXX 01094 67581 NIL=
201410010600 AAXX 01064 67581 NIL=

################################################################################
#  SYNOPS from 67583, Lundazi (Zambia) | 12-17S | 033-12E | 1143 m
################################################################################
201410300900 AAXX 30094 67583 NIL=
201410300300 AAXX 30034 67583 NIL=
201410291200 AAXX 29124 67583 NIL=
201410231200 AAXX 23124 67583 NIL=
201410210600 AAXX 21064 67583 NIL=
201410170600 AAXX 17064 67583 NIL=
201410151200 AAXX 15124 67583 NIL=
201410140600 AAXX 14064 67583 NIL=
201410130600 AAXX 13064 67583 NIL=
201410090900 AAXX 09094 67583 NIL=
201410090600 AAXX 09064 67583 31978 01303 10285 20151 70500
                   333 10375 20/// 58009
                   555 00///=
201410080600 AAXX 08064 67583 31975 11501 10270 20115 70500 80001
                   333 10336 20/// 58026 81080
                   555 00///=
201410070900 AAXX 07094 67583 NIL=
201410070300 AAXX 07034 67583 NIL=
201410061500 AAXX 06154 67583 NIL=
201410061200 AAXX 06124 67583 NIL=
201410060900 AAXX 06094 67583 NIL=
201410020900 AAXX 02094 67583 NIL=
201410011200 AAXX 01124 67583 NIL=
201410010900 AAXX 01094 67583 NIL=
201410010600 AAXX 01064 67583 NIL=

################################################################################
#  SYNOPS from 67599, Mfuwe (Zambia) | 13-16S | 031-56E | 568 m
################################################################################
201410310600 AAXX 31064 67599 32980 00705 10300 20153 48542
                   333 10399 20190 59004
                   555 00190 91016=
201410300900 AAXX 30094 67599 NIL=
201410300600 AAXX 30064 67599 32980 00908 10290 20159 48542
                   333 10385 20210 59015
                   555 00205 91016=
201410300300 AAXX 30034 67599 NIL=
201410291200 AAXX 29124 67599 NIL=
201410280600 AAXX 28064 67599 32980 01806 10245 20164 48557 70520
                   333 10368 20202 59008
                   555 00195 91019=
201410231200 AAXX 23124 67599 NIL=
201410230600 AAXX 23064 67599 32980 00000 10260 20120 48556
                   333 10368 20155 59020
                   555 00135 91019=
201410220600 AAXX 22064 67599 32980 01804 10266 20115 48577 70200
                   333 10382 20158 58015
                   555 00145 91021=
201410210600 AAXX 21064 67599 32980 00904 10275 20168 48563
                   333 10380 20185 58008
                   555 00175 91019=
201410200600 AAXX 20064 67599 11680 10903 10265 20192 48553 60054 81100
                   333 10360 20200 58003 81830
                   555 00194 91018=
201410170600 AAXX 17064 67599 NIL=
201410151200 AAXX 15124 67599 NIL=
201410140600 AAXX 14064 67599 31957 00000 10295 20136 48545 70500
                   333 10392 20200 59010
                   555 00175 91016=
201410130600 AAXX 13064 67599 32980 00908 10303 20159 48557
                   333 10385 20202 59015
                   555 00194 91018=
201410090900 AAXX 09094 67599 NIL=
201410090600 AAXX 09064 67599 31959 40907 10298 20146 48537 70522 84030
                   333 10400 20220 59020 84360
                   555 00205 91015=
201410080600 AAXX 08064 67599 31959 00907 10273 20121 48544 70500
                   333 10368 20160 59037
                   555 00150 91017=
201410070900 AAXX 07094 67599 NIL=
201410070600 AAXX 07064 67599 32680 60000 10232 20090 48564 80001
                   333 10352 20139 59021 86080
                   555 00134 91021=
201410070300 AAXX 07034 67599 NIL=
201410061500 AAXX 06154 67599 NIL=
201410061200 AAXX 06124 67599 NIL=
201410060900 AAXX 06094 67599 NIL=
201410060600 AAXX 06064 67599 32680 71806 10233 20114 48593 80001
                   333 10338 20156 58009 87080
                   555 00101 91023=
201410030600 AAXX 03064 67599 31956 01803 10245 20171 48549 70544
                   333 10391 20190 58010
                   555 00185 91018=
201410020900 AAXX 02094 67599 NIL=
201410020600 AAXX 02064 67599 31950 01804 10275 20119 48547 70500
                   333 10400 20180 58016
                   555 00175 91017=
201410011200 AAXX 01124 67599 NIL=
201410010900 AAXX 01094 67599 NIL=
201410010600 AAXX 01064 67599 31956 00000 10272 20117 48533 70544
                   333 10386 20162 59010
                   555 00148 91016=

################################################################################
#  SYNOPS from 67625, Kalabo (Zambia) | 14-51S | 022-42E | 1033 m
################################################################################
201410300900 AAXX 30094 67625 NIL=
201410300300 AAXX 30034 67625 NIL=
201410291200 AAXX 29124 67625 NIL=
201410231200 AAXX 23124 67625 NIL=
201410210600 AAXX 21064 67625 NIL=
201410170600 AAXX 17064 67625 32982 20505 10250 20163 48/// 82030
                   333 10340 20224 58009 82360
                   555 00///=
201410160600 AAXX 16064 67625 32982 00603 10242 20158 48/// 80000
                   333 10385 20185 58000
                   555 00/// 20000=
201410151200 AAXX 15124 67625 42682 10704 10382 20124 48/// 81100
                   333 59013 81845=
201410140600 AAXX 14064 67625 32982 00904 10210 20166 48/// 80000
                   333 10384 20195 59010
                   555 00/// 20000=
201410131200 AAXX 13124 67625 42682 20902 10369 20124 48/// 82100
                   333 82835=
201410130600 AAXX 13064 67625 32982 00904 10253 20140 48/// 80000
                   333 10376 20142 58000
                   555 00/// 20000=
201410100600 AAXX 10064 67625 32982 30705 10246 20187 48/// 83030
                   333 10370 20190 59003
                   555 00/// 20000=
201410090900 AAXX 09094 67625 32982 00604 10338 20148 48/// 80000
                   333 58017=
201410090600 AAXX 09064 67625 32982 00902 10215 20152 48/// 80000
                   333 10354 20150 58010
                   555 00/// 20000=
201410071200 AAXX 07124 67625 32682 70904 10316 20122 48/// 81103
                   333 59017 81830 87075=
201410070900 AAXX 07094 67625 32982 70908 10284 20127 48/// 87003
                   333 59009 87075=
201410070600 AAXX 07064 67625 32982 71005 10208 20101 48/// 81033
                   333 10326 20162 59013 81360 86075=
201410070300 AAXX 07034 67625 NIL=
201410061500 AAXX 06154 67625 NIL=
201410061200 AAXX 06124 67625 32982 60910 10319 20104 48/// 86003
                   333 86075=
201410060900 AAXX 06094 67625 42982 60710 10279 20128 48/// 86003
                   333 86075=
201410060600 AAXX 06064 67625 32982 70910 10189 20143 48/// 87003
                   333 10314 20200 58008 87075=
201410031200 AAXX 03124 67625 32982 70704 10381 20077 48/// 87003
                   333 59027 87075=
201410030600 AAXX 03064 67625 32982 40804 10234 20091 48/// 84003
                   333 10396 20155 59014 84075
                   555 00/// 20000=
201410020900 AAXX 02094 67625 42982 11605 10318 20042 48/// 81003
                   333 5//// 81075=
201410020600 AAXX 02064 67625 32982 51004 10239 20037 48/// 82033
                   333 10380 20163 59021 82361 83075=
201410011200 AAXX 01124 67625 NIL=
201410010900 AAXX 01094 67625 NIL=
201410010600 AAXX 01064 67625 NIL=

################################################################################
#  SYNOPS from 67633, Mongu (Zambia) | 15-15S | 023-09E | 1052 m
################################################################################
201410310600 AAXX 31064 67633 32980 40805 10272 20132 48514 82032
                   333 10379 20212 58014 82360 84080 91016=
201410300900 AAXX 30094 67633 NIL=
201410300600 AAXX 30064 67633 32980 00907 10266 20116 48505
                   333 10367 20205 59012 91015=
201410300300 AAXX 30034 67633 NIL=
201410291200 AAXX 29124 67633 NIL=
201410290600 AAXX 29064 67633 32980 20607 10252 20141 48516 70200 80001
                   333 10360 20185 59017 82080 91017=
201410280600 AAXX 28064 67633 32980 30906 10255 20145 48530 70200 83030
                   333 10375 20176 58027 83360 91019=
201410270600 AAXX 27064 67633 12980 71212 10238 20161 48525 60014 70222 86032
                   333 10375 20208 58021 86360 84080 91011=
201410231200 AAXX 23124 67633 NIL=
201410230600 AAXX 23064 67633 32980 00904 10255 20063 48532 70200
                   333 10375 20187 59017 91019=
201410220600 AAXX 22064 67633 32980 03602 10240 20077 48539 70400
                   333 10354 20172 58017 91020=
201410210600 AAXX 21064 67633 12980 20804 10244 20163 48529 69904 70200 82031
                   333 10354 20179 58011 82360 81080 91019=
201410200600 AAXX 20064 67633 32980 23602 10245 20163 48520 70200 80303
                   333 10375 20189 59001 82360=
201410170600 AAXX 17064 67633 12980 30902 10240 20157 48514 60084 70111 83030
                   333 10385 20196 58012 83360 91017=
201410160600 AAXX 16064 67633 32980 03404 10250 20150 48501 70200
                   333 10385 20201 59002 91015=
201410151200 AAXX 15124 67633 NIL=
201410150600 AAXX 15064 67633 32980 13604 10245 20119 48505 70200 81030
                   333 10395 20205 59007 81361 91016=
201410141200 AAXX 14124 67633 42780 20602 10380 20089 48499 70200 82100
                   333 59009 82850 91013=
201410140600 AAXX 14064 67633 12980 20903 10270 20122 48515 60014 70200 82030
                   333 10375 20200 59009 82360 91016=
201410130600 AAXX 13064 67633 NIL=
201410090900 AAXX 09094 67633 NIL=
201410090600 AAXX 09064 67633 32980 33604 10240 20150 48503 70200 83030
                   333 10307 20171 59006 83361 91015=
201410080600 AAXX 08064 67633 32980 10903 10245 20100 48509 70200 81031
                   333 10335 20180 59047 81360 81080=
201410071200 AAXX 07124 67633 42980 52703 10317 20115 48522 70222 80002
                   333 59020 85280 91016=
201410070900 AAXX 07094 67633 42980 60906 10292 20106 48537 70222 80002
                   333 59016 86380 91019=
201410070600 AAXX 07064 67633 32980 70908 10216 20093 48545 82038
                   333 10320 20167 59003 82362 87280 91021=
201410070300 AAXX 07034 67633 NIL=
201410061500 AAXX 06154 67633 NIL=
201410061200 AAXX 06124 67633 NIL=
201410060900 AAXX 06094 67633 NIL=
201410060600 AAXX 06064 67633 32980 50908 10208 20121 48552 70222 85032
                   333 10306 20171 58028 83361 82280 91022=
201410030600 AAXX 03064 67633 32980 00904 10248 20117 48507 70200
                   333 10380 20194 59010
                   555 00/// 91016=
201410021200 AAXX 02124 67633 42780 41805 10365 20038 48500 70222 83201
                   333 59006 83850 82080 91013=
201410020900 AAXX 02094 67633 42980 31505 10346 20022 48525 70200 81031
                   333 59004 81360 82080 91016=
201410020600 AAXX 02064 67633 32980 41203 10257 21038 48519 70222 84030
                   333 10379 20213 58002 84360 91017=
201410011200 AAXX 01124 67633 42980 61303 10362 20106 48498 86008
                   333 58010 86280 91014=
201410010900 AAXX 01094 67633 42980 00905 10327 20078 48523
                   333 58005 91017=
201410010600 AAXX 01064 67633 32980 01810 10253 20023 48511
                   333 10385 20177 58001 91017=

################################################################################
#  SYNOPS from 67641, Kaoma (Zambia) | 14-48S | 024-48E | 1213 m
################################################################################
201410310600 AAXX 31064 67641 32980 40402 10245 20110 48502 82031
                   333 10371 20186 58003 82360 82080 91015=
201410300900 AAXX 30094 67641 NIL=
201410300300 AAXX 30034 67641 NIL=
201410291200 AAXX 29124 67641 NIL=
201410280600 AAXX 28064 67641 31980 01101 10211 20147 48509
                   333 10376 20150 59031
                   555 00/// 91017=
201410231200 AAXX 23124 67641 NIL=
201410210600 AAXX 21064 67641 31980 41101 10246 20114 48523 84020
                   333 10356 20180 58015 84360 91018=
201410200600 AAXX 20064 67641 31980 10000 10241 20154 48483 81030
                   333 10362 20200 58006 81360 91014=
201410170600 AAXX 17064 67641 12980 70102 10206 20175 48496 69974 87030
                   333 10370 20199 58012 87360 91015=
201410160600 AAXX 16064 67641 31975 02302 10240 20137 48483 70500
                   333 10387 20194 59009
                   555 00/// 91014=
201410151200 AAXX 15124 67641 NIL=
201410150600 AAXX 15064 67641 31975 00000 10235 20178 48493 70500
                   333 10380 20182 59012
                   555 00/// 91015=
201410140600 AAXX 14064 67641 31975 00000 10231 20132 48503 70500
                   333 10364 20164 59014 91016=
201410130600 AAXX 13064 67641 NIL=
201410100600 AAXX 10064 67641 31975 00000 10236 20166 48482 70500
                   333 10345 20202 59004 91014=
201410090900 AAXX 09094 67641 NIL=
201410090600 AAXX 09064 67641 31975 00000 10210 20155 48480 70500
                   333 10355 20150 59020 91014=
201410080600 AAXX 08064 67641 31975 10000 10195 20132 48498 70500 81030
                   333 10329 20149 59025 81360 91016=
201410070900 AAXX 07094 67641 NIL=
201410070600 AAXX 07064 67641 31975 40904 10195 20095 48531 70500 80001
                   333 10304 20153 59016 84080 91020=
201410070300 AAXX 07034 67641 NIL=
201410061500 AAXX 06154 67641 NIL=
201410061200 AAXX 06124 67641 NIL=
201410060900 AAXX 06094 67641 NIL=
201410060600 AAXX 06064 67641 11975 40902 10175 20124 48542 69964 70500 80001
                   333 10227 20149 58004 84080 91022=
201410020900 AAXX 02094 67641 NIL=
201410020600 AAXX 02064 67641 31975 00000 10207 20090 48508 70500
                   333 10370 20156 58001 91017=
201410011200 AAXX 01124 67641 NIL=
201410010900 AAXX 01094 67641 NIL=
201410010600 AAXX 01064 67641 NIL=

################################################################################
#  SYNOPS from 67655, Mumbwa (Zambia) | 15-04S | 027-11E | 1216 m
################################################################################
201410300900 AAXX 30094 67655 NIL=
201410300300 AAXX 30034 67655 NIL=
201410291200 AAXX 29124 67655 NIL=
201410231200 AAXX 23124 67655 NIL=
201410210600 AAXX 21064 67655 NIL=
201410200600 AAXX 20064 67655 32980 00408 10250 48551
                   333 10335 20/// 59001 91021=
201410170600 AAXX 17064 67655 NIL=
201410151200 AAXX 15124 67655 NIL=
201410140600 AAXX 14064 67655 NIL=
201410130600 AAXX 13064 67655 NIL=
201410090900 AAXX 09094 67655 NIL=
201410070900 AAXX 07094 67655 NIL=
201410070300 AAXX 07034 67655 NIL=
201410061500 AAXX 06154 67655 NIL=
201410061200 AAXX 06124 67655 NIL=
201410060900 AAXX 06094 67655 NIL=
201410020900 AAXX 02094 67655 NIL=
201410011200 AAXX 01124 67655 NIL=
201410010900 AAXX 01094 67655 NIL=
201410010600 AAXX 01064 67655 NIL=

################################################################################
#  SYNOPS from 67659, Kafue Polder (Zambia) | 15-46S | 027-55E | 978 m
################################################################################
201410300900 AAXX 30094 67659 NIL=
201410300300 AAXX 30034 67659 NIL=
201410291200 AAXX 29124 67659 NIL=
201410231200 AAXX 23124 67659 NIL=
201410210600 AAXX 21064 67659 NIL=
201410170600 AAXX 17064 67659 NIL=
201410151200 AAXX 15124 67659 NIL=
201410140600 AAXX 14064 67659 NIL=
201410130600 AAXX 13064 67659 NIL=
201410090900 AAXX 09094 67659 NIL=
201410070900 AAXX 07094 67659 NIL=
201410070300 AAXX 07034 67659 NIL=
201410061500 AAXX 06154 67659 NIL=
201410061200 AAXX 06124 67659 NIL=
201410060900 AAXX 06094 67659 NIL=
201410020900 AAXX 02094 67659 NIL=
201410011200 AAXX 01124 67659 NIL=
201410010900 AAXX 01094 67659 NIL=
201410010600 AAXX 01064 67659 NIL=

################################################################################
#  SYNOPS from 67662, Kabwe Agric (Zambia) | 14-24S | 028-30E | 1165 m
################################################################################
201410300900 AAXX 30094 67662 NIL=
201410300300 AAXX 30034 67662 NIL=
201410291200 AAXX 29124 67662 NIL=
201410231200 AAXX 23124 67662 NIL=
201410210600 AAXX 21064 67662 NIL=
201410170600 AAXX 17064 67662 NIL=
201410151200 AAXX 15124 67662 NIL=
201410140600 AAXX 14064 67662 NIL=
201410130600 AAXX 13064 67662 NIL=
201410090900 AAXX 09094 67662 NIL=
201410070900 AAXX 07094 67662 NIL=
201410070300 AAXX 07034 67662 NIL=
201410061500 AAXX 06154 67662 NIL=
201410061200 AAXX 06124 67662 NIL=
201410060900 AAXX 06094 67662 NIL=
201410020900 AAXX 02094 67662 NIL=
201410011200 AAXX 01124 67662 NIL=
201410010900 AAXX 01094 67662 NIL=
201410010600 AAXX 01064 67662 NIL=

################################################################################
#  SYNOPS from 67663, Kabwe (Zambia) | 14-27S | 028-28E | 1206 m
################################################################################
201410310600 AAXX 31064 67663 31970 01107 10260 20092 48530 70500
                   333 10356 20195 58002
                   555 00///=
201410300900 AAXX 30094 67663 NIL=
201410300600 AAXX 30064 67663 31970 01706 10246 20102 48526 70500
                   333 10334 20183 59015
                   555 00///=
201410300300 AAXX 30034 67663 NIL=
201410291200 AAXX 29124 67663 NIL=
201410231200 AAXX 23124 67663 NIL=
201410210600 AAXX 21064 67663 NIL=
201410170600 AAXX 17064 67663 NIL=
201410151200 AAXX 15124 67663 NIL=
201410140600 AAXX 14064 67663 NIL=
201410130600 AAXX 13064 67663 NIL=
201410090900 AAXX 09094 67663 NIL=
201410070900 AAXX 07094 67663 NIL=
201410070300 AAXX 07034 67663 NIL=
201410061500 AAXX 06154 67663 NIL=
201410061200 AAXX 06124 67663 NIL=
201410060900 AAXX 06094 67663 NIL=
201410020900 AAXX 02094 67663 NIL=
201410011200 AAXX 01124 67663 NIL=
201410010900 AAXX 01094 67663 NIL=
201410010600 AAXX 01064 67663 NIL=

################################################################################
#  SYNOPS from 67665, Lusaka Internationalairport (Zambia) | 15-19S | 028-27E | 1152 m
################################################################################
201410310300 AAXX 31034 67665 41960 01002 20048 48503 70500
                   333 5////=
201410302100 AAXX 30214 67665 41960 01002 10218 20106 48509 70500
                   333 59008=
201410301800 AAXX 30184 67665 41960 21004 10246 20101 48513 70500 82030
                   333 59015 82360=
201410301500 AAXX 30154 67665 41760 31005 10310 20115 48495 70500 83200
                   333 59010 83856=
201410301200 AAXX 30124 67665 41660 41209 10325 20115 48506 70500 84200
                   333 59008 84845=
201410300900 AAXX 30094 67665 NIL=
201410300300 AAXX 30034 67665 NIL=
201410291200 AAXX 29124 67665 NIL=
201410290900 AAXX 29094 67665 41960 00812 10277 20103 48547 70500
                   333 59014=
201410290300 AAXX 29034 67665 42980 01402 10151 20065 48515 70200
                   333 5//// 91019=
201410281200 AAXX 28124 67665 42680 21008 10297 20158 48520 70300 82100
                   333 5//// 82840=
201410280900 AAXX 28094 67665 41980 05010 10256 20105 48545 70200
                   333 59010=
201410280300 AAXX 28034 67665 42980 01005 10151 20097 48527 70200
                   333 59012=
201410280000 AAXX 28004 67665 42980 01104 10169 20096 48521 70200
                   333 59007=
201410272100 AAXX 27214 67665 42980 01006 10189 20090 48536 70200
                   333 58003=
201410271200 AAXX 27124 67665 42680 10809 10296 20125 48538 70300 81100
                   333 58028 81840=
201410261500 AAXX 26154 67665 42980 09010 10314 20142 48515
                   333 58022=
201410261200 AAXX 26124 67665 41760 20605 10328 20137 48523 70500
                   333 58021 82150=
201410260300 AAXX 26034 67665 41970 00903 10209 20105 48516 70500
                   333 58006=
201410252100 AAXX 25214 67665 41970 01103 10232 20104 48519 70500
                   333 58006=
201410251500 AAXX 25154 67665 41660 20806 10337 20120 48498 70500 82030
                   333 59004 82360=
201410251200 AAXX 25124 67665 41660 20710 10347 20112 48500 70500 82100
                   333 59008 82845=
201410250900 AAXX 25094 67665 41960 00614 10328 20106 48527 70500
                   333 59013=
201410250600 AAXX 25064 67665 31960 00903 10269 20131 48532 70500
                   333 10354 20//0 59006=
201410250300 AAXX 25034 67665 41960 11004 10178 20064 48507 70500 80001
                   333 59006 81080=
201410242100 AAXX 24214 67665 41959 11103 10214 20089 48510 70500 80001
                   333 59016 81080=
201410241800 AAXX 24184 67665 41960 11003 10261 20097 48506 70500
                   333 59014 81080=
201410241500 AAXX 24154 67665 41760 21003 10323 20128 48499 70500 82102
                   333 59010 82856 81080=
201410241200 AAXX 24124 67665 41660 20804 10339 20119 48511 70500 82102
                   333 59019 82840 81080=
201410240900 AAXX 24094 67665 41960 13308 10310 20103 48537 80001
                   333 59021 81080=
201410240600 AAXX 24064 67665 31970 20406 10249 20136 48534 70500 80001
                   333 10//0 2//// 59025 82080=
201410240300 AAXX 24034 67665 42980 01604 10164 20056 48503 70200
                   333 59017=
201410240000 AAXX 24004 67665 42980 01404 10179 20055 48506 70200
                   333 59020=
201410232100 AAXX 23214 67665 42980 01704 10191 20055 48516 70500
                   333 59016=
201410231800 AAXX 23184 67665 42980 01203 10233 20081 48517
                   333 59024=
201410231200 AAXX 23124 67665 NIL=
201410230900 AAXX 23094 67665 42980 00606 10280 20126 48555
                   333 59018=
201410230600 AAXX 23064 67665 32980 00907 10215 20092 48556 70200
                   333 10321 20//0 59017
                   555 00///=
201410230300 AAXX 23034 67665 42980 01503 10147 20035 48525 70200
                   333 59019 91020=
201410230000 AAXX 23004 67665 42980 01502 10166 20301 48524 70200
                   333 59013=
201410222100 AAXX 22214 67665 42980 01204 10186 20050 48539 70200
                   333 59008 91021=
201410221800 AAXX 22184 67665 42980 00806 10224 20065 48530 70100
                   333 58002=
201410221200 AAXX 22124 67665 42980 13011 10304 20105 48540 70200
                   333 58013=
201410220600 AAXX 22064 67665 32980 01210 10226 20136 48574
                   333 58019=
201410220300 AAXX 22034 67665 42980 00906 10150 20074 48543
                   333 58004=
201410220000 AAXX 22004 67665 42980 01005 10174 20069 48536
                   333 58011=
201410212100 AAXX 21214 67665 42980 01403 10210 20072 48549
                   333 58004=
201410211800 AAXX 21184 67665 42980 01206 10231 20065 48544 70200
                   333 10334 58016=
201410211500 AAXX 21154 67665 42980 00912 10314 20030 48529 70200
                   333 58017 91018=
201410211200 AAXX 21124 67665 42680 10911 10316 20085 48536 70300 81100
                   333 58015 81845=
201410210600 AAXX 21064 67665 NIL=
201410201500 AAXX 20154 67665 42980 11607 10320 20077 48519 81060
                   333 10326 20/// 58009 81360=
201410201200 AAXX 20124 67665 42680 41107 10314 20084 48519 70322 84100
                   333 58004 84845=
201410200000 AAXX 20004 67665 41960 01703 10160 20096 48510 70500
                   333 58003=
201410192100 AAXX 19214 67665 41960 01704 10199 20102 48523 70500
                   333 59003=
201410190900 AAXX 19094 67665 41660 11007 10265 20127 48547 70500 81100
                   333 58022 81830=
201410190600 AAXX 19064 67665 31960 00807 10212 20109 48545 70500
                   333 10220 20//0 58023=
201410190300 AAXX 19034 67665 42980 10904 10154 20077 48520 81030
                   333 58019 81360=
201410182100 AAXX 18214 67665 42980 11003 10195 20101 48524 81030
                   333 58027 81360=
201410181800 AAXX 18184 67665 41960 21007 10237 20092 48514 70500 82030
                   333 10330 58018 82360=
201410181500 AAXX 18154 67665 41660 61208 10295 20091 48497 70522 81102
                   333 58019 81850 81080=
201410180900 AAXX 18094 67665 41960 31007 10292 20106 48528 70500 80002
                   333 58010 83080=
201410180600 AAXX 18064 67665 31959 40806 10257 20168 48525 70502 80001
                   333 10334 2//// 58015 84080
                   555 00///=
201410180300 AAXX 18034 67665 41960 02804 10163 20072 48494 70500
                   333 58026=
201410172100 AAXX 17214 67665 41960 00000 10216 20090 48501 70500
                   333 58025=
201410171500 AAXX 17154 67665 41760 41806 10322 20183 48480 70522 82202
                   333 58019 82856 83080=
201410170900 AAXX 17094 67665 41960 62606 10279 20173 48515 70522 83032
                   333 58021 83360 84080=
201410170600 AAXX 17064 67665 11959 72704 10231 20156 48511 69984 70522 87031
                   333 10361 20/// 58010 87360 81080=
201410170000 AAXX 17004 67665 41760 70905 10219 20118 48571 72996 8193/
                   333 59017 81950 87360=
201410161800 AAXX 16184 67665 41660 22502 10324 20105 48472 71792 81930
                   333 59029 81940 81360=
201410161200 AAXX 16124 67665 41659 13208 10353 20129 48475 70500 81100
                   333 59028=
201410160900 AAXX 16094 67665 41970 03311 10325 20115 48493 70500
                   333 59035=
201410160600 AAXX 16064 67665 31970 30506 10258 20174 48504 70500 83030
                   333 59033 83360=
201410160300 AAXX 16034 67665 41970 01803 10195 20108 48484 70500
                   333 59030=
201410160000 AAXX 16004 67665 41970 01700 10206 20101 48486 70500
                   333 59027=
201410152100 AAXX 15214 67665 41970 01203 10220 20086 48506 70500
                   333 59017=
201410151800 AAXX 15184 67665 41960 01202 10263 20101 48496 70500
                   333 10365 59022=
201410151500 AAXX 15154 67665 41960 00604 10344 20116 48489 70500
                   333 59020=
201410151200 AAXX 15124 67665 NIL=
201410150600 AAXX 15064 67665 31960 01107 10235 20157 48534 70500
                   333 10356 20//0 59005=
201410142100 AAXX 14214 67665 42970 01302 10215 20102 48522 70200
                   333 59004=
201410141800 AAXX 14184 67665 41960 01006 10260 20086 48518 70500
                   333 59010=
201410141500 AAXX 14154 67665 41960 00908 10339 20088 48510 70500
                   333 59011=
201410141200 AAXX 14124 67665 41960 01207 10340 20125 48514 70500
                   333 59013=
201410140600 AAXX 14064 67665 NIL=
201410140300 AAXX 14034 67665 41960 01503 10180 20100 48513 70500
                   333 59019=
201410140000 AAXX 14004 67665 41960 01004 10180 20100 48510 70500
                   333 59008=
201410132100 AAXX 13214 67665 41960 01804 10200 20104 48524 70500
                   333 59011=
201410131200 AAXX 13124 67665 41660 40610 10331 20126 48526 70500 84100
                   333 59011 84845=
201410130900 AAXX 13094 67665 41660 11103 10298 20120 48580 70500 81100
                   333 59014 81830=
201410130600 AAXX 13064 67665 31960 10904 10247 20144 48555 70500 80002
                   333 10340 20//0 59007 81080=
201410121200 AAXX 12124 67665 41659 10315 20154 48536 70500 84200
                   333 58010 84845=
201410120000 AAXX 12004 67665 41960 01006 10210 20123 48529 70500
                   333 58019=
201410112100 AAXX 11214 67665 41960 00805 10223 20134 48540 70500
                   333 58025=
201410111800 AAXX 11184 67665 41960 21005 10267 20159 48536 70500 82030
                   333 58030 82360=
201410111500 AAXX 11154 67665 41760 20910 10331 20144 48524 70500 82100
                   333 58024 82856=
201410111200 AAXX 11124 67665 41760 30614 10336 20151 48528 70500 83200
                   333 58019 83850=
201410110900 AAXX 11094 67665 41760 10812 10318 20153 48559 70500 81100
                   333 58025 81856=
201410110600 AAXX 11064 67665 31960 00809 10268 20126 48553 70500
                   333 10375 20//0 58027=
201410110300 AAXX 11034 67665 41959 01005 10188 20076 48520 70500
                   333 58008=
201410110000 AAXX 11004 67665 41959 11003 10217 20058 48512 70500 81030
                   333 58019 81360=
201410102100 AAXX 10214 67665 41959 11503 10246 20077 48520 70500 81030
                   333 58009 81360 91018=
201410101200 AAXX 10124 67665 41959 20204 10354 20055 48510 70500 82200
                   333 59010 82856=
201410100600 AAXX 10064 67665 32959 01002 10260 20098 48525 70200
                   333 10370 20//0 58003=
201410100300 AAXX 10034 67665 41959 01503 10196 20130 48495 70500
                   333 59000=
201410100000 AAXX 10004 67665 41959 21703 10208 20114 48492 70500 82030
                   333 82360=
201410092100 AAXX 09214 67665 41959 01503 10235 20118 48510 70500
                   333 59005=
201410091800 AAXX 09184 67665 41959 10262 20124 48496 70500
                   333 10370 59001=
201410091500 AAXX 09154 67665 41959 12104 10342 20116 48488 70500 81030
                   333 59010 81360=
201410091200 AAXX 09124 67665 41659 22706 10340 20178 48499 70300 82100
                   333 59016 82840=
201410090900 AAXX 09094 67665 42959 10322 20142 48532 70500
                   333 59015=
201410090600 AAXX 09064 67665 31959 00903 10240 20105 48513 70500
                   333 10329 20//0 59014=
201410081800 AAXX 08184 67665 42980 01104 10243 20106 48502
                   333 59026=
201410081500 AAXX 08154 67665 42980 23203 10319 20131 48497 82060
                   333 59029 82360=
201410081200 AAXX 08124 67665 41675 40404 10308 20111 48511 70500
                   333 59024 82845 82080=
201410080900 AAXX 08094 67665 42975 13505 10287 20124 48534 70100 80002
                   333 59032 81080=
201410080600 AAXX 08064 67665 32980 11004 10220 20099 48531 70200 80002
                   333 10296 20//0 59034 81080=
201410080300 AAXX 08034 67665 42980 01203 10159 20073 48510
                   333 59010=
201410080000 AAXX 08004 67665 42980 01203 10157 20083 48511
                   333 59026=
201410072100 AAXX 07214 67665 32980 11004 10179 20088 48529 80002
                   333 81080=
201410071800 AAXX 07184 67665 42980 31103 10217 20105 48525 70200 80002
                   333 5//// 83080=
201410071500 AAXX 07154 67665 42980 41103 10278 20100 48522 70222 80002
                   333 59032 84080=
201410070900 AAXX 07094 67665 42980 40907 10245 20131 48559 80002
                   333 59024 85080=
201410070600 AAXX 07064 67665 32980 50908 10192 20134 48560 80002
                   333 10286 20//0 59020 85080=
201410070300 AAXX 07034 67665 NIL=
201410061500 AAXX 06154 67665 NIL=
201410061200 AAXX 06124 67665 NIL=
201410060900 AAXX 06094 67665 NIL=
201410060300 AAXX 06034 67665 42980 00906 10122 20084 48545 70200
                   333 58023=
201410051800 AAXX 05184 67665 41975 20907 10173 20121 48564 70500 82030
                   333 58023 82360=
201410051500 AAXX 05154 67665 41770 40915 10205 20120 48549 70500 82150
                   333 58029 82856 83360=
201410051200 AAXX 05124 67665 41670 50914 10214 20122 48555 70522 85500
                   333 58038 85645=
201410050900 AAXX 05094 67665 41660 70817 10213 20130 48574 70522 87500
                   333 58036 87635=
201410050600 AAXX 05064 67665 32580 50813 10192 20132 48569 81502
                   333 10309 20//0 58029 81620 85080=
201410050300 AAXX 05034 67665 41960 10707 10170 20099 48544 70500 81030
                   333 58029 81360=
201410050000 AAXX 05004 67665 41960 00809 10180 20090 48544 70500
                   333 58038=
201410042100 AAXX 04214 67665 41960 00915 10190 20073 48554 70500
                   333 58038 91023=
201410041800 AAXX 04184 67665 41959 00917 10211 20073 48538 70501
                   333 58036=
201410041500 AAXX 04154 67665 41660 41014 10264 20115 48525 70522 81101 81845 84080=
201410041200 AAXX 04124 67665 41670 10608 10284 20121 48518 70500 81100
                   333 58017 81845=
201410040300 AAXX 04034 67665 41970 01005 20089 48514 70500
                   333 59005=
201410040000 AAXX 04004 67665 41970 01105 10171 20090 48506 70500
                   333 59009=
201410032100 AAXX 03214 67665 41970 01204 10190 20080 48518 70500
                   333 59003=
201410031800 AAXX 03184 67665 41970 01105 10240 20103 48516 70500
                   333 59003=
201410031500 AAXX 03154 67665 41970 00907 10301 20101 48503 70500
                   333 59004 91015=
201410031200 AAXX 03124 67665 41970 00607 10305 20095 48513 70500
                   333 58003=
201410030900 AAXX 03094 67665 41959 01009 10263 20144 48539 70500
                   333 58008=
201410022100 AAXX 02214 67665 41960 01005 10198 20140 48523 70500
                   333 58007=
201410021800 AAXX 02184 67665 41959 20905 10244 20159 48519 70500 82030
                   333 58008 82360=
201410021500 AAXX 02154 67665 41657 00910 10310 20104 48518 70522 84100
                   333 58007 84845=
201410021200 AAXX 02124 67665 41958 01305 10331 20113 48513 70500
                   333 58005=
201410020900 AAXX 02094 67665 41959 00810 10310 20117 48531 70500
                   333 58005=
201410020300 AAXX 02034 67665 41959 02003 10176 20085 48509 70500
                   333 58011=
201410012100 AAXX 01214 67665 41959 01403 10235 20119 48521 70500
                   333 58004=
201410011800 AAXX 01184 67665 41959 01104 10274 20149 48515 70500
                   333 58002=
201410011500 AAXX 01154 67665 41959 01506 10358 20178 48505 70500
                   333 59001=
201410011200 AAXX 01124 67665 NIL=
201410010900 AAXX 01094 67665 41959 09004 10318 20209 48533 70500
                   333 59001=
201410010600 AAXX 01064 67665 NIL=

################################################################################
#  SYNOPS from 67666, Lusaka City Airport (Zambia) | 15-25S | 028-19E | 1280 m
################################################################################
201410310600 AAXX 31064 67666 32980 00906 10256 20/// 48524
                   333 10324 20165 58002
                   555 00/// 91019=
201410300900 AAXX 30094 67666 NIL=
201410300300 AAXX 30034 67666 NIL=
201410291200 AAXX 29124 67666 NIL=
201410280600 AAXX 28064 67666 32980 11013 10195 20128 48541 81030
                   333 10297 20150 59006 81359 91021=
201410231200 AAXX 23124 67666 NIL=
201410220600 AAXX 22064 67666 31959 00909 10219 20098 48564 70500
                   333 10335 20170 58025 91024=
201410210600 AAXX 21064 67666 31980 00609 10235 20076 48548 70500
                   333 10330 20190 58014 91021=
201410200600 AAXX 20064 67666 32980 00912 10228 20114 48532
                   333 10296 20177 59007 91020=
201410170600 AAXX 17064 67666 12480 70000 10230 20162 48507 60014 81570
                   333 10335 20185 58011 81610 87360 91016=
201410160600 AAXX 16064 67666 31960 20805 10252 20137 48495 70500 82030
                   333 10345 20197 59030 82360 91015=
201410151200 AAXX 15124 67666 NIL=
201410140600 AAXX 14064 67666 31980 01210 10260 20140 48534
                   333 10337 20190 59015 91020=
201410130600 AAXX 13064 67666 NIL=
201410101200 AAXX 10124 67666 42580 30908 10340 20165 48504 83200
                   333 58012 83835 91015=
201410100900 AAXX 10094 67666 42980 01212 10315 20154 48523
                   333 58009 91018=
201410100600 AAXX 10064 67666 31975 01010 10255 20125 48517 70500
                   333 10335 20215 58000 91018=
201410090900 AAXX 09094 67666 NIL=
201410080600 AAXX 08064 67666 42980 00807 10227 20112 48522
                   333 59030 83080 555 00/// 91019=
201410071200 AAXX 07124 67666 42980 50809 10272 20132 48525 80002
                   333 59020 85080 91018=
201410070900 AAXX 07094 67666 NIL=
201410070600 AAXX 07064 67666 32980 31210 10185 20085 48556 70500 80002
                   333 10279 20145 59018 83080 91022=
201410070300 AAXX 07034 67666 NIL=
201410061500 AAXX 06154 67666 NIL=
201410061200 AAXX 06124 67666 NIL=
201410060900 AAXX 06094 67666 NIL=
201410030600 AAXX 03064 67666 41980 01207 10189 20155 48520 70500
                   333 10330 20155 58012
                   555 00/// 91020=
201410020900 AAXX 02094 67666 NIL=
201410020600 AAXX 02064 67666 31978 01008 10260 20095 48528 70500
                   333 10351 20190 91019=
201410011200 AAXX 01124 67666 NIL=
201410010900 AAXX 01094 67666 NIL=
201410010600 AAXX 01064 67666 NIL=

################################################################################
#  SYNOPS from 67667, Mount Makulu (Zambia) | 15-33S | 028-15E | 1213 m
################################################################################
201410300900 AAXX 30094 67667 NIL=
201410300300 AAXX 30034 67667 NIL=
201410291200 AAXX 29124 67667 NIL=
201410231200 AAXX 23124 67667 NIL=
201410210600 AAXX 21064 67667 NIL=
201410170600 AAXX 17064 67667 NIL=
201410151200 AAXX 15124 67667 NIL=
201410140600 AAXX 14064 67667 NIL=
201410130600 AAXX 13064 67667 NIL=
201410090900 AAXX 09094 67667 NIL=
201410070900 AAXX 07094 67667 NIL=
201410070300 AAXX 07034 67667 NIL=
201410061500 AAXX 06154 67667 NIL=
201410061200 AAXX 06124 67667 NIL=
201410060900 AAXX 06094 67667 NIL=
201410020900 AAXX 02094 67667 NIL=
201410011200 AAXX 01124 67667 NIL=
201410010900 AAXX 01094 67667 NIL=
201410010600 AAXX 01064 67667 NIL=

################################################################################
#  SYNOPS from 67673, Petauke (Zambia) | 14-15S | 031-17E | 1035 m
################################################################################
201410310600 AAXX 31064 67673 31975 23604 10253 20114 48551 70500 82030
                   333 10351 20220 58000 82360
                   555 00/// 20000=
201410300900 AAXX 30094 67673 NIL=
201410300300 AAXX 30034 67673 NIL=
201410291200 AAXX 29124 67673 NIL=
201410271500 AAXX 27154 67673 41670 10802 10280 20118 48544 70500 81130
                   333 58009 81842 81360=
201410270900 AAXX 27094 67673 41670 30904 10270 20100 48574 70500 83100
                   333 58028 83835=
201410270600 AAXX 27064 67673 31975 10906 10225 20135 48582 70500 81030
                   333 10350 20185 58029 81360
                   555 00/// 20000=
201410231200 AAXX 23124 67673 NIL=
201410221200 AAXX 22124 67673 41970 03602 10310 20034 48557 70500
                   333 58013=
201410220600 AAXX 22064 67673 31970 00904 10235 20094 48591 70500
                   333 10345 20180 58017
                   555 00/// 20000=
201410210600 AAXX 21064 67673 NIL=
201410170600 AAXX 17064 67673 NIL=
201410151200 AAXX 15124 67673 41660 20902 10350 20130 48519 70500 82100
                   333 58008 82845=
201410150600 AAXX 15064 67673 31970 00802 10270 20153 48555 70500
                   333 10363 20200 59001
                   555 00///=
201410140600 AAXX 14064 67673 NIL=
201410130600 AAXX 13064 67673 NIL=
201410090900 AAXX 09094 67673 NIL=
201410080600 AAXX 08064 67673 31970 00901 10256 20090 48554 70500
                   333 10319 20170 59031=
201410070900 AAXX 07094 67673 NIL=
201410070300 AAXX 07034 67673 NIL=
201410061500 AAXX 06154 67673 NIL=
201410061200 AAXX 06124 67673 NIL=
201410060900 AAXX 06094 67673 NIL=
201410031200 AAXX 03124 67673 41665 20101 10305 20150 48532 70500 82100
                   333 58001 83840=
201410030600 AAXX 03064 67673 31570 40504 10230 20151 48567 70500 84500
                   333 10335 20178 58006 84628
                   555 00///=
201410020900 AAXX 02094 67673 NIL=
201410020600 AAXX 02064 67673 31970 60806 10255 20133 48566 70522
                   333 10370 20230 58021 86030=
201410011200 AAXX 01124 67673 41665 12001 10350 20080 48520 70500 81100
                   333 59007 81840=
201410010900 AAXX 01094 67673 41670 03002 10323 20083 48546 70500
                   333 59008=
201410010600 AAXX 01064 67673 31970 03604 10270 20085 48547 70500
                   333 10352 20212 59021
                   555 00///=

################################################################################
#  SYNOPS from 67731, Senanga (Zambia) | 16-06S | 023-16E | 1027 m
################################################################################
201410300900 AAXX 30094 67731 NIL=
201410300300 AAXX 30034 67731 NIL=
201410291200 AAXX 29124 67731 NIL=
201410231200 AAXX 23124 67731 NIL=
201410230600 AAXX 23064 67731 32980 018// 10251 20161 48///
                   333 10377 20181 5////
                   555 00/// 20000=
201410210600 AAXX 21064 67731 32980 014// 10254 20154 48///
                   333 10374 20191 5////
                   555 00///=
201410170600 AAXX 17064 67731 NIL=
201410151200 AAXX 15124 67731 NIL=
201410140600 AAXX 14064 67731 NIL=
201410130600 AAXX 13064 67731 NIL=
201410100600 AAXX 10064 67731 31975 024// 10252 20166 48/// 70500
                   333 10386 20200 5////
                   555 00/// 20000=
201410090900 AAXX 09094 67731 NIL=
201410070900 AAXX 07094 67731 NIL=
201410070300 AAXX 07034 67731 NIL=
201410061500 AAXX 06154 67731 NIL=
201410061200 AAXX 06124 67731 NIL=
201410060900 AAXX 06094 67731 NIL=
201410020900 AAXX 02094 67731 NIL=
201410011200 AAXX 01124 67731 NIL=
201410010900 AAXX 01094 67731 NIL=
201410010600 AAXX 01064 67731 NIL=

################################################################################
#  SYNOPS from 67741, Sesheke (Zambia) | 17-28S | 024-18E | 949 m
################################################################################
201410300900 AAXX 30094 67741 NIL=
201410300300 AAXX 30034 67741 NIL=
201410291200 AAXX 29124 67741 NIL=
201410231200 AAXX 23124 67741 42980 00404 10381 20163 48520
                   333 59018=
201410220600 AAXX 22064 67741 32980 00901 10214 20105 48527
                   333 10370 20195 59003
                   555 00/// 20000=
201410210600 AAXX 21064 67741 32980 10401 10242 20145 48542 81030
                   333 10366 20145 58009 81362
                   555 00/// 20000=
201410201500 AAXX 20154 67741 42680 20901 10355 20167 48505 82100
                   333 10366 20253 58009 82850=
201410200600 AAXX 20064 67741 32980 00902 10246 20134 48525
                   333 10370 20149 58002
                   555 00/// 20000=
201410171200 AAXX 17124 67741 42980 02002 10302 20139 48505
                   333 58031=
201410170600 AAXX 17064 67741 12980 01203 10204 20096 48516 60054
                   333 10375 20167 58038
                   555 00/// 20000=
201410160600 AAXX 16064 67741 32975 72701 10255 20162 48497 87032
                   333 10391 20202 59029 87363 81080
                   555 00/// 20000=
201410151200 AAXX 15124 67741 NIL=
201410140600 AAXX 14064 67741 32980 40000 10262 20162 48527 84030
                   333 10385 20176 59011 84363
                   555 00/// 20000=
201410130600 AAXX 13064 67741 32980 10802 10289 20167 48545 81030
                   333 10375 20180 59013 81362
                   555 00/// 20000=
201410100600 AAXX 10064 67741 32980 10901 10264 20152 48498 81030
                   333 10389 20177 58001 81363=
201410090900 AAXX 09094 67741 NIL=
201410090600 AAXX 09064 67741 32980 03601 10279 20142 48502
                   333 10356 20156 59024
                   555 00/// 20000=
201410080600 AAXX 08064 67741 32980 00402 10253 20123 48516
                   333 10338 20166 59040
                   555 00/// 20000=
201410070900 AAXX 07094 67741 NIL=
201410070600 AAXX 07064 67741 32980 11201 10196 20121 48544 80001
                   333 10327 20109 59022 81080
                   555 00/// 20000=
201410070300 AAXX 07034 67741 NIL=
201410061500 AAXX 06154 67741 NIL=
201410061200 AAXX 06124 67741 NIL=
201410060900 AAXX 06094 67741 NIL=
201410060600 AAXX 06064 67741 32980 50903 10206 20145 48574 80002
                   333 10321 20143 58016 85080=
201410020900 AAXX 02094 67741 42980 00903 10325 20105 48549
                   333 59009=
201410020600 AAXX 02064 67741 32980 00901 10220 20062 48529
                   333 10355 20109 59011=
201410011200 AAXX 01124 67741 NIL=
201410010900 AAXX 01094 67741 NIL=
201410010600 AAXX 01064 67741 NIL=

################################################################################
#  SYNOPS from 67743, Livingstone (Zambia) | 17-49S | 025-49E | 985 m
################################################################################
201410300900 AAXX 30094 67743 NIL=
201410300300 AAXX 30034 67743 NIL=
201410291200 AAXX 29124 67743 NIL=
201410231500 AAXX 23154 67743 41975 20508 10362 21018 48496 70541 82030
                   333 59033 82359=
201410231200 AAXX 23124 67743 NIL=
201410210600 AAXX 21064 67743 31975 01013 10268 20032 48551 70500
                   333 10360 20224 58010
                   555 91021=
201410170600 AAXX 17064 67743 12980 01512 10210 21010 48517 69904
                   333 10350 20120 58035
                   555 00/// 91018=
201410160600 AAXX 16064 67743 31975 61809 10286 20092 48489 70522 83031
                   333 10370 20228 58012 83360 85080
                   555 00/// 91014=
201410151200 AAXX 15124 67743 NIL=
201410140600 AAXX 14064 67743 31959 01902 10271 20110 48530 70500
                   333 10394 20210 59015
                   555 00/// 91019=
201410130600 AAXX 13064 67743 31975 00907 10266 20119 48536 70500
                   333 10365 20220 59015
                   555 00/// 91020=
201410120600 AAXX 12064 67743 11959 10913 10241 20155 48554 69904 70500 81030
                   333 10363 20205 58008 81360
                   555 00/// 91022=
201410100900 AAXX 10094 67743 41980 03312 10357 20073 48517 70500
                   333 58008 555 91015=
201410090900 AAXX 09094 67743 41675 12909 10356 20010 48508 70540 81100
                   333 59024 81840 91014=
201410070900 AAXX 07094 67743 NIL=
201410070300 AAXX 07034 67743 NIL=
201410061500 AAXX 06154 67743 42980 11210 10302 20031 48543 80001
                   333 58002 81080=
201410061200 AAXX 06124 67743 42980 10811 10303 20033 48553 70100 80001
                   333 58001 81080 91021=
201410060900 AAXX 06094 67743 42980 30916 10263 20076 48577 80001
                   333 59001 83080 91024=
201410030900 AAXX 03094 67743 41958 10610 10318 20126 48521 70500 80001
                   333 59019 81080 91016=
201410020900 AAXX 02094 67743 41975 01112 10321 20018 48541 70500
                   333 59006 555 91019=
201410011200 AAXX 01124 67743 NIL=
201410010900 AAXX 01094 67743 41975 01510 10293 21076 48543 70500
                   333 58022 555 91019=
201410010600 AAXX 01064 67743 NIL=

################################################################################
#  SYNOPS from 67751, Magoye (Zambia) | 16-00S | 027-36E | 1018 m
################################################################################
201410300900 AAXX 30094 67751 NIL=
201410300300 AAXX 30034 67751 NIL=
201410291200 AAXX 29124 67751 NIL=
201410231200 AAXX 23124 67751 NIL=
201410210600 AAXX 21064 67751 NIL=
201410170600 AAXX 17064 67751 NIL=
201410151200 AAXX 15124 67751 NIL=
201410140600 AAXX 14064 67751 NIL=
201410130600 AAXX 13064 67751 NIL=
201410090900 AAXX 09094 67751 NIL=
201410070900 AAXX 07094 67751 NIL=
201410070300 AAXX 07034 67751 NIL=
201410061500 AAXX 06154 67751 NIL=
201410061200 AAXX 06124 67751 NIL=
201410060900 AAXX 06094 67751 NIL=
201410020900 AAXX 02094 67751 NIL=
201410011200 AAXX 01124 67751 NIL=
201410010900 AAXX 01094 67751 NIL=
201410010600 AAXX 01064 67751 NIL=

################################################################################
#  SYNOPS from 67753, Choma (Zambia) | 16-50S | 027-04E | 1213 m
################################################################################
201410310600 AAXX 31064 67753 31960 10812 10266 20105 48525 70500 80001
                   333 10340 20154 58001 81080=
201410300900 AAXX 30094 67753 NIL=
201410300600 AAXX 30064 67753 32560 10604 10250 20120 47524 81100
                   333 10316 20160 59014 81820=
201410300300 AAXX 30034 67753 NIL=
201410291200 AAXX 29124 67753 NIL=
201410290600 AAXX 29064 67753 32960 10612 10230 20121 48532 80001
                   333 10309 20133 59011 81080
                   555 00///=
201410280600 AAXX 28064 67753 31960 10914 10220 20119 48541 70500 81030
                   333 10315 20166 59003 81360=
201410270600 AAXX 27064 67753 31560 50804 10218 47541 69974 70500 84830
                   333 10335 20175 58017 82620 82825 81360=
201410231200 AAXX 23124 67753 NIL=
201410230600 AAXX 23064 67753 32960 00811 10230 20083 48551
                   333 10319 20143 59012
                   555 00///=
201410220600 AAXX 22064 67753 31960 00510 10256 20087 48563 70500
                   333 10340 20150 59012=
201410210600 AAXX 21064 67753 31960 01012 10246 20074 48552 70500
                   333 10334 20165 58013=
201410200600 AAXX 20064 67753 31960 00612 10238 20107 48532 70500
                   333 10322 20147 59003=
201410170600 AAXX 17064 67753 12960 11611 10228 20011 48503 69904 81030
                   333 10360 20189 58020 81360=
201410160600 AAXX 16064 67753 31960 03517 10270 20115 48758 70500
                   333 10365 20180 59027=
201410151200 AAXX 15124 67753 NIL=
201410150600 AAXX 15064 67753 31960 10305 10264 20102 48515 70500 81030
                   333 10355 20180 59012 81360=
201410140600 AAXX 14064 67753 31960 00613 10280 20106 48526 70500
                   333 10343 20150 59017=
201410130600 AAXX 13064 67753 31960 00508 10250 20132 48543 70500
                   333 10332 20162 59013
                   555 00///=
201410100600 AAXX 10064 67753 31960 13608 10281 20091 48507 70400 80001
                   333 10360 20211 59002 81080=
201410090900 AAXX 09094 67753 NIL=
201410090600 AAXX 09064 67753 31960 11208 10288 20094 47508 70500 80001
                   333 10334 20140 59019 81080=
201410080600 AAXX 08064 67753 31960 10000 10233 20101 48523 70500 80001
                   333 10282 20106 59030 81080
                   555 00///=
201410070900 AAXX 07094 67753 NIL=
201410070600 AAXX 07064 67753 31960 50612 10198 20157 48549 70500 80002
                   333 10265 20121 59027 85080=
201410070300 AAXX 07034 67753 NIL=
201410061500 AAXX 06154 67753 NIL=
201410061200 AAXX 06124 67753 NIL=
201410060900 AAXX 06094 67753 NIL=
201410060600 AAXX 06064 67753 31960 20922 10185 20114 48577 70500 80002
                   333 10267 20125 58013 82080=
201410020900 AAXX 02094 67753 NIL=
201410020600 AAXX 02064 67753 32960 41505 10229 20085 48538 84030
                   333 10350 20180 84360=
201410011200 AAXX 01124 67753 NIL=
201410010900 AAXX 01094 67753 NIL=
201410010600 AAXX 01064 67753 31960 00000 10248 20079 48524 70500
                   333 10349 20156 58008=

################################################################################
#  SYNOPS from 67855, Lupaki (Zambia) | 17-03-00S | 024-46-00E | 1000 m
################################################################################
201410310600 AAXX 31064 67855 32975 00304 10264 20130 3//// 48///
                   333 20149 5////=
201410301200 AAXX 30124 67855 41770 30000 10354 20165 3//// 48/// 70500 83100
                   333 5//// 83850=
201410300600 AAXX 30064 67855 31970 20303 10246 20123 3//// 48/// 70500 80001
                   333 20125 5//// 82080=
201410291800 AAXX 29184 67855 NIL=
201410291200 AAXX 29124 67855 42775 40602 10338 20155 3//// 48/// 84100
                   333 5//// 84850=
201410290600 AAXX 29064 67855 32975 00702 10230 20130 3//// 48///
                   333 20178 5////=
201410281200 AAXX 28124 67855 42975 42003 10318 20146 3//// 48/// 84100
                   333 5//// 84850=
201410280600 AAXX 28064 67855 32975 10605 10216 20134 3//// 48/// 81030
                   333 20166 5//// 81360=
201410271800 AAXX 27184 67855 NIL=
201410270600 AAXX 27064 67855 12975 01106 10224 20131 3//// 48/// 69904
                   333 20125 5////=
201410261200 AAXX 26124 67855 NIL=
201410260600 AAXX 26064 67855 NIL=
201410251800 AAXX 25184 67855 NIL=
201410251200 AAXX 25124 67855 NIL=
201410250600 AAXX 25064 67855 NIL=
201410241800 AAXX 24184 67855 NIL=
201410241200 AAXX 24124 67855 41770 53602 10360 20145 3//// 48/// 70522 85100
                   333 5//// 85850=
201410240600 AAXX 24064 67855 31970 00000 10230 20114 3//// 48///
                   333 20175 5////=
201410231200 AAXX 23124 67855 41770 13501 10352 20115 3//// 48/// 70500 81100
                   333 5//// 81850=
201410230600 AAXX 23064 67855 31970 00601 10222 20135 3//// 48/// 70500
                   333 20148 5////=
201410221800 AAXX 22184 67855 NIL=
201410221200 AAXX 22124 67855 41970 02006 10350 20088 3//// 48/// 70500
                   333 5////=
201410220600 AAXX 22064 67855 NIL=
201410211800 AAXX 21184 67855 NIL=
201410211200 AAXX 21124 67855 41770 11904 10350 20045 3//// 48/// 70500 81100
                   333 5//// 81850=
201410210600 AAXX 21064 67855 31970 00608 10242 20149 3//// 48/// 70500
                   333 20139 5////=
201410201800 AAXX 20184 67855 NIL=
201410201200 AAXX 20124 67855 41770 32003 10340 20143 3//// 48/// 70500 83100
                   333 5//// 83850=
201410200600 AAXX 20064 67855 31970 00604 10240 20123 3//// 48/// 70500
                   333 20120 5////=
201410191800 AAXX 19184 67855 NIL=
201410191200 AAXX 19124 67855 NIL=
201410190600 AAXX 19064 67855 31970 00704 10220 20093 3//// 48/// 70500
                   333 20125 5////=
201410181800 AAXX 18184 67855 NIL=
201410181200 AAXX 18124 67855 42975 00903 10330 20065 3//// 48///
                   333 5////=
201410180600 AAXX 18064 67855 32975 00905 10190 20119 3//// 48///
                   333 20125 5////=
201410171200 AAXX 17124 67855 42975 11806 10310 20028 3//// 48/// 81030
                   333 5//// 81360=
201410170600 AAXX 17064 67855 12975 01803 10210 20019 3//// 48/// 69904
                   333 20126 5////=
201410161200 AAXX 16124 67855 41975 73604 10320 20138 3//// 48/// 70162 87072
                   333 5//// 87459=
201410160600 AAXX 16064 67855 11970 71902 10250 20149 3//// 48/// 69904 71562 87072
                   333 20180 5//// 87459=
201410151800 AAXX 15184 67855 NIL=
201410151200 AAXX 15124 67855 41770 63302 10372 20111 3//// 48/// 70511 81132
                   333 5//// 81850 86080=
201410150600 AAXX 15064 67855 31970 10303 10248 20131 3//// 48/// 70500 80001
                   333 20200 5//// 81080=
201410141800 AAXX 14184 67855 NIL=
201410141200 AAXX 14124 67855 41970 51603 10378 20095 3//// 48/// 70511 80002
                   333 5//// 85080=
201410140600 AAXX 14064 67855 31970 11101 10252 20097 3//// 48/// 70500 80001
                   333 20160 5//// 81080=
201410131800 AAXX 13184 67855 NIL=
201410131200 AAXX 13124 67855 41770 10602 10368 20134 3//// 48/// 70500 81100
                   333 5//// 81850=
201410130600 AAXX 13064 67855 31970 00602 10246 20138 3//// 48/// 70500
                   333 20170 5////=
201410121800 AAXX 12184 67855 NIL=
201410121200 AAXX 12124 67855 NIL=
201410120600 AAXX 12064 67855 11975 73601 10208 20184 3//// 48/// 60074 72162 87072
                   333 20185 5//// 87459=
201410111200 AAXX 11124 67855 41770 73301 10348 20166 3//// 48/// 70522 82202
                   333 5//// 82850=
201410110600 AAXX 11064 67855 11970 70603 10238 20173 3//// 48/// 69904 72162 8707/
                   333 20205 5//// 87459=
201410101800 AAXX 10184 67855 NIL=
201410101200 AAXX 10124 67855 NIL=
201410100600 AAXX 10064 67855 31970 21901 10254 20071 3//// 48/// 70500 82030
                   333 20142 5//// 82360=
201410091800 AAXX 09184 67855 NIL=
201410091200 AAXX 09124 67855 41770 42701 10368 20060 3//// 48/// 70500 84100
                   333 5//// 84850=
201410090600 AAXX 09064 67855 31970 20000 10250 20075 3//// 48/// 70500 82030
                   333 20124 5//// 82360=
201410081800 AAXX 08184 67855 NIL=
201410081200 AAXX 08124 67855 41970 03602 10346 20085 3//// 48/// 70500
                   333 5////=
201410080600 AAXX 08064 67855 31970 01301 10200 20068 38/// 48/// 70500
                   333 20098 5////=
201410071200 AAXX 07124 67855 42980 22102 10304 20030 38/// 48/// 80002
                   333 5//// 82080=
201410070600 AAXX 07064 67855 32975 41802 10158 20043 3//// 48/// 80002
                   333 20080 5//// 84080=
201410061200 AAXX 06124 67855 42975 00603 10306 20018 3//// 48///
                   333 5////=
201410060600 AAXX 06064 67855 32975 20705 10176 20042 3//// 48/// 80001
                   333 20093 5//// 82080=
201410051200 AAXX 05124 67855 NIL=
201410050600 AAXX 05064 67855 12975 70907 10174 20109 3//// 48/// 69904 80001
                   333 20124 5//// 87080=
201410041200 AAXX 04124 67855 41670 70604 10198 20165 3//// 48/// 78092 84373
                   333 5//// 81925 83830=
201410040600 AAXX 04064 67855 31970 10607 10200 20110 3//// 48/// 70500 81030
                   333 20175 5//// 81360=
201410031800 AAXX 03184 67855 NIL=
201410031200 AAXX 03124 67855 41970 33601 10344 20131 3//// 48/// 70500 80002
                   333 5//// 83080=
201410030600 AAXX 03064 67855 31970 00606 10210 20105 3//// 48/// 70500
                   333 20152 5////=
201410021800 AAXX 02184 67855 NIL=
201410021200 AAXX 02124 67855 41970 01803 10334 20037 3//// 48/// 70500
                   333 5////=
201410020600 AAXX 02064 67855 NIL=
201410011800 AAXX 01184 67855 NIL=
201410011200 AAXX 01124 67855 41970 62103 10352 20029 3//// 48/// 70511 80002
                   333 5//// 86080=
201410010600 AAXX 01064 67855 31970 12001 10220 20005 3//// 48/// 70500 81030
                   333 20135 5//// 81360=
