################################################################################
# Query made at 04/14/2022 03:00:41 UTC
# Country like Zamb*
# Time interval: from 04/01/2017 05:30  to 05/01/2017 06:30  UTC
################################################################################

################################################################################
#  SYNOPS from 67403, Kawambwa (Zambia) | 09-48S | 029-05E | 1323 m
################################################################################
201704260600 AAXX 26064 67403 32980 61205 10203 20172 48531 86030
                   333 10287 20176 59004 86360
                   555 00174=
201704250900 AAXX 25094 67403 NIL=
201704240900 AAXX 24094 67403 NIL=
201704240600 AAXX 24064 67403 32980 30901 10201 20187 48527 82031
                   333 10302 20174 59001 82360 83080
                   555 00182=
201704210600 AAXX 21064 67403 11480 61201 10196 20192 48521 60114 70362 81530
                   333 10281 20178 58006 81810 86360
                   555 00174=
201704201200 AAXX 20124 67403 NIL=
201704200600 AAXX 20064 67403 11480 50903 10213 20188 48516 69924 70322 82531
                   333 10272 20184 59007 82610 84360 81080
                   555 00179=
201704190600 AAXX 19064 67403 11380 60902 10202 20187 48522 60034 70342 84531
                   333 10270 20168 59013 84608 84360 81080
                   555 00170=
201704180600 AAXX 18064 67403 11480 71202 10188 20178 48534 60184 70362 8453/
                   333 10278 20176 58020 84610 87360
                   555 00180=

################################################################################
#  SYNOPS from 67413, Mbala (Zambia) | 08-51S | 031-20E | 1673 m
################################################################################
201704260600 AAXX 26064 67413 32480 51108 10180 20156 48549 85501
                   333 10265 20160 59007 85612 82080
                   555 00/// 91025=
201704250900 AAXX 25094 67413 NIL=
201704250600 AAXX 25064 67413 12480 51207 10185 20161 48555 60054 85500
                   333 10260 20165 58006 85612
                   555 00/// 91026=
201704240900 AAXX 24094 67413 NIL=
201704240600 AAXX 24064 67413 12580 31006 10200 20160 48549 60114 81131
                   333 10270 20160 58006 81820 83360 82080
                   555 00/// 91025=
201704201200 AAXX 20124 67413 NIL=
201704200600 AAXX 20064 67413 NIL=
201704180600 AAXX 18064 67413 NIL=

################################################################################
#  SYNOPS from 67441, Mwinilunga (Zambia) | 11-45S | 024-26E | 1361 m
################################################################################
201704250900 AAXX 25094 67441 NIL=
201704240900 AAXX 24094 67441 NIL=
201704201200 AAXX 20124 67441 NIL=
201704200600 AAXX 20064 67441 NIL=
201704180600 AAXX 18064 67441 NIL=

################################################################################
#  SYNOPS from 67461, Mansa (Zambia) | 11-06S | 028-51E | 1382 m
################################################################################
201704270600 AAXX 27064 67461 32380 71508 10178 20162 48540 8667/
                   333 10240 20170 58003 86706 87360
                   555 00165 91021=
201704260600 AAXX 26064 67461 32580 60910 10205 20174 48540 83530
                   333 10255 20179 58010 83620 83360
                   555 00170 91021=
201704250900 AAXX 25094 67461 NIL=
201704240900 AAXX 24094 67461 NIL=
201704240600 AAXX 24064 67461 12680 71502 10195 20175 48528 60104 8113/
                   333 10271 20171 59001 81835 87360
                   555 00171 91020=
201704210600 AAXX 21064 67461 11480 80803 10197 20190 48529 60154 72166 8657/
                   333 10258 20183 58002 86610 87460
                   555 00188 91020=
201704201200 AAXX 20124 67461 NIL=
201704200900 AAXX 20094 67461 42580 71006 10220 20188 48519 8357/
                   333 59010 83620 87460 91019=
201704200600 AAXX 20064 67461 12480 71002 10193 20189 48527 60184 8457/
                   333 10260 20180 59003 84615 87460
                   555 00182 91020=
201704190600 AAXX 19064 67461 32480 71204 10194 20186 48530 8553/
                   333 10255 20184 58001 85610 84360
                   555 00184 91020=
201704180600 AAXX 18064 67461 11380 80902 10182 20177 48528 60424 76162 886//
                   333 10259 20169 58018 88706
                   555 00175 91020=
201704130600 AAXX 13064 67461 32580 31204 10207 20191 48527 82531
                   333 10288 20172 58006 82620 81360 83080
                   555 00171 91019=

################################################################################
#  SYNOPS from 67475, Kasama (Zambia) | 10-13S | 031-08E | 1382 m
################################################################################
201704260600 AAXX 26064 67475 32460 80811 10194 20172 48545 70322 875//
                   333 10258 20167 59001 87615
                   555 00159 91023=
201704251023 AAXX 25104 67475 42560 61210 10224 20180 48551 58008 81935 91023=
201704250900 AAXX 25094 67475 NIL=
201704240900 AAXX 24094 67475 NIL=
201704240600 AAXX 24064 67475 31459 60706 10203 20180 48539 70522 85502
                   333 10280 20165 59003 85612 82080
                   555 00153 91022=
201704210600 AAXX 21064 67475 12460 70907 10200 20175 48533 69904 70122 84578
                   333 10278 20174 59001 84615 82460 87280
                   555 00168 91021=
201704201200 AAXX 20124 67475 NIL=
201704200600 AAXX 20064 67475 12460 80904 10196 20179 48534 69924 70222 885//
                   333 10260 20181 59002 88615
                   555 00179 91021=
201704190600 AAXX 19064 67475 12350 80803 10185 20177 48535 72822 886//
                   333 10250 20170 59009 88608
                   555 00173 91021=
201704180600 AAXX 18064 67475 11350 81003 10180 20180 48544 60094 78188 84778
                   333 10259 20173 58015
                   555 00175 91023=
201704130900 AAXX 13094 67475 42660 40811 10260 20166 48536 84101
                   333 58009 84835 81080 91021=

################################################################################
#  SYNOPS from 67476, Misamfu (Zambia) | 10-06S | 031-15E | 1536 m
################################################################################
201704260600 AAXX 26064 67476 32580 71004 10193 20184 48/// 86530
                   333 10258 20170 58000 86624 84359
                   555 00164=
201704250900 AAXX 25094 67476 NIL=
201704240900 AAXX 24094 67476 NIL=
201704240600 AAXX 24064 67476 32580 60803 10193 20179 48/// 86500
                   333 10280 20160 5//// 86625
                   555 00158=
201704201200 AAXX 20124 67476 NIL=
201704200600 AAXX 20064 67476 NIL=
201704180600 AAXX 18064 67476 NIL=
201704130600 AAXX 13064 67476 32580 40904 10187 20167 48/// 84500
                   333 10277 20153 59003 84626
                   555 00149=

################################################################################
#  SYNOPS from 67477, Mpika (Zambia) | 11-54S | 031-26E | 1400 m
################################################################################
201704280600 AAXX 28064 67477 11480 80906 10164 20140 48570 69904 75022 885//
                   333 10222 20152 58007 88610
                   555 00163=
201704270600 AAXX 27064 67477 32480 70905 10166 20140 48565 875//
                   333 10208 20152 58009 87610
                   555 00160=
201704260600 AAXX 26064 67477 11480 81210 10166 20160 48555 69904 75022 885//
                   333 10243 20151 58005 88610
                   555 00157=
201704250900 AAXX 25094 67477 NIL=
201704250600 AAXX 25064 67477 12480 61204 10189 20160 48550 60104 86530
                   333 10261 20158 58005 83610 81359
                   555 00162=
201704240900 AAXX 24094 67477 NIL=
201704240600 AAXX 24064 67477 32480 81203 10192 20180 48545 885//
                   333 10254 20151 58004 88610
                   555 00172=
201704210600 AAXX 21064 67477 11480 80903 10199 20180 48535 69904 75022 885//
                   333 10260 20174 59003 88612
                   555 00169=
201704201200 AAXX 20124 67477 NIL=
201704200600 AAXX 20064 67477 12480 70906 10203 20180 48540 875//
                   333 10251 20176 59004 87610
                   555 00181=
201704190600 AAXX 19064 67477 12480 60903 10206 20180 48542 60014 84530
                   333 10221 20160 58003 84610 85359
                   555 00176=
201704180600 AAXX 18064 67477 11480 80000 10172 20170 48540 69904 75052 886//
                   333 10231 20162 58005 88610
                   555 00170=
201704130600 AAXX 13064 67477 32480 30902 10217 20170 48535 82101
                   333 10269 20170 58010 82812 82080
                   555 00162=

################################################################################
#  SYNOPS from 67481, Isoka (Zambia) | 10-07S | 032-38E | 1360 m
################################################################################
201704270600 AAXX 27064 67481 11360 80203 10168 20166 48/// 69904 74244 886//
                   333 10236 20164 58012 88706
                   555 00150=
201704260600 AAXX 26064 67481 11360 83002 10178 20178 48/// 69934 75355 887//
                   333 10264 20174 58001 88706
                   555 00155=
201704250900 AAXX 25094 67481 NIL=
201704250600 AAXX 25064 67481 32980 80000 10188 20171 48/// 8807/
                   333 10278 20174 58009 88460
                   555 00160=
201704240900 AAXX 24094 67481 NIL=
201704240600 AAXX 24064 67481 32480 72702 10198 20177 48/// 875//
                   333 10272 20162 59002 87610
                   555 00///=
201704210600 AAXX 21064 67481 12380 73002 10186 20184 48/// 60034 876//
                   333 10272 20178 59002 87707
                   555 00180=
201704201200 AAXX 20124 67481 NIL=
201704200600 AAXX 20064 67481 11380 80303 10196 20182 48/// 69904 72842 886//
                   333 10260 20180 59004 88706
                   555 00184=
201704190600 AAXX 19064 67481 31360 80303 10181 20179 48/// 74042 886//
                   333 10220 20171 59005 88706
                   555 00170=
201704180600 AAXX 18064 67481 11360 82001 10180 20180 48/// 60024 75155 887//
                   333 10262 20174 58010 88706
                   555 00///=

################################################################################
#  SYNOPS from 67531, Zambezi (Zambia) | 13-32S | 023-07E | 1077 m
################################################################################
201704280600 AAXX 28064 67531 32980 11207 10196 20166 48/// 81030
                   333 10266 20154 59001 81362
                   555 00148=
201704270600 AAXX 27064 67531 32380 81204 10176 20167 48/// 8757/
                   333 10281 20154 58020 87607 88460
                   555 00158=
201704260600 AAXX 26064 67531 32380 71204 10190 20177 48/// 875//
                   333 10273 20152 59001 87608
                   555 00158=
201704250900 AAXX 25094 67531 NIL=
201704250600 AAXX 25064 67531 12380 80904 10181 20167 48/// 69934 8757/
                   333 10286 20164 58014 87607 88460
                   555 00///=
201704240900 AAXX 24094 67531 NIL=
201704240600 AAXX 24064 67531 12380 60000 10196 20189 48/// 60264 83570
                   333 10285 20181 59003 83608 84362
                   555 00///=
201704201200 AAXX 20124 67531 42780 40904 10297 20182 48/// 70222 84230
                   333 59005 84856 81362=
201704200900 AAXX 20094 67531 42980 50907 10260 20194 48/// 70222 85030
                   333 59009 85362=
201704200600 AAXX 20064 67531 32980 50904 10201 20177 48/// 70222 85030
                   333 10290 20162 59010 85361
                   555 00162=
201704190600 AAXX 19064 67531 32980 11205 10200 20172 48/// 70200 80001
                   333 10283 20152 59002 81081
                   555 00149=
201704180600 AAXX 18064 67531 32980 41002 10185 20177 48/// 81038
                   333 10311 20156 58009 81362 84281
                   555 00162=

################################################################################
#  SYNOPS from 67541, Kasempa (Zambia) | 13-32S | 025-51E | 1234 m
################################################################################
201704260600 AAXX 26064 67541 32380 70602 10174 20162 48526 70222 8453/
                   333 10260 20170 58003 84606 87360
                   555 00///=
201704250900 AAXX 25094 67541 NIL=
201704250600 AAXX 25064 67541 12380 70503 10198 20178 48523 69904 70222 8453/
                   333 10300 20170 59006 84607 87360
                   555 00///=
201704240900 AAXX 24094 67541 NIL=
201704240600 AAXX 24064 67541 12980 70100 10180 20180 48529 69904 70200 8703/
                   333 10270 20140 58009 87360
                   555 00///=
201704210600 AAXX 21064 67541 12380 70604 10195 20176 48506 60034 70222 8453/
                   333 10256 20182 59004 84607 87360
                   555 00///=
201704201200 AAXX 20124 67541 42580 70000 10245 20190 48501 70222 8423/
                   333 59002 84825 87360=
201704200600 AAXX 20064 67541 32480 70403 10210 20188 48510 70222 8253/
                   333 10250 20176 59013 82610 87360
                   555 00///=
201704190900 AAXX 19094 67541 42580 40302 10260 20192 48530 70222 84200
                   333 59007 84825=
201704190600 AAXX 19064 67541 32980 70000 10180 20176 48523 70222 8703/
                   333 10260 20146 58001 87360
                   555 00///=
201704180600 AAXX 18064 67541 32380 70000 10185 20177 48522 70222 8353/
                   333 10250 20120 58004 83603 87360
                   555 00///=

################################################################################
#  SYNOPS from 67543, Kabompo (Zambia) | 13-36S | 024-12E | 1075 m
################################################################################
201704280600 AAXX 28064 67543 32983 10000 10174 20159 48/// 80001
                   333 10272 20150 59001 81080
                   555 00120=
201704270600 AAXX 27064 67543 32383 80000 10182 20165 48/// 886//
                   333 10280 20164 58014 88708
                   555 00138=
201704260600 AAXX 26064 67543 32383 70000 10190 20169 48/// 8163/
                   333 10292 20178 5//// 81708 87360
                   555 00158=
201704250900 AAXX 25094 67543 NIL=
201704250600 AAXX 25064 67543 12380 80000 10186 20169 48/// 69904 88708
                   333 10292 20164 5//// 88708
                   555 00150=
201704240900 AAXX 24094 67543 NIL=
201704240600 AAXX 24064 67543 12389 70000 10192 20187 48/// 60034 8267/
                   333 10280 20186 5//// 82707 87360
                   555 00167=
201704210600 AAXX 21064 67543 32983 70000 10192 20178 48/// 8705/
                   333 10300 20184 5//// 87362
                   555 00162=
201704201200 AAXX 20124 67543 NIL=
201704200600 AAXX 20064 67543 32983 60000 10194 20177 48/// 86031
                   333 10306 20178 5//// 86362 81080
                   555 00160=
201704180600 AAXX 18064 67543 12383 70000 10188 20182 48/// 69904 876//
                   333 10338 20166 5//// 87707
                   555 00148=

################################################################################
#  SYNOPS from 67551, Solwezi (Zambia) | 12-11S | 026-23E | 1386 m
################################################################################
201704270600 AAXX 27064 67551 32370 81706 10174 20169 48558 8767/
                   333 10232 20108 58013 87704 88360
                   555 00212 91024=
201704250900 AAXX 25094 67551 NIL=
201704250600 AAXX 25064 67551 12258 70306 10178 20168 48541 60024 86730
                   333 10249 20122 58002 86704 87362
                   555 00200 91022=
201704240900 AAXX 24094 67551 42580 60905 10239 20172 48540 85230
                   333 58002 85827 83362 91021=
201704240600 AAXX 24064 67551 12205 81205 10172 20172 48538 60064 74345 887//
                   333 10272 20103 58006 88705 88362
                   555 00200 91021=
201704210600 AAXX 21064 67551 11358 80504 10181 20179 48510 60614 76166 867//
                   333 10268 20113 58006 86705 88362
                   555 00195 91021=
201704201200 AAXX 20124 67551 NIL=
201704200600 AAXX 20064 67551 32370 61305 10192 20177 48529 84530
                   333 10267 20120 59004 84607 85362
                   555 00202 91020=
201704190600 AAXX 19064 67551 12370 50904 10185 20172 48533 69914 83730
                   333 10251 20102 59007 83707 83362
                   555 00204 91020=
201704180600 AAXX 18064 67551 12370 81104 10185 20176 48540 60164 8767/
                   333 10261 20112 58008 87706 88360
                   555 00208 91021=
201704130600 AAXX 13064 67551 32475 40904 10199 20162 48524 82130
                   333 10286 20102 58005 82810 82362
                   555 00217 91020=

################################################################################
#  SYNOPS from 67561, Ndola (Zambia) | 13-00S | 028-39E | 1269 m
################################################################################
201704301200 AAXX 30124 67561 42680 60403 10248 20137 48543 70322 86200
                   333 59007 86840 555 66047 77/// 8868/ 98043
                   91021=
201704271200 AAXX 27124 67561 41675 81108 10205 20157 48552 70522 8627/
                   333 58014 81928 86930 88459
                   555 66037 77/// 8893/ 98046 91023=
201704260600 AAXX 26064 67561 11360 81206 10176 20159 48548 60044 70522 8667/
                   333 10259 20167 58003 86708 88459
                   555 00/// 91023=
201704250900 AAXX 25094 67561 NIL=
201704250600 AAXX 25064 67561 11260 70903 10190 20186 48546 60084 72854 85630
                   333 10268 20168 58015 85705 87360
                   555 00/// 91022=
201704240900 AAXX 24094 67561 NIL=
201704230600 AAXX 23064 67561 11359 61009 10194 20164 48536 70422 82532
                   333 10246 20161 59001 82609 85360 82080
                   555 00/// 20001 91021=
201704210600 AAXX 21064 67561 11375 70905 10194 20179 48532 60014 70522 81638
                   333 10265 20175 59004 81707 85360 87280
                   555 00/// 91021=
201704201200 AAXX 20124 67561 NIL=
201704200600 AAXX 20064 67561 11370 70000 10200 20176 48536 69904 70522 8467/
                   333 10265 20180 59000 84706 87459
                   555 00/// 91021=
201704191200 AAXX 19124 67561 41675 61805 10237 20168 48510 71722 85260
                   333 59011 81930 85835 85360
                   555 66/// 77/// 8885/ 98013 91018=
201704190900 AAXX 19094 67561 41575 60904 10251 20176 48537 70522 86200
                   333 59011 86820 91020=
201704190600 AAXX 19064 67561 11260 20000 10200 20173 48537 70500 81430
                   333 10260 20152 59008 81606 82360
                   555 00/// 20037 91021=
201704180600 AAXX 18064 67561 11360 70000 10186 20174 48543 60374 70522 8564/
                   333 10266 20165 58011 85708 87760
                   555 00/// 91022=
201704141200 AAXX 14124 67561 41675 60606 10287 20176 48518 70522 86201
                   333 58003 81942 86845 81080
                   555 66082 77/// 8877/ 98030 91018=
201704140600 AAXX 14064 67561 11960 20906 10210 20181 48538 70500 82030
                   333 10291 20154 58002 82361
                   555 00/// 91021=
201704130600 AAXX 13064 67561 31260 11806 10203 20176 48535 70500 81630
                   333 10285 20147 58010 81708 81360
                   555 00/// 91021=

################################################################################
#  SYNOPS from 67563, Kafironda (Zambia) | 12-36S | 028-07E | 1243 m
################################################################################
201704250900 AAXX 25094 67563 NIL=
201704240900 AAXX 24094 67563 NIL=
201704210600 AAXX 21064 67563 11980 71102 10200 20180 48/// 60054 70222 87070
                   333 10260 20150 58005 87459
                   555 00145=
201704201200 AAXX 20124 67563 NIL=
201704200600 AAXX 20064 67563 11370 71002 10205 20190 48/// 60054 70222 87500
                   333 10260 20160 58001 87610=
201704190600 AAXX 19064 67563 32980 32102 10205 20174 48/// 70200 80008
                   333 10250 20150 59009 83270
                   555 00145=
201704180600 AAXX 18064 67563 11470 80000 10195 20180 48/// 60064 70222 885//
                   333 10//0 20170 59004 88615
                   555 00120=

################################################################################
#  SYNOPS from 67571, Serenje (Zambia) | 13-14S | 030-13E | 1384 m
################################################################################
201704260900 AAXX 26094 67571 41370 81504 10170 20149 48/// 71022 887//
                   333 5//// 88706=
201704260600 AAXX 26064 67571 11260 80904 10152 20142 48/// 60024 71022 887//
                   333 10224 20143 5//// 88704
                   555 00167=
201704251200 AAXX 25124 67571 42582 71504 10211 20174 48/// 70222 8457/
                   333 5//// 84626 87460=
201704250900 AAXX 25094 67571 41378 71204 10195 20178 48/// 75055 877//
                   333 5//// 87709=
201704240900 AAXX 24094 67571 42575 70902 10251 20169 48/// 70522 84538
                   333 5//// 81926 84826 83360 85280=
201704240600 AAXX 24064 67571 32370 71202 10184 20166 48/// 70523 83638
                   333 10278 20163 5//// 83710 81360 83280
                   555 00216=
201704210900 AAXX 21094 67571 42582 80906 10205 20172 48/// 72052 885//
                   333 5//// 88520=
201704210600 AAXX 21064 67571 11380 81205 10180 20169 48/// 69944 75052 887//
                   333 10263 20170 5//// 88708
                   555 00182=
201704201200 AAXX 20124 67571 NIL=
201704200600 AAXX 20064 67571 11376 71203 10187 20168 48/// 69934 75255 877//
                   333 10267 20176 5//// 87707
                   555 00197=
201704180600 AAXX 18064 67571 12480 71205 10183 20154 48/// 69904 70222 875//
                   333 10225 20157 5//// 87612
                   555 00221=
201704130900 AAXX 13094 67571 42682 20605 10268 20152 48/// 70300 81200
                   333 5//// 82835=
201704130600 AAXX 13064 67571 32982 00903 10213 20161 48///
                   333 10286 20155 5////
                   555 00256=
201704120900 AAXX 12094 67571 42682 51206 10251 20157 48/// 70311 85200
                   333 5//// 85830=

################################################################################
#  SYNOPS from 67575, Mkushi (Zambia) | 13-38-00S | 029-26-00E | 1237 m
################################################################################
201704250900 AAXX 25094 67575 NIL=
201704240900 AAXX 24094 67575 NIL=
201704201200 AAXX 20124 67575 NIL=
201704200600 AAXX 20064 67575 NIL=
201704180600 AAXX 18064 67575 NIL=

################################################################################
#  SYNOPS from 67580, Msekera (Zambia) | 13-39S | 032-34E | 1025 m
################################################################################
201704280600 AAXX 28064 67580 32580 51504 10180 20156 48/// 82830
                   333 10260 20151 58004 81820 81622 83360
                   555 00///=
201704270600 AAXX 27064 67580 32580 61506 10196 20179 48/// 86800
                   333 10244 20163 58010 82820 84624
                   555 00///=
201704250900 AAXX 25094 67580 NIL=
201704240900 AAXX 24094 67580 NIL=
201704201200 AAXX 20124 67580 NIL=
201704200600 AAXX 20064 67580 12980 72102 10210 20186 48/// 69904 8703/
                   333 10264 20189 58005 87360
                   555 00///=
201704190600 AAXX 19064 67580 12580 71503 10215 20191 48/// 60024 81538
                   333 10274 20184 59004 81622 84360 85280
                   555 00///=
201704180600 AAXX 18064 67580 12980 72003 10206 20174 48/// 60084 8703/
                   333 10288 20170 59003 87360
                   555 00///=
201704130600 AAXX 13064 67580 32580 21802 10232 20189 48/// 82100
                   333 10318 20177 58008 82826
                   555 00///=

################################################################################
#  SYNOPS from 67581, Chipata (Zambia) | 13-33S | 032-35E | 1028 m
################################################################################
201704270600 AAXX 27064 67581 32660 41203 10208 20154 48578 83130
                   333 10240 20085 58006 83830 81360
                   555 00/// 91024=
201704250900 AAXX 25094 67581 NIL=
201704250600 AAXX 25064 67581 11660 71802 10209 20189 48563 69904 70266 8217/
                   333 10283 20106 58015 82830 87459
                   555 00/// 91022=
201704240900 AAXX 24094 67581 NIL=
201704210600 AAXX 21064 67581 12560 71601 10218 20175 48550 60014 8117/
                   333 10280 20112 58001 81825 87459
                   555 00/// 91021=
201704201200 AAXX 20124 67581 NIL=
201704200600 AAXX 20064 67581 12680 71203 10228 20172 48552 60044 70222 83132
                   333 10262 20180 59003 83830 85360 82080
                   555 00/// 91021=
201704190600 AAXX 19064 67581 12660 61801 10231 20176 48547 60014 83132
                   333 10253 20111 5//// 83832 85360 83080
                   555 00/// 91021=
201704180600 AAXX 18064 67581 NIL=

################################################################################
#  SYNOPS from 67583, Lundazi (Zambia) | 12-17S | 033-12E | 1143 m
################################################################################
201704270600 AAXX 27064 67583 32580 41304 10200 20161 48/// 84500
                   333 10258 20100 5//// 84695
                   555 00///=
201704260600 AAXX 26064 67583 32580 71301 10188 20161 48/// 8257/
                   333 10284 20116 5//// 82615 87360
                   555 00///=
201704250900 AAXX 25094 67583 NIL=
201704250600 AAXX 25064 67583 32975 80000 10202 20188 8807/
                   333 10320 20130 5//// 88359
                   555 00///=
201704240900 AAXX 24094 67583 NIL=
201704240600 AAXX 24064 67583 32980 31201 10230 20185 48/// 83031
                   333 10320 20150 5//// 83360 81080
                   555 00///=
201704210600 AAXX 21064 67583 32680 71201 10220 20192 48/// 84135
                   333 10288 20112 5//// 84829 82360 85280=
201704201200 AAXX 20124 67583 41680 70000 10244 20198 48/// 71792 84935
                   333 5//// 81939 83840 82360 85280=
201704200600 AAXX 20064 67583 12980 71801 10210 20190 48/// 60014 87030
                   333 10278 20172 5//// 87360
                   555 00///=
201704190600 AAXX 19064 67583 12580 31702 10212 20191 48/// 60394 82531
                   333 10274 20104 5//// 82625 81360 81080
                   555 00///=
201704180600 AAXX 18064 67583 32980 71701 10210 20172 48/// 87030
                   333 10293 20126 5//// 87360
                   555 00///=
201704130600 AAXX 13064 67583 32980 30000 10200 20185 48/// 80001
                   333 10314 20156 5//// 83080
                   555 00///=

################################################################################
#  SYNOPS from 67599, Mfuwe (Zambia) | 13-16S | 031-56E | 568 m
################################################################################
201704260600 AAXX 26064 67599 32480 70000 10200 20176 48563 875//
                   333 10296 20185 58010 82612 87625
                   555 00170 91022=
201704250900 AAXX 25094 67599 NIL=
201704250600 AAXX 25064 67599 11960 71605 10210 20197 48556 60034 76022 8707/
                   333 10326 20203 58021 87459
                   555 00190 91021=
201704240900 AAXX 24094 67599 NIL=
201704240600 AAXX 24064 67599 32980 50402 10244 20196 48521 85031
                   333 10305 20191 59008 85360 82080
                   555 00170 91014=
201704210600 AAXX 21064 67599 12980 71805 10222 20204 48541 60204 8707/
                   333 10314 20208 58001 87459
                   555 00202 91019=
201704201200 AAXX 20124 67599 NIL=
201704200600 AAXX 20064 67599 NIL=
201704190600 AAXX 19064 67599 32580 61705 10239 20194 48551 81130
                   333 10285 20203 59007 81825 86360
                   555 00195 91019=
201704180600 AAXX 18064 67599 32480 80000 10214 20198 48546 885//
                   333 10280 20200 58008 88615
                   555 00195 91020=
201704130600 AAXX 13064 67599 32580 21602 10261 20194 48551 81130
                   333 10339 20188 58004 81823 82360
                   555 00174 91018=

################################################################################
#  SYNOPS from 67625, Kalabo (Zambia) | 14-51S | 022-42E | 1033 m
################################################################################
201704260600 AAXX 26064 67625 32480 40912 10186 20169 48/// 84630
                   333 10248 20164 58006 84710 81361
                   555 00158=
201704250900 AAXX 25094 67625 NIL=
201704250600 AAXX 25064 67625 12482 70903 10199 20174 48/// 69904 8563/
                   333 10267 20185 58020 85710 87360
                   555 00182=
201704240900 AAXX 24094 67625 NIL=
201704240600 AAXX 24064 67625 11480 81604 10195 20195 48/// 60614 75055 83623
                   333 10251 20196 59003 83710 87460 87075
                   555 00194=
201704201200 AAXX 20124 67625 NIL=
201704200600 AAXX 20064 67625 32982 70705 10211 20174 48/// 86034
                   333 10285 20170 59006 86361 87075
                   555 00158=
201704190600 AAXX 19064 67625 32982 00905 10217 20183 48///
                   333 10297 20194 58008
                   555 00172=
201704180600 AAXX 18064 67625 NIL=
201704130600 AAXX 13064 67625 32982 10304 10230 20185 48/// 81030
                   333 10304 20189 58003 81360
                   555 00162=

################################################################################
#  SYNOPS from 67633, Mongu (Zambia) | 15-15S | 023-09E | 1052 m
################################################################################
201704280600 AAXX 28064 67633 32980 50905 10180 20165 48548 70222 85030
                   333 10289 20165 58019 85360
                   555 00174 91023=
201704270600 AAXX 27064 67633 32980 40907 10193 20166 48540 70222 84032
                   333 10296 20165 59010 84361 84080
                   555 00163 91021=
201704260600 AAXX 26064 67633 32980 40903 10194 20157 48549 70222 84030
                   333 10260 20165 58016 84360
                   555 00175 91021=
201704250900 AAXX 25094 67633 NIL=
201704250600 AAXX 25064 67633 32980 51804 10196 20170 48532 70222 85030
                   333 10267 20176 59004 85361
                   555 00186 91020=
201704240900 AAXX 24094 67633 NIL=
201704210600 AAXX 21064 67633 32980 70704 10200 20172 48529 70222 8707/
                   333 10314 20183 58002 87460
                   555 00185 91019=
201704201200 AAXX 20124 67633 NIL=
201704200600 AAXX 20064 67633 32980 50905 10200 20170 48527 70222 84031
                   333 10304 20172 59008 84360 82080
                   555 00185 91019=
201704190900 AAXX 19094 67633 42780 10902 10278 20178 48545 70300 81100
                   333 58000 81856 91020=
201704190600 AAXX 19064 67633 32980 00906 10206 20173 48537 70200
                   333 10304 20172 59002
                   555 00/// 91020=
201704180600 AAXX 18064 67633 12980 20907 10214 20179 48539 69904 70200 80001
                   333 10278 20180 58007 82080
                   555 00/// 91020=
201704130600 AAXX 13064 67633 32980 20705 10221 20175 48518 70200 82030
                   333 10320 20184 59003 82360
                   555 00/// 91018=

################################################################################
#  SYNOPS from 67641, Kaoma (Zambia) | 14-48S | 024-48E | 1213 m
################################################################################
201704280600 AAXX 28064 67641 12680 70402 10180 20165 48548 69904 84530
                   333 10275 20168 58005 84630 87360
                   555 00/// 91022=
201704260600 AAXX 26064 67641 32680 70904 10181 20158 48541 82530
                   333 10256 20170 58012 82635 87360
                   555 00/// 91021=
201704250900 AAXX 25094 67641 NIL=
201704250600 AAXX 25064 67641 12580 70907 10177 20166 48530 69904 70222 8457/
                   333 10249 20163 58008 84620 87360
                   555 00/// 91020=
201704240900 AAXX 24094 67641 42680 73104 10221 20194 48530 70222 875//
                   333 58006 87635 91020=
201704240600 AAXX 24064 67641 12680 70000 10190 20178 48524 60124 70262 8157/
                   333 10240 20179 58004 81630 87360
                   555 00/// 91018=
201704210600 AAXX 21064 67641 32980 70901 10191 20179 48523 87030
                   333 10280 20174 58003 87360
                   555 00/// 91018=
201704201200 AAXX 20124 67641 NIL=
201704200600 AAXX 20064 67641 32980 60902 10195 20177 48520 86030
                   333 10//0 20154 59011 86360
                   555 00/// 91018=
201704180600 AAXX 18064 67641 32580 71202 10187 20177 48538 70342 875//
                   333 10//0 20167 58014 87626 91021=
201704130600 AAXX 13064 67641 32980 00403 10210 20184 48512 70200
                   333 10//0 20154 58001
                   555 00/// 91017=

################################################################################
#  SYNOPS from 67655, Mumbwa (Zambia) | 15-04S | 027-11E | 1216 m
################################################################################
201704250900 AAXX 25094 67655 NIL=
201704240900 AAXX 24094 67655 NIL=
201704201200 AAXX 20124 67655 NIL=
201704200600 AAXX 20064 67655 NIL=
201704180600 AAXX 18064 67655 NIL=

################################################################################
#  SYNOPS from 67659, Kafue Polder (Zambia) | 15-46S | 027-55E | 978 m
################################################################################
201704280600 AAXX 28064 67659 32480 82007 10192 20169 48/// 70322 85620
                   555 00///=
201704270600 AAXX 27064 67659 32480 81707 10186 20162 48/// 70222 85410
                   333 1//// 20180 58014 83620 82820 83460
                   555 00///=
201704260600 AAXX 26064 67659 32480 41906 10185 20154 48/// 70322 83230
                   333 10267 20178 58006 83820 81360
                   555 00///=
201704250900 AAXX 25094 67659 NIL=
201704250600 AAXX 25064 67659 32480 82007 10192 20169 48/// 70322 85530
                   333 10274 20178 58003 85620 83360
                   555 00///=
201704240900 AAXX 24094 67659 NIL=
201704210600 AAXX 21064 67659 32480 71805 10201 20178 48/// 70322 84530
                   333 10270 20191 59001 84620 83360
                   555 00///=
201704201200 AAXX 20124 67659 NIL=
201704200600 AAXX 20064 67659 32480 52005 10202 20180 48/// 70322 82230
                   333 10283 20202 59001 82820 83360
                   555 00///=
201704190600 AAXX 19064 67659 32480 21805 10203 20173 48/// 70222 82200
                   333 10264 20200 59001 82820
                   555 00///=
201704180600 AAXX 18064 67659 32480 30904 10200 20176 48/// 70322 82530
                   333 10284 20178 5//// 82620 81360
                   555 00///=
201704130600 AAXX 13064 67659 32480 11206 10225 20174 48/// 70322 81200
                   333 10282 20223 58002 81820
                   555 00///=

################################################################################
#  SYNOPS from 67662, Kabwe Agric (Zambia) | 14-24S | 028-30E | 1165 m
################################################################################
201704280600 AAXX 28064 67662 32480 71502 10168 20158 48/// 86500
                   333 10215 20138 5//// 86611
                   555 00130=
201704270600 AAXX 27064 67662 32480 70902 10178 20157 48/// 875//
                   333 10190 20155 5//// 87611
                   555 00148=
201704260600 AAXX 26064 67662 11365 81503 10156 20147 48/// 69904 72055 887//
                   333 10220 20146 5//// 88707
                   555 00142=
201704250900 AAXX 25094 67662 NIL=
201704250600 AAXX 25064 67662 11360 81204 10171 20169 48/// 60154 72056 887//
                   333 10260 20166 88707
                   555 00163=
201704240900 AAXX 24094 67662 NIL=
201704240600 AAXX 24064 67662 32980 80000 10181 20170 48/// 8807/
                   333 10269 20157 5//// 88360
                   555 00148=
201704210600 AAXX 21064 67662 32980 70902 10189 20166 48/// 87030
                   333 10253 20164 5//// 57360
                   555 00150=
201704201200 AAXX 20124 67662 NIL=
201704200600 AAXX 20064 67662 32480 70902 10189 20175 48/// 82530
                   333 10262 20164 5//// 82611 87360
                   555 00151=
201704190600 AAXX 19064 67662 32480 60000 10181 20172 48/// 84530
                   333 10245 20148 5//// 84612 86360
                   555 00130=
201704180600 AAXX 18064 67662 32480 71705 10180 20172 48/// 85532
                   333 10310 20154 5//// 85612 84360 83080
                   555 00143=
201704130600 AAXX 13064 67662 32480 60902 10201 20184 48/// 86500
                   333 10288 20162 5//// 86614
                   555 00139=

################################################################################
#  SYNOPS from 67663, Kabwe (Zambia) | 14-27S | 028-28E | 1206 m
################################################################################
201704280600 AAXX 28064 67663 32480 20810 10167 20152 48553 82530
                   333 10213 20141 59065 82617 81360
                   555 00///=
201704260600 AAXX 26064 67663 11980 80905 10153 20150 48602 69904 75022 8807/
                   333 10215 20144 58013 88460
                   555 00172=
201704250900 AAXX 25094 67663 NIL=
201704250600 AAXX 25064 67663 11980 80810 10170 20166 48592 60124 76066 8807/
                   333 10280 20164 58016 88460
                   555 00184=
201704240900 AAXX 24094 67663 42580 81307 10225 20177 48584 8557/
                   333 58009 85627 86460=
201704240600 AAXX 24064 67663 32580 80305 10184 20163 48578 8557/
                   333 10272 20162 58009 85627 87460
                   555 00212=
201704201200 AAXX 20124 67663 42580 60609 10233 20181 48552 83570
                   333 58007 83622 85460=
201704200600 AAXX 20064 67663 32980 71308 10182 20173 48563 8707/
                   333 10267 20200 59003 87460
                   555 00200=
201704190900 AAXX 19094 67663 42580 51011 10224 20177 48570 84830
                   333 59003 82820 82622 83360=
201704180600 AAXX 18064 67663 32480 50905 10179 20168 48568 70322 81538
                   333 10223 20152 58002 81616 83360 85280
                   555 00190=
201704130600 AAXX 13064 67663 32480 30908 10204 20184 48558 82530
                   333 10287 20172 58018 82618 82360
                   555 00246=

################################################################################
#  SYNOPS from 67665, Lusaka Internationalairport (Zambia) | 15-19S | 028-27E | 1152 m
################################################################################
201704301800 AAXX 30184 67665 42980 31304 10163 20129 48564 70200 83030
                   333 59007 83360=
201704301500 AAXX 30154 67665 42680 31005 10235 20129 48565 70100 83100
                   333 59008 83845=
201704301200 AAXX 30124 67665 42680 40909 10224 20124 48568 70300 84100
                   333 59005 84830=
201704300900 AAXX 30094 67665 42480 20911 10213 20124 48590 82630
                   333 59007 82516 81360=
201704300600 AAXX 30064 67665 32980 11105 10158 20124 48578 81030
                   333 10254 20//0 59008 81360=
201704300000 AAXX 30004 67665 42980 11202 10128 20111 48559 81030
                   333 59007 81030=
201704291500 AAXX 29154 67665 42680 41510 10210 20138 48568 70222 82830
                   333 59002 82845 81648 84360=
201704290900 AAXX 29094 67665 42480 40911 10219 20149 48587 84500
                   333 58001 84620=
201704290600 AAXX 29064 67665 32380 30910 10159 20124 48585 82630
                   333 58006 82708 83360=
201704281800 AAXX 28184 67665 42980 21104 10166 20141 48574 82030
                   333 10247 58006 82360=
201704281200 AAXX 28124 67665 42580 71006 10213 20131 48576 875//
                   333 58009 87628=
201704280600 AAXX 28064 67665 32480 71006 10159 20143 48579 70222 86530
                   333 58002 86612 82360=
201704280300 AAXX 28034 67665 42980 01304 10136 20129 48559 70200
                   333 59001=
201704280000 AAXX 28004 67665 42980 01102 10136 20129 48560 70200
                   333 58001=
201704272100 AAXX 27214 67665 42980 11003 10146 20136 48572 70200 81030
                   333 58000 81360=
201704271800 AAXX 27184 67665 42980 10904 10161 20143 48567 81030
                   333 58001 81359=
201704271500 AAXX 27154 67665 42680 50909 10209 20147 48567 82230
                   333 58007 82835 85359=
201704271200 AAXX 27124 67665 42580 70907 10213 20152 48567 8653/
                   333 58010 86620 84359=
201704270600 AAXX 27064 67665 42360 80908 10173 20152 48579 70322 8667/
                   333 58014 86710 88359=
201704262100 AAXX 26214 67665 42980 61005 10163 20147 48574 70122 8603/
                   333 58014 86360=
201704261800 AAXX 26184 67665 42680 81004 10170 20141 48568 70222 8453/
                   333 10204 58013 84640 87360=
201704261500 AAXX 26154 67665 42580 81109 10180 20141 48557 70222 8753/
                   333 58014 87620 86360=
201704261200 AAXX 26124 67665 42580 80809 10199 20136 48557 70222 8753/
                   333 58003 87625 86360=
201704260900 AAXX 26094 67665 42480 80714 10188 20139 48574 8657/
                   333 58006 86615 88459=
201704260600 AAXX 26064 67665 12360 80911 10156 20131 48567 8577/
                   333 10210 20//0 58006 85707 88459
                   555 00///=
201704260000 AAXX 26004 67665 42360 80908 10148 20130 48549 8577/
                   333 58004 85707 88459=
201704251800 AAXX 25184 67665 42360 80907 10163 20155 48554 70222 8573/
                   333 58007 85707 88358=
201704251500 AAXX 25154 67665 42460 81008 10181 20161 48543 70222 8657/=
201704251200 AAXX 25124 67665 42460 80707 10186 20161 48553 70222 885//
                   333 58019 88620 91023=
201704250900 AAXX 25094 67665 NIL=
201704250600 AAXX 25064 67665 12360 80809 10167 20144 48560 72052 8777/
                   333 58011 87706 88459=
201704241800 AAXX 24184 67665 42360 81006 10171 20164 48754 8577/
                   333 58017 85708 88459=
201704241200 AAXX 24124 67665 42560 80907 10224 20179 48539 8653/
                   333 58004 86525 87459=
201704240900 AAXX 24094 67665 NIL=
201704240600 AAXX 24064 67665 31458 80805 10166 20158 48550 76162 8557/
                   333 10//0 20//0 58006 85615 87459=
201704240300 AAXX 24034 67665 42980 61203 10174 20151 48529 70222 86030
                   333 58003 86360=
201704240000 AAXX 24004 67665 42960 41202 10170 20154 48540 70200 84030
                   333 59008 84459=
201704232100 AAXX 23214 67665 42980 11304 10169 20150 48549 70200 81030
                   333 58001 81360=
201704231800 AAXX 23184 67665 42980 11204 10181 20158 48534 70100 81030
                   333 58001 81360=
201704231500 AAXX 23154 67665 42680 60906 10231 20161 48526 70122 85530
                   333 59015 85640 82360=
201704231200 AAXX 23124 67665 42680 70607 10228 20148 48536 70322 8653/
                   333 59004 86630 84360=
201704230600 AAXX 23064 67665 42980 60809 10185 20144 48546 70122 81038
                   333 59010 81360 86280=
201704221800 AAXX 22184 67665 42580 70804 10202 20170 48548 70222 85530
                   333 59006 85620 82360
                   555 91022=
201704221500 AAXX 22154 67665 42580 70508 10219 20157 48540 70222 86530
                   333 10254 59002 86625 83360=
201704221200 AAXX 22124 67665 42580 60511 10229 20150 48540 70222 86631
                   333 59003 86725 82360 81080
                   555 910209=
201704220900 AAXX 22094 67665 42980 60613 10229 20140 48560 85631
                   333 59001 85718 85360 83080=
201704220600 AAXX 22064 67665 42380 50813 10187 20146 48555 81630
                   333 10249 58005 81709 85360
                   555 00///=
201704220000 AAXX 22004 67665 42980 31006 10167 20150 48551 83030
                   333 58008 83360=
201704210600 AAXX 21064 67665 32980 50911 10187 20156 48550 85031
                   333 10266 20//0 58000 85360 81080=
201704210300 AAXX 21034 67665 42980 11007 10169 20150 48529 81030
                   333 59001 81360=
201704210000 AAXX 21004 67665 42980 20904 10169 20150 48526 82030
                   333 59002 82360=
201704202100 AAXX 20214 67665 42980 21004 10168 20150 48537 82030
                   333 58000 82360=
201704201800 AAXX 20184 67665 42980 11004 10186 20154 48533 81030
                   333 10266 59001 81360=
201704201500 AAXX 20154 67665 42780 40706 10245 20151 48530 70100 82130
                   333 59004 82850 82360=
201704201200 AAXX 20124 67665 NIL=
201704200900 AAXX 20094 67665 42580 60610 10227 20178 48554 70222 86530
                   333 58000 86625 83360=
201704200600 AAXX 20064 67665 41380 61007 10174 20150 48548 74322 82631
                   333 59003 82706 84360 83080=
201704200300 AAXX 20034 67665 42980 31103 10160 20151 48529 70200 83030
                   333 59003 83360=
201704191800 AAXX 19184 67665 42980 10905 10188 20159 48534 80001
                   333 59003 81080=
201704191500 AAXX 19154 67665 42680 51611 10226 20171 48526 82231
                   333 59005 82840 83359 81080=
201704191200 AAXX 19124 67665 42680 51207 10252 20173 48536 85201
                   333 59009 85832 81080=
201704190900 AAXX 19094 67665 42580 40609 10222 20169 48554 84100
                   333 59012 84822=
201704190600 AAXX 19064 67665 32980 11005 10180 20148 48552 70100 81030
                   333 10243 20//0 5//// 81360=
201704190300 AAXX 19034 67665 41959 01503 10143 20133 48529 74144
                   333 59008=
201704190000 AAXX 19004 67665 41958 01402 10146 20135 48528 74144
                   333 59008=
201704182100 AAXX 18214 67665 42980 01002 10156 20140 48538 70200
                   333 59011=
201704181800 AAXX 18184 67665 42480 10007 10217 20158 48534 70222 82530
                   333 58006 82620 85360
                   555 91021=
201704181500 AAXX 18154 67665 42480 71007 10216 20151 48531 70222 82530
                   333 10242 58010 82620 85360=
201704181200 AAXX 18124 67665 42480 71005 10231 20154 48542 70222 84530
                   333 58006 84618 83360
                   555 91021=
201704180600 AAXX 18064 67665 NIL=
201704171800 AAXX 17184 67665 42780 61206 10191 20168 48544 70222 85530
                   333 58009 85656 84360=
201704171500 AAXX 17154 67665 42780 60806 10227 20165 48529 70222 84230
                   333 58003 84850 84360=
201704171200 AAXX 17124 67665 42680 71107 10253 20160 48542 70222 85530
                   333 58008 85635 85360=
201704170900 AAXX 17094 67665 42460 70811 10204 20138 48554 86770
                   333 58004 86720 87460=
201704170600 AAXX 17064 67665 32360 80908 10171 20147 48550 8577/
                   333 10259 20//0 59001 85708 88459
                   555 00///=
201704161800 AAXX 16184 67665 42980 11104 10194 20174 48534 80001
                   333 59005 81080=
201704161500 AAXX 16154 67665 42680 61207 10225 20188 48526 81962
                   333 59010 81938 84842 83259 85080=
201704161200 AAXX 16124 67665 41680 50910 10242 20194 48532 71722 82362
                   333 59019 82932 84832 83359 82080=
201704160900 AAXX 16094 67665 42580 60808 10232 20179 48554 70222 85530
                   333 59016 85620 84360=
201704151800 AAXX 15184 67665 42980 30000 10183 20165 48537 70100 83030
                   333 59002 83360=
201704151500 AAXX 15154 67665 42480 62807 10225 20174 48535 72922 81900
                   333 58020 85628 81935 82080=
201704151200 AAXX 15124 67665 42480 60000 10244 20195 48536 70200 85530
                   333 58010 84625 85360=
201704141500 AAXX 14154 67665 42580 40705 10275 20162 48523 70200 84101
                   333 10296 58001 84830 81080=
201704141200 AAXX 14124 67665 42580 40707 10288 20158 48537 70200 84100
                   333 58002 84830 555 91019=
201704140600 AAXX 14064 67665 32980 30906 10210 20179 48548 70200 81031
                   333 10//0 20//0 58002 81360 82080=
201704140300 AAXX 14034 67665 42980 01402 10176 20161 48529 70200
                   333 58008=
201704132100 AAXX 13214 67665 42980 01202 10187 20164 48532 70200
                   333 58001=
201704131800 AAXX 13184 67665 41/80 11203 10204 20172 48525 71300 81301
                   333 58004 813// 81080=
201704131500 AAXX 13154 67665 42680 10706 10271 20175 48521 81200
                   333 58000 81840=
201704131200 AAXX 13124 67665 42580 40610 10272 20183 48483 84800
                   333 58005 83827 82628=
201704130900 AAXX 13094 67665 42480 50512 10261 20177 48553 85500
                   333 58001 85620=
201704130600 AAXX 13064 67665 32980 10907 10206 20173 48546 81030
                   333 10292 20//0 58005 81359=
201704130000 AAXX 13004 67665 42980 01504 10170 20157 48521 70200
                   333 58000=
201704122100 AAXX 12214 67665 42980 01502 10181 20162 48530 70200
                   333 58001=
201704121800 AAXX 12184 67665 42980 21104 10201 20163 48522 70100 80001
                   333 10278 58000 82080=
201704121500 AAXX 12154 67665 42780 30503 10269 20145 48521 70120 83160
                   333 58001 83850 81360=
201704121200 AAXX 12124 67665 42680 50407 10271 20145 48527 70222 85100
                   333 58002 85835=
201704120900 AAXX 12094 67665 42480 70611 10242 20143 48551 70222 85800
                   333 59004 82618 84820=
201704120600 AAXX 12064 67665 32380 11007 10194 20171 48539 81600
                   333 10271 20//0 59005 81706
                   555 00///=
201704120300 AAXX 12034 67665 42980 01003 10161 20145 48521 70200
                   333 59008 91019=
201704120000 AAXX 12004 67665 42980 01403 10159 20141 48520 70200
                   333 59005=
201704111500 AAXX 11154 67665 42580 21109 10259 20191 48518 70112 82100
                   333 59007 82845=
201704111200 AAXX 11124 67665 42580 41009 10261 20188 48524 70222 84100
                   333 59009 84835=
201704110600 AAXX 11064 67665 32980 10907 10200 20159 48546 81030
                   333 10270 20//0 59009 81359=
201704110300 AAXX 11034 67665 42980 00000 10146 20128 48523
                   333 59010=
201704110000 AAXX 11004 67665 42980 01103 10143 20129 48522
                   333 59015=
201704101800 AAXX 10184 67665 42980 11403 10194 20145 48530 81030
                   333 10270 59019 81360=
201704101500 AAXX 10154 67665 42680 20808 10254 20122 48524 82200
                   333 59022 82845=
201704101200 AAXX 10124 67665 42680 40908 10247 20144 48532 84200
                   333 59025 84830=
201704100900 AAXX 10094 67665 42580 50510 10229 20184 48557 70222 85500
                   333 59019 85625=
201704100600 AAXX 10064 67665 32480 21007 10184 20164 48551 70100 82500
                   333 10275 20//0 59013 82712=
201704100300 AAXX 10034 67665 42980 01204 10152 20135 48532 70200
                   333 58003=
201704100000 AAXX 10004 67665 42980 01502 10147 20135 48537 70200
                   333 58000=
201704092100 AAXX 09214 67665 42980 01202 10161 20145 48548 70200
                   333 58003=
201704091800 AAXX 09184 67665 42680 21302 10190 20166 48548 70100 82300
                   333 58002 82830 555 91022=
201704091500 AAXX 09154 67665 42680 51010 20146 48547 70222 84230
                   333 10275 58000 84830 81360=
201704091200 AAXX 09124 67665 42680 50910 10254 20142 70222 85200
                   333 58009 85830 555 91022=
201704090600 AAXX 09064 67665 32380 30808 10194 20170 48565 70300 83631
                   333 10270 20//0 58008 83710 81360 82080=
201704081800 AAXX 08184 67665 42980 21104 10192 20160 48546 70200 82030
                   333 10270 58013 82360=
201704081500 AAXX 08154 67665 42780 50906 10238 20164 48544 70122 83202
                   333 58016 83850 83080=
201704081200 AAXX 08124 67665 42680 60709 10253 20169 48551 70122 86200
                   333 58015 86830=
201704080900 AAXX 08094 67665 42480 70712 10226 20166 70222 86530
                   333 58011 84615 82830 83360=
201704080600 AAXX 08064 67665 32480 20811 10195 20155 48558 82500
                   333 10290 20//0 58011 82610=
201704080300 AAXX 08034 67665 42980 01205 10155 20151 48534
                   333 58007=
201704070600 AAXX 07064 67665 32380 20912 10207 20152 48548 82600
                   333 10//0 20//0 59004 82707 81612=
201704070300 AAXX 07034 67665 42380 50705 10163 20155 48529 85630
                   333 59005 85707 81360=
201704070000 AAXX 07004 67665 42980 20903 10177 20164 48534 82030
                   333 59003 82360=
201704062100 AAXX 06214 67665 42980 10903 10181 20167 48560 81030
                   333 59018 81360=
201704061800 AAXX 06184 67665 42480 61104 10195 20179 70222 84530
                   333 59017 82615 82825 83360
                   555 91021=
201704060600 AAXX 06064 67665 32380 21007 10195 20155 48552 81630
                   333 10268 20//0 58015
                   555 00///=
201704060300 AAXX 06034 67665 41/05 91102 10167 20142 74244 89///
                   333 58016 8//// 91021=
201704060000 AAXX 06004 67665 42980 20904 10181 20140 48537 82030
                   333 59016 82360=
201704052100 AAXX 05214 67665 42980 30805 10194 20146 70200 83030
                   333 58007 83360 91023=
201704050600 AAXX 05064 67665 42480 61010 10184 20168 70222 81531
                   333 10196 20//0 58010 81615 82360 84080
                   555 91024=
201704042100 AAXX 04214 67665 42980 31403 10170 20151 48564 70100 83030
                   333 58000 83360=
201704041500 AAXX 04154 67665 42680 71006 10221 20166 48556 83530
                   333 58011 83640 86360=
201704041200 AAXX 04124 67665 42680 70911 10233 20155 48561 875//
                   333 58005 87630=
201704040900 AAXX 04094 67665 42580 61013 10220 20172 48582 70222 86500
                   333 58006 86625=
201704040600 AAXX 04064 67665 32480 31110 10181 20158 48573 70300 82501
                   333 10264 20//0 58005 82615 82080=
201704040300 AAXX 04034 67665 42980 01403 10138 20120 48556 70200
                   333 58012=
201704040000 AAXX 04004 67665 42980 0160/ 10146 20129 48555 70100
                   333 58005=
201704032100 AAXX 03214 67665 42980 21503 10156 20131 48562 70200 80001
                   333 58009 82080=
201704031800 AAXX 03184 67665 42680 31206 10192 20142 70200 82101
                   333 58005 82830 81080
                   555 91023=
201704031500 AAXX 03154 67665 42680 21009 10250 20129 48551 70200 82100
                   333 10264 58007 82830=
201704031200 AAXX 03124 67665 42680 21109 10244 20127 48558 70200 82100
                   333 58004 82830=
201704021800 AAXX 02184 67665 42980 21105 10182 20159 48548 70100 82030
                   333 10269 58000 82360=
201704021500 AAXX 02154 67665 42780 30805 10250 20139 48544 70222 83100
                   333 59003 83850=
201704021200 AAXX 02124 67665 42680 50709 10251 20149 48555 70122 85500
                   333 58004 85635=
201704020900 AAXX 02094 67665 42480 60912 10216 20179 48573 70222 86500
                   333 59006 86622=
201704020600 AAXX 02064 67665 42380 11109 10195 20172 48560 70100 81500
                   333 59001 81718=
201704020300 AAXX 02034 67665 42980 01203 10146 20140 48545 70100
                   333 59003=
201704012100 AAXX 01214 67665 42980 00000 10168 20164 48559 70100
                   333 59007=
201704011800 AAXX 01184 67665 42980 01404 10190 20166 48549 70100
                   333 59008=
201704010900 AAXX 01094 67665 42480 41010 10225 20164 48568 70220 84500
                   333 59019 84625=
201704010600 AAXX 01064 67665 32980 01105 10185 20144 48563
                   333 10//0 20//0 59017=

################################################################################
#  SYNOPS from 67666, Lusaka City Airport (Zambia) | 15-25-00S | 028-28-00E | 1280 m
################################################################################
201704280600 AAXX 28064 67666 32480 70910 10155 20142 48573 878//
                   333 10260 20138 59003 87612 81815
                   555 00/// 91025=
201704270600 AAXX 27064 67666 32380 80910 10163 20147 48573 70222 886//
                   333 10194 20149 58016 88708
                   555 00/// 91025=
201704260600 AAXX 26064 67666 12380 80912 10148 20127 48553 69904 886//
                   333 10201 20140 58006 88708
                   555 00/// 91023=
201704250900 AAXX 25094 67666 NIL=
201704240900 AAXX 24094 67666 NIL=
201704240600 AAXX 24064 67666 11580 80905 10162 20159 48543 60054 72162 8802/
                   333 10246 20160 58007 88459
                   555 00/// 91022=
201704210600 AAXX 21064 67666 32980 50907 10179 20149 48536 85030
                   333 10250 20169 58001 85359
                   555 00/// 91021=
201704201200 AAXX 20124 67666 NIL=
201704200600 AAXX 20064 67666 32480 60907 10180 20161 48540 84530
                   333 10251 20160 59005 84709 85360
                   555 00/// 91021=
201704180600 AAXX 18064 67666 31378 60906 10170 20154 48546 70522 85501
                   333 10246 20150 58001 85609 82080
                   555 00/// 91022=
201704130600 AAXX 13064 67666 32980 10910 10200 20170 48529 81030
                   333 10269 20170 58005 81360
                   555 00/// 91020=

################################################################################
#  SYNOPS from 67667, Mount Makulu (Zambia) | 15-33S | 028-15E | 1213 m
################################################################################
201704280600 AAXX 28064 67667 32580 50906 10172 20149 48/// 84502
                   333 10224 20116 58006 84625 82080
                   555 00///=
201704270600 AAXX 27064 67667 32580 80907 10170 20149 48/// 885//
                   333 10222 20149 58012 88625
                   555 00///=
201704260600 AAXX 26064 67667 12580 70912 10160 20127 48/// 69904 87500
                   333 10198 20145 58008 87625
                   555 00///=
201704250900 AAXX 25094 67667 NIL=
201704250600 AAXX 25064 67667 12580 80906 10170 20155 48/// 60024 885//
                   333 10236 20162 58006 88620
                   555 00///=
201704240900 AAXX 24094 67667 NIL=
201704240600 AAXX 24064 67667 11980 80905 10170 20155 48/// 60044 72162 80008
                   333 10240 20162 58011 88280
                   555 00///=
201704210600 AAXX 21064 67667 32980 80908 10190 20141 48/// 80008
                   333 10270 20168 58004 88280
                   555 00///=
201704201200 AAXX 20124 67667 NIL=
201704200600 AAXX 20064 67667 32580 50906 10188 20161 48/// 83501
                   333 10250 20153 59005 83625 84080=
201704190600 AAXX 19064 67667 32580 10901 10194 20160 48/// 81100
                   333 10230 20148 59006 81825
                   555 00///=
201704180600 AAXX 18064 67667 32580 50906 10182 20150 48/// 85501
                   333 10261 20136 58005 85625 81080
                   555 00///=

################################################################################
#  SYNOPS from 67673, Petauke (Zambia) | 14-15S | 031-17E | 1035 m
################################################################################
201704260900 AAXX 26094 67673 42580 81002 10202 20150 48571 885//
                   333 59003 88630=
201704260600 AAXX 26064 67673 32580 80902 10170 20138 48565 885//
                   333 10270 20154 58008 88625
                   555 00///=
201704250900 AAXX 25094 67673 42580 70901 10200 20169 48574 875//
                   333 58035 87630=
201704250600 AAXX 25064 67673 12580 80902 10185 20178 48576 69914 885//
                   333 10270 20170 58031 88630
                   555 00///=
201704240900 AAXX 24094 67673 NIL=
201704211200 AAXX 21124 67673 42580 70902 10234 20170 48530 8413/
                   333 59002 84830 87360=
201704210600 AAXX 21064 67673 32980 70902 10215 21064 48545 83038
                   333 10274 20185 59001 83360 87280
                   555 00///=
201704201200 AAXX 20124 67673 42680 60802 10264 20175 48537 84231
                   333 58012 84832 86360 84080=
201704200600 AAXX 20064 67673 NIL=
201704181200 AAXX 18124 67673 41680 80000 10220 20175 48536 78022 8617/
                   333 5//// 86832 88460=
201704180900 AAXX 18094 67673 42584 70000 10236 20172 48568 8613/
                   333 5//// 86830 87360=
201704180600 AAXX 18064 67673 32580 70902 10210 20186 48568 8853/
                   333 10284 20160 58002 85625 87360
                   555 00///=
201704130600 AAXX 13064 67673 32980 00302 10230 20180 48550
                   333 10345 20190 59005
                   555 00///=
201704120900 AAXX 12094 67673 42684 60903 10270 20172 48559 86200
                   333 58016 86835=

################################################################################
#  SYNOPS from 67731, Senanga (Zambia) | 16-06S | 023-16E | 1027 m
################################################################################
201704270600 AAXX 27064 67731 32980 309// 10196 20163 48/// 70222 83031
                   333 10270 20162 58007 83360 81080
                   555 00140=
201704260600 AAXX 26064 67731 32480 710// 10196 20159 48/// 70222 84530
                   333 10224 20162 58006 84615 86360
                   555 00146=
201704250900 AAXX 25094 67731 NIL=
201704250600 AAXX 25064 67731 32480 809// 10188 20139 48/// 70222 8357/
                   333 10309 20160 58008 83612 88760
                   555 00142=
201704240900 AAXX 24094 67731 NIL=
201704240600 AAXX 24064 67731 12380 806// 10202 20181 48/// 69934 70222 8377/
                   333 10285 20152 58008 83709 88760
                   555 00141=
201704210600 AAXX 21064 67731 32980 704// 10203 20162 48/// 70222 83578
                   333 10313 20181 58012 83615 85760 86280
                   555 00161=
201704201200 AAXX 20124 67731 NIL=
201704200900 AAXX 20094 67731 42580 418// 10272 20173 48/// 70222 84102
                   333 58002 84825 82080=
201704200600 AAXX 20064 67731 32980 512// 10226 20154 48/// 70222 84032
                   333 10319 20162 59016 84360 82080
                   555 00149=
201704190600 AAXX 19064 67731 32980 009// 10212 20170 48///
                   333 10320 20186 59005
                   555 00138=
201704180600 AAXX 18064 67731 32980 010// 10228 20170 48/// 70000
                   333 10308 20168 58007
                   555 00131=
201704130600 AAXX 13064 67731 32980 112// 10236 20171 48/// 70200 81030
                   333 10288 20186 59007 81360
                   555 00150=

################################################################################
#  SYNOPS from 67741, Sesheke (Zambia) | 17-28S | 024-18E | 949 m
################################################################################
201704260600 AAXX 26064 67741 32680 70901 10172 20161 48556 875//
                   333 10253 20141 58005 87635
                   555 00129=
201704250900 AAXX 25094 67741 NIL=
201704240900 AAXX 24094 67741 NIL=
201704240600 AAXX 24064 67741 12680 80000 10191 20181 48542 60124 885//
                   333 10240 20183 5//// 88630
                   555 00169=
201704210600 AAXX 21064 67741 32980 60000 10185 20168 48540 86040
                   333 10287 20159 5//// 86362
                   555 00146=
201704201200 AAXX 20124 67741 NIL=
201704200600 AAXX 20064 67741 32980 60901 10196 20167 48544 86030
                   333 10289 20141 59007 86362
                   555 00134=
201704180600 AAXX 18064 67741 12980 01001 10193 20174 48551 69904
                   333 10284 20156 5////
                   555 00///=
201704130600 AAXX 13064 67741 32980 30201 10231 20183 48533 83030
                   333 10312 20135 59002 83362
                   555 00122=

################################################################################
#  SYNOPS from 67743, Livingstone (Zambia) | 17-49S | 025-49E | 985 m
################################################################################
201704250900 AAXX 25094 67743 NIL=
201704240900 AAXX 24094 67743 NIL=
201704240600 AAXX 24064 67743 11357 81007 10170 20166 48534 60284 76022 8777/
                   333 10230 20165 58003 86709 86358
                   555 00/// 91021=
201704210600 AAXX 21064 67743 32980 50703 10190 20166 48544 70222 85031
                   333 10295 20153 58000 85359 81075
                   555 00/// 91021=
201704201200 AAXX 20124 67743 NIL=
201704200600 AAXX 20064 67743 NIL=
201704180600 AAXX 18064 67743 NIL=

################################################################################
#  SYNOPS from 67751, Magoye (Zambia) | 16-00S | 027-36E | 1018 m
################################################################################
201704280600 AAXX 28064 67751 32580 30903 10199 20160 48/// 70200 83100
                   333 10244 20140 59009 83820
                   555 00136=
201704270600 AAXX 27064 67751 32480 50403 10201 20106 48/// 70222 85170
                   333 10234 20132 59011 85815
                   555 00123=
201704260600 AAXX 26064 67751 32980 30804 10183 20120 48/// 70200 83100
                   333 10212 20130 59019 83816
                   555 00132=
201704250900 AAXX 25094 67751 NIL=
201704250600 AAXX 25064 67751 12980 81202 10191 20123 48/// 60044 70222 8801/
                   333 10222 20178 59001 88460
                   555 00164=
201704240900 AAXX 24094 67751 NIL=
201704210600 AAXX 21064 67751 32980 70907 10194 20162 8707/
                   333 10272 20156 59003 87360
                   555 00152=
201704201200 AAXX 20124 67751 NIL=
201704200600 AAXX 20064 67751 32980 10903 10206 20176 48/// 81030
                   333 10283 20143 58007 81360
                   555 00140=
201704190600 AAXX 19064 67751 32480 10902 10166 48/// 81100
                   333 10260 20133 59004
                   555 00130=
201704180600 AAXX 18064 67751 32480 10903 10195 20162 48/// 81131
                   333 10334 20140 59005 81819 81360 81080
                   555 00137=

################################################################################
#  SYNOPS from 67753, Choma (Zambia) | 16-50S | 027-04E | 1213 m
################################################################################
201704260600 AAXX 26064 67753 32560 72409 10156 20135 48554 69914 87500
                   333 10215 20140 58007 87615
                   555 00///=
201704250900 AAXX 25094 67753 NIL=
201704240900 AAXX 24094 67753 NIL=
201704240600 AAXX 24064 67753 11560 80000 10176 20168 48547 69964 70500 8255/
                   333 10220 20162 58008 82625 86360
                   555 00///=
201704210600 AAXX 21064 67753 32360 32910 10174 20162 48546 83632
                   333 10256 20130 58002 83708 82360 81080
                   555 00///=
201704201200 AAXX 20124 67753 42660 73207 10240 20160 48523 86202
                   333 59002 86835 81080=
201704200600 AAXX 20064 67753 32960 62805 10178 20162 48537 86030
                   333 10259 20110 59004 86360
                   555 00///=
201704190900 AAXX 19094 67753 42560 62607 10239 20166 48551 86200
                   333 59009 86830=
201704180600 AAXX 18064 67753 32560 31803 10179 20165 48547 72822 81130
                   333 10253 20120 58002 81820 82360
                   555 00///=

################################################################################
#  SYNOPS from 67855, Lupaki (Zambia) | 17-03-00S | 024-46-00E | 1000 m
################################################################################
201705010600 AAXX 01064 67855 31570 11102 10160 20140 3//// 48/// 70500 81500
                   333 20108 5//// 81620=
201704301800 AAXX 30184 67855 NIL=
201704301200 AAXX 30124 67855 41670 53602 10248 20118 3//// 48/// 70511 85200
                   333 5//// 85835=
201704300600 AAXX 30064 67855 31970 10000 10130 20123 38/// 48/// 70500 81030
                   333 20103 5//// 81360=
201704300000 AAXX 30004 67855 NIL=
201704291200 AAXX 29124 67855 41670 50302 10256 20110 38/// 48/// 70511 85100
                   333 5//// 85835=
201704290600 AAXX 29064 67855 31970 01101 10128 20110 3//// 48/// 70500
                   333 20085 5////=
201704281800 AAXX 28184 67855 NIL=
201704281200 AAXX 28124 67855 42675 71402 10262 20125 38/// 48/// 8323/
                   333 5//// 83835 87360=
201704280600 AAXX 28064 67855 32975 71801 10158 20139 3//// 48/// 8707/
                   333 20129 5//// 87360=
201704271200 AAXX 27124 67855 41675 71903 10250 20149 3//// 48/// 70351 8427/
                   333 5//// 84835 87360=
201704270600 AAXX 27064 67855 11570 70901 10168 20148 3//// 48/// 69904 75152 8657/
                   333 20140 5//// 86625 87359=
201704261800 AAXX 26184 67855 NIL=
201704261200 AAXX 26124 67855 42675 50601 10248 20143 3//// 48/// 85230
                   333 5//// 83835 83360=
201704260600 AAXX 26064 67855 31970 10903 10138 20120 3//// 48/// 70500 81030
                   333 20104 5//// 81360=
201704251800 AAXX 25184 67855 NIL=
201704251200 AAXX 25124 67855 42675 70302 10250 20129 3//// 48/// 8317/
                   333 5//// 83830 87360=
201704250600 AAXX 25064 67855 NIL=
201704241800 AAXX 24184 67855 NIL=
201704241200 AAXX 24124 67855 41975 80701 10202 20163 3//// 48/// 70262 8807/
                   333 5//// 88360=
201704240600 AAXX 24064 67855 11960 70403 10140 20134 3//// 48/// 60384 8707/
                   333 20135 5//// 87458=
201704231800 AAXX 23184 67855 NIL=
201704231200 AAXX 23124 67855 41960 70000 10216 20174 38/// 48/// 76062 8707/
                   333 5//// 87458=
201704230600 AAXX 23064 67855 31970 70903 10186 20116 3//// 48/// 70522 8707/
                   333 20162 5//// 87360=
201704221800 AAXX 22184 67855 NIL=
201704221200 AAXX 22124 67855 41970 50908 10286 20125 3//// 48/// 70511 85030
                   333 5//// 85360=
201704220600 AAXX 22064 67855 31970 21802 10176 20128 3//// 48/// 70500 82030
                   333 20146 5//// 82030=
201704211800 AAXX 21184 67855 NIL=
201704211200 AAXX 21124 67855 41670 71601 10288 20128 3//// 48/// 70522 84232
                   333 5//// 84845 87080=
201704210600 AAXX 21064 67855 31970 50000 10174 20130 3//// 48/// 70522 85032
                   333 20117 5//// 85360 83080=
201704200600 AAXX 20064 67855 31970 30901 10156 20143 3//// 48/// 70500 81031
                   333 20118 5//// 81360 83080=
201704191800 AAXX 19184 67855 NIL=
201704191200 AAXX 19124 67855 41670 52801 10278 20134 3//// 48/// 70511 85200
                   333 5//// 85845=
201704190600 AAXX 19064 67855 31970 70000 10190 20159 3//// 48/// 70511 8707/
                   333 20163 5//// 87360=
201704181800 AAXX 18184 67855 NIL=
201704181200 AAXX 18124 67855 42675 50000 10254 20164 3//// 48/// 85200
                   333 5//// 85835=
201704180600 AAXX 18064 67855 31970 00000 10162 20146 3//// 48/// 70500
                   333 20129 5////=
201704171200 AAXX 17124 67855 NIL=
201704170600 AAXX 17064 67855 32975 20305 10172 20133 3//// 48/// 82030
                   333 20145 5//// 82360=
201704161200 AAXX 16124 67855 42675 61603 10270 20178 3//// 48/// 84270
                   333 5//// 84840 86360=
201704160600 AAXX 16064 67855 12575 40702 10184 20175 3//// 48/// 60304 84500
                   333 20168 5//// 84620=
201704151200 AAXX 15124 67855 41675 71801 10286 20177 3//// 48/// 71792 84233
                   333 5//// 81835 83840 87080=
201704150600 AAXX 15064 67855 12575 71801 10184 20173 3//// 48/// 60154 8157/
                   333 20138 5//// 81620 87360=
201704141800 AAXX 14184 67855 NIL=
201704141200 AAXX 14124 67855 NIL=
201704140600 AAXX 14064 67855 NIL=
201704131800 AAXX 13184 67855 NIL=
201704131200 AAXX 13124 67855 42775 50303 10320 20150 3//// 48/// 85100
                   333 5//// 85856=
201704130600 AAXX 13064 67855 31970 10170 10148 3//// 48/// 70500
                   333 20122 5////=
201704121800 AAXX 12184 67855 NIL=
201704121200 AAXX 12124 67855 42775 50403 10300 20148 3//// 48/// 85200
                   333 5//// 85850=
201704120600 AAXX 12064 67855 31970 00402 10196 20148 3//// 48/// 70500
                   333 20124 5////=
201704111200 AAXX 11124 67855 42775 53302 10322 20148 3//// 48/// 85100
                   333 5//// 85856=
