################################################################################
# Query made at 04/17/2022 11:31:14 UTC
# Country like Zamb*
# Time interval: from 10/01/2008 05:30  to 10/31/2008 05:30  UTC
################################################################################

################################################################################
#  SYNOPS from 67413, Mbala (Zambia) | 08-51S | 031-20E | 1673 m
################################################################################
200810210600 AAXX 21064 67413 11550 30000 10205 20174 48567 69914 70500 83200
                   333 10250 20136 58001 83825=
200810140900 AAXX 14094 67413 42680 50909 10280 20104 48528 85200
                   333 58004 85840=
200810131200 AAXX 13124 67413 41680 63005 10243 20129 48400 71722 81903
                   333 58006 81940 84840 82080=
200810080900 AAXX 08094 67413 42780 20212 10270 20101 48510 82200
                   333 59015 82856=
200810071200 AAXX 07124 67413 41775 31212 10275 20095 48500 70500 83200
                   333 59007 83850=
200810070600 AAXX 07064 67413 31970 01625 10200 20115 48543 70500
                   333 10290 20145 5////=

################################################################################
#  SYNOPS from 67441, Mwinilunga (Zambia) | 11-45S | 024-26E | 1361 m
################################################################################
200810270600 AAXX 27064 67441 31975 11010 10225 20126 48558 70500 80001
                   333 10317 20/// 81080=
200810210600 AAXX 21064 67441 11975 70000 10175 20167 48548 60034 76062 8703/
                   333 10320 20162 59001 87460=
200810200600 AAXX 20064 67441 11905 10000 10195 20163 48549 60094 70500 80001
                   333 10335 20145 58003 81080=
200810170600 AAXX 17064 67441 11975 70000 10195 20172 48548 60014 70522 8703/
                   333 10295 20168 87360=
200810140900 AAXX 14094 67441 41680 20605 10290 20130 48553 70500 82100
                   333 58002 82835=
200810140600 AAXX 14064 67441 31975 10000 10200 20152 48551 70500 80001
                   333 10310 20183 59005 81030=
200810131200 AAXX 13124 67441 41678 60407 10294 20135 48519 70521 84231
                   333 5//// 84840 82362 82080=
200810091200 AAXX 09124 67441 41675 62707 10280 20150 48516 70500 81130
                   333 58020 81840 86362=
200810090900 AAXX 09094 67441 41675 73212 10255 20162 48548 70522 81105
                   333 58015 81835 87280=
200810070900 AAXX 07094 67441 41975 00806 10280 20091 48490 70500
                   333 59004=
200810060900 AAXX 06094 67441 41975 00912 10301 20040 48558 70500
                   333 5////=

################################################################################
#  SYNOPS from 67461, Mansa (Zambia) | 11-06S | 028-51E | 1382 m
################################################################################
200810270900 AAXX 27094 67461 41765 10809 10286 20135 48536 70500 81100
                   333 58007 81856=
200810220600 AAXX 22064 67461 11970 72803 10235 20158 48518 69944 70522 80008
                   333 10341 20178 59012 87280=
200810210600 AAXX 21064 67461 11980 73601 10199 20168 48513 69904 76062 8703/
                   333 10350 20191 58010 87361=
200810200600 AAXX 20064 67461 31965 62305 10224 20146 48521 76052 80008
                   333 10342 20159 58000 86280=
200810140900 AAXX 14094 67461 41770 51305 10298 20126 48531 70522 81132
                   333 58002 81856 81360 85080=
200810140600 AAXX 14064 67461 31965 61401 10234 20150 48522 70522 82038
                   333 10306 20159 58003 82363 82080=
200810071200 AAXX 07124 67461 41760 30810 10292 20102 48513 70500 83200
                   333 59008 83857=
200810070600 AAXX 07064 67461 31960 01012 10212 20112 48544 70500
                   333 10307 20127 58004=
200810060900 AAXX 06094 67461 41960 00913 10278 20056 48542 70500
                   333 58013 91020=

################################################################################
#  SYNOPS from 67475, Kasama (Zambia) | 10-13S | 031-08E | 1382 m
################################################################################
200810271200 AAXX 27124 67475 41870 61210 10316 20122 48502 70500 86200
                   333 59004 86857=
200810220600 AAXX 22064 67475 31970 73401 10216 20173 48518 70522 80002
                   333 10336 20154 59006 87080=
200810200600 AAXX 20064 67475 31970 41007 10243 20132 48524 70511 80001
                   333 10330 20168 59004 84080=
200810140600 AAXX 14064 67475 11970 40108 10223 20165 48529 60134 70522 84030
                   333 10313 20170 58002 84361=
200810080900 AAXX 08094 67475 41665 10309 10272 20126 48511 70500 81100
                   333 59016 81842=
200810070600 AAXX 07064 67475 31670 11511 10204 20109 48552 70500 81100
                   333 10299 20151 58003 81830=
200810060900 AAXX 06094 67475 41865 11320 10270 20073 48537 70500 81100
                   333 58012 81857 91021=

################################################################################
#  SYNOPS from 67476, Misamfu (Zambia) | 10-06S | 031-15E | 1536 m
################################################################################
200810210600 AAXX 21064 67476 31970 53308 10235 20158 70522 80001
                   333 10340 20156 59001 85080=

################################################################################
#  SYNOPS from 67477, Mpika (Zambia) | 11-54S | 031-26E | 1400 m
################################################################################
200810270600 AAXX 27064 67477 32680 11210 10214 20130 48541 81100
                   333 10284 20174 59006 81832=
200810220600 AAXX 22064 67477 31962 13403 10250 20056 48516 70500 80001
                   333 10335 20174 59005 81080=
200810200600 AAXX 20064 67477 31776 20908 10260 20105 48519 70510 81101
                   333 10320 20190 59001 81959 82080=
200810170600 AAXX 17064 67477 31974 10908 10249 20106 48523 70500 80001
                   333 10308 20190 59018 81080=
200810141200 AAXX 14124 67477 42880 21103 10300 20085 48495 81130
                   333 5//// 81858 82361=
200810140900 AAXX 14094 67477 41775 71104 10270 20120 48524 70521 8113/
                   333 58005 81856 87361=
200810140600 AAXX 14064 67477 31975 20905 10235 20125 48526 70510 82030
                   333 10300 20155 58002 82361=
200810091200 AAXX 09124 67477 41974 73302 10300 20107 48476 71791 85203
                   333 59004 81959 85859 83080=
200810090900 AAXX 09094 67477 41874 61103 10290 20118 48506 70510 81106
                   333 59006 81857 86828=
200810080900 AAXX 08094 67477 41976 00809 10260 20097 48511 70500
                   333 5////=
200810080600 AAXX 08064 67477 32980 01009 10205 20097 48515
                   333 10294 20151 59041=
200810070600 AAXX 07064 67477 31665 71108 10190 20112 48555 70521 875//
                   333 10270 20164 58014 87630=
200810060900 AAXX 06094 67477 41858 40916 10250 20060 48545 70400 84100
                   333 5//// 84857=

################################################################################
#  SYNOPS from 67481, Isoka (Zambia) | 10-07S | 032-38E | 1360 m
################################################################################
200810020900 AAXX 02094 67481 41976 01109 10294 20079 48507 70500
                   333 5////=

################################################################################
#  SYNOPS from 67531, Zambezi (Zambia) | 13-32S | 023-07E | 1077 m
################################################################################
200810270900 AAXX 27094 67531 42980 00908 10295 20127 48///
                   333 5////=
200810270600 AAXX 27064 67531 32980 01208 10245 20120 48///
                   333 10350 20156 59003=
200810210600 AAXX 21064 67531 11980 73306 10194 20172 48/// 60064 76062 8703/
                   333 10343 20180 58016 87360=
200810200600 AAXX 20064 67531 11978 13607 10240 20164 48/// 69914 70500 80002
                   333 10370 20184 59002 81081=
200810140900 AAXX 14094 67531 42780 13602 10306 20152 48/// 81100
                   333 58002 81856=
200810140600 AAXX 14064 67531 32980 13603 10230 20143 48/// 80001
                   333 10346 20141 59002 81082=
200810090900 AAXX 09094 67531 41978 03408 10301 20153 48/// 70500
                   333 59003=
200810080900 AAXX 08094 67531 41975 00906 10305 20100 48/// 70500
                   333 5////=
200810080600 AAXX 08064 67531 31975 00804 10222 20100 48/// 70500
                   333 10382 20130 5////=

################################################################################
#  SYNOPS from 67551, Solwezi (Zambia) | 12-11S | 026-23E | 1386 m
################################################################################
200810200600 AAXX 20064 67551 32980 13105 10219 20173 48513 80001
                   333 10335 20160 59002 81082=

################################################################################
#  SYNOPS from 67561, Ndola (Zambia) | 13-00S | 028-39E | 1269 m
################################################################################
200810271500 AAXX 27154 67561 41870 50000 20125 48504 70522 85230
                   333 59010 85857 81360=
200810250900 AAXX 25094 67561 41660 11005 10291 48533 70500 81100
                   333 58007 81848=
200810250400 AAXX 25044 67561 41558 30000 10165 20129 48538 70400 83230
                   333 58004 83840 82559=
200810200600 AAXX 20064 67561 31960 10000 10234 20137 48528 70500 80001
                   333 10336 20164 59002 81080=
200810141200 AAXX 14124 67561 41860 61505 10327 20101 48502 70500 86200
                   333 58003 86857=
200810140900 AAXX 14094 67561 41560 20610 10305 20091 48528 70500 82100
                   333 58000 82830=
200810140600 AAXX 14064 67561 31958 10806 10235 20118 48528 70500
                   333 10324 20165 59001=
200810110600 AAXX 11064 67561 11958 30000 10210 20148 48533 60001 70400 83001
                   333 10322 20166 58016 83080
                   555 91021=
200810081200 AAXX 08124 67561 41760 30000 10304 20103 48483 70500 83230
                   333 59040 83858 83361=
200810080900 AAXX 08094 67561 41960 00907 10278 20114 48511 70500
                   333 59039=
200810070600 AAXX 07064 67561 31960 01214 10220 20112 48557 70500
                   333 10310 20150 58012=
200810070400 AAXX 07044 67561 41960 20905 10154 20098 48550 70500 81031
                   333 58007 81360 82080=
200810060900 AAXX 06094 67561 41959 51012 10283 20092 48554 70400 85100
                   333 85857 555 91022=
200810040900 AAXX 04094 67561 41957 00706 10308 20071 48519 70400
                   333 58015 91018=

################################################################################
#  SYNOPS from 67571, Serenje (Zambia) | 13-14S | 030-13E | 1384 m
################################################################################
200810170600 AAXX 17064 67571 31975 21208 10235 20149 48534 70500 80001
                   333 10310 20166 59019 84080=
200810071200 AAXX 07124 67571 41679 61508 10282 20093 48525 70522 86500
                   333 59008 86650=
200810020600 AAXX 02064 67571 31965 00905 10259 20109 48514 70500
                   333 10234 20153 59022=

################################################################################
#  SYNOPS from 67580, Msekera (Zambia) | 13-39S | 032-34E | 1025 m
################################################################################
200810270900 AAXX 27094 67580 41775 60000 10284 20162 48/// 70521 86200
                   333 5//// 86858=
200810210600 AAXX 21064 67580 31975 00000 10282 20114 48/// 70500
                   333 10361 20180 59009=
200810141200 AAXX 14124 67580 41875 60000 10330 20120 48/// 70522 84102
                   333 59003 84857 82080=
200810140900 AAXX 14094 67580 41775 30603 10321 20126 48/// 70500 83100
                   333 58001 83856=
200810131200 AAXX 13124 67580 41775 71205 10300 20132 48/// 70522 83180
                   333 5//// 83856 84360=
200810080900 AAXX 08094 67580 41775 30605 10293 20122 48/// 70500 83100
                   333 5//// 83856=
200810020900 AAXX 02094 67580 41970 00905 10330 20114 48/// 70500
                   333 59025=

################################################################################
#  SYNOPS from 67581, Chipata (Zambia) | 13-33S | 032-35E | 1028 m
################################################################################
200810270900 AAXX 27094 67581 42680 50705 10189 20158 48561 85100
                   333 59010 85840=
200810220600 AAXX 22064 67581 32980 00904 10282 20090 48526
                   333 10360 20//0 59002=
200810210600 AAXX 21064 67581 32980 00805 10281 20096 48528
                   333 10360 20/// 59009=
200810201200 AAXX 20124 67581 42780 51204 10335 20086 48500 85100
                   333 59013 85856=
200810200600 AAXX 20064 67581 32980 00908 10280 20113 48533
                   333 10330 20/// 58000=
200810141200 AAXX 14124 67581 42780 51005 10329 20136 48515 84162
                   333 59003 84856 82360 81080=
200810140900 AAXX 14094 67581 42780 11005 10315 20144 48545 81100
                   333 58004 81856=
200810140600 AAXX 14064 67581 32980 00906 10280 20139 48525 70500
                   333 10295 20/// 58001=
200810081200 AAXX 08124 67581 41670 33401 10320 20142 48500 70500 83840=

################################################################################
#  SYNOPS from 67583, Lundazi (Zambia) | 12-17S | 033-12E | 1143 m
################################################################################
200810270900 AAXX 27094 67583 41670 51003 10294 20159 70522 85200
                   333 59014 85848=
200810210600 AAXX 21064 67583 31970 00901 10291 20116 48/// 70500
                   333 10357 20198 59003=
200810200600 AAXX 20064 67583 31970 31304 10278 20126 48/// 70510 82031
                   333 10344 20175 5//// 82360 81080=
200810141200 AAXX 14124 67583 41670 70901 10301 20122 48522 82130
                   333 5//// 82850 85360=
200810131200 AAXX 13124 67583 41670 50000 10303 20129 48/// 70522 85230
                   333 5//// 85850 81360=
200810090900 AAXX 09094 67583 41770 60201 10315 20133 70522 81108
                   333 59010 81850 85280=
200810070600 AAXX 07064 67583 31670 31205 10230 20146 48/// 70521 83500
                   333 10284 20163 58003 83635=

################################################################################
#  SYNOPS from 67599, Mfuwe (Zambia) | 13-16S | 031-56E | 568 m
################################################################################
200810271200 AAXX 27124 67599 30108 10365 20172 48553 83100
                   333 59011 83857=
200810250900 AAXX 25094 67599 41959 02108 10335 20151 48589 70500
                   333 58012=
200810250600 AAXX 25064 67599 31960 01204 10289 20153 48581 70500
                   333 10375 20//0 58008=
200810220600 AAXX 22064 67599 31959 11505 10310 20219 48541 70522 81030
                   333 10401 20//0 59002 81360=
200810200900 AAXX 20094 67599 42870 20208 10363 20154 48550 81101
                   333 59007 82080=
200810200600 AAXX 20064 67599 32959 00909 10314 20164 48552 70500
                   333 10400 20/// 59005=
200810170600 AAXX 17064 67599 31959 01208 10290 20178 48560 70500
                   333 10385 20//0 59021=
200810141500 AAXX 14154 67599 60905 10360 20156 48521 86030
                   333 59003 81260=
200810140900 AAXX 14094 67599 42770 10605 10360 20176 48561 81130
                   333 59010 81856 81360=
200810131200 AAXX 13124 67599 42780 51807 10355 20159 48534 85230
                   333 59024 85850 82360=
200810121200 AAXX 12124 67599 41659 73003 10315 20182 48542 70522 829//
                   333 58014 82940 87842
                   555 91015=
200810110600 AAXX 11064 67599 11956 01111 10300 20181 48571 69904 70500
                   333 10400 20//0 58018
                   555 91019=
200810090900 AAXX 09094 67599 41970 40308 10348 20170 48546 70511 80002
                   333 59018 84080=
200810081200 AAXX 08124 67599 42880 13404 10345 20156 48520 81100
                   333 59043 81857=
200810080900 AAXX 08094 67599 42980 03606 10312 20146 48550
                   333 59043=
200810070900 AAXX 07094 67599 41759 11514 10299 20147 48587 70500 81100
                   333 59001 81856=
200810070600 AAXX 07064 67599 31659 11510 10258 20151 48586 70500 81100
                   333 10350 20/// 58007 81840=
200810040900 AAXX 04094 67599 41958 01217 10355 20138 48562 70500
                   333 58020 91016=
200810020900 AAXX 02094 67599 41958 00307 10360 20146 48/// 70500
                   333 59028=
200810020600 AAXX 02064 67599 31958 01704 10275 20128 48541 70500
                   333 10395 20//0 59029=
200810010600 AAXX 01064 67599 31957 00000 10261 20130 48562 70500
                   333 10382 20//0=

################################################################################
#  SYNOPS from 67625, Kalabo (Zambia) | 14-51S | 022-42E | 1033 m
################################################################################
200810210600 AAXX 21064 67625 11682 63615 10200 20184 48/// 60014 76022 82230
                   333 10355 20180 58027 82835 86360=
200810200600 AAXX 20064 67625 31975 13614 10254 20184 48/// 70500 80001
                   333 10376 20187 59005 81085=
200810141200 AAXX 14124 67625 41775 40914 10361 20136 48/// 70500 84100
                   333 58005 84850=
200810020900 AAXX 02094 67625 41970 01110 10240 20094 48/// 70500
                   333 59022=

################################################################################
#  SYNOPS from 67633, Mongu (Zambia) | 15-15S | 023-09E | 1052 m
################################################################################
200810220600 AAXX 22064 67633 31975 30904 10241 20171 48511 70522 85030
                   333 10325 20195 59022 85361=
200810200600 AAXX 20064 67633 31960 10909 10260 20177 48517 70500 80001
                   333 10378 20030 59003 81080=
200810170600 AAXX 17064 67633 11960 40706 10235 20172 48526 69964 70500 84030
                   333 10374 20175 59015 84360=
200810141200 AAXX 14124 67633 41760 40306 10357 20073 48508 70500 84200
                   333 58003 84850=
200810140600 AAXX 14064 67633 31960 10706 10206 20059 48525 70500 81030
                   333 10372 20205 59001 81362=
200810091200 AAXX 09124 67633 41860 13303 10370 20042 48484 70500 82100
                   333 59018 81857=
200810090900 AAXX 09094 67633 41760 10907 10335 20066 48501 70500 81100
                   333 59025 81850 91014=
200810070600 AAXX 07064 67633 31960 01011 10225 20081 48544 70500
                   333 10355 20166 58024=
200810060900 AAXX 06094 67633 41958 00911 10320 20067 48538 70500
                   333 58005 91018=
200810010600 AAXX 01064 67633 31960 00106 10260 20045 48528 70500
                   333 10375 20205 59089
                   555 Q10186=

################################################################################
#  SYNOPS from 67641, Kaoma (Zambia) | 14-48S | 024-48E | 1213 m
################################################################################
200810220600 AAXX 22064 67641 11982 71002 10208 20166 48502 60014 76096 87030
                   333 10233 20196 59013 87361=
200810200600 AAXX 20064 67641 32980 72801 10229 20134 48507 87030
                   333 10369 20198 59004 87361=
200810141200 AAXX 14124 67641 41980 41201 10345 20084 48502 70500 84100
                   333 58002 84858=
200810140600 AAXX 14064 67641 31980 10501 10238 20081 48512 70500 81030
                   333 10358 20155 59008 81361=
200810080600 AAXX 08064 67641 31975 03601 10200 20104 48507 70500
                   333 10326 20130 59032=

################################################################################
#  SYNOPS from 67655, Mumbwa (Zambia) | 15-04S | 027-11E | 1216 m
################################################################################
200810210600 AAXX 21064 67655 31975 73404 10248 20140 48524 70522 8707/
                   333 10350 20212 58010 85358 82458=
200810170600 AAXX 17064 67655 31975 00810 10239 20129 48548 70500
                   333 10338 20190 59016=
200810131200 AAXX 13124 67655 41575 60000 10310 20112 48507 70522 86201
                   333 59028 86825 81077=
200810091200 AAXX 09124 67655 41575 30704 10324 20144 48491 70521 83200
                   333 59015 83825=
200810020900 AAXX 02094 67655 41975 00401 10274 20085 48529 70500
                   333 59018=
200810020600 AAXX 02064 67655 31975 01004 10250 20084 48554 70500
                   333 10345 20136 59016=
200810010600 AAXX 01064 67655 31975 00710 10253 20108 48550 70500
                   333 10340 20199 555 91021=

################################################################################
#  SYNOPS from 67659, Kafue Polder (Zambia) | 15-46S | 027-55E | 978 m
################################################################################
200810270900 AAXX 27094 67659 41665 10904 10284 20156 48/// 70500 81100
                   333 5//// 81840=

################################################################################
#  SYNOPS from 67663, Kabwe (Zambia) | 14-27S | 028-28E | 1206 m
################################################################################
200810220600 AAXX 22064 67663 11960 30903 10256 20163 48510 69904 70511 83030
                   333 10354 20217 58001 83360=
200810200600 AAXX 20064 67663 31960 00805 10254 20159 48516 70500
                   333 10348 20194 59006=
200810140900 AAXX 14094 67663 41660 20401 10308 20127 48524 70500 82200
                   333 59001 82840=

################################################################################
#  SYNOPS from 67665, Lusaka Internationalairport (Zambia) | 15-19S | 028-27E | 1152 m
################################################################################
200810301200 AAXX 30124 67665 42980 11403 10342 20134 48515 81100
                   333 59008 81860 91016=
200810300400 AAXX 30044 67665 42980 11404 10189 20//0 48525 81030
                   333 59002 81360=
200810300300 AAXX 30034 67665 42980 11502 10186 20//0 48517 81030
                   333 59002 81360=
200810300000 AAXX 30004 67665 42980 11403 10199 20//0 48511 81030
                   333 59014 81360=
200810292100 AAXX 29214 67665 42980 11405 10226 20//0 48523 81030
                   333 81360 59006=
200810291800 AAXX 29184 67665 42980 41203 10258 20//0 48513 82030
                   333 10362 59003 82360 82080=
200810281800 AAXX 28184 67665 42980 21503 10250 20//0 48520 82030
                   333 10340 59018 82360=
200810281500 AAXX 28154 67665 42780 31205 10330 20123 48512 83200
                   333 59014 83857 555 10340=
200810280400 AAXX 28044 67665 42970 00000 10172 20126 48536
                   333 59011=
200810280300 AAXX 28034 67665 42970 00000 10175 20//0 48534
                   333 59007=
200810280000 AAXX 28004 67665 42970 00000 10179 20//0 48529
                   333 59003=
200810272100 AAXX 27214 67665 42970 00000 10197 20//0 48539
                   333 59012=
200810271800 AAXX 27184 67665 42980 01402 10234 20/// 48535
                   333 10312 59017=
200810271500 AAXX 27154 67665 42780 31003 10298 20145 48526 83100
                   333 59017 83856=
200810271200 AAXX 27124 67665 42680 40704 10294 20139 48536 70500 84200
                   333 59013 84840=
200810270900 AAXX 27094 67665 42680 10809 10255 20157 48560 81100
                   333 59015 81830=
200810270600 AAXX 27064 67665 32980 00908 10206 20148 48565
                   333 10279 20150 59010=
200810261500 AAXX 26154 67665 42670 40708 10264 20127 48538 84100
                   333 59003 84845=
200810261200 AAXX 26124 67665 42660 50704 10264 20133 48545 85200
                   333 58000 85835=
200810260900 AAXX 26094 67665 41660 40807 10238 20148 48574 70522 84200
                   333 58003 84830=
200810260600 AAXX 26064 67665 31960 30813 10214 20140 48574 70500 83500
                   333 10315 20161 58002 83615=
200810251200 AAXX 25124 67665 42780 20811 10303 20111 48550 82100
                   333 58016 82850=
200810250900 AAXX 25094 67665 42670 30805 10274 20144 48575 83100
                   333 58015 83835=
200810250600 AAXX 25064 67665 32959 00910 10229 20134 48575
                   333 10314 20165 58008=
200810250400 AAXX 25044 67665 42959 01204 10165 20090 48551
                   333 58005=
200810250300 AAXX 25034 67665 42980 00000 10169 20//0 48542
                   333 58002=
200810242100 AAXX 24214 67665 42980 00000 10202 20//0 48546
                   333 58024=
200810241200 AAXX 24124 67665 42780 31204 10295 20126 83100
                   333 58000 83850 91019=
200810231800 AAXX 23184 67665 42980 40000 10231 20//0 48521 70500 84030
                   333 10315 58020 84360=
200810231500 AAXX 23154 67665 41759 40000 10276 20193 48508 70500 81931
                   333 58012 819// 82856 82360 84080
                   555 10315=
200810230900 AAXX 23094 67665 41758 71606 10224 20224 48524 79592 8197/
                   333 59035 81945 84850 86459 91019=
200810230400 AAXX 23044 67665 42980 51405 10176 20//0 48517 85030
                   333 58010 85360=
200810230300 AAXX 23034 67665 42980 11403 10175 20//0 48506 81030
                   333 58007 81360=
200810222100 AAXX 22214 67665 41960 31803 10195 20//0 49513 70500
                   333 58011 83360=
200810221800 AAXX 22184 67665 41760 40000 10216 20//0 48503 70522 81932
                   333 58006 81956 83360 82080=
200810221200 AAXX 22124 67665 42760 72304 10269 20131 48496 71766 8193/
                   333 59002 81950 86856 84360=
200810220600 AAXX 22064 67665 31959 30000 10245 20116 48525 70500 83030
                   333 10311 20185 58000 83360=
200810220400 AAXX 22044 67665 42960 10000 10177 20149 48508 81031
                   333 58000 81360 81080=
200810220300 AAXX 22034 67665 42980 00000 10186 20//0 48498
                   333 59001=
200810220000 AAXX 22004 67665 42960 20000 10214 20//0 48498 82030
                   333 58000 82360=
200810211800 AAXX 21184 67665 41770 60000 10238 20//0 48498 70522 81930
                   333 59001 81957 86360=
200810211500 AAXX 21154 67665 41760 70705 10273 20154 48495 70522 81930
                   333 58002 81956 86360=
200810211200 AAXX 21124 67665 42780 72402 10294 20138 48500 84230
                   333 59001 81950 83850 87360=
200810210900 AAXX 21094 67665 42980 60605 10302 20142 48524 86030
                   333 59003 86360=
200810210600 AAXX 21064 67665 12980 71106 10241 20150 48524 60044 87030
                   333 10357 20191 59005 87360=
200810201500 AAXX 20154 67665 41760 50300 10272 20154 48493 72166 8523/
                   333 59008 81950 83850 82360=
200810201200 AAXX 20124 67665 42780 50605 10317 20150 48504 85200
                   333 59013 81950 84850=
200810200900 AAXX 20094 67665 42960 10506 10304 20151 48527 81030
                   333 59012 81360=
200810200600 AAXX 20064 67665 31959 00104 10245 20141 48530 70500
                   333 10332 20185 59011=
200810200400 AAXX 20044 67665 42980 10000 10184 20//0 48507 81030
                   333 59010 81360=
200810200300 AAXX 20034 67665 42980 00000 10184 20//0 48507
                   333 59012=
200810200000 AAXX 20004 67665 42980 00000 10195 20//0 48500
                   333 59006=
200810192100 AAXX 19214 67665 42980 00000 10212 20//0 48517
                   333 58007=
200810191800 AAXX 19184 67665 42960 00000 10246 20//0 48510
                   333 10332 58008=
200810190600 AAXX 19064 67665 31959 00905 10244 20132 48539 70500
                   333 10340 20174 5////=
200810181200 AAXX 18124 67665 42780 41006 10325 20130 48510 84200
                   333 59005 84850 91016=
200810171800 AAXX 17184 67665 42980 11204 10248 20//0 48505 70500 81030
                   333 10340 59022 81360=
200810171500 AAXX 17154 67665 41970 21105 10330 20079 48553 70500 82030
                   333 59027 82360 555 10340=
200810171200 AAXX 17124 67665 42780 40704 10327 20159 48534 84200
                   333 59013 84856 555 91016=
200810170600 AAXX 17064 67665 12970 11006 10229 20158 48541 60184 70500 81080
                   333 10329 20176 59023 81360=
200810170400 AAXX 17044 67665 42980 21405 10176 20//0 48529 82030
                   333 59015 82360=
200810170300 AAXX 17034 67665 42980 11306 10179 20//0 48521 81030
                   333 59013 81360=
200810162100 AAXX 16214 67665 42980 21105 10206 20//0 48535
                   333 58005 82360=
200810161800 AAXX 16184 67665 42770 60000 10221 20//0 48524 81930
                   333 59001 81956 84360=
200810161500 AAXX 16154 67665 41656 72606 10231 20231 48519 79562 8597/
                   333 58010 82940 84942 86459=
200810160400 AAXX 16044 67665 42960 31102 10189 20156 48543 83030
                   333 58015 83360=
200810160300 AAXX 16034 67665 42960 11103 10193 20//0 48543 81030
                   333 58011 81360=
200810160000 AAXX 16004 67665 42960 09005 10216 20//0 48532
                   333 58013=
200810152100 AAXX 15214 67665 42960 30000 10220 20/// 48531 83030
                   333 58013 83360=
200810151800 AAXX 15184 67665 42980 31103 10250 20//0 48529 83030
                   333 10344 58010 83360=
200810151500 AAXX 15154 67665 42980 11408 10316 20105 48518 81030
                   333 58007 81360=
200810151200 AAXX 15124 67665 42880 51203 10334 20124 48528 85200
                   333 58009 85857=
200810141800 AAXX 14184 67665 42960 00000 10238 20//0 48518
                   333 10331 58000=
200810141500 AAXX 14154 67665 42860 50902 10316 20114 48511 70522 85230
                   333 58000 85858 83360=
200810141200 AAXX 14124 67665 42860 60604 10319 20095 48517 70522 86200
                   333 58001 85856=
200810140900 AAXX 14094 67665 42680 10503 10300 20124 48543 81100
                   333 58001 81845=
200810140600 AAXX 14064 67665 32980 00903 10237 20070 48536
                   333 10325 20165 59009=
200810140400 AAXX 14044 67665 42980 10000 10157 20//0 48511 81030
                   333 59011 81360=
200810140300 AAXX 14034 67665 41959 10000 10146 20//0 48506 70500 81030
                   333 59009 81360=
200810140000 AAXX 14004 67665 42959 00000 10169 20//0 48507 70500
                   333 59008=
200810132100 AAXX 13214 67665 42970 11503 10195 20//0 48520 70500 81030
                   333 59010 81360=
200810131800 AAXX 13184 67665 42980 30000 10237 20//0 48518 83030
                   333 10325 59012 83360=
200810131200 AAXX 13124 67665 42680 41005 10313 20092 48515 84200
                   333 59024 84849=
200810130900 AAXX 13094 67665 42680 10704 10283 20133 48542 81100
                   333 59022 81840=
200810130600 AAXX 13064 67665 31970 01002 10212 20146 48542 70500
                   333 10309 20148 59024=
200810121800 AAXX 12184 67665 42980 11202 10225 20//0 48527 81030
                   333 59011 81360=
200810121500 AAXX 12154 67665 42688 30902 10289 20113 48525 70111 83200
                   333 59004 83870 555 91018=
200810121200 AAXX 12124 67665 42780 51004 10283 20122 48536 70222 84200
                   333 58002 85850 555 91019=
200810120900 AAXX 12094 67665 42580 40806 10256 20157 48561 84200
                   333 58005 84828 91022=
200810120600 AAXX 12064 67665 31575 11005 10215 20157 48568 70500 81100
                   333 10315 20165 58012 81820=
200810111800 AAXX 11184 67665 41970 01003 10225 20//0 48538 70500
                   333 10315 58029=
200810111500 AAXX 11154 67665 41970 10905 10289 20140 48528 70500 81100
                   333 58017 81857=
200810111200 AAXX 11124 67665 41970 00705 10295 20136 48536 70500
                   333 58021=
200810110900 AAXX 11094 67665 42960 00805 10269 20132 48557
                   333 58025 555 91022=
200810110600 AAXX 11064 67665 42960 10902 10226 20142 48550 81030
                   333 10356 20197 58026 81360
                   555 91022=
200810110400 AAXX 11044 67665 42980 11102 10194 20148 48536 81030
                   333 58023 81360=
200810110300 AAXX 11034 67665 42960 11204 10196 20//0 48532 81030
                   333 58023 81360=
200810110000 AAXX 11004 67665 42960 00000 10196 20//0 48482
                   333 58020=
200810102100 AAXX 10214 67665 42960 00000 10201 20//0 48517
                   333 58017=
200810101800 AAXX 10184 67665 41760 60000 10213 20/// 48508 81972
                   333 10321 58020 81950 86360 83080=
200810101200 AAXX 10124 67665 41756 52106 10299 20138 48515 76122 85231
                   333 58022 85850 83360 81080 81945
                   555 91017=
200810091800 AAXX 09184 67665 42980 00000 10267 20//0 48496
                   333 10356 59004=
200810091500 AAXX 09154 67665 42860 20000 10327 20124 48485 82100
                   333 59009 82858=
200810091200 AAXX 09124 67665 42870 23302 10331 20121 48494 82200
                   333 59014 82858=
200810091014 AAXX 09104 67665 42870 23302 10331 20121 48494 82858 91014=
200810090900 AAXX 09094 67665 41970 00403 10303 20129 48519 70500
                   333 59020 91017=
200810081800 AAXX 08184 67665 42960 00000 10227 20//0 48495
                   333 59047=
200810081500 AAXX 08154 67665 42980 00000 10304 20109 48491
                   333 59044=
200810081200 AAXX 08124 67665 42760 12402 10205 20119 48505 81100
                   333 59047 81850=
200810080900 AAXX 08094 67665 41960 00904 10252 20113 48533 70500
                   333 59041=
200810080600 AAXX 08064 67665 31960 00807 10188 20104 48530 70500
                   333 10300 20100 59041=
200810080400 AAXX 08044 67665 41960 01505 10118 20094 48513 70500
                   333 59039=
200810080300 AAXX 08034 67665 42980 00000 10128 20//0 48510
                   333 59037=
200810080000 AAXX 08004 67665 42980 00000 10147 20//0 48517
                   333 59035=
200810072100 AAXX 07214 67665 42980 00000 10162 20//0 48532
                   333 59035=
200810071200 AAXX 07124 67665 41760 40606 10271 20103 48547 70511 84100
                   333 58014 84850 91021=
200810070900 AAXX 07094 67665 41760 11010 10237 20126 48580 70500 81100
                   333 58001 81850=
200810070600 AAXX 07064 67665 31560 20813 10200 20125 48575 70500 82500
                   333 10285 20155 58006 82615=
200810061200 AAXX 06124 67665 41759 30808 10279 20089 48562 70500 83100
                   333 58041 83856 555 91022=
200810060900 AAXX 06094 67665 41659 10807 10261 20107 48582 70500 81100
                   333 58034 81845 555 91025=
200810051800 AAXX 05184 67665 41959 11003 10235 48532 70500 81030
                   333 10335 58021 81360=
200810051500 AAXX 05154 67665 31959 21106 10307 20090 48534 70500 82100
                   333 58011 82856 555 10335=
200810050900 AAXX 05094 67665 41959 10803 10296 20117 48553 70500 81100
                   333 59012 81850 555 91021=
200810050600 AAXX 05064 67665 31959 00903 10237 20115 48545 70500
                   333 10345 20171 58006
                   555 91021=
200810041200 AAXX 04124 67665 41958 00605 10330 20100 48512 70500
                   333 58011=
200810040900 AAXX 04094 67665 41957 00607 10310 20067 48542 70500
                   333 59021 91020=
200810040400 AAXX 04044 67665 42957 00000 10172 20//0 48517 70500
                   333 58018=
200810040300 AAXX 04034 67665 42958 00000 10192 20//0 48511 70500
                   333 58006=
200810040000 AAXX 04004 67665 42960 00000 10167 20//0 48496
                   333 58002=
200810032100 AAXX 03214 67665 42960 00000 10211 20//0 48508
                   333 58005=
200810031800 AAXX 03184 67665 42965 31402 10247 20//0 48498 80001
                   333 10361 59001=
200810021800 AAXX 02184 67665 41958 00000 10249 20//0 48500 70500
                   333 10360 59022=
200810021500 AAXX 02154 67665 41959 00602 10335 20069 48497 70500
                   333 59022=
200810021200 AAXX 02124 67665 41959 00703 10339 20035 48514 70500
                   333 59013 Q10164=
200810020900 AAXX 02094 67665 41959 00503 10317 20054 48537 70500
                   333 59019=
200810011200 AAXX 01124 67665 41959 00803 10330 20088 48526 70500
                   333 59010 555 91017=
200810010900 AAXX 01094 67665 41959 00502 10300 20099 48555 70500
                   333 59010=
200810010600 AAXX 01064 67665 31959 00902 10242 20113 48550 70500
                   333 10350 20172 59006=

################################################################################
#  SYNOPS from 67666, Lusaka City Airport (Zambia) | 15-25S | 028-19E | 1280 m
################################################################################
200810270900 AAXX 27094 67666 42680 10910 10250 20174 48544 81100
                   333 59019 81830=
200810210600 AAXX 21064 67666 12980 71006 10245 20158 48514 60024 87070
                   333 10321 20205 59005 87360=
200810170600 AAXX 17064 67666 12980 20910 10231 20169 48530 60084 82030
                   333 10310 20185 59028 82359=
200810141200 AAXX 14124 67666 42780 53004 10315 20154 48507 85200
                   333 58007 85857=
200810140900 AAXX 14094 67666 42680 10908 10294 20157 48538 81200
                   333 59001 81845=
200810131200 AAXX 13124 67666 42780 41304 10304 20141 48498 84300
                   333 59055 81956 83850=
200810091200 AAXX 09124 67666 42780 42803 10324 20166 48482 84200
                   333 59010 84856=
200810080900 AAXX 08094 67666 42980 01204 10248 20126 48518 70500
                   333 59049=
200810071200 AAXX 07124 67666 42680 40709 10260 20140 48532 84200
                   333 59013 84850=
200810070600 AAXX 07064 67666 31475 11812 10195 20138 48566 70500 81100
                   333 10276 20155 58009 81810=
200810060900 AAXX 06094 67666 41675 11018 10260 20140 48561 70500 81100
                   333 58030 81845 91023=
200810020900 AAXX 02094 67666 41970 00916 10310 20110 48522 70500
                   333 59019=
200810020600 AAXX 02064 67666 31905 00913 10264 20098 48525 70500
                   333 10335 20165 59016=
200810010600 AAXX 01064 67666 31975 01008 10250 20130 48540 70500
                   333 10323 20198 59004
                   555 91022=

################################################################################
#  SYNOPS from 67673, Petauke (Zambia) | 14-15S | 031-17E | 1035 m
################################################################################
200810170600 AAXX 17064 67673 31975 00908 10274 20157 48554 70500
                   333 10336 20210 59024=
200810141200 AAXX 14124 67673 41775 63605 10352 20106 48519 70520 86200
                   333 59010 81950 86850=
200810140900 AAXX 14094 67673 41670 20404 10322 20134 48545 70500 82100
                   333 59008 82835=
200810131200 AAXX 13124 67673 41675 50804 10314 20119 48523 70510 85200
                   333 59022 85840=
200810091200 AAXX 09124 67673 41675 40205 10339 20127 48507 70500 82231
                   333 59010 81830 81360 82080=
200810090900 AAXX 09094 67673 41970 23605 10328 20122 48533 70500 80001
                   333 59016 82080=
200810080900 AAXX 08094 67673 41670 12903 10284 20109 48540 70500 81100
                   333 59041=

################################################################################
#  SYNOPS from 67743, Livingstone (Zambia) | 17-49S | 025-49E | 985 m
################################################################################
200810261200 AAXX 26124 67743 42970 00720 10330 20110 48542 70500
                   333 59001=
200810250900 AAXX 25094 67743 41965 00711 10338 20124 48571 70500
                   333 58014=
200810250600 AAXX 25064 67743 31965 00810 10265 20122 48569 70500
                   333 10370 20201 58009=
200810220600 AAXX 22064 67743 32970 00000 10268 20145 48515 70500
                   333 10370 20210 59007=
200810200600 AAXX 20064 67743 11959 61203 10271 20145 48520 69904 70500 84031
                   333 10273 20250 59010 84360 82080=
200810151200 AAXX 15124 67743 41970 41205 10370 20108 48524 70500 84030
                   333 58007 84360=
200810141200 AAXX 14124 67743 41859 31803 10365 20094 48512 70500 83100
                   333 58000 83857=
200810140900 AAXX 14094 67743 41859 00903 10342 20099 48538 70500 81100
                   333 59004 81857=
200810140600 AAXX 14064 67743 31959 10903 10262 20074 48526 70500 81030
                   333 10364 20200 59006 81360=
200810131200 AAXX 13124 67743 41865 30505 10350 20094 48512 70500 82100
                   333 59023=
200810121200 AAXX 12124 67743 41770 01409 10328 20137 48541 70500 81100
                   333 59001 81856 555 91017=
200810110600 AAXX 11064 67743 31959 00811 10225 20162 48556 70500
                   333 10395 20200 58036
                   555 91022=
200810091500 AAXX 09154 67743 41960 01202 10365 20094 48473 70500
                   333 59012=
200810091200 AAXX 09124 67743 41960 03508 10355 20075 48477 70500
                   333 59023=
200810081500 AAXX 08154 67743 41970 01008 10337 20049 48480 70500
                   333 59057=
200810081200 AAXX 08124 67743 41970 00608 10333 20060 48497 70500
                   333 59054=
200810080900 AAXX 08094 67743 41970 00809 10305 20074 48532 70500
                   333 59050=
200810071200 AAXX 07124 67743 41959 00810 10303 20075 48541 70500
                   333 59008=

################################################################################
#  SYNOPS from 67753, Choma (Zambia) | 16-50S | 027-04E | 1213 m
################################################################################
200810271200 AAXX 27124 67753 41770 50907 10308 20118 70521 85200
                   333 85850=
200810200600 AAXX 20064 67753 31960 70605 10236 20125 48/// 70522 80008
                   333 10339 20145 5//// 87280=
200810141200 AAXX 14124 67753 41760 11806 10334 20082 48/// 70500 82100
                   333 5//// 82856=
200810140600 AAXX 14064 67753 31960 10904 10191 20127 48/// 70500 81030
                   333 10320 20157 5//// 81360=
200810131200 AAXX 13124 67753 41760 50603 10302 20084 48/// 70500 85100
                   333 5//// 85856=
200810090900 AAXX 09094 67753 41960 02708 10318 20096 70500
                   333 5////=
200810071200 AAXX 07124 67753 41760 11210 10274 20104 48/// 70500 81100
                   333 5//// 81850=
200810070600 AAXX 07064 67753 31960 00912 10193 20120 48/// 70500
                   333 10288 20152 5////=
200810020900 AAXX 02094 67753 41960 03618 10328 20087 48/// 70500
                   333 5////=

################################################################################
#  SYNOPS from 67855, Lupaki (Zambia) | 17-03-00S | 024-46-00E | 1000 m
################################################################################
200810310000 AAXX 31004 67855 NIL=
200810301800 AAXX 30184 67855 NIL=
200810301200 AAXX 30124 67855 NIL=
200810300600 AAXX 30064 67855 31970 71001 10252 20114 38/// 48/// 70511 8703/
                   333 20195 5//// 87360=
200810300000 AAXX 30004 67855 NIL=
200810291800 AAXX 29184 67855 NIL=
200810291200 AAXX 29124 67855 NIL=
200810290600 AAXX 29064 67855 NIL=
200810290000 AAXX 29004 67855 NIL=
200810281800 AAXX 28184 67855 NIL=
200810281200 AAXX 28124 67855 NIL=
200810280600 AAXX 28064 67855 NIL=
200810280000 AAXX 28004 67855 NIL=
200810271800 AAXX 27184 67855 NIL=
200810271200 AAXX 27124 67855 NIL=
200810270600 AAXX 27064 67855 NIL=
200810270000 AAXX 27004 67855 NIL=
200810261800 AAXX 26184 67855 NIL=
200810261200 AAXX 26124 67855 NIL=
200810251200 AAXX 25124 67855 NIL=
200810250600 AAXX 25064 67855 NIL=
200810250000 AAXX 25004 67855 NIL=
200810241200 AAXX 24124 67855 NIL=
200810240600 AAXX 24064 67855 NIL=
200810240000 AAXX 24004 67855 NIL=
200810231800 AAXX 23184 67855 NIL=
200810231200 AAXX 23124 67855 NIL=
200810230600 AAXX 23064 67855 NIL=
200810230000 AAXX 23004 67855 NIL=
200810221800 AAXX 22184 67855 NIL=
200810221200 AAXX 22124 67855 NIL=
200810220600 AAXX 22064 67855 NIL=
200810220000 AAXX 22004 67855 NIL=
200810211800 AAXX 21184 67855 NIL=
200810211200 AAXX 21124 67855 NIL=
200810210600 AAXX 21064 67855 11970 72001 10246 20142 3//// 48/// 60094 70522 87030
                   333 20189 5//// 87360=
200810210000 AAXX 21004 67855 NIL=
200810201800 AAXX 20184 67855 NIL=
200810201200 AAXX 20124 67855 NIL=
200810200600 AAXX 20064 67855 31965 70501 10269 20106 3//// 48/// 70511 87030
                   333 20198 5//// 87360=
200810200000 AAXX 20004 67855 NIL=
200810191200 AAXX 19124 67855 NIL=
200810190600 AAXX 19064 67855 31965 10902 10250 20139 3//// 48/// 70500 81030
                   333 20212 5//// 81360=
200810190000 AAXX 19004 67855 NIL=
200810181800 AAXX 18184 67855 NIL=
200810181200 AAXX 18124 67855 NIL=
200810180600 AAXX 18064 67855 31965 00901 10260 20112 3//// 48/// 70500
                   333 20150 5////=
200810180000 AAXX 18004 67855 NIL=
200810171800 AAXX 17184 67855 NIL=
200810171200 AAXX 17124 67855 NIL=
200810170600 AAXX 17064 67855 NIL=
200810170000 AAXX 17004 67855 NIL=
200810161800 AAXX 16184 67855 NIL=
200810161200 AAXX 16124 67855 NIL=
200810160600 AAXX 16064 67855 NIL=
200810160000 AAXX 16004 67855 NIL=
200810151800 AAXX 15184 67855 NIL=
200810151200 AAXX 15124 67855 NIL=
200810150600 AAXX 15064 67855 31965 01105 10264 20104 3//// 48/// 70500
                   333 20144 5////=
200810150000 AAXX 15004 67855 NIL=
200810141800 AAXX 14184 67855 NIL=
200810141200 AAXX 14124 67855 NIL=
200810140600 AAXX 14064 67855 NIL=
200810140000 AAXX 14004 67855 NIL=
200810131800 AAXX 13184 67855 NIL=
200810131200 AAXX 13124 67855 NIL=
200810130000 AAXX 13004 67855 NIL=
200810121800 AAXX 12184 67855 NIL=
200810121200 AAXX 12124 67855 NIL=
200810111800 AAXX 11184 67855 NIL=
200810111200 AAXX 11124 67855 NIL=
200810110600 AAXX 11064 67855 31965 00503 10224 20152 38/// 48/// 70500
                   333 20187 5////=
200810110000 AAXX 11004 67855 NIL=
200810101800 AAXX 10184 67855 NIL=
200810101200 AAXX 10124 67855 NIL=
200810100600 AAXX 10064 67855 31965 00801 10260 20064 3//// 48/// 70500
                   333 20144 5////=
200810100000 AAXX 10004 67855 NIL=
200810091800 AAXX 09184 67855 NIL=
200810091200 AAXX 09124 67855 41970 00501 10368 20087 3//// 48/// 70500
                   333 5////=
200810090000 AAXX 09004 67855 NIL=
200810081800 AAXX 08184 67855 NIL=
200810081200 AAXX 08124 67855 NIL=
200810080600 AAXX 08064 67855 NIL=
200810071800 AAXX 07184 67855 NIL=
200810071200 AAXX 07124 67855 NIL=
200810070600 AAXX 07064 67855 NIL=
200810070000 AAXX 07004 67855 NIL=
200810061800 AAXX 06184 67855 NIL=
200810061200 AAXX 06124 67855 NIL=
200810060600 AAXX 06064 67855 31660 50906 10228 20134 48/// 70511 85500
                   333 20200 5//// 85640=
200810060000 AAXX 06004 67855 NIL=
200810051800 AAXX 05184 67855 NIL=
200810051200 AAXX 05124 67855 NIL=
200810050000 AAXX 05004 67855 NIL=
